Origin Time       2025/03/30 21:30:00
Lat.              38.535
Long.             142.295
Depth. (km)       44
Mag.              4.3
Station Code      MYG019
Station Lat.      38.7513
Station Long.     140.7226
Station Height(m) 144
Record Time       2025/03/30 21:31:33
Sampling Freq(Hz) 100Hz
Duration Time(s)  60
Dir.              E-W
Scale Factor      7845(gal)/8223790
Max. Acc. (gal)   2.467
Last Correction   2025/03/30 21:31:32
Memo.             
[...]
    -824     -807     -726     -584     -410     -213     -153     -356 
    -643     -772     -753     -714     -712     -733     -729     -643 
    -510     -442     -479     -529     -542     -573     -614     -604 
    -607     -668     -689     -706     -754     -684     -515     -446 
    -471     -503     -558     -618     -623     -626     -684     -730 
    -727     -730     -715     -638     -534     -450     -407     -423 
    -517     -642     -708     -664     -580     -591     -681     -700 
    -604     -526     -534     -519     -484     -553     -643     -622 
    -594     -662     -734     -729     -683     -637     -580     -514 
    -464     -434     -456     -568     -710     -795     -826     -791 
    -645     -484     -450     -477     -477     -537     -637     -661 
    -699     -812     -846     -720     -531     -353     -226     -263 
    -490     -702     -738     -699     -720     -766     -808     -850 
    -766     -548     -352     -225     -216     -384     -607     -751 
    -838     -908     -895     -738     -552     -427     -305     -260 
    -440     -680     -761     -734     -687     -638     -660     -777 
    -861     -756     -523     -341     -247     -252     -414     -653 
    -841     -936     -900     -750     -626     -576     -522     -444 
    -434     -519     -584     -585     -600     -616     -587     -558 
    -567     -592     -653     -724     -738     -670     -583     -517 
    -426     -348     -413     -567     -665     -731     -772     -734 
    -707     -727     -679     -571     -506     -514     -581     -634 
    -623     -658     -770     -796     -679     -546     -459     -406 
    -421     -472     -486     -514     -614     -711     -708     -631 
    -577     -562     -560     -580     -595     -577     -585     -670 
    -780     -797     -704     -585     -514     -521     -565     -568 
    -548     -558     -591     -654     -716     -665     -521     -400 
    -341     -368     -504     -699     -859     -901     -823     -711 
    -660     -642     -575     -492     -461     -463     -486     -571 
    -680     -708     -658     -634     -653     -650     -619     -583 
    -544     -544     -604     -669     -692     -660     -573     -484 
    -469     -514     -523     -506     -554     -625     -626     -618 
    -635     -611     -567     -558     -546     -527     -575     -661 
    -707     -737     -750     -695     -612     -544     -481     -475 
    -554     -639     -656     -635     -642     -687     -738     -757 
    -707     -592     -471     -394     -392     -434     -453     -488 
    -618     -776     -859     -862     -801     -679     -545     -498 
    -542     -610     -654     -643     -591     -530     -480     -491 
    -552     -611     -668     -733     -805     -801     -643     -448 
    -333     -271     -313     -504     -714     -824     -837     -780 
    -711     -631     -503     -368     -310     -368     -491     -618 
    -753     -850     -834     -761     -735     -723     -653     -569 
    -508     -438     -405     -448     -533     -627     -704     -739 
    -737     -675     -550     -450     -445     -517     -618     -661 
    -599     -553     -616     -675     -630     -552     -530     -554 
    -604     -660     -665     -615     -579     -600     -657     -700 
    -679     -577     -490     -525     -629     -679     -688     -681 
    -612     -557     -606     -656     -627     -550     -460     -429 
    -519     -654     -726     -703     -630     -572     -573     -607 
    -612     -594     -584     -603     -645     -665     -631     -589 
    -576     -542     -450     -384     -415     -517     -668     -811 
    -822     -699     -589     -550     -522     -495     -530     -641 
    -741     -756     -715     -670     -629     -583     -541     -533 
    -575     -650     -718     -720     -623     -500     -430     -413 
    -454     -535     -599     -654     -712     -734     -726     -675 
    -581     -544     -558     -525     -487     -548     -637     -638 
    -575     -538     -595     -707     -770     -720     -580     -502 
    -572     -622     -567     -554     -611     -641     -648     -635 
    -579     -540     -577     -607     -610     -656     -689     -629 
    -560     -564     -572     -573     -619     -652     -623     -604 
    -627     -615     -533     -471     -472     -480     -507     -571 
    -594     -549     -548     -641     -741     -791     -783     -712 
    -608     -533     -514     -546     -616     -664     -641     -594 
    -575     -569     -580     -614     -615     -562     -517     -537 
    -627     -716     -768     -810     -799     -691     -558     -472 
    -446     -463     -487     -517     -531     -515     -546     -635 
    -696     -716     -688     -577     -494     -513     -515     -490 
    -531     -603     -649     -707     -735     -684     -607     -576 
    -585     -581     -553     -561     -598     -603     -595     -603 
    -616     -637     -631     -589     -588     -662     -762     -828 
    -831     -730     -533     -365     -340     -402     -476     -579 
    -697     -743     -702     -638     -598     -595     -585     -502 
    -399     -405     -521     -645     -739     -797     -807     -801 
    -780     -685     -554     -476     -452     -446     -457     -506 
    -589     -622     -581     -572     -598     -595     -589     -568 
    -500     -486     -579     -670     -714     -746     -739     -707 
    -716     -722     -649     -534     -438     -363     -332     -369 
    -438     -556     -760     -923     -926     -823     -703     -598 
    -517     -481     -523     -602     -635     -672     -737     -724 
    -618     -527     -484     -465     -526     -652     -700     -668 
    -637     -569     -476     -453     -496     -561     -650     -710 
    -711     -731     -768     -712     -589     -511     -475     -449 
    -480     -548     -554     -498     -476     -513     -564     -600 
    -616     -634     -650     -670     -733     -768     -677     -522 
    -437     -487     -649     -810     -854     -730     -523     -413 
    -460     -557     -581     -507     -452     -514     -652     -795 
    -868     -795     -641     -540     -535     -627     -719     -702 
    -653     -634     -567     -510     -557     -591     -542     -513 
    -517     -496     -510     -607     -666     -622     -596     -612 
    -581     -549     -557     -549     -535     -541     -568     -627 
    -697     -715     -648     -564     -537     -531     -573     -668 
    -679     -634     -638     -607     -556     -611     -688     -707 
    -745     -750     -615     -471     -440     -445     -464     -557 
    -714     -855     -881     -718     -472     -368     -475     -619 
    -646     -596     -548     -507     -496     -542     -569     -534 
    -552     -665     -750     -770     -773     -702     -567     -526 
    -585     -619     -623     -600     -522     -479     -473     -411 
    -411     -579     -784     -907     -905     -801     -668     -508 
    -324     -244     -340     -544     -733     -780     -692     -635 
    -669     -673     -585     -472     -417     -444     -530     -670 
    -807     -815     -668     -506     -494     -614     -702     -707 
    -703     -704     -697     -626     -490     -454     -562     -673 
    -757     -804     -735     -619     -546     -448     -303     -247 
    -372     -583     -697     -704     -706     -719     -738     -693 
    -544     -454     -511     -562     -581     -648     -706     -703 
    -689     -635     -548     -546     -581     -511     -391     -387 
    -535     -742     -907     -950     -858     -719     -625     -549 
    -464     -444     -480     -507     -541     -548     -506     -530 
    -610     -591     -513     -500     -529     -548     -610     -707 
    -718     -660     -661     -657     -565     -517     -544     -510 
    -452     -496     -583     -618     -637     -697     -818     -939 
    -962     -839     -611     -440     -400     -405     -467     -643 
    -764     -691     -564     -507     -491     -477     -461     -486 
    -635     -869     -972     -888     -751     -607     -445     -334 
    -340     -438     -572     -661     -657     -602     -534     -465 
    -471     -546     -535     -471     -544     -688     -754     -778 
    -754     -702     -734     -761     -685     -615     -600     -588 
    -583     -571     -494     -411     -445     -588     -722     -783 
    -805     -774     -668     -583     -546     -477     -413     -425 
    -488     -549     -568     -544     -513     -537     -625     -688 
    -684     -688     -722     -720     -634     -471     -340     -361 
    -490     -615     -702     -720     -704     -739     -799     -774 
    -645     -542     -584     -618     -490     -396     -496     -637 
    -726     -787     -772     -742     -770     -751     -614     -469 
    -446     -535     -598     -549     -419     -271     -253     -434 
    -627     -679     -696     -743     -707     -580     -494     -457 
    -452     -565     -753     -839     -846     -838     -753     -638 
    -583     -537     -452     -396     -410     -480     -607     -724 
    -703     -548     -436     -475     -595     -727     -872     -939 
    -854     -735     -669     -568     -405     -284     -280     -395 
    -567     -689     -711     -687     -706     -735     -711     -641 
    -556     -518     -564     -608     -579     -541     -554     -567 
    -515     -436     -441     -577     -739     -799     -754     -645 
    -498     -406     -444     -540     -573     -554     -631     -843 
   -1016     -977     -754     -541     -483     -550     -625     -591 
    -434     -337     -390     -454     -481     -538     -603     -679 
    -815     -899     -816     -680     -602     -538     -488     -490 
    -499     -533     -627     -679     -643     -643     -697     -711 
    -656     -518     -324     -230     -333     -533     -710     -801 
    -762     -643     -565     -589     -666     -718     -715     -688 
    -661     -630     -583     -514     -472     -545     -684     -731 
    -657     -544     -427     -375     -467     -627     -731     -803 
    -846     -789     -707     -654     -571     -529     -627     -726 
    -652     -479     -356     -334     -453     -615     -648     -633 
    -670     -683     -714     -807     -804     -696     -627     -529 
    -319     -153     -126     -183     -332     -639    -1021    -1239 
   -1159     -870     -550     -368     -390     -486     -519     -579 
    -737     -818     -718     -564     -403     -260     -282     -410 
    -448     -523     -773     -940     -849     -681     -607     -619 
    -669     -695     -669     -670     -749     -793     -722     -614 
    -548     -498     -460     -469     -496     -503     -546     -619 
    -567     -427     -476     -680     -784     -765     -649     -460 
    -433     -595     -676     -649     -631     -558     -448     -437 
    -499     -546     -600     -666     -676     -638     -615     -584 
    -525     -540     -639     -700     -673     -623     -616     -666 
    -739     -754     -679     -608     -618     -656     -654     -666 
    -715     -688     -611     -562     -391     -112      -31     -206 
    -511     -909    -1142     -990     -739     -672     -648     -527 
    -417     -365     -338     -429     -676     -866     -882     -842 
    -742     -521     -337     -303     -349     -473     -654     -801 
    -961    -1077     -947     -623     -399     -407     -553     -696 
    -757     -676     -453     -225     -197     -415     -654     -695 
    -615     -602     -654     -679     -664     -610     -562     -639 
    -793     -834     -761     -714     -677     -553     -405     -399 
    -503     -518     -445     -425     -423     -386     -406     -495 
    -588     -711     -870     -994    -1046    -1013     -824     -517 
    -298     -290     -396     -508     -604     -653     -648     -661 
    -679     -615     -514     -475     -496     -521     -538     -550 
    -495     -436     -546     -741     -818     -795     -750     -716 
    -747     -778     -700     -556     -479     -515     -599     -629 
    -589     -540     -518     -548     -588     -548     -490     -579 
    -693     -646     -610     -718     -797     -835     -942     -955 
    -716     -457     -405     -414     -344     -276     -222     -163 
    -291     -693    -1078    -1171    -1023     -800     -612     -492 
    -414     -384     -422     -457     -456     -479     -540     -579 
    -542     -444     -368     -346     -367     -519     -804     -992 
    -978     -908     -819     -598     -267        1       54     -139 
    -411     -616     -758     -820     -847     -943    -1009     -886 
    -672     -554     -487     -280       40      176      -21     -376 
    -734    -1111    -1486    -1803    -2053    -2160    -2026    -1728 
   -1398    -1069     -730     -345      136      634      945      978 
     804      511      166     -198     -622    -1147    -1621    -1717 
   -1352     -857     -510     -256      -40        5     -234     -770 
   -1375    -1615    -1327     -718      -24      621     1206     1696 
    1713      876     -540    -1823    -2461    -2421    -2050    -1721 
   -1620    -1694    -1661    -1310     -799     -495     -626    -1004 
   -1119     -623      406     1483     1985     1737     1080      264 
    -692    -1621    -2222    -2403    -2207    -1667    -1016     -569 
    -365     -352     -562     -799     -747     -476     -271     -163 
     -43       78      140       94      -89     -387     -754    -1155 
   -1543    -1771    -1575     -874     -160     -135     -743    -1193 
   -1111     -868     -735     -711     -800     -773     -348      193 
     415      460      612      739      612      144     -633    -1394 
   -1664    -1412    -1109    -1208    -1786    -2425    -2448    -1672 
    -619      172      656      996     1175     1119      913      526 
    -224    -1225    -2141    -2708    -2658    -1969    -1121     -515 
    -163     -144     -514     -838     -684     -233      132      164 
    -298    -1016    -1382    -1221     -924     -700     -438      -64 
     359      610      476       40     -527    -1134    -1580    -1688 
   -1526    -1124     -454      103      155      -55     -198     -365 
    -561     -689     -884    -1067     -895     -472     -172     -125 
    -411     -885    -1030     -681     -279     -198     -437     -764 
    -943     -969     -978    -1097    -1421    -1768    -1656     -897 
      32      484      392      220      193      141      -25     -353 
    -858    -1250    -1367    -1386    -1367    -1329    -1206     -774 
    -291     -121      -37       45      -81     -341     -685    -1075 
   -1189     -954     -693     -627     -764     -793     -321      457 
     946      816       91     -899    -1621    -1733    -1324     -900 
    -935    -1198    -1152     -845     -598     -441     -382     -406 
    -338     -229     -322     -495     -423     -184     -190     -591 
   -1011    -1061     -757     -311        1      -81     -410     -679 
   -1038    -1566    -1811    -1529     -986     -450      -94      -76 
    -297     -355      -78      184      160       -8     -183     -427 
    -814    -1308    -1737    -1906    -1714    -1147     -430       -1 
    -124     -561     -792     -553      -66      261      280      147 
      35      -44     -274     -762    -1193    -1227     -950     -610 
    -423     -610     -990    -1008     -668     -591     -880    -1059 
    -907     -426      136      203     -368    -1105    -1518    -1375 
   -1044    -1151    -1549    -1698    -1425     -689      205      568 
     276     -143     -348     -341     -291     -372     -511     -562 
    -557     -549     -579     -675     -758     -747     -608     -432 
    -375     -284      -41       -6     -342     -803    -1206    -1344 
   -1135     -865     -747     -749     -801     -708     -286      202 
     241     -259     -915    -1332    -1324     -984     -619     -449 
    -552     -873    -1090     -880     -275      405      733      396 
    -440    -1167    -1317     -946     -444     -172     -274     -637 
    -936     -857     -490     -237     -376     -814    -1158    -1181 
    -922     -448      -71     -149     -548     -935    -1236    -1439 
   -1480    -1345    -1012     -557     -217      -63       16        8 
    -128     -314     -467     -611     -774     -896     -981    -1016 
    -834     -508     -336     -355     -502     -724     -854     -783 
    -503      -86      282      461      318     -220     -785     -868 
    -498     -170     -275     -742    -1188    -1240     -874     -498 
    -444     -700    -1112    -1503    -1729    -1722    -1460    -1007 
    -419      205      510      178     -481     -820     -683     -371 
    -170     -301     -665     -776     -486     -234     -329     -683 
   -1196    -1671    -1759    -1405     -864     -309      145      369 
     352      132     -225     -550     -749     -749     -434      -59 
     -79     -383     -588     -737    -1007    -1332    -1645    -1846 
   -1657    -1057     -427      -74      -66     -341     -661     -800 
    -770     -643     -419     -124      220      495      386      -48 
    -349     -433     -565     -877    -1305    -1613    -1534     -982 
    -291     -102     -526     -947     -986     -796     -544     -344 
    -344     -538     -745     -787     -716     -707     -656     -438 
    -357     -573     -714     -572     -328     -105      -25     -217 
    -473     -610     -810    -1146    -1391    -1398    -1156     -776 
    -531     -537     -639     -733     -711     -448     -114      -32 
    -137     -171     -166     -233     -306     -333     -384     -549 
    -850    -1250    -1667    -1840    -1571    -1073     -673     -456 
    -391     -399     -252      114      359      203     -152     -353 
    -342     -328     -454     -751    -1143    -1375    -1333    -1179 
    -924     -514     -168      -87     -214     -471     -796    -1019 
   -1062    -1085    -1121    -1007     -789     -625     -471     -345 
    -291     -221     -232     -444     -629     -606     -464     -382 
    -549     -868     -989     -843     -554     -257      -94      -22 
      13     -113     -459     -884    -1143    -1047     -778     -700 
    -770     -668     -380     -178     -245     -642    -1219    -1582 
   -1483    -1040     -500      -90      116      179      109      -33 
    -191     -507     -953    -1224    -1200     -939     -533     -238 
    -249     -453     -675     -826     -876     -893     -916     -877 
    -781     -660     -544     -503     -523     -630     -864    -1021 
    -935     -734     -606     -544     -486     -486     -569     -600 
    -433     -144       24      -76     -410     -785     -963     -935 
    -886     -878     -868     -820     -645     -326     -120     -229 
    -467     -584     -553     -361      -78      -18     -287     -619 
    -930    -1281    -1456    -1282     -945     -652     -454     -361 
    -290     -191     -143     -194     -399     -727     -905     -773 
