Origin Time       2025/03/30 21:30:00
Lat.              38.535
Long.             142.295
Depth. (km)       44
Mag.              4.3
Station Code      MYG006
Station Lat.      38.5660
Station Long.     140.9767
Station Height(m) 17
Record Time       2025/03/30 21:31:30
Sampling Freq(Hz) 100Hz
Duration Time(s)  60
Dir.              N-S
Scale Factor      7845(gal)/8223790
Max. Acc. (gal)   3.134
Last Correction   2025/03/30 21:31:29
Memo.             
[...]
    -950     -934     -909     -900     -892     -911     -938     -922 
    -900     -900     -857     -812     -849     -896     -874     -851 
    -869     -873     -839     -831     -877     -913     -924     -946 
    -932     -855     -803     -823     -827     -772     -756     -815 
    -859     -907     -999    -1047    -1048    -1047     -985     -885 
    -854     -842     -760     -677     -696     -800     -919     -959 
    -922     -946    -1055    -1075     -977     -900     -838     -720 
    -633     -654     -757     -897    -1011    -1036    -1019    -1021 
    -984     -868     -772     -777     -839     -858     -838     -870 
    -920     -913     -940    -1007    -1004     -959     -939     -897 
    -838     -803     -738     -653     -676     -781     -849     -908 
    -959     -923     -877     -901     -938     -973    -1024    -1011 
    -881     -764     -780     -859     -895     -920     -974    -1021 
   -1032     -981     -897     -881     -901     -824     -672     -564 
    -548     -633     -819     -980    -1031    -1054    -1030     -888 
    -778     -858    -1023    -1089    -1050     -990     -918     -823 
    -734     -679     -688     -749     -805     -834     -859     -927 
   -1035    -1096    -1050     -938     -838     -796     -814     -857 
    -874     -858     -835     -810     -793     -815     -884     -972 
   -1034    -1075    -1093    -1039     -924     -819     -723     -634 
    -608     -635     -670     -757     -915    -1086    -1200    -1173 
   -1042     -945     -895     -823     -758     -773     -835     -831 
    -762     -735     -792     -888     -980    -1026    -1030     -997 
    -882     -739     -700     -760     -827     -895     -965    -1017 
   -1051    -1067    -1036     -950     -841     -726     -638     -642 
    -729     -819     -891     -981    -1089    -1124    -1043     -913 
    -774     -684     -708     -777     -835     -924     -996     -990 
    -967     -990    -1043    -1058    -1013     -951     -892     -838 
    -788     -734     -689     -692     -765     -845     -866     -891 
    -950     -966     -911     -822     -745     -739     -799     -886 
   -1005    -1093    -1073     -994     -912     -837     -826     -859 
    -853     -838     -870     -892     -880     -904     -989    -1048 
   -1015     -953     -912     -864     -807     -765     -731     -706 
    -691     -669     -665     -727     -851     -963    -1020    -1047 
   -1053    -1036    -1009     -954     -891     -857     -807     -754 
    -792     -895     -949     -924     -905     -930     -973    -1011 
   -1001     -942     -874     -777     -673     -672     -762     -843 
    -888     -907     -901     -909     -923     -899     -880     -891 
    -851     -768     -766     -868     -988    -1082    -1143    -1150 
   -1089     -957     -810     -724     -699     -689     -708     -793 
    -903     -973    -1034    -1096    -1101    -1040     -947     -857 
    -787     -706     -630     -626     -696     -796     -899     -974 
   -1001     -981     -947     -940     -963     -977     -962     -930 
    -892     -851     -824     -820     -831     -862     -908     -927 
    -934     -955     -940     -900     -908     -942     -946     -919 
    -870     -822     -796     -772     -743     -742     -760     -761 
    -774     -834     -909     -966    -1003    -1017     -993     -942 
    -907     -874     -801     -720     -704     -727     -738     -784 
    -897    -1044    -1147    -1112     -985     -885     -816     -761 
    -742     -739     -751     -822     -927    -1004    -1054    -1081 
   -1042     -935     -785     -630     -553     -588     -666     -769 
    -922    -1051    -1077    -1048    -1027    -1012     -996     -955 
    -870     -789     -742     -726     -757     -823     -891     -953 
    -977     -935     -892     -903     -928     -920     -905     -903 
    -865     -805     -808     -841     -837     -858     -919     -950 
    -982    -1048    -1082    -1058    -1015     -949     -869     -841 
    -855     -861     -882     -900     -872     -855     -858     -791 
    -695     -691     -723     -734     -789     -865     -891     -923 
    -984     -993     -951     -919     -889     -843     -818     -819 
    -808     -788     -801     -855     -923     -967     -954     -915 
    -918     -945     -976    -1015     -996     -892     -807     -789 
    -787     -804     -845     -868     -895     -959    -1013    -1040 
   -1057    -1020     -953     -911     -862     -824     -861     -893 
    -859     -816     -795     -795     -818     -835     -843     -847 
    -832     -807     -805     -841     -878     -876     -828     -787 
    -803     -864     -924     -949     -930     -901     -861     -797 
    -769     -828     -903     -916     -924     -955     -957     -962 
   -1026    -1059     -984     -889     -859     -854     -850     -895 
    -969     -994     -962     -901     -841     -800     -761     -734 
    -769     -826     -839     -838     -861     -897     -936     -967 
    -972     -931     -862     -812     -807     -828     -857     -888 
    -908     -885     -843     -868     -939     -972     -988    -1015 
   -1004     -945     -865     -800     -781     -801     -822     -839 
    -869     -901     -922     -936     -949     -942     -909     -878 
    -851     -805     -780     -804     -834     -846     -877     -928 
    -950     -931     -918     -915     -904     -882     -866     -870 
    -880     -872     -868     -886     -907     -911     -904     -896 
    -888     -901     -918     -905     -900     -904     -862     -811 
    -800     -795     -776     -769     -788     -847     -922     -954 
    -947     -949     -942     -872     -805     -859     -962     -985 
    -959     -923     -855     -810     -841     -903     -940     -963 
    -958     -900     -838     -849     -880     -851     -807     -819 
    -861     -872     -884     -924     -943     -926     -893     -837 
    -783     -777     -784     -756     -754     -816     -869     -866 
    -885     -970    -1061    -1085    -1013     -908     -872     -891 
    -891     -892     -905     -861     -766     -738     -812     -907 
    -943     -912     -869     -839     -788     -747     -788     -897 
    -992    -1015     -997     -997     -989     -942     -912     -924 
    -905     -804     -702     -697     -750     -793     -850     -900 
    -907     -907     -939     -990    -1040    -1088    -1096    -1009 
    -859     -742     -664     -599     -614     -735     -864     -924 
    -936     -916     -899     -916     -936     -924     -901     -858 
    -769     -691     -707     -801     -891     -938     -988    -1073 
   -1105    -1026     -932     -885     -841     -820     -823     -792 
    -773     -838     -938    -1005    -1027    -1016     -981     -935 
    -904     -880     -843     -799     -750     -716     -723     -768 
    -834     -923    -1013    -1065    -1066    -1016     -919     -805 
    -722     -691     -699     -722     -749     -792     -876     -973 
   -1011     -990     -973     -972     -958     -923     -909     -958 
   -1023    -1031    -1003     -973     -904     -810     -756     -746 
    -774     -835     -886     -904     -908     -885     -819     -773 
    -789     -820     -846     -881     -904     -896     -893     -912 
    -897     -830     -778     -766     -769     -776     -800     -861 
    -930     -942     -907     -868     -858     -935    -1042    -1077 
   -1070    -1050     -978     -886     -807     -764     -808     -897 
    -947     -970     -992     -990     -958     -912     -878     -878 
    -865     -810     -758     -776     -874     -972     -982     -954 
    -935     -874     -780     -739     -747     -746     -746     -762 
    -758     -750     -776     -792     -789     -841     -931    -1003 
   -1054    -1085    -1070     -996     -895     -830     -831     -873 
    -896     -896     -931     -984     -959     -905     -913     -936 
    -928     -922     -945     -982     -990     -954     -909     -876 
    -851     -828     -800     -810     -873     -905     -878     -851 
    -850     -851     -831     -795     -801     -850     -878     -870 
    -859     -888     -939     -946     -897     -859     -870     -903 
    -919     -927     -940     -927     -854     -758     -691     -658 
    -660     -700     -776     -884     -984     -997     -945     -903 
    -870     -865     -919     -984    -1032    -1077    -1078    -1028 
    -986     -963     -949     -954     -966     -953     -922     -901 
    -908     -935     -936     -864     -738     -648     -649     -718 
    -811     -915    -1001    -1019     -939     -807     -724     -742 
    -781     -774     -784     -858     -912     -892     -843     -805 
    -793     -814     -838     -855     -919    -1030    -1084    -1026 
    -945     -900     -830     -720     -670     -714     -788     -869 
    -942     -980    -1019    -1077    -1105    -1097    -1071     -997 
    -881     -810     -810     -827     -854     -913     -969     -982 
    -965     -942     -932     -951     -962     -922     -854     -788 
    -734     -739     -812     -876     -889     -876     -792     -665 
    -614     -658     -761     -889     -947     -903     -824     -749 
    -718     -762     -816     -818     -832     -889     -891     -858 
    -885     -909     -873     -847     -864     -888     -931    -1015 
   -1098    -1132    -1109    -1054     -958     -810     -692     -684 
    -724     -743     -804     -920     -986    -1015    -1070    -1066 
    -961     -877     -847     -807     -796     -866     -945     -946 
    -888     -826     -797     -812     -850     -868     -845     -826 
    -849     -862     -851     -857     -846     -789     -768     -826 
    -889     -912     -946    -1003    -1016     -978     -950     -942 
    -916     -865     -834     -839     -862     -895     -924     -928 
    -919     -928     -946     -932     -888     -828     -787     -801 
    -850     -885     -918     -950     -961     -953     -913     -850 
    -803     -772     -770     -824     -877     -866     -853     -884 
    -885     -843     -839     -864     -870     -886     -916     -934 
    -958     -990     -996     -974     -920     -827     -764     -774 
    -823     -905    -1003    -1034     -988     -922     -845     -770 
    -772     -816     -810     -791     -826     -841     -818     -831 
    -868     -859     -812     -776     -784     -823     -882     -965 
   -1038    -1058    -1046    -1021     -993     -984     -994     -999 
   -1016    -1040     -989     -870     -796     -804     -838     -859 
    -859     -830     -804     -822     -830     -780     -745     -765 
    -799     -828     -839     -846     -916    -1034    -1097    -1078 
   -1023     -938     -801     -652     -580     -604     -652     -681 
    -750     -891    -1028    -1105    -1131    -1112    -1046     -936 
    -820     -761     -762     -804     -874     -923     -946     -974 
    -951     -881     -855     -850     -827     -837     -873     -889 
    -884     -876     -877     -870     -858     -909    -1027    -1121 
   -1147    -1108    -1012     -909     -838     -756     -684     -679 
    -708     -731     -766     -838     -908     -913     -865     -826 
    -810     -796     -805     -864     -920     -939     -943     -930 
    -874     -828     -839     -878     -918     -959     -977     -969 
    -977    -1009    -1032    -1016     -947     -854     -778     -731 
    -751     -864     -976    -1003    -1000    -1005     -965     -912 
    -918     -908     -846     -799     -761     -692     -669     -762 
    -851     -834     -832     -882     -865     -830     -872     -909 
    -888     -831     -730     -621     -584     -630     -719     -857 
   -1028    -1154    -1196    -1171    -1073     -949     -870     -815 
    -758     -766     -877    -1013    -1086    -1102    -1107    -1063 
    -943     -820     -797     -851     -903     -951     -994     -976 
    -935     -911     -820     -681     -631     -673     -739     -853 
    -994    -1071    -1046     -924     -761     -684     -750     -903 
   -1058    -1131    -1096    -1004     -895     -832     -882     -963 
    -958     -945    -1020    -1135    -1247    -1387    -1532    -1584 
   -1483    -1308    -1190    -1146    -1093     -992     -850     -679 
    -459     -187       54      129        6     -183     -298     -301 
    -193       18      299      564      695      661      549      386 
      81     -322     -669     -969    -1325    -1694    -1996    -2253 
   -2494    -2706    -2799    -2658    -2295    -1848    -1475    -1259 
   -1185    -1260    -1487    -1723    -1794    -1690    -1506    -1254 
    -874     -411      -18      190      203       45     -259     -606 
    -843     -924     -903     -820     -738     -742     -862    -1082 
   -1375    -1723    -2039    -2158    -2053    -1826    -1490    -1115 
    -885     -811     -720     -549     -329      -39      318      591 
     665      610      450      156     -176     -427     -561     -515 
    -226      270      868     1394     1641     1478      885      -28 
   -1040    -1926    -2556    -2901    -2951    -2743    -2448    -2223 
   -2050    -1933    -1941    -1991    -1945    -1888    -1965    -2173 
   -2448    -2721    -2913    -3040    -3141    -3146    -2901    -2296 
   -1331     -151      958     1794     2284     2404     2246     1971 
    1655     1323      997      689      371      -22     -492     -931 
   -1224    -1381    -1485    -1552    -1587    -1684    -1880    -2076 
   -2204    -2295    -2367    -2407    -2398    -2259    -1790    -1016 
    -221      464      988     1162      891      315     -303     -792 
   -1183    -1575    -1969    -2313    -2509    -2438    -2057    -1418 
    -631      139      684      895      843      608      159     -475 
   -1107    -1595    -1949    -2092    -1811    -1123     -349      294 
     738      872      652      193     -398    -1080    -1836    -2623 
   -3298    -3697    -3759    -3450    -2779    -1881     -939      -94 
     521      850      919      727      253     -391     -976    -1264 
   -1220     -976     -614     -198       59       -2     -311     -741 
   -1252    -1755    -2137    -2382    -2435    -2201    -1752    -1233 
    -688     -163      245      486      576      596      589      460 
     124     -314     -756    -1216    -1638    -1898    -2002    -2016 
   -1980    -1902    -1728    -1464    -1212    -1023     -923     -923 
    -924     -857     -760     -666     -588     -510     -406     -265 
     -68      147      272      305      299      187      -79     -432 
    -845    -1344    -1825    -2180    -2409    -2521    -2511    -2403 
   -2209    -1914    -1507    -1040     -623     -356     -245     -203 
    -178     -179     -178     -147     -147     -187     -222     -279 
    -405     -565     -726     -908    -1171    -1598    -2107    -2419 
   -2361    -1992    -1467     -953     -548     -257      -95      -60 
     -82      -93      -76      -72     -103     -105      -75     -114 
    -224     -364     -604     -977    -1410    -1842    -2250    -2579 
   -2808    -2943    -2940    -2767    -2467    -2035    -1455     -830 
    -271      201      552      737      758      580      241      -91 
    -305     -415     -433     -313      -93       93      147       13 
    -326     -777    -1219    -1610    -1915    -2076    -2099    -1973 
   -1669    -1259     -882     -639     -573     -670     -892    -1174 
   -1447    -1668    -1845    -1950    -1948    -1823    -1568    -1194 
    -762     -365      -72      106      190      187      121       -1 
    -209     -472     -656     -635     -444     -183       86      270 
     274      133     -102     -464     -920    -1389    -1883    -2405 
   -2843    -3141    -3341    -3379    -3153    -2705    -2091    -1339 
    -619     -140       82       95      -59     -267     -433     -552 
    -641     -691     -662     -561     -445     -342     -287     -294 
    -318     -295     -170       24      167      206      112     -156 
    -541     -977    -1431    -1759    -1841    -1748    -1588    -1412 
   -1263    -1215    -1290    -1439    -1570    -1617    -1574    -1495 
   -1393    -1196     -897     -612     -419     -299     -240     -291 
    -441     -571     -567     -446     -338     -371     -540     -757 
    -993    -1217    -1333    -1331    -1247    -1094     -905     -722 
    -596     -600     -738     -974    -1252    -1462    -1553    -1574 
   -1526    -1402    -1228     -997     -704     -391     -112      112 
     261      274      128     -118     -425     -796    -1161    -1418 
   -1584    -1707    -1756    -1717    -1665    -1641    -1555    -1302 
    -955     -672     -467     -295     -236     -351     -562     -785 
    -996    -1179    -1318    -1374    -1308    -1150     -981     -855 
    -764     -662     -529     -367     -205      -94      -89     -216 
    -444     -680     -849     -922     -907     -823     -704     -608 
    -580     -611     -704     -853     -999    -1128    -1269    -1374 
   -1389    -1347    -1260    -1081     -854     -707     -719     -918 
   -1250    -1571    -1782    -1883    -1895    -1827    -1717    -1583 
   -1412    -1177     -900     -622     -367     -149       29      160 
     194       95     -126     -437     -787    -1125    -1393    -1536 
   -1525    -1344    -1028     -661     -315      -56       58       29 
     -70     -176     -303     -488     -688     -858    -1034    -1233 
   -1383    -1428    -1408    -1381    -1358    -1359    -1377    -1317 
   -1158    -1027    -1034    -1188    -1440    -1694    -1856    -1873 
   -1740    -1494    -1216     -982     -828     -739     -641     -503 
    -391     -315     -228     -167     -167     -151      -98      -83 
    -139     -230     -313     -363     -396     -423     -450     -504 
    -585     -680     -819     -986    -1135    -1260    -1335    -1306 
   -1219    -1147    -1101    -1077    -1084    -1139    -1260    -1412 
   -1547    -1637    -1678    -1680    -1653    -1557    -1341    -1058 
    -807     -568     -303      -83       51      112       74      -47 
    -225     -472     -704     -796     -787     -808     -877     -939 
   -1012    -1128    -1244    -1335    -1443    -1588    -1718    -1764 
   -1732    -1667    -1566    -1428    -1285    -1156    -1024     -849 
    -627     -392     -163       25       98       10     -205     -510 
    -826    -1042    -1132    -1135    -1053     -896     -681     -414 
    -151       25       98       83      -10     -178     -388     -606 
    -826    -1075    -1367    -1649    -1833    -1902    -1888    -1806 
   -1679    -1514    -1297    -1069     -886     -749     -665     -658 
    -695     -724     -746     -788     -834     -878     -953    -1020 
   -1015     -935     -847     -804     -814     -859     -901     -889 
    -827     -761     -684     -587     -527     -546     -622     -723 
    -843     -949     -994    -1004    -1044    -1112    -1140    -1109 
   -1062    -1024     -993     -988     -989     -943     -866     -830 
    -858     -949    -1081    -1181    -1201    -1175    -1121    -1023 
