Origin Time       2025/03/30 21:30:00
Lat.              38.535
Long.             142.295
Depth. (km)       44
Mag.              4.3
Station Code      MYG003
Station Lat.      38.7349
Station Long.     141.3116
Station Height(m) 32
Record Time       2025/03/30 21:31:22
Sampling Freq(Hz) 100Hz
Duration Time(s)  60
Dir.              U-D
Scale Factor      7845(gal)/8223790
Max. Acc. (gal)   3.481
Last Correction   2025/03/30 21:31:21
Memo.             
[...]
  -11529   -11527   -11529   -11531   -11531   -11531   -11530   -11530 
  -11529   -11529   -11529   -11529   -11530   -11531   -11531   -11530 
  -11530   -11529   -11530   -11530   -11527   -11531   -11534   -11530 
  -11529   -11530   -11531   -11529   -11527   -11531   -11533   -11529 
  -11527   -11529   -11533   -11534   -11531   -11529   -11529   -11529 
  -11530   -11530   -11529   -11529   -11529   -11529   -11529   -11530 
  -11533   -11531   -11529   -11531   -11531   -11529   -11530   -11533 
  -11530   -11529   -11531   -11533   -11533   -11533   -11533   -11531 
  -11531   -11533   -11531   -11530   -11534   -11535   -11531   -11530 
  -11530   -11531   -11531   -11533   -11533   -11531   -11530   -11531 
  -11533   -11533   -11530   -11530   -11531   -11531   -11531   -11531 
  -11533   -11534   -11533   -11530   -11527   -11527   -11531   -11533 
  -11530   -11529   -11531   -11530   -11530   -11533   -11533   -11531 
  -11530   -11529   -11530   -11531   -11530   -11530   -11533   -11533 
  -11529   -11529   -11533   -11531   -11527   -11529   -11529   -11529 
  -11531   -11531   -11529   -11529   -11530   -11531   -11530   -11530 
  -11531   -11530   -11527   -11527   -11529   -11529   -11530   -11531 
  -11530   -11529   -11530   -11531   -11531   -11531   -11529   -11527 
  -11529   -11530   -11529   -11531   -11531   -11530   -11530   -11530 
  -11530   -11530   -11529   -11529   -11531   -11531   -11530   -11530 
  -11531   -11531   -11530   -11531   -11531   -11529   -11527   -11530 
  -11531   -11533   -11533   -11530   -11530   -11531   -11533   -11531 
  -11531   -11531   -11531   -11533   -11533   -11529   -11530   -11531 
  -11529   -11531   -11531   -11529   -11531   -11534   -11533   -11533 
  -11533   -11531   -11530   -11529   -11529   -11530   -11531   -11530 
  -11529   -11529   -11530   -11530   -11527   -11529   -11530   -11529 
  -11529   -11530   -11531   -11530   -11529   -11530   -11529   -11527 
  -11530   -11531   -11527   -11526   -11529   -11530   -11530   -11531 
  -11530   -11529   -11530   -11530   -11529   -11529   -11531   -11533 
  -11530   -11530   -11531   -11530   -11529   -11531   -11530   -11529 
  -11530   -11530   -11529   -11529   -11530   -11530   -11530   -11530 
  -11530   -11530   -11530   -11529   -11531   -11533   -11530   -11529 
  -11530   -11529   -11527   -11530   -11531   -11529   -11529   -11530 
  -11530   -11529   -11529   -11527   -11529   -11531   -11531   -11530 
  -11530   -11530   -11529   -11530   -11533   -11534   -11531   -11527 
  -11531   -11533   -11530   -11530   -11531   -11531   -11531   -11529 
  -11526   -11529   -11531   -11529   -11530   -11531   -11530   -11531 
  -11531   -11529   -11527   -11530   -11531   -11531   -11531   -11533 
  -11533   -11530   -11530   -11531   -11529   -11529   -11531   -11530 
  -11530   -11531   -11527   -11526   -11529   -11529   -11526   -11524 
  -11526   -11524   -11526   -11530   -11526   -11522   -11526   -11526 
  -11524   -11538   -11546   -11547   -11580   -11605   -11541   -11458 
  -11504   -11599   -11588   -11480   -11362   -11357   -11511   -11616 
  -11539   -11449   -11481   -11610   -11740   -11610   -11325   -11596 
  -12247   -11961   -10720   -10328   -11556   -12780   -12275   -10740 
  -10365   -11565   -12576   -12263   -11299   -10918   -11322   -11522 
  -11283   -11531   -12123   -11951   -11195   -11065   -11533   -11404 
  -10933   -11426   -12509   -12565   -11261   -10264   -10658   -11470 
  -12128   -12746   -12515   -11176   -10222   -10719   -11911   -12707 
  -12228   -10682   -10517   -12243   -12688   -10935    -9807   -10870 
  -12642   -13279   -12298   -10617   -10146   -11180   -12085   -12186 
  -11589   -11049   -11588   -12183   -11522   -10611   -10785   -11689 
  -12536   -12514   -11040   -10138   -11580   -12771   -11726   -10755 
  -11263   -11614   -11620   -12133   -11916   -10862   -10681   -11385 
  -11981   -12264   -12276   -11546   -10558   -10690   -11456   -11786 
  -12100   -12287   -11402   -10365   -11094   -12464   -12145   -11133 
  -11060   -11318   -11535   -11929   -11865   -11398   -11457   -11473 
  -11021   -11448   -12426   -12060   -11078   -11371   -11884   -11136 
  -10424   -11043   -12386   -12806   -11483   -10342   -11067   -12071 
  -11815   -11412   -11778   -11939   -11696   -11588   -11128   -10678 
  -11327   -12140   -11703   -11209   -11766   -11924   -11429   -11410 
  -11361   -11221   -11750   -12151   -11672   -11028   -10851   -11253 
  -12074   -12361   -11503   -10600   -10866   -11901   -12397   -11844 
  -11130   -11198   -11812   -11938   -11448   -11144   -11155   -11485 
  -11952   -11776   -11214   -11199   -11742   -12077   -11631   -10895 
  -10995   -11824   -12010   -11530   -11458   -11599   -11500   -11446 
  -11443   -11578   -11943   -11842   -11234   -11290   -11805   -11637 
  -11384   -11530   -11414   -11298   -11435   -11615   -11881   -11591 
  -10898   -11346   -12420   -12145   -11036   -10720   -11138   -11913 
  -12556   -11884   -10619   -10558   -11338   -12159   -12668   -11961 
  -10712   -10733   -11635   -11815   -11448   -11553   -11885   -11677 
  -11132   -11090   -11522   -11789   -11916   -11766   -11136   -10949 
  -11545   -11966   -12047   -11792   -10855   -10678   -12039   -12552 
  -11290   -10497   -11233   -12125   -12129   -11530   -11007   -11252 
  -11862   -11757   -11388   -11562   -11734   -11496   -11504   -11819 
  -11535   -10999   -11272   -11846   -11762   -11338   -11341   -11551 
  -11384   -11419   -11954   -11962   -11441   -11298   -11303   -11288 
  -11836   -12217   -11381   -10764   -11588   -12098   -11381   -11122 
  -11746   -11932   -11456   -11057   -11102   -11674   -12325   -12001 
  -11041   -10959   -11576   -11834   -11704   -11489   -11338   -11325 
  -11368   -11411   -11645   -11875   -11732   -11639   -11469   -10912 
  -11094   -12058   -12220   -11466   -11064   -11441   -11826   -11641 
  -11126   -11030   -11792   -12355   -11815   -11097   -11097   -11534 
  -11777   -11612   -11334   -11295   -11550   -11655   -11489   -11624 
  -11986   -11813   -11126   -10828   -11236   -11743   -12029   -11965 
  -11604   -11368   -11319   -11365   -11399   -11520   -11871   -11942 
  -11423   -10812   -10948   -11893   -12424   -11909   -11169   -11041 
  -11427   -11670   -11485   -11375   -11632   -11777   -11632   -11334 
  -11125   -11461   -11913   -11853   -11547   -11306   -11121   -11207 
  -11808   -12160   -11669   -11286   -11437   -11403   -11381   -11844 
  -11894   -11353   -11349   -11631   -11470   -11364   -11585   -11577 
  -11276   -11287   -11624   -11977   -12004   -11333   -10899   -11507 
  -11921   -11484   -11164   -11364   -11720   -11965   -11900   -11489 
  -11148   -11315   -11642   -11535   -11287   -11645   -12232   -11874 
  -10922   -10822   -11549   -11904   -11583   -11256   -11331   -11643 
  -11931   -11996   -11551   -10883   -10967   -11778   -12240   -11885 
  -11101   -10795   -11354   -12040   -12222   -11580   -10559   -10729 
  -12063   -12631   -11901   -11140   -11021   -11230   -11556   -11655 
  -11526   -11809   -12024   -11384   -10964   -11450   -11689   -11423 
  -11483   -11772   -11735   -11427   -11279   -11434   -11624   -11697 
  -11603   -11333   -11464   -12087   -11932   -10893   -10760   -11670 
  -12010   -11691   -11508   -11462   -11477   -11491   -11349   -11353 
  -11743   -12043   -11676   -10998   -11026   -11693   -11946   -11666 
  -11464   -11398   -11380   -11569   -11751   -11608   -11449   -11523 
  -11446   -11259   -11431   -11619   -11549   -11759   -11948   -11480 
  -11149   -11476   -11716   -11649   -11488   -11330   -11445   -11713 
  -11830   -11777   -11502   -11149   -11157   -11531   -11695   -11573 
  -11699   -11746   -11414   -11152   -10940   -11226   -12278   -12549 
  -11604   -10952   -10939   -11129   -11736   -12258   -11897   -11349 
  -11340   -11281   -11095   -11634   -12409   -12105   -11061   -10588 
  -11059   -11794   -12129   -11897   -11319   -11168   -11553   -11638 
  -11635   -11857   -11465   -10818   -11225   -12050   -11859   -11362 
  -11568   -11502   -11086   -11489   -12193   -12105   -11456   -10947 
  -10741   -11296   -12517   -12514   -11065   -10385   -11176   -12245 
  -12426   -11619   -10908   -11061   -11538   -11691   -11653   -11492 
  -11321   -11677   -12075   -11564   -10924   -11232   -11655   -11503 
  -11730   -12189   -11712   -10967   -10886   -11168   -11839   -12645 
  -12295   -10802   -10139   -11128   -12318   -12332   -11426   -10980 
  -11371   -11673   -11677   -11530   -11229   -11283   -11767   -12154 
  -12047   -11350   -10794   -11281   -12051   -11865   -11388   -11311 
  -11119   -11215   -12035   -12379   -11526   -10656   -10770   -11480 
  -12139   -12232   -11736   -11279   -11245   -11604   -11897   -11439 
  -10766   -11284   -12484   -12268   -10879   -10652   -11618   -11956 
  -11668   -11431   -11137   -11222   -11712   -11881   -11790   -11647 
  -11507   -11558   -11529   -11458   -11488   -11369   -11398   -11615 
  -11519   -11402   -11734   -11823   -11122   -10957   -11878   -12225 
  -11643   -11074   -10855   -11565   -12514   -11897   -10737   -11194 
  -12332   -12104   -10856   -10447   -11353   -12262   -12187   -11545 
  -11161   -11314   -11627   -11608   -11485   -11577   -11433   -11240 
  -11728   -12086   -11574   -11367   -11616   -11227   -11020   -11673 
  -11974   -11740   -11537   -11202   -11095   -11624   -12105   -11884 
  -11372   -11133   -11129   -11450   -11966   -11944   -11539   -11479 
  -11530   -11296   -11117   -11295   -11627   -11790   -11650   -11423 
  -11481   -11676   -11550   -11472   -11807   -11747   -11257   -11344 
  -11792   -11682   -11156   -11219   -11789   -11650   -11138   -11345 
  -11811   -11831   -11630   -11576   -11549   -11302   -11183   -11596 
  -12043   -11674   -10933   -11192   -12073   -12145   -11672   -11296 
  -11056   -11360   -11885   -11800   -11389   -11252   -11427   -11639 
  -11581   -11416   -11423   -11530   -11668   -11699   -11524   -11352 
  -11452   -11793   -11815   -11375   -11249   -11634   -11711   -11275 
  -11109   -11543   -11978   -11812   -11203   -10930   -11403   -12002 
  -12036   -11618   -11325   -11595   -11869   -11304   -10702   -11242 
  -12132   -12112   -11627   -11416   -11188   -10974   -11395   -12185 
  -12274   -11592   -11076   -11084   -11376   -11641   -11666   -11647 
  -11693   -11460   -11137   -11453   -11765   -11325   -11399   -12204 
  -12151   -11426   -11107   -10960   -11124   -12010   -12209   -11171 
  -11009   -11844   -11854   -11491   -11583   -11385   -10889   -11254 
  -12270   -12187   -11110   -10885   -11759   -12325   -11793   -10801 
  -10461   -11369   -12564   -12310   -11260   -11250   -11641   -11387 
  -11373   -11746   -11572   -11230   -11453   -11705   -11495   -11472 
  -11805   -11610   -11188   -11387   -11588   -11515   -11719   -11875 
  -11534   -11144   -11383   -11820   -11546   -11134   -11481   -11962 
  -11668   -11183   -11387   -11709   -11718   -11713   -11465   -11061 
  -11129   -11526   -11766   -11894   -11988   -11784   -11202   -10833 
  -11276   -11931   -11905   -11669   -11781   -11588   -11037   -10914 
  -11199   -11807   -12483   -12143   -11153   -11021   -11510   -11507 
  -11057   -11165   -12036   -12328   -11578   -11191   -11580   -11638 
  -11466   -11635   -11334   -10855   -11480   -12222   -11916   -11317 
  -10875   -10947   -11809   -12083   -11294   -11128   -11943   -12349 
  -11874   -11097   -10736   -11342   -12314   -12302   -11325   -10743 
  -11155   -11738   -11713   -11518   -11543   -11259   -11070   -11765 
  -12232   -11610   -10952   -11053   -11755   -12201   -11669   -11199 
  -11605   -11948   -11803   -11349   -10694   -10912   -11982   -12116 
  -11542   -11470   -11315   -11119   -11641   -11955   -11388   -11011 
  -11310   -11766   -12145   -12104   -11589   -11250   -11349   -11642 
  -11557   -10875   -10737   -11719   -12278   -11730   -11317   -11219 
  -11240   -11920   -12290   -11460   -10930   -11435   -11781   -11773 
  -11789   -11520   -11497   -11929   -11624   -10732   -10756   -11684 
  -12156   -11847   -11483   -11246   -11134   -11371   -11697   -11804 
  -11578   -11302   -11654   -12083   -11634   -11016   -10851   -10831 
  -11349   -12339   -12426   -11595   -11298   -11676   -11858   -11757 
  -11473   -11111   -11070   -11176   -11353   -11817   -11962   -11738 
  -11720   -11313   -10702   -11188   -12102   -12129   -11794   -11630 
  -11423   -11600   -12090   -11689   -10689   -10967   -12326   -12604 
  -11547   -10665   -10535   -11014   -11773   -11878   -11306   -11319 
  -11653   -11361   -11362   -11890   -11942   -11711   -11358   -10808 
  -10956   -11801   -12082   -11612   -11276   -11492   -11772   -11398 
  -11070   -11727   -12218   -11800   -11396   -11156   -11063   -11503 
  -11817   -11616   -11526   -11427   -11493   -12302   -12353   -10859 
  -10052   -10920   -11988   -12228   -12067   -12066   -12055   -12082 
  -12172   -11890   -11267   -10497    -9715    -9394    -9952   -11296 
  -12773   -13818   -13975   -12995   -11805   -11515   -11719   -11381 
  -10746   -10224    -9054    -8268   -10168   -13375   -14778   -14477 
  -14015   -12954   -11003    -9837   -10050   -10482   -10584   -10615 
  -11083   -12094   -12642   -12110   -11430   -10932   -10312   -10693 
  -12290   -13370   -13554   -13231   -12258   -11785   -12054   -10806 
   -8290    -7882    -9941   -11645   -12235   -12459   -11828   -10741 
  -10994   -12810   -14373   -13797   -11059    -8367    -8256   -10882 
  -13396   -13331   -11446   -10191   -10655   -11427   -11346   -11549 
  -12328   -12051   -10955   -11160   -12391   -12310   -11175   -10746 
  -10712   -11281   -12915   -13690   -13306   -12957   -11523    -9323 
   -9200   -11068   -12301   -12164   -11707   -11881   -12587   -12465 
  -11136    -9980    -9918   -10685   -11515   -12008   -12492   -12861 
  -12449   -11280   -10184    -9927   -10674   -11754   -11942   -11126 
  -10841   -11533   -12093   -12625   -13135   -12120   -10299   -10066 
  -11141   -12197   -13149   -13112   -11213    -9324    -9913   -12295 
  -13424   -12405   -11384   -11113   -10632   -10561   -11549   -12036 
  -10984   -10233   -11133   -11977   -12055   -12631   -12924   -12199 
  -11592   -11083   -10567   -10624   -10970   -11195   -11323   -11588 
  -11753   -11765   -11990   -11797   -11587   -12555   -13285   -12108 
  -10255    -9856   -10790   -11350   -11322   -11365   -11214   -11364 
  -12285   -12442   -11491   -11022   -11206   -11322   -11583   -12248 
  -12498   -12031   -11793   -11245   -10046   -10513   -12467   -12748 
  -11556   -10835   -10579   -11313   -12760   -12564   -11115   -10519 
  -10708   -11601   -12799   -12498   -11126   -10781   -11404   -11612 
  -11338   -11384   -11700   -11961   -11832   -10889   -10296   -11452 
  -13053   -13028   -11688   -10790   -10960   -11352   -11313   -11159 
  -11107   -11072   -11124   -11114   -11346   -12366   -13435   -13275 
  -11692    -9661    -8892   -10504   -12895   -13579   -12657   -11398 
  -10551   -10686   -11209   -11110   -10955   -11581   -12383   -12376 
  -11888   -11869   -11954   -11433   -10968   -11101   -11380   -11542 
  -11859   -12322   -11982   -10690   -10110   -11044   -12266   -12413 
  -11681   -11296   -11587   -11848   -11600   -11156   -11122   -11384 
  -11250   -11045   -11637   -12069   -11458   -11281   -11981   -11880 
  -10963   -10716   -11140   -11782   -12575   -12641   -11831   -11009 
  -10571   -10901   -11628   -11784   -11686   -11695   -11527   -11578 
  -11794   -11520   -11364   -11928   -12155   -11458   -10814   -10883 
  -11365   -11566   -11306   -11321   -11813   -12295   -12229   -11345 
  -10879   -11761   -12383   -11774   -11036   -10602   -10774   -12079 
  -12957   -12113   -11109   -10879   -10606   -10797   -11824   -12017 
  -11383   -11686   -12407   -12167   -11487   -11210   -11250   -11473 
  -11673   -11512   -11384   -11678   -11826   -11372   -10824   -11056 
  -12066   -12633   -12044   -11099   -10762   -10951   -11053   -11130 
  -11746   -12330   -11727   -10825   -11396   -12561   -12262   -10889 
  -10405   -11163   -11716   -11886   -12460   -12244   -11091   -11223 
  -11911   -11298   -10754   -11249   -12032   -12448   -11816   -10902 
  -11148   -11839   -11777   -11410   -11256   -11325   -11880   -12202 
  -11553   -11033   -11279   -11487   -11321   -11348   -11747   -11792 
  -11511   -11593   -11826   -11797   -11454   -10991   -10886   -11232 
  -11796   -12406   -12433   -11340   -10061   -10292   -11956   -12987 
  -12405   -11357   -10804   -10694   -10991   -11533   -11875   -11975 
  -11749   -11184   -11006   -11291   -11338   -11480   -12009   -12037 
  -11537   -11286   -11156   -11229   -11780   -12019   -11735   -11732 
  -11684   -11210   -11454   -11985   -11025   -10145   -11199   -12374 
  -12703   -12723   -11711   -10508   -10967   -11777   -11529   -11553 
  -12070   -11939   -11584   -11531   -11277   -11152   -11797   -12333 
  -11927   -11349   -11157   -11097   -11354   -11688   -11350   -10883 
  -11376   -12509   -12556   -11153   -10436   -11146   -11881   -12042 
  -11438   -10288   -10507   -12295   -12773   -11704   -11218   -11047 
  -10940   -11610   -12106   -11649   -11341   -11785   -11866   -11260 
  -11064   -11379   -11493   -11701   -12179   -11967   -11296   -11249 
  -11109   -10925   -12044   -12773   -11457   -10461   -11236   -12067 
  -11769   -11098   -11234   -11898   -12114   -11803   -11045   -10648 
  -11585   -12426   -11815   -10767   -10440   -11213   -12513   -12618 
  -11321   -10829   -11646   -11878   -11310   -11284   -11859   -12033 
  -11712   -11611   -11533   -11107   -11011   -11298   -11394   -11627 
  -11959   -11751   -11291   -11250   -11454   -11480   -11600   -11728 
  -11535   -11676   -12145   -11781   -10785   -10759   -11746   -12221 
  -11905   -11421   -10940   -10899   -11529   -12245   -12337   -11726 
  -11333   -11608   -11622   -11113   -11171   -11901   -11979   -11260 
  -11076   -11623   -11889   -11668   -11469   -11395   -11308   -11345 
  -11375   -11157   -11290   -11983   -12183   -11728   -11539   -11595 
  -11566   -11452   -11032   -10767   -11173   -11630   -11661   -11570 
  -11746   -12048   -11929   -11460   -11176   -11172   -11364   -11765 
  -11956   -11437   -11065   -11850   -12356   -11470   -10897   -11283 
  -11500   -11639   -11749   -11352   -11271   -11762   -11846   -11696 
  -11507   -10806   -10624   -11789   -12634   -12123   -11572   -11367 
  -11060   -11246   -11680   -11639   -11538   -11489   -11234   -11211 
  -11623   -11869   -11666   -11499   -11696   -11816   -11445   -11076 
  -11286   -11766   -11992   -12019   -11882   -11275   -10820   -11364 
  -11823   -11179   -10636   -11315   -12499   -12648   -11491   -10704 
  -11057   -11410   -11398   -11670   -12043   -11905   -11580   -11519 
  -11263   -11005   -11520   -12104   -11902   -11323   -10876   -11047 
  -11720   -11834   -11514   -11792   -12055   -11476   -11198   -11627 
  -11331   -10847   -11584   -12210   -11824   -11677   -11877   -11572 
  -10956   -10696   -11088   -12106   -12769   -11919   -10814   -11141 
  -11770   -11674   -11568   -11318   -10878   -11260   -12039   -12054 
