Origin Time       2025/03/30 21:30:00
Lat.              38.535
Long.             142.295
Depth. (km)       44
Mag.              4.3
Station Code      MYG007
Station Lat.      38.5877
Station Long.     141.2510
Station Height(m) 4
Record Time       2025/03/30 21:31:22
Sampling Freq(Hz) 100Hz
Duration Time(s)  60
Dir.              N-S
Scale Factor      7845(gal)/8223790
Max. Acc. (gal)   3.849
Last Correction   2025/03/30 21:31:22
Memo.             
[...]
   -3310    -3311    -3314    -3312    -3310    -3307    -3308    -3311 
   -3310    -3303    -3303    -3308    -3308    -3306    -3306    -3307 
   -3310    -3311    -3307    -3307    -3311    -3310    -3310    -3310 
   -3311    -3312    -3312    -3310    -3310    -3312    -3314    -3312 
   -3312    -3311    -3311    -3312    -3311    -3307    -3307    -3308 
   -3311    -3308    -3306    -3308    -3310    -3308    -3307    -3304 
   -3308    -3314    -3311    -3307    -3308    -3308    -3311    -3310 
   -3307    -3307    -3310    -3311    -3311    -3310    -3310    -3312 
   -3312    -3307    -3306    -3306    -3307    -3310    -3308    -3306 
   -3308    -3314    -3312    -3307    -3308    -3312    -3311    -3308 
   -3307    -3310    -3312    -3310    -3306    -3304    -3308    -3312 
   -3308    -3304    -3307    -3308    -3304    -3306    -3306    -3303 
   -3307    -3312    -3312    -3310    -3310    -3311    -3312    -3311 
   -3310    -3310    -3310    -3310    -3310    -3307    -3310    -3315 
   -3311    -3308    -3310    -3312    -3312    -3312    -3312    -3312 
   -3315    -3314    -3307    -3306    -3311    -3315    -3315    -3311 
   -3311    -3315    -3312    -3310    -3310    -3310    -3311    -3311 
   -3307    -3307    -3308    -3310    -3310    -3307    -3303    -3302 
   -3304    -3307    -3308    -3308    -3310    -3312    -3310    -3304 
   -3307    -3311    -3311    -3308    -3310    -3314    -3314    -3310 
   -3308    -3308    -3311    -3312    -3310    -3307    -3308    -3311 
   -3310    -3307    -3308    -3311    -3311    -3311    -3307    -3307 
   -3312    -3315    -3311    -3307    -3308    -3310    -3312    -3312 
   -3306    -3304    -3311    -3310    -3304    -3308    -3312    -3312 
   -3310    -3308    -3311    -3310    -3307    -3306    -3304    -3307 
   -3312    -3312    -3311    -3310    -3310    -3312    -3314    -3310 
   -3304    -3304    -3307    -3310    -3308    -3304    -3310    -3315 
   -3308    -3304    -3308    -3311    -3311    -3307    -3306    -3310 
   -3312    -3310    -3307    -3306    -3307    -3308    -3308    -3310 
   -3311    -3310    -3307    -3307    -3307    -3306    -3307    -3310 
   -3310    -3308    -3310    -3315    -3314    -3310    -3311    -3311 
   -3311    -3311    -3307    -3303    -3307    -3310    -3306    -3304 
   -3307    -3310    -3311    -3310    -3307    -3310    -3312    -3308 
   -3307    -3308    -3307    -3307    -3310    -3311    -3312    -3312 
   -3311    -3312    -3310    -3308    -3312    -3315    -3311    -3308 
   -3310    -3311    -3311    -3310    -3310    -3312    -3312    -3312 
   -3311    -3310    -3311    -3311    -3308    -3306    -3306    -3308 
   -3307    -3306    -3307    -3310    -3312    -3310    -3308    -3311 
   -3312    -3312    -3312    -3310    -3308    -3310    -3311    -3308 
   -3306    -3308    -3314    -3312    -3304    -3306    -3312    -3308 
   -3304    -3306    -3306    -3307    -3308    -3307    -3307    -3308 
   -3310    -3314    -3312    -3307    -3308    -3314    -3314    -3307 
   -3299    -3300    -3307    -3308    -3300    -3294    -3302    -3311 
   -3308    -3308    -3318    -3326    -3326    -3314    -3314    -3330 
   -3326    -3288    -3265    -3292    -3333    -3333    -3295    -3269 
   -3299    -3339    -3331    -3295    -3267    -3275    -3330    -3372 
   -3358    -3323    -3291    -3285    -3315    -3338    -3346    -3331 
   -3261    -3229    -3306    -3368    -3357    -3342    -3331    -3334 
   -3354    -3337    -3326    -3339    -3214    -3030    -3115    -3376 
   -3474    -3388    -3276    -3284    -3380    -3338    -3172    -3129 
   -3280    -3472    -3524    -3480    -3453    -3362    -3179    -3064 
   -3137    -3338    -3461    -3404    -3283    -3249    -3291    -3234 
   -3088    -3113    -3302    -3388    -3345    -3314    -3366    -3469 
   -3445    -3303    -3304    -3415    -3354    -3150    -3051    -3168 
   -3429    -3576    -3522    -3445    -3316    -3115    -3156    -3434 
   -3545    -3406    -3273    -3249    -3254    -3214    -3111    -3048 
   -3125    -3279    -3438    -3612    -3689    -3557    -3330    -3188 
   -3184    -3261    -3294    -3222    -3130    -3099    -3150    -3281 
   -3391    -3397    -3369    -3391    -3518    -3607    -3438    -3130 
   -2976    -3094    -3383    -3541    -3400    -3194    -3179    -3237 
   -3188    -3161    -3268    -3346    -3306    -3271    -3338    -3418 
   -3354    -3260    -3307    -3388    -3427    -3404    -3218    -3102 
   -3277    -3476    -3562    -3608    -3489    -3222    -3052    -3103 
   -3252    -3352    -3399    -3410    -3373    -3331    -3338    -3349 
   -3214    -2983    -2929    -3145    -3422    -3591    -3684    -3707 
   -3578    -3350    -3199    -3140    -3032    -2917    -3056    -3361 
   -3420    -3294    -3303    -3339    -3271    -3240    -3338    -3499 
   -3542    -3360    -3149    -3215    -3437    -3429    -3249    -3198 
   -3279    -3329    -3264    -3161    -3150    -3177    -3165    -3252 
   -3426    -3493    -3483    -3469    -3442    -3411    -3330    -3303 
   -3431    -3474    -3329    -3215    -3240    -3298    -3240    -3146 
   -3279    -3577    -3663    -3375    -2979    -2822    -2982    -3306 
   -3492    -3429    -3349    -3389    -3443    -3392    -3269    -3273 
   -3358    -3311    -3242    -3253    -3246    -3294    -3352    -3242 
   -3177    -3338    -3485    -3443    -3244    -3063    -3127    -3300 
   -3330    -3349    -3501    -3592    -3437    -3223    -3184    -3192 
   -3088    -3032    -3204    -3461    -3549    -3469    -3392    -3381 
   -3383    -3326    -3240    -3234    -3252    -3233    -3342    -3468 
   -3314    -3133    -3279    -3528    -3580    -3469    -3343    -3257 
   -3204    -3169    -3103    -3019    -3061    -3268    -3458    -3472 
   -3353    -3269    -3365    -3561    -3574    -3366    -3157    -3007 
   -2964    -3107    -3307    -3462    -3624    -3735    -3658    -3453 
   -3246    -2964    -2632    -2577    -2943    -3483    -3839    -3790 
   -3496    -3343    -3368    -3335    -3238    -3130    -3055    -3199 
   -3530    -3713    -3572    -3303    -3253    -3342    -3249    -3082 
   -3057    -3082    -3094    -3180    -3356    -3627    -3886    -3821 
   -3485    -3298    -3203    -2972    -2856    -3052    -3346    -3558 
   -3665    -3672    -3597    -3407    -3110    -2894    -2883    -3026 
   -3241    -3368    -3287    -3092    -3033    -3312    -3667    -3657 
   -3431    -3342    -3384    -3454    -3388    -3165    -3102    -3222 
   -3248    -3198    -3188    -3188    -3262    -3447    -3499    -3288 
   -3110    -3159    -3281    -3335    -3319    -3304    -3362    -3477 
   -3545    -3472    -3337    -3314    -3379    -3389    -3314    -3240 
   -3302    -3383    -3256    -3057    -3018    -3079    -3122    -3231 
   -3532    -3812    -3758    -3449    -3204    -3191    -3295    -3298 
   -3138    -2980    -3033    -3246    -3453    -3574    -3558    -3499 
   -3472    -3350    -3187    -3168    -3202    -3190    -3204    -3231 
   -3264    -3362    -3430    -3461    -3577    -3553    -3269    -3127 
   -3200    -3200    -3142    -3087    -3071    -3241    -3547    -3765 
   -3765    -3554    -3221    -2922    -2844    -2934    -2987    -3082 
   -3360    -3603    -3616    -3549    -3473    -3352    -3272    -3249 
   -3292    -3427    -3462    -3358    -3304    -3329    -3370    -3350 
   -3252    -3204    -3164    -3040    -3030    -3172    -3268    -3385 
   -3570    -3618    -3565    -3555    -3446    -3275    -3203    -3140 
   -3163    -3353    -3427    -3352    -3373    -3389    -3213    -3056 
   -3123    -3280    -3365    -3294    -3099    -3002    -3053    -3149 
   -3302    -3511    -3694    -3761    -3697    -3585    -3449    -3214 
   -2910    -2781    -2982    -3307    -3460    -3388    -3316    -3412 
   -3441    -3254    -3176    -3269    -3257    -3195    -3256    -3379 
   -3418    -3333    -3287    -3406    -3537    -3566    -3624    -3640 
   -3350    -2926    -2853    -3094    -3149    -2948    -2938    -3292 
   -3697    -3808    -3568    -3256    -3132    -3213    -3411    -3553 
   -3558    -3501    -3343    -3141    -3110    -3171    -3198    -3331 
   -3472    -3435    -3356    -3295    -3214    -3144    -3032    -2979 
   -3248    -3632    -3623    -3308    -3218    -3341    -3321    -3218 
   -3250    -3327    -3335    -3319    -3264    -3160    -3073    -3038 
   -3119    -3329    -3541    -3682    -3661    -3438    -3299    -3391 
   -3424    -3265    -3114    -3022    -2999    -3190    -3477    -3596 
   -3577    -3527    -3380    -3164    -3071    -3109    -3129    -3171 
   -3294    -3458    -3666    -3829    -3762    -3500    -3254    -3138 
   -3169    -3177    -3009    -2916    -3118    -3369    -3418    -3311 
   -3264    -3429    -3615    -3565    -3419    -3273    -3002    -2821 
   -2963    -3237    -3403    -3437    -3419    -3365    -3292    -3372 
   -3481    -3349    -3168    -3134    -3102    -3098    -3238    -3433 
   -3578    -3568    -3369    -3215    -3160    -3068    -3095    -3310 
   -3430    -3474    -3649    -3811    -3786    -3581    -3261    -3036 
   -2951    -2839    -2909    -3302    -3576    -3542    -3473    -3469 
   -3472    -3400    -3161    -2953    -3051    -3298    -3511    -3705 
   -3686    -3403    -3198    -3171    -3192    -3237    -3206    -3056 
   -2991    -3110    -3271    -3350    -3343    -3329    -3326    -3352 
   -3472    -3465    -3107    -2812    -2960    -3341    -3636    -3711 
   -3628    -3503    -3279    -2998    -2880    -2916    -2972    -3167 
   -3520    -3761    -3740    -3547    -3366    -3307    -3262    -3194 
   -3248    -3410    -3526    -3561    -3568    -3557    -3447    -3233 
   -3072    -3017    -2978    -3009    -3199    -3404    -3520    -3643 
   -3724    -3680    -3624    -3484    -3088    -2728    -2808    -3194 
   -3408    -3271    -3032    -2991    -3218    -3439    -3375    -3244 
   -3300    -3406    -3446    -3373    -3150    -2972    -3038    -3329 
   -3662    -3800    -3578    -3146    -2965    -3164    -3322    -3203 
   -3099    -3284    -3531    -3547    -3442    -3265    -3014    -3069 
   -3542    -3909    -3773    -3331    -3067    -3088    -3164    -3276 
   -3473    -3582    -3424    -3136    -3078    -3258    -3302    -3134 
   -3102    -3387    -3685    -3657    -3410    -3194    -3060    -3032 
   -3145    -3358    -3518    -3453    -3299    -3287    -3331    -3318 
   -3281    -3329    -3534    -3565    -3111    -2635    -2710    -3181 
   -3520    -3543    -3478    -3466    -3384    -3292    -3343    -3389 
   -3343    -3319    -3261    -3195    -3223    -3281    -3469    -3681 
   -3450    -3042    -3001    -3059    -3009    -3134    -3369    -3415 
   -3433    -3654    -3819    -3707    -3424    -3129    -3065    -3140 
   -3022    -2926    -3114    -3457    -3840    -4033    -3839    -3477 
   -3187    -3010    -2957    -2947    -2886    -2929    -3241    -3615 
   -3746    -3580    -3273    -3176    -3410    -3537    -3389    -3316 
   -3377    -3299    -3065    -2959    -3079    -3264    -3410    -3446 
   -3393    -3276    -2971    -2713    -2832    -3034    -3140    -3427 
   -3793    -3905    -3740    -3393    -3122    -3195    -3377    -3352 
   -3281    -3302    -3258    -3163    -3129    -3107    -3060    -3057 
   -3207    -3505    -3794    -3917    -3848    -3663    -3472    -3326 
   -3244    -3285    -3389    -3298    -2984    -2884    -3198    -3483 
   -3501    -3507    -3558    -3554    -3450    -3156    -2863    -2933 
   -3242    -3376    -3316    -3326    -3415    -3427    -3299    -3084 
   -3006    -3214    -3504    -3616    -3570    -3532    -3499    -3258 
   -2867    -2614    -2504    -2604    -3055    -3484    -3620    -3639 
   -3596    -3584    -3547    -3168    -2728    -2803    -3217    -3515 
   -3696    -3865    -3920    -3798    -3570    -3310    -3051    -2859 
   -2837    -2916    -3084    -3449    -3655    -3429    -3231    -3343 
   -3537    -3730    -3740    -3423    -3215    -3337    -3384    -3203 
   -3030    -3065    -3369    -3690    -3727    -3582    -3376    -3032 
   -2806    -2934    -3065    -3086    -3339    -3646    -3630    -3404 
   -3117    -2884    -2899    -3181    -3547    -3651    -3420    -3119 
   -2824    -2690    -2959    -3384    -3595    -3615    -3622    -3526 
   -3275    -3157    -3175    -3117    -3186    -3480    -3676    -3600 
   -3356    -3036    -2821    -2949    -3277    -3534    -3751    -3866 
   -3750    -3549    -3380    -3302    -3380    -3470    -3460    -3407 
   -3233    -2938    -2929    -3338    -3604    -3462    -3379    -3570 
   -3650    -3349    -2921    -2729    -2795    -2960    -3177    -3433 
   -3628    -3635    -3488    -3391    -3326    -3117    -2928    -2961 
   -3064    -3150    -3241    -3194    -3110    -3111    -2999    -2938 
   -3214    -3393    -3149    -2975    -3289    -3852    -4306    -4476 
   -4324    -3975    -3510    -3021    -2736    -2578    -2443    -2562 
   -2975    -3551    -4109    -4267    -4002    -3705    -3507    -3358 
   -3416    -3674    -3730    -3500    -3291    -3199    -3260    -3338 
   -3145    -2894    -2813    -2727    -2646    -2593    -2512    -2668 
   -3210    -3786    -4183    -4401    -4133    -3461    -3079    -2932 
   -2478    -2083    -2188    -2509    -2918    -3412    -3731    -3800 
   -3565    -2874    -2151    -2188    -2983    -3680    -3707    -3195 
   -2462    -1796    -1609    -2157    -3245    -4506    -5684    -6732 
   -7344    -6660    -4712    -2905    -2139    -2045    -2066    -2365 
   -3314    -4509    -5130    -4900    -4143    -3298    -2708    -2614 
   -2917    -3375    -3990    -4696    -5254    -5335    -4553    -3034 
   -1297      126      657      270     -626    -2122    -4298    -6130 
   -6247    -4598    -2361     -847     -730    -1466    -2131    -2619 
   -3283    -4333    -5397    -5293    -3225     -575      222    -1279 
   -3711    -5617    -5769    -4329    -3257    -3827    -4919    -4710 
   -3160    -1725    -1309    -1669    -2223    -2884    -3809    -4765 
   -5606    -6245    -6284    -5598    -4361    -3082    -2658    -3110 
   -3658    -4021    -4104    -3650    -2851    -2234    -1949    -1890 
   -2119    -2610    -3175    -3569    -3542    -3480    -3904    -4342 
   -4190    -3674    -3277    -3125    -2879    -2284    -1798    -1885 
   -2184    -2407    -2889    -3445    -3430    -2949    -2602    -2673 
   -2889    -3002    -3558    -4742    -5242    -4193    -2925    -2967 
   -3720    -3527    -2112    -1100    -1857    -3526    -4266    -3724 
   -3051    -3036    -3663    -4541    -4807    -4101    -3221    -2897 
   -3295    -4083    -4174    -3160    -2243    -2258    -2801    -3470 
   -4158    -4766    -5146    -5100    -4739    -4263    -3510    -2527 
   -1946    -2236    -2972    -3241    -2798    -2498    -2988    -3470 
   -3113    -2575    -2610    -2849    -2874    -3046    -3684    -4247 
   -4365    -4321    -3905    -2866    -1942    -1844    -2404    -3122 
   -3558    -3330    -2654    -2546    -3246    -3520    -2862    -2502 
   -3130    -3802    -3915    -4028    -4183    -3852    -3391    -3237 
   -3014    -2548    -2195    -2204    -2573    -3237    -3947    -4230 
   -4232    -4413    -4503    -4239    -3774    -3173    -2740    -2862 
   -3299    -3595    -3758    -3892    -3834    -3377    -2459    -1734 
   -2236    -3642    -4746    -5397    -5830    -5540    -4337    -2898 
   -1850    -1422    -1436    -1478    -1790    -2560    -2986    -3005 
   -3431    -3955    -4056    -4048    -3838    -3326    -3230    -3696 
   -3973    -3820    -3500    -3199    -3145    -3082    -2353    -1317 
   -1001    -1536    -2515    -3623    -4336    -4468    -4391    -4276 
   -4089    -3654    -2747    -1896    -2050    -3038    -3798    -4051 
   -4098    -3875    -3528    -3333    -3199    -3208    -3469    -3751 
   -3892    -3982    -4082    -3996    -3599    -3034    -2571    -2554 
   -2972    -3346    -3480    -3609    -3823    -3859    -3564    -3218 
   -3134    -3130    -2839    -2654    -3262    -4233    -4671    -4270 
   -3203    -2278    -2151    -2366    -2521    -2825    -3176    -3323 
   -3406    -3443    -3191    -2825    -2681    -2574    -2554    -3113 
   -3924    -4079    -3520    -2947    -2882    -3369    -4031    -4263 
   -3974    -3757    -3792    -3696    -3346    -2743    -2010    -1800 
   -2531    -3476    -3666    -3164    -2895    -3461    -4202    -4324 
   -4302    -4534    -4486    -4187    -4171    -4104    -3261    -1991 
   -1505    -2131    -3125    -3862    -4027    -3685    -3446    -3549 
   -3657    -3468    -2848    -2216    -2439    -3586    -4544    -4271 
   -3200    -2651    -2983    -3404    -3229    -2440    -1572    -1362 
   -2087    -3149    -3708    -3730    -3631    -3416    -3179    -3230 
   -3276    -2840    -2335    -2697    -3991    -5184    -5540    -5130 
   -4128    -2982    -2438    -2656    -3102    -3265    -3115    -3079 
   -3709    -4698    -4806    -3713    -2435    -1925    -2540    -3793 
   -4499    -3977    -3009    -2917    -3539    -3616    -2909    -2255 
   -2150    -2440    -2956    -3464    -3535    -3211    -2944    -2978 
   -3357    -3742    -3491    -2749    -2447    -2921    -3589    -3751 
   -3424    -3339    -3719    -3955    -3755    -3343    -2894    -2655 
   -2880    -3416    -3974    -4446    -4684    -4428    -3720    -3076 
   -2847    -2895    -2936    -2718    -2408    -2539    -3028    -3311 
   -3352    -3395    -3495    -3804    -4320    -4503    -4037    -3370 
   -2957    -2735    -2671    -2980    -3488    -3682    -3426    -3099 
   -3103    -3316    -3368    -3287    -3192    -2905    -2647    -2810 
   -2922    -2656    -2745    -3299    -3542    -3558    -3753    -3777 
   -3505    -3226    -3006    -2995    -3226    -3411    -3547    -3781 
   -4045    -4172    -3786    -2722    -1710    -1557    -2200    -3069 
   -3599    -3809    -4328    -5046    -5090    -4341    -3511    -3082 
   -2986    -2887    -2639    -2536    -2898    -3605    -4162    -4145 
   -3631    -2937    -2436    -2479    -2857    -3157    -3607    -4163 
   -4158    -3727    -3543    -3366    -2702    -2019    -2089    -2929 
   -3910    -4332    -3983    -3489    -3352    -3061    -2297    -1777 
   -2046    -2772    -3456    -3894    -3935    -3474    -2944    -2963 
   -3453    -3694    -3275    -2736    -2882    -3473    -3832    -4078 
   -4353    -4214    -3627    -3117    -2988    -3071    -2951    -2758 
   -3231    -4241    -4723    -4491    -4113    -3657    -3133    -2964 
   -3272    -3608    -3541    -3269    -3171    -3002    -2620    -2447 
   -2519    -2589    -2809    -3252    -3699    -4098    -4345    -3994 
   -3086    -2409    -2311    -2452    -2567    -2469    -2477    -3169 
   -3807    -3456    -2905    -3028    -3296    -3152    -3092    -3632 
   -4206    -4222    -4056    -4059    -3904    -3381    -2824    -2473 
   -2350    -2736    -3609    -4274    -4183    -3539    -3102    -3267 
   -3487    -3252    -2984    -3217    -3654    -3769    -3681    -3902 
   -4226    -3824    -2851    -2273    -2354    -2848    -3511    -3955 
   -4063    -4148    -4207    -3815    -2920    -2025    -1733    -2280 
   -3198    -3812    -3927    -3681    -3376    -3376    -3585    -3375 
   -2550    -1819    -1919    -2681    -3315    -3528    -3692    -3815 
