Origin Time       2025/03/30 21:30:00
Lat.              38.535
Long.             142.295
Depth. (km)       44
Mag.              4.3
Station Code      MYG003
Station Lat.      38.7349
Station Long.     141.3116
Station Height(m) 32
Record Time       2025/03/30 21:31:22
Sampling Freq(Hz) 100Hz
Duration Time(s)  60
Dir.              N-S
Scale Factor      7845(gal)/8223790
Max. Acc. (gal)   8.320
Last Correction   2025/03/30 21:31:21
Memo.             
[...]
    3774     3771     3770     3770     3770     3771     3773     3773 
    3774     3774     3774     3774     3773     3770     3770     3773 
    3771     3770     3771     3771     3770     3771     3771     3771 
    3770     3770     3773     3770     3769     3771     3771     3771 
    3771     3770     3770     3770     3773     3774     3770     3771 
    3775     3775     3773     3770     3770     3771     3770     3771 
    3771     3769     3771     3774     3769     3770     3773     3771 
    3771     3774     3773     3771     3773     3774     3771     3770 
    3771     3771     3773     3774     3771     3771     3773     3771 
    3773     3771     3770     3773     3774     3773     3773     3771 
    3770     3773     3774     3773     3774     3774     3773     3771 
    3773     3773     3773     3773     3771     3771     3773     3774 
    3773     3774     3775     3773     3771     3774     3774     3770 
    3771     3774     3773     3773     3773     3771     3771     3773 
    3773     3770     3770     3773     3773     3771     3773     3774 
    3774     3771     3771     3773     3771     3771     3771     3771 
    3773     3771     3771     3771     3770     3771     3773     3773 
    3773     3773     3771     3773     3773     3770     3771     3774 
    3773     3773     3773     3773     3774     3775     3773     3770 
    3770     3771     3771     3771     3771     3774     3774     3773 
    3771     3771     3773     3773     3773     3774     3771     3773 
    3774     3771     3769     3773     3774     3773     3771     3773 
    3774     3774     3773     3773     3771     3771     3771     3773 
    3771     3773     3774     3773     3773     3773     3771     3770 
    3771     3771     3773     3774     3773     3773     3774     3774 
    3771     3773     3773     3771     3773     3773     3769     3769 
    3773     3773     3774     3773     3771     3773     3773     3773 
    3774     3773     3774     3775     3774     3774     3773     3771 
    3773     3774     3774     3774     3774     3774     3774     3774 
    3775     3773     3773     3774     3773     3771     3773     3773 
    3770     3770     3775     3777     3771     3771     3771     3771 
    3773     3771     3771     3773     3773     3771     3770     3773 
    3771     3769     3774     3775     3773     3773     3773     3770 
    3770     3770     3774     3774     3771     3773     3773     3771 
    3773     3773     3775     3775     3771     3773     3774     3773 
    3774     3774     3773     3774     3774     3774     3774     3771 
    3770     3771     3770     3769     3761     3758     3781     3785 
    3751     3744     3786     3819     3811     3780     3765     3789 
    3816     3782     3720     3713     3759     3801     3766     3620 
    3588     3906     4182     3862     3370     3550     4194     4317 
    3666     3134     3450     4074     4056     3510     3318     3774 
    4216     4052     3639     3711     4160     4158     3605     3237 
    3331     3680     4013     4082     3987     3856     3697     3618 
    3527     3519     3955     4372     3977     3271     3240     3709 
    4071     4151     3901     3562     3597     3912     3836     3419 
    3508     3952     4101     4028     3643     3299     3734     4267 
    4131     3754     3546     3581     3731     3624     3483     3746 
    3956     3889     3929     3888     3804     4104     4180     3280 
    2500     3358     4652     4542     3855     3690     3720     3700 
    3620     3391     3439     4062     4376     3861     3315     3406 
    3881     4000     3824     3901     3873     3763     3940     3720 
    3215     3458     4025     4106     4108     4121     3697     3310 
    3511     3782     3646     3619     3962     4095     4020     3896 
    3368     2925     3387     4437     5008     4332     3083     2903 
    3763     4002     3558     3581     3920     4099     4174     3908 
    3379     3307     3888     4163     3661     3450     3807     3774 
    3604     3842     3915     3870     4122     4104     3670     3345 
    3300     3743     4325     4089     3403     3489     4210     4245 
    3426     3057     3476     3936     4141     4055     3786     3619 
    3672     3898     3946     3604     3582     4104     4039     3308 
    3233     3946     4428     4183     3466     3076     3553     4224 
    4218     3677     3345     3654     4075     3801     3289     3528 
    4155     4301     4013     3611     3265     3298     3717     4206 
    4531     4282     3481     3177     3659     3896     3534     3252 
    3500     4090     4411     4081     3554     3480     3735     3894 
    3925     3801     3611     3763     3942     3665     3530     3777 
    3910     3996     3935     3626     3699     3991     3878     3453 
    3099     3514     4374     4353     3801     3528     3426     3767 
    4182     3793     3276     3508     4001     4145     3932     3605 
    3639     4032     4020     3499     3407     3929     4035     3593 
    3565     3836     3819     3802     3898     3797     3659     3789 
    3893     3605     3500     3967     4063     3461     3271     3802 
    4287     4388     4194     3649     3053     3217     3852     3747 
    3415     3912     4449     4261     3726     3287     3343     3933 
    4253     3767     3356     3829     4321     3967     3412     3375 
    3688     3950     3869     3680     3798     3964     4002     3896 
    3391     3017     3484     4183     4229     3863     3777     3947 
    3964     3680     3272     3314     3983     4371     3866     3350 
    3595     4032     4089     3840     3559     3657     3987     3867 
    3410     3414     3921     4014     3485     3337     4002     4675 
    4391     3411     2975     3418     4008     4071     3672     3566 
    3969     4162     3785     3349     3402     3919     4303     4062 
    3557     3411     3618     3847     4040     4110     3812     3410 
    3397     3669     3879     3970     3940     3825     3809     3746 
    3511     3603     3963     3947     3738     3750     3726     3665 
    3931     4056     3597     3330     3763     4106     3757     3446 
    3713     3873     3731     3824     4064     4120     3956     3654 
    3496     3640     3784     3624     3443     3657     4064     4240 
    4004     3558     3408     3640     3881     3933     3927     3981 
    3912     3573     3333     3519     3728     3657     3735     4087 
    4278     4182     4050     3858     3348     2883     3072     3682 
    4301     4603     4171     3534     3547     3959     4017     3407 
    2832     3314     4264     4394     3971     3821     3878     3850 
    3667     3451     3595     3983     3838     3356     3519     4033 
    4068     3892     3855     3790     3823     3921     3623     3187 
    3335     3931     4245     4074     3897     3927     3711     3380 
    3628     4005     3894     3798     3813     3701     3848     3989 
    3626     3364     3661     3962     3854     3665     3697     3801 
    3786     3673     3659     3866     4124     4241     4016     3461 
    3214     3435     3557     3696     4025     4056     3951     4099 
    4036     3577     3306     3473     3738     3813     3798     3807 
    3805     3750     3700     3906     4189     4070     3801     3609 
    3342     3325     3631     3888     4075     4031     3736     3771 
    4072     3947     3456     3233     3505     3882     4025     3981 
    3905     4059     4087     3430     3021     3661     4207     3801 
    3261     3393     3977     4479     4529     4085     3572     3294 
    3258     3500     3793     3794     3670     3883     4334     4221 
    3596     3531     3927     3798     3314     3315     3770     4028 
    4068     4000     3635     3495     3962     4185     3769     3500 
    3655     3790     3620     3248     3460     4353     4521     3794 
    3456     3622     3785     3794     3632     3676     4004     3971 
    3535     3510     3967     4056     3608     3353     3669     4190 
    4421     4083     3362     3145     3689     3998     3750     3609 
    3719     3958     4168     3775     3133     3457     4282     4272 
    3744     3545     3792     4032     3669     3256     3564     3932 
    3925     4001     3944     3650     3773     4068     3858     3420 
    3257     3531     4067     4276     3819     3273     3361     3866 
    4170     4101     3847     3751     3813     3662     3564     3793 
    3735     3478     3658     3851     3792     3933     4199     4225 
    3959     3528     3160     3184     3750     4152     3861     3672 
    3960     4202     4144     3727     3337     3349     3493     3742 
    3942     3746     3680     3956     4056     4112     4156     3748 
    3406     3640     3643     3168     3187     3798     4294     4491 
    4264     3558     3214     3761     4267     3927     3360     3319 
    3604     3843     3990     3947     3931     4121     3851     3168 
    3172     3836     4222     4063     3643     3342     3555     4216 
    4553     4082     3346     3072     3337     3753     3986     3975 
    3851     3819     3933     4101     4129     3805     3426     3395 
    3388     3348     3743     4083     3944     4068     4318     3929 
    3447     3518     3782     3838     3719     3596     3478     3422 
    3797     4399     4388     3859     3601     3643     3539     3307 
    3361     3823     4330     4384     3848     3387     3535     3870 
    3983     3794     3395     3400     3869     4008     3798     3816 
    4001     4024     3796     3528     3665     3925     3655     3322 
    3561     3936     3924     3823     4048     4237     4044     3748 
    3427     3125     3262     3774     4072     3959     3774     3869 
    4135     4170     3843     3451     3361     3600     3881     3937 
    3815     3821     3843     3595     3558     3888     3798     3427 
    3622     4101     4199     3916     3476     3319     3763     4305 
    4240     3693     3308     3315     3534     3767     3935     4191 
    4411     4006     3291     3365     3819     3573     3361     3863 
    4179     4125     4202     3967     3311     3024     3241     3557 
    3973     4440     4581     4232     3604     3225     3397     3754 
    3848     3667     3585     3865     4045     3713     3380     3492 
    3775     4136     4507     4222     3362     3180     3766     3901 
    3538     3474     3670     3831     4132     4486     4264     3573 
    3373     3604     3537     3466     3651     3767     3840     3854 
    3856     3975     4036     4217     4318     3627     2778     2812 
    3379     3944     4423     4510     4221     3956     3651     3225 
    3052     3327     3829     4195     4234     4075     3747     3341 
    3419     3962     4081     3723     3605     3686     3734     3925 
    3985     3728     3784     4121     4036     3576     3198     3349 
    3987     4241     3900     3481     3262     3754     4558     4199 
    3231     3403     4101     3969     3582     3618     3694     3842 
    4091     3838     3226     3218     3927     4564     4561     3904 
    3325     3383     3456     3253     3357     3881     4409     4440 
    3956     3642     3601     3469     3487     3834     4128     4036 
    3659     3524     3759     3879     3848     3701     3392     3649 
    4392     4360     3723     3404     3177     3169     3703     3940 
    3836     4186     4456     4099     3700     3499     3307     3284 
    3620     4101     4175     3805     3796     4206     4018     3360 
    3307     3682     3788     3894     4052     3851     3774     3924 
    3620     3441     3731     3589     3418     3939     4194     3746 
    3516     3838     4163     4140     3881     3638     3505     3316 
    3167     3512     4261     4672     4429     3996     3821     3728 
    3268     2818     3225     4043     4048     3526     3665     4082 
    3979     3897     3915     3686     3883     4288     3915     3319 
    3310     3599     3692     3438     3505     4351     4837     4309 
    3539     2870     2716     3672     4549     3989     3183     3619 
    4340     4051     3446     3503     3811     3987     4236     4176 
    3707     3586     3925     4170     4126     3908     3642     3507 
    3643     3839     3728     3353     3145     3327     3705     3990 
    3797     3087     2702     3140     3824     4249     4040     3213 
    3048     3831     4095     3843     4055     4399     4626     4946 
    4731     3902     3622     4006     4278     4515     4533     3920 
    3279     2802     2146     1815     2371     3458     4271     4915 
    6165     7315     7176     6156     4819     3038     1296      534 
     414     -554    -1729        0     5020     9215     9724     8256 
    6960     5605     3343      425    -1444    -1098      213     1320 
    3188     6249     8907     9790     8398     4306     -826    -2755 
       4     3963     5769     5514     5370     6301     6471     4758 
    3042     2641     2532     2019     1626     1707     2165     3133 
    4896     6804     7630     6902     4982     3026     1776      476 
    -658      136     2949     6037     8013     7939     6461     6355 
    7329     5167      205    -1992       28     2473     2886     2092 
    3009     6957     9821     8449     5832     3688      121    -3967 
   -4950    -1463     4584     9984    12139    10523     6878     4062 
    3064     1329    -1814    -2315     1100     4872     7153     7873 
    6709     4754     2617      178     -984     -395     1081     4365 
    8656    10222     8428     5599     2752      849      920     1879 
    2662     3564     4309     4630     4993     4846     3460     1884 
    1659     3546     6385     6520     3153     1119     3427     6670 
    6563     3759     1921     2232     3024     3067     3078     4040 
    5100     5431     5061     3608     2259     2710     3604     3225 
    2640     3489     4895     4330     2143     1603     3701     6412 
    7514     6197     3909     2461     1591      784     1347     3593 
    5409     5962     6127     5522     3919     2870     3373     4436 
    4198     2381     1264     2398     4405     5271     4260     2569 
    2338     3319     3565     3153     3638     5435     7021     6517 
    3939     1266      857     2955     4731     4082     2662     2791 
    4322     5719     5591     3747     1746     1529     3113     4376 
    4625     5053     5224     4550     3925     3389     2748     2569 
    2754     3088     3897     4710     4884     4822     4727     4259 
    3325     2423     2428     3188     3873     4364     4395     3848 
    3582     3682     3669     3889     4206     4064     3549     2967 
    3153     4340     4797     3673     2320     1841     2556     4417 
    6427     7047     5555     3442     2592     2305     1780     2214 
    3948     5487     5325     3990     3489     3824     3721     3591 
    3921     3955     3599     3688     3819     3032     2401     3279 
    4608     4774     3958     3383     3777     4885     5449     4388 
    2500     1588     2516     4287     4765     3993     3937     4216 
    3508     2968     3632     4357     4361     4117     3655     2822 
    2324     2727     3466     3906     4359     4936     4699     3601 
    3329     4129     4178     3357     3218     3798     3913     3400 
    3311     3964     4365     3943     3079     2683     3580     4932 
    5096     4113     3316     3522     4159     4179     3769     3597 
    3689     4156     4433     3360     2103     2606     4008     4916 
    5043     3940     2745     3242     4392     4571     3955     3433 
    3541     3699     3653     4013     4024     3337     3221     3377 
    3110     3249     3859     4548     5310     5378     4423     3208 
    2425     2447     2863     3223     3879     4699     4977     4480 
    3662     3337     3643     3893     3863     3778     3580     3562 
    3769     3393     2732     2840     3346     3867     4653     4839 
    4263     4259     4584     4240     3694     3464     3376     3267 
    3369     3870     3962     3331     3123     3673     4198     4568 
    4923     4731     3527     1934     1347     2581     4541     5134 
    4257     3747     4117     4311     4155     4239     4322     3913 
    3267     2843     2650     2474     2797     4189     5441     5185 
    4401     4185     3878     3202     2971     3370     3527     3090 
    2998     3744     4472     4638     4626     4500     3913     3030 
    2450     2733     3827     4648     4684     4563     4334     3847 
    3531     3453     3276     2933     2667     3036     4051     4633 
    4594     4795     4918     4290     3322     2609     2531     3160 
    3901     3993     3362     2982     3798     5158     5368     4294 
    3696     3916     3839     3493     2953     2370     2637     3314 
    3734     4301     4826     4982     4831     4193     3438     3234 
    3343     3233     3154     3777     4575     4126     2938     2967 
    4023     4423     3909     3168     3036     4064     5081     4845 
    4128     3723     3419     2855     2077     2334     4024     5360 
    5312     4394     3497     3348     3472     3485     3840     3867 
    3187     3186     4114     4477     3878     3721     4305     4098 
    3159     2889     3169     3510     4172     4698     4372     3789 
    3788     4025     3704     3092     3187     3753     3902     3871 
    3991     3971     3924     3821     3202     2698     3388     4734 
    5204     4162     2759     2694     3723     4467     4552     3944 
    3169     3507     4625     4904     4159     3446     3277     3291 
    3125     2948     3013     3419     4224     5094     5238     4550 
    3846     3291     2735     2427     2187     2455     3960     5378 
    5385     4858     4545     3940     3017     2520     2632     2961 
    3565     4482     4845     4163     3501     3724     4040     3557 
    3040     3331     3778     4267     5004     4935     4008     3196 
    2747     2959     3685     4056     4145     4225     4004     3871 
    3939     3458     2830     3271     4270     4237     3632     3748 
    4052     4075     4183     3998     3291     2798     3300     4430 
    4788     4037     3519     4048     4579     4083     3230     2641 
    2246     2671     3862     4476     4280     4050     3989     3933 
    3873     4033     4164     3690     3298     3657     3874     3477 
    3254     3653     4175     4268     4081     3734     3362     3639 
    4101     3711     3257     3591     4221     4741     4534     3235 
    2390     3194     4168     4054     3807     4020     4116     4099 
    3942     3183     2635     3350     4406     4606     4336     3897 
    3267     3203     3717     3994     4012     3800     3522     3886 
    4259     3505     2686     3106     3979     4517     4800     4322 
    3168     3006     3906     4047     3574     3581     3802     4082 
    3982     3125     2857     3607     4132     4298     4345     4060 
    3865     3825     3545     3600     4203     4075     3192     3339 
    4387     4425     3392     2808     3218     3917     4274     4255 
