Origin Time       2025/03/30 21:30:00
Lat.              38.535
Long.             142.295
Depth. (km)       44
Mag.              4.3
Station Code      MYG001
Station Lat.      38.9017
Station Long.     141.5709
Station Height(m) 36
Record Time       2025/03/30 21:31:18
Sampling Freq(Hz) 100Hz
Duration Time(s)  60
Dir.              U-D
Scale Factor      7845(gal)/8223790
Max. Acc. (gal)   5.764
Last Correction   2025/03/30 21:31:18
Memo.             
[...]
  -12953   -12953   -12953   -12953   -12954   -12954   -12953   -12951 
  -12953   -12954   -12954   -12951   -12950   -12950   -12950   -12953 
  -12951   -12950   -12955   -12957   -12951   -12951   -12953   -12951 
  -12953   -12954   -12950   -12949   -12955   -12954   -12949   -12950 
  -12951   -12951   -12954   -12954   -12953   -12951   -12951   -12951 
  -12951   -12953   -12953   -12951   -12951   -12951   -12947   -12947 
  -12951   -12955   -12954   -12953   -12953   -12955   -12953   -12954 
  -12954   -12950   -12951   -12957   -12954   -12950   -12953   -12957 
  -12954   -12951   -12953   -12955   -12955   -12955   -12955   -12953 
  -12951   -12954   -12954   -12953   -12953   -12953   -12954   -12957 
  -12955   -12950   -12953   -12957   -12955   -12953   -12954   -12954 
  -12954   -12955   -12955   -12954   -12954   -12954   -12954   -12951 
  -12949   -12951   -12955   -12957   -12953   -12950   -12951   -12953 
  -12954   -12954   -12953   -12953   -12953   -12953   -12953   -12951 
  -12950   -12951   -12953   -12951   -12950   -12951   -12953   -12953 
  -12951   -12951   -12953   -12954   -12955   -12954   -12953   -12951 
  -12951   -12954   -12953   -12950   -12951   -12955   -12954   -12950 
  -12951   -12955   -12954   -12950   -12950   -12951   -12953   -12954 
  -12953   -12953   -12951   -12951   -12954   -12953   -12950   -12951 
  -12953   -12951   -12950   -12953   -12951   -12950   -12953   -12955 
  -12954   -12953   -12954   -12954   -12953   -12951   -12951   -12954 
  -12954   -12954   -12954   -12953   -12953   -12955   -12955   -12954 
  -12953   -12954   -12955   -12953   -12951   -12951   -12953   -12955 
  -12954   -12951   -12953   -12955   -12955   -12953   -12953   -12953 
  -12951   -12951   -12953   -12951   -12951   -12951   -12951   -12950 
  -12949   -12950   -12954   -12953   -12950   -12951   -12951   -12951 
  -12953   -12953   -12951   -12953   -12955   -12953   -12950   -12950 
  -12951   -12953   -12955   -12954   -12953   -12954   -12955   -12953 
  -12950   -12949   -12951   -12951   -12951   -12953   -12951   -12951 
  -12954   -12954   -12953   -12953   -12951   -12951   -12950   -12950 
  -12949   -12949   -12953   -12955   -12951   -12949   -12953   -12957 
  -12954   -12953   -12953   -12953   -12953   -12953   -12951   -12951 
  -12951   -12951   -12954   -12954   -12951   -12950   -12951   -12954 
  -12953   -12950   -12951   -12954   -12953   -12953   -12953   -12951 
  -12954   -12953   -12951   -12951   -12951   -12953   -12954   -12951 
  -12949   -12951   -12953   -12953   -12951   -12950   -12951   -12953 
  -12950   -12950   -12950   -12950   -12953   -12954   -12951   -12950 
  -12951   -12954   -12953   -12950   -12950   -12951   -12954   -12954 
  -12951   -12949   -12951   -12953   -12953   -12950   -12949   -12950 
  -12951   -12949   -12950   -12953   -12951   -12953   -12954   -12953 
  -12950   -12951   -12955   -12953   -12949   -12950   -12953   -12955 
  -12955   -12949   -12947   -12953   -12955   -12955   -12953   -12951 
  -12953   -12951   -12950   -12951   -12951   -12953   -12955   -12954 
  -12950   -12951   -12954   -12953   -12951   -12951   -12951   -12950 
  -12951   -12953   -12953   -12953   -12955   -12953   -12950   -12951 
  -12953   -12951   -12953   -12953   -12951   -12951   -12953   -12951 
  -12953   -12951   -12949   -12951   -12954   -12950   -12949   -12950 
  -12949   -12950   -12951   -12950   -12949   -12951   -12951   -12949 
  -12950   -12954   -12954   -12951   -12950   -12949   -12951   -12953 
  -12950   -12953   -12953   -12951   -12954   -12954   -12951   -12951 
  -12953   -12953   -12954   -12951   -12950   -12950   -12953   -12953 
  -12951   -12953   -12954   -12953   -12953   -12953   -12954   -12954 
  -12954   -12955   -12953   -12950   -12951   -12953   -12954   -12953 
  -12950   -12953   -12957   -12953   -12949   -12953   -12953   -12951 
  -12953   -12953   -12951   -12953   -12957   -12955   -12953   -12953 
  -12955   -12954   -12951   -12951   -12951   -12953   -12955   -12955 
  -12951   -12954   -12957   -12955   -12953   -12953   -12955   -12955 
  -12955   -12954   -12953   -12953   -12955   -12955   -12954   -12951 
  -12953   -12957   -12955   -12953   -12954   -12954   -12951   -12951 
  -12954   -12955   -12954   -12951   -12951   -12951   -12951   -12954 
  -12957   -12955   -12954   -12953   -12951   -12951   -12953   -12953 
  -12951   -12953   -12953   -12951   -12953   -12953   -12951   -12951 
  -12954   -12954   -12951   -12950   -12951   -12953   -12953   -12953 
  -12951   -12951   -12954   -12953   -12949   -12950   -12953   -12953 
  -12953   -12954   -12954   -12951   -12950   -12945   -12941   -12941 
  -12939   -12942   -12947   -12941   -12916   -12908   -12930   -12920 
  -12911   -13088   -13344   -13188   -12695   -12676   -13142   -13204 
  -12823   -12625   -12563   -12484   -12780   -13358   -13474   -13188 
  -13231   -13467   -13344   -12823   -12019   -11581   -12164   -13269 
  -14270   -14592   -13697   -12590   -12445   -12648   -12495   -12244 
  -12193   -12494   -13035   -13498   -13736   -13694   -13232   -12464 
  -12190   -12785   -13680   -14185   -13806   -12571   -11057   -10654 
  -12299   -14229   -14453   -13730   -13544   -13477   -12430   -11476 
  -11813   -12166   -12646   -14536   -15537   -13747   -11730   -11545 
  -12329   -12761   -12495   -12603   -13694   -14301   -14035   -14181 
  -13459   -10829    -9926   -12517   -14646   -14046   -13321   -13601 
  -12660   -11017   -11562   -13386   -14034   -14218   -14454   -13136 
  -11371   -12070   -13656   -13015   -11788   -12445   -13574   -13549 
  -13085   -12920   -12978   -13147   -13451   -13439   -12413   -11627 
  -12320   -12771   -12604   -13458   -14428   -13984   -12831   -12118 
  -12228   -12957   -13406   -13142   -12991   -13149   -12814   -11932 
  -11416   -12533   -14827   -15314   -13177   -11547   -12112   -13090 
  -13113   -12869   -13112   -13247   -12703   -12471   -12901   -13068 
  -13367   -13787   -12927   -11769   -12221   -13132   -13432   -13852 
  -13605   -12326   -11863   -12487   -13022   -13389   -13678   -13531 
  -12864   -12208   -12355   -13018   -13144   -12864   -12953   -13298 
  -13404   -13311   -13076   -12509   -11916   -11985   -12964   -13988 
  -13959   -13211   -12676   -12600   -12653   -12452   -12386   -13103 
  -14044   -14041   -13192   -12328   -11796   -12135   -13378   -13977 
  -13246   -12696   -12787   -12685   -12804   -13072   -12772   -12619 
  -13030   -13527   -13819   -13497   -12707   -12352   -12555   -12695 
  -12843   -13311   -13437   -12887   -12676   -12895   -12609   -12560 
  -13409   -13678   -12757   -12114   -12649   -13641   -14060   -13504 
  -12448   -11847   -11905   -12356   -13181   -13907   -13940   -13547 
  -13312   -12849   -11956   -11990   -12793   -12649   -12744   -14149 
  -14149   -12375   -12143   -13439   -13473   -12106   -11515   -12503 
  -13794   -14378   -13819   -12469   -12240   -13224   -13198   -12306 
  -12476   -13455   -13728   -13005   -12260   -12468   -12901   -12649 
  -12834   -13865   -14218   -13293   -12185   -12035   -12480   -12691 
  -12934   -13230   -13331   -13743   -13836   -12764   -12145   -12719 
  -12579   -11917   -12788   -14119   -13491   -12236   -12873   -14000 
  -13363   -12241   -12455   -13128   -13234   -13088   -12648   -12402 
  -13082   -13531   -12942   -12339   -12536   -13339   -13779   -13294 
  -12654   -12472   -12530   -12780   -13282   -13539   -13088   -12513 
  -12717   -13473   -13549   -12519   -11716   -12291   -13425   -13810 
  -13417   -13012   -13150   -13425   -12974   -12144   -11896   -12218 
  -12780   -13612   -14210   -13697   -12677   -12511   -12960   -13225 
  -13049   -12283   -11904   -12775   -13822   -13986   -13348   -12518 
  -12395   -12791   -12775   -12764   -13080   -12937   -12667   -12923 
  -13182   -13381   -13621   -13329   -12702   -12495   -12677   -12788 
  -12762   -12784   -12873   -13069   -13390   -13413   -12864   -12501 
  -12823   -13096   -13078   -13062   -12765   -12444   -12661   -13078 
  -13425   -13799   -13628   -12688   -12166   -12534   -12810   -12708 
  -12769   -13022   -13166   -13236   -13333   -13211   -12903   -12781 
  -12823   -12885   -12842   -12563   -12491   -13130   -13756   -13327 
  -12488   -12552   -13273   -13544   -13116   -12696   -12783   -12923 
  -12675   -12479   -12791   -13213   -13261   -13301   -13441   -12950 
  -12195   -12375   -12982   -13031   -13092   -13467   -13354   -12783 
  -12626   -12999   -13184   -12897   -12604   -12614   -12899   -13182 
  -13219   -13147   -12912   -12688   -12876   -12989   -12893   -13088 
  -13189   -13057   -13046   -12712   -12405   -13051   -13544   -12899 
  -12438   -12865   -13331   -13311   -12812   -12488   -12830   -13219 
  -13170   -12808   -12658   -13140   -13441   -13036   -12752   -12741 
  -12538   -12607   -13369   -13905   -13266   -12243   -12172   -12904 
  -13344   -13111   -12649   -12480   -12999   -13780   -13705   -12908 
  -12424   -12361   -12618   -13220   -13513   -13155   -12793   -12746 
  -12644   -12492   -12834   -13554   -13614   -12808   -12495   -13235 
  -13585   -12910   -12430   -12567   -12658   -12687   -13068   -13594 
  -13587   -13086   -12857   -12852   -12592   -12565   -12985   -13171 
  -13059   -12961   -12914   -12888   -12744   -12737   -13072   -13348 
  -13416   -13116   -12394   -12171   -12930   -13667   -13485   -12730 
  -12341   -12688   -13252   -13419   -13170   -12914   -12777   -12640 
  -12544   -12766   -13545   -14002   -13053   -11830   -12002   -12912 
  -13250   -13254   -13340   -13197   -12858   -12691   -12891   -13367 
  -13551   -13016   -12325   -12375   -12945   -13024   -12745   -13130 
  -13794   -13346   -12252   -12145   -12969   -13578   -13336   -12592 
  -12468   -12984   -13058   -12923   -13412   -13805   -13068   -11929 
  -11735   -12320   -13090   -14193   -14948   -14131   -12349   -11465 
  -11682   -12063   -12903   -13906   -13514   -12351   -12418   -13433 
  -13868   -13682   -13338   -12447   -11574   -12052   -13194   -13737 
  -13826   -13325   -12357   -12164   -12981   -13761   -13683   -12820 
  -11988   -11890   -12424   -12968   -13478   -13900   -13620   -13132 
  -13194   -12906   -12082   -12186   -12970   -13039   -12896   -13158 
  -13108   -12885   -13338   -13806   -13132   -12023   -11894   -12602 
  -13292   -13745   -13729   -13038   -12361   -12513   -13117   -13166 
  -12784   -12957   -13219   -12775   -12583   -12964   -12872   -12555 
  -13030   -13710   -13387   -12783   -12989   -13246   -12815   -12312 
  -12561   -13225   -13207   -12765   -12951   -13464   -13236   -12410 
  -12363   -13109   -13157   -12773   -13169   -13552   -13038   -12636 
  -12906   -12942   -12761   -13108   -13257   -12721   -12633   -13027 
  -12907   -12826   -13216   -13099   -12503   -12320   -12773   -13601 
  -13932   -13512   -13188   -12829   -12124   -11935   -12417   -12922 
  -13262   -13302   -13204   -13424   -13527   -12955   -12325   -12278 
  -12798   -13690   -14054   -13153   -12066   -12090   -12679   -12776 
  -12812   -13513   -13865   -13176   -12645   -12773   -13059   -13109 
  -12436   -11862   -12603   -13726   -13929   -13463   -12980   -12722 
  -12779   -12941   -12665   -12141   -12355   -13293   -13832   -13568 
  -13225   -13147   -12696   -11970   -12060   -12873   -13232   -13170 
  -13489   -13805   -13261   -12256   -12044   -12849   -13579   -13566 
  -13128   -12653   -12515   -13020   -13343   -12623   -12062   -12588 
  -13027   -13058   -13531   -13860   -13269   -12598   -12532   -12756 
  -13065   -13269   -12918   -12325   -12418   -12954   -13173   -13327 
  -13510   -13396   -13196   -12916   -12378   -12247   -12829   -13244 
  -12964   -12507   -12899   -13849   -13649   -12467   -12189   -13041 
  -13371   -12623   -12505   -13470   -13636   -12895   -12834   -13108 
  -12810   -12610   -12766   -12679   -12598   -12897   -13216   -13387 
  -13397   -13161   -12970   -12938   -12742   -12483   -12525   -12675 
  -12776   -13104   -13593   -13900   -13695   -12939   -12341   -12209 
  -12125   -12232   -12642   -13081   -13770   -14369   -13821   -12505 
  -11875   -12229   -12756   -12891   -12900   -13216   -13583   -13606 
  -13336   -12830   -12077   -11719   -12600   -13949   -14179   -13278 
  -12391   -12186   -12432   -12829   -13386   -13671   -13393   -13001 
  -12645   -12177   -12036   -12553   -13373   -14056   -14107   -13367 
  -12507   -12166   -12514   -13082   -13080   -12692   -12640   -12937 
  -13301   -13570   -13491   -12977   -12553   -12642   -12664   -12441 
  -12820   -13529   -13493   -12957   -12776   -12943   -12982   -12945 
  -13001   -12864   -12617   -12807   -13379   -13676   -13517   -13240 
  -12669   -11785   -11722   -12874   -13637   -13053   -12532   -13138 
  -13802   -13725   -13451   -12915   -11955   -11750   -12550   -13051 
  -13089   -13375   -13614   -13320   -13016   -13205   -13242   -12691 
  -12213   -12075   -12252   -13158   -14040   -13551   -12653   -13036 
  -13652   -12880   -11708   -11577   -12236   -12953   -13570   -14142 
  -14076   -13069   -12359   -12613   -12922   -12903   -12779   -12355 
  -11871   -12198   -13274   -14092   -14258   -13969   -13034   -11404 
  -10469   -12073   -14908   -15317   -13086   -10922   -10354   -12054 
  -15179   -16881   -15828   -13130   -10172    -8861   -11007   -14949 
  -16379   -13832   -10396    -9474   -11862   -16194   -18995   -17186 
  -11994    -7550    -7030   -10868   -16137   -18200   -15634   -11820 
  -10211   -11680   -14893   -16340   -13837    -9717    -8039   -10417 
  -14917   -17788   -16534   -12565    -9825   -10149   -12295   -14716 
  -16237   -15230   -11851    -9714   -11021   -13248   -14067   -14042 
  -13348   -11646   -10660   -12190   -14756   -15866   -15034   -12995 
  -11252   -11111   -11789   -11569   -10678   -11084   -12798   -13856 
  -14146   -14709   -15321   -15257   -14008   -11781   -10026   -10392 
  -13113   -15788   -15642   -13248   -10746    -9143    -9498   -12255 
  -15237   -15730   -13894   -12212   -12222   -13360   -14490   -14790 
  -13975   -12744   -11853   -11448   -11981   -13444   -14226   -13346 
  -12120   -11808   -12128   -12906   -14111   -14280   -12742   -11453 
  -11776   -13062   -14099   -13836   -12889   -12974   -13786   -14079 
  -14492   -15291   -14652   -12078    -9663    -9153   -10318   -11812 
  -12698   -13360   -14520   -15371   -14835   -13915   -13653   -13066 
  -11691   -10801   -11011   -11782   -12822   -13857   -14411   -14323 
  -13736   -12939   -12305   -12213   -12426   -12324   -12280   -12874 
  -13521   -13467   -12947   -12729   -13054   -13462   -13564   -13320 
  -12627   -11585   -11275   -12719   -14631   -14867   -13790   -13063 
  -12965   -12807   -12102   -11377   -11819   -13180   -14022   -14008 
  -13856   -13625   -12953   -12474   -12553   -12434   -12006   -11947 
  -12603   -13370   -13522   -13620   -14094   -14119   -13323   -12582 
  -12456   -12217   -11844   -12432   -13390   -13354   -13036   -13294 
  -13329   -12825   -12334   -12074   -12453   -13558   -14054   -13300 
  -12611   -12788   -13112   -13115   -13103   -13173   -12870   -12163 
  -12005   -12397   -12397   -12899   -14311   -14566   -13379   -12249 
  -11500   -11611   -12776   -13660   -13776   -13776   -13587   -13088 
  -12623   -12329   -12370   -12725   -12973   -13105   -13327   -13211 
  -12731   -12943   -13717   -13582   -12714   -12487   -13019   -13424 
  -13049   -12294   -12447   -13471   -13857   -13419   -13092   -12873 
  -12225   -11427   -11626   -13078   -14436   -14713   -13956   -12661 
  -11723   -11650   -12280   -12991   -13209   -13142   -12833   -12340 
  -12776   -14368   -15147   -13961   -12275   -11445   -11414   -11812 
  -12407   -13304   -14053   -13805   -13181   -13369   -13813   -13212 
  -12071   -11658   -11805   -11966   -12445   -13598   -14683   -14543 
  -13493   -12702   -12370   -12225   -12502   -13080   -13203   -12866 
  -12626   -12540   -12711   -13324   -13667   -12993   -12218   -12530 
  -13082   -12911   -12968   -13612   -13690   -13149   -12866   -12957 
  -13134   -13236   -13192   -13036   -12860   -12538   -12060   -12166 
  -13008   -13383   -13139   -13246   -13413   -13162   -13161   -13323 
  -12853   -12179   -12221   -12906   -13431   -13589   -13586   -12970 
  -12152   -12356   -12999   -12856   -12339   -12414   -13034   -13393 
  -13259   -13126   -13136   -13192   -13231   -12912   -12438   -12483 
  -12838   -13055   -13127   -13041   -12942   -12938   -13032   -13263 
  -13239   -12923   -12951   -13028   -12606   -12367   -12687   -12977 
  -13026   -13167   -13505   -13549   -13042   -12460   -12129   -11962 
  -12312   -13436   -14268   -14072   -13591   -13174   -12707   -12553 
  -12642   -12424   -12019   -12037   -12591   -13332   -13981   -14191 
  -13728   -13108   -12812   -12623   -12453   -12465   -12739   -13076 
  -13062   -12900   -13046   -13338   -13316   -12947   -12781   -12907 
  -12617   -12063   -12179   -12843   -13346   -13601   -13834   -13899 
  -13273   -12208   -11788   -12276   -12938   -13221   -13190   -13144 
  -13174   -13332   -13419   -13018   -12529   -12360   -12213   -12526 
  -13552   -13945   -13215   -12576   -12546   -12766   -12931   -12858 
  -12656   -12552   -12746   -13193   -13632   -13888   -13613   -12854 
  -12337   -12333   -12561   -12771   -12823   -12754   -12843   -13352 
  -13863   -13871   -13612   -13123   -12276   -11634   -11712   -12403 
  -13252   -13887   -14073   -13614   -12954   -12692   -12688   -12735 
  -12692   -12560   -12777   -13134   -13128   -13101   -13169   -12939 
  -12630   -12618   -12839   -13212   -13510   -13459   -13068   -12604 
  -12553   -12849   -13042   -13165   -13136   -12923   -12783   -12595 
  -12507   -12908   -13390   -13390   -13036   -12563   -12341   -12837 
  -13392   -13205   -12822   -12707   -12680   -12825   -13063   -13082 
  -13016   -13024   -13057   -13036   -12830   -12746   -13201   -13741 
  -13672   -13058   -12387   -11982   -12144   -12962   -13705   -13520 
  -12675   -12339   -12865   -13223   -12987   -12814   -12807   -12726 
  -12818   -13358   -14008   -14050   -13338   -12383   -11786   -11982 
  -12730   -13251   -13301   -13216   -13225   -13239   -13045   -12808 
  -12764   -12712   -12638   -12640   -12691   -13135   -13752   -13497 
  -12825   -13008   -13174   -12324   -11905   -12831   -13656   -13352 
  -12630   -12337   -12671   -13309   -13574   -13197   -12810   -13038 
  -13261   -12795   -12550   -13078   -13350   -13009   -12883   -13050 
  -13009   -12974   -13063   -12789   -12297   -12276   -12613   -12885 
  -13269   -13599   -13444   -13144   -13059   -12927   -12764   -12806 
  -12811   -12661   -12854   -13522   -13792   -13115   -12371   -12502 
  -13073   -13090   -12545   -12306   -12707   -13155   -13189   -13269 
  -13535   -13302   -12762   -12540   -12447   -12486   -12930   -13374 
  -13289   -12999   -13131   -13298   -12792   -12391   -12793   -12993 
  -12746   -12955   -13324   -13255   -13117   -13100   -13038   -12900 
  -12665   -12523   -12592   -12606   -12630   -13032   -13674   -13929 
  -13491   -12861   -12465   -12187   -12186   -12667   -13193   -13331 
