Origin Time       2025/03/30 21:30:00
Lat.              38.535
Long.             142.295
Depth. (km)       44
Mag.              4.3
Station Code      MYG006
Station Lat.      38.5660
Station Long.     140.9767
Station Height(m) 17
Record Time       2025/03/30 21:31:30
Sampling Freq(Hz) 100Hz
Duration Time(s)  60
Dir.              U-D
Scale Factor      7845(gal)/8223790
Max. Acc. (gal)   1.642
Last Correction   2025/03/30 21:31:29
Memo.             
[...]
  -42772   -43140   -43236   -43104   -42898   -42830   -42849   -42800 
  -42831   -43008   -43128   -43039   -42661   -42147   -41964   -42360 
  -42950   -43214   -43244   -43355   -43352   -43009   -42569   -42302 
  -42222   -42287   -42496   -42761   -42997   -43222   -43309   -43128 
  -42809   -42502   -42265   -42167   -42237   -42503   -42979   -43536 
  -43846   -43679   -43185   -42699   -42396   -42236   -42145   -42180 
  -42342   -42533   -42778   -43121   -43409   -43463   -43321   -43154 
  -42986   -42734   -42475   -42333   -42292   -42358   -42496   -42542 
  -42535   -42647   -42919   -43308   -43515   -43275   -42871   -42651 
  -42618   -42677   -42723   -42753   -42827   -42839   -42758   -42704 
  -42688   -42665   -42616   -42550   -42603   -42801   -42943   -42985 
  -43066   -43132   -43051   -42828   -42531   -42345   -42415   -42585 
  -42691   -42823   -43011   -43105   -43055   -42974   -42973   -42998 
  -42896   -42685   -42529   -42464   -42472   -42496   -42530   -42711 
  -42955   -43060   -43092   -43071   -42998   -42955   -42866   -42746 
  -42749   -42823   -42851   -42755   -42542   -42446   -42547   -42620 
  -42601   -42628   -42734   -42803   -42792   -42822   -42924   -42969 
  -42908   -42874   -42942   -43004   -42982   -42975   -42981   -42822 
  -42561   -42454   -42515   -42633   -42766   -42838   -42877   -42967 
  -42978   -42836   -42696   -42664   -42705   -42696   -42645   -42732 
  -42948   -43141   -43228   -43078   -42709   -42434   -42434   -42547 
  -42624   -42709   -42830   -42890   -42862   -42812   -42820   -42919 
  -42974   -42880   -42790   -42739   -42610   -42543   -42651   -42780 
  -42839   -42862   -42876   -42915   -42966   -42924   -42797   -42753 
  -42757   -42676   -42595   -42635   -42805   -43008   -43040   -42867 
  -42741   -42751   -42718   -42620   -42670   -42861   -42977   -43009 
  -43011   -42892   -42673   -42491   -42412   -42477   -42608   -42689 
  -42807   -43013   -43167   -43179   -43104   -43032   -42901   -42645 
  -42483   -42526   -42538   -42484   -42607   -42894   -43081   -43066 
  -42997   -42965   -42905   -42793   -42673   -42588   -42579   -42635 
  -42681   -42701   -42770   -42890   -42990   -43020   -42935   -42785 
  -42705   -42707   -42758   -42850   -42838   -42724   -42700   -42761 
  -42792   -42786   -42784   -42824   -42851   -42758   -42642   -42654 
  -42735   -42804   -42871   -42903   -42858   -42782   -42750   -42761 
  -42754   -42750   -42789   -42799   -42754   -42766   -42869   -42931 
  -42863   -42758   -42735   -42776   -42817   -42824   -42824   -42880 
  -42900   -42800   -42677   -42565   -42507   -42633   -42808   -42834 
  -42801   -42835   -42889   -42886   -42839   -42836   -42911   -42904 
  -42735   -42619   -42685   -42768   -42773   -42781   -42820   -42834 
  -42799   -42789   -42859   -42973   -43050   -42996   -42839   -42703 
  -42619   -42616   -42678   -42666   -42615   -42651   -42697   -42743 
  -42877   -42971   -42889   -42757   -42749   -42781   -42693   -42639 
  -42796   -42971   -43031   -43025   -42890   -42715   -42712   -42770 
  -42762   -42774   -42776   -42730   -42741   -42804   -42843   -42888 
  -42880   -42719   -42585   -42695   -42923   -43046   -43058   -42958 
  -42739   -42596   -42587   -42518   -42437   -42538   -42768   -42981 
  -43105   -43113   -43025   -42874   -42765   -42757   -42724   -42642 
  -42616   -42626   -42614   -42595   -42601   -42691   -42819   -42896 
  -43006   -43131   -43097   -42997   -42932   -42792   -42647   -42596 
  -42570   -42607   -42731   -42840   -42915   -42931   -42801   -42672 
  -42749   -42850   -42817   -42804   -42813   -42809   -42880   -42940 
  -42942   -42943   -42865   -42727   -42639   -42585   -42608   -42722 
  -42844   -43000   -43117   -43021   -42766   -42535   -42429   -42465 
  -42552   -42604   -42674   -42816   -42947   -42988   -43001   -43009 
  -42921   -42799   -42770   -42687   -42499   -42549   -42862   -43051 
  -43012   -42913   -42809   -42672   -42588   -42681   -42820   -42800 
  -42700   -42680   -42768   -42869   -42844   -42805   -42889   -42969 
  -42974   -42961   -42916   -42826   -42703   -42612   -42633   -42687 
  -42701   -42776   -42880   -42871   -42847   -42881   -42763   -42496 
  -42412   -42611   -42851   -42962   -42973   -42969   -42962   -42911 
  -42849   -42803   -42718   -42612   -42542   -42498   -42516   -42645 
  -42861   -43096   -43174   -43028   -42904   -42927   -42876   -42722 
  -42681   -42738   -42723   -42646   -42642   -42705   -42735   -42758 
  -42827   -42907   -42928   -42854   -42778   -42766   -42739   -42727 
  -42762   -42736   -42654   -42631   -42722   -42882   -42996   -43000 
  -42909   -42781   -42716   -42711   -42715   -42803   -42927   -42909 
  -42753   -42616   -42693   -42978   -43162   -43056   -42861   -42780 
  -42735   -42600   -42507   -42608   -42746   -42792   -42865   -42944 
  -42919   -42892   -42908   -42854   -42766   -42736   -42731   -42700 
  -42728   -42911   -43051   -42912   -42681   -42565   -42449   -42342 
  -42444   -42692   -42876   -42935   -42869   -42754   -42808   -43066 
  -43235   -43105   -42834   -42647   -42508   -42360   -42327   -42489 
  -42742   -42889   -42890   -42938   -43029   -43005   -42961   -42978 
  -42917   -42719   -42498   -42438   -42577   -42745   -42865   -42996 
  -43094   -43085   -42962   -42781   -42658   -42657   -42676   -42642 
  -42666   -42782   -42859   -42880   -42951   -43066   -43056   -42866 
  -42672   -42577   -42535   -42554   -42642   -42758   -42893   -43033 
  -43124   -43090   -42978   -42936   -42861   -42600   -42415   -42493 
  -42607   -42646   -42745   -42881   -42965   -42994   -42938   -42805 
  -42651   -42479   -42387   -42498   -42732   -42903   -42890   -42805 
  -42843   -42944   -42882   -42680   -42588   -42699   -42866   -43004 
  -43090   -43065   -43005   -43001   -42901   -42662   -42530   -42607 
  -42735   -42813   -42828   -42827   -42851   -42820   -42723   -42665 
  -42693   -42827   -42974   -43005   -42967   -42884   -42719   -42568 
  -42502   -42538   -42705   -42916   -43071   -43131   -43040   -42843 
  -42641   -42468   -42364   -42398   -42541   -42709   -42846   -42936 
  -43023   -43110   -43100   -42951   -42753   -42576   -42480   -42503 
  -42650   -42839   -42932   -42940   -42908   -42795   -42673   -42666 
  -42746   -42857   -42948   -42938   -42873   -42846   -42788   -42716 
  -42749   -42799   -42778   -42769   -42832   -42935   -42904   -42670 
  -42481   -42496   -42592   -42692   -42846   -43020   -43119   -43137 
  -43025   -42720   -42464   -42461   -42554   -42666   -42862   -43047 
  -43128   -43089   -42979   -42938   -42904   -42692   -42403   -42273 
  -42356   -42574   -42761   -42803   -42871   -43060   -43168   -43102 
  -42923   -42761   -42774   -42844   -42819   -42836   -42898   -42873 
  -42819   -42735   -42572   -42461   -42531   -42714   -42890   -43035 
  -43101   -43032   -42889   -42746   -42618   -42498   -42422   -42492 
  -42673   -42789   -42809   -42870   -43044   -43152   -42997   -42762 
  -42696   -42699   -42664   -42703   -42836   -42948   -42948   -42838 
  -42720   -42672   -42668   -42678   -42677   -42661   -42680   -42662 
  -42614   -42720   -42889   -42921   -42927   -43002   -43120   -43224 
  -43128   -42824   -42633   -42661   -42714   -42670   -42583   -42599 
  -42716   -42749   -42693   -42707   -42792   -42850   -42862   -42861 
  -42869   -42897   -42935   -42930   -42861   -42766   -42672   -42592 
  -42601   -42718   -42804   -42795   -42797   -42819   -42792   -42792 
  -42816   -42812   -42882   -42965   -42898   -42824   -42866   -42866 
  -42709   -42512   -42437   -42522   -42685   -42834   -42973   -43135 
  -43227   -43106   -42817   -42587   -42533   -42550   -42585   -42709 
  -42871   -42971   -42973   -42863   -42790   -42885   -42951   -42880 
  -42844   -42834   -42734   -42606   -42539   -42626   -42878   -43013 
  -42824   -42546   -42472   -42601   -42724   -42727   -42761   -42884 
  -42962   -43009   -43063   -43013   -42909   -42858   -42765   -42607 
  -42539   -42574   -42641   -42797   -42971   -42923   -42722   -42677 
  -42747   -42699   -42580   -42539   -42631   -42809   -42934   -42979 
  -43052   -43144   -43217   -43183   -42913   -42584   -42434   -42363 
  -42309   -42430   -42691   -42808   -42795   -42880   -42950   -42851 
  -42786   -42854   -42896   -42788   -42604   -42612   -42896   -43171 
  -43146   -42896   -42766   -42769   -42699   -42672   -42738   -42763 
  -42780   -42765   -42745   -42804   -42824   -42826   -42909   -42876 
  -42709   -42661   -42716   -42789   -42912   -42992   -42917   -42785 
  -42736   -42750   -42773   -42890   -43033   -42984   -42870   -42907 
  -42898   -42647   -42329   -42238   -42406   -42603   -42716   -42797 
  -42912   -43131   -43316   -43217   -42938   -42739   -42595   -42471 
  -42510   -42681   -42768   -42711   -42711   -42847   -42849   -42661 
  -42612   -42751   -42811   -42766   -42815   -43001   -43179   -43229 
  -43144   -42950   -42730   -42622   -42607   -42554   -42480   -42512 
  -42668   -42801   -42815   -42777   -42796   -42844   -42827   -42793 
  -42781   -42741   -42766   -42901   -42978   -42930   -42800   -42711 
  -42828   -43000   -42952   -42803   -42704   -42614   -42533   -42514 
  -42599   -42747   -42880   -43020   -43104   -43009   -42832   -42699 
  -42661   -42728   -42747   -42664   -42646   -42742   -42920   -43147 
  -43218   -43092   -42967   -42831   -42577   -42364   -42298   -42286 
  -42387   -42687   -43009   -43174   -43185   -43127   -43069   -42965 
  -42762   -42584   -42514   -42537   -42670   -42819   -42881   -42897 
  -42870   -42765   -42672   -42684   -42701   -42660   -42734   -42963 
  -43104   -43047   -42885   -42751   -42807   -42974   -42925   -42633 
  -42469   -42584   -42727   -42754   -42738   -42736   -42785   -42823 
  -42745   -42714   -42858   -42957   -42924   -42948   -43031   -42986 
  -42774   -42569   -42527   -42561   -42508   -42471   -42603   -42839 
  -43081   -43239   -43206   -43054   -42880   -42654   -42446   -42348 
  -42361   -42492   -42619   -42661   -42777   -42936   -42985   -43040 
  -43100   -43019   -42908   -42850   -42819   -42866   -42903   -42836 
  -42751   -42633   -42507   -42520   -42626   -42705   -42747   -42709 
  -42687   -42834   -42997   -43017   -42971   -42903   -42846   -42788 
  -42691   -42727   -42915   -43042   -43105   -43102   -42936   -42718 
  -42573   -42529   -42581   -42638   -42623   -42561   -42560   -42761 
  -43089   -43263   -43243   -43154   -42951   -42673   -42496   -42477 
  -42574   -42677   -42704   -42692   -42634   -42580   -42664   -42824 
  -42893   -42894   -42903   -42849   -42759   -42781   -42851   -42820 
  -42773   -42820   -42844   -42820   -43006   -43364   -43428   -43227 
  -43113   -42909   -42535   -42310   -42229   -42228   -42354   -42462 
  -42566   -42776   -42958   -43020   -42951   -42723   -42491   -42484 
  -42714   -43006   -43221   -43339   -43266   -42838   -42229   -41937 
  -42151   -42557   -42844   -43031   -43220   -43351   -43374   -43339 
  -43220   -42994   -42753   -42545   -42372   -42384   -42681   -42962 
  -42917   -42711   -42576   -42492   -42469   -42558   -42684   -42772 
  -42831   -42815   -42728   -42689   -42790   -42998   -43127   -43048 
  -42880   -42723   -42606   -42645   -42811   -42831   -42714   -42746 
  -42920   -43004   -42982   -42973   -43006   -42984   -42819   -42661 
  -42664   -42765   -42817   -42669   -42388   -42269   -42346   -42446 
  -42597   -42901   -43260   -43429   -43301   -43060   -42958   -42982 
  -42939   -42831   -42742   -42522   -42136   -41959   -42217   -42595 
  -42780   -42844   -42939   -43096   -43229   -43189   -43078   -43119 
  -43164   -42990   -42657   -42438   -42569   -42792   -42720   -42552 
  -42542   -42547   -42527   -42645   -42961   -43295   -43359   -43164 
  -43001   -42901   -42701   -42441   -42265   -42221   -42287   -42452 
  -42747   -43144   -43440   -43495   -43351   -42992   -42516   -42221 
  -42133   -42164   -42450   -42826   -42932   -42984   -43195   -43251 
  -43087   -43012   -42970   -42701   -42256   -41955   -41986   -42201 
  -42410   -42634   -42831   -42930   -43098   -43421   -43731   -43896 
  -43831   -43563   -43249   -42916   -42534   -42184   -41939   -41893 
  -42076   -42279   -42400   -42668   -43139   -43460   -43437   -43314 
  -43228   -42988   -42557   -42174   -41987   -42033   -42248   -42460 
  -42672   -42951   -43159   -43233   -43260   -43290   -43387   -43487 
  -43362   -43040   -42786   -42649   -42491   -42295   -42174   -42169 
  -42178   -42151   -42252   -42611   -43066   -43345   -43447   -43563 
  -43677   -43578   -43229   -42838   -42547   -42338   -42157   -42016 
  -41894   -41835   -42049   -42471   -42799   -43151   -43642   -43916 
  -43777   -43461   -43260   -43229   -43163   -42990   -42776   -42394 
  -41879   -41598   -41701   -41949   -42205   -42558   -42989   -43322 
  -43490   -43505   -43351   -43090   -42859   -42655   -42396   -42253 
  -42453   -42719   -42650   -42411   -42286   -42260   -42368   -42606 
  -42795   -42890   -42915   -42988   -43305   -43683   -43854   -43910 
  -43830   -43542   -43283   -43110   -42855   -42591   -42410   -42221 
  -42071   -42041   -42093   -42183   -42226   -42295   -42712   -43405 
  -43964   -44293   -44393   -44135   -43592   -42959   -42292   -41644 
  -41189   -41069   -41220   -41440   -41636   -41847   -42122   -42466 
  -42805   -43125   -43459   -43777   -44004   -44085   -43999   -43795 
  -43614   -43475   -43217   -42900   -42716   -42537   -42187   -41787 
  -41488   -41347   -41357   -41531   -41920   -42383   -42780   -43206 
  -43669   -44051   -44293   -44307   -44126   -43899   -43610   -43237 
  -42854   -42485   -42222   -42070   -41812   -41473   -41342   -41466 
  -41740   -42221   -42884   -43501   -43892   -44039   -44066   -44077 
  -43966   -43654   -43285   -42986   -42681   -42345   -42165   -42142 
  -41986   -41673   -41499   -41620   -41924   -42284   -42726   -43267 
  -43726   -43929   -43907   -43735   -43424   -43032   -42592   -42199 
  -42097   -42276   -42450   -42568   -42699   -42743   -42655   -42515 
  -42445   -42604   -42877   -42989   -42998   -42998   -42861   -42615 
  -42484   -42591   -42862   -43094   -43183   -43259   -43393   -43437 
  -43329   -43139   -42859   -42531   -42303   -42226   -42295   -42533 
  -42785   -42774   -42518   -42344   -42442   -42723   -43039   -43312 
  -43433   -43367   -43283   -43194   -42963   -42703   -42460   -42094 
  -41771   -41729   -41918   -42260   -42637   -42885   -43036   -43133 
  -43117   -43042   -42925   -42747   -42646   -42684   -42854   -43247 
  -43715   -43989   -44082   -44026   -43785   -43424   -42985   -42519 
  -42060   -41624   -41378   -41430   -41575   -41656   -41810   -42126 
  -42439   -42654   -42924   -43283   -43621   -43949   -44145   -44019 
  -43760   -43534   -43195   -42812   -42579   -42402   -42192   -42049 
  -42024   -42064   -42124   -42233   -42410   -42560   -42645   -42734 
  -42853   -43027   -43236   -43360   -43376   -43348   -43310   -43248 
  -43129   -43027   -42971   -42815   -42510   -42205   -42047   -42022 
  -41975   -41843   -41724   -41800   -42210   -42746   -43112   -43391 
  -43668   -43807   -43761   -43613   -43491   -43463   -43467   -43471 
  -43432   -43294   -43104   -42832   -42469   -42195   -42037   -41836 
  -41688   -41821   -42203   -42633   -42930   -43059   -43133   -43183 
  -43141   -43033   -42947   -42878   -42782   -42681   -42624   -42623 
  -42731   -42943   -43089   -43098   -43067   -43021   -42950   -42866 
  -42774   -42695   -42581   -42371   -42203   -42244   -42426   -42684 
  -42981   -43197   -43303   -43340   -43252   -43060   -42881   -42734 
  -42533   -42253   -42056   -42122   -42336   -42469   -42531   -42615 
  -42670   -42684   -42778   -43013   -43274   -43409   -43383   -43237 
  -43008   -42793   -42736   -42782   -42743   -42603   -42442   -42291 
  -42198   -42218   -42344   -42510   -42639   -42727   -42866   -43146 
  -43501   -43787   -43904   -43846   -43723   -43596   -43397   -43162 
  -42966   -42732   -42437   -42136   -41871   -41736   -41743   -41817 
  -41959   -42094   -42199   -42446   -42832   -43144   -43339   -43486 
  -43561   -43530   -43399   -43221   -43092   -43058   -43044   -42958 
  -42799   -42668   -42585   -42442   -42257   -42194   -42256   -42334 
  -42399   -42464   -42523   -42560   -42580   -42618   -42685   -42796 
  -43001   -43256   -43422   -43479   -43494   -43491   -43463   -43368 
  -43155   -42849   -42499   -42157   -41937   -41913   -41993   -42064 
  -42105   -42133   -42205   -42392   -42777   -43289   -43684   -43897 
  -44010   -43906   -43563   -43240   -43017   -42770   -42519   -42388 
  -42361   -42303   -42229   -42292   -42425   -42472   -42500   -42587 
  -42735   -42977   -43270   -43453   -43428   -43271   -43086   -42851 
  -42599   -42515   -42588   -42595   -42507   -42469   -42515   -42592 
  -42642   -42627   -42562   -42506   -42506   -42565   -42599   -42645 
  -42835   -43100   -43337   -43506   -43488   -43326   -43163   -42994 
  -42797   -42592   -42411   -42345   -42411   -42587   -42882   -43148 
  -43195   -43108   -43043   -42967   -42850   -42843   -42969   -43035 
  -42998   -42911   -42803   -42770   -42749   -42526   -42218   -42075 
  -42045   -42028   -42118   -42388   -42716   -42957   -43109   -43195 
  -43182   -43101   -43063   -43096   -43083   -43009   -42981   -42950 
  -42849   -42776   -42747   -42693   -42591   -42484   -42466   -42484 
  -42415   -42346   -42336   -42323   -42380   -42581   -42819   -43052 
  -43320   -43537   -43607   -43529   -43336   -43137   -43005   -42884 
  -42765   -42649   -42534   -42526   -42661   -42826   -42923   -42924 
  -42893   -42890   -42890   -42851   -42776   -42730   -42712   -42593 
  -42399   -42288   -42252   -42273   -42435   -42696   -42919   -43048 
  -43110   -43133   -43073   -42965   -42924   -42913   -42865   -42816 
  -42755   -42692   -42726   -42795   -42700   -42446   -42246   -42203 
  -42267   -42466   -42830   -43214   -43444   -43465   -43355   -43162 
  -42873   -42627   -42568   -42614   -42708   -42842   -42913   -42907 
  -42863   -42759   -42593   -42444   -42383   -42417   -42502   -42647 
  -42828   -42909   -42840   -42732   -42676   -42681   -42765   -42913 
  -43085   -43258   -43425   -43515   -43467   -43337   -43155   -42894 
  -42647   -42461   -42234   -42030   -41983   -42061   -42217   -42442 
  -42682   -42880   -43025   -43143   -43224   -43247   -43222   -43178 
  -43101   -42950   -42777   -42699   -42668   -42607   -42584   -42589 
  -42583   -42678   -42892   -43047   -43085   -43047   -42923   -42746 
  -42572   -42417   -42311   -42306   -42429   -42622   -42780   -42905 
  -43039   -43148   -43159   -43067   -42989   -42975   -42952   -42916 
  -42867   -42759   -42634   -42514   -42342   -42194   -42202   -42346 
  -42547   -42777   -43038   -43254   -43297   -43179   -43025   -42898 
  -42858   -42881   -42874   -42876   -42907   -42867   -42778   -42749 
  -42750   -42684   -42552   -42421   -42346   -42381   -42535   -42741 
  -42901   -42975   -42970   -42939   -42997   -43156   -43275   -43255 
