Origin Time       2025/03/30 21:30:00
Lat.              38.535
Long.             142.295
Depth. (km)       44
Mag.              4.3
Station Code      MYG012
Station Lat.      38.3288
Station Long.     141.0128
Station Height(m) 74
Record Time       2025/03/30 21:31:27
Sampling Freq(Hz) 100Hz
Duration Time(s)  60
Dir.              N-S
Scale Factor      7845(gal)/8223790
Max. Acc. (gal)   2.359
Last Correction   2025/03/30 21:31:27
Memo.             
[...]
     718      720      720      720      722      722      720      719 
     719      720      718      719      720      718      718      720 
     718      719      719      716      718      723      724      720 
     719      720      719      720      720      719      719      720 
     724      723      715      715      719      719      720      720 
     719      720      724      722      718      720      724      723 
     722      720      720      720      722      720      719      722 
     723      722      724      722      719      722      722      722 
     720      718      719      722      720      719      722      723 
     723      722      723      722      722      722      718      719 
     722      720      720      722      723      723      722      723 
     722      719      719      722      723      724      723      723 
     724      723      723      723      722      720      719      719 
     722      727      729      723      719      718      720      731 
     734      719      702      697      706      716      729      734 
     734      733      731      727      719      707      702      716 
     743      745      727      734      756      734      653      603 
     684      810      766      592      592      819      966      854 
     661      610      665      675      657      695      702      673 
     818     1038      965      633      463      600      789      757 
     544      517      729      764      665      795      986      936 
     700      562      660      787      830      781      622      557 
     643      695      718      743      723      747      845      842 
     723      633      572      616      834      816      486      510 
    1012     1263      913      454      418      670      781      681 
     591      583      607      774     1031     1036      808      676 
     669      657      599      521      611      784      758      781 
     904      810      714      768      747      608      473      526 
     729      841      847      830      760      696      723      761 
     731      680      635      589      683      927      896      550 
     446      684      901      889      739      708      791      743 
     627      634      702      681      602      608      700      830 
     928      851      724      652      585      774      976      621 
     353      810     1124      783      513      631      801      869 
     716      467      525      683      664      789      926      751 
     685      828      773      773      934      784      488      450 
     629      811      764      693      784      706      579      669 
     742      776      778      707      766      827      714      634 
     661      720      737      697      679      735      907      934 
     643      484      571      550      596      839      935      888 
     804      645      654      789      730      621      662      849 
     978      729      402      537      916     1004      727      494 
     577      785      865      811      781      788      729      643 
     556      576      772      874      816      741      662      631 
     638      623      639      745      903      913      724      600 
     643      776      897      772      492      427      618      814 
     799      724      747      714      666      772      893      857 
     715      599      599      742      804      623      511      693 
     939     1017      878      604      438      568      818      888 
     822      765      661      621      760      803      631      591 
     742      760      666      710      726      610      672      904 
     930      710      540      625      784      808      805      668 
     399      565     1011      946      606      629      788      769 
     765      781      623      495      665      939      892      560 
     511      781      878      846      816      710      708      742 
     580      494      679      785      631      648      908      932 
     799      745      631      630      816      811      660      643 
     685      747      828      818      673      457      457      749 
     900      791      693      676      712      830      872      693 
     575      703      807      885      919      683      457      473 
     621      877     1007      818      522      449      720      922 
     783      716      757      648      654      776      800      780 
     662      642      800      746      564      602      822      961 
     851      652      554      619      727      707      723      789 
     750      719      720      683      589      625      882      900 
     635      600      723      756      792      820      760      665 
     665      746      773      753      729      692      625      637 
     808      876      737      650      707      764      773      853 
     776      463      481      789      866      781      654      541 
     577      666      780      899      812      619      615      762 
     866      818      708      742      764      677      726      772 
     629      556      662      795      843      735      557      592 
     850      982      882      738      657      603      527      596 
     811      789      673      793      789      576      612      851 
     882      745      708      695      549      498      772     1001 
     819      554      553      762      912      774      600      602 
     639      749      822      739      738      793      800      815 
     708      549      571      710      816      849      845      810 
     666      558      676      753      658      714      810      677 
     638      815      878      747      639      742      842      737 
     704      757      675      610      626      623      588      554 
     704      911      832      697      724      742      841     1009 
     816      437      469      696      691      589      665      958 
    1057      777      612      652      648      656      693      693 
     650      687      842      847      773      858      872      726 
     658      685      676      546      422      653     1050      981 
     654      643      722      696      742      756      696      703 
     658      511      585      931     1092      830      491      440 
     557      658      774      837      723      564      661     1007 
    1096      685      365      603      943      912      720      689 
     751      719      634      634      695      692      699      751 
     693      711      824      666      611      891      935      828 
     792      625      635      868      783      479      396      446 
     519      747      897      858      905      888      751      804 
     909      837      661      494      390      467      742      895 
     842      803      768      772      869      789      460      332 
     619      924      918      693      564      747      934      762 
     584      702      791      699      687      810      876      830 
     739      733      765      630      515      522      519      692 
     891      918      976      878      564      502      714      805 
     815      846      633      430      604      745      758      886 
     869      670      625      742      765      654      614      724 
     858      774      507      465      662      811      889      854 
     761      824      949      897      700      573      589      607 
     648      707      645      637      783      819      712      677 
     745      754      739      797      741      635      776      895 
     787      730      664      514      635      855      765      626 
     598      599      774      885      621      402      600      967 
    1179      993      507      321      688     1046      943      726 
     642      481      477      789      924      780      695      723 
     738      650      652      839      858      714      747      785 
     614      538      685      754      656      568      650      913 
    1011      776      635      764      764      611      631      704 
     680      660      646      684      749      714      726      851 
     785      577      642      859      868      768      688      600 
     645      753      739      811      916      823      729      612 
     513      669      772      699      711      741      741      778 
     815      768      627      611      760      838      735      546 
     519      657      746      807      814      746      787      865 
     772      594      588      720      718      654      675      680 
     739      781      754      889      939      681      498      595 
     800      841      681      576      630      791      869      747 
     704      772      735      780      900      784      472      284 
     488      873     1036      930      680      557      672      774 
     828      814      606      510      730      885      814      749 
     733      687      634      622      629      639      738      831 
     776      714      768      939     1001      707      453      521 
     622      796      950      726      525      754      918      765 
     687      638      514      654      891      801      527      444 
     761     1148     1127      749      432      553      853      793 
     510      372      475      789     1027      938      770      700 
     646      676      726      703      702      689      692      781 
     804      673      619      858     1024      847      684      595 
     498      556      631      675      804      855      800      761 
     683      641      812      934      652      437      688      868 
     785      770      801      808      773      615      436      452 
     614      711      737      681      649      884     1074      920 
     834      868      676      584      751      689      554      693 
     792      799      870      754      494      479      598      657 
     847      982      737      442      533      857     1042      908 
     571      498      814      936      768      712      710      699 
     757      600      306      407      737      843      896      930 
     712      527      724     1055     1059      697      494      722 
     855      591      379      513      774      928      934      823 
     660      653      847      895      788      787      707      487 
     449      616      745      754      716      692      834     1058 
     913      508      348      504      765      889      881      832 
     673      656      874      830      573      577      676      610 
     585      714      781      750      855      962      835      688 
     580      537      738      845      715      751      774      618 
     669      768      619      614      877      911      704      665 
     691      697      783      737      633      589      540      688 
     923      932      839      699      534      545      828     1142 
     946      434      411      720      735      664      808      822 
     629      638      761      797      864      869      772      575 
     368      562      970     1071      923      669      491      556 
     689      803      797      588      558      784      800      591 
     544      785      965      903      843      735      587      633 
     672      588      595      665      710      818      931      895 
     754      726      746      530      468      873     1007      699 
     633      839      870      618      486      618      680      729 
     818      769      757      773      699      722      801      699 
     503      565      859      976      884      734      576      584 
     720      745      645      564      615      793      901      845 
     770      758      739      642      610      712      712      668 
     710      584      446      700     1017      978      706      471 
     533      893     1162      911      365      340      757      986 
    1011      780      492      621      810      764      789      835 
     730      568      472      534      760      965      842      614 
     772     1027      918      592      392      473      762     1004 
     955      788      656      415      364      626      711      685 
     901      999      657      361      595     1062     1173      911 
     675      529      440      594      839      903      839      658 
     533      691      895      947      738      337      386      918 
    1159      951      615      351      437      784      909      892 
     950      720      332      449      855      851      504      379 
     657      958      954      737      625      896     1325     1331 
     857      472      499      735     1005     1138      930      472 
     110      228      664      711      318      187      454      603 
     745     1309     1850     1736     1169      668      234     -221 
    -487     -542     -367      -52       16      156      764     1236 
    1413     1669     1698     1560     1760     1848     1525     1332 
    1285     1155     1131     1086      757      110     -642     -967 
    -768     -295      373      862     1020     1193     1294     1109 
     699      171      108      977     1953     2042     1530      963 
     518      637     1062      622     -706    -1702    -1723    -1058 
      97     1611     2785     3194     2961     2076      932      249 
     114      175      284      518      801      880      576      -49 
    -503     -249      564     1154      954      338       93      499 
    1300     2046     2273     1929     1591     1472     1151      805 
     797      612     -122     -780     -703     -172       97      172 
     616     1058      896      592      521      584     1035     1648 
    1759     1377      897      811     1104      858       60     -259 
     -48      171      226      140      441     1595     2818     2751 
    1437      283      -83       39      530      893      621      198 
      40       66      525     1327     1607     1112      407       -2 
     303     1183     1713     1370      577       54       20      379 
     997     1232      541     -419     -579      288     1439     1834 
    1135       76     -302      229     1193     2037     2030     1208 
     726      803      978     1533     2003     1213     -318     -870 
    -130      653      606      -45     -440      -14      783     1378 
    1653     1318      558      305      633     1112     1652     1587 
     778      222      251      610      931      666       21     -218 
     249      985     1129      402     -228      255     1359     1931 
    1962     1857     1360      766      804     1024      783      380 
     -63     -440     -160      261      105      276     1090     1655 
    1705      982     -201     -317      726     1568     1730     1395 
     761      229      199      612     1020     1063      737      427 
     557     1032     1158      649      407      861     1093      730 
     238      -32      184      692      950      820      494      186 
      76      373      908     1251     1387     1312      999      828 
    1028     1339     1269      612     -101     -249      190      762 
     950      855      853      712      487      823     1462     1470 
     891      472      519      799      835      387       -9      349 
    1300     1694      862       31      153      454      714      950 
     596      224      271      214      371      999     1404     1161 
     549      346      824     1321     1478     1445     1217      916 
     823      525     -248     -456      303      978     1104      812 
     360      517     1305     1575     1032      618      638      542 
     345      391      398      294      457      804     1285     1707 
    1323      507      357      726     1102     1158      487     -179 
     109      761      861      433       33       83      591     1236 
    1409      932      691     1086     1385     1294      889      395 
     468      913     1053      853      418      -83     -324      105 
    1165     1796     1327      498      191      599     1464     1898 
    1202       37     -684     -564      445     1343     1259      706 
     234       71      481     1219     1632     1314      700      610 
     712      504      780     1497     1410      641      205      351 
     630      545      373      727     1264     1282      872      441 
     260      500      776      639      498      697      777      656 
     673      522      225      405      693      634      742     1144 
    1404     1317      900      514      703     1304     1524     1080 
     369      -85      197      949     1086      446     -182     -453 
     -64     1026     1813     1516      540       66      841     1741 
    1470      571      -36      103      912     1362     1034      583 
     128     -108      648     1679     1734     1151      353     -410 
    -195      958     1706     1347      445     -140      -20      533 
     981     1135      922      448      444     1027     1354     1162 
     691      319      693     1329     1208      680      507      828 
    1190      919      271      -24      122      456      749      888 
     830      514      145      252      912     1337     1021      591 
     761     1167     1055      615      465      660     1063     1433 
    1197      337     -209       82      646      869      741      677 
     934     1183     1019      583      413      646      826      706 
     557      538      629      820      846      639      454      333 
     351      564      864     1100     1124     1206     1382     1011 
     415      565      951      776      498      440      461      622 
     815      758      558      625      822      747      710      870 
     811      494      351      760     1152      747      383      780 
    1167     1240     1135      660      202      342      814      954 
     760      537      264      265      831     1362     1368      931 
     348      190      527      774      745      660      564      356 
     162      407     1039     1405     1287      886      526      710 
    1170     1179      881      541      255      484      845      591 
     276      423      658     1012     1432     1080      159        1 
     735     1455     1551      791     -162     -145      731     1331 
    1090      448      288      727      940      819      800      639 
     371      500      652      475      549      862      882      807 
     859      886      800      757      963     1116      859      414 
     255      680     1242     1163      527      125      357      710 
     842      947      845      700      938     1016      639      487 
     637      554      557      889      838      621      932     1038 
     658      716      932      548      180      336      726     1074 
    1093      966      897      575      249      292      557      965 
    1158      900      708      650      450      450      720      835 
     785      756      737      696      664      618      568      695 
    1012     1109      680      247      545     1078      958      558 
