Origin Time       2025/03/30 21:30:00
Lat.              38.535
Long.             142.295
Depth. (km)       44
Mag.              4.3
Station Code      MYG011
Station Lat.      38.3020
Station Long.     141.5079
Station Height(m) 12
Record Time       2025/03/30 21:31:18
Sampling Freq(Hz) 100Hz
Duration Time(s)  60
Dir.              U-D
Scale Factor      7845(gal)/8223790
Max. Acc. (gal)   1.901
Last Correction   2025/03/30 21:31:18
Memo.             
[...]
  -36362   -36362   -36362   -36360   -36360   -36363   -36364   -36362 
  -36362   -36363   -36363   -36363   -36362   -36362   -36364   -36363 
  -36360   -36363   -36362   -36359   -36362   -36363   -36362   -36363 
  -36362   -36360   -36362   -36362   -36362   -36362   -36362   -36362 
  -36364   -36363   -36362   -36363   -36363   -36362   -36360   -36359 
  -36362   -36364   -36363   -36362   -36363   -36363   -36360   -36362 
  -36363   -36362   -36360   -36362   -36362   -36360   -36359   -36360 
  -36360   -36360   -36362   -36360   -36358   -36360   -36362   -36360 
  -36359   -36362   -36362   -36362   -36362   -36360   -36359   -36359 
  -36359   -36360   -36360   -36359   -36359   -36362   -36362   -36360 
  -36363   -36363   -36362   -36362   -36363   -36362   -36360   -36362 
  -36363   -36362   -36362   -36362   -36360   -36362   -36362   -36359 
  -36360   -36360   -36359   -36359   -36359   -36360   -36360   -36360 
  -36362   -36363   -36359   -36359   -36360   -36360   -36360   -36362 
  -36360   -36360   -36360   -36360   -36362   -36364   -36363   -36360 
  -36360   -36363   -36360   -36359   -36362   -36362   -36362   -36362 
  -36360   -36360   -36363   -36364   -36360   -36359   -36362   -36362 
  -36359   -36359   -36360   -36362   -36360   -36360   -36363   -36363 
  -36362   -36362   -36362   -36362   -36362   -36363   -36363   -36362 
  -36362   -36363   -36362   -36360   -36364   -36363   -36359   -36360 
  -36362   -36362   -36363   -36363   -36362   -36364   -36366   -36364 
  -36364   -36363   -36359   -36359   -36363   -36362   -36362   -36364 
  -36363   -36360   -36360   -36360   -36360   -36360   -36360   -36363 
  -36363   -36362   -36363   -36363   -36362   -36363   -36362   -36358 
  -36360   -36363   -36360   -36360   -36362   -36363   -36362   -36360 
  -36360   -36360   -36360   -36360   -36360   -36362   -36363   -36363 
  -36360   -36359   -36362   -36364   -36362   -36362   -36363   -36363 
  -36360   -36360   -36359   -36359   -36360   -36362   -36362   -36360 
  -36359   -36362   -36364   -36363   -36363   -36362   -36360   -36360 
  -36360   -36362   -36362   -36359   -36359   -36364   -36363   -36359 
  -36360   -36360   -36359   -36362   -36362   -36360   -36360   -36360 
  -36358   -36359   -36362   -36362   -36359   -36359   -36359   -36360 
  -36359   -36359   -36360   -36360   -36360   -36360   -36360   -36359 
  -36359   -36358   -36360   -36363   -36360   -36360   -36362   -36362 
  -36360   -36360   -36359   -36359   -36360   -36363   -36362   -36359 
  -36359   -36363   -36363   -36360   -36360   -36362   -36360   -36360 
  -36360   -36362   -36360   -36359   -36360   -36362   -36360   -36359 
  -36359   -36360   -36360   -36360   -36360   -36363   -36363   -36360 
  -36359   -36360   -36363   -36363   -36362   -36362   -36360   -36360 
  -36362   -36362   -36362   -36363   -36363   -36362   -36362   -36362 
  -36362   -36363   -36363   -36360   -36360   -36362   -36360   -36360 
  -36360   -36362   -36362   -36363   -36364   -36362   -36359   -36363 
  -36364   -36360   -36360   -36360   -36360   -36362   -36362   -36359 
  -36360   -36360   -36358   -36358   -36360   -36360   -36359   -36358 
  -36359   -36360   -36359   -36360   -36362   -36360   -36359   -36360 
  -36362   -36359   -36359   -36360   -36359   -36359   -36360   -36360 
  -36359   -36359   -36360   -36362   -36360   -36360   -36360   -36360 
  -36360   -36362   -36360   -36359   -36360   -36363   -36362   -36359 
  -36360   -36362   -36362   -36359   -36360   -36362   -36360   -36359 
  -36363   -36362   -36360   -36360   -36360   -36359   -36360   -36359 
  -36359   -36362   -36360   -36362   -36362   -36358   -36359   -36362 
  -36360   -36362   -36363   -36363   -36362   -36359   -36360   -36363 
  -36364   -36363   -36362   -36362   -36363   -36362   -36362   -36364 
  -36362   -36360   -36362   -36363   -36363   -36363   -36360   -36359 
  -36363   -36364   -36363   -36363   -36363   -36360   -36359   -36360 
  -36360   -36360   -36360   -36363   -36363   -36362   -36360   -36360 
  -36360   -36356   -36354   -36356   -36363   -36374   -36382   -36385 
  -36381   -36378   -36387   -36416   -36433   -36401   -36329   -36296 
  -36319   -36301   -36231   -36247   -36337   -36355   -36429   -36624 
  -36482   -36026   -36088   -36634   -36697   -36263   -36119   -36324 
  -36454   -36340   -36171   -36354   -36684   -36518   -36188   -36223 
  -36262   -36319   -36551   -36517   -36401   -36352   -35968   -35888 
  -36667   -37130   -36566   -36042   -36193   -36462   -36520   -36444 
  -36225   -35943   -35993   -36420   -36697   -36701   -36471   -36163 
  -36227   -36439   -36400   -36261   -36131   -36173   -36459   -36572 
  -36379   -36271   -36333   -36450   -36558   -36385   -36101   -36236 
  -36599   -36683   -36440   -36058   -35996   -36450   -36493   -36115 
  -36498   -36872   -36323   -36108   -36583   -36517   -35908   -36127 
  -36944   -36760   -36094   -36038   -36039   -36259   -36842   -36744 
  -36267   -36267   -36310   -36174   -36182   -36267   -36333   -36491 
  -36564   -36394   -36350   -36413   -36240   -36355   -36830   -36698 
  -36077   -35723   -35729   -36063   -36472   -36768   -36945   -36543 
  -35808   -35977   -36788   -36636   -35916   -36181   -36752   -36483 
  -36244   -36493   -36371   -36151   -36427   -36622   -36595   -36483 
  -36196   -36207   -36315   -36148   -36251   -36472   -36591   -36740 
  -36382   -35916   -36073   -36171   -36128   -36647   -37122   -36684 
  -35858   -35704   -36347   -36776   -36506   -36400   -36603   -36394 
  -36000   -35941   -36113   -36435   -36680   -36321   -36001   -36686 
  -37083   -36103   -35557   -36477   -36911   -36255   -36217   -36645 
  -36413   -36139   -36412   -36682   -36375   -35837   -35977   -36555 
  -36622   -36427   -36493   -36571   -36258   -35910   -36356   -36801 
  -36186   -35789   -36425   -36724   -36204   -36170   -36837   -36945 
  -36344   -35892   -35988   -36447   -36486   -36054   -36312   -36995 
  -36693   -35966   -36173   -36595   -36227   -35992   -36570   -36745 
  -36132   -36134   -36639   -36547   -36281   -36240   -36273   -36367 
  -36458   -36586   -36502   -36180   -36105   -36261   -36474   -36579 
  -36413   -36294   -36282   -36285   -36292   -36169   -36290   -36666 
  -36589   -36243   -36232   -36304   -36371   -36578   -36369   -35962 
  -36225   -36580   -36354   -36313   -36644   -36404   -35858   -36139 
  -36769   -36652   -36243   -36205   -36316   -36467   -36516   -36497 
  -36504   -36119   -35993   -36563   -36475   -35934   -36273   -36761 
  -36535   -36331   -36509   -36375   -36082   -36348   -36474   -36124 
  -36275   -36589   -36336   -36169   -36568   -36900   -36470   -36038 
  -36308   -36312   -36009   -36327   -36541   -36116   -36066   -36401 
  -36566   -36853   -36736   -35993   -35916   -36454   -36567   -36344 
  -36151   -36279   -36595   -36435   -36161   -36475   -36693   -36275 
  -36094   -36417   -36472   -36255   -36252   -36337   -36327   -36394 
  -36304   -36182   -36598   -36713   -36107   -36094   -36621   -36463 
  -36121   -36425   -36589   -36310   -36458   -36737   -36211   -35576 
  -36030   -36860   -36796   -36289   -36109   -36202   -36400   -36433 
  -36297   -36319   -36420   -36418   -36412   -36421   -36452   -36526 
  -36389   -36225   -36413   -36406   -36282   -36429   -36220   -36216 
  -36706   -36369   -35850   -36243   -36537   -36452   -36545   -36417 
  -36023   -36096   -36558   -36613   -36425   -36586   -36625   -36309 
  -36070   -36049   -36367   -36572   -36235   -36078   -36412   -36553 
  -36379   -36481   -36544   -36123   -36146   -36572   -36285   -35939 
  -36396   -36753   -36444   -36275   -36552   -36502   -36009   -36067 
  -36720   -36730   -36189   -36120   -36308   -36379   -36423   -36409 
  -36508   -36441   -35999   -36024   -36541   -36568   -36406   -36580 
  -36470   -36161   -36355   -36522   -36197   -36211   -36659   -36497 
  -36038   -36328   -36545   -36077   -36078   -36529   -36552   -36362 
  -36308   -36425   -36428   -36277   -36454   -36485   -36089   -36189 
  -36560   -36474   -36369   -36300   -36157   -36456   -36707   -36236 
  -35988   -36378   -36513   -36499   -36714   -36571   -36127   -35950 
  -36018   -36285   -36624   -36655   -36408   -36223   -36358   -36621 
  -36543   -36223   -36099   -36328   -36428   -36034   -36057   -36587 
  -36470   -36328   -36838   -36544   -35807   -36545   -37197   -36190 
  -35725   -36290   -36192   -36231   -36896   -36485   -35577   -36012 
  -36768   -36579   -36450   -36710   -36383   -36018   -36383   -36512 
  -36316   -36482   -36327   -36012   -36487   -36748   -36086   -35881 
  -36506   -36703   -36410   -36377   -36327   -36256   -36279   -36131 
  -36460   -36856   -36328   -36124   -36536   -36323   -36151   -36558 
  -36626   -36429   -36351   -36030   -35719   -36146   -36886   -36949 
  -36621   -36417   -35966   -35806   -36447   -36637   -36317   -36493 
  -36448   -35977   -36082   -36580   -36726   -36406   -36053   -36186 
  -36553   -36451   -36135   -36351   -36636   -36359   -36132   -36139 
  -36316   -36891   -36806   -36040   -35964   -36213   -36553   -36915 
  -36379   -35982   -36346   -36281   -36242   -36552   -36427   -36184 
  -36238   -36378   -36474   -36560   -36502   -36270   -36192   -36162 
  -36215   -36633   -36688   -36171   -36126   -36385   -36389   -36589 
  -36598   -36100   -35986   -36325   -36526   -36529   -36302   -36166 
  -36315   -36275   -36387   -36919   -36783   -35849   -35640   -36653 
  -37266   -36433   -35667   -36252   -36732   -36061   -35769   -36478 
  -36859   -36431   -36097   -36304   -36612   -36753   -36414   -35923 
  -36094   -36304   -36312   -36690   -36575   -35926   -36123   -36633 
  -36520   -36589   -36582   -35887   -35814   -36624   -36950   -36489 
  -35884   -35937   -36656   -36918   -36409   -36081   -36340   -36400 
  -36107   -36308   -36556   -36308   -36401   -36552   -36174   -36096 
  -36436   -36668   -36598   -36182   -36126   -36489   -36464   -36309 
  -36240   -36180   -36575   -36707   -36143   -36186   -36547   -36259 
  -36178   -36391   -36310   -36364   -36424   -36242   -36406   -36589 
  -36215   -36094   -36495   -36529   -36373   -36601   -36543   -36055 
  -36171   -36547   -36211   -36082   -36597   -36664   -36510   -36459 
  -36063   -36018   -36386   -36343   -36140   -36212   -36653   -36914 
  -36378   -36028   -36526   -36769   -36185   -35800   -36301   -36717 
  -36408   -36224   -36435   -36386   -36159   -36171   -36358   -36547 
  -36451   -36247   -36340   -36342   -36360   -36634   -36489   -36140 
  -36190   -36286   -36355   -36481   -36359   -36279   -36625   -36682 
  -36135   -36013   -36529   -36602   -36124   -36051   -36413   -36482 
  -36278   -36414   -36741   -36486   -36063   -36340   -36728   -36560 
  -36229   -36054   -36073   -36385   -36684   -36405   -35989   -36274 
  -36710   -36526   -36242   -36409   -36497   -36104   -35935   -36332 
  -36610   -36394   -36285   -36583   -36490   -36059   -36262   -36649 
  -36339   -35976   -36451   -37035   -36643   -35916   -35841   -36107 
  -36421   -36726   -36524   -36127   -36256   -36428   -36432   -36715 
  -36707   -36192   -36023   -36166   -36278   -36579   -36659   -36251 
  -36027   -36180   -36428   -36657   -36641   -36385   -36174   -36236 
  -36594   -36670   -36051   -35785   -36378   -36475   -36135   -36574 
  -36963   -36445   -36011   -36232   -36429   -36270   -36231   -36339 
  -36316   -36247   -36153   -36360   -36828   -36639   -35993   -36047 
  -36643   -36769   -36389   -36117   -36285   -36468   -36279   -36337 
  -36512   -36202   -36225   -36767   -36775   -36369   -36161   -36055 
  -36096   -36229   -36273   -36443   -36620   -36309   -36026   -36629 
  -36979   -36265   -35992   -36412   -36421   -36270   -36405   -36369 
  -36239   -36547   -36641   -36130   -36101   -36540   -36450   -36225 
  -36312   -36271   -36242   -36472   -36607   -36408   -36159   -36185 
  -36337   -36532   -36576   -36139   -35959   -36477   -36809   -36617 
  -36351   -36250   -36201   -36292   -36597   -36653   -36289   -35850 
  -35870   -36504   -36751   -36246   -36220   -36709   -36548   -36157 
  -36269   -36346   -36250   -36364   -36518   -36350   -36082   -36360 
  -36807   -36370   -35599   -35694   -36271   -36691   -36958   -36748 
  -36224   -36105   -36148   -36115   -36547   -36971   -36509   -36024 
  -36370   -36639   -36427   -36424   -36404   -36067   -36020   -36393 
  -36597   -36452   -36413   -36350   -35927   -36034   -36790   -36713 
  -36001   -35938   -36259   -36381   -36140   -35914   -36111   -36394 
  -36911   -37301   -36780   -36266   -36440   -36686   -36603   -36197 
  -35945   -36174   -36597   -36910   -36817   -36471   -36333   -36208 
  -36359   -36990   -36532   -35225   -35167   -35541   -35626   -36614 
  -37678   -37793   -37341   -36197   -35203   -35669   -36984   -37563 
  -36787   -35982   -35475   -34670   -35320   -36806   -36736   -36919 
  -37527   -36317   -35560   -36713   -36953   -36109   -36497   -37060 
  -35629   -34476   -35757   -37000   -36706   -36189   -36271   -36617 
  -36801   -37354   -37647   -36412   -35036   -35376   -36930   -37319 
  -36004   -35272   -35387   -35773   -37222   -38237   -37002   -35613 
  -35982   -36219   -35675   -36094   -36776   -36463   -36099   -36494 
  -37292   -37424   -36084   -34501   -35066   -37453   -38226   -36093 
  -34369   -35648   -37396   -37115   -36628   -36613   -35733   -35309 
  -36117   -36667   -37149   -37287   -35846   -34902   -36008   -36721 
  -36305   -36963   -37922   -36643   -35182   -36435   -37836   -36806 
  -35380   -35402   -36022   -36055   -35766   -36279   -37169   -37207 
  -36676   -36467   -36729   -36447   -35229   -35081   -36516   -37291 
  -36896   -36039   -35131   -35289   -36441   -37636   -38071   -37183 
  -36238   -35978   -35444   -35245   -36477   -37338   -36270   -35390 
  -36009   -36868   -37386   -37104   -35992   -35506   -35903   -36444 
  -37045   -36979   -36294   -36312   -36269   -35544   -35743   -36506 
  -36626   -36863   -36753   -35916   -36251   -37122   -36421   -35789 
  -36460   -36367   -35604   -36024   -36703   -36495   -36167   -36356 
  -36734   -36487   -35900   -36109   -36859   -37085   -36714   -36344 
  -36240   -36315   -36498   -36463   -35973   -35870   -36383   -36389 
  -36053   -36124   -36378   -36670   -36687   -36209   -35955   -36589 
  -37226   -36601   -35841   -36128   -36433   -36536   -36670   -36329 
  -36020   -36201   -36447   -36479   -36153   -35869   -36131   -36305 
  -36173   -36466   -36761   -36516   -36344   -36397   -36293   -36223 
  -36360   -36166   -35617   -35766   -36863   -37354   -36333   -35548 
  -36247   -36910   -36332   -35810   -36683   -37444   -36709   -36150 
  -36425   -36331   -36369   -36921   -36783   -36004   -35680   -36163 
  -36653   -36026   -35511   -36451   -37130   -36648   -35989   -35868 
  -36591   -37247   -36941   -36261   -35897   -36038   -36390   -36373 
  -36196   -36332   -36464   -36390   -36379   -36537   -36454   -35985 
  -36035   -36436   -36270   -36393   -37014   -36751   -36013   -36088 
  -36240   -35922   -36216   -36752   -36319   -35842   -36177   -36675 
  -36863   -36440   -35903   -36254   -37014   -37046   -36174   -35657 
  -36270   -36562   -36248   -36553   -36695   -36092   -35914   -36108 
  -36184   -36591   -36890   -36445   -35926   -36058   -36475   -36576 
  -36613   -36587   -36371   -36360   -36296   -36429   -36875   -36336 
  -35662   -36486   -37007   -36059   -35854   -36633   -36495   -36234 
  -36514   -36004   -35795   -36913   -37143   -36115   -35742   -36026 
  -36323   -36663   -36736   -36424   -36036   -36153   -36603   -36409 
  -36097   -36471   -36475   -35838   -36013   -36817   -36759   -36189 
  -36085   -36424   -36855   -36738   -36159   -36020   -36163   -36246 
  -36518   -36505   -36217   -36400   -36502   -36194   -36207   -36396 
  -36486   -36693   -36551   -36030   -36120   -36575   -36390   -36132 
  -36320   -36377   -36389   -36489   -36288   -36285   -36751   -36672 
  -36108   -36084   -36406   -36481   -36455   -36377   -35986   -36004 
  -36911   -37112   -36050   -35586   -36385   -37076   -36622   -35753 
  -35900   -36574   -36421   -36266   -36725   -36509   -35896   -36217 
  -36763   -36757   -36602   -36096   -35711   -36394   -36726   -35954 
  -35973   -36621   -36433   -36158   -36263   -36439   -36747   -36618 
  -36304   -36544   -36533   -36013   -35938   -36337   -36594   -36464 
  -36131   -35951   -36285   -36930   -36946   -36277   -35942   -36148 
  -36396   -36460   -36374   -36340   -36342   -36354   -36589   -36603 
  -36236   -36192   -36252   -36136   -36455   -36813   -36525   -36228 
  -36212   -36144   -36234   -36429   -36445   -36337   -36319   -36482 
  -36290   -36018   -36494   -36857   -36625   -36329   -35946   -35954 
  -36386   -36471   -36499   -36552   -36275   -36331   -36765   -36591 
  -36082   -36185   -36418   -36217   -36198   -36362   -36486   -36748 
  -36487   -35972   -36234   -36590   -36252   -35807   -36067   -36738 
  -36744   -36244   -36059   -36296   -36749   -36721   -36273   -36351 
  -36310   -35872   -36243   -36818   -36547   -36117   -36039   -36435 
  -36775   -36235   -36008   -36537   -36517   -36568   -36774   -36090 
  -35864   -36553   -36547   -36175   -36371   -36603   -36544   -36196 
  -35934   -36478   -36926   -36308   -35991   -36439   -36308   -35962 
  -36356   -36853   -36562   -35853   -35938   -36504   -36556   -36501 
  -36639   -36633   -36196   -35899   -36483   -36844   -36445   -36175 
  -35951   -35941   -36405   -36537   -36202   -36103   -36356   -36514 
  -36671   -36734   -36219   -36034   -36468   -36483   -36405   -36499 
  -36387   -36348   -36248   -36165   -36455   -36516   -36336   -36339 
  -36263   -36236   -36431   -36529   -36339   -36220   -36549   -36582 
  -36144   -36333   -36713   -36316   -35961   -36150   -36383   -36579 
  -36579   -36512   -36634   -36324   -35850   -36113   -36536   -36536 
  -36278   -36009   -36337   -36796   -36439   -36144   -36502   -36526 
  -36174   -36308   -36721   -36639   -36090   -35745   -36094   -36714 
  -36624   -36099   -36262   -36609   -36139   -35779   -36427   -37095 
  -36805   -36105   -35923   -36138   -36440   -36726   -36471   -36132 
  -36653   -36972   -36169   -35692   -36216   -36759   -36726   -36163 
  -35961   -36373   -36405   -36193   -36323   -36553   -36616   -36262 
  -35807   -36175   -36981   -36757   -35931   -35984   -36377   -36397 
  -36684   -36998   -36647   -35977   -35604   -36015   -36840   -36767 
  -35988   -36024   -36474   -36305   -36356   -36759   -36456   -35900 
  -36045   -36576   -36701   -36620   -36684   -36416   -36174   -36293 
  -36258   -36359   -36483   -36223   -36051   -36205   -36688   -36767 
  -36089   -36036   -36593   -36558   -36290   -36367   -36505   -36366 
  -36146   -36216   -36208   -35918   -36077   -36549   -36587   -36483 
  -36528   -36610   -36687   -36624   -36505   -36316   -36077   -36089 
  -36058   -35947   -36269   -36594   -36597   -36612   -36466   -36252 
  -36279   -36333   -36379   -36410   -36282   -36337   -36616   -36367 
  -36047   -36505   -36629   -36127   -36166   -36466   -36450   -36342 
