Origin Time       2025/03/30 21:30:00
Lat.              38.535
Long.             142.295
Depth. (km)       44
Mag.              4.3
Station Code      MYG004
Station Lat.      38.7324
Station Long.     141.0270
Station Height(m) 38
Record Time       2025/03/30 21:31:28
Sampling Freq(Hz) 100Hz
Duration Time(s)  60
Dir.              N-S
Scale Factor      7845(gal)/8223790
Max. Acc. (gal)   2.253
Last Correction   2025/03/30 21:31:27
Memo.             
[...]
    6296     6280     6295     6285     6276     6301     6304     6299 
    6304     6292     6293     6295     6282     6296     6296     6284 
    6307     6308     6286     6296     6295     6284     6297     6300 
    6300     6309     6293     6292     6304     6293     6301     6303 
    6288     6307     6311     6291     6301     6301     6292     6304 
    6297     6293     6303     6286     6289     6307     6292     6297 
    6312     6297     6299     6296     6280     6295     6299     6292 
    6301     6297     6291     6291     6281     6289     6299     6282 
    6291     6307     6293     6295     6293     6274     6281     6286 
    6291     6308     6308     6312     6301     6258     6258     6301 
    6326     6326     6299     6270     6285     6286     6249     6245 
    6291     6342     6332     6254     6261     6367     6396     6320 
    6230     6216     6316     6339     6196     6157     6316     6419 
    6376     6322     6362     6427     6322     6127     6160     6346 
    6345     6130     6070     6377     6655     6463     6093     6093 
    6400     6529     6274     5988     6124     6484     6527     6247 
    6110     6296     6474     6393     6242     6247     6332     6262 
    6054     6049     6315     6509     6457     6334     6340     6401 
    6270     6050     6091     6315     6417     6369     6284     6316 
    6454     6404     6191     6097     6143     6295     6455     6413 
    6300     6303     6296     6193     6043     6021     6354     6770 
    6721     6269     5933     6006     6332     6504     6446     6421 
    6396     6220     6018     5983     6196     6436     6416     6305 
    6403     6574     6520     6269     6087     6141     6295     6274 
    6135     6183     6415     6504     6288     6053     6208     6589 
    6606     6261     6103     6255     6355     6181     5898     5911 
    6359     6750     6648     6324     6183     6300     6466     6369 
    6123     6104     6300     6486     6485     6201     5923     6052 
    6498     6835     6721     6208     5841     5969     6227     6223 
    6049     6049     6385     6700     6544     6150     6147     6532 
    6694     6426     6111     6050     6203     6404     6469     6334 
    6189     6226     6390     6480     6322     6068     6052     6286 
    6534     6546     6249     5994     6122     6407     6407     6184 
    6212     6492     6588     6407     6151     6034     6143     6305 
    6385     6424     6376     6295     6313     6300     6207     6193 
    6266     6331     6291     6188     6205     6284     6308     6378 
    6486     6542     6478     6251     6057     6139     6354     6353 
    6124     6069     6328     6496     6389     6311     6342     6320 
    6166     5992     6100     6446     6555     6322     6164     6331 
    6582     6556     6212     5915     6014     6320     6416     6320 
    6324     6386     6268     6087     6118     6336     6529     6535 
    6415     6327     6289     6296     6315     6238     6127     6158 
    6270     6281     6234     6243     6232     6197     6280     6448 
    6558     6523     6358     6192     6122     6124     6195     6305 
    6407     6498     6424     6102     5935     6226     6662     6789 
    6551     6266     6188     6238     6177     6011     6004     6195 
    6358     6404     6397     6382     6350     6289     6265     6385 
    6501     6323     6000     5918     6087     6303     6454     6554 
    6627     6586     6403     6235     6158     6103     6080     6103 
    6108     6070     6064     6247     6610     6809     6619     6330 
    6330     6507     6450     6123     5915     6056     6274     6278 
    6239     6415     6636     6569     6226     5976     6003     6133 
    6237     6303     6318     6316     6323     6336     6376     6417 
    6431     6412     6351     6330     6399     6374     6166     6023 
    6130     6424     6671     6606     6261     5979     6045     6350 
    6453     6195     5954     6031     6223     6289     6313     6428 
    6566     6543     6308     6085     6095     6282     6428     6438 
    6404     6394     6335     6205     6185     6367     6515     6426 
    6243     6192     6266     6284     6160     5975     5868     5960 
    6232     6502     6625     6586     6443     6262     6114     6112 
    6309     6520     6546     6394     6226     6196     6273     6330 
    6373     6432     6462     6365     6141     5989     6066     6238 
    6266     6147     6170     6444     6652     6531     6234     6041 
    6081     6289     6439     6420     6359     6359     6381     6332 
    6210     6153     6241     6363     6385     6301     6227     6216 
    6250     6280     6247     6211     6227     6277     6382     6466 
    6431     6400     6451     6498     6515     6417     6204     6141 
    6216     6169     6070     6087     6230     6403     6382     6212 
    6195     6265     6200     6093     6126     6357     6620     6613 
    6376     6222     6276     6463     6592     6527     6338     6123 
    6002     6083     6259     6361     6366     6291     6185     6127 
    6102     6102     6197     6401     6590     6561     6301     6097 
    6215     6562     6706     6450     6106     6002     6149     6343 
    6388     6316     6285     6301     6285     6200     6143     6181 
    6224     6270     6380     6405     6291     6266     6407     6532 
    6507     6322     6185     6297     6494     6520     6342     6138 
    6146     6247     6154     5989     6022     6196     6303     6266 
    6203     6214     6269     6392     6548     6581     6461     6264 
    6116     6161     6300     6328     6272     6291     6434     6558 
    6477     6242     6085     6119     6291     6439     6428     6331 
    6258     6178     6069     6018     6129     6367     6555     6565 
    6404     6211     6127     6185     6289     6338     6345     6359 
    6357     6293     6210     6189     6224     6291     6380     6384 
    6280     6232     6303     6378     6359     6257     6203     6289 
    6381     6324     6245     6293     6382     6389     6289     6188 
    6232     6377     6466     6417     6245     6087     6077     6203 
    6374     6430     6253     6019     5973     6145     6416     6552 
    6467     6347     6292     6303     6377     6390     6342     6334 
    6308     6247     6270     6334     6335     6269     6160     6191 
    6427     6555     6450     6299     6164     6102     6150     6181 
    6191     6243     6237     6247     6435     6601     6554     6420 
    6367     6338     6191     6034     6041     6166     6299     6339 
    6335     6417     6497     6459     6331     6161     6046     6027 
    6068     6193     6359     6424     6384     6358     6369     6340 
    6249     6187     6274     6454     6501     6359     6230     6282 
    6451     6544     6470     6292     6112     6019     6080     6212 
    6264     6230     6193     6266     6466     6540     6359     6166 
    6139     6211     6273     6289     6319     6384     6354     6191 
    6070     6158     6405     6583     6531     6347     6245     6305 
    6440     6471     6322     6164     6208     6366     6439     6411 
    6335     6227     6122     6088     6150     6238     6255     6187 
    6165     6303     6447     6424     6338     6400     6550     6513 
    6207     5871     5861     6211     6481     6428     6320     6354 
    6416     6450     6486     6416     6195     5976     5930     6185 
    6559     6621     6350     6147     6272     6562     6601     6289 
    6022     6039     6147     6215     6257     6257     6251     6246 
    6214     6305     6547     6578     6303     6103     6162     6320 
    6419     6393     6322     6323     6351     6286     6196     6273 
    6507     6613     6374     6045     6058     6319     6431     6312 
    6161     6164     6297     6346     6253     6187     6226     6299 
    6365     6423     6434     6367     6250     6160     6130     6139 
    6180     6259     6366     6377     6239     6200     6376     6546 
    6570     6450     6291     6257     6272     6211     6178     6210 
    6195     6168     6247     6377     6421     6367     6326     6343 
    6305     6181     6106     6170     6332     6432     6382     6300 
    6318     6432     6485     6338     6116     6066     6223     6386 
    6377     6274     6295     6435     6511     6420     6176     5957 
    6037     6359     6548     6471     6349     6346     6373     6280 
    6138     6108     6164     6243     6349     6421     6434     6390 
    6309     6277     6330     6381     6366     6305     6258     6264 
    6289     6242     6143     6156     6289     6370     6342     6262 
    6193     6238     6374     6413     6331     6220     6104     6075 
    6189     6335     6432     6470     6430     6353     6300     6276 
    6257     6269     6350     6462     6488     6377     6295     6296 
    6216     6077     6049     6154     6332     6502     6540     6393 
    6196     6127     6170     6184     6162     6242     6396     6459 
    6401     6327     6336     6378     6389     6446     6470     6319 
    6130     6062     6064     6112     6218     6318     6386     6386 
    6336     6381     6478     6434     6247     6134     6228     6347 
    6307     6222     6243     6365     6500     6504     6289     6070 
    6143     6393     6478     6336     6183     6135     6151     6234 
    6343     6335     6201     6147     6338     6613     6593     6257 
    6012     6072     6285     6465     6490     6326     6141     6150 
    6311     6409     6327     6151     6118     6323     6532     6489 
    6313     6232     6245     6268     6234     6160     6157     6265 
    6399     6453     6423     6390     6386     6397     6380     6266 
    6091     5976     6006     6138     6258     6301     6305     6327 
    6397     6473     6438     6318     6268     6274     6212     6126 
    6195     6420     6536     6388     6199     6187     6270     6327 
    6401     6516     6573     6466     6245     6102     6116     6156 
    6077     6010     6214     6524     6489     6158     6043     6313 
    6565     6458     6156     5994     6116     6404     6538     6372 
    6211     6345     6579     6604     6424     6281     6291     6305 
    6232     6166     6119     6116     6259     6419     6313     5992 
    5876     6205     6643     6721     6432     6088     5965     6146 
    6439     6579     6536     6374     6187     6151     6245     6278 
    6220     6165     6200     6331     6435     6374     6199     6126 
    6295     6579     6667     6447     6232     6300     6424     6301 
    6068     6073     6390     6621     6427     6054     5879     6000 
    6318     6515     6400     6176     6093     6208     6401     6443 
    6307     6264     6444     6635     6592     6312     6108     6237 
    6450     6366     6031     5857     6110     6527     6663     6443 
    6184     6237     6492     6462     6114     5927     6053     6219 
    6226     6133     6165     6331     6351     6246     6232     6251 
    6212     6211     6345     6571     6698     6523     6162     6048 
    6334     6683     6723     6420     6083     6041     6277     6463 
    6390     6196     6095     6165     6357     6497     6447     6238 
    6092     6239     6500     6486     6272     6172     6218     6274 
    6226     6097     6160     6474     6664     6466     6100     5983 
    6103     6100     6016     6187     6520     6597     6359     6183 
    6300     6505     6451     6165     6041     6278     6602     6615 
    6365     6243     6330     6330     6122     5998     6184     6386 
    6319     6200     6249     6303     6210     6115     6212     6490 
    6781     6812     6417     5904     5811     6201     6583     6605 
    6420     6351     6442     6467     6297     6058     5958     6004 
    6045     6083     6201     6347     6446     6444     6301     6119 
    6100     6254     6382     6390     6399     6459     6408     6187 
    6080     6246     6404     6327     6185     6199     6376     6535 
    6471     6269     6226     6339     6355     6228     6133     6212 
    6380     6416     6326     6266     6257     6305     6490     6662 
    6558     6212     5888     5875     6207     6565     6623     6365 
    6108     6141     6336     6432     6376     6264     6172     6091 
    6033     6077     6223     6353     6409     6372     6262     6234 
    6332     6467     6532     6378     6162     6269     6546     6488 
    6123     5985     6288     6600     6448     6065     6041     6385 
    6582     6404     6133     6075     6158     6176     6161     6220 
    6354     6455     6436     6415     6442     6370     6232     6199 
    6278     6388     6434     6431     6480     6453     6214     6012 
    6052     6141     6096     6014     6052     6199     6276     6188 
    6046     5989     6060     6184     6220     6214     6285     6245 
    5972     5840     6145     6555     6497     5952     5509     5621 
    6096     6416     6415     6426     6729     7229     7604     7628 
    7323     6891     6577     6523     6624     6619     6462     6448 
    6777     7109     6960     6583     6562     6778     6806     6547 
    6134     5806     5622     5524     5687     6153     6473     6207 
    5544     5189     5475     5821     5491     4638     4182     4654 
    5528     6077     6397     7005     7954     8658     8364     7086 
    5765     5238     5535     6239     6964     7481     7684     7562 
    7231     6816     6330     5849     5528     5359     5131     4753 
    4519     4862     5742     6532     6679     6301     5956     5940 
    5964     5714     5533     5902     6502     6721     6598     6660 
    7165     7830     8155     7927     7365     6791     6276     5852 
    5809     6312     6966     7229     7102     6920     6802     6594 
    6185     5620     4943     4398     4519     5439     6536     7075 
    6826     6299     6311     6893     7123     6508     5694     5545 
    6038     6424     6293     5980     5931     6266     6752     6945 
    6598     5960     5532     5562     5872     6222     6635     7083 
    7160     6589     5844     5687     6123     6486     6465     6332 
    6373     6544     6565     6222     5825     5954     6590     7028 
    6646     5583     4793     4999     5756     6138     5805     5186 
    5073     5784     6794     7449     7585     7458     7419     7415 
    6939     5918     5123     5254     6160     7047     7184     6651 
    6242     6390     6633     6358     5663     5346     5981     6988 
    7284     6729     6039     5837     6162     6551     6744     6967 
    7071     6504     5476     4877     5101     5849     6525     6733 
    6633     6656     7056     7642     7851     7334     6292     5387 
    5325     6033     6498     6043     5293     5277     5964     6367 
    5998     5405     5236     5540     5991     6354     6677     6998 
    7102     6836     6369     6027     5926     5867     5775     5827 
    5962     5964     6052     6500     6929     6909     6694     6696 
    6795     6633     6222     5940     5991     6115     6058     6023 
    6258     6663     7092     7585     8009     7871     6943     5779 
    5250     5539     5915     5702     5242     5395     6178     6673 
    6331     5495     4895     5113     6100     7173     7646     7368 
    6887     6852     7242     7588     7542     6957     6034     5439 
    5556     5979     6107     5908     5944     6509     7067     6945 
    6276     5849     6131     6745     6928     6201     4953     4302 
    4900     6203     7187     7298     6721     6015     5463     5132 
    5158     5487     5975     6535     6858     6740     6535     6647 
    7075     7420     7161     6386     5886     5987     6129     5873 
    5584     5822     6423     6577     5981     5491     5973     6995 
    7439     6967     6231     5979     6172     6092     5458     4970 
    5332     6193     6652     6372     5861     5869     6493     7133 
    7385     7364     7299     7280     7222     7117     7141     7237 
    7088     6659     6133     5618     5386     5589     5842     5861 
    5810     5840     5994     6264     6440     6346     6187     6282 
    6588     6764     6643     6324     5861     5364     5173     5379 
    5834     6454     6948     6955     6670     6520     6461     6249 
    5956     5803     5863     5921     5745     5530     5678     6162 
    6574     6813     7103     7338     7140     6550     6091     6088 
    6268     6170     5918     6103     6750     7065     6666     6172 
    6197     6531     6710     6666     6475     6102     5521     5026 
    5142     5910     6725     7117     7076     6824     6577     6355 
    6025     5643     5445     5605     6237     7084     7472     7128 
    6412     5844     5736     5921     6021     5952     5935     6227 
    6729     6943     6538     5852     5486     5576     5854     6135 
    6404     6727     7038     7028     6669     6377     6373     6511 
    6562     6421     6270     6237     6219     6176     6075     5960 
    6072     6454     6887     7163     7011     6303     5493     5292 
    5788     6349     6399     6056     5796     5823     6057     6354 
    6612     6736     6563     6111     5745     5744     5863     5779 
    5640     5765     6210     6689     6851     6714     6571     6551 
    6574     6570     6609     6727     6843     6953     7099     7217 
    7173     6882     6430     6070     5971     6000     5899     5733 
    5795     5996     6022     5896     5929     6331     6862     6976 
    6589     6207     6178     6315     6285     6093     6004     6076 
    6080     5903     5745     5853     6158     6303     6085     5746 
    5620     5751     5984     6135     6115     6042     6122     6394 
    6735     7034     7167     6983     6582     6245     6106     6158 
    6349     6594     6848     7090     7215     7087     6756     6408 
    6173     6124     6123     5840     5266     4850     5005     5695 
    6486     6951     7033     7001     7061     7117     6970     6652 
    6334     6081     5863     5698     5679     5695     5575     5405 
    5387     5672     6134     6274     5937     5663     5887     6458 
    6997     7187     7065     7011     7163     7334     7329     7101 
    6902     6963     7065     6918     6575     6234     6016     5981 
    6045     6007     5788     5551     5512     5634     5665     5435 
    5055     4884     5219     5962     6723     7186     7338     7291 
    7028     6610     6296     6164     6120     6135     6214     6401 
    6629     6582     6239     6048     6210     6439     6343     5792 
    5178     5090     5568     6012     6064     6030     6200     6517 
    6971     7510     7892     7982     7781     7326     6860     6579 
    6324     6025     5868     5900     5918     5724     5381     5132 
    5142     5395     5765     6065     6112     5980     5908     6008 
    6358     6818     7040     7053     7150     7360     7485     7376 
    7092     6872     6848     6870     6716     6331     5848     5481 
    5359     5452     5711     6052     6258     6180     5884     5536 
