Origin Time       2025/03/30 21:30:00
Lat.              38.535
Long.             142.295
Depth. (km)       44
Mag.              4.3
Station Code      MYG018
Station Lat.      38.7194
Station Long.     141.5228
Station Height(m) 24
Record Time       2025/03/30 21:31:17
Sampling Freq(Hz) 100Hz
Duration Time(s)  60
Dir.              N-S
Scale Factor      7845(gal)/8223790
Max. Acc. (gal)   15.752
Last Correction   2025/03/30 21:31:17
Memo.             
[...]
    5660     5660     5660     5659     5660     5660     5659     5659 
    5661     5660     5659     5660     5659     5657     5660     5660 
    5660     5661     5660     5659     5660     5660     5659     5659 
    5660     5661     5661     5659     5659     5660     5659     5659 
    5659     5659     5660     5663     5660     5659     5661     5661 
    5659     5660     5663     5663     5661     5661     5660     5659 
    5660     5661     5660     5660     5661     5660     5660     5661 
    5660     5660     5661     5664     5664     5661     5659     5659 
    5660     5661     5661     5660     5660     5657     5657     5659 
    5659     5660     5660     5659     5660     5660     5659     5660 
    5661     5660     5657     5659     5661     5661     5661     5660 
    5660     5663     5661     5659     5659     5659     5661     5660 
    5656     5659     5660     5659     5660     5660     5659     5660 
    5659     5657     5659     5661     5659     5657     5660     5661 
    5660     5660     5660     5660     5661     5661     5659     5657 
    5661     5660     5657     5657     5659     5657     5659     5661 
    5660     5659     5659     5660     5659     5659     5661     5661 
    5660     5659     5657     5657     5661     5661     5657     5657 
    5660     5661     5659     5660     5663     5663     5660     5660 
    5659     5660     5659     5659     5660     5660     5660     5661 
    5660     5659     5660     5660     5659     5661     5661     5659 
    5659     5659     5661     5661     5659     5660     5661     5663 
    5663     5660     5660     5660     5657     5657     5661     5661 
    5660     5660     5661     5660     5660     5659     5659     5659 
    5659     5657     5659     5661     5660     5657     5659     5663 
    5661     5657     5659     5660     5660     5661     5659     5659 
    5660     5660     5661     5661     5659     5660     5660     5659 
    5660     5659     5659     5659     5660     5661     5660     5659 
    5659     5660     5660     5660     5659     5660     5660     5657 
    5657     5660     5661     5661     5657     5656     5661     5663 
    5660     5660     5660     5660     5661     5660     5661     5663 
    5661     5660     5659     5663     5663     5659     5661     5663 
    5660     5661     5663     5659     5657     5661     5661     5659 
    5659     5660     5660     5660     5660     5661     5660     5660 
    5659     5660     5661     5660     5660     5660     5656     5659 
    5663     5663     5661     5659     5661     5661     5657     5657 
    5661     5660     5659     5660     5660     5660     5661     5661 
    5661     5660     5660     5660     5659     5657     5660     5661 
    5660     5661     5660     5659     5660     5660     5660     5660 
    5660     5660     5663     5660     5659     5663     5661     5659 
    5661     5660     5659     5661     5660     5660     5661     5660 
    5660     5660     5661     5661     5659     5660     5663     5661 
    5659     5660     5660     5659     5661     5660     5657     5657 
    5659     5661     5660     5657     5660     5661     5660     5661 
    5663     5661     5660     5660     5660     5660     5661     5660 
    5657     5661     5663     5660     5661     5660     5660     5661 
    5660     5657     5659     5661     5660     5660     5661     5661 
    5661     5661     5660     5661     5663     5660     5660     5659 
    5657     5660     5661     5661     5661     5661     5659     5659 
    5660     5660     5659     5659     5661     5661     5661     5661 
    5661     5660     5660     5660     5661     5660     5659     5659 
    5660     5660     5661     5660     5659     5660     5659     5659 
    5660     5659     5657     5661     5660     5659     5659     5660 
    5657     5657     5660     5659     5656     5657     5659     5659 
    5660     5659     5656     5656     5659     5660     5660     5657 
    5656     5659     5659     5657     5657     5657     5659     5661 
    5660     5659     5659     5660     5659     5657     5660     5660 
    5657     5659     5661     5660     5660     5660     5659     5660 
    5660     5659     5657     5659     5660     5660     5660     5660 
    5661     5660     5660     5661     5661     5659     5659     5660 
    5661     5660     5660     5663     5661     5660     5660     5661 
    5659     5657     5659     5660     5660     5660     5659     5660 
    5661     5660     5661     5663     5661     5661     5660     5657 
    5659     5663     5661     5657     5659     5660     5659     5661 
    5661     5659     5660     5661     5657     5659     5660     5660 
    5661     5660     5660     5663     5664     5664     5667     5668 
    5671     5678     5680     5668     5645     5641     5670     5692 
    5679     5632     5586     5586     5647     5706     5697     5637 
    5601     5633     5725     5788     5724     5607     5570     5570 
    5606     5767     5948     5925     5584     5158     5143     5617 
    6191     6354     5688     4869     5132     5945     5935     5594 
    5890     6011     5343     5054     5814     6475     6002     5119 
    5147     5732     5667     5470     6164     6481     5193     4311 
    5482     6741     6394     5385     5067     5629     6053     5572 
    4888     5278     6594     6686     5158     4777     5895     6008 
    5275     5429     6097     6176     5745     5260     4893     5232 
    6241     6411     5530     5301     5825     5719     5395     5879 
    6183     5451     4916     5447     6116     6257     6096     5429 
    4668     5034     5887     5973     5877     5980     5752     5389 
    5462     5740     5891     6340     6373     5040     4413     5580 
    5954     5115     5590     6880     6192     4542     5009     6609 
    6511     5177     4827     5634     6096     5729     5405     5649 
    6022     5971     5441     4876     5001     6015     6802     6211 
    5238     5283     5437     5128     5563     6486     6455     5674 
    5219     5104     5036     5517     6315     6029     5148     5587 
    6628     6455     5489     4822     4773     5354     5917     5830 
    5670     5923     5992     5736     5711     5845     5728     5578 
    5514     5231     5139     5690     6300     6270     5609     5219 
    5460     5549     5709     6079     5657     5035     5212     5767 
    6338     6114     5036     5445     6856     5958     4347     5082 
    6274     6193     5682     5198     5344     6218     6335     5267 
    4702     5543     6196     5556     5057     5733     6411     5871 
    5031     5545     6669     6393     5044     4661     5660     6208 
    5414     4972     5701     6022     5624     5937     6459     5778 
    5116     5501     5374     5055     6193     6979     5709     4577 
    5215     5961     5529     5209     5917     6257     5521     5142 
    5699     6154     6022     5622     5165     5279     6320     6610 
    5278     4560     5487     6073     5375     5165     6307     6816 
    5841     5077     5117     5290     5713     6130     5555     4993 
    5918     6532     5525     5043     5919     6332     5599     5012 
    5377     5709     5656     5868     5688     5266     5800     6220 
    5718     5574     5738     5470     5424     5799     5802     5439 
    5528     5921     5698     5305     5629     5976     5782     5655 
    5751     5722     5486     5250     5474     6016     5992     5468 
    5481     5871     5664     5350     5656     5954     5892     5661 
    5300     5387     6069     6095     5212     4981     5730     6227 
    6079     5670     5405     5433     5467     5499     5572     5620 
    5958     6332     5903     5190     5479     6010     5576     5312 
    5599     5302     5258     6259     6558     5545     5215     5755 
    5394     4945     5867     6612     6003     5418     5593     5555 
    5144     5393     6080     5962     5366     5501     6038     5933 
    5505     5502     5584     5560     5692     5607     5393     5806 
    6365     6026     5250     5224     5710     5595     5265     5597 
    5972     5894     5813     5775     5474     5263     5736     6100 
    5651     5378     5595     5759     5863     5844     5575     5351 
    5559     5748     5416     5412     6110     6185     5244     5047 
    6021     6245     5582     5379     5594     5877     5880     5497 
    5421     5508     5471     5796     6124     5911     5625     5454 
    5246     5503     6058     5836     5341     5753     6053     5414 
    5151     5625     5883     5817     5809     5981     5960     5443 
    5070     5181     5421     5957     6432     5890     5104     5397 
    5975     5606     5216     5852     6308     5807     5432     5530 
    5686     5765     5593     5337     5265     5424     5832     6174 
    6127     5811     5699     5640     5208     5243     5890     5890 
    5427     5541     5950     5811     5389     5536     5784     5494 
    5487     5888     5991     5998     5710     5146     5367     5764 
    5387     5493     6315     6218     5317     5171     5745     5965 
    5667     5200     5167     5899     6318     5914     5544     5391 
    5474     5802     5757     5732     6073     5614     4957     5549 
    5900     5279     5427     6145     6068     5622     5501     5734 
    6129     5853     5026     5076     5769     5907     5845     5945 
    5667     5351     5483     5562     5548     5742     5950     5987 
    5568     5013     5366     6127     6160     5857     5533     5124 
    5335     6187     6129     5058     5364     6311     5340     4780 
    6232     6717     5795     5571     5645     5015     4761     5718 
    6578     5976     4945     5417     6534     6026     4822     5178 
    6180     5898     5256     5875     6484     5665     4980     5348 
    5506     5309     5725     6500     6374     5641     5503     5362 
    4969     5202     5661     5945     6142     5883     5647     6023 
    6050     5246     4777     5165     5659     5711     5721     6208 
    6393     5736     5286     5367     5493     5713     5796     5792 
    5850     5432     5184     5684     5761     5458     5745     6081 
    5821     5433     5557     6048     6042     5270     4708     5192 
    5879     5803     5994     6774     6192     4671     4796     5899 
    6037     5714     5883     6118     5648     4903     5013     5964 
    6482     6015     5352     4957     5113     5836     6041     5647 
    5638     6019     5988     5300     5150     5988     6232     5487 
    5107     5479     5695     5541     5887     6241     5678     5292 
    5721     5934     5582     5360     5680     5961     5466     4877 
    5389     6326     6365     5806     5483     5486     5424     5246 
    5617     6354     6077     5190     5352     5980     5872     5474 
    5518     5989     5948     5197     4911     5491     6261     6147 
    5147     5070     6158     6386     5582     5274     5265     5273 
    6061     6408     5599     5456     5867     5671     5528     5555 
    5410     5545     5757     5580     5539     5829     5898     5853 
    5840     5539     5313     5638     5934     5525     5151     5526 
    5809     5630     5633     5857     5991     6023     5971     5575 
    5173     5389     5586     5533     5688     5670     5796     6077 
    5597     5393     6156     6058     5007     5090     5852     5516 
    5235     5891     6008     5694     5871     6120     6172     5869 
    5162     4788     5181     5699     5802     5829     5908     5879 
    5713     5363     5355     5738     5826     5929     6135     5651 
    5035     5405     5887     5476     5350     5899     5733     5367 
    5979     6227     5460     5366     6027     5911     5166     5182 
    5995     6133     5417     5266     5907     6178     5756     5408 
    5204     5159     5717     6077     5933     5998     5643     4973 
    5589     6563     5798     4931     5876     6350     5166     4787 
    5522     5382     4972     5749     6624     6704     6511     5900 
    5144     5004     5175     5320     5505     5571     5533     5719 
    6139     6235     5850     5633     5668     5638     5713     5695 
    5460     5283     4973     4824     5536     6536     6829     6582 
    5971     5113     5011     5414     5262     5121     5593     6061 
    6068     5965     5805     5305     5179     5624     5755     5869 
    6249     5846     4924     4901     5602     6015     6019     6066 
    6172     5896     5463     5336     5267     5204     5204     5240 
    5834     6470     6343     6471     6482     4958     3896     5066 
    6142     5787     5706     5985     5903     6100     5823     5144 
    5790     6161     4833     4488     5976     6772     6192     5522 
    5130     4984     5424     6172     6382     5848     5562     6277 
    6463     4861     4068     5435     6027     5436     5514     5601 
    5204     4903     4876     5603     6605     6420     5416     5204 
    5317     5089     6443     8545     7875     6509     7442     7075 
    2995     -444      905     5252     8407     9620     9856     7987 
    3514     -356      121     4182     7951     9710     9863     8538 
    6786     6547     7144     5310      364    -2729     1113     9417 
   15087    14418     8040    -1264    -8425    -7496     2613    15299 
   22173    19275     8567    -1995    -5468    -3281     1115     6863 
   10786    10821    10328    10044     7118     3410     1644      654 
     880     3920     8046    10424    10089     7734     5379     4745 
    4476     3222     2871     4012     6077     9749    11877     8403 
    2847     1278     2585     2744     4521    10000    11519     5004 
    -676     1351     5454     6172     7024     8903     8131     6415 
    5323     4185     5717     7329     4085     1486     4212     7157 
    7577     8374     8738     5960     3364     4160     5312     4977 
    5215     6374     6285     5217     6153     7479     5159     2242 
    3997     8070     8320     5135     4295     5508     4904     5350 
    8143     8063     5533     5400     5475     2141     1468     7215 
    9390     5028     4564     8085     7497     4131     3034     4639 
    6824     7010     5593     5598     6844     6862     5528     4645 
    5242     6006     4881     2733     2582     4769     7171     8455 
    8063     6967     6407     6085     6133     5410     3414     3516 
    5390     5084     3855     5132     7520     7542     6008     5493 
    5439     5935     7191     6984     6142     5755     4486     4606 
    6207     5475     4353     5112     5184     4766     5871     6870 
    5946     4872     5456     6895     7693     6331     4117     4483 
    5761     5482     5557     6177     6332     5823     4363     4457 
    6704     6648     4761     5719     6813     4881     4182     5227 
    5344     6173     6983     6069     5968     6729     5958     4860 
    5248     5931     5741     5356     5212     5718     6605     5771 
    4318     5184     6276     5167     3863     4625     6979     8086 
    7114     6826     6579     4136     2826     4066     4480     5211 
    7739     8141     6154     5117     4671     4785     6249     6991 
    6092     5127     4928     5011     5078     5640     6367     6173 
    5395     5421     6339     6582     5605     5034     4869     3770 
    3774     6276     8253     7936     6766     6157     5562     4365 
    4627     6204     5616     3742     4064     5989     6706     5691 
    5294     6334     6538     5378     5000     6282     6925     5158 
    4005     5611     6525     5692     6176     6971     5441     3955 
    5039     6284     5787     5108     5123     5571     6088     6254 
    6176     5826     5571     5675     5468     5177     5205     5568 
    6517     6494     4762     4725     6953     7159     5421     4850 
    4792     4916     6038     6524     5854     5818     6185     5413 
    4391     4877     6272     6717     5661     4742     5080     5466 
    5753     6617     7024     6651     5918     5043     5125     5171 
    4126     4731     6112     5329     5464     7284     7098     5541 
    4912     5413     5830     4928     4664     5729     5370     4800 
    6394     7734     6937     5260     4260     4604     5466     6052 
    6635     7026     6582     5337     4545     4819     5179     5628 
    5956     5170     4951     6255     6474     5413     5422     5915 
    5767     5584     5390     5829     6787     6172     5301     6299 
    6330     4276     3775     5196     5933     6359     6778     5940 
    4765     4606     5100     5540     5805     6494     7522     7214 
    4897     3331     4305     5130     5225     6511     7356     6797 
    6347     5981     5393     4633     4085     4776     6011     6204 
    6033     6700     6760     5227     4376     5190     5880     6004 
    6253     6305     5506     4272     4419     6006     6550     6084 
    6143     5880     5394     5722     5463     4563     5348     6636 
    5773     5038     6659     7067     4864     4340     5622     5518 
    5197     5472     4992     5217     6799     6949     5663     5637 
    6324     5977     4911     4534     5906     6836     5358     4656 
    6106     6018     4299     4851     7175     7493     5873     5378 
    6076     5493     4110     4529     6336     6685     5367     5030 
    5984     6313     5682     4723     4631     5965     6334     5100 
    5271     6826     6812     5503     5348     5532     4513     5057 
    7098     6162     4542     5784     6366     5233     5196     5767 
    5462     5355     6080     6126     5690     6309     6635     5420 
    4691     5433     6138     5952     5192     4935     5722     5954 
    4959     5135     6666     6274     4808     5509     6446     5730 
    5294     5616     5767     5601     5718     6339     5736     4264 
    5042     6237     4884     4970     7672     7327     4432     4445 
    6108     5775     5143     5861     6214     5809     5709     6006 
    6134     5921     5611     4931     4437     4978     5841     6208 
    5887     5877     6465     6187     5486     5019     4606     5283 
    6250     5879     5339     5944     6798     6315     5030     4942 
    5552     5456     5435     5934     6439     6524     5489     4332 
    4901     5976     5725     5618     6342     5871     5069     5844 
    6399     5814     5637     5956     5522     4510     4661     5913 
    6543     5985     4950     5097     6521     6916     5756     4723 
    4743     5437     5923     5877     5437     4916     4963     5533 
    6216     6897     7129     6646     5663     4791     4926     5305 
    4584     4538     6062     6673     6147     5891     5934     6164 
    6057     5368     4955     5456     6335     6342     5432     4914 
    5175     5526     5715     6089     6409     5803     5044     5428 
    5701     5082     5225     5741     5219     5235     6000     5960 
    5975     6164     5931     6000     5628     4495     4689     6269 
    6704     5718     5467     6349     6254     4756     4369     5617 
    6259     5979     6018     5954     5308     5201     5556     5368 
