Origin Time       2025/03/30 21:30:00
Lat.              38.535
Long.             142.295
Depth. (km)       44
Mag.              4.3
Station Code      MYG012
Station Lat.      38.3288
Station Long.     141.0128
Station Height(m) 74
Record Time       2025/03/30 21:31:27
Sampling Freq(Hz) 100Hz
Duration Time(s)  60
Dir.              E-W
Scale Factor      7845(gal)/8223790
Max. Acc. (gal)   2.649
Last Correction   2025/03/30 21:31:27
Memo.             
[...]
    2327     2328     2327     2327     2328     2328     2327     2330 
    2332     2330     2328     2327     2327     2328     2328     2326 
    2323     2323     2330     2331     2327     2327     2331     2330 
    2328     2328     2323     2324     2330     2328     2328     2331 
    2330     2330     2328     2324     2328     2332     2328     2327 
    2328     2328     2330     2327     2326     2328     2331     2330 
    2328     2328     2330     2328     2324     2324     2328     2327 
    2327     2330     2332     2334     2334     2331     2326     2322 
    2320     2322     2330     2338     2339     2338     2338     2332 
    2336     2344     2332     2299     2276     2286     2324     2349 
    2334     2332     2377     2408     2371     2299     2231     2209 
    2247     2280     2273     2317     2454     2535     2448     2312 
    2326     2467     2466     2180     1917     2014     2336     2528 
    2452     2239     2181     2394     2606     2555     2320     2131 
    2191     2490     2673     2465     2138     2026     2110     2273 
    2342     2296     2404     2550     2442     2292     2292     2358 
    2371     2207     2014     2124     2488     2694     2565     2390 
    2380     2363     2236     2081     1958     1965     2197     2497 
    2583     2528     2536     2465     2308     2297     2281     2139 
    2174     2435     2566     2400     2138     2097     2377     2637 
    2459     2068     2088     2533     2764     2467     2108     2173 
    2362     2346     2380     2380     2168     2116     2289     2527 
    2712     2513     2216     2265     2326     2241     2168     2068 
    2064     2300     2567     2554     2251     2110     2334     2515 
    2444     2251     2107     2165     2292     2344     2327     2282 
    2351     2417     2311     2185     2201     2444     2690     2504 
    2151     2151     2354     2457     2354     2114     2062     2303 
    2582     2659     2455     2249     2359     2577     2471     2054 
    1844     2184     2697     2802     2458     2120     2116     2367 
    2558     2381     2020     2031     2350     2481     2442     2403 
    2278     2131     2106     2309     2531     2320     2085     2366 
    2640     2581     2423     2134     1906     2049     2367     2532 
    2370     2138     2220     2400     2455     2506     2508     2389 
    2200     2099     2255     2538     2593     2301     2038     2133 
    2380     2543     2524     2222     2037     2334     2556     2425 
    2362     2344     2353     2458     2301     2037     2087     2284 
    2471     2543     2344     2211     2435     2619     2330     1891 
    1887     2290     2673     2628     2236     2176     2525     2650 
    2342     1950     1975     2403     2625     2482     2313     2234 
    2272     2382     2357     2258     2296     2316     2201     2251 
    2513     2636     2527     2266     2015     2074     2425     2594 
    2344     2084     2158     2362     2477     2462     2319     2160 
    2120     2192     2366     2635     2687     2362     2031     2026 
    2311     2627     2659     2312     1931     2038     2516     2620 
    2239     2076     2326     2461     2369     2393     2401     2208 
    2220     2511     2531     2232     2066     2199     2407     2355 
    2209     2336     2411     2251     2324     2583     2597     2401 
    2249     2242     2230     2138     2219     2377     2255     2137 
    2435     2724     2443     2068     2250     2575     2482     2138 
    1985     2193     2451     2494     2421     2359     2349     2334 
    2300     2322     2365     2320     2207     2258     2388     2290 
    2288     2492     2417     2241     2304     2353     2417     2556 
    2405     2142     2176     2311     2357     2342     2239     2184 
    2284     2424     2470     2408     2301     2259     2373     2427 
    2239     2143     2270     2351     2434     2554     2430     2099 
    1941     2119     2413     2529     2443     2277     2268     2551 
    2667     2400     2184     2057     2069     2407     2548     2284 
    2111     2257     2531     2521     2246     2211     2369     2354 
    2327     2428     2409     2327     2351     2250     2091     2153 
    2401     2652     2498     2025     2000     2397     2596     2533 
    2338     2077     2023     2344     2712     2623     2143     1896 
    2205     2639     2656     2388     2235     2239     2222     2215 
    2366     2461     2299     2135     2199     2401     2505     2486 
    2409     2223     2192     2434     2543     2428     2242     2112 
    2266     2444     2290     2116     2101     2204     2517     2660 
    2457     2397     2419     2250     2133     2101     2172     2403 
    2442     2290     2357     2479     2413     2351     2257     2022 
    2019     2420     2740     2636     2349     2197     2242     2377 
    2446     2261     2018     2162     2467     2481     2363     2290 
    2234     2276     2338     2394     2471     2238     2000     2367 
    2728     2523     2214     2145     2312     2473     2319     2107 
    2193     2374     2450     2515     2462     2189     2085     2293 
    2400     2362     2353     2322     2324     2361     2351     2403 
    2419     2207     2108     2292     2396     2434     2443     2227 
    2111     2330     2529     2555     2423     2139     2030     2265 
    2508     2577     2481     2180     1976     2243     2664     2640 
    2265     2073     2158     2270     2320     2355     2351     2254 
    2174     2241     2461     2581     2369     2169     2192     2238 
    2436     2671     2519     2176     2083     2319     2625     2548 
    2128     1960     2161     2374     2509     2542     2317     2106 
    2309     2628     2575     2320     2182     2161     2254     2350 
    2304     2350     2490     2407     2254     2181     2074     2199 
    2558     2546     2203     2173     2479     2612     2380     2097 
    2081     2277     2462     2463     2278     2130     2199     2353 
    2376     2307     2280     2269     2331     2585     2733     2462 
    2192     2326     2466     2239     1988     2054     2189     2205 
    2261     2484     2751     2616     2169     2107     2392     2583 
    2543     2208     1972     2174     2412     2417     2355     2265 
    2184     2200     2224     2361     2682     2743     2444     2185 
    2062     2142     2452     2574     2286     2039     2137     2365 
    2501     2430     2251     2263     2467     2569     2417     2235 
    2266     2349     2312     2228     2189     2257     2342     2274 
    2178     2224     2370     2463     2405     2363     2485     2623 
    2555     2246     2027     2170     2423     2409     2115     1919 
    2106     2475     2721     2705     2415     2111     2089     2242 
    2401     2535     2359     2035     2196     2593     2654     2432 
    2133     1991     2150     2381     2478     2465     2362     2257 
    2370     2573     2469     2151     2014     2133     2338     2415 
    2371     2412     2438     2407     2444     2320     2065     2106 
    2317     2332     2296     2439     2497     2285     2176     2293 
    2363     2416     2531     2511     2236     1927     2002     2512 
    2828     2516     2054     2006     2270     2511     2481     2266 
    2208     2299     2439     2621     2420     1890     1917     2505 
    2813     2504     1995     2053     2597     2725     2354     2031 
    1950     2161     2533     2635     2311     2053     2268     2583 
    2558     2292     2064     2025     2151     2407     2667     2632 
    2315     2122     2230     2357     2285     2170     2223     2475 
    2698     2577     2239     2203     2420     2324     2120     2270 
    2419     2365     2362     2334     2227     2185     2214     2258 
    2251     2235     2371     2508     2475     2515     2613     2401 
    2077     2046     2143     2247     2378     2415     2436     2398 
    2238     2236     2313     2242     2304     2544     2613     2504 
    2400     2316     2270     2265     2234     2281     2359     2209 
    2070     2295     2571     2469     2123     2034     2259     2388 
    2400     2465     2384     2204     2242     2462     2581     2374 
    2101     2118     2211     2336     2505     2390     2209     2280 
    2385     2412     2357     2230     2204     2326     2430     2425 
    2394     2371     2331     2434     2546     2308     2014     2103 
    2434     2621     2490     2327     2324     2288     2284     2415 
    2448     2326     2157     2101     2228     2272     2209     2255 
    2323     2392     2484     2444     2299     2251     2369     2428 
    2253     2138     2208     2219     2290     2481     2463     2331 
    2385     2511     2497     2307     2114     2199     2439     2502 
    2455     2330     2049     2037     2450     2721     2459     1921 
    1830     2374     2816     2710     2292     2060     2319     2637 
    2500     2115     1910     2045     2361     2477     2407     2417 
    2344     2158     2158     2408     2755     2732     2126     1642 
    1925     2624     2920     2617     2164     1939     2228     2802 
    2840     2226     1750     1925     2411     2635     2531     2268 
    2057     2103     2226     2343     2458     2300     2172     2432 
    2616     2424     2245     2412     2667     2586     2197     1830 
    1881     2389     2702     2351     1884     2042     2589     2729 
    2393     2182     2308     2554     2659     2436     2096     1984 
    2147     2394     2430     2215     2139     2425     2601     2421 
    2309     2319     2273     2205     2168     2335     2566     2547 
    2328     2118     2243     2583     2573     2324     2212     2185 
    2258     2305     2110     2083     2335     2332     2259     2440 
    2440     2282     2378     2474     2398     2432     2450     2300 
    2263     2265     2100     2020     2123     2324     2558     2490 
    2149     2203     2718     2872     2404     2083     2265     2388 
    2211     2185     2444     2620     2504     2172     1926     2104 
    2500     2617     2409     2191     2199     2330     2323     2254 
    2290     2343     2373     2359     2311     2428     2523     2289 
    2118     2265     2316     2192     2268     2421     2231     2027 
    2326     2641     2496     2331     2354     2285     2215     2384 
    2596     2465     2155     2151     2431     2574     2478     2438 
    2367     2127     2062     2099     2124     2386     2419     2116 
    2174     2434     2556     2654     2427     2015     2039     2328 
    2517     2492     2154     1962     2255     2543     2559     2361 
    2049     2085     2355     2452     2683     2848     2505     2161 
    2172     2334     2419     2219     1935     1977     2292     2614 
    2762     2643     2359     2042     1999     2435     2732     2361 
    1857     1983     2628     2956     2577     2025     1919     2178 
    2388     2509     2565     2407     2219     2174     2128     2265 
    2538     2393     2056     1979     2039     2343     2727     2713 
    2459     2223     2161     2365     2515     2404     2209     2119 
    2141     2230     2396     2505     2494     2478     2390     2290 
    2274     2270     2301     2239     2074     2108     2301     2479 
    2565     2419     2235     2297     2377     2258     2211     2443 
    2650     2431     2070     2091     2293     2312     2257     2242 
    2249     2378     2532     2423     2262     2428     2563     2288 
    2047     2097     2258     2473     2457     2261     2400     2644 
    2500     2101     1841     2091     2646     2728     2335     2180 
    2381     2573     2552     2316     2079     2052     2108     2161 
    2300     2527     2682     2473     2093     2138     2446     2563 
    2475     2313     2331     2448     2286     2103     2212     2365 
    2371     2214     2120     2331     2484     2408     2334     2178 
    2158     2492     2662     2481     2268     2096     2178     2497 
    2469     2195     2160     2153     2158     2263     2193     2297 
    2820     2988     2492     2008     2039     2365     2452     2239 
    2182     2317     2290     2239     2413     2533     2363     2142 
    2145     2359     2612     2570     2104     1826     2201     2686 
    2650     2359     2305     2359     2354     2349     2307     2286 
    2150     1802     1753     2123     2346     2218     2029     2061 
    2322     2640     3076     3624     3623     2751     1745     1375 
    1582     1605     1206     1348     2471     3595     3963     3751 
    3218     2538     1964     1813     2155     2415     2331     2413 
    2539     2265     1977     1846     1715     1831     1933     1864 
    2385     3400     3958     3708     2705     1529      989      810 
     542      688     1563     2677     3350     3399     3291     3360 
    3267     2593     1593     1260     2185     3316     3026     1300 
     -25      580     2552     4079     3946     2620     1938     2741 
    3715     3574     2548     1605     1494     1865     1734     1305 
    1406     1939     2664     3375     3240     2207     1547     1885 
    2490     2550     2116     1927     2605     3623     3765     2886 
    1825     1266     1653     2763     3462     3126     2408     1985 
    1965     2188     2011     1038      261     1057     3300     5104 
    4737     3028     2061     1993     2110     2376     2289     1528 
     845      923     1606     2056     1852     1710     2101     2374 
    2083     1988     2787     3666     3447     2525     2290     3115 
    3755     3113     2037     2127     3395     4152     3129     1377 
    1093     2242     2477      936     -426      144     1934     3136 
    2899     1846     1406     2045     2706     2821     3034     3582 
    3793     3280     2598     2388     2370     2268     2547     2961 
    2543     1417      918     1914     3364     3339     1755      561 
     882     1723     2147     2378     2579     2747     2894     2829 
    2808     2999     2755     2052     1603     1732     2536     3319 
    3160     2533     2006     1676     1988     2597     2678     2403 
    2214     2358     2864     2801     1733      885     1053     1765 
    2427     2654     2407     2161     2517     3240     3284     2342 
    1426     1516     2467     3396     3338     2089     1044     1656 
    3140     3680     2986     2184     2108     2493     2575     2157 
    1763     1705     1772     1898     2319     2945     3200     2764 
    1927     1489     2089     2872     2689     2119     1830     1648 
    1844     2636     3424     3260     2058     1259     1815     2687 
    2739     2207     1860     2131     2749     2982     2523     1761 
    1497     1960     2361     2519     2855     2770     2087     2025 
    2864     3348     2689     1684     1540     2111     2586     2771 
    2590     2046     1695     2110     2868     2781     1942     1752 
    2490     3196     2925     1857     1649     2744     3458     2930 
    1834     1210     1572     2272     2577     2350     1844     1845 
    2466     2785     2529     2234     2250     2567     2716     2265 
    1948     2413     2679     2243     2115     2492     2571     2307 
    2091     1980     2108     2473     2663     2675     2724     2443 
    1841     1750     2268     2538     2234     1742     1624     2378 
    3453     3348     1981     1154     1769     2814     3253     3053 
    2551     2207     2377     2621     2523     2378     2158     1814 
    1834     2037     2026     2218     2444     2141     1800     1881 
    2155     2652     3295     3310     2477     1802     1848     2234 
    2533     2436     2079     1852     1949     2604     3578     3689 
    2305     1039     1486     2525     2720     2335     1949     1972 
    2435     2801     2798     2351     1593     1435     2315     3203 
    3009     1935     1304     1868     2733     2864     2367     2045 
    2423     2955     2916     2533     2142     1780     1825     2452 
    3198     3499     2864     1539      868     1630     3036     3605 
    2555     1166     1347     2613     3167     2556     1470      978 
    1756     3032     3565     3045     2058     1567     2011     2713 
    2808     2492     2389     2270     1919     2042     2693     2874 
    2371     1748     1395     1888     3206     3815     2809     1466 
    1144     1858     2895     3349     2983     2268     1308      870 
    2110     3495     3006     1938     1973     2660     3003     2594 
    2003     1983     2378     2736     2623     1877     1440     2033 
    2847     3080     2760     2108     1733     2049     2408     2316 
    2060     1939     2436     3226     2821     1624     1474     2257 
    2928     2999     2416     2012     2133     2106     2065     2451 
    2848     2853     2469     1921     1725     2073     2517     2720 
    2747     2490     1941     1686     1957     2408     2921     3134 
    2467     1399     1306     2384     3163     2818     2010     1659 
    2251     3161     3164     2282     1566     1749     2578     2791 
    2100     1783     2243     2744     2821     2474     2085     2091 
    2443     2539     2011     1559     2033     2955     3169     2431 
    1759     2133     2847     2766     2137     1628     1815     2644 
    2843     2178     1800     2034     2592     3022     2764     2074 
    1597     1733     2512     3169     3048     2392     1706     1552 
    2178     2984     3215     2710     1998     1831     2227     2474 
    2139     1703     1976     2554     2357     1899     2381     3137 
    2952     2295     2019     2137     2554     2914     2606     1876 
    1598     2042     2739     3042     2575     1613     1123     1880 
    3198     3555     2717     1624     1194     1950     3102     3132 
    2118     1381     1711     2926     3608     2485      969     1194 
    2590     3605     3581     2220      855     1560     3434     3964 
    2890     1611     1170     1748     2540     2654     2322     2311 
    2608     2473     1857     1713     2385     2926     2666     2091 
    1827     2077     2517     2470     2150     2367     2855     2822 
    2322     2016     2120     2223     2122     2056     2339     2847 
    2860     2280     1903     2012     2289     2532     2506     2269 
    2312     2469     2367     2361     2385     2118     1965     2115 
    2284     2363     2305     2313     2609     2610     2153     2160 
    2527     2579     2511     2177     1775     2023     2430     2655 
    2878     2398     1641     2056     2844     2648     2201     2254 
    2427     2484     2532     2558     2313     1767     1723     2594 
    3095     2513     2038     2187     2438     2673     2621     2091 
    1760     2060     2511     2605     2351     2108     2137     2227 
    2047     1837     2060     2605     3021     2833     2062     1744 
    2322     2766     2419     1699     1436     2130     2901     2813 
    2463     2339     2386     2752     2767     2037     1609     2042 
    2743     2882     2223     1763     2165     2693     2743     2376 
