Origin Time       2025/03/30 21:30:00
Lat.              38.535
Long.             142.295
Depth. (km)       44
Mag.              4.3
Station Code      MYG004
Station Lat.      38.7324
Station Long.     141.0270
Station Height(m) 38
Record Time       2025/03/30 21:31:28
Sampling Freq(Hz) 100Hz
Duration Time(s)  60
Dir.              E-W
Scale Factor      7845(gal)/8223790
Max. Acc. (gal)   2.648
Last Correction   2025/03/30 21:31:27
Memo.             
[...]
    2250     2216     2197     2227     2255     2231     2227     2336 
    2489     2515     2388     2277     2297     2344     2253     2062 
    2008     2154     2227     2093     2072     2358     2632     2602 
    2396     2299     2389     2438     2234     1989     2033     2223 
    2215     2073     2124     2361     2470     2389     2300     2305 
    2431     2504     2312     2095     2120     2220     2209     2135 
    2099     2216     2425     2452     2299     2251     2371     2455 
    2427     2398     2404     2328     2115     1908     1891     2027 
    2176     2280     2322     2393     2582     2732     2627     2284 
    1988     2072     2357     2350     2119     2041     2139     2246 
    2255     2276     2470     2590     2354     2074     2123     2326 
    2309     2049     1952     2269     2578     2455     2197     2245 
    2524     2614     2297     1964     2093     2505     2644     2320 
    1949     1995     2224     2192     2060     2193     2467     2447 
    2058     1829     2205     2785     2862     2492     2187     2084 
    2076     2065     2050     2172     2370     2434     2386     2392 
    2486     2470     2234     2083     2242     2461     2423     2177 
    2058     2209     2328     2138     1875     1980     2457     2789 
    2566     2049     1840     2083     2389     2400     2204     2251 
    2586     2752     2544     2180     2020     2155     2220     2041 
    1981     2285     2632     2573     2184     1968     2139     2417 
    2478     2322     2124     2031     2100     2196     2150     2069 
    2169     2432     2674     2767     2659     2403     2189     2166 
    2227     2168     2047     2087     2239     2270     2092     1925 
    2072     2455     2740     2732     2454     2215     2236     2268 
    2066     1815     1902     2355     2660     2562     2403     2404 
    2482     2481     2269     2037     2053     2197     2253     2200 
    2087     1958     1884     2035     2430     2745     2797     2685 
    2434     2084     1865     1946     2247     2525     2571     2389 
    2149     2050     2189     2447     2527     2269     1972     2062 
    2400     2416     2089     1995     2288     2535     2452     2139 
    1926     2060     2363     2497     2435     2413     2517     2533 
    2278     1966     2027     2413     2610     2424     2181     2196 
    2334     2197     1809     1644     1983     2525     2729     2567 
    2452     2420     2247     2050     2108     2431     2748     2764 
    2420     1958     1661     1621     1833     2316     2875     3036 
    2617     2049     1790     1891     2139     2272     2269     2362 
    2552     2547     2255     1954     2000     2373     2662     2604 
    2365     2296     2439     2423     2088     1752     1719     2023 
    2443     2614     2440     2269     2336     2448     2416     2309 
    2234     2200     2142     2089     2157     2296     2347     2269 
    2188     2272     2431     2419     2241     2145     2254     2444 
    2494     2373     2284     2305     2293     2201     2100     2092 
    2228     2338     2282     2212     2249     2350     2421     2366 
    2274     2277     2255     2161     2160     2257     2349     2371 
    2286     2189     2187     2263     2349     2386     2366     2293 
    2199     2205     2349     2446     2377     2215     2079     2089 
    2300     2512     2474     2254     2150     2281     2427     2323 
    2049     1964     2205     2482     2473     2234     2114     2200 
    2232     2157     2192     2425     2691     2700     2371     1956 
    1732     1853     2261     2575     2531     2328     2246     2292 
    2332     2315     2299     2299     2238     2084     1987     2160 
    2488     2628     2494     2214     1977     1995     2224     2411 
    2420     2290     2150     2162     2322     2396     2320     2265 
    2268     2263     2273     2332     2463     2581     2463     2108 
    1861     1979     2315     2490     2385     2277     2334     2405 
    2369     2205     2034     2000     2029     2057     2220     2459 
    2521     2334     2074     2027     2292     2617     2739     2613 
    2320     2033     1939     2080     2340     2524     2479     2334 
    2276     2265     2238     2169     2023     1921     1984     2211 
    2488     2579     2458     2350     2276     2155     2138     2367 
    2678     2724     2388     1976     1868     2052     2234     2263 
    2226     2282     2430     2469     2339     2196     2149     2223 
    2413     2550     2458     2234     2111     2146     2170     2066 
    2018     2211     2544     2779     2721     2385     2030     1881 
    1934     2053     2151     2223     2286     2343     2349     2278 
    2169     2170     2384     2582     2529     2346     2266     2378 
    2502     2397     2138     1972     2000     2196     2398     2412 
    2253     2123     2181     2371     2506     2446     2246     2115 
    2119     2120     2073     2101     2286     2520     2608     2497 
    2301     2199     2249     2327     2322     2236     2161     2215 
    2332     2334     2247     2235     2313     2400     2416     2323 
    2177     2083     2087     2120     2099     2077     2146     2250 
    2309     2280     2166     2126     2246     2415     2494     2419 
    2300     2316     2471     2592     2543     2369     2209     2149 
    2168     2174     2137     2141     2238     2311     2272     2234 
    2277     2320     2286     2162     2108     2324     2601     2575 
    2316     2108     2064     2139     2236     2327     2448     2490 
    2365     2182     2012     1933     2074     2334     2511     2520 
    2365     2231     2259     2323     2308     2196     2068     2114 
    2317     2524     2689     2687     2396     2043     1938     2041 
    2149     2222     2319     2397     2350     2236     2293     2562 
    2714     2436     1934     1744     1976     2263     2324     2232 
    2228     2335     2370     2307     2269     2324     2374     2303 
    2238     2330     2446     2417     2266     2100     2019     2076 
    2205     2380     2616     2720     2521     2241     2147     2245 
    2367     2301     2065     1960     2123     2327     2338     2207 
    2133     2222     2388     2450     2382     2319     2292     2226 
    2139     2149     2253     2326     2313     2250     2234     2335 
    2396     2323     2309     2423     2440     2223     1993     2039 
    2293     2484     2470     2319     2234     2257     2261     2219 
    2212     2276     2282     2135     2008     2096     2327     2517 
    2532     2421     2371     2338     2149     2015     2205     2466 
    2416     2135     2023     2269     2589     2623     2421     2274 
    2300     2362     2262     2033     1944     2065     2155     2087 
    2006     2103     2363     2542     2489     2359     2316     2328 
    2324     2288     2263     2301     2305     2165     2023     2095 
    2289     2347     2274     2293     2420     2450     2282     2118 
    2215     2444     2461     2285     2193     2232     2258     2247 
    2284     2357     2390     2424     2462     2376     2201     2091 
    2083     2143     2170     2123     2128     2227     2338     2428 
    2451     2378     2273     2232     2295     2339     2211     2042 
    2070     2278     2447     2384     2214     2215     2317     2328 
    2253     2188     2235     2328     2305     2218     2197     2246 
    2338     2412     2386     2295     2238     2247     2280     2269 
    2238     2261     2268     2184     2149     2280     2454     2465 
    2297     2143     2143     2262     2363     2317     2241     2328 
    2447     2384     2211     2081     2133     2382     2574     2527 
    2407     2358     2259     2029     1850     1933     2203     2411 
    2438     2367     2335     2346     2316     2234     2142     2095 
    2142     2251     2376     2466     2405     2223     2122     2203 
    2377     2443     2369     2340     2401     2420     2377     2315 
    2266     2242     2189     2115     2119     2201     2269     2257 
    2162     2114     2219     2340     2349     2307     2257     2226 
    2305     2435     2430     2316     2268     2332     2454     2496 
    2354     2107     1937     1971     2127     2222     2231     2272 
    2398     2535     2511     2312     2138     2114     2216     2355 
    2407     2308     2138     2039     2100     2278     2415     2427 
    2380     2288     2154     2062     2083     2227     2365     2392 
    2388     2343     2266     2332     2477     2438     2249     2177 
    2316     2430     2317     2116     2054     2157     2235     2162 
    2118     2288     2515     2550     2374     2118     1981     2106 
    2331     2466     2558     2586     2407     2126     2045     2205 
    2407     2524     2532     2423     2280     2184     2122     2079 
    2093     2193     2332     2412     2397     2315     2177     2033 
    1993     2079     2155     2133     2155     2407     2685     2652 
    2381     2215     2300     2461     2398     2091     1899     2077 
    2371     2359     2056     1856     2007     2411     2740     2720 
    2465     2273     2226     2268     2343     2394     2366     2246 
    2083     1979     2019     2173     2297     2336     2363     2380 
    2309     2227     2245     2307     2320     2259     2151     2124 
    2313     2613     2702     2444     2130     2079     2288     2511 
    2455     2126     1845     1821     1996     2231     2366     2377 
    2370     2317     2164     2065     2155     2338     2439     2403 
    2284     2178     2208     2353     2392     2295     2253     2249 
    2201     2250     2407     2457     2357     2214     2142     2261 
    2443     2420     2253     2224     2381     2506     2421     2250 
    2288     2531     2616     2390     2116     2041     2150     2262 
    2203     1998     1858     1953     2282     2606     2620     2320 
    1999     1976     2292     2563     2488     2214     2066     2193 
    2382     2346     2193     2174     2286     2353     2262     2143 
    2263     2563     2631     2328     1953     1858     2138     2431 
    2370     2134     2029     2146     2398     2493     2326     2150 
    2162     2354     2582     2666     2612     2543     2469     2303 
    2016     1765     1760     1988     2259     2384     2320     2307 
    2490     2609     2457     2234     2181     2274     2331     2307 
    2300     2238     2008     1800     1865     2187     2542     2717 
    2682     2482     2164     1922     1911     2004     2062     2118 
    2236     2407     2515     2528     2492     2371     2251     2222 
    2178     2133     2197     2367     2581     2686     2546     2277 
    2128     2239     2488     2536     2299     2087     2076     2118 
    2112     2134     2255     2392     2367     2149     1918     1904 
    2142     2304     2211     2170     2412     2677     2601     2241 
    2020     2153     2409     2478     2320     2201     2311     2469 
    2432     2266     2173     2187     2277     2434     2533     2493 
    2412     2363     2266     2074     1885     1844     2039     2393 
    2639     2569     2288     2079     2079     2182     2245     2270 
    2317     2312     2211     2154     2220     2336     2425     2416 
    2327     2338     2458     2442     2236     2080     2126     2226 
    2174     2029     1945     1975     2087     2164     2191     2330 
    2546     2627     2552     2332     1993     1818     2002     2359 
    2609     2616     2493     2424     2366     2227     2085     2096 
    2311     2555     2581     2376     2157     2141     2296     2370 
    2284     2161     2056     2049     2166     2231     2235     2350 
    2517     2594     2531     2380     2346     2479     2473     2138 
    1782     1821     2197     2493     2511     2392     2322     2361 
    2363     2134     1917     2053     2319     2409     2349     2270 
    2327     2450     2438     2351     2243     2126     2165     2330 
    2353     2118     1872     2014     2465     2674     2405     1977 
    1869     2224     2617     2554     2158     1950     2145     2554 
    2848     2820     2635     2542     2473     2334     2212     2137 
    2083     2079     2135     2180     2164     2141     2107     2043 
    2020     2076     2172     2200     2050     1922     2151     2664 
    3045     3095     3034     3073     2994     2529     1880     1413 
    1243     1175      973      735      746     1057     1513     1973 
    2562     3403     4116     4245     3829     3226     2728     2311 
    1915     1723     1827     2172     2609     2803     2655     2465 
    2411     2363     2219     2169     2471     2952     3090     2644 
    1912     1394     1347     1529     1352      692      311      957 
    2334     3453     3807     3676     3461     3145     2474     1476 
     658      603     1421     2573     3361     3553     3372     3075 
    2779     2493     2200     2008     2026     2081     1926     1575 
    1219     1170     1657     2381     2835     3007     3226     3496 
    3368     2497     1428     1327     2411     3516     3707     3245 
    2818     2625     2338     1668      776       93     -184      -87 
     629     2189     3964     4873     4714     4291     4104     3682 
    2421      614     -500      -18     1460     2517     2536     2118 
    2037     2366     2766     3019     3138     3165     2843     1969 
     949      379      504     1183     1871     2068     2085     2640 
    3605     4090     3613     2521     1678     1738     2326     2527 
    2053     1377     1259     2062     3215     3712     3214     2444 
    2238     2590     2947     2895     2525     2209     2010     1624 
    1005      689     1073     1777     2374     2964     3611     4025 
    3890     3186     2281     1548     1084     1058     1698     2733 
    3554     3758     3233     2324     1672     1509     1615     1775 
    1911     2027     2003     1706     1476     1713     2114     2116 
    1814     1946     2905     3983     4136     3187     1904     1286 
    1640     2232     2193     1560     1063     1124     1452     1709 
    2099     2936     4072     4936     4922     4075     3145     2598 
    2201     1583      722       58      125      876     1722     2309 
    2682     2736     2257     1584     1426     1921     2535     2720 
    2396     2081     2281     2749     2859     2440     1899     1680 
    1807     1957     1969     2107     2567     2999     2924     2440 
    2081     2153     2520     2879     3068     3221     3464     3609 
    3360     2619     1802     1660     2322     2997     2918     2242 
    1746     1786     1966     1881     1669     1848     2673     3643 
    3916     3186     1885      816      471      564      587      577 
     822     1251     1580     1861     2479     3466     4266     4270 
    3370     2311     1977     2254     2455     2280     1844     1593 
    1902     2493     2768     2535     2189     2162     2324     2377 
    2378     2386     2255     1969     1730     1721     1948     2290 
    2656     2922     2812     2169     1389     1275     2093     3064 
    3291     2795     2290     2347     2884     3254     2875     1999 
    1561     1906     2358     2361     2084     1929     1988     1999 
    1840     1769     1985     2370     2606     2496     2219     2064 
    2073     2116     2064     1993     2089     2317     2550     2729 
    2764     2602     2367     2266     2381     2641     2879     2956 
    2852     2577     2219     2039     2184     2474     2612     2398 
    1903     1472     1401     1609     1772     1690     1557     1782 
    2440     3084     3235     2883     2434     2290     2428     2535 
    2577     2654     2594     2209     1583     1144     1422     2299 
    2987     2947     2358     1831     1761     2018     2307     2538 
    2744     2806     2613     2419     2556     2898     2932     2398 
    1669     1271     1409     1979     2594     2822     2587     2085 
    1621     1464     1626     1904     2041     1923     1821     2076 
    2655     3157     3168     2737     2338     2342     2774     3289 
    3414     3009     2413     2077     2018     1918     1830     2049 
    2442     2640     2543     2282     2012     1799     1653     1560 
    1418     1198     1007      899      845      891     1225     1985 
    2940     3657     4036     4297     4434     4112     3241     2268 
    1759     1900     2344     2531     2303     1971     1763     1626 
    1512     1536     1679     1767     1827     2111     2678     3149 
    3065     2501     1930     1748     2053     2538     2737     2542 
    2247     2218     2492     2849     3173     3500     3838     3946 
    3360     2050      661      -54      253     1139     1679     1563 
    1271     1285     1702     2289     2674     2701     2542     2412 
    2331     2289     2388     2631     2875     2983     2956     2952 
    3053     3068     2848     2567     2405     2281     2112     1983 
    1954     1968     1966     2074     2461     2967     3146     2821 
    2289     1883     1634     1470     1385     1395     1513     1752 
    2027     2162     2084     1879     1687     1691     2027     2620 
    3159     3269     2883     2431     2427     2817     3071     2911 
    2613     2546     2685     2763     2648     2398     2088     1719 
    1433     1509     1903     2313     2556     2505     2203     1944 
    1856     1860     1906     1918     1826     1723     1764     1976 
    2192     2236     2218     2380     2709     2941     2879     2614 
    2440     2486     2624     2712     2764     2913     3146     3223 
    2987     2559     2185     2050     2089     2058     1865     1688 
    1738     1957     1988     1621     1104      882     1208     1907 
    2461     2565     2420     2280     2147     1993     1917     2000 
    2158     2307     2515     2808     3107     3252     3018     2496 
    2042     1852     1941     2199     2409     2498     2570     2683 
    2840     3051     3257     3327     3200     2933     2629     2336 
    1971     1482     1096     1089     1394     1610     1555     1516 
    1701     1938     2079     2123     2160     2313     2565     2763 
    2737     2444     2178     2293     2685     2968     2994     2920 
    2917     2914     2783     2681     2708     2558     2008     1436 
    1406     1941     2427     2308     1760     1444     1574     1771 
    1815     1885     2139     2446     2515     2234     1806     1610 
    1884     2365     2605     2600     2647     2886     3156     3145 
    2740     2238     2035     2161     2296     2182     1887     1663 
    1702     1968     2226     2335     2455     2782     3184     3258 
    2832     2219     1818     1684     1601     1456     1471     1864 
    2363     2455     2128     1944     2292     2884     3105     2751 
    2320     2349     2717     3006     3034     2809     2488     2327 
    2312     2193     1965     1860     1968     2124     2133     1965 
    1775     1787     2031     2230     2181     2002     1891     1896 
