Origin Time       2025/03/30 21:30:00
Lat.              38.535
Long.             142.295
Depth. (km)       44
Mag.              4.3
Station Code      MYG003
Station Lat.      38.7349
Station Long.     141.3116
Station Height(m) 32
Record Time       2025/03/30 21:31:22
Sampling Freq(Hz) 100Hz
Duration Time(s)  60
Dir.              E-W
Scale Factor      7845(gal)/8223790
Max. Acc. (gal)   9.190
Last Correction   2025/03/30 21:31:21
Memo.             
[...]
    3360     3360     3357     3360     3360     3357     3358     3358 
    3357     3357     3358     3360     3361     3358     3358     3358 
    3357     3358     3357     3357     3358     3356     3357     3361 
    3360     3357     3360     3362     3361     3358     3360     3361 
    3360     3358     3360     3361     3360     3360     3360     3360 
    3360     3360     3358     3357     3358     3361     3360     3357 
    3360     3362     3361     3358     3358     3360     3360     3358 
    3357     3358     3358     3360     3360     3360     3358     3358 
    3360     3358     3357     3358     3358     3358     3361     3362 
    3362     3362     3361     3361     3360     3360     3360     3360 
    3358     3360     3360     3358     3358     3358     3360     3360 
    3358     3362     3362     3358     3357     3358     3360     3360 
    3357     3358     3361     3360     3360     3358     3357     3358 
    3358     3357     3360     3364     3362     3358     3357     3357 
    3357     3360     3360     3356     3356     3360     3360     3358 
    3360     3360     3358     3361     3362     3362     3360     3360 
    3360     3360     3358     3358     3358     3360     3358     3357 
    3360     3360     3362     3361     3358     3358     3358     3357 
    3358     3360     3360     3361     3358     3358     3358     3357 
    3358     3358     3357     3358     3360     3357     3358     3360 
    3360     3357     3357     3357     3356     3357     3360     3361 
    3360     3358     3358     3358     3356     3356     3358     3358 
    3358     3358     3358     3358     3358     3358     3360     3360 
    3356     3356     3360     3360     3354     3356     3360     3358 
    3358     3360     3358     3357     3356     3358     3361     3361 
    3358     3358     3358     3358     3358     3357     3358     3361 
    3360     3358     3358     3358     3357     3358     3360     3358 
    3360     3358     3357     3360     3362     3360     3358     3360 
    3358     3357     3357     3358     3360     3362     3361     3357 
    3356     3357     3357     3360     3360     3358     3357     3358 
    3358     3360     3360     3360     3358     3358     3358     3358 
    3358     3357     3360     3361     3360     3360     3360     3357 
    3358     3358     3358     3358     3358     3358     3358     3360 
    3361     3360     3357     3357     3357     3358     3361     3358 
    3357     3361     3361     3358     3358     3358     3360     3360 
    3357     3356     3357     3357     3360     3361     3360     3358 
    3357     3357     3358     3360     3358     3357     3356     3356 
    3358     3360     3357     3357     3358     3358     3360     3358 
    3357     3360     3358     3356     3357     3358     3358     3357 
    3357     3358     3358     3357     3358     3360     3360     3358 
    3357     3360     3360     3360     3360     3360     3358     3358 
    3358     3358     3356     3353     3356     3356     3353     3353 
    3356     3352     3354     3364     3361     3368     3412     3438 
    3391     3339     3361     3400     3375     3288     3217     3218 
    3277     3310     3289     3285     3362     3523     3626     3462 
    3273     3568     4018     3704     2802     2560     3260     3719 
    3204     2623     3001     3823     4012     3603     3381     3570 
    3624     3194     2863     3234     3689     3352     2843     3206 
    3825     3508     2639     2701     3850     4322     3522     2868 
    2902     3130     3511     3928     3858     3380     3196     3334 
    3457     3465     3091     2666     2968     3700     3796     3285 
    3296     3724     3586     3114     2894     3187     3784     3946 
    3686     3299     2778     2635     3187     3734     3624     3311 
    3252     3357     3545     3341     2899     3271     4245     4395 
    3507     2897     2740     2416     2732     3761     4074     3460 
    3057     3304     3608     3639     3334     3007     3288     3801 
    3867     3503     3200     3118     2714     2558     3478     4195 
    3649     2898     2999     3586     3950     3901     3402     2793 
    2600     2783     3341     4209     4407     3396     2706     3454 
    4083     3379     2411     2405     3127     3538     3415     3416 
    3703     3717     3634     4108     4180     3049     2191     2556 
    3142     3372     3697     3767     3153     3018     3738     3917 
    3354     3082     3180     3292     3427     3408     3361     3485 
    3333     3134     3366     3407     3150     3144     3188     3250 
    3599     3800     3497     3254     3499     3817     3689     3125 
    2706     2851     3414     3813     3495     3025     3190     3569 
    3532     3192     3150     3510     3613     3357     3276     3365 
    3207     3071     3492     3956     3750     3258     3133     3242 
    3115     2882     3044     3643     4091     3788     3186     3159 
    3456     3372     3149     3370     3589     3265     3048     3202 
    3264     3403     3674     3639     3369     3171     3136     3289 
    3449     3369     3304     3631     3879     3476     2903     2813 
    3086     3264     3369     3615     3635     3288     3250     3630 
    3638     3235     3072     3333     3778     3743     3059     2783 
    3257     3526     3258     3164     3522     3735     3416     2995 
    3099     3406     3327     3304     3716     4081     3808     3221 
    3171     3280     2933     2748     3045     3311     3370     3510 
    3717     3626     3338     3225     3306     3489     3574     3474 
    3377     3393     3557     3495     2879     2583     3157     3572 
    3439     3485     3678     3585     3384     3322     3325     3335 
    3357     3352     3403     3460     3302     3063     3156     3510 
    3655     3527     3291     3119     3090     2999     3033     3438 
    3794     3850     3836     3794     3441     2910     2816     3006 
    2953     2863     3180     3927     4468     4261     3584     3002 
    2799     2833     2987     3171     3213     3379     3707     3759 
    3576     3491     3420     3038     2695     3028     3589     3681 
    3530     3659     3889     3593     3025     2852     3126     3457 
    3447     3268     3179     3211     3427     3584     3429     3215 
    3416     3839     3746     3137     2733     2932     3364     3573 
    3522     3338     3310     3481     3514     3345     3303     3373 
    3204     3096     3365     3558     3431     3333     3396     3387 
    3495     3770     3605     3057     2895     3310     3581     3334 
    3075     3094     3419     3916     4037     3531     2754     2400 
    2752     3311     3604     3653     3770     3935     3771     3407 
    3186     3140     3168     3098     3051     3165     3315     3619 
    3859     3501     3055     3292     3608     3303     2999     3207 
    3495     3468     3292     3325     3460     3456     3538     3708 
    3508     2959     2677     2914     3310     3681     3869     3636 
    3376     3585     3915     3558     2736     2559     2991     3238 
    3399     3727     3847     3612     3331     3188     3302     3497 
    3311     2982     3071     3288     3241     3335     3734     3855 
    3551     3295     3211     3230     3451     3532     3091     2806 
    3253     3682     3470     3109     3257     3766     3843     3326 
    2975     3061     3214     3384     3585     3616     3570     3497 
    3249     3100     3244     3269     3156     3327     3608     3496 
    3127     3098     3473     3755     3696     3420     3198     3248 
    3358     3248     3109     3277     3609     3665     3573     3584 
    3376     3021     2997     3171     3242     3434     3825     3802 
    3271     3015     3060     3059     3262     3443     3262     3194 
    3480     3658     3616     3682     3682     3470     3469     3483 
    2960     2559     2968     3423     3464     3551     3611     3433 
    3256     3153     3096     3154     3279     3531     3928     3966 
    3456     3092     3327     3654     3414     2913     2874     2918 
    2818     3338     4035     3952     3553     3512     3607     3420 
    3234     3133     2949     3156     3570     3497     3200     3241 
    3551     3684     3478     3134     3064     3338     3423     3381 
    3488     3358     3160     3416     3666     3338     3011     3177 
    3195     3036     3400     3805     3608     3376     3499     3547 
    3476     3488     3168     2593     2673     3524     4253     3960 
    2980     2685     3196     3453     3366     3454     3539     3564 
    3712     3599     3267     3040     2897     3348     4098     3906 
    3221     2994     2789     2654     3150     3528     3217     3100 
    3655     4141     3915     3450     3375     3354     3199     3272 
    3457     3415     3329     3473     3426     2778     2490     3265 
    3812     3402     3103     3341     3600     3700     3666     3510 
    3404     3515     3604     3404     3210     3159     3079     3013 
    3032     3311     3643     3623     3532     3219     2575     2640 
    3565     4214     4078     3605     3369     3469     3512     3194 
    2999     3365     3537     3029     2700     3254     3946     3612 
    2871     2979     3431     3456     3303     3399     3904     4155 
    3492     2886     3277     3616     3126     2766     2903     3117 
    3454     3703     3616     3626     3770     3508     3013     2893 
    3024     3275     3730     3747     3254     3308     3750     3555 
    3114     2992     2805     2724     3181     3704     3909     3928 
    3697     3370     3333     3307     3099     3244     3645     3578 
    3111     2922     3159     3277     3285     3663     3896     3402 
    2902     3065     3411     3477     3570     3711     3362     2763 
    2884     3684     3991     3427     2991     3203     3329     3149 
    3365     3797     3757     3549     3465     3267     3126     3099 
    3038     3188     3406     3478     3628     3601     3283     3272 
    3524     3495     3331     3308     3200     2876     2813     3342 
    3863     3773     3411     3497     3817     3427     2677     2733 
    3273     3487     3580     3670     3534     3322     3248     3289 
    3433     3577     3141     2315     2577     4009     4768     4117 
    3279     3106     3095     2860     2864     3322     3573     3308 
    3195     3663     4054     3613     2936     2926     3314     3557 
    3503     3272     3148     3206     3342     3480     3758     3970 
    3532     3001     3106     3308     3184     3033     3083     3165 
    3294     3802     4159     3559     2716     2828     3484     3619 
    3350     3195     3326     3736     3851     3362     2984     3067 
    3069     2986     3280     3591     3454     3419     3744     3731 
    3491     3651     3623     3009     2670     2920     3191     3404 
    3762     3785     3210     2926     3314     3507     3253     3249 
    3726     3904     3342     2936     3327     3767     3430     2940 
    3127     3388     3319     3346     3264     2940     2988     3516 
    3916     4072     4106     3582     2697     2536     3079     3408 
    3422     3334     3294     3599     3883     3542     2971     2914 
    3334     3655     3686     3634     3438     2952     2544     2847 
    3611     3886     3616     3508     3601     3492     3281     3206 
    3080     2705     2477     2949     3821     4245     3990     3682 
    3856     3973     3395     2817     2905     3152     3172     3144 
    3140     3144     3364     3753     3735     3442     3379     3126 
    2859     3275     3524     3025     3006     3882     4465     4167 
    3456     2971     2876     2760     2708     2920     3018     3256 
    3802     3915     3701     3692     3399     3024     3353     3677 
    3483     3370     3318     3241     3343     3454     3326     2971 
    2910     3196     3118     2956     3487     4063     3793     3296 
    3302     3476     3541     3599     3534     3245     3078     3188 
    3402     3704     3794     3441     3176     3186     2920     2547 
    2982     3870     3811     2961     2677     3179     3827     4220 
    4189     3902     3636     3298     2920     2771     2644     2497 
    2675     2979     3294     3817     4118     3959     3942     4136 
    3927     3284     2785     2705     2832     3071     3443     3534 
    3154     2871     3045     3507     3869     3738     3424     3600 
    3979     3690     2868     2569     3117     3701     3843     3939 
    4018     3658     3084     2883     2959     2801     2435     2253 
    2513     3284     4035     4122     3939     3931     3470     2774 
    2984     3547     3708     3933     3958     3474     3292     3900 
    4526     4191     3338     2817     2398     2107     2448     2953 
    2963     2755     2706     3006     3751     4423     4576     4369 
    3769     2986     3267     4877     5783     4781     3046     1641 
     766      575      985     1482     1937     3040     4854     6492 
    7132     6237     4471     3152     2226     1208      680     1152 
    1669     1637     2397     4093     4985     4972     5233     5146 
    3068      233     -251     2370     6345     8789     8267     6593 
    5468     4260     1719    -1961    -4537    -3875     -199     4604 
    8862    11902    12992    11013     6473     1424    -2825    -5225 
   -4853    -3083    -1402     1749     7026    11340    12162     9869 
    6273     3353     1590      -37    -1800    -2771    -1881     1632 
    6508     8997     7230     3285      -99    -1128      999     4468 
    6220     5826     5001     4658     4731     4572     3079      912 
     122      661     1807     3870     5274     4384     3210     3715 
    4276     3156     1815     2845     6241     8586     6928     2949 
     252     -453      -29     1447     3535     4787     4201     3204 
    4037     5526     5301     3696     1745      664     1753     3527 
    3962     3942     4460     4752     4527     4446     4414     3431 
    1858     1555     2196     1946     1363     1647     2646     4259 
    5946     6370     5267     4110     3870     3252     1551      804 
    2103     3647     3991     4006     4928     5926     5239     2624 
    -211     -657     1903     4572     4477     2664     1956     2636 
    3645     4526     4768     4876     5443     4901     3083     2336 
    2222     1066      961     3662     6471     6319     3888     1779 
    1151     1852     3009     3640     4203     5167     5578     4850 
    3726     3106     2683     1668      734      907     1885     3526 
    5443     5879     4896     4433     4180     2847     1305     1074 
    2459     4421     5189     4347     3412     3335     3318     2775 
    2277     2466     3048     2880     2023     1856     2728     4086 
    5417     6408     6660     5115     2011      216     1393     3411 
    3893     3049     2292     2659     4122     5665     6041     4464 
    1641     -162      375     2524     5347     7257     6262     3240 
     900      375     1196     2689     4170     4541     3919     3813 
    3936     3360     3403     4531     4665     3231     2220     2432 
    2768     2979     3397     3526     3312     3190     3157     3526 
    4241     4341     3640     3208     3427     3211     2347     2114 
    2851     3677     4145     4313     3840     2879     2641     3288 
    3866     4153     4303     4297     3970     3100     2250     2138 
    2438     2543     2517     2995     3890     4114     3719     3596 
    3669     4008     4664     4121     2300     1914     3127     3311 
    2582     2725     3630     4456     4784     4372     3487     2533 
    2057     2471     2948     2968     3098     3485     4322     5533 
    5717     4043     1872     1062     1814     2933     3165     2573 
    2743     4140     5260     5213     4244     2982     2138     1849 
    2154     2812     3033     3130     3815     4463     4321     3816 
    3955     4587     4359     2998     1717     1489     2257     3415 
    4094     3979     3996     4001     3060     2855     4197     4322 
    2681     1915     2833     4101     4610     4005     2872     2357 
    2718     3438     4025     3759     2829     2690     3387     3526 
    3071     3069     3458     3284     2978     3689     4295     3403 
    2303     2411     3156     3755     4241     4392     3951     3472 
    3339     3268     3111     3110     3249     3281     3416     3759 
    4008     3773     2739     1871     2431     3385     3555     3686 
    3917     3493     2824     2712     3042     3632     4441     4660 
    3985     3416     3165     2616     2157     2493     3123     3202 
    3071     3315     3555     3782     4619     5296     4577     3325 
    2756     2355     1796     1780     2373     3213     4133     4679 
    5001     5350     4753     3156     1984     2035     2786     3111 
    3048     3163     2983     2764     3233     3699     3792     3889 
    3763     3474     3372     3307     3052     2573     2263     2656 
    3545     4268     4456     4043     3557     3465     3257     2911 
    2889     2951     3246     3981     4210     3190     1888     1938 
    3370     4436     4156     3627     3478     3240     3211     3450 
    3346     3044     3088     3493     4016     4513     4244     2899 
    2143     2905     3535     3172     2874     2716     2342     2713 
    3750     4253     4475     4707     4406     3708     3122     2843 
    2701     2604     3037     3728     3778     3626     3439     2619 
    2124     2631     3318     3643     3402     3073     3487     4374 
    4950     4747     3815     2916     2546     2405     2443     3053 
    3771     3580     2859     2579     2610     2974     3848     4347 
    4008     3643     3568     3512     3559     3380     2872     3073 
    3856     3646     2704     2687     3345     3554     3647     3831 
    3472     2952     3082     3454     3470     3557     4058     4263 
    3603     2673     2544     3291     3739     3365     2832     2637 
    2959     3657     4189     4236     3862     3352     2921     2610 
    2577     2924     3496     3773     3511     3503     3924     3530 
    2398     2288     3184     3420     3221     3730     4109     3537 
    3222     3761     3905     3433     3341     3357     2721     2041 
    2427     3659     4418     4446     4388     3925     2810     2216 
    2640     3009     3181     3697     3996     3820     3601     3268 
    2991     3246     3639     3681     3358     2700     2377     2833 
    3595     4475     4827     3852     2455     1992     2722     3804 
    4032     3478     3284     3717     3963     3700     3370     2983 
    2612     2855     3443     3603     3696     4072     3759     2529 
    1888     2647     3690     3823     3531     3734     4008     3578 
    3049     3299     3512     3032     2837     3114     3218     3361 
    3707     3838     3595     3316     3315     3349     3033     2762 
    3273     3991     3708     3103     3572     4221     3557     2478 
    2371     2748     2994     3451     4058     4251     4000     3747 
