Origin Time       2025/03/30 21:30:00
Lat.              38.535
Long.             142.295
Depth. (km)       44
Mag.              4.3
Station Code      MYG005
Station Lat.      38.7989
Station Long.     140.6512
Station Height(m) 304
Record Time       2025/03/30 21:31:37
Sampling Freq(Hz) 100Hz
Duration Time(s)  60
Dir.              E-W
Scale Factor      7845(gal)/8223790
Max. Acc. (gal)   1.236
Last Correction   2025/03/30 21:31:36
Memo.             
[...]
   -2369    -2521    -2577    -2527    -2407    -2299    -2265    -2278 
   -2308    -2367    -2430    -2463    -2474    -2473    -2454    -2435 
   -2427    -2393    -2344    -2366    -2465    -2581    -2659    -2624 
   -2485    -2338    -2234    -2220    -2311    -2439    -2536    -2560 
   -2501    -2404    -2316    -2251    -2219    -2234    -2313    -2425 
   -2484    -2450    -2371    -2307    -2305    -2384    -2488    -2524 
   -2475    -2408    -2382    -2396    -2413    -2439    -2505    -2559 
   -2529    -2431    -2297    -2189    -2204    -2317    -2432    -2538 
   -2592    -2509    -2328    -2197    -2243    -2443    -2609    -2602 
   -2482    -2359    -2313    -2384    -2469    -2447    -2377    -2359 
   -2403    -2448    -2435    -2365    -2290    -2250    -2281    -2389 
   -2502    -2538    -2509    -2500    -2515    -2508    -2506    -2520 
   -2484    -2394    -2305    -2247    -2249    -2309    -2397    -2484 
   -2535    -2525    -2455    -2346    -2247    -2205    -2239    -2317 
   -2408    -2511    -2592    -2617    -2544    -2370    -2187    -2103 
   -2180    -2373    -2539    -2627    -2689    -2713    -2658    -2515 
   -2319    -2157    -2114    -2204    -2380    -2546    -2581    -2446 
   -2257    -2172    -2228    -2324    -2388    -2448    -2508    -2515 
   -2467    -2421    -2419    -2427    -2424    -2432    -2432    -2386 
   -2313    -2236    -2191    -2230    -2347    -2444    -2425    -2346 
   -2351    -2447    -2539    -2562    -2488    -2357    -2277    -2315 
   -2408    -2455    -2485    -2574    -2664    -2655    -2542    -2359 
   -2184    -2114    -2160    -2282    -2428    -2509    -2469    -2327 
   -2188    -2153    -2207    -2305    -2454    -2602    -2632    -2524 
   -2382    -2284    -2250    -2308    -2409    -2440    -2386    -2324 
   -2304    -2357    -2475    -2583    -2613    -2569    -2482    -2384 
   -2313    -2273    -2265    -2313    -2370    -2392    -2432    -2504 
   -2547    -2527    -2470    -2439    -2454    -2496    -2520    -2471 
   -2385    -2346    -2371    -2423    -2475    -2516    -2527    -2504 
   -2477    -2467    -2448    -2384    -2300    -2276    -2322    -2404 
   -2496    -2531    -2467    -2350    -2208    -2092    -2110    -2263 
   -2428    -2516    -2527    -2504    -2484    -2455    -2394    -2338 
   -2324    -2339    -2362    -2354    -2293    -2257    -2336    -2489 
   -2592    -2562    -2411    -2249    -2181    -2207    -2297    -2423 
   -2527    -2601    -2662    -2648    -2513    -2370    -2349    -2381 
   -2355    -2304    -2290    -2304    -2324    -2361    -2436    -2532 
   -2590    -2597    -2554    -2450    -2349    -2327    -2335    -2285 
   -2238    -2299    -2461    -2637    -2705    -2581    -2338    -2173 
   -2199    -2317    -2403    -2436    -2436    -2404    -2362    -2326 
   -2312    -2338    -2382    -2424    -2457    -2462    -2450    -2446 
   -2451    -2470    -2481    -2435    -2332    -2265    -2311    -2415 
   -2471    -2473    -2467    -2447    -2409    -2392    -2407    -2439 
   -2481    -2482    -2370    -2200    -2131    -2218    -2377    -2481 
   -2504    -2544    -2623    -2633    -2550    -2425    -2282    -2178 
   -2166    -2227    -2374    -2581    -2681    -2597    -2446    -2309 
   -2189    -2138    -2234    -2430    -2578    -2593    -2521    -2455 
   -2457    -2508    -2524    -2465    -2369    -2301    -2339    -2457 
   -2529    -2519    -2442    -2296    -2176    -2182    -2269    -2354 
   -2409    -2396    -2336    -2320    -2363    -2432    -2505    -2548 
   -2575    -2582    -2490    -2309    -2197    -2249    -2369    -2425 
   -2416    -2397    -2381    -2367    -2367    -2377    -2380    -2393 
   -2461    -2573    -2636    -2554    -2365    -2218    -2191    -2262 
   -2371    -2440    -2439    -2385    -2326    -2286    -2281    -2392 
   -2602    -2724    -2674    -2531    -2349    -2184    -2128    -2239 
   -2461    -2632    -2650    -2573    -2478    -2390    -2322    -2276 
   -2255    -2245    -2253    -2339    -2477    -2556    -2535    -2467 
   -2413    -2386    -2378    -2396    -2442    -2482    -2482    -2415 
   -2266    -2123    -2089    -2160    -2273    -2423    -2573    -2605 
   -2509    -2424    -2435    -2488    -2497    -2474    -2482    -2528 
   -2585    -2600    -2504    -2357    -2277    -2282    -2353    -2469 
   -2558    -2554    -2473    -2408    -2413    -2432    -2409    -2380 
   -2374    -2363    -2363    -2416    -2467    -2435    -2323    -2197 
   -2141    -2234    -2423    -2521    -2465    -2384    -2393    -2481 
   -2519    -2432    -2347    -2396    -2521    -2587    -2528    -2403 
   -2343    -2394    -2493    -2563    -2554    -2423    -2212    -2061 
   -2076    -2259    -2519    -2674    -2606    -2421    -2328    -2381 
   -2452    -2417    -2270    -2114    -2076    -2214    -2421    -2529 
   -2482    -2350    -2280    -2373    -2540    -2635    -2627    -2535 
   -2404    -2277    -2212    -2288    -2443    -2500    -2405    -2276 
   -2226    -2288    -2435    -2563    -2566    -2478    -2396    -2373 
   -2457    -2605    -2659    -2544    -2359    -2230    -2231    -2344 
   -2466    -2528    -2532    -2436    -2239    -2134    -2251    -2459 
   -2582    -2566    -2457    -2343    -2280    -2282    -2330    -2363 
   -2342    -2284    -2259    -2344    -2524    -2648    -2586    -2404 
   -2276    -2246    -2246    -2270    -2366    -2525    -2651    -2612 
   -2444    -2323    -2289    -2320    -2430    -2525    -2505    -2400 
   -2274    -2199    -2223    -2297    -2323    -2296    -2319    -2461 
   -2643    -2729    -2663    -2470    -2251    -2157    -2247    -2423 
   -2546    -2578    -2548    -2496    -2470    -2463    -2388    -2232 
   -2092    -2057    -2176    -2440    -2710    -2789    -2625    -2362 
   -2203    -2238    -2365    -2466    -2521    -2502    -2394    -2303 
   -2328    -2458    -2593    -2624    -2540    -2425    -2365    -2347 
   -2313    -2276    -2295    -2361    -2463    -2579    -2610    -2547 
   -2469    -2392    -2349    -2389    -2446    -2448    -2423    -2411 
   -2435    -2488    -2516    -2494    -2440    -2355    -2286    -2323 
   -2440    -2508    -2454    -2331    -2281    -2342    -2439    -2492 
   -2455    -2343    -2228    -2199    -2268    -2340    -2357    -2347 
   -2351    -2405    -2508    -2579    -2544    -2392    -2181    -2039 
   -2050    -2197    -2411    -2590    -2650    -2619    -2558    -2439 
   -2263    -2124    -2088    -2161    -2323    -2515    -2644    -2633 
   -2515    -2398    -2366    -2423    -2528    -2598    -2567    -2490 
   -2443    -2392    -2324    -2308    -2361    -2434    -2474    -2481 
   -2486    -2482    -2440    -2374    -2327    -2320    -2354    -2413 
   -2466    -2463    -2408    -2384    -2436    -2500    -2484    -2371 
   -2231    -2177    -2257    -2394    -2488    -2490    -2401    -2266 
   -2173    -2200    -2311    -2390    -2377    -2299    -2211    -2165 
   -2178    -2231    -2284    -2317    -2361    -2455    -2586    -2712 
   -2794    -2781    -2633    -2400    -2232    -2273    -2489    -2686 
   -2685    -2494    -2250    -2106    -2157    -2331    -2454    -2446 
   -2385    -2415    -2563    -2679    -2590    -2330    -2160    -2246 
   -2469    -2674    -2787    -2735    -2504    -2204    -2019    -2056 
   -2266    -2509    -2619    -2513    -2304    -2178    -2207    -2315 
   -2389    -2405    -2385    -2327    -2324    -2444    -2581    -2646 
   -2651    -2586    -2470    -2382    -2385    -2492    -2608    -2571 
   -2373    -2176    -2104    -2173    -2315    -2430    -2500    -2566 
   -2583    -2479    -2315    -2207    -2205    -2322    -2505    -2633 
   -2633    -2548    -2492    -2513    -2512    -2423    -2344    -2377 
   -2524    -2716    -2799    -2663    -2394    -2161    -2061    -2119 
   -2250    -2347    -2405    -2421    -2349    -2238    -2212    -2326 
   -2478    -2504    -2407    -2354    -2394    -2455    -2525    -2605 
   -2601    -2478    -2340    -2262    -2195    -2138    -2149    -2199 
   -2265    -2378    -2469    -2436    -2312    -2243    -2327    -2501 
   -2623    -2567    -2373    -2249    -2292    -2390    -2431    -2369 
   -2251    -2178    -2201    -2290    -2377    -2436    -2486    -2506 
   -2492    -2470    -2427    -2384    -2416    -2513    -2589    -2592 
   -2536    -2477    -2457    -2467    -2469    -2440    -2393    -2353 
   -2362    -2424    -2461    -2443    -2407    -2369    -2369    -2443 
   -2504    -2444    -2285    -2173    -2207    -2338    -2477    -2528 
   -2438    -2308    -2257    -2257    -2276    -2328    -2371    -2382 
   -2435    -2517    -2519    -2446    -2376    -2349    -2377    -2443 
   -2533    -2619    -2609    -2520    -2481    -2477    -2407    -2297 
   -2251    -2274    -2286    -2280    -2309    -2397    -2506    -2556 
   -2527    -2481    -2452    -2446    -2470    -2506    -2508    -2455 
   -2366    -2270    -2193    -2200    -2317    -2459    -2543    -2574 
   -2570    -2542    -2488    -2400    -2312    -2282    -2328    -2421 
   -2501    -2478    -2367    -2346    -2478    -2565    -2455    -2258 
   -2127    -2178    -2440    -2698    -2678    -2436    -2218    -2119 
   -2141    -2265    -2397    -2492    -2582    -2627    -2559    -2428 
   -2322    -2315    -2459    -2678    -2767    -2625    -2355    -2139 
   -2100    -2254    -2465    -2547    -2457    -2307    -2258    -2371 
   -2559    -2664    -2575    -2339    -2122    -2043    -2107    -2238 
   -2343    -2411    -2466    -2477    -2400    -2278    -2214    -2269 
   -2374    -2420    -2407    -2407    -2446    -2484    -2485    -2432 
   -2339    -2286    -2330    -2420    -2466    -2403    -2286    -2282 
   -2440    -2635    -2745    -2731    -2577    -2353    -2220    -2245 
   -2363    -2512    -2596    -2538    -2420    -2351    -2336    -2346 
   -2367    -2396    -2416    -2443    -2529    -2660    -2732    -2691 
   -2574    -2416    -2286    -2281    -2331    -2315    -2312    -2416 
   -2560    -2662    -2646    -2457    -2185    -2031    -2101    -2296 
   -2451    -2512    -2490    -2416    -2346    -2288    -2238    -2258 
   -2357    -2446    -2475    -2465    -2450    -2443    -2425    -2351 
   -2181    -1953    -1773    -1756    -1956    -2288    -2559    -2663 
   -2620    -2485    -2320    -2191    -2131    -2118    -2126    -2149 
   -2150    -2174    -2316    -2501    -2650    -2810    -2936    -2899 
   -2682    -2408    -2284    -2385    -2566    -2679    -2691    -2646 
   -2619    -2687    -2841    -2921    -2786    -2458    -2056    -1769 
   -1783    -2108    -2577    -2980    -3190    -3168    -2928    -2554 
   -2220    -2031    -1908    -1811    -1887    -2164    -2424    -2502 
   -2390    -2138    -1903    -1885    -2138    -2484    -2647    -2538 
   -2274    -2000    -1902    -2192    -2771    -3229    -3269    -2905 
   -2393    -2066    -2020    -2135    -2270    -2300    -2223    -2236 
   -2466    -2760    -2848    -2629    -2193    -1749    -1625    -2052 
   -2836    -3465    -3532    -3032    -2296    -1694    -1449    -1682 
   -2346    -3091    -3474    -3342    -2835    -2247    -1829    -1564 
   -1436    -1640    -2254    -3003    -3456    -3410    -3060    -2690 
   -2377    -2079    -1825    -1713    -1763    -1944    -2263    -2625 
   -2818    -2791    -2651    -2488    -2357    -2270    -2173    -2066 
   -2043    -2177    -2475    -2809    -2959    -2860    -2620    -2317 
   -2023    -1885    -2012    -2301    -2574    -2797    -2947    -2826 
   -2340    -1799    -1655    -2038    -2651    -3056    -3028    -2604 
   -2050    -1776    -1964    -2486    -3107    -3461    -3287    -2795 
   -2381    -2193    -2209    -2396    -2698    -2925    -2907    -2814 
   -2825    -2767    -2479    -2043    -1624    -1458    -1664    -2057 
   -2477    -2830    -2840    -2353    -1657    -1177    -1174    -1636 
   -2220    -2556    -2524    -2220    -1892    -1773    -1848    -2012 
   -2266    -2547    -2736    -2829    -2832    -2648    -2277    -1962 
   -1993    -2416    -2980    -3376    -3465    -3296    -2970    -2552 
   -2153    -2003    -2255    -2774    -3276    -3518    -3450    -3242 
   -2964    -2517    -1969    -1593    -1598    -1968    -2398    -2600 
   -2612    -2579    -2465    -2182    -1825    -1676    -1918    -2384 
   -2767    -2853    -2617    -2277    -2023    -1844    -1806    -2004 
   -2313    -2606    -2816    -2905    -2910    -2741    -2297    -1810 
   -1614    -1795    -2239    -2717    -2957    -2840    -2496    -2141 
   -1903    -1809    -1773    -1763    -1999    -2587    -3157    -3271 
   -2856    -2177    -1628    -1494    -1796    -2376    -2924    -3091 
   -2790    -2309    -2061    -2257    -2748    -3134    -3113    -2776 
   -2502    -2488    -2571    -2559    -2474    -2448    -2490    -2478 
   -2373    -2230    -2081    -2002    -2134    -2474    -2763    -2801 
   -2673    -2529    -2386    -2257    -2247    -2361    -2416    -2430 
   -2525    -2517    -2266    -1934    -1603    -1402    -1553    -1968 
   -2373    -2671    -2845    -2802    -2546    -2262    -2145    -2246 
   -2408    -2390    -2212    -2097    -2153    -2370    -2694    -2944 
   -2963    -2824    -2700    -2624    -2448    -2115    -1853    -1890 
   -2232    -2745    -3141    -3194    -2921    -2367    -1711    -1452 
   -1771    -2270    -2560    -2516    -2215    -1919    -1908    -2224 
   -2606    -2783    -2733    -2671    -2791    -3036    -3152    -2843 
   -2030    -1219    -1108    -1732    -2578    -3164    -3184    -2658 
   -2019    -1776    -2050    -2492    -2743    -2817    -2847    -2852 
   -2810    -2721    -2554    -2285    -2041    -2020    -2197    -2367 
   -2393    -2215    -1961    -1985    -2423    -2967    -3258    -3137 
   -2660    -2149    -2004    -2385    -3014    -3370    -3194    -2725 
   -2354    -2243    -2353    -2508    -2494    -2316    -2192    -2266 
   -2485    -2635    -2527    -2184    -1873    -1856    -2042    -2142 
   -2169    -2377    -2793    -3173    -3211    -2794    -2154    -1605 
   -1314    -1398    -1854    -2452    -2863    -2855    -2488    -2118 
   -2088    -2397    -2682    -2628    -2371    -2232    -2320    -2593 
   -2924    -3094    -2924    -2439    -1865    -1489    -1551    -2060 
   -2617    -2826    -2716    -2524    -2392    -2404    -2560    -2648 
   -2485    -2254    -2215    -2335    -2484    -2546    -2432    -2277 
   -2315    -2486    -2551    -2452    -2304    -2231    -2334    -2529 
   -2573    -2384    -2154    -2115    -2251    -2344    -2299    -2209 
   -2204    -2339    -2555    -2686    -2589    -2273    -1938    -1864 
   -2187    -2702    -3029    -3009    -2772    -2519    -2393    -2386 
   -2370    -2315    -2200    -1998    -1934    -2243    -2687    -2875 
   -2762    -2571    -2493    -2519    -2554    -2629    -2762    -2853 
   -2840    -2733    -2542    -2295    -2054    -1857    -1719    -1757 
   -2131    -2755    -3221    -3148    -2525    -1737    -1247    -1302 
   -1811    -2442    -2822    -2851    -2740    -2666    -2646    -2693 
   -2755    -2679    -2412    -2084    -1879    -1906    -2173    -2606 
   -2979    -3036    -2794    -2473    -2236    -2214    -2335    -2324 
   -2158    -2070    -2112    -2220    -2342    -2358    -2253    -2208 
   -2326    -2479    -2574    -2659    -2728    -2698    -2577    -2403 
   -2185    -1945    -1784    -1836    -2072    -2312    -2425    -2505 
   -2755    -3137    -3354    -3213    -2805    -2428    -2371    -2666 
   -3096    -3375    -3269    -2799    -2263    -1919    -1809    -1865 
   -2011    -2234    -2517    -2702    -2683    -2542    -2351    -2123 
   -1872    -1692    -1761    -2084    -2420    -2567    -2504    -2342 
   -2181    -2043    -1927    -1799    -1663    -1664    -1879    -2168 
   -2293    -2165    -1992    -2054    -2384    -2783    -3019    -2926 
   -2581    -2320    -2361    -2604    -2879    -3067    -3091    -2967 
   -2718    -2408    -2193    -2197    -2397    -2674    -2836    -2762 
   -2555    -2416    -2420    -2493    -2516    -2447    -2365    -2339 
   -2320    -2191    -1960    -1814    -1910    -2246    -2617    -2713 
   -2482    -2199    -2104    -2232    -2448    -2548    -2371    -2015 
   -1800    -1907    -2269    -2736    -3083    -3095    -2789    -2385 
   -2088    -2012    -2181    -2505    -2853    -3071    -2982    -2569 
   -2106    -1900    -2020    -2353    -2658    -2681    -2388    -2007 
   -1846    -2022    -2357    -2633    -2729    -2573    -2327    -2251 
   -2292    -2319    -2363    -2363    -2312    -2413    -2710    -2980 
   -2994    -2656    -2133    -1748    -1674    -1942    -2506    -3111 
   -3419    -3256    -2720    -2169    -1942    -2084    -2403    -2648 
   -2689    -2610    -2554    -2501    -2365    -2130    -1923    -1904 
   -2046    -2130    -2045    -1903    -1880    -2076    -2459    -2855 
   -3067    -3036    -2816    -2523    -2344    -2396    -2558    -2602 
   -2451    -2166    -1853    -1652    -1676    -1931    -2344    -2743 
   -2906    -2809    -2617    -2451    -2351    -2332    -2415    -2596 
   -2770    -2825    -2740    -2570    -2412    -2285    -2143    -2031 
   -2050    -2176    -2255    -2219    -2170    -2166    -2199    -2316 
   -2511    -2706    -2878    -3032    -3100    -2961    -2706    -2560 
   -2489    -2403    -2396    -2421    -2272    -1957    -1767    -1958 
   -2377    -2670    -2774    -2809    -2801    -2713    -2531    -2322 
   -2180    -2172    -2362    -2655    -2828    -2812    -2673    -2465 
   -2259    -2151    -2201    -2349    -2454    -2424    -2286    -2176 
   -2211    -2394    -2582    -2679    -2690    -2581    -2378    -2218 
   -2146    -2169    -2277    -2316    -2185    -2004    -1964    -2095 
   -2316    -2587    -2732    -2565    -2274    -2106    -2085    -2218 
   -2435    -2567    -2566    -2469    -2299    -2126    -2057    -2139 
   -2313    -2489    -2656    -2793    -2787    -2583    -2307    -2195 
   -2394    -2797    -3059    -2924    -2474    -2030    -1931    -2265 
   -2714    -2920    -2758    -2317    -1845    -1595    -1690    -2101 
   -2598    -2859    -2790    -2520    -2211    -2003    -1972    -2137 
   -2454    -2721    -2736    -2521    -2253    -2123    -2192    -2326 
   -2447    -2559    -2556    -2405    -2276    -2284    -2385    -2475 
   -2482    -2451    -2506    -2628    -2617    -2386    -2085    -1930 
   -2042    -2355    -2644    -2767    -2724    -2563    -2384    -2268 
   -2227    -2281    -2442    -2594    -2587    -2432    -2272    -2214 
   -2307    -2515    -2701    -2774    -2779    -2803    -2868    -2907 
   -2843    -2654    -2390    -2200    -2197    -2358    -2582    -2732 
   -2659    -2334    -1937    -1726    -1787    -2046    -2385    -2609 
   -2587    -2385    -2173    -2108    -2201    -2309    -2363    -2392 
   -2384    -2301    -2135    -1925    -1800    -1906    -2188    -2396 
   -2444    -2466    -2498    -2521    -2556    -2521    -2361    -2238 
   -2331    -2577    -2756    -2705    -2461    -2234    -2185    -2289 
   -2421    -2481    -2469    -2450    -2466    -2513    -2574    -2593 
   -2513    -2388    -2326    -2355    -2400    -2382    -2335    -2346 
   -2385    -2361    -2297    -2276    -2319    -2430    -2600    -2770 
   -2820    -2651    -2312    -2027    -1988    -2207    -2544    -2816 
