Origin Time       2025/03/30 21:30:00
Lat.              38.535
Long.             142.295
Depth. (km)       44
Mag.              4.3
Station Code      MYG004
Station Lat.      38.7324
Station Long.     141.0270
Station Height(m) 38
Record Time       2025/03/30 21:31:28
Sampling Freq(Hz) 100Hz
Duration Time(s)  60
Dir.              U-D
Scale Factor      7845(gal)/8223790
Max. Acc. (gal)   1.657
Last Correction   2025/03/30 21:31:27
Memo.             
[...]
  -51777   -51829   -51607   -51069   -50888   -51108   -51214   -51333 
  -51641   -51925   -52023   -51899   -51748   -51555   -51005   -50583 
  -50981   -51684   -51883   -51773   -52018   -52359   -51831   -50998 
  -51402   -52357   -52076   -50944   -50542   -51127   -51619   -51229 
  -50816   -51683   -52820   -52327   -51003   -50801   -51642   -52134 
  -51721   -51129   -51105   -51484   -51834   -51852   -51445   -51213 
  -51590   -51925   -51690   -51295   -51243   -51482   -51525   -51210 
  -51167   -51653   -51849   -51451   -51136   -51333   -51811   -51830 
  -51390   -51437   -51729   -51502   -51394   -51827   -52045   -51727 
  -51340   -51125   -51142   -51521   -51915   -51813   -51513   -51544 
  -51651   -51359   -51003   -51182   -51602   -51571   -51320   -51587 
  -52069   -51939   -51501   -51367   -51358   -51291   -51310   -51599 
  -52002   -51822   -51175   -51124   -51723   -52027   -51598   -50994 
  -51097   -51698   -51723   -51268   -51416   -52010   -51935   -51366 
  -51333   -51683   -51622   -51248   -51139   -51448   -51783   -51757 
  -51547   -51475   -51518   -51646   -51815   -51733   -51436   -51379 
  -51501   -51432   -51448   -51692   -51587   -51298   -51507   -51686 
  -51403   -51382   -51668   -51741   -51586   -51313   -51281   -51628 
  -51767   -51673   -51926   -52096   -51362   -50533   -51051   -52176 
  -52138   -51451   -51468   -51707   -51479   -51246   -51356   -51578 
  -51551   -51290   -51209   -51430   -51640   -51594   -51467   -51609 
  -51881   -51823   -51498   -51349   -51390   -51405   -51502   -51621 
  -51497   -51379   -51509   -51625   -51537   -51348   -51370   -51707 
  -51875   -51530   -51193   -51460   -51894   -51725   -51360   -51441 
  -51528   -51363   -51405   -51541   -51529   -51741   -51969   -51521 
  -50809   -50927   -51850   -52346   -51841   -51286   -51378   -51584 
  -51551   -51557   -51622   -51525   -51277   -51198   -51507   -51798 
  -51717   -51559   -51583   -51682   -51656   -51462   -51317   -51420 
  -51619   -51584   -51436   -51480   -51506   -51449   -51609   -51749 
  -51597   -51479   -51490   -51352   -51239   -51386   -51494   -51567 
  -51796   -51746   -51348   -51314   -51713   -51895   -51648   -51327 
  -51295   -51524   -51637   -51398   -51073   -51210   -51795   -52006 
  -51559   -51270   -51506   -51714   -51644   -51530   -51563   -51706 
  -51649   -51366   -51302   -51636   -51950   -51753   -51210   -51043 
  -51417   -51763   -51696   -51425   -51360   -51445   -51386   -51445 
  -51790   -51965   -51815   -51625   -51445   -51289   -51339   -51475 
  -51460   -51432   -51444   -51401   -51484   -51690   -51726   -51545 
  -51363   -51430   -51730   -51918   -51849   -51648   -51281   -50917 
  -51088   -51725   -52080   -51763   -51236   -51201   -51506   -51583 
  -51575   -51741   -51787   -51491   -51173   -51310   -51786   -51915 
  -51553   -51341   -51462   -51509   -51520   -51668   -51682   -51445 
  -51321   -51433   -51425   -51336   -51498   -51679   -51679   -51705 
  -51663   -51483   -51482   -51641   -51646   -51564   -51564   -51502 
  -51290   -51174   -51343   -51503   -51489   -51699   -52010   -51730 
  -51165   -51244   -51788   -51902   -51587   -51445   -51507   -51514 
  -51421   -51351   -51574   -51896   -51713   -51304   -51371   -51537 
  -51264   -51044   -51301   -51686   -51854   -51676   -51385   -51579 
  -52004   -51788   -51298   -51337   -51552   -51556   -51506   -51385 
  -51339   -51545   -51678   -51598   -51594   -51690   -51634   -51480 
  -51525   -51588   -51282   -51036   -51355   -51748   -51761   -51603 
  -51478   -51583   -51881   -51827   -51391   -51255   -51501   -51561 
  -51317   -51163   -51390   -51834   -51992   -51760   -51499   -51391 
  -51467   -51613   -51517   -51275   -51252   -51470   -51683   -51655 
  -51468   -51416   -51498   -51601   -51653   -51590   -51626   -51840 
  -51808   -51466   -51264   -51281   -51277   -51385   -51673   -51742 
  -51494   -51358   -51472   -51626   -51695   -51652   -51460   -51255 
  -51410   -51738   -51599   -51268   -51410   -51753   -51741   -51478 
  -51439   -51606   -51598   -51509   -51622   -51700   -51463   -51231 
  -51360   -51607   -51660   -51561   -51444   -51472   -51660   -51745 
  -51595   -51385   -51356   -51462   -51466   -51428   -51489   -51570 
  -51667   -51780   -51777   -51634   -51472   -51435   -51563   -51692 
  -51590   -51344   -51286   -51417   -51522   -51543   -51468   -51449 
  -51588   -51584   -51410   -51521   -51842   -51772   -51381   -51341 
  -51618   -51605   -51412   -51502   -51638   -51547   -51528   -51721 
  -51802   -51541   -51243   -51343   -51516   -51317   -51227   -51598 
  -51910   -51740   -51358   -51301   -51540   -51629   -51557   -51472 
  -51468   -51551   -51426   -51295   -51651   -52023   -51811   -51340 
  -51140   -51413   -51862   -51867   -51462   -51229   -51312   -51449 
  -51514   -51574   -51578   -51479   -51555   -51794   -51729   -51462 
  -51414   -51463   -51472   -51528   -51543   -51524   -51507   -51414 
  -51467   -51802   -51896   -51530   -51367   -51598   -51656   -51462 
  -51301   -51340   -51503   -51417   -51341   -51736   -51946   -51574 
  -51322   -51482   -51669   -51576   -51301   -51308   -51517   -51503 
  -51547   -51822   -51888   -51653   -51329   -51142   -51347   -51630 
  -51472   -51255   -51636   -52134   -51902   -51406   -51417   -51615 
  -51648   -51584   -51362   -51169   -51208   -51324   -51563   -51875 
  -51862   -51495   -51251   -51486   -51819   -51641   -51229   -51250 
  -51669   -51925   -51692   -51332   -51356   -51630   -51664   -51440 
  -51403   -51655   -51742   -51425   -51079   -51233   -51706   -51810 
  -51590   -51511   -51456   -51352   -51486   -51692   -51619   -51502 
  -51564   -51495   -51271   -51310   -51705   -52054   -51862   -51279 
  -51106   -51564   -51873   -51605   -51386   -51572   -51592   -51263 
  -51116   -51364   -51657   -51655   -51424   -51362   -51678   -51976 
  -51736   -51332   -51494   -51875   -51703   -51185   -51016   -51370 
  -51795   -51823   -51568   -51412   -51463   -51557   -51502   -51436 
  -51587   -51705   -51552   -51360   -51336   -51483   -51734   -51726 
  -51379   -51399   -51834   -51786   -51336   -51300   -51649   -51854 
  -51672   -51352   -51354   -51505   -51345   -51243   -51574   -51813 
  -51699   -51552   -51444   -51430   -51599   -51691   -51536   -51345 
  -51356   -51537   -51567   -51397   -51432   -51586   -51406   -51235 
  -51548   -51848   -51675   -51445   -51416   -51418   -51588   -51811 
  -51682   -51464   -51518   -51659   -51732   -51667   -51510   -51549 
  -51626   -51352   -51082   -51387   -51926   -51906   -51459   -51335 
  -51471   -51405   -51394   -51750   -51996   -51667   -51148   -51179 
  -51692   -51808   -51414   -51341   -51694   -51734   -51270   -51039 
  -51479   -51852   -51611   -51324   -51382   -51567   -51657   -51543 
  -51440   -51595   -51765   -51763   -51656   -51462   -51321   -51378 
  -51529   -51556   -51386   -51337   -51640   -51865   -51648   -51341 
  -51372   -51629   -51688   -51414   -51313   -51676   -51833   -51389 
  -51047   -51287   -51574   -51507   -51520   -51745   -51750   -51672 
  -51736   -51561   -51321   -51484   -51629   -51483   -51418   -51444 
  -51548   -51833   -51858   -51460   -51227   -51448   -51730   -51683 
  -51447   -51329   -51329   -51439   -51636   -51659   -51476   -51428 
  -51700   -51891   -51655   -51474   -51575   -51511   -51418   -51513 
  -51448   -51352   -51522   -51597   -51421   -51317   -51393   -51563 
  -51663   -51614   -51603   -51646   -51568   -51459   -51514   -51582 
  -51471   -51366   -51420   -51525   -51603   -51637   -51652   -51659 
  -51668   -51718   -51653   -51452   -51413   -51480   -51379   -51264 
  -51282   -51356   -51570   -51817   -51765   -51520   -51482   -51633 
  -51653   -51580   -51547   -51386   -51239   -51358   -51506   -51557 
  -51741   -51867   -51598   -51283   -51324   -51529   -51603   -51526 
  -51498   -51530   -51405   -51260   -51399   -51683   -51698   -51401 
  -51314   -51586   -51700   -51621   -51646   -51624   -51538   -51625 
  -51683   -51464   -51289   -51537   -51884   -51803   -51412   -51147 
  -51196   -51475   -51665   -51586   -51505   -51516   -51479   -51637 
  -51939   -51773   -51312   -51351   -51726   -51746   -51560   -51530 
  -51398   -51202   -51425   -51748   -51602   -51349   -51398   -51614 
  -51742   -51522   -51217   -51418   -51814   -51746   -51410   -51278 
  -51382   -51560   -51621   -51501   -51457   -51625   -51671   -51463 
  -51375   -51482   -51495   -51490   -51651   -51815   -51777   -51536 
  -51293   -51308   -51595   -51869   -51703   -51248   -51318   -51902 
  -51976   -51331   -50922   -51233   -51709   -51860   -51757   -51509 
  -51251   -51317   -51626   -51669   -51449   -51413   -51641   -51776 
  -51521   -51202   -51317   -51614   -51692   -51675   -51556   -51263 
  -51277   -51787   -52002   -51498   -51101   -51417   -51831   -51802 
  -51603   -51413   -51262   -51344   -51506   -51571   -51609   -51472 
  -51252   -51348   -51636   -51857   -51965   -51645   -51023   -51011 
  -51679   -51992   -51615   -51229   -51248   -51521   -51826   -51830 
  -51433   -51333   -51773   -51881   -51532   -51424   -51449   -51356 
  -51389   -51443   -51426   -51644   -51880   -51686   -51406   -51506 
  -51706   -51679   -51579   -51524   -51444   -51312   -51268   -51590 
  -51875   -51403   -50890   -51314   -51983   -51941   -51387   -51073 
  -51312   -51657   -51768   -51749   -51590   -51354   -51278   -51420 
  -51618   -51626   -51507   -51575   -51637   -51443   -51464   -51777 
  -51633   -51144   -51241   -51861   -52042   -51475   -51001   -51325 
  -51885   -51939   -51611   -51317   -51381   -51655   -51590   -51375 
  -51453   -51537   -51440   -51447   -51718   -52045   -51973   -51486 
  -51225   -51489   -51779   -51621   -51248   -51209   -51530   -51729 
  -51518   -51205   -51304   -51710   -51773   -51398   -51190   -51520 
  -51931   -51768   -51271   -51318   -51799   -51641   -50981   -51070 
  -51775   -51850   -51247   -51120   -51769   -51988   -51439   -51379 
  -51960   -52047   -51493   -51124   -51322   -51628   -51667   -51607 
  -51455   -51247   -51347   -51621   -51657   -51617   -51707   -51705 
  -51528   -51335   -51189   -51196   -51482   -51888   -51987   -51684 
  -51491   -51637   -51765   -51711   -51551   -51345   -51196   -51129 
  -51235   -51471   -51580   -51634   -51687   -51495   -51310   -51529 
  -51787   -51653   -51429   -51493   -51605   -51505   -51420   -51441 
  -51448   -51572   -51719   -51565   -51435   -51733   -51885   -51413 
  -51078   -51455   -51772   -51468   -51190   -51336   -51533   -51715 
  -51966   -51968   -51667   -51433   -51344   -51354   -51532   -51679 
  -51603   -51403   -51156   -51165   -51694   -52153   -51984   -51559 
  -51282   -51302   -51561   -51556   -51309   -51443   -51659   -51371 
  -51152   -51484   -51764   -51683   -51667   -51749   -51547   -51306 
  -51561   -51896   -51713   -51344   -51275   -51561   -51856   -51599 
  -51017   -50993   -51560   -51950   -51798   -51382   -51262   -51548 
  -51682   -51490   -51374   -51557   -51833   -51703   -51213   -51078 
  -51479   -51906   -51887   -51471   -51278   -51428   -51406   -51437 
  -51857   -51962   -51507   -51316   -51595   -51757   -51580   -51372 
  -51405   -51441   -51194   -51101   -51618   -52191   -51894   -51027 
  -50936   -51678   -51898   -51391   -50973   -50985   -51516   -52047 
  -51900   -51597   -51709   -51865   -51707   -51325   -51306   -51945 
  -52236   -51525   -50970   -51476   -52150   -52030   -51440   -51061 
  -51070   -51339   -51529   -51337   -51093   -51339   -51833   -51995 
  -51784   -51387   -51113   -51418   -51935   -51808   -51290   -51167 
  -51428   -51707   -51806   -51571   -51225   -51329   -51684   -51487 
  -51057   -51382   -52074   -51980   -51227   -51086   -51933   -52385 
  -51586   -50909   -51453   -52153   -51880   -51205   -51174   -51451 
  -51254   -51252   -51871   -52051   -51540   -51206   -51259   -51235 
  -51220   -51765   -52274   -51776   -51012   -51034   -51432   -51399 
  -51079   -51387   -52168   -52111   -51409   -51390   -51943   -52170 
  -51961   -51594   -51255   -51170   -51410   -51656   -51518   -51105 
  -50985   -51379   -51729   -51497   -51187   -51611   -52327   -52307 
  -51629   -51092   -51051   -51273   -51394   -51329   -51183   -51074 
  -51183   -51553   -51881   -51783   -51403   -51417   -51973   -52317 
  -51941   -51375   -51329   -51624   -51682   -51528   -51509   -51564 
  -51490   -51391   -51413   -51502   -51648   -51976   -52232   -51740 
  -50846   -50804   -51480   -51727   -51426   -51113   -51219   -51918 
  -52416   -51845   -50958   -50980   -51574   -51638   -51113   -50800 
  -51205   -51860   -51754   -51019   -50998   -51883   -52278   -51713 
  -51317   -51536   -51561   -51376   -51740   -52319   -52111   -51302 
  -50996   -51381   -51655   -51482   -51186   -51142   -51403   -51626 
  -51814   -52046   -51767   -51173   -51264   -51752   -51764   -51737 
  -52099   -52046   -51475   -51193   -51120   -51133   -51448   -51498 
  -51163   -51250   -51771   -52145   -52193   -51773   -51112   -51182 
  -51904   -51831   -50949   -50750   -51437   -51818   -51367   -50988 
  -51433   -51888   -51663   -51534   -51875   -52022   -51838   -51742 
  -51916   -52041   -51368   -50109   -49794   -50874   -52002   -52097 
  -51436   -51051   -51426   -51787   -51657   -51732   -52118   -52120 
  -51686   -51382   -51605   -52057   -52064   -51660   -51371   -51298 
  -51208   -51000   -51025   -51501   -51817   -51613   -51354   -51394 
  -51672   -51790   -51489   -51239   -51356   -51534   -51629   -51700 
  -51722   -51592   -51321   -51328   -51846   -52212   -51933   -51445 
  -51123   -51019   -51150   -51239   -51240   -51466   -51779   -51880 
  -51966   -52223   -52324   -52031   -51576   -51124   -50808   -50920 
  -51205   -51200   -51252   -51707   -51979   -51669   -51360   -51605 
  -52087   -52072   -51394   -50878   -51349   -52093   -51698   -50677 
  -50741   -51536   -51606   -51331   -51584   -51831   -51580   -51336 
  -51480   -51624   -51362   -51263   -51750   -51931   -51610   -51875 
  -52466   -52177   -51447   -51429   -51688   -51344   -50980   -51258 
  -51586   -51453   -51231   -51275   -51549   -51802   -51768   -51576 
  -51534   -51561   -51445   -51223   -51147   -51268   -51379   -51714 
  -52247   -52092   -51506   -51675   -52093   -51790   -51247   -51011 
  -51012   -51127   -51210   -51270   -51391   -51487   -51525   -51721 
  -52132   -52371   -52180   -51811   -51611   -51597   -51457   -51209 
  -51344   -51680   -51374   -50620   -50537   -51206   -51703   -51779 
  -51885   -52035   -51829   -51370   -51343   -51818   -51912   -51278 
  -50816   -51143   -51534   -51309   -50930   -51039   -51532   -51756 
  -51487   -51405   -51732   -51885   -51900   -52092   -52154   -51821 
  -51232   -50884   -51293   -51831   -51474   -50792   -50992   -51790 
  -52150   -51945   -51737   -51806   -51912   -51671   -51166   -51020 
  -51433   -51676   -51317   -51151   -51595   -51787   -51603   -51910 
  -52389   -52074   -51386   -51340   -51696   -51563   -51030   -50754 
  -50843   -51043   -51178   -51379   -51838   -52141   -51899   -51580 
  -51673   -51960   -51942   -51601   -51410   -51451   -51405   -51268 
  -51194   -51327   -51672   -51818   -51486   -51025   -50970   -51448 
  -51911   -51783   -51408   -51371   -51430   -51317   -51475   -51910 
  -52014   -51849   -51726   -51563   -51493   -51536   -51449   -51264 
  -50965   -50634   -50808   -51570   -52168   -52078   -51772   -51850 
  -52083   -52108   -52014   -51894   -51661   -51173   -50737   -50900 
  -51263   -51146   -50835   -50863   -51208   -51529   -51791   -52315 
  -52739   -52344   -51686   -51659   -51881   -51684   -51227   -51046 
  -51150   -51106   -51051   -51317   -51555   -51587   -51698   -51796 
  -51642   -51410   -51457   -51736   -51698   -51235   -51057   -51453 
  -51794   -51796   -51903   -52220   -52272   -51813   -51389   -51538 
  -51768   -51468   -50986   -50804   -50850   -50944   -51179   -51575 
  -51764   -51619   -51509   -51560   -51646   -51780   -51849   -51803 
  -51779   -51614   -51335   -51381   -51642   -51626   -51449   -51592 
  -51775   -51514   -51367   -51611   -51516   -51115   -50989   -51035 
  -51092   -51194   -51339   -51638   -51960   -51996   -51965   -52208 
  -52343   -51976   -51634   -51711   -51768   -51507   -51109   -50913 
  -51173   -51470   -51241   -50907   -51055   -51321   -51393   -51599 
  -51786   -51552   -51287   -51336   -51439   -51520   -51737   -51987 
  -52002   -51718   -51455   -51541   -51833   -51906   -51661   -51405 
  -51343   -51439   -51598   -51687   -51625   -51466   -51345   -51408 
  -51471   -51252   -51085   -51403   -51835   -51876   -51763   -51769 
  -51733   -51644   -51597   -51619   -51721   -51540   -51009   -50859 
  -51412   -52053   -52103   -51541   -51117   -51189   -51231   -51250 
  -51561   -51644   -51360   -51385   -51721   -51852   -51687   -51383 
  -51204   -51402   -51756   -51861   -51682   -51375   -51186   -51305 
  -51511   -51476   -51333   -51329   -51401   -51572   -51908   -52103 
  -52039   -51969   -51753   -51336   -51264   -51498   -51466   -51250 
  -51167   -51321   -51710   -51933   -51752   -51613   -51718   -51736 
  -51514   -51282   -51359   -51586   -51439   -51125   -51335   -51830 
  -51818   -51417   -51383   -51671   -51696   -51524   -51468   -51510 
  -51555   -51339   -50865   -50834   -51401   -51949   -52204   -52087 
  -51571   -51236   -51625   -52132   -51904   -51310   -51092   -51254 
  -51414   -51354   -51336   -51520   -51464   -51194   -51237   -51520 
  -51630   -51560   -51575   -51694   -51628   -51502   -51717   -51984 
  -51775   -51259   -51100   -51549   -51975   -51856   -51617   -51665 
  -51721   -51499   -51278   -51316   -51366   -51275   -51217   -51258 
  -51351   -51417   -51462   -51592   -51718   -51695   -51584   -51416 
  -51287   -51464   -51813   -51867   -51624   -51486   -51607   -51796 
  -51799   -51590   -51466   -51649   -51892   -51799   -51474   -51394 
  -51551   -51430   -51030   -50943   -51309   -51651   -51694   -51621 
  -51671   -51880   -52030   -51884   -51592   -51544   -51705   -51636 
  -51412   -51522   -51773   -51579   -51128   -51073   -51371   -51426 
  -51143   -50981   -51225   -51628   -51686   -51433   -51493   -51941 
  -52130   -51894   -51700   -51692   -51690   -51598   -51362   -51146 
  -51127   -51112   -51174   -51530   -51729   -51479   -51364   -51628 
  -51691   -51382   -51267   -51451   -51428   -51233   -51231   -51360 
  -51567   -51757   -51713   -51680   -51850   -51831   -51617   -51646 
  -51748   -51572   -51401   -51403   -51410   -51547   -51684   -51412 
  -51112   -51273   -51560   -51619   -51506   -51341   -51320   -51556 
  -51787   -51838   -52002   -52218   -52029   -51636   -51507   -51586 
  -51652   -51584   -51354   -51054   -50886   -51181   -51702   -51671 
  -51241   -51192   -51474   -51626   -51613   -51652   -51759   -51791 
  -51850   -51943   -51810   -51615   -51663   -51688   -51522   -51368 
