Origin Time       2025/03/30 21:30:00
Lat.              38.535
Long.             142.295
Depth. (km)       44
Mag.              4.3
Station Code      MYG019
Station Lat.      38.7513
Station Long.     140.7226
Station Height(m) 144
Record Time       2025/03/30 21:31:33
Sampling Freq(Hz) 100Hz
Duration Time(s)  60
Dir.              U-D
Scale Factor      7845(gal)/8223790
Max. Acc. (gal)   0.709
Last Correction   2025/03/30 21:31:32
Memo.             
[...]
  -12766   -12603   -12534   -12594   -12711   -12772   -12707   -12619 
  -12665   -12769   -12831   -12853   -12793   -12663   -12530   -12596 
  -12841   -12853   -12654   -12610   -12633   -12604   -12675   -12788 
  -12808   -12754   -12644   -12526   -12464   -12487   -12654   -12820 
  -12819   -12825   -12874   -12811   -12757   -12792   -12761   -12653 
  -12615   -12675   -12710   -12712   -12756   -12688   -12501   -12513 
  -12731   -12830   -12766   -12712   -12715   -12756   -12737   -12618 
  -12622   -12760   -12753   -12665   -12673   -12711   -12768   -12799 
  -12718   -12675   -12748   -12775   -12700   -12610   -12595   -12687 
  -12731   -12653   -12629   -12700   -12744   -12757   -12738   -12652 
  -12627   -12696   -12699   -12636   -12641   -12687   -12712   -12777 
  -12849   -12825   -12710   -12606   -12586   -12648   -12753   -12830 
  -12787   -12653   -12580   -12687   -12846   -12799   -12611   -12557 
  -12604   -12623   -12710   -12841   -12807   -12680   -12679   -12731 
  -12726   -12754   -12793   -12750   -12688   -12633   -12595   -12634 
  -12656   -12673   -12746   -12729   -12668   -12692   -12723   -12758 
  -12788   -12715   -12598   -12595   -12692   -12766   -12780   -12729 
  -12644   -12625   -12656   -12698   -12791   -12827   -12727   -12660 
  -12677   -12687   -12704   -12719   -12661   -12614   -12663   -12722 
  -12769   -12818   -12811   -12766   -12722   -12663   -12611   -12610 
  -12675   -12745   -12756   -12684   -12594   -12617   -12714   -12757 
  -12754   -12698   -12646   -12679   -12695   -12733   -12846   -12830 
  -12648   -12536   -12607   -12769   -12816   -12644   -12519   -12658 
  -12815   -12791   -12702   -12627   -12553   -12559   -12683   -12799 
  -12822   -12771   -12722   -12766   -12818   -12746   -12609   -12579 
  -12717   -12780   -12648   -12598   -12699   -12758   -12750   -12781 
  -12830   -12712   -12518   -12494   -12604   -12806   -12955   -12798 
  -12586   -12615   -12695   -12744   -12784   -12745   -12694   -12637 
  -12583   -12641   -12715   -12714   -12711   -12715   -12731   -12775 
  -12795   -12735   -12618   -12575   -12638   -12704   -12756   -12754 
  -12688   -12692   -12757   -12714   -12610   -12618   -12718   -12776 
  -12745   -12721   -12749   -12690   -12598   -12664   -12721   -12679 
  -12734   -12816   -12792   -12789   -12807   -12710   -12618   -12660 
  -12692   -12625   -12559   -12584   -12696   -12791   -12754   -12663 
  -12618   -12618   -12719   -12853   -12829   -12744   -12692   -12614 
  -12621   -12707   -12704   -12679   -12688   -12718   -12754   -12698 
  -12636   -12708   -12771   -12739   -12719   -12699   -12654   -12636 
  -12618   -12648   -12784   -12846   -12773   -12718   -12692   -12684 
  -12729   -12750   -12690   -12631   -12644   -12696   -12715   -12676 
  -12660   -12730   -12812   -12788   -12704   -12680   -12653   -12610 
  -12663   -12711   -12687   -12690   -12679   -12641   -12671   -12730 
  -12744   -12771   -12814   -12762   -12642   -12582   -12644   -12765 
  -12798   -12741   -12681   -12657   -12722   -12796   -12741   -12646 
  -12668   -12731   -12679   -12596   -12622   -12653   -12654   -12694 
  -12731   -12735   -12729   -12711   -12673   -12669   -12788   -12884 
  -12760   -12565   -12548   -12680   -12800   -12808   -12731   -12698 
  -12735   -12711   -12626   -12626   -12683   -12667   -12631   -12687 
  -12764   -12784   -12775   -12756   -12729   -12711   -12731   -12744 
  -12646   -12567   -12679   -12783   -12746   -12729   -12739   -12721 
  -12708   -12699   -12688   -12661   -12644   -12679   -12665   -12627 
  -12683   -12699   -12664   -12737   -12791   -12730   -12694   -12711 
  -12721   -12718   -12675   -12625   -12603   -12573   -12626   -12761 
  -12783   -12725   -12692   -12679   -12756   -12837   -12785   -12691 
  -12611   -12599   -12699   -12780   -12802   -12756   -12618   -12607 
  -12739   -12718   -12637   -12710   -12783   -12779   -12762   -12733 
  -12722   -12704   -12648   -12658   -12744   -12804   -12822   -12765 
  -12668   -12672   -12733   -12675   -12602   -12657   -12660   -12587 
  -12614   -12641   -12660   -12772   -12765   -12633   -12664   -12746 
  -12708   -12726   -12788   -12788   -12789   -12733   -12637   -12672 
  -12717   -12634   -12586   -12664   -12762   -12793   -12721   -12603 
  -12599   -12711   -12787   -12781   -12715   -12664   -12722   -12765 
  -12658   -12576   -12636   -12677   -12668   -12711   -12762   -12737 
  -12706   -12750   -12791   -12758   -12706   -12638   -12565   -12603 
  -12703   -12764   -12858   -12895   -12721   -12567   -12600   -12688 
  -12753   -12760   -12737   -12746   -12717   -12654   -12654   -12704 
  -12775   -12822   -12787   -12711   -12714   -12737   -12658   -12580 
  -12568   -12542   -12568   -12684   -12757   -12762   -12717   -12606 
  -12563   -12634   -12761   -12931   -12893   -12553   -12367   -12552 
  -12818   -12926   -12816   -12629   -12567   -12636   -12748   -12856 
  -12893   -12835   -12738   -12640   -12596   -12676   -12785   -12823 
  -12814   -12762   -12688   -12667   -12706   -12719   -12668   -12609 
  -12561   -12577   -12718   -12839   -12812   -12676   -12536   -12613 
  -12841   -12881   -12814   -12760   -12634   -12645   -12807   -12779 
  -12591   -12432   -12366   -12455   -12613   -12761   -12923   -12972 
  -12819   -12650   -12652   -12738   -12735   -12637   -12603   -12764 
  -12904   -12771   -12621   -12658   -12671   -12642   -12675   -12675 
  -12685   -12737   -12691   -12626   -12675   -12688   -12631   -12703 
  -12780   -12650   -12542   -12584   -12675   -12837   -12915   -12849 
  -12853   -12843   -12730   -12691   -12735   -12723   -12625   -12565 
  -12657   -12748   -12688   -12599   -12594   -12631   -12685   -12757 
  -12779   -12687   -12600   -12661   -12819   -12928   -12888   -12692 
  -12511   -12537   -12672   -12731   -12777   -12779   -12622   -12550 
  -12641   -12663   -12675   -12742   -12746   -12727   -12739   -12727 
  -12680   -12665   -12735   -12816   -12815   -12760   -12690   -12649 
  -12669   -12685   -12680   -12738   -12839   -12826   -12669   -12545 
  -12575   -12654   -12695   -12769   -12854   -12815   -12668   -12553 
  -12595   -12745   -12776   -12671   -12640   -12746   -12823   -12753 
  -12668   -12642   -12545   -12463   -12537   -12676   -12838   -12928 
  -12816   -12622   -12506   -12564   -12750   -12816   -12734   -12679 
  -12729   -12800   -12719   -12626   -12706   -12754   -12734   -12788 
  -12780   -12699   -12706   -12742   -12735   -12715   -12664   -12658 
  -12726   -12699   -12587   -12575   -12715   -12857   -12757   -12494 
  -12515   -12818   -12930   -12826   -12753   -12727   -12766   -12748 
  -12559   -12522   -12727   -12753   -12556   -12513   -12649   -12742 
  -12764   -12741   -12658   -12606   -12657   -12718   -12729   -12799 
  -12854   -12776   -12768   -12835   -12710   -12569   -12613   -12631 
  -12629   -12738   -12803   -12760   -12700   -12660   -12676   -12718 
  -12753   -12812   -12804   -12688   -12637   -12660   -12598   -12579 
  -12730   -12796   -12665   -12575   -12627   -12768   -12881   -12791 
  -12588   -12604   -12798   -12812   -12633   -12528   -12586   -12727 
  -12773   -12688   -12703   -12781   -12754   -12735   -12769   -12789 
  -12820   -12764   -12595   -12553   -12641   -12653   -12638   -12668 
  -12688   -12718   -12773   -12800   -12814   -12800   -12684   -12615 
  -12668   -12660   -12663   -12731   -12690   -12609   -12553   -12604 
  -12845   -12883   -12658   -12614   -12721   -12776   -12773   -12691 
  -12618   -12687   -12820   -12764   -12579   -12609   -12814   -12876 
  -12704   -12555   -12621   -12696   -12692   -12687   -12599   -12532 
  -12681   -12895   -12872   -12634   -12494   -12563   -12712   -12835 
  -12791   -12653   -12714   -12838   -12741   -12627   -12696   -12745 
  -12690   -12677   -12707   -12708   -12731   -12802   -12849   -12802 
  -12726   -12673   -12569   -12540   -12698   -12746   -12631   -12657 
  -12750   -12722   -12708   -12810   -12896   -12861   -12783   -12676 
  -12532   -12592   -12864   -12879   -12630   -12588   -12677   -12633 
  -12591   -12584   -12549   -12588   -12712   -12856   -12885   -12745 
  -12650   -12642   -12615   -12676   -12785   -12756   -12663   -12638 
  -12648   -12690   -12733   -12730   -12752   -12784   -12749   -12658 
  -12576   -12626   -12702   -12602   -12542   -12667   -12771   -12803 
  -12753   -12645   -12687   -12827   -12858   -12796   -12722   -12690 
  -12715   -12727   -12710   -12710   -12729   -12710   -12638   -12617 
  -12690   -12696   -12584   -12618   -12849   -12950   -12846   -12721 
  -12673   -12752   -12791   -12637   -12525   -12594   -12675   -12672 
  -12579   -12492   -12556   -12661   -12753   -12889   -12911   -12764 
  -12644   -12629   -12687   -12738   -12700   -12648   -12636   -12633 
  -12698   -12820   -12854   -12768   -12640   -12534   -12540   -12669 
  -12768   -12752   -12717   -12744   -12812   -12839   -12781   -12714 
  -12657   -12614   -12672   -12789   -12789   -12683   -12634   -12671 
  -12691   -12712   -12793   -12816   -12694   -12560   -12541   -12576 
  -12591   -12688   -12857   -12800   -12579   -12565   -12673   -12744 
  -12865   -12868   -12691   -12627   -12700   -12788   -12853   -12780 
  -12654   -12642   -12631   -12595   -12623   -12650   -12615   -12598 
  -12721   -12883   -12885   -12791   -12729   -12717   -12733   -12691 
  -12613   -12630   -12730   -12796   -12714   -12561   -12603   -12731 
  -12688   -12657   -12717   -12660   -12591   -12671   -12779   -12795 
  -12731   -12673   -12668   -12700   -12710   -12645   -12667   -12777 
  -12692   -12604   -12812   -12916   -12676   -12464   -12542   -12788 
  -12931   -12887   -12789   -12717   -12681   -12669   -12607   -12582 
  -12739   -12864   -12700   -12540   -12664   -12773   -12681   -12653 
  -12698   -12627   -12580   -12623   -12661   -12731   -12752   -12657 
  -12644   -12804   -12897   -12772   -12664   -12744   -12808   -12738 
  -12708   -12745   -12690   -12580   -12563   -12623   -12679   -12676 
  -12631   -12627   -12760   -12938   -12935   -12783   -12663   -12627 
  -12673   -12764   -12781   -12690   -12661   -12745   -12749   -12711 
  -12684   -12542   -12455   -12600   -12727   -12694   -12691   -12775 
  -12781   -12714   -12704   -12725   -12664   -12576   -12645   -12811 
  -12856   -12789   -12660   -12584   -12745   -12800   -12544   -12488 
  -12731   -12835   -12742   -12634   -12602   -12669   -12764   -12781 
  -12756   -12783   -12792   -12699   -12644   -12719   -12783   -12704 
  -12586   -12603   -12696   -12710   -12676   -12717   -12827   -12872 
  -12745   -12546   -12514   -12726   -12915   -12815   -12576   -12546 
  -12746   -12854   -12746   -12595   -12549   -12644   -12745   -12756 
  -12785   -12784   -12719   -12719   -12677   -12634   -12741   -12691 
  -12457   -12494   -12738   -12838   -12737   -12576   -12617   -12811 
  -12858   -12831   -12826   -12746   -12694   -12681   -12621   -12660 
  -12766   -12654   -12449   -12499   -12723   -12785   -12671   -12621 
  -12663   -12704   -12766   -12792   -12750   -12781   -12880   -12869 
  -12723   -12583   -12545   -12538   -12533   -12698   -12908   -12862 
  -12744   -12741   -12691   -12617   -12633   -12738   -12819   -12738 
  -12673   -12750   -12776   -12733   -12683   -12618   -12675   -12776 
  -12723   -12669   -12773   -12820   -12688   -12631   -12706   -12654 
  -12552   -12638   -12784   -12812   -12811   -12838   -12810   -12749 
  -12762   -12738   -12591   -12472   -12468   -12519   -12606   -12738 
  -12820   -12756   -12633   -12564   -12619   -12780   -12804   -12657 
  -12596   -12667   -12762   -12814   -12784   -12799   -12846   -12762 
  -12668   -12654   -12572   -12496   -12599   -12733   -12726   -12680 
  -12667   -12660   -12687   -12680   -12618   -12625   -12654   -12649 
  -12737   -12831   -12761   -12711   -12811   -12872   -12829   -12766 
  -12723   -12734   -12823   -12943   -12984   -12856   -12614   -12456 
  -12487   -12572   -12621   -12677   -12685   -12641   -12717   -12852 
  -12804   -12658   -12629   -12672   -12731   -12799   -12798   -12733 
  -12676   -12625   -12501   -12347   -12349   -12487   -12580   -12627 
  -12683   -12741   -12739   -12665   -12675   -12820   -12965   -13019 
  -12955   -12869   -12841   -12758   -12602   -12519   -12561   -12603 
  -12596   -12721   -13036   -13251   -13159   -12941   -12783   -12641 
  -12452   -12266   -12221   -12402   -12672   -12831   -12866   -12847 
  -12734   -12525   -12449   -12596   -12807   -12965   -12955   -12723 
  -12441   -12291   -12286   -12379   -12533   -12667   -12711   -12718 
  -12779   -12906   -13053   -13194   -13279   -13311   -13356   -13243 
  -12835   -12467   -12348   -12263   -12178   -12259   -12386   -12411 
  -12521   -12722   -12802   -12839   -12893   -12827   -12735   -12687 
  -12555   -12420   -12441   -12583   -12787   -12937   -12908   -12764 
  -12630   -12577   -12580   -12546   -12536   -12622   -12667   -12599 
  -12625   -12783   -12833   -12775   -12765   -12745   -12735   -12856 
  -12937   -12889   -12966   -13173   -13209   -13031   -12800   -12596 
  -12440   -12316   -12268   -12403   -12573   -12596   -12533   -12452 
  -12449   -12592   -12711   -12799   -12930   -13004   -13028   -12974 
  -12783   -12622   -12599   -12604   -12557   -12487   -12514   -12722 
  -12969   -13032   -12976   -12999   -12965   -12650   -12212   -11959 
  -12002   -12247   -12556   -12872   -13122   -13209   -13209   -13213 
  -13185   -13045   -12704   -12343   -12293   -12465   -12586   -12641 
  -12640   -12636   -12742   -12792   -12681   -12671   -12785   -12737 
  -12604   -12607   -12580   -12426   -12370   -12487   -12610   -12641 
  -12772   -13099   -13274   -13155   -13009   -12850   -12591   -12410 
  -12464   -12656   -12719   -12580   -12413   -12322   -12359   -12533 
  -12634   -12645   -12789   -12906   -12788   -12706   -12812   -12996 
  -13127   -13093   -12969   -12868   -12789   -12754   -12762   -12772 
  -12717   -12546   -12368   -12340   -12447   -12553   -12638   -12657 
  -12521   -12464   -12640   -12708   -12569   -12533   -12739   -13062 
  -13201   -13026   -12754   -12576   -12568   -12672   -12652   -12496 
  -12429   -12509   -12650   -12738   -12734   -12799   -12974   -13036 
  -12939   -12823   -12715   -12625   -12627   -12725   -12800   -12772 
  -12719   -12749   -12783   -12745   -12703   -12673   -12669   -12704 
  -12619   -12415   -12347   -12429   -12517   -12625   -12729   -12742 
  -12730   -12769   -12810   -12857   -12953   -13069   -13158   -13128 
  -12911   -12618   -12391   -12295   -12343   -12501   -12676   -12772 
  -12834   -12876   -12816   -12785   -12815   -12723   -12560   -12407 
  -12307   -12402   -12565   -12630   -12717   -12822   -12868   -12835 
  -12614   -12332   -12297   -12471   -12721   -13023   -13173   -13078 
  -12954   -12934   -12991   -12985   -12760   -12437   -12298   -12403 
  -12563   -12622   -12699   -12866   -12943   -12888   -12831   -12766 
  -12617   -12471   -12482   -12604   -12706   -12715   -12594   -12496 
  -12552   -12613   -12603   -12604   -12648   -12783   -13009   -13117 
  -12945   -12683   -12604   -12722   -12841   -12873   -12864   -12734 
  -12482   -12295   -12189   -12204   -12459   -12792   -13043   -13230 
  -13302   -13150   -12850   -12681   -12702   -12738   -12717   -12650 
  -12592   -12569   -12555   -12579   -12679   -12764   -12699   -12507 
  -12401   -12376   -12316   -12386   -12646   -12889   -13004   -12949 
  -12771   -12663   -12748   -12885   -12823   -12680   -12757   -12904 
  -12868   -12731   -12600   -12506   -12567   -12741   -12784   -12638 
  -12464   -12417   -12528   -12638   -12714   -12907   -13113   -13134 
  -13028   -12901   -12810   -12780   -12733   -12630   -12541   -12523 
  -12514   -12418   -12379   -12523   -12684   -12772   -12830   -12815 
  -12775   -12816   -12860   -12792   -12664   -12546   -12430   -12376 
  -12528   -12785   -12849   -12715   -12623   -12621   -12669   -12748 
  -12802   -12799   -12750   -12726   -12730   -12699   -12729   -12834 
  -12866   -12818   -12708   -12548   -12518   -12695   -12897   -12946 
  -12841   -12727   -12661   -12591   -12569   -12599   -12579   -12559 
  -12630   -12772   -12980   -13078   -12897   -12646   -12506   -12455 
  -12546   -12669   -12658   -12638   -12673   -12654   -12641   -12638 
  -12521   -12459   -12595   -12708   -12771   -12864   -12833   -12758 
  -12833   -12877   -12769   -12672   -12664   -12684   -12722   -12798 
  -12854   -12788   -12625   -12586   -12742   -12860   -12830   -12773 
  -12700   -12606   -12594   -12663   -12696   -12675   -12658   -12656 
  -12671   -12717   -12719   -12727   -12842   -12928   -12891   -12753 
  -12546   -12441   -12488   -12552   -12646   -12688   -12610   -12661 
  -12808   -12796   -12738   -12699   -12621   -12615   -12641   -12607 
  -12618   -12680   -12739   -12819   -12891   -12923   -12920   -12858 
  -12785   -12699   -12492   -12355   -12484   -12610   -12586   -12580 
  -12644   -12752   -12829   -12810   -12796   -12800   -12791   -12811 
  -12812   -12788   -12765   -12675   -12611   -12688   -12717   -12604 
  -12571   -12691   -12827   -12926   -12939   -12831   -12762   -12823 
  -12847   -12738   -12548   -12360   -12274   -12325   -12484   -12636 
  -12650   -12627   -12690   -12766   -12850   -12912   -12835   -12706 
  -12665   -12718   -12841   -12937   -12904   -12745   -12563   -12533 
  -12630   -12742   -12866   -12885   -12739   -12630   -12592   -12526 
  -12484   -12498   -12590   -12750   -12822   -12780   -12760   -12748 
  -12676   -12611   -12596   -12588   -12653   -12806   -12893   -12904 
  -12879   -12787   -12721   -12756   -12798   -12772   -12735   -12737 
  -12707   -12630   -12588   -12569   -12513   -12494   -12604   -12742 
  -12800   -12815   -12777   -12683   -12629   -12673   -12735   -12735 
  -12721   -12726   -12745   -12784   -12792   -12707   -12557   -12456 
  -12468   -12552   -12687   -12819   -12816   -12749   -12777   -12839 
  -12852   -12857   -12806   -12685   -12623   -12610   -12588   -12618 
  -12695   -12744   -12754   -12742   -12680   -12613   -12663   -12788 
  -12837   -12795   -12721   -12591   -12464   -12532   -12698   -12692 
  -12602   -12645   -12746   -12785   -12803   -12814   -12787   -12753 
  -12711   -12644   -12572   -12542   -12604   -12698   -12748   -12815 
  -12826   -12706   -12687   -12818   -12852   -12777   -12756   -12779 
  -12768   -12685   -12561   -12472   -12511   -12683   -12846   -12908 
  -12907   -12827   -12645   -12460   -12417   -12530   -12681   -12771 
  -12775   -12733   -12712   -12719   -12676   -12563   -12522   -12630 
  -12788   -12908   -12916   -12768   -12603   -12553   -12571   -12602 
  -12694   -12810   -12829   -12762   -12718   -12711   -12703   -12703 
  -12753   -12802   -12762   -12669   -12634   -12694   -12776   -12775 
  -12690   -12598   -12561   -12631   -12753   -12784   -12712   -12653 
  -12640   -12627   -12602   -12583   -12613   -12718   -12806   -12773 
  -12756   -12822   -12814   -12731   -12696   -12691   -12694   -12737 
  -12802   -12829   -12811   -12766   -12729   -12744   -12738   -12642 
