Origin Time       2025/03/30 21:30:00
Lat.              38.535
Long.             142.295
Depth. (km)       44
Mag.              4.3
Station Code      MYG010
Station Lat.      38.4292
Station Long.     141.2819
Station Height(m) 2
Record Time       2025/03/30 21:31:22
Sampling Freq(Hz) 100Hz
Duration Time(s)  60
Dir.              U-D
Scale Factor      7845(gal)/8223790
Max. Acc. (gal)   1.316
Last Correction   2025/03/30 21:31:22
Memo.             
[...]
   -9034    -9027    -9022    -9024    -9030    -9032    -9036    -9038 
   -9031    -9024    -9019    -9009    -9008    -9026    -9042    -9043 
   -9034    -9024    -9026    -9038    -9045    -9038    -9024    -9023 
   -9031    -9032    -9031    -9028    -9026    -9023    -9022    -9027 
   -9036    -9042    -9038    -9030    -9027    -9031    -9034    -9035 
   -9035    -9031    -9027    -9031    -9035    -9034    -9031    -9028 
   -9026    -9028    -9030    -9027    -9031    -9040    -9046    -9042 
   -9035    -9032    -9032    -9024    -9018    -9022    -9026    -9027 
   -9031    -9036    -9036    -9028    -9016    -9015    -9027    -9039 
   -9042    -9035    -9023    -9012    -9016    -9027    -9027    -9030 
   -9040    -9035    -9027    -9035    -9043    -9038    -9031    -9030 
   -9027    -9020    -9022    -9022    -9015    -9020    -9034    -9040 
   -9035    -9024    -9019    -9023    -9031    -9035    -9027    -9019 
   -9019    -9027    -9036    -9036    -9027    -9023    -9023    -9028 
   -9039    -9039    -9028    -9016    -9022    -9040    -9053    -9050 
   -9034    -9012    -9004    -9015    -9030    -9036    -9032    -9026 
   -9027    -9030    -9024    -9026    -9030    -9031    -9043    -9055 
   -9051    -9031    -9018    -9020    -9028    -9028    -9030    -9036 
   -9035    -9022    -9018    -9027    -9032    -9031    -9030    -9020 
   -9016    -9023    -9032    -9042    -9047    -9036    -9023    -9022 
   -9034    -9035    -9022    -9022    -9036    -9040    -9031    -9032 
   -9039    -9031    -9018    -9023    -9043    -9040    -9023    -9023 
   -9030    -9023    -9020    -9031    -9038    -9035    -9031    -9034 
   -9038    -9028    -9015    -9016    -9027    -9032    -9030    -9026 
   -9024    -9022    -9024    -9028    -9032    -9036    -9031    -9024 
   -9030    -9038    -9031    -9022    -9024    -9038    -9036    -9022 
   -9013    -9022    -9030    -9032    -9039    -9040    -9028    -9022 
   -9027    -9030    -9024    -9024    -9030    -9031    -9031    -9030 
   -9027    -9018    -9011    -9015    -9028    -9035    -9038    -9043 
   -9038    -9020    -9016    -9026    -9030    -9034    -9045    -9045 
   -9032    -9026    -9023    -9018    -9020    -9027    -9032    -9031 
   -9030    -9039    -9049    -9036    -9012    -9005    -9022    -9040 
   -9049    -9049    -9038    -9024    -9020    -9027    -9036    -9035 
   -9020    -9013    -9024    -9036    -9039    -9034    -9020    -9012 
   -9018    -9022    -9024    -9042    -9055    -9042    -9023    -9022 
   -9026    -9023    -9026    -9030    -9027    -9026    -9022    -9012 
   -9011    -9016    -9018    -9018    -9026    -9047    -9070    -9082 
   -9092    -9112    -9142    -9154    -9116    -9024    -8907    -8820 
   -8812    -8864    -8935    -8977    -8899    -8812    -9035    -9443 
   -9474    -9088    -8853    -8965    -9066    -9013    -9045    -9169 
   -9088    -8908    -9030    -9225    -9034    -8737    -8831    -9123 
   -9150    -9023    -9069    -9130    -9015    -8910    -9011    -9175 
   -9028    -8777    -8926    -9050    -8726    -8645    -9094    -9351 
   -9248    -9182    -9228    -9285    -9212    -9099    -9062    -8831 
   -8596    -8775    -9000    -8970    -8938    -9104    -9235    -8941 
   -8711    -9080    -9313    -9054    -8957    -9072    -9150    -9229 
   -8989    -8567    -8795    -9369    -9348    -9030    -8889    -8783 
   -8919    -9244    -9216    -9018    -9007    -9132    -9440    -9598 
   -9266    -8877    -8734    -8730    -8741    -8621    -8580    -8949 
   -9495    -9675    -9331    -8978    -8901    -8680    -8536    -8877 
   -9082    -9067    -9319    -9572    -9514    -9124    -8689    -8572 
   -8629    -8800    -9003    -9004    -9104    -9239    -8988    -8791 
   -8973    -9117    -9181    -9273    -9196    -8991    -8815    -8843 
   -9121    -9246    -9128    -9058    -8934    -8797    -8843    -8922 
   -9018    -9055    -8866    -8862    -9170    -9364    -9456    -9348 
   -8982    -8868    -8924    -8946    -9124    -9081    -8803    -8896 
   -9127    -9003    -8766    -8842    -9151    -9327    -9290    -9059 
   -8775    -8884    -9197    -9213    -9170    -9096    -8766    -8623 
   -8847    -9039    -9074    -9042    -9042    -9042    -8951    -9069 
   -9337    -9194    -8818    -8761    -9019    -9331    -9445    -9196 
   -8783    -8660    -8924    -9197    -9277    -9182    -8970    -8833 
   -8762    -8787    -9018    -9165    -9126    -9094    -9097    -9107 
   -8976    -8893    -9166    -9283    -9055    -9089    -9235    -9045 
   -8926    -9027    -8965    -8953    -9097    -9024    -8949    -9082 
   -9166    -9132    -8916    -8712    -8896    -9057    -8877    -8850 
   -9148    -9416    -9475    -9342    -8993    -8719    -8834    -8930 
   -8765    -8762    -8961    -9023    -9063    -9227    -9116    -8762 
   -8733    -9011    -9269    -9455    -9489    -9185    -8737    -8696 
   -8924    -8914    -8939    -9062    -8923    -8947    -9209    -9113 
   -8896    -8870    -8941    -9153    -9238    -9263    -9505    -9370 
   -8918    -8865    -8908    -8776    -8735    -8770    -8905    -9111 
   -9128    -9067    -9076    -8949    -8839    -9022    -9247    -9220 
   -8928    -8860    -9243    -9242    -8916    -9171    -9347    -8989 
   -8985    -9100    -8830    -8835    -9057    -8966    -8985    -9101 
   -8928    -8951    -9224    -9174    -9055    -9146    -9036    -8815 
   -8938    -9196    -9252    -9169    -9065    -8972    -8833    -8743 
   -8849    -8901    -8897    -9093    -9140    -9026    -9086    -8996 
   -8931    -9190    -9184    -8970    -8914    -8788    -8827    -9151 
   -9217    -9085    -9111    -9059    -8972    -9131    -9278    -9273 
   -9136    -8803    -8672    -8893    -9016    -9022    -9100    -9140 
   -9067    -8978    -9008    -9046    -8853    -8768    -9170    -9391 
   -9123    -9104    -9236    -9116    -9058    -8973    -8777    -8729 
   -8842    -9088    -9065    -8750    -8928    -9333    -9252    -9018 
   -8930    -8920    -8965    -8981    -9058    -9235    -9263    -9111 
   -8962    -8900    -8964    -9019    -8895    -8903    -9144    -9099 
   -8920    -9032    -9035    -8914    -9045    -9136    -9151    -9316 
   -9286    -9078    -9128    -9196    -8999    -8823    -8802    -8826 
   -8857    -8896    -8977    -8910    -8783    -9076    -9424    -9258 
   -9036    -9094    -9096    -9016    -9046    -8930    -8762    -9028 
   -9274    -9171    -9275    -9309    -8853    -8604    -8789    -8870 
   -8847    -8966    -9174    -9328    -9256    -9028    -8950    -9013 
   -8977    -8923    -8992    -9015    -8978    -8978    -8982    -9069 
   -9144    -9051    -9011    -9131    -9088    -8858    -8912    -9162 
   -9127    -9038    -9144    -9034    -8702    -8734    -9138    -9424 
   -9305    -8919    -8838    -9151    -9296    -9077    -8785    -8756 
   -8819    -8694    -8820    -9262    -9358    -9202    -9234    -9180 
   -8950    -8922    -8995    -8950    -9066    -9369    -9331    -8888 
   -8741    -8916    -8796    -8773    -9159    -9159    -8834    -8938 
   -9186    -9072    -8822    -8820    -9054    -9267    -9317    -9189 
   -9043    -9155    -9437    -9482    -9181    -8847    -8644    -8459 
   -8467    -8749    -8927    -9004    -9217    -9331    -9323    -9417 
   -9366    -8993    -8811    -9097    -9235    -8980    -8980    -9167 
   -8937    -8653    -8706    -8856    -9065    -9115    -8857    -8870 
   -9198    -9235    -8932    -8665    -8754    -9113    -9283    -9234 
   -9228    -9216    -9200    -9221    -9036    -8737    -8661    -8723 
   -8912    -9258    -9309    -9027    -8993    -9121    -9024    -9027 
   -9163    -9053    -8978    -9042    -8888    -8866    -9142    -9184 
   -9138    -9259    -9165    -8916    -8842    -8885    -8919    -8904 
   -9009    -9180    -9073    -8993    -9107    -8938    -8841    -9148 
   -9235    -9086    -8964    -8766    -8815    -9054    -9101    -9140 
   -9150    -9020    -9070    -9161    -9074    -9130    -9158    -8924 
   -8891    -9030    -9011    -9031    -9039    -8892    -8858    -9005 
   -9034    -8881    -8938    -9190    -9170    -9042    -9055    -9107 
   -9288    -9305    -8951    -8716    -8775    -8928    -9054    -9136 
   -9223    -9066    -8746    -8850    -9238    -9292    -9099    -9031 
   -8931    -8731    -8769    -8946    -9023    -9197    -9281    -9121 
   -9159    -9236    -8992    -8803    -8826    -8905    -9116    -9309 
   -9128    -8845    -8970    -9166    -9034    -8919    -8946    -8959 
   -9031    -9184    -9381    -9408    -9024    -8668    -8719    -8735 
   -8712    -9099    -9379    -9031    -8804    -9262    -9583    -9215 
   -8826    -8760    -8845    -9067    -9142    -9003    -8980    -9020 
   -9120    -9185    -8883    -8638    -8791    -8897    -9005    -9315 
   -9433    -9213    -8932    -8889    -9078    -9119    -8966    -8950 
   -9072    -9104    -9040    -9153    -9369    -9196    -8797    -8726 
   -8846    -8864    -8905    -9019    -9007    -8941    -9099    -9234 
   -9143    -9217    -9294    -9020    -8928    -9058    -8853    -8726 
   -8992    -9151    -9093    -8937    -8858    -9067    -9120    -8934 
   -8980    -9065    -9165    -9308    -9066    -8893    -9027    -8819 
   -8707    -9138    -9375    -9269    -9192    -9080    -8866    -8688 
   -8789    -9008    -8992    -9032    -9188    -9196    -9246    -9205 
   -8911    -8818    -9019    -9138    -9113    -9100    -9104    -9032 
   -8870    -8783    -8943    -9178    -9089    -8858    -9027    -9275 
   -9100    -8907    -8862    -8723    -8842    -9224    -9316    -9246 
   -9235    -9026    -8712    -8733    -9148    -9309    -8892    -8672 
   -8895    -9036    -9062    -8989    -8965    -9217    -9378    -9312 
   -9173    -8935    -8837    -8954    -9092    -9142    -9054    -9077 
   -9165    -8973    -8816    -8876    -8780    -8652    -8853    -9212 
   -9313    -9186    -9298    -9486    -9167    -8726    -8719    -8893 
   -9011    -9073    -9053    -9054    -9112    -9151    -9139    -9026 
   -8953    -8993    -8849    -8676    -8851    -9099    -9184    -9094 
   -8958    -9086    -9166    -8986    -8957    -8996    -9049    -9275 
   -9339    -9198    -9130    -9016    -8937    -9131    -9221    -8876 
   -8584    -8599    -8600    -8827    -9369    -9460    -9082    -9004 
   -9185    -9154    -9019    -9018    -9028    -8958    -8872    -8874 
   -9113    -9310    -9088    -8780    -8734    -8843    -9096    -9304 
   -9215    -9019    -8815    -8702    -8954    -9316    -9391    -9269 
   -9185    -9135    -9090    -9165    -9117    -8872    -8827    -8916 
   -8907    -8892    -8862    -8776    -8681    -8735    -9000    -9266 
   -9386    -9331    -9131    -8968    -8973    -9042    -9054    -9050 
   -9009    -8951    -8942    -8900    -8946    -9192    -9240    -8915 
   -8860    -9343    -9513    -9165    -9008    -8945    -8769    -8785 
   -8910    -9063    -9220    -9185    -9036    -8932    -9074    -9329 
   -9126    -8892    -9196    -9308    -9015    -8893    -8850    -8715 
   -8649    -8730    -8885    -8972    -8992    -8991    -9054    -9169 
   -9092    -8992    -9089    -9067    -8954    -9112    -9440    -9521 
   -9146    -8681    -8583    -8787    -9159    -9545    -9545    -9127 
   -8665    -8453    -8652    -8991    -9076    -9058    -9058    -9047 
   -9192    -9294    -9147    -9011    -8981    -8934    -8950    -9065 
   -9049    -8873    -8889    -9069    -9004    -8814    -8806    -8928 
   -9093    -9123    -9035    -9166    -9401    -9435    -9239    -8889 
   -8784    -8996    -8958    -8689    -8702    -9016    -9273    -9252 
   -9090    -8908    -8818    -8981    -9108    -9073    -9231    -9281 
   -8988    -8939    -9135    -9181    -9189    -9170    -9016    -8792 
   -8714    -8910    -9028    -9015    -9127    -9080    -8884    -8918 
   -9027    -9074    -9120    -9135    -9263    -9460    -9327    -8962 
   -8808    -8698    -8537    -8792    -9238    -9289    -9119    -9042 
   -9096    -9196    -9174    -9128    -9229    -9177    -8812    -8613 
   -8631    -8556    -8645    -8872    -8860    -8993    -9448    -9699 
   -9574    -9224    -9007    -9135    -9135    -8888    -8770    -8752 
   -8860    -9084    -9051    -8847    -8702    -8630    -8877    -9340 
   -9466    -9178    -8926    -8974    -9092    -9126    -9171    -9072 
   -8857    -8893    -8984    -8850    -8918    -9205    -9297    -9282 
   -9140    -8945    -9159    -9432    -9231    -8958    -8981    -9124 
   -9115    -9009    -9128    -9192    -8945    -8877    -8874    -8689 
   -8738    -8897    -8891    -8931    -9001    -8962    -8910    -9004 
   -9204    -9400    -9597    -9617    -9346    -9016    -8704    -8591 
   -8920    -9190    -8988    -8653    -8444    -8441    -8634    -8887 
   -9269    -9587    -9467    -9166    -8860    -8648    -8957    -9313 
   -9248    -9425    -9687    -9459    -9323    -9401    -9132    -8600 
   -8091    -8031    -8500    -8748    -8816    -9236    -9644    -9724 
   -9510    -9138    -8958    -8955    -9103    -9481    -9443    -8753 
   -8360    -8527    -8672    -8822    -9038    -8942    -8827    -9119 
   -9259    -8889    -8419    -8268    -8594    -9099    -9589    -9975 
   -9865    -9664    -9792    -9547    -9031    -8922    -8731    -8322 
   -8310    -8648    -9112    -9436    -9193    -8812    -8762    -8700 
   -8596    -8734    -9024    -9146    -8964    -8857    -9047    -9332 
   -9814   -10347   -10408   -10008    -9304    -8522    -8095    -7986 
   -7955    -7954    -8209    -8993    -9736    -9761    -9498    -9337 
   -9063    -8991    -9271    -9329    -9293    -9369    -9097    -8646 
   -8457    -8545    -8734    -8671    -8405    -8361    -8615    -8892 
   -8878    -8810    -9051    -9313    -9602   -10012    -9861    -9265 
   -9051    -9131    -9200    -9207    -9193    -9220    -8856    -8307 
   -8422    -8885    -9092    -8988    -8680    -8706    -8995    -9011 
   -9063    -9157    -9100    -9413    -9869    -9747    -9200    -8712 
   -8668    -9028    -9088    -8698    -8364    -8082    -7986    -8573 
   -9269    -9443    -9643    -9929    -9864    -9644    -9363    -9103 
   -9120    -9167    -9019    -8787    -8506    -8471    -8993    -9491 
   -9327    -8941    -8777    -8706    -8899    -9148    -8868    -8519 
   -8708    -9163    -9482    -9566    -9576    -9463    -9020    -8581 
   -8617    -8911    -8972    -8897    -8954    -8995    -8877    -8580 
   -8266    -8314    -8752    -9340    -9988   -10392   -10134    -9477 
   -9143    -9136    -8950    -8692    -8581    -8523    -8627    -8883 
   -9024    -8915    -8679    -8603    -8660    -8762    -9011    -9161 
   -9150    -9223    -9109    -8725    -8700    -9201    -9602    -9659 
   -9551    -9234    -8905    -8907    -9032    -8972    -8864    -8878 
   -8897    -8955    -9138    -9262    -9320    -9243    -8908    -8827 
   -9185    -9485    -9621    -9541    -9207    -8868    -8629    -8707 
   -8970    -8653    -8036    -8266    -9045    -9252    -9127    -9192 
   -9209    -9337    -9682    -9705    -9328    -8999    -8903    -8772 
   -8522    -8465    -8526    -8559    -8787    -9016    -8997    -9024 
   -9067    -8941    -9005    -9202    -9165    -9123    -9178    -9105 
   -8945    -8904    -9115    -9425    -9529    -9466    -9482    -9432 
   -9130    -8868    -8802    -8748    -8683    -8644    -8694    -8831 
   -8827    -8754    -8922    -9205    -9240    -9070    -8984    -8961 
   -8883    -8829    -8776    -8780    -9108    -9556    -9639    -9505 
   -9373    -9049    -8819    -9007    -9207    -9142    -8991    -8791 
   -8545    -8476    -8644    -8847    -9030    -9184    -9232    -9228 
   -9294    -9467    -9558    -9358    -9046    -8919    -8997    -8932 
   -8544    -8475    -9005    -9424    -9497    -9313    -8858    -8587 
   -8656    -8772    -8833    -8802    -8849    -8966    -8753    -8515 
   -8829    -9343    -9688   -10025   -10076    -9684    -9493    -9528 
   -9189    -8631    -8372    -8513    -8795    -8973    -9051    -8962 
   -8745    -8815    -9123    -9130    -8927    -8934    -9057    -9111 
   -9192    -9296    -9248    -9031    -8667    -8212    -8048    -8253 
   -8409    -8619    -9169    -9590    -9525    -9288    -9173    -9256 
   -9437    -9547    -9567    -9541    -9454    -9193    -8827    -8688 
   -8780    -8843    -8788    -8673    -8708    -8974    -9128    -8980 
   -8824    -8726    -8625    -8814    -9186    -9298    -9346    -9435 
   -9274    -9093    -9050    -8903    -8745    -8648    -8676    -8999 
   -9346    -9513    -9589    -9451    -9084    -8845    -9008    -9285 
   -9297    -9270    -9302    -9116    -8953    -8977    -8892    -8820 
   -8920    -9008    -9169    -9335    -9076    -8650    -8592    -8604 
   -8650    -9143    -9551    -9339    -9005    -8841    -8727    -8784 
   -8899    -8849    -8888    -9117    -9128    -8953    -8974    -8949 
   -8683    -8451    -8419    -8683    -8970    -9015    -9198    -9560 
   -9640    -9493    -9448    -9467    -9327    -9076    -8970    -9045 
   -9100    -9069    -8970    -8826    -8768    -8884    -9093    -9229 
   -9069    -8757    -8726    -8838    -8795    -8804    -8935    -9000 
   -9008    -8988    -8930    -8972    -9243    -9556    -9560    -9319 
   -9182    -9138    -9136    -9288    -9364    -9155    -8923    -8942 
   -9051    -8943    -8757    -8779    -8965    -9107    -9097    -9097 
   -9153    -9094    -9026    -8976    -8812    -8781    -8901    -8838 
   -8766    -8826    -8775    -8865    -9163    -9194    -9104    -9153 
   -9134    -9143    -9327    -9414    -9181    -8824    -8688    -8746 
   -8864    -9023    -9093    -9018    -8945    -9022    -9173    -9158 
   -8964    -8703    -8530    -8688    -8992    -9117    -9198    -9281 
   -9252    -9259    -9277    -9173    -9111    -9097    -9036    -9035 
   -9077    -9119    -9113    -8935    -8758    -8827    -8985    -8988 
   -8873    -8819    -8908    -9194    -9566    -9616    -9266    -8919 
   -8770    -8806    -9039    -9224    -9061    -8762    -8714    -8881 
   -8976    -8914    -8837    -8768    -8725    -8951    -9316    -9364 
   -9274    -9302    -9301    -9346    -9428    -9297    -8996    -8754 
   -8703    -8831    -9036    -9212    -9274    -9171    -8847    -8498 
   -8505    -8752    -8993    -9296    -9409    -9200    -9066    -8964 
   -8874    -9050    -9080    -8839    -8743    -8731    -8872    -9221 
   -9413    -9366    -9165    -8993    -9073    -9228    -9215    -9084 
   -8926    -8734    -8673    -8807    -8783    -8787    -9202    -9418 
   -9131    -9053    -9198    -9076    -9000    -9171    -9126    -8899 
   -8853    -8858    -8883    -9042    -9139    -9107    -9051    -8942 
   -8831    -8762    -8677    -8706    -8869    -8997    -9211    -9559 
   -9697    -9567    -9363    -9084    -8881    -8826    -8749    -8812 
   -9047    -9196    -9279    -9271    -9109    -9001    -9103    -9232 
   -9108    -8981    -9108    -9067    -8889    -8949    -9013    -8961 
   -8912    -8854    -8889    -8941    -8893    -8896    -8823    -8680 
   -8761    -8845    -8806    -8958    -9084    -8995    -9067    -9373 
   -9528    -9337    -9124    -9105    -8968    -8839    -9067    -9288 
   -9262    -9229    -9134    -8914    -8872    -9042    -9113    -9061 
