Origin Time       2024/04/21 06:19:00
Lat.              34.232
Long.             135.137
Depth. (km)       7
Mag.              2.9
Station Code      WKYH03
Station Lat.      34.1314
Station Long.     135.3244
Station Height(m) 120
Record Time       2024/04/21 06:19:28
Sampling Freq(Hz) 100Hz
Duration Time(s)  120
Dir.              5
Scale Factor      7845(gal)/8223790
Max. Acc. (gal)   1.918
Last Correction   2024/04/21 06:19:28
Memo.             
[...]
   -1451    -1455    -1456    -1453    -1452    -1452    -1455    -1453 
   -1452    -1456    -1452    -1451    -1453    -1452    -1456    -1453 
   -1449    -1452    -1451    -1449    -1455    -1452    -1451    -1455 
   -1452    -1448    -1452    -1453    -1449    -1451    -1452    -1452 
   -1453    -1455    -1455    -1451    -1451    -1455    -1452    -1451 
   -1455    -1451    -1449    -1456    -1449    -1447    -1455    -1452 
   -1451    -1455    -1452    -1451    -1451    -1453    -1455    -1451 
   -1452    -1456    -1453    -1453    -1453    -1451    -1451    -1451 
   -1452    -1455    -1452    -1448    -1451    -1452    -1451    -1455 
   -1452    -1451    -1453    -1452    -1451    -1455    -1451    -1449 
   -1455    -1453    -1453    -1455    -1451    -1452    -1456    -1452 
   -1451    -1453    -1452    -1449    -1452    -1455    -1452    -1449 
   -1452    -1451    -1449    -1455    -1455    -1452    -1453    -1449 
   -1452    -1455    -1451    -1452    -1453    -1451    -1453    -1453 
   -1451    -1455    -1455    -1449    -1455    -1453    -1448    -1453 
   -1453    -1452    -1453    -1451    -1453    -1453    -1451    -1452 
   -1449    -1451    -1453    -1449    -1452    -1455    -1449    -1451 
   -1455    -1452    -1451    -1452    -1453    -1455    -1452    -1451 
   -1453    -1452    -1451    -1453    -1453    -1453    -1453    -1452 
   -1452    -1452    -1451    -1453    -1455    -1451    -1451    -1453 
   -1452    -1449    -1451    -1453    -1453    -1451    -1451    -1452 
   -1451    -1452    -1453    -1451    -1453    -1453    -1451    -1453 
   -1453    -1451    -1453    -1453    -1453    -1455    -1453    -1452 
   -1451    -1449    -1452    -1451    -1451    -1452    -1451    -1453 
   -1453    -1451    -1453    -1456    -1453    -1451    -1451    -1451 
   -1452    -1453    -1453    -1453    -1453    -1451    -1451    -1453 
   -1453    -1452    -1453    -1452    -1452    -1455    -1452    -1448 
   -1453    -1452    -1451    -1456    -1452    -1452    -1455    -1449 
   -1452    -1455    -1449    -1451    -1452    -1451    -1452    -1455 
   -1455    -1451    -1452    -1455    -1451    -1451    -1453    -1452 
   -1453    -1453    -1452    -1453    -1453    -1451    -1453    -1452 
   -1451    -1456    -1452    -1451    -1453    -1448    -1449    -1456 
   -1453    -1451    -1451    -1452    -1452    -1452    -1453    -1452 
   -1452    -1456    -1452    -1451    -1453    -1451    -1453    -1456 
   -1448    -1452    -1458    -1449    -1451    -1455    -1451    -1452 
   -1453    -1451    -1452    -1453    -1452    -1453    -1452    -1452 
   -1453    -1451    -1452    -1456    -1451    -1452    -1455    -1451 
   -1451    -1453    -1452    -1452    -1455    -1456    -1451    -1452 
   -1456    -1452    -1449    -1455    -1451    -1447    -1453    -1453 
   -1451    -1452    -1451    -1452    -1455    -1452    -1452    -1452 
   -1451    -1453    -1452    -1452    -1458    -1453    -1449    -1452 
   -1449    -1451    -1455    -1451    -1451    -1455    -1451    -1448 
   -1453    -1452    -1452    -1453    -1452    -1451    -1451    -1453 
   -1455    -1453    -1449    -1453    -1456    -1449    -1449    -1456 
   -1453    -1449    -1452    -1452    -1451    -1452    -1452    -1453 
   -1451    -1451    -1452    -1452    -1452    -1452    -1453    -1455 
   -1449    -1451    -1453    -1452    -1453    -1453    -1451    -1452 
   -1451    -1453    -1453    -1451    -1453    -1455    -1452    -1452 
   -1452    -1449    -1448    -1452    -1455    -1453    -1452    -1452 
   -1451    -1451    -1453    -1452    -1452    -1452    -1449    -1452 
   -1453    -1449    -1452    -1453    -1451    -1456    -1455    -1448 
   -1455    -1453    -1449    -1456    -1452    -1448    -1456    -1453 
   -1448    -1453    -1455    -1453    -1453    -1453    -1453    -1452 
   -1452    -1453    -1451    -1448    -1455    -1456    -1451    -1452 
   -1455    -1451    -1451    -1453    -1453    -1449    -1451    -1456 
   -1452    -1451    -1453    -1453    -1453    -1453    -1452    -1451 
   -1451    -1452    -1452    -1453    -1455    -1452    -1451    -1453 
   -1452    -1452    -1455    -1452    -1453    -1458    -1452    -1452 
   -1455    -1451    -1451    -1455    -1453    -1452    -1453    -1452 
   -1452    -1453    -1453    -1455    -1453    -1456    -1455    -1452 
   -1453    -1451    -1449    -1455    -1453    -1451    -1453    -1452 
   -1452    -1452    -1452    -1452    -1455    -1453    -1452    -1451 
   -1451    -1451    -1451    -1453    -1455    -1452    -1452    -1451 
   -1448    -1449    -1449    -1452    -1453    -1451    -1452    -1455 
   -1452    -1451    -1451    -1449    -1455    -1452    -1449    -1453 
   -1452    -1449    -1455    -1453    -1451    -1453    -1452    -1452 
   -1456    -1453    -1451    -1453    -1452    -1453    -1453    -1452 
   -1453    -1452    -1451    -1453    -1452    -1449    -1451    -1451 
   -1452    -1455    -1452    -1451    -1455    -1453    -1451    -1452 
   -1451    -1452    -1453    -1452    -1452    -1451    -1452    -1455 
   -1453    -1452    -1451    -1451    -1453    -1453    -1451    -1452 
   -1453    -1452    -1455    -1456    -1453    -1453    -1452    -1452 
   -1453    -1449    -1451    -1453    -1453    -1455    -1451    -1451 
   -1455    -1449    -1449    -1455    -1449    -1451    -1453    -1453 
   -1452    -1451    -1452    -1453    -1453    -1453    -1452    -1453 
   -1451    -1449    -1455    -1451    -1445    -1455    -1455    -1449 
   -1453    -1452    -1452    -1451    -1449    -1453    -1453    -1449 
   -1452    -1455    -1452    -1453    -1456    -1451    -1448    -1453 
   -1452    -1452    -1455    -1452    -1452    -1453    -1453    -1452 
   -1453    -1452    -1451    -1453    -1452    -1452    -1453    -1452 
   -1452    -1452    -1452    -1455    -1453    -1451    -1453    -1453 
   -1452    -1453    -1455    -1452    -1453    -1453    -1451    -1453 
   -1455    -1452    -1455    -1452    -1449    -1453    -1452    -1451 
   -1453    -1451    -1451    -1456    -1452    -1452    -1456    -1448 
   -1451    -1458    -1452    -1452    -1453    -1451    -1452    -1452 
   -1451    -1456    -1458    -1452    -1451    -1455    -1453    -1451 
   -1455    -1453    -1451    -1452    -1449    -1451    -1455    -1451 
   -1452    -1455    -1452    -1452    -1453    -1449    -1451    -1456 
   -1455    -1453    -1451    -1451    -1452    -1452    -1451    -1452 
   -1453    -1452    -1451    -1455    -1453    -1451    -1455    -1452 
   -1452    -1453    -1453    -1453    -1453    -1448    -1449    -1452 
   -1449    -1451    -1452    -1451    -1453    -1451    -1449    -1455 
   -1455    -1452    -1453    -1452    -1453    -1458    -1455    -1452 
   -1455    -1455    -1452    -1452    -1453    -1453    -1451    -1452 
   -1453    -1451    -1453    -1453    -1452    -1456    -1452    -1449 
   -1456    -1452    -1447    -1453    -1453    -1449    -1452    -1455 
   -1452    -1452    -1451    -1452    -1451    -1452    -1456    -1452 
   -1448    -1453    -1451    -1449    -1456    -1451    -1449    -1456 
   -1451    -1451    -1452    -1451    -1453    -1452    -1451    -1456 
   -1453    -1451    -1453    -1453    -1451    -1451    -1453    -1453 
   -1451    -1451    -1456    -1452    -1452    -1453    -1449    -1453 
   -1453    -1448    -1453    -1452    -1448    -1453    -1451    -1449 
   -1455    -1452    -1448    -1453    -1453    -1449    -1451    -1451 
   -1451    -1453    -1451    -1449    -1452    -1453    -1455    -1452 
   -1452    -1455    -1449    -1449    -1456    -1452    -1451    -1455 
   -1455    -1452    -1451    -1452    -1451    -1453    -1456    -1452 
   -1451    -1453    -1449    -1448    -1455    -1452    -1445    -1453 
   -1456    -1448    -1451    -1458    -1455    -1452    -1455    -1452 
   -1449    -1456    -1452    -1448    -1456    -1455    -1449    -1453 
   -1453    -1452    -1453    -1452    -1451    -1451    -1452    -1452 
   -1452    -1455    -1452    -1451    -1456    -1453    -1452    -1453 
   -1452    -1451    -1451    -1452    -1452    -1452    -1453    -1453 
   -1451    -1452    -1452    -1452    -1453    -1453    -1452    -1452 
   -1451    -1453    -1453    -1452    -1453    -1455    -1451    -1451 
   -1453    -1451    -1452    -1453    -1451    -1452    -1455    -1451 
   -1449    -1455    -1452    -1448    -1451    -1451    -1452    -1453 
   -1449    -1451    -1453    -1451    -1449    -1451    -1452    -1452 
   -1451    -1451    -1452    -1453    -1453    -1453    -1452    -1451 
   -1451    -1449    -1452    -1453    -1451    -1453    -1452    -1449 
   -1455    -1455    -1449    -1451    -1455    -1455    -1452    -1451 
   -1453    -1453    -1452    -1455    -1455    -1449    -1451    -1451 
   -1451    -1455    -1452    -1453    -1453    -1449    -1455    -1455 
   -1451    -1456    -1452    -1447    -1452    -1451    -1452    -1459 
   -1453    -1449    -1455    -1455    -1449    -1449    -1452    -1451 
   -1451    -1452    -1452    -1452    -1452    -1449    -1451    -1452 
   -1453    -1453    -1451    -1453    -1453    -1451    -1453    -1452 
   -1451    -1453    -1452    -1453    -1455    -1455    -1455    -1455 
   -1453    -1452    -1452    -1453    -1451    -1451    -1453    -1452 
   -1451    -1452    -1452    -1452    -1452    -1452    -1451    -1451 
   -1456    -1455    -1448    -1453    -1455    -1449    -1455    -1456 
   -1449    -1453    -1452    -1452    -1455    -1449    -1448    -1456 
   -1453    -1449    -1452    -1453    -1452    -1452    -1453    -1452 
   -1451    -1452    -1453    -1455    -1455    -1452    -1453    -1456 
   -1452    -1452    -1453    -1452    -1452    -1451    -1452    -1456 
   -1453    -1452    -1453    -1452    -1452    -1452    -1452    -1453 
   -1452    -1453    -1453    -1451    -1455    -1456    -1456    -1462 
   -1474    -1490    -1493    -1475    -1449    -1426    -1408    -1382 
   -1368    -1404    -1453    -1440    -1436    -1553    -1624    -1480 
   -1343    -1397    -1505    -1530    -1449    -1329    -1372    -1556 
   -1548    -1344    -1324    -1486    -1532    -1487    -1494    -1478 
   -1439    -1424    -1378    -1363    -1470    -1583    -1578    -1458 
   -1328    -1386    -1553    -1472    -1312    -1383    -1472    -1547 
   -1555    -1328    -1362    -1668    -1582    -1271    -1216    -1455 
   -1752    -1745    -1501    -1358    -1329    -1285    -1237    -1285 
   -1335    -1279    -1386    -1822    -2138    -1803    -1107     -928 
   -1405    -1755    -1591    -1329    -1328    -1464    -1514    -1436 
   -1323    -1339    -1437    -1458    -1534    -1584    -1463    -1474 
   -1501    -1417    -1545    -1516    -1150    -1183    -1534    -1664 
   -1706    -1544    -1208    -1279    -1560    -1544    -1335    -1263 
   -1509    -1702    -1547    -1363    -1337    -1462    -1576    -1449 
   -1359    -1443    -1421    -1443    -1534    -1393    -1296    -1460 
   -1561    -1521    -1409    -1398    -1566    -1489    -1286    -1470 
   -1671    -1547    -1350    -1204    -1341    -1668    -1553    -1246 
   -1343    -1580    -1698    -1629    -1314    -1154    -1368    -1622 
   -1620    -1364    -1318    -1648    -1598    -1152    -1254    -1706 
   -1699    -1328    -1244    -1651    -1705    -1098     -922    -1416 
   -1818    -1840    -1466    -1227    -1559    -1664    -1202     -992 
   -1297    -1748    -1860    -1428    -1254    -1591    -1557    -1301 
   -1333    -1466    -1649    -1555    -1169    -1277    -1687    -1578 
   -1146    -1151    -1628    -1842    -1601    -1429    -1463    -1425 
   -1345    -1401    -1405    -1252    -1309    -1632    -1759    -1528 
   -1259    -1301    -1580    -1580    -1200    -1167    -1702    -1903 
   -1482    -1186    -1351    -1559    -1386    -1183    -1385    -1598 
   -1587    -1541    -1489    -1440    -1405    -1466    -1517    -1371 
   -1279    -1414    -1667    -1717    -1371    -1232    -1568    -1613 
   -1239    -1201    -1560    -1669    -1455    -1432    -1661    -1587 
   -1148    -1058    -1390    -1642    -1750    -1520    -1031    -1217 
   -1968    -1907    -1082    -1005    -1822    -2126    -1478     -993 
   -1232    -1421    -1256    -1327    -1510    -1474    -1613    -1634 
   -1146    -1050    -1530    -1738    -1671    -1674    -1683    -1624 
   -1455    -1098     -789    -1185    -2062    -2161    -1229     -479 
    -936    -1966    -1992    -1202    -1039    -1453    -1787    -2069 
   -1784     -972    -1084    -2007    -2359    -1763     -440      130 
   -1115    -2239    -2035    -1595    -1138     -967    -1880    -2694 
   -2150     -711      484     -207    -2398    -2961    -1489     -803 
   -1509    -2016    -1676     -980    -1328    -2560    -1993     -195 
    -519    -2170    -2088     -369      209    -1605    -3202    -2573 
   -1441    -1302    -1740    -1876    -1101       40       28    -1823 
   -3326    -2119     -299     -807    -2284    -2035     -388       16 
   -1748    -3138    -2416    -1306     -961     -749     -820    -1489 
   -2084    -1926    -1524    -1513    -1282     -893    -1467    -2432 
   -2110     -932     -886    -1696    -1521     -815     -892    -1233 
   -1204    -1231    -1707    -2172    -1921    -1566    -1810    -1858 
   -1433    -1012     -735    -1158    -1868    -1644    -1181    -1409 
   -1844    -1887    -1219     -583    -1286    -2415    -1867     -525 
    -895    -2223    -2224    -1179     -670    -1144    -1784    -1777 
   -1092     -596    -1625    -3283    -2824     -449      558    -1113 
   -2728    -1661      -60    -1077    -2933    -2714    -1170     -198 
    -697    -1992    -2274    -1567    -1115    -1143    -1680    -2008 
   -1306     -672     -926    -1433    -1860    -1915    -1389    -1246 
   -1895    -1944    -1089     -773    -1386    -1944    -1717    -1356 
   -1548    -1490    -1100    -1142    -1279    -1486    -1902    -1825 
   -1364    -1178    -1350    -1615    -1509    -1304    -1512    -1467 
   -1170    -1510    -1714    -1239    -1291    -1880    -1948    -1363 
    -742     -999    -1752    -1709    -1447    -1598    -1466    -1485 
   -1713    -1255    -1003    -1536    -1710    -1455    -1503    -1614 
   -1348    -1050    -1321    -1784    -1633    -1231    -1304    -1618 
   -1722    -1611    -1463    -1387    -1273    -1173    -1310    -1418 
   -1300    -1313    -1377    -1309    -1638    -2219    -2000    -1108 
    -855    -1537    -2052    -1710    -1078     -897    -1223    -1584 
   -1633    -1659    -1795    -1668    -1336    -1102    -1020    -1231 
   -1709    -1890    -1633    -1517    -1574    -1363    -1027    -1053 
   -1428    -1703    -1699    -1570    -1485    -1390    -1178    -1231 
   -1626    -1663    -1289    -1220    -1640    -1984    -1645     -961 
    -930    -1543    -1887    -1699    -1336    -1193    -1476    -1656 
   -1312    -1116    -1475    -1811    -1660    -1220    -1136    -1584 
   -1850    -1505    -1051    -1104    -1620    -1912    -1579    -1156 
   -1252    -1568    -1557    -1337    -1316    -1537    -1691    -1526 
   -1279    -1343    -1576    -1598    -1367    -1216    -1470    -1744 
   -1451    -1098    -1385    -1783    -1617    -1162    -1073    -1490 
   -1822    -1647    -1362    -1416    -1601    -1476    -1260    -1439 
   -1701    -1587    -1212    -1024    -1421    -1863    -1591    -1169 
   -1318    -1705    -1730    -1293    -1003    -1348    -1767    -1725 
   -1487    -1323    -1239    -1314    -1588    -1726    -1405    -1143 
   -1540    -1884    -1397     -908    -1267    -1813    -1760    -1343 
   -1115    -1278    -1605    -1741    -1583    -1355    -1418    -1663 
   -1536    -1166    -1183    -1512    -1687    -1621    -1475    -1414 
   -1441    -1426    -1372    -1391    -1479    -1452    -1246    -1255 
   -1588    -1645    -1366    -1329    -1483    -1476    -1404    -1435 
   -1547    -1617    -1609    -1582    -1451    -1259    -1206    -1305 
   -1512    -1652    -1559    -1494    -1522    -1390    -1240    -1293 
   -1479    -1651    -1609    -1362    -1251    -1425    -1575    -1479 
   -1402    -1502    -1513    -1389    -1401    -1521    -1512    -1399 
   -1398    -1537    -1553    -1351    -1255    -1448    -1663    -1552 
   -1227    -1274    -1702    -1744    -1318    -1182    -1494    -1687 
   -1472    -1140    -1183    -1625    -1836    -1529    -1202    -1259 
   -1582    -1722    -1410    -1162    -1437    -1729    -1595    -1325 
   -1259    -1443    -1628    -1471    -1206    -1312    -1586    -1597 
   -1452    -1418    -1482    -1449    -1348    -1431    -1560    -1468 
   -1398    -1544    -1632    -1472    -1306    -1406    -1522    -1339 
   -1208    -1475    -1760    -1622    -1277    -1228    -1482    -1634 
   -1544    -1368    -1323    -1464    -1555    -1466    -1433    -1530 
   -1539    -1456    -1399    -1332    -1333    -1433    -1421    -1366 
   -1472    -1622    -1632    -1466    -1298    -1370    -1556    -1559 
   -1395    -1314    -1447    -1588    -1522    -1385    -1362    -1431 
   -1502    -1503    -1402    -1347    -1486    -1640    -1583    -1445 
   -1418    -1409    -1301    -1277    -1480    -1640    -1494    -1300 
   -1377    -1559    -1547    -1406    -1352    -1404    -1479    -1553 
   -1603    -1536    -1372    -1318    -1422    -1516    -1521    -1486 
   -1451    -1440    -1433    -1410    -1401    -1432    -1479    -1506 
   -1472    -1374    -1366    -1518    -1591    -1476    -1395    -1433 
   -1470    -1462    -1416    -1364    -1390    -1467    -1499    -1498 
   -1514    -1494    -1410    -1393    -1487    -1539    -1433    -1317 
   -1391    -1528    -1483    -1381    -1447    -1563    -1541    -1426 
   -1372    -1421    -1506    -1552    -1497    -1417    -1394    -1347 
   -1305    -1424    -1602    -1587    -1393    -1316    -1451    -1549 
   -1478    -1401    -1460    -1555    -1545    -1489    -1389    -1267 
   -1343    -1525    -1507    -1416    -1479    -1568    -1513    -1406 
   -1410    -1505    -1516    -1391    -1282    -1331    -1487    -1559 
   -1485    -1405    -1429    -1532    -1613    -1567    -1426    -1374 
   -1478    -1533    -1367    -1170    -1223    -1474    -1663    -1645 
   -1485    -1378    -1443    -1543    -1474    -1306    -1290    -1463 
   -1618    -1561    -1351    -1260    -1425    -1622    -1611    -1485 
   -1447    -1467    -1426    -1354    -1317    -1355    -1478    -1572 
   -1533    -1463    -1490    -1548    -1476    -1274    -1188    -1371 
   -1598    -1657    -1613    -1521    -1404    -1344    -1359    -1389 
   -1414    -1464    -1545    -1566    -1449    -1320    -1360    -1493 
   -1485    -1385    -1426    -1570    -1595    -1501    -1426    -1421 
   -1439    -1421    -1385    -1382    -1398    -1462    -1560    -1556 
   -1456    -1418    -1437    -1417    -1401    -1437    -1482    -1526 
   -1544    -1466    -1381    -1391    -1402    -1371    -1418    -1534 
   -1553    -1440    -1374    -1437    -1493    -1475    -1485    -1548 
   -1545    -1435    -1336    -1347    -1447    -1541    -1503    -1394 
   -1391    -1466    -1482    -1435    -1412    -1494    -1572    -1518 
   -1440    -1410    -1364    -1347    -1391    -1445    -1489    -1482 
   -1455    -1487    -1521    -1474    -1412    -1429    -1502    -1510 
   -1428    -1404    -1462    -1455    -1420    -1462    -1487    -1431 
