Origin Time       2025/03/28 11:34:00
Lat.              32.978
Long.             131.158
Depth. (km)       12
Mag.              2.7
Station Code      KMMH18
Station Lat.      33.0031
Station Long.     131.0071
Station Height(m) 854.038
Record Time       2025/03/28 11:35:01
Sampling Freq(Hz) 100Hz
Duration Time(s)  120
Dir.              2
Scale Factor      3923(gal)/8224838
Max. Acc. (gal)   0.859
Last Correction   2025/03/28 11:35:01
Memo.             
[...]
   24688    24687    24688    24690    24690    24690    24690    24690 
   24688    24690    24687    24686    24687    24687    24686    24687 
   24687    24688    24690    24690    24688    24691    24690    24686 
   24686    24690    24688    24688    24692    24690    24687    24688 
   24688    24688    24690    24688    24687    24688    24690    24690 
   24687    24687    24690    24690    24688    24688    24690    24690 
   24687    24688    24688    24687    24687    24688    24687    24686 
   24686    24686    24686    24687    24687    24687    24688    24688 
   24686    24688    24690    24687    24688    24691    24691    24690 
   24691    24688    24687    24692    24691    24686    24688    24690 
   24688    24688    24688    24688    24688    24688    24687    24687 
   24687    24687    24688    24688    24690    24688    24688    24691 
   24692    24690    24688    24690    24690    24687    24686    24688 
   24691    24691    24688    24688    24688    24690    24688    24688 
   24688    24688    24690    24690    24690    24690    24690    24686 
   24686    24688    24690    24687    24686    24687    24688    24691 
   24690    24688    24688    24687    24686    24687    24687    24686 
   24688    24691    24688    24684    24684    24687    24687    24688 
   24688    24686    24687    24688    24687    24687    24688    24688 
   24691    24691    24687    24684    24688    24691    24688    24687 
   24688    24690    24691    24690    24688    24687    24688    24690 
   24688    24687    24688    24687    24688    24688    24686    24684 
   24688    24690    24688    24690    24690    24688    24687    24687 
   24687    24688    24690    24688    24688    24690    24684    24684 
   24688    24687    24686    24686    24687    24688    24688    24687 
   24690    24690    24684    24687    24691    24688    24687    24690 
   24688    24688    24690    24690    24690    24690    24687    24687 
   24688    24687    24686    24688    24688    24687    24691    24692 
   24688    24687    24688    24691    24691    24690    24690    24691 
   24688    24688    24691    24691    24687    24687    24688    24688 
   24688    24688    24688    24688    24690    24688    24688    24688 
   24688    24688    24688    24687    24687    24690    24688    24686 
   24688    24690    24688    24688    24687    24686    24688    24688 
   24687    24688    24690    24687    24684    24687    24690    24688 
   24688    24691    24688    24688    24690    24686    24686    24687 
   24686    24690    24690    24686    24687    24691    24688    24686 
   24687    24690    24690    24686    24688    24691    24687    24687 
   24687    24686    24690    24691    24687    24688    24690    24687 
   24687    24688    24687    24690    24690    24687    24688    24690 
   24688    24687    24687    24690    24690    24688    24688    24688 
   24688    24690    24688    24686    24688    24690    24688    24690 
   24688    24688    24688    24688    24690    24688    24688    24687 
   24688    24691    24691    24690    24688    24688    24690    24690 
   24690    24691    24688    24688    24690    24690    24687    24686 
   24687    24688    24688    24688    24688    24688    24688    24687 
   24688    24690    24688    24687    24688    24690    24688    24688 
   24690    24688    24688    24688    24687    24687    24687    24688 
   24688    24688    24688    24688    24690    24690    24690    24690 
   24690    24688    24688    24691    24688    24688    24690    24690 
   24688    24687    24688    24691    24690    24687    24687    24688 
   24690    24690    24687    24687    24688    24691    24691    24690 
   24690    24691    24688    24690    24690    24687    24684    24686 
   24688    24688    24690    24692    24690    24687    24691    24691 
   24688    24690    24687    24684    24687    24688    24687    24688 
   24688    24688    24690    24690    24688    24690    24691    24690 
   24690    24690    24690    24688    24688    24687    24687    24687 
   24686    24686    24690    24691    24687    24687    24688    24687 
   24686    24687    24686    24686    24688    24688    24688    24690 
   24690    24690    24690    24686    24686    24690    24687    24684 
   24686    24688    24690    24687    24690    24690    24688    24688 
   24688    24686    24687    24688    24690    24690    24688    24687 
   24688    24687    24686    24688    24692    24690    24684    24687 
   24688    24687    24688    24687    24682    24686    24691    24687 
   24686    24688    24688    24687    24688    24690    24688    24686 
   24686    24690    24690    24688    24688    24688    24688    24687 
   24687    24688    24687    24687    24688    24687    24687    24690 
   24691    24690    24687    24690    24688    24688    24691    24690 
   24687    24688    24690    24688    24688    24688    24687    24687 
   24690    24690    24688    24688    24687    24688    24688    24686 
   24686    24688    24687    24688    24688    24687    24687    24688 
   24687    24688    24690    24688    24688    24688    24690    24691 
   24688    24687    24688    24686    24687    24690    24688    24688 
   24691    24690    24688    24690    24690    24688    24687    24691 
   24694    24691    24686    24687    24688    24688    24688    24690 
   24688    24687    24690    24690    24687    24688    24690    24688 
   24690    24691    24690    24688    24687    24688    24688    24688 
   24691    24692    24691    24688    24688    24688    24691    24692 
   24690    24691    24691    24687    24688    24691    24688    24687 
   24688    24686    24687    24690    24690    24688    24687    24690 
   24691    24690    24686    24688    24688    24684    24688    24692 
   24688    24686    24688    24690    24688    24690    24691    24691 
   24690    24687    24688    24688    24688    24687    24688    24688 
   24688    24687    24686    24688    24688    24687    24690    24690 
   24688    24690    24688    24690    24690    24687    24686    24690 
   24691    24687    24688    24690    24688    24688    24688    24688 
   24688    24687    24687    24688    24686    24687    24690    24688 
   24686    24687    24690    24691    24687    24688    24691    24690 
   24688    24687    24688    24691    24688    24687    24687    24686 
   24684    24688    24692    24692    24688    24687    24691    24691 
   24688    24690    24691    24690    24691    24690    24687    24687 
   24691    24691    24690    24690    24690    24691    24691    24688 
   24688    24690    24688    24690    24690    24690    24690    24691 
   24691    24690    24688    24688    24690    24688    24688    24687 
   24687    24688    24688    24687    24690    24691    24690    24687 
   24687    24688    24690    24687    24684    24687    24690    24687 
   24687    24690    24687    24687    24688    24688    24686    24688 
   24692    24691    24688    24688    24688    24688    24688    24688 
   24687    24687    24690    24692    24691    24688    24687    24688 
   24690    24690    24687    24687    24691    24692    24690    24691 
   24692    24691    24691    24690    24687    24686    24688    24690 
   24690    24688    24690    24692    24691    24690    24688    24690 
   24691    24688    24688    24690    24690    24688    24687    24687 
   24687    24687    24688    24691    24688    24690    24692    24692 
   24690    24688    24688    24688    24688    24691    24692    24691 
   24690    24687    24687    24690    24690    24690    24690    24687 
   24686    24686    24688    24688    24687    24687    24687    24687 
   24688    24687    24687    24688    24687    24687    24688    24690 
   24690    24690    24688    24688    24690    24690    24688    24690 
   24691    24690    24690    24690    24687    24687    24688    24687 
   24687    24688    24687    24687    24690    24691    24688    24683 
   24684    24690    24688    24688    24690    24687    24686    24688 
   24688    24687    24690    24690    24690    24688    24688    24688 
   24690    24688    24687    24690    24691    24688    24686    24687 
   24688    24688    24687    24686    24688    24692    24691    24690 
   24691    24690    24688    24691    24692    24688    24687    24687 
   24688    24690    24687    24683    24688    24692    24688    24686 
   24690    24690    24690    24691    24691    24690    24691    24690 
   24688    24691    24691    24690    24690    24687    24687    24691 
   24690    24688    24690    24688    24690    24690    24688    24688 
   24687    24690    24692    24690    24688    24691    24690    24688 
   24688    24690    24690    24690    24690    24690    24690    24691 
   24688    24690    24691    24690    24690    24688    24688    24688 
   24687    24687    24688    24687    24688    24691    24690    24687 
   24687    24688    24688    24690    24692    24691    24687    24686 
   24687    24687    24687    24688    24690    24691    24687    24686 
   24687    24687    24687    24687    24690    24690    24686    24687 
   24692    24691    24686    24686    24687    24688    24686    24684 
   24688    24688    24687    24690    24688    24690    24691    24688 
   24687    24687    24687    24690    24690    24687    24688    24690 
   24690    24688    24687    24687    24688    24687    24687    24687 
   24688    24690    24688    24687    24687    24688    24688    24687 
   24684    24686    24690    24691    24690    24686    24686    24690 
   24690    24687    24687    24686    24688    24690    24688    24687 
   24686    24687    24691    24688    24684    24687    24691    24690 
   24690    24690    24690    24690    24691    24690    24688    24688 
   24686    24687    24690    24687    24687    24691    24688    24687 
   24690    24687    24687    24688    24690    24690    24690    24687 
   24687    24686    24686    24688    24690    24687    24687    24688 
   24691    24691    24687    24684    24688    24690    24686    24686 
   24687    24687    24688    24692    24691    24688    24690    24692 
   24691    24688    24688    24688    24690    24688    24690    24688 
   24686    24687    24688    24688    24691    24691    24688    24688 
   24690    24688    24691    24692    24688    24687    24691    24691 
   24690    24688    24687    24688    24688    24687    24688    24691 
   24691    24688    24687    24686    24687    24687    24687    24687 
   24691    24690    24686    24686    24687    24688    24688    24688 
   24690    24691    24688    24687    24692    24692    24688    24688 
   24690    24688    24687    24687    24687    24688    24691    24688 
   24688    24690    24687    24686    24690    24692    24690    24688 
   24688    24688    24690    24688    24688    24687    24688    24690 
   24690    24688    24690    24688    24688    24690    24688    24688 
   24691    24691    24688    24688    24690    24690    24687    24687 
   24691    24692    24690    24687    24690    24692    24691    24687 
   24688    24690    24690    24691    24690    24687    24687    24688 
   24688    24688    24690    24694    24710    24727    24717    24668 
   24619    24648    24786    24929    24884    24611    24325    24243 
   24421    24767    25076    25200    25080    24738    24359    24175 
   24325    24698    24945    24968    25010    24991    24610    24147 
   24139    24549    24884    24945    25019    24975    24490    24097 
   24275    24771    25294    25407    24942    24455    24120    23942 
   24254    24887    25331    25361    25068    24717    24420    24197 
   24221    24478    24718    24881    24948    24815    24672    24683 
   24624    24621    24926    25000    24563    24320    24536    24695 
   24655    24672    24827    25023    25026    24706    24429    24448 
   24520    24560    24637    24664    24702    24773    24723    24659 
   24722    24745    24722    24826    24923    24854    24771    24727 
   24617    24436    24268    24270    24563    24931    25053    24968 
   24813    24576    24478    24683    24835    24700    24559    24606 
   24722    24764    24719    24668    24642    24632    24645    24638 
   24645    24792    24887    24686    24482    24592    24772    24723 
   24628    24741    24915    24927    24822    24663    24444    24314 
   24440    24709    24826    24710    24605    24667    24795    24900 
   24975    25014    24919    24637    24416    24420    24413    24324 
   24402    24613    24752    24896    24962    24757    24629    24881 
   25103    24907    24588    24582    24749    24740    24595    24474 
   24391    24437    24651    24783    24688    24613    24736    24911 
   24945    24784    24641    24646    24607    24553    24630    24687 
   24768    24935    24838    24528    24482    24671    24767    24694 
   24533    24464    24587    24786    24943    24961    24792    24625 
   24613    24614    24576    24699    24875    24729    24468    24560 
   24786    24711    24522    24534    24628    24687    24856    25010 
   24796    24424    24463    24811    24923    24725    24502    24417 
   24520    24718    24826    24879    24948    25002    25122    25286 
   25381    25223    24468    23544    23430    23936    24347    24633 
   24725    24598    24741    25159    25143    24713    24687    24935 
   24700    24314    24250    24119    23980    24395    25296    26199 
   26489    25693    24412    23831    24192    24799    24849    24231 
   23863    24223    24545    24430    24381    24645    25019    25272 
   25266    25056    24834    24745    24745    24565    24175    23993 
   24194    24474    24559    24591    24926    25336    25201    24595 
   24146    24227    24634    24846    24802    24732    24687    24842 
   25162    25316    25308    25200    24861    24306    23915    24147 
   24722    24946    24796    24583    24528    24775    25035    25033 
   24972    24844    24452    24089    24086    24382    24738    24968 
   25029    24757    24125    23699    23847    24474    25431    26015 
   25548    24641    24194    24273    24669    25143    25293    24972 
   24459    24181    24324    24649    24780    24663    24586    24700 
   24790    24738    24634    24447    24258    24417    24965    25448 
   25531    25213    24641    24192    24210    24537    24773    24749 
   24571    24452    24475    24561    24641    24630    24551    24603 
   24772    24798    24640    24502    24549    24748    24984    25118 
   24954    24621    24549    24740    24850    24834    24764    24597 
   24456    24533    24776    24929    24821    24640    24664    24750 
   24676    24580    24632    24718    24678    24522    24394    24399 
   24530    24754    24956    24934    24734    24617    24683    24862 
   25014    24912    24551    24327    24507    24817    24984    25047 
   24938    24598    24321    24305    24372    24381    24386    24475 
   24672    24853    24873    24840    24884    24942    24935    24783 
   24487    24305    24379    24551    24676    24783    24844    24761 
   24610    24601    24808    25074    25138    24934    24719    24734 
   24815    24655    24372    24314    24514    24792    24957    24825 
   24520    24386    24480    24603    24599    24483    24474    24642 
   24750    24709    24660    24668    24746    24900    24987    24895 
   24784    24848    24953    24875    24740    24719    24676    24575 
   24614    24722    24645    24410    24301    24466    24746    24879 
   24796    24609    24449    24435    24598    24810    24926    24927 
   24891    24883    24864    24754    24588    24476    24483    24565 
   24597    24560    24603    24729    24753    24741    24871    24972 
   24852    24692    24715    24868    24939    24817    24617    24501 
   24478    24506    24544    24528    24493    24540    24661    24713 
   24633    24545    24556    24661    24826    24965    24957    24815 
   24722    24742    24676    24518    24516    24641    24676    24675 
   24732    24718    24603    24555    24615    24682    24727    24765 
   24741    24653    24625    24727    24864    24939    24979    24953 
   24830    24718    24687    24671    24626    24576    24570    24592 
   24548    24460    24463    24533    24605    24721    24842    24861 
   24790    24721    24695    24682    24657    24651    24651    24621 
   24591    24591    24590    24597    24668    24756    24796    24815 
   24808    24772    24764    24792    24767    24649    24517    24460 
   24549    24730    24811    24756    24726    24746    24722    24691 
   24745    24814    24726    24552    24528    24618    24645    24613 
   24611    24653    24698    24709    24686    24682    24750    24856 
   24892    24830    24721    24630    24609    24660    24727    24756 
   24741    24688    24629    24634    24698    24725    24698    24672 
   24675    24690    24672    24630    24644    24722    24788    24802 
   24781    24741    24676    24621    24637    24725    24817    24827 
   24732    24632    24586    24552    24567    24652    24695    24660 
   24618    24572    24520    24528    24613    24696    24717    24706 
   24729    24759    24725    24692    24741    24798    24795    24786 
   24795    24777    24702    24619    24605    24621    24607    24614 
   24632    24594    24565    24613    24692    24748    24746    24700 
   24675    24688    24709    24721    24721    24709    24702    24719 
   24764    24802    24808    24796    24783    24759    24713    24655 
   24621    24622    24637    24664    24687    24669    24641    24630 
   24629    24657    24687    24652    24607    24636    24686    24696 
   24669    24619    24576    24587    24678    24788    24800    24725 
   24673    24694    24742    24773    24764    24722    24665    24628 
   24617    24636    24690    24719    24714    24750    24802    24763 
   24667    24607    24591    24615    24671    24690    24646    24602 
   24618    24688    24726    24709    24690    24675    24661    24690 
   24710    24675    24659    24706    24773    24833    24846    24786 
   24715    24686    24671    24661    24676    24694    24686    24672 
   24686    24678    24642    24660    24702    24696    24694    24715 
   24717    24694    24663    24665    24699    24692    24653    24653 
   24700    24709    24626    24583    24659    24695    24637    24636 
   24710    24752    24759    24748    24680    24611    24629    24692 
   24715    24696    24680    24717    24773    24764    24707    24683 
   24699    24738    24745    24663    24578    24594    24676    24756 
   24787    24730    24630    24568    24579    24645    24680    24655 
   24667    24734    24764    24733    24676    24619    24591    24606 
   24649    24675    24659    24640    24660    24722    24779    24761 
   24694    24675    24706    24725    24726    24722    24709    24713 
   24736    24733    24725    24740    24757    24745    24692    24640 
   24637    24675    24709    24719    24718    24722    24717    24694 
   24667    24633    24609    24626    24682    24729    24715    24655 
   24613    24611    24636    24657    24644    24630    24663    24684 
   24656    24633    24649    24675    24692    24706    24710    24688 
