Origin Time       2025/03/28 11:34:00
Lat.              32.978
Long.             131.158
Depth. (km)       12
Mag.              2.7
Station Code      KMMH02
Station Lat.      33.1220
Station Long.     131.0629
Station Height(m) 430
Record Time       2025/03/28 11:35:05
Sampling Freq(Hz) 100Hz
Duration Time(s)  120
Dir.              5
Scale Factor      7845(gal)/8223790
Max. Acc. (gal)   2.517
Last Correction   2025/03/28 11:35:05
Memo.             
[...]
  -23535   -23526   -23514   -23499   -23485   -23494   -23510   -23506 
  -23508   -23534   -23550   -23542   -23525   -23507   -23502   -23514 
  -23523   -23519   -23508   -23503   -23502   -23506   -23512   -23523 
  -23537   -23544   -23535   -23521   -23510   -23507   -23512   -23514 
  -23504   -23498   -23507   -23525   -23538   -23541   -23530   -23519 
  -23512   -23507   -23506   -23510   -23517   -23518   -23519   -23527 
  -23529   -23519   -23514   -23512   -23511   -23517   -23521   -23525 
  -23530   -23525   -23510   -23495   -23495   -23512   -23530   -23537 
  -23538   -23529   -23515   -23510   -23511   -23519   -23529   -23515 
  -23494   -23500   -23518   -23531   -23538   -23522   -23496   -23519 
  -23564   -23545   -23491   -23488   -23510   -23508   -23510   -23521 
  -23521   -23518   -23527   -23534   -23526   -23512   -23514   -23526 
  -23526   -23512   -23502   -23499   -23515   -23533   -23519   -23500 
  -23512   -23534   -23534   -23525   -23522   -23522   -23517   -23521 
  -23533   -23533   -23519   -23507   -23499   -23495   -23500   -23514 
  -23530   -23533   -23521   -23510   -23518   -23544   -23544   -23507 
  -23490   -23511   -23525   -23523   -23518   -23512   -23518   -23530 
  -23527   -23511   -23496   -23498   -23515   -23529   -23533   -23530 
  -23525   -23529   -23542   -23534   -23500   -23477   -23483   -23506 
  -23529   -23531   -23514   -23500   -23511   -23539   -23564   -23550 
  -23515   -23508   -23522   -23525   -23508   -23468   -23457   -23522 
  -23579   -23537   -23487   -23523   -23562   -23539   -23506   -23507 
  -23523   -23519   -23500   -23496   -23499   -23494   -23504   -23534 
  -23552   -23544   -23525   -23517   -23525   -23531   -23518   -23499 
  -23492   -23499   -23519   -23537   -23527   -23511   -23512   -23515 
  -23512   -23523   -23542   -23544   -23522   -23503   -23504   -23515 
  -23518   -23518   -23511   -23502   -23511   -23531   -23535   -23518 
  -23502   -23503   -23526   -23537   -23518   -23510   -23531   -23548 
  -23531   -23502   -23487   -23499   -23514   -23511   -23506   -23512 
  -23519   -23522   -23531   -23542   -23533   -23517   -23514   -23521 
  -23523   -23517   -23506   -23504   -23506   -23510   -23525   -23527 
  -23506   -23494   -23511   -23537   -23544   -23534   -23523   -23515 
  -23504   -23504   -23514   -23512   -23512   -23521   -23530   -23530 
  -23511   -23495   -23502   -23519   -23533   -23534   -23514   -23502 
  -23529   -23542   -23507   -23485   -23511   -23538   -23526   -23503 
  -23508   -23531   -23538   -23529   -23510   -23496   -23506   -23521 
  -23526   -23530   -23525   -23514   -23512   -23519   -23521   -23514 
  -23506   -23510   -23517   -23522   -23534   -23544   -23535   -23517 
  -23500   -23499   -23506   -23510   -23512   -23512   -23511   -23517 
  -23523   -23530   -23537   -23522   -23508   -23523   -23531   -23514 
  -23506   -23508   -23508   -23511   -23515   -23521   -23522   -23517 
  -23511   -23519   -23529   -23529   -23526   -23526   -23525   -23521 
  -23511   -23503   -23504   -23508   -23510   -23507   -23507   -23519 
  -23537   -23545   -23542   -23531   -23519   -23510   -23500   -23495 
  -23496   -23503   -23518   -23526   -23523   -23525   -23529   -23529 
  -23529   -23525   -23518   -23511   -23499   -23496   -23514   -23526 
  -23519   -23510   -23511   -23517   -23521   -23523   -23526   -23526 
  -23525   -23525   -23522   -23518   -23511   -23494   -23488   -23506 
  -23530   -23534   -23522   -23518   -23522   -23525   -23529   -23534 
  -23527   -23511   -23498   -23499   -23508   -23519   -23525   -23518 
  -23510   -23514   -23526   -23533   -23530   -23527   -23526   -23522 
  -23512   -23500   -23496   -23498   -23499   -23503   -23515   -23538 
  -23553   -23545   -23527   -23523   -23525   -23511   -23494   -23495 
  -23511   -23518   -23512   -23515   -23526   -23531   -23526   -23519 
  -23518   -23519   -23518   -23518   -23521   -23523   -23521   -23515 
  -23511   -23504   -23504   -23512   -23517   -23517   -23522   -23522 
  -23525   -23535   -23541   -23534   -23519   -23508   -23507   -23503 
  -23499   -23506   -23512   -23512   -23511   -23523   -23541   -23548 
  -23539   -23523   -23504   -23506   -23515   -23510   -23503   -23504 
  -23507   -23510   -23519   -23531   -23534   -23530   -23527   -23518 
  -23507   -23510   -23522   -23519   -23511   -23510   -23507   -23511 
  -23521   -23518   -23521   -23529   -23525   -23514   -23507   -23512 
  -23527   -23544   -23544   -23533   -23512   -23490   -23479   -23492 
  -23511   -23519   -23526   -23534   -23533   -23530   -23534   -23534 
  -23522   -23503   -23492   -23498   -23508   -23517   -23523   -23523 
  -23521   -23518   -23519   -23523   -23526   -23521   -23517   -23521 
  -23522   -23518   -23511   -23508   -23508   -23511   -23518   -23526 
  -23527   -23525   -23526   -23526   -23514   -23511   -23519   -23515 
  -23512   -23522   -23526   -23514   -23502   -23510   -23525   -23523 
  -23517   -23515   -23518   -23525   -23526   -23519   -23518   -23515 
  -23510   -23514   -23525   -23526   -23518   -23511   -23510   -23510 
  -23508   -23514   -23523   -23527   -23526   -23525   -23519   -23510 
  -23507   -23515   -23523   -23526   -23525   -23522   -23518   -23504 
  -23495   -23507   -23525   -23526   -23518   -23521   -23537   -23545 
  -23529   -23511   -23503   -23498   -23498   -23506   -23517   -23523 
  -23526   -23526   -23522   -23518   -23517   -23515   -23515   -23517 
  -23527   -23533   -23525   -23515   -23512   -23511   -23504   -23496 
  -23510   -23529   -23526   -23521   -23523   -23527   -23530   -23527 
  -23518   -23510   -23508   -23510   -23506   -23510   -23521   -23522 
  -23518   -23521   -23525   -23517   -23512   -23522   -23526   -23515 
  -23518   -23525   -23518   -23511   -23514   -23515   -23508   -23507 
  -23512   -23522   -23527   -23526   -23531   -23534   -23519   -23504 
  -23507   -23517   -23519   -23512   -23504   -23518   -23530   -23522 
  -23518   -23523   -23522   -23512   -23507   -23515   -23527   -23526 
  -23517   -23519   -23526   -23521   -23510   -23503   -23504   -23512 
  -23518   -23519   -23526   -23533   -23530   -23518   -23514   -23517 
  -23514   -23510   -23517   -23522   -23518   -23518   -23525   -23518 
  -23506   -23506   -23517   -23523   -23523   -23526   -23527   -23530 
  -23530   -23522   -23518   -23515   -23508   -23508   -23510   -23512 
  -23521   -23515   -23508   -23521   -23531   -23522   -23521   -23533 
  -23541   -23529   -23508   -23502   -23515   -23515   -23500   -23502 
  -23512   -23512   -23514   -23529   -23546   -23549   -23537   -23521 
  -23510   -23511   -23514   -23511   -23507   -23503   -23499   -23507 
  -23522   -23525   -23526   -23530   -23530   -23531   -23537   -23529 
  -23510   -23506   -23517   -23515   -23506   -23500   -23499   -23504 
  -23521   -23537   -23544   -23538   -23530   -23523   -23514   -23507 
  -23512   -23514   -23502   -23500   -23517   -23533   -23533   -23526 
  -23527   -23526   -23517   -23510   -23507   -23507   -23517   -23522 
  -23521   -23522   -23522   -23518   -23518   -23515   -23518   -23525 
  -23522   -23519   -23523   -23521   -23518   -23517   -23514   -23515 
  -23517   -23512   -23510   -23514   -23525   -23523   -23512   -23514 
  -23529   -23535   -23530   -23521   -23512   -23508   -23507   -23504 
  -23508   -23519   -23530   -23530   -23522   -23517   -23512   -23506 
  -23508   -23514   -23518   -23525   -23530   -23526   -23523   -23521 
  -23514   -23507   -23510   -23521   -23527   -23515   -23506   -23511 
  -23515   -23517   -23517   -23518   -23529   -23538   -23530   -23521 
  -23518   -23510   -23500   -23502   -23514   -23522   -23519   -23519 
  -23529   -23530   -23525   -23517   -23507   -23506   -23517   -23522 
  -23523   -23529   -23525   -23514   -23511   -23512   -23515   -23519 
  -23518   -23517   -23517   -23515   -23512   -23512   -23527   -23541 
  -23534   -23519   -23515   -23515   -23511   -23504   -23503   -23506 
  -23503   -23510   -23529   -23537   -23530   -23525   -23517   -23514 
  -23519   -23519   -23514   -23517   -23517   -23508   -23507   -23517 
  -23518   -23508   -23508   -23521   -23523   -23517   -23519   -23534 
  -23531   -23515   -23512   -23519   -23508   -23495   -23502   -23517 
  -23522   -23522   -23523   -23522   -23527   -23533   -23529   -23518 
  -23510   -23506   -23507   -23512   -23523   -23523   -23507   -23503 
  -23514   -23512   -23511   -23525   -23537   -23533   -23521   -23511 
  -23508   -23511   -23518   -23521   -23514   -23506   -23507   -23521 
  -23526   -23523   -23522   -23521   -23523   -23529   -23518   -23502 
  -23502   -23511   -23514   -23515   -23521   -23530   -23533   -23527 
  -23519   -23514   -23515   -23517   -23511   -23504   -23502   -23503 
  -23514   -23531   -23542   -23538   -23522   -23512   -23514   -23515 
  -23510   -23504   -23504   -23511   -23517   -23521   -23526   -23527 
  -23521   -23515   -23518   -23522   -23523   -23521   -23511   -23504 
  -23506   -23507   -23507   -23517   -23526   -23526   -23527   -23531 
  -23527   -23517   -23511   -23515   -23515   -23507   -23504   -23515 
  -23523   -23523   -23522   -23519   -23514   -23511   -23517   -23521 
  -23517   -23514   -23517   -23521   -23519   -23517   -23518   -23525 
  -23525   -23517   -23512   -23517   -23518   -23510   -23506   -23515 
  -23529   -23530   -23521   -23518   -23517   -23510   -23510   -23525 
  -23533   -23523   -23511   -23510   -23517   -23523   -23523   -23521 
  -23521   -23522   -23518   -23515   -23512   -23508   -23507   -23511 
  -23517   -23521   -23523   -23522   -23521   -23518   -23518   -23525 
  -23525   -23519   -23514   -23508   -23504   -23510   -23519   -23523 
  -23526   -23523   -23510   -23503   -23517   -23529   -23529   -23521 
  -23512   -23510   -23517   -23525   -23523   -23517   -23515   -23518 
  -23514   -23510   -23515   -23525   -23525   -23515   -23515   -23523 
  -23527   -23523   -23517   -23511   -23506   -23506   -23511   -23521 
  -23527   -23522   -23515   -23525   -23539   -23550   -23557   -23548 
  -23515   -23481   -23467   -23472   -23477   -23480   -23511   -23583 
  -23615   -23522   -23361   -23342   -23556   -23780   -23758   -23535 
  -23372   -23395   -23469   -23437   -23375   -23454   -23606   -23595 
  -23448   -23433   -23662   -23949   -24000   -23700   -23291   -23155 
  -23345   -23475   -23271   -23068   -23265   -23627   -23728   -23606 
  -23535   -23589   -23664   -23700   -23699   -23677   -23681   -23645 
  -23502   -23369   -23319   -23305   -23302   -23287   -23267   -23314 
  -23441   -23606   -23820   -24063   -24177   -24073   -23807   -23391 
  -22990   -22846   -22877   -22947   -23110   -23325   -23519   -23777 
  -24070   -24233   -24204   -24047   -23850   -23614   -23305   -22983 
  -22808   -22855   -23068   -23400   -23715   -23858   -23953   -24043 
  -23873   -23436   -23129   -23201   -23434   -23553   -23620   -23680 
  -23641   -23571   -23488   -23307   -23166   -23190   -23257   -23321 
  -23456   -23692   -23997   -24217   -24159   -23849   -23514   -23314 
  -23226   -23164   -23080   -23033   -23116   -23301   -23499   -23708 
  -23944   -24124   -24142   -23966   -23681   -23438   -23237   -23040 
  -22997   -23114   -23220   -23361   -23639   -23870   -23899   -23823 
  -23734   -23643   -23580   -23541   -23446   -23228   -23020   -23041 
  -23215   -23337   -23487   -23799   -24121   -24240   -24142   -23882 
  -23491   -23139   -22947   -22840   -22860   -23107   -23460   -23822 
  -24158   -24312   -24183   -23861   -23494   -23157   -22914   -22923 
  -23103   -23233   -23414   -23691   -23820   -23815   -23807   -23777 
  -23718   -23637   -23531   -23402   -23267   -23247   -23342   -23375 
  -23372   -23471   -23620   -23714   -23687   -23568   -23461   -23391 
  -23356   -23422   -23580   -23762   -23936   -23989   -23819   -23544 
  -23329   -23176   -23053   -22993   -23071   -23301   -23539   -23706 
  -23854   -23913   -23853   -23809   -23772   -23650   -23485   -23361 
  -23315   -23274   -23214   -23244   -23314   -23336   -23383   -23498 
  -23647   -23766   -23816   -23819   -23743   -23607   -23499   -23425 
  -23472   -23653   -23718   -23588   -23379   -23128   -23001   -23128 
  -23333   -23464   -23595   -23782   -23936   -23958   -23861   -23697 
  -23529   -23387   -23244   -23170   -23252   -23376   -23481   -23606 
  -23665   -23623   -23565   -23526   -23496   -23527   -23629   -23677 
  -23641   -23625   -23626   -23583   -23473   -23233   -22932   -22873 
  -23160   -23479   -23608   -23706   -23858   -23893   -23723   -23487 
  -23353   -23323   -23314   -23399   -23623   -23782   -23824   -23936 
  -24082   -24128   -24085   -23890   -23434   -22896   -22642   -22761 
  -23008   -23161   -23133   -23091   -23392   -24017   -24545   -24765 
  -24761   -24601   -24273   -23716   -22887   -21969   -21401   -21381 
  -21679   -22191   -23002   -23967   -24808   -25300   -25413   -25327 
  -25065   -24630   -24167   -23587   -22790   -22033   -21625   -21660 
  -21982   -22381   -22985   -23919   -24852   -25381   -25416   -25056 
  -24459   -23745   -22963   -22337   -22052   -22002   -22260   -22995 
  -23874   -24409   -24470   -24155   -23679   -23275   -23048   -23101 
  -23538   -24206   -24645   -24506   -23908   -23198   -22545   -22037 
  -21832   -22068   -22802   -23872   -24884   -25578   -25868   -25605 
  -24833   -23830   -22759   -21762   -21081   -20879   -21226   -22094 
  -23187   -24216   -25123   -25766   -25920   -25618   -24981   -24109 
  -23248   -22576   -22067   -21686   -21500   -21648   -22162   -22878 
  -23701   -24526   -25158   -25548   -25639   -25336   -24787   -24129 
  -23357   -22630   -22113   -21775   -21629   -21735   -22086   -22661 
  -23356   -24034   -24619   -24997   -25087   -24993   -24821   -24521 
  -24025   -23379   -22748   -22211   -21766   -21562   -21768   -22358 
  -23186   -24090   -24935   -25627   -25995   -25809   -25035   -23942 
  -22821   -21863   -21255   -21116   -21409   -22067   -22995   -23967 
  -24753   -25285   -25517   -25380   -24907   -24254   -23602   -23056 
  -22590   -22212   -22065   -22208   -22542   -23012   -23546   -23996 
  -24318   -24480   -24382   -24109   -23866   -23695   -23535   -23357 
  -23206   -23191   -23298   -23342   -23268   -23194   -23163   -23143 
  -23172   -23278   -23419   -23560   -23681   -23830   -24044   -24228 
  -24241   -24075   -23792   -23463   -23188   -22986   -22777   -22581 
  -22542   -22747   -23206   -23855   -24494   -24898   -24997   -24834 
  -24476   -23953   -23263   -22566   -22127   -22017   -22172   -22561 
  -23126   -23750   -24295   -24651   -24741   -24532   -24113   -23665 
  -23268   -22920   -22680   -22613   -22747   -23070   -23458   -23773 
  -24009   -24177   -24208   -24100   -23938   -23755   -23519   -23268 
  -23099   -23029   -22998   -22993   -23045   -23178   -23369   -23602 
  -23865   -24105   -24221   -24166   -24000   -23778   -23518   -23248 
  -22994   -22820   -22816   -22962   -23166   -23388   -23607   -23780 
  -23904   -23963   -23953   -23908   -23835   -23737   -23625   -23473 
  -23333   -23263   -23205   -23147   -23170   -23296   -23438   -23508 
  -23560   -23642   -23695   -23701   -23660   -23557   -23499   -23514 
  -23490   -23453   -23504   -23575   -23603   -23593   -23527   -23452 
  -23415   -23391   -23377   -23394   -23464   -23600   -23777   -23940 
  -24013   -23926   -23701   -23458   -23284   -23155   -23044   -23060 
  -23268   -23553   -23750   -23796   -23749   -23672   -23556   -23387 
  -23233   -23168   -23214   -23382   -23626   -23824   -23907   -23861 
  -23730   -23602   -23469   -23317   -23218   -23210   -23267   -23379 
  -23517   -23645   -23738   -23781   -23757   -23679   -23611   -23575 
  -23537   -23477   -23379   -23311   -23367   -23461   -23487   -23453 
  -23372   -23329   -23445   -23620   -23658   -23614   -23647   -23723 
  -23719   -23611   -23467   -23383   -23373   -23359   -23338   -23371 
  -23458   -23575   -23684   -23726   -23695   -23634   -23541   -23423 
  -23357   -23379   -23430   -23464   -23465   -23446   -23477   -23589 
  -23726   -23835   -23890   -23811   -23602   -23387   -23226   -23105 
  -23066   -23121   -23228   -23377   -23560   -23738   -23870   -23903 
  -23855   -23799   -23710   -23541   -23357   -23234   -23195   -23261 
  -23392   -23479   -23519   -23598   -23731   -23842   -23831   -23679 
  -23502   -23395   -23319   -23247   -23217   -23255   -23373   -23553 
  -23699   -23758   -23768   -23726   -23629   -23526   -23450   -23388 
  -23364   -23402   -23454   -23469   -23453   -23446   -23480   -23549 
  -23614   -23669   -23724   -23750   -23718   -23642   -23548   -23441 
  -23336   -23274   -23279   -23344   -23438   -23517   -23552   -23569 
  -23600   -23631   -23625   -23607   -23612   -23603   -23557   -23507 
  -23441   -23348   -23278   -23244   -23245   -23319   -23446   -23556 
  -23646   -23755   -23870   -23915   -23808   -23587   -23396   -23296 
  -23236   -23221   -23268   -23364   -23525   -23710   -23832   -23895 
  -23903   -23803   -23608   -23395   -23205   -23067   -23031   -23112 
  -23278   -23494   -23719   -23905   -24011   -23997   -23858   -23646 
  -23430   -23268   -23207   -23237   -23298   -23373   -23484   -23610 
  -23693   -23697   -23641   -23584   -23562   -23564   -23579   -23584 
  -23544   -23468   -23394   -23332   -23301   -23294   -23284   -23318 
  -23468   -23665   -23792   -23843   -23841   -23778   -23672   -23542 
  -23402   -23280   -23213   -23206   -23229   -23260   -23326   -23446 
  -23612   -23781   -23886   -23900   -23849   -23760   -23638   -23488 
  -23342   -23256   -23245   -23301   -23399   -23483   -23525   -23557 
  -23602   -23634   -23658   -23687   -23679   -23615   -23535   -23453 
  -23384   -23357   -23388   -23480   -23579   -23622   -23615   -23579 
  -23518   -23452   -23402   -23369   -23375   -23437   -23538   -23620 
  -23653   -23654   -23642   -23603   -23525   -23411   -23306   -23287 
  -23356   -23426   -23480   -23560   -23638   -23669   -23668   -23665 
  -23662   -23646   -23596   -23512   -23415   -23338   -23305   -23307 
  -23342   -23417   -23503   -23572   -23642   -23723   -23765   -23730 
  -23639   -23546   -23477   -23421   -23384   -23391   -23406   -23429 
  -23490   -23548   -23579   -23606   -23625   -23615   -23576   -23531 
  -23512   -23517   -23531   -23554   -23562   -23523   -23456   -23409 
  -23404   -23444   -23500   -23548   -23575   -23576   -23560   -23533 
  -23500   -23463   -23414   -23373   -23379   -23441   -23518   -23568 
  -23591   -23607   -23612   -23569   -23471   -23394   -23399   -23448 
  -23473   -23480   -23500   -23541   -23593   -23631   -23626   -23596 
  -23575   -23577   -23611   -23646   -23627   -23565   -23494   -23417 
  -23344   -23317   -23348   -23406   -23471   -23548   -23623   -23683 
  -23722   -23733   -23692   -23589   -23471   -23379   -23321   -23295 
  -23302   -23353   -23454   -23579   -23672   -23715   -23731   -23737 
  -23691   -23580   -23456   -23365   -23333   -23360   -23406   -23441 
  -23492   -23549   -23560   -23537   -23531   -23535   -23535   -23542 
  -23560   -23566   -23537   -23487   -23452   -23437   -23437   -23457 
