Origin Time       2025/03/28 11:34:00
Lat.              32.978
Long.             131.158
Depth. (km)       12
Mag.              2.7
Station Code      KMMH02
Station Lat.      33.1220
Station Long.     131.0629
Station Height(m) 306.45
Record Time       2025/03/28 11:35:05
Sampling Freq(Hz) 100Hz
Duration Time(s)  120
Dir.              3
Scale Factor      2942(gal)/8224139
Max. Acc. (gal)   0.469
Last Correction   2025/03/28 11:35:05
Memo.             
[...]
  -74718   -74710   -74707   -74707   -74704   -74707   -74717   -74719 
  -74717   -74714   -74710   -74707   -74709   -74711   -74715   -74718 
  -74713   -74710   -74710   -74710   -74711   -74714   -74719   -74719 
  -74713   -74706   -74707   -74707   -74709   -74713   -74713   -74711 
  -74711   -74711   -74713   -74715   -74715   -74714   -74717   -74719 
  -74714   -74711   -74714   -74718   -74719   -74715   -74711   -74710 
  -74709   -74707   -74713   -74715   -74714   -74714   -74715   -74714 
  -74714   -74715   -74718   -74717   -74715   -74714   -74713   -74711 
  -74717   -74718   -74713   -74711   -74715   -74711   -74707   -74707 
  -74711   -74715   -74714   -74709   -74710   -74713   -74718   -74723 
  -74723   -74719   -74711   -74704   -74704   -74707   -74717   -74723 
  -74722   -74721   -74717   -74709   -74707   -74713   -74718   -74719 
  -74715   -74713   -74710   -74707   -74709   -74717   -74721   -74718 
  -74717   -74717   -74711   -74709   -74715   -74719   -74718   -74715 
  -74711   -74706   -74707   -74714   -74718   -74718   -74718   -74717 
  -74711   -74706   -74709   -74718   -74722   -74717   -74713   -74714 
  -74711   -74711   -74717   -74719   -74718   -74719   -74717   -74709 
  -74704   -74706   -74710   -74717   -74717   -74711   -74710   -74711 
  -74710   -74710   -74715   -74722   -74723   -74719   -74715   -74714 
  -74715   -74718   -74719   -74718   -74714   -74713   -74714   -74714 
  -74714   -74714   -74715   -74715   -74714   -74711   -74709   -74711 
  -74717   -74714   -74709   -74707   -74713   -74715   -74715   -74714 
  -74714   -74717   -74715   -74713   -74715   -74717   -74714   -74711 
  -74713   -74714   -74718   -74718   -74713   -74709   -74710   -74711 
  -74714   -74717   -74718   -74721   -74721   -74715   -74713   -74711 
  -74711   -74715   -74719   -74717   -74713   -74710   -74709   -74710 
  -74711   -74713   -74711   -74707   -74709   -74713   -74711   -74714 
  -74717   -74714   -74713   -74715   -74717   -74713   -74711   -74713 
  -74715   -74715   -74715   -74713   -74710   -74713   -74713   -74713 
  -74717   -74719   -74717   -74713   -74710   -74709   -74711   -74713 
  -74714   -74715   -74717   -74717   -74714   -74710   -74710   -74711 
  -74715   -74719   -74719   -74713   -74709   -74709   -74709   -74715 
  -74723   -74718   -74711   -74713   -74711   -74710   -74714   -74721 
  -74723   -74717   -74707   -74707   -74715   -74721   -74721   -74715 
  -74711   -74714   -74711   -74703   -74707   -74717   -74717   -74715 
  -74715   -74713   -74709   -74709   -74711   -74713   -74715   -74715 
  -74715   -74714   -74709   -74710   -74719   -74726   -74727   -74718 
  -74706   -74704   -74706   -74710   -74721   -74722   -74717   -74710 
  -74702   -74699   -74706   -74717   -74722   -74721   -74717   -74710 
  -74703   -74704   -74711   -74718   -74723   -74723   -74717   -74711 
  -74707   -74704   -74704   -74707   -74713   -74715   -74714   -74714 
  -74717   -74719   -74722   -74719   -74713   -74710   -74707   -74704 
  -74714   -74722   -74721   -74717   -74713   -74709   -74709   -74713 
  -74714   -74713   -74711   -74711   -74715   -74718   -74717   -74715 
  -74714   -74709   -74709   -74715   -74719   -74717   -74711   -74709 
  -74710   -74713   -74714   -74717   -74717   -74711   -74709   -74710 
  -74713   -74715   -74719   -74722   -74717   -74713   -74710   -74706 
  -74710   -74715   -74715   -74715   -74718   -74718   -74715   -74711 
  -74710   -74707   -74710   -74719   -74722   -74715   -74707   -74706 
  -74707   -74711   -74715   -74715   -74717   -74717   -74709   -74702 
  -74706   -74711   -74717   -74723   -74723   -74718   -74711   -74707 
  -74709   -74714   -74719   -74722   -74715   -74707   -74707   -74709 
  -74709   -74715   -74719   -74713   -74706   -74709   -74714   -74717 
  -74715   -74715   -74715   -74711   -74711   -74711   -74714   -74718 
  -74718   -74715   -74711   -74711   -74718   -74717   -74711   -74707 
  -74709   -74714   -74718   -74714   -74714   -74714   -74710   -74709 
  -74713   -74717   -74713   -74709   -74711   -74710   -74707   -74714 
  -74717   -74715   -74718   -74719   -74715   -74713   -74715   -74715 
  -74714   -74715   -74717   -74715   -74714   -74711   -74709   -74710 
  -74717   -74719   -74718   -74713   -74707   -74710   -74715   -74718 
  -74719   -74717   -74710   -74706   -74711   -74715   -74713   -74713 
  -74714   -74713   -74714   -74717   -74717   -74715   -74713   -74713 
  -74717   -74717   -74711   -74707   -74707   -74711   -74719   -74718 
  -74714   -74711   -74706   -74704   -74709   -74715   -74718   -74717 
  -74713   -74714   -74714   -74709   -74707   -74709   -74714   -74718 
  -74718   -74714   -74711   -74707   -74707   -74715   -74719   -74715 
  -74717   -74722   -74723   -74719   -74715   -74711   -74709   -74710 
  -74715   -74721   -74722   -74717   -74711   -74707   -74704   -74709 
  -74717   -74721   -74719   -74719   -74719   -74718   -74711   -74706 
  -74710   -74715   -74717   -74718   -74718   -74711   -74706   -74706 
  -74707   -74710   -74714   -74717   -74717   -74715   -74713   -74714 
  -74718   -74719   -74717   -74715   -74717   -74714   -74709   -74709 
  -74711   -74714   -74714   -74713   -74715   -74715   -74713   -74713 
  -74714   -74714   -74717   -74715   -74715   -74718   -74719   -74717 
  -74713   -74707   -74710   -74713   -74710   -74707   -74713   -74719 
  -74718   -74711   -74707   -74711   -74718   -74718   -74718   -74715 
  -74717   -74715   -74709   -74703   -74703   -74713   -74723   -74725 
  -74719   -74717   -74711   -74706   -74706   -74711   -74714   -74714 
  -74714   -74710   -74704   -74704   -74709   -74713   -74713   -74714 
  -74717   -74718   -74722   -74726   -74719   -74711   -74706   -74709 
  -74718   -74726   -74723   -74718   -74714   -74710   -74707   -74713 
  -74718   -74722   -74723   -74715   -74706   -74713   -74721   -74715 
  -74707   -74706   -74706   -74707   -74714   -74718   -74717   -74715 
  -74714   -74713   -74714   -74717   -74718   -74719   -74723   -74722 
  -74713   -74707   -74710   -74711   -74714   -74718   -74717   -74710 
  -74706   -74707   -74709   -74713   -74715   -74714   -74715   -74718 
  -74717   -74714   -74713   -74713   -74710   -74706   -74710   -74718 
  -74719   -74717   -74714   -74710   -74707   -74710   -74717   -74715 
  -74714   -74714   -74715   -74715   -74714   -74710   -74707   -74707 
  -74710   -74713   -74709   -74711   -74717   -74715   -74711   -74711 
  -74710   -74711   -74714   -74713   -74715   -74718   -74714   -74715 
  -74722   -74717   -74702   -74695   -74704   -74718   -74725   -74727 
  -74723   -74715   -74707   -74702   -74702   -74710   -74717   -74718 
  -74718   -74715   -74713   -74711   -74713   -74717   -74717   -74710 
  -74709   -74714   -74715   -74718   -74721   -74717   -74710   -74707 
  -74710   -74714   -74718   -74719   -74717   -74717   -74718   -74714 
  -74706   -74703   -74706   -74711   -74718   -74717   -74713   -74713 
  -74713   -74711   -74714   -74714   -74713   -74714   -74713   -74713 
  -74717   -74721   -74722   -74721   -74715   -74713   -74713   -74709 
  -74707   -74713   -74714   -74711   -74711   -74711   -74710   -74713 
  -74714   -74713   -74713   -74713   -74711   -74714   -74721   -74723 
  -74721   -74717   -74718   -74713   -74707   -74710   -74714   -74713 
  -74713   -74711   -74704   -74703   -74707   -74715   -74721   -74721 
  -74719   -74717   -74713   -74710   -74715   -74719   -74718   -74719 
  -74717   -74711   -74707   -74709   -74715   -74717   -74714   -74710 
  -74710   -74711   -74713   -74714   -74717   -74718   -74719   -74718 
  -74714   -74713   -74713   -74714   -74714   -74714   -74713   -74713 
  -74715   -74714   -74713   -74713   -74710   -74710   -74713   -74718 
  -74721   -74715   -74714   -74717   -74714   -74713   -74715   -74717 
  -74715   -74714   -74713   -74715   -74713   -74706   -74709   -74715 
  -74718   -74717   -74711   -74709   -74714   -74717   -74713   -74714 
  -74719   -74719   -74717   -74717   -74714   -74709   -74709   -74711 
  -74714   -74715   -74714   -74714   -74713   -74710   -74713   -74714 
  -74710   -74709   -74713   -74714   -74711   -74710   -74715   -74719 
  -74714   -74709   -74710   -74711   -74710   -74711   -74711   -74709 
  -74709   -74714   -74717   -74718   -74718   -74714   -74711   -74711 
  -74711   -74715   -74721   -74715   -74710   -74714   -74715   -74714 
  -74715   -74717   -74714   -74710   -74711   -74717   -74714   -74714 
  -74717   -74717   -74715   -74715   -74715   -74714   -74713   -74714 
  -74715   -74714   -74713   -74714   -74715   -74717   -74714   -74709 
  -74709   -74711   -74713   -74714   -74715   -74715   -74714   -74713 
  -74715   -74717   -74717   -74717   -74717   -74713   -74709   -74710 
  -74714   -74715   -74713   -74713   -74718   -74718   -74718   -74717 
  -74711   -74714   -74718   -74719   -74722   -74717   -74707   -74707 
  -74711   -74715   -74718   -74718   -74713   -74709   -74710   -74711 
  -74718   -74722   -74719   -74713   -74711   -74715   -74721   -74717 
  -74709   -74711   -74721   -74722   -74717   -74709   -74703   -74709 
  -74715   -74713   -74709   -74711   -74718   -74721   -74718   -74719 
  -74717   -74710   -74710   -74711   -74711   -74718   -74718   -74710 
  -74707   -74710   -74715   -74719   -74718   -74717   -74715   -74711 
  -74713   -74721   -74721   -74714   -74715   -74719   -74719   -74714 
  -74710   -74713   -74715   -74714   -74713   -74711   -74710   -74710 
  -74714   -74718   -74717   -74717   -74717   -74715   -74711   -74710 
  -74713   -74717   -74719   -74719   -74719   -74717   -74714   -74714 
  -74713   -74707   -74706   -74707   -74706   -74709   -74715   -74715 
  -74713   -74714   -74714   -74715   -74717   -74719   -74717   -74715 
  -74718   -74719   -74714   -74707   -74707   -74710   -74713   -74713 
  -74711   -74711   -74710   -74706   -74706   -74711   -74715   -74718 
  -74721   -74717   -74706   -74702   -74710   -74721   -74725   -74722 
  -74717   -74707   -74699   -74700   -74709   -74717   -74725   -74726 
  -74713   -74699   -74700   -74706   -74714   -74721   -74721   -74717 
  -74714   -74709   -74706   -74710   -74718   -74722   -74722   -74717 
  -74711   -74709   -74709   -74709   -74711   -74715   -74715   -74717 
  -74717   -74713   -74711   -74713   -74714   -74714   -74715   -74715 
  -74713   -74714   -74714   -74715   -74717   -74713   -74704   -74702 
  -74703   -74710   -74718   -74723   -74721   -74717   -74715   -74710 
  -74706   -74714   -74725   -74727   -74719   -74707   -74700   -74702 
  -74707   -74715   -74718   -74714   -74710   -74711   -74714   -74713 
  -74711   -74714   -74707   -74676   -74613   -74530   -74495   -74580 
  -74737   -74817   -74764   -74757   -74991   -75294   -75261   -74779 
  -74167   -73916   -74343   -75055   -75154   -74536   -74206   -74740 
  -75424   -75411   -74799   -74214   -74201   -74791   -75243   -74972 
  -74471   -74515   -74848   -74615   -74170   -74483   -75073   -74930 
  -74517   -74696   -74834   -74452   -74660   -75201   -74719   -74245 
  -74787   -75047   -74632   -74537   -74773   -74710   -74509   -74686 
  -74887   -74645   -74493   -74796   -75176   -75169   -74788   -74495 
  -74239   -74092   -74611   -75224   -75077   -74659   -74656   -74866 
  -74808   -74623   -74707   -74746   -74513   -74453   -74617   -74800 
  -74974   -74881   -74606   -74471   -74491   -74687   -74781   -74760 
  -75114   -75239   -74680   -74375   -74537   -74673   -74660   -74453 
  -74306   -74551   -75145   -75427   -74980   -74645   -74721   -74592 
  -74525   -74700   -74655   -74494   -74596   -74845   -74831   -74615 
  -74542   -74640   -74853   -74941   -74790   -74746   -74839   -74726 
  -74449   -74536   -74834   -74746   -74633   -74729   -74644   -74569 
  -74737   -74868   -74875   -74803   -74664   -74653   -74718   -74669 
  -74660   -74690   -74692   -74777   -74768   -74638   -74687   -74845 
  -74844   -74659   -74580   -74790   -74866   -74718   -74710   -74684 
  -74622   -74690   -74676   -74632   -74607   -74611   -74879   -75077 
  -74783   -74436   -74569   -74853   -74808   -74730   -74758   -74613 
  -74591   -74758   -74611   -74493   -74784   -74920   -74769   -74826 
  -74876   -74449   -74155   -74614   -75054   -74888   -74779   -74956 
  -74804   -74506   -74702   -75028   -74947   -74569   -74299   -74532 
  -74920   -74920   -74723   -74487   -74339   -74680   -75118   -74958 
  -74565   -74506   -74563   -74652   -74946   -74983   -74640   -74459 
  -74432   -74563   -74926   -74980   -74703   -74659   -74815   -74829 
  -74700   -74650   -74676   -74707   -74791   -74758   -74633   -74601 
  -74540   -74596   -74885   -74999   -74853   -74606   -74440   -74668 
  -74903   -74791   -74792   -74817   -74598   -74542   -74799   -74965 
  -74711   -74510   -74790   -74854   -74502   -74393   -74526   -74630 
  -74776   -74934   -74954   -74899   -74933   -74842   -74576   -74569 
  -74569   -74290   -74349   -74700   -74745   -74680   -74848   -75128 
  -75153   -74884   -74736   -74618   -74386   -74530   -74885   -74754 
  -74416   -74482   -74781   -74838   -74746   -74927   -75150   -75011 
  -74858   -74929   -74775   -74291   -74016   -74170   -74371   -74487 
  -74923   -75494   -75311   -74764   -74916   -74953   -74137   -73873 
  -74561   -74723   -74407   -74688   -74930   -74660   -74881   -75334 
  -75023   -74839   -75311   -74919   -73643   -73402   -74263   -75016 
  -75447   -75521   -75293   -75114   -74868   -74559   -74360   -73951 
  -73668   -74347   -75267   -75107   -74497   -74767   -75216   -74869 
  -74479   -74359   -74254   -74557   -74965   -74923   -74844   -75136 
  -75597   -75502   -74525   -73805   -74248   -74686   -74208   -73948 
  -74352   -74503   -74715   -75427   -75616   -75015   -74680   -74765 
  -74669   -74675   -74952   -74871   -74629   -74761   -74753   -74437 
  -74501   -74753   -74586   -74486   -74854   -75076   -74970   -74980 
  -74991   -74926   -74830   -74177   -73483   -73916   -74692   -74730 
  -74839   -75359   -75354   -75155   -75257   -74698   -73900   -74212 
  -74792   -74737   -74773   -75033   -74922   -74522   -74316   -74341 
  -74413   -74471   -74363   -74351   -74814   -75168   -74984   -74811 
  -75049   -75415   -75458   -75166   -74748   -74322   -74236   -74507 
  -74528   -74285   -74329   -74617   -74815   -74883   -74879   -74883 
  -74856   -74667   -74522   -74682   -74814   -74640   -74721   -75168 
  -75116   -74675   -74630   -74602   -74256   -74294   -74835   -75112 
  -74876   -74652   -74653   -74601   -74471   -74385   -74386   -74606 
  -74868   -74977   -75132   -75173   -74903   -74625   -74537   -74723 
  -75020   -75008   -74722   -74567   -74556   -74417   -74544   -75093 
  -75045   -74421   -74370   -74660   -74565   -74366   -74398   -74648 
  -74907   -74803   -74536   -74629   -74849   -74795   -74700   -74738 
  -74682   -74628   -74892   -75066   -74659   -74313   -74617   -74880 
  -74667   -74602   -74817   -74918   -74925   -74834   -74719   -74692 
  -74586   -74683   -75074   -75041   -74583   -74447   -74629   -74660 
  -74578   -74605   -74675   -74676   -74684   -74800   -74925   -74866 
  -74661   -74610   -74767   -74734   -74482   -74447   -74680   -74914 
  -75037   -74987   -74794   -74615   -74493   -74470   -74638   -74864 
  -74887   -74765   -74787   -74741   -74413   -74308   -74594   -74795 
  -74784   -74791   -74896   -74900   -74669   -74586   -74835   -74873 
  -74601   -74588   -74856   -74826   -74572   -74719   -74929   -74618 
  -74451   -74744   -74780   -74613   -74834   -75122   -74934   -74626 
  -74715   -74943   -74881   -74687   -74607   -74542   -74547   -74634 
  -74507   -74409   -74707   -74887   -74684   -74621   -74752   -74746 
  -74659   -74632   -74664   -74684   -74687   -74818   -74993   -74893 
  -74623   -74645   -74892   -74931   -74749   -74471   -74196   -74232 
  -74520   -74709   -74826   -74891   -74884   -74993   -75078   -74910 
  -74668   -74444   -74308   -74486   -74731   -74722   -74748   -74877 
  -74807   -74706   -74852   -74945   -74802   -74777   -74800   -74625 
  -74571   -74655   -74628   -74576   -74538   -74591   -74767   -74888 
  -74952   -74972   -74920   -74849   -74760   -74628   -74506   -74610 
  -74857   -74794   -74540   -74528   -74630   -74630   -74579   -74530 
  -74590   -74746   -74796   -74822   -75019   -75107   -74757   -74282 
  -74193   -74452   -74742   -74966   -75103   -75026   -74754   -74682 
  -74866   -74819   -74615   -74622   -74642   -74595   -74642   -74672 
  -74599   -74607   -74771   -74811   -74660   -74590   -74596   -74578 
  -74676   -74817   -74746   -74626   -74722   -74872   -74838   -74748 
  -74741   -74727   -74733   -74833   -74849   -74775   -74829   -74819 
  -74591   -74499   -74603   -74598   -74561   -74692   -74804   -74769 
  -74726   -74725   -74792   -74929   -74899   -74663   -74598   -74783 
  -74848   -74711   -74629   -74655   -74707   -74757   -74682   -74529 
  -74580   -74753   -74718   -74568   -74625   -74752   -74672   -74588 
  -74671   -74669   -74610   -74753   -74919   -74862   -74748   -74750 
  -74784   -74752   -74718   -74731   -74718   -74636   -74552   -74592 
  -74729   -74745   -74673   -74721   -74780   -74717   -74676   -74752 
  -74844   -74869   -74862   -74802   -74694   -74683   -74711   -74622 
  -74548   -74618   -74718   -74696   -74598   -74621   -74733   -74737 
  -74703   -74754   -74802   -74773   -74794   -74892   -74887   -74798 
  -74738   -74679   -74672   -74709   -74691   -74644   -74603   -74591 
  -74630   -74668   -74636   -74563   -74576   -74664   -74709   -74788 
  -74918   -74888   -74761   -74792   -74919   -74915   -74750   -74637 
  -74700   -74780   -74737   -74603   -74511   -74556   -74668   -74746 
  -74730   -74630   -74552   -74552   -74677   -74877   -74875   -74646 
  -74560   -74706   -74798   -74775   -74758   -74696   -74605   -74623 
  -74668   -74621   -74663   -74806   -74822   -74773   -74796   -74802 
  -74791   -74796   -74733   -74637   -74648   -74752   -74808   -74769 
  -74715   -74663   -74630   -74702   -74831   -74868   -74754   -74628 
  -74642   -74730   -74768   -74750   -74657   -74586   -74677   -74806 
  -74795   -74672   -74586   -74637   -74713   -74660   -74590   -74641 
  -74687   -74657   -74684   -74707   -74656   -74649   -74640   -74605 
  -74668   -74775   -74848   -74881   -74857   -74823   -74792   -74733 
  -74710   -74757   -74811   -74811   -74746   -74679   -74659   -74656 
  -74694   -74736   -74686   -74611   -74592   -74646   -74761   -74753 
  -74614   -74648   -74810   -74830   -74796   -74822   -74796   -74750 
  -74761   -74740   -74675   -74665   -74702   -74715   -74694   -74667 
  -74661   -74660   -74663   -74707   -74772   -74784   -74733   -74698 
  -74710   -74763   -74872   -74907   -74769   -74609   -74552   -74596 
  -74696   -74749   -74737   -74723   -74679   -74626   -74634   -74650 
  -74655   -74641   -74611   -74621   -74605   -74607   -74695   -74749 
  -74811   -74898   -74827   -74675   -74629   -74634   -74625   -74648 
  -74700   -74727   -74753   -74775   -74758   -74768   -74792   -74760 
  -74734   -74764   -74795   -74794   -74750   -74673   -74622   -74646 
