Origin Time       2025/03/28 11:34:00
Lat.              32.978
Long.             131.158
Depth. (km)       12
Mag.              2.7
Station Code      KMMH18
Station Lat.      33.0031
Station Long.     131.0071
Station Height(m) 932
Record Time       2025/03/28 11:35:01
Sampling Freq(Hz) 100Hz
Duration Time(s)  120
Dir.              5
Scale Factor      7845(gal)/8223790
Max. Acc. (gal)   2.531
Last Correction   2025/03/28 11:35:01
Memo.             
[...]
   -8603    -8608    -8611    -8610    -8611    -8611    -8603    -8599 
   -8603    -8608    -8607    -8607    -8606    -8604    -8606    -8607 
   -8603    -8602    -8607    -8611    -8611    -8613    -8611    -8606 
   -8603    -8606    -8606    -8606    -8604    -8603    -8602    -8600 
   -8603    -8611    -8611    -8607    -8608    -8607    -8604    -8603 
   -8606    -8608    -8606    -8607    -8607    -8604    -8607    -8608 
   -8606    -8608    -8614    -8608    -8602    -8602    -8598    -8599 
   -8610    -8611    -8608    -8613    -8610    -8603    -8604    -8608 
   -8604    -8604    -8607    -8603    -8598    -8604    -8613    -8613 
   -8614    -8615    -8608    -8600    -8602    -8606    -8607    -8607 
   -8603    -8602    -8607    -8608    -8608    -8614    -8613    -8608 
   -8607    -8604    -8603    -8604    -8603    -8600    -8606    -8610 
   -8611    -8611    -8607    -8602    -8604    -8606    -8603    -8604 
   -8606    -8599    -8595    -8600    -8604    -8610    -8617    -8618 
   -8614    -8607    -8603    -8603    -8607    -8610    -8607    -8606 
   -8607    -8606    -8606    -8607    -8606    -8610    -8615    -8611 
   -8602    -8596    -8596    -8598    -8604    -8613    -8611    -8611 
   -8618    -8613    -8599    -8599    -8604    -8607    -8610    -8611 
   -8607    -8604    -8604    -8603    -8602    -8604    -8607    -8610 
   -8611    -8610    -8606    -8602    -8606    -8606    -8604    -8611 
   -8614    -8607    -8603    -8603    -8600    -8602    -8607    -8608 
   -8604    -8606    -8610    -8610    -8604    -8602    -8603    -8604 
   -8610    -8608    -8604    -8608    -8613    -8608    -8602    -8599 
   -8604    -8613    -8614    -8608    -8603    -8602    -8602    -8606 
   -8608    -8614    -8617    -8611    -8607    -8600    -8586    -8586 
   -8600    -8615    -8626    -8630    -8623    -8606    -8590    -8584 
   -8590    -8600    -8614    -8625    -8625    -8614    -8599    -8590 
   -8591    -8604    -8615    -8613    -8610    -8613    -8608    -8599 
   -8596    -8604    -8613    -8615    -8615    -8607    -8598    -8602 
   -8606    -8603    -8608    -8615    -8614    -8608    -8603    -8598 
   -8595    -8599    -8610    -8621    -8618    -8608    -8603    -8595 
   -8588    -8596    -8608    -8613    -8623    -8630    -8622    -8604 
   -8590    -8584    -8596    -8613    -8618    -8618    -8615    -8607 
   -8599    -8598    -8604    -8606    -8611    -8619    -8610    -8596 
   -8596    -8594    -8592    -8608    -8623    -8630    -8626    -8610 
   -8592    -8584    -8588    -8602    -8615    -8623    -8618    -8607 
   -8604    -8603    -8600    -8604    -8613    -8613    -8608    -8607 
   -8603    -8599    -8602    -8603    -8610    -8621    -8622    -8613 
   -8603    -8594    -8591    -8598    -8610    -8619    -8618    -8611 
   -8606    -8603    -8606    -8607    -8607    -8610    -8614    -8613 
   -8607    -8600    -8596    -8599    -8610    -8614    -8614    -8619 
   -8614    -8602    -8603    -8604    -8600    -8607    -8614    -8603 
   -8595    -8603    -8606    -8604    -8614    -8613    -8604    -8607 
   -8607    -8599    -8602    -8610    -8610    -8613    -8618    -8613 
   -8603    -8602    -8599    -8598    -8607    -8611    -8611    -8617 
   -8611    -8595    -8594    -8600    -8606    -8611    -8613    -8613 
   -8614    -8607    -8600    -8598    -8599    -8607    -8619    -8618 
   -8608    -8599    -8595    -8599    -8606    -8613    -8608    -8602 
   -8615    -8623    -8604    -8595    -8599    -8595    -8602    -8619 
   -8618    -8608    -8608    -8600    -8596    -8604    -8604    -8603 
   -8610    -8617    -8613    -8599    -8596    -8606    -8606    -8614 
   -8623    -8606    -8594    -8602    -8591    -8591    -8617    -8617 
   -8608    -8625    -8619    -8598    -8598    -8602    -8599    -8600 
   -8607    -8613    -8617    -8617    -8610    -8599    -8596    -8600 
   -8596    -8595    -8613    -8619    -8611    -8619    -8619    -8598 
   -8590    -8598    -8596    -8602    -8623    -8629    -8621    -8614 
   -8598    -8586    -8590    -8588    -8600    -8627    -8627    -8619 
   -8615    -8591    -8587    -8604    -8604    -8608    -8621    -8610 
   -8603    -8608    -8600    -8594    -8603    -8613    -8622    -8625 
   -8608    -8599    -8596    -8588    -8596    -8613    -8623    -8629 
   -8619    -8600    -8591    -8586    -8584    -8604    -8626    -8627 
   -8622    -8614    -8598    -8586    -8591    -8606    -8611    -8617 
   -8627    -8614    -8590    -8595    -8600    -8595    -8614    -8630 
   -8622    -8614    -8606    -8594    -8584    -8587    -8610    -8629 
   -8623    -8618    -8610    -8590    -8586    -8598    -8606    -8618 
   -8627    -8622    -8607    -8594    -8592    -8598    -8607    -8622 
   -8623    -8613    -8611    -8599    -8583    -8592    -8607    -8610 
   -8619    -8629    -8615    -8596    -8591    -8592    -8599    -8611 
   -8622    -8621    -8607    -8604    -8603    -8587    -8592    -8613 
   -8617    -8619    -8625    -8610    -8592    -8595    -8604    -8604 
   -8610    -8618    -8617    -8608    -8598    -8595    -8598    -8603 
   -8618    -8619    -8606    -8603    -8602    -8595    -8604    -8610 
   -8602    -8613    -8625    -8607    -8596    -8600    -8592    -8592 
   -8614    -8618    -8617    -8622    -8611    -8600    -8600    -8596 
   -8602    -8610    -8610    -8614    -8614    -8599    -8594    -8602 
   -8607    -8615    -8615    -8607    -8606    -8603    -8595    -8598 
   -8606    -8619    -8629    -8621    -8606    -8599    -8591    -8591 
   -8603    -8604    -8608    -8622    -8622    -8610    -8604    -8595 
   -8594    -8604    -8613    -8615    -8613    -8606    -8606    -8602 
   -8599    -8610    -8613    -8610    -8619    -8611    -8591    -8596 
   -8602    -8599    -8617    -8623    -8610    -8611    -8604    -8592 
   -8602    -8606    -8603    -8613    -8614    -8607    -8606    -8599 
   -8595    -8608    -8614    -8614    -8615    -8608    -8600    -8599 
   -8599    -8600    -8608    -8614    -8618    -8619    -8611    -8603 
   -8599    -8595    -8604    -8615    -8613    -8614    -8611    -8602 
   -8598    -8596    -8603    -8614    -8614    -8615    -8613    -8598 
   -8596    -8606    -8600    -8600    -8617    -8618    -8608    -8608 
   -8604    -8599    -8608    -8615    -8610    -8606    -8607    -8603 
   -8599    -8603    -8603    -8602    -8611    -8626    -8622    -8604 
   -8596    -8598    -8599    -8604    -8606    -8610    -8621    -8621 
   -8607    -8591    -8590    -8603    -8610    -8613    -8615    -8608 
   -8611    -8614    -8598    -8586    -8599    -8618    -8623    -8614 
   -8599    -8595    -8603    -8606    -8604    -8604    -8608    -8618 
   -8617    -8599    -8594    -8602    -8610    -8617    -8613    -8603 
   -8608    -8611    -8596    -8594    -8599    -8607    -8617    -8617 
   -8608    -8607    -8606    -8608    -8604    -8594    -8600    -8621 
   -8619    -8604    -8603    -8600    -8604    -8613    -8600    -8592 
   -8613    -8622    -8615    -8606    -8595    -8602    -8611    -8607 
   -8608    -8610    -8606    -8613    -8610    -8598    -8603    -8614 
   -8618    -8618    -8603    -8592    -8600    -8606    -8604    -8606 
   -8611    -8617    -8615    -8604    -8598    -8598    -8602    -8607 
   -8608    -8608    -8613    -8615    -8611    -8598    -8592    -8602 
   -8611    -8610    -8610    -8613    -8610    -8604    -8603    -8598 
   -8599    -8614    -8621    -8607    -8599    -8607    -8610    -8607 
   -8610    -8611    -8610    -8613    -8607    -8596    -8602    -8610 
   -8607    -8610    -8614    -8606    -8602    -8606    -8604    -8598 
   -8603    -8613    -8618    -8615    -8607    -8603    -8603    -8603 
   -8602    -8602    -8608    -8618    -8621    -8611    -8603    -8602 
   -8602    -8603    -8611    -8611    -8607    -8608    -8610    -8604 
   -8600    -8602    -8606    -8613    -8614    -8608    -8603    -8604 
   -8604    -8602    -8610    -8617    -8610    -8607    -8604    -8598 
   -8603    -8610    -8608    -8606    -8608    -8614    -8611    -8600 
   -8595    -8600    -8608    -8615    -8615    -8608    -8607    -8610 
   -8607    -8600    -8595    -8599    -8611    -8618    -8614    -8603 
   -8600    -8607    -8606    -8604    -8608    -8606    -8608    -8618 
   -8611    -8599    -8606    -8614    -8606    -8606    -8611    -8600 
   -8596    -8611    -8611    -8603    -8610    -8614    -8604    -8603 
   -8611    -8606    -8599    -8608    -8615    -8607    -8604    -8607 
   -8603    -8602    -8608    -8611    -8604    -8604    -8613    -8613 
   -8606    -8608    -8607    -8599    -8604    -8614    -8608    -8602 
   -8606    -8610    -8607    -8603    -8604    -8604    -8606    -8613 
   -8610    -8603    -8607    -8613    -8608    -8604    -8603    -8600 
   -8607    -8615    -8607    -8598    -8606    -8613    -8608    -8603 
   -8604    -8606    -8608    -8615    -8613    -8599    -8600    -8615 
   -8617    -8608    -8606    -8604    -8603    -8606    -8608    -8606 
   -8606    -8611    -8611    -8603    -8602    -8608    -8610    -8607 
   -8606    -8607    -8611    -8613    -8608    -8600    -8600    -8610 
   -8611    -8603    -8607    -8611    -8606    -8606    -8611    -8603 
   -8603    -8615    -8613    -8600    -8602    -8608    -8608    -8607 
   -8610    -8608    -8604    -8611    -8610    -8599    -8600    -8615 
   -8613    -8602    -8604    -8606    -8607    -8613    -8610    -8599 
   -8602    -8611    -8611    -8606    -8604    -8608    -8610    -8607 
   -8607    -8604    -8599    -8610    -8618    -8606    -8600    -8608 
   -8608    -8603    -8604    -8604    -8606    -8610    -8611    -8603 
   -8600    -8610    -8611    -8603    -8600    -8603    -8604    -8608 
   -8611    -8608    -8606    -8608    -8611    -8604    -8599    -8602 
   -8607    -8610    -8611    -8610    -8603    -8604    -8613    -8607 
   -8600    -8606    -8610    -8606    -8607    -8607    -8606    -8610 
   -8613    -8606    -8603    -8607    -8608    -8608    -8607    -8606 
   -8606    -8607    -8608    -8604    -8602    -8608    -8613    -8604 
   -8602    -8607    -8610    -8611    -8611    -8603    -8599    -8607 
   -8614    -8610    -8604    -8603    -8608    -8608    -8600    -8599 
   -8606    -8610    -8613    -8608    -8604    -8608    -8613    -8606 
   -8600    -8606    -8608    -8607    -8608    -8607    -8602    -8603 
   -8611    -8610    -8602    -8603    -8608    -8611    -8610    -8604 
   -8600    -8604    -8613    -8611    -8603    -8602    -8607    -8606 
   -8603    -8603    -8607    -8614    -8615    -8611    -8602    -8598 
   -8602    -8606    -8603    -8603    -8611    -8614    -8607    -8604 
   -8603    -8604    -8610    -8608    -8604    -8607    -8606    -8603 
   -8608    -8611    -8606    -8604    -8606    -8606    -8604    -8606 
   -8607    -8608    -8607    -8607    -8603    -8602    -8607    -8608 
   -8606    -8608    -8611    -8607    -8604    -8604    -8604    -8606 
   -8603    -8602    -8603    -8607    -8611    -8608    -8603    -8604 
   -8606    -8606    -8611    -8614    -8606    -8599    -8602    -8603 
   -8603    -8603    -8604    -8611    -8615    -8608    -8600    -8599 
   -8600    -8600    -8584    -8540    -8487    -8500    -8645    -8869 
   -8999    -8897    -8580    -8233    -8090    -8229    -8523    -8808 
   -9012    -9107    -9022    -8729    -8361    -8098    -8012    -8086 
   -8289    -8588    -8973    -9290    -9290    -8957    -8511    -8222 
   -8224    -8402    -8521    -8530    -8604    -8762    -8939    -9204 
   -9332    -8954    -8406    -8197    -8056    -7744    -7632    -7927 
   -8486    -9076    -9378    -9256    -9026    -9051    -9132    -8860 
   -8330    -7938    -7894    -8171    -8595    -8951    -9157    -9170 
   -8822    -8205    -7815    -7913    -8352    -8922    -9325    -9309 
   -8954    -8452    -8001    -7902    -8202    -8586    -8841    -9003 
   -9004    -8680    -8209    -8090    -8521    -9059    -9274    -9246 
   -9022    -8563    -8224    -8221    -8176    -8019    -8241    -8830 
   -9147    -9031    -8804    -8611    -8490    -8411    -8217    -8014 
   -8124    -8549    -8980    -9188    -9193    -9099    -8885    -8542 
   -8259    -8225    -8386    -8561    -8630    -8604    -8604    -8617 
   -8518    -8418    -8511    -8722    -8833    -8765    -8599    -8498 
   -8569    -8644    -8563    -8500    -8534    -8500    -8476    -8656 
   -8870    -8849    -8681    -8613    -8676    -8726    -8658    -8522 
   -8453    -8517    -8607    -8637    -8625    -8567    -8511    -8515 
   -8465    -8367    -8440    -8699    -8888    -8874    -8738    -8588 
   -8517    -8538    -8618    -8729    -8773    -8692    -8573    -8460 
   -8375    -8434    -8613    -8741    -8812    -8850    -8702    -8421 
   -8274    -8203    -8118    -8306    -8739    -9020    -9090    -9020 
   -8860    -8746    -8650    -8515    -8374    -8260    -8361    -8716 
   -8982    -8927    -8703    -8580    -8550    -8401    -8183    -8160 
   -8397    -8702    -8858    -8800    -8668    -8653    -8749    -8760 
   -8621    -8486    -8514    -8727    -8927    -8838    -8503    -8229 
   -8208    -8475    -8800    -8839    -8695    -8627    -8563    -8510 
   -8592    -8591    -8413    -8376    -8521    -8622    -8766    -8943 
   -8892    -8723    -8703    -8784    -8868    -8835    -8599    -8334 
   -8151    -7874    -7493    -7242    -7160    -7227    -7805    -9072 
  -10412   -11168   -11260   -10835   -10131    -9471    -8892    -8166 
   -7381    -6990    -7045    -7253    -7670    -8372    -9117    -9736 
  -10080    -9838    -8877    -7669    -7069    -7329    -7743    -7663 
   -7400    -7607    -8293    -9177   -10153   -10816   -10667    -9882 
   -8941    -8060    -7473    -7462    -7992    -8680    -9011    -8741 
   -8338    -8445    -8811    -8733    -8405    -8438    -8623    -8554 
   -8363    -8135    -8013    -8271    -8586    -8694    -9161   -10123 
  -10638   -10014    -8645    -7469    -7186    -7682    -8182    -8164 
   -7793    -7619    -8168    -9220    -9821    -9676    -9575    -9899 
   -9894    -8935    -7522    -6583    -6660    -7589    -8484    -8712 
   -8542    -8476    -8738    -9185    -9382    -9221    -9045    -8954 
   -8810    -8661    -8480    -8125    -7869    -8149    -8826    -9393 
   -9514    -9086    -8387    -8046    -8274    -8660    -8827    -8716 
   -8515    -8502    -8665    -8671    -8360    -7983    -7894    -8168 
   -8525    -8683    -8765    -9054    -9458    -9610    -9313    -8665 
   -8048    -7920    -8291    -8660    -8714    -8602    -8541    -8567 
   -8631    -8775    -8999    -9073    -8810    -8286    -7700    -7296 
   -7241    -7526    -8109    -8839    -9386    -9517    -9378    -9281 
   -9278    -9234    -9121    -8943    -8688    -8399    -8112    -7911 
   -7962    -8298    -8676    -8816    -8822    -8915    -8951    -8796 
   -8671    -8676    -8677    -8680    -8703    -8615    -8414    -8274 
   -8267    -8357    -8526    -8708    -8831    -8880    -8787    -8505 
   -8216    -8139    -8251    -8410    -8571    -8743    -8887    -8953 
   -8918    -8781    -8567    -8359    -8307    -8414    -8486    -8479 
   -8572    -8803    -9012    -9058    -8903    -8622    -8428    -8438 
   -8553    -8671    -8808    -8891    -8796    -8564    -8353    -8283 
   -8364    -8498    -8530    -8402    -8291    -8402    -8669    -8858 
   -8861    -8800    -8752    -8662    -8611    -8683    -8718    -8633 
   -8614    -8702    -8703    -8645    -8699    -8776    -8746    -8654 
   -8495    -8217    -7915    -7778    -7916    -8230    -8542    -8775 
   -8911    -8977    -9058    -9126    -9058    -8883    -8741    -8716 
   -8788    -8842    -8770    -8615    -8553    -8648    -8723    -8565 
   -8237    -7994    -7942    -8028    -8194    -8343    -8401    -8446 
   -8595    -8808    -8968    -9022    -8951    -8793    -8708    -8761 
   -8843    -8893    -8896    -8838    -8810    -8824    -8761    -8644 
   -8602    -8567    -8426    -8266    -8167    -8147    -8271    -8459 
   -8550    -8633    -8766    -8795    -8698    -8600    -8538    -8544 
   -8610    -8604    -8517    -8546    -8718    -8793    -8715    -8657 
   -8707    -8789    -8773    -8604    -8413    -8336    -8357    -8398 
   -8424    -8445    -8482    -8533    -8559    -8559    -8608    -8731 
   -8849    -8915    -8928    -8901    -8849    -8748    -8607    -8538 
   -8600    -8695    -8726    -8691    -8607    -8505    -8460    -8519 
   -8604    -8596    -8500    -8430    -8432    -8437    -8422    -8459 
   -8568    -8667    -8694    -8664    -8599    -8559    -8600    -8680 
   -8692    -8606    -8500    -8479    -8595    -8804    -8947    -8938 
   -8866    -8788    -8667    -8545    -8491    -8472    -8453    -8448 
   -8469    -8479    -8453    -8486    -8614    -8699    -8669    -8615 
   -8584    -8560    -8564    -8569    -8518    -8457    -8467    -8521 
   -8563    -8595    -8630    -8676    -8741    -8766    -8719    -8680 
   -8692    -8688    -8625    -8559    -8586    -8669    -8665    -8576 
   -8542    -8569    -8561    -8527    -8521    -8518    -8536    -8631 
   -8742    -8784    -8807    -8816    -8731    -8576    -8446    -8390 
   -8437    -8553    -8640    -8675    -8688    -8668    -8611    -8583 
   -8618    -8667    -8669    -8634    -8599    -8572    -8548    -8545 
   -8553    -8563    -8586    -8604    -8602    -8579    -8567    -8603 
   -8672    -8719    -8721    -8681    -8615    -8557    -8537    -8536 
   -8533    -8542    -8560    -8559    -8563    -8603    -8645    -8657 
   -8646    -8626    -8604    -8596    -8581    -8554    -8564    -8631 
   -8718    -8775    -8761    -8675    -8564    -8487    -8459    -8444 
   -8422    -8415    -8440    -8500    -8594    -8691    -8773    -8837 
   -8850    -8802    -8735    -8687    -8661    -8658    -8652    -8623 
   -8622    -8667    -8673    -8617    -8592    -8633    -8649    -8615 
   -8577    -8537    -8490    -8468    -8448    -8433    -8456    -8461 
   -8429    -8456    -8553    -8631    -8669    -8692    -8694    -8681 
   -8671    -8668    -8654    -8626    -8613    -8607    -8594    -8614 
   -8695    -8775    -8806    -8780    -8696    -8580    -8483    -8425 
   -8394    -8432    -8563    -8681    -8677    -8613    -8581    -8556 
   -8523    -8532    -8561    -8619    -8725    -8779    -8703    -8599 
   -8579    -8610    -8650    -8702    -8718    -8665    -8599    -8557 
   -8526    -8514    -8534    -8588    -8627    -8594    -8545    -8572 
   -8618    -8584    -8506    -8467    -8469    -8491    -8534    -8577 
   -8611    -8665    -8729    -8769    -8753    -8694    -8671    -8706 
   -8723    -8718    -8734    -8748    -8734    -8702    -8637    -8545 
   -8471    -8414    -8368    -8379    -8448    -8517    -8584    -8677 
   -8752    -8768    -8753    -8723    -8677    -8614    -8556    -8560 
   -8622    -8641    -8595    -8579    -8619    -8623    -8553    -8459 
   -8384    -8372    -8434    -8496    -8511    -8546    -8633    -8694 
   -8684    -8640    -8614    -8615    -8638    -8683    -8716    -8712 
   -8700    -8707    -8748    -8811    -8826    -8762    -8675    -8607 
   -8557    -8515    -8488    -8476    -8463    -8440    -8433    -8492 
   -8580    -8621    -8644    -8687    -8692    -8622    -8541    -8538 
