Origin Time       2025/03/28 11:34:00
Lat.              32.978
Long.             131.158
Depth. (km)       12
Mag.              2.7
Station Code      KMMH05
Station Lat.      32.9553
Station Long.     131.2207
Station Height(m) 693
Record Time       2025/03/28 11:35:02
Sampling Freq(Hz) 100Hz
Duration Time(s)  120
Dir.              6
Scale Factor      7845(gal)/8223790
Max. Acc. (gal)   3.680
Last Correction   2025/03/28 11:35:02
Memo.             
[...]
  -14636   -14644   -14646   -14635   -14624   -14624   -14631   -14634 
  -14634   -14635   -14634   -14635   -14639   -14638   -14635   -14632 
  -14625   -14627   -14634   -14632   -14632   -14640   -14643   -14636 
  -14632   -14635   -14636   -14631   -14627   -14629   -14632   -14635 
  -14638   -14636   -14632   -14628   -14624   -14624   -14631   -14639 
  -14643   -14642   -14639   -14639   -14638   -14635   -14632   -14627 
  -14621   -14625   -14631   -14632   -14629   -14629   -14629   -14629 
  -14632   -14636   -14634   -14634   -14638   -14639   -14642   -14643 
  -14636   -14625   -14620   -14621   -14625   -14634   -14640   -14639 
  -14636   -14635   -14634   -14632   -14629   -14627   -14627   -14629 
  -14634   -14634   -14631   -14632   -14636   -14638   -14632   -14629 
  -14632   -14636   -14639   -14636   -14634   -14634   -14635   -14634 
  -14628   -14625   -14629   -14635   -14640   -14638   -14629   -14623 
  -14621   -14628   -14635   -14639   -14640   -14642   -14640   -14636 
  -14631   -14629   -14632   -14632   -14634   -14639   -14640   -14635 
  -14629   -14629   -14629   -14623   -14623   -14627   -14628   -14634 
  -14638   -14636   -14636   -14639   -14642   -14638   -14636   -14636 
  -14634   -14635   -14638   -14635   -14631   -14627   -14623   -14627 
  -14635   -14638   -14636   -14636   -14631   -14621   -14617   -14623 
  -14635   -14647   -14651   -14651   -14650   -14642   -14632   -14625 
  -14620   -14617   -14623   -14628   -14627   -14632   -14643   -14646 
  -14640   -14629   -14617   -14615   -14621   -14631   -14643   -14647 
  -14646   -14644   -14638   -14629   -14625   -14624   -14629   -14634 
  -14634   -14634   -14635   -14636   -14634   -14631   -14629   -14629 
  -14634   -14634   -14632   -14638   -14643   -14640   -14635   -14628 
  -14623   -14621   -14625   -14638   -14648   -14647   -14640   -14632 
  -14621   -14613   -14616   -14625   -14632   -14640   -14647   -14650 
  -14650   -14643   -14640   -14638   -14625   -14617   -14620   -14624 
  -14628   -14635   -14635   -14627   -14627   -14632   -14632   -14638 
  -14642   -14642   -14647   -14646   -14640   -14638   -14627   -14616 
  -14612   -14615   -14624   -14632   -14639   -14640   -14642   -14642 
  -14636   -14627   -14628   -14639   -14640   -14632   -14632   -14639 
  -14643   -14639   -14632   -14628   -14625   -14623   -14624   -14624 
  -14629   -14636   -14638   -14642   -14646   -14642   -14634   -14628 
  -14625   -14625   -14631   -14635   -14636   -14635   -14631   -14629 
  -14629   -14625   -14625   -14629   -14634   -14640   -14644   -14643 
  -14639   -14629   -14628   -14627   -14616   -14616   -14625   -14632 
  -14638   -14644   -14648   -14647   -14636   -14629   -14627   -14628 
  -14636   -14638   -14639   -14643   -14636   -14625   -14619   -14616 
  -14623   -14634   -14634   -14635   -14643   -14644   -14643   -14639 
  -14628   -14619   -14615   -14620   -14635   -14642   -14635   -14634 
  -14634   -14631   -14628   -14629   -14629   -14627   -14632   -14644 
  -14651   -14650   -14644   -14636   -14623   -14619   -14621   -14625 
  -14628   -14627   -14625   -14631   -14636   -14639   -14636   -14629 
  -14634   -14642   -14644   -14642   -14635   -14628   -14627   -14628 
  -14627   -14625   -14629   -14632   -14632   -14636   -14643   -14640 
  -14632   -14628   -14620   -14612   -14621   -14639   -14648   -14655 
  -14659   -14651   -14632   -14615   -14605   -14600   -14609   -14625 
  -14636   -14650   -14659   -14655   -14647   -14640   -14625   -14617 
  -14623   -14628   -14631   -14632   -14635   -14638   -14638   -14634 
  -14627   -14623   -14624   -14628   -14632   -14638   -14636   -14635 
  -14638   -14636   -14629   -14629   -14635   -14635   -14638   -14639 
  -14629   -14624   -14623   -14616   -14615   -14619   -14625   -14636 
  -14647   -14656   -14650   -14636   -14625   -14617   -14615   -14620 
  -14628   -14636   -14643   -14646   -14646   -14638   -14624   -14617 
  -14615   -14615   -14624   -14639   -14654   -14654   -14642   -14634 
  -14627   -14619   -14617   -14619   -14625   -14634   -14638   -14640 
  -14636   -14632   -14639   -14643   -14639   -14631   -14623   -14628 
  -14640   -14639   -14635   -14635   -14632   -14627   -14624   -14619 
  -14616   -14621   -14638   -14651   -14650   -14639   -14629   -14624 
  -14621   -14624   -14628   -14632   -14636   -14642   -14642   -14635 
  -14631   -14629   -14634   -14638   -14629   -14623   -14625   -14632 
  -14638   -14639   -14636   -14628   -14624   -14625   -14629   -14632 
  -14629   -14628   -14628   -14634   -14640   -14642   -14636   -14631 
  -14628   -14624   -14621   -14628   -14634   -14636   -14638   -14638 
  -14636   -14632   -14631   -14631   -14634   -14639   -14642   -14638 
  -14632   -14629   -14628   -14629   -14627   -14619   -14616   -14621 
  -14628   -14635   -14643   -14646   -14643   -14643   -14644   -14635 
  -14627   -14624   -14621   -14617   -14624   -14636   -14642   -14644 
  -14647   -14647   -14643   -14631   -14611   -14597   -14604   -14628 
  -14648   -14658   -14662   -14654   -14639   -14631   -14623   -14617 
  -14625   -14638   -14636   -14621   -14619   -14631   -14638   -14634 
  -14627   -14625   -14629   -14634   -14639   -14642   -14634   -14625 
  -14628   -14629   -14627   -14631   -14635   -14638   -14642   -14639 
  -14634   -14635   -14632   -14628   -14634   -14639   -14639   -14631 
  -14625   -14628   -14634   -14631   -14625   -14631   -14640   -14640 
  -14636   -14632   -14628   -14627   -14629   -14625   -14620   -14620 
  -14628   -14640   -14652   -14655   -14650   -14644   -14639   -14628 
  -14620   -14617   -14616   -14621   -14628   -14628   -14627   -14629 
  -14635   -14639   -14642   -14638   -14627   -14624   -14635   -14646 
  -14643   -14628   -14612   -14615   -14631   -14650   -14658   -14646 
  -14627   -14619   -14627   -14635   -14624   -14613   -14620   -14631 
  -14638   -14646   -14648   -14640   -14631   -14631   -14636   -14636 
  -14635   -14639   -14632   -14617   -14617   -14621   -14623   -14632 
  -14643   -14644   -14638   -14628   -14625   -14632   -14639   -14640 
  -14636   -14634   -14644   -14651   -14642   -14635   -14628   -14617 
  -14613   -14612   -14615   -14632   -14651   -14650   -14638   -14629 
  -14625   -14628   -14639   -14639   -14636   -14636   -14643   -14651 
  -14644   -14625   -14617   -14625   -14623   -14611   -14620   -14638 
  -14636   -14643   -14655   -14647   -14629   -14625   -14627   -14628 
  -14632   -14635   -14634   -14634   -14635   -14631   -14631   -14635 
  -14632   -14632   -14635   -14628   -14632   -14650   -14647   -14631 
  -14631   -14643   -14636   -14619   -14624   -14634   -14632   -14640 
  -14647   -14635   -14620   -14623   -14628   -14629   -14636   -14638 
  -14631   -14635   -14638   -14632   -14636   -14643   -14640   -14636 
  -14635   -14631   -14623   -14620   -14632   -14640   -14638   -14640 
  -14636   -14620   -14616   -14623   -14628   -14629   -14631   -14636 
  -14650   -14655   -14644   -14634   -14624   -14611   -14609   -14617 
  -14628   -14636   -14647   -14652   -14647   -14643   -14642   -14627 
  -14619   -14615   -14611   -14621   -14635   -14648   -14656   -14647 
  -14632   -14624   -14628   -14636   -14638   -14636   -14639   -14642 
  -14632   -14615   -14611   -14625   -14643   -14642   -14634   -14636 
  -14639   -14639   -14639   -14634   -14623   -14617   -14624   -14628 
  -14634   -14648   -14654   -14644   -14636   -14631   -14623   -14621 
  -14628   -14639   -14644   -14638   -14632   -14625   -14615   -14612 
  -14621   -14632   -14638   -14647   -14652   -14646   -14640   -14638 
  -14629   -14624   -14620   -14615   -14621   -14628   -14635   -14651 
  -14661   -14652   -14643   -14636   -14624   -14615   -14611   -14613 
  -14625   -14642   -14650   -14648   -14644   -14643   -14642   -14627 
  -14619   -14627   -14631   -14628   -14625   -14627   -14634   -14639 
  -14640   -14642   -14636   -14624   -14616   -14620   -14638   -14647 
  -14642   -14639   -14646   -14644   -14628   -14617   -14617   -14616 
  -14623   -14640   -14651   -14652   -14654   -14646   -14623   -14602 
  -14602   -14617   -14635   -14648   -14659   -14656   -14636   -14625 
  -14624   -14621   -14621   -14624   -14636   -14643   -14646   -14655 
  -14652   -14636   -14621   -14615   -14619   -14628   -14631   -14636 
  -14650   -14650   -14639   -14639   -14635   -14620   -14623   -14635 
  -14636   -14638   -14642   -14638   -14631   -14629   -14628   -14625 
  -14620   -14623   -14638   -14650   -14651   -14647   -14634   -14615 
  -14609   -14621   -14635   -14646   -14651   -14658   -14661   -14647 
  -14624   -14607   -14600   -14597   -14600   -14617   -14635   -14646 
  -14662   -14674   -14669   -14659   -14640   -14613   -14602   -14605 
  -14609   -14612   -14624   -14643   -14648   -14644   -14638   -14629 
  -14629   -14636   -14646   -14643   -14636   -14635   -14634   -14629 
  -14636   -14642   -14638   -14639   -14643   -14632   -14620   -14621 
  -14621   -14609   -14602   -14620   -14639   -14638   -14639   -14650 
  -14647   -14638   -14644   -14654   -14647   -14634   -14624   -14621 
  -14627   -14631   -14634   -14635   -14632   -14627   -14623   -14621 
  -14629   -14639   -14636   -14632   -14635   -14639   -14638   -14635 
  -14634   -14631   -14627   -14627   -14631   -14644   -14650   -14643 
  -14638   -14625   -14612   -14616   -14628   -14638   -14648   -14658 
  -14656   -14647   -14635   -14623   -14611   -14602   -14605   -14616 
  -14628   -14635   -14638   -14646   -14652   -14648   -14644   -14642 
  -14635   -14629   -14634   -14642   -14642   -14628   -14615   -14616 
  -14623   -14629   -14638   -14642   -14638   -14636   -14638   -14632 
  -14627   -14631   -14636   -14635   -14640   -14650   -14650   -14636 
  -14627   -14627   -14621   -14616   -14613   -14612   -14624   -14642 
  -14647   -14644   -14640   -14638   -14642   -14643   -14634   -14628 
  -14632   -14635   -14638   -14646   -14636   -14620   -14631   -14647 
  -14646   -14643   -14640   -14631   -14625   -14625   -14621   -14620 
  -14624   -14631   -14636   -14635   -14638   -14644   -14648   -14646 
  -14634   -14621   -14621   -14629   -14634   -14635   -14643   -14646 
  -14644   -14651   -14648   -14634   -14628   -14628   -14619   -14612 
  -14613   -14615   -14619   -14635   -14652   -14655   -14650   -14648 
  -14643   -14636   -14632   -14628   -14631   -14636   -14628   -14617 
  -14613   -14615   -14621   -14635   -14650   -14651   -14647   -14652 
  -14655   -14642   -14624   -14621   -14624   -14621   -14623   -14625 
  -14636   -14651   -14652   -14640   -14623   -14613   -14627   -14644 
  -14644   -14640   -14639   -14639   -14642   -14646   -14636   -14616 
  -14615   -14628   -14631   -14628   -14628   -14628   -14632   -14640 
  -14642   -14632   -14624   -14624   -14625   -14632   -14646   -14648 
  -14642   -14640   -14638   -14632   -14632   -14634   -14635   -14644 
  -14651   -14652   -14646   -14632   -14619   -14609   -14602   -14602 
  -14612   -14627   -14642   -14658   -14662   -14651   -14640   -14632 
  -14629   -14628   -14624   -14625   -14629   -14631   -14638   -14647 
  -14656   -14648   -14625   -14617   -14620   -14627   -14638   -14643 
  -14636   -14627   -14620   -14619   -14629   -14647   -14655   -14643 
  -14625   -14615   -14611   -14617   -14631   -14644   -14646   -14642 
  -14642   -14643   -14644   -14648   -14644   -14628   -14616   -14620 
  -14625   -14627   -14635   -14643   -14638   -14629   -14627   -14632 
  -14639   -14636   -14631   -14625   -14627   -14635   -14644   -14642 
  -14624   -14601   -14573   -14544   -14561   -14694   -14916   -15037 
  -14916   -14624   -14347   -14218   -14246   -14377   -14543   -14631 
  -14602   -14639   -14899   -15186   -15172   -14836   -14384   -14115 
  -14300   -14779   -15028   -14862   -14561   -14397   -14426   -14563 
  -14713   -14717   -14435   -14100   -14185   -14679   -15059   -15036 
  -14779   -14616   -14740   -14999   -15017   -14696   -14366   -14293 
  -14399   -14567   -14750   -14763   -14546   -14370   -14428   -14600 
  -14705   -14665   -14511   -14435   -14629   -14948   -15001   -14777 
  -14693   -14855   -14902   -14737   -14555   -14339   -14165   -14276 
  -14523   -14636   -14669   -14688   -14755   -14898   -14875   -14620 
  -14392   -14300   -14411   -14713   -14887   -14814   -14740   -14740 
  -14679   -14536   -14446   -14501   -14654   -14809   -14922   -14998 
  -14909   -14503   -14137   -14250   -14505   -14442   -14251   -14254 
  -14500   -14908   -15228   -15195   -14889   -14647   -14632   -14638 
  -14580   -14620   -14611   -14449   -14413   -14565   -14728   -14759 
  -14619   -14503   -14520   -14611   -14736   -14715   -14500   -14408 
  -14480   -14582   -14804   -15043   -15103   -14985   -14704   -14415 
  -14320   -14284   -14220   -14326   -14462   -14470   -14654   -15072 
  -15357   -15255   -14709   -14072   -14046   -14612   -14905   -14670 
  -14450   -14439   -14488   -14571   -14575   -14411   -14338   -14696 
  -15338   -15745   -15708   -15323   -14805   -14512   -14408   -14134 
  -13593   -12858   -12440   -13147   -14674   -15705   -15739   -15259 
  -14878   -15128   -16127   -17138   -17077   -15781   -13957   -12399 
  -11786   -12276   -13481   -14693   -14963   -14385   -14412   -15522 
  -16425   -16105   -15041   -14478   -14742   -14824   -14134   -13173 
  -12515   -12577   -13649   -15572   -17556   -18490   -17678   -15360 
  -12852   -11569   -11565   -12244   -13406   -14918   -16391   -16999 
  -16532   -15896   -15466   -15024   -14588   -13952   -13146   -12742 
  -12899   -13563   -14670   -15511   -15703   -15844   -16087   -16020 
  -15489   -14299   -12920   -12744   -14034   -15395   -15556   -14544 
  -13385   -13074   -13964   -15697   -17058   -16696   -14801   -13093 
  -12810   -13548   -14335   -14913   -15430   -15813   -15784   -15125 
  -13900   -12641   -12353   -13451   -15028   -16073   -16395   -16114 
  -15503   -15101   -15009   -14785   -14242   -13633   -13356   -13621 
  -14119   -14384   -14450   -14647   -15179   -15975   -16410   -15840 
  -14501   -13294   -12966   -13441   -14044   -14478   -14914   -15360 
  -15641   -15562   -15072   -14474   -14141   -14249   -14758   -15345 
  -15603   -15313   -14553   -13711   -13062   -12642   -12645   -13290 
  -14604   -16191   -17231   -17371   -16848   -15745   -14245   -12841 
  -11928   -11765   -12463   -13846   -15526   -16825   -17154   -16615 
  -15677   -14623   -13825   -13709   -14088   -14480   -14743   -14875 
  -14833   -14505   -14017   -13887   -14202   -14500   -14670   -14871 
  -14904   -14661   -14490   -14492   -14438   -14419   -14662   -15080 
  -15468   -15649   -15392   -14759   -14173   -13888   -13838   -13896 
  -14026   -14332   -14758   -15020   -15078   -15053   -14943   -14825 
  -14782   -14704   -14609   -14581   -14509   -14397   -14353   -14327 
  -14314   -14399   -14624   -14933   -15165   -15221   -15145   -14932 
  -14566   -14181   -13896   -13825   -14073   -14554   -15095   -15472 
  -15441   -14967   -14310   -13932   -14141   -14801   -15522   -15894 
  -15604   -14770   -13887   -13321   -13178   -13402   -13957   -14716 
  -15252   -15321   -15082   -14774   -14535   -14422   -14602   -14970 
  -15097   -15072   -15172   -15269   -15156   -14713   -14156   -13836 
  -13698   -13703   -13969   -14368   -14702   -14902   -15075   -15344 
  -15476   -15223   -14666   -14114   -13999   -14388   -14897   -15263 
  -15331   -14979   -14451   -14116   -14067   -14207   -14413   -14634 
  -14782   -14759   -14651   -14513   -14315   -14142   -14096   -14264 
  -14716   -15296   -15642   -15579   -15215   -14706   -14247   -14045 
  -14125   -14407   -14801   -15118   -15152   -14893   -14557   -14343 
  -14208   -14052   -13934   -13984   -14261   -14608   -14821   -14979 
  -15121   -15103   -14991   -15017   -15186   -15211   -14939   -14527 
  -14161   -13830   -13576   -13635   -14022   -14519   -15106   -15639 
  -15788   -15610   -15340   -15028   -14728   -14457   -14203   -14031 
  -13936   -13873   -13921   -14193   -14639   -14964   -15030   -15036 
  -15034   -14843   -14492   -14247   -14257   -14415   -14590   -14755 
  -14858   -14866   -14821   -14785   -14821   -14877   -14818   -14659 
  -14553   -14508   -14372   -14172   -14110   -14189   -14327   -14546 
  -14802   -15017   -15160   -15129   -14852   -14527   -14446   -14674 
  -14999   -15140   -15018   -14810   -14604   -14320   -14122   -14246 
  -14493   -14571   -14612   -14781   -14893   -14779   -14565   -14435 
  -14440   -14484   -14488   -14511   -14557   -14534   -14503   -14615 
  -14754   -14679   -14481   -14466   -14692   -14905   -14925   -14812 
  -14688   -14574   -14469   -14450   -14571   -14725   -14779   -14786 
  -14836   -14887   -14895   -14894   -14910   -14850   -14592   -14273 
  -14173   -14287   -14350   -14261   -14189   -14300   -14505   -14693 
  -14891   -15047   -15078   -15013   -14847   -14617   -14462   -14454 
  -14547   -14659   -14735   -14747   -14693   -14644   -14670   -14654 
  -14476   -14247   -14108   -14127   -14397   -14814   -15110   -15232 
  -15273   -15232   -15028   -14639   -14234   -14050   -14121   -14308 
  -14543   -14769   -14833   -14712   -14569   -14486   -14432   -14449 
  -14578   -14764   -14918   -15016   -15014   -14800   -14422   -14173 
  -14256   -14571   -14945   -15215   -15217   -14989   -14700   -14407 
  -14129   -13969   -14030   -14261   -14461   -14544   -14644   -14728 
  -14673   -14648   -14814   -15030   -15120   -15041   -14829   -14580 
  -14401   -14330   -14370   -14527   -14716   -14850   -14910   -14855 
  -14692   -14523   -14424   -14428   -14561   -14773   -14872   -14728 
  -14523   -14480   -14551   -14609   -14585   -14509   -14516   -14582 
  -14598   -14612   -14658   -14696   -14716   -14729   -14778   -14839 
  -14802   -14662   -14512   -14415   -14366   -14338   -14365   -14478 
  -14621   -14759   -14866   -14858   -14750   -14682   -14665   -14636 
  -14620   -14659   -14737   -14787   -14732   -14574   -14457   -14481 
  -14580   -14686   -14777   -14818   -14820   -14798   -14692   -14512 
  -14377   -14364   -14492   -14689   -14774   -14694   -14586   -14519 
  -14465   -14451   -14485   -14493   -14481   -14534   -14629   -14709 
  -14781   -14854   -14921   -14985   -15006   -14926   -14733   -14499 
  -14350   -14332   -14408   -14523   -14611   -14646   -14604   -14540 
  -14616   -14810   -14928   -14890   -14750   -14602   -14496   -14385 
  -14305   -14373   -14516   -14586   -14607   -14663   -14744   -14777 
  -14698   -14554   -14477   -14520   -14628   -14758   -14859   -14936 
  -14999   -14941   -14724   -14515   -14469   -14534   -14561   -14531 
  -14520   -14511   -14451   -14436   -14553   -14701   -14755   -14705 
  -14661   -14692   -14683   -14565   -14493   -14573   -14709   -14783 
  -14777   -14731   -14643   -14484   -14355   -14385   -14546   -14743 
  -14928   -15021   -14958   -14785   -14594   -14415   -14269   -14222 
  -14308   -14512   -14721   -14816   -14820   -14809   -14782   -14725 
  -14681   -14690   -14697   -14644   -14616   -14671   -14716   -14665 
  -14562   -14492   -14492   -14538   -14598   -14673   -14731   -14712 
