Origin Time       2025/03/28 11:34:00
Lat.              32.978
Long.             131.158
Depth. (km)       12
Mag.              2.7
Station Code      KMMH02
Station Lat.      33.1220
Station Long.     131.0629
Station Height(m) 306.45
Record Time       2025/03/28 11:35:05
Sampling Freq(Hz) 100Hz
Duration Time(s)  120
Dir.              1
Scale Factor      2942(gal)/8224139
Max. Acc. (gal)   0.677
Last Correction   2025/03/28 11:35:05
Memo.             
[...]
  -53491   -53488   -53489   -53489   -53496   -53503   -53501   -53497 
  -53496   -53499   -53497   -53499   -53501   -53499   -53499   -53501 
  -53497   -53492   -53491   -53492   -53492   -53496   -53495   -53491 
  -53491   -53493   -53495   -53493   -53495   -53499   -53500   -53500 
  -53497   -53496   -53492   -53491   -53495   -53500   -53499   -53497 
  -53500   -53500   -53500   -53497   -53493   -53496   -53497   -53496 
  -53495   -53496   -53497   -53497   -53496   -53493   -53497   -53499 
  -53495   -53496   -53499   -53495   -53495   -53497   -53499   -53500 
  -53500   -53497   -53495   -53493   -53497   -53503   -53501   -53500 
  -53504   -53505   -53497   -53493   -53501   -53501   -53492   -53493 
  -53499   -53496   -53495   -53500   -53500   -53493   -53492   -53497 
  -53496   -53491   -53493   -53499   -53499   -53501   -53503   -53501 
  -53496   -53493   -53497   -53503   -53499   -53492   -53496   -53503 
  -53501   -53497   -53497   -53496   -53497   -53499   -53493   -53492 
  -53497   -53500   -53499   -53499   -53500   -53499   -53493   -53495 
  -53497   -53495   -53496   -53503   -53504   -53499   -53499   -53504 
  -53503   -53496   -53492   -53493   -53491   -53489   -53496   -53503 
  -53501   -53496   -53496   -53497   -53495   -53495   -53503   -53504 
  -53497   -53495   -53499   -53501   -53497   -53499   -53503   -53496 
  -53491   -53497   -53500   -53499   -53501   -53503   -53499   -53499 
  -53499   -53496   -53496   -53499   -53500   -53500   -53496   -53493 
  -53497   -53497   -53493   -53496   -53499   -53499   -53497   -53496 
  -53492   -53495   -53501   -53504   -53500   -53492   -53492   -53499 
  -53495   -53492   -53496   -53497   -53495   -53497   -53500   -53497 
  -53495   -53496   -53499   -53495   -53491   -53495   -53497   -53497 
  -53500   -53499   -53495   -53492   -53493   -53500   -53503   -53497 
  -53497   -53500   -53499   -53497   -53496   -53495   -53495   -53496 
  -53499   -53497   -53495   -53497   -53499   -53495   -53495   -53500 
  -53503   -53500   -53497   -53496   -53495   -53496   -53499   -53499 
  -53500   -53501   -53500   -53496   -53495   -53496   -53497   -53499 
  -53501   -53500   -53495   -53493   -53495   -53499   -53500   -53500 
  -53497   -53495   -53495   -53497   -53500   -53500   -53499   -53499 
  -53500   -53496   -53492   -53492   -53496   -53499   -53503   -53500 
  -53497   -53499   -53497   -53489   -53487   -53496   -53504   -53501 
  -53500   -53501   -53497   -53493   -53493   -53497   -53501   -53500 
  -53499   -53497   -53492   -53489   -53495   -53501   -53501   -53499 
  -53501   -53503   -53496   -53491   -53493   -53496   -53497   -53500 
  -53497   -53495   -53499   -53500   -53493   -53492   -53496   -53497 
  -53497   -53499   -53500   -53497   -53497   -53501   -53504   -53500 
  -53492   -53491   -53495   -53499   -53501   -53500   -53500   -53497 
  -53491   -53487   -53493   -53497   -53496   -53496   -53501   -53503 
  -53500   -53500   -53501   -53500   -53497   -53497   -53501   -53497 
  -53491   -53496   -53501   -53501   -53499   -53499   -53496   -53492 
  -53492   -53495   -53495   -53497   -53503   -53503   -53496   -53493 
  -53497   -53499   -53496   -53495   -53496   -53497   -53497   -53496 
  -53497   -53503   -53505   -53503   -53499   -53497   -53495   -53493 
  -53493   -53496   -53499   -53500   -53503   -53501   -53492   -53485 
  -53488   -53492   -53499   -53503   -53505   -53503   -53496   -53492 
  -53493   -53497   -53501   -53503   -53500   -53500   -53499   -53496 
  -53492   -53493   -53500   -53500   -53497   -53499   -53499   -53495 
  -53493   -53497   -53499   -53496   -53495   -53497   -53496   -53491 
  -53488   -53491   -53495   -53499   -53497   -53499   -53500   -53500 
  -53499   -53497   -53495   -53492   -53499   -53507   -53504   -53497 
  -53499   -53500   -53495   -53488   -53487   -53492   -53495   -53493 
  -53499   -53500   -53493   -53492   -53497   -53499   -53496   -53496 
  -53496   -53493   -53493   -53495   -53491   -53492   -53497   -53496 
  -53493   -53493   -53495   -53496   -53497   -53499   -53500   -53497 
  -53495   -53496   -53500   -53499   -53493   -53493   -53492   -53492 
  -53495   -53500   -53499   -53491   -53489   -53493   -53493   -53495 
  -53497   -53501   -53505   -53504   -53497   -53493   -53491   -53493 
  -53497   -53492   -53493   -53499   -53499   -53499   -53500   -53495 
  -53491   -53492   -53495   -53496   -53500   -53505   -53504   -53495 
  -53489   -53491   -53492   -53495   -53497   -53499   -53499   -53499 
  -53499   -53496   -53493   -53491   -53496   -53503   -53503   -53499 
  -53497   -53496   -53497   -53496   -53496   -53492   -53492   -53496 
  -53497   -53495   -53497   -53503   -53503   -53497   -53496   -53499 
  -53497   -53496   -53500   -53500   -53495   -53495   -53500   -53497 
  -53489   -53489   -53500   -53503   -53499   -53503   -53504   -53496 
  -53493   -53500   -53501   -53497   -53495   -53492   -53491   -53495 
  -53499   -53497   -53493   -53496   -53504   -53499   -53491   -53495 
  -53499   -53497   -53497   -53500   -53500   -53495   -53497   -53501 
  -53500   -53497   -53497   -53499   -53497   -53493   -53496   -53501 
  -53497   -53496   -53503   -53500   -53491   -53496   -53504   -53501 
  -53499   -53499   -53497   -53495   -53496   -53499   -53497   -53499 
  -53501   -53500   -53493   -53488   -53496   -53504   -53503   -53501 
  -53496   -53492   -53492   -53493   -53496   -53496   -53495   -53499 
  -53500   -53495   -53492   -53496   -53501   -53500   -53501   -53501 
  -53497   -53495   -53500   -53503   -53497   -53493   -53496   -53500 
  -53501   -53501   -53500   -53493   -53488   -53493   -53500   -53497 
  -53496   -53497   -53495   -53489   -53488   -53495   -53501   -53501 
  -53497   -53496   -53495   -53495   -53497   -53503   -53503   -53499 
  -53493   -53493   -53495   -53499   -53504   -53503   -53492   -53488 
  -53492   -53496   -53495   -53496   -53500   -53501   -53500   -53497 
  -53492   -53491   -53497   -53505   -53501   -53493   -53493   -53497 
  -53497   -53493   -53496   -53501   -53500   -53496   -53496   -53495 
  -53495   -53496   -53497   -53496   -53492   -53496   -53501   -53500 
  -53497   -53496   -53493   -53493   -53499   -53501   -53497   -53495 
  -53495   -53493   -53493   -53499   -53505   -53503   -53496   -53492 
  -53489   -53493   -53500   -53500   -53499   -53497   -53500   -53501 
  -53496   -53493   -53501   -53504   -53497   -53495   -53497   -53497 
  -53493   -53492   -53497   -53499   -53497   -53497   -53501   -53497 
  -53492   -53497   -53503   -53500   -53500   -53499   -53493   -53492 
  -53497   -53507   -53507   -53497   -53495   -53495   -53492   -53489 
  -53496   -53504   -53500   -53493   -53497   -53497   -53493   -53497 
  -53505   -53505   -53499   -53496   -53499   -53501   -53499   -53495 
  -53499   -53501   -53497   -53496   -53500   -53500   -53496   -53497 
  -53500   -53499   -53497   -53497   -53496   -53497   -53503   -53503 
  -53497   -53495   -53493   -53495   -53496   -53497   -53499   -53497 
  -53497   -53497   -53495   -53495   -53500   -53499   -53496   -53496 
  -53493   -53492   -53495   -53497   -53496   -53495   -53496   -53497 
  -53496   -53499   -53503   -53504   -53497   -53491   -53495   -53497 
  -53493   -53491   -53495   -53493   -53491   -53496   -53501   -53496 
  -53493   -53499   -53503   -53496   -53493   -53500   -53499   -53495 
  -53497   -53499   -53493   -53495   -53505   -53501   -53489   -53493 
  -53504   -53496   -53485   -53493   -53505   -53496   -53487   -53493 
  -53500   -53495   -53492   -53500   -53501   -53491   -53492   -53500 
  -53497   -53491   -53495   -53496   -53488   -53485   -53496   -53503 
  -53495   -53493   -53501   -53501   -53495   -53495   -53496   -53492 
  -53493   -53501   -53500   -53489   -53487   -53496   -53497   -53493 
  -53495   -53499   -53497   -53495   -53497   -53497   -53491   -53491 
  -53500   -53501   -53495   -53496   -53501   -53492   -53488   -53496 
  -53496   -53489   -53496   -53507   -53501   -53491   -53495   -53500 
  -53492   -53489   -53500   -53504   -53493   -53493   -53501   -53499 
  -53493   -53499   -53505   -53495   -53485   -53496   -53501   -53491 
  -53492   -53504   -53500   -53488   -53493   -53504   -53496   -53489 
  -53501   -53504   -53491   -53493   -53511   -53508   -53489   -53491 
  -53503   -53495   -53487   -53500   -53508   -53493   -53489   -53505 
  -53508   -53492   -53491   -53504   -53500   -53488   -53493   -53501 
  -53496   -53492   -53503   -53508   -53499   -53496   -53504   -53499 
  -53489   -53496   -53504   -53495   -53492   -53505   -53507   -53497 
  -53499   -53505   -53499   -53489   -53496   -53504   -53493   -53488 
  -53500   -53504   -53492   -53489   -53499   -53501   -53492   -53496 
  -53504   -53493   -53485   -53497   -53508   -53499   -53497   -53509 
  -53505   -53491   -53495   -53505   -53495   -53484   -53499   -53509 
  -53496   -53482   -53495   -53507   -53499   -53493   -53500   -53497 
  -53493   -53501   -53505   -53496   -53491   -53497   -53499   -53488 
  -53485   -53495   -53500   -53499   -53503   -53505   -53497   -53492 
  -53499   -53504   -53499   -53496   -53499   -53496   -53495   -53500 
  -53504   -53499   -53492   -53495   -53499   -53495   -53496   -53504 
  -53500   -53491   -53495   -53501   -53499   -53500   -53504   -53501 
  -53497   -53497   -53496   -53495   -53496   -53499   -53499   -53497 
  -53500   -53497   -53489   -53488   -53493   -53499   -53497   -53492 
  -53493   -53500   -53504   -53503   -53500   -53503   -53505   -53504 
  -53499   -53495   -53492   -53493   -53497   -53499   -53496   -53493 
  -53493   -53497   -53500   -53497   -53495   -53496   -53501   -53501 
  -53497   -53495   -53497   -53500   -53500   -53499   -53499   -53497 
  -53493   -53491   -53493   -53496   -53496   -53500   -53503   -53497 
  -53489   -53488   -53495   -53500   -53501   -53501   -53500   -53495 
  -53492   -53496   -53500   -53499   -53501   -53504   -53497   -53488 
  -53493   -53500   -53499   -53497   -53500   -53496   -53488   -53495 
  -53505   -53504   -53503   -53503   -53500   -53495   -53493   -53497 
  -53503   -53500   -53497   -53496   -53492   -53489   -53493   -53499 
  -53501   -53500   -53500   -53497   -53496   -53497   -53500   -53500 
  -53500   -53501   -53501   -53497   -53493   -53491   -53491   -53495 
  -53499   -53497   -53489   -53487   -53492   -53495   -53493   -53493 
  -53501   -53509   -53505   -53501   -53500   -53496   -53492   -53492 
  -53496   -53499   -53495   -53480   -53462   -53439   -53423   -53439 
  -53480   -53509   -53491   -53449   -53485   -53665   -53874   -53866 
  -53507   -53055   -53021   -53507   -53931   -53842   -53549   -53441 
  -53315   -53073   -53145   -53588   -53766   -53473   -53299   -53523 
  -53647   -53411   -53331   -53680   -53839   -53491   -53333   -53707 
  -53890   -53545   -53330   -53469   -53366   -53044   -53153   -53650 
  -53848   -53493   -53091   -53198   -53638   -53773   -53512   -53408 
  -53515   -53426   -53431   -53842   -54020   -53663   -53524   -53828 
  -53752   -53225   -53185   -53597   -53434   -52760   -52712   -53441 
  -53898   -53746   -53600   -53642   -53647   -53689   -53784   -53655 
  -53392   -53423   -53496   -53083   -52721   -53122   -53663   -53639 
  -53619   -53941   -53812   -53114   -53023   -53773   -54051   -53608 
  -53589   -53840   -53419   -53053   -53617   -53951   -53230   -52913 
  -53759   -54062   -53069   -52704   -53682   -54068   -53308   -53084 
  -53744   -53970   -53491   -53292   -53451   -53244   -53023   -53434 
  -53863   -53613   -53179   -53397   -53970   -53873   -53307   -53302 
  -53678   -53572   -53283   -53563   -53893   -53581   -53291   -53472 
  -53461   -53198   -53419   -53867   -53600   -53122   -53518   -53967 
  -53424   -52972   -53527   -53958   -53530   -53376   -53775   -53430 
  -52705   -53152   -54013   -53611   -52812   -53300   -54237   -54025 
  -53357   -53605   -54001   -53381   -52878   -53511   -53901   -53280 
  -53014   -53636   -53932   -53538   -53341   -53329   -53106   -53280 
  -53844   -53746   -53153   -53276   -53975   -54081   -53593   -53396 
  -53414   -53117   -53045   -53631   -53928   -53520   -53325   -53492 
  -53368   -53225   -53680   -54105   -53655   -53059   -53347   -53912 
  -53677   -53163   -53331   -53689   -53593   -53430   -53392   -53208 
  -53122   -53563   -53941   -53577   -53271   -53623   -53735   -53271 
  -53191   -53763   -53977   -53469   -53226   -53572   -53572   -53086 
  -53063   -53585   -53778   -53536   -53481   -53603   -53528   -53462 
  -53636   -53661   -53395   -53438   -53748   -53528   -53067   -53231 
  -53747   -53812   -53314   -52988   -53487   -54129   -53840   -53141 
  -53241   -53798   -53728   -53342   -53454   -53680   -53522   -53447 
  -53604   -53401   -53083   -53435   -53827   -53365   -52926   -53268 
  -53454   -53217   -53588   -54229   -53923   -53258   -53368   -53609 
  -53306   -53314   -53811   -53712   -53238   -53464   -53886   -53522 
  -52990   -53080   -53129   -52929   -53411   -54275   -54103   -53025 
  -52860   -53998   -54427   -53376   -52759   -53543   -54504   -54919 
  -54654   -53296   -51991   -52666   -54440   -54710   -53418   -52539 
  -52573   -52708   -52909   -53607   -54203   -53819   -53130   -53123 
  -53299   -53217   -53541   -54237   -54021   -52704   -52141   -53327 
  -54114   -52733   -51652   -53314   -55390   -55115   -53990   -54265 
  -54708   -53708   -53028   -53824   -53766   -52436   -52716   -54468 
  -54382   -52567   -52324   -53650   -53931   -53658   -54548   -55057 
  -53607   -52177   -52258   -52324   -52043   -52920   -54029   -53347 
  -52386   -53581   -55178   -54396   -52724   -52818   -53742   -53659 
  -53424   -54167   -54828   -54405   -53970   -54402   -54464   -53318 
  -52384   -52709   -53088   -52736   -52883   -53730   -53611   -52605 
  -52749   -53786   -53534   -52770   -53580   -54411   -53450   -52770 
  -53827   -54310   -53239   -53160   -54473   -54457   -53134   -52983 
  -53696   -53323   -52654   -53334   -54133   -53777   -53701   -54198 
  -53443   -52188   -52857   -54260   -53721   -52620   -53503   -54642 
  -53698   -52762   -53724   -54068   -52442   -51958   -53848   -54822 
  -53731   -53426   -54546   -54598   -53347   -53077   -53913   -53862 
  -52879   -52582   -52922   -52884   -52909   -53592   -54054   -53755 
  -53627   -53919   -53650   -52960   -53148   -54102   -54224   -53210 
  -52689   -53234   -53487   -53021   -52928   -53542   -54110   -54164 
  -53871   -53577   -53507   -53615   -53616   -53472   -53455   -53487 
  -53219   -52959   -53338   -53958   -53828   -53156   -52942   -53265 
  -53543   -53671   -53770   -53825   -53947   -54056   -53788   -53343 
  -53389   -53727   -53408   -52604   -52573   -53300   -53518   -53302 
  -53701   -54333   -54157   -53600   -53597   -53793   -53488   -53102 
  -53173   -53339   -53187   -52940   -53036   -53401   -53588   -53562 
  -53617   -53796   -53813   -53527   -53437   -53858   -54109   -53690 
  -53214   -53311   -53619   -53539   -53248   -53125   -53119   -53300 
  -53673   -53711   -53337   -53276   -53665   -53801   -53639   -53771 
  -53905   -53401   -52930   -53372   -53989   -53792   -53281   -53200 
  -53288   -53256   -53410   -53715   -53650   -53311   -53257   -53376 
  -53319   -53342   -53644   -53878   -53863   -53854   -53878   -53719 
  -53549   -53655   -53671   -53253   -52949   -53168   -53401   -53397 
  -53592   -53900   -53640   -52994   -52880   -53273   -53422   -53411 
  -53701   -53917   -53677   -53491   -53676   -53697   -53376   -53374 
  -53802   -53835   -53395   -53311   -53620   -53593   -53258   -53334 
  -53697   -53509   -53067   -53345   -53921   -53750   -53206   -53284 
  -53735   -53661   -53168   -53011   -53289   -53599   -53730   -53558 
  -53217   -53249   -53688   -53744   -53237   -53126   -53701   -53920 
  -53472   -53320   -53694   -53769   -53435   -53408   -53665   -53600 
  -53400   -53555   -53751   -53526   -53302   -53644   -54027   -53655 
  -52961   -52870   -53323   -53551   -53356   -53280   -53481   -53550 
  -53570   -53816   -53843   -53497   -53468   -53788   -53673   -53187 
  -53140   -53422   -53362   -53199   -53387   -53572   -53484   -53514 
  -53800   -53944   -53824   -53694   -53603   -53503   -53511   -53595 
  -53474   -53198   -53206   -53516   -53626   -53384   -53222   -53383 
  -53473   -53296   -53358   -53739   -53774   -53406   -53310   -53546 
  -53592   -53470   -53508   -53535   -53342   -53235   -53414   -53477 
  -53292   -53352   -53667   -53709   -53491   -53427   -53596   -53769 
  -53763   -53600   -53451   -53481   -53642   -53682   -53535   -53464 
  -53589   -53670   -53586   -53518   -53530   -53482   -53356   -53331 
  -53466   -53522   -53397   -53318   -53347   -53365   -53431   -53605 
  -53697   -53541   -53318   -53350   -53542   -53532   -53360   -53373 
  -53572   -53615   -53468   -53485   -53634   -53535   -53376   -53542 
  -53739   -53595   -53383   -53395   -53424   -53393   -53584   -53819 
  -53630   -53268   -53230   -53334   -53312   -53362   -53551   -53559 
  -53329   -53319   -53650   -53763   -53485   -53333   -53474   -53487 
  -53296   -53364   -53736   -53862   -53590   -53437   -53576   -53584 
  -53430   -53559   -53855   -53728   -53250   -53083   -53360   -53612 
  -53638   -53628   -53651   -53605   -53532   -53473   -53346   -53295 
  -53472   -53584   -53415   -53334   -53592   -53763   -53563   -53460 
  -53720   -53785   -53392   -53149   -53316   -53372   -53184   -53242 
  -53545   -53601   -53485   -53651   -53900   -53750   -53450   -53477 
  -53582   -53423   -53326   -53496   -53511   -53284   -53308   -53555 
  -53516   -53333   -53441   -53642   -53593   -53496   -53555   -53558 
  -53464   -53514   -53588   -53473   -53457   -53662   -53654   -53365 
  -53337   -53607   -53612   -53354   -53393   -53657   -53605   -53399 
  -53474   -53589   -53457   -53411   -53617   -53616   -53283   -53207 
  -53558   -53730   -53549   -53518   -53661   -53518   -53233   -53287 
  -53528   -53542   -53412   -53431   -53522   -53489   -53441   -53534 
  -53640   -53623   -53520   -53400   -53357   -53438   -53492   -53439 
  -53450   -53581   -53626   -53504   -53447   -53541   -53557   -53455 
  -53468   -53595   -53631   -53599   -53617   -53545   -53314   -53268 
  -53515   -53609   -53404   -53354   -53558   -53588   -53414   -53442 
  -53611   -53528   -53364   -53493   -53634   -53437   -53252   -53412 
  -53588   -53485   -53407   -53561   -53612   -53435   -53406   -53609 
  -53666   -53511   -53449   -53493   -53447   -53457   -53665   -53727 
  -53465   -53345   -53557   -53647   -53469   -53443   -53608   -53532 
  -53311   -53439   -53750   -53689   -53362   -53287   -53485   -53554 
  -53410   -53353   -53433   -53400   -53327   -53462   -53599   -53449 
  -53343   -53605   -53821   -53623   -53407   -53522   -53642   -53492 
  -53329   -53391   -53555   -53627   -53558   -53450   -53438   -53512 
  -53531   -53489   -53497   -53478   -53372   -53384   -53577   -53696 
  -53663   -53631   -53578   -53411   -53279   -53342   -53446   -53412 
  -53379   -53460   -53509   -53438   -53415   -53546   -53662   -53634 
