Origin Time       2025/03/28 11:34:00
Lat.              32.978
Long.             131.158
Depth. (km)       12
Mag.              2.7
Station Code      KMMH05
Station Lat.      32.9553
Station Long.     131.2207
Station Height(m) 693
Record Time       2025/03/28 11:35:02
Sampling Freq(Hz) 100Hz
Duration Time(s)  120
Dir.              4
Scale Factor      7845(gal)/8223790
Max. Acc. (gal)   3.877
Last Correction   2025/03/28 11:35:02
Memo.             
[...]
  -27201   -27197   -27189   -27189   -27191   -27193   -27197   -27197 
  -27195   -27197   -27199   -27202   -27206   -27203   -27199   -27209 
  -27218   -27214   -27210   -27210   -27203   -27195   -27195   -27197 
  -27193   -27191   -27193   -27194   -27195   -27195   -27193   -27189 
  -27183   -27183   -27187   -27187   -27183   -27182   -27183   -27186 
  -27191   -27199   -27210   -27218   -27225   -27233   -27232   -27221 
  -27217   -27221   -27221   -27213   -27199   -27191   -27189   -27183 
  -27175   -27171   -27171   -27172   -27180   -27190   -27193   -27195 
  -27205   -27214   -27216   -27213   -27211   -27211   -27210   -27206 
  -27202   -27201   -27194   -27186   -27183   -27183   -27183   -27184 
  -27195   -27202   -27201   -27203   -27213   -27217   -27214   -27207 
  -27199   -27193   -27191   -27190   -27189   -27189   -27190   -27190 
  -27187   -27193   -27209   -27221   -27226   -27222   -27217   -27213 
  -27209   -27205   -27197   -27186   -27179   -27175   -27171   -27174 
  -27183   -27190   -27197   -27202   -27201   -27198   -27199   -27199 
  -27205   -27213   -27217   -27214   -27210   -27206   -27203   -27198 
  -27194   -27190   -27182   -27184   -27190   -27187   -27183   -27189 
  -27195   -27201   -27205   -27210   -27214   -27217   -27217   -27216 
  -27216   -27211   -27201   -27186   -27179   -27178   -27175   -27176 
  -27182   -27189   -27193   -27191   -27189   -27195   -27207   -27209 
  -27206   -27210   -27217   -27220   -27216   -27207   -27203   -27197 
  -27189   -27182   -27183   -27191   -27199   -27206   -27206   -27202 
  -27197   -27190   -27184   -27190   -27197   -27202   -27210   -27216 
  -27213   -27206   -27199   -27194   -27191   -27190   -27195   -27203 
  -27206   -27202   -27195   -27187   -27184   -27186   -27184   -27184 
  -27190   -27195   -27207   -27221   -27226   -27224   -27217   -27210 
  -27205   -27203   -27206   -27211   -27213   -27207   -27197   -27182 
  -27172   -27168   -27166   -27174   -27193   -27207   -27214   -27217 
  -27210   -27198   -27189   -27189   -27195   -27207   -27211   -27207 
  -27201   -27195   -27193   -27191   -27193   -27195   -27194   -27195 
  -27206   -27217   -27224   -27226   -27224   -27214   -27199   -27186 
  -27180   -27180   -27176   -27174   -27184   -27195   -27201   -27203 
  -27210   -27217   -27210   -27203   -27205   -27203   -27195   -27187 
  -27183   -27186   -27194   -27197   -27195   -27195   -27195   -27199 
  -27207   -27211   -27213   -27214   -27206   -27194   -27193   -27198 
  -27199   -27201   -27207   -27207   -27193   -27184   -27189   -27191 
  -27191   -27197   -27202   -27203   -27205   -27207   -27207   -27203 
  -27199   -27194   -27184   -27179   -27175   -27171   -27178   -27194 
  -27205   -27211   -27220   -27225   -27222   -27217   -27207   -27199 
  -27202   -27205   -27201   -27197   -27191   -27186   -27183   -27184 
  -27186   -27184   -27187   -27198   -27206   -27207   -27214   -27217 
  -27211   -27207   -27203   -27195   -27194   -27197   -27198   -27202 
  -27198   -27191   -27187   -27184   -27186   -27193   -27199   -27201 
  -27198   -27194   -27197   -27203   -27207   -27213   -27217   -27218 
  -27211   -27198   -27187   -27176   -27168   -27176   -27194   -27206 
  -27214   -27216   -27211   -27211   -27211   -27206   -27202   -27194 
  -27183   -27179   -27180   -27187   -27194   -27197   -27190   -27179 
  -27176   -27183   -27194   -27203   -27213   -27222   -27228   -27228 
  -27220   -27209   -27198   -27191   -27186   -27184   -27193   -27205 
  -27211   -27206   -27194   -27187   -27183   -27178   -27180   -27191 
  -27201   -27213   -27225   -27232   -27228   -27214   -27193   -27171 
  -27157   -27157   -27167   -27183   -27206   -27220   -27217   -27207 
  -27201   -27201   -27203   -27203   -27209   -27218   -27220   -27218 
  -27214   -27198   -27178   -27166   -27168   -27176   -27189   -27202 
  -27210   -27211   -27211   -27207   -27195   -27183   -27184   -27194 
  -27207   -27221   -27221   -27209   -27198   -27194   -27190   -27187 
  -27180   -27176   -27187   -27206   -27214   -27213   -27210   -27207 
  -27199   -27193   -27197   -27197   -27190   -27191   -27201   -27201 
  -27198   -27199   -27202   -27199   -27190   -27186   -27193   -27201 
  -27207   -27210   -27216   -27221   -27217   -27207   -27199   -27193 
  -27191   -27187   -27184   -27184   -27179   -27178   -27184   -27187 
  -27187   -27195   -27207   -27216   -27220   -27217   -27205   -27197 
  -27198   -27201   -27195   -27189   -27191   -27202   -27206   -27209 
  -27211   -27206   -27198   -27198   -27201   -27195   -27193   -27193 
  -27191   -27194   -27202   -27203   -27203   -27203   -27201   -27190 
  -27179   -27178   -27182   -27187   -27201   -27210   -27206   -27205 
  -27213   -27216   -27207   -27201   -27199   -27197   -27201   -27202 
  -27189   -27178   -27180   -27186   -27191   -27195   -27198   -27201 
  -27202   -27206   -27211   -27218   -27220   -27216   -27211   -27203 
  -27195   -27191   -27189   -27186   -27191   -27195   -27197   -27197 
  -27199   -27199   -27189   -27178   -27180   -27189   -27198   -27211 
  -27220   -27214   -27209   -27207   -27203   -27195   -27186   -27183 
  -27191   -27197   -27193   -27191   -27194   -27191   -27195   -27201 
  -27201   -27216   -27238   -27238   -27225   -27214   -27202   -27184 
  -27174   -27168   -27167   -27179   -27194   -27199   -27203   -27209 
  -27206   -27199   -27190   -27186   -27190   -27202   -27216   -27225 
  -27221   -27211   -27209   -27205   -27186   -27163   -27162   -27180 
  -27191   -27191   -27197   -27201   -27197   -27189   -27186   -27195 
  -27213   -27232   -27241   -27237   -27226   -27211   -27190   -27176 
  -27175   -27172   -27170   -27178   -27195   -27211   -27214   -27210 
  -27201   -27186   -27180   -27184   -27190   -27193   -27197   -27210 
  -27224   -27224   -27218   -27210   -27197   -27191   -27199   -27205 
  -27199   -27197   -27201   -27199   -27198   -27197   -27189   -27180 
  -27180   -27176   -27174   -27182   -27201   -27217   -27217   -27210 
  -27206   -27191   -27180   -27187   -27195   -27199   -27210   -27217 
  -27216   -27213   -27202   -27186   -27183   -27191   -27201   -27211 
  -27217   -27213   -27209   -27207   -27199   -27190   -27183   -27179 
  -27178   -27184   -27199   -27202   -27197   -27201   -27203   -27201 
  -27205   -27207   -27210   -27211   -27209   -27203   -27202   -27199 
  -27193   -27193   -27194   -27186   -27179   -27191   -27199   -27197 
  -27202   -27205   -27191   -27179   -27184   -27194   -27191   -27195 
  -27214   -27220   -27217   -27226   -27226   -27210   -27195   -27190 
  -27187   -27190   -27189   -27186   -27201   -27221   -27221   -27211 
  -27205   -27197   -27193   -27195   -27197   -27194   -27193   -27197 
  -27205   -27201   -27176   -27164   -27176   -27178   -27176   -27194 
  -27207   -27203   -27210   -27232   -27230   -27213   -27214   -27221 
  -27211   -27207   -27206   -27195   -27184   -27180   -27180   -27171 
  -27156   -27162   -27180   -27193   -27205   -27214   -27216   -27213 
  -27211   -27220   -27224   -27220   -27207   -27191   -27186   -27190 
  -27194   -27194   -27190   -27187   -27190   -27197   -27202   -27202 
  -27202   -27206   -27207   -27207   -27206   -27201   -27201   -27207 
  -27211   -27199   -27183   -27179   -27182   -27190   -27197   -27194 
  -27190   -27195   -27195   -27191   -27193   -27193   -27190   -27191 
  -27194   -27194   -27194   -27195   -27197   -27209   -27224   -27217 
  -27209   -27220   -27225   -27211   -27199   -27197   -27194   -27194 
  -27197   -27197   -27194   -27189   -27179   -27174   -27179   -27189 
  -27191   -27194   -27202   -27209   -27207   -27205   -27205   -27206 
  -27205   -27210   -27220   -27220   -27211   -27206   -27201   -27193 
  -27189   -27187   -27184   -27178   -27179   -27182   -27178   -27174 
  -27180   -27194   -27206   -27214   -27216   -27209   -27201   -27201 
  -27207   -27205   -27197   -27198   -27206   -27205   -27199   -27199 
  -27197   -27194   -27193   -27189   -27193   -27207   -27217   -27220 
  -27222   -27217   -27198   -27178   -27176   -27187   -27198   -27205 
  -27203   -27198   -27195   -27197   -27201   -27195   -27175   -27160 
  -27167   -27180   -27191   -27203   -27205   -27203   -27210   -27210 
  -27199   -27198   -27203   -27206   -27214   -27222   -27220   -27213 
  -27214   -27221   -27214   -27199   -27190   -27189   -27190   -27189 
  -27187   -27187   -27184   -27180   -27178   -27183   -27191   -27195 
  -27194   -27191   -27184   -27182   -27191   -27201   -27203   -27210 
  -27220   -27224   -27221   -27218   -27214   -27205   -27198   -27203 
  -27210   -27211   -27210   -27207   -27201   -27189   -27178   -27171 
  -27164   -27159   -27163   -27174   -27184   -27193   -27199   -27211 
  -27222   -27228   -27230   -27222   -27199   -27194   -27195   -27183 
  -27178   -27189   -27193   -27194   -27202   -27217   -27229   -27228 
  -27213   -27198   -27191   -27195   -27201   -27199   -27202   -27209 
  -27214   -27211   -27202   -27187   -27172   -27164   -27167   -27172 
  -27180   -27195   -27206   -27203   -27203   -27207   -27202   -27190 
  -27183   -27183   -27187   -27198   -27211   -27224   -27221   -27210 
  -27202   -27205   -27210   -27210   -27220   -27236   -27229   -27205 
  -27193   -27184   -27168   -27155   -27147   -27149   -27167   -27183 
  -27191   -27197   -27207   -27218   -27225   -27237   -27249   -27253 
  -27251   -27237   -27213   -27195   -27182   -27162   -27148   -27145 
  -27149   -27157   -27163   -27166   -27170   -27172   -27182   -27198 
  -27216   -27234   -27253   -27264   -27263   -27251   -27232   -27207 
  -27186   -27184   -27189   -27186   -27182   -27180   -27175   -27166 
  -27159   -27157   -27159   -27170   -27190   -27207   -27224   -27241 
  -27247   -27247   -27241   -27228   -27213   -27205   -27197   -27186 
  -27182   -27189   -27195   -27183   -27162   -27152   -27155   -27163 
  -27178   -27191   -27202   -27216   -27228   -27238   -27240   -27222 
  -27202   -27195   -27187   -27179   -27183   -27195   -27202   -27205 
  -27207   -27206   -27195   -27189   -27184   -27171   -27163   -27178 
  -27193   -27203   -27221   -27237   -27238   -27224   -27206   -27195 
  -27191   -27193   -27189   -27182   -27183   -27194   -27209   -27213 
  -27210   -27211   -27218   -27211   -27191   -27178   -27175   -27186 
  -27205   -27216   -27214   -27201   -27187   -27186   -27183   -27178 
  -27184   -27195   -27197   -27195   -27198   -27201   -27197   -27189 
  -27184   -27190   -27203   -27218   -27221   -27210   -27203   -27209 
  -27210   -27201   -27187   -27187   -27195   -27194   -27201   -27211 
  -27209   -27199   -27191   -27187   -27194   -27201   -27199   -27205 
  -27210   -27209   -27202   -27191   -27179   -27175   -27178   -27184 
  -27193   -27195   -27202   -27209   -27206   -27198   -27195   -27190 
  -27180   -27180   -27190   -27197   -27199   -27207   -27216   -27221 
  -27221   -27216   -27220   -27221   -27214   -27211   -27210   -27197 
  -27183   -27172   -27163   -27155   -27155   -27162   -27171   -27186 
  -27195   -27203   -27216   -27225   -27233   -27238   -27233   -27224 
  -27225   -27226   -27214   -27198   -27194   -27194   -27190   -27179 
  -27168   -27168   -27182   -27191   -27189   -27182   -27175   -27175 
  -27182   -27187   -27194   -27207   -27214   -27207   -27199   -27201 
  -27203   -27201   -27199   -27202   -27211   -27226   -27237   -27243 
  -27230   -27199   -27176   -27172   -27168   -27170   -27187   -27202 
  -27205   -27191   -27175   -27174   -27184   -27206   -27228   -27232 
  -27221   -27209   -27191   -27178   -27175   -27180   -27193   -27206 
  -27211   -27210   -27203   -27193   -27184   -27189   -27206   -27226 
  -27238   -27218   -27167   -27112   -27075   -27078   -27141   -27236 
  -27303   -27287   -27217   -27209   -27303   -27379   -27325   -27174 
  -27032   -26993   -27099   -27278   -27406   -27375   -27163   -26968 
  -26990   -27130   -27225   -27197   -27054   -27031   -27299   -27598 
  -27588   -27337   -27112   -27009   -27024   -27166   -27278   -27149 
  -26931   -26925   -27153   -27406   -27480   -27342   -27125   -26995 
  -27099   -27344   -27372   -27159   -27058   -27124   -27199   -27332 
  -27490   -27394   -27105   -27033   -27133   -27124   -27094   -27079 
  -27024   -27160   -27438   -27487   -27328   -27241   -27251   -27162 
  -26987   -26932   -26941   -26948   -27174   -27519   -27546   -27322 
  -27238   -27228   -27133   -27149   -27228   -27128   -27008   -27128 
  -27414   -27561   -27353   -26989   -26846   -26948   -27037   -27074 
  -27157   -27220   -27315   -27534   -27579   -27361   -27209   -27130 
  -27062   -27153   -27291   -27282   -27174   -27082   -27103   -27149 
  -27103   -27039   -26943   -26963   -27302   -27544   -27421   -27328 
  -27336   -27265   -27226   -27252   -27151   -26916   -26954   -27325 
  -27338   -27047   -27113   -27167   -27021   -27249   -27403   -27098 
  -27124   -27456   -27391   -27133   -27006   -26946   -27076   -27392 
  -27554   -27456   -27251   -27101   -27081   -27083   -27085   -27125 
  -27108   -27155   -27471   -27708   -27526   -27195   -26958   -26790 
  -26720   -26721   -26735   -26593   -26497   -27286   -28524   -28667 
  -27873   -27275   -27075   -27130   -27333   -27550   -27595   -27233 
  -26761   -26775   -27452   -28197   -28129   -27552   -27429   -27537 
  -27440   -27357   -27005   -25926   -24367   -23172   -23134   -24106 
  -25639   -27680   -29700   -30885   -30986   -30152   -28696   -27012 
  -25845   -26239   -27892   -29014   -28927   -28259   -27075   -25749 
  -25378   -25803   -25991   -25920   -26171   -26798   -27453   -27838 
  -28032   -28354   -28551   -28347   -28296   -28314   -27599   -26495 
  -26075   -26424   -26609   -26212   -25902   -26109   -26653   -27363 
  -27777   -27434   -26836   -26609   -26322   -25726   -25701   -26700 
  -28244   -29918   -31136   -31131   -29916   -28124   -26468   -25706 
  -25967   -26438   -26667   -26821   -26590   -25864   -25340   -25474 
  -26117   -26663   -26671   -26646   -27067   -27618   -27980   -28309 
  -28810   -29200   -29157   -28740   -27918   -26935   -26557   -26823 
  -26973   -26622   -25751   -24653   -24159   -24719   -25909   -27311 
  -28684   -29601   -29752   -29280   -28736   -28424   -27926   -27206 
  -26952   -27175   -27388   -27464   -27178   -26407   -25648   -25396 
  -25621   -26061   -26697   -27519   -28042   -27811   -27002   -26196 
  -25778   -25843   -26616   -27942   -28903   -29205   -29467   -29596 
  -28972   -27824   -26635   -25386   -24440   -24526   -25610   -27005 
  -28108   -28549   -28155   -27118   -26261   -26377   -27217   -28020 
  -28536   -28834   -28814   -28429   -27909   -27403   -26968   -26732 
  -26541   -26133   -25623   -25137   -24703   -24711   -25405   -26416 
  -27429   -28395   -29168   -29587   -29660   -29479   -29115   -28634 
  -28116   -27542   -26927   -26453   -26148   -25860   -25645   -25528 
  -25343   -25246   -25506   -26003   -26663   -27499   -28189   -28605 
  -28939   -29088   -28849   -28305   -27607   -27001   -26724   -26709 
  -26833   -27162   -27649   -28053   -28316   -28529   -28428   -27773 
  -26902   -26206   -25760   -25496   -25339   -25351   -25639   -26115 
  -26577   -26950   -27373   -27980   -28605   -29016   -29128   -28929 
  -28452   -27726   -26925   -26265   -25724   -25386   -25361   -25473 
  -25731   -26260   -26867   -27283   -27508   -27787   -28260   -28791 
  -29174   -29347   -29308   -29068   -28709   -28236   -27533   -26628 
  -25743   -25099   -24798   -24844   -25230   -25860   -26623   -27472 
  -28151   -28429   -28517   -28463   -27984   -27271   -26727   -26347 
  -26164   -26372   -26882   -27414   -27834   -28036   -27913   -27692 
  -27612   -27406   -26901   -26450   -26225   -26113   -26269   -26732 
  -27126   -27367   -27739   -28263   -28699   -28918   -28922   -28598 
  -27923   -27275   -26878   -26558   -26315   -26233   -26191   -26136 
  -26157   -26366   -26692   -26854   -26789   -26712   -26720   -26836 
  -27076   -27417   -27819   -28081   -28038   -27861   -27718   -27558 
  -27479   -27652   -27943   -28098   -28059   -27864   -27440   -26728 
  -25911   -25300   -25087   -25257   -25656   -26223   -26912   -27515 
  -27859   -27962   -28062   -28279   -28424   -28480   -28571   -28505 
  -28151   -27658   -27103   -26534   -26206   -26296   -26609   -26929 
  -27248   -27519   -27648   -27561   -27221   -26709   -26298   -26250 
  -26396   -26416   -26451   -26767   -27229   -27561   -27685   -27692 
  -27747   -27869   -27909   -27834   -27684   -27540   -27483   -27413 
  -27247   -27137   -27113   -27047   -26948   -26890   -26846   -26736 
  -26573   -26434   -26395   -26577   -26989   -27386   -27587   -27652 
  -27634   -27498   -27301   -27153   -27020   -26886   -26844   -26862 
  -26901   -27120   -27517   -27808   -27905   -27934   -27892   -27723 
  -27510   -27328   -27186   -27113   -27112   -27121   -27117   -27170 
  -27307   -27434   -27476   -27456   -27376   -27202   -26909   -26527 
  -26210   -26152   -26330   -26500   -26603   -26833   -27193   -27429 
  -27457   -27384   -27318   -27356   -27522   -27750   -27957   -28038 
  -28004   -27900   -27637   -27226   -26815   -26505   -26393   -26473 
  -26651   -26986   -27467   -27800   -27791   -27611   -27490   -27448 
  -27396   -27292   -27189   -27129   -27068   -26968   -26805   -26586 
  -26524   -26766   -27068   -27175   -27130   -27013   -26854   -26771 
  -26851   -27101   -27449   -27715   -27789   -27739   -27643   -27549 
  -27477   -27384   -27275   -27232   -27243   -27257   -27283   -27290 
  -27287   -27324   -27325   -27211   -27036   -26821   -26599   -26512 
  -26634   -26838   -27000   -27102   -27125   -27097   -27209   -27487 
  -27661   -27638   -27588   -27611   -27683   -27699   -27553   -27324 
  -27141   -26986   -26901   -26929   -26941   -26966   -27157   -27414 
  -27552   -27592   -27564   -27403   -27137   -26870   -26658   -26520 
  -26465   -26470   -26524   -26613   -26730   -26871   -27063   -27314 
  -27535   -27658   -27756   -27865   -27922   -27909   -27839   -27696 
  -27519   -27346   -27153   -26940   -26788   -26805   -26993   -27201 
  -27317   -27333   -27288   -27256   -27256   -27229   -27171   -27164 
  -27205   -27203   -27139   -27075   -27055   -27039   -27000   -27024 
  -27126   -27194   -27203   -27207   -27175   -27072   -26987   -26947 
  -26924   -26974   -27058   -27033   -26964   -27020   -27201   -27375 
  -27479   -27527   -27540   -27569   -27623   -27615   -27580   -27583 
  -27523   -27332   -27098   -26920   -26844   -26932   -27098   -27147 
  -27126   -27149   -27105   -27022   -27062   -27147   -27157   -27099 
  -26977   -26865   -26843   -26878   -26948   -27110   -27355   -27564 
  -27619   -27508   -27373   -27357   -27456   -27533   -27440   -27226 
  -27083   -27056   -27085   -27129   -27174   -27252   -27309   -27271 
  -27245   -27286   -27261   -27195   -27207   -27264   -27299   -27284 
  -27207   -27153   -27139   -27031   -26828   -26723   -26771   -26829 
  -26820   -26805   -26875   -27044   -27170   -27182   -27229   -27367 
  -27457   -27495   -27599   -27742   -27845   -27904   -27835   -27587 
