Origin Time       2025/03/28 11:34:00
Lat.              32.978
Long.             131.158
Depth. (km)       12
Mag.              2.7
Station Code      KMMH02
Station Lat.      33.1220
Station Long.     131.0629
Station Height(m) 306.45
Record Time       2025/03/28 11:35:05
Sampling Freq(Hz) 100Hz
Duration Time(s)  120
Dir.              2
Scale Factor      2942(gal)/8224139
Max. Acc. (gal)   0.706
Last Correction   2025/03/28 11:35:05
Memo.             
[...]
   -4149    -4139    -4140    -4144    -4144    -4148    -4156    -4151 
   -4139    -4139    -4141    -4144    -4149    -4151    -4144    -4139 
   -4135    -4132    -4135    -4143    -4156    -4162    -4149    -4137 
   -4133    -4139    -4151    -4155    -4151    -4149    -4144    -4137 
   -4143    -4151    -4147    -4140    -4140    -4139    -4139    -4147 
   -4155    -4151    -4143    -4140    -4140    -4140    -4145    -4153 
   -4148    -4140    -4147    -4151    -4145    -4144    -4147    -4140 
   -4139    -4151    -4155    -4147    -4141    -4139    -4137    -4141 
   -4147    -4147    -4147    -4151    -4148    -4143    -4144    -4148 
   -4145    -4140    -4137    -4141    -4147    -4149    -4148    -4141 
   -4139    -4148    -4152    -4149    -4145    -4147    -4145    -4141 
   -4143    -4147    -4148    -4149    -4149    -4147    -4147    -4149 
   -4148    -4145    -4143    -4140    -4143    -4148    -4151    -4148 
   -4145    -4145    -4145    -4147    -4145    -4137    -4143    -4153 
   -4153    -4149    -4148    -4144    -4137    -4140    -4147    -4147 
   -4153    -4159    -4147    -4140    -4145    -4143    -4140    -4151 
   -4155    -4145    -4143    -4145    -4141    -4143    -4149    -4151 
   -4149    -4151    -4147    -4141    -4143    -4149    -4147    -4144 
   -4149    -4147    -4137    -4141    -4148    -4147    -4145    -4145 
   -4140    -4140    -4149    -4156    -4148    -4141    -4144    -4147 
   -4144    -4144    -4149    -4148    -4144    -4144    -4143    -4143 
   -4144    -4148    -4152    -4152    -4145    -4139    -4143    -4148 
   -4144    -4141    -4144    -4140    -4137    -4149    -4156    -4145 
   -4143    -4152    -4148    -4141    -4151    -4152    -4143    -4147 
   -4149    -4139    -4133    -4144    -4155    -4152    -4149    -4151 
   -4140    -4131    -4140    -4145    -4143    -4149    -4149    -4135 
   -4140    -4155    -4151    -4143    -4147    -4149    -4137    -4132 
   -4143    -4151    -4148    -4149    -4147    -4139    -4143    -4151 
   -4149    -4148    -4147    -4140    -4136    -4140    -4147    -4148 
   -4149    -4149    -4141    -4135    -4136    -4141    -4148    -4156 
   -4152    -4140    -4136    -4143    -4151    -4156    -4158    -4145 
   -4132    -4135    -4143    -4148    -4151    -4147    -4137    -4137 
   -4143    -4147    -4148    -4153    -4148    -4140    -4143    -4147 
   -4145    -4149    -4152    -4144    -4141    -4145    -4145    -4145 
   -4151    -4152    -4143    -4140    -4143    -4141    -4140    -4151 
   -4156    -4148    -4141    -4141    -4143    -4144    -4147    -4148 
   -4147    -4145    -4148    -4145    -4143    -4148    -4148    -4140 
   -4137    -4143    -4143    -4145    -4149    -4152    -4152    -4151 
   -4147    -4144    -4144    -4144    -4144    -4147    -4149    -4147 
   -4139    -4137    -4145    -4149    -4147    -4147    -4147    -4141 
   -4141    -4145    -4145    -4144    -4152    -4151    -4143    -4144 
   -4144    -4137    -4140    -4148    -4152    -4151    -4147    -4144 
   -4143    -4140    -4140    -4137    -4141    -4152    -4152    -4145 
   -4147    -4148    -4143    -4145    -4151    -4151    -4148    -4141 
   -4135    -4139    -4148    -4152    -4149    -4149    -4144    -4135 
   -4133    -4141    -4145    -4148    -4151    -4143    -4135    -4143 
   -4149    -4144    -4143    -4151    -4145    -4139    -4145    -4151 
   -4145    -4147    -4147    -4137    -4139    -4153    -4153    -4144 
   -4145    -4144    -4139    -4143    -4151    -4148    -4143    -4145 
   -4145    -4140    -4148    -4156    -4148    -4141    -4148    -4143 
   -4135    -4144    -4149    -4145    -4147    -4145    -4140    -4141 
   -4148    -4148    -4145    -4144    -4143    -4144    -4151    -4151 
   -4143    -4139    -4141    -4143    -4145    -4151    -4152    -4148 
   -4143    -4140    -4141    -4147    -4152    -4148    -4145    -4148 
   -4143    -4137    -4147    -4151    -4141    -4144    -4149    -4140 
   -4140    -4153    -4151    -4136    -4141    -4151    -4145    -4143 
   -4149    -4149    -4140    -4141    -4145    -4140    -4141    -4153 
   -4152    -4147    -4151    -4149    -4136    -4135    -4145    -4145 
   -4147    -4153    -4145    -4139    -4152    -4159    -4145    -4140 
   -4141    -4140    -4145    -4153    -4147    -4139    -4144    -4148 
   -4137    -4140    -4155    -4153    -4145    -4149    -4145    -4133 
   -4139    -4153    -4151    -4144    -4147    -4143    -4136    -4141 
   -4151    -4147    -4144    -4149    -4147    -4140    -4144    -4151 
   -4148    -4147    -4147    -4140    -4137    -4145    -4151    -4147 
   -4144    -4145    -4144    -4144    -4144    -4145    -4145    -4144 
   -4147    -4148    -4145    -4143    -4140    -4141    -4149    -4149 
   -4144    -4141    -4143    -4143    -4139    -4140    -4148    -4153 
   -4151    -4141    -4136    -4144    -4152    -4147    -4147    -4153 
   -4148    -4140    -4143    -4140    -4135    -4140    -4151    -4152 
   -4145    -4145    -4147    -4139    -4143    -4151    -4145    -4143 
   -4149    -4152    -4147    -4140    -4139    -4141    -4149    -4156 
   -4148    -4143    -4152    -4153    -4143    -4141    -4145    -4147 
   -4147    -4145    -4144    -4148    -4152    -4147    -4144    -4145 
   -4140    -4135    -4144    -4158    -4152    -4141    -4143    -4144 
   -4143    -4148    -4155    -4148    -4140    -4143    -4148    -4145 
   -4145    -4147    -4148    -4147    -4140    -4136    -4140    -4148 
   -4148    -4148    -4151    -4145    -4136    -4143    -4153    -4148 
   -4143    -4143    -4141    -4141    -4148    -4145    -4141    -4148 
   -4152    -4144    -4141    -4144    -4137    -4135    -4147    -4153 
   -4144    -4145    -4153    -4147    -4137    -4144    -4147    -4137 
   -4139    -4145    -4145    -4144    -4148    -4152    -4152    -4145 
   -4137    -4133    -4139    -4147    -4148    -4149    -4153    -4149 
   -4145    -4151    -4148    -4139    -4141    -4147    -4140    -4139 
   -4151    -4153    -4144    -4144    -4147    -4141    -4139    -4143 
   -4147    -4153    -4153    -4144    -4139    -4143    -4148    -4147 
   -4148    -4149    -4145    -4141    -4149    -4153    -4144    -4139 
   -4143    -4145    -4143    -4143    -4149    -4153    -4149    -4147 
   -4145    -4141    -4139    -4143    -4147    -4145    -4147    -4149 
   -4147    -4140    -4144    -4145    -4139    -4141    -4151    -4152 
   -4149    -4147    -4144    -4140    -4143    -4149    -4151    -4149 
   -4145    -4137    -4136    -4145    -4149    -4147    -4145    -4145 
   -4144    -4145    -4145    -4141    -4141    -4144    -4148    -4147 
   -4147    -4148    -4145    -4141    -4144    -4151    -4151    -4143 
   -4144    -4148    -4144    -4141    -4149    -4149    -4141    -4140 
   -4141    -4141    -4147    -4149    -4147    -4145    -4145    -4147 
   -4145    -4143    -4140    -4140    -4141    -4144    -4149    -4152 
   -4149    -4148    -4145    -4140    -4141    -4147    -4151    -4149 
   -4148    -4149    -4145    -4143    -4147    -4148    -4148    -4147 
   -4144    -4148    -4151    -4144    -4143    -4145    -4144    -4145 
   -4152    -4149    -4144    -4147    -4147    -4143    -4147    -4151 
   -4147    -4147    -4151    -4147    -4141    -4144    -4148    -4147 
   -4145    -4144    -4143    -4144    -4144    -4144    -4148    -4151 
   -4143    -4137    -4149    -4155    -4147    -4144    -4147    -4140 
   -4140    -4152    -4151    -4143    -4147    -4152    -4147    -4143 
   -4147    -4147    -4145    -4147    -4145    -4140    -4143    -4151 
   -4151    -4145    -4144    -4144    -4144    -4145    -4145    -4145 
   -4147    -4145    -4144    -4147    -4147    -4145    -4149    -4153 
   -4149    -4144    -4144    -4147    -4140    -4143    -4153    -4151 
   -4140    -4144    -4152    -4149    -4145    -4147    -4148    -4139 
   -4140    -4156    -4155    -4139    -4143    -4153    -4147    -4143 
   -4151    -4145    -4136    -4145    -4155    -4148    -4145    -4149 
   -4147    -4140    -4147    -4149    -4140    -4144    -4156    -4149 
   -4139    -4143    -4149    -4147    -4144    -4151    -4151    -4144 
   -4143    -4147    -4144    -4143    -4144    -4143    -4148    -4153 
   -4145    -4140    -4145    -4147    -4141    -4144    -4147    -4143 
   -4144    -4148    -4148    -4145    -4144    -4143    -4137    -4139 
   -4149    -4149    -4140    -4144    -4153    -4148    -4141    -4143 
   -4149    -4147    -4137    -4141    -4151    -4145    -4143    -4144 
   -4140    -4141    -4148    -4145    -4137    -4143    -4152    -4149 
   -4143    -4144    -4151    -4148    -4140    -4144    -4144    -4136 
   -4141    -4151    -4148    -4139    -4139    -4147    -4148    -4143 
   -4143    -4144    -4145    -4144    -4141    -4143    -4143    -4143 
   -4147    -4148    -4145    -4148    -4149    -4143    -4135    -4141 
   -4151    -4148    -4144    -4147    -4147    -4141    -4141    -4145 
   -4144    -4145    -4151    -4144    -4137    -4145    -4152    -4145 
   -4140    -4143    -4145    -4145    -4145    -4144    -4141    -4144 
   -4149    -4143    -4137    -4147    -4151    -4147    -4147    -4145 
   -4141    -4147    -4155    -4152    -4144    -4141    -4141    -4141 
   -4149    -4152    -4143    -4143    -4151    -4144    -4135    -4145 
   -4155    -4148    -4144    -4147    -4145    -4140    -4143    -4144 
   -4141    -4143    -4145    -4144    -4147    -4152    -4143    -4133 
   -4145    -4155    -4147    -4145    -4149    -4147    -4143    -4143 
   -4141    -4143    -4153    -4153    -4136    -4135    -4153    -4152 
   -4137    -4148    -4163    -4148    -4140    -4148    -4143    -4133 
   -4149    -4158    -4144    -4141    -4147    -4144    -4149    -4153 
   -4144    -4141    -4152    -4155    -4143    -4143    -4148    -4141 
   -4137    -4149    -4152    -4145    -4149    -4153    -4145    -4144 
   -4148    -4145    -4143    -4147    -4147    -4145    -4147    -4151 
   -4147    -4143    -4144    -4140    -4135    -4144    -4155    -4149 
   -4144    -4143    -4143    -4151    -4158    -4149    -4143    -4151 
   -4152    -4137    -4136    -4155    -4175    -4197    -4210    -4187 
   -4129    -4072    -4054    -4085    -4159    -4214    -4182    -4097 
   -4064    -4081    -4047    -4013    -4117    -4293    -4374    -4345 
   -4220    -3977    -3846    -4152    -4681    -4752    -4168    -3541 
   -3433    -3775    -4232    -4445    -4276    -4217    -4571    -4583 
   -3974    -3755    -4145    -4167    -3906    -4122    -4237    -3829 
   -3993    -4700    -4453    -3673    -3925    -4488    -4217    -4083 
   -4500    -4261    -3582    -3761    -4232    -4149    -4293    -4614 
   -4172    -3662    -3951    -4280    -4162    -4171    -4263    -4085 
   -4056    -4234    -4144    -4056    -4260    -4367    -4310    -4306 
   -4221    -4014    -3967    -4062    -4040    -4070    -4334    -4496 
   -4309    -4086    -4044    -3888    -3557    -3620    -4297    -4729 
   -4369    -4006    -4070    -4122    -4105    -4006    -3852    -4226 
   -4901    -4680    -3757    -3616    -4118    -4066    -4001    -4576 
   -4645    -4009    -4024    -4456    -4097    -3657    -4198    -4668 
   -4210    -3846    -3959    -3809    -3670    -4175    -4583    -4306 
   -4068    -4179    -4214    -4145    -4148    -4170    -4116    -4160 
   -4395    -4436    -4041    -3622    -3692    -4128    -4367    -4317 
   -4267    -4245    -4113    -4029    -4189    -4229    -3956    -3978 
   -4500    -4623    -4012    -3793    -4378    -4490    -3798    -3688 
   -4328    -4401    -4002    -4136    -4337    -3958    -3770    -4213 
   -4409    -4056    -3946    -4102    -3977    -4000    -4488    -4561 
   -4032    -3951    -4374    -4332    -3928    -3908    -4117    -4152 
   -4151    -4168    -4070    -4066    -4333    -4499    -4351    -4217 
   -4201    -4052    -3838    -3948    -4283    -4282    -3921    -3758 
   -4037    -4303    -4162    -3944    -4098    -4480    -4549    -4247 
   -4086    -4093    -4021    -4044    -4195    -4180    -4056    -4198 
   -4388    -4148    -3942    -4102    -3944    -3640    -4082    -4645 
   -4380    -4032    -4259    -4261    -3808    -3906    -4617    -4768 
   -4147    -3762    -4078    -4444    -4106    -3522    -3778    -4471 
   -4372    -3923    -4167    -4432    -4006    -3973    -4519    -4263 
   -3645    -3982    -4413    -4074    -3954    -4271    -4110    -3943 
   -4449    -4608    -4086    -3937    -4058    -3966    -4234    -4496 
   -4090    -4153    -4845    -4403    -3346    -3746    -4519    -3742 
   -3013    -3778    -4306    -3933    -4102    -4560    -4278    -4167 
   -4702    -4610    -4000    -4245    -4865    -4584    -3967    -4124 
   -4572    -4224    -3423    -3461    -4236    -4498    -4293    -4237 
   -3715    -3152    -4226    -5630    -4976    -3874    -4232    -4396 
   -3545    -3229    -3657    -3874    -3838    -3704    -3909    -4922 
   -5092    -3423    -2928    -4819    -5479    -4147    -4309    -5838 
   -5445    -3492    -2597    -2891    -3499    -4194    -4243    -3780 
   -4257    -5212    -4695    -3497    -3932    -5107    -4833    -3902 
   -3794    -3929    -3713    -3541    -3592    -4163    -5305    -5290 
   -3458    -2887    -4568    -4665    -2775    -3075    -5076    -4959 
   -3982    -4702    -5088    -4087    -3979    -4297    -3338    -3204 
   -4761    -4878    -3653    -4045    -4672    -3418    -2702    -3676 
   -4230    -4739    -6120    -6019    -4118    -3507    -4012    -3303 
   -2949    -4576    -5401    -4106    -3410    -3983    -3977    -3539 
   -3570    -3427    -3235    -4083    -5255    -5397    -5032    -4765 
   -4121    -3646    -3985    -4122    -3943    -4507    -4923    -3993 
   -3087    -3346    -3716    -3694    -3912    -4405    -5007    -5518 
   -5181    -4093    -3487    -3765    -4163    -3840    -2924    -2956 
   -4612    -5655    -4550    -3605    -4334    -4554    -3538    -3435 
   -4272    -4353    -4294    -4903    -4770    -3874    -4052    -4592 
   -3807    -3203    -4021    -4271    -3389    -3446    -4422    -4677 
   -4618    -4985    -4872    -4187    -4001    -4071    -3794    -3805 
   -4145    -3971    -3724    -4129    -4257    -3674    -3626    -4222 
   -4310    -4198    -4603    -4612    -3954    -4024    -4750    -4630 
   -3927    -3792    -3950    -3846    -3861    -4228    -4351    -3942 
   -3769    -4301    -4676    -4398    -4371    -4747    -4388    -3586 
   -3738    -4357    -4179    -3798    -4014    -4059    -3676    -3935 
   -4788    -4874    -4095    -3669    -4006    -4472    -4527    -4152 
   -3825    -3969    -4140    -3866    -3739    -4137    -4392    -4264 
   -4174    -3971    -3589    -3751    -4353    -4326    -3920    -4232 
   -4807    -4580    -4133    -4376    -4572    -4083    -3790    -4066 
   -4212    -4252    -4513    -4453    -3969    -3867    -4099    -4002 
   -3954    -4307    -4321    -3915    -3952    -4282    -4209    -4029 
   -4087    -4120    -4141    -4239    -4136    -3981    -4185    -4396 
   -4214    -4021    -4071    -4166    -4243    -4241    -4051    -3927 
   -4067    -4151    -4064    -4160    -4322    -4116    -3893    -4225 
   -4540    -4151    -3793    -4039    -4129    -3898    -4139    -4583 
   -4317    -3871    -4158    -4491    -4207    -4013    -4082    -3766 
   -3492    -3997    -4503    -4213    -3936    -4284    -4440    -4027 
   -3794    -3946    -4105    -4380    -4758    -4815    -4665    -4594 
   -4309    -3878    -3929    -4151    -3821    -3539    -3915    -4137 
   -3904    -4029    -4206    -3705    -3599    -4514    -4837    -4144 
   -4099    -4619    -4297    -3842    -4191    -4212    -3748    -4091 
   -4584    -4144    -3915    -4441    -4426    -3919    -4072    -4369 
   -4081    -3993    -4259    -4153    -4023    -4256    -4229    -3969 
   -4102    -4232    -3947    -3929    -4261    -4155    -3886    -4174 
   -4421    -4140    -4143    -4525    -4357    -3901    -4066    -4426 
   -4256    -3967    -3982    -4075    -4206    -4325    -4083    -3724 
   -3850    -4224    -4276    -4179    -4199    -4229    -4322    -4379 
   -4116    -3923    -4171    -4314    -4129    -4182    -4330    -4039 
   -3784    -4023    -4113    -3852    -3940    -4299    -4276    -4079 
   -4148    -4220    -4087    -4047    -4083    -3962    -3937    -4228 
   -4479    -4410    -4198    -4102    -4147    -4241    -4360    -4459 
   -4434    -4279    -4156    -4126    -4013    -3873    -3991    -4186 
   -4132    -4043    -4082    -4059    -4090    -4306    -4329    -4060 
   -3915    -3924    -3896    -3981    -4139    -4085    -4008    -4144 
   -4175    -4036    -4159    -4455    -4480    -4302    -4129    -3975 
   -4058    -4356    -4336    -4082    -4185    -4367    -4135    -3979 
   -4299    -4483    -4193    -4020    -4145    -4078    -3924    -4128 
   -4341    -4112    -3844    -4006    -4270    -4186    -3986    -4051 
   -4213    -4167    -3985    -3885    -3944    -4116    -4314    -4421 
   -4333    -4139    -4056    -4098    -4141    -4218    -4336    -4332 
   -4166    -4055    -4102    -4113    -4002    -3963    -4060    -4112 
   -4085    -4124    -4190    -4144    -4075    -4126    -4190    -4183 
   -4232    -4272    -4120    -4014    -4186    -4299    -4126    -3979 
   -4089    -4253    -4298    -4302    -4301    -4305    -4334    -4252 
   -4064    -4060    -4197    -4143    -3989    -4012    -4097    -4058 
   -4020    -4062    -4066    -4052    -4116    -4167    -4140    -4145 
   -4241    -4276    -4178    -4110    -4140    -4099    -3977    -3981 
   -4166    -4334    -4322    -4152    -4032    -4124    -4244    -4179 
   -4135    -4249    -4268    -4141    -4098    -4124    -4135    -4190 
   -4164    -3979    -3964    -4166    -4147    -3950    -3983    -4128 
   -4167    -4270    -4392    -4284    -4106    -4129    -4186    -4132 
   -4164    -4295    -4267    -4095    -4040    -4108    -4108    -4072 
   -4141    -4229    -4230    -4241    -4297    -4264    -4166    -4126 
   -4044    -3897    -3932    -4085    -4062    -4006    -4135    -4163 
   -3971    -3977    -4255    -4351    -4230    -4244    -4287    -4162 
   -4141    -4259    -4187    -4058    -4117    -4086    -3896    -4005 
   -4320    -4280    -4106    -4251    -4325    -4094    -4066    -4197 
   -4032    -3962    -4244    -4245    -3996    -4139    -4313    -4078 
   -4066    -4388    -4268    -3946    -4121    -4302    -4102    -4120 
   -4357    -4263    -4077    -4159    -4164    -4033    -4132    -4268 
   -4139    -4044    -4135    -4132    -4054    -4086    -4120    -4122 
   -4217    -4249    -4135    -4131    -4216    -4176    -4162    -4240 
   -4139    -3924    -3936    -4063    -4045    -4017    -4112    -4158 
   -4104    -4113    -4168    -4170    -4176    -4193    -4163    -4153 
   -4158    -4075    -4025    -4166    -4301    -4218    -4124    -4201 
   -4225    -4120    -4128    -4199    -4126    -4106    -4259    -4276 
   -4133    -4133    -4197    -4125    -4090    -4159    -4120    -4056 
   -4145    -4180    -4087    -4135    -4284    -4241    -4109    -4114 
   -4144    -4099    -4101    -4120    -4063    -4054    -4149    -4212 
   -4203    -4179    -4125    -4083    -4106    -4147    -4201    -4284 
   -4278    -4168    -4162    -4240    -4166    -4013    -4006    -4072 
