Origin Time       2025/03/28 11:34:00
Lat.              32.978
Long.             131.158
Depth. (km)       12
Mag.              2.7
Station Code      KMMH18
Station Lat.      33.0031
Station Long.     131.0071
Station Height(m) 932
Record Time       2025/03/28 11:35:01
Sampling Freq(Hz) 100Hz
Duration Time(s)  120
Dir.              6
Scale Factor      7845(gal)/8223790
Max. Acc. (gal)   1.223
Last Correction   2025/03/28 11:35:01
Memo.             
[...]
   -2284    -2284    -2280    -2288    -2284    -2280    -2285    -2285 
   -2282    -2288    -2285    -2280    -2282    -2281    -2277    -2282 
   -2288    -2284    -2284    -2282    -2281    -2284    -2282    -2281 
   -2284    -2282    -2281    -2284    -2282    -2281    -2284    -2285 
   -2284    -2282    -2281    -2284    -2284    -2285    -2290    -2282 
   -2277    -2288    -2285    -2278    -2288    -2288    -2280    -2284 
   -2286    -2280    -2278    -2284    -2286    -2284    -2281    -2281 
   -2285    -2286    -2282    -2282    -2284    -2284    -2286    -2285 
   -2281    -2285    -2285    -2284    -2285    -2285    -2284    -2282 
   -2280    -2281    -2284    -2281    -2281    -2284    -2284    -2284 
   -2281    -2281    -2285    -2286    -2281    -2281    -2284    -2282 
   -2281    -2282    -2281    -2280    -2282    -2285    -2284    -2282 
   -2282    -2284    -2285    -2284    -2281    -2284    -2286    -2284 
   -2284    -2286    -2284    -2281    -2281    -2282    -2284    -2282 
   -2285    -2285    -2280    -2280    -2284    -2285    -2284    -2281 
   -2285    -2285    -2280    -2282    -2286    -2284    -2284    -2285 
   -2285    -2282    -2280    -2282    -2284    -2280    -2282    -2285 
   -2284    -2285    -2286    -2282    -2281    -2285    -2285    -2284 
   -2285    -2282    -2281    -2284    -2284    -2284    -2285    -2282 
   -2284    -2286    -2285    -2284    -2282    -2281    -2281    -2284 
   -2288    -2288    -2284    -2281    -2280    -2282    -2284    -2281 
   -2284    -2286    -2282    -2282    -2285    -2285    -2284    -2284 
   -2286    -2285    -2281    -2282    -2282    -2281    -2284    -2284 
   -2278    -2282    -2288    -2285    -2281    -2282    -2281    -2282 
   -2289    -2285    -2281    -2284    -2285    -2285    -2284    -2281 
   -2285    -2285    -2282    -2284    -2284    -2285    -2286    -2284 
   -2282    -2285    -2284    -2281    -2284    -2285    -2280    -2280 
   -2285    -2285    -2285    -2285    -2286    -2286    -2282    -2280 
   -2284    -2286    -2285    -2286    -2284    -2281    -2282    -2282 
   -2282    -2286    -2289    -2285    -2286    -2286    -2280    -2280 
   -2286    -2285    -2284    -2288    -2286    -2284    -2282    -2282 
   -2282    -2282    -2284    -2284    -2282    -2284    -2284    -2281 
   -2282    -2285    -2286    -2284    -2285    -2289    -2286    -2284 
   -2285    -2281    -2280    -2282    -2281    -2284    -2284    -2282 
   -2284    -2285    -2285    -2288    -2289    -2285    -2280    -2281 
   -2281    -2280    -2282    -2284    -2281    -2282    -2286    -2288 
   -2285    -2284    -2282    -2282    -2284    -2282    -2282    -2284 
   -2281    -2282    -2286    -2285    -2285    -2285    -2284    -2282 
   -2282    -2285    -2282    -2282    -2285    -2281    -2280    -2285 
   -2285    -2284    -2285    -2284    -2280    -2284    -2285    -2282 
   -2284    -2284    -2281    -2284    -2286    -2282    -2285    -2288 
   -2281    -2280    -2284    -2281    -2278    -2280    -2280    -2284 
   -2288    -2286    -2286    -2285    -2284    -2285    -2282    -2278 
   -2282    -2282    -2281    -2284    -2284    -2284    -2288    -2289 
   -2285    -2284    -2285    -2284    -2282    -2285    -2285    -2281 
   -2286    -2288    -2281    -2284    -2290    -2285    -2280    -2284 
   -2282    -2280    -2281    -2282    -2281    -2282    -2285    -2286 
   -2282    -2281    -2282    -2281    -2282    -2285    -2285    -2286 
   -2282    -2276    -2280    -2286    -2284    -2285    -2289    -2284 
   -2285    -2286    -2280    -2281    -2284    -2282    -2286    -2286 
   -2282    -2284    -2284    -2280    -2284    -2286    -2284    -2284 
   -2286    -2282    -2281    -2288    -2286    -2278    -2282    -2289 
   -2284    -2285    -2290    -2284    -2278    -2284    -2284    -2280 
   -2282    -2286    -2286    -2285    -2285    -2285    -2281    -2280 
   -2285    -2285    -2282    -2286    -2284    -2277    -2282    -2286 
   -2282    -2284    -2286    -2286    -2281    -2276    -2276    -2278 
   -2281    -2288    -2290    -2285    -2285    -2284    -2278    -2280 
   -2278    -2284    -2293    -2293    -2284    -2280    -2277    -2278 
   -2282    -2285    -2286    -2289    -2290    -2288    -2282    -2277 
   -2278    -2285    -2286    -2282    -2284    -2282    -2280    -2281 
   -2282    -2284    -2284    -2286    -2289    -2284    -2280    -2284 
   -2285    -2281    -2285    -2286    -2284    -2289    -2292    -2282 
   -2280    -2278    -2274    -2284    -2292    -2289    -2288    -2281 
   -2276    -2282    -2284    -2289    -2297    -2290    -2285    -2282 
   -2272    -2274    -2288    -2288    -2288    -2295    -2289    -2282 
   -2284    -2277    -2274    -2285    -2288    -2286    -2290    -2284 
   -2273    -2278    -2285    -2286    -2289    -2289    -2288    -2284 
   -2280    -2280    -2285    -2288    -2286    -2288    -2286    -2285 
   -2285    -2278    -2277    -2285    -2285    -2285    -2290    -2285 
   -2278    -2282    -2284    -2280    -2284    -2286    -2285    -2284 
   -2281    -2278    -2284    -2282    -2282    -2289    -2288    -2282 
   -2284    -2284    -2284    -2286    -2284    -2277    -2281    -2290 
   -2285    -2277    -2281    -2284    -2282    -2286    -2290    -2289 
   -2282    -2281    -2281    -2281    -2284    -2288    -2288    -2285 
   -2282    -2281    -2278    -2281    -2284    -2289    -2289    -2281 
   -2282    -2288    -2280    -2276    -2285    -2289    -2288    -2288 
   -2286    -2288    -2282    -2277    -2281    -2282    -2282    -2284 
   -2282    -2284    -2284    -2276    -2281    -2289    -2285    -2281 
   -2284    -2284    -2282    -2280    -2276    -2281    -2288    -2286 
   -2286    -2289    -2281    -2276    -2278    -2278    -2278    -2285 
   -2290    -2288    -2282    -2284    -2278    -2273    -2285    -2284 
   -2280    -2296    -2293    -2277    -2280    -2281    -2274    -2285 
   -2288    -2280    -2285    -2289    -2281    -2281    -2285    -2285 
   -2280    -2278    -2286    -2286    -2280    -2286    -2285    -2276 
   -2282    -2288    -2277    -2281    -2292    -2281    -2277    -2284 
   -2277    -2274    -2285    -2290    -2289    -2292    -2288    -2280 
   -2276    -2274    -2274    -2285    -2292    -2290    -2295    -2292 
   -2281    -2277    -2276    -2278    -2288    -2289    -2288    -2288 
   -2281    -2280    -2278    -2277    -2288    -2290    -2285    -2289 
   -2289    -2280    -2277    -2280    -2284    -2286    -2290    -2290 
   -2284    -2280    -2280    -2277    -2280    -2284    -2288    -2292 
   -2288    -2281    -2278    -2277    -2281    -2282    -2286    -2290 
   -2285    -2285    -2285    -2272    -2274    -2286    -2286    -2288 
   -2289    -2284    -2282    -2282    -2278    -2280    -2282    -2288 
   -2295    -2288    -2277    -2277    -2278    -2281    -2289    -2292 
   -2290    -2285    -2278    -2278    -2278    -2277    -2284    -2288 
   -2289    -2293    -2284    -2276    -2280    -2278    -2277    -2284 
   -2290    -2289    -2284    -2281    -2277    -2277    -2289    -2290 
   -2282    -2286    -2288    -2278    -2280    -2284    -2280    -2282 
   -2288    -2286    -2286    -2282    -2272    -2278    -2289    -2285 
   -2285    -2286    -2282    -2284    -2278    -2270    -2280    -2289 
   -2288    -2290    -2290    -2281    -2282    -2285    -2277    -2280 
   -2286    -2281    -2282    -2290    -2284    -2276    -2280    -2281 
   -2280    -2284    -2286    -2286    -2286    -2278    -2278    -2286 
   -2286    -2284    -2289    -2285    -2277    -2282    -2285    -2277 
   -2282    -2290    -2284    -2286    -2288    -2276    -2278    -2286 
   -2282    -2285    -2290    -2288    -2285    -2278    -2276    -2281 
   -2282    -2284    -2285    -2281    -2286    -2290    -2280    -2278 
   -2282    -2282    -2286    -2285    -2284    -2284    -2278    -2282 
   -2286    -2278    -2282    -2293    -2281    -2277    -2285    -2282 
   -2281    -2284    -2286    -2292    -2285    -2280    -2284    -2280 
   -2277    -2286    -2289    -2284    -2285    -2285    -2280    -2280 
   -2278    -2277    -2288    -2290    -2284    -2285    -2286    -2280 
   -2278    -2284    -2282    -2284    -2288    -2286    -2281    -2280 
   -2278    -2284    -2289    -2284    -2281    -2286    -2285    -2278 
   -2277    -2281    -2285    -2290    -2292    -2286    -2281    -2280 
   -2277    -2274    -2282    -2285    -2282    -2292    -2296    -2282 
   -2276    -2280    -2284    -2286    -2286    -2282    -2281    -2285 
   -2288    -2281    -2276    -2284    -2288    -2281    -2286    -2286 
   -2277    -2284    -2290    -2282    -2281    -2284    -2286    -2289 
   -2282    -2274    -2278    -2286    -2289    -2286    -2278    -2280 
   -2290    -2289    -2276    -2272    -2282    -2295    -2292    -2281 
   -2278    -2282    -2288    -2285    -2274    -2278    -2290    -2292 
   -2288    -2278    -2270    -2282    -2296    -2284    -2273    -2280 
   -2286    -2288    -2284    -2269    -2270    -2292    -2299    -2281 
   -2274    -2282    -2286    -2286    -2282    -2277    -2282    -2293 
   -2293    -2276    -2268    -2281    -2293    -2289    -2278    -2280 
   -2289    -2295    -2286    -2274    -2276    -2285    -2290    -2284 
   -2277    -2281    -2290    -2289    -2282    -2276    -2274    -2289 
   -2295    -2284    -2280    -2280    -2281    -2288    -2285    -2273 
   -2278    -2292    -2292    -2281    -2274    -2281    -2289    -2286 
   -2280    -2280    -2285    -2288    -2286    -2277    -2272    -2280 
   -2288    -2288    -2282    -2277    -2282    -2288    -2280    -2278 
   -2284    -2284    -2289    -2292    -2278    -2273    -2285    -2290 
   -2280    -2277    -2284    -2286    -2285    -2282    -2278    -2281 
   -2288    -2288    -2280    -2276    -2281    -2286    -2286    -2281 
   -2280    -2286    -2292    -2286    -2280    -2280    -2284    -2288 
   -2284    -2280    -2281    -2286    -2290    -2284    -2276    -2276 
   -2285    -2288    -2281    -2280    -2285    -2284    -2281    -2282 
   -2282    -2281    -2284    -2289    -2288    -2280    -2277    -2282 
   -2288    -2282    -2278    -2285    -2286    -2281    -2278    -2278 
   -2282    -2289    -2288    -2281    -2285    -2288    -2281    -2281 
   -2278    -2277    -2289    -2290    -2281    -2281    -2280    -2281 
   -2288    -2282    -2274    -2280    -2286    -2288    -2282    -2278 
   -2281    -2286    -2289    -2281    -2277    -2286    -2293    -2284 
   -2280    -2282    -2280    -2286    -2295    -2282    -2274    -2285 
   -2290    -2282    -2278    -2278    -2282    -2286    -2285    -2282 
   -2277    -2280    -2286    -2282    -2280    -2285    -2284    -2282 
   -2285    -2285    -2284    -2285    -2285    -2285    -2281    -2280 
   -2285    -2285    -2282    -2284    -2282    -2282    -2285    -2284 
   -2282    -2288    -2288    -2284    -2284    -2285    -2284    -2281 
   -2284    -2285    -2280    -2278    -2286    -2284    -2276    -2282 
   -2289    -2288    -2285    -2280    -2278    -2285    -2289    -2288 
   -2282    -2281    -2286    -2285    -2278    -2278    -2281    -2286 
   -2289    -2281    -2276    -2280    -2288    -2288    -2277    -2277 
   -2288    -2289    -2284    -2280    -2280    -2282    -2286    -2286 
   -2280    -2277    -2284    -2289    -2284    -2278    -2282    -2285 
   -2288    -2286    -2280    -2278    -2286    -2286    -2278    -2281 
   -2288    -2284    -2280    -2284    -2284    -2284    -2288    -2284 
   -2277    -2281    -2289    -2286    -2281    -2281    -2281    -2284 
   -2286    -2282    -2280    -2281    -2286    -2290    -2284    -2277 
   -2282    -2286    -2286    -2285    -2278    -2278    -2289    -2289 
   -2277    -2276    -2285    -2286    -2284    -2282    -2281    -2281 
   -2286    -2288    -2282    -2281    -2286    -2289    -2282    -2277 
   -2278    -2282    -2286    -2288    -2281    -2277    -2284    -2289 
   -2284    -2281    -2284    -2286    -2288    -2282    -2277    -2281 
   -2285    -2282    -2281    -2281    -2281    -2282    -2284    -2284 
   -2282    -2284    -2286    -2288    -2281    -2276    -2281    -2290 
   -2288    -2282    -2282    -2282    -2285    -2285    -2278    -2278 
   -2285    -2288    -2284    -2281    -2281    -2284    -2288    -2285 
   -2280    -2280    -2284    -2286    -2284    -2280    -2281    -2288 
   -2286    -2282    -2281    -2282    -2284    -2286    -2284    -2278 
   -2282    -2292    -2289    -2281    -2278    -2280    -2285    -2286 
   -2281    -2278    -2285    -2289    -2284    -2278    -2281    -2284 
   -2284    -2284    -2281    -2280    -2285    -2290    -2285    -2280 
   -2282    -2288    -2285    -2282    -2281    -2282    -2286    -2288 
   -2281    -2280    -2284    -2285    -2284    -2284    -2282    -2281 
   -2285    -2288    -2284    -2278    -2281    -2285    -2286    -2282 
   -2280    -2284    -2288    -2284    -2281    -2280    -2281    -2286 
   -2284    -2280    -2284    -2282    -2284    -2290    -2284    -2278 
   -2285    -2286    -2284    -2281    -2280    -2284    -2285    -2285 
   -2284    -2280    -2284    -2289    -2284    -2281    -2284    -2284 
   -2282    -2282    -2277    -2280    -2288    -2282    -2277    -2281 
   -2285    -2288    -2286    -2280    -2280    -2284    -2285    -2282 
   -2278    -2281    -2286    -2288    -2285    -2281    -2278    -2284 
   -2290    -2317    -2421    -2662    -2964    -2979    -2408    -1539 
   -1001    -1046    -1455    -1923    -2323    -2666    -2925    -3094 
   -3164    -3053    -2781    -2371    -1871    -1660    -1931    -2099 
   -1957    -1934    -1991    -2087    -2334    -2548    -2677    -2698 
   -2482    -2185    -2143    -2344    -2419    -2342    -2419    -2492 
   -2245    -1969    -1922    -1935    -2034    -2350    -2655    -2579 
   -2219    -2015    -2165    -2540    -2794    -2586    -2120    -1939 
   -2077    -2259    -2419    -2457    -2262    -1995    -1933    -2115 
   -2358    -2447    -2326    -2205    -2297    -2515    -2625    -2604 
   -2475    -2192    -2014    -2081    -2165    -2214    -2241    -2219 
   -2199    -2193    -2284    -2470    -2540    -2376    -2154    -2097 
   -2142    -2196    -2365    -2516    -2403    -2205    -2108    -2025 
   -2100    -2435    -2667    -2654    -2620    -2473    -2114    -1892 
   -1993    -2161    -2222    -2191    -2096    -2161    -2519    -2768 
   -2571    -2203    -2096    -2246    -2353    -2326    -2246    -2104 
   -1949    -1903    -2060    -2393    -2631    -2590    -2454    -2407 
   -2380    -2288    -2239    -2332    -2366    -2226    -2200    -2388 
   -2405    -2169    -2052    -2149    -2207    -2143    -2146    -2273 
   -2369    -2401    -2386    -2295    -2281    -2392    -2420    -2403 
   -2448    -2369    -2110    -1954    -2099    -2363    -2455    -2343 
   -2212    -2199    -2191    -2166    -2328    -2438    -2268    -2176 
   -2282    -2343    -2308    -2270    -2280    -2254    -2200    -2295 
   -2450    -2470    -2440    -2423    -2320    -2193    -2180    -2203 
   -2104    -1956    -2060    -2409    -2574    -2448    -2300    -2178 
   -2145    -2322    -2457    -2346    -2196    -2134    -2112    -2196 
   -2430    -2620    -2540    -2311    -2182    -2168    -2182    -2212 
   -2286    -2307    -2110    -1908    -2022    -2307    -2498    -2596 
   -2548    -2301    -2199    -2447    -2685    -2586    -2273    -2047 
   -1977    -2053    -2285    -2413    -2315    -2218    -2165    -2196 
   -2448    -2679    -2619    -2367    -2133    -1983    -1819    -1705 
   -1780    -2002    -2261    -2401    -2452    -2617    -2772    -2776 
   -2794    -2805    -2565    -2201    -1973    -1765    -1583    -1629 
   -1792    -1972    -2281    -2548    -2567    -2623    -2851    -2891 
   -2648    -2361    -2122    -1938    -1811    -1803    -2026    -2438 
   -2855    -3003    -2779    -2404    -2064    -1891    -1945    -2069 
   -2106    -2062    -2043    -2088    -2149    -2188    -2247    -2489 
   -2817    -2836    -2513    -2188    -2034    -2057    -2107    -1935 
   -1660    -1713    -2169    -2682    -2961    -3013    -3037    -3025 
   -2830    -2559    -2355    -2236    -2123    -1858    -1540    -1418 
   -1466    -1530    -1636    -1865    -2238    -2745    -3273    -3532 
   -3252    -2613    -2157    -2047    -1968    -1672    -1271    -1216 
   -1718    -2378    -2810    -3090    -3314    -3369    -3211    -2905 
   -2438    -1906    -1602    -1628    -1755    -1756    -1620    -1512 
   -1649    -2135    -2766    -3086    -2987    -2793    -2656    -2492 
   -2269    -2006    -1783    -1794    -2079    -2342    -2311    -2111 
   -2111    -2425    -2763    -2808    -2551    -2281    -2187    -2178 
   -2251    -2376    -2319    -2135    -2103    -2236    -2344    -2309 
   -2223    -2246    -2382    -2475    -2403    -2268    -2258    -2307 
   -2174    -1941    -1979    -2261    -2400    -2374    -2350    -2269 
   -2124    -2008    -1945    -1984    -2146    -2339    -2488    -2609 
   -2686    -2621    -2496    -2498    -2567    -2575    -2497    -2296 
   -2060    -1925    -1837    -1818    -1981    -2201    -2343    -2461 
   -2536    -2539    -2532    -2488    -2328    -2106    -1921    -1885 
   -2058    -2276    -2290    -2172    -2170    -2322    -2497    -2600 
   -2613    -2548    -2376    -2154    -2026    -2045    -2128    -2176 
   -2214    -2270    -2265    -2177    -2126    -2178    -2273    -2380 
   -2505    -2631    -2720    -2716    -2574    -2404    -2288    -2134 
   -1968    -1946    -2074    -2222    -2328    -2392    -2371    -2312 
   -2339    -2411    -2392    -2281    -2127    -1969    -1879    -1896 
   -2019    -2176    -2308    -2443    -2586    -2658    -2597    -2431 
   -2259    -2192    -2226    -2211    -2115    -2088    -2191    -2355 
   -2496    -2539    -2432    -2228    -2103    -2168    -2323    -2401 
   -2376    -2335    -2290    -2261    -2292    -2274    -2133    -2046 
   -2112    -2214    -2297    -2347    -2311    -2258    -2272    -2308 
   -2351    -2407    -2408    -2351    -2311    -2304    -2297    -2313 
   -2344    -2327    -2307    -2311    -2285    -2253    -2219    -2169 
   -2162    -2209    -2253    -2257    -2234    -2227    -2236    -2223 
   -2212    -2276    -2389    -2409    -2305    -2224    -2243    -2270 
   -2242    -2242    -2350    -2481    -2489    -2359    -2257    -2309 
   -2394    -2388    -2342    -2319    -2322    -2301    -2188    -2060 
   -2057    -2107    -2118    -2176    -2270    -2315    -2353    -2419 
   -2462    -2435    -2349    -2266    -2222    -2197    -2180    -2201 
   -2273    -2331    -2322    -2290    -2305    -2340    -2326    -2284 
   -2251    -2209    -2165    -2174    -2236    -2292    -2342    -2415 
   -2455    -2434    -2401    -2347    -2266    -2241    -2296    -2311 
   -2236    -2201    -2228    -2220    -2207    -2230    -2257    -2332 
   -2448    -2451    -2332    -2250    -2238    -2215    -2170    -2126 
   -2095    -2120    -2203    -2269    -2305    -2335    -2366    -2404 
   -2415    -2381    -2342    -2308    -2285    -2288    -2292    -2286 
   -2301    -2330    -2317    -2253    -2211    -2231    -2268    -2316 
   -2351    -2304    -2232    -2243    -2288    -2297    -2297    -2308 
   -2301    -2269    -2230    -2209    -2214    -2234    -2266    -2299 
