Origin Time       2025/03/28 11:34:00
Lat.              32.978
Long.             131.158
Depth. (km)       12
Mag.              2.7
Station Code      KMMH05
Station Lat.      32.9553
Station Long.     131.2207
Station Height(m) 593
Record Time       2025/03/28 11:35:02
Sampling Freq(Hz) 100Hz
Duration Time(s)  120
Dir.              2
Scale Factor      3923(gal)/8224838
Max. Acc. (gal)   1.555
Last Correction   2025/03/28 11:35:02
Memo.             
[...]
   32636    32634    32634    32632    32633    32636    32637    32640 
   32641    32640    32638    32633    32632    32633    32634    32634 
   32636    32637    32637    32638    32637    32633    32634    32634 
   32632    32633    32636    32637    32637    32636    32634    32634 
   32634    32632    32632    32634    32636    32634    32634    32633 
   32632    32634    32633    32632    32636    32636    32632    32634 
   32637    32636    32636    32636    32633    32633    32636    32634 
   32633    32634    32633    32632    32636    32637    32632    32633 
   32637    32637    32634    32636    32637    32637    32637    32633 
   32636    32637    32634    32634    32636    32633    32634    32637 
   32634    32633    32634    32636    32636    32634    32634    32634 
   32634    32634    32634    32634    32636    32636    32634    32633 
   32636    32636    32633    32633    32633    32632    32633    32636 
   32636    32636    32632    32630    32634    32637    32636    32634 
   32633    32632    32633    32634    32634    32633    32633    32634 
   32634    32637    32637    32636    32632    32630    32634    32634 
   32636    32638    32636    32633    32634    32633    32634    32633 
   32632    32633    32634    32634    32634    32633    32634    32634 
   32633    32636    32634    32633    32634    32634    32633    32632 
   32632    32634    32634    32634    32634    32634    32636    32636 
   32636    32634    32632    32632    32632    32632    32636    32637 
   32634    32634    32638    32637    32633    32633    32634    32633 
   32633    32636    32633    32633    32637    32637    32633    32633 
   32636    32636    32633    32632    32633    32637    32636    32636 
   32636    32632    32632    32634    32634    32634    32636    32636 
   32633    32632    32633    32636    32636    32636    32634    32632 
   32634    32637    32634    32633    32633    32634    32636    32636 
   32636    32637    32638    32636    32634    32634    32636    32636 
   32634    32632    32633    32634    32633    32634    32637    32634 
   32634    32637    32636    32634    32634    32634    32636    32636 
   32638    32640    32636    32636    32638    32633    32632    32636 
   32636    32634    32636    32633    32632    32633    32634    32634 
   32636    32640    32638    32634    32636    32636    32636    32636 
   32634    32633    32633    32632    32632    32634    32636    32636 
   32636    32636    32637    32636    32634    32636    32638    32636 
   32634    32637    32637    32637    32636    32633    32634    32636 
   32632    32633    32637    32637    32633    32633    32636    32634 
   32633    32634    32634    32633    32634    32637    32637    32637 
   32638    32636    32632    32633    32634    32637    32637    32636 
   32634    32634    32636    32634    32636    32636    32636    32634 
   32633    32633    32633    32632    32633    32637    32636    32632 
   32632    32632    32632    32633    32633    32633    32634    32634 
   32634    32636    32636    32636    32634    32633    32637    32638 
   32634    32633    32634    32633    32633    32633    32634    32636 
   32636    32634    32636    32636    32634    32634    32633    32629 
   32630    32636    32637    32636    32637    32638    32634    32633 
   32634    32634    32633    32633    32632    32632    32634    32636 
   32634    32634    32633    32633    32634    32634    32638    32638 
   32633    32634    32633    32632    32634    32634    32634    32634 
   32634    32634    32634    32633    32633    32634    32633    32633 
   32634    32636    32636    32637    32636    32636    32634    32634 
   32637    32638    32634    32634    32637    32636    32634    32638 
   32637    32633    32633    32634    32636    32636    32634    32632 
   32632    32634    32636    32634    32633    32634    32636    32634 
   32634    32637    32637    32634    32633    32632    32634    32636 
   32633    32634    32636    32636    32636    32634    32633    32634 
   32633    32633    32636    32634    32632    32633    32634    32636 
   32636    32637    32637    32634    32630    32634    32637    32634 
   32636    32638    32637    32637    32638    32634    32632    32636 
   32636    32633    32634    32637    32636    32634    32634    32633 
   32633    32636    32634    32633    32633    32632    32632    32634 
   32636    32632    32632    32634    32633    32633    32634    32634 
   32634    32636    32636    32637    32637    32636    32634    32633 
   32633    32633    32633    32633    32633    32636    32634    32632 
   32634    32636    32634    32633    32633    32633    32634    32634 
   32634    32634    32634    32632    32632    32634    32634    32636 
   32636    32636    32636    32636    32634    32633    32636    32638 
   32637    32636    32636    32634    32633    32632    32634    32634 
   32633    32634    32637    32636    32633    32634    32632    32630 
   32634    32634    32634    32640    32638    32636    32634    32634 
   32636    32636    32633    32634    32634    32634    32634    32636 
   32636    32633    32633    32634    32633    32632    32633    32634 
   32634    32636    32633    32633    32636    32634    32633    32634 
   32636    32634    32633    32636    32637    32636    32634    32634 
   32633    32633    32637    32637    32634    32634    32634    32634 
   32633    32633    32636    32637    32633    32632    32634    32634 
   32636    32637    32637    32636    32633    32633    32634    32633 
   32633    32637    32638    32637    32636    32634    32636    32636 
   32632    32632    32636    32634    32634    32636    32637    32636 
   32634    32633    32636    32637    32634    32634    32636    32634 
   32634    32637    32637    32636    32634    32634    32634    32633 
   32633    32636    32636    32633    32633    32636    32636    32633 
   32633    32634    32636    32634    32633    32633    32632    32633 
   32634    32632    32632    32636    32637    32636    32637    32637 
   32633    32634    32636    32634    32634    32634    32634    32636 
   32638    32638    32637    32636    32634    32634    32634    32632 
   32633    32637    32637    32637    32634    32633    32637    32637 
   32634    32634    32636    32636    32636    32636    32634    32636 
   32637    32637    32636    32634    32634    32636    32637    32636 
   32636    32636    32637    32636    32634    32634    32634    32636 
   32637    32637    32636    32637    32638    32637    32634    32633 
   32636    32637    32636    32634    32636    32637    32636    32636 
   32637    32636    32632    32632    32634    32636    32634    32634 
   32634    32637    32638    32634    32634    32637    32634    32633 
   32634    32636    32636    32636    32633    32633    32634    32637 
   32636    32636    32636    32634    32634    32637    32634    32632 
   32636    32636    32634    32636    32637    32636    32634    32636 
   32636    32633    32633    32637    32636    32634    32636    32636 
   32636    32637    32636    32633    32634    32638    32637    32636 
   32636    32636    32634    32634    32633    32633    32632    32630 
   32633    32637    32637    32637    32637    32634    32633    32633 
   32634    32634    32634    32634    32636    32637    32636    32636 
   32636    32636    32636    32636    32636    32636    32634    32634 
   32634    32634    32636    32636    32634    32637    32637    32633 
   32633    32634    32632    32632    32636    32636    32634    32634 
   32634    32634    32636    32637    32634    32633    32634    32634 
   32633    32634    32636    32636    32637    32638    32636    32632 
   32632    32633    32634    32634    32634    32633    32634    32637 
   32640    32636    32633    32634    32636    32633    32632    32633 
   32637    32636    32636    32637    32633    32633    32636    32636 
   32636    32637    32636    32634    32636    32637    32636    32634 
   32636    32636    32634    32636    32637    32636    32636    32634 
   32632    32636    32638    32636    32633    32636    32636    32634 
   32636    32637    32638    32637    32636    32634    32634    32634 
   32633    32633    32634    32637    32636    32636    32637    32636 
   32636    32636    32636    32636    32636    32637    32640    32640 
   32637    32634    32633    32633    32632    32633    32636    32636 
   32633    32633    32634    32636    32634    32636    32636    32636 
   32637    32638    32638    32636    32634    32633    32633    32632 
   32633    32634    32634    32636    32638    32638    32636    32637 
   32636    32634    32637    32636    32634    32636    32636    32633 
   32632    32636    32637    32633    32637    32638    32637    32638 
   32636    32634    32634    32634    32636    32637    32638    32638 
   32636    32636    32636    32634    32636    32636    32634    32634 
   32634    32634    32636    32638    32640    32637    32634    32634 
   32636    32636    32636    32633    32632    32633    32636    32637 
   32636    32636    32637    32637    32634    32634    32636    32636 
   32636    32638    32634    32634    32637    32634    32634    32637 
   32634    32632    32636    32638    32636    32634    32637    32637 
   32636    32634    32636    32637    32637    32637    32634    32633 
   32634    32634    32636    32636    32633    32633    32637    32640 
   32636    32636    32636    32633    32633    32634    32634    32634 
   32634    32638    32640    32636    32636    32636    32633    32633 
   32634    32632    32634    32638    32637    32637    32638    32636 
   32633    32633    32633    32634    32636    32636    32636    32636 
   32633    32636    32637    32633    32633    32633    32632    32634 
   32634    32632    32632    32636    32638    32636    32633    32634 
   32633    32633    32636    32634    32633    32636    32634    32630 
   32632    32634    32636    32636    32634    32633    32636    32637 
   32634    32633    32636    32634    32633    32637    32637    32636 
   32636    32632    32632    32632    32630    32632    32637    32638 
   32637    32638    32640    32637    32633    32633    32633    32632 
   32633    32634    32633    32636    32637    32636    32638    32637 
   32632    32632    32634    32634    32634    32636    32638    32637 
   32636    32634    32633    32633    32634    32636    32636    32634 
   32637    32636    32633    32634    32637    32636    32636    32637 
   32637    32634    32634    32636    32637    32636    32633    32632 
   32633    32636    32636    32633    32632    32636    32637    32636 
   32637    32636    32634    32633    32632    32634    32637    32638 
   32641    32637    32632    32632    32633    32633    32634    32634 
   32636    32636    32637    32637    32637    32636    32634    32636 
   32636    32634    32636    32638    32636    32633    32634    32636 
   32634    32636    32640    32638    32634    32633    32634    32636 
   32634    32634    32638    32637    32633    32629    32632    32637 
   32638    32637    32636    32633    32633    32633    32636    32636 
   32636    32637    32637    32636    32636    32637    32637    32637 
   32636    32636    32633    32630    32629    32632    32634    32636 
   32634    32636    32637    32637    32636    32636    32636    32634 
   32632    32633    32640    32640    32634    32636    32638    32634 
   32632    32634    32636    32636    32636    32636    32638    32636 
   32634    32637    32637    32634    32634    32633    32633    32637 
   32638    32637    32636    32632    32628    32633    32638    32638 
   32636    32634    32634    32636    32633    32633    32637    32637 
   32634    32637    32637    32636    32636    32633    32632    32633 
   32636    32638    32636    32636    32638    32636    32637    32648 
   32649    32632    32605    32590    32610    32645    32667    32683 
   32674    32622    32603    32640    32672    32694    32644    32535 
   32537    32580    32584    32702    32767    32701    32771    32702 
   32381    32427    32683    32630    32610    32717    32741    32786 
   32629    32437    32644    32736    32547    32625    32691    32508 
   32634    32840    32665    32560    32563    32513    32601    32724 
   32822    32753    32455    32409    32688    32786    32628    32616 
   32649    32556    32599    32661    32657    32670    32634    32738 
   32659    32360    32683    32938    32493    32576    32817    32413 
   32548    32873    32493    32481    32778    32620    32548    32649 
   32729    32819    32663    32482    32586    32647    32522    32688 
   32918    32517    32378    32875    32676    32385    32748    32616 
   32460    32841    32811    32539    32616    32749    32563    32485 
   32589    32432    32701    33104    32610    32352    32752    32763 
   32584    32479    32513    32841    32698    32386    32691    32805 
   32671    32665    32494    32587    32690    32490    32695    32710 
   32427    32795    32830    32333    32661    32918    32375    32559 
   33057    32575    32391    32791    32675    32487    32539    32752 
   32763    32270    32530    33142    32613    32337    32899    32814 
   32489    32771    32829    32478    32375    32051    31499    31649 
   32188    32360    32192    32593    34196    35617    35702    34749 
   32796    30372    29376    30842    32400    32236    32154    32910 
   33625    34244    34418    33658    32509    31676    31376    31934 
   32460    31988    32221    33056    32343    31437    31747    32549 
   33686    34438    34279    33678    32768    32086    31645    30774 
   30811    32378    33536    33948    34060    33651    32999    31796 
   30790    31342    32661    33762    34048    33210    32676    32850 
   32580    32467    32597    32197    32177    32202    31576    31978 
   33808    34626    33081    31432    31699    32539    32634    32336 
   32219    32475    32767    32837    32844    33079    33413    33226 
   32458    32040    32406    32849    32790    31999    31303    31818 
   32935    33905    33721    32694    32810    32684    31870    32162 
   32155    32088    33215    33602    32926    32637    32940    33012 
   32431    32401    32879    32567    32119    32232    32559    32514 
   32005    32325    33266    33316    32888    32432    32229    32713 
   32501    31878    32672    33444    33096    32971    33041    32702 
   32489    32651    32868    33034    32784    31973    31726    32602 
   33300    32877    32262    32252    32356    32584    32864    32498 
   32383    32937    32887    32738    33112    32798    32042    32120 
   32502    32524    32674    32946    32842    32394    32239    32718 
   33038    32767    32400    32093    32123    32498    32575    32776 
   33367    33334    32765    32516    32632    32795    32521    32200 
   32661    33050    32868    32830    32571    32297    32489    32356 
   32316    32817    32988    32827    32553    32308    32794    33331 
   32737    32057    32304    32576    32463    32567    32807    32668 
   32547    32772    32667    32498    32819    32798    32427    32449 
   32582    32737    32869    32674    32611    32838    32919    32826 
   32703    32545    32381    32514    32718    32452    32368    32664 
   32559    32490    32753    32769    32724    32668    32381    32381 
   32778    32869    32729    32918    32938    32449    32278    32547 
   32687    32736    32692    32628    32759    32629    32328    32602 
   32787    32382    32526    32944    32625    32375    32567    32749 
   32787    32439    32296    32832    33143    32891    32602    32568 
   32617    32432    32332    32586    32730    32702    32695    32617 
   32729    32784    32412    32440    32823    32722    32568    32787 
   33000    32863    32540    32474    32514    32462    32590    32756 
   32574    32352    32570    32717    32526    32632    32782    32583 
   32487    32584    32584    32513    32599    32641    32598    32908 
   32976    32537    32514    32630    32537    32686    32811    32776 
   32703    32580    32705    32848    32751    32702    32501    32418 
   32751    32605    32478    33023    32927    32373    32427    32587 
   32599    32514    32431    32686    32746    32526    32618    32705 
   32613    32616    32590    32593    32645    32568    32537    32630 
   32686    32591    32524    32792    32844    32533    32657    32717 
   32410    32545    32746    32670    32682    32765    32886    32715 
   32487    32632    32556    32433    32574    32587    32730    32800 
   32490    32418    32506    32470    32663    32794    32692    32868 
   32900    32509    32478    32626    32486    32540    32755    32819 
   32888    32930    32728    32362    32387    32748    32710    32598 
   32798    32721    32491    32633    32760    32562    32466    32578 
   32610    32660    32670    32517    32576    32659    32559    32686 
   32671    32445    32652    32798    32571    32659    32783    32525 
   32449    32644    32791    32746    32514    32502    32641    32686 
   32868    32854    32571    32651    32760    32471    32356    32553 
   32698    32710    32667    32725    32757    32609    32551    32497 
   32348    32536    32853    32809    32638    32543    32497    32571 
   32636    32664    32757    32692    32636    32768    32567    32352 
   32661    32806    32621    32607    32680    32687    32620    32566 
   32691    32738    32552    32557    32737    32702    32607    32613 
   32618    32648    32734    32745    32521    32412    32609    32687 
   32675    32729    32732    32760    32671    32499    32606    32694 
   32505    32543    32826    32810    32656    32717    32697    32445 
   32378    32649    32765    32555    32548    32707    32670    32676 
   32679    32487    32451    32545    32589    32715    32745    32611 
   32618    32756    32765    32649    32593    32593    32570    32617 
   32737    32719    32549    32548    32721    32632    32491    32630 
   32598    32555    32825    32814    32555    32548    32617    32572 
   32525    32582    32721    32775    32694    32664    32649    32512 
   32472    32630    32761    32653    32555    32791    32840    32539 
   32567    32713    32556    32530    32660    32591    32544    32661 
   32745    32734    32589    32549    32759    32719    32564    32691 
   32691    32572    32611    32703    32748    32597    32564    32780 
   32724    32660    32810    32656    32375    32432    32617    32614 
   32563    32618    32649    32640    32691    32736    32653    32589 
   32667    32645    32499    32491    32568    32611    32647    32598 
   32638    32803    32729    32614    32695    32706    32643    32647 
   32605    32468    32529    32711    32674    32586    32576    32647 
   32819    32856    32690    32566    32578    32599    32575    32613 
   32641    32528    32475    32602    32707    32713    32684    32649 
   32611    32586    32602    32698    32751    32576    32427    32599 
   32769    32694    32640    32665    32634    32617    32675    32630 
   32487    32574    32733    32671    32702    32834    32730    32514 
