Origin Time       2025/03/28 11:34:00
Lat.              32.978
Long.             131.158
Depth. (km)       12
Mag.              2.7
Station Code      KMMH18
Station Lat.      33.0031
Station Long.     131.0071
Station Height(m) 854.038
Record Time       2025/03/28 11:35:01
Sampling Freq(Hz) 100Hz
Duration Time(s)  120
Dir.              3
Scale Factor      3923(gal)/8224838
Max. Acc. (gal)   0.412
Last Correction   2025/03/28 11:35:01
Memo.             
[...]
  -26443   -26442   -26441   -26441   -26442   -26442   -26442   -26441 
  -26441   -26439   -26439   -26441   -26441   -26442   -26442   -26442 
  -26442   -26441   -26442   -26441   -26439   -26441   -26441   -26438 
  -26441   -26441   -26441   -26442   -26439   -26437   -26438   -26439 
  -26439   -26441   -26443   -26442   -26439   -26441   -26441   -26439 
  -26438   -26438   -26439   -26441   -26443   -26446   -26442   -26441 
  -26442   -26441   -26443   -26445   -26441   -26437   -26441   -26445 
  -26442   -26438   -26442   -26443   -26439   -26438   -26439   -26441 
  -26442   -26441   -26443   -26442   -26439   -26442   -26445   -26442 
  -26439   -26441   -26443   -26441   -26439   -26441   -26442   -26441 
  -26439   -26441   -26442   -26442   -26441   -26439   -26438   -26441 
  -26442   -26443   -26445   -26439   -26439   -26443   -26442   -26441 
  -26441   -26441   -26442   -26443   -26445   -26445   -26441   -26443 
  -26445   -26441   -26442   -26445   -26441   -26441   -26443   -26443 
  -26442   -26442   -26439   -26439   -26442   -26443   -26439   -26439 
  -26441   -26442   -26441   -26438   -26439   -26441   -26439   -26441 
  -26441   -26437   -26438   -26445   -26443   -26439   -26442   -26442 
  -26438   -26439   -26443   -26442   -26441   -26441   -26439   -26441 
  -26441   -26441   -26445   -26445   -26442   -26441   -26441   -26441 
  -26441   -26438   -26438   -26439   -26442   -26441   -26441   -26443 
  -26442   -26439   -26438   -26439   -26441   -26442   -26442   -26439 
  -26439   -26442   -26441   -26441   -26441   -26439   -26441   -26441 
  -26439   -26441   -26442   -26441   -26441   -26442   -26441   -26442 
  -26443   -26439   -26438   -26442   -26441   -26442   -26442   -26441 
  -26443   -26443   -26441   -26439   -26442   -26443   -26442   -26442 
  -26442   -26442   -26443   -26443   -26441   -26441   -26442   -26442 
  -26442   -26441   -26439   -26442   -26442   -26441   -26439   -26441 
  -26443   -26443   -26441   -26442   -26443   -26442   -26441   -26441 
  -26441   -26442   -26442   -26442   -26441   -26439   -26441   -26441 
  -26441   -26442   -26441   -26442   -26443   -26441   -26441   -26443 
  -26441   -26441   -26443   -26441   -26439   -26442   -26442   -26439 
  -26441   -26443   -26442   -26441   -26441   -26442   -26443   -26441 
  -26437   -26438   -26441   -26442   -26442   -26442   -26441   -26441 
  -26442   -26441   -26439   -26441   -26441   -26441   -26442   -26442 
  -26439   -26441   -26442   -26438   -26437   -26439   -26442   -26442 
  -26439   -26438   -26439   -26442   -26442   -26442   -26441   -26439 
  -26439   -26443   -26443   -26441   -26442   -26443   -26442   -26441 
  -26441   -26442   -26442   -26441   -26441   -26441   -26441   -26443 
  -26443   -26439   -26438   -26439   -26442   -26443   -26442   -26442 
  -26443   -26442   -26441   -26441   -26441   -26441   -26441   -26442 
  -26443   -26442   -26441   -26441   -26442   -26443   -26441   -26441 
  -26443   -26442   -26441   -26442   -26442   -26441   -26439   -26439 
  -26442   -26441   -26438   -26441   -26442   -26439   -26439   -26441 
  -26441   -26441   -26441   -26441   -26439   -26438   -26439   -26441 
  -26441   -26442   -26441   -26438   -26441   -26442   -26438   -26438 
  -26445   -26445   -26438   -26438   -26441   -26439   -26442   -26442 
  -26439   -26441   -26442   -26441   -26441   -26438   -26438   -26442 
  -26442   -26439   -26441   -26441   -26439   -26439   -26441   -26441 
  -26439   -26438   -26437   -26437   -26438   -26439   -26442   -26441 
  -26439   -26441   -26441   -26439   -26441   -26441   -26441   -26442 
  -26441   -26438   -26442   -26443   -26439   -26439   -26441   -26441 
  -26441   -26441   -26441   -26442   -26442   -26441   -26439   -26439 
  -26438   -26439   -26439   -26439   -26438   -26439   -26439   -26441 
  -26441   -26441   -26441   -26439   -26439   -26439   -26439   -26438 
  -26438   -26441   -26441   -26438   -26438   -26442   -26441   -26438 
  -26442   -26443   -26442   -26443   -26442   -26441   -26441   -26439 
  -26439   -26441   -26439   -26438   -26441   -26441   -26439   -26439 
  -26441   -26438   -26439   -26441   -26439   -26441   -26442   -26441 
  -26439   -26441   -26439   -26438   -26442   -26442   -26439   -26441 
  -26442   -26439   -26438   -26439   -26439   -26438   -26441   -26439 
  -26439   -26441   -26439   -26439   -26442   -26439   -26439   -26442 
  -26441   -26441   -26441   -26439   -26441   -26443   -26442   -26439 
  -26439   -26441   -26443   -26443   -26442   -26442   -26443   -26443 
  -26441   -26438   -26439   -26443   -26442   -26441   -26443   -26442 
  -26439   -26439   -26439   -26441   -26441   -26441   -26441   -26441 
  -26441   -26443   -26442   -26441   -26441   -26441   -26442   -26441 
  -26439   -26443   -26442   -26437   -26438   -26441   -26439   -26439 
  -26441   -26441   -26439   -26439   -26442   -26443   -26442   -26442 
  -26441   -26441   -26445   -26442   -26437   -26439   -26442   -26439 
  -26441   -26442   -26442   -26442   -26441   -26439   -26442   -26441 
  -26441   -26445   -26442   -26438   -26439   -26439   -26439   -26442 
  -26442   -26441   -26441   -26441   -26439   -26441   -26442   -26441 
  -26441   -26441   -26442   -26443   -26442   -26442   -26445   -26442 
  -26439   -26443   -26443   -26439   -26441   -26443   -26442   -26441 
  -26441   -26441   -26442   -26442   -26442   -26441   -26439   -26441 
  -26441   -26441   -26442   -26442   -26439   -26441   -26442   -26442 
  -26442   -26443   -26443   -26441   -26439   -26441   -26441   -26441 
  -26442   -26441   -26439   -26441   -26442   -26439   -26437   -26437 
  -26439   -26442   -26442   -26443   -26442   -26441   -26442   -26441 
  -26439   -26441   -26445   -26442   -26439   -26441   -26439   -26441 
  -26443   -26441   -26442   -26442   -26439   -26441   -26438   -26435 
  -26441   -26443   -26439   -26439   -26441   -26441   -26438   -26437 
  -26438   -26441   -26443   -26441   -26439   -26439   -26441   -26439 
  -26441   -26442   -26441   -26438   -26437   -26441   -26442   -26441 
  -26441   -26442   -26441   -26439   -26439   -26442   -26442   -26439 
  -26438   -26438   -26439   -26441   -26438   -26439   -26442   -26442 
  -26442   -26442   -26442   -26441   -26441   -26441   -26441   -26441 
  -26439   -26441   -26441   -26442   -26443   -26442   -26441   -26442 
  -26441   -26439   -26439   -26442   -26441   -26442   -26443   -26443 
  -26441   -26439   -26438   -26438   -26439   -26442   -26442   -26441 
  -26439   -26439   -26439   -26439   -26439   -26441   -26439   -26441 
  -26442   -26439   -26439   -26439   -26438   -26441   -26441   -26439 
  -26442   -26442   -26439   -26441   -26442   -26441   -26441   -26439 
  -26437   -26439   -26441   -26439   -26441   -26441   -26441   -26441 
  -26438   -26439   -26442   -26441   -26439   -26438   -26439   -26442 
  -26441   -26439   -26441   -26441   -26441   -26441   -26443   -26442 
  -26439   -26439   -26441   -26439   -26439   -26441   -26441   -26439 
  -26441   -26441   -26441   -26441   -26441   -26442   -26441   -26439 
  -26439   -26439   -26438   -26441   -26439   -26442   -26446   -26442 
  -26442   -26443   -26441   -26439   -26441   -26441   -26442   -26442 
  -26442   -26442   -26439   -26442   -26445   -26441   -26441   -26443 
  -26442   -26439   -26439   -26439   -26441   -26439   -26439   -26441 
  -26441   -26441   -26441   -26442   -26442   -26441   -26439   -26438 
  -26438   -26439   -26439   -26438   -26438   -26441   -26441   -26439 
  -26438   -26438   -26438   -26439   -26441   -26439   -26438   -26439 
  -26443   -26441   -26437   -26438   -26443   -26441   -26435   -26438 
  -26441   -26438   -26441   -26441   -26437   -26438   -26441   -26438 
  -26438   -26442   -26441   -26438   -26442   -26445   -26441   -26439 
  -26442   -26439   -26439   -26441   -26442   -26442   -26441   -26441 
  -26441   -26441   -26439   -26441   -26441   -26438   -26439   -26443 
  -26442   -26439   -26442   -26442   -26439   -26438   -26438   -26438 
  -26442   -26445   -26441   -26441   -26445   -26446   -26441   -26441 
  -26442   -26441   -26443   -26443   -26439   -26439   -26443   -26441 
  -26441   -26442   -26442   -26439   -26441   -26442   -26443   -26442 
  -26441   -26439   -26441   -26441   -26441   -26442   -26441   -26441 
  -26442   -26442   -26443   -26443   -26439   -26439   -26443   -26441 
  -26441   -26442   -26441   -26442   -26443   -26441   -26441   -26442 
  -26442   -26443   -26443   -26441   -26442   -26443   -26442   -26441 
  -26443   -26443   -26441   -26441   -26441   -26439   -26442   -26445 
  -26443   -26439   -26442   -26442   -26441   -26443   -26442   -26439 
  -26439   -26441   -26442   -26441   -26441   -26441   -26441   -26441 
  -26441   -26438   -26441   -26445   -26445   -26441   -26439   -26439 
  -26442   -26445   -26442   -26441   -26442   -26442   -26442   -26443 
  -26443   -26441   -26439   -26441   -26441   -26442   -26442   -26442 
  -26439   -26437   -26441   -26442   -26441   -26445   -26443   -26439 
  -26442   -26445   -26443   -26442   -26442   -26443   -26442   -26442 
  -26442   -26441   -26441   -26443   -26442   -26441   -26441   -26441 
  -26442   -26441   -26438   -26441   -26443   -26441   -26438   -26439 
  -26441   -26441   -26441   -26441   -26441   -26441   -26442   -26442 
  -26439   -26437   -26438   -26439   -26441   -26442   -26441   -26439 
  -26441   -26441   -26441   -26441   -26441   -26442   -26443   -26442 
  -26441   -26442   -26443   -26441   -26439   -26442   -26442   -26443 
  -26442   -26441   -26442   -26443   -26442   -26439   -26439   -26441 
  -26441   -26439   -26439   -26439   -26439   -26441   -26439   -26438 
  -26442   -26443   -26439   -26439   -26441   -26438   -26439   -26445 
  -26443   -26438   -26439   -26442   -26439   -26438   -26439   -26442 
  -26443   -26442   -26441   -26439   -26441   -26441   -26442   -26442 
  -26439   -26438   -26442   -26443   -26442   -26443   -26442   -26441 
  -26443   -26442   -26441   -26443   -26443   -26441   -26442   -26442 
  -26441   -26442   -26442   -26441   -26439   -26439   -26441   -26441 
  -26442   -26442   -26439   -26439   -26442   -26439   -26439   -26442 
  -26442   -26441   -26441   -26439   -26441   -26442   -26442   -26442 
  -26441   -26441   -26442   -26439   -26441   -26443   -26442   -26441 
  -26441   -26441   -26439   -26439   -26441   -26441   -26438   -26441 
  -26445   -26442   -26439   -26441   -26441   -26441   -26439   -26441 
  -26441   -26441   -26443   -26445   -26441   -26441   -26443   -26441 
  -26439   -26441   -26441   -26443   -26443   -26441   -26439   -26441 
  -26443   -26442   -26439   -26441   -26441   -26438   -26441   -26442 
  -26441   -26439   -26441   -26441   -26441   -26441   -26441   -26443 
  -26445   -26441   -26439   -26442   -26442   -26442   -26445   -26442 
  -26441   -26443   -26443   -26441   -26442   -26439   -26439   -26445 
  -26443   -26441   -26443   -26442   -26441   -26443   -26446   -26443 
  -26441   -26439   -26441   -26443   -26443   -26443   -26441   -26439 
  -26442   -26443   -26441   -26439   -26441   -26441   -26442   -26441 
  -26439   -26442   -26442   -26442   -26442   -26439   -26441   -26442 
  -26439   -26441   -26442   -26441   -26442   -26442   -26441   -26442 
  -26439   -26438   -26442   -26442   -26439   -26441   -26441   -26439 
  -26441   -26441   -26441   -26442   -26442   -26442   -26443   -26442 
  -26442   -26442   -26439   -26439   -26443   -26441   -26441   -26442 
  -26441   -26441   -26442   -26442   -26442   -26442   -26443   -26443 
  -26439   -26442   -26443   -26438   -26438   -26442   -26439   -26441 
  -26443   -26439   -26437   -26441   -26441   -26441   -26442   -26443 
  -26443   -26442   -26441   -26441   -26441   -26442   -26442   -26441 
  -26442   -26443   -26442   -26443   -26442   -26438   -26438   -26438 
  -26439   -26442   -26441   -26438   -26439   -26439   -26439   -26438 
  -26438   -26441   -26441   -26438   -26441   -26442   -26441   -26442 
  -26441   -26441   -26439   -26441   -26442   -26441   -26441   -26441 
  -26441   -26441   -26441   -26441   -26441   -26441   -26442   -26442 
  -26438   -26441   -26443   -26439   -26439   -26441   -26441   -26442 
  -26441   -26438   -26438   -26438   -26442   -26442   -26438   -26439 
  -26442   -26439   -26438   -26439   -26439   -26439   -26441   -26441 
  -26438   -26439   -26441   -26442   -26442   -26439   -26439   -26441 
  -26439   -26439   -26442   -26442   -26442   -26442   -26442   -26441 
  -26442   -26442   -26439   -26439   -26439   -26441   -26442   -26439 
  -26439   -26442   -26442   -26441   -26442   -26442   -26442   -26442 
  -26443   -26441   -26439   -26438   -26441   -26443   -26442   -26439 
  -26441   -26442   -26439   -26439   -26441   -26442   -26443   -26441 
  -26439   -26439   -26439   -26439   -26443   -26442   -26438   -26441 
  -26443   -26441   -26439   -26438   -26438   -26438   -26442   -26443 
  -26439   -26439   -26442   -26439   -26438   -26442   -26442   -26439 
  -26439   -26439   -26441   -26443   -26442   -26439   -26442   -26442 
  -26439   -26438   -26441   -26441   -26441   -26442   -26441   -26439 
  -26442   -26442   -26438   -26439   -26441   -26439   -26439   -26439 
  -26439   -26439   -26442   -26442   -26438   -26438   -26441   -26441 
  -26441   -26441   -26439   -26441   -26442   -26439   -26438   -26441 
  -26442   -26451   -26496   -26632   -26870   -26977   -26623   -25951 
  -25578   -25767   -26248   -26686   -26833   -26659   -26361   -26217 
  -26393   -26634   -26671   -26578   -26369   -26185   -26374   -26644 
  -26507   -26284   -26114   -26040   -26422   -26819   -26977   -26919 
  -26343   -25806   -25879   -26388   -26875   -26990   -26920   -26511 
  -25868   -25909   -26428   -26623   -26457   -26279   -26438   -26609 
  -26433   -26399   -26730   -26950   -26690   -26196   -26018   -26163 
  -26253   -26395   -26678   -26665   -26442   -26418   -26385   -26342 
  -26496   -26473   -26229   -26206   -26312   -26424   -26681   -26839 
  -26739   -26542   -26403   -26439   -26441   -26316   -26246   -26131 
  -26023   -26244   -26750   -27062   -26858   -26446   -26192   -26183 
  -26380   -26457   -26379   -26401   -26374   -26327   -26423   -26514 
  -26604   -26674   -26507   -26206   -26221   -26550   -26627   -26412 
  -26323   -26387   -26472   -26504   -26469   -26468   -26508   -26530 
  -26496   -26383   -26304   -26392   -26505   -26493   -26442   -26414 
  -26396   -26308   -26242   -26472   -26628   -26441   -26400   -26464 
  -26387   -26466   -26634   -26605   -26466   -26346   -26358   -26519 
  -26503   -26266   -26234   -26431   -26539   -26480   -26392   -26414 
  -26458   -26449   -26518   -26589   -26476   -26329   -26318   -26414 
  -26551   -26566   -26453   -26337   -26272   -26346   -26497   -26607 
  -26570   -26424   -26339   -26307   -26509   -26755   -26488   -26196 
  -26266   -26349   -26424   -26443   -26426   -26445   -26357   -26364 
  -26515   -26590   -26616   -26593   -26499   -26338   -26271   -26497 
  -26688   -26460   -26177   -26338   -26592   -26542   -26482   -26412 
  -26173   -26140   -26404   -26604   -26584   -26441   -26330   -26435 
  -26667   -26657   -26509   -26451   -26285   -26154   -26319   -26573 
  -26674   -26505   -26176   -26053   -26234   -26470   -26684   -26863 
  -26705   -26226   -26075   -26466   -26750   -26590   -26302   -26115 
  -26152   -26477   -26958   -27155   -26827   -26379   -26013   -25906 
  -26383   -26715   -26464   -26249   -26237   -26580   -26948   -26634 
  -26318   -26489   -26547   -26156   -25677   -25841   -26356   -26389 
  -26260   -26557   -27008   -26960   -26518   -26299   -26484   -26883 
  -26963   -26453   -26029   -25980   -25871   -25940   -26455   -26759 
  -26624   -26545   -26514   -26501   -26646   -26727   -26732   -26460 
  -25899   -25930   -26474   -26707   -26643   -26568   -26472   -26261 
  -26190   -26453   -26713   -26825   -26732   -26423   -26262   -26293 
  -26273   -26030   -25776   -26069   -26555   -26682   -26798   -26863 
  -26582   -26353   -26476   -26703   -26747   -26558   -26345   -26283 
  -26245   -26288   -26576   -26697   -26411   -26165   -26234   -26447 
  -26595   -26624   -26524   -26283   -26191   -26325   -26338   -26374 
  -26503   -26414   -26385   -26547   -26595   -26615   -26547   -26269 
  -26126   -26276   -26491   -26609   -26653   -26578   -26343   -26195 
  -26271   -26489   -26750   -26815   -26635   -26443   -26366   -26407 
  -26509   -26590   -26574   -26357   -26038   -25928   -26077   -26283 
  -26464   -26613   -26725   -26692   -26430   -26307   -26412   -26308 
  -26188   -26384   -26570   -26599   -26546   -26447   -26473   -26551 
  -26605   -26701   -26620   -26387   -26292   -26349   -26511   -26582 
  -26427   -26334   -26399   -26411   -26387   -26430   -26474   -26526 
  -26607   -26515   -26350   -26377   -26392   -26329   -26418   -26514 
  -26445   -26312   -26199   -26237   -26434   -26485   -26341   -26252 
  -26303   -26465   -26666   -26739   -26572   -26295   -26148   -26233 
  -26516   -26794   -26815   -26662   -26590   -26538   -26404   -26384 
  -26493   -26481   -26377   -26343   -26299   -26262   -26362   -26484 
  -26518   -26522   -26550   -26578   -26481   -26298   -26208   -26156 
  -26184   -26408   -26539   -26480   -26496   -26566   -26536   -26414 
  -26284   -26289   -26411   -26454   -26412   -26422   -26458   -26496 
  -26566   -26585   -26519   -26426   -26346   -26352   -26443   -26519 
  -26554   -26535   -26465   -26434   -26465   -26485   -26492   -26570 
  -26663   -26649   -26611   -26572   -26435   -26320   -26302   -26250 
  -26215   -26293   -26361   -26360   -26377   -26435   -26465   -26411 
  -26347   -26377   -26445   -26442   -26397   -26407   -26441   -26435 
  -26430   -26443   -26427   -26404   -26426   -26458   -26493   -26546 
  -26541   -26474   -26442   -26433   -26472   -26569   -26584   -26527 
  -26469   -26385   -26350   -26357   -26329   -26342   -26396   -26435 
  -26495   -26534   -26501   -26439   -26414   -26427   -26369   -26335 
  -26481   -26590   -26551   -26480   -26361   -26330   -26434   -26447 
  -26430   -26478   -26481   -26461   -26437   -26389   -26418   -26503 
  -26507   -26414   -26350   -26360   -26383   -26441   -26489   -26466 
  -26431   -26388   -26362   -26397   -26443   -26446   -26416   -26427 
  -26430   -26389   -26443   -26523   -26489   -26446   -26465   -26512 
  -26568   -26559   -26464   -26399   -26399   -26388   -26401   -26427 
  -26420   -26476   -26536   -26497   -26453   -26431   -26408   -26391 
  -26369   -26372   -26411   -26442   -26487   -26530   -26462   -26354 
  -26373   -26433   -26433   -26451   -26488   -26493   -26481   -26472 
  -26458   -26422   -26414   -26453   -26472   -26445   -26400   -26410 
  -26439   -26428   -26461   -26500   -26439   -26347   -26295   -26330 
  -26458   -26515   -26455   -26422   -26418   -26414   -26457   -26496 
  -26487   -26497   -26524   -26474   -26407   -26404   -26408   -26416 
  -26447   -26445   -26437   -26418   -26369   -26370   -26388   -26391 
  -26466   -26545   -26524   -26450   -26391   -26410   -26470   -26482 
  -26485   -26493   -26460   -26442   -26482   -26520   -26534   -26543 
  -26501   -26400   -26353   -26387   -26423   -26434   -26422   -26411 
