Origin Time       2025/03/28 11:34:00
Lat.              32.978
Long.             131.158
Depth. (km)       12
Mag.              2.7
Station Code      KMMH18
Station Lat.      33.0031
Station Long.     131.0071
Station Height(m) 854.038
Record Time       2025/03/28 11:35:01
Sampling Freq(Hz) 100Hz
Duration Time(s)  120
Dir.              1
Scale Factor      3923(gal)/8224838
Max. Acc. (gal)   0.679
Last Correction   2025/03/28 11:35:01
Memo.             
[...]
   -9617    -9617    -9618    -9618    -9614    -9616    -9620    -9618 
   -9618    -9620    -9618    -9616    -9617    -9618    -9618    -9618 
   -9617    -9618    -9618    -9617    -9620    -9618    -9616    -9616 
   -9614    -9616    -9617    -9616    -9617    -9617    -9618    -9617 
   -9618    -9620    -9620    -9617    -9617    -9618    -9617    -9618 
   -9620    -9618    -9616    -9616    -9617    -9617    -9617    -9618 
   -9620    -9617    -9616    -9618    -9620    -9618    -9617    -9617 
   -9618    -9618    -9620    -9620    -9620    -9618    -9618    -9616 
   -9617    -9621    -9621    -9620    -9620    -9618    -9618    -9618 
   -9618    -9618    -9620    -9617    -9617    -9620    -9617    -9614 
   -9617    -9618    -9617    -9618    -9621    -9620    -9618    -9617 
   -9616    -9616    -9618    -9620    -9616    -9616    -9620    -9621 
   -9618    -9617    -9618    -9618    -9617    -9616    -9618    -9620 
   -9618    -9620    -9621    -9617    -9617    -9618    -9617    -9618 
   -9620    -9617    -9617    -9618    -9618    -9618    -9618    -9618 
   -9618    -9621    -9620    -9617    -9618    -9620    -9616    -9618 
   -9621    -9618    -9617    -9618    -9618    -9620    -9620    -9620 
   -9620    -9620    -9620    -9618    -9618    -9620    -9617    -9616 
   -9620    -9624    -9622    -9620    -9618    -9620    -9621    -9621 
   -9617    -9617    -9621    -9620    -9616    -9618    -9620    -9620 
   -9620    -9620    -9618    -9617    -9616    -9617    -9618    -9618 
   -9618    -9617    -9616    -9618    -9620    -9618    -9621    -9621 
   -9618    -9618    -9620    -9618    -9616    -9617    -9621    -9618 
   -9618    -9620    -9618    -9620    -9618    -9614    -9620    -9622 
   -9618    -9620    -9622    -9621    -9617    -9618    -9620    -9618 
   -9618    -9620    -9620    -9617    -9618    -9621    -9620    -9618 
   -9621    -9621    -9618    -9617    -9617    -9618    -9620    -9621 
   -9621    -9620    -9618    -9618    -9618    -9618    -9618    -9618 
   -9620    -9622    -9620    -9618    -9621    -9620    -9617    -9618 
   -9620    -9618    -9617    -9616    -9617    -9618    -9620    -9620 
   -9617    -9618    -9620    -9620    -9620    -9618    -9618    -9618 
   -9617    -9617    -9621    -9621    -9618    -9618    -9620    -9618 
   -9618    -9620    -9618    -9618    -9620    -9618    -9616    -9618 
   -9620    -9618    -9618    -9618    -9618    -9616    -9616    -9620 
   -9618    -9614    -9618    -9621    -9618    -9620    -9618    -9617 
   -9618    -9620    -9618    -9621    -9621    -9620    -9618    -9617 
   -9618    -9620    -9618    -9618    -9620    -9618    -9617    -9618 
   -9620    -9620    -9618    -9616    -9618    -9620    -9617    -9616 
   -9617    -9618    -9618    -9618    -9617    -9617    -9618    -9618 
   -9614    -9616    -9618    -9618    -9617    -9618    -9618    -9618 
   -9618    -9618    -9617    -9620    -9620    -9617    -9616    -9617 
   -9617    -9618    -9618    -9617    -9618    -9618    -9617    -9620 
   -9621    -9618    -9616    -9617    -9618    -9620    -9617    -9617 
   -9620    -9618    -9616    -9616    -9620    -9620    -9617    -9618 
   -9618    -9616    -9617    -9620    -9617    -9618    -9621    -9620 
   -9617    -9617    -9618    -9618    -9620    -9620    -9617    -9617 
   -9620    -9620    -9618    -9621    -9622    -9620    -9618    -9618 
   -9617    -9618    -9620    -9616    -9616    -9620    -9620    -9618 
   -9620    -9617    -9617    -9620    -9620    -9617    -9617    -9618 
   -9618    -9618    -9618    -9618    -9621    -9620    -9617    -9618 
   -9620    -9621    -9620    -9618    -9618    -9620    -9618    -9620 
   -9621    -9620    -9620    -9618    -9618    -9618    -9618    -9616 
   -9616    -9617    -9620    -9620    -9617    -9617    -9618    -9617 
   -9616    -9618    -9620    -9620    -9618    -9620    -9618    -9618 
   -9618    -9620    -9618    -9616    -9617    -9621    -9620    -9617 
   -9618    -9621    -9620    -9617    -9618    -9620    -9621    -9620 
   -9618    -9620    -9617    -9616    -9618    -9618    -9618    -9621 
   -9620    -9617    -9618    -9618    -9617    -9617    -9617    -9617 
   -9617    -9618    -9618    -9617    -9618    -9620    -9620    -9618 
   -9617    -9618    -9620    -9618    -9618    -9618    -9618    -9617 
   -9616    -9618    -9620    -9617    -9617    -9618    -9617    -9616 
   -9617    -9618    -9620    -9618    -9617    -9616    -9617    -9621 
   -9620    -9617    -9617    -9618    -9618    -9620    -9616    -9616 
   -9621    -9621    -9618    -9618    -9618    -9618    -9618    -9617 
   -9618    -9617    -9616    -9618    -9618    -9617    -9617    -9618 
   -9620    -9620    -9621    -9618    -9616    -9618    -9620    -9618 
   -9616    -9617    -9618    -9618    -9618    -9621    -9620    -9617 
   -9617    -9618    -9618    -9620    -9620    -9617    -9618    -9621 
   -9621    -9618    -9618    -9621    -9620    -9617    -9620    -9620 
   -9618    -9617    -9620    -9620    -9617    -9617    -9620    -9620 
   -9620    -9620    -9618    -9620    -9622    -9620    -9618    -9618 
   -9618    -9618    -9620    -9618    -9617    -9620    -9620    -9618 
   -9618    -9618    -9620    -9617    -9614    -9616    -9620    -9618 
   -9616    -9617    -9617    -9616    -9618    -9618    -9618    -9620 
   -9618    -9616    -9616    -9617    -9616    -9617    -9621    -9618 
   -9617    -9618    -9618    -9618    -9621    -9618    -9616    -9617 
   -9620    -9618    -9617    -9618    -9620    -9617    -9616    -9617 
   -9616    -9616    -9618    -9617    -9614    -9617    -9620    -9616 
   -9616    -9618    -9618    -9616    -9617    -9618    -9617    -9618 
   -9617    -9616    -9618    -9618    -9617    -9618    -9621    -9620 
   -9617    -9617    -9620    -9618    -9614    -9617    -9620    -9618 
   -9618    -9618    -9618    -9618    -9618    -9616    -9616    -9620 
   -9620    -9616    -9617    -9617    -9618    -9618    -9614    -9616 
   -9620    -9617    -9617    -9618    -9616    -9617    -9620    -9618 
   -9618    -9617    -9618    -9617    -9616    -9618    -9618    -9617 
   -9620    -9618    -9616    -9617    -9618    -9620    -9617    -9617 
   -9620    -9620    -9618    -9618    -9617    -9616    -9617    -9620 
   -9620    -9616    -9617    -9620    -9620    -9618    -9616    -9614 
   -9617    -9621    -9622    -9618    -9617    -9621    -9621    -9617 
   -9614    -9618    -9620    -9618    -9616    -9616    -9617    -9620 
   -9618    -9617    -9618    -9620    -9620    -9618    -9614    -9613 
   -9618    -9620    -9617    -9616    -9617    -9620    -9621    -9617 
   -9616    -9618    -9620    -9618    -9617    -9617    -9617    -9620 
   -9622    -9620    -9617    -9620    -9620    -9616    -9614    -9616 
   -9618    -9621    -9617    -9613    -9616    -9620    -9620    -9617 
   -9616    -9616    -9618    -9618    -9617    -9617    -9620    -9620 
   -9620    -9618    -9614    -9614    -9618    -9621    -9618    -9617 
   -9618    -9621    -9621    -9620    -9617    -9617    -9618    -9618 
   -9617    -9617    -9618    -9620    -9620    -9620    -9616    -9617 
   -9622    -9622    -9616    -9617    -9620    -9617    -9618    -9621 
   -9618    -9617    -9621    -9621    -9618    -9618    -9620    -9618 
   -9616    -9616    -9617    -9617    -9617    -9618    -9618    -9618 
   -9618    -9617    -9618    -9620    -9618    -9620    -9621    -9618 
   -9618    -9620    -9620    -9620    -9620    -9620    -9620    -9618 
   -9617    -9617    -9618    -9620    -9620    -9620    -9617    -9617 
   -9617    -9620    -9622    -9621    -9618    -9620    -9621    -9621 
   -9621    -9620    -9618    -9621    -9618    -9616    -9618    -9621 
   -9620    -9618    -9617    -9618    -9621    -9622    -9618    -9618 
   -9621    -9621    -9620    -9617    -9617    -9618    -9620    -9620 
   -9618    -9617    -9618    -9618    -9618    -9620    -9618    -9618 
   -9620    -9620    -9617    -9616    -9616    -9618    -9620    -9620 
   -9617    -9618    -9620    -9616    -9616    -9618    -9618    -9616 
   -9614    -9616    -9618    -9620    -9616    -9614    -9617    -9618 
   -9618    -9618    -9617    -9616    -9616    -9616    -9617    -9616 
   -9616    -9616    -9618    -9618    -9617    -9617    -9617    -9616 
   -9616    -9616    -9617    -9617    -9617    -9620    -9617    -9614 
   -9617    -9618    -9616    -9617    -9620    -9620    -9620    -9620 
   -9620    -9617    -9616    -9617    -9618    -9620    -9620    -9618 
   -9621    -9618    -9614    -9617    -9618    -9618    -9621    -9618 
   -9614    -9618    -9618    -9614    -9617    -9620    -9617    -9614 
   -9617    -9620    -9620    -9621    -9621    -9620    -9621    -9620 
   -9617    -9618    -9617    -9616    -9617    -9618    -9617    -9617 
   -9616    -9616    -9618    -9618    -9618    -9618    -9620    -9620 
   -9614    -9613    -9618    -9620    -9617    -9616    -9616    -9618 
   -9622    -9618    -9613    -9616    -9620    -9620    -9618    -9614 
   -9617    -9621    -9620    -9618    -9618    -9618    -9618    -9618 
   -9620    -9618    -9618    -9617    -9616    -9617    -9620    -9617 
   -9616    -9616    -9617    -9617    -9617    -9618    -9617    -9617 
   -9617    -9620    -9621    -9618    -9616    -9618    -9621    -9618 
   -9616    -9616    -9617    -9620    -9618    -9616    -9616    -9617 
   -9617    -9617    -9616    -9617    -9621    -9620    -9617    -9618 
   -9620    -9620    -9618    -9617    -9618    -9620    -9616    -9617 
   -9622    -9620    -9616    -9616    -9620    -9620    -9616    -9616 
   -9618    -9618    -9617    -9614    -9614    -9620    -9621    -9616 
   -9614    -9618    -9621    -9618    -9617    -9618    -9621    -9620 
   -9616    -9617    -9620    -9620    -9620    -9620    -9618    -9617 
   -9618    -9618    -9617    -9618    -9620    -9620    -9620    -9620 
   -9618    -9616    -9618    -9622    -9621    -9618    -9617    -9617 
   -9621    -9620    -9616    -9618    -9620    -9617    -9617    -9617 
   -9617    -9620    -9621    -9620    -9620    -9620    -9617    -9617 
   -9620    -9620    -9620    -9618    -9620    -9621    -9620    -9618 
   -9620    -9620    -9617    -9614    -9618    -9621    -9620    -9618 
   -9620    -9620    -9618    -9618    -9620    -9618    -9620    -9621 
   -9621    -9620    -9621    -9621    -9620    -9620    -9620    -9618 
   -9618    -9620    -9618    -9617    -9621    -9622    -9620    -9618 
   -9618    -9620    -9622    -9621    -9621    -9620    -9620    -9622 
   -9621    -9616    -9617    -9620    -9620    -9620    -9621    -9621 
   -9618    -9617    -9617    -9617    -9618    -9620    -9618    -9618 
   -9620    -9620    -9618    -9621    -9621    -9618    -9618    -9620 
   -9621    -9620    -9618    -9618    -9620    -9621    -9620    -9617 
   -9617    -9618    -9620    -9617    -9614    -9616    -9620    -9621 
   -9617    -9614    -9618    -9620    -9617    -9617    -9620    -9621 
   -9621    -9620    -9617    -9618    -9620    -9617    -9616    -9616 
   -9617    -9617    -9616    -9613    -9614    -9637    -9660    -9621 
   -9522    -9494    -9599    -9751    -9814    -9714    -9566    -9559 
   -9603    -9497    -9373    -9495    -9769    -9891    -9813    -9730 
   -9628    -9451    -9459    -9609    -9634    -9549    -9390    -9366 
   -9711   -10041    -9929    -9691    -9609    -9472    -9369    -9460 
   -9539    -9595    -9811    -9988    -9738    -9355    -9362    -9439 
   -9369    -9536    -9857   -10038   -10089    -9888    -9385    -9082 
   -9427    -9863    -9705    -9432    -9560    -9761    -9796    -9605 
   -9224    -9121    -9543   -10146   -10393    -9964    -9301    -9119 
   -9398    -9796    -9987    -9659    -9194    -9171    -9405    -9641 
   -9937   -10008    -9720    -9571    -9648    -9537    -9396    -9478 
   -9535    -9591    -9821    -9914    -9764    -9718    -9760    -9610 
   -9360    -9242    -9286    -9489    -9830   -10115   -10091    -9811 
   -9556    -9398    -9261    -9219    -9382    -9602    -9670    -9706 
   -9830    -9841    -9695    -9625    -9617    -9514    -9448    -9576 
   -9780    -9834    -9634    -9400    -9518    -9826    -9788    -9532 
   -9514    -9610    -9576    -9533    -9516    -9521    -9667    -9780 
   -9634    -9478    -9617    -9842    -9763    -9481    -9358    -9456 
   -9691    -9938    -9972    -9807    -9630    -9443    -9286    -9283 
   -9417    -9616    -9733    -9702    -9703    -9751    -9664    -9533 
   -9526    -9601    -9713    -9799    -9729    -9597    -9540    -9548 
   -9636    -9757    -9734    -9570    -9478    -9502    -9562    -9628 
   -9555    -9416    -9536    -9811    -9880    -9647    -9394    -9464 
   -9675    -9709    -9701    -9772    -9757    -9598    -9486    -9483 
   -9444    -9450    -9671    -9842    -9744    -9684    -9828    -9846 
   -9593    -9336    -9320    -9493    -9630    -9657    -9641    -9590 
   -9582    -9715    -9850    -9768    -9597    -9629    -9697    -9559 
   -9502    -9575    -9447    -9358    -9533    -9628    -9656    -9764 
   -9730    -9651    -9703    -9639    -9405    -9344    -9455    -9425 
   -9375    -9629   -10041   -10299   -10278    -9914    -9393    -9073 
   -9115    -9543   -10127   -10293    -9853    -9379    -9201    -9065 
   -8927    -8815    -8702    -8892    -9571   -10428   -10910   -10860 
  -10690   -10316    -9251    -8262    -8513    -9459   -10076   -10567 
  -11041   -10817    -9909    -9089    -8603    -8309    -8361    -8896 
   -9694   -10300   -10191    -9553    -9409    -9891   -10046    -9686 
   -9509    -9730    -9913    -9810    -9647    -9728   -10023   -10042 
   -9405    -8538    -8249    -8711    -9312    -9547    -9563    -9810 
  -10407   -10885   -10913   -10640   -10115    -9466    -9051    -9057 
   -9452    -9791    -9590    -9220    -9224    -9398    -9439    -9463 
   -9539    -9509    -9308    -9065    -9121    -9821   -10665   -10565 
   -9590    -8820    -8598    -8865    -9753   -10714   -10910   -10417 
   -9802    -9321    -9066    -9023    -9020    -9162    -9715   -10314 
  -10330    -9888    -9495    -9313    -9391    -9587    -9468    -9082 
   -9007    -9418    -9934   -10201   -10126    -9852    -9666    -9629 
   -9528    -9337    -9288    -9510    -9934   -10355   -10530   -10287 
   -9701    -9115    -8841    -8935    -9296    -9709    -9869    -9684 
   -9336    -9039    -8951    -9121    -9443    -9744    -9882    -9842 
   -9787    -9813    -9833    -9894   -10056   -10139   -10066    -9918 
   -9636    -9227    -8953    -9072    -9506    -9821    -9756    -9625 
   -9733    -9767    -9458    -9270    -9508    -9707    -9539    -9290 
   -9364    -9783   -10102   -10010    -9784    -9744    -9821    -9865 
   -9791    -9537    -9239    -9162    -9356    -9667    -9877    -9782 
   -9477    -9292    -9275    -9343    -9578    -9921   -10120   -10081 
   -9880    -9653    -9486    -9300    -9100    -9138    -9470    -9780 
   -9859    -9795    -9674    -9463    -9198    -9073    -9294    -9736 
  -10045   -10146   -10150   -10064    -9938    -9844    -9801    -9811 
   -9744    -9520    -9310    -9267    -9369    -9533    -9655    -9690 
   -9664    -9575    -9464    -9391    -9321    -9270    -9306    -9406 
   -9612    -9915   -10073   -10000    -9900    -9782    -9578    -9498 
   -9610    -9618    -9424    -9286    -9321    -9381    -9405    -9451 
   -9533    -9655    -9794    -9944   -10075   -10030    -9783    -9603 
   -9643    -9713    -9597    -9346    -9255    -9502    -9809    -9842 
   -9722    -9682    -9701    -9711    -9717    -9701    -9636    -9499 
   -9350    -9320    -9375    -9387    -9400    -9486    -9582    -9668 
   -9784    -9879    -9911    -9898    -9834    -9732    -9552    -9336 
   -9316    -9490    -9568    -9567    -9683    -9818    -9834    -9768 
   -9630    -9470    -9448    -9558    -9624    -9645    -9717    -9788 
   -9788    -9718    -9628    -9616    -9693    -9741    -9713    -9663 
   -9617    -9574    -9545    -9450    -9265    -9196    -9267    -9271 
   -9278    -9472    -9717    -9834    -9906    -9967    -9918    -9825 
   -9787    -9747    -9678    -9630    -9632    -9660    -9632    -9535 
   -9466    -9452    -9416    -9402    -9482    -9549    -9578    -9660 
   -9734    -9736    -9701    -9610    -9479    -9459    -9572    -9640 
   -9620    -9620    -9622    -9590    -9571    -9580    -9645    -9805 
   -9922    -9865    -9779    -9786    -9737    -9595    -9513    -9517 
   -9535    -9562    -9597    -9589    -9531    -9499    -9574    -9752 
   -9869    -9763    -9556    -9482    -9529    -9522    -9432    -9366 
   -9364    -9397    -9464    -9556    -9610    -9632    -9687    -9782 
   -9859    -9852    -9768    -9698    -9683    -9670    -9670    -9757 
   -9856    -9814    -9690    -9660    -9702    -9676    -9601    -9559 
   -9553    -9575    -9585    -9551    -9536    -9560    -9587    -9648 
   -9721    -9709    -9656    -9655    -9647    -9593    -9558    -9548 
   -9494    -9394    -9354    -9414    -9482    -9479    -9463    -9501 
   -9552    -9567    -9559    -9552    -9545    -9547    -9607    -9721 
   -9780    -9745    -9691    -9705    -9782    -9832    -9796    -9717 
   -9652    -9618    -9626    -9680    -9722    -9705    -9679    -9671 
   -9632    -9562    -9517    -9526    -9551    -9549    -9570    -9661 
   -9724    -9671    -9612    -9609    -9583    -9535    -9522    -9540 
   -9594    -9679    -9710    -9657    -9586    -9514    -9472    -9548 
   -9672    -9659    -9540    -9512    -9626    -9736    -9715    -9639 
   -9625    -9656    -9663    -9652    -9655    -9652    -9643    -9668 
   -9715    -9737    -9726    -9655    -9540    -9487    -9516    -9526 
   -9535    -9605    -9651    -9605    -9551    -9562    -9601    -9605 
   -9563    -9528    -9549    -9594    -9617    -9613    -9583    -9559 
   -9587    -9639    -9651    -9643    -9667    -9683    -9666    -9671 
   -9671    -9607    -9564    -9602    -9629    -9595    -9583    -9632 
   -9663    -9640    -9652    -9713    -9699    -9620    -9625    -9707 
   -9732    -9668    -9609    -9620    -9687    -9721    -9659    -9574 
   -9559    -9570    -9559    -9562    -9572    -9532    -9486    -9505 
   -9516    -9502    -9570    -9643    -9612    -9585    -9603    -9580 
   -9572    -9652    -9725    -9703    -9628    -9589    -9610    -9628 
   -9618    -9643    -9705    -9737    -9714    -9687    -9699    -9715 
   -9693    -9649    -9639    -9671    -9683    -9634    -9576    -9555 
   -9566    -9586    -9583    -9559    -9558    -9594    -9634    -9636 
   -9579    -9514    -9540    -9652    -9702    -9634    -9583    -9628 
   -9682    -9683    -9645    -9585    -9531    -9501    -9491    -9516 
   -9545    -9537    -9533    -9575    -9603    -9587    -9583    -9617 
   -9641    -9634    -9630    -9651    -9683    -9695    -9670    -9647 
   -9680    -9721    -9701    -9675    -9693    -9694    -9675    -9690 
   -9713    -9698    -9664    -9628    -9591    -9587    -9591    -9556 
   -9522    -9532    -9559    -9575    -9570    -9541    -9545    -9594 
   -9633    -9653    -9660    -9637    -9603    -9586    -9579    -9578 
   -9580    -9571    -9572    -9614    -9649    -9637    -9624    -9624 
   -9605    -9576    -9563    -9586    -9644    -9684    -9661    -9616 
