Origin Time       2025/03/28 11:34:00
Lat.              32.978
Long.             131.158
Depth. (km)       12
Mag.              2.7
Station Code      KMMH05
Station Lat.      32.9553
Station Long.     131.2207
Station Height(m) 593
Record Time       2025/03/28 11:35:02
Sampling Freq(Hz) 100Hz
Duration Time(s)  120
Dir.              1
Scale Factor      3923(gal)/8224838
Max. Acc. (gal)   0.941
Last Correction   2025/03/28 11:35:02
Memo.             
[...]
    5097     5096     5096     5094     5097     5100     5097     5097 
    5098     5097     5096     5096     5097     5093     5093     5097 
    5097     5097     5097     5094     5094     5096     5096     5093 
    5094     5097     5096     5094     5096     5096     5097     5097 
    5094     5096     5097     5097     5097     5098     5098     5094 
    5094     5097     5097     5100     5100     5098     5098     5098 
    5097     5097     5097     5096     5094     5094     5096     5096 
    5096     5097     5097     5097     5097     5097     5097     5096 
    5097     5097     5096     5094     5096     5097     5097     5097 
    5097     5096     5097     5097     5098     5101     5098     5094 
    5094     5098     5098     5097     5098     5097     5097     5100 
    5097     5096     5098     5100     5100     5098     5097     5096 
    5096     5096     5096     5096     5094     5096     5097     5097 
    5097     5097     5097     5096     5096     5097     5098     5100 
    5098     5097     5097     5097     5097     5098     5097     5093 
    5096     5100     5097     5094     5094     5097     5098     5096 
    5097     5097     5093     5094     5096     5096     5096     5098 
    5098     5098     5097     5092     5093     5097     5097     5096 
    5096     5096     5096     5096     5096     5097     5097     5097 
    5097     5097     5097     5097     5098     5098     5097     5096 
    5096     5096     5096     5097     5097     5096     5098     5100 
    5096     5094     5096     5098     5098     5096     5096     5097 
    5094     5096     5096     5096     5098     5097     5096     5100 
    5100     5096     5100     5101     5098     5098     5098     5096 
    5096     5097     5096     5096     5100     5101     5096     5093 
    5094     5096     5098     5098     5097     5097     5097     5096 
    5097     5096     5096     5098     5097     5094     5098     5097 
    5093     5096     5100     5100     5100     5097     5094     5096 
    5097     5098     5100     5098     5097     5096     5094     5096 
    5096     5096     5098     5100     5097     5098     5100     5094 
    5093     5096     5097     5098     5098     5100     5100     5096 
    5094     5097     5097     5098     5100     5098     5098     5097 
    5097     5098     5098     5096     5096     5096     5094     5098 
    5101     5098     5097     5097     5096     5096     5097     5098 
    5098     5096     5096     5098     5100     5097     5094     5096 
    5097     5097     5100     5101     5098     5096     5094     5096 
    5096     5094     5094     5094     5096     5098     5097     5097 
    5098     5097     5094     5096     5098     5097     5096     5097 
    5101     5100     5096     5093     5096     5098     5100     5097 
    5096     5097     5096     5096     5098     5098     5098     5097 
    5094     5093     5098     5103     5097     5094     5098     5100 
    5097     5097     5097     5094     5094     5097     5098     5097 
    5096     5096     5097     5098     5094     5093     5096     5097 
    5096     5097     5097     5098     5098     5094     5096     5098 
    5094     5094     5096     5094     5096     5097     5097     5096 
    5096     5096     5096     5097     5097     5098     5098     5096 
    5096     5097     5098     5097     5098     5097     5096     5096 
    5096     5096     5097     5098     5097     5098     5098     5097 
    5096     5097     5097     5097     5097     5098     5098     5098 
    5097     5097     5097     5096     5096     5098     5098     5097 
    5096     5098     5098     5098     5098     5098     5098     5097 
    5093     5094     5097     5098     5098     5098     5097     5097 
    5097     5097     5096     5094     5097     5100     5100     5097 
    5096     5094     5096     5094     5096     5097     5098     5098 
    5097     5096     5096     5097     5096     5096     5097     5096 
    5094     5096     5098     5097     5096     5094     5096     5097 
    5096     5096     5098     5097     5094     5096     5096     5097 
    5097     5096     5097     5098     5098     5097     5098     5098 
    5094     5093     5094     5097     5098     5096     5094     5094 
    5094     5096     5097     5097     5096     5098     5097     5094 
    5098     5098     5096     5096     5097     5098     5097     5093 
    5094     5097     5094     5094     5098     5100     5097     5094 
    5092     5094     5097     5097     5097     5098     5096     5096 
    5096     5096     5096     5096     5097     5098     5098     5097 
    5097     5098     5097     5096     5094     5094     5097     5098 
    5094     5094     5096     5096     5096     5097     5098     5098 
    5098     5097     5097     5097     5097     5096     5096     5096 
    5096     5097     5098     5096     5097     5098     5097     5094 
    5097     5098     5096     5097     5100     5100     5098     5096 
    5094     5098     5097     5094     5096     5098     5097     5098 
    5101     5098     5094     5094     5096     5097     5098     5097 
    5097     5098     5100     5098     5096     5094     5093     5093 
    5098     5100     5098     5100     5098     5097     5097     5094 
    5090     5093     5097     5097     5097     5098     5097     5096 
    5096     5096     5094     5093     5096     5097     5096     5097 
    5097     5094     5094     5098     5098     5097     5096     5094 
    5094     5100     5100     5101     5101     5098     5097     5098 
    5097     5096     5096     5098     5098     5094     5096     5097 
    5096     5094     5097     5098     5096     5097     5098     5097 
    5097     5100     5097     5093     5093     5097     5097     5094 
    5097     5097     5096     5098     5098     5097     5096     5096 
    5094     5094     5097     5097     5097     5098     5098     5098 
    5098     5098     5096     5097     5097     5098     5098     5096 
    5096     5097     5097     5096     5094     5096     5096     5097 
    5097     5097     5096     5096     5096     5096     5096     5094 
    5097     5100     5098     5097     5098     5097     5096     5096 
    5096     5098     5100     5096     5094     5096     5096     5096 
    5094     5093     5094     5096     5096     5096     5097     5098 
    5098     5097     5096     5096     5097     5096     5097     5098 
    5098     5100     5097     5094     5096     5098     5098     5097 
    5096     5096     5094     5094     5097     5098     5094     5094 
    5096     5094     5093     5094     5096     5094     5096     5096 
    5096     5094     5094     5097     5097     5094     5094     5098 
    5100     5097     5097     5097     5096     5096     5098     5097 
    5096     5098     5098     5097     5097     5097     5096     5096 
    5097     5097     5097     5097     5098     5097     5097     5097 
    5096     5098     5100     5097     5094     5094     5098     5097 
    5094     5093     5093     5096     5097     5097     5100     5100 
    5097     5094     5093     5094     5097     5098     5097     5096 
    5096     5094     5096     5097     5096     5097     5098     5097 
    5096     5097     5098     5097     5096     5096     5097     5098 
    5097     5097     5096     5094     5097     5097     5094     5097 
    5098     5096     5097     5100     5096     5094     5097     5096 
    5096     5098     5097     5096     5094     5096     5098     5098 
    5096     5097     5098     5094     5094     5098     5098     5096 
    5098     5101     5098     5096     5097     5098     5097     5094 
    5096     5098     5100     5100     5100     5096     5094     5097 
    5097     5096     5096     5096     5094     5098     5101     5097 
    5096     5098     5097     5097     5098     5097     5097     5097 
    5096     5094     5096     5097     5097     5096     5096     5098 
    5098     5098     5098     5097     5097     5096     5096     5096 
    5098     5097     5096     5096     5096     5094     5097     5100 
    5098     5097     5100     5098     5096     5097     5097     5097 
    5097     5097     5096     5097     5100     5098     5096     5094 
    5094     5096     5097     5096     5098     5100     5101     5100 
    5098     5098     5100     5098     5097     5098     5100     5097 
    5097     5100     5098     5097     5096     5094     5097     5100 
    5100     5098     5098     5097     5096     5097     5098     5097 
    5098     5100     5098     5097     5097     5096     5094     5094 
    5096     5097     5098     5100     5100     5097     5097     5097 
    5096     5097     5097     5097     5098     5098     5098     5098 
    5097     5096     5097     5097     5094     5098     5103     5100 
    5097     5098     5098     5096     5093     5096     5098     5096 
    5096     5098     5098     5097     5096     5094     5094     5096 
    5097     5097     5097     5097     5097     5097     5096     5094 
    5093     5093     5096     5097     5097     5098     5098     5097 
    5096     5098     5100     5097     5096     5097     5098     5098 
    5098     5097     5097     5097     5096     5096     5094     5094 
    5094     5097     5097     5096     5098     5098     5097     5096 
    5096     5098     5101     5098     5094     5096     5096     5094 
    5094     5097     5098     5098     5098     5097     5097     5097 
    5096     5094     5094     5097     5097     5094     5097     5100 
    5096     5096     5097     5098     5097     5094     5096     5096 
    5096     5098     5098     5094     5094     5094     5096     5096 
    5097     5098     5097     5097     5097     5094     5094     5096 
    5096     5096     5096     5094     5096     5097     5094     5094 
    5096     5094     5093     5096     5100     5098     5097     5096 
    5097     5097     5097     5096     5096     5096     5094     5096 
    5097     5097     5097     5097     5097     5098     5098     5097 
    5097     5097     5097     5097     5098     5097     5096     5097 
    5100     5098     5097     5097     5096     5094     5097     5100 
    5100     5097     5096     5096     5094     5096     5098     5097 
    5094     5097     5097     5096     5096     5096     5094     5096 
    5097     5096     5098     5100     5097     5097     5097     5094 
    5094     5096     5097     5097     5096     5097     5098     5097 
    5097     5096     5093     5097     5101     5098     5094     5096 
    5097     5097     5097     5098     5098     5096     5094     5097 
    5096     5096     5096     5096     5100     5098     5093     5093 
    5098     5100     5097     5097     5100     5100     5096     5097 
    5097     5096     5097     5098     5096     5096     5097     5096 
    5094     5096     5097     5096     5097     5100     5100     5097 
    5094     5097     5100     5097     5097     5098     5098     5097 
    5096     5097     5100     5097     5093     5096     5097     5096 
    5096     5098     5098     5098     5094     5093     5096     5097 
    5097     5098     5098     5098     5098     5097     5093     5092 
    5096     5097     5096     5097     5101     5100     5097     5094 
    5092     5092     5097     5098     5098     5100     5096     5094 
    5098     5097     5093     5096     5100     5100     5096     5096 
    5097     5097     5096     5096     5097     5097     5094     5094 
    5098     5098     5094     5093     5094     5093     5093     5097 
    5100     5096     5092     5096     5100     5097     5096     5097 
    5097     5096     5094     5098     5098     5096     5094     5094 
    5094     5097     5098     5098     5098     5098     5094     5096 
    5100     5096     5094     5098     5100     5097     5100     5104 
    5100     5096     5094     5093     5094     5100     5105     5107 
    5103     5093     5074     5073     5109     5144     5112     5065 
    5104     5157     5127     5054     4997     5026     5119     5148 
    5163     5190     5077     4988     5080     5090     5031     5127 
    5177     5080     5104     5212     5155     4993     4968     5105 
    5119     5043     5138     5169     5084     5120     5094     5097 
    5248     5049     4845     5113     5144     5128     5368     5047 
    4730     5078     5274     5150     5067     5054     5019     5077 
    5292     5190     5005     5146     5100     4951     5022     5116 
    5227     5136     5008     5136     5103     5092     5147     4942 
    4995     5201     5221     5186     4997     5038     5224     5101 
    5027     4990     4985     5150     5178     5152     5167     5121 
    4986     4992     5212     5101     4977     5139     5000     5031 
    5340     5188     5096     5094     4892     5073     5224     5193 
    5157     4926     5107     5127     4822     5278     5263     4711 
    5238     5454     4901     5024     5140     5051     5138     4928 
    5031     5305     5066     5116     5347     5103     4958     5008 
    5019     5159     5047     4984     5247     5193     5205     5098 
    4689     5103     5398     4897     5078     5368     5008     5092 
    5116     4912     5351     5205     4681     5165     5300     4892 
    5117     5206     5098     5324     5019     4595     5070     5486 
    5352     5458     5437     4337     3346     3751     4310     5098 
    6741     7069     5433     4097     4372     5765     6643     5715 
    4405     4595     5514     5675     5302     5192     4807     4521 
    4878     4534     4710     5832     5107     4787     6258     5416 
    3681     4388     5055     4675     4941     5335     5603     6077 
    5760     4966     4391     3985     4560     5684     5876     5279 
    5242     5823     5665     4953     4307     4143     4993     4822 
    3680     4653     6151     6280     6547     5713     4125     5240 
    6497     4807     3696     4768     5425     5080     4907     5304 
    5589     5117     4849     5362     5541     5046     4325     3917 
    4557     5381     5136     4884     5401     5510     5300     5659 
    5826     5063     4066     3929     4645     5429     5715     5125 
    4448     4869     5526     5321     4965     4853     5004     5505 
    5607     5449     5393     5104     4966     4904     4942     5529 
    5711     5038     4599     4930     5039     4450     4568     5042 
    4745     5009     5634     5520     5437     5217     5097     5589 
    5296     4440     4405     5125     5764     5456     4978     5073 
    5024     5113     5505     5255     4837     5092     4963     4374 
    4720     5292     5125     5101     5173     4903     5151     5553 
    5377     5382     5236     4785     4699     4606     5001     5520 
    5044     4949     5472     5579     5444     4943     4762     5395 
    5263     4329     4460     5258     5400     5449     5383     4990 
    5086     5121     4877     4993     5086     5260     5400     5144 
    5232     5131     4730     5148     5157     4631     5136     5436 
    5053     5105     5084     5032     5328     5139     4689     4831 
    5062     4938     5027     5366     5329     5008     4842     4893 
    5076     5130     5119     5190     5065     5055     5390     5271 
    4847     5100     5460     5169     4955     5143     5252     5162 
    4973     4962     5092     5022     4935     5111     5328     5136 
    4783     4888     5067     4999     5049     5197     5227     5003 
    4914     5194     5316     5378     5374     5049     4928     4995 
    5073     5355     5464     5196     4945     4919     4941     5005 
    5220     5262     5058     4968     4914     4819     4935     5046 
    5022     5173     5324     5301     5335     5363     5310     5240 
    5024     4757     4788     5000     5081     5134     5189     5213 
    5209     5097     5121     5225     5088     4957     4922     4866 
    5015     5223     5192     5178     5169     5012     4986     5071 
    5182     5208     4897     4816     5193     5202     5035     5185 
    4993     4824     5289     5317     4932     4966     4996     5044 
    5267     5189     4924     4908     5074     5107     5088     5231 
    5432     5368     5066     4963     4934     5005     5381     5362 
    5057     5138     5152     5036     5123     5066     4870     4973 
    5209     5197     5139     5125     4970     5035     5178     4961 
    5023     5286     5050     4842     5077     5341     5439     5379 
    5105     4864     5013     5076     4808     4958     5292     5111 
    5098     5341     5005     4801     5174     5223     5043     4912 
    4835     5104     5251     5094     5138     5162     5011     5062 
    5155     5016     5022     5248     5235     5043     4970     5019 
    5173     5251     5185     5148     5139     5136     5142     5121 
    5074     5019     5046     5108     5182     5182     4957     4916 
    5071     5001     5058     5216     5108     5035     5044     5066 
    5242     5328     5217     5085     5038     5138     5131     4949 
    4980     5055     4953     5039     5301     5413     5375     5281 
    5144     4935     4826     4924     4966     5084     5282     5103 
    4893     4974     4974     5030     5211     5150     5074     5135 
    5066     5062     5143     5085     5084     5069     5008     5142 
    5181     5092     5070     4966     5058     5270     5161     5123 
    5211     5125     5152     5221     5038     4831     4911     5127 
    5092     5049     5243     5201     5054     5215     5296     5103 
    4946     5053     5254     5155     4974     5093     5185     5104 
    5061     4936     4884     5078     5121     5030     5139     5278 
    5273     5169     5013     4918     4951     5081     5158     5117 
    5108     5132     5152     5198     5121     5035     5174     5262 
    5166     5076     5032     5092     5169     5063     4912     5024 
    5193     5108     5040     5071     5042     5038     5042     5019 
    4986     4986     5085     5159     5144     5117     5124     5224 
    5355     5239     4938     4965     5229     5184     4986     5030 
    5219     5243     5059     4954     5034     5179     5186     5023 
    4993     5080     5047     5035     5161     5182     5078     5111 
    5092     4951     5000     5035     5022     5157     5185     5147 
    5201     5175     5116     5152     5169     5013     4926     5107 
    5184     5036     4982     5051     5104     5155     5223     5179 
    5040     4988     5030     5086     5136     5163     5127     5013 
    4980     5113     5233     5196     5077     5035     5081     5085 
    5040     5042     5112     5144     5105     5211     5313     5067 
    4880     5103     5224     5027     4973     5124     5157     5132 
    5194     5184     5088     5034     5034     5084     5117     5107 
    5070     4986     4935     5015     5209     5312     5205     5088 
    5066     5092     5134     5177     5161     4993     4903     5062 
    5174     5157     5134     5094     5094     5101     5090     5143 
    5130     4989     4959     5050     5111     5182     5202     5113 
    5051     5047     5070     5138     5158     5096     5055     5071 
