Origin Time       2025/03/28 11:34:00
Lat.              32.978
Long.             131.158
Depth. (km)       12
Mag.              2.7
Station Code      KMMH05
Station Lat.      32.9553
Station Long.     131.2207
Station Height(m) 693
Record Time       2025/03/28 11:35:02
Sampling Freq(Hz) 100Hz
Duration Time(s)  120
Dir.              5
Scale Factor      7845(gal)/8223790
Max. Acc. (gal)   4.971
Last Correction   2025/03/28 11:35:02
Memo.             
[...]
   24804    24806    24808    24810    24806    24799    24795    24796 
   24794    24781    24776    24780    24787    24790    24792    24795 
   24795    24794    24794    24791    24791    24798    24803    24806 
   24806    24802    24796    24794    24792    24792    24790    24790 
   24795    24796    24794    24794    24792    24792    24795    24795 
   24799    24807    24808    24807    24803    24795    24787    24784 
   24777    24775    24780    24786    24791    24803    24811    24810 
   24806    24807    24808    24808    24804    24798    24791    24791 
   24791    24784    24779    24783    24790    24791    24790    24790 
   24792    24792    24794    24796    24798    24796    24796    24803 
   24811    24813    24807    24802    24798    24792    24786    24779 
   24776    24779    24784    24788    24794    24799    24804    24811 
   24817    24819    24818    24811    24803    24798    24787    24777 
   24777    24781    24781    24783    24783    24781    24779    24777 
   24781    24790    24794    24798    24802    24808    24818    24821 
   24814    24808    24804    24799    24796    24794    24788    24784 
   24783    24783    24784    24784    24779    24779    24786    24795 
   24803    24808    24810    24807    24806    24802    24796    24794 
   24791    24790    24790    24788    24788    24792    24794    24792 
   24794    24796    24798    24804    24813    24813    24806    24800 
   24795    24788    24781    24780    24776    24773    24779    24783 
   24787    24791    24794    24794    24795    24795    24800    24814 
   24825    24825    24819    24814    24804    24791    24777    24772 
   24775    24776    24777    24780    24781    24790    24796    24795 
   24796    24806    24817    24826    24829    24819    24800    24784 
   24784    24784    24777    24776    24775    24769    24769    24777 
   24788    24795    24799    24803    24810    24819    24827    24826 
   24818    24804    24796    24794    24788    24777    24772    24773 
   24773    24776    24784    24794    24806    24814    24815    24815 
   24815    24818    24815    24808    24799    24783    24767    24757 
   24753    24760    24769    24773    24784    24802    24815    24825 
   24827    24822    24817    24811    24808    24806    24800    24790 
   24777    24772    24772    24775    24776    24775    24777    24787 
   24798    24808    24819    24826    24829    24825    24808    24791 
   24786    24787    24788    24784    24771    24760    24765    24775 
   24780    24787    24794    24800    24808    24818    24825    24825 
   24818    24806    24795    24788    24783    24780    24787    24796 
   24806    24811    24810    24802    24790    24781    24775    24769 
   24773    24786    24800    24813    24817    24813    24800    24783 
   24772    24775    24779    24779    24784    24796    24811    24819 
   24817    24810    24804    24798    24798    24804    24804    24802 
   24803    24798    24788    24779    24772    24771    24777    24786 
   24794    24803    24807    24804    24800    24798    24796    24791 
   24784    24787    24794    24796    24802    24807    24804    24796 
   24792    24794    24791    24790    24790    24787    24791    24796 
   24795    24799    24806    24813    24815    24811    24803    24799 
   24791    24775    24765    24772    24781    24786    24787    24781 
   24781    24792    24796    24790    24783    24788    24800    24813 
   24821    24819    24814    24807    24798    24790    24786    24787 
   24790    24791    24791    24796    24799    24795    24791    24790 
   24791    24794    24796    24795    24796    24798    24792    24786 
   24781    24780    24787    24798    24800    24799    24800    24803 
   24804    24803    24792    24781    24787    24798    24799    24799 
   24798    24795    24792    24784    24775    24775    24777    24783 
   24795    24810    24821    24827    24826    24819    24808    24795 
   24777    24764    24756    24759    24776    24790    24791    24794 
   24802    24808    24813    24813    24807    24802    24798    24795 
   24795    24794    24790    24788    24788    24788    24788    24786 
   24783    24790    24800    24806    24804    24799    24804    24819 
   24821    24808    24794    24780    24771    24768    24771    24776 
   24779    24786    24800    24814    24817    24810    24806    24804 
   24803    24791    24773    24768    24772    24781    24795    24798 
   24791    24792    24798    24804    24815    24819    24814    24813 
   24823    24826    24808    24788    24773    24765    24768    24775 
   24771    24768    24779    24798    24813    24818    24806    24795 
   24802    24807    24804    24800    24790    24776    24777    24786 
   24790    24790    24784    24784    24799    24808    24806    24803 
   24803    24803    24806    24806    24800    24792    24786    24784 
   24781    24779    24776    24779    24788    24802    24813    24818 
   24811    24796    24783    24779    24787    24791    24792    24802 
   24814    24813    24804    24799    24792    24781    24769    24765 
   24779    24800    24813    24811    24799    24791    24788    24779 
   24776    24784    24795    24806    24815    24815    24813    24807 
   24788    24772    24775    24780    24786    24799    24811    24813 
   24818    24813    24794    24786    24784    24783    24790    24798 
   24803    24804    24800    24794    24787    24771    24757    24769 
   24791    24795    24790    24796    24806    24813    24813    24798 
   24780    24787    24810    24825    24818    24804    24796    24799 
   24800    24794    24780    24767    24768    24791    24810    24806 
   24792    24787    24792    24799    24802    24795    24784    24783 
   24795    24803    24792    24780    24777    24777    24787    24802 
   24802    24791    24790    24806    24822    24825    24815    24802 
   24798    24800    24800    24799    24792    24777    24773    24788 
   24800    24791    24772    24764    24773    24790    24800    24807 
   24806    24802    24807    24815    24817    24806    24794    24796 
   24803    24799    24791    24781    24771    24768    24773    24772 
   24765    24771    24784    24796    24808    24825    24829    24818 
   24822    24829    24813    24788    24776    24780    24795    24788 
   24772    24787    24803    24796    24795    24796    24784    24786 
   24800    24796    24792    24795    24788    24790    24796    24792 
   24787    24788    24790    24800    24807    24794    24784    24787 
   24791    24788    24781    24777    24783    24798    24814    24825 
   24817    24802    24802    24802    24791    24780    24765    24760 
   24786    24817    24821    24814    24810    24810    24813    24808 
   24788    24763    24752    24768    24787    24795    24796    24792 
   24791    24807    24822    24802    24768    24760    24773    24794 
   24814    24815    24795    24790    24807    24823    24818    24795 
   24773    24773    24792    24808    24811    24800    24788    24788 
   24800    24804    24790    24775    24773    24787    24800    24802 
   24794    24781    24777    24787    24790    24780    24775    24780 
   24800    24827    24838    24826    24804    24795    24800    24804 
   24791    24775    24771    24780    24796    24802    24787    24772 
   24780    24798    24803    24798    24788    24777    24781    24803 
   24813    24806    24807    24807    24806    24810    24799    24777 
   24769    24772    24777    24788    24795    24794    24795    24804 
   24815    24819    24817    24817    24826    24833    24817    24788 
   24763    24745    24745    24760    24764    24756    24764    24781 
   24796    24813    24823    24823    24821    24821    24829    24840 
   24830    24804    24792    24790    24781    24773    24768    24763 
   24771    24781    24783    24786    24788    24794    24802    24807 
   24814    24814    24813    24817    24818    24810    24798    24777 
   24756    24749    24759    24769    24780    24796    24815    24831 
   24835    24829    24818    24808    24795    24780    24777    24779 
   24775    24781    24795    24792    24790    24795    24796    24795 
   24794    24794    24799    24803    24806    24817    24817    24807 
   24800    24794    24784    24772    24757    24752    24763    24772 
   24781    24799    24811    24819    24826    24823    24813    24804 
   24802    24794    24791    24796    24796    24800    24806    24804 
   24799    24796    24788    24781    24777    24779    24781    24786 
   24795    24804    24813    24822    24819    24798    24775    24761 
   24761    24765    24768    24779    24795    24810    24829    24840 
   24830    24818    24810    24794    24776    24768    24764    24763 
   24769    24784    24799    24804    24806    24811    24823    24826 
   24817    24811    24813    24813    24810    24807    24799    24783 
   24771    24764    24757    24750    24748    24754    24771    24787 
   24799    24810    24819    24834    24840    24829    24821    24817 
   24806    24795    24792    24788    24776    24757    24744    24752 
   24763    24767    24788    24821    24835    24841    24846    24844 
   24829    24813    24794    24777    24773    24776    24773    24771 
   24773    24777    24776    24775    24779    24786    24794    24802 
   24811    24818    24825    24834    24830    24819    24808    24788 
   24771    24767    24761    24757    24767    24779    24786    24794 
   24800    24810    24822    24818    24803    24798    24798    24799 
   24802    24796    24787    24783    24788    24796    24794    24781 
   24771    24773    24788    24803    24806    24804    24803    24800 
   24802    24802    24798    24798    24800    24798    24791    24790 
   24783    24773    24772    24771    24771    24781    24798    24811 
   24822    24831    24840    24837    24822    24806    24787    24760 
   24737    24729    24738    24757    24780    24804    24825    24835 
   24834    24817    24804    24799    24791    24798    24807    24802 
   24800    24808    24810    24804    24794    24777    24765    24765 
   24768    24772    24777    24777    24781    24791    24804    24810 
   24808    24803    24800    24799    24798    24796    24799    24800 
   24799    24803    24802    24796    24795    24790    24781    24792 
   24803    24799    24791    24784    24787    24791    24787    24786 
   24786    24788    24798    24799    24786    24783    24788    24795 
   24810    24823    24817    24806    24810    24817    24810    24792 
   24779    24779    24783    24783    24783    24779    24779    24795 
   24810    24804    24794    24788    24784    24779    24772    24769 
   24771    24775    24787    24803    24810    24810    24810    24813 
   24817    24818    24819    24822    24819    24811    24811    24806 
   24791    24781    24775    24772    24775    24772    24767    24772 
   24776    24779    24787    24792    24796    24803    24807    24806 
   24810    24808    24800    24800    24807    24810    24811    24800 
   24777    24767    24780    24795    24791    24784    24786    24791 
   24800    24821    24831    24825    24818    24813    24807    24813 
   24807    24786    24768    24767    24775    24779    24776    24765 
   24763    24781    24798    24798    24799    24807    24817    24819 
   24800    24788    24799    24798    24792    24798    24798    24792 
   24790    24790    24794    24798    24794    24792    24799    24800 
   24803    24813    24807    24788    24777    24773    24769    24777 
   24807    24850    24880    24877    24825    24740    24678    24667 
   24679    24692    24742    24857    24968    24993    24960    24907 
   24807    24684    24637    24703    24803    24848    24829    24791 
   24763    24749    24756    24748    24676    24618    24680    24864 
   25045    25085    25011    24918    24810    24699    24667    24717 
   24687    24557    24552    24702    24833    24931    25011    24968 
   24852    24780    24750    24761    24804    24842    24823    24748 
   24730    24819    24907    24846    24663    24625    24765    24857 
   24837    24714    24634    24765    24894    24872    24884    24925 
   24900    24865    24872    24879    24742    24534    24518    24651 
   24764    24796    24767    24794    24869    24927    24962    24883 
   24780    24833    24894    24852    24846    24835    24671    24484 
   24514    24725    24844    24821    24804    24767    24804    25037 
   25151    24980    24806    24790    24831    24823    24733    24632 
   24630    24683    24678    24676    24719    24682    24657    24833 
   24992    24988    24970    24840    24675    24842    25019    24788 
   24613    24779    24862    24742    24710    24761    24719    24721 
   24906    25057    25004    24802    24637    24696    24802    24744 
   24632    24526    24548    24745    24907    24976    24996    24973 
   24946    24857    24796    24975    25062    24779    24634    24811 
   24833    24588    24351    24264    24405    24717    24753    24310 
   23973    24138    24453    24455    24210    24304    24956    25837 
   26692    27365    27635    27340    26655    25714    24293    22835 
   22181    22222    22580    23361    24470    25367    25972    26732 
   27449    27386    26041    23452    20864    19778    20220    21510 
   23317    25458    27768    29613    30006    28817    26697    24356 
   22781    22562    22987    23357    23981    24749    25004    24884 
   24634    24175    24051    24529    24912    25200    26090    27251 
   27889    27839    26931    24973    22697    21339    21213    21649 
   22339    23406    24517    25531    26955    28414    28233    25863 
   23070    21601    21371    21664    22296    23341    24744    26404 
   28239    29628    29643    28426    26914    25431    23819    22342 
   21493    21273    21516    22542    24526    26640    27758    27664 
   26902    25884    24710    23561    22743    22464    22832    23953 
   25532    26696    26970    26653    26006    25231    24568    23957 
   23371    22974    22825    22901    23126    23565    24358    25263 
   25944    26441    26765    26817    26796    26593    25667    24339 
   23700    23890    24039    23747    23353    23224    23503    24201 
   25293    26412    26928    26844    26400    25377    24096    23377 
   23205    23172    23318    23734    24408    25215    25845    26107 
   25848    25030    24142    23714    23915    24653    25479    25933 
   25949    25689    25517    25533    25235    24430    23546    22852 
   22500    22810    23772    24838    25697    26573    27476    27878 
   27473    26561    25386    24034    22923    22422    22499    23122 
   24177    25132    25420    25058    24545    24167    23904    23932 
   24435    25208    25999    26469    26103    25016    23911    23263 
   23237    23643    24159    24808    25616    26298    26670    26788 
   26671    26168    25222    24205    23545    23215    23032    23093 
   23546    24206    24846    25446    25947    26211    26117    25708 
   25270    24954    24622    24295    24082    23803    23561    23739 
   24127    24414    24715    25043    25339    25543    25483    25211 
   24946    24804    24825    24980    25105    25011    24753    24591 
   24617    24684    24678    24667    24757    24896    25031    25155 
   25162    25031    24873    24737    24641    24532    24374    24335 
   24436    24455    24385    24537    25050    25442    25280    25000 
   25096    25294    25247    24948    24516    24243    24331    24617 
   24818    24807    24641    24444    24305    24251    24287    24424 
   24682    25058    25396    25546    25552    25373    24975    24572 
   24285    24082    24061    24313    24779    25212    25411    25544 
   25758    25851    25752    25624    25369    24761    24073    23801 
   23931    24136    24414    24848    25153    25178    25196    25227 
   25037    24653    24193    23809    23731    23857    23892    23854 
   24015    24448    24899    25176    25319    25384    25401    25363 
   25231    25038    24837    24734    24858    25150    25411    25446 
   25205    24942    24879    24933    24999    25039    24980    24927 
   25042    25181    25095    24776    24358    23967    23707    23554 
   23473    23631    24021    24387    24825    25482    25955    25926 
   25689    25471    25143    24730    24493    24536    24722    24842 
   24899    25064    25219    25123    24933    24846    24726    24499 
   24329    24298    24391    24576    24784    24997    25141    25057 
   24871    24861    24966    24903    24638    24367    24208    24270 
   24591    24881    24958    25011    25105    25105    25010    24889 
   24798    24792    24834    24808    24665    24455    24343    24406 
   24540    24741    25057    25281    25338    25479    25618    25398 
   24945    24625    24501    24414    24260    24065    23935    24012 
   24341    24759    25062    25218    25282    25263    25150    25007 
   24931    24898    24811    24744    24834    24976    24952    24772 
   24579    24389    24243    24260    24383    24484    24607    24808 
   25097    25428    25631    25613    25478    25270    24966    24629 
   24368    24227    24148    24102    24225    24570    24877    25002 
   25080    25155    25216    25309    25344    25207    24969    24794 
   24756    24788    24768    24640    24470    24437    24570    24599 
   24448    24333    24297    24301    24428    24594    24634    24673 
   24879    25154    25324    25320    25158    24992    24987    25074 
   25076    24949    24803    24763    24817    24864    24846    24784 
   24744    24736    24750    24787    24730    24520    24386    24553 
   24849    24943    24792    24637    24678    24835    24912    24891 
   24848    24803    24775    24759    24698    24587    24510    24497 
   24518    24592    24715    24854    25069    25330    25494    25531 
   25454    25267    25077    24995    24942    24784    24594    24536 
   24587    24606    24557    24484    24422    24410    24462    24565 
   24688    24661    24444    24301    24403    24619    24791    24867 
   24865    24894    25014    25177    25340    25435    25374    25213 
   25070    25004    25002    24915    24644    24382    24368    24555 
   24723    24754    24709    24669    24651    24694    24786    24813 
   24759    24686    24632    24641    24734    24844    24837    24702 
   24633    24742    24875    24889    24857    24896    24973    24945 
   24861    24908    25023    25011    24908    24875    24899    24845 
   24679    24538    24509    24522    24543    24605    24679    24718 
   24776    24904    25016    25065    25088    25088    25037    24935 
   24827    24781    24765    24663    24489    24370    24354    24417 
   24568    24764    24865    24848    24854    24931    24970    24923 
   24837    24814    24891    24957    24973    25073    25238    25247 
   25083    24931    24827    24718    24653    24640    24611    24570 
   24520    24505    24663    24922    25003    24864    24722    24690 
   24673    24583    24456    24403    24480    24692    24981    25192 
