Origin Time       2025/03/28 11:34:00
Lat.              32.978
Long.             131.158
Depth. (km)       12
Mag.              2.7
Station Code      KMMH05
Station Lat.      32.9553
Station Long.     131.2207
Station Height(m) 593
Record Time       2025/03/28 11:35:02
Sampling Freq(Hz) 100Hz
Duration Time(s)  120
Dir.              3
Scale Factor      3923(gal)/8224838
Max. Acc. (gal)   1.190
Last Correction   2025/03/28 11:35:02
Memo.             
[...]
  -16956   -16954   -16951   -16950   -16949   -16953   -16958   -16956 
  -16950   -16953   -16954   -16949   -16950   -16954   -16956   -16954 
  -16956   -16957   -16954   -16953   -16953   -16951   -16950   -16953 
  -16957   -16958   -16956   -16954   -16954   -16954   -16951   -16951 
  -16953   -16953   -16954   -16953   -16951   -16954   -16957   -16956 
  -16956   -16953   -16949   -16951   -16953   -16950   -16954   -16957 
  -16953   -16951   -16953   -16950   -16950   -16954   -16957   -16954 
  -16954   -16956   -16956   -16954   -16953   -16953   -16954   -16954 
  -16956   -16954   -16953   -16956   -16954   -16950   -16951   -16953 
  -16953   -16953   -16954   -16953   -16954   -16956   -16954   -16953 
  -16954   -16953   -16953   -16954   -16953   -16951   -16954   -16954 
  -16953   -16953   -16953   -16953   -16956   -16956   -16954   -16951 
  -16953   -16957   -16954   -16953   -16956   -16954   -16950   -16950 
  -16951   -16953   -16956   -16956   -16949   -16949   -16951   -16954 
  -16954   -16951   -16949   -16950   -16953   -16953   -16950   -16949 
  -16953   -16954   -16951   -16950   -16953   -16953   -16953   -16956 
  -16954   -16951   -16956   -16957   -16951   -16949   -16949   -16951 
  -16954   -16954   -16951   -16950   -16950   -16951   -16950   -16950 
  -16951   -16951   -16953   -16953   -16949   -16950   -16953   -16951 
  -16949   -16951   -16951   -16951   -16953   -16954   -16953   -16951 
  -16951   -16953   -16949   -16950   -16954   -16954   -16951   -16950 
  -16951   -16954   -16954   -16954   -16953   -16951   -16953   -16954 
  -16953   -16951   -16953   -16954   -16953   -16951   -16947   -16949 
  -16956   -16951   -16947   -16953   -16956   -16951   -16953   -16954 
  -16951   -16951   -16951   -16951   -16954   -16953   -16953   -16954 
  -16951   -16949   -16950   -16951   -16953   -16956   -16954   -16953 
  -16953   -16953   -16953   -16950   -16950   -16951   -16950   -16951 
  -16954   -16956   -16951   -16949   -16951   -16954   -16951   -16951 
  -16954   -16953   -16950   -16953   -16954   -16953   -16953   -16953 
  -16951   -16951   -16950   -16951   -16956   -16957   -16956   -16954 
  -16953   -16951   -16951   -16951   -16954   -16956   -16954   -16953 
  -16956   -16954   -16953   -16956   -16951   -16949   -16953   -16953 
  -16951   -16954   -16956   -16954   -16954   -16950   -16949   -16954 
  -16957   -16954   -16954   -16953   -16950   -16953   -16954   -16951 
  -16950   -16951   -16954   -16954   -16953   -16954   -16953   -16951 
  -16953   -16950   -16949   -16953   -16958   -16957   -16954   -16953 
  -16953   -16951   -16951   -16954   -16953   -16951   -16951   -16953 
  -16954   -16953   -16953   -16954   -16953   -16953   -16953   -16951 
  -16954   -16958   -16957   -16953   -16950   -16950   -16954   -16954 
  -16950   -16953   -16957   -16953   -16951   -16953   -16954   -16953 
  -16951   -16953   -16953   -16951   -16953   -16954   -16956   -16957 
  -16957   -16951   -16947   -16950   -16953   -16950   -16951   -16956 
  -16954   -16956   -16956   -16953   -16954   -16954   -16950   -16950 
  -16953   -16951   -16953   -16956   -16957   -16954   -16951   -16953 
  -16954   -16951   -16951   -16953   -16953   -16951   -16951   -16954 
  -16953   -16950   -16950   -16953   -16950   -16951   -16956   -16954 
  -16953   -16954   -16953   -16951   -16951   -16954   -16956   -16953 
  -16950   -16954   -16957   -16954   -16953   -16954   -16951   -16949 
  -16953   -16953   -16950   -16956   -16958   -16951   -16949   -16956 
  -16956   -16953   -16953   -16953   -16953   -16954   -16953   -16951 
  -16953   -16953   -16951   -16949   -16950   -16953   -16953   -16953 
  -16956   -16953   -16947   -16951   -16954   -16950   -16953   -16956 
  -16953   -16954   -16953   -16949   -16950   -16954   -16951   -16950 
  -16954   -16954   -16953   -16954   -16957   -16957   -16953   -16950 
  -16951   -16953   -16951   -16951   -16953   -16956   -16954   -16954 
  -16956   -16954   -16954   -16954   -16951   -16953   -16954   -16950 
  -16950   -16953   -16950   -16953   -16957   -16951   -16947   -16949 
  -16951   -16956   -16956   -16953   -16953   -16954   -16953   -16953 
  -16954   -16954   -16953   -16950   -16954   -16956   -16953   -16954 
  -16954   -16953   -16953   -16951   -16951   -16951   -16951   -16953 
  -16953   -16951   -16950   -16954   -16954   -16953   -16953   -16951 
  -16950   -16951   -16954   -16954   -16953   -16951   -16951   -16951 
  -16953   -16953   -16949   -16950   -16956   -16954   -16954   -16956 
  -16954   -16954   -16954   -16953   -16953   -16953   -16954   -16957 
  -16956   -16953   -16953   -16954   -16953   -16950   -16950   -16954 
  -16954   -16951   -16951   -16954   -16954   -16951   -16951   -16951 
  -16953   -16953   -16951   -16950   -16950   -16953   -16953   -16951 
  -16951   -16953   -16951   -16951   -16953   -16953   -16953   -16953 
  -16954   -16956   -16954   -16949   -16949   -16953   -16951   -16953 
  -16956   -16951   -16950   -16950   -16949   -16949   -16950   -16951 
  -16954   -16953   -16953   -16953   -16951   -16950   -16949   -16949 
  -16953   -16953   -16949   -16950   -16954   -16956   -16953   -16953 
  -16954   -16950   -16947   -16951   -16954   -16953   -16951   -16951 
  -16953   -16954   -16951   -16950   -16951   -16951   -16953   -16951 
  -16951   -16953   -16954   -16953   -16950   -16950   -16953   -16953 
  -16951   -16950   -16951   -16953   -16951   -16950   -16949   -16947 
  -16951   -16953   -16954   -16954   -16954   -16954   -16956   -16953 
  -16950   -16950   -16951   -16949   -16950   -16954   -16954   -16953 
  -16953   -16953   -16951   -16953   -16953   -16951   -16951   -16951 
  -16954   -16954   -16953   -16953   -16953   -16951   -16954   -16956 
  -16954   -16951   -16949   -16951   -16954   -16954   -16957   -16957 
  -16953   -16954   -16953   -16951   -16951   -16950   -16951   -16954 
  -16953   -16950   -16950   -16954   -16954   -16951   -16951   -16954 
  -16953   -16951   -16954   -16954   -16951   -16953   -16953   -16951 
  -16951   -16951   -16954   -16956   -16953   -16951   -16953   -16954 
  -16951   -16951   -16951   -16951   -16951   -16954   -16956   -16951 
  -16950   -16953   -16954   -16951   -16951   -16953   -16953   -16951 
  -16950   -16953   -16953   -16951   -16951   -16953   -16953   -16951 
  -16954   -16954   -16954   -16956   -16951   -16951   -16953   -16950 
  -16951   -16956   -16951   -16947   -16953   -16956   -16951   -16949 
  -16950   -16954   -16954   -16951   -16953   -16954   -16954   -16954 
  -16956   -16954   -16953   -16953   -16951   -16949   -16950   -16954 
  -16956   -16954   -16954   -16951   -16951   -16950   -16947   -16950 
  -16954   -16951   -16951   -16954   -16953   -16950   -16949   -16951 
  -16951   -16951   -16954   -16956   -16956   -16954   -16953   -16953 
  -16953   -16953   -16953   -16951   -16953   -16953   -16951   -16953 
  -16951   -16951   -16950   -16950   -16954   -16954   -16953   -16954 
  -16953   -16951   -16953   -16951   -16949   -16950   -16950   -16950 
  -16951   -16953   -16951   -16951   -16954   -16956   -16953   -16949 
  -16949   -16950   -16953   -16951   -16950   -16951   -16951   -16951 
  -16953   -16951   -16950   -16951   -16953   -16954   -16954   -16953 
  -16953   -16954   -16954   -16951   -16951   -16951   -16953   -16953 
  -16953   -16951   -16951   -16950   -16947   -16951   -16956   -16954 
  -16953   -16953   -16953   -16954   -16958   -16957   -16956   -16956 
  -16956   -16953   -16951   -16950   -16953   -16951   -16950   -16951 
  -16951   -16951   -16954   -16956   -16951   -16953   -16956   -16956 
  -16954   -16953   -16951   -16953   -16951   -16951   -16956   -16956 
  -16953   -16953   -16953   -16951   -16951   -16951   -16954   -16954 
  -16953   -16953   -16954   -16953   -16954   -16954   -16953   -16953 
  -16953   -16950   -16950   -16951   -16950   -16954   -16957   -16956 
  -16954   -16953   -16950   -16950   -16951   -16953   -16953   -16953 
  -16954   -16956   -16953   -16951   -16953   -16951   -16949   -16951 
  -16957   -16956   -16951   -16953   -16954   -16950   -16951   -16953 
  -16949   -16947   -16950   -16953   -16954   -16953   -16951   -16953 
  -16953   -16953   -16953   -16950   -16950   -16954   -16954   -16954 
  -16956   -16954   -16954   -16950   -16949   -16950   -16951   -16951 
  -16951   -16951   -16951   -16953   -16954   -16953   -16953   -16951 
  -16950   -16953   -16956   -16956   -16951   -16949   -16950   -16950 
  -16949   -16951   -16954   -16956   -16954   -16954   -16951   -16950 
  -16951   -16951   -16950   -16951   -16954   -16953   -16951   -16954 
  -16956   -16951   -16949   -16949   -16949   -16949   -16950   -16953 
  -16953   -16953   -16954   -16954   -16950   -16950   -16950   -16949 
  -16950   -16951   -16951   -16953   -16953   -16951   -16950   -16947 
  -16950   -16956   -16953   -16950   -16950   -16951   -16956   -16956 
  -16953   -16953   -16953   -16951   -16953   -16953   -16951   -16951 
  -16951   -16954   -16956   -16950   -16949   -16953   -16954   -16956 
  -16956   -16953   -16951   -16953   -16954   -16953   -16951   -16949 
  -16953   -16954   -16951   -16951   -16953   -16953   -16956   -16956 
  -16953   -16950   -16951   -16956   -16956   -16956   -16956   -16951 
  -16950   -16953   -16950   -16950   -16951   -16953   -16957   -16954 
  -16957   -16958   -16951   -16949   -16954   -16954   -16951   -16951 
  -16953   -16954   -16954   -16951   -16950   -16951   -16953   -16950 
  -16950   -16953   -16953   -16951   -16953   -16953   -16953   -16953 
  -16951   -16951   -16954   -16954   -16951   -16953   -16956   -16954 
  -16951   -16953   -16953   -16954   -16953   -16951   -16953   -16953 
  -16950   -16951   -16954   -16951   -16951   -16953   -16953   -16954 
  -16954   -16953   -16953   -16953   -16951   -16951   -16956   -16956 
  -16954   -16951   -16949   -16949   -16953   -16956   -16956   -16956 
  -16957   -16956   -16954   -16954   -16954   -16954   -16953   -16951 
  -16953   -16953   -16953   -16954   -16954   -16951   -16951   -16951 
  -16951   -16956   -16957   -16954   -16953   -16950   -16949   -16954 
  -16957   -16951   -16950   -16953   -16953   -16951   -16956   -16953 
  -16950   -16956   -16956   -16951   -16953   -16953   -16953   -16956 
  -16954   -16953   -16956   -16954   -16951   -16953   -16954   -16951 
  -16951   -16951   -16949   -16950   -16953   -16951   -16951   -16956 
  -16956   -16951   -16951   -16953   -16953   -16950   -16950   -16951 
  -16954   -16954   -16950   -16951   -16953   -16950   -16950   -16953 
  -16954   -16954   -16953   -16950   -16951   -16953   -16953   -16951 
  -16951   -16951   -16954   -16953   -16950   -16951   -16953   -16951 
  -16953   -16951   -16949   -16947   -16950   -16953   -16954   -16953 
  -16950   -16950   -16951   -16953   -16953   -16954   -16954   -16954 
  -16954   -16951   -16947   -16951   -16954   -16954   -16953   -16950 
  -16950   -16953   -16953   -16953   -16951   -16953   -16953   -16953 
  -16954   -16954   -16953   -16957   -16957   -16953   -16950   -16949 
  -16951   -16956   -16954   -16951   -16953   -16953   -16949   -16950 
  -16954   -16953   -16951   -16954   -16954   -16951   -16951   -16953 
  -16951   -16953   -16956   -16956   -16954   -16954   -16953   -16953 
  -16953   -16950   -16950   -16953   -16951   -16953   -16956   -16951 
  -16949   -16951   -16954   -16953   -16956   -16954   -16951   -16951 
  -16954   -16954   -16954   -16951   -16950   -16954   -16957   -16954 
  -16951   -16953   -16953   -16950   -16949   -16949   -16951   -16954 
  -16951   -16956   -16960   -16956   -16953   -16954   -16954   -16956 
  -16954   -16953   -16953   -16953   -16950   -16951   -16953   -16953 
  -16954   -16953   -16950   -16953   -16953   -16950   -16950   -16954 
  -16957   -16956   -16954   -16954   -16950   -16926   -16885   -16879 
  -16997   -17209   -17254   -16978   -16638   -16579   -16842   -17140 
  -17143   -16958   -16849   -16742   -16803   -17240   -17459   -17089 
  -16688   -16529   -16590   -17059   -17543   -17355   -16769   -16513 
  -16818   -17253   -17158   -16822   -16722   -16650   -16834   -17203 
  -17232   -17107   -16931   -16679   -16649   -16961   -17425   -17370 
  -16664   -16521   -17092   -17199   -16957   -16910   -16839   -16814 
  -16972   -16987   -16771   -16856   -17228   -17211   -16854   -16707 
  -16978   -17089   -16722   -16956   -17425   -16885   -16646   -17154 
  -16922   -16725   -17262   -17085   -16557   -16872   -17161   -16981 
  -16974   -16999   -16727   -16738   -17174   -17165   -16907   -16906 
  -16831   -16947   -17194   -17008   -16769   -16726   -16738   -17177 
  -17594   -17064   -16483   -16811   -17142   -16983   -16885   -16904 
  -16752   -16623   -16985   -17435   -17204   -16842   -16808   -16646 
  -16856   -17375   -17134   -16771   -16822   -16822   -17116   -17344 
  -16953   -16749   -16788   -16821   -17135   -16956   -16565   -17119 
  -17402   -16957   -16843   -16606   -16482   -17155   -17566   -17231 
  -16903   -16773   -16654   -16949   -17400   -17016   -16360   -16482 
  -17189   -17606   -17091   -16588   -16870   -17055   -16838   -16830 
  -17235   -17280   -16660   -16340   -16796   -17447   -17234   -16499 
  -16522   -17012   -17409   -17523   -17011   -16536   -17034   -17647 
  -17454   -16902   -15993   -15634   -16357   -16922   -18038   -19055 
  -17944   -16762   -15970   -14457   -14921   -17203   -18447   -18955 
  -18528   -16818   -15618   -15556   -16429   -17732   -17988   -17548 
  -17500   -17401   -17142   -16467   -15249   -15071   -16335   -17578 
  -18225   -17913   -16621   -16178   -17030   -17532   -17529   -17223 
  -16428   -16067   -16291   -16548   -17224   -17710   -17189   -17124 
  -17960   -17913   -16808   -16021   -16167   -16854   -17263   -17103 
  -16825   -16802   -17070   -17190   -16665   -16156   -16515   -17475 
  -18204   -18019   -16934   -15693   -15257   -15974   -17278   -18407 
  -18566   -17635   -16869   -16557   -15988   -16231   -17301   -17126 
  -16387   -16856   -17396   -17162   -17313   -17545   -16865   -16371 
  -16499   -16291   -16158   -16911   -17869   -17833   -17212   -17209 
  -17091   -16151   -15863   -16595   -17286   -17672   -17408   -16892 
  -16961   -16922   -16622   -16800   -17011   -16869   -16954   -17223 
  -17216   -17054   -16816   -16644   -16885   -17297   -17316   -16904 
  -16707   -16961   -17201   -17262   -17111   -16893   -16803   -16687 
  -16783   -16906   -16640   -16718   -17086   -16945   -16895   -17169 
  -17041   -16981   -17159   -16849   -16810   -17285   -17219   -16861 
  -16681   -16723   -17011   -16970   -16764   -16969   -17020   -16924 
  -17212   -17255   -16927   -16706   -16445   -16372   -16742   -17177 
  -17298   -17192   -17277   -17335   -16965   -16675   -16676   -16573 
  -16692   -17298   -17658   -17437   -17107   -16730   -16258   -16393 
  -17228   -17594   -17286   -17058   -16961   -16876   -16853   -16795 
  -16726   -16857   -17016   -16910   -16698   -16725   -17120   -17262 
  -16896   -16802   -16869   -16688   -16787   -17080   -17093   -17031 
  -16985   -16958   -16956   -16848   -16914   -17134   -17045   -16916 
  -17049   -17049   -16902   -16839   -16856   -17020   -17046   -16829 
  -16815   -17001   -17182   -17181   -16949   -16879   -16984   -16934 
  -16884   -16931   -16856   -16941   -17269   -17231   -16974   -16865 
  -16750   -16872   -17104   -16920   -16713   -16772   -16807   -16964 
  -17162   -17019   -16815   -16875   -16985   -16929   -16870   -16999 
  -17027   -16827   -16879   -17127   -17057   -16953   -16983   -16806 
  -16730   -16880   -16983   -17088   -17088   -17058   -17092   -17022 
  -16958   -17011   -17091   -17041   -16884   -16825   -16849   -16966 
  -17070   -16893   -16687   -16802   -17019   -17046   -16987   -16870 
  -16807   -17076   -17212   -16922   -16877   -17051   -16838   -16725 
  -17132   -17282   -17026   -16914   -16911   -16853   -16868   -17003 
  -16896   -16717   -16987   -17158   -16862   -16644   -16733   -16881 
  -16996   -17138   -17105   -16958   -17005   -17069   -17014   -16973 
  -16885   -16868   -17041   -17072   -16950   -16937   -16853   -16749 
  -16843   -16929   -17026   -17172   -17111   -16997   -16896   -16750 
  -16833   -17119   -17294   -17161   -16872   -16773   -16819   -16869 
  -16949   -17038   -17101   -17045   -16980   -16987   -16865   -16839 
  -16951   -16822   -16816   -17062   -16973   -16868   -17066   -17023 
  -16910   -17016   -16957   -16881   -16937   -16868   -16837   -16861 
  -16833   -16903   -16839   -16657   -16895   -17304   -17270   -16966 
  -16819   -16920   -17101   -17143   -17028   -16885   -16862   -17011 
  -17082   -16992   -16927   -16881   -16852   -16923   -17027   -17041 
  -16960   -16977   -17039   -16941   -16911   -17004   -16970   -16910 
  -16951   -17042   -17111   -17055   -16889   -16757   -16760   -16908 
  -17014   -16962   -16935   -16922   -16838   -16806   -16834   -16911 
  -17057   -17105   -16980   -16877   -16865   -16843   -16902   -17026 
  -17076   -17111   -17001   -16779   -16891   -17080   -16969   -17010 
  -17150   -17007   -16949   -17101   -17010   -16794   -16819   -16956 
  -17019   -16951   -16861   -16943   -17035   -17039   -16991   -16771 
  -16717   -17001   -17042   -16837   -16862   -16946   -16946   -17077 
  -17154   -16996   -16822   -16762   -16926   -17150   -17049   -16866 
  -16885   -17003   -17131   -16989   -16730   -16830   -17049   -17047 
  -16970   -16922   -16854   -16897   -17070   -17068   -16934   -16888 
  -16872   -16938   -17024   -17000   -16988   -17004   -16935   -16781 
  -16742   -16960   -17193   -17170   -16968   -16829   -16893   -17023 
  -16976   -16845   -16860   -16897   -16888   -17053   -17184   -16954 
  -16787   -16912   -16930   -16888   -17000   -17024   -16949   -16978 
  -16988   -16922   -16924   -16924   -16873   -16966   -17131   -17061 
  -16865   -16857   -17027   -17130   -17011   -16806   -16787   -16964 
  -17051   -17010   -16989   -16958   -16983   -17072   -16985   -16803 
  -16765   -16856   -17055   -17158   -16966   -16800   -16854   -16958 
  -17010   -16930   -16822   -16853   -16923   -16993   -17065   -17010 
  -16911   -16889   -16919   -16957   -16945   -16938   -16984   -16962 
  -16872   -16881   -17004   -17072   -16988   -16877   -16943   -17115 
  -17131   -16996   -16858   -16852   -16978   -17008   -16964   -17010 
  -16991   -16897   -16881   -16881   -16915   -17057   -17068   -16838 
  -16806   -17061   -17093   -16887   -16776   -16795   -16987   -17188 
  -17049   -16825   -16893   -17053   -17065   -16933   -16798   -16870 
  -17049   -16999   -16842   -16892   -17012   -17030   -16966   -16845 
  -16857   -17012   -17055   -17032   -17003   -16919   -16904   -17012 
  -17111   -17041   -16830   -16718   -16831   -16991   -17004   -16902 
  -16838   -16949   -17064   -16978   -16954   -17026   -16920   -16860 
  -16993   -17027   -16973   -16974   -16957   -16935   -16937   -16927 
  -16945   -16997   -17007   -16937   -16887   -16945   -17030   -16972 
  -16895   -16977   -17015   -16942   -16924   -16929   -16943   -16977 
  -16907   -16831   -16934   -17034   -17018   -16999   -16973   -16931 
