Origin Time       2025/03/28 11:34:00
Lat.              32.978
Long.             131.158
Depth. (km)       12
Mag.              2.7
Station Code      KMMH18
Station Lat.      33.0031
Station Long.     131.0071
Station Height(m) 932
Record Time       2025/03/28 11:35:01
Sampling Freq(Hz) 100Hz
Duration Time(s)  120
Dir.              4
Scale Factor      7845(gal)/8223790
Max. Acc. (gal)   1.852
Last Correction   2025/03/28 11:35:01
Memo.             
[...]
    2112     2110     2106     2107     2111     2112     2112     2115 
    2112     2108     2110     2112     2111     2111     2115     2115 
    2112     2110     2110     2111     2116     2118     2110     2107 
    2111     2111     2111     2116     2119     2114     2110     2110 
    2107     2104     2110     2112     2112     2116     2115     2111 
    2116     2118     2114     2116     2119     2108     2103     2104 
    2106     2112     2120     2120     2116     2114     2108     2104 
    2106     2108     2114     2116     2112     2111     2111     2111 
    2112     2114     2111     2110     2108     2111     2112     2111 
    2112     2115     2114     2112     2111     2110     2115     2120 
    2118     2114     2112     2104     2104     2111     2112     2111 
    2112     2114     2112     2111     2111     2114     2112     2108 
    2106     2107     2107     2106     2110     2114     2116     2120 
    2118     2110     2106     2107     2107     2107     2111     2114 
    2114     2115     2114     2111     2114     2115     2112     2114 
    2112     2107     2106     2103     2103     2112     2120     2118 
    2111     2111     2108     2106     2106     2110     2111     2111 
    2116     2115     2106     2107     2108     2107     2114     2119 
    2115     2111     2112     2111     2108     2108     2108     2108 
    2112     2119     2119     2112     2111     2111     2111     2115 
    2116     2115     2115     2111     2106     2108     2107     2106 
    2111     2118     2115     2114     2116     2112     2104     2101 
    2104     2108     2110     2115     2118     2114     2114     2108 
    2103     2112     2119     2116     2112     2107     2101     2104 
    2108     2114     2118     2119     2122     2114     2103     2100 
    2096     2096     2112     2124     2130     2130     2110     2095 
    2099     2100     2106     2124     2128     2120     2119     2108 
    2093     2097     2103     2107     2122     2130     2124     2116 
    2101     2095     2101     2107     2115     2123     2119     2114 
    2111     2107     2106     2110     2114     2118     2118     2110 
    2101     2101     2104     2111     2122     2124     2123     2116 
    2100     2097     2104     2107     2115     2122     2120     2115 
    2110     2101     2106     2114     2114     2118     2122     2118 
    2114     2111     2104     2099     2108     2120     2126     2126 
    2119     2107     2100     2099     2099     2110     2124     2127 
    2122     2114     2107     2103     2100     2106     2114     2115 
    2123     2124     2110     2100     2100     2100     2114     2131 
    2126     2114     2106     2096     2097     2114     2120     2120 
    2128     2122     2104     2104     2104     2100     2114     2124 
    2116     2112     2112     2104     2101     2111     2116     2119 
    2122     2116     2107     2107     2107     2106     2114     2122 
    2116     2110     2112     2110     2107     2118     2120     2108 
    2110     2115     2112     2112     2116     2112     2112     2115 
    2111     2108     2112     2108     2107     2112     2116     2116 
    2112     2110     2111     2107     2106     2106     2107     2116 
    2126     2123     2116     2112     2107     2100     2103     2108 
    2110     2118     2122     2114     2111     2115     2112     2110 
    2114     2115     2116     2111     2099     2100     2106     2111 
    2122     2126     2118     2114     2106     2091     2096     2111 
    2115     2120     2127     2123     2115     2108     2100     2096 
    2103     2116     2120     2112     2112     2112     2106     2112 
    2118     2107     2111     2114     2110     2116     2112     2097 
    2107     2118     2115     2119     2118     2108     2107     2104 
    2097     2104     2115     2123     2127     2122     2115     2104 
    2092     2092     2099     2107     2124     2134     2120     2115 
    2118     2101     2087     2095     2107     2112     2124     2131 
    2123     2120     2111     2095     2096     2100     2103     2122 
    2130     2120     2120     2111     2095     2101     2111     2118 
    2128     2124     2108     2100     2095     2096     2110     2123 
    2128     2127     2112     2096     2096     2096     2103     2123 
    2130     2126     2120     2106     2092     2095     2107     2118 
    2124     2126     2122     2110     2099     2099     2101     2111 
    2122     2122     2122     2116     2100     2099     2103     2101 
    2118     2131     2123     2116     2103     2089     2099     2116 
    2123     2131     2128     2112     2107     2099     2093     2101 
    2111     2124     2133     2124     2114     2100     2088     2099 
    2111     2119     2130     2124     2110     2106     2100     2097 
    2103     2112     2119     2122     2118     2111     2101     2097 
    2108     2118     2124     2126     2112     2100     2100     2100 
    2107     2124     2130     2120     2114     2107     2099     2101 
    2106     2114     2122     2122     2115     2112     2108     2101 
    2104     2108     2114     2122     2116     2108     2110     2101 
    2101     2116     2119     2116     2119     2110     2103     2112 
    2108     2101     2116     2123     2118     2115     2104     2096 
    2103     2110     2114     2123     2123     2114     2107     2100 
    2100     2112     2119     2119     2124     2122     2110     2100 
    2100     2103     2104     2110     2120     2119     2114     2115 
    2112     2104     2111     2116     2111     2115     2118     2108 
    2110     2114     2111     2119     2122     2114     2111     2106 
    2103     2106     2107     2118     2127     2116     2112     2111 
    2100     2101     2108     2104     2115     2126     2124     2124 
    2114     2095     2100     2116     2116     2116     2122     2114 
    2108     2108     2103     2104     2114     2119     2122     2114 
    2103     2103     2107     2114     2119     2122     2119     2108 
    2100     2101     2107     2112     2116     2118     2120     2120 
    2110     2101     2103     2103     2101     2118     2128     2120 
    2116     2112     2103     2107     2111     2108     2110     2114 
    2118     2119     2111     2107     2110     2110     2115     2120 
    2112     2107     2111     2106     2107     2116     2116     2120 
    2119     2107     2101     2097     2101     2119     2124     2123 
    2123     2116     2111     2104     2096     2101     2116     2122 
    2116     2115     2114     2111     2108     2104     2110     2116 
    2120     2119     2111     2108     2112     2112     2111     2111 
    2111     2115     2115     2110     2106     2107     2115     2118 
    2112     2111     2116     2116     2104     2100     2108     2112 
    2118     2127     2119     2107     2107     2104     2103     2107 
    2112     2126     2130     2115     2108     2108     2101     2107 
    2115     2110     2116     2126     2114     2108     2106     2101 
    2115     2120     2110     2111     2112     2111     2112     2107 
    2110     2118     2112     2110     2111     2107     2106     2111 
    2115     2115     2114     2118     2119     2111     2103     2104 
    2111     2116     2115     2115     2118     2116     2110     2100 
    2100     2110     2114     2112     2112     2116     2116     2108 
    2106     2104     2107     2116     2120     2112     2108     2107 
    2108     2114     2115     2110     2108     2111     2114     2110 
    2107     2111     2114     2116     2118     2111     2106     2110 
    2110     2104     2106     2114     2118     2122     2118     2106 
    2103     2107     2107     2110     2115     2120     2120     2112 
    2107     2107     2106     2111     2116     2114     2115     2114 
    2110     2108     2106     2110     2120     2118     2108     2108 
    2112     2108     2108     2111     2110     2116     2120     2114 
    2107     2103     2104     2112     2119     2118     2116     2116 
    2112     2107     2106     2110     2114     2118     2122     2115 
    2107     2108     2110     2107     2110     2116     2118     2114 
    2114     2110     2103     2107     2115     2115     2111     2110 
    2111     2112     2111     2108     2108     2116     2115     2110 
    2110     2110     2110     2114     2112     2112     2110     2106 
    2110     2114     2112     2111     2114     2115     2111     2114 
    2116     2111     2107     2111     2115     2115     2111     2110 
    2110     2112     2115     2112     2108     2108     2110     2112 
    2110     2108     2111     2114     2114     2112     2108     2110 
    2114     2114     2118     2116     2107     2108     2114     2114 
    2112     2111     2114     2116     2112     2107     2108     2108 
    2111     2115     2115     2114     2112     2112     2111     2106 
    2107     2112     2115     2115     2111     2107     2110     2118 
    2115     2111     2111     2110     2110     2108     2107     2106 
    2114     2120     2115     2111     2115     2112     2106     2108 
    2114     2116     2116     2111     2107     2111     2112     2111 
    2112     2111     2108     2112     2112     2110     2111     2115 
    2118     2114     2110     2110     2110     2111     2114     2116 
    2112     2111     2112     2111     2107     2104     2108     2118 
    2119     2114     2114     2115     2114     2112     2110     2107 
    2112     2116     2112     2110     2114     2116     2116     2114 
    2110     2111     2115     2114     2110     2114     2116     2114 
    2114     2112     2111     2110     2110     2111     2110     2107 
    2112     2116     2112     2110     2111     2111     2112     2111 
    2110     2114     2116     2114     2110     2108     2108     2111 
    2112     2110     2111     2116     2118     2116     2114     2111 
    2108     2106     2107     2111     2112     2114     2116     2115 
    2108     2104     2106     2114     2115     2111     2108     2111 
    2114     2115     2112     2110     2111     2112     2111     2106 
    2104     2111     2116     2115     2112     2110     2108     2112 
    2112     2107     2111     2116     2116     2110     2106     2111 
    2115     2112     2108     2110     2110     2112     2116     2115 
    2108     2108     2112     2111     2108     2110     2111     2112 
    2112     2108     2108     2112     2115     2114     2110     2108 
    2108     2107     2111     2112     2110     2112     2115     2112 
    2111     2110     2107     2108     2111     2112     2115     2114 
    2111     2110     2110     2110     2111     2115     2115     2112 
    2114     2114     2115     2112     2106     2107     2110     2110 
    2112     2115     2110     2112     2116     2112     2110     2112 
    2110     2108     2110     2112     2114     2112     2112     2112 
    2110     2111     2115     2114     2112     2110     2110     2114 
    2112     2107     2108     2114     2118     2118     2108     2104 
    2110     2111     2112     2116     2114     2115     2115     2107 
    2107     2115     2124     2139     2138     2101     2042     2006 
    2033     2118     2203     2234     2197     2139     2118     2111 
    2061     1985     1976     2057     2169     2258     2316     2305 
    2212     2060     1881     1787     1782     1777     1971     2467 
    2779     2589     2230     1914     1678     1706     1907     2116 
    2444     2677     2416     1868     1551     1749     2323     2673 
    2392     1840     1686     2027     2338     2266     2004     1899 
    2092     2334     2278     2054     1995     2138     2300     2309 
    2205     2122     2018     1865     1786     1834     1915     1956 
    1930     1960     2214     2515     2641     2625     2444     2141 
    1923     1887     1971     2083     2106     2068     2108     2123 
    1971     1790     1695     1795     2282     2849     2817     2249 
    1852     1880     2096     2254     2160     1894     1786     1877 
    1976     2068     2214     2303     2251     2234     2332     2332 
    2153     1923     1749     1779     2037     2245     2251     2224 
    2273     2299     2214     2083     1984     1933     1971     2103 
    2232     2268     2172     1979     1865     1969     2187     2309 
    2245     2118     2096     2122     2080     1993     1957     2066 
    2277     2366     2247     2103     2061     2052     1998     1939 
    1968     2080     2146     2099     2066     2185     2312     2216 
    2033     2011     2116     2284     2397     2208     1894     1861 
    2029     2118     2145     2201     2235     2268     2323     2216 
    1927     1749     1849     2056     2095     2049     2111     2101 
    1996     2045     2176     2257     2358     2380     2153     1845 
    1883     2290     2511     2299     2042     2046     2169     2135 
    1971     1884     1898     1966     2101     2200     2133     1999 
    2045     2253     2342     2231     2042     1834     1791     2101 
    2439     2451     2296     2141     2002     1979     2081     2178 
    2201     2170     2106     2052     2073     2122     2073     1872 
    1734     1958     2295     2326     2173     2039     1906     1903 
    2181     2633     2933     2916     2871     2889     2538     1705 
     766      170      283     1069     1979     2559     2872     3001 
    2749     2276     2077     2247     2566     2883     2992     2766 
    2326     1892     1679     1719     1723     1536     1479     1714 
    1883     1822     1838     2101     2363     2241     1725     1223 
     992     1151     1822     2720     3325     3450     3207     2795 
    2432     2317     2479     2446     1919     1588     1971     2538 
    2678     2261     1630     1366     1544     1836     1977     1815 
    1571     1621     1949     2307     2508     2448     2282     2305 
    2496     2533     2208     1695     1563     2149     2874     2866 
    2077     1235     1131     1946     2970     3284     2849     2327 
    1946     1414      800      606     1020     1732     2425     2903 
    2953     2621     2263     2142     2346     2812     3187     3014 
    2295     1611     1410     1539     1659     1649     1590     1607 
    1736     1852     1800     1707     1891     2313     2627     2690 
    2597     2496     2500     2538     2467     2315     2127     1989 
    2041     2174     2196     2234     2438     2635     2658     2585 
    2401     2011     1559     1267     1140     1077     1120     1352 
    1680     1976     2185     2249     2184     2099     2088     2236 
    2520     2733     2663     2331     2000     1906     2056     2296 
    2482     2604     2678     2613     2397     2142     1991     2069 
    2266     2285     2122     1973     1875     1806     1806     1809 
    1773     1879     2195     2448     2400     2085     1661     1398 
    1509     1840     2114     2258     2230     2031     1876     1880 
    1944     2035     2193     2394     2555     2566     2416     2255 
    2208     2284     2475     2664     2687     2581     2470     2330 
    2089     1787     1526     1395     1397     1482     1638     1782 
    1826     1860     1969     2154     2393     2589     2678     2663 
    2486     2230     2126     2172     2157     2023     1911     1919 
    2034     2155     2160     2066     2018     2076     2177     2162 
    1999     1914     2018     2104     2047     1930     1844     1917 
    2258     2690     2857     2664     2323     2070     1991     1977 
    1852     1598     1458     1633     1989     2230     2259     2212 
    2228     2322     2423     2405     2182     1914     1818     1869 
    1958     2014     1995     2006     2157     2381     2587     2701 
    2654     2529     2404     2201     1972     1864     1840     1802 
    1761     1745     1776     1861     1945     1985     2002     1995 
    1962     1950     1971     2012     2093     2168     2185     2196 
    2230     2290     2390     2465     2466     2455     2448     2386 
    2254     2126     2080     2111     2160     2192     2185     2153 
    2142     2137     2103     2077     2056     1999     1950     1933 
    1933     1942     1900     1804     1760     1790     1842     1922 
    2003     2045     2046     2003     1971     2047     2211     2370 
    2489     2560     2573     2501     2346     2204     2153     2155 
    2164     2180     2203     2223     2236     2236     2197     2137 
    2106     2112     2106     2050     1960     1888     1883     1918 
    1922     1904     1914     1942     1972     2037     2130     2164 
    2130     2119     2103     2010     1914     1937     2087     2258 
    2335     2303     2196     2061     1979     1973     1998     2052 
    2143     2222     2230     2166     2110     2134     2235     2328 
    2326     2270     2249     2209     2123     2083     2108     2134 
    2141     2155     2149     2083     2027     2037     2072     2115 
    2162     2188     2174     2107     2039     2030     2019     1983 
    1983     2010     2011     1981     1956     1996     2089     2130 
    2118     2153     2214     2209     2164     2135     2149     2207 
    2261     2259     2216     2169     2134     2107     2110     2169 
    2224     2199     2110     2041     2037     2057     2087     2178 
    2265     2223     2081     1935     1838     1838     1930     2038 
    2095     2095     2069     2019     1945     1898     1922     1987 
    2052     2107     2154     2168     2142     2151     2224     2296 
    2332     2358     2369     2358     2334     2296     2253     2205 
    2147     2116     2155     2192     2135     2050     2034     2073 
    2107     2084     2015     1976     1964     1954     1968     1966 
    1918     1899     1979     2087     2112     2073     2060     2089 
    2111     2097     2076     2080     2088     2100     2157     2247 
    2332     2407     2435     2367     2245     2150     2096     2061 
    2052     2079     2116     2142     2127     2070     2015     2018 
    2066     2076     2027     1989     1995     2015     2020     2004 
    2006     2052     2114     2134     2112     2108     2139     2168 
    2187     2222     2278     2296     2227     2151     2157     2224 
    2285     2286     2193     2070     2007     1996     1987     1962 
    1939     1957     2002     2011     1980     1948     1948     1989 
    2058     2119     2135     2124     2130     2138     2120     2100 
    2110     2145     2174     2196     2239     2290     2313     2317 
    2319     2309     2297     2280     2243     2197     2135     2060 
    2018     2006     1979     1946     1954     1998     2012     1968 
    1918     1934     2012     2092     2134     2142     2133     2123 
    2126     2133     2131     2135     2149     2160     2147     2114 
    2087     2096     2146     2185     2174     2131     2083     2056 
    2093     2170     2207     2185     2134     2073     2023     2010 
    2029     2065     2115     2157     2166     2128     2061     2022 
    2037     2080     2138     2208     2259     2262     2216     2157 
