Origin Time       2025/03/28 11:34:00
Lat.              32.978
Long.             131.158
Depth. (km)       12
Mag.              2.7
Station Code      KMMH02
Station Lat.      33.1220
Station Long.     131.0629
Station Height(m) 430
Record Time       2025/03/28 11:35:05
Sampling Freq(Hz) 100Hz
Duration Time(s)  120
Dir.              4
Scale Factor      7845(gal)/8223790
Max. Acc. (gal)   2.707
Last Correction   2025/03/28 11:35:05
Memo.             
[...]
    7537     7522     7510     7515     7530     7542     7543     7539 
    7539     7537     7520     7504     7512     7533     7526     7504 
    7516     7547     7547     7526     7526     7547     7558     7549 
    7522     7489     7500     7550     7554     7507     7489     7523 
    7549     7541     7524     7523     7533     7538     7535     7534 
    7534     7523     7508     7514     7537     7547     7530     7514 
    7526     7541     7538     7530     7528     7530     7527     7522 
    7523     7535     7546     7545     7530     7512     7504     7504 
    7510     7516     7533     7553     7557     7543     7528     7520 
    7519     7522     7530     7538     7534     7524     7516     7514 
    7519     7528     7534     7535     7539     7543     7538     7526 
    7520     7520     7522     7528     7527     7523     7522     7519 
    7519     7526     7533     7533     7527     7530     7541     7550 
    7543     7522     7511     7518     7528     7531     7526     7520 
    7520     7522     7522     7523     7530     7547     7558     7545 
    7512     7503     7528     7538     7511     7499     7524     7547 
    7542     7527     7522     7522     7534     7554     7555     7539 
    7526     7520     7518     7515     7511     7512     7516     7519 
    7523     7535     7553     7558     7547     7538     7531     7518 
    7506     7503     7512     7528     7542     7547     7539     7522 
    7508     7511     7533     7561     7565     7534     7508     7523 
    7537     7518     7496     7506     7530     7542     7531     7514 
    7507     7520     7541     7553     7555     7554     7553     7547 
    7527     7503     7500     7510     7507     7507     7522     7541 
    7546     7537     7530     7533     7537     7538     7539     7542 
    7537     7519     7500     7483     7485     7533     7576     7545 
    7497     7533     7589     7557     7492     7488     7531     7557 
    7542     7523     7515     7500     7496     7522     7545     7541 
    7526     7527     7541     7547     7547     7537     7524     7523 
    7519     7512     7515     7518     7518     7520     7519     7520 
    7534     7553     7557     7546     7535     7534     7528     7512 
    7499     7511     7539     7545     7523     7504     7499     7519 
    7562     7578     7546     7510     7514     7535     7538     7520 
    7508     7522     7542     7542     7528     7507     7492     7496 
    7520     7542     7551     7558     7555     7539     7524     7516 
    7518     7527     7524     7518     7526     7537     7528     7515 
    7512     7519     7526     7533     7541     7547     7553     7560 
    7550     7527     7515     7504     7492     7492     7501     7522 
    7545     7549     7538     7530     7522     7535     7573     7573 
    7523     7499     7523     7541     7519     7491     7488     7510 
    7537     7551     7549     7539     7538     7545     7551     7543 
    7522     7508     7504     7503     7512     7524     7533     7530 
    7524     7527     7546     7561     7551     7531     7526     7533 
    7528     7508     7496     7499     7511     7524     7537     7555 
    7564     7542     7519     7520     7527     7528     7523     7519 
    7524     7530     7528     7528     7527     7522     7518     7523 
    7534     7539     7537     7535     7535     7535     7537     7534 
    7520     7504     7507     7520     7527     7527     7528     7535 
    7535     7528     7528     7534     7533     7523     7519     7530 
    7539     7528     7518     7522     7531     7531     7527     7531 
    7535     7531     7528     7530     7527     7523     7522     7526 
    7535     7541     7533     7520     7512     7519     7531     7527 
    7515     7526     7553     7558     7537     7519     7520     7526 
    7522     7515     7516     7526     7534     7533     7535     7542 
    7539     7528     7523     7522     7519     7519     7524     7534 
    7535     7527     7523     7526     7526     7527     7534     7541 
    7537     7528     7520     7516     7516     7520     7530     7533 
    7530     7535     7545     7541     7527     7520     7524     7524 
    7518     7519     7526     7526     7518     7520     7537     7542 
    7534     7528     7528     7533     7535     7533     7526     7518 
    7515     7519     7527     7531     7527     7530     7539     7543 
    7539     7537     7535     7523     7510     7514     7531     7537 
    7527     7518     7522     7527     7524     7523     7530     7538 
    7541     7541     7537     7520     7510     7512     7518     7523 
    7534     7547     7547     7539     7537     7522     7504     7511 
    7531     7538     7527     7520     7530     7538     7527     7512 
    7514     7537     7557     7550     7528     7519     7516     7515 
    7516     7514     7516     7528     7535     7535     7538     7543 
    7539     7530     7527     7528     7531     7528     7514     7508 
    7524     7538     7533     7526     7527     7535     7535     7524 
    7522     7530     7530     7524     7526     7533     7539     7538 
    7533     7531     7527     7518     7512     7511     7515     7527 
    7539     7542     7546     7550     7541     7524     7512     7506 
    7506     7512     7522     7533     7539     7543     7539     7524 
    7520     7528     7530     7527     7530     7534     7531     7523 
    7523     7533     7538     7535     7530     7526     7520     7510 
    7503     7511     7528     7545     7547     7539     7534     7533 
    7523     7511     7514     7526     7530     7524     7518     7526 
    7539     7542     7534     7533     7545     7545     7524     7512 
    7516     7518     7516     7519     7526     7533     7539     7534 
    7526     7523     7516     7510     7516     7535     7553     7551 
    7537     7527     7522     7520     7518     7516     7524     7539 
    7542     7531     7524     7528     7530     7522     7518     7531 
    7549     7545     7526     7523     7528     7524     7520     7527 
    7528     7522     7524     7530     7530     7533     7538     7533 
    7526     7531     7542     7539     7526     7519     7526     7530 
    7522     7516     7528     7535     7530     7533     7537     7537 
    7535     7531     7522     7516     7522     7527     7524     7524 
    7524     7515     7510     7522     7537     7541     7541     7549 
    7558     7549     7528     7514     7506     7508     7516     7516 
    7516     7526     7538     7545     7539     7531     7530     7534 
    7534     7531     7530     7527     7518     7508     7511     7526 
    7537     7537     7534     7538     7538     7527     7516     7524 
    7541     7542     7533     7524     7526     7528     7522     7515 
    7526     7533     7523     7511     7514     7530     7542     7534 
    7527     7539     7545     7530     7516     7519     7528     7528 
    7524     7527     7533     7533     7522     7511     7515     7533 
    7543     7543     7543     7541     7533     7518     7500     7493 
    7510     7533     7541     7541     7541     7538     7534     7533 
    7535     7535     7523     7511     7514     7522     7523     7518 
    7515     7527     7546     7545     7530     7528     7539     7539 
    7533     7533     7535     7528     7514     7506     7510     7522 
    7533     7534     7533     7542     7547     7541     7531     7527 
    7527     7530     7526     7523     7531     7534     7526     7520 
    7523     7530     7534     7528     7527     7535     7542     7537 
    7527     7527     7534     7528     7516     7515     7519     7524 
    7528     7526     7531     7541     7538     7530     7533     7538 
    7533     7523     7520     7527     7533     7530     7516     7510 
    7524     7541     7542     7537     7537     7539     7528     7510 
    7510     7527     7534     7530     7531     7535     7534     7531 
    7528     7523     7520     7524     7533     7535     7538     7539 
    7528     7522     7526     7528     7527     7524     7519     7519 
    7531     7535     7531     7528     7527     7526     7530     7537 
    7538     7534     7526     7519     7520     7523     7524     7524 
    7528     7533     7533     7531     7527     7523     7527     7531 
    7527     7523     7527     7530     7524     7522     7530     7539 
    7538     7528     7523     7522     7524     7526     7520     7518 
    7527     7534     7534     7533     7542     7545     7526     7511 
    7516     7526     7528     7528     7526     7523     7526     7530 
    7528     7531     7534     7528     7524     7530     7538     7541 
    7534     7522     7519     7526     7522     7519     7528     7537 
    7534     7530     7530     7527     7524     7526     7528     7527 
    7524     7526     7530     7533     7528     7523     7520     7520 
    7526     7537     7539     7531     7523     7526     7534     7531 
    7523     7523     7530     7527     7522     7524     7535     7539 
    7531     7528     7534     7535     7534     7527     7516     7514 
    7516     7518     7527     7542     7543     7530     7523     7528 
    7537     7538     7531     7523     7526     7533     7531     7527 
    7528     7527     7522     7516     7519     7534     7541     7530 
    7518     7516     7522     7524     7528     7541     7546     7538 
    7527     7526     7531     7533     7526     7520     7526     7534 
    7537     7531     7520     7523     7528     7528     7530     7534 
    7534     7524     7514     7512     7524     7535     7535     7533 
    7539     7542     7535     7530     7530     7526     7524     7524 
    7524     7524     7522     7519     7524     7530     7533     7535 
    7534     7531     7527     7527     7533     7534     7531     7534 
    7535     7527     7518     7514     7519     7524     7522     7522 
    7530     7538     7539     7538     7542     7545     7535     7520 
    7515     7523     7528     7520     7514     7520     7530     7534 
    7534     7533     7534     7533     7520     7515     7527     7538 
    7530     7518     7522     7537     7542     7533     7526     7528 
    7533     7526     7515     7524     7542     7533     7514     7514 
    7527     7533     7533     7537     7541     7539     7534     7530 
    7530     7531     7530     7524     7516     7519     7530     7531 
    7524     7520     7528     7538     7542     7553     7573     7582 
    7568     7545     7550     7578     7550     7404     7242     7272 
    7499     7661     7595     7464     7501     7724     7877     7716 
    7449     7491     7704     7630     7334     7186     7234     7375 
    7484     7443     7411     7588     7857     7978     7840     7616 
    7619     7744     7623     7312     7078     6951     6995     7303 
    7690     7889     7848     7685     7573     7576     7569     7462 
    7366     7399     7530     7724     7879     7793     7558     7457 
    7445     7388     7345     7326     7387     7634     7835     7665 
    7350     7285     7404     7508     7557     7492     7398     7477 
    7654     7717     7645     7545     7533     7591     7605     7589 
    7573     7504     7495     7596     7496     7188     7086     7276 
    7562     7801     7881     7873     7955     8019     7820     7404 
    7056     6959     7042     7152     7215     7269     7439     7701 
    7866     7917     7940     7897     7817     7789     7689     7414 
    7160     7080     7128     7295     7493     7543     7483     7503 
    7620     7689     7636     7605     7740     7888     7839     7699 
    7596     7468     7302     7184     7105     7029     7006     7074 
    7256     7568     7929     8270     8538     8564     8283     7855 
    7341     6797     6475     6505     6743     7061     7392     7646 
    7848     8035     8095     8032     8028     8090     8041     7788 
    7349     6867     6563     6525     6670     6918     7323     7904 
    8418     8595     8451     8149     7831     7530     7209     6983 
    7020     7192     7280     7300     7334     7406     7519     7600 
    7589     7608     7750     7911     7971     7931     7830     7686 
    7466     7175     6951     6906     7001     7165     7357     7558 
    7765     7965     8120     8156     8010     7759     7570     7456 
    7265     7002     6848     6847     6980     7285     7653     7963 
    8201     8287     8171     7938     7686     7430     7130     6894 
    6880     7094     7408     7619     7654     7727     7862     7852 
    7727     7623     7547     7488     7439     7364     7261     7218 
    7292     7435     7568     7662     7744     7767     7665     7539 
    7504     7484     7427     7435     7530     7650     7744     7723 
    7576     7391     7248     7225     7346     7537     7658     7717 
    7857     7923     7703     7466     7456     7437     7304     7265 
    7292     7233     7218     7342     7481     7654     7873     8031 
    8168     8175     7870     7568     7510     7406     7261     7345 
    7446     7357     7304     7385     7460     7480     7418     7352 
    7537     7878     7871     7425     6928     6585     6439     6575 
    6912     7330     7879     8429     8712     8791     8810     8676 
    8384     8040     7627     7240     6909     6390     5821     5644 
    5854     6319     7098     8117     9174    10011    10264     9807 
    8843     7595     6300     5252     4691     4808     5597     6732 
    7901     8919     9571     9701     9332     8645     7843     7048 
    6377     5989     5996     6400     7060     7820     8519     8955 
    9036     8758     8135     7372     6817     6650     6847     7226 
    7523     7661     7742     7713     7476     7172     6930     6758 
    6732     6858     7020     7281     7751     8303     8708     8823 
    8669     8419     8144     7730     7202     6736     6400     6214 
    6226     6447     6926     7615     8326     8916     9238     9124 
    8536     7581     6561     5888     5757     6084     6775     7728 
    8699     9409     9625     9193     8267     7227     6358     5805 
    5624     5826     6404     7186     7901     8468     8888     9004 
    8708     8175     7628     7123     6691     6427     6388     6623 
    7114     7685     8181     8498     8513     8257     7919     7609 
    7348     7168     7195     7479     7808     7932     7803     7499 
    7118     6751     6507     6508     6778     7246     7820     8349 
    8692     8783     8587     8143     7603     7133     6810     6628 
    6551     6604     6855     7238     7573     7865     8236     8592 
    8749     8677     8391     7909     7327     6714     6174     5964 
    6197     6704     7299     7838     8199     8368     8352     8154 
    7920     7809     7742     7614     7474     7371     7285     7177 
    7042     6957     6984     7130     7377     7635     7801     7874 
    7940     8063     8226     8364     8384     8209     7836     7327 
    6782     6304     6014     6038     6408     7022     7746     8413 
    8858     9027     8911     8471     7789     7088     6529     6208 
    6222     6498     6870     7290     7740     8117     8320     8321 
    8131     7857     7636     7518     7519     7616     7651     7547 
    7442     7391     7299     7196     7141     7132     7249     7511 
    7785     8012     8163     8128     7879     7538     7219     6974 
    6853     6921     7156     7483     7828     8078     8132     8029 
    7838     7591     7360     7182     7091     7159     7337     7526 
    7707     7832     7846     7790     7697     7561     7435     7341 
    7296     7362     7481     7514     7474     7476     7557     7658 
    7680     7603     7527     7515     7507     7433     7327     7276 
    7321     7437     7561     7657     7746     7812     7784     7651 
    7495     7400     7371     7350     7323     7335     7418     7588 
    7812     7962     7911     7697     7473     7308     7194     7148 
    7207     7387     7636     7816     7859     7851     7811     7692 
    7543     7414     7303     7242     7261     7330     7388     7415 
    7435     7446     7479     7607     7774     7865     7920     7992 
    7994     7851     7582     7276     7036     6926     6929     6997 
    7155     7430     7731     7925     7982     7959     7889     7780 
    7631     7443     7261     7167     7153     7173     7253     7391 
    7506     7608     7751     7884     7940     7939     7905     7820 
    7690     7561     7433     7295     7184     7107     7061     7090 
    7229     7434     7608     7711     7751     7761     7743     7657 
    7526     7466     7511     7593     7657     7658     7584     7487 
    7415     7345     7279     7299     7404     7527     7672     7816 
    7877     7846     7755     7635     7531     7445     7353     7304 
    7342     7419     7468     7501     7549     7576     7584     7620 
    7674     7696     7669     7574     7423     7308     7280     7311 
    7396     7518     7641     7766     7867     7884     7808     7639 
    7387     7161     7065     7102     7237     7408     7549     7658 
    7757     7798     7751     7650     7519     7389     7333     7337 
    7345     7389     7493     7620     7719     7746     7690     7576 
    7450     7383     7410     7479     7542     7619     7697     7734 
    7720     7658     7569     7489     7430     7389     7376     7383 
    7414     7484     7573     7635     7641     7603     7569     7580 
    7604     7580     7516     7479     7473     7464     7433     7391 
    7384     7423     7460     7499     7547     7577     7601     7616 
    7581     7538     7553     7596     7641     7700     7719     7645 
    7519     7376     7227     7144     7156     7229     7375     7580 
    7773     7894     7917     7842     7700     7530     7387     7339 
    7389     7474     7545     7597     7619     7591     7537     7496 
    7483     7504     7550     7581     7600     7615     7588     7484 
    7369     7334     7393     7489     7573     7622     7634     7615 
    7558     7466     7406     7433     7508     7566     7599     7608 
    7608     7587     7507     7425     7422     7479     7550     7620 
    7645     7611     7560     7500     7434     7387     7353     7362 
    7450     7551     7580     7578     7612     7647     7651     7642 
    7616     7557     7499     7456     7425     7423     7452     7473 
    7491     7528     7595     7663     7693     7682     7670     7653 
    7582     7466     7373     7333     7318     7326     7371     7458 
    7587     7713     7770     7749     7696     7641     7572     7462 
    7321     7210     7198     7306     7481     7614     7654     7659 
    7682     7696     7654     7566     7473     7434     7473     7520 
    7507     7468     7469     7511     7557     7577     7568     7560 
    7572     7581     7564     7524     7476     7446     7457     7492 
    7520     7549     7589     7608     7607     7618     7609     7560 
    7495     7437     7393     7383     7411     7479     7566     7620 
    7624     7615     7600     7546     7466     7426     7449     7514 
    7591     7645     7661     7653     7618     7538     7430     7346 
