Origin Time       2025/03/28 11:34:00
Lat.              32.978
Long.             131.158
Depth. (km)       12
Mag.              2.7
Station Code      KMMH02
Station Lat.      33.1220
Station Long.     131.0629
Station Height(m) 430
Record Time       2025/03/28 11:35:05
Sampling Freq(Hz) 100Hz
Duration Time(s)  120
Dir.              6
Scale Factor      7845(gal)/8223790
Max. Acc. (gal)   1.003
Last Correction   2025/03/28 11:35:05
Memo.             
   13300    13273    13266    13285    13302    13306    13296    13290 
   13294    13296    13296    13292    13290    13293    13292    13288 
   13293    13304    13304    13293    13285    13289    13292    13289 
   13286    13284    13288    13301    13306    13289    13269    13281 
   13306    13317    13309    13274    13251    13289    13335    13328 
   13292    13267    13265    13290    13321    13325    13301    13277 
   13273    13286    13302    13306    13296    13289    13284    13282 
   13290    13298    13293    13285    13290    13301    13296    13289 
   13296    13293    13285    13289    13297    13298    13293    13289 
   13300    13313    13300    13273    13274    13298    13313    13316 
   13281    13228    13265    13356    13360    13275    13224    13261 
   13323    13333    13311    13296    13278    13261    13265    13294 
   13323    13321    13300    13286    13279    13282    13301    13313 
   13306    13297    13288    13282    13285    13290    13297    13304 
   13302    13293    13285    13282    13282    13285    13296    13306 
   13301    13285    13279    13292    13304    13298    13286    13285 
   13290    13300    13308    13305    13293    13285    13286    13293 
   13296    13292    13292    13292    13290    13298    13305    13289 
   13273    13277    13294    13306    13298    13292    13294    13290 
   13289    13293    13294    13300    13296    13290    13297    13296 
   13292    13292    13286    13288    13294    13289    13285    13297 
   13315    13306    13270    13257    13284    13312    13331    13300 
   13231    13250    13350    13367    13281    13230    13261    13311 
   13332    13320    13300    13285    13261    13252    13292    13328 
   13319    13294    13281    13270    13274    13296    13309    13309 
   13302    13282    13270    13282    13296    13300    13294    13290 
   13296    13301    13301    13285    13270    13290    13316    13301 
   13274    13274    13300    13327    13312    13258    13235    13290 
   13348    13335    13288    13263    13267    13293    13317    13313 
   13298    13289    13282    13281    13293    13305    13300    13288 
   13284    13286    13292    13297    13302    13301    13290    13279 
   13279    13293    13305    13302    13292    13284    13285    13300 
   13316    13300    13262    13267    13309    13350    13356    13266 
   13174    13250    13379    13371    13273    13227    13263    13313 
   13325    13315    13302    13290    13270    13266    13284    13304 
   13319    13312    13284    13267    13275    13298    13311    13301 
   13292    13288    13284    13292    13302    13308    13297    13274 
   13281    13311    13315    13292    13279    13288    13302    13304 
   13290    13285    13297    13313    13306    13274    13261    13293 
   13331    13312    13246    13232    13294    13347    13339    13288 
   13244    13250    13290    13320    13324    13313    13297    13279 
   13271    13282    13300    13306    13305    13296    13284    13284 
   13290    13293    13294    13296    13293    13293    13302    13302 
   13288    13279    13284    13290    13297    13298    13292    13286 
   13289    13294    13296    13304    13309    13290    13271    13284 
   13306    13316    13297    13266    13274    13317    13340    13312 
   13244    13219    13289    13360    13344    13277    13251    13277 
   13304    13306    13297    13294    13301    13298    13284    13281 
   13294    13305    13305    13296    13285    13281    13286    13300 
   13306    13296    13281    13282    13296    13302    13298    13293 
   13292    13288    13285    13293    13302    13302    13294    13288 
   13292    13292    13282    13286    13304    13312    13306    13294 
   13282    13278    13293    13309    13304    13296    13302    13302 
   13286    13269    13271    13289    13308    13311    13300    13289 
   13281    13278    13281    13296    13309    13308    13302    13298 
   13284    13274    13281    13294    13305    13311    13305    13293 
   13282    13282    13292    13298    13297    13293    13290    13290 
   13292    13293    13297    13304    13296    13281    13281    13289 
   13293    13297    13300    13296    13298    13301    13294    13281 
   13274    13286    13312    13325    13304    13274    13271    13281 
   13290    13300    13302    13301    13294    13284    13281    13285 
   13293    13302    13302    13290    13279    13289    13305    13300 
   13289    13288    13289    13294    13300    13297    13301    13302 
   13294    13290    13292    13296    13294    13290    13294    13298 
   13293    13286    13282    13286    13293    13301    13306    13300 
   13289    13288    13292    13293    13292    13293    13297    13298 
   13293    13285    13285    13293    13297    13301    13305    13297 
   13292    13293    13292    13290    13290    13296    13302    13302 
   13296    13285    13286    13293    13293    13293    13289    13285 
   13290    13296    13294    13298    13304    13302    13297    13288 
   13284    13292    13298    13297    13298    13302    13301    13288 
   13277    13285    13296    13297    13294    13296    13296    13296 
   13302    13300    13286    13278    13285    13301    13305    13298 
   13288    13278    13285    13297    13300    13304    13298    13284 
   13284    13292    13293    13296    13305    13305    13292    13282 
   13288    13300    13301    13290    13288    13292    13289    13285 
   13288    13290    13294    13302    13311    13309    13298    13284 
   13279    13281    13288    13301    13308    13302    13292    13289 
   13294    13289    13284    13293    13302    13305    13294    13284 
   13288    13286    13277    13284    13302    13313    13302    13288 
   13288    13293    13290    13289    13297    13300    13300    13302 
   13304    13297    13289    13284    13282    13286    13296    13301 
   13301    13297    13289    13285    13286    13286    13288    13294 
   13300    13296    13290    13290    13294    13292    13281    13286 
   13304    13309    13308    13306    13298    13286    13278    13282 
   13298    13313    13308    13292    13281    13279    13285    13290 
   13290    13298    13306    13300    13288    13279    13277    13290 
   13308    13306    13300    13302    13296    13284    13286    13292 
   13293    13294    13298    13305    13304    13290    13279    13284 
   13298    13302    13298    13297    13290    13285    13288    13292 
   13292    13293    13302    13300    13289    13290    13294    13293 
   13294    13293    13297    13302    13292    13284    13290    13301 
   13300    13290    13286    13290    13292    13293    13297    13298 
   13296    13292    13286    13288    13293    13294    13289    13290 
   13294    13297    13297    13294    13292    13296    13298    13293 
   13290    13298    13302    13298    13294    13289    13284    13285 
   13292    13297    13296    13297    13298    13298    13296    13286 
   13279    13286    13297    13302    13297    13293    13288    13281 
   13285    13298    13301    13297    13296    13293    13289    13288 
   13296    13302    13300    13292    13290    13292    13290    13289 
   13288    13289    13293    13288    13285    13293    13298    13298 
   13294    13294    13296    13289    13282    13285    13301    13309 
   13300    13289    13288    13292    13293    13298    13301    13298 
   13296    13290    13281    13279    13289    13297    13297    13296 
   13301    13301    13289    13286    13302    13305    13289    13281 
   13282    13296    13298    13286    13285    13293    13300    13304 
   13292    13282    13281    13285    13304    13315    13305    13296 
   13289    13278    13278    13293    13309    13305    13286    13286 
   13292    13286    13288    13298    13301    13294    13288    13289 
   13300    13302    13292    13284    13285    13297    13302    13301 
   13297    13286    13284    13293    13296    13294    13293    13293 
   13292    13289    13293    13298    13294    13286    13289    13298 
   13304    13298    13289    13290    13296    13292    13289    13294 
   13298    13293    13286    13289    13292    13292    13293    13298 
   13302    13298    13293    13290    13285    13290    13297    13296 
   13294    13296    13300    13300    13292    13285    13284    13284 
   13290    13298    13304    13308    13304    13290    13279    13282 
   13292    13297    13294    13293    13297    13286    13278    13289 
   13297    13296    13296    13296    13296    13294    13292    13288 
   13288    13290    13297    13294    13292    13302    13300    13289 
   13286    13289    13293    13293    13293    13293    13296    13298 
   13296    13293    13284    13275    13284    13298    13306    13305 
   13302    13292    13281    13282    13296    13306    13304    13293 
   13285    13281    13284    13292    13301    13304    13296    13293 
   13294    13293    13298    13292    13281    13285    13297    13302 
   13298    13297    13294    13289    13282    13282    13293    13297 
   13293    13294    13297    13297    13293    13286    13290    13298 
   13300    13298    13293    13288    13286    13289    13288    13290 
   13304    13301    13282    13284    13292    13293    13302    13309 
   13301    13288    13284    13289    13292    13292    13293    13296 
   13290    13288    13293    13298    13300    13294    13290    13290 
   13294    13300    13296    13292    13292    13285    13281    13293 
   13306    13302    13289    13284    13288    13290    13292    13293 
   13296    13300    13300    13297    13292    13289    13296    13297 
   13292    13296    13302    13293    13281    13285    13300    13304 
   13300    13296    13290    13279    13278    13285    13297    13304 
   13302    13298    13292    13290    13298    13300    13301    13298 
   13289    13285    13292    13300    13304    13297    13285    13278 
   13281    13290    13298    13302    13305    13298    13285    13282 
   13288    13293    13297    13298    13300    13297    13296    13296 
   13292    13286    13288    13297    13301    13300    13297    13290 
   13288    13289    13290    13294    13300    13301    13297    13292 
   13293    13293    13290    13289    13290    13294    13297    13290 
   13289    13294    13292    13289    13292    13297    13301    13293 
   13290    13296    13300    13297    13292    13292    13293    13290 
   13293    13293    13296    13304    13297    13279    13277    13288 
   13301    13306    13304    13296    13289    13286    13289    13297 
   13306    13305    13294    13290    13292    13288    13288    13290 
   13292    13297    13297    13294    13290    13289    13290    13288 
   13296    13311    13309    13301    13293    13284    13279    13288 
   13290    13294    13305    13305    13293    13286    13286    13292 
   13301    13308    13320    13354    13416    13475    13475    13382 
   13257    13204    13203    13068    12752    12594    13004    13833 
   14345    13975    13009    12372    12556    13149    13591    13780 
   13798    13660    13375    12987    12699    12777    13190    13717 
   14092    13937    13338    12915    12773    12730    13020    13563 
   13826    13684    13383    13101    12958    13039    13216    13333 
   13459    13574    13541    13378    13157    13003    13027    13123 
   13247    13470    13599    13432    13162    13059    13147    13359 
   13601    13601    13258    12982    13045    13182    13201    13265 
   13475    13679    13693    13525    13224    12866    12750    13034 
   13501    13832    13770    13386    13043    12945    13011    12993 
   12992    13332    13698    13648    13436    13320    13220    13150 
   13127    13057    13065    13327    13595    13587    13490    13429 
   13282    13136    13113    13188    13360    13522    13485    13316 
   13171    13031    12987    13170    13382    13410    13367    13362 
   13298    13193    13235    13401    13501    13475    13350    13224 
   13177    13134    13100    13200    13412    13554    13528    13363 
   13136    12988    13011    13170    13371    13481    13471    13392 
   13240    13162    13262    13320    13279    13327    13417    13406 
   13339    13277    13181    13147    13297    13404    13350    13340 
   13367    13285    13170    13140    13190    13274    13348    13358 
   13286    13234    13251    13244    13240    13347    13506    13574 
   13466    13267    13171    13165    13126    13113    13213    13358 
   13444    13406    13254    13105    13136    13378    13562    13485 
   13286    13132    13096    13223    13383    13406    13333    13315 
   13378    13385    13308    13271    13267    13225    13189    13221 
   13248    13207    13232    13338    13419    13494    13450    13227 
   13078    13138    13327    13500    13475    13317    13217    13181 
   13135    13115    13215    13355    13414    13462    13459    13316 
   13207    13194    13169    13186    13279    13405    13429    13258 
   13153    13231    13296    13378    13513    13537    13431    13304 
   13208    13090    12958    12970    13173    13428    13582    13560 
   13485    13420    13250    13119    13205    13344    13355    13278 
   13240    13198    13105    13111    13198    13277    13458    13652 
   13578    13294    13027    12872    12918    13124    13304    13414 
   13497    13536    13648    13846    13798    13471    13236    13050 
   12758    12681    12915    13177    13471    13832    13952    13630 
   13132    12798    12707    12876    13209    13378    13360    13359 
   13263    13065    13051    13348    13783    14025    13878    13528 
   13221    12891    12583    12681    13182    13559    13713    13774 
   13487    13003    12846    13051    13352    13558    13676    13770 
   13640    13225    12827    12695    12838    13076    13288    13474 
   13594    13632    13606    13527    13417    13258    13103    13038 
   12988    12906    12892    13061    13358    13572    13617    13575 
   13510    13393    13275    13284    13344    13348    13313    13216 
   13161    13251    13262    13112    13069    13205    13320    13350 
   13404    13475    13493    13474    13383    13215    13068    13020 
   13100    13255    13387    13454    13501    13520    13408    13257 
   13203    13153    13157    13321    13464    13494    13440    13240 
   12988    12912    13135    13482    13622    13527    13350    13136 
   12988    13032    13186    13306    13397    13437    13358    13211 
   13088    13076    13246    13454    13535    13594    13625    13485 
   13331    13333    13335    13234    13149    13095    12966    12868 
   12987    13238    13459    13618    13649    13539    13389    13240 
   13115    13072    13063    13070    13161    13262    13258    13250 
   13348    13460    13524    13537    13448    13367    13387    13351 
   13296    13359    13387    13273    13139    13066    13049    13130 
   13308    13477    13555    13505    13328    13188    13198    13242 
   13289    13382    13421    13428    13498    13506    13313    13038 
   12881    12889    12997    13140    13284    13417    13475    13435 
   13392    13367    13311    13252    13263    13312    13302    13240 
   13198    13230    13329    13401    13383    13335    13338    13412 
   13475    13420    13254    13103    13054    13124    13274    13387 
   13406    13329    13194    13126    13169    13255    13371    13451 
   13451    13448    13375    13208    13151    13235    13293    13297 
   13298    13239    13144    13184    13355    13504    13564    13516 
   13383    13275    13213    13177    13227    13301    13257    13176 
   13134    13076    13096    13240    13328    13296    13273    13284 
   13274    13286    13319    13321    13359    13435    13436    13366 
   13324    13323    13292    13246    13243    13274    13332    13400 
   13412    13343    13263    13257    13296    13312    13300    13270 
   13261    13282    13325    13367    13348    13294    13267    13240 
   13219    13238    13275    13316    13358    13359    13312    13281 
   13305    13336    13332    13298    13250    13201    13181    13188 
   13197    13244    13327    13382    13396    13342    13238    13211 
   13282    13347    13333    13261    13207    13198    13232    13294 
   13373    13460    13468    13375    13257    13138    13104    13209 
   13325    13354    13327    13284    13261    13306    13383    13400 
   13383    13360    13284    13208    13201    13243    13328    13408 
   13379    13267    13193    13193    13207    13262    13404    13478 
   13389    13255    13134    13035    13065    13258    13479    13555 
   13491    13413    13324    13232    13192    13190    13243    13324 
   13315    13236    13217    13292    13409    13467    13409    13292 
   13189    13161    13224    13309    13366    13404    13382    13277 
   13189    13177    13185    13205    13274    13319    13267    13201 
   13209    13289    13397    13454    13400    13281    13171    13115 
   13196    13385    13481    13428    13339    13257    13182    13181 
   13278    13385    13429    13406    13321    13234    13227    13261 
   13292    13336    13362    13351    13339    13320    13278    13230 
   13220    13269    13286    13224    13193    13269    13387    13441 
   13383    13254    13150    13144    13239    13355    13421    13419 
   13351    13270    13228    13243    13289    13317    13317    13313 
   13306    13289    13254    13216    13204    13212    13251    13317 
   13358    13323    13263    13265    13302    13323    13338    13347 
   13335    13304    13269    13258    13281    13292    13293    13306 
   13313    13324    13335    13305    13239    13184    13204    13285 
   13313    13275    13257    13270    13277    13285    13332    13381 
   13369    13333    13321    13297    13270    13274    13288    13290 
   13293    13293    13300    13327    13344    13332    13325    13344 
   13371    13365    13316    13250    13189    13174    13230    13290 
   13313    13324    13321    13279    13247    13274    13296    13294 
   13325    13339    13300    13279    13257    13213    13246    13315 
   13293    13230    13235    13296    13340    13340    13306    13266 
   13254    13269    13261    13215    13193    13248    13358    13444 
   13452    13406    13348    13306    13300    13309    13308    13300 
   13301    13312    13296    13267    13263    13270    13288    13308 
   13305    13294    13292    13293    13289    13288    13305    13308 
   13284    13262    13257    13273    13304    13324    13319    13289 
   13238    13200    13216    13252    13296    13351    13362    13316 
   13281    13269    13255    13261    13309    13354    13355    13329 
   13275    13198    13177    13238    13317    13386    13408    13356 
   13293    13257    13240    13261    13317    13348    13312    13251 
   13246    13288    13302    13282    13284    13305    13320    13332 
   13340    13306    13235    13213    13278    13348    13362    13317 
   13255    13246    13281    13289    13281    13275    13288    13358 
   13427    13408    13346    13285    13234    13215    13238    13279 
