Origin Time       2025/03/28 11:34:00
Lat.              32.978
Long.             131.158
Depth. (km)       12
Mag.              2.7
Station Code      OITH08
Station Lat.      32.8392
Station Long.     131.5357
Station Height(m) 260
Record Time       2025/03/28 11:35:10
Sampling Freq(Hz) 100Hz
Duration Time(s)  120
Dir.              6
Scale Factor      7845(gal)/8223790
Max. Acc. (gal)   1.636
Last Correction   2025/03/28 11:35:10
Memo.             
[...]
  -30268   -30268   -30268   -30269   -30267   -30264   -30265   -30265 
  -30265   -30268   -30269   -30265   -30265   -30268   -30267   -30267 
  -30268   -30267   -30265   -30265   -30267   -30268   -30267   -30267 
  -30267   -30268   -30268   -30265   -30268   -30269   -30267   -30268 
  -30267   -30265   -30268   -30267   -30265   -30268   -30268   -30267 
  -30268   -30269   -30269   -30267   -30267   -30268   -30264   -30264 
  -30267   -30267   -30267   -30271   -30269   -30264   -30265   -30268 
  -30268   -30265   -30265   -30265   -30264   -30265   -30267   -30264 
  -30264   -30268   -30265   -30262   -30267   -30267   -30265   -30267 
  -30267   -30265   -30269   -30271   -30265   -30267   -30271   -30268 
  -30268   -30269   -30267   -30267   -30269   -30268   -30265   -30265 
  -30267   -30267   -30267   -30267   -30267   -30268   -30267   -30265 
  -30267   -30267   -30268   -30268   -30267   -30267   -30267   -30268 
  -30268   -30267   -30267   -30265   -30265   -30267   -30267   -30267 
  -30265   -30267   -30267   -30268   -30269   -30267   -30267   -30267 
  -30268   -30268   -30267   -30269   -30272   -30269   -30267   -30267 
  -30267   -30265   -30265   -30268   -30269   -30268   -30268   -30268 
  -30268   -30267   -30267   -30268   -30268   -30265   -30264   -30268 
  -30271   -30269   -30268   -30267   -30267   -30268   -30267   -30265 
  -30268   -30267   -30264   -30265   -30267   -30268   -30269   -30267 
  -30264   -30267   -30268   -30265   -30268   -30269   -30267   -30267 
  -30268   -30267   -30264   -30262   -30265   -30269   -30268   -30265 
  -30267   -30269   -30269   -30267   -30265   -30265   -30265   -30267 
  -30268   -30269   -30268   -30268   -30269   -30268   -30267   -30265 
  -30267   -30268   -30267   -30265   -30268   -30268   -30268   -30269 
  -30269   -30267   -30265   -30268   -30269   -30268   -30267   -30267 
  -30265   -30267   -30269   -30268   -30268   -30268   -30268   -30267 
  -30267   -30268   -30268   -30267   -30267   -30269   -30269   -30267 
  -30268   -30269   -30267   -30265   -30267   -30268   -30268   -30267 
  -30267   -30267   -30267   -30268   -30265   -30267   -30269   -30267 
  -30264   -30267   -30268   -30267   -30265   -30267   -30269   -30268 
  -30268   -30269   -30265   -30265   -30268   -30269   -30268   -30269 
  -30268   -30265   -30265   -30267   -30265   -30265   -30267   -30268 
  -30267   -30264   -30267   -30268   -30268   -30268   -30268   -30265 
  -30265   -30265   -30267   -30271   -30269   -30267   -30269   -30267 
  -30264   -30267   -30268   -30268   -30268   -30269   -30269   -30268 
  -30267   -30267   -30267   -30265   -30267   -30268   -30267   -30269 
  -30268   -30267   -30267   -30268   -30267   -30267   -30267   -30269 
  -30268   -30265   -30265   -30264   -30265   -30267   -30267   -30268 
  -30268   -30267   -30268   -30269   -30269   -30269   -30268   -30268 
  -30268   -30268   -30268   -30267   -30264   -30265   -30269   -30269 
  -30267   -30265   -30267   -30269   -30269   -30268   -30267   -30265 
  -30265   -30269   -30272   -30269   -30267   -30268   -30271   -30268 
  -30267   -30269   -30268   -30267   -30268   -30268   -30267   -30268 
  -30267   -30267   -30268   -30268   -30267   -30268   -30268   -30265 
  -30265   -30269   -30271   -30268   -30268   -30269   -30268   -30267 
  -30265   -30265   -30268   -30269   -30267   -30268   -30269   -30265 
  -30265   -30268   -30267   -30265   -30268   -30271   -30268   -30267 
  -30268   -30267   -30267   -30267   -30264   -30265   -30269   -30265 
  -30265   -30267   -30265   -30265   -30268   -30269   -30267   -30264 
  -30265   -30267   -30265   -30267   -30267   -30265   -30268   -30269 
  -30268   -30268   -30269   -30265   -30265   -30268   -30268   -30268 
  -30269   -30269   -30267   -30267   -30269   -30265   -30264   -30268 
  -30267   -30267   -30268   -30268   -30267   -30268   -30267   -30264 
  -30265   -30268   -30268   -30269   -30267   -30262   -30265   -30269 
  -30265   -30265   -30268   -30265   -30264   -30267   -30268   -30268 
  -30267   -30267   -30265   -30262   -30264   -30267   -30267   -30265 
  -30267   -30268   -30265   -30267   -30269   -30268   -30268   -30269 
  -30265   -30264   -30265   -30267   -30269   -30268   -30265   -30267 
  -30268   -30268   -30268   -30269   -30268   -30267   -30267   -30267 
  -30267   -30268   -30269   -30267   -30267   -30267   -30267   -30265 
  -30265   -30267   -30268   -30269   -30271   -30268   -30268   -30269 
  -30267   -30265   -30268   -30268   -30267   -30268   -30267   -30267 
  -30268   -30267   -30265   -30267   -30267   -30268   -30268   -30268 
  -30268   -30267   -30265   -30267   -30267   -30267   -30268   -30268 
  -30268   -30268   -30267   -30265   -30268   -30268   -30265   -30267 
  -30268   -30265   -30267   -30268   -30265   -30267   -30269   -30267 
  -30265   -30268   -30267   -30265   -30268   -30269   -30265   -30265 
  -30268   -30269   -30268   -30268   -30268   -30267   -30267   -30267 
  -30267   -30265   -30265   -30267   -30268   -30267   -30265   -30268 
  -30268   -30265   -30265   -30265   -30264   -30267   -30268   -30265 
  -30269   -30269   -30265   -30267   -30269   -30269   -30267   -30265 
  -30267   -30268   -30267   -30268   -30269   -30267   -30267   -30268 
  -30265   -30264   -30267   -30269   -30269   -30268   -30268   -30267 
  -30264   -30264   -30268   -30269   -30267   -30267   -30267   -30265 
  -30265   -30267   -30268   -30268   -30268   -30267   -30267   -30267 
  -30265   -30267   -30268   -30267   -30268   -30269   -30268   -30267 
  -30268   -30267   -30267   -30265   -30267   -30269   -30267   -30264 
  -30264   -30267   -30267   -30267   -30267   -30267   -30265   -30267 
  -30267   -30265   -30264   -30265   -30267   -30265   -30265   -30267 
  -30267   -30268   -30268   -30268   -30268   -30269   -30268   -30267 
  -30267   -30267   -30265   -30265   -30269   -30269   -30268   -30268 
  -30268   -30268   -30267   -30265   -30265   -30265   -30265   -30267 
  -30265   -30265   -30267   -30268   -30268   -30267   -30264   -30265 
  -30267   -30267   -30269   -30268   -30265   -30267   -30268   -30267 
  -30267   -30268   -30267   -30265   -30268   -30268   -30265   -30268 
  -30271   -30269   -30268   -30269   -30268   -30264   -30267   -30268 
  -30267   -30269   -30269   -30264   -30268   -30271   -30264   -30264 
  -30268   -30267   -30264   -30268   -30268   -30267   -30268   -30267 
  -30265   -30267   -30267   -30265   -30267   -30265   -30264   -30265 
  -30268   -30268   -30267   -30265   -30265   -30267   -30269   -30269 
  -30269   -30268   -30268   -30269   -30269   -30268   -30269   -30267 
  -30264   -30268   -30268   -30265   -30268   -30268   -30265   -30268 
  -30268   -30265   -30267   -30268   -30267   -30265   -30267   -30268 
  -30267   -30267   -30265   -30265   -30267   -30271   -30271   -30269 
  -30268   -30267   -30267   -30265   -30265   -30267   -30267   -30265 
  -30267   -30269   -30268   -30265   -30267   -30269   -30268   -30267 
  -30265   -30264   -30265   -30269   -30269   -30269   -30269   -30269 
  -30269   -30268   -30268   -30269   -30267   -30264   -30265   -30269 
  -30268   -30267   -30268   -30268   -30267   -30269   -30268   -30268 
  -30269   -30268   -30268   -30271   -30268   -30268   -30268   -30268 
  -30269   -30267   -30262   -30265   -30267   -30267   -30269   -30271 
  -30268   -30265   -30265   -30268   -30267   -30267   -30269   -30267 
  -30265   -30269   -30269   -30268   -30268   -30268   -30267   -30268 
  -30268   -30265   -30269   -30269   -30265   -30267   -30269   -30268 
  -30268   -30268   -30269   -30268   -30265   -30265   -30267   -30268 
  -30269   -30267   -30265   -30267   -30268   -30268   -30268   -30265 
  -30265   -30269   -30268   -30265   -30265   -30268   -30268   -30267 
  -30267   -30268   -30265   -30265   -30267   -30267   -30268   -30269 
  -30267   -30268   -30269   -30268   -30267   -30267   -30267   -30268 
  -30267   -30265   -30267   -30267   -30267   -30265   -30265   -30265 
  -30267   -30268   -30269   -30268   -30268   -30268   -30267   -30268 
  -30268   -30265   -30265   -30268   -30267   -30265   -30267   -30267 
  -30268   -30268   -30267   -30267   -30267   -30265   -30267   -30268 
  -30269   -30268   -30265   -30265   -30267   -30268   -30268   -30267 
  -30267   -30267   -30265   -30265   -30267   -30268   -30267   -30267 
  -30267   -30264   -30265   -30267   -30268   -30268   -30267   -30268 
  -30269   -30268   -30268   -30267   -30265   -30267   -30265   -30265 
  -30268   -30267   -30268   -30269   -30267   -30267   -30267   -30268 
  -30271   -30271   -30273   -30281   -30285   -30292   -30294   -30267 
  -30214   -30190   -30246   -30299   -30226   -30179   -30333   -30385 
  -30153   -30153   -30512   -30469   -30042   -30137   -30501   -30285 
  -30040   -30327   -30364   -30115   -30341   -30468   -30051   -30049 
  -30512   -30388   -29982   -30240   -30511   -30163   -30148   -30551 
  -30353   -30041   -30373   -30438   -29965   -30053   -30531   -30379 
  -30021   -30222   -30469   -30307   -30159   -30245   -30330   -30267 
  -30214   -30306   -30331   -30177   -30150   -30369   -30461   -30248 
  -30072   -30217   -30408   -30295   -30148   -30242   -30331   -30303 
  -30281   -30264   -30227   -30249   -30300   -30294   -30261   -30200 
  -30217   -30345   -30326   -30225   -30280   -30269   -30168   -30292 
  -30384   -30188   -30190   -30434   -30343   -30098   -30214   -30372 
  -30258   -30219   -30304   -30273   -30250   -30245   -30204   -30334 
  -30389   -30167   -30167   -30379   -30291   -30140   -30277   -30396 
  -30296   -30172   -30187   -30321   -30360   -30234   -30207   -30326 
  -30287   -30160   -30253   -30361   -30277   -30240   -30303   -30285 
  -30225   -30238   -30280   -30281   -30287   -30271   -30188   -30214 
  -30361   -30325   -30167   -30238   -30357   -30277   -30256   -30302 
  -30218   -30208   -30322   -30292   -30223   -30291   -30294   -30235 
  -30291   -30296   -30213   -30269   -30352   -30254   -30161   -30241 
  -30339   -30288   -30181   -30244   -30343   -30269   -30249   -30327 
  -30231   -30195   -30366   -30299   -30146   -30356   -30400   -30109 
  -30175   -30406   -30245   -30160   -30373   -30327   -30136   -30252 
  -30383   -30291   -30222   -30223   -30230   -30295   -30345   -30273 
  -30199   -30254   -30310   -30229   -30199   -30345   -30395   -30240 
  -30159   -30253   -30312   -30248   -30203   -30289   -30412   -30331 
  -30105   -30146   -30392   -30348   -30127   -30176   -30364   -30345 
  -30175   -30164   -30393   -30480   -30240   -30099   -30246   -30339 
  -30273   -30230   -30244   -30299   -30369   -30252   -30049   -30152 
  -30437   -30442   -30214   -30154   -30298   -30352   -30249   -30202 
  -30252   -30248   -30271   -30392   -30331   -30150   -30179   -30252 
  -30316   -30441   -30254   -30010   -30318   -30528   -30119   -30051 
  -30453   -30311   -30099   -30474   -30410   -29862   -30129   -30703 
  -30377   -29972   -30257   -30366   -30106   -30279   -30576   -30227 
  -29934   -30376   -30586   -30098   -29974   -30450   -30492   -30079 
  -30118   -30456   -30372   -30086   -30157   -30420   -30408   -30194 
  -30142   -30285   -30346   -30223   -30183   -30354   -30424   -30202 
  -30053   -30268   -30408   -30234   -30237   -30402   -30246   -30094 
  -30323   -30441   -30179   -30094   -30360   -30391   -30184   -30258 
  -30331   -30142   -30218   -30480   -30325   -30090   -30295   -30416 
  -30098   -30028   -30379   -30474   -30275   -30190   -30258   -30348 
  -30298   -30157   -30227   -30387   -30277   -30122   -30269   -30460 
  -30298   -30001   -30126   -30481   -30380   -30086   -30264   -30496 
  -30213   -30025   -30383   -30518   -30175   -30113   -30277   -30221 
  -30307   -30429   -30186   -30161   -30456   -30296   -29965   -30219 
  -30515   -30276   -30144   -30388   -30360   -30046   -30132   -30522 
  -30469   -30071   -30073   -30366   -30364   -30226   -30264   -30245 
  -30165   -30346   -30453   -30149   -30059   -30403   -30457   -30175 
  -30133   -30280   -30291   -30277   -30361   -30300   -30129   -30202 
  -30384   -30304   -30122   -30200   -30376   -30345   -30260   -30264 
  -30244   -30252   -30330   -30273   -30152   -30252   -30391   -30264 
  -30137   -30272   -30372   -30253   -30200   -30314   -30319   -30191 
  -30203   -30337   -30352   -30257   -30221   -30223   -30208   -30279 
  -30379   -30292   -30134   -30169   -30357   -30462   -30296   -30075 
  -30191   -30406   -30334   -30187   -30215   -30316   -30335   -30253 
  -30169   -30226   -30333   -30291   -30264   -30312   -30187   -30121 
  -30381   -30476   -30167   -30076   -30387   -30470   -30186   -30072 
  -30284   -30407   -30225   -30149   -30375   -30379   -30114   -30195 
  -30445   -30277   -30111   -30400   -30456   -30002   -29982   -30491 
  -30484   -30059   -30154   -30528   -30397   -30048   -30144   -30408 
  -30315   -30159   -30304   -30419   -30199   -30030   -30280   -30531 
  -30315   -29997   -30086   -30418   -30484   -30187   -30046   -30304 
  -30403   -30156   -30219   -30655   -30734   -30395   -30069   -29713 
  -29608   -30329   -31045   -30593   -29790   -29872   -30388   -30539 
  -30481   -30464   -30373   -30215   -29980   -29598   -29625   -30600 
  -31337   -30461   -29411   -29997   -30792   -30441   -30542   -31396 
  -30692   -28730   -28557   -30258   -31101   -30802   -30983   -30850 
  -29304   -28552   -30203   -31737   -31087   -29972   -29841   -29936 
  -29964   -30144   -30501   -31087   -30982   -29818   -29295   -29843 
  -30051   -30323   -31332   -31201   -29538   -29069   -30254   -30878 
  -30707   -30645   -30381   -29926   -29868   -30018   -30102   -30453 
  -30935   -30751   -29956   -29641   -30042   -30330   -30397   -30485 
  -30264   -30030   -30268   -30303   -30013   -30264   -30646   -30381 
  -30113   -30261   -30287   -30145   -30229   -30376   -30314   -30211 
  -30235   -30323   -30285   -30119   -30229   -30534   -30451   -30137 
  -30067   -30133   -30233   -30350   -30310   -30276   -30393   -30277 
  -30036   -30291   -30622   -30362   -30095   -30218   -30289   -30237 
  -30248   -30265   -30186   -30107   -30256   -30396   -30176   -30041 
  -30358   -30507   -30230   -30233   -30484   -30338   -30126   -30264 
  -30404   -30381   -30287   -30150   -30160   -30337   -30314   -30099 
  -30173   -30446   -30315   -30001   -30154   -30408   -30321   -30265 
  -30254   -30100   -30179   -30438   -30368   -30132   -30198   -30439 
  -30339   -30065   -30337   -30674   -30179   -29793   -30396   -30713 
  -30141   -29937   -30341   -30415   -30203   -30257   -30343   -30188 
  -30172   -30411   -30392   -30071   -30126   -30483   -30354   -30011 
  -30175   -30516   -30414   -30090   -30133   -30384   -30310   -30175 
  -30352   -30365   -30152   -30291   -30419   -30086   -30057   -30534 
  -30534   -30059   -29995   -30304   -30429   -30334   -30271   -30242 
  -30123   -30136   -30348   -30325   -30171   -30321   -30464   -30250 
  -30059   -30214   -30415   -30395   -30252   -30175   -30271   -30325 
  -30199   -30163   -30299   -30456   -30431   -30161   -30055   -30252 
  -30319   -30257   -30373   -30437   -30215   -30036   -30164   -30379 
  -30433   -30325   -30168   -30129   -30214   -30245   -30244   -30296 
  -30350   -30388   -30337   -30187   -30118   -30231   -30438   -30445 
  -30117   -29970   -30285   -30449   -30204   -30152   -30430   -30465 
  -30161   -30028   -30260   -30491   -30399   -30192   -30173   -30192 
  -30219   -30397   -30407   -30206   -30219   -30323   -30221   -30173 
  -30365   -30424   -30204   -30106   -30258   -30342   -30258   -30176 
  -30190   -30315   -30395   -30273   -30132   -30167   -30330   -30454 
  -30341   -30138   -30211   -30341   -30234   -30257   -30418   -30248 
  -30082   -30325   -30410   -30156   -30129   -30354   -30451   -30249 
  -29968   -30157   -30580   -30437   -30083   -30230   -30372   -30119 
  -30145   -30477   -30412   -30145   -30172   -30288   -30295   -30267 
  -30208   -30214   -30348   -30368   -30199   -30202   -30369   -30310 
  -30148   -30227   -30379   -30339   -30229   -30214   -30231   -30272 
  -30343   -30265   -30168   -30319   -30397   -30194   -30118   -30327 
  -30372   -30173   -30260   -30470   -30217   -29974   -30273   -30504 
  -30281   -30154   -30273   -30260   -30202   -30269   -30292   -30303 
  -30383   -30364   -30180   -30042   -30195   -30508   -30464   -30117 
  -30137   -30368   -30230   -30117   -30362   -30433   -30169   -30086 
  -30326   -30447   -30229   -30075   -30273   -30431   -30264   -30154 
  -30333   -30354   -30092   -30194   -30600   -30380   -29884   -30194 
  -30650   -30299   -29940   -30258   -30489   -30215   -30119   -30358 
  -30343   -30160   -30245   -30399   -30303   -30163   -30223   -30308 
  -30275   -30222   -30231   -30330   -30362   -30238   -30200   -30245 
  -30186   -30275   -30439   -30252   -30094   -30318   -30403   -30221 
  -30190   -30321   -30364   -30249   -30152   -30233   -30300   -30268 
  -30331   -30369   -30198   -30102   -30273   -30424   -30334   -30211 
  -30241   -30273   -30249   -30287   -30276   -30163   -30238   -30422 
  -30321   -30146   -30214   -30295   -30285   -30271   -30250   -30316 
  -30350   -30161   -30098   -30381   -30485   -30218   -30095   -30234 
  -30323   -30311   -30323   -30348   -30235   -30092   -30211   -30406 
  -30306   -30148   -30279   -30423   -30271   -30126   -30254   -30364 
  -30299   -30237   -30241   -30257   -30237   -30237   -30314   -30322 
  -30190   -30149   -30307   -30410   -30303   -30218   -30296   -30304 
  -30206   -30231   -30273   -30188   -30271   -30481   -30312   -30021 
  -30196   -30419   -30280   -30180   -30275   -30346   -30323   -30200 
  -30163   -30338   -30384   -30190   -30203   -30404   -30302   -30094 
  -30238   -30415   -30275   -30163   -30281   -30311   -30192   -30246 
  -30400   -30323   -30181   -30241   -30281   -30215   -30254   -30329 
  -30312   -30287   -30229   -30138   -30208   -30388   -30387   -30223 
  -30176   -30296   -30365   -30240   -30126   -30279   -30404   -30253 
  -30191   -30287   -30235   -30218   -30364   -30370   -30215   -30154 
  -30277   -30407   -30237   -30015   -30299   -30623   -30289   -29941 
  -30235   -30480   -30242   -30152   -30387   -30393   -30146   -30141 
  -30333   -30311   -30159   -30213   -30396   -30346   -30164   -30213 
  -30329   -30275   -30254   -30326   -30277   -30183   -30276   -30380 
  -30265   -30136   -30217   -30364   -30333   -30202   -30190   -30279 
  -30373   -30391   -30231   -30080   -30156   -30307   -30406   -30434 
  -30249   -30017   -30129   -30426   -30457   -30245   -30103   -30181 
  -30389   -30399   -30150   -30138   -30420   -30420   -30159   -30127 
  -30241   -30299   -30380   -30361   -30202   -30169   -30271   -30284 
  -30252   -30294   -30319   -30277   -30215   -30194   -30267   -30341 
  -30310   -30242   -30254   -30325   -30244   -30106   -30280   -30487 
  -30299   -30098   -30208   -30342   -30316   -30244   -30250   -30361 
  -30342   -30102   -30069   -30370   -30496   -30289   -30137   -30191 
  -30250   -30240   -30310   -30445   -30362   -30127   -30107   -30249 
  -30321   -30353   -30330   -30250   -30222   -30206   -30195   -30268 
