Origin Time       2025/03/28 11:34:00
Lat.              32.978
Long.             131.158
Depth. (km)       12
Mag.              2.7
Station Code      OITH08
Station Lat.      32.8392
Station Long.     131.5357
Station Height(m) 260
Record Time       2025/03/28 11:35:10
Sampling Freq(Hz) 100Hz
Duration Time(s)  120
Dir.              5
Scale Factor      7845(gal)/8223790
Max. Acc. (gal)   4.475
Last Correction   2025/03/28 11:35:10
Memo.             
[...]
   16497    16495    16495    16497    16495    16497    16497    16497 
   16498    16495    16495    16497    16495    16498    16497    16494 
   16497    16498    16494    16494    16497    16497    16494    16495 
   16497    16495    16494    16494    16494    16495    16497    16495 
   16494    16495    16492    16495    16499    16498    16495    16495 
   16495    16497    16497    16495    16495    16495    16495    16495 
   16494    16494    16495    16497    16495    16495    16494    16494 
   16495    16497    16495    16494    16497    16498    16494    16495 
   16498    16492    16491    16495    16494    16497    16499    16495 
   16492    16494    16495    16497    16497    16497    16497    16494 
   16494    16498    16497    16492    16492    16495    16495    16495 
   16497    16495    16492    16494    16497    16497    16495    16494 
   16491    16491    16494    16494    16492    16494    16497    16498 
   16497    16494    16492    16491    16494    16494    16494    16495 
   16495    16494    16494    16495    16495    16497    16497    16494 
   16495    16495    16495    16495    16494    16492    16494    16495 
   16495    16495    16495    16495    16494    16495    16498    16497 
   16494    16494    16495    16495    16494    16495    16497    16497 
   16497    16495    16495    16495    16492    16492    16495    16495 
   16494    16495    16497    16497    16495    16495    16494    16495 
   16497    16495    16495    16495    16497    16495    16494    16497 
   16497    16494    16494    16495    16492    16494    16497    16495 
   16492    16497    16501    16499    16495    16495    16499    16497 
   16495    16495    16494    16495    16497    16494    16495    16495 
   16492    16494    16494    16491    16495    16497    16495    16495 
   16494    16495    16498    16495    16497    16499    16495    16492 
   16495    16497    16495    16495    16492    16491    16494    16495 
   16495    16498    16497    16494    16495    16495    16495    16497 
   16497    16495    16497    16497    16495    16497    16499    16497 
   16494    16492    16494    16495    16495    16497    16497    16497 
   16498    16495    16494    16497    16498    16492    16492    16497 
   16495    16494    16495    16497    16497    16497    16494    16494 
   16495    16492    16492    16495    16497    16497    16495    16494 
   16497    16497    16495    16497    16497    16495    16494    16494 
   16495    16497    16494    16492    16495    16495    16494    16497 
   16497    16495    16497    16494    16494    16495    16494    16494 
   16495    16495    16497    16497    16497    16497    16495    16495 
   16495    16491    16492    16495    16495    16495    16497    16495 
   16492    16492    16494    16495    16497    16498    16498    16495 
   16492    16495    16497    16495    16494    16494    16497    16497 
   16495    16495    16497    16494    16491    16494    16498    16497 
   16495    16491    16491    16494    16495    16497    16498    16497 
   16495    16495    16495    16497    16495    16494    16495    16497 
   16495    16495    16497    16495    16495    16495    16495    16497 
   16498    16494    16492    16494    16495    16497    16497    16497 
   16495    16495    16494    16497    16498    16495    16494    16494 
   16494    16495    16497    16495    16492    16492    16497    16497 
   16495    16498    16499    16495    16494    16498    16498    16497 
   16497    16495    16494    16495    16497    16498    16494    16494 
   16497    16497    16497    16497    16497    16497    16492    16494 
   16497    16494    16495    16497    16495    16495    16495    16495 
   16498    16497    16494    16494    16495    16497    16495    16494 
   16494    16495    16497    16495    16494    16495    16497    16494 
   16494    16495    16492    16492    16495    16497    16495    16495 
   16495    16495    16497    16495    16495    16495    16495    16497 
   16495    16494    16497    16498    16495    16495    16495    16495 
   16498    16498    16495    16492    16495    16499    16498    16495 
   16495    16498    16499    16498    16494    16494    16495    16495 
   16494    16495    16497    16494    16495    16497    16497    16495 
   16494    16497    16499    16497    16492    16494    16497    16497 
   16495    16497    16494    16494    16498    16498    16494    16495 
   16495    16494    16494    16497    16499    16497    16495    16495 
   16495    16497    16495    16492    16494    16498    16498    16497 
   16495    16495    16495    16495    16497    16497    16494    16494 
   16495    16495    16495    16495    16494    16495    16498    16499 
   16498    16494    16491    16494    16497    16498    16497    16495 
   16497    16497    16497    16497    16497    16497    16495    16497 
   16499    16498    16495    16497    16495    16494    16495    16495 
   16492    16494    16495    16497    16497    16495    16494    16495 
   16495    16495    16495    16497    16497    16495    16494    16494 
   16497    16497    16494    16492    16494    16497    16497    16495 
   16495    16498    16497    16492    16494    16497    16495    16492 
   16494    16495    16497    16495    16494    16494    16497    16497 
   16495    16497    16495    16495    16497    16495    16494    16495 
   16497    16495    16494    16498    16498    16494    16495    16495 
   16492    16495    16497    16492    16495    16497    16495    16494 
   16494    16494    16495    16495    16494    16497    16498    16495 
   16492    16495    16498    16495    16492    16495    16497    16495 
   16494    16495    16498    16497    16494    16495    16497    16497 
   16497    16495    16497    16495    16497    16497    16494    16494 
   16498    16498    16494    16494    16497    16498    16495    16495 
   16497    16495    16498    16502    16497    16491    16494    16497 
   16498    16497    16494    16497    16495    16491    16497    16502 
   16499    16494    16492    16497    16498    16495    16494    16495 
   16497    16497    16497    16495    16495    16494    16494    16495 
   16494    16494    16498    16498    16498    16497    16495    16498 
   16498    16498    16497    16497    16498    16499    16495    16492 
   16498    16499    16497    16494    16492    16495    16497    16495 
   16498    16498    16497    16497    16495    16495    16497    16495 
   16494    16494    16495    16495    16497    16498    16495    16497 
   16497    16495    16497    16498    16497    16494    16492    16494 
   16497    16495    16495    16497    16497    16497    16495    16497 
   16497    16494    16494    16495    16494    16495    16494    16494 
   16495    16494    16494    16495    16492    16494    16497    16495 
   16495    16497    16495    16494    16497    16497    16497    16497 
   16495    16494    16494    16494    16495    16495    16495    16497 
   16495    16494    16495    16497    16495    16495    16497    16495 
   16497    16497    16495    16495    16495    16498    16499    16495 
   16492    16492    16494    16495    16495    16494    16494    16495 
   16497    16497    16498    16497    16494    16495    16497    16497 
   16497    16495    16495    16495    16497    16497    16497    16497 
   16497    16495    16495    16498    16497    16494    16495    16494 
   16495    16499    16498    16494    16495    16498    16497    16495 
   16494    16492    16495    16498    16495    16494    16497    16495 
   16494    16495    16497    16495    16494    16494    16494    16495 
   16494    16497    16495    16495    16497    16495    16494    16495 
   16494    16494    16497    16495    16495    16494    16492    16495 
   16498    16498    16495    16497    16497    16495    16495    16495 
   16495    16495    16495    16494    16495    16497    16497    16498 
   16498    16495    16495    16497    16497    16495    16495    16498 
   16498    16498    16495    16495    16498    16498    16495    16497 
   16497    16494    16497    16498    16497    16497    16495    16494 
   16497    16499    16498    16495    16497    16497    16492    16494 
   16498    16498    16495    16495    16495    16497    16498    16497 
   16497    16495    16494    16495    16499    16499    16495    16495 
   16497    16495    16495    16497    16495    16494    16492    16494 
   16498    16498    16492    16492    16497    16495    16495    16497 
   16494    16495    16498    16495    16492    16495    16495    16494 
   16492    16494    16495    16498    16495    16491    16494    16497 
   16495    16494    16492    16488    16482    16478    16475    16471 
   16480    16524    16578    16590    16540    16471    16452    16472 
   16465    16459    16505    16498    16390    16413    16627    16680 
   16474    16386    16491    16471    16401    16578    16752    16542 
   16236    16301    16633    16800    16594    16227    16186    16542 
   16733    16565    16461    16441    16340    16465    16704    16569 
   16313    16401    16636    16627    16502    16505    16452    16357 
   16457    16533    16532    16653    16586    16301    16351    16615 
   16538    16391    16563    16603    16328    16322    16694    16756 
   16371    16272    16546    16618    16501    16437    16425    16532 
   16622    16478    16360    16498    16584    16483    16449    16522 
   16526    16463    16468    16530    16506    16472    16536    16544 
   16428    16380    16530    16668    16522    16312    16380    16586 
   16691    16594    16325    16278    16521    16613    16557    16586 
   16541    16357    16325    16532    16649    16552    16440    16411 
   16455    16544    16610    16582    16457    16349    16390    16549 
   16632    16518    16417    16510    16546    16418    16429    16560 
   16559    16475    16414    16472    16623    16582    16410    16429 
   16511    16463    16459    16583    16613    16461    16379    16467 
   16524    16511    16503    16486    16501    16497    16414    16470 
   16641    16595    16465    16499    16488    16393    16421    16542 
   16591    16483    16391    16470    16526    16503    16575    16595 
   16438    16363    16438    16530    16653    16677    16422    16198 
   16380    16669    16614    16453    16515    16559    16441    16380 
   16479    16607    16587    16425    16370    16518    16615    16505 
   16376    16416    16548    16591    16528    16525    16548    16432 
   16332    16410    16551    16619    16560    16532    16588    16457 
   16290    16438    16644    16587    16402    16302    16433    16704 
   16704    16410    16325    16492    16518    16452    16545    16667 
   16646    16491    16263    16224    16487    16676    16555    16452 
   16602    16644    16363    16247    16544    16737    16518    16263 
   16344    16602    16696    16575    16409    16360    16448    16605 
   16690    16529    16263    16309    16660    16706    16360    16310 
   16571    16590    16528    16606    16459    16202    16402    16769 
   16687    16390    16347    16478    16540    16522    16492    16460 
   16495    16609    16594    16409    16309    16434    16663    16679 
   16382    16256    16510    16660    16578    16526    16447    16287 
   16329    16645    16841    16640    16283    16193    16416    16629 
   16633    16586    16561    16349    16167    16456    16837    16792 
   16514    16260    16179    16351    16625    16789    16700    16468 
   16268    16194    16465    16885    16854    16424    16164    16225 
   16410    16642    16777    16634    16316    16185    16459    16781 
   16700    16372    16274    16507    16714    16669    16506    16316 
   16195    16332    16657    16835    16640    16306    16291    16536 
   16606    16476    16449    16506    16467    16444    16536    16636 
   16596    16374    16227    16445    16768    16672    16316    16299 
   16575    16660    16502    16397    16465    16517    16461    16502 
   16576    16492    16459    16561    16515    16382    16429    16513 
   16498    16579    16654    16479    16326    16459    16551    16444 
   16484    16623    16548    16436    16438    16460    16521    16552 
   16478    16401    16438    16579    16606    16482    16445    16483 
   16476    16486    16533    16569    16511    16397    16424    16538 
   16522    16470    16501    16501    16490    16544    16524    16421 
   16444    16598    16637    16501    16378    16363    16460    16618 
   16661    16501    16324    16344    16521    16654    16590    16430 
   16447    16546    16476    16393    16483    16591    16563    16453 
   16420    16542    16634    16534    16413    16367    16298    16394 
   16788    16912    16414    16054    16384    16771    16694    16440 
   16322    16382    16486    16524    16580    16654    16603    16448 
   16340    16375    16545    16649    16525    16335    16359    16567 
   16649    16541    16488    16486    16376    16335    16568    16803 
   16626    16204    16116    16498    16792    16591    16245    16236 
   16475    16600    16583    16734    17005    16757    15889    15454 
   16124    17190    17741    17487    16696    16033    15691    15280 
   15172    16301    18063    18503    17219    15680    14971    15368 
   16598    17652    17679    16640    15121    14562    16191    18820 
   19683    17709    14472    12592    13632    16947    20179    20578 
   17281    12961    11804    15126    19583    20761    18041    14536 
   13228    14662    17483    19475    18846    16127    13925    14181 
   16491    18598    18442    16383    14501    14334    16125    18295 
   18612    17112    15557    15072    15768    16879    17383    17105 
   16600    16210    16101    16452    16773    16514    16127    16202 
   16629    16965    16869    16403    15998    16027    16498    17031 
   17093    16533    15826    15651    16325    17293    17535    16837 
   15900    15491    16020    17049    17400    16672    15836    15831 
   16474    17004    17030    16606    16102    15959    16252    16780 
   17073    16758    16258    16062    16082    16343    16938    17242 
   16680    15948    15951    16483    16903    16922    16657    16313 
   16029    16186    16704    16799    16478    16413    16498    16395 
   16441    16750    16796    16440    16191    16320    16519    16649 
   16758    16618    16359    16225    16144    16445    16915    16713 
   16251    16205    16395    16700    16891    16753    16416    16012 
   16024    16633    17064    16929    16529    16071    15955    16421 
   16896    16912    16686    16368    15940    15935    16698    17262 
   16758    15969    15982    16541    16884    16850    16533    16116 
   16033    16501    17023    16961    16484    16178    16147    16380 
   16745    16738    16488    16468    16544    16560    16468    16289 
   16291    16459    16621    16767    16708    16394    16194    16362 
   16690    16789    16445    16059    16249    16660    16821    16884 
   16538    15931    15989    16595    17007    16937    16476    16102 
   16143    16451    16745    16796    16648    16429    16243    16308 
   16511    16590    16571    16509    16502    16578    16544    16413 
   16378    16449    16517    16542    16546    16451    16333    16490 
   16723    16587    16335    16390    16542    16501    16445    16510 
   16610    16630    16410    16204    16351    16640    16831    16773 
   16411    16164    16295    16582    16775    16695    16434    16221 
   16121    16387    16924    16996    16575    16252    16137    16258 
   16642    16887    16694    16303    16162    16403    16686    16676 
   16418    16259    16424    16622    16621    16568    16465    16324 
   16416    16719    16737    16383    16228    16364    16494    16638 
   16641    16533    16569    16463    16239    16371    16634    16656 
   16598    16478    16229    16228    16610    16933    16858    16364 
   15884    16117    16856    17119    16698    16218    16038    16137 
   16567    17034    16935    16328    15884    16108    16846    17193 
   16684    16044    15955    16297    16740    17018    16823    16270 
   16027    16297    16640    16802    16691    16370    16213    16378 
   16623    16717    16679    16533    16228    16083    16421    16889 
   16914    16484    16195    16355    16556    16513    16452    16540 
   16633    16576    16345    16202    16426    16711    16742    16652 
   16430    16147    16201    16576    16858    16777    16384    16139 
   16356    16667    16711    16649    16553    16317    16191    16405 
   16679    16692    16483    16310    16405    16632    16675    16579 
   16472    16326    16294    16526    16765    16615    16282    16337 
   16649    16698    16470    16276    16312    16465    16584    16706 
   16711    16420    16141    16263    16669    16912    16645    16237 
   16235    16426    16603    16807    16687    16264    16159    16428 
   16649    16681    16590    16426    16278    16333    16619    16800 
   16646    16329    16225    16448    16625    16546    16455    16471 
   16486    16515    16611    16629    16468    16317    16375    16560 
   16681    16657    16456    16240    16275    16510    16731    16753 
   16480    16239    16344    16564    16602    16515    16513    16564 
   16482    16364    16452    16632    16579    16366    16326    16437 
   16546    16679    16694    16491    16313    16287    16393    16638 
   16811    16688    16407    16239    16239    16356    16591    16838 
   16796    16416    16150    16317    16625    16700    16590    16472 
   16368    16314    16470    16692    16649    16490    16433    16345 
   16343    16605    16785    16569    16263    16285    16538    16684 
   16623    16461    16348    16347    16436    16617    16752    16603 
   16313    16248    16413    16569    16654    16676    16524    16306 
   16355    16602    16686    16555    16410    16336    16347    16513 
   16727    16680    16393    16237    16355    16591    16729    16660 
   16471    16290    16287    16556    16769    16646    16401    16240 
   16249    16488    16748    16777    16615    16394    16247    16306 
   16541    16731    16700    16495    16272    16208    16384    16641 
   16781    16737    16479    16193    16285    16683    16812    16561 
   16254    16135    16363    16704    16783    16642    16441    16321 
   16382    16501    16573    16595    16494    16399    16497    16564 
   16441    16383    16503    16594    16502    16411    16582    16767 
   16579    16260    16218    16410    16633    16703    16583    16437 
   16366    16414    16575    16652    16522    16310    16297    16598 
   16804    16551    16209    16241    16563    16838    16750    16368 
   16124    16262    16646    16870    16688    16347    16222    16383 
   16568    16615    16611    16524    16383    16410    16513    16488 
   16483    16576    16623    16538    16339    16245    16479    16768 
   16765    16499    16200    16204    16519    16702    16652    16596 
   16492    16340    16351    16509    16584    16517    16459    16502 
   16513    16414    16403    16622    16823    16668    16264    16067 
   16314    16723    16852    16660    16394    16254    16279    16416 
