Origin Time       2025/03/28 11:34:00
Lat.              32.978
Long.             131.158
Depth. (km)       12
Mag.              2.7
Station Code      OITH08
Station Lat.      32.8392
Station Long.     131.5357
Station Height(m) 159
Record Time       2025/03/28 11:35:10
Sampling Freq(Hz) 100Hz
Duration Time(s)  120
Dir.              1
Scale Factor      2942(gal)/8224139
Max. Acc. (gal)   0.163
Last Correction   2025/03/28 11:35:10
Memo.             
[...]
  -90509   -90510   -90506   -90505   -90510   -90512   -90506   -90508 
  -90509   -90508   -90509   -90512   -90509   -90504   -90505   -90512 
  -90510   -90510   -90510   -90508   -90508   -90506   -90505   -90508 
  -90506   -90504   -90506   -90509   -90509   -90505   -90504   -90510 
  -90512   -90506   -90508   -90509   -90506   -90506   -90509   -90508 
  -90506   -90509   -90509   -90506   -90510   -90512   -90505   -90506 
  -90510   -90508   -90509   -90512   -90506   -90505   -90509   -90506 
  -90506   -90509   -90506   -90508   -90509   -90505   -90504   -90506 
  -90508   -90508   -90506   -90506   -90508   -90509   -90509   -90508 
  -90508   -90509   -90509   -90508   -90508   -90508   -90505   -90505 
  -90506   -90506   -90508   -90506   -90506   -90506   -90505   -90506 
  -90509   -90506   -90505   -90508   -90508   -90506   -90505   -90506 
  -90506   -90505   -90505   -90506   -90506   -90506   -90509   -90508 
  -90506   -90505   -90505   -90506   -90508   -90509   -90508   -90506 
  -90508   -90506   -90505   -90506   -90509   -90508   -90509   -90509 
  -90505   -90505   -90508   -90508   -90506   -90505   -90505   -90506 
  -90506   -90506   -90505   -90506   -90508   -90506   -90505   -90505 
  -90508   -90510   -90509   -90508   -90508   -90509   -90509   -90508 
  -90505   -90506   -90509   -90508   -90505   -90508   -90509   -90508 
  -90505   -90506   -90509   -90506   -90506   -90510   -90509   -90504 
  -90505   -90509   -90506   -90506   -90508   -90506   -90506   -90508 
  -90505   -90505   -90508   -90509   -90509   -90508   -90508   -90509 
  -90506   -90505   -90510   -90512   -90506   -90504   -90508   -90506 
  -90506   -90510   -90509   -90508   -90510   -90509   -90508   -90509 
  -90510   -90506   -90505   -90508   -90509   -90508   -90509   -90509 
  -90509   -90510   -90509   -90506   -90508   -90510   -90509   -90505 
  -90506   -90506   -90508   -90510   -90509   -90506   -90509   -90509 
  -90508   -90509   -90509   -90506   -90508   -90509   -90506   -90506 
  -90510   -90508   -90508   -90512   -90508   -90505   -90510   -90510 
  -90506   -90508   -90509   -90509   -90509   -90506   -90505   -90508 
  -90506   -90504   -90505   -90506   -90506   -90506   -90508   -90509 
  -90510   -90509   -90508   -90509   -90508   -90506   -90508   -90509 
  -90508   -90509   -90510   -90509   -90509   -90508   -90506   -90508 
  -90506   -90505   -90508   -90508   -90509   -90510   -90508   -90509 
  -90509   -90508   -90508   -90510   -90509   -90508   -90508   -90510 
  -90510   -90508   -90506   -90506   -90508   -90508   -90505   -90506 
  -90510   -90512   -90508   -90508   -90509   -90505   -90505   -90508 
  -90506   -90506   -90510   -90510   -90506   -90506   -90510   -90509 
  -90505   -90509   -90512   -90506   -90505   -90510   -90510   -90506 
  -90506   -90508   -90506   -90508   -90509   -90508   -90505   -90505 
  -90508   -90510   -90512   -90512   -90508   -90505   -90508   -90510 
  -90508   -90509   -90510   -90509   -90509   -90509   -90508   -90508 
  -90508   -90509   -90510   -90509   -90506   -90508   -90509   -90505 
  -90505   -90510   -90509   -90506   -90509   -90510   -90508   -90506 
  -90509   -90508   -90506   -90509   -90510   -90508   -90506   -90508 
  -90509   -90508   -90506   -90508   -90510   -90510   -90509   -90506 
  -90506   -90508   -90509   -90509   -90509   -90509   -90506   -90508 
  -90510   -90508   -90505   -90508   -90509   -90506   -90506   -90505 
  -90505   -90508   -90509   -90506   -90508   -90509   -90509   -90509 
  -90509   -90509   -90508   -90509   -90509   -90509   -90506   -90506 
  -90506   -90506   -90506   -90508   -90509   -90509   -90508   -90508 
  -90508   -90509   -90510   -90509   -90508   -90508   -90508   -90506 
  -90508   -90510   -90509   -90506   -90508   -90510   -90508   -90508 
  -90509   -90509   -90508   -90506   -90506   -90506   -90505   -90506 
  -90506   -90504   -90505   -90509   -90509   -90508   -90509   -90509 
  -90508   -90508   -90509   -90508   -90508   -90509   -90506   -90505 
  -90509   -90510   -90506   -90508   -90510   -90509   -90508   -90508 
  -90505   -90506   -90508   -90506   -90506   -90509   -90509   -90510 
  -90508   -90506   -90509   -90508   -90506   -90509   -90506   -90506 
  -90512   -90510   -90506   -90508   -90509   -90509   -90509   -90508 
  -90505   -90508   -90509   -90505   -90508   -90509   -90506   -90506 
  -90509   -90509   -90509   -90508   -90506   -90506   -90506   -90506 
  -90508   -90506   -90505   -90509   -90510   -90508   -90506   -90508 
  -90506   -90509   -90509   -90508   -90509   -90508   -90505   -90506 
  -90509   -90510   -90510   -90509   -90508   -90508   -90509   -90509 
  -90508   -90506   -90505   -90508   -90512   -90513   -90509   -90506 
  -90508   -90510   -90509   -90506   -90506   -90508   -90506   -90505 
  -90505   -90504   -90505   -90509   -90509   -90509   -90506   -90504 
  -90506   -90509   -90508   -90506   -90508   -90508   -90509   -90508 
  -90506   -90508   -90508   -90508   -90510   -90510   -90506   -90505 
  -90509   -90508   -90505   -90508   -90510   -90506   -90505   -90506 
  -90508   -90508   -90506   -90505   -90509   -90509   -90508   -90506 
  -90508   -90508   -90508   -90508   -90509   -90510   -90509   -90506 
  -90506   -90509   -90509   -90508   -90508   -90508   -90508   -90506 
  -90509   -90509   -90506   -90509   -90510   -90505   -90505   -90509 
  -90506   -90506   -90509   -90505   -90502   -90506   -90510   -90509 
  -90510   -90509   -90508   -90506   -90504   -90505   -90512   -90509 
  -90506   -90509   -90509   -90508   -90508   -90508   -90508   -90509 
  -90510   -90508   -90508   -90510   -90510   -90508   -90505   -90506 
  -90510   -90510   -90508   -90508   -90508   -90509   -90510   -90508 
  -90508   -90509   -90508   -90508   -90508   -90506   -90509   -90510 
  -90508   -90505   -90505   -90505   -90508   -90509   -90508   -90508 
  -90508   -90505   -90505   -90512   -90509   -90504   -90505   -90506 
  -90509   -90509   -90506   -90508   -90512   -90512   -90509   -90508 
  -90506   -90508   -90508   -90506   -90508   -90506   -90506   -90508 
  -90508   -90506   -90506   -90509   -90509   -90506   -90509   -90513 
  -90509   -90504   -90505   -90509   -90509   -90505   -90506   -90509 
  -90510   -90509   -90506   -90508   -90510   -90508   -90505   -90506 
  -90505   -90505   -90512   -90510   -90505   -90506   -90506   -90506 
  -90510   -90509   -90508   -90509   -90509   -90506   -90508   -90510 
  -90510   -90509   -90510   -90512   -90508   -90505   -90508   -90509 
  -90508   -90508   -90509   -90509   -90506   -90508   -90509   -90509 
  -90508   -90508   -90509   -90508   -90508   -90510   -90512   -90510 
  -90508   -90506   -90506   -90509   -90509   -90510   -90510   -90506 
  -90506   -90508   -90508   -90509   -90508   -90505   -90509   -90509 
  -90505   -90504   -90506   -90508   -90508   -90508   -90508   -90508 
  -90509   -90509   -90509   -90512   -90510   -90508   -90509   -90510 
  -90508   -90506   -90509   -90506   -90508   -90509   -90508   -90509 
  -90508   -90508   -90509   -90509   -90508   -90508   -90508   -90510 
  -90508   -90506   -90508   -90509   -90509   -90508   -90506   -90506 
  -90506   -90506   -90506   -90506   -90505   -90509   -90510   -90508 
  -90508   -90509   -90509   -90508   -90506   -90508   -90508   -90508 
  -90509   -90509   -90506   -90506   -90508   -90510   -90510   -90508 
  -90508   -90509   -90508   -90506   -90506   -90508   -90509   -90506 
  -90506   -90510   -90508   -90506   -90508   -90506   -90506   -90508 
  -90506   -90506   -90506   -90506   -90509   -90510   -90508   -90505 
  -90506   -90508   -90508   -90508   -90506   -90506   -90510   -90510 
  -90508   -90509   -90510   -90508   -90506   -90509   -90510   -90508 
  -90508   -90510   -90512   -90509   -90506   -90508   -90508   -90508 
  -90509   -90509   -90505   -90506   -90510   -90506   -90504   -90508 
  -90510   -90509   -90506   -90506   -90506   -90506   -90508   -90510 
  -90510   -90506   -90506   -90508   -90508   -90508   -90510   -90509 
  -90505   -90508   -90509   -90506   -90508   -90506   -90504   -90505 
  -90508   -90508   -90508   -90506   -90509   -90510   -90510   -90509 
  -90508   -90508   -90508   -90508   -90508   -90508   -90508   -90510 
  -90509   -90505   -90505   -90508   -90508   -90508   -90508   -90506 
  -90505   -90506   -90508   -90508   -90509   -90509   -90505   -90502 
  -90505   -90508   -90508   -90505   -90505   -90508   -90508   -90505 
  -90508   -90509   -90508   -90506   -90506   -90508   -90510   -90509 
  -90505   -90508   -90509   -90505   -90504   -90506   -90509   -90508 
  -90506   -90508   -90505   -90505   -90508   -90505   -90505   -90504 
  -90498   -90493   -90487   -90477   -90477   -90499   -90531   -90541 
  -90533   -90551   -90586   -90553   -90490   -90505   -90513   -90431 
  -90404   -90499   -90547   -90485   -90459   -90509   -90535   -90521 
  -90495   -90508   -90560   -90543   -90533   -90549   -90486   -90509 
  -90570   -90477   -90429   -90482   -90499   -90501   -90493   -90506 
  -90498   -90437   -90485   -90543   -90478   -90514   -90630   -90558 
  -90447   -90525   -90551   -90433   -90458   -90552   -90532   -90487 
  -90487   -90528   -90525   -90477   -90505   -90533   -90514   -90521 
  -90521   -90489   -90497   -90532   -90505   -90486   -90510   -90504 
  -90513   -90533   -90510   -90485   -90506   -90529   -90499   -90481 
  -90512   -90520   -90509   -90509   -90504   -90499   -90505   -90512 
  -90506   -90504   -90518   -90514   -90494   -90481   -90490   -90528 
  -90539   -90513   -90509   -90510   -90487   -90506   -90521   -90487 
  -90505   -90525   -90489   -90493   -90521   -90508   -90490   -90504 
  -90522   -90518   -90516   -90529   -90521   -90505   -90518   -90517 
  -90491   -90497   -90508   -90505   -90510   -90513   -90506   -90489 
  -90485   -90494   -90487   -90509   -90540   -90498   -90486   -90547 
  -90537   -90505   -90521   -90490   -90458   -90501   -90539   -90531 
  -90505   -90491   -90524   -90545   -90494   -90464   -90505   -90521 
  -90494   -90483   -90487   -90501   -90533   -90543   -90525   -90526 
  -90518   -90499   -90513   -90512   -90478   -90479   -90506   -90508 
  -90510   -90520   -90495   -90482   -90520   -90531   -90510   -90521 
  -90536   -90509   -90486   -90499   -90517   -90501   -90470   -90486 
  -90517   -90513   -90521   -90514   -90495   -90548   -90555   -90482 
  -90495   -90532   -90490   -90470   -90483   -90497   -90509   -90512 
  -90522   -90521   -90512   -90499   -90477   -90497   -90531   -90529 
  -90509   -90499   -90539   -90548   -90502   -90513   -90544   -90513 
  -90471   -90464   -90485   -90502   -90483   -90462   -90494   -90548 
  -90540   -90491   -90505   -90570   -90576   -90529   -90489   -90464 
  -90472   -90502   -90502   -90471   -90481   -90531   -90535   -90508 
  -90504   -90512   -90513   -90506   -90518   -90497   -90447   -90489 
  -90540   -90502   -90490   -90545   -90570   -90504   -90475   -90533 
  -90517   -90462   -90502   -90551   -90509   -90494   -90537   -90490 
  -90435   -90522   -90593   -90506   -90443   -90521   -90551   -90486 
  -90479   -90498   -90478   -90506   -90549   -90541   -90524   -90493 
  -90481   -90532   -90544   -90466   -90445   -90522   -90535   -90471 
  -90475   -90549   -90558   -90477   -90450   -90504   -90543   -90556 
  -90531   -90486   -90489   -90485   -90493   -90525   -90462   -90456 
  -90580   -90536   -90444   -90545   -90572   -90474   -90466   -90463 
  -90451   -90540   -90605   -90528   -90451   -90489   -90543   -90528 
  -90518   -90535   -90514   -90472   -90474   -90521   -90517   -90471 
  -90487   -90485   -90437   -90491   -90558   -90521   -90520   -90582 
  -90568   -90502   -90495   -90506   -90493   -90493   -90502   -90509 
  -90485   -90441   -90464   -90543   -90593   -90536   -90452   -90499 
  -90563   -90517   -90459   -90477   -90517   -90501   -90489   -90543 
  -90529   -90451   -90495   -90570   -90504   -90432   -90497   -90572 
  -90516   -90462   -90510   -90537   -90522   -90531   -90512   -90483 
  -90504   -90524   -90502   -90452   -90467   -90555   -90548   -90495 
  -90505   -90490   -90512   -90564   -90509   -90456   -90502   -90551 
  -90540   -90482   -90470   -90528   -90535   -90478   -90470   -90499 
  -90510   -90512   -90502   -90490   -90509   -90537   -90540   -90522 
  -90490   -90487   -90533   -90539   -90466   -90440   -90505   -90535 
  -90502   -90490   -90504   -90513   -90521   -90516   -90514   -90548 
  -90548   -90499   -90489   -90513   -90516   -90504   -90487   -90468 
  -90489   -90528   -90509   -90489   -90525   -90541   -90513   -90495 
  -90498   -90493   -90482   -90520   -90564   -90521   -90455   -90499 
  -90572   -90508   -90425   -90479   -90531   -90499   -90490   -90501 
  -90505   -90539   -90566   -90545   -90512   -90472   -90447   -90472 
  -90512   -90540   -90548   -90520   -90510   -90547   -90548   -90504 
  -90478   -90460   -90474   -90556   -90570   -90479   -90437   -90482 
  -90524   -90518   -90508   -90516   -90474   -90418   -90452   -90509 
  -90471   -90385   -90378   -90441   -90508   -90637   -90810   -90832 
  -90626   -90336   -90181   -90301   -90630   -90864   -90811   -90657 
  -90580   -90468   -90207   -90067   -90379   -90787   -90764   -90462 
  -90239   -90221   -90393   -90610   -90676   -90545   -90347   -90347 
  -90701   -90964   -90787   -90663   -90776   -90568   -90100   -90058 
  -90435   -90578   -90354   -90252   -90447   -90626   -90571   -90391 
  -90342   -90472   -90555   -90528   -90571   -90659   -90659   -90614 
  -90587   -90585   -90585   -90556   -90454   -90324   -90348   -90436 
  -90433   -90547   -90688   -90574   -90427   -90412   -90371   -90347 
  -90420   -90522   -90614   -90690   -90670   -90563   -90539   -90578 
  -90535   -90495   -90517   -90551   -90564   -90504   -90402   -90391 
  -90532   -90644   -90521   -90346   -90371   -90448   -90382   -90328 
  -90423   -90571   -90702   -90742   -90656   -90566   -90525   -90513 
  -90486   -90448   -90505   -90578   -90536   -90458   -90428   -90470 
  -90522   -90506   -90468   -90460   -90482   -90485   -90428   -90398 
  -90472   -90536   -90513   -90526   -90545   -90471   -90478   -90587 
  -90593   -90555   -90582   -90602   -90572   -90474   -90370   -90421 
  -90535   -90478   -90460   -90647   -90634   -90370   -90367   -90605 
  -90589   -90400   -90477   -90641   -90574   -90471   -90494   -90563 
  -90586   -90456   -90312   -90381   -90504   -90477   -90474   -90568 
  -90533   -90409   -90485   -90606   -90531   -90499   -90582   -90540 
  -90493   -90590   -90598   -90482   -90489   -90545   -90513   -90540 
  -90575   -90466   -90352   -90393   -90536   -90578   -90454   -90373 
  -90417   -90486   -90529   -90514   -90468   -90506   -90574   -90568 
  -90551   -90537   -90528   -90516   -90482   -90549   -90667   -90603 
  -90452   -90437   -90464   -90464   -90522   -90556   -90508   -90464 
  -90489   -90583   -90576   -90420   -90394   -90525   -90541   -90464 
  -90502   -90599   -90552   -90445   -90467   -90504   -90479   -90502 
  -90526   -90517   -90498   -90466   -90498   -90539   -90525   -90539 
  -90540   -90508   -90553   -90590   -90467   -90409   -90559   -90606 
  -90467   -90433   -90531   -90531   -90413   -90418   -90541   -90524 
  -90451   -90489   -90512   -90498   -90520   -90537   -90524   -90491 
  -90463   -90464   -90508   -90555   -90506   -90416   -90464   -90579 
  -90580   -90531   -90533   -90544   -90516   -90505   -90548   -90556 
  -90474   -90405   -90443   -90526   -90558   -90539   -90509   -90514 
  -90524   -90506   -90520   -90528   -90510   -90525   -90535   -90536 
  -90544   -90509   -90435   -90402   -90478   -90567   -90513   -90413 
  -90459   -90537   -90505   -90516   -90537   -90450   -90481   -90580 
  -90481   -90429   -90547   -90571   -90514   -90508   -90487   -90447 
  -90516   -90595   -90533   -90474   -90454   -90451   -90535   -90551 
  -90499   -90543   -90558   -90502   -90513   -90543   -90502   -90493 
  -90526   -90491   -90454   -90490   -90548   -90513   -90421   -90472 
  -90598   -90607   -90514   -90429   -90452   -90512   -90522   -90541 
  -90529   -90470   -90493   -90548   -90509   -90470   -90472   -90452 
  -90479   -90563   -90549   -90460   -90493   -90558   -90483   -90441 
  -90505   -90532   -90543   -90532   -90494   -90524   -90551   -90501 
  -90499   -90548   -90532   -90498   -90485   -90474   -90481   -90495 
  -90529   -90547   -90505   -90483   -90497   -90467   -90448   -90489 
  -90535   -90541   -90502   -90463   -90528   -90630   -90562   -90436 
  -90479   -90549   -90497   -90444   -90489   -90539   -90513   -90512 
  -90555   -90540   -90490   -90486   -90508   -90516   -90513   -90506 
  -90524   -90544   -90522   -90504   -90508   -90502   -90474   -90455 
  -90487   -90539   -90533   -90468   -90437   -90501   -90558   -90526 
  -90479   -90468   -90487   -90514   -90524   -90520   -90529   -90532 
  -90513   -90504   -90541   -90555   -90470   -90431   -90513   -90553 
  -90513   -90489   -90477   -90487   -90531   -90533   -90486   -90460 
  -90490   -90535   -90548   -90514   -90467   -90486   -90548   -90531 
  -90477   -90498   -90533   -90524   -90508   -90501   -90509   -90510 
  -90489   -90495   -90528   -90528   -90504   -90494   -90495   -90495 
  -90522   -90533   -90506   -90512   -90505   -90486   -90528   -90522 
  -90470   -90464   -90458   -90505   -90594   -90551   -90452   -90429 
  -90462   -90528   -90576   -90572   -90547   -90510   -90458   -90450 
  -90498   -90504   -90479   -90513   -90539   -90544   -90566   -90518 
  -90445   -90478   -90518   -90506   -90547   -90559   -90477   -90463 
  -90525   -90528   -90504   -90501   -90502   -90490   -90485   -90520 
  -90537   -90505   -90497   -90520   -90521   -90497   -90494   -90536 
  -90541   -90487   -90482   -90501   -90478   -90474   -90479   -90481 
  -90518   -90545   -90537   -90525   -90516   -90516   -90490   -90477 
  -90553   -90589   -90487   -90420   -90487   -90547   -90516   -90482 
  -90478   -90495   -90541   -90540   -90490   -90501   -90521   -90483 
  -90494   -90541   -90509   -90450   -90459   -90517   -90552   -90513 
  -90475   -90495   -90509   -90541   -90587   -90525   -90443   -90466 
  -90505   -90499   -90475   -90489   -90558   -90560   -90504   -90535 
  -90570   -90504   -90455   -90460   -90466   -90495   -90547   -90551 
  -90512   -90528   -90543   -90470   -90421   -90464   -90524   -90558 
  -90551   -90510   -90474   -90460   -90491   -90509   -90467   -90483 
  -90571   -90576   -90506   -90504   -90552   -90491   -90401   -90479 
  -90613   -90609   -90489   -90410   -90477   -90576   -90541   -90443 
  -90440   -90517   -90564   -90551   -90505   -90462   -90462   -90520 
  -90555   -90512   -90477   -90491   -90516   -90524   -90502   -90485 
  -90528   -90540   -90467   -90467   -90539   -90544   -90497   -90458 
  -90475   -90533   -90544   -90531   -90539   -90506   -90454   -90491 
  -90559   -90521   -90454   -90485   -90529   -90502   -90467   -90490 
  -90532   -90544   -90543   -90541   -90510   -90474   -90474   -90481 
  -90474   -90470   -90509   -90549   -90514   -90501   -90545   -90537 
