Origin Time       2025/03/28 11:34:00
Lat.              32.978
Long.             131.158
Depth. (km)       12
Mag.              2.7
Station Code      OITH08
Station Lat.      32.8392
Station Long.     131.5357
Station Height(m) 159
Record Time       2025/03/28 11:35:10
Sampling Freq(Hz) 100Hz
Duration Time(s)  120
Dir.              3
Scale Factor      2942(gal)/8224139
Max. Acc. (gal)   0.160
Last Correction   2025/03/28 11:35:10
Memo.             
[...]
   28773    28775    28775    28776    28776    28776    28775    28772 
   28772    28773    28776    28775    28773    28775    28776    28775 
   28773    28775    28775    28773    28775    28777    28776    28773 
   28772    28772    28775    28776    28775    28776    28776    28773 
   28772    28773    28776    28776    28773    28773    28776    28776 
   28773    28773    28776    28777    28775    28773    28773    28773 
   28775    28776    28775    28773    28772    28773    28776    28776 
   28772    28772    28773    28772    28772    28775    28776    28775 
   28775    28776    28776    28775    28773    28775    28775    28773 
   28773    28773    28775    28775    28775    28776    28775    28773 
   28775    28777    28776    28775    28772    28772    28776    28775 
   28773    28773    28775    28775    28775    28775    28775    28775 
   28776    28775    28776    28777    28773    28773    28776    28775 
   28772    28772    28775    28773    28772    28772    28772    28775 
   28777    28775    28773    28775    28776    28777    28776    28775 
   28775    28775    28775    28775    28775    28775    28775    28776 
   28775    28773    28773    28773    28772    28776    28777    28777 
   28779    28776    28772    28775    28779    28776    28773    28773 
   28775    28773    28772    28773    28772    28773    28776    28775 
   28771    28773    28776    28776    28776    28776    28773    28773 
   28776    28776    28773    28773    28772    28772    28775    28773 
   28772    28773    28773    28772    28775    28775    28773    28775 
   28775    28772    28773    28773    28776    28777    28773    28771 
   28773    28773    28772    28773    28775    28773    28772    28775 
   28775    28775    28776    28775    28773    28775    28773    28772 
   28773    28773    28773    28776    28776    28773    28772    28775 
   28773    28772    28776    28776    28773    28775    28775    28776 
   28775    28773    28775    28776    28773    28772    28775    28776 
   28775    28773    28773    28773    28773    28773    28776    28773 
   28773    28776    28775    28773    28775    28773    28772    28775 
   28776    28773    28775    28776    28776    28779    28777    28775 
   28775    28773    28772    28773    28773    28773    28773    28775 
   28776    28775    28773    28772    28772    28775    28776    28773 
   28771    28773    28775    28773    28773    28776    28775    28773 
   28775    28775    28773    28773    28775    28773    28772    28775 
   28773    28771    28772    28775    28773    28772    28776    28777 
   28775    28775    28775    28772    28773    28773    28773    28775 
   28773    28775    28776    28776    28776    28777    28777    28773 
   28773    28776    28776    28775    28773    28772    28772    28776 
   28776    28775    28772    28773    28776    28776    28776    28773 
   28772    28773    28772    28772    28775    28775    28775    28776 
   28773    28772    28775    28776    28776    28775    28775    28776 
   28776    28775    28773    28775    28775    28772    28772    28771 
   28773    28775    28773    28773    28776    28772    28771    28773 
   28776    28775    28775    28775    28776    28775    28773    28773 
   28775    28775    28773    28775    28777    28776    28775    28773 
   28775    28776    28775    28776    28777    28775    28773    28773 
   28773    28773    28773    28775    28775    28773    28775    28779 
   28775    28773    28773    28773    28773    28773    28772    28771 
   28773    28773    28771    28773    28777    28773    28771    28775 
   28775    28772    28775    28775    28772    28775    28776    28775 
   28772    28772    28772    28772    28773    28775    28775    28773 
   28772    28772    28773    28773    28773    28772    28772    28775 
   28772    28771    28773    28773    28772    28775    28776    28775 
   28773    28773    28775    28773    28773    28773    28773    28776 
   28775    28771    28775    28775    28772    28775    28777    28772 
   28771    28775    28775    28773    28773    28772    28768    28769 
   28773    28773    28773    28775    28773    28776    28776    28775 
   28776    28776    28775    28775    28776    28775    28773    28775 
   28776    28773    28772    28772    28772    28773    28775    28773 
   28772    28773    28772    28772    28773    28773    28773    28775 
   28773    28775    28776    28773    28773    28775    28775    28775 
   28775    28773    28776    28777    28772    28771    28772    28775 
   28777    28776    28776    28776    28775    28772    28773    28775 
   28775    28776    28775    28773    28775    28776    28773    28775 
   28775    28773    28775    28775    28772    28772    28772    28775 
   28776    28775    28775    28776    28776    28775    28773    28775 
   28776    28775    28772    28775    28776    28773    28773    28772 
   28775    28776    28772    28771    28772    28772    28772    28773 
   28772    28773    28775    28775    28775    28775    28775    28773 
   28773    28773    28773    28776    28776    28776    28775    28773 
   28773    28775    28775    28775    28773    28772    28773    28773 
   28773    28773    28773    28775    28773    28773    28773    28773 
   28776    28776    28773    28773    28776    28775    28773    28773 
   28775    28775    28773    28776    28777    28776    28775    28776 
   28775    28773    28776    28775    28773    28775    28776    28777 
   28776    28775    28777    28776    28773    28775    28776    28776 
   28777    28779    28776    28776    28777    28776    28775    28775 
   28776    28776    28777    28777    28776    28775    28773    28776 
   28779    28776    28776    28779    28777    28775    28775    28776 
   28775    28773    28776    28777    28775    28773    28776    28779 
   28775    28772    28776    28777    28776    28776    28776    28775 
   28773    28775    28776    28776    28777    28775    28773    28776 
   28775    28773    28777    28777    28773    28773    28777    28777 
   28775    28775    28777    28776    28775    28775    28775    28773 
   28773    28775    28775    28775    28775    28773    28776    28777 
   28775    28773    28775    28776    28777    28776    28777    28777 
   28776    28773    28775    28776    28777    28776    28776    28777 
   28776    28773    28773    28776    28776    28776    28776    28775 
   28775    28775    28777    28776    28776    28777    28776    28773 
   28773    28773    28775    28775    28776    28776    28775    28776 
   28779    28776    28775    28777    28775    28772    28776    28779 
   28775    28775    28773    28773    28775    28773    28775    28776 
   28775    28776    28776    28775    28773    28773    28773    28773 
   28772    28773    28776    28776    28776    28776    28775    28775 
   28775    28776    28776    28776    28776    28775    28775    28776 
   28776    28773    28773    28776    28776    28773    28773    28775 
   28773    28773    28775    28773    28772    28775    28776    28775 
   28775    28775    28776    28776    28775    28773    28776    28776 
   28772    28772    28776    28776    28775    28776    28777    28775 
   28773    28776    28777    28776    28773    28773    28775    28776 
   28772    28772    28776    28775    28772    28775    28779    28773 
   28771    28776    28779    28779    28777    28776    28775    28775 
   28775    28775    28773    28773    28775    28773    28773    28775 
   28776    28776    28776    28775    28775    28776    28775    28772 
   28773    28775    28776    28775    28776    28776    28775    28773 
   28773    28773    28776    28777    28775    28775    28776    28779 
   28777    28775    28775    28776    28776    28773    28773    28777 
   28777    28776    28775    28771    28772    28776    28775    28772 
   28775    28776    28773    28776    28779    28775    28772    28773 
   28772    28773    28776    28777    28776    28775    28775    28775 
   28775    28775    28775    28777    28777    28773    28772    28773 
   28773    28772    28776    28779    28776    28773    28776    28775 
   28775    28776    28775    28775    28777    28777    28776    28776 
   28776    28775    28776    28779    28777    28773    28775    28776 
   28775    28776    28777    28776    28773    28775    28776    28776 
   28777    28779    28777    28779    28777    28777    28776    28775 
   28776    28777    28775    28776    28777    28776    28775    28775 
   28776    28776    28775    28775    28776    28776    28777    28777 
   28776    28777    28777    28776    28775    28776    28777    28773 
   28773    28776    28776    28775    28775    28776    28777    28776 
   28776    28777    28777    28776    28773    28775    28776    28775 
   28773    28773    28776    28777    28779    28776    28773    28773 
   28775    28775    28776    28776    28776    28776    28773    28776 
   28777    28776    28775    28775    28775    28775    28775    28773 
   28767    28763    28759    28745    28736    28752    28787    28800 
   28787    28809    28872    28858    28788    28822    28865    28722 
   28610    28741    28821    28695    28676    28803    28802    28755 
   28777    28746    28752    28834    28813    28759    28796    28844 
   28837    28810    28814    28769    28676    28723    28776    28659 
   28672    28842    28834    28733    28764    28834    28846    28826 
   28765    28729    28771    28806    28783    28717    28726    28842 
   28831    28732    28759    28776    28713    28745    28823    28777 
   28723    28780    28829    28818    28776    28734    28753    28795 
   28795    28768    28749    28777    28818    28796    28753    28755 
   28788    28786    28768    28794    28782    28740    28786    28809 
   28725    28714    28794    28799    28757    28756    28775    28791 
   28800    28782    28764    28792    28794    28765    28775    28777 
   28772    28795    28792    28761    28753    28765    28792    28798 
   28750    28734    28792    28815    28750    28733    28799    28800 
   28761    28769    28764    28757    28792    28779    28738    28771 
   28792    28748    28761    28834    28818    28740    28757    28825 
   28794    28738    28772    28796    28753    28738    28773    28794 
   28784    28769    28779    28803    28776    28736    28760    28783 
   28756    28741    28772    28794    28784    28772    28784    28810 
   28809    28792    28792    28773    28757    28782    28780    28745 
   28761    28779    28738    28752    28803    28776    28753    28787 
   28792    28784    28791    28780    28772    28794    28779    28729 
   28756    28799    28771    28761    28790    28799    28776    28755 
   28791    28802    28759    28775    28788    28744    28752    28786 
   28784    28799    28798    28746    28745    28795    28775    28736 
   28779    28815    28790    28799    28834    28813    28777    28779 
   28761    28723    28722    28761    28773    28734    28736    28807 
   28815    28729    28728    28821    28853    28802    28749    28764 
   28819    28814    28755    28715    28737    28807    28821    28753 
   28728    28769    28792    28796    28802    28741    28675    28779 
   28888    28761    28663    28798    28857    28771    28800    28807 
   28694    28742    28856    28799    28736    28759    28779    28804 
   28827    28783    28701    28725    28821    28794    28729    28761 
   28779    28777    28791    28742    28725    28818    28845    28757 
   28733    28790    28807    28773    28746    28769    28802    28769 
   28753    28803    28791    28723    28759    28821    28782    28768 
   28804    28765    28775    28848    28767    28687    28784    28813 
   28746    28760    28784    28768    28775    28804    28830    28788 
   28696    28701    28776    28792    28772    28802    28831    28796 
   28775    28780    28756    28769    28794    28753    28726    28761 
   28788    28768    28752    28782    28803    28776    28764    28784 
   28807    28825    28815    28775    28765    28780    28769    28752 
   28736    28719    28765    28833    28776    28684    28765    28863 
   28773    28702    28779    28834    28807    28771    28764    28787 
   28810    28780    28726    28730    28772    28780    28765    28767 
   28779    28775    28776    28780    28794    28817    28777    28748 
   28814    28798    28728    28767    28780    28746    28786    28788 
   28748    28764    28795    28804    28775    28733    28777    28826 
   28799    28804    28815    28749    28730    28782    28769    28734 
   28742    28750    28765    28792    28799    28787    28782    28794 
   28799    28780    28757    28757    28784    28799    28776    28746 
   28756    28786    28794    28783    28772    28776    28787    28784 
   28804    28810    28737    28738    28834    28791    28706    28757 
   28776    28756    28796    28782    28736    28765    28799    28813 
   28819    28761    28714    28788    28853    28764    28701    28799 
   28857    28772    28705    28723    28780    28813    28777    28730 
   28744    28791    28827    28809    28760    28777    28791    28718 
   28699    28772    28844    28829    28723    28744    28894    28875 
   28721    28692    28767    28792    28760    28753    28768    28730 
   28742    28871    28872    28730    28748    28872    28875    28837 
   28794    28699    28749    28919    28846    28544    28328    28350 
   28626    29016    29209    29019    28656    28561    28800    29012 
   28980    28829    28732    28669    28582    28609    28819    28890 
   28603    28379    28636    29053    29150    29058    28988    28746 
   28534    28776    28996    28679    28451    28669    28750    28676 
   28803    28904    28973    29080    28844    28521    28626    28800 
   28791    28788    28714    28632    28755    28922    28898    28757 
   28705    28733    28730    28760    28865    28983    28991    28863 
   28818    28850    28750    28686    28678    28547    28521    28647 
   28676    28694    28742    28748    28764    28746    28723    28815 
   28876    28788    28713    28779    28926    28956    28836    28823 
   28941    28926    28813    28740    28680    28715    28818    28769 
   28625    28633    28773    28841    28794    28780    28853    28903 
   28829    28707    28680    28726    28755    28767    28780    28813 
   28838    28773    28687    28738    28825    28799    28744    28744 
   28761    28734    28680    28686    28753    28813    28800    28746 
   28807    28933    28934    28876    28850    28846    28854    28771 
   28645    28684    28760    28669    28597    28682    28752    28757 
   28769    28698    28652    28809    28904    28782    28710    28821 
   28910    28829    28769    28853    28914    28849    28756    28810 
   28938    28881    28722    28717    28796    28796    28740    28687 
   28675    28722    28745    28707    28732    28788    28748    28705 
   28784    28883    28813    28680    28769    28884    28746    28679 
   28814    28836    28768    28765    28753    28756    28818    28844 
   28786    28732    28772    28837    28811    28729    28702    28732 
   28745    28761    28798    28760    28702    28764    28853    28821 
   28734    28761    28848    28804    28733    28787    28869    28864 
   28800    28777    28802    28802    28782    28786    28775    28734 
   28715    28733    28799    28813    28709    28690    28769    28760 
   28742    28795    28795    28732    28728    28803    28818    28768 
   28775    28776    28750    28777    28782    28757    28798    28840 
   28794    28745    28776    28836    28860    28829    28760    28709 
   28729    28800    28802    28740    28765    28822    28776    28761 
   28844    28853    28790    28768    28757    28741    28757    28771 
   28756    28746    28736    28729    28795    28825    28728    28709 
   28798    28776    28717    28748    28745    28717    28773    28822 
   28788    28771    28791    28806    28827    28831    28784    28756 
   28794    28845    28857    28792    28706    28721    28796    28799 
   28760    28725    28711    28784    28841    28772    28711    28745 
   28817    28845    28790    28729    28759    28815    28800    28759 
   28765    28799    28784    28742    28768    28779    28755    28810 
   28830    28748    28732    28787    28813    28802    28763    28740 
   28777    28799    28750    28748    28791    28765    28734    28769 
   28792    28768    28764    28807    28787    28730    28779    28811 
   28744    28740    28800    28791    28738    28761    28815    28773 
   28737    28804    28818    28765    28775    28790    28795    28834 
   28796    28719    28786    28852    28761    28696    28752    28817 
   28772    28699    28740    28790    28769    28771    28771    28760 
   28787    28780    28757    28786    28818    28827    28811    28768 
   28753    28794    28837    28813    28738    28718    28796    28856 
   28764    28655    28732    28806    28736    28752    28827    28780 
   28729    28755    28787    28800    28807    28798    28738    28732 
   28823    28806    28726    28775    28794    28740    28788    28825 
   28765    28764    28811    28791    28764    28809    28829    28744 
   28726    28809    28803    28760    28771    28757    28750    28780 
   28776    28776    28795    28768    28744    28787    28822    28796 
   28769    28763    28746    28749    28782    28788    28750    28732 
   28780    28842    28819    28742    28730    28813    28856    28782 
   28726    28777    28819    28764    28699    28756    28858    28819 
   28725    28756    28804    28771    28771    28791    28730    28715 
   28802    28836    28787    28741    28744    28782    28829    28817 
   28730    28714    28780    28791    28772    28765    28772    28791 
   28787    28799    28806    28755    28786    28854    28791    28737 
   28788    28800    28757    28750    28760    28744    28771    28811 
   28772    28746    28773    28775    28783    28815    28800    28759 
   28765    28796    28765    28737    28802    28819    28748    28755 
   28784    28738    28749    28809    28787    28755    28768    28782 
   28796    28788    28746    28746    28790    28798    28777    28765 
   28755    28772    28800    28799    28767    28741    28788    28844 
   28811    28759    28748    28765    28803    28800    28760    28761 
   28782    28786    28783    28773    28761    28752    28784    28814 
   28753    28725    28802    28811    28749    28733    28765    28822 
   28823    28760    28765    28788    28738    28753    28802    28748 
   28711    28777    28825    28777    28729    28780    28845    28802 
   28750    28788    28818    28813    28802    28756    28738    28763 
   28734    28738    28810    28806    28757    28771    28798    28790 
   28752    28730    28782    28811    28782    28772    28773    28782 
   28802    28761    28715    28756    28825    28856    28791    28701 
   28738    28826    28827    28777    28730    28740    28829    28852 
   28753    28692    28749    28833    28837    28748    28694    28730 
   28772    28817    28831    28767    28722    28748    28800    28818 
