Origin Time       2025/03/28 11:34:00
Lat.              32.978
Long.             131.158
Depth. (km)       12
Mag.              2.7
Station Code      OITH08
Station Lat.      32.8392
Station Long.     131.5357
Station Height(m) 260
Record Time       2025/03/28 11:35:10
Sampling Freq(Hz) 100Hz
Duration Time(s)  120
Dir.              4
Scale Factor      7845(gal)/8223790
Max. Acc. (gal)   7.371
Last Correction   2025/03/28 11:35:10
Memo.             
[...]
   42434    42435    42437    42437    42439    42439    42438    42438 
   42438    42437    42439    42441    42438    42437    42438    42435 
   42433    42435    42438    42439    42439    42438    42437    42438 
   42438    42439    42438    42437    42437    42439    42441    42439 
   42438    42438    42437    42435    42435    42437    42437    42437 
   42438    42438    42438    42438    42437    42438    42441    42439 
   42437    42437    42435    42435    42437    42439    42438    42437 
   42437    42438    42438    42438    42437    42435    42435    42437 
   42437    42438    42441    42437    42434    42438    42439    42438 
   42437    42438    42439    42439    42439    42439    42438    42438 
   42437    42437    42438    42438    42437    42438    42441    42439 
   42438    42439    42438    42437    42439    42439    42438    42438 
   42438    42438    42439    42438    42438    42438    42437    42437 
   42439    42441    42438    42438    42438    42437    42437    42437 
   42437    42437    42438    42437    42437    42438    42438    42438 
   42437    42437    42437    42437    42437    42437    42435    42437 
   42439    42439    42438    42438    42438    42439    42442    42441 
   42437    42437    42439    42441    42438    42438    42439    42437 
   42435    42435    42437    42438    42441    42441    42439    42437 
   42437    42438    42438    42438    42439    42439    42438    42438 
   42438    42437    42437    42439    42439    42438    42437    42437 
   42437    42437    42438    42438    42438    42438    42438    42439 
   42438    42438    42441    42437    42434    42437    42438    42435 
   42435    42438    42438    42435    42437    42439    42438    42437 
   42437    42437    42435    42437    42437    42435    42435    42438 
   42438    42439    42438    42437    42439    42442    42439    42435 
   42438    42438    42434    42435    42439    42437    42434    42438 
   42439    42438    42439    42437    42435    42437    42438    42439 
   42437    42435    42439    42439    42437    42437    42438    42438 
   42438    42438    42437    42438    42438    42438    42439    42438 
   42437    42435    42435    42437    42437    42437    42438    42437 
   42437    42437    42437    42438    42437    42435    42438    42438 
   42437    42437    42438    42437    42437    42437    42437    42439 
   42441    42439    42437    42437    42438    42438    42435    42435 
   42435    42434    42434    42435    42437    42437    42437    42437 
   42439    42439    42435    42435    42438    42435    42435    42438 
   42435    42435    42438    42434    42434    42439    42438    42435 
   42437    42437    42438    42438    42437    42438    42438    42438 
   42438    42437    42438    42439    42437    42435    42438    42438 
   42438    42439    42439    42438    42438    42438    42438    42438 
   42438    42435    42437    42438    42437    42435    42435    42438 
   42438    42438    42438    42437    42435    42435    42435    42438 
   42438    42439    42441    42438    42438    42439    42439    42438 
   42437    42438    42439    42438    42437    42437    42439    42439 
   42437    42437    42438    42438    42437    42437    42437    42438 
   42438    42434    42433    42435    42439    42439    42437    42435 
   42438    42438    42435    42438    42438    42435    42438    42439 
   42437    42438    42438    42437    42437    42438    42438    42438 
   42437    42437    42438    42437    42434    42437    42439    42439 
   42438    42438    42437    42435    42435    42438    42439    42437 
   42437    42438    42438    42437    42438    42439    42438    42437 
   42439    42438    42437    42437    42438    42439    42438    42437 
   42437    42439    42441    42439    42438    42435    42435    42438 
   42437    42437    42438    42438    42438    42438    42438    42437 
   42437    42441    42439    42435    42437    42438    42435    42435 
   42438    42437    42437    42438    42439    42438    42438    42439 
   42438    42434    42437    42442    42439    42438    42441    42438 
   42437    42439    42437    42437    42439    42438    42438    42439 
   42439    42437    42437    42437    42437    42437    42438    42438 
   42439    42438    42437    42439    42439    42437    42439    42438 
   42435    42437    42438    42437    42437    42439    42438    42435 
   42437    42438    42437    42438    42438    42435    42437    42439 
   42438    42437    42437    42434    42434    42437    42437    42437 
   42438    42438    42438    42438    42438    42438    42437    42438 
   42437    42437    42438    42439    42438    42437    42435    42437 
   42437    42435    42438    42439    42439    42438    42437    42435 
   42435    42437    42437    42435    42437    42438    42437    42435 
   42437    42437    42437    42438    42437    42434    42435    42438 
   42437    42438    42441    42438    42435    42437    42441    42439 
   42435    42435    42438    42439    42438    42435    42437    42439 
   42437    42435    42439    42438    42437    42438    42439    42438 
   42437    42439    42439    42437    42437    42437    42438    42438 
   42438    42438    42439    42438    42439    42441    42438    42437 
   42438    42438    42439    42439    42438    42437    42438    42437 
   42435    42437    42438    42438    42438    42438    42437    42437 
   42437    42438    42438    42439    42438    42437    42439    42441 
   42438    42438    42439    42438    42441    42441    42438    42437 
   42438    42439    42438    42438    42439    42438    42435    42437 
   42437    42437    42437    42437    42437    42438    42439    42439 
   42437    42435    42437    42437    42438    42438    42438    42441 
   42439    42435    42437    42437    42435    42438    42438    42435 
   42438    42441    42438    42438    42437    42438    42441    42437 
   42435    42439    42437    42433    42438    42439    42438    42439 
   42438    42435    42434    42434    42435    42437    42438    42438 
   42437    42437    42435    42434    42438    42439    42438    42437 
   42434    42433    42434    42435    42435    42435    42439    42439 
   42435    42437    42438    42435    42435    42438    42438    42438 
   42438    42437    42435    42437    42439    42437    42434    42435 
   42435    42437    42438    42438    42437    42438    42438    42435 
   42437    42441    42439    42434    42434    42437    42438    42439 
   42439    42438    42438    42435    42434    42435    42439    42439 
   42438    42438    42439    42437    42433    42434    42438    42441 
   42439    42437    42434    42434    42438    42439    42437    42437 
   42435    42435    42435    42437    42437    42438    42437    42433 
   42434    42441    42439    42437    42437    42435    42433    42435 
   42438    42437    42435    42435    42437    42434    42435    42438 
   42438    42438    42438    42437    42437    42437    42435    42435 
   42439    42441    42438    42435    42437    42438    42441    42439 
   42437    42435    42438    42437    42435    42438    42441    42437 
   42435    42438    42439    42438    42439    42439    42437    42434 
   42435    42435    42435    42438    42438    42437    42437    42438 
   42438    42438    42438    42438    42437    42435    42437    42437 
   42438    42442    42437    42434    42438    42437    42434    42441 
   42442    42437    42437    42435    42435    42438    42438    42437 
   42438    42438    42437    42437    42441    42439    42438    42441 
   42441    42437    42435    42437    42438    42438    42437    42435 
   42437    42438    42439    42437    42437    42438    42437    42434 
   42434    42439    42438    42435    42437    42437    42435    42438 
   42439    42437    42437    42438    42439    42438    42435    42438 
   42442    42438    42435    42438    42438    42435    42435    42438 
   42438    42438    42439    42438    42437    42438    42437    42435 
   42438    42437    42435    42438    42439    42438    42435    42435 
   42438    42438    42438    42441    42441    42437    42437    42439 
   42439    42438    42438    42437    42435    42437    42438    42438 
   42439    42439    42437    42435    42435    42435    42438    42441 
   42439    42437    42435    42437    42439    42441    42439    42437 
   42437    42437    42435    42435    42438    42441    42439    42438 
   42435    42435    42435    42437    42439    42438    42434    42435 
   42437    42435    42437    42441    42441    42438    42435    42437 
   42439    42441    42439    42438    42438    42437    42435    42438 
   42439    42435    42437    42439    42438    42435    42435    42437 
   42438    42439    42441    42442    42445    42453    42456    42457 
   42441    42387    42326    42329    42433    42549    42554    42477 
   42419    42392    42398    42472    42550    42502    42317    42164 
   42294    42661    42784    42479    42248    42300    42338    42423 
   42589    42472    42273    42481    42697    42444    42246    42458 
   42574    42441    42388    42385    42309    42394    42572    42421 
   42307    42606    42650    42299    42230    42399    42487    42611 
   42638    42342    42101    42329    42616    42572    42530    42506 
   42310    42221    42354    42461    42500    42642    42634    42333 
   42203    42357    42495    42546    42526    42408    42330    42435 
   42499    42383    42368    42529    42588    42412    42210    42249 
   42511    42718    42651    42400    42233    42275    42442    42552 
   42512    42449    42426    42380    42360    42419    42469    42481 
   42492    42430    42364    42457    42543    42411    42288    42417 
   42568    42547    42427    42306    42333    42502    42565    42450 
   42368    42400    42415    42402    42450    42533    42538    42444 
   42321    42307    42437    42549    42547    42466    42354    42314 
   42390    42500    42537    42473    42415    42415    42399    42412 
   42454    42457    42469    42433    42348    42415    42547    42499 
   42417    42415    42385    42388    42465    42488    42438    42425 
   42422    42384    42404    42488    42525    42512    42484    42375 
   42263    42340    42543    42619    42476    42325    42322    42369 
   42480    42616    42525    42329    42334    42399    42390    42531 
   42708    42537    42211    42147    42329    42570    42692    42562 
   42346    42310    42358    42349    42433    42612    42658    42508 
   42279    42161    42302    42568    42662    42520    42381    42408 
   42410    42344    42437    42516    42385    42356    42504    42480 
   42356    42449    42599    42576    42421    42250    42259    42437 
   42503    42448    42526    42631    42457    42210    42264    42460 
   42511    42477    42476    42529    42574    42433    42169    42168 
   42514    42781    42615    42268    42206    42423    42593    42504 
   42292    42333    42581    42620    42444    42280    42210    42354 
   42696    42758    42380    42195    42375    42456    42441    42477 
   42403    42376    42614    42593    42194    42205    42596    42678 
   42512    42384    42237    42226    42519    42705    42511    42345 
   42404    42394    42344    42418    42473    42511    42566    42452 
   42302    42394    42498    42354    42300    42527    42666    42606 
   42448    42188    42099    42380    42730    42774    42512    42250 
   42196    42273    42400    42618    42762    42579    42241    42080 
   42215    42624    42917    42677    42211    42055    42236    42457 
   42600    42695    42579    42263    42167    42441    42727    42684 
   42348    42075    42202    42572    42697    42502    42392    42457 
   42381    42237    42377    42643    42601    42336    42282    42485 
   42595    42508    42372    42277    42385    42596    42534    42264 
   42214    42492    42716    42608    42361    42219    42241    42434 
   42606    42547    42538    42619    42376    42093    42228    42526 
   42707    42658    42342    42147    42338    42543    42475    42423 
   42546    42538    42361    42294    42399    42549    42588    42479 
   42326    42265    42361    42483    42546    42570    42508    42399 
   42302    42261    42364    42561    42677    42573    42350    42217 
   42263    42518    42697    42507    42284    42372    42500    42407 
   42319    42435    42562    42562    42457    42277    42271    42516 
   42651    42512    42331    42298    42379    42499    42543    42464 
   42392    42358    42353    42457    42562    42512    42437    42444 
   42407    42294    42299    42485    42658    42635    42377    42145 
   42261    42556    42709    42573    42249    42229    42558    42628 
   42352    42225    42381    42568    42647    42552    42326    42255 
   42375    42456    42461    42518    42619    42530    42187    42029 
   42338    42747    42820    42565    42257    42133    42282    42516 
   42583    42546    42533    42479    42364    42299    42412    42518 
   42408    42326    42422    42546    42545    42361    42265    42458 
   42685    42634    42334    42183    42383    42618    42587    42372 
   42277    42341    42357    42388    42348    41899    41485    41935 
   43160    44238    44263    43042    41497    41004    41874    42944 
   43062    42271    41354    41172    42129    43837    45447    45423 
   42298    37531    35576    39160    45805    50164    48824    42890 
   36992    35614    39676    45391    47777    46052    42569    39258 
   38109    40398    44269    46237    44775    41372    39137    40081 
   42954    44813    44397    42678    41284    41046    41538    42244 
   43159    43821    43613    42608    41426    40902    41364    42398 
   43545    44194    43683    42326    41143    40690    41210    42882 
   44491    44030    41982    40757    41177    42369    43403    43664 
   43025    42072    41613    41831    42372    42888    42963    42412 
   41964    42341    42920    42839    42402    42213    42439    42707 
   42327    41644    41715    42468    43032    43092    42859    42461 
   41986    41696    41813    42469    43453    43826    42842    41330 
   40913    41875    43038    43402    42915    42130    41742    42014 
   42520    42784    42835    42784    42535    42175    42066    42392 
   42793    42800    42368    41967    42192    42705    42708    42350 
   42142    42282    42569    42465    42221    42545    42904    42607 
   42255    42287    42360    42475    42595    42330    42001    42244 
   42754    42874    42585    42302    42213    42164    42306    42732 
   42917    42547    42022    41937    42400    42892    42907    42442 
   41921    41909    42507    43101    43011    42260    41742    42034 
   42565    42801    42857    42647    42133    41925    42234    42564 
   42776    42819    42434    41980    42083    42519    42736    42641 
   42338    42179    42421    42653    42561    42439    42469    42516 
   42495    42284    42028    42210    42718    43021    42870    42248 
   41740    41990    42542    42728    42695    42596    42331    42138 
   42171    42367    42732    42885    42585    42284    42196    42229 
   42388    42614    42749    42661    42410    42175    42043    42151 
   42533    42858    42862    42549    42056    41855    42207    42672 
   42932    42916    42468    41947    41894    42240    42751    43081 
   42741    42049    41874    42314    42681    42693    42720    42682 
   42199    41806    42188    42849    42974    42584    42187    42053 
   42157    42438    42696    42747    42579    42238    42101    42403 
   42684    42653    42502    42333    42269    42444    42589    42414 
   42237    42387    42561    42539    42376    42215    42353    42641 
   42653    42483    42361    42263    42221    42365    42651    42766 
   42554    42238    42084    42242    42623    42884    42763    42345 
   41995    42021    42398    42797    42923    42662    42114    41786 
   42080    42705    43097    42889    42257    41848    42020    42491 
   42823    42816    42479    42126    42148    42461    42699    42670 
   42396    42141    42273    42633    42657    42426    42344    42291 
   42213    42433    42822    42774    42275    41959    42134    42576 
   42917    42865    42419    42026    42045    42338    42685    42869 
   42635    42232    42179    42352    42371    42364    42506    42658 
   42655    42460    42234    42198    42354    42537    42615    42539 
   42404    42363    42377    42418    42477    42425    42399    42515 
   42498    42372    42387    42431    42410    42453    42525    42520 
   42465    42348    42218    42263    42542    42822    42705    42245 
   42052    42350    42634    42579    42417    42379    42431    42452 
   42437    42456    42437    42387    42421    42460    42450    42496 
   42503    42350    42236    42350    42628    42758    42469    42117 
   42245    42626    42677    42433    42256    42246    42390    42600 
   42688    42574    42377    42236    42178    42284    42592    42790 
   42618    42279    42125    42299    42607    42647    42419    42357 
   42526    42564    42354    42176    42245    42449    42649    42751 
   42585    42268    42140    42238    42468    42755    42800    42438 
   42090    42129    42387    42622    42741    42604    42275    42129 
   42298    42579    42720    42558    42319    42248    42269    42411 
   42595    42597    42518    42458    42334    42245    42306    42441 
   42604    42680    42500    42265    42283    42450    42564    42546 
   42372    42245    42337    42485    42581    42638    42565    42406 
   42271    42164    42265    42585    42718    42570    42392    42298 
   42313    42398    42452    42488    42572    42610    42480    42257 
   42155    42279    42531    42728    42742    42546    42229    42036 
   42186    42527    42759    42739    42492    42209    42059    42179 
   42627    42966    42736    42238    42013    42149    42466    42755 
   42788    42546    42232    42063    42238    42637    42765    42543 
   42368    42344    42344    42365    42406    42462    42498    42460 
   42487    42566    42460    42256    42250    42415    42583    42633 
   42481    42286    42275    42388    42492    42584    42627    42542 
   42300    42068    42169    42573    42896    42862    42421    41922 
   41960    42465    42738    42658    42604    42500    42183    42039 
   42354    42768    42811    42468    42114    42145    42462    42642 
   42637    42584    42446    42291    42240    42252    42426    42712 
   42665    42377    42325    42387    42346    42352    42484    42593 
   42570    42488    42350    42160    42207    42576    42812    42642 
   42304    42138    42282    42562    42696    42588    42346    42164 
   42237    42499    42620    42589    42596    42480    42156    42049 
   42407    42782    42747    42485    42265    42191    42317    42473 
   42554    42634    42572    42315    42195    42354    42558    42634 
   42537    42340    42275    42350    42402    42500    42616    42546 
   42375    42267    42271    42444    42682    42726    42472    42107 
   42003    42300    42705    42934    42822    42360    41978    42055 
