Origin Time       2025/03/28 11:34:00
Lat.              32.978
Long.             131.158
Depth. (km)       12
Mag.              2.7
Station Code      OITH08
Station Lat.      32.8392
Station Long.     131.5357
Station Height(m) 159
Record Time       2025/03/28 11:35:10
Sampling Freq(Hz) 100Hz
Duration Time(s)  120
Dir.              2
Scale Factor      2942(gal)/8224139
Max. Acc. (gal)   0.468
Last Correction   2025/03/28 11:35:10
Memo.             
[...]
 -208572  -208575  -208575  -208573  -208575  -208575  -208572  -208573 
 -208577  -208573  -208572  -208573  -208572  -208573  -208573  -208570 
 -208573  -208576  -208575  -208573  -208573  -208573  -208573  -208575 
 -208575  -208573  -208575  -208573  -208572  -208575  -208575  -208572 
 -208575  -208576  -208573  -208573  -208573  -208572  -208572  -208572 
 -208572  -208572  -208572  -208573  -208575  -208573  -208575  -208575 
 -208572  -208572  -208576  -208575  -208573  -208575  -208573  -208573 
 -208576  -208575  -208575  -208576  -208573  -208572  -208575  -208575 
 -208573  -208573  -208572  -208572  -208573  -208573  -208573  -208572 
 -208570  -208572  -208573  -208573  -208573  -208575  -208573  -208575 
 -208575  -208573  -208572  -208570  -208572  -208572  -208570  -208570 
 -208575  -208573  -208572  -208575  -208575  -208573  -208575  -208573 
 -208568  -208570  -208573  -208572  -208573  -208575  -208576  -208575 
 -208572  -208572  -208573  -208570  -208569  -208572  -208573  -208572 
 -208572  -208572  -208572  -208573  -208573  -208572  -208572  -208573 
 -208572  -208572  -208573  -208575  -208576  -208573  -208573  -208575 
 -208575  -208572  -208572  -208573  -208575  -208573  -208572  -208569 
 -208572  -208573  -208572  -208575  -208576  -208572  -208572  -208575 
 -208572  -208569  -208572  -208575  -208572  -208573  -208573  -208572 
 -208575  -208575  -208572  -208573  -208573  -208575  -208577  -208573 
 -208570  -208572  -208573  -208575  -208573  -208575  -208575  -208572 
 -208573  -208573  -208573  -208575  -208573  -208573  -208575  -208572 
 -208570  -208575  -208576  -208572  -208570  -208573  -208575  -208573 
 -208572  -208572  -208570  -208570  -208572  -208573  -208572  -208570 
 -208572  -208573  -208573  -208573  -208573  -208573  -208573  -208575 
 -208575  -208572  -208572  -208576  -208576  -208575  -208572  -208570 
 -208570  -208575  -208573  -208572  -208575  -208576  -208573  -208575 
 -208572  -208569  -208575  -208576  -208572  -208572  -208575  -208572 
 -208572  -208575  -208575  -208573  -208573  -208572  -208570  -208572 
 -208575  -208579  -208577  -208575  -208573  -208572  -208572  -208573 
 -208575  -208575  -208575  -208576  -208573  -208572  -208575  -208573 
 -208573  -208573  -208570  -208570  -208573  -208575  -208573  -208573 
 -208573  -208575  -208573  -208573  -208575  -208575  -208575  -208573 
 -208572  -208573  -208572  -208572  -208575  -208576  -208576  -208573 
 -208573  -208575  -208575  -208575  -208575  -208576  -208575  -208573 
 -208576  -208577  -208575  -208575  -208575  -208575  -208576  -208573 
 -208570  -208576  -208577  -208575  -208575  -208575  -208573  -208575 
 -208576  -208577  -208577  -208577  -208576  -208575  -208575  -208575 
 -208573  -208572  -208576  -208575  -208570  -208573  -208576  -208572 
 -208570  -208575  -208576  -208573  -208572  -208573  -208573  -208572 
 -208572  -208575  -208576  -208577  -208576  -208573  -208573  -208573 
 -208573  -208572  -208573  -208576  -208576  -208575  -208573  -208575 
 -208575  -208573  -208572  -208573  -208572  -208573  -208576  -208577 
 -208576  -208573  -208575  -208575  -208575  -208575  -208572  -208570 
 -208572  -208572  -208570  -208573  -208576  -208576  -208575  -208570 
 -208573  -208576  -208572  -208570  -208573  -208575  -208575  -208573 
 -208575  -208575  -208572  -208573  -208573  -208573  -208575  -208573 
 -208572  -208573  -208576  -208576  -208573  -208573  -208575  -208576 
 -208576  -208573  -208573  -208575  -208576  -208573  -208572  -208573 
 -208573  -208573  -208575  -208572  -208569  -208572  -208575  -208573 
 -208575  -208577  -208575  -208573  -208576  -208576  -208575  -208576 
 -208572  -208569  -208575  -208575  -208570  -208575  -208577  -208573 
 -208572  -208573  -208573  -208573  -208575  -208572  -208572  -208576 
 -208576  -208573  -208575  -208575  -208573  -208573  -208575  -208573 
 -208575  -208575  -208576  -208575  -208573  -208575  -208575  -208575 
 -208575  -208576  -208573  -208570  -208573  -208575  -208573  -208572 
 -208572  -208573  -208573  -208572  -208572  -208576  -208576  -208573 
 -208573  -208572  -208573  -208575  -208575  -208573  -208575  -208573 
 -208570  -208572  -208575  -208573  -208572  -208575  -208573  -208572 
 -208573  -208575  -208575  -208573  -208575  -208575  -208572  -208572 
 -208575  -208575  -208576  -208575  -208576  -208575  -208570  -208570 
 -208572  -208572  -208573  -208573  -208575  -208575  -208572  -208570 
 -208570  -208572  -208573  -208575  -208572  -208572  -208573  -208570 
 -208570  -208570  -208570  -208573  -208575  -208572  -208572  -208575 
 -208573  -208573  -208577  -208575  -208573  -208577  -208576  -208572 
 -208573  -208575  -208572  -208572  -208575  -208573  -208573  -208576 
 -208575  -208572  -208572  -208575  -208576  -208573  -208572  -208573 
 -208572  -208570  -208573  -208573  -208570  -208572  -208576  -208573 
 -208572  -208575  -208573  -208572  -208573  -208575  -208575  -208573 
 -208572  -208576  -208577  -208573  -208572  -208572  -208572  -208573 
 -208575  -208573  -208573  -208576  -208573  -208570  -208573  -208575 
 -208573  -208573  -208575  -208573  -208575  -208576  -208573  -208572 
 -208570  -208573  -208575  -208573  -208573  -208575  -208573  -208573 
 -208576  -208575  -208572  -208575  -208576  -208575  -208572  -208573 
 -208576  -208573  -208569  -208572  -208575  -208573  -208573  -208572 
 -208572  -208573  -208572  -208572  -208576  -208575  -208573  -208575 
 -208573  -208570  -208572  -208575  -208573  -208572  -208575  -208576 
 -208575  -208577  -208575  -208570  -208572  -208575  -208573  -208572 
 -208575  -208575  -208570  -208572  -208575  -208575  -208572  -208570 
 -208572  -208570  -208572  -208573  -208570  -208573  -208577  -208573 
 -208568  -208572  -208573  -208570  -208572  -208573  -208573  -208573 
 -208575  -208573  -208573  -208572  -208573  -208576  -208573  -208572 
 -208576  -208575  -208570  -208572  -208575  -208570  -208569  -208572 
 -208573  -208572  -208572  -208573  -208575  -208573  -208572  -208570 
 -208573  -208573  -208573  -208576  -208575  -208570  -208575  -208576 
 -208572  -208573  -208575  -208573  -208573  -208573  -208572  -208572 
 -208573  -208573  -208573  -208575  -208575  -208573  -208573  -208573 
 -208575  -208575  -208572  -208575  -208575  -208573  -208570  -208570 
 -208573  -208573  -208575  -208576  -208572  -208569  -208572  -208573 
 -208570  -208572  -208577  -208577  -208572  -208572  -208576  -208576 
 -208575  -208575  -208573  -208573  -208573  -208570  -208572  -208575 
 -208575  -208576  -208576  -208573  -208572  -208572  -208572  -208572 
 -208573  -208573  -208572  -208572  -208575  -208576  -208573  -208575 
 -208576  -208575  -208575  -208573  -208573  -208575  -208573  -208570 
 -208573  -208573  -208572  -208573  -208573  -208572  -208573  -208575 
 -208575  -208575  -208575  -208570  -208572  -208575  -208573  -208572 
 -208573  -208576  -208576  -208575  -208573  -208575  -208573  -208572 
 -208573  -208576  -208576  -208575  -208575  -208575  -208573  -208575 
 -208573  -208572  -208572  -208570  -208572  -208576  -208575  -208572 
 -208575  -208575  -208573  -208575  -208575  -208575  -208573  -208573 
 -208576  -208573  -208570  -208573  -208573  -208573  -208575  -208572 
 -208572  -208573  -208576  -208576  -208572  -208572  -208575  -208573 
 -208572  -208572  -208570  -208572  -208573  -208573  -208572  -208572 
 -208575  -208573  -208570  -208575  -208575  -208572  -208575  -208576 
 -208573  -208572  -208570  -208573  -208575  -208572  -208573  -208577 
 -208575  -208572  -208573  -208572  -208575  -208576  -208573  -208572 
 -208573  -208573  -208575  -208575  -208575  -208575  -208575  -208573 
 -208573  -208573  -208573  -208575  -208575  -208572  -208573  -208575 
 -208573  -208576  -208577  -208575  -208575  -208576  -208573  -208572 
 -208573  -208575  -208572  -208573  -208575  -208573  -208573  -208575 
 -208575  -208575  -208572  -208569  -208570  -208572  -208573  -208573 
 -208573  -208573  -208572  -208570  -208572  -208575  -208572  -208570 
 -208573  -208575  -208573  -208572  -208573  -208573  -208572  -208572 
 -208573  -208575  -208575  -208573  -208570  -208572  -208575  -208575 
 -208575  -208575  -208576  -208576  -208572  -208570  -208573  -208573 
 -208572  -208575  -208576  -208575  -208573  -208575  -208575  -208576 
 -208575  -208575  -208575  -208576  -208576  -208573  -208572  -208575 
 -208575  -208575  -208575  -208575  -208576  -208576  -208575  -208572 
 -208573  -208575  -208575  -208573  -208573  -208576  -208575  -208573 
 -208573  -208573  -208576  -208576  -208575  -208572  -208572  -208575 
 -208576  -208573  -208570  -208570  -208572  -208576  -208575  -208572 
 -208572  -208575  -208577  -208575  -208570  -208572  -208572  -208572 
 -208572  -208568  -208561  -208558  -208560  -208577  -208603  -208602 
 -208576  -208587  -208616  -208585  -208537  -208575  -208612  -208541 
 -208485  -208560  -208637  -208599  -208529  -208510  -208533  -208589 
 -208612  -208600  -208627  -208633  -208602  -208591  -208575  -208569 
 -208546  -208507  -208539  -208565  -208549  -208562  -208565  -208560 
 -208588  -208611  -208583  -208542  -208543  -208599  -208653  -208602 
 -208539  -208579  -208600  -208570  -208558  -208558  -208577  -208569 
 -208533  -208562  -208596  -208570  -208566  -208604  -208627  -208588 
 -208533  -208550  -208607  -208592  -208538  -208565  -208597  -208565 
 -208558  -208575  -208564  -208537  -208550  -208614  -208607  -208556 
 -208565  -208585  -208597  -208588  -208526  -208531  -208610  -208610 
 -208575  -208592  -208588  -208548  -208546  -208558  -208546  -208564 
 -208596  -208592  -208573  -208575  -208591  -208581  -208554  -208565 
 -208581  -208568  -208577  -208595  -208570  -208548  -208568  -208595 
 -208581  -208549  -208546  -208575  -208597  -208584  -208579  -208583 
 -208550  -208549  -208585  -208589  -208573  -208568  -208570  -208576 
 -208572  -208565  -208562  -208577  -208602  -208584  -208542  -208560 
 -208581  -208553  -208573  -208608  -208575  -208556  -208576  -208588 
 -208585  -208566  -208561  -208577  -208569  -208556  -208580  -208589 
 -208562  -208560  -208579  -208589  -208595  -208565  -208543  -208583 
 -208603  -208573  -208557  -208558  -208558  -208579  -208602  -208581 
 -208561  -208564  -208549  -208548  -208583  -208600  -208587  -208591 
 -208597  -208566  -208556  -208572  -208564  -208570  -208575  -208561 
 -208576  -208579  -208562  -208573  -208588  -208610  -208614  -208557 
 -208541  -208588  -208565  -208534  -208580  -208593  -208573  -208579 
 -208565  -208556  -208575  -208573  -208568  -208599  -208616  -208588 
 -208566  -208570  -208572  -208564  -208546  -208564  -208606  -208596 
 -208560  -208549  -208568  -208596  -208573  -208531  -208543  -208575 
 -208592  -208584  -208575  -208618  -208639  -208564  -208507  -208558 
 -208610  -208592  -208564  -208564  -208548  -208533  -208557  -208566 
 -208560  -208600  -208646  -208619  -208570  -208548  -208533  -208564 
 -208608  -208584  -208554  -208584  -208604  -208558  -208537  -208583 
 -208585  -208562  -208618  -208635  -208535  -208510  -208584  -208593 
 -208564  -208566  -208565  -208570  -208599  -208612  -208592  -208552 
 -208534  -208568  -208579  -208549  -208561  -208602  -208611  -208573 
 -208543  -208585  -208616  -208568  -208541  -208576  -208592  -208580 
 -208579  -208593  -208581  -208522  -208521  -208606  -208623  -208562 
 -208548  -208562  -208557  -208576  -208606  -208591  -208545  -208543 
 -208614  -208615  -208556  -208573  -208588  -208553  -208556  -208580 
 -208581  -208597  -208629  -208581  -208508  -208534  -208580  -208569 
 -208558  -208565  -208595  -208626  -208615  -208581  -208549  -208530 
 -208533  -208546  -208564  -208584  -208602  -208604  -208616  -208622 
 -208566  -208535  -208579  -208592  -208565  -208558  -208566  -208553 
 -208539  -208545  -208549  -208592  -208638  -208565  -208508  -208612 
 -208680  -208606  -208548  -208549  -208545  -208541  -208553  -208561 
 -208565  -208591  -208606  -208573  -208552  -208568  -208576  -208569 
 -208591  -208610  -208572  -208554  -208585  -208588  -208565  -208561 
 -208569  -208583  -208592  -208575  -208542  -208556  -208596  -208575 
 -208542  -208546  -208565  -208596  -208603  -208583  -208565  -208564 
 -208592  -208595  -208554  -208562  -208599  -208573  -208537  -208561 
 -208589  -208576  -208570  -208576  -208564  -208573  -208595  -208597 
 -208583  -208543  -208542  -208588  -208593  -208579  -208565  -208545 
 -208561  -208580  -208568  -208585  -208612  -208579  -208538  -208572 
 -208604  -208577  -208550  -208566  -208604  -208607  -208546  -208508 
 -208581  -208649  -208588  -208535  -208570  -208566  -208557  -208593 
 -208580  -208546  -208570  -208602  -208592  -208550  -208530  -208570 
 -208600  -208581  -208557  -208554  -208580  -208588  -208539  -208515 
 -208562  -208612  -208635  -208633  -208583  -208538  -208558  -208602 
 -208595  -208549  -208557  -208596  -208584  -208558  -208554  -208564 
 -208565  -208545  -208558  -208591  -208580  -208550  -208541  -208583 
 -208633  -208611  -208585  -208573  -208512  -208494  -208545  -208570 
 -208592  -208641  -208673  -208664  -208630  -208661  -208777  -208892 
 -208988  -208930  -208526  -208013  -207843  -208084  -208309  -208263 
 -208342  -208764  -209071  -208984  -208797  -208697  -208313  -207527 
 -207264  -208222  -209476  -209871  -209606  -209240  -208807  -208323 
 -208062  -208180  -208292  -208170  -208327  -208780  -208832  -208562 
 -208543  -208599  -208375  -208178  -208340  -208700  -208885  -208753 
 -208618  -208720  -208788  -208688  -208646  -208602  -208480  -208534 
 -208658  -208537  -208357  -208403  -208633  -208805  -208711  -208537 
 -208515  -208619  -208728  -208620  -208442  -208484  -208464  -208395 
 -208611  -208759  -208619  -208546  -208553  -208467  -208398  -208448 
 -208564  -208662  -208708  -208707  -208633  -208533  -208496  -208534 
 -208622  -208649  -208554  -208526  -208589  -208521  -208372  -208311 
 -208357  -208496  -208615  -208629  -208614  -208602  -208610  -208674 
 -208735  -208715  -208696  -208753  -208755  -208645  -208530  -208411 
 -208359  -208471  -208543  -208487  -208499  -208624  -208712  -208722 
 -208708  -208665  -208635  -208704  -208677  -208488  -208468  -208610 
 -208615  -208496  -208407  -208417  -208492  -208500  -208475  -208570 
 -208607  -208500  -208560  -208704  -208681  -208627  -208600  -208543 
 -208519  -208552  -208573  -208477  -208417  -208572  -208670  -208606 
 -208635  -208687  -208604  -208568  -208633  -208607  -208539  -208595 
 -208668  -208588  -208514  -208585  -208577  -208475  -208498  -208492 
 -208434  -208581  -208701  -208568  -208494  -208579  -208656  -208703 
 -208646  -208530  -208523  -208545  -208508  -208523  -208618  -208651 
 -208622  -208622  -208572  -208527  -208597  -208608  -208530  -208554 
 -208664  -208649  -208534  -208542  -208602  -208561  -208533  -208527 
 -208491  -208529  -208629  -208641  -208556  -208480  -208444  -208479 
 -208615  -208618  -208476  -208523  -208654  -208633  -208620  -208660 
 -208647  -208614  -208612  -208633  -208604  -208542  -208549  -208583 
 -208568  -208546  -208552  -208564  -208534  -208461  -208487  -208633 
 -208665  -208531  -208510  -208635  -208677  -208611  -208545  -208526 
 -208589  -208633  -208565  -208515  -208566  -208610  -208550  -208485 
 -208565  -208624  -208562  -208591  -208642  -208579  -208530  -208537 
 -208604  -208676  -208607  -208518  -208531  -208558  -208569  -208570 
 -208556  -208562  -208576  -208560  -208525  -208529  -208588  -208622 
 -208608  -208570  -208537  -208557  -208597  -208584  -208506  -208484 
 -208583  -208619  -208516  -208480  -208597  -208677  -208602  -208516 
 -208565  -208631  -208602  -208584  -208616  -208606  -208579  -208583 
 -208573  -208545  -208561  -208624  -208622  -208548  -208541  -208561 
 -208543  -208564  -208589  -208554  -208534  -208545  -208542  -208561 
 -208620  -208651  -208591  -208539  -208584  -208606  -208579  -208564 
 -208569  -208589  -208554  -208534  -208616  -208615  -208496  -208479 
 -208585  -208646  -208602  -208541  -208579  -208672  -208608  -208461 
 -208530  -208672  -208615  -208511  -208562  -208638  -208591  -208526 
 -208538  -208592  -208608  -208557  -208548  -208593  -208588  -208553 
 -208558  -208568  -208522  -208488  -208562  -208656  -208634  -208543 
 -208522  -208588  -208600  -208508  -208515  -208622  -208612  -208566 
 -208604  -208618  -208579  -208570  -208591  -208579  -208550  -208554 
 -208579  -208584  -208552  -208550  -208584  -208576  -208592  -208624 
 -208568  -208504  -208561  -208637  -208604  -208558  -208545  -208531 
 -208595  -208639  -208565  -208546  -208588  -208589  -208588  -208552 
 -208504  -208545  -208597  -208602  -208589  -208561  -208545  -208560 
 -208562  -208557  -208596  -208639  -208608  -208549  -208523  -208558 
 -208624  -208600  -208506  -208514  -208604  -208635  -208618  -208595 
 -208562  -208534  -208533  -208562  -208576  -208572  -208584  -208588 
 -208583  -208580  -208581  -208583  -208564  -208570  -208595  -208576 
 -208543  -208529  -208542  -208614  -208650  -208579  -208537  -208579 
 -208596  -208588  -208603  -208572  -208488  -208495  -208587  -208614 
 -208583  -208560  -208542  -208562  -208614  -208614  -208557  -208541 
 -208572  -208584  -208581  -208569  -208553  -208564  -208592  -208619 
 -208593  -208545  -208548  -208556  -208552  -208565  -208588  -208591 
 -208595  -208620  -208599  -208569  -208585  -208560  -208558  -208599 
 -208554  -208541  -208610  -208589  -208552  -208588  -208566  -208521 
 -208542  -208557  -208569  -208603  -208622  -208616  -208588  -208583 
 -208587  -208542  -208531  -208568  -208564  -208553  -208566  -208554 
 -208556  -208602  -208615  -208589  -208550  -208518  -208550  -208592 
 -208573  -208562  -208587  -208596  -208572  -208552  -208577  -208618 
 -208611  -208569  -208557  -208581  -208592  -208593  -208589  -208568 
 -208568  -208580  -208575  -208564  -208573  -208595  -208596  -208583 
 -208557  -208521  -208525  -208565  -208591  -208589  -208587  -208600 
 -208592  -208537  -208534  -208612  -208614  -208518  -208519  -208607 
 -208618  -208583  -208576  -208576  -208573  -208562  -208553  -208564 
 -208573  -208576  -208584  -208607  -208626  -208570  -208496  -208538 
 -208610  -208589  -208548  -208554  -208579  -208570  -208568  -208611 
 -208611  -208553  -208560  -208600  -208568  -208550  -208602  -208612 
 -208562  -208506  -208523  -208620  -208603  -208519  -208561  -208607 
 -208579  -208565  -208570  -208575  -208575  -208575  -208583  -208583 
 -208553  -208541  -208583  -208634  -208646  -208575  -208479  -208510 
 -208612  -208668  -208643  -208522  -208421  -208489  -208649  -208695 
 -208588  -208508  -208552  -208614  -208608  -208552  -208522  -208566 
 -208622  -208611  -208550  -208531  -208565  -208599  -208592  -208539 
 -208560  -208627  -208579  -208546  -208612  -208604  -208542  -208522 
 -208543  -208599  -208600  -208556  -208585  -208620  -208557  -208534 
 -208600  -208599  -208553  -208566  -208583  -208566  -208541  -208530 
 -208577  -208649  -208651  -208584  -208521  -208496  -208530  -208599 
