Origin Time       2025/03/30 10:46:00
Lat.              32.923
Long.             130.372
Depth. (km)       11
Mag.              3.4
Station Code      FKOH10
Station Lat.      33.2891
Station Long.     130.8170
Station Height(m) 190
Record Time       2025/03/30 10:46:37
Sampling Freq(Hz) 100Hz
Duration Time(s)  120
Dir.              6
Scale Factor      7845(gal)/8223790
Max. Acc. (gal)   0.260
Last Correction   2025/03/30 10:46:38
Memo.             
  -12286   -12294   -12297   -12287   -12294   -12295   -12289   -12295 
  -12295   -12293   -12301   -12295   -12295   -12305   -12297   -12290 
  -12293   -12291   -12289   -12282   -12287   -12291   -12276   -12276 
  -12291   -12285   -12286   -12293   -12283   -12289   -12293   -12287 
  -12294   -12294   -12287   -12294   -12297   -12289   -12290   -12297 
  -12297   -12293   -12294   -12298   -12297   -12295   -12298   -12299 
  -12295   -12293   -12293   -12290   -12286   -12289   -12289   -12285 
  -12285   -12287   -12287   -12286   -12289   -12290   -12289   -12290 
  -12297   -12295   -12286   -12293   -12301   -12290   -12285   -12294 
  -12294   -12290   -12293   -12302   -12299   -12293   -12299   -12305 
  -12297   -12294   -12295   -12290   -12289   -12287   -12283   -12285 
  -12286   -12280   -12283   -12289   -12285   -12286   -12291   -12290 
  -12291   -12295   -12291   -12293   -12295   -12294   -12294   -12291 
  -12293   -12298   -12291   -12293   -12302   -12295   -12295   -12301 
  -12301   -12298   -12294   -12294   -12289   -12283   -12293   -12286 
  -12272   -12286   -12287   -12280   -12289   -12293   -12287   -12287 
  -12289   -12289   -12290   -12294   -12291   -12287   -12294   -12293 
  -12285   -12291   -12299   -12294   -12289   -12298   -12303   -12293 
  -12294   -12303   -12299   -12291   -12290   -12294   -12291   -12283 
  -12287   -12289   -12280   -12287   -12291   -12283   -12285   -12289 
  -12287   -12289   -12290   -12291   -12291   -12290   -12293   -12294 
  -12291   -12294   -12295   -12295   -12295   -12294   -12295   -12298 
  -12297   -12295   -12301   -12302   -12293   -12289   -12293   -12290 
  -12285   -12283   -12286   -12286   -12282   -12283   -12289   -12286 
  -12283   -12290   -12291   -12286   -12291   -12294   -12287   -12290 
  -12295   -12293   -12290   -12293   -12291   -12289   -12291   -12297 
  -12295   -12295   -12297   -12297   -12302   -12301   -12293   -12291 
  -12293   -12286   -12283   -12286   -12285   -12279   -12280   -12285 
  -12287   -12287   -12286   -12290   -12291   -12286   -12287   -12294 
  -12294   -12290   -12291   -12293   -12290   -12290   -12293   -12294 
  -12297   -12294   -12294   -12301   -12301   -12297   -12301   -12301 
  -12293   -12290   -12291   -12289   -12285   -12282   -12282   -12282 
  -12282   -12285   -12290   -12286   -12282   -12290   -12294   -12286 
  -12287   -12295   -12291   -12289   -12293   -12290   -12286   -12291 
  -12294   -12291   -12297   -12298   -12294   -12295   -12298   -12297 
  -12297   -12297   -12295   -12291   -12287   -12290   -12289   -12282 
  -12283   -12287   -12286   -12286   -12290   -12286   -12287   -12294 
  -12289   -12289   -12297   -12289   -12289   -12301   -12290   -12286 
  -12295   -12291   -12290   -12297   -12293   -12293   -12299   -12298 
  -12299   -12303   -12298   -12290   -12290   -12290   -12285   -12282 
  -12286   -12285   -12279   -12282   -12286   -12286   -12285   -12283 
  -12287   -12290   -12291   -12290   -12290   -12295   -12293   -12286 
  -12295   -12297   -12287   -12291   -12298   -12293   -12293   -12298 
  -12298   -12297   -12298   -12298   -12295   -12291   -12291   -12291 
  -12289   -12289   -12283   -12282   -12290   -12289   -12280   -12282 
  -12287   -12289   -12287   -12286   -12290   -12290   -12289   -12290 
  -12294   -12290   -12283   -12291   -12297   -12289   -12289   -12295 
  -12295   -12297   -12297   -12294   -12299   -12303   -12294   -12289 
  -12295   -12291   -12280   -12287   -12290   -12282   -12282   -12285 
  -12286   -12290   -12287   -12289   -12295   -12287   -12289   -12299 
  -12294   -12291   -12293   -12293   -12294   -12289   -12293   -12302 
  -12293   -12291   -12303   -12299   -12297   -12299   -12299   -12298 
  -12294   -12287   -12290   -12291   -12287   -12283   -12287   -12286 
  -12282   -12287   -12291   -12287   -12290   -12289   -12286   -12294 
  -12295   -12290   -12294   -12298   -12291   -12289   -12294   -12291 
  -12290   -12297   -12298   -12295   -12299   -12298   -12294   -12301 
  -12297   -12287   -12291   -12291   -12285   -12285   -12287   -12286 
  -12282   -12287   -12291   -12283   -12285   -12293   -12290   -12290 
  -12291   -12293   -12294   -12289   -12294   -12299   -12289   -12291 
  -12299   -12295   -12295   -12298   -12299   -12299   -12294   -12295 
  -12299   -12293   -12289   -12290   -12294   -12290   -12282   -12286 
  -12289   -12280   -12285   -12294   -12290   -12285   -12290   -12294 
  -12291   -12289   -12291   -12297   -12291   -12286   -12293   -12297 
  -12291   -12291   -12298   -12295   -12293   -12298   -12298   -12297 
  -12299   -12298   -12291   -12293   -12290   -12282   -12289   -12291 
  -12278   -12282   -12295   -12286   -12279   -12293   -12290   -12285 
  -12290   -12291   -12293   -12293   -12289   -12290   -12293   -12294 
  -12290   -12289   -12297   -12295   -12290   -12298   -12298   -12297 
  -12302   -12299   -12295   -12297   -12291   -12289   -12287   -12285 
  -12286   -12286   -12285   -12286   -12286   -12286   -12285   -12286 
  -12290   -12290   -12289   -12293   -12290   -12289   -12294   -12293 
  -12287   -12290   -12294   -12293   -12294   -12298   -12297   -12294 
  -12297   -12299   -12298   -12297   -12295   -12294   -12289   -12286 
  -12290   -12286   -12282   -12290   -12286   -12280   -12290   -12291 
  -12286   -12287   -12289   -12291   -12294   -12290   -12291   -12294 
  -12290   -12289   -12290   -12291   -12294   -12291   -12290   -12299 
  -12302   -12298   -12295   -12295   -12298   -12294   -12289   -12291 
  -12295   -12287   -12282   -12287   -12286   -12282   -12287   -12290 
  -12286   -12287   -12290   -12290   -12293   -12293   -12291   -12294 
  -12298   -12293   -12285   -12293   -12298   -12289   -12291   -12303 
  -12295   -12293   -12303   -12302   -12294   -12297   -12298   -12287 
  -12286   -12289   -12286   -12285   -12283   -12285   -12287   -12286 
  -12289   -12290   -12286   -12289   -12290   -12291   -12291   -12289 
  -12291   -12294   -12291   -12293   -12291   -12287   -12294   -12295 
  -12294   -12295   -12295   -12297   -12295   -12295   -12299   -12297 
  -12291   -12291   -12291   -12285   -12285   -12287   -12282   -12278 
  -12283   -12286   -12286   -12286   -12289   -12289   -12289   -12293 
  -12293   -12289   -12295   -12295   -12289   -12293   -12291   -12290 
  -12294   -12293   -12291   -12295   -12295   -12298   -12301   -12295 
  -12295   -12298   -12291   -12290   -12293   -12287   -12285   -12285 
  -12285   -12286   -12286   -12286   -12287   -12286   -12289   -12287 
  -12290   -12295   -12287   -12287   -12298   -12290   -12286   -12298 
  -12294   -12286   -12297   -12295   -12290   -12301   -12298   -12293 
  -12301   -12298   -12291   -12294   -12290   -12287   -12289   -12289 
  -12286   -12285   -12286   -12285   -12282   -12287   -12289   -12282 
  -12287   -12291   -12287   -12293   -12295   -12290   -12291   -12294 
  -12289   -12290   -12295   -12293   -12294   -12294   -12293   -12299 
  -12299   -12294   -12301   -12301   -12293   -12291   -12291   -12289 
  -12287   -12283   -12285   -12285   -12285   -12286   -12286   -12289 
  -12289   -12289   -12290   -12293   -12291   -12290   -12291   -12294 
  -12293   -12293   -12291   -12291   -12293   -12289   -12294   -12301 
  -12295   -12298   -12299   -12298   -12301   -12295   -12289   -12291 
  -12290   -12286   -12285   -12289   -12286   -12280   -12286   -12291 
  -12286   -12286   -12291   -12291   -12287   -12289   -12294   -12295 
  -12291   -12290   -12294   -12291   -12286   -12291   -12299   -12294 
  -12293   -12302   -12298   -12294   -12301   -12301   -12294   -12291 
  -12290   -12290   -12285   -12282   -12289   -12287   -12280   -12287 
  -12291   -12285   -12287   -12293   -12289   -12289   -12302   -12314 
  -12332   -12361   -12375   -12351   -12293   -12218   -12167   -12162 
  -12190   -12241   -12317   -12380   -12403   -12391   -12325   -12220 
  -12172   -12228   -12299   -12307   -12287   -12279   -12276   -12309 
  -12371   -12394   -12379   -12314   -12199   -12160   -12235   -12294 
  -12301   -12357   -12430   -12361   -12244   -12264   -12272   -12190 
  -12245   -12352   -12267   -12172   -12280   -12393   -12372   -12382 
  -12397   -12289   -12204   -12189   -12152   -12224   -12364   -12356 
  -12357   -12478   -12428   -12191   -12082   -12094   -12096   -12214 
  -12445   -12550   -12498   -12383   -12216   -12104   -12174   -12330 
  -12403   -12357   -12282   -12209   -12136   -12258   -12507   -12488 
  -12341   -12329   -12178   -12019   -12247   -12457   -12316   -12251 
  -12380   -12306   -12081   -12136   -12367   -12397   -12334   -12276 
  -12159   -12214   -12370   -12344   -12356   -12434   -12313   -12159 
  -12171   -12289   -12421   -12384   -12177   -12117   -12283   -12375 
  -12312   -12336   -12461   -12409   -12186   -12108   -12175   -12260 
  -12442   -12526   -12341   -12209   -12213   -12155   -12131   -12272 
  -12441   -12437   -12302   -12205   -12181   -12275   -12375   -12286 
  -12253   -12406   -12378   -12210   -12233   -12302   -12276   -12330 
  -12394   -12280   -12148   -12249   -12437   -12388   -12225   -12185 
  -12145   -12155   -12367   -12521   -12452   -12349   -12276   -12216 
  -12229   -12291   -12295   -12251   -12291   -12414   -12414   -12195 
  -12056   -12218   -12388   -12366   -12343   -12339   -12264   -12189 
  -12133   -12166   -12382   -12561   -12445   -12226   -12222   -12340 
  -12274   -12143   -12274   -12411   -12268   -12194   -12339   -12379 
  -12321   -12349   -12318   -12168   -12136   -12276   -12409   -12413 
  -12247   -12121   -12287   -12459   -12357   -12294   -12364   -12276 
  -12112   -12154   -12305   -12334   -12294   -12347   -12402   -12343 
  -12289   -12236   -12106   -12121   -12306   -12356   -12298   -12336 
  -12428   -12455   -12318   -12124   -12123   -12221   -12263   -12386 
  -12534   -12447   -12264   -12249   -12218   -12097   -12220   -12461 
  -12394   -12231   -12287   -12310   -12199   -12248   -12413   -12387 
  -12236   -12202   -12285   -12322   -12228   -12160   -12302   -12430 
  -12313   -12213   -12349   -12421   -12264   -12221   -12364   -12349 
  -12183   -12181   -12306   -12330   -12320   -12348   -12325   -12274 
  -12264   -12289   -12298   -12274   -12294   -12293   -12209   -12252 
  -12403   -12411   -12318   -12274   -12275   -12233   -12181   -12228 
  -12291   -12298   -12302   -12316   -12364   -12355   -12198   -12135 
  -12275   -12398   -12426   -12368   -12262   -12233   -12263   -12272 
  -12332   -12447   -12422   -12201   -12060   -12164   -12303   -12325 
  -12337   -12355   -12235   -12137   -12314   -12518   -12456   -12286 
  -12217   -12213   -12187   -12222   -12361   -12432   -12336   -12195 
  -12175   -12282   -12376   -12399   -12343   -12267   -12305   -12280 
  -12096   -12152   -12460   -12478   -12213   -12197   -12388   -12293 
  -12100   -12235   -12379   -12309   -12337   -12438   -12367   -12271 
  -12317   -12312   -12202   -12248   -12345   -12213   -12133   -12297 
  -12337   -12208   -12233   -12363   -12372   -12345   -12413   -12442 
  -12313   -12179   -12110   -12081   -12228   -12399   -12336   -12313 
  -12407   -12325   -12229   -12298   -12334   -12297   -12275   -12231 
  -12163   -12178   -12299   -12383   -12366   -12368   -12403   -12345 
  -12224   -12195   -12305   -12401   -12336   -12262   -12309   -12276 
  -12154   -12197   -12328   -12289   -12212   -12344   -12482   -12363 
  -12232   -12282   -12307   -12241   -12212   -12240   -12313   -12341 
  -12259   -12252   -12378   -12332   -12098   -12131   -12401   -12406 
  -12272   -12317   -12305   -12226   -12297   -12336   -12287   -12330 
  -12386   -12285   -12151   -12224   -12371   -12318   -12252   -12324 
  -12360   -12380   -12394   -12293   -12209   -12218   -12237   -12266 
  -12297   -12299   -12243   -12186   -12232   -12283   -12343   -12487 
  -12442   -12214   -12182   -12258   -12258   -12310   -12387   -12386 
  -12318   -12226   -12240   -12314   -12266   -12183   -12208   -12303 
  -12376   -12309   -12198   -12245   -12343   -12372   -12456   -12514 
  -12393   -12232   -12162   -12152   -12197   -12297   -12364   -12259 
  -12132   -12264   -12383   -12244   -12259   -12426   -12334   -12220 
  -12321   -12371   -12295   -12274   -12336   -12340   -12229   -12171 
  -12232   -12299   -12360   -12383   -12337   -12318   -12305   -12237 
  -12229   -12329   -12422   -12386   -12260   -12222   -12244   -12204 
  -12224   -12314   -12295   -12214   -12195   -12275   -12463   -12538 
  -12367   -12220   -12213   -12208   -12222   -12307   -12393   -12393 
  -12287   -12202   -12220   -12271   -12287   -12240   -12197   -12289 
  -12426   -12394   -12286   -12283   -12298   -12247   -12201   -12229 
  -12347   -12440   -12391   -12309   -12283   -12248   -12239   -12245 
  -12205   -12236   -12325   -12330   -12310   -12310   -12302   -12305 
  -12336   -12413   -12411   -12210   -12070   -12183   -12303   -12329 
  -12374   -12329   -12186   -12148   -12237   -12360   -12420   -12349 
  -12314   -12339   -12252   -12222   -12371   -12422   -12290   -12199 
  -12239   -12271   -12252   -12289   -12359   -12344   -12318   -12382 
  -12390   -12245   -12158   -12216   -12241   -12249   -12279   -12221 
  -12235   -12380   -12361   -12263   -12357   -12430   -12289   -12171 
  -12244   -12326   -12258   -12190   -12249   -12301   -12341   -12422 
  -12397   -12325   -12306   -12206   -12114   -12160   -12268   -12420 
  -12467   -12307   -12195   -12258   -12340   -12363   -12337   -12293 
  -12272   -12258   -12228   -12232   -12278   -12282   -12270   -12340 
  -12390   -12317   -12297   -12361   -12293   -12160   -12171   -12236 
  -12272   -12286   -12267   -12321   -12429   -12401   -12274   -12210 
  -12268   -12357   -12344   -12293   -12260   -12225   -12272   -12351 
  -12347   -12316   -12301   -12301   -12326   -12328   -12286   -12260 
  -12237   -12177   -12174   -12275   -12370   -12386   -12356   -12326 
  -12305   -12264   -12231   -12233   -12235   -12256   -12278   -12263 
  -12328   -12424   -12353   -12267   -12340   -12397   -12348   -12276 
  -12237   -12305   -12363   -12212   -12104   -12283   -12426   -12372 
  -12336   -12306   -12204   -12152   -12217   -12316   -12345   -12293 
  -12236   -12237   -12282   -12306   -12351   -12411   -12364   -12252 
  -12212   -12249   -12306   -12295   -12249   -12280   -12298   -12283 
  -12367   -12433   -12386   -12351   -12303   -12214   -12141   -12048 
  -12075   -12306   -12417   -12353   -12382   -12384   -12252   -12240 
  -12378   -12463   -12422   -12330   -12294   -12262   -12154   -12105 
  -12189   -12253   -12214   -12212   -12361   -12449   -12325   -12251 
  -12361   -12432   -12325   -12182   -12187   -12278   -12239   -12177 
  -12303   -12436   -12382   -12276   -12268   -12328   -12322   -12290 
  -12299   -12249   -12187   -12228   -12318   -12390   -12410   -12411 
  -12378   -12248   -12217   -12301   -12213   -12101   -12210   -12348 
  -12367   -12322   -12302   -12340   -12293   -12182   -12226   -12347 
  -12371   -12294   -12183   -12226   -12383   -12360   -12218   -12204 
  -12298   -12343   -12262   -12222   -12329   -12334   -12268   -12356 
  -12379   -12248   -12264   -12434   -12467   -12293   -12160   -12214 
  -12289   -12341   -12411   -12321   -12116   -12094   -12222   -12302 
  -12324   -12372   -12424   -12359   -12172   -12063   -12190   -12383 
  -12352   -12241   -12353   -12449   -12294   -12185   -12245   -12264 
  -12271   -12347   -12320   -12172   -12178   -12356   -12432   -12372 
  -12332   -12318   -12314   -12297   -12249   -12259   -12297   -12279 
  -12255   -12229   -12233   -12291   -12278   -12255   -12370   -12440 
  -12347   -12274   -12240   -12163   -12228   -12468   -12525   -12321 
  -12201   -12287   -12361   -12289   -12144   -12086   -12144   -12220 
  -12289   -12347   -12353   -12340   -12333   -12347   -12374   -12351 
  -12322   -12368   -12375   -12268   -12191   -12229   -12241   -12198 
  -12293   -12440   -12374   -12195   -12139   -12198   -12276   -12374 
  -12492   -12444   -12225   -12183   -12332   -12370   -12340   -12387 
  -12359   -12167   -12043   -12179   -12383   -12378   -12275   -12314 
  -12330   -12150   -12055   -12239   -12407   -12390   -12405   -12457 
  -12326   -12148   -12202   -12320   -12247   -12202   -12363   -12411 
  -12258   -12212   -12285   -12268   -12185   -12218   -12397   -12453 
  -12326   -12298   -12351   -12303   -12253   -12232   -12159   -12152 
  -12272   -12320   -12221   -12199   -12347   -12444   -12425   -12410 
  -12349   -12260   -12244   -12232   -12240   -12295   -12303   -12357 
  -12460   -12399   -12256   -12249   -12309   -12255   -12145   -12186 
  -12298   -12295   -12320   -12437   -12418   -12298   -12291   -12328 
  -12298   -12244   -12185   -12179   -12290   -12379   -12312   -12240 
  -12309   -12376   -12344   -12289   -12259   -12251   -12258   -12251 
  -12239   -12255   -12303   -12334   -12290   -12260   -12336   -12380 
  -12295   -12224   -12259   -12316   -12301   -12224   -12160   -12185 
  -12280   -12337   -12303   -12268   -12310   -12366   -12359   -12364 
  -12428   -12414   -12330   -12290   -12251   -12241   -12278   -12232 
  -12172   -12226   -12293   -12318   -12324   -12245   -12151   -12182 
  -12276   -12357   -12476   -12534   -12401   -12259   -12295   -12378 
  -12341   -12262   -12262   -12248   -12141   -12097   -12170   -12251 
  -12340   -12445   -12432   -12329   -12347   -12411   -12295   -12151 
  -12204   -12302   -12298   -12266   -12253   -12275   -12340   -12382 
  -12368   -12349   -12326   -12272   -12240   -12283   -12361   -12393 
  -12333   -12252   -12241   -12263   -12248   -12241   -12282   -12291 
  -12253   -12263   -12348   -12418   -12390   -12286   -12208   -12222 
  -12258   -12228   -12229   -12297   -12283   -12226   -12252   -12278 
  -12235   -12236   -12347   -12434   -12378   -12293   -12309   -12352 
  -12330   -12271   -12253   -12287   -12276   -12226   -12229   -12285 
  -12299   -12233   -12217   -12291   -12306   -12298   -12357   -12361 
  -12321   -12345   -12344   -12290   -12278   -12295   -12291   -12268 
  -12276   -12332   -12325   -12251   -12235   -12263   -12274   -12313 
  -12355   -12332   -12293   -12306   -12355   -12380   -12320   -12204 
  -12154   -12220   -12297   -12312   -12287   -12241   -12247   -12325 
  -12356   -12312   -12299   -12340   -12334   -12285   -12298   -12368 
  -12364   -12267   -12216   -12285   -12366   -12334   -12255   -12251 
  -12270   -12205   -12186   -12305   -12370   -12305   -12272   -12321 
  -12333   -12280   -12294   -12398   -12406   -12290   -12228   -12236 
  -12220   -12220   -12263   -12295   -12316   -12320   -12324   -12341 
  -12316   -12252   -12233   -12271   -12286   -12243   -12229   -12280 
  -12297   -12280   -12313   -12320   -12253   -12245   -12303   -12303 
  -12279   -12285   -12270   -12248   -12264   -12313   -12368   -12386 
  -12367   -12318   -12259   -12259   -12303   -12324   -12322   -12316 
  -12337   -12351   -12283   -12229   -12237   -12210   -12208   -12293 
  -12368   -12395   -12367   -12279   -12222   -12248   -12295   -12305 
  -12285   -12287   -12299   -12259   -12222   -12271   -12299   -12252 
