Origin Time       2025/03/30 10:46:00
Lat.              32.923
Long.             130.372
Depth. (km)       11
Mag.              3.4
Station Code      FKOH10
Station Lat.      33.2891
Station Long.     130.8170
Station Height(m) -10
Record Time       2025/03/30 10:46:37
Sampling Freq(Hz) 100Hz
Duration Time(s)  120
Dir.              2
Scale Factor      2942(gal)/8224139
Max. Acc. (gal)   0.341
Last Correction   2025/03/30 10:46:38
Memo.             
[...]
  143515   143514   143514   143514   143513   143513   143514   143513 
  143513   143515   143514   143513   143514   143514   143513   143511 
  143513   143517   143517   143510   143510   143515   143515   143515 
  143514   143514   143513   143510   143511   143515   143515   143513 
  143513   143513   143514   143514   143511   143510   143513   143514 
  143514   143514   143513   143513   143514   143514   143515   143514 
  143514   143514   143514   143511   143510   143513   143514   143511 
  143514   143515   143514   143514   143511   143510   143511   143514 
  143514   143513   143513   143514   143513   143511   143514   143514 
  143513   143513   143514   143514   143511   143511   143514   143515 
  143513   143513   143515   143514   143511   143514   143515   143511 
  143514   143518   143514   143509   143510   143513   143511   143513 
  143514   143514   143515   143515   143513   143513   143515   143515 
  143511   143513   143513   143511   143513   143513   143513   143515 
  143514   143513   143514   143514   143514   143515   143515   143513 
  143511   143514   143514   143511   143513   143514   143511   143511 
  143515   143513   143513   143517   143514   143513   143514   143514 
  143515   143515   143514   143515   143515   143513   143513   143513 
  143515   143518   143515   143513   143513   143514   143514   143513 
  143515   143515   143511   143511   143514   143517   143515   143514 
  143514   143515   143515   143515   143514   143515   143517   143515 
  143513   143511   143511   143515   143517   143514   143514   143514 
  143514   143515   143515   143517   143515   143511   143511   143514 
  143515   143513   143513   143515   143517   143515   143515   143513 
  143511   143513   143513   143514   143515   143514   143514   143514 
  143514   143515   143514   143514   143515   143515   143514   143513 
  143513   143513   143513   143514   143515   143515   143515   143514 
  143515   143515   143514   143514   143514   143514   143514   143511 
  143511   143514   143514   143514   143515   143514   143517   143514 
  143511   143515   143515   143513   143514   143515   143513   143513 
  143514   143514   143511   143511   143513   143513   143513   143514 
  143514   143513   143513   143514   143514   143513   143514   143515 
  143514   143515   143517   143514   143514   143515   143511   143511 
  143514   143514   143514   143511   143510   143513   143515   143515 
  143515   143513   143511   143511   143513   143513   143513   143513 
  143510   143511   143514   143513   143514   143514   143511   143514 
  143515   143513   143511   143514   143514   143513   143514   143514 
  143514   143515   143514   143514   143514   143511   143511   143513 
  143511   143511   143514   143515   143515   143515   143514   143514 
  143514   143513   143514   143517   143513   143510   143515   143514 
  143509   143510   143514   143514   143513   143514   143515   143513 
  143511   143514   143513   143513   143513   143513   143513   143514 
  143514   143511   143514   143515   143513   143514   143515   143513 
  143511   143511   143513   143513   143509   143511   143515   143514 
  143513   143513   143513   143514   143514   143511   143514   143517 
  143513   143511   143514   143514   143513   143513   143511   143511 
  143513   143515   143517   143514   143514   143515   143514   143515 
  143517   143513   143510   143513   143514   143513   143513   143514 
  143514   143514   143513   143511   143515   143513   143510   143514 
  143515   143513   143513   143514   143515   143513   143509   143513 
  143514   143511   143511   143515   143515   143513   143513   143514 
  143514   143515   143515   143511   143513   143515   143514   143514 
  143515   143514   143511   143513   143515   143517   143514   143510 
  143513   143514   143510   143513   143515   143511   143511   143514 
  143514   143513   143510   143511   143513   143514   143515   143515 
  143513   143513   143514   143514   143510   143510   143515   143513 
  143510   143513   143514   143511   143513   143514   143514   143514 
  143513   143514   143514   143513   143511   143513   143514   143513 
  143511   143513   143513   143513   143514   143515   143514   143513 
  143513   143514   143513   143510   143514   143515   143513   143514 
  143514   143513   143514   143515   143513   143513   143517   143517 
  143514   143514   143517   143514   143510   143513   143513   143511 
  143514   143514   143513   143510   143514   143517   143514   143513 
  143514   143515   143517   143515   143513   143513   143515   143515 
  143515   143514   143514   143515   143515   143514   143513   143513 
  143514   143514   143511   143514   143517   143513   143513   143517 
  143515   143511   143514   143515   143513   143514   143514   143511 
  143513   143515   143514   143514   143515   143513   143511   143511 
  143513   143511   143514   143515   143514   143514   143514   143513 
  143514   143514   143514   143514   143514   143514   143517   143514 
  143511   143511   143513   143514   143514   143513   143513   143514 
  143514   143515   143515   143513   143511   143513   143514   143515 
  143515   143513   143513   143515   143515   143513   143513   143515 
  143517   143517   143514   143511   143514   143518   143515   143511 
  143513   143517   143515   143515   143517   143517   143513   143513 
  143514   143514   143515   143515   143514   143514   143514   143513 
  143511   143513   143514   143513   143514   143514   143514   143513 
  143513   143511   143513   143514   143511   143513   143515   143514 
  143513   143513   143513   143513   143515   143515   143513   143514 
  143514   143514   143515   143517   143515   143511   143511   143513 
  143514   143515   143515   143514   143513   143513   143514   143517 
  143515   143511   143511   143513   143511   143513   143513   143514 
  143514   143514   143514   143513   143511   143514   143514   143513 
  143514   143514   143513   143514   143513   143511   143513   143514 
  143514   143514   143514   143513   143513   143514   143515   143511 
  143511   143514   143514   143514   143514   143514   143511   143510 
  143511   143515   143514   143514   143515   143514   143514   143515 
  143514   143514   143511   143513   143514   143513   143513   143514 
  143514   143515   143515   143514   143514   143515   143511   143509 
  143513   143515   143513   143513   143513   143514   143513   143511 
  143513   143513   143511   143513   143514   143514   143514   143511 
  143513   143517   143514   143510   143514   143513   143510   143513 
  143515   143515   143514   143514   143513   143511   143510   143510 
  143514   143517   143514   143514   143517   143515   143509   143509 
  143509   143500   143491   143482   143478   143491   143518   143544 
  143556   143556   143552   143541   143521   143502   143496   143500 
  143519   143537   143523   143487   143469   143483   143515   143549 
  143542   143484   143442   143468   143529   143571   143556   143502 
  143482   143515   143542   143507   143456   143476   143532   143541 
  143541   143561   143559   143561   143567   143510   143428   143391 
  143415   143491   143577   143619   143577   143505   143505   143530 
  143500   143465   143430   143414   143511   143637   143641   143583 
  143552   143500   143426   143434   143515   143567   143577   143542 
  143446   143392   143430   143486   143511   143533   143579   143576 
  143496   143475   143515   143498   143494   143540   143533   143542 
  143622   143590   143421   143402   143573   143625   143521   143487 
  143510   143527   143569   143540   143455   143451   143464   143464 
  143483   143490   143510   143500   143479   143567   143600   143515 
  143527   143532   143444   143465   143522   143532   143615   143664 
  143557   143419   143406   143472   143430   143442   143630   143627 
  143510   143545   143478   143402   143498   143475   143518   143712 
  143602   143419   143478   143483   143460   143513   143519   143530 
  143490   143432   143522   143567   143532   143525   143460   143513 
  143630   143541   143522   143499   143268   143390   143710   143595 
  143463   143544   143514   143522   143595   143546   143480   143437 
  143446   143540   143604   143637   143579   143469   143553   143606 
  143401   143343   143499   143542   143515   143499   143487   143522 
  143496   143441   143496   143506   143446   143510   143595   143584 
  143553   143473   143405   143459   143549   143608   143652   143631 
  143564   143559   143552   143440   143370   143403   143444   143518 
  143546   143461   143483   143602   143613   143580   143510   143401 
  143449   143532   143502   143576   143649   143511   143428   143459 
  143424   143426   143513   143587   143621   143568   143536   143584 
  143518   143394   143417   143521   143575   143538   143494   143534 
  143552   143514   143494   143440   143424   143527   143550   143471 
  143498   143590   143583   143517   143491   143510   143546   143546 
  143451   143383   143510   143614   143499   143483   143621   143548 
  143414   143495   143581   143567   143515   143424   143428   143548 
  143544   143397   143387   143594   143749   143687   143536   143452 
  143459   143463   143399   143410   143522   143548   143536   143560 
  143544   143565   143565   143432   143388   143463   143507   143586 
  143623   143588   143572   143476   143405   143492   143522   143515 
  143561   143449   143330   143482   143634   143576   143541   143584 
  143534   143492   143556   143546   143479   143476   143436   143417 
  143519   143542   143492   143546   143568   143511   143490   143452 
  143492   143649   143623   143432   143374   143465   143584   143579 
  143457   143507   143658   143596   143480   143478   143480   143511 
  143559   143540   143560   143579   143451   143321   143361   143484 
  143550   143527   143503   143529   143530   143527   143602   143602 
  143421   143390   143590   143580   143457   143586   143662   143513 
  143469   143517   143455   143395   143461   143548   143521   143463 
  143487   143546   143631   143649   143476   143368   143479   143587 
  143625   143580   143424   143372   143444   143475   143527   143564 
  143502   143492   143550   143581   143590   143505   143409   143468 
  143526   143483   143500   143549   143556   143604   143604   143490 
  143456   143486   143463   143514   143544   143415   143372   143488 
  143595   143638   143587   143472   143479   143621   143627   143421 
  143316   143453   143614   143667   143603   143469   143410   143446 
  143519   143538   143442   143486   143679   143603   143456   143556 
  143532   143430   143526   143490   143428   143611   143599   143390 
  143417   143502   143515   143587   143594   143564   143571   143468 
  143401   143502   143557   143534   143553   143559   143514   143473 
  143453   143438   143448   143478   143514   143579   143583   143461 
  143434   143522   143546   143604   143648   143538   143476   143460 
  143413   143500   143556   143464   143449   143418   143371   143526 
  143654   143590   143507   143463   143521   143661   143707   143650 
  143532   143409   143417   143446   143391   143415   143541   143607 
  143591   143567   143533   143445   143422   143525   143556   143522 
  143541   143506   143483   143492   143378   143409   143598   143525 
  143479   143657   143596   143456   143568   143602   143502   143472 
  143451   143461   143532   143550   143496   143428   143440   143514 
  143534   143581   143629   143480   143360   143492   143622   143581 
  143441   143371   143530   143646   143549   143546   143576   143430 
  143387   143509   143569   143545   143455   143425   143564   143654 
  143617   143576   143503   143446   143499   143529   143475   143444 
  143440   143482   143557   143518   143471   143559   143522   143425 
  143549   143569   143495   143660   143606   143357   143472   143503 
  143349   143550   143671   143515   143537   143503   143367   143441 
  143515   143509   143511   143509   143627   143692   143553   143488 
  143463   143402   143484   143541   143490   143510   143507   143455 
  143472   143488   143538   143629   143557   143430   143505   143658 
  143680   143622   143517   143321   143278   143469   143521   143446 
  143542   143642   143633   143631   143541   143426   143475   143513 
  143436   143409   143467   143503   143498   143534   143586   143592 
  143594   143515   143382   143392   143405   143372   143595   143833 
  143689   143449   143410   143456   143461   143479   143542   143564 
  143586   143621   143491   143367   143486   143565   143488   143459 
  143492   143552   143586   143537   143500   143518   143572   143579 
  143413   143318   143475   143584   143584   143591   143510   143440 
  143460   143445   143467   143544   143542   143495   143469   143478 
  143472   143425   143455   143459   143392   143590   143854   143748 
  143565   143432   143236   143376   143719   143730   143662   143702 
  143629   143572   143509   143351   143402   143586   143548   143401 
  143344   143399   143554   143644   143571   143460   143356   143302 
  143471   143757   143766   143486   143376   143571   143712   143714 
  143688   143515   143264   143212   143313   143540   143920   144100 
  143822   143262   142709   142561   142906   143290   143567   143903 
  144116   144053   143799   143478   143298   143347   143573   143900 
  144077   143937   143553   143023   142592   142611   143116   143802 
  144274   144373   144159   143731   143341   143167   143055   143002 
  143102   143178   143232   143479   143835   144090   144092   143762 
  143347   143140   143183   143453   143787   143812   143534   143402 
  143514   143552   143514   143579   143591   143456   143394   143433 
  143398   143345   143402   143517   143586   143618   143623   143503 
  143295   143267   143519   143849   143970   143757   143438   143334 
  143311   143086   142975   143405   143905   143819   143518   143577 
  143702   143533   143355   143359   143270   143241   143780   144351 
  144018   143320   143205   143363   143415   143673   143861   143498 
  143268   143625   143630   143059   142998   143486   143591   143414 
  143538   143810   143884   143665   143387   143455   143657   143571 
  143440   143437   143422   143599   143904   143873   143594   143303 
  143068   143149   143367   143357   143511   143946   144005   143665 
  143406   143144   142850   143037   143726   144101   143803   143388 
  143245   143372   143745   143970   143749   143445   143289   143206 
  143403   143760   143696   143322   143268   143459   143414   143247 
  143278   143492   143757   143808   143603   143507   143461   143321 
  143391   143529   143534   143725   143901   143749   143542   143403 
  143410   143618   143672   143557   143455   143217   143175   143583 
  143831   143721   143716   143753   143502   143222   143255   143352 
  143329   143453   143710   143846   143819   143467   142924   142871 
  143286   143599   143865   144094   143924   143575   143401   143187 
  142969   143178   143598   143631   143469   143484   143469   143525 
  143823   143839   143614   143804   143984   143502   142948   142951 
  143225   143380   143399   143476   143766   143965   143715   143429 
  143500   143515   143336   143376   143522   143428   143329   143534 
  143807   143846   143764   143608   143386   143414   143592   143479 
  143267   143293   143487   143731   143819   143646   143544   143625 
  143540   143340   143417   143569   143386   143181   143370   143619 
  143681   143787   143749   143446   143332   143384   143437   143712 
  143849   143515   143232   143224   143367   143642   143741   143630 
  143613   143550   143360   143228   143224   143448   143614   143341 
  143208   143581   143704   143372   143303   143618   143845   143856 
  143738   143550   143430   143367   143311   143442   143665   143610 
  143357   143338   143669   143941   143830   143637   143517   143183 
  142866   143105   143706   144047   143919   143608   143409   143244 
  143097   143267   143602   143630   143550   143679   143731   143646 
  143642   143544   143371   143413   143492   143496   143529   143451 
  143407   143550   143553   143527   143696   143648   143359   143298 
  143446   143511   143417   143384   143598   143721   143607   143604 
  143607   143475   143500   143561   143476   143478   143499   143407 
  143411   143532   143561   143502   143584   143746   143568   143212 
  143172   143356   143604   143814   143676   143561   143743   143577 
  143266   143484   143680   143532   143480   143407   143290   143368 
  143407   143395   143511   143553   143554   143725   143843   143721 
  143521   143388   143307   143291   143407   143557   143550   143453 
  143491   143613   143607   143580   143638   143559   143409   143517 
  143673   143599   143424   143240   143178   143322   143448   143613 
  143877   143770   143380   143341   143500   143491   143534   143622 
  143502   143378   143500   143653   143676   143703   143644   143398 
  143333   143577   143638   143361   143208   143380   143556   143521 
  143448   143502   143671   143741   143475   143205   143392   143700 
  143715   143629   143600   143553   143490   143478   143532   143553 
  143529   143554   143530   143405   143375   143433   143403   143375 
  143503   143625   143557   143513   143645   143664   143517   143507 
  143544   143437   143371   143409   143421   143437   143537   143694 
  143802   143753   143619   143522   143417   143302   143305   143390 
  143432   143487   143591   143635   143583   143537   143552   143522 
  143411   143395   143530   143626   143588   143499   143446   143503 
  143591   143542   143483   143525   143482   143430   143526   143563 
  143553   143608   143537   143449   143529   143560   143541   143523 
  143391   143413   143599   143541   143440   143506   143465   143419 
  143526   143596   143619   143587   143464   143411   143438   143517 
  143627   143613   143608   143641   143433   143266   143361   143417 
  143495   143642   143633   143599   143532   143324   143270   143347 
  143383   143536   143667   143613   143604   143640   143592   143567 
  143563   143534   143549   143560   143521   143483   143429   143406 
  143446   143421   143414   143502   143496   143514   143677   143729 
  143696   143688   143544   143422   143429   143345   143303   143432 
  143479   143476   143590   143653   143552   143464   143526   143600 
  143572   143552   143523   143452   143446   143390   143316   143472 
  143626   143630   143704   143689   143523   143517   143550   143463 
  143473   143550   143518   143438   143402   143451   143580   143660 
  143614   143548   143557   143549   143459   143446   143511   143456 
  143415   143500   143455   143359   143472   143598   143631   143692 
  143649   143502   143455   143452   143426   143441   143444   143418 
  143457   143480   143479   143629   143727   143554   143445   143506 
  143478   143484   143587   143550   143483   143506   143486   143472 
