Origin Time       2025/03/30 10:46:00
Lat.              32.923
Long.             130.372
Depth. (km)       11
Mag.              3.4
Station Code      FKOH07
Station Lat.      33.3678
Station Long.     130.6354
Station Height(m) -422
Record Time       2025/03/30 10:46:37
Sampling Freq(Hz) 100Hz
Duration Time(s)  120
Dir.              2
Scale Factor      3923(gal)/8224838
Max. Acc. (gal)   0.212
Last Correction   2025/03/30 10:46:37
Memo.             
   -4060    -4059    -4060    -4060    -4059    -4059    -4059    -4060 
   -4062    -4062    -4060    -4060    -4059    -4058    -4059    -4059 
   -4058    -4060    -4062    -4060    -4058    -4059    -4059    -4060 
   -4062    -4063    -4062    -4059    -4059    -4060    -4060    -4060 
   -4060    -4059    -4059    -4059    -4060    -4062    -4060    -4058 
   -4058    -4059    -4058    -4060    -4062    -4059    -4059    -4062 
   -4060    -4058    -4056    -4058    -4060    -4060    -4062    -4060 
   -4058    -4059    -4060    -4062    -4062    -4058    -4058    -4059 
   -4056    -4058    -4060    -4059    -4059    -4060    -4058    -4058 
   -4058    -4058    -4060    -4060    -4058    -4059    -4063    -4062 
   -4058    -4060    -4062    -4059    -4062    -4063    -4060    -4060 
   -4060    -4062    -4062    -4062    -4060    -4060    -4060    -4059 
   -4058    -4059    -4059    -4059    -4058    -4059    -4059    -4058 
   -4059    -4062    -4059    -4056    -4058    -4062    -4062    -4059 
   -4056    -4060    -4062    -4059    -4058    -4059    -4060    -4060 
   -4062    -4062    -4060    -4062    -4062    -4059    -4059    -4058 
   -4059    -4060    -4058    -4056    -4060    -4062    -4060    -4059 
   -4059    -4058    -4058    -4059    -4060    -4059    -4059    -4059 
   -4059    -4059    -4059    -4056    -4058    -4060    -4058    -4058 
   -4063    -4059    -4059    -4062    -4059    -4056    -4058    -4059 
   -4060    -4060    -4060    -4060    -4059    -4056    -4058    -4062 
   -4063    -4060    -4059    -4058    -4059    -4063    -4060    -4058 
   -4058    -4059    -4063    -4063    -4059    -4059    -4062    -4059 
   -4058    -4059    -4060    -4062    -4064    -4062    -4060    -4060 
   -4062    -4060    -4058    -4058    -4060    -4062    -4060    -4060 
   -4062    -4063    -4060    -4058    -4059    -4059    -4059    -4058 
   -4059    -4060    -4060    -4058    -4058    -4059    -4060    -4062 
   -4060    -4059    -4059    -4060    -4059    -4058    -4058    -4059 
   -4060    -4059    -4060    -4060    -4058    -4059    -4060    -4062 
   -4060    -4058    -4058    -4059    -4060    -4062    -4060    -4060 
   -4062    -4060    -4060    -4064    -4060    -4056    -4059    -4060 
   -4058    -4055    -4059    -4062    -4060    -4060    -4062    -4060 
   -4060    -4062    -4060    -4059    -4058    -4059    -4060    -4059 
   -4059    -4062    -4060    -4059    -4060    -4058    -4058    -4062 
   -4060    -4056    -4060    -4064    -4060    -4058    -4060    -4060 
   -4059    -4062    -4062    -4060    -4058    -4059    -4062    -4062 
   -4062    -4060    -4056    -4058    -4060    -4059    -4058    -4062 
   -4063    -4062    -4063    -4062    -4059    -4060    -4060    -4060 
   -4060    -4058    -4059    -4062    -4060    -4059    -4062    -4062 
   -4058    -4059    -4060    -4059    -4062    -4062    -4058    -4060 
   -4059    -4058    -4062    -4062    -4060    -4062    -4059    -4058 
   -4060    -4060    -4060    -4060    -4059    -4062    -4060    -4058 
   -4060    -4062    -4056    -4058    -4059    -4060    -4060    -4056 
   -4059    -4063    -4060    -4060    -4063    -4060    -4058    -4059 
   -4059    -4058    -4059    -4062    -4059    -4056    -4059    -4060 
   -4058    -4059    -4062    -4060    -4059    -4060    -4059    -4059 
   -4063    -4060    -4059    -4059    -4060    -4060    -4060    -4062 
   -4062    -4060    -4060    -4062    -4062    -4062    -4062    -4060 
   -4058    -4058    -4060    -4062    -4060    -4059    -4060    -4060 
   -4060    -4060    -4060    -4060    -4062    -4060    -4059    -4060 
   -4062    -4060    -4058    -4059    -4062    -4060    -4059    -4059 
   -4060    -4062    -4062    -4058    -4059    -4062    -4060    -4059 
   -4059    -4058    -4060    -4063    -4060    -4058    -4059    -4060 
   -4060    -4060    -4059    -4058    -4059    -4060    -4060    -4060 
   -4062    -4059    -4058    -4063    -4063    -4059    -4060    -4063 
   -4063    -4060    -4059    -4059    -4059    -4059    -4060    -4059 
   -4058    -4060    -4062    -4062    -4060    -4059    -4062    -4062 
   -4058    -4056    -4060    -4063    -4062    -4060    -4059    -4060 
   -4060    -4060    -4060    -4063    -4062    -4060    -4062    -4060 
   -4058    -4059    -4060    -4060    -4060    -4060    -4059    -4056 
   -4058    -4060    -4060    -4059    -4060    -4060    -4059    -4059 
   -4060    -4060    -4059    -4060    -4060    -4059    -4059    -4059 
   -4059    -4062    -4062    -4059    -4062    -4063    -4062    -4062 
   -4060    -4060    -4062    -4059    -4059    -4060    -4062    -4060 
   -4058    -4059    -4060    -4059    -4059    -4060    -4059    -4060 
   -4060    -4059    -4060    -4062    -4059    -4056    -4059    -4060 
   -4058    -4058    -4059    -4063    -4063    -4059    -4058    -4059 
   -4058    -4058    -4060    -4059    -4059    -4060    -4058    -4055 
   -4058    -4059    -4060    -4060    -4058    -4058    -4060    -4060 
   -4063    -4060    -4058    -4059    -4062    -4060    -4060    -4062 
   -4060    -4060    -4060    -4060    -4062    -4062    -4060    -4060 
   -4059    -4059    -4060    -4059    -4059    -4059    -4059    -4062 
   -4062    -4059    -4062    -4063    -4059    -4059    -4063    -4062 
   -4059    -4060    -4062    -4060    -4060    -4060    -4059    -4058 
   -4063    -4064    -4060    -4062    -4062    -4060    -4060    -4060 
   -4060    -4060    -4062    -4062    -4059    -4058    -4059    -4058 
   -4059    -4063    -4063    -4060    -4060    -4059    -4059    -4062 
   -4060    -4056    -4060    -4062    -4059    -4062    -4063    -4060 
   -4062    -4062    -4058    -4059    -4059    -4059    -4059    -4060 
   -4062    -4062    -4059    -4059    -4062    -4064    -4060    -4058 
   -4062    -4060    -4059    -4058    -4059    -4060    -4062    -4059 
   -4056    -4058    -4060    -4063    -4062    -4059    -4060    -4063 
   -4060    -4059    -4060    -4059    -4060    -4062    -4059    -4060 
   -4062    -4060    -4059    -4062    -4059    -4058    -4060    -4060 
   -4062    -4062    -4059    -4060    -4062    -4059    -4059    -4063 
   -4062    -4059    -4060    -4062    -4059    -4058    -4062    -4062 
   -4060    -4060    -4062    -4062    -4060    -4059    -4060    -4063 
   -4060    -4058    -4058    -4059    -4058    -4059    -4060    -4062 
   -4062    -4062    -4062    -4062    -4060    -4062    -4062    -4059 
   -4058    -4059    -4060    -4060    -4060    -4058    -4059    -4062 
   -4062    -4060    -4060    -4062    -4059    -4059    -4059    -4056 
   -4058    -4059    -4056    -4056    -4059    -4059    -4060    -4060 
   -4058    -4059    -4060    -4059    -4059    -4062    -4062    -4059 
   -4059    -4062    -4062    -4060    -4060    -4060    -4059    -4059 
   -4059    -4059    -4058    -4058    -4060    -4062    -4058    -4058 
   -4059    -4060    -4062    -4062    -4059    -4058    -4062    -4062 
   -4059    -4059    -4062    -4059    -4059    -4063    -4062    -4059 
   -4059    -4060    -4062    -4059    -4056    -4060    -4060    -4058 
   -4060    -4062    -4059    -4058    -4060    -4062    -4060    -4059 
   -4060    -4063    -4060    -4059    -4062    -4062    -4060    -4059 
   -4060    -4060    -4058    -4058    -4059    -4058    -4060    -4062 
   -4060    -4062    -4066    -4064    -4063    -4064    -4068    -4068 
   -4066    -4063    -4058    -4050    -4047    -4050    -4051    -4045 
   -4043    -4052    -4067    -4075    -4072    -4066    -4060    -4062 
   -4071    -4067    -4050    -4036    -4029    -4033    -4058    -4078 
   -4072    -4071    -4077    -4070    -4066    -4071    -4070    -4067 
   -4059    -4045    -4052    -4066    -4051    -4025    -4039    -4082 
   -4098    -4082    -4063    -4044    -4044    -4074    -4090    -4077 
   -4056    -4048    -4056    -4067    -4055    -4024    -4028    -4068 
   -4091    -4090    -4081    -4068    -4054    -4035    -4033    -4056 
   -4068    -4063    -4068    -4070    -4060    -4052    -4043    -4047 
   -4070    -4081    -4079    -4082    -4063    -4027    -4021    -4055 
   -4090    -4091    -4062    -4043    -4067    -4077    -4021    -3974 
   -4021    -4109    -4133    -4104    -4064    -4028    -4040    -4083 
   -4087    -4070    -4043    -4020    -4033    -4064    -4089    -4097 
   -4075    -4062    -4060    -4044    -4048    -4066    -4055    -4033 
   -4036    -4051    -4068    -4085    -4087    -4077    -4062    -4041 
   -4023    -4029    -4060    -4086    -4098    -4085    -4051    -4025 
   -4031    -4058    -4086    -4094    -4078    -4051    -4060    -4085 
   -4055    -4012    -4037    -4091    -4098    -4063    -4036    -4035 
   -4063    -4085    -4058    -4033    -4068    -4086    -4051    -4039 
   -4055    -4050    -4060    -4091    -4072    -4025    -4033    -4074 
   -4077    -4055    -4047    -4048    -4056    -4063    -4062    -4060 
   -4074    -4099    -4094    -4047    -4040    -4075    -4068    -4050 
   -4052    -4033    -4027    -4059    -4074    -4070    -4068    -4052 
   -4039    -4047    -4059    -4074    -4068    -4047    -4052    -4078 
   -4094    -4089    -4062    -4052    -4066    -4066    -4063    -4068 
   -4054    -4043    -4063    -4077    -4047    -4016    -4039    -4082 
   -4067    -4032    -4051    -4070    -4048    -4051    -4070    -4060 
   -4048    -4048    -4064    -4097    -4091    -4047    -4029    -4035 
   -4056    -4094    -4101    -4063    -4035    -4056    -4077    -4047 
   -4031    -4050    -4055    -4072    -4090    -4067    -4059    -4079 
   -4077    -4064    -4067    -4063    -4052    -4052    -4062    -4070 
   -4066    -4043    -4018    -4012    -4041    -4091    -4101    -4075 
   -4055    -4035    -4033    -4062    -4066    -4048    -4066    -4091 
   -4078    -4055    -4043    -4035    -4055    -4090    -4097    -4089 
   -4066    -4031    -4029    -4044    -4043    -4060    -4070    -4047 
   -4051    -4074    -4070    -4071    -4075    -4063    -4059    -4078 
   -4090    -4077    -4048    -4036    -4054    -4063    -4051    -4052 
   -4068    -4078    -4056    -4014    -4012    -4052    -4082    -4093 
   -4081    -4064    -4071    -4067    -4044    -4044    -4055    -4060 
   -4064    -4067    -4068    -4071    -4067    -4044    -4018    -4025 
   -4060    -4083    -4068    -4033    -4031    -4066    -4090    -4078 
   -4054    -4043    -4045    -4063    -4081    -4077    -4072    -4091 
   -4093    -4068    -4066    -4054    -4023    -4025    -4050    -4055 
   -4058    -4072    -4077    -4064    -4067    -4091    -4090    -4070 
   -4070    -4062    -4039    -4048    -4055    -4035    -4041    -4068 
   -4060    -4036    -4045    -4063    -4047    -4050    -4085    -4077 
   -4045    -4040    -4047    -4075    -4099    -4079    -4050    -4045 
   -4054    -4058    -4045    -4041    -4064    -4083    -4090    -4094 
   -4087    -4072    -4054    -4047    -4059    -4063    -4051    -4044 
   -4048    -4048    -4037    -4050    -4079    -4070    -4056    -4085 
   -4082    -4043    -4040    -4060    -4074    -4090    -4083    -4051 
   -4021    -4018    -4050    -4078    -4072    -4054    -4044    -4062 
   -4091    -4082    -4045    -4033    -4036    -4052    -4086    -4104 
   -4102    -4089    -4056    -4032    -4037    -4039    -4028    -4031 
   -4058    -4079    -4074    -4059    -4058    -4081    -4104    -4087 
   -4047    -4043    -4056    -4051    -4059    -4085    -4078    -4050 
   -4036    -4039    -4062    -4071    -4056    -4070    -4086    -4060 
   -4036    -4033    -4044    -4072    -4091    -4071    -4041    -4043 
   -4052    -4050    -4050    -4052    -4048    -4045    -4058    -4078 
   -4086    -4075    -4068    -4074    -4077    -4070    -4072    -4071 
   -4033    -4017    -4036    -4044    -4062    -4085    -4074    -4071 
   -4089    -4081    -4071    -4059    -4021    -4021    -4066    -4072 
   -4062    -4060    -4043    -4039    -4051    -4054    -4074    -4094 
   -4075    -4045    -4047    -4075    -4083    -4052    -4036    -4040 
   -4051    -4083    -4094    -4055    -4023    -4036    -4068    -4074 
   -4055    -4044    -4054    -4068    -4066    -4054    -4054    -4052 
   -4063    -4093    -4079    -4036    -4043    -4066    -4068    -4081 
   -4090    -4078    -4063    -4059    -4064    -4060    -4054    -4058 
   -4050    -4044    -4068    -4075    -4054    -4039    -4041    -4056 
   -4067    -4066    -4064    -4064    -4054    -4055    -4070    -4060 
   -4031    -4032    -4066    -4095    -4098    -4075    -4063    -4056 
   -4035    -4039    -4071    -4074    -4055    -4047    -4054    -4081 
   -4097    -4089    -4085    -4072    -4047    -4029    -4012    -4023 
   -4074    -4087    -4055    -4062    -4074    -4058    -4072    -4077 
   -4050    -4068    -4097    -4070    -4048    -4062    -4056    -4039 
   -4032    -4013    -4008    -4050    -4070    -4041    -4037    -4070 
   -4081    -4071    -4079    -4085    -4063    -4045    -4052    -4081 
   -4098    -4067    -4045    -4071    -4079    -4062    -4056    -4055 
   -4045    -4032    -4031    -4052    -4085    -4110    -4132    -4149 
   -4175    -4191    -4175    -4147    -4125    -4090    -4051    -4035 
   -4014    -3970    -3921    -3886    -3875    -3896    -3932    -3990 
   -4062    -4072    -4008    -3956    -3954    -3985    -4036    -4078 
   -4125    -4212    -4313    -4394    -4415    -4347    -4232    -4099 
   -3912    -3716    -3616    -3627    -3736    -3905    -4021    -4043 
   -4062    -4126    -4212    -4291    -4345    -4334    -4248    -4153 
   -4094    -4018    -3905    -3829    -3819    -3809    -3809    -3888 
   -4004    -4114    -4253    -4386    -4457    -4482    -4410    -4207 
   -3997    -3866    -3773    -3726    -3751    -3824    -3923    -4025 
   -4097    -4168    -4253    -4297    -4284    -4243    -4199    -4186 
   -4143    -4032    -3908    -3785    -3712    -3784    -3942    -4045 
   -4099    -4176    -4241    -4225    -4183    -4155    -4113    -4126 
   -4193    -4153    -4063    -4075    -4063    -3946    -3917    -3997 
   -4000    -3962    -3985    -4014    -4012    -3991    -3982    -4055 
   -4180    -4233    -4191    -4132    -4075    -4028    -4020    -4062 
   -4102    -4075    -4027    -4018    -4009    -3978    -3973    -4027 
   -4139    -4205    -4124    -4017    -4025    -4045    -4036    -4090 
   -4147    -4116    -4059    -4029    -4035    -4060    -4041    -3986 
   -3978    -4033    -4072    -4048    -3998    -4017    -4102    -4106 
   -4025    -4016    -4024    -3981    -4023    -4093    -4051    -4018 
   -4041    -4040    -4056    -4081    -4082    -4120    -4191    -4201 
   -4105    -4029    -4081    -4131    -4093    -4052    -4005    -3951 
   -3963    -3979    -3963    -4018    -4131    -4180    -4158    -4122 
   -4113    -4106    -4048    -3973    -3947    -3947    -3962    -4036 
   -4139    -4202    -4230    -4244    -4209    -4093    -3954    -3892 
   -3913    -3975    -4045    -4070    -4023    -3958    -3962    -4027 
   -4116    -4236    -4301    -4255    -4162    -3989    -3811    -3850 
   -4016    -4081    -4085    -4074    -4014    -3993    -4044    -4083 
   -4110    -4152    -4156    -4110    -4050    -4024    -4075    -4151 
   -4128    -4056    -4064    -4055    -3952    -3900    -3978    -4089 
   -4120    -4081    -4089    -4162    -4180    -4121    -4099    -4149 
   -4163    -4109    -4072    -4041    -3971    -3927    -3927    -3927 
   -3952    -4001    -4008    -3996    -4001    -4009    -4064    -4167 
   -4172    -4081    -4021    -4002    -4018    -4072    -4128    -4190 
   -4220    -4139    -4017    -3964    -3962    -3951    -3950    -3996 
   -4050    -4083    -4082    -4028    -3982    -3987    -4028    -4087 
   -4102    -4083    -4128    -4166    -4093    -4024    -4074    -4164 
   -4195    -4171    -4133    -4102    -4077    -4067    -4070    -4054 
   -4031    -4029    -4060    -4101    -4101    -4087    -4087    -4041 
   -3929    -3827    -3840    -3975    -4087    -4110    -4106    -4085 
   -4058    -4083    -4151    -4206    -4218    -4116    -3942    -3889 
   -3967    -4037    -4089    -4144    -4133    -4067    -4047    -4037 
   -4001    -4043    -4102    -4036    -3946    -3958    -4031    -4098 
   -4141    -4160    -4167    -4145    -4083    -4032    -4056    -4093 
   -4052    -3996    -3966    -3928    -3931    -3996    -4044    -4085 
   -4145    -4155    -4104    -4093    -4116    -4081    -4032    -4044 
   -4055    -4032    -4025    -4033    -4035    -4064    -4109    -4124 
   -4139    -4122    -4040    -4005    -4029    -4047    -4087    -4136 
   -4136    -4101    -4064    -4023    -3970    -3956    -3996    -4012 
   -3981    -3974    -4012    -4040    -4054    -4075    -4071    -4056 
   -4077    -4109    -4149    -4187    -4178    -4139    -4094    -4047 
   -4041    -4090    -4131    -4108    -4037    -4004    -4014    -3993 
   -3954    -3936    -3958    -4021    -4074    -4106    -4143    -4129 
   -4079    -4085    -4108    -4095    -4109    -4129    -4064    -3974 
   -3960    -4010    -4083    -4131    -4122    -4086    -4064    -4062 
   -4059    -4045    -4033    -4025    -4006    -4004    -4039    -4089 
   -4117    -4112    -4101    -4109    -4108    -4072    -4033    -4012 
   -3998    -3973    -3950    -3982    -4040    -4047    -4048    -4098 
   -4126    -4116    -4113    -4099    -4077    -4074    -4054    -4006 
   -4004    -4062    -4109    -4074    -4001    -4006    -4083    -4118 
   -4085    -4048    -4040    -4039    -4024    -4010    -4023    -4047 
   -4051    -4054    -4067    -4071    -4075    -4099    -4110    -4094 
   -4071    -4070    -4099    -4136    -4131    -4086    -4063    -4063 
   -4018    -3959    -3964    -4008    -4031    -4044    -4060    -4077 
   -4099    -4118    -4108    -4091    -4101    -4104    -4082    -4068 
   -4099    -4125    -4087    -4020    -4001    -4031    -4032    -3998 
   -4023    -4086    -4081    -4037    -4043    -4063    -4054    -4044 
   -4047    -4054    -4064    -4051    -4043    -4075    -4077    -4043 
   -4063    -4094    -4082    -4070    -4075    -4068    -4047    -4041 
   -4064    -4082    -4063    -4045    -4059    -4054    -4009    -3981 
   -3996    -4039    -4087    -4095    -4078    -4077    -4082    -4082 
   -4078    -4077    -4085    -4091    -4071    -4039    -4025    -4023 
   -4035    -4058    -4052    -4037    -4045    -4036    -4033    -4078 
   -4106    -4098    -4097    -4098    -4077    -4037    -4023    -4054 
   -4056    -4008    -4000    -4032    -4024    -3994    -4002    -4059 
   -4124    -4131    -4087    -4087    -4122    -4090    -4025    -4036 
   -4072    -4059    -4035    -4035    -4032    -4029    -4045    -4062 
   -4068    -4083    -4109    -4132    -4160    -4175    -4131    -4054 
   -4025    -4036    -4039    -4035    -4037    -4050    -4045    -4024 
   -4014    -4018    -4040    -4077    -4085    -4083    -4097    -4090 
   -4074    -4071    -4078    -4095    -4106    -4093    -4066    -4017 
   -3969    -3966    -4002    -4043    -4067    -4074    -4082    -4093 
   -4097    -4097    -4083    -4064    -4056    -4036    -4017    -4039 
   -4067    -4056    -4032    -4024    -4028    -4028    -4008    -3996 
   -4016    -4041    -4055    -4072    -4093    -4095    -4083    -4070 
   -4078    -4101    -4117    -4114    -4079    -4023    -3993    -4000 
