Origin Time       2025/03/30 10:46:00
Lat.              32.923
Long.             130.372
Depth. (km)       11
Mag.              3.4
Station Code      FKOH07
Station Lat.      33.3678
Station Long.     130.6354
Station Height(m) -422
Record Time       2025/03/30 10:46:37
Sampling Freq(Hz) 100Hz
Duration Time(s)  120
Dir.              1
Scale Factor      3923(gal)/8224838
Max. Acc. (gal)   0.134
Last Correction   2025/03/30 10:46:37
Memo.             
[...]
    2706     2708     2708     2709     2709     2706     2708     2709 
    2712     2712     2708     2706     2710     2708     2708     2710 
    2710     2706     2708     2710     2710     2708     2706     2706 
    2709     2709     2706     2706     2708     2708     2708     2706 
    2708     2712     2710     2708     2708     2708     2709     2708 
    2709     2709     2708     2708     2709     2708     2709     2706 
    2705     2708     2709     2709     2712     2708     2708     2713 
    2712     2705     2706     2708     2709     2710     2709     2708 
    2706     2708     2710     2708     2708     2709     2708     2708 
    2709     2708     2709     2712     2709     2706     2709     2709 
    2709     2709     2709     2708     2706     2708     2709     2709 
    2710     2710     2708     2708     2709     2708     2709     2708 
    2705     2706     2709     2708     2706     2706     2706     2709 
    2708     2708     2710     2709     2708     2708     2706     2706 
    2708     2709     2708     2708     2709     2708     2708     2709 
    2710     2709     2709     2709     2706     2706     2710     2709 
    2708     2708     2708     2709     2708     2704     2708     2710 
    2705     2705     2710     2710     2706     2706     2710     2709 
    2706     2705     2708     2709     2708     2708     2708     2708 
    2708     2708     2708     2709     2710     2709     2708     2706 
    2706     2709     2709     2709     2710     2710     2710     2708 
    2708     2708     2708     2709     2709     2706     2706     2709 
    2709     2709     2709     2710     2710     2708     2706     2709 
    2710     2706     2706     2710     2710     2708     2705     2706 
    2708     2706     2705     2706     2708     2709     2708     2706 
    2708     2706     2706     2708     2708     2708     2705     2706 
    2709     2708     2709     2712     2709     2708     2709     2708 
    2706     2709     2709     2706     2709     2710     2706     2709 
    2712     2708     2708     2710     2709     2709     2710     2709 
    2709     2710     2708     2708     2710     2708     2706     2709 
    2710     2710     2708     2706     2709     2710     2708     2708 
    2709     2706     2706     2709     2709     2706     2706     2706 
    2708     2712     2710     2706     2706     2709     2710     2708 
    2709     2712     2708     2705     2708     2710     2710     2709 
    2706     2708     2709     2709     2709     2709     2708     2706 
    2709     2709     2706     2706     2708     2710     2710     2708 
    2704     2705     2709     2706     2705     2708     2709     2705 
    2705     2709     2709     2709     2710     2710     2708     2706 
    2706     2706     2708     2709     2709     2709     2706     2706 
    2705     2705     2710     2710     2705     2705     2706     2708 
    2709     2709     2708     2706     2708     2708     2706     2706 
    2709     2708     2705     2706     2709     2708     2708     2710 
    2710     2706     2705     2709     2710     2710     2709     2706 
    2708     2708     2705     2705     2706     2708     2710     2710 
    2706     2709     2713     2709     2706     2710     2713     2710 
    2708     2709     2709     2708     2709     2709     2708     2708 
    2709     2708     2709     2710     2708     2706     2709     2709 
    2708     2709     2709     2710     2710     2708     2706     2709 
    2709     2708     2709     2709     2706     2708     2708     2709 
    2710     2708     2708     2712     2708     2702     2706     2709 
    2708     2710     2712     2706     2706     2708     2708     2709 
    2708     2708     2709     2708     2708     2706     2708     2710 
    2709     2708     2708     2708     2708     2708     2706     2705 
    2704     2708     2706     2705     2708     2709     2706     2709 
    2709     2706     2708     2709     2706     2708     2708     2708 
    2708     2706     2706     2709     2709     2709     2709     2706 
    2708     2709     2706     2708     2709     2708     2709     2712 
    2708     2705     2706     2710     2712     2709     2708     2710 
    2710     2708     2708     2710     2708     2708     2709     2708 
    2708     2712     2710     2708     2706     2706     2708     2708 
    2709     2710     2712     2710     2708     2708     2709     2709 
    2708     2708     2709     2706     2708     2710     2709     2709 
    2710     2709     2709     2706     2705     2708     2710     2710 
    2709     2708     2705     2706     2709     2709     2706     2706 
    2708     2709     2708     2706     2708     2708     2706     2708 
    2709     2710     2709     2706     2708     2709     2708     2709 
    2712     2709     2708     2708     2708     2710     2709     2708 
    2708     2709     2712     2710     2709     2708     2710     2710 
    2706     2705     2708     2709     2709     2708     2709     2708 
    2706     2708     2708     2709     2712     2712     2710     2709 
    2709     2709     2709     2709     2710     2710     2706     2705 
    2709     2712     2709     2708     2708     2709     2712     2710 
    2709     2709     2708     2710     2712     2706     2708     2713 
    2710     2710     2710     2709     2709     2709     2708     2706 
    2704     2706     2712     2709     2706     2712     2710     2706 
    2709     2709     2708     2709     2710     2710     2708     2706 
    2710     2712     2706     2705     2709     2710     2709     2710 
    2709     2705     2706     2709     2709     2709     2710     2709 
    2706     2706     2710     2712     2710     2706     2708     2710 
    2710     2708     2706     2709     2709     2706     2708     2709 
    2708     2709     2709     2706     2708     2709     2706     2706 
    2708     2708     2709     2709     2708     2706     2706     2706 
    2708     2708     2708     2706     2709     2708     2706     2706 
    2709     2706     2705     2710     2710     2708     2708     2708 
    2705     2705     2708     2708     2705     2708     2712     2709 
    2708     2708     2709     2709     2706     2709     2710     2706 
    2706     2709     2705     2704     2705     2708     2708     2708 
    2708     2708     2706     2708     2708     2706     2706     2708 
    2708     2708     2708     2708     2710     2708     2705     2706 
    2708     2706     2708     2709     2708     2708     2709     2708 
    2705     2706     2710     2710     2708     2708     2708     2706 
    2705     2708     2712     2709     2708     2709     2709     2708 
    2708     2708     2709     2708     2708     2709     2706     2706 
    2709     2710     2708     2706     2706     2705     2706     2709 
    2706     2705     2705     2701     2698     2695     2693     2693 
    2695     2698     2706     2725     2741     2739     2722     2718 
    2728     2728     2710     2690     2683     2683     2694     2712 
    2718     2722     2735     2740     2732     2725     2710     2685 
    2678     2694     2705     2700     2685     2673     2693     2728 
    2737     2729     2725     2720     2716     2718     2718     2706 
    2689     2678     2683     2706     2718     2705     2695     2700 
    2713     2732     2727     2697     2697     2733     2735     2695 
    2673     2675     2683     2694     2709     2727     2752     2752 
    2709     2686     2695     2706     2718     2725     2722     2709 
    2671     2660     2712     2748     2736     2714     2700     2691 
    2683     2690     2717     2725     2714     2725     2747     2756 
    2740     2700     2670     2654     2663     2716     2739     2722 
    2716     2704     2700     2706     2704     2698     2666     2655 
    2716     2741     2713     2727     2759     2735     2694     2702 
    2717     2690     2673     2697     2725     2732     2740     2755 
    2748     2709     2664     2655     2679     2705     2722     2733 
    2731     2701     2655     2674     2763     2797     2736     2662 
    2636     2677     2729     2740     2727     2706     2702     2713 
    2689     2675     2720     2725     2683     2694     2728     2718 
    2705     2708     2709     2705     2702     2706     2710     2714 
    2721     2728     2728     2720     2702     2690     2691     2701 
    2698     2693     2714     2727     2700     2685     2701     2710 
    2710     2724     2733     2720     2716     2722     2702     2678 
    2690     2701     2689     2690     2725     2764     2772     2731 
    2671     2662     2693     2717     2709     2682     2681     2701 
    2716     2739     2749     2720     2702     2720     2691     2644 
    2683     2725     2713     2735     2762     2720     2685     2687 
    2681     2689     2706     2701     2714     2744     2752     2754 
    2721     2660     2636     2666     2694     2690     2709     2766 
    2776     2755     2735     2691     2681     2713     2710     2700 
    2714     2697     2662     2678     2706     2706     2724     2741 
    2712     2681     2691     2702     2687     2693     2701     2681 
    2700     2755     2754     2717     2713     2721     2708     2683 
    2690     2732     2754     2733     2710     2690     2673     2682 
    2708     2721     2722     2713     2678     2654     2679     2720 
    2740     2745     2727     2710     2720     2714     2697     2708 
    2728     2718     2691     2678     2693     2710     2697     2693 
    2717     2732     2733     2729     2720     2701     2673     2677 
    2724     2752     2727     2679     2677     2724     2741     2705 
    2668     2668     2709     2732     2697     2700     2754     2754 
    2701     2663     2660     2700     2747     2758     2744     2735 
    2729     2710     2689     2683     2683     2686     2706     2716 
    2690     2674     2689     2713     2740     2745     2736     2724 
    2690     2670     2687     2706     2727     2754     2747     2702 
    2693     2717     2697     2666     2682     2695     2694     2708 
    2700     2681     2682     2700     2743     2767     2741     2724 
    2713     2702     2717     2701     2664     2695     2729     2710 
    2714     2733     2720     2706     2700     2690     2691     2705 
    2724     2739     2735     2718     2721     2722     2673     2637 
    2674     2713     2720     2722     2710     2704     2716     2708 
    2687     2694     2709     2717     2713     2691     2682     2700 
    2721     2735     2722     2701     2712     2733     2721     2705 
    2709     2729     2732     2708     2691     2697     2700     2691 
    2691     2708     2704     2674     2685     2722     2732     2735 
    2736     2708     2690     2716     2729     2691     2668     2710 
    2756     2743     2695     2678     2689     2706     2724     2717 
    2697     2697     2704     2697     2686     2675     2683     2717 
    2745     2741     2725     2717     2705     2712     2749     2754 
    2714     2686     2681     2695     2714     2710     2697     2694 
    2705     2721     2722     2693     2678     2700     2708     2706 
    2716     2716     2720     2733     2716     2686     2687     2705 
    2717     2704     2674     2686     2733     2743     2716     2689 
    2666     2677     2717     2729     2717     2718     2722     2718 
    2702     2698     2717     2713     2694     2694     2705     2721 
    2733     2739     2731     2705     2697     2706     2695     2689 
    2694     2686     2685     2702     2714     2721     2736     2748 
    2731     2698     2704     2727     2713     2682     2664     2655 
    2674     2713     2725     2700     2695     2728     2741     2729 
    2721     2697     2678     2698     2714     2716     2731     2747 
    2728     2693     2695     2725     2718     2689     2683     2695 
    2706     2693     2674     2690     2698     2687     2704     2712 
    2697     2702     2724     2747     2758     2743     2720     2704 
    2709     2717     2706     2697     2683     2691     2744     2763 
    2721     2678     2666     2679     2687     2677     2677     2695 
    2706     2710     2724     2737     2745     2725     2679     2671 
    2721     2770     2770     2733     2712     2716     2694     2660 
    2660     2652     2666     2743     2785     2756     2736     2732 
    2714     2694     2668     2663     2693     2708     2693     2704 
    2717     2693     2691     2713     2700     2682     2694     2694 
    2685     2718     2747     2716     2701     2724     2731     2732 
    2739     2739     2744     2736     2682     2628     2623     2641 
    2651     2650     2662     2694     2743     2798     2839     2853 
    2857     2837     2770     2697     2678     2690     2674     2639 
    2635     2658     2639     2594     2610     2690     2809     2920 
    2961     2947     2883     2751     2609     2520     2463     2436 
    2434     2474     2604     2725     2725     2728     2809     2839 
    2790     2743     2720     2712     2654     2558     2546     2614 
    2656     2686     2772     2875     2922     2945     2960     2867 
    2667     2519     2500     2569     2654     2733     2830     2851 
    2717     2562     2501     2512     2609     2775     2874     2884 
    2880     2868     2817     2735     2673     2674     2731     2781 
    2764     2708     2652     2567     2458     2427     2531     2686 
    2809     2870     2860     2833     2817     2771     2714     2717 
    2741     2686     2594     2585     2627     2625     2602     2643 
    2767     2887     2917     2866     2785     2718     2681     2655 
    2623     2598     2613     2663     2683     2658     2650     2674 
    2678     2687     2739     2801     2870     2933     2920     2817 
    2725     2714     2724     2671     2600     2555     2532     2598 
    2744     2814     2802     2801     2755     2654     2571     2524 
    2571     2677     2695     2654     2639     2662     2706     2747 
    2825     2929     2938     2855     2776     2739     2725     2709 
    2662     2613     2604     2570     2501     2529     2675     2826 
    2871     2787     2701     2710     2755     2749     2666     2574 
    2582     2662     2709     2698     2654     2620     2623     2646 
    2667     2691     2725     2764     2798     2822     2821     2812 
    2852     2891     2799     2628     2554     2608     2686     2733 
    2747     2763     2764     2698     2624     2609     2616     2656 
    2771     2884     2901     2830     2717     2578     2475     2505 
    2660     2785     2779     2776     2844     2836     2718     2635 
    2632     2664     2729     2810     2809     2693     2590     2573 
    2600     2658     2706     2693     2675     2717     2775     2797 
    2805     2810     2770     2700     2664     2686     2739     2771 
    2737     2651     2593     2601     2639     2677     2728     2778 
    2766     2693     2632     2623     2644     2668     2714     2801 
    2866     2826     2731     2656     2606     2590     2617     2644 
    2667     2737     2825     2853     2841     2833     2835     2824 
    2754     2652     2621     2644     2640     2620     2619     2619 
    2625     2667     2697     2650     2606     2644     2700     2733 
    2752     2756     2762     2749     2733     2751     2748     2720 
    2731     2739     2714     2708     2690     2664     2721     2783 
    2735     2668     2668     2705     2751     2764     2744     2740 
    2716     2619     2556     2631     2739     2732     2640     2621 
    2721     2797     2789     2805     2840     2808     2745     2705 
    2695     2716     2724     2701     2668     2613     2573     2605 
    2659     2687     2679     2635     2608     2644     2714     2770 
    2782     2774     2775     2776     2775     2766     2747     2756 
    2768     2731     2690     2682     2651     2625     2643     2662 
    2694     2756     2791     2795     2797     2768     2705     2659 
    2648     2637     2619     2636     2694     2732     2721     2682 
    2659     2664     2663     2639     2641     2694     2749     2772 
    2776     2764     2716     2670     2698     2755     2752     2721 
    2716     2728     2758     2782     2760     2727     2691     2651 
    2656     2697     2721     2732     2724     2691     2700     2760 
    2785     2754     2714     2673     2654     2678     2698     2685 
    2673     2662     2658     2691     2737     2747     2736     2729 
    2694     2650     2652     2673     2677     2701     2721     2700 
    2677     2667     2670     2701     2741     2754     2745     2748 
    2767     2789     2772     2714     2675     2685     2700     2708 
    2712     2700     2701     2725     2731     2721     2728     2739 
    2725     2670     2613     2605     2616     2620     2646     2698 
    2751     2803     2857     2874     2824     2745     2675     2636 
    2659     2712     2727     2704     2689     2678     2663     2656 
    2640     2627     2678     2758     2767     2735     2705     2656 
    2643     2693     2754     2793     2785     2740     2702     2671 
    2647     2655     2701     2758     2770     2735     2714     2736 
    2758     2747     2729     2728     2702     2664     2670     2701 
    2721     2724     2700     2659     2635     2636     2656     2668 
    2678     2709     2747     2779     2813     2826     2794     2732 
    2687     2690     2702     2691     2694     2716     2702     2670 
    2663     2666     2677     2685     2663     2660     2701     2736 
    2752     2744     2709     2673     2663     2702     2759     2768 
    2732     2695     2681     2683     2694     2718     2763     2797 
    2781     2720     2656     2633     2670     2720     2745     2754 
    2740     2720     2724     2710     2673     2675     2694     2687 
    2691     2714     2727     2735     2740     2718     2683     2668 
    2659     2647     2666     2701     2717     2709     2700     2700 
    2698     2701     2727     2749     2747     2735     2716     2690 
    2690     2722     2737     2740     2759     2758     2731     2725 
    2710     2671     2667     2709     2736     2722     2679     2644 
    2659     2706     2744     2758     2754     2737     2716     2701 
    2698     2710     2718     2713     2712     2708     2678     2666 
    2690     2712     2714     2697     2670     2664     2686     2702 
    2701     2705     2717     2710     2700     2716     2731     2731 
    2744     2776     2782     2741     2708     2694     2678     2667 
    2675     2687     2689     2671     2647     2651     2686     2722 
    2754     2775     2758     2709     2681     2670     2670     2690 
    2700     2690     2705     2739     2749     2748     2751     2752 
    2754     2755     2744     2731     2713     2697     2698     2697 
    2677     2673     2681     2674     2678     2697     2710     2728 
    2741     2737     2735     2737     2718     2667     2628     2629 
    2647     2663     2683     2706     2732     2751     2764     2786 
    2798     2781     2749     2717     2693     2695     2690     2651 
