Origin Time       2025/03/30 10:46:00
Lat.              32.923
Long.             130.372
Depth. (km)       11
Mag.              3.4
Station Code      FKOH10
Station Lat.      33.2891
Station Long.     130.8170
Station Height(m) 190
Record Time       2025/03/30 10:46:37
Sampling Freq(Hz) 100Hz
Duration Time(s)  120
Dir.              5
Scale Factor      7845(gal)/8223790
Max. Acc. (gal)   0.618
Last Correction   2025/03/30 10:46:38
Memo.             
[...]
   10223    10226    10226    10220    10222    10224    10222    10219 
   10219    10226    10224    10222    10224    10223    10219    10220 
   10222    10220    10222    10224    10220    10219    10226    10224 
   10219    10224    10226    10218    10218    10228    10230    10219 
   10219    10226    10226    10222    10224    10224    10222    10220 
   10222    10226    10224    10223    10222    10222    10224    10222 
   10219    10226    10226    10220    10220    10222    10223    10226 
   10227    10220    10216    10222    10224    10224    10226    10222 
   10218    10220    10222    10226    10226    10222    10224    10226 
   10219    10220    10224    10220    10220    10223    10223    10223 
   10226    10223    10219    10222    10223    10220    10223    10224 
   10223    10223    10223    10222    10224    10226    10220    10218 
   10222    10224    10223    10222    10222    10222    10222    10223 
   10224    10224    10223    10222    10219    10220    10222    10224 
   10226    10222    10218    10222    10223    10223    10222    10219 
   10220    10222    10223    10227    10226    10222    10224    10223 
   10220    10226    10227    10223    10222    10220    10222    10226 
   10226    10223    10223    10219    10218    10223    10228    10224 
   10220    10222    10222    10224    10227    10223    10222    10224 
   10223    10222    10224    10227    10223    10219    10222    10224 
   10223    10220    10223    10223    10219    10222    10228    10224 
   10220    10223    10220    10218    10223    10222    10223    10226 
   10223    10220    10223    10223    10227    10230    10220    10219 
   10224    10222    10222    10226    10224    10220    10222    10224 
   10223    10222    10224    10226    10223    10224    10226    10222 
   10220    10224    10226    10223    10223    10226    10223    10220 
   10220    10222    10224    10223    10219    10222    10222    10219 
   10226    10230    10223    10219    10223    10223    10220    10224 
   10227    10220    10218    10224    10226    10223    10222    10218 
   10220    10226    10224    10222    10224    10224    10219    10218 
   10227    10227    10219    10219    10224    10220    10220    10227 
   10226    10222    10219    10220    10224    10223    10223    10224 
   10219    10219    10224    10222    10222    10226    10224    10219 
   10220    10222    10220    10223    10224    10219    10220    10223 
   10222    10222    10220    10222    10224    10222    10222    10224 
   10222    10220    10218    10220    10228    10223    10218    10222 
   10219    10220    10228    10223    10223    10226    10220    10220 
   10226    10226    10223    10222    10220    10219    10222    10227 
   10226    10223    10224    10220    10218    10226    10226    10222 
   10223    10222    10220    10226    10228    10223    10220    10222 
   10219    10222    10228    10223    10219    10219    10220    10223 
   10226    10226    10223    10220    10220    10218    10223    10228 
   10220    10216    10223    10224    10222    10222    10223    10223 
   10223    10223    10224    10223    10226    10226    10220    10219 
   10223    10224    10224    10223    10222    10223    10224    10224 
   10224    10223    10222    10220    10224    10226    10219    10219 
   10226    10222    10219    10226    10228    10222    10218    10219 
   10223    10226    10224    10223    10223    10220    10219    10223 
   10226    10223    10222    10222    10220    10220    10224    10220 
   10220    10226    10223    10220    10223    10222    10220    10223 
   10222    10222    10224    10224    10222    10222    10223    10224 
   10224    10224    10223    10219    10220    10224    10222    10222 
   10223    10220    10223    10223    10219    10223    10223    10222 
   10223    10222    10222    10224    10223    10226    10226    10219 
   10222    10226    10222    10220    10222    10223    10220    10219 
   10224    10227    10223    10224    10223    10218    10220    10226 
   10224    10224    10222    10219    10222    10222    10226    10227 
   10220    10222    10226    10222    10222    10224    10222    10219 
   10223    10223    10220    10224    10224    10224    10223    10222 
   10224    10223    10218    10220    10223    10220    10222    10224 
   10224    10223    10219    10222    10224    10224    10224    10223 
   10220    10226    10227    10220    10222    10228    10222    10216 
   10224    10230    10222    10218    10223    10223    10220    10224 
   10226    10220    10220    10224    10220    10219    10226    10223 
   10219    10223    10223    10219    10227    10226    10219    10222 
   10223    10219    10222    10224    10223    10223    10223    10222 
   10222    10226    10226    10223    10223    10224    10223    10223 
   10224    10222    10220    10223    10223    10224    10224    10223 
   10224    10226    10220    10222    10223    10224    10224    10219 
   10220    10224    10220    10222    10224    10220    10220    10222 
   10220    10222    10224    10222    10222    10223    10222    10222 
   10224    10226    10223    10220    10222    10224    10224    10223 
   10222    10220    10223    10223    10219    10223    10226    10220 
   10219    10222    10223    10226    10223    10220    10222    10223 
   10223    10224    10222    10222    10222    10222    10224    10223 
   10223    10224    10224    10223    10222    10223    10227    10223 
   10219    10224    10223    10218    10226    10227    10219    10222 
   10222    10220    10224    10224    10223    10223    10222    10224 
   10224    10222    10223    10223    10220    10220    10220    10226 
   10227    10220    10220    10226    10223    10224    10224    10219 
   10222    10223    10219    10224    10226    10219    10222    10224 
   10222    10224    10224    10222    10220    10219    10222    10227 
   10224    10218    10218    10223    10224    10223    10224    10224 
   10219    10219    10226    10224    10222    10226    10223    10219 
   10222    10223    10222    10224    10224    10220    10219    10223 
   10224    10222    10222    10226    10223    10220    10226    10227 
   10220    10222    10226    10222    10222    10224    10222    10222 
   10223    10223    10222    10223    10223    10223    10223    10224 
   10223    10222    10223    10223    10223    10220    10220    10223 
   10222    10220    10223    10226    10223    10222    10223    10222 
   10222    10220    10222    10223    10224    10223    10226    10224 
   10222    10224    10223    10222    10223    10223    10218    10219 
   10224    10223    10222    10226    10224    10219    10219    10220 
   10214    10203    10193    10192    10212    10254    10292    10299 
   10265    10211    10160    10138    10160    10206    10251    10296 
   10315    10291    10238    10174    10134    10158    10235    10289 
   10266    10192    10127    10118    10203    10319    10336    10254 
   10173    10139    10174    10266    10316    10274    10220    10211 
   10204    10196    10214    10215    10206    10255    10308    10258 
   10181    10166    10157    10164    10280    10373    10268    10119 
   10092    10102    10146    10297    10416    10408    10349    10196 
    9992     9956    10085    10233    10417    10562    10465    10206 
   10017     9957    10041    10247    10407    10395    10253    10098 
   10038    10129    10318    10449    10369    10170    10071    10073 
   10126    10274    10408    10382    10303    10242    10115    10022 
   10110    10223    10264    10384    10459    10265    10064    10069 
   10111    10189    10307    10273    10193    10234    10235    10177 
   10211    10227    10164    10200    10318    10358    10342    10277 
   10116    10030    10154    10289    10304    10319    10300    10158 
   10072    10120    10152    10199    10330    10399    10323    10207 
   10122    10073    10110    10230    10324    10376    10376    10230 
   10044    10041    10181    10330    10416    10350    10158    10061 
   10154    10277    10292    10251    10204    10145    10161    10268 
   10292    10204    10152    10162    10207    10277    10269    10157 
   10130    10272    10409    10413    10278    10069     9977    10106 
   10332    10504    10440    10123     9900    10003    10243    10411 
   10427    10264    10053    10004    10142    10316    10377    10305 
   10191    10110    10131    10251    10326    10307    10266    10201 
   10158    10231    10289    10180    10085    10165    10297    10381 
   10369    10222    10068    10035    10085    10228    10430    10454 
   10254    10088    10087    10166    10272    10341    10272    10123 
   10088    10170    10242    10308    10373    10350    10239    10114 
   10015    10019    10162    10343    10462    10458    10276    10042 
   10003    10125    10243    10355    10396    10258    10127    10157 
   10177    10169    10273    10336    10238    10193    10245    10197 
   10134    10210    10288    10277    10260    10215    10139    10135 
   10168    10201    10308    10380    10262    10116    10126    10189 
   10245    10335    10334    10189    10110    10165    10260    10327 
   10278    10146    10107    10180    10269    10328    10288    10173 
   10135    10201    10257    10274    10251    10157    10115    10246 
   10369    10315    10170    10052    10053    10218    10411    10451 
   10311    10089     9965    10064    10305    10467    10416    10185 
    9969     9996    10260    10477    10451    10264    10077    10011 
   10154    10378    10400    10210    10057    10068    10188    10328 
   10388    10284    10091    10027    10174    10368    10415    10303 
   10166    10096    10096    10203    10323    10288    10199    10233 
   10292    10270    10239    10191    10085    10088    10258    10346 
   10284    10268    10249    10116    10052    10181    10314    10314 
   10274    10250    10192    10161    10196    10200    10181    10230 
   10278    10257    10239    10274    10292    10250    10215    10201 
   10146    10114    10154    10191    10254    10351    10322    10224 
   10230    10234    10169    10158    10188    10189    10223    10277 
   10260    10224    10241    10224    10166    10164    10196    10228 
   10282    10296    10258    10242    10203    10116    10118    10203 
   10253    10312    10404    10351    10157    10065    10110    10154 
   10227    10336    10328    10226    10215    10260    10233    10192 
   10168    10127    10169    10305    10357    10304    10238    10127 
   10069    10197    10331    10315    10249    10168    10091    10154 
   10303    10301    10173    10143    10222    10287    10350    10351 
   10170     9996    10064    10276    10415    10385    10227    10058 
   10011    10161    10389    10478    10366    10127     9973    10077 
   10281    10357    10330    10230    10102    10108    10226    10273 
   10214    10156    10193    10308    10382    10341    10188    10023 
   10008    10196    10439    10527    10369    10076     9884     9950 
   10210    10438    10453    10299    10154    10119    10197    10281 
   10251    10192    10196    10235    10338    10400    10234    10038 
   10081    10210    10261    10273    10206    10069    10075    10287 
   10474    10451    10266    10054     9957    10065    10291    10424 
   10365    10206    10103    10116    10206    10311    10322    10201 
   10122    10201    10318    10354    10303    10189    10102    10110 
   10176    10249    10289    10243    10160    10158    10253    10323 
   10272    10157    10104    10173    10309    10386    10324    10199 
   10104    10077    10165    10318    10353    10238    10137    10143 
   10234    10345    10362    10260    10135    10091    10143    10226 
   10268    10274    10237    10181    10201    10276    10285    10215 
   10138    10139    10231    10308    10303    10238    10126    10056 
   10150    10320    10380    10300    10162    10065    10112    10273 
   10399    10365    10181    10038    10106    10278    10345    10285 
   10195    10131    10166    10324    10432    10322    10095     9999 
   10102    10258    10362    10376    10242    10076    10084    10212 
   10281    10289    10260    10187    10173    10265    10318    10242 
   10137    10111    10174    10314    10428    10361    10172    10044 
   10027    10164    10380    10413    10241    10087    10038    10119 
   10319    10422    10320    10183    10134    10166    10260    10304 
   10188    10062    10099    10226    10347    10420    10350    10189 
   10088    10079    10193    10374    10366    10156    10049    10143 
   10284    10366    10345    10226    10133    10158    10238    10270 
   10230    10135    10076    10156    10303    10363    10301    10165 
   10071    10143    10318    10403    10328    10158    10025    10075 
   10287    10420    10345    10176    10060    10060    10160    10246 
   10224    10147    10135    10215    10314    10382    10362    10238 
   10180    10277    10358    10342    10309    10251    10170    10152 
   10180    10215    10287    10335    10292    10216    10142    10099 
   10173    10284    10253    10152    10130    10161    10242    10366 
   10357    10176    10041    10061    10208    10409    10480    10305 
   10031     9919    10098    10407    10585    10523    10215     9791 
    9574     9738    10098    10380    10446    10358    10307    10354 
   10419    10467    10451    10358    10322    10359    10318    10139 
    9883     9676     9717    10058    10476    10681    10608    10374 
   10126     9992    10021    10162    10359    10488    10420    10210 
    9965     9776     9791    10073    10465    10732    10708    10422 
   10099     9941     9976    10125    10312    10434    10400    10285 
   10185    10076     9969     9929     9995    10183    10405    10532 
   10501    10322    10164    10193    10288    10289    10227    10127 
   10023    10057    10249    10377    10282    10123    10103    10180 
   10262    10331    10304    10161    10019     9984    10110    10327 
   10430    10326    10134    10069    10245    10496    10608    10547 
   10324    10042     9923    10072    10323    10412    10274    10062 
    9931     9984    10234    10476    10523    10413    10241    10096 
   10103    10222    10265    10162    10050    10106    10324    10500 
   10427    10201    10110    10179    10218    10176    10057     9869 
    9844    10160    10542    10644    10503    10250     9956     9821 
    9910    10053    10241    10478    10536    10390    10274    10270 
   10335    10408    10381    10233    10058     9946     9950    10066 
   10230    10372    10400    10254    10071    10035    10107    10197 
   10346    10453    10388    10305    10332    10338    10226    10060 
    9957    10034    10261    10416    10339    10137    10041    10164 
   10405    10532    10409    10126     9923    10031    10377    10590 
   10476    10185     9934     9863    10021    10278    10422    10400 
   10342    10305    10254    10156     9991     9844     9895    10143 
   10386    10494    10424    10211    10035    10075    10274    10446 
   10442    10231     9983     9914    10037    10237    10443    10574 
   10517    10309    10129    10025     9938     9995    10270    10470 
   10395    10231    10146    10129    10212    10411    10557    10440 
   10102     9833     9853    10112    10411    10554    10444    10192 
   10045    10102    10233    10322    10314    10133     9903     9907 
   10125    10332    10490    10582    10520    10336    10103     9917 
    9954    10184    10357    10396    10396    10316    10122     9998 
   10066    10199    10291    10335    10274    10137    10068    10096 
   10133    10180    10288    10392    10392    10280    10131    10050 
   10083    10191    10328    10428    10384    10231    10131    10147 
   10215    10233    10153    10096    10180    10320    10372    10282 
   10092     9948    10006    10253    10515    10602    10436    10161 
   10044    10179    10409    10512    10376    10065     9783     9764 
   10058    10407    10509    10353    10137    10062    10199    10382 
   10426    10336    10207    10142    10237    10365    10297    10077 
    9925     9931    10111    10359    10417    10214    10023    10084 
   10309    10504    10534    10330    10010     9873    10061    10366 
   10516    10440    10226    10004     9944    10064    10214    10314 
   10376    10343    10247    10214    10218    10170    10133    10200 
   10312    10380    10393    10351    10239    10120    10065    10079 
   10110    10110    10138    10277    10424    10426    10296    10160 
   10116    10195    10309    10324    10199    10050    10003    10118 
   10332    10463    10412    10264    10126    10065    10114    10192 
   10210    10207    10273    10349    10304    10172    10073    10080 
   10197    10357    10440    10358    10161    10037    10081    10206 
   10293    10270    10166    10130    10212    10319    10349    10226 
    9995     9900    10081    10384    10584    10559    10307    10017 
    9956    10157    10376    10405    10269    10100    10065    10250 
   10486    10485    10223     9965     9931    10114    10359    10474 
   10358    10118     9964    10027    10278    10498    10471    10250 
   10061    10035    10137    10245    10273    10231    10183    10169 
   10191    10216    10212    10170    10135    10183    10318    10411 
   10347    10180    10083    10138    10274    10395    10443    10376 
   10204    10039    10021    10177    10359    10403    10322    10192 
   10057    10008    10100    10242    10324    10304    10203    10116 
   10118    10183    10243    10265    10265    10255    10243    10253 
   10285    10309    10300    10230    10135    10137    10235    10285 
   10243    10193    10158    10156    10220    10296    10300    10231 
   10160    10139    10179    10245    10272    10249    10216    10203 
   10237    10281    10254    10195    10170    10150    10153    10233 
   10311    10297    10216    10120    10075    10143    10288    10392 
   10388    10296    10169    10060    10041    10161    10336    10408 
   10358    10269    10172    10104    10108    10130    10150    10203 
   10238    10230    10262    10320    10311    10264    10253    10273 
   10300    10278    10180    10104    10134    10220    10303    10331 
   10261    10142    10065    10075    10173    10299    10335    10268 
   10192    10179    10197    10201    10184    10187    10224    10254 
   10264    10276    10272    10238    10207    10207    10235    10237 
   10181    10146    10181    10251    10311    10322    10288    10261 
   10247    10245    10280    10292    10208    10098    10077    10153 
   10261    10308    10238    10131    10126    10224    10331    10373 
   10326    10220    10130    10120    10197    10266    10242    10173 
   10134    10143    10211    10280    10276    10224    10170    10145 
   10192    10258    10249    10220    10237    10250    10261    10274 
   10243    10193    10193    10207    10195    10193    10196    10173 
   10181    10251    10296    10251    10184    10168    10192    10223 
