Origin Time       2025/03/30 10:46:00
Lat.              32.923
Long.             130.372
Depth. (km)       11
Mag.              3.4
Station Code      FKOH10
Station Lat.      33.2891
Station Long.     130.8170
Station Height(m) -10
Record Time       2025/03/30 10:46:37
Sampling Freq(Hz) 100Hz
Duration Time(s)  120
Dir.              3
Scale Factor      2942(gal)/8224139
Max. Acc. (gal)   0.191
Last Correction   2025/03/30 10:46:38
Memo.             
[...]
   44389    44388    44389    44394    44393    44389    44389    44389 
   44389    44390    44392    44390    44389    44388    44389    44390 
   44386    44385    44390    44389    44386    44389    44390    44389 
   44386    44388    44390    44389    44383    44385    44389    44390 
   44390    44386    44386    44390    44389    44385    44389    44390 
   44386    44388    44390    44389    44388    44388    44385    44386 
   44390    44390    44388    44389    44388    44386    44390    44392 
   44389    44386    44386    44386    44388    44389    44388    44386 
   44388    44390    44390    44389    44388    44386    44389    44389 
   44388    44386    44388    44386    44386    44390    44390    44389 
   44389    44389    44386    44388    44390    44389    44385    44386 
   44388    44388    44389    44389    44386    44388    44389    44389 
   44390    44389    44386    44386    44390    44389    44388    44390 
   44393    44389    44385    44388    44392    44389    44386    44388 
   44389    44386    44386    44388    44386    44388    44389    44386 
   44386    44386    44385    44388    44390    44386    44386    44385 
   44385    44388    44388    44388    44389    44388    44388    44388 
   44385    44386    44388    44388    44389    44389    44389    44388 
   44388    44386    44385    44386    44388    44388    44389    44389 
   44386    44385    44388    44389    44386    44388    44392    44388 
   44386    44390    44388    44383    44388    44389    44388    44389 
   44388    44385    44388    44388    44388    44388    44388    44386 
   44388    44388    44388    44386    44386    44388    44388    44386 
   44389    44389    44388    44390    44392    44386    44383    44388 
   44388    44385    44388    44390    44388    44388    44389    44386 
   44385    44388    44388    44386    44389    44385    44382    44386 
   44388    44383    44383    44388    44388    44385    44383    44385 
   44388    44388    44386    44385    44385    44385    44385    44386 
   44388    44388    44386    44388    44388    44386    44388    44389 
   44388    44388    44389    44386    44386    44389    44388    44386 
   44388    44389    44389    44389    44390    44392    44390    44386 
   44388    44389    44386    44389    44390    44385    44386    44388 
   44388    44389    44389    44388    44388    44388    44388    44390 
   44390    44389    44389    44388    44388    44388    44388    44388 
   44386    44383    44386    44390    44389    44388    44389    44388 
   44388    44392    44388    44388    44390    44389    44383    44385 
   44390    44390    44389    44390    44389    44388    44389    44390 
   44389    44389    44389    44388    44386    44386    44389    44392 
   44390    44386    44388    44390    44388    44389    44388    44386 
   44389    44390    44386    44386    44389    44390    44389    44389 
   44390    44389    44389    44392    44390    44389    44390    44389 
   44388    44388    44388    44392    44393    44389    44388    44389 
   44390    44388    44386    44389    44389    44386    44390    44393 
   44388    44388    44389    44388    44389    44390    44390    44390 
   44386    44386    44388    44386    44386    44388    44388    44389 
   44390    44388    44386    44390    44389    44386    44388    44388 
   44390    44389    44386    44390    44393    44388    44388    44390 
   44388    44386    44389    44390    44390    44388    44388    44389 
   44389    44389    44389    44389    44390    44388    44386    44386 
   44388    44389    44390    44389    44388    44388    44386    44388 
   44390    44389    44385    44389    44393    44390    44386    44388 
   44386    44388    44392    44386    44383    44389    44390    44386 
   44385    44385    44389    44390    44388    44389    44392    44390 
   44388    44385    44386    44388    44388    44386    44386    44389 
   44389    44386    44388    44389    44386    44386    44388    44386 
   44389    44389    44386    44390    44392    44389    44389    44389 
   44390    44392    44390    44390    44389    44385    44385    44389 
   44389    44385    44385    44388    44386    44388    44388    44386 
   44389    44390    44385    44385    44389    44388    44386    44389 
   44388    44386    44386    44389    44388    44386    44390    44392 
   44389    44389    44388    44388    44390    44390    44388    44389 
   44389    44388    44389    44390    44392    44388    44383    44386 
   44389    44390    44389    44389    44390    44388    44389    44393 
   44390    44388    44388    44388    44389    44389    44392    44392 
   44390    44390    44390    44389    44388    44389    44389    44386 
   44386    44388    44385    44388    44390    44388    44389    44390 
   44388    44389    44389    44388    44386    44388    44385    44386 
   44389    44388    44389    44389    44389    44392    44393    44389 
   44389    44388    44386    44390    44389    44389    44392    44392 
   44388    44389    44388    44383    44386    44390    44390    44389 
   44390    44390    44388    44388    44389    44389    44389    44389 
   44388    44388    44389    44386    44386    44389    44389    44386 
   44386    44390    44392    44388    44386    44389    44386    44386 
   44389    44388    44388    44389    44388    44390    44392    44386 
   44385    44390    44390    44389    44389    44386    44386    44389 
   44389    44390    44390    44392    44390    44388    44386    44389 
   44390    44388    44386    44388    44388    44388    44385    44379 
   44369    44350    44325    44304    44302    44342    44421    44500 
   44541    44544    44505    44419    44321    44248    44213    44240 
   44342    44458    44508    44500    44483    44467    44456    44469 
   44442    44335    44216    44165    44239    44421    44551    44531 
   44452    44386    44313    44269    44324    44427    44436    44382 
   44401    44446    44420    44420    44501    44504    44363    44217 
   44166    44193    44269    44390    44548    44652    44586    44442 
   44393    44324    44147    44112    44294    44478    44605    44687 
   44598    44351    44154    44124    44213    44383    44571    44616 
   44478    44300    44239    44339    44483    44567    44510    44302 
   44165    44155    44177    44413    44683    44540    44320    44361 
   44351    44319    44477    44577    44496    44420    44340    44205 
   44271    44540    44587    44390    44259    44165    44132    44354 
   44594    44633    44602    44455    44262    44348    44540    44448 
   44267    44236    44190    44154    44347    44577    44570    44529 
   44520    44311    44181    44351    44463    44459    44496    44428 
   44271    44213    44261    44377    44529    44582    44437    44238 
   44244    44417    44516    44523    44462    44336    44354    44460 
   44382    44289    44390    44443    44336    44246    44235    44273 
   44456    44755    44788    44467    44211    44134    44146    44319 
   44471    44446    44402    44378    44397    44490    44440    44288 
   44354    44483    44416    44371    44425    44356    44259    44320 
   44448    44541    44512    44294    44140    44271    44481    44529 
   44431    44392    44493    44475    44358    44402    44437    44315 
   44235    44223    44251    44415    44563    44529    44451    44350 
   44204    44297    44543    44485    44304    44338    44329    44275 
   44419    44541    44500    44405    44309    44323    44425    44425 
   44370    44365    44385    44455    44510    44456    44410    44420 
   44378    44284    44200    44231    44401    44525    44575    44602 
   44433    44189    44219    44361    44386    44428    44451    44313 
   44254    44442    44543    44448    44474    44494    44301    44194 
   44281    44396    44498    44463    44319    44336    44460    44433 
   44348    44427    44479    44325    44220    44284    44350    44392 
   44443    44497    44536    44498    44389    44290    44244    44290 
   44421    44482    44421    44386    44363    44316    44377    44491 
   44458    44320    44284    44332    44329    44354    44486    44566 
   44516    44435    44370    44352    44371    44315    44255    44358 
   44442    44402    44427    44424    44351    44435    44510    44402 
   44367    44377    44219    44130    44351    44621    44639    44479 
   44325    44248    44294    44413    44512    44490    44253    44096 
   44309    44521    44483    44467    44497    44404    44301    44325 
   44437    44512    44412    44246    44227    44315    44373    44383 
   44432    44551    44558    44377    44273    44356    44394    44354 
   44437    44523    44412    44302    44335    44350    44323    44342 
   44361    44358    44373    44382    44405    44479    44551    44531 
   44412    44331    44371    44405    44340    44278    44278    44263 
   44238    44346    44554    44667    44647    44533    44408    44385 
   44323    44146    44174    44390    44423    44324    44316    44377 
   44475    44593    44659    44574    44335    44199    44239    44284 
   44336    44385    44375    44367    44348    44335    44355    44362 
   44435    44571    44539    44381    44374    44458    44369    44197 
   44231    44359    44325    44285    44365    44471    44575    44585 
   44497    44427    44338    44231    44270    44477    44567    44409 
   44297    44300    44294    44402    44462    44358    44405    44498 
   44397    44373    44502    44494    44319    44227    44309    44393 
   44390    44350    44282    44267    44339    44454    44591    44610 
   44455    44325    44321    44377    44437    44469    44424    44282 
   44159    44217    44382    44475    44500    44448    44312    44259 
   44347    44467    44531    44433    44282    44350    44491    44454 
   44433    44467    44377    44317    44375    44389    44350    44261 
   44163    44257    44485    44617    44601    44504    44378    44296 
   44383    44518    44423    44289    44284    44178    44153    44417 
   44562    44456    44450    44527    44489    44400    44363    44397 
   44451    44429    44379    44365    44325    44284    44286    44313 
   44339    44359    44393    44377    44338    44419    44475    44421 
   44466    44527    44454    44386    44362    44386    44409    44236 
   44092    44267    44455    44470    44518    44566    44506    44417 
   44344    44352    44435    44406    44280    44277    44383    44450 
   44429    44352    44324    44351    44361    44425    44550    44566 
   44469    44363    44285    44255    44232    44188    44244    44406 
   44541    44635    44601    44442    44377    44367    44281    44250 
   44313    44348    44352    44405    44516    44572    44516    44429 
   44327    44231    44312    44520    44593    44481    44289    44174 
   44257    44388    44413    44375    44348    44338    44329    44392 
   44528    44574    44497    44433    44405    44346    44278    44236 
   44199    44196    44319    44512    44593    44528    44459    44452 
   44455    44417    44327    44284    44312    44258    44219    44385 
   44545    44506    44401    44382    44470    44525    44458    44327 
   44232    44227    44267    44371    44558    44625    44525    44442 
   44328    44221    44342    44467    44365    44280    44289    44302 
   44379    44435    44462    44568    44568    44375    44270    44338 
   44323    44226    44319    44493    44474    44409    44440    44450 
   44437    44436    44458    44485    44308    44061    44157    44458 
   44598    44531    44388    44320    44329    44385    44513    44544 
   44374    44209    44189    44289    44436    44471    44390    44369 
   44392    44431    44527    44562    44460    44311    44207    44243 
   44362    44409    44374    44343    44356    44392    44406    44432 
   44501    44490    44342    44240    44280    44293    44290    44412 
   44528    44501    44436    44435    44504    44563    44539    44474 
   44329    44091    44027    44216    44383    44479    44559    44470 
   44302    44335    44483    44540    44474    44313    44186    44221 
   44356    44489    44572    44547    44423    44277    44180    44194 
   44286    44424    44675    44888    44803    44541    44347    44213 
   44103    44051    44049    44128    44242    44240    44320    44624 
   44813    44756    44648    44513    44350    44228    44170    44190 
   44277    44350    44385    44474    44556    44442    44323    44520 
   44714    44529    44230    44050    44018    44190    44409    44602 
   44794    44716    44390    44235    44239    44242    44362    44514 
   44514    44473    44363    44119    44010    44185    44463    44629 
   44568    44392    44289    44258    44258    44339    44437    44517 
   44621    44663    44610    44500    44334    44300    44382    44234 
   43966    44032    44385    44597    44529    44405    44325    44290 
   44420    44639    44710    44613    44398    44167    44118    44186 
   44242    44313    44379    44451    44471    44388    44389    44483 
   44529    44579    44594    44478    44294    44178    44244    44359 
   44298    44154    44132    44242    44332    44334    44412    44610 
   44685    44570    44467    44439    44505    44664    44656    44425 
   44294    44282    44208    44172    44221    44263    44346    44473 
   44555    44604    44577    44358    44076    44041    44358    44729 
   44629    44091    43853    44192    44609    44820    44807    44489 
   44154    44136    44231    44340    44529    44506    44311    44343 
   44466    44435    44419    44421    44297    44243    44373    44451 
   44482    44597    44618    44489    44406    44302    44088    44092 
   44370    44502    44427    44381    44335    44224    44196    44378 
   44705    44818    44473    44108    44162    44323    44389    44563 
   44624    44338    44046    44014    44186    44443    44595    44613 
   44581    44470    44385    44462    44502    44323    44174    44309 
   44417    44236    44190    44500    44679    44540    44365    44262 
   44240    44300    44315    44238    44265    44559    44840    44799 
   44594    44417    44308    44259    44204    44197    44296    44369 
   44363    44404    44475    44459    44479    44590    44543    44232 
   43945    43988    44325    44656    44722    44572    44493    44506 
   44419    44281    44244    44321    44404    44367    44311    44361 
   44354    44221    44200    44413    44664    44725    44604    44421 
   44184    44046    44239    44474    44373    44196    44190    44186 
   44154    44270    44548    44790    44760    44490    44324    44439 
   44525    44415    44363    44424    44389    44293    44342    44475 
   44417    44224    44215    44369    44427    44398    44383    44327 
   44311    44436    44578    44678    44655    44398    44192    44297 
   44447    44352    44204    44275    44446    44481    44451    44512 
   44554    44425    44269    44240    44293    44386    44454    44400 
   44302    44253    44281    44447    44586    44509    44352    44331 
   44437    44475    44377    44301    44324    44401    44470    44473 
   44393    44324    44366    44355    44239    44267    44400    44467 
   44494    44431    44311    44342    44479    44523    44444    44374 
   44392    44405    44373    44365    44324    44259    44320    44412 
   44381    44365    44393    44298    44201    44302    44467    44528 
   44505    44425    44313    44271    44381    44510    44462    44309 
   44244    44294    44359    44365    44374    44405    44362    44305 
   44371    44505    44559    44508    44429    44405    44436    44448 
   44440    44467    44469    44394    44344    44350    44355    44365 
   44346    44311    44336    44370    44404    44489    44577    44598 
   44501    44379    44389    44393    44275    44255    44366    44402 
   44396    44410    44382    44408    44513    44496    44362    44296 
   44331    44385    44386    44332    44281    44275    44331    44405 
   44415    44382    44383    44381    44347    44325    44293    44278 
   44369    44451    44420    44405    44448    44443    44412    44429 
   44463    44473    44460    44425    44369    44312    44298    44307 
   44265    44246    44347    44470    44536    44518    44423    44398 
   44404    44321    44313    44383    44359    44300    44282    44298 
   44355    44428    44460    44429    44359    44308    44298    44327 
   44406    44527    44591    44533    44398    44286    44261    44305 
   44369    44398    44389    44392    44367    44313    44361    44500 
   44556    44477    44413    44447    44483    44464    44423    44424 
   44486    44491    44412    44343    44296    44265    44274    44304 
   44343    44401    44442    44406    44344    44362    44415    44425 
   44437    44431    44409    44412    44348    44261    44286    44332 
   44328    44343    44332    44298    44354    44440    44444    44405 
   44396    44388    44348    44361    44460    44554    44567    44528 
   44456    44343    44265    44321    44420    44433    44416    44390 
   44315    44232    44205    44288    44437    44500    44496    44510 
   44444    44304    44234    44257    44369    44509    44509    44397 
   44329    44312    44324    44361    44390    44427    44446    44383 
   44302    44339    44450    44464    44415    44413    44417    44406 
   44416    44410    44386    44377    44378    44389    44402    44400 
   44420    44477    44501    44470    44406    44324    44269    44273 
   44317    44363    44383    44402    44421    44392    44328    44309 
   44350    44400    44442    44460    44429    44365    44307    44312 
   44377    44388    44346    44386    44458    44435    44416    44469 
   44477    44436    44394    44334    44350    44450    44431    44312 
   44269    44293    44344    44402    44408    44421    44478    44456 
   44406    44439    44436    44373    44351    44316    44259    44302 
   44413    44454    44404    44347    44348    44390    44421    44439 
   44454    44429    44375    44367    44389    44382    44402    44454 
   44458    44435    44401    44327    44288    44311    44336    44378 
   44417    44409    44408    44435    44421    44377    44370    44377 
   44373    44382    44385    44392    44443    44451    44381    44378 
   44423    44400    44398    44412    44363    44348    44352    44316 
   44348    44385    44319    44325    44451    44490    44432    44404 
   44400    44419    44439    44385    44331    44383    44433    44428 
   44416    44377    44350    44338    44263    44239    44325    44371 
   44393    44450    44455    44443    44469    44444    44389    44371 
   44367    44392    44421    44392    44348    44312    44258    44263 
   44359    44427    44423    44439    44491    44477    44383    44319 
   44325    44363    44388    44385    44394    44433    44435    44389 
   44361    44342    44324    44335    44355    44393    44456    44458 
   44410    44439    44493    44456    44390    44373    44340    44281 
   44274    44313    44377    44456    44463    44402    44405    44443 
   44412    44371    44374    44388    44415    44429    44416    44432 
   44431    44358    44319    44344    44373    44427    44494    44493 
