Origin Time       2025/03/30 10:46:00
Lat.              32.923
Long.             130.372
Depth. (km)       11
Mag.              3.4
Station Code      FKOH07
Station Lat.      33.3678
Station Long.     130.6354
Station Height(m) 15
Record Time       2025/03/30 10:46:37
Sampling Freq(Hz) 100Hz
Duration Time(s)  120
Dir.              6
Scale Factor      7845(gal)/8223790
Max. Acc. (gal)   0.560
Last Correction   2025/03/30 10:46:37
Memo.             
[...]
    2856     2857     2857     2853     2851     2852     2857     2859 
    2857     2857     2856     2853     2855     2857     2857     2856 
    2855     2851     2852     2856     2859     2857     2852     2851 
    2853     2853     2853     2855     2855     2856     2855     2852 
    2856     2860     2862     2859     2852     2849     2856     2862 
    2856     2851     2855     2859     2860     2857     2852     2851 
    2855     2860     2863     2860     2853     2847     2849     2856 
    2859     2857     2859     2860     2859     2853     2849     2851 
    2855     2862     2857     2852     2855     2856     2853     2856 
    2860     2856     2853     2855     2853     2849     2855     2863 
    2859     2851     2852     2855     2856     2859     2857     2852 
    2849     2852     2857     2857     2855     2855     2859     2856 
    2851     2853     2859     2859     2857     2851     2851     2860 
    2859     2853     2859     2862     2859     2857     2853     2852 
    2853     2853     2855     2856     2855     2852     2853     2857 
    2857     2857     2857     2855     2852     2852     2853     2855 
    2856     2859     2863     2864     2860     2855     2852     2852 
    2853     2853     2853     2851     2848     2853     2862     2859 
    2853     2855     2853     2852     2856     2860     2857     2852 
    2855     2853     2849     2853     2860     2857     2853     2857 
    2857     2852     2851     2853     2853     2856     2856     2851 
    2849     2853     2856     2857     2859     2856     2851     2845 
    2851     2859     2860     2856     2856     2857     2853     2849 
    2849     2853     2855     2855     2855     2852     2852     2857 
    2857     2855     2860     2859     2848     2847     2853     2855 
    2855     2856     2855     2851     2852     2856     2857     2855 
    2855     2855     2851     2852     2857     2859     2857     2857 
    2855     2851     2848     2851     2853     2855     2857     2863 
    2856     2849     2851     2853     2860     2866     2859     2851 
    2849     2848     2849     2855     2853     2853     2859     2856 
    2848     2849     2853     2857     2863     2863     2856     2852 
    2852     2851     2851     2853     2857     2859     2857     2857 
    2856     2851     2852     2856     2853     2851     2851     2853 
    2857     2859     2856     2853     2851     2852     2855     2857 
    2856     2856     2853     2849     2853     2857     2859     2859 
    2856     2852     2851     2853     2857     2856     2852     2855 
    2855     2845     2843     2851     2857     2862     2864     2859 
    2852     2853     2852     2852     2857     2859     2857     2857 
    2857     2855     2849     2851     2853     2856     2860     2859 
    2855     2853     2849     2848     2855     2856     2853     2855 
    2856     2853     2852     2856     2857     2851     2851     2856 
    2855     2852     2855     2856     2855     2856     2857     2855 
    2853     2853     2855     2856     2853     2852     2855     2859 
    2862     2859     2851     2847     2852     2855     2857     2859 
    2855     2851     2851     2855     2860     2859     2853     2853 
    2855     2853     2853     2853     2855     2855     2853     2855 
    2856     2855     2855     2855     2855     2856     2856     2852 
    2852     2855     2853     2855     2856     2855     2853     2853 
    2853     2856     2859     2860     2856     2851     2848     2852 
    2857     2859     2860     2859     2852     2851     2856     2856 
    2852     2855     2860     2855     2848     2848     2851     2856 
    2863     2859     2852     2851     2855     2857     2856     2857 
    2859     2859     2851     2847     2849     2853     2857     2863 
    2859     2852     2849     2851     2852     2855     2855     2853 
    2856     2859     2857     2856     2856     2853     2855     2856 
    2852     2856     2862     2855     2852     2857     2856     2853 
    2855     2855     2852     2856     2857     2855     2852     2856 
    2855     2855     2859     2862     2857     2852     2852     2853 
    2852     2855     2857     2856     2856     2859     2855     2851 
    2853     2856     2853     2852     2855     2856     2855     2855 
    2857     2856     2849     2851     2859     2859     2855     2856 
    2857     2853     2853     2857     2859     2855     2855     2856 
    2853     2852     2857     2855     2851     2857     2863     2855 
    2856     2860     2857     2852     2852     2855     2853     2853 
    2856     2855     2857     2862     2859     2849     2848     2855 
    2857     2856     2856     2855     2855     2855     2856     2857 
    2856     2855     2855     2856     2856     2859     2855     2848 
    2851     2856     2857     2855     2851     2853     2859     2860 
    2856     2849     2847     2853     2859     2860     2860     2859 
    2855     2852     2852     2851     2849     2853     2856     2859 
    2859     2857     2853     2852     2853     2859     2860     2856 
    2851     2856     2857     2855     2855     2853     2851     2853 
    2856     2859     2860     2856     2855     2857     2853     2855 
    2859     2855     2848     2851     2857     2857     2855     2857 
    2856     2849     2853     2859     2853     2848     2851     2856 
    2856     2855     2857     2855     2852     2852     2857     2856 
    2852     2856     2859     2856     2857     2859     2853     2851 
    2856     2859     2856     2856     2857     2857     2855     2849 
    2849     2856     2860     2859     2855     2852     2853     2856 
    2857     2857     2856     2855     2852     2855     2859     2853 
    2849     2852     2855     2853     2855     2857     2859     2859 
    2855     2852     2855     2856     2853     2855     2857     2859 
    2857     2853     2851     2855     2856     2851     2847     2844 
    2833     2821     2820     2826     2839     2853     2859     2871 
    2928     3011     3019     2887     2724     2708     2857     2978 
    2906     2733     2655     2739     2924     3067     3038     2891 
    2821     2867     2890     2795     2631     2577     2787     3100 
    3164     2910     2609     2539     2729     3010     3211     3198 
    2922     2590     2542     2799     3005     2929     2745     2725 
    2905     3083     3025     2739     2512     2605     2982     3303 
    3223     2776     2442     2614     3014     3046     2717     2519 
    2693     3090     3322     3181     2886     2608     2403     2538 
    3001     3273     3119     2837     2666     2602     2659     2874 
    3109     3125     2957     2793     2652     2547     2608     2898 
    3262     3365     3045     2565     2371     2662     3107     3163 
    2786     2459     2569     3046     3415     3268     2744     2354 
    2463     2928     3222     2990     2494     2430     2974     3439 
    3265     2727     2465     2681     2976     3011     2867     2733 
    2724     2841     2971     2995     2911     2848     2837     2752 
    2668     2785     2960     2941     2825     2826     2891     2848 
    2727     2762     3038     3237     3041     2621     2407     2639 
    3099     3252     2903     2563     2678     2975     3034     2880 
    2725     2690     2768     2897     3049     3117     2951     2671 
    2554     2679     2929     3069     2953     2774     2794     2937 
    2983     2902     2790     2752     2849     2933     2845     2717 
    2702     2791     2944     3024     2938     2825     2758     2733 
    2857     3064     3067     2862     2721     2747     2799     2798 
    2806     2868     2992     3087     2909     2563     2504     2785 
    3076     3150     2951     2685     2668     2866     3046     3099 
    2903     2552     2529     2938     3230     3094     2798     2613 
    2602     2787     3014     3029     2857     2716     2718     2893 
    3040     2870     2609     2729     3111     3231     2880     2425 
    2394     2830     3248     3230     2893     2694     2802     2995 
    3069     2894     2577     2485     2675     2897     3022     2974 
    2766     2700     2926     3141     3034     2756     2667     2832 
    2991     2949     2763     2644     2748     2988     3142     3065 
    2798     2600     2637     2770     2872     2955     2952     2863 
    2832     2883     2884     2798     2731     2771     2909     3025 
    2992     2866     2737     2663     2771     3018     3119     2991 
    2801     2663     2654     2795     2932     2933     2867     2836 
    2862     2898     2867     2781     2741     2798     2937     3100 
    3113     2890     2659     2560     2542     2745     3157     3273 
    2898     2547     2632     2984     3191     3002     2614     2508 
    2832     3171     3100     2722     2523     2767     3111     3038 
    2701     2666     2953     3121     2965     2686     2621     2808 
    2964     2948     2828     2739     2821     3018     3040     2767 
    2546     2713     3036     3099     2893     2677     2679     2835 
    2889     2849     2879     2947     2961     2965     2957     2856 
    2693     2636     2813     3052     3033     2775     2627     2771 
    2986     2991     2826     2709     2793     2987     2965     2736 
    2689     2843     2902     2897     2970     3007     2884     2728 
    2731     2855     2891     2836     2870     2932     2852     2770 
    2837     2905     2906     2943     2909     2714     2619     2779 
    2988     3065     3005     2871     2795     2759     2660     2644 
    2856     3096     3115     2936     2752     2679     2733     2856 
    2863     2748     2789     3024     3160     3041     2808     2702 
    2801     2897     2851     2759     2698     2705     2825     2960 
    2972     2889     2830     2832     2883     2980     2953     2687 
    2521     2775     3149     3111     2691     2508     2857     3218 
    3082     2718     2587     2720     2951     3102     3025     2818 
    2728     2830     2974     2963     2735     2506     2651     3078 
    3229     2920     2579     2601     2898     3096     3001     2794 
    2764     2906     2960     2824     2685     2737     2899     2956 
    2879     2830     2848     2837     2790     2785     2851     2933 
    2944     2871     2774     2710     2794     3052     3195     2938 
    2532     2501     2903     3207     3018     2617     2546     2889 
    3215     3107     2710     2562     2776     2934     2851     2736 
    2768     2938     3018     2847     2700     2864     3127     3137 
    2890     2652     2614     2748     2843     2816     2868     3006 
    2984     2867     2825     2806     2824     2914     2918     2782 
    2706     2776     2860     2886     2871     2830     2852     2937 
    2956     2914     2847     2737     2763     2999     3102     2890 
    2662     2679     2856     2982     2960     2839     2717     2677 
    2782     2991     3094     2959     2759     2724     2828     2871 
    2798     2689     2619     2743     3061     3258     3137     2829 
    2609     2658     2844     2964     2984     2894     2791     2868 
    2984     2878     2690     2708     2897     3040     2974     2693 
    2540     2771     3034     2976     2808     2787     2848     2868 
    2818     2743     2795     2964     3022     2943     2914     2983 
    3019     2932     2783     2706     2724     2710     2655     2708 
    2882     3033     3049     2965     2880     2776     2713     2833 
    2975     2895     2744     2787     2963     2979     2763     2613 
    2751     2974     3028     2952     2872     2829     2829     2864 
    2893     2860     2818     2844     2852     2763     2728     2856 
    2949     2833     2691     2740     2871     2943     2972     2925 
    2787     2706     2791     2943     2978     2879     2824     2907 
    3025     3053     2961     2794     2629     2538     2635     2928 
    3109     2963     2735     2712     2879     3072     3109     2976 
    2866     2870     2864     2745     2601     2608     2782     2938 
    2956     2944     3007     3044     2905     2641     2467     2596 
    2998     3304     3230     2920     2671     2614     2737     2945 
    3071     2951     2641     2466     2689     3053     3063     2735 
    2601     2879     3152     3059     2771     2636     2764     2953 
    2952     2810     2779     2930     3059     3017     2934     2916 
    2884     2808     2721     2641     2601     2627     2728     2895 
    3057     3129     3123     3106     3042     2887     2739     2682 
    2682     2700     2687     2662     2747     2930     3052     3032 
    2898     2760     2725     2755     2778     2822     2901     2974 
    3072     3187     3172     2982     2770     2667     2673     2674 
    2566     2421     2451     2759     3179     3369     3225     3018 
    2988     3051     2997     2851     2806     2805     2635     2359 
    2313     2705     3175     3129     2646     2423     2760     3215 
    3273     2953     2668     2741     3071     3268     3137     2791 
    2439     2312     2552     3014     3312     3222     2903     2664 
    2663     2806     2879     2781     2612     2589     2822     3102 
    3126     2959     2920     3090     3245     3198     2914     2515 
    2268     2363     2706     2959     2878     2670     2736     3091 
    3307     3114     2760     2662     2920     3249     3242     2870 
    2566     2667     2959     2978     2668     2466     2663     3017 
    3096     2847     2639     2739     3006     3153     3025     2705 
    2462     2486     2735     3018     3122     2980     2791     2781 
    2952     3129     3123     2956     2863     2925     2948     2817 
    2667     2686     2795     2771     2659     2663     2782     2875 
    2889     2886     2920     2916     2837     2801     2840     2882 
    2933     2972     2970     3009     3091     3079     2921     2651 
    2415     2446     2640     2632     2488     2606     3007     3322 
    3315     3119     3006     3040     3021     2840     2673     2668 
    2790     2894     2830     2659     2635     2824     3009     2998 
    2833     2706     2740     2844     2889     2914     2951     2878 
    2698     2659     2879     3098     3061     2897     2791     2718 
    2668     2778     3086     3339     3237     2897     2727     2843 
    2968     2863     2597     2428     2524     2794     2976     2955 
    2871     2864     2905     2882     2845     2918     2951     2732 
    2494     2644     3103     3375     3199     2830     2681     2836 
    2992     2898     2704     2687     2835     2951     2930     2795 
    2705     2795     2944     2953     2866     2820     2817     2778 
    2712     2712     2803     2866     2813     2763     2856     2987 
    2964     2839     2830     2983     3099     3019     2820     2725 
    2837     2972     2880     2619     2513     2763     3144     3241 
    2948     2612     2608     2860     3010     2948     2875     2872 
    2801     2693     2776     2998     3014     2774     2614     2754 
    2948     2878     2673     2701     2976     3169     3098     2860 
    2698     2755     2871     2832     2747     2830     2980     2909 
    2655     2592     2867     3173     3159     2918     2812     2876 
    2897     2860     2841     2799     2739     2705     2704     2779 
    2928     3037     2984     2799     2682     2782     2997     3091 
    2949     2702     2635     2856     3132     3171     2929     2600 
    2462     2652     2947     3045     2949     2824     2776     2853 
    2988     3041     2976     2894     2859     2826     2740     2609 
    2547     2629     2793     2961     3086     3107     3028     2918 
    2839     2795     2768     2749     2747     2760     2778     2817 
    2899     2987     3042     3076     3072     2970     2810     2735 
    2787     2876     2905     2824     2652     2515     2543     2725 
    2902     2968     2987     3021     3014     2889     2695     2627 
    2779     2978     2986     2829     2727     2813     3019     3130 
    3009     2809     2775     2866     2860     2768     2771     2884 
    2967     2914     2775     2736     2868     2980     2947     2913 
    2957     2930     2748     2558     2535     2704     2918     2983 
    2910     2882     2929     2934     2886     2837     2814     2848 
    2894     2862     2820     2879     2952     2933     2887     2859 
    2835     2856     2910     2906     2840     2772     2762     2866 
    2995     2979     2867     2832     2859     2871     2862     2798 
    2679     2624     2733     2941     3067     3018     2878     2787 
    2816     2882     2864     2748     2625     2635     2825     3029 
    3067     2991     2949     2949     2905     2785     2687     2697 
    2743     2752     2778     2860     2960     2995     2924     2808 
    2747     2771     2837     2870     2844     2835     2893     2957 
    2956     2905     2860     2867     2907     2945     2971     2964 
    2913     2848     2793     2762     2774     2783     2744     2708 
    2751     2872     2988     3025     3013     3022     2995     2848 
    2708     2743     2844     2805     2675     2640     2787     2997 
    3018     2829     2705     2763     2851     2879     2910     2949 
    2933     2880     2898     2984     2968     2801     2660     2689 
    2812     2837     2717     2639     2751     2945     3024     2951 
    2882     2928     3022     3037     2926     2810     2799     2802 
    2737     2717     2805     2916     2967     2924     2830     2799 
    2844     2878     2860     2839     2844     2836     2822     2867 
    2964     3041     3022     2886     2745     2744     2872     2988 
    2956     2793     2704     2813     2965     2978     2862     2720 
    2663     2729     2813     2805     2745     2778     2918     3025 
    2992     2855     2747     2778     2882     2924     2891     2840 
    2844     2926     2974     2903     2794     2762     2841     2932 
    2891     2782     2775     2863     2922     2918     2870     2798 
    2759     2791     2856     2889     2890     2910     2948     2951 
    2897     2840     2857     2940     2947     2814     2666     2627 
    2689     2754     2747     2739     2825     2956     3007     2997 
    3022     3067     3026     2867     2694     2644     2727     2830 
    2876     2876     2856     2852     2903     2976     2976     2913 
    2897     2910     2852     2743     2677     2705     2812     2882 
    2830     2759     2781     2840     2849     2832     2849     2920 
    2972     2944     2902     2924     2938     2864     2764     2749 
    2816     2874     2890     2884     2891     2926     2948     2907 
    2835     2789     2776     2793     2797     2791     2851     2936 
    2913     2830     2841     2929     2972     2922     2828     2789 
    2845     2921     2916     2845     2803     2822     2871     2918 
    2916     2853     2783     2732     2720     2795     2907     2943 
    2922     2910     2895     2874     2857     2841     2849     2862 
