Origin Time       2025/03/30 10:46:00
Lat.              32.923
Long.             130.372
Depth. (km)       11
Mag.              3.4
Station Code      FKOH10
Station Lat.      33.2891
Station Long.     130.8170
Station Height(m) -10
Record Time       2025/03/30 10:46:37
Sampling Freq(Hz) 100Hz
Duration Time(s)  120
Dir.              1
Scale Factor      2942(gal)/8224139
Max. Acc. (gal)   0.300
Last Correction   2025/03/30 10:46:38
Memo.             
[...]
  132023   132023   132021   132024   132025   132024   132023   132023 
  132021   132021   132023   132024   132024   132023   132023   132021 
  132020   132020   132020   132020   132021   132023   132023   132020 
  132020   132021   132024   132024   132021   132021   132023   132023 
  132020   132020   132019   132017   132021   132023   132019   132020 
  132024   132023   132021   132023   132023   132020   132020   132019 
  132020   132023   132024   132024   132023   132023   132023   132023 
  132021   132020   132020   132023   132021   132021   132021   132019 
  132020   132023   132020   132020   132020   132021   132023   132019 
  132017   132021   132023   132021   132021   132023   132020   132019 
  132020   132021   132023   132021   132020   132019   132020   132021 
  132021   132019   132019   132019   132020   132023   132023   132020 
  132020   132020   132021   132021   132020   132023   132023   132020 
  132019   132023   132023   132020   132019   132020   132021   132020 
  132023   132024   132023   132021   132020   132019   132020   132023 
  132024   132021   132019   132020   132021   132023   132023   132023 
  132023   132021   132021   132023   132023   132023   132020   132019 
  132021   132023   132023   132021   132021   132023   132023   132020 
  132020   132021   132020   132023   132023   132021   132023   132023 
  132021   132021   132021   132020   132021   132020   132020   132021 
  132023   132020   132020   132020   132021   132021   132021   132021 
  132021   132021   132021   132021   132023   132023   132019   132020 
  132024   132021   132019   132020   132021   132023   132023   132024 
  132025   132023   132021   132023   132023   132021   132021   132021 
  132020   132020   132023   132025   132023   132021   132023   132024 
  132021   132021   132024   132025   132025   132024   132024   132021 
  132021   132023   132020   132019   132021   132021   132021   132021 
  132020   132020   132021   132023   132021   132020   132023   132023 
  132020   132020   132020   132020   132019   132019   132021   132020 
  132020   132021   132020   132023   132025   132020   132017   132020 
  132021   132020   132019   132021   132021   132019   132019   132020 
  132020   132023   132021   132019   132019   132021   132020   132017 
  132021   132025   132023   132023   132023   132020   132020   132023 
  132021   132019   132019   132021   132023   132020   132019   132020 
  132020   132017   132016   132019   132019   132020   132023   132021 
  132021   132021   132020   132021   132021   132020   132020   132020 
  132019   132021   132021   132021   132020   132017   132019   132021 
  132020   132020   132023   132023   132021   132023   132021   132019 
  132020   132020   132020   132021   132020   132021   132023   132021 
  132021   132021   132021   132020   132019   132019   132019   132021 
  132023   132023   132021   132020   132021   132021   132019   132019 
  132021   132021   132021   132020   132020   132023   132021   132019 
  132020   132023   132021   132021   132021   132020   132020   132021 
  132020   132019   132021   132021   132020   132019   132020   132020 
  132020   132023   132023   132021   132023   132021   132019   132020 
  132023   132021   132020   132020   132020   132020   132020   132020 
  132020   132021   132021   132019   132020   132023   132021   132020 
  132020   132021   132021   132019   132020   132024   132024   132020 
  132021   132023   132021   132023   132023   132021   132020   132021 
  132023   132023   132021   132020   132020   132021   132019   132017 
  132023   132024   132023   132024   132023   132020   132019   132019 
  132021   132023   132021   132021   132023   132023   132021   132021 
  132023   132024   132023   132021   132021   132023   132021   132020 
  132021   132024   132024   132024   132023   132021   132023   132023 
  132021   132024   132023   132021   132023   132023   132021   132023 
  132023   132023   132023   132023   132024   132024   132023   132023 
  132023   132023   132023   132023   132024   132023   132021   132021 
  132021   132021   132023   132023   132023   132021   132023   132025 
  132021   132020   132023   132023   132020   132021   132021   132020 
  132023   132023   132020   132021   132021   132021   132023   132021 
  132020   132021   132023   132020   132017   132020   132023   132021 
  132020   132023   132021   132021   132023   132023   132021   132021 
  132021   132021   132021   132020   132021   132020   132017   132020 
  132023   132023   132020   132020   132021   132023   132020   132020 
  132021   132020   132019   132020   132021   132023   132023   132020 
  132021   132024   132021   132019   132023   132023   132020   132023 
  132021   132020   132023   132023   132021   132021   132020   132021 
  132025   132025   132023   132021   132020   132021   132023   132021 
  132021   132021   132021   132021   132021   132020   132019   132021 
  132023   132021   132020   132021   132021   132020   132020   132019 
  132020   132023   132021   132019   132020   132024   132024   132023 
  132021   132020   132020   132023   132021   132021   132021   132021 
  132020   132021   132023   132021   132021   132021   132021   132021 
  132020   132021   132021   132021   132021   132021   132019   132019 
  132020   132023   132023   132024   132023   132020   132020   132020 
  132020   132024   132023   132021   132023   132023   132020   132020 
  132021   132021   132023   132024   132023   132021   132021   132021 
  132021   132021   132023   132023   132023   132024   132023   132020 
  132021   132023   132021   132023   132023   132020   132020   132023 
  132021   132021   132023   132021   132020   132020   132021   132024 
  132024   132023   132021   132021   132023   132021   132023   132027 
  132024   132023   132024   132020   132019   132024   132023   132020 
  132023   132023   132021   132024   132025   132021   132020   132023 
  132023   132020   132020   132023   132023   132021   132017   132017 
  132016   132011   132000   131989   131985   131994   132019   132047 
  132067   132078   132075   132057   132030   132000   131982   131990 
  132020   132043   132044   132034   132023   132019   132025   132034 
  132013   131970   131950   131963   132001   132055   132092   132077 
  132031   131984   131936   131911   131953   132050   132133   132155 
  132104   131992   131938   132030   132120   132094   132036   131984 
  131912   131907   132005   132073   132066   132065   132040   131998 
  132007   131990   131938   131994   132086   132054   131981   131992 
  132058   132106   132093   132020   131927   131896   131958   132030 
  132047   132039   132062   132109   132117   132081   132012   131911 
  131881   131947   132017   132106   132193   132163   132028   131869 
  131766   131819   132050   132308   132351   132159   131927   131805 
  131851   132001   132100   132077   132025   131998   131966   131965 
  131994   132030   132069   132048   131974   131996   132078   132050 
  132007   132061   132030   131890   131881   131993   132102   132229 
  132219   131985   131826   131863   131966   132097   132158   132082 
  132013   132003   132027   132092   132104   132040   131938   131841 
  131859   131957   132073   132250   132324   132151   131881   131722 
  131750   131912   132075   132150   132120   132047   132019   132040 
  132065   132066   132046   132007   131989   132015   132034   132038 
  132035   132015   132054   132105   132021   131907   131909   131978 
  132048   132065   132030   132015   132025   132062   132108   132071 
  131955   131900   131989   132121   132128   132035   131986   131993 
  132024   132081   132047   131913   131872   131955   132085   132214 
  132209   132039   131872   131820   131923   132082   132108   132052 
  132040   132048   132059   132039   131970   131943   132004   132069 
  132057   131988   131954   131996   132092   132136   132030   131939 
  131997   132028   132009   132034   132015   131980   132021   132066 
  132059   131996   131944   131996   132062   132073   132101   132116 
  132044   131965   131965   131998   132004   131997   132008   132038 
  132067   132081   132071   132036   132003   131971   131888   131826 
  131938   132160   132247   132162   132052   131944   131899   131973 
  132021   131997   132020   132073   132078   132036   131966   131936 
  132005   132102   132119   132052   131963   131923   131977   132047 
  132008   131946   132005   132105   132113   132079   132057   132013 
  131961   131940   131958   131981   131997   132054   132123   132129 
  132116   132073   131961   131928   131974   131957   131971   132046 
  132042   132020   132058   132084   132074   132030   131950   131917 
  131969   131989   131967   132030   132138   132170   132082   131977 
  131939   131930   131967   132062   132140   132155   132061   131931 
  131882   131903   132004   132159   132192   132079   131970   131920 
  131900   131927   132031   132124   132070   131951   131940   132012 
  132075   132105   132047   131909   131853   131955   132106   132216 
  132217   132092   131958   131943   132003   132021   132023   132036 
  131974   131874   131865   131953   132054   132102   132148   132220 
  132165   131953   131819   131886   132048   132132   132106   132073 
  132030   131950   131916   131971   132065   132088   132019   132008 
  132043   132025   132008   131958   131881   131955   132105   132106 
  132070   132146   132155   131997   131905   131940   131954   132016 
  132152   132170   132044   131949   131935   131954   131974   131963 
  131973   132038   132059   132036   132032   132059   132125   132162 
  132097   132000   131961   131965   131935   131890   131926   132020 
  132055   132031   132028   132058   132092   132092   132023   131957 
  131959   131993   132017   132066   132127   132088   131984   131986 
  132069   132077   132019   131986   132017   132062   132024   131911 
  131874   132000   132108   132046   131977   132031   132062   132011 
  132001   132030   132030   132047   132051   132009   132016   132047 
  132013   132016   132065   132003   131924   132003   132084   132044 
  132001   131992   132025   132096   132108   132043   131927   131861 
  131913   131997   132074   132152   132160   132093   132021   131949 
  131923   131996   132009   131916   131961   132089   132071   132034 
  132077   132058   131994   132012   132066   132040   131986   131988 
  132017   132086   132144   132077   131938   131873   131939   132038 
  132084   132148   132147   131959   131815   131870   131984   132034 
  132016   132004   132008   132016   132054   132085   132109   132147 
  132132   132039   131930   131888   131959   132081   132143   132111 
  132012   131922   131935   131997   131982   131988   132062   132052 
  131994   132027   132077   132092   132124   132120   132019   131907 
  131877   131904   131930   131993   132078   132067   132001   131988 
  132009   132036   132070   132094   132077   132028   131974   131919 
  131946   132044   132063   132046   132051   132036   132034   132042 
  132016   132003   132030   132059   132094   132140   132105   131965 
  131832   131819   131951   132098   132112   132073   132097   132112 
  132031   131915   131870   131947   132067   132074   132011   132020 
  132052   132067   132117   132116   131982   131892   131969   132074 
  132066   131980   131951   132015   132069   132036   131981   131996 
  132059   132059   131967   131938   132028   132096   132092   132043 
  131973   131980   132078   132090   131949   131865   131934   132013 
  132043   132030   132011   132074   132142   132104   132035   131977 
  131909   131915   132020   132108   132121   132094   132028   131946 
  131938   132028   132136   132131   132013   131961   131998   132003 
  132032   132098   132054   131961   131944   131962   131978   132004 
  132021   132042   132032   131963   131989   132119   132093   131946 
  131944   132025   132039   132031   132038   132042   132016   131957 
  131981   132081   132077   132008   132013   132044   132027   131981 
  131994   132088   132129   132074   131996   131959   131984   132017 
  132054   132121   132148   132062   131963   131990   132085   132142 
  132177   132204   132182   132117   132004   131828   131743   131819 
  131855   131750   131656   131758   131971   132046   132038   132116 
  132235   132317   132317   132194   132005   131900   131940   132007 
  132032   132038   131963   131842   131742   131668   131708   131920 
  132197   132385   132409   132391   132463   132557   132499   132200 
  131805   131545   131453   131480   131558   131610   131672   131789 
  132021   132435   132804   132844   132629   132293   131859   131562 
  131561   131635   131669   131718   131785   131926   132139   132255 
  132197   132050   131973   132108   132320   132389   132368   132251 
  131895   131458   131259   131476   132058   132618   132779   132528 
  132086   131696   131461   131484   131877   132372   132489   132210 
  131990   132028   132128   132181   132158   132011   131900   131950 
  132051   132058   131924   131761   131670   131623   131712   132038 
  132304   132217   132020   132000   132077   132079   131965   131858 
  131936   132132   132192   132189   132370   132466   132262   132124 
  132129   131904   131456   131183   131367   131920   132374   132483 
  132414   132228   132082   132148   132185   132115   132082   131943 
  131696   131588   131669   131830   131947   132046   132229   132433 
  132555   132538   132291   131874   131600   131695   131892   131836 
  131758   132001   132279   132231   132027   131909   131846   131745 
  131602   131568   131855   132355   132686   132726   132584   132225 
  131745   131518   131611   131799   132042   132235   132202   132062 
  131992   131998   132050   132100   132098   132035   131935   131882 
  131992   132217   132347   132223   131920   131715   131749   131876 
  131973   132046   132003   131877   131946   132217   132391   132267 
  131847   131415   131355   131661   132030   132337   132552   132486 
  132183   131969   131915   131901   131951   132055   132001   131754 
  131622   131835   132268   132595   132599   132300   131911   131733 
  131777   131870   132025   132174   132155   132079   132007   131776 
  131569   131656   131885   132200   132619   132850   132775   132425 
  131809   131400   131544   131762   131750   131768   131855   131959 
  132121   132163   132065   132066   132143   132173   132175   132069 
  131831   131660   131673   131863   132096   132227   132248   132071 
  131845   131905   131996   131942   132146   132456   132402   132282 
  132398   132347   131969   131716   131773   131916   132019   132001 
  131847   131773   131905   132065   132151   132210   132148   131998 
  131949   131953   131889   131869   131993   131993   131764   131761 
  132031   132093   132020   132135   132291   132290   132166   132079 
  132150   132193   131976   131704   131738   132042   132256   132169 
  131969   131905   131873   131738   131637   131665   131808   132082 
  132339   132435   132471   132416   132150   131901   131895   132043 
  132090   131893   131704   131703   131700   131726   131935   132159 
  132236   132275   132352   132347   132175   132001   132024   132160 
  132185   132000   131772   131785   132009   132124   131986   131706 
  131604   131900   132286   132354   132140   131967   132031   132158 
  132173   132159   132089   131901   131735   131657   131637   131749 
  132043   132356   132490   132395   132142   131884   131700   131687 
  131931   132163   132143   132066   132052   132000   131874   131787 
  131855   132008   132084   132066   132050   132136   132293   132335 
  132182   132042   132046   131997   131772   131637   131793   131955 
  131922   131947   132139   132287   132252   132096   131996   132025 
  132093   132093   132066   132144   132216   132089   131963   131998 
  132009   131969   131967   131908   131787   131787   132008   132270 
  132294   132109   131967   131932   131934   132013   132148   132177 
  132116   132079   132023   131882   131758   131842   132058   132138 
  132079   132004   131893   131855   131992   132062   131955   131936 
  132050   132096   132082   132093   132120   132138   132100   132030 
  131984   131931   131873   131884   131961   132034   132039   132030 
  132143   132275   132185   131943   131797   131861   132023   132055 
  131971   131920   131930   132027   132138   132148   132111   132082 
  132028   131958   131962   132069   132135   132031   131928   132016 
  132111   132044   131947   131919   131973   132057   132046   131986 
  132015   132075   132051   131973   131920   131953   132046   132055 
  131943   131849   131842   131896   131974   132115   132320   132367 
  132167   131990   131951   131959   132040   132156   132152   132071 
  132032   131976   131907   131985   132120   132112   132038   132017 
  132067   132102   131970   131788   131835   132015   132039   131936 
  131936   132030   132063   132055   132025   131988   132030   132059 
  132007   132021   132104   132120   132100   132121   132111   131996 
  131912   131947   132004   132044   132051   131967   131913   131955 
  131965   131944   131989   132040   132034   131986   131938   131969 
  132081   132140   132155   132194   132165   132043   131904   131835 
  131919   132036   132044   132028   132042   132027   132011   132042 
  132096   132115   132071   132003   131944   131936   131966   131944 
  131920   131970   132042   132116   132143   132071   131993   131982 
  132020   132028   131990   132034   132135   132116   132020   132004 
  132024   131993   131942   131938   132024   132139   132112   131990 
  131974   131984   131928   131954   132011   131962   131928   131989 
  132043   132051   132048   132055   132070   132044   131942   131880 
  131962   132057   132088   132127   132148   132129   132121   132100 
  132051   131976   131892   131927   132063   132117   132089   132065 
  132024   131986   131994   132016   132001   131970   132004   132128 
  132210   132136   131993   131917   131877   131820   131874   132054 
  132146   132071   131970   131969   132028   132058   132062   132054 
  132063   132111   132069   131903   131838   131940   132000   131959 
  131990   132077   132063   132019   132063   132098   132057   132065 
  132115   132055   131951   131938   131957   131947   131944   131969 
  132034   132066   131971   131938   132106   132240   132196   132088 
  131993   131919   131876   131886   131973   132090   132177   132225 
  132216   132074   131859   131762   131827   131954   132067   132121 
  132101   132052   132023   132039   132059   132020   131984   132017 
  132061   132090   132109   132044   131928   131873   131877   131900 
  131974   132081   132119   132077   132025   132007   132031   132078 
  132113   132133   132086   131961   131909   131978   132031   132052 
  132090   132104   132057   131976   131927   131919   131882   131859 
  131932   132023   132032   132025   132071   132105   132092   132067 
