Origin Time       2025/03/30 10:46:00
Lat.              32.923
Long.             130.372
Depth. (km)       11
Mag.              3.4
Station Code      FKOH10
Station Lat.      33.2891
Station Long.     130.8170
Station Height(m) 190
Record Time       2025/03/30 10:46:37
Sampling Freq(Hz) 100Hz
Duration Time(s)  120
Dir.              4
Scale Factor      7845(gal)/8223790
Max. Acc. (gal)   0.480
Last Correction   2025/03/30 10:46:38
Memo.             
[...]
    5462     5460     5460     5463     5462     5459     5460     5462 
    5463     5460     5459     5464     5466     5460     5458     5462 
    5463     5462     5463     5463     5459     5463     5466     5462 
    5460     5464     5463     5462     5463     5460     5462     5466 
    5463     5459     5463     5464     5459     5462     5467     5462 
    5456     5463     5466     5463     5460     5462     5464     5462 
    5458     5460     5463     5462     5459     5460     5467     5462 
    5452     5459     5466     5463     5463     5462     5462     5463 
    5460     5462     5463     5459     5458     5463     5464     5459 
    5460     5464     5462     5462     5463     5462     5460     5462 
    5460     5460     5460     5460     5463     5463     5463     5462 
    5459     5463     5463     5462     5466     5459     5456     5464 
    5462     5464     5467     5456     5458     5463     5458     5462 
    5464     5460     5460     5460     5460     5460     5459     5464 
    5466     5459     5459     5462     5463     5463     5460     5460 
    5463     5459     5458     5463     5463     5459     5460     5462 
    5460     5464     5464     5459     5460     5462     5458     5462 
    5464     5460     5460     5462     5463     5463     5462     5462 
    5462     5462     5462     5460     5463     5463     5458     5458 
    5460     5459     5460     5462     5460     5458     5459     5467 
    5463     5456     5460     5463     5462     5460     5460     5463 
    5460     5458     5464     5463     5459     5462     5460     5458 
    5463     5463     5462     5460     5456     5458     5463     5460 
    5459     5460     5460     5459     5460     5460     5460     5460 
    5459     5460     5460     5459     5460     5463     5460     5456 
    5463     5466     5458     5460     5466     5458     5458     5464 
    5462     5462     5463     5460     5462     5463     5462     5462 
    5460     5459     5460     5460     5463     5463     5458     5460 
    5463     5458     5460     5462     5460     5462     5458     5459 
    5466     5460     5459     5463     5462     5460     5460     5459 
    5462     5462     5458     5459     5462     5459     5459     5460 
    5462     5462     5460     5460     5460     5458     5460     5463 
    5460     5462     5463     5460     5459     5460     5462     5463 
    5463     5460     5462     5460     5459     5462     5460     5459 
    5463     5463     5462     5463     5460     5460     5463     5459 
    5459     5463     5462     5459     5458     5462     5467     5463 
    5460     5463     5462     5460     5459     5460     5467     5464 
    5458     5462     5464     5459     5462     5462     5459     5460 
    5463     5463     5459     5462     5462     5456     5458     5463 
    5462     5462     5462     5462     5459     5459     5464     5463 
    5459     5462     5463     5459     5462     5462     5460     5462 
    5459     5458     5460     5458     5459     5464     5462     5458 
    5462     5463     5460     5460     5463     5464     5460     5459 
    5463     5463     5460     5460     5459     5462     5463     5460 
    5462     5462     5462     5463     5460     5460     5462     5460 
    5459     5458     5460     5463     5460     5458     5462     5464 
    5462     5456     5456     5460     5462     5460     5462     5463 
    5463     5463     5463     5463     5463     5462     5458     5460 
    5464     5462     5460     5460     5462     5462     5458     5459 
    5464     5460     5456     5460     5462     5462     5462     5458 
    5460     5463     5459     5459     5459     5459     5462     5459 
    5460     5464     5463     5462     5458     5459     5463     5459 
    5459     5467     5463     5458     5463     5462     5459     5464 
    5462     5460     5463     5462     5458     5460     5460     5460 
    5460     5463     5463     5459     5458     5462     5462     5462 
    5460     5458     5462     5464     5463     5466     5462     5456 
    5463     5464     5459     5462     5463     5460     5463     5463 
    5459     5463     5464     5459     5463     5463     5459     5460 
    5462     5462     5462     5462     5460     5460     5463     5463 
    5459     5462     5464     5460     5460     5464     5463     5462 
    5460     5460     5462     5460     5459     5462     5462     5459 
    5460     5466     5464     5460     5462     5463     5459     5460 
    5462     5462     5462     5460     5460     5462     5459     5459 
    5462     5462     5462     5462     5462     5460     5463     5463 
    5460     5462     5463     5460     5462     5464     5460     5458 
    5460     5462     5462     5459     5456     5462     5463     5459 
    5460     5463     5460     5462     5462     5459     5460     5459 
    5459     5463     5460     5458     5463     5463     5459     5460 
    5463     5462     5464     5467     5460     5456     5460     5458 
    5449     5444     5435     5432     5454     5493     5524     5526 
    5501     5460     5422     5397     5400     5422     5448     5486 
    5529     5535     5485     5429     5421     5447     5474     5493 
    5470     5410     5385     5421     5495     5560     5547     5467 
    5413     5402     5393     5425     5517     5543     5468     5440 
    5476     5462     5439     5494     5513     5421     5373     5425 
    5447     5441     5490     5522     5517     5535     5508     5414 
    5350     5329     5355     5482     5616     5605     5522     5497 
    5447     5316     5270     5390     5528     5579     5584     5537 
    5405     5304     5374     5536     5630     5580     5382     5233 
    5324     5498     5595     5659     5602     5363     5223     5370 
    5537     5518     5506     5553     5449     5336     5431     5509 
    5451     5443     5483     5468     5432     5425     5440     5456 
    5466     5456     5440     5476     5547     5556     5503     5431 
    5363     5339     5359     5437     5602     5682     5553     5440 
    5417     5325     5287     5439     5584     5562     5483     5455 
    5424     5402     5460     5486     5445     5466     5514     5482 
    5418     5387     5405     5489     5548     5499     5440     5447 
    5431     5374     5427     5571     5572     5449     5421     5440 
    5440     5499     5529     5439     5356     5390     5490     5545 
    5529     5476     5409     5404     5482     5520     5463     5417 
    5449     5472     5445     5462     5483     5393     5337     5464 
    5593     5562     5456     5359     5290     5358     5574     5718 
    5644     5467     5319     5269     5429     5671     5644     5385 
    5256     5309     5387     5529     5690     5625     5394     5298 
    5390     5520     5559     5466     5336     5302     5382     5522 
    5649     5636     5444     5312     5406     5510     5466     5445 
    5505     5495     5444     5463     5489     5466     5449     5447 
    5404     5359     5425     5552     5584     5539     5485     5404 
    5317     5333     5506     5626     5529     5454     5506     5447 
    5317     5378     5517     5505     5462     5490     5418     5305 
    5416     5628     5624     5460     5387     5427     5455     5456 
    5479     5487     5420     5370     5476     5587     5481     5333 
    5406     5567     5560     5452     5431     5421     5352     5382 
    5539     5597     5483     5421     5459     5451     5439     5472 
    5462     5425     5420     5433     5470     5543     5594     5530 
    5404     5362     5397     5421     5421     5414     5445     5525 
    5571     5540     5463     5377     5358     5468     5606     5591 
    5418     5273     5293     5470     5667     5675     5478     5304 
    5271     5327     5472     5648     5632     5408     5256     5340 
    5537     5653     5613     5491     5354     5281     5387     5595 
    5659     5503     5320     5294     5400     5516     5559     5505 
    5422     5378     5363     5410     5539     5580     5425     5352 
    5535     5620     5440     5337     5408     5402     5367     5508 
    5652     5549     5412     5459     5503     5472     5501     5503 
    5398     5374     5470     5481     5416     5452     5509     5441 
    5408     5506     5532     5459     5449     5466     5445     5439 
    5432     5427     5443     5437     5401     5421     5530     5574 
    5506     5495     5518     5439     5344     5356     5409     5449 
    5540     5616     5551     5420     5391     5431     5395     5375 
    5482     5553     5491     5454     5508     5472     5329     5343 
    5513     5549     5468     5487     5532     5464     5405     5472 
    5535     5479     5402     5390     5436     5487     5455     5413 
    5455     5479     5466     5514     5568     5510     5389     5350 
    5398     5460     5532     5544     5447     5400     5451     5448 
    5435     5509     5524     5410     5375     5518     5637     5547 
    5371     5308     5368     5493     5603     5587     5432     5256 
    5212     5387     5607     5648     5562     5444     5335     5329 
    5467     5626     5617     5456     5367     5405     5451     5483 
    5499     5472     5454     5490     5536     5512     5397     5267 
    5259     5447     5676     5706     5549     5387     5294     5320 
    5490     5611     5518     5383     5359     5379     5449     5568 
    5568     5413     5348     5471     5553     5502     5468     5481 
    5449     5409     5452     5501     5436     5348     5398     5535 
    5582     5506     5408     5350     5355     5431     5547     5616 
    5551     5418     5381     5467     5556     5544     5429     5309 
    5298     5420     5591     5672     5586     5408     5267     5282 
    5455     5602     5572     5437     5375     5436     5508     5526 
    5502     5424     5331     5337     5471     5609     5624     5517 
    5395     5340     5360     5436     5485     5479     5497     5512 
    5481     5475     5503     5495     5428     5363     5371     5444 
    5493     5454     5397     5451     5571     5594     5516     5458 
    5405     5359     5444     5614     5632     5440     5279     5320 
    5428     5482     5529     5548     5464     5351     5382     5551 
    5620     5505     5402     5383     5371     5406     5512     5547 
    5443     5359     5425     5536     5564     5525     5449     5387 
    5410     5479     5502     5471     5410     5339     5356     5520 
    5632     5536     5412     5410     5448     5490     5568     5562 
    5395     5262     5328     5514     5644     5609     5444     5293 
    5281     5398     5545     5625     5574     5440     5351     5382 
    5509     5586     5514     5402     5359     5393     5501     5579 
    5510     5402     5398     5441     5475     5522     5522     5431 
    5354     5395     5494     5517     5481     5447     5395     5390 
    5489     5567     5529     5424     5364     5441     5575     5598 
    5475     5346     5344     5427     5508     5544     5508     5445 
    5429     5458     5512     5524     5452     5358     5331     5408 
    5525     5575     5537     5467     5404     5389     5435     5512 
    5539     5481     5443     5499     5549     5517     5478     5470 
    5449     5448     5528     5625     5584     5414     5292     5294 
    5332     5329     5316     5339     5356     5340     5385     5530 
    5668     5694     5614     5526     5456     5374     5370     5494 
    5587     5529     5404     5344     5367     5393     5406     5429 
    5385     5308     5391     5644     5868     5895     5707     5452 
    5266     5184     5227     5381     5506     5487     5417     5422 
    5451     5427     5427     5529     5632     5641     5633     5590 
    5418     5215     5173     5300     5402     5371     5317     5347 
    5443     5539     5606     5620     5559     5494     5536     5626 
    5571     5383     5300     5394     5513     5556     5568     5555 
    5451     5350     5393     5463     5418     5317     5283     5366 
    5497     5598     5621     5539     5456     5471     5513     5536 
    5566     5547     5449     5367     5362     5364     5279     5175 
    5213     5398     5625     5768     5713     5499     5304     5240 
    5313     5489     5675     5741     5653     5541     5525     5503 
    5390     5313     5312     5267     5247     5427     5675     5679 
    5498     5439     5498     5518     5575     5668     5574     5302 
    5139     5193     5324     5424     5508     5547     5489     5406 
    5436     5580     5702     5698     5603     5467     5283     5163 
    5251     5436     5528     5564     5594     5472     5206     5074 
    5209     5479     5722     5836     5767     5548     5386     5466 
    5614     5578     5422     5287     5223     5294     5462     5533 
    5449     5356     5356     5445     5564     5601     5532     5490 
    5564     5641     5593     5476     5367     5281     5265     5317 
    5383     5433     5460     5491     5535     5555     5524     5454 
    5381     5320     5282     5319     5427     5508     5513     5517 
    5571     5624     5628     5575     5468     5370     5370     5462 
    5497     5416     5370     5447     5553     5590     5541     5447 
    5385     5452     5606     5633     5445     5254     5248     5385 
    5539     5601     5476     5224     5135     5418     5825     5964 
    5809     5518     5197     5009     5103     5347     5462     5455 
    5543     5690     5687     5539     5406     5364     5418     5586 
    5746     5645     5300     5065     5151     5390     5553     5578 
    5495     5355     5282     5402     5630     5763     5752     5641 
    5487     5406     5420     5418     5378     5359     5385     5420 
    5425     5417     5417     5413     5420     5471     5532     5491 
    5383     5413     5589     5644     5532     5458     5410     5260 
    5138     5198     5351     5475     5591     5694     5699     5630 
    5566     5520     5516     5539     5509     5439     5398     5385 
    5339     5277     5270     5320     5370     5421     5513     5613 
    5661     5633     5537     5445     5422     5479     5605     5721 
    5697     5513     5297     5179     5192     5246     5265     5292 
    5379     5547     5725     5737     5552     5358     5327     5471 
    5644     5665     5517     5323     5212     5255     5432     5564 
    5505     5362     5323     5416     5572     5695     5678     5547 
    5435     5416     5447     5467     5437     5309     5132     5111 
    5346     5667     5848     5823     5651     5439     5341     5386 
    5424     5398     5394     5433     5472     5491     5459     5359 
    5293     5393     5598     5663     5512     5356     5328     5406 
    5578     5719     5660     5444     5281     5270     5301     5314 
    5387     5481     5510     5568     5705     5794     5721     5552 
    5402     5317     5317     5385     5448     5476     5468     5418 
    5382     5408     5436     5394     5355     5418     5516     5557 
    5575     5583     5556     5502     5448     5416     5386     5350 
    5374     5497     5599     5545     5387     5305     5340     5428 
    5530     5580     5525     5439     5440     5509     5525     5444 
    5317     5260     5377     5593     5706     5630     5467     5359 
    5370     5471     5539     5459     5283     5202     5320     5543 
    5670     5593     5400     5260     5265     5406     5590     5643 
    5529     5400     5381     5452     5529     5576     5570     5483 
    5393     5406     5491     5537     5517     5475     5445     5448 
    5485     5524     5486     5355     5273     5374     5582     5674 
    5556     5378     5287     5286     5374     5539     5629     5551 
    5420     5374     5398     5437     5502     5583     5611     5567 
    5518     5491     5449     5422     5444     5474     5466     5431 
    5402     5412     5445     5447     5439     5474     5505     5499 
    5495     5466     5409     5382     5386     5397     5421     5455 
    5478     5464     5444     5448     5452     5462     5493     5498 
    5466     5452     5493     5537     5525     5489     5456     5402 
    5366     5406     5475     5506     5498     5474     5458     5470 
    5501     5521     5509     5478     5443     5394     5352     5371 
    5435     5462     5448     5443     5440     5467     5547     5582 
    5521     5459     5436     5413     5413     5462     5494     5475 
    5470     5521     5562     5535     5472     5391     5283     5240 
    5325     5448     5532     5576     5556     5464     5389     5391 
    5427     5444     5472     5525     5552     5525     5472     5433 
    5428     5462     5506     5505     5463     5449     5483     5524 
    5557     5571     5501     5377     5316     5351     5432     5493 
    5520     5525     5498     5448     5433     5451     5432     5378 
    5366     5408     5458     5493     5518     5526     5505     5499 
    5522     5497     5420     5379     5404     5463     5529     5551 
    5472     5347     5317     5417     5530     5557     5514     5451 
    5387     5378     5455     5516     5478     5424     5435     5474 
    5491     5486     5460     5418     5413     5460     5498     5493 
    5486     5502     5508     5478     5440     5402     5371     5404 
    5478     5508     5494     5483     5459     5425     5447     5532 
    5590     5579     5521     5433     5374     5385     5420     5448 
    5470     5459     5431     5454     5501     5487     5440     5427 
    5431     5421     5431     5471     5486     5456     5447     5485 
    5510     5481     5458     5486     5494     5462     5443     5439 
    5424     5417     5448     5498     5502     5444     5387     5382 
    5432     5514     5566     5559     5516     5462     5435     5449 
    5445     5408     5390     5394     5405     5458     5520     5518 
    5468     5451     5471     5486     5490     5490     5466     5443 
    5460     5499     5530     5533     5491     5409     5328     5316 
    5385     5471     5517     5490     5414     5377     5424     5526 
    5610     5597     5491     5406     5428     5501     5532     5494 
    5409     5325     5306     5371     5466     5514     5513     5494 
    5486     5516     5562     5552     5487     5414     5362     5355 
    5413     5505     5541     5490     5440     5454     5489     5509 
    5505     5466     5413     5394     5433     5498     5532     5516 
    5462     5420     5449     5502     5495     5455     5421     5405 
    5448     5532     5562     5503     5405     5339     5340     5395 
    5474     5516     5493     5462     5460     5466     5459     5452 
    5459     5463     5449     5456     5490     5489     5441     5413 
    5424     5443     5466     5497     5502     5456     5422     5454 
    5495     5495     5470     5439     5429     5470     5533     5557 
    5510     5425     5368     5362     5404     5464     5497     5483 
    5454     5445     5452     5432     5406     5421     5458     5495 
    5521     5498     5451     5444     5483     5524     5536     5509 
