Origin Time       2025/03/30 10:46:00
Lat.              32.923
Long.             130.372
Depth. (km)       11
Mag.              3.4
Station Code      FKOH07
Station Lat.      33.3678
Station Long.     130.6354
Station Height(m) 15
Record Time       2025/03/30 10:46:37
Sampling Freq(Hz) 100Hz
Duration Time(s)  120
Dir.              5
Scale Factor      7845(gal)/8223790
Max. Acc. (gal)   1.113
Last Correction   2025/03/30 10:46:37
Memo.             
[...]
    4803     4806     4801     4792     4795     4800     4797     4799 
    4800     4799     4801     4801     4797     4797     4800     4801 
    4801     4800     4803     4803     4796     4799     4806     4801 
    4796     4797     4797     4796     4799     4799     4796     4801 
    4803     4800     4799     4800     4797     4797     4797     4801 
    4803     4800     4797     4797     4800     4801     4801     4801 
    4800     4796     4795     4797     4799     4799     4797     4799 
    4799     4796     4792     4796     4806     4803     4796     4795 
    4795     4796     4795     4795     4803     4804     4795     4789 
    4796     4800     4800     4800     4799     4795     4795     4793 
    4791     4792     4795     4799     4797     4793     4796     4797 
    4795     4799     4803     4795     4792     4793     4793     4799 
    4800     4796     4793     4793     4795     4796     4796     4793 
    4796     4796     4793     4791     4791     4795     4799     4803 
    4800     4796     4795     4796     4797     4803     4803     4797 
    4795     4795     4792     4793     4797     4801     4800     4800 
    4799     4796     4793     4793     4796     4795     4793     4795 
    4797     4799     4797     4795     4795     4800     4800     4797 
    4800     4804     4799     4793     4800     4803     4797     4796 
    4793     4792     4797     4803     4806     4803     4796     4793 
    4797     4799     4799     4800     4799     4796     4797     4803 
    4806     4800     4793     4795     4796     4796     4800     4803 
    4803     4800     4796     4797     4803     4801     4799     4800 
    4797     4795     4799     4800     4797     4801     4806     4800 
    4795     4796     4800     4803     4803     4801     4797     4796 
    4797     4799     4801     4800     4795     4793     4795     4796 
    4801     4804     4801     4799     4795     4791     4800     4811 
    4807     4796     4796     4799     4797     4800     4801     4799 
    4797     4799     4799     4796     4793     4797     4801     4796 
    4795     4797     4799     4796     4796     4797     4800     4806 
    4803     4795     4793     4799     4799     4797     4800     4799 
    4793     4793     4799     4797     4793     4800     4804     4796 
    4792     4800     4800     4796     4804     4808     4797     4791 
    4793     4795     4793     4797     4800     4793     4788     4792 
    4796     4797     4801     4803     4796     4793     4801     4803 
    4797     4796     4799     4800     4800     4797     4796     4793 
    4795     4801     4801     4796     4793     4796     4801     4806 
    4803     4797     4795     4792     4789     4793     4800     4801 
    4799     4800     4796     4793     4799     4801     4797     4796 
    4795     4795     4799     4799     4797     4797     4797     4796 
    4793     4793     4797     4800     4799     4800     4800     4796 
    4795     4795     4795     4796     4799     4800     4801     4799 
    4793     4792     4800     4804     4799     4795     4796     4796 
    4799     4803     4800     4797     4799     4801     4799     4796 
    4799     4803     4804     4800     4795     4791     4792     4797 
    4801     4800     4796     4793     4796     4800     4800     4797 
    4797     4796     4796     4797     4800     4803     4799     4795 
    4803     4807     4803     4800     4797     4797     4803     4803 
    4795     4792     4796     4799     4801     4803     4801     4796 
    4793     4797     4799     4793     4792     4797     4796     4795 
    4804     4807     4796     4793     4799     4800     4799     4797 
    4800     4801     4799     4799     4799     4796     4796     4799 
    4797     4797     4795     4792     4791     4796     4800     4803 
    4803     4799     4793     4795     4800     4801     4799     4797 
    4800     4801     4797     4795     4796     4800     4804     4800 
    4796     4795     4795     4793     4795     4799     4800     4796 
    4797     4797     4795     4799     4803     4803     4803     4800 
    4793     4795     4801     4803     4800     4799     4799     4796 
    4793     4793     4793     4796     4800     4797     4795     4795 
    4797     4797     4797     4800     4803     4799     4793     4797 
    4799     4795     4795     4796     4796     4796     4800     4803 
    4799     4796     4797     4795     4793     4796     4795     4793 
    4797     4796     4793     4795     4796     4797     4800     4801 
    4801     4799     4795     4793     4797     4800     4796     4796 
    4797     4799     4799     4799     4795     4797     4803     4796 
    4791     4795     4799     4796     4793     4800     4803     4796 
    4795     4799     4799     4797     4801     4803     4796     4791 
    4795     4801     4800     4796     4793     4793     4796     4795 
    4793     4796     4801     4800     4795     4796     4799     4800 
    4803     4803     4799     4796     4796     4799     4803     4803 
    4799     4795     4793     4792     4793     4796     4801     4800 
    4792     4792     4797     4799     4797     4797     4799     4800 
    4801     4799     4796     4797     4797     4795     4799     4806 
    4803     4796     4796     4799     4797     4795     4792     4795 
    4799     4801     4800     4796     4796     4797     4796     4799 
    4800     4799     4799     4800     4799     4799     4799     4797 
    4800     4799     4797     4799     4800     4799     4795     4800 
    4801     4799     4799     4799     4796     4799     4801     4800 
    4796     4797     4801     4800     4795     4792     4797     4801 
    4800     4797     4797     4797     4796     4796     4800     4800 
    4795     4795     4799     4799     4799     4801     4799     4797 
    4799     4797     4800     4804     4801     4795     4796     4799 
    4796     4796     4799     4800     4799     4800     4800     4797 
    4796     4800     4801     4800     4799     4795     4792     4796 
    4800     4799     4796     4799     4800     4797     4797     4799 
    4796     4797     4801     4801     4795     4795     4797     4797 
    4799     4804     4801     4797     4797     4800     4803     4799 
    4793     4796     4799     4799     4801     4803     4799     4796 
    4796     4800     4801     4800     4797     4797     4797     4797 
    4797     4797     4795     4796     4799     4797     4800     4804 
    4796     4791     4797     4800     4800     4804     4803     4797 
    4799     4801     4800     4800     4801     4801     4793     4789 
    4796     4801     4797     4796     4799     4796     4793     4795 
    4799     4804     4797     4785     4791     4810     4820     4810 
    4780     4765     4788     4828     4847     4819     4761     4737 
    4770     4826     4846     4807     4760     4768     4820     4842 
    4808     4764     4761     4804     4846     4845     4803     4743 
    4720     4784     4876     4889     4823     4743     4715     4765 
    4846     4869     4814     4737     4707     4753     4834     4861 
    4795     4719     4762     4904     4965     4872     4747     4715 
    4772     4838     4824     4745     4677     4677     4784     4927 
    4943     4828     4727     4739     4841     4909     4873     4787 
    4687     4608     4641     4773     4900     4923     4828     4764 
    4830     4888     4826     4760     4784     4824     4796     4734 
    4715     4742     4814     4912     4927     4801     4650     4642 
    4800     4947     4922     4770     4672     4737     4865     4899 
    4827     4734     4708     4758     4819     4839     4791     4723 
    4752     4850     4911     4887     4783     4703     4729     4788 
    4826     4838     4826     4792     4737     4718     4795     4874 
    4847     4770     4750     4793     4841     4865     4897     4909 
    4807     4656     4610     4671     4779     4892     4912     4801 
    4696     4729     4851     4931     4889     4765     4680     4687 
    4746     4835     4892     4858     4806     4793     4804     4861 
    4912     4843     4707     4658     4725     4823     4882     4869 
    4814     4781     4791     4818     4811     4749     4704     4746 
    4799     4801     4810     4831     4828     4820     4820     4816 
    4796     4764     4750     4749     4749     4799     4878     4899 
    4872     4815     4729     4699     4756     4828     4860     4808 
    4731     4743     4833     4891     4880     4803     4725     4731 
    4816     4887     4865     4772     4704     4707     4758     4835 
    4866     4810     4772     4823     4865     4828     4770     4758 
    4779     4800     4827     4822     4764     4752     4838     4923 
    4897     4772     4703     4772     4857     4851     4765     4668 
    4656     4729     4797     4841     4846     4812     4804     4850 
    4893     4869     4768     4688     4711     4769     4801     4811 
    4783     4769     4824     4900     4924     4877     4800     4752 
    4749     4779     4816     4822     4789     4760     4757     4776 
    4784     4762     4741     4758     4814     4884     4924     4888 
    4806     4769     4793     4796     4746     4681     4668     4742 
    4842     4876     4834     4758     4730     4792     4880     4892 
    4826     4760     4739     4772     4843     4880     4828     4765 
    4777     4841     4892     4884     4795     4671     4621     4704 
    4853     4905     4810     4696     4677     4747     4839     4860 
    4791     4753     4826     4905     4877     4801     4792     4819 
    4820     4806     4791     4807     4850     4857     4811     4743 
    4700     4735     4801     4800     4746     4730     4788     4855 
    4861     4834     4826     4823     4791     4753     4730     4719 
    4739     4820     4896     4872     4799     4792     4853     4887 
    4828     4730     4685     4708     4765     4827     4853     4826 
    4787     4799     4880     4927     4849     4729     4693     4753 
    4815     4806     4770     4773     4783     4783     4815     4847 
    4820     4756     4714     4722     4788     4880     4909     4866 
    4818     4792     4760     4750     4784     4795     4745     4715 
    4780     4865     4861     4812     4820     4849     4845     4823 
    4773     4715     4719     4803     4895     4891     4797     4749 
    4777     4807     4792     4733     4689     4733     4814     4857 
    4860     4842     4828     4839     4846     4811     4741     4710 
    4765     4833     4838     4812     4800     4801     4814     4835 
    4835     4783     4734     4777     4837     4797     4715     4684 
    4719     4814     4901     4885     4800     4774     4842     4882 
    4812     4737     4760     4814     4843     4864     4843     4768 
    4708     4727     4783     4804     4783     4752     4741     4754 
    4752     4752     4837     4958     4972     4881     4826     4824 
    4791     4712     4661     4693     4781     4838     4830     4801 
    4796     4834     4885     4857     4737     4657     4702     4808 
    4869     4827     4742     4733     4828     4936     4936     4818 
    4723     4741     4781     4770     4741     4741     4793     4843 
    4841     4828     4838     4838     4803     4750     4738     4783 
    4826     4826     4784     4750     4764     4795     4810     4830 
    4869     4897     4873     4797     4706     4646     4664     4730 
    4770     4796     4853     4920     4936     4892     4833     4788 
    4770     4801     4849     4846     4791     4739     4726     4754 
    4787     4792     4761     4703     4677     4745     4847     4887 
    4865     4827     4799     4814     4853     4857     4816     4749 
    4720     4784     4853     4849     4804     4785     4823     4846 
    4806     4764     4733     4696     4719     4781     4791     4772 
    4806     4873     4896     4858     4808     4808     4851     4864 
    4816     4753     4712     4714     4750     4787     4814     4833 
    4827     4800     4768     4750     4774     4812     4804     4761 
    4743     4787     4846     4860     4834     4822     4850     4873 
    4830     4768     4753     4774     4806     4815     4787     4756 
    4734     4730     4762     4803     4838     4864     4857     4830 
    4803     4765     4745     4770     4795     4787     4779     4801 
    4833     4820     4776     4773     4819     4842     4801     4757 
    4777     4828     4828     4792     4780     4793     4826     4888 
    4932     4876     4758     4718     4761     4795     4808     4787 
    4711     4665     4712     4803     4865     4845     4769     4747 
    4799     4854     4870     4796     4648     4549     4546     4588 
    4633     4658     4689     4772     4878     4957     5020     5092 
    5128     5076     4969     4905     4903     4895     4842     4753 
    4683     4718     4903     5148     5289     5228     5004     4719 
    4450     4201     3960     3801     3836     4117     4611     5186 
    5664     5917     5887     5644     5325     5007     4692     4426 
    4298     4297     4288     4233     4243     4367     4529     4681 
    4839     5007     5167     5321     5460     5547     5525     5381 
    5135     4803     4409     4025     3746     3674     3892     4372 
    4995     5593     5961     5964     5620     5062     4499     4091 
    3847     3758     3879     4214     4708     5243     5634     5736 
    5549     5192     4831     4595     4490     4471     4529     4669 
    4869     5061     5121     4982     4702     4402     4220     4213 
    4348     4563     4773     4945     5123     5312     5422     5362 
    5111     4746     4441     4356     4492     4722     4916     4995 
    4977     4928     4834     4645     4430     4353     4472     4679 
    4885     5069     5178     5167     5074     4966     4850     4712 
    4614     4611     4672     4734     4774     4803     4854     4966 
    5103     5173     5135     5004     4834     4679     4565     4488 
    4441     4482     4684     4954     5067     4958     4745     4560 
    4488     4564     4725     4838     4845     4795     4774     4816 
    4887     4976     5121     5271     5298     5115     4765     4409 
    4176     4101     4185     4376     4581     4785     5001     5182 
    5283     5305     5242     5103     4928     4770     4683     4666 
    4646     4592     4557     4598     4719     4872     5001     5065 
    5001     4862     4777     4754     4737     4745     4803     4853 
    4796     4619     4429     4302     4283     4442     4735     5001 
    5178     5275     5277     5236     5200     5103     4916     4702 
    4518     4392     4338     4365     4464     4583     4711     4881 
    5080     5239     5289     5179     4934     4699     4594     4590 
    4650     4803     4990     5073     4995     4834     4683     4568 
    4495     4469     4476     4522     4625     4741     4826     4895 
    4926     4891     4843     4814     4777     4796     4934     5111 
    5215     5228     5188     5104     4985     4850     4691     4513 
    4367     4332     4415     4560     4712     4845     4926     4951 
    4914     4807     4692     4623     4611     4698     4893     5065 
    5053     4885     4741     4712     4770     4849     4861     4793 
    4749     4803     4887     4897     4831     4762     4730     4696 
    4629     4567     4544     4572     4676     4874     5113     5283 
    5314     5204     4976     4696     4476     4384     4418     4575 
    4820     5047     5152     5108     4928     4693     4525     4471 
    4488     4549     4662     4791     4862     4877     4892     4938 
    4982     5001     4999     4955     4834     4658     4499     4419 
    4437     4569     4807     5055     5188     5155     5001     4831 
    4746     4749     4781     4801     4791     4760     4758     4800 
    4835     4830     4804     4797     4785     4725     4656     4652 
    4708     4766     4814     4887     4976     5020     5023     5017 
    4981     4903     4804     4710     4652     4642     4656     4669 
    4684     4745     4876     4973     4934     4792     4657     4626 
    4738     4895     4962     4927     4842     4761     4725     4685 
    4575     4434     4372     4429     4569     4729     4858     4936 
    4955     4962     5013     5065     5027     4914     4804     4708 
    4599     4500     4486     4599     4806     5023     5170     5202 
    5139     5039     4923     4773     4603     4476     4442     4517 
    4672     4838     4965     5043     5086     5085     5015     4903 
    4783     4657     4577     4592     4657     4727     4803     4887 
    4962     5001     4977     4904     4803     4687     4587     4536 
    4523     4534     4576     4657     4752     4824     4869     4884 
    4864     4812     4770     4796     4873     4938     4968     4976 
    4980     5004     5065     5128     5125     5024     4888     4787 
    4738     4716     4680     4606     4499     4399     4375     4464 
    4607     4716     4770     4806     4862     4947     5020     5050 
    5047     5001     4888     4737     4619     4558     4536     4531 
    4526     4534     4595     4702     4824     4949     5049     5112 
    5148     5151     5109     5022     4896     4772     4676     4630 
    4641     4675     4696     4700     4692     4692     4712     4729 
    4727     4739     4799     4904     5013     5084     5094     5038 
    4919     4773     4656     4590     4587     4633     4698     4749 
    4766     4768     4781     4801     4826     4878     4950     4984 
    4943     4855     4816     4857     4882     4838     4769     4720 
    4707     4716     4703     4668     4637     4635     4683     4750 
    4787     4791     4769     4729     4711     4747     4827     4919 
    4977     4970     4907     4833     4772     4729     4720     4735 
    4735     4742     4789     4857     4915     4934     4891     4796 
    4718     4716     4749     4739     4704     4703     4746     4833 
    4951     5042     5057     5001     4899     4792     4718     4676 
    4654     4645     4652     4680     4714     4768     4851     4904 
    4870     4780     4719     4743     4803     4837     4858     4881 
    4881     4860     4826     4788     4758     4746     4754     4764 
    4750     4739     4754     4774     4779     4770     4764     4756 
    4746     4757     4815     4896     4961     4989     4973     4926 
    4885     4855     4824     4780     4727     4681     4650     4654 
    4711     4793     4873     4939     4938     4857     4762     4700 
    4673     4676     4688     4714     4752     4793     4842     4869 
    4864     4862     4866     4868     4869     4857     4831     4837 
    4878     4901     4880     4831     4774     4707     4629     4569 
    4548     4557     4588     4630     4691     4811     4981     5134 
    5186     5098     4918     4734     4598     4531     4537     4576 
    4626     4712     4830     4930     4977     4982     4965     4927 
    4874     4823     4785     4752     4715     4702     4725     4766 
