Origin Time       2025/03/30 10:46:00
Lat.              32.923
Long.             130.372
Depth. (km)       11
Mag.              3.4
Station Code      FKOH07
Station Lat.      33.3678
Station Long.     130.6354
Station Height(m) 15
Record Time       2025/03/30 10:46:37
Sampling Freq(Hz) 100Hz
Duration Time(s)  120
Dir.              4
Scale Factor      7845(gal)/8223790
Max. Acc. (gal)   1.668
Last Correction   2025/03/30 10:46:37
Memo.             
[...]
   17613    17613    17616    17616    17614    17614    17617    17618 
   17618    17618    17617    17617    17616    17617    17620    17616 
   17614    17620    17621    17617    17616    17616    17613    17612 
   17612    17613    17618    17620    17618    17614    17614    17616 
   17617    17617    17620    17620    17620    17621    17618    17612 
   17612    17618    17622    17618    17613    17613    17616    17617 
   17618    17617    17618    17620    17618    17614    17613    17617 
   17618    17618    17618    17620    17620    17614    17613    17614 
   17617    17618    17617    17616    17618    17621    17618    17616 
   17613    17610    17613    17618    17618    17618    17618    17617 
   17617    17616    17613    17617    17622    17621    17616    17617 
   17621    17617    17609    17612    17620    17620    17614    17613 
   17613    17610    17612    17617    17618    17617    17617    17616 
   17614    17614    17617    17617    17618    17617    17616    17616 
   17616    17614    17612    17613    17617    17618    17616    17616 
   17618    17618    17616    17612    17610    17612    17616    17617 
   17614    17613    17616    17614    17613    17613    17614    17617 
   17618    17620    17621    17617    17614    17617    17617    17614 
   17617    17616    17610    17609    17610    17613    17617    17618 
   17620    17616    17609    17610    17616    17618    17618    17616 
   17614    17617    17621    17616    17610    17614    17618    17614 
   17612    17614    17618    17617    17613    17612    17613    17616 
   17618    17618    17617    17616    17616    17616    17614    17617 
   17620    17617    17617    17620    17614    17609    17613    17618 
   17620    17618    17616    17614    17613    17609    17608    17614 
   17621    17618    17612    17610    17616    17616    17613    17617 
   17620    17618    17618    17616    17614    17614    17617    17618 
   17617    17617    17617    17614    17618    17621    17616    17616 
   17618    17618    17617    17617    17616    17616    17614    17609 
   17608    17613    17620    17620    17617    17616    17613    17614 
   17618    17620    17621    17621    17616    17610    17612    17616 
   17620    17622    17621    17616    17612    17612    17613    17614 
   17616    17616    17614    17614    17618    17617    17613    17616 
   17622    17622    17620    17614    17609    17610    17618    17622 
   17617    17610    17612    17614    17612    17614    17622    17622 
   17618    17618    17616    17612    17616    17621    17618    17618 
   17621    17614    17605    17609    17614    17616    17618    17620 
   17614    17610    17613    17618    17621    17616    17610    17614 
   17618    17620    17617    17616    17616    17616    17613    17614 
   17618    17620    17620    17617    17616    17613    17609    17614 
   17622    17625    17620    17616    17614    17612    17609    17616 
   17621    17621    17618    17612    17608    17610    17613    17613 
   17614    17618    17618    17616    17616    17614    17612    17614 
   17618    17620    17621    17618    17612    17614    17620    17618 
   17617    17620    17620    17616    17613    17614    17617    17616 
   17614    17616    17618    17618    17617    17613    17609    17612 
   17614    17620    17625    17621    17616    17617    17617    17610 
   17610    17621    17631    17625    17613    17609    17608    17610 
   17617    17620    17620    17620    17614    17612    17613    17614 
   17616    17616    17616    17614    17614    17616    17616    17616 
   17614    17618    17622    17618    17616    17614    17614    17617 
   17618    17617    17616    17614    17614    17617    17621    17617 
   17610    17608    17612    17616    17617    17618    17616    17613 
   17616    17620    17614    17617    17624    17620    17613    17613 
   17613    17613    17613    17614    17617    17617    17616    17610 
   17606    17608    17613    17616    17614    17614    17614    17613 
   17617    17621    17618    17617    17618    17618    17616    17613 
   17616    17622    17622    17616    17608    17609    17616    17617 
   17614    17616    17616    17610    17605    17609    17616    17617 
   17618    17618    17614    17612    17614    17614    17618    17624 
   17620    17613    17614    17617    17614    17614    17620    17620 
   17612    17608    17610    17613    17617    17620    17618    17618 
   17617    17610    17610    17618    17625    17622    17620    17618 
   17616    17612    17614    17621    17620    17616    17612    17613 
   17614    17613    17616    17618    17616    17616    17617    17617 
   17616    17616    17616    17617    17618    17617    17616    17617 
   17621    17621    17616    17610    17612    17616    17620    17618 
   17616    17617    17617    17616    17614    17613    17613    17613 
   17614    17617    17618    17618    17617    17618    17621    17621 
   17618    17617    17617    17616    17617    17621    17621    17613 
   17613    17617    17618    17620    17618    17616    17618    17618 
   17614    17614    17617    17618    17616    17614    17618    17620 
   17616    17617    17618    17614    17613    17614    17614    17616 
   17618    17620    17617    17610    17608    17612    17620    17621 
   17620    17618    17616    17618    17620    17614    17614    17618 
   17618    17616    17617    17618    17613    17610    17614    17620 
   17622    17618    17614    17612    17614    17616    17612    17609 
   17612    17616    17617    17617    17617    17617    17617    17613 
   17612    17616    17617    17617    17617    17616    17616    17617 
   17613    17610    17613    17617    17618    17617    17613    17610 
   17616    17621    17621    17617    17613    17613    17612    17610 
   17613    17618    17620    17617    17616    17614    17613    17614 
   17614    17618    17621    17620    17616    17610    17612    17614 
   17613    17613    17614    17612    17613    17614    17614    17614 
   17617    17618    17616    17616    17617    17614    17610    17610 
   17613    17616    17617    17616    17613    17614    17618    17617 
   17614    17616    17618    17620    17621    17618    17612    17612 
   17614    17609    17609    17617    17618    17616    17616    17613 
   17610    17614    17617    17616    17614    17618    17622    17620 
   17613    17613    17616    17618    17617    17616    17617    17620 
   17621    17616    17612    17610    17614    17620    17620    17618 
   17616    17610    17608    17612    17616    17618    17618    17617 
   17614    17614    17613    17616    17614    17612    17614    17621 
   17620    17614    17609    17606    17612    17618    17616    17609 
   17612    17616    17617    17617    17622    17625    17617    17608 
   17612    17616    17612    17609    17612    17616    17616    17614 
   17614    17621    17629    17622    17597    17583    17613    17651 
   17645    17602    17574    17591    17629    17652    17651    17625 
   17594    17594    17613    17608    17582    17583    17621    17668 
   17680    17625    17551    17550    17616    17667    17672    17655 
   17612    17554    17529    17587    17680    17702    17644    17591 
   17591    17604    17587    17564    17568    17614    17678    17698 
   17639    17544    17500    17560    17695    17760    17671    17556 
   17560    17641    17670    17606    17540    17552    17598    17628 
   17668    17714    17693    17608    17570    17601    17616    17612 
   17651    17683    17621    17520    17486    17505    17552    17662 
   17806    17859    17730    17510    17392    17463    17641    17751 
   17687    17545    17505    17587    17675    17699    17670    17616 
   17589    17624    17659    17616    17529    17518    17626    17729 
   17698    17567    17498    17572    17670    17662    17597    17570 
   17583    17609    17633    17653    17639    17601    17602    17606 
   17563    17552    17631    17709    17694    17645    17629    17612 
   17570    17550    17609    17703    17693    17566    17474    17528 
   17686    17793    17732    17574    17494    17539    17578    17568 
   17598    17666    17679    17637    17624    17636    17612    17562 
   17543    17578    17636    17662    17649    17620    17591    17608 
   17663    17689    17651    17589    17545    17529    17547    17579 
   17608    17655    17729    17763    17693    17577    17529    17563 
   17589    17586    17604    17617    17613    17632    17668    17668 
   17641    17631    17624    17595    17558    17510    17483    17545 
   17680    17757    17718    17640    17594    17585    17609    17639 
   17632    17575    17517    17544    17640    17667    17612    17606 
   17678    17712    17675    17643    17613    17552    17512    17529 
   17566    17582    17567    17585    17680    17751    17674    17531 
   17509    17645    17786    17788    17652    17506    17481    17536 
   17571    17598    17633    17656    17682    17699    17667    17614 
   17583    17559    17559    17616    17652    17602    17567    17626 
   17687    17668    17617    17585    17585    17632    17690    17693 
   17639    17575    17554    17587    17620    17609    17579    17551 
   17540    17582    17645    17655    17632    17641    17662    17641 
   17597    17567    17567    17591    17616    17644    17667    17647 
   17601    17601    17659    17722    17752    17729    17641    17541 
   17500    17504    17506    17529    17599    17679    17722    17724 
   17682    17595    17512    17506    17555    17574    17586    17628 
   17609    17520    17516    17658    17782    17772    17694    17637 
   17637    17668    17645    17540    17470    17544    17674    17705 
   17632    17598    17676    17747    17671    17512    17427    17462 
   17536    17593    17621    17625    17635    17670    17702    17671 
   17583    17570    17659    17702    17648    17601    17620    17656 
   17658    17635    17620    17613    17586    17527    17497    17541 
   17598    17613    17622    17667    17695    17652    17605    17629 
   17679    17656    17564    17509    17529    17591    17653    17670 
   17667    17695    17716    17667    17594    17556    17524    17477 
   17490    17601    17697    17687    17647    17644    17616    17543 
   17525    17589    17640    17653    17682    17699    17659    17626 
   17656    17675    17632    17578    17547    17520    17505    17537 
   17624    17725    17767    17706    17604    17547    17541    17554 
   17564    17537    17504    17559    17680    17743    17733    17733 
   17739    17695    17598    17500    17462    17487    17544    17601 
   17635    17658    17682    17695    17687    17666    17635    17577 
   17500    17494    17589    17655    17612    17568    17641    17757 
   17757    17640    17571    17614    17643    17606    17566    17524 
   17489    17520    17613    17670    17645    17594    17583    17637 
   17691    17663    17585    17593    17698    17739    17653    17563 
   17559    17602    17624    17612    17604    17620    17643    17648 
   17613    17568    17581    17644    17680    17676    17676    17659 
   17594    17521    17485    17491    17539    17620    17698    17706 
   17620    17540    17583    17687    17695    17606    17563    17618 
   17680    17659    17581    17545    17608    17691    17687    17628 
   17614    17633    17608    17544    17506    17541    17641    17732 
   17737    17675    17622    17598    17582    17550    17532    17568 
   17612    17598    17567    17594    17671    17736    17744    17686 
   17609    17593    17625    17614    17554    17513    17528    17577 
   17617    17610    17601    17639    17690    17717    17713    17648 
   17547    17525    17593    17637    17626    17613    17597    17556 
   17537    17590    17667    17697    17683    17676    17706    17726 
   17670    17571    17501    17474    17490    17524    17529    17532 
   17587    17694    17788    17821    17790    17716    17622    17554 
   17535    17518    17474    17473    17563    17658    17676    17656 
   17644    17667    17703    17666    17537    17454    17508    17594 
   17618    17631    17674    17712    17706    17662    17621    17628 
   17655    17637    17594    17601    17639    17640    17613    17602 
   17614    17621    17598    17550    17518    17518    17516    17543 
   17635    17697    17676    17648    17687    17721    17648    17535 
   17518    17575    17586    17572    17636    17745    17793    17756 
   17685    17608    17529    17463    17442    17470    17535    17629 
   17716    17734    17687    17648    17637    17605    17558    17548 
   17563    17572    17591    17632    17653    17637    17625    17648 
   17671    17663    17644    17645    17656    17648    17620    17601 
   17609    17610    17581    17570    17618    17666    17641    17570 
   17520    17516    17531    17528    17509    17516    17548    17547 
   17496    17444    17470    17577    17705    17818    17921    18003 
   18068    18096    18019    17842    17663    17524    17417    17352 
   17346    17356    17362    17413    17568    17794    17928    17830 
   17550    17247    17010    16860    16914    17278    17861    18459 
   18906    19113    19041    18684    18071    17298    16544    16023 
   15867    16105    16684    17447    18191    18760    19059    19005 
   18578    17894    17130    16467    16065    15998    16282    16891 
   17660    18308    18646    18652    18405    18023    17645    17402 
   17371    17550    17814    17946    17817    17512    17208    16997 
   16908    17011    17356    17840    18279    18543    18586    18419 
   18102    17740    17450    17294    17251    17224    17162    17123 
   17159    17255    17385    17540    17724    17899    17979    17956 
   17932    17955    17965    17867    17651    17466    17454    17545 
   17547    17409    17253    17188    17271    17486    17760    18017 
   18157    18090    17826    17479    17163    16949    16927    17178 
   17668    18210    18553    18558    18268    17840    17467    17267 
   17219    17244    17305    17361    17355    17290    17259    17366 
   17622    17940    18203    18307    18162    17794    17374    17062 
   16908    16947    17250    17756    18250    18536    18528    18250 
   17828    17413    17122    16974    16938    17020    17232    17504 
   17748    17886    17902    17859    17770    17590    17369    17215 
   17194    17312    17545    17834    18079    18229    18283    18211 
   17996    17705    17419    17189    17062    17085    17244    17463 
   17625    17660    17610    17556    17532    17543    17552    17505 
   17431    17447    17587    17757    17884    18010    18175    18277 
   18175    17869    17510    17253    17158    17215    17388    17597 
   17730    17749    17701    17621    17558    17572    17648    17683 
   17610    17490    17464    17562    17666    17682    17631    17572 
   17533    17517    17512    17491    17494    17578    17714    17821 
   17856    17847    17818    17778    17725    17662    17598    17535 
   17474    17447    17487    17567    17566    17425    17288    17316 
   17477    17659    17828    17933    17869    17671    17523    17506 
   17555    17606    17648    17674    17664    17616    17536    17460 
   17466    17579    17721    17817    17868    17894    17874    17764 
   17586    17427    17392    17490    17613    17698    17782    17844 
   17784    17562    17265    17043    17022    17217    17520    17798 
   17983    18045    17988    17849    17687    17570    17554    17633 
   17712    17702    17621    17520    17443    17432    17496    17598 
   17671    17649    17559    17469    17393    17320    17300    17404 
   17625    17844    17923    17844    17674    17501    17415    17437 
   17543    17737    18013    18283    18407    18303    18044    17766 
   17489    17184    16941    16884    16985    17122    17247    17420 
   17658    17883    18022    18068    18018    17837    17531    17224 
   17078    17132    17315    17544    17793    18058    18291    18384 
   18277    18044    17803    17574    17315    17057    16899    16892 
   17020    17242    17510    17766    17950    18048    18065    18023 
   17967    17888    17733    17518    17358    17325    17402    17516 
   17609    17686    17803    17967    18084    18049    17834    17536 
   17274    17115    17076    17142    17288    17460    17587    17640 
   17662    17674    17662    17628    17604    17595    17599    17631 
   17707    17814    17872    17811    17670    17536    17474    17497 
   17559    17605    17621    17637    17690    17759    17799    17803 
   17797    17788    17744    17651    17548    17471    17424    17397 
   17393    17423    17458    17489    17535    17587    17618    17636 
   17639    17590    17508    17467    17502    17610    17767    17914 
   17998    17991    17876    17697    17562    17518    17527    17550 
   17560    17541    17510    17479    17419    17347    17370    17516 
   17675    17755    17782    17813    17841    17813    17693    17508 
   17340    17263    17277    17373    17564    17813    18009    18061 
   17968    17793    17614    17491    17443    17448    17478    17516 
   17560    17609    17648    17693    17747    17776    17752    17689 
   17625    17598    17606    17602    17560    17496    17447    17455 
   17528    17641    17736    17761    17732    17697    17687    17706 
   17707    17644    17566    17537    17536    17491    17396    17309 
   17289    17365    17532    17730    17883    17953    17956    17909 
   17806    17672    17574    17551    17572    17599    17635    17690 
   17725    17691    17608    17533    17505    17521    17541    17537 
   17508    17479    17494    17563    17653    17726    17753    17728 
   17653    17540    17435    17400    17440    17514    17597    17691 
   17791    17869    17887    17815    17687    17559    17444    17351 
   17313    17347    17416    17466    17496    17555    17656    17766 
   17856    17915    17930    17856    17701    17567    17543    17604 
   17667    17703    17745    17803    17826    17768    17649    17518 
   17392    17270    17208    17266    17423    17587    17736    17887 
   18000    18011    17914    17766    17622    17473    17313    17193 
   17181    17289    17458    17613    17718    17783    17817    17811 
   17771    17697    17602    17514    17448    17406    17405    17470 
   17601    17772    17925    17983    17930    17803    17651    17545 
   17544    17631    17733    17775    17707    17575    17458    17389 
   17370    17401    17477    17602    17744    17805    17756    17679 
   17632    17605    17587    17585    17597    17618    17656    17691 
   17699    17693    17693    17693    17668    17621    17568    17516 
   17464    17427    17415    17451    17537    17647    17757    17811 
   17740    17567    17409    17340    17358    17436    17550    17670 
   17774    17840    17871    17869    17813    17702    17589    17505 
   17436    17393    17413    17510    17653    17778    17845    17859 
