Origin Time       2025/03/30 10:46:00
Lat.              32.923
Long.             130.372
Depth. (km)       11
Mag.              3.4
Station Code      FKOH07
Station Lat.      33.3678
Station Long.     130.6354
Station Height(m) -422
Record Time       2025/03/30 10:46:37
Sampling Freq(Hz) 100Hz
Duration Time(s)  120
Dir.              3
Scale Factor      3923(gal)/8224838
Max. Acc. (gal)   0.097
Last Correction   2025/03/30 10:46:37
Memo.             
[...]
   -2953    -2952    -2955    -2956    -2955    -2951    -2951    -2953 
   -2953    -2952    -2952    -2952    -2951    -2952    -2955    -2953 
   -2951    -2953    -2953    -2952    -2952    -2952    -2951    -2952 
   -2953    -2955    -2953    -2951    -2953    -2955    -2951    -2951 
   -2955    -2952    -2949    -2952    -2953    -2952    -2952    -2952 
   -2952    -2952    -2952    -2952    -2953    -2953    -2952    -2951 
   -2952    -2953    -2952    -2952    -2955    -2955    -2952    -2951 
   -2949    -2951    -2953    -2949    -2949    -2953    -2953    -2952 
   -2953    -2952    -2949    -2949    -2952    -2952    -2949    -2952 
   -2953    -2951    -2951    -2952    -2951    -2949    -2951    -2953 
   -2953    -2953    -2953    -2952    -2952    -2953    -2951    -2952 
   -2956    -2953    -2951    -2952    -2953    -2952    -2953    -2953 
   -2952    -2955    -2955    -2951    -2953    -2955    -2952    -2953 
   -2953    -2951    -2952    -2951    -2951    -2952    -2952    -2952 
   -2953    -2952    -2952    -2951    -2949    -2952    -2953    -2953 
   -2953    -2953    -2951    -2951    -2953    -2952    -2949    -2949 
   -2951    -2953    -2953    -2949    -2951    -2953    -2953    -2951 
   -2951    -2955    -2952    -2948    -2949    -2952    -2951    -2949 
   -2951    -2951    -2951    -2953    -2953    -2952    -2952    -2953 
   -2953    -2951    -2949    -2949    -2951    -2952    -2955    -2952 
   -2951    -2955    -2952    -2949    -2951    -2951    -2949    -2953 
   -2955    -2951    -2952    -2955    -2952    -2952    -2952    -2951 
   -2952    -2952    -2951    -2951    -2952    -2949    -2951    -2952 
   -2949    -2951    -2953    -2952    -2949    -2951    -2952    -2951 
   -2951    -2952    -2953    -2952    -2952    -2951    -2951    -2953 
   -2953    -2949    -2949    -2953    -2953    -2951    -2952    -2953 
   -2952    -2952    -2951    -2953    -2953    -2949    -2952    -2955 
   -2953    -2952    -2953    -2952    -2949    -2951    -2952    -2952 
   -2953    -2956    -2955    -2952    -2951    -2949    -2949    -2953 
   -2955    -2951    -2951    -2953    -2952    -2953    -2953    -2949 
   -2951    -2953    -2952    -2953    -2952    -2949    -2952    -2955 
   -2953    -2952    -2952    -2953    -2952    -2949    -2949    -2952 
   -2952    -2952    -2952    -2951    -2953    -2953    -2949    -2949 
   -2951    -2952    -2953    -2951    -2949    -2952    -2952    -2952 
   -2952    -2952    -2952    -2953    -2953    -2952    -2951    -2952 
   -2952    -2952    -2953    -2953    -2951    -2949    -2952    -2952 
   -2952    -2952    -2951    -2951    -2953    -2951    -2951    -2952 
   -2951    -2949    -2952    -2953    -2952    -2952    -2952    -2953 
   -2953    -2952    -2952    -2951    -2949    -2951    -2952    -2952 
   -2953    -2952    -2953    -2953    -2953    -2953    -2952    -2951 
   -2952    -2953    -2953    -2953    -2953    -2953    -2951    -2951 
   -2952    -2953    -2953    -2953    -2955    -2952    -2948    -2951 
   -2953    -2951    -2952    -2955    -2953    -2952    -2952    -2953 
   -2953    -2952    -2952    -2953    -2955    -2951    -2951    -2953 
   -2952    -2952    -2953    -2953    -2955    -2955    -2952    -2951 
   -2952    -2951    -2949    -2951    -2952    -2953    -2952    -2953 
   -2956    -2953    -2948    -2952    -2957    -2952    -2949    -2951 
   -2953    -2953    -2952    -2953    -2955    -2953    -2951    -2951 
   -2952    -2952    -2951    -2952    -2956    -2955    -2952    -2951 
   -2951    -2953    -2953    -2952    -2951    -2952    -2953    -2953 
   -2955    -2952    -2952    -2955    -2952    -2952    -2953    -2952 
   -2953    -2952    -2953    -2956    -2953    -2951    -2953    -2955 
   -2955    -2955    -2955    -2953    -2953    -2952    -2952    -2953 
   -2952    -2952    -2953    -2956    -2955    -2952    -2952    -2955 
   -2955    -2952    -2955    -2955    -2951    -2951    -2953    -2952 
   -2951    -2952    -2955    -2953    -2952    -2951    -2952    -2953 
   -2955    -2951    -2949    -2953    -2955    -2953    -2953    -2953 
   -2952    -2951    -2953    -2953    -2949    -2951    -2953    -2952 
   -2952    -2955    -2955    -2952    -2951    -2953    -2952    -2949 
   -2953    -2955    -2951    -2951    -2952    -2951    -2951    -2951 
   -2952    -2953    -2955    -2953    -2953    -2953    -2952    -2949 
   -2948    -2949    -2952    -2955    -2952    -2949    -2952    -2952 
   -2951    -2952    -2952    -2951    -2952    -2952    -2951    -2952 
   -2955    -2951    -2951    -2953    -2955    -2951    -2949    -2951 
   -2953    -2953    -2951    -2953    -2955    -2952    -2952    -2953 
   -2953    -2949    -2949    -2953    -2955    -2953    -2953    -2951 
   -2949    -2952    -2951    -2952    -2953    -2949    -2948    -2952 
   -2953    -2953    -2952    -2951    -2952    -2953    -2953    -2953 
   -2951    -2951    -2953    -2955    -2955    -2952    -2952    -2956 
   -2956    -2951    -2952    -2956    -2956    -2953    -2952    -2952 
   -2952    -2952    -2952    -2952    -2952    -2953    -2953    -2952 
   -2953    -2955    -2952    -2953    -2953    -2953    -2952    -2951 
   -2952    -2952    -2951    -2952    -2955    -2955    -2955    -2955 
   -2953    -2952    -2953    -2955    -2953    -2953    -2953    -2951 
   -2951    -2953    -2953    -2952    -2955    -2953    -2951    -2952 
   -2953    -2953    -2952    -2952    -2952    -2951    -2952    -2953 
   -2953    -2953    -2953    -2953    -2953    -2953    -2952    -2953 
   -2955    -2953    -2953    -2953    -2952    -2953    -2955    -2952 
   -2952    -2953    -2951    -2951    -2952    -2953    -2953    -2952 
   -2949    -2951    -2953    -2953    -2953    -2952    -2951    -2953 
   -2953    -2949    -2951    -2952    -2951    -2952    -2952    -2952 
   -2953    -2953    -2952    -2955    -2955    -2949    -2951    -2952 
   -2951    -2955    -2953    -2949    -2953    -2957    -2956    -2953 
   -2952    -2952    -2952    -2953    -2953    -2952    -2952    -2952 
   -2952    -2951    -2952    -2953    -2953    -2953    -2953    -2952 
   -2952    -2956    -2957    -2955    -2953    -2953    -2955    -2953 
   -2949    -2952    -2956    -2951    -2949    -2955    -2955    -2955 
   -2956    -2955    -2953    -2953    -2955    -2953    -2951    -2952 
   -2953    -2955    -2953    -2952    -2953    -2952    -2953    -2955 
   -2952    -2951    -2953    -2956    -2956    -2955    -2953    -2953 
   -2953    -2953    -2953    -2951    -2949    -2953    -2952    -2949 
   -2952    -2956    -2956    -2953    -2953    -2956    -2955    -2952 
   -2952    -2952    -2953    -2956    -2955    -2953    -2955    -2953 
   -2952    -2952    -2952    -2953    -2953    -2953    -2953    -2953 
   -2952    -2953    -2953    -2955    -2955    -2953    -2952    -2953 
   -2953    -2949    -2949    -2953    -2955    -2952    -2953    -2956 
   -2955    -2952    -2951    -2952    -2953    -2953    -2952    -2951 
   -2952    -2955    -2953    -2951    -2951    -2953    -2955    -2949 
   -2948    -2952    -2953    -2952    -2953    -2952    -2949    -2951 
   -2955    -2956    -2959    -2964    -2968    -2974    -2976    -2970 
   -2961    -2955    -2933    -2901    -2882    -2894    -2926    -2951 
   -2955    -2951    -2953    -2970    -2992    -3005    -2984    -2949 
   -2926    -2905    -2884    -2902    -2940    -2961    -2990    -3022 
   -3003    -2957    -2938    -2938    -2957    -3002    -3030    -2991 
   -2906    -2849    -2863    -2926    -2992    -3015    -3002    -2979 
   -2957    -2951    -2948    -2910    -2890    -2922    -2956    -2982 
   -2979    -2926    -2895    -2928    -2965    -2975    -2978    -2968 
   -2963    -2983    -2983    -2943    -2905    -2882    -2879    -2947 
   -3051    -3067    -2997    -2921    -2886    -2914    -2971    -3009 
   -3018    -2964    -2879    -2859    -2887    -2933    -3013    -3082 
   -3067    -2983    -2880    -2794    -2806    -2934    -3038    -3034 
   -2984    -2947    -2928    -2936    -2984    -3025    -2967    -2884 
   -2906    -2955    -2979    -3010    -2971    -2910    -2951    -2988 
   -2941    -2918    -2936    -2925    -2917    -2930    -2930    -2938 
   -2976    -3011    -2998    -2945    -2916    -2921    -2929    -2957 
   -3014    -3045    -2990    -2898    -2857    -2876    -2928    -2999 
   -3042    -3034    -3010    -2982    -2952    -2891    -2812    -2830 
   -2945    -3006    -2987    -2992    -3014    -2964    -2933    -2994 
   -3009    -2959    -2937    -2905    -2899    -2955    -2975    -2959 
   -2948    -2924    -2932    -2970    -2965    -2943    -2960    -2986 
   -2975    -2952    -2945    -2940    -2930    -2930    -2932    -2944 
   -2972    -3001    -3033    -3026    -2938    -2879    -2887    -2914 
   -2975    -3010    -2979    -2951    -2909    -2875    -2914    -2957 
   -2987    -3018    -2992    -2951    -2932    -2911    -2949    -3014 
   -2999    -2955    -2929    -2926    -2965    -2987    -2968    -2929 
   -2866    -2841    -2913    -2984    -2975    -2959    -2967    -2945 
   -2944    -2994    -3007    -2975    -2956    -2940    -2918    -2945 
   -3001    -3002    -2968    -2959    -2955    -2918    -2880    -2872 
   -2903    -2970    -3022    -3018    -2986    -2965    -2945    -2930 
   -2944    -2961    -2956    -2957    -2953    -2943    -2963    -2967 
   -2924    -2911    -2938    -2944    -2948    -2963    -2953    -2929 
   -2920    -2918    -2934    -2968    -2976    -2972    -2994    -2992 
   -2948    -2947    -2972    -2965    -2976    -3003    -2971    -2914 
   -2891    -2907    -2948    -2963    -2961    -2957    -2938    -2947 
   -2949    -2913    -2905    -2925    -2953    -3015    -3063    -3042 
   -2978    -2898    -2860    -2899    -2967    -3006    -2984    -2930 
   -2897    -2901    -2938    -2983    -2990    -2980    -2990    -2980 
   -2924    -2878    -2863    -2874    -2948    -3049    -3082    -3028 
   -2945    -2894    -2901    -2936    -2976    -2982    -2921    -2895 
   -2967    -2991    -2949    -2949    -2956    -2920    -2903    -2922 
   -2949    -2991    -3022    -2994    -2951    -2948    -2948    -2917 
   -2901    -2933    -2955    -2949    -2976    -3009    -2994    -2963 
   -2937    -2916    -2895    -2902    -2949    -2964    -2951    -2991 
   -3021    -2988    -2987    -3003    -2957    -2894    -2867    -2864 
   -2875    -2921    -3005    -3032    -2984    -2959    -2970    -2978 
   -2963    -2920    -2918    -2960    -2967    -2944    -2909    -2905 
   -2971    -3001    -2974    -2990    -2998    -2952    -2925    -2928 
   -2937    -2938    -2933    -2956    -2990    -2974    -2938    -2953 
   -2979    -2974    -2979    -2963    -2887    -2862    -2943    -3002 
   -2980    -2959    -2944    -2899    -2886    -2917    -2926    -2949 
   -3021    -3055    -3024    -2967    -2903    -2872    -2920    -3002 
   -3011    -2971    -2980    -2997    -2951    -2924    -2918    -2859 
   -2824    -2864    -2913    -2956    -3006    -3053    -3078    -3042 
   -2980    -2956    -2941    -2918    -2940    -2965    -2910    -2872 
   -2949    -3010    -2976    -2934    -2905    -2890    -2925    -2960 
   -2970    -3007    -3030    -2986    -2951    -2940    -2906    -2894 
   -2948    -2991    -2974    -2963    -2967    -2940    -2934    -2944 
   -2883    -2830    -2886    -2967    -3005    -3025    -3021    -3007 
   -2998    -2953    -2899    -2884    -2917    -2970    -2995    -2991 
   -2979    -2974    -2976    -2982    -2983    -2959    -2913    -2906 
   -2930    -2922    -2897    -2914    -2956    -2983    -2982    -2937 
   -2902    -2934    -2988    -3001    -2982    -2952    -2929    -2938 
   -2968    -2963    -2934    -2926    -2917    -2906    -2938    -2983 
   -2999    -2997    -2980    -2957    -2949    -2960    -2975    -2971 
   -2949    -2920    -2898    -2906    -2940    -2982    -3017    -2998 
   -2945    -2948    -2952    -2907    -2928    -2987    -2970    -2928 
   -2920    -2921    -2938    -2991    -3028    -3001    -2975    -2978 
   -2941    -2903    -2929    -2951    -2936    -2938    -2925    -2909 
   -2941    -2964    -2959    -2967    -2971    -2964    -2951    -2938 
   -2953    -2963    -2937    -2922    -2921    -2928    -2964    -3003 
   -3022    -3017    -2992    -2982    -2982    -2963    -2941    -2911 
   -2872    -2875    -2909    -2951    -3001    -2998    -2965    -2974 
   -2965    -2917    -2920    -2963    -2974    -2982    -2986    -2921 
   -2878    -2917    -2916    -2903    -2967    -3001    -2978    -2982 
   -2994    -2994    -3006    -2995    -2941    -2895    -2893    -2921 
   -2929    -2910    -2918    -2932    -2929    -2964    -3011    -3019 
   -3017    -3005    -2968    -2953    -2951    -2916    -2897    -2937 
   -2952    -2909    -2902    -2934    -2928    -2917    -2945    -2979 
   -3001    -3002    -2990    -2979    -2943    -2914    -2952    -2974 
   -2934    -2921    -2945    -2963    -2979    -2978    -2949    -2928 
   -2917    -2921    -2940    -2934    -2929    -2998    -3075    -3060 
   -2992    -2953    -2968    -3005    -3009    -2986    -2960    -2929 
   -2911    -2925    -2897    -2817    -2798    -2864    -2951    -3048 
   -3107    -3073    -3018    -3001    -2979    -2944    -2926    -2911 
   -2886    -2882    -2891    -2894    -2910    -2934    -2936    -2926 
   -2934    -2975    -3019    -3010    -3001    -3026    -3007    -2967 
   -2961    -2922    -2875    -2849    -2774    -2749    -2878    -3002 
   -3028    -3041    -3051    -3021    -3013    -3017    -2976    -2936 
   -2945    -2953    -2926    -2917    -2941    -2970    -3015    -3041 
   -2988    -2914    -2874    -2837    -2808    -2816    -2867    -2940 
   -3002    -3057    -3102    -3075    -2986    -2932    -2940    -2956 
   -2976    -3013    -3007    -2925    -2820    -2754    -2770    -2874 
   -2980    -3009    -2988    -3002    -3051    -3080    -3088    -3060 
   -2953    -2867    -2886    -2913    -2905    -2903    -2893    -2917 
   -3022    -3119    -3129    -3064    -2965    -2890    -2851    -2824 
   -2828    -2859    -2884    -2934    -3029    -3090    -3080    -3041 
   -2959    -2875    -2876    -2883    -2848    -2857    -2868    -2844 
   -2875    -2979    -3061    -3076    -3076    -3090    -3092    -3064 
   -3024    -2976    -2922    -2874    -2840    -2839    -2867    -2891 
   -2925    -2984    -3061    -3118    -3067    -2952    -2872    -2825 
   -2866    -2979    -3013    -2961    -2897    -2825    -2806    -2859 
   -2901    -2945    -3036    -3090    -3057    -3001    -2953    -2947 
   -3014    -3055    -3017    -3003    -2998    -2963    -2971    -2982 
   -2924    -2863    -2835    -2828    -2866    -2895    -2880    -2906 
   -2988    -3036    -3044    -3053    -3057    -3049    -2986    -2866 
   -2818    -2857    -2895    -2936    -2982    -2986    -2974    -2988 
   -2999    -2995    -3015    -3048    -3042    -2976    -2874    -2789 
   -2774    -2817    -2859    -2890    -2956    -3038    -3072    -3060 
   -3028    -2967    -2878    -2812    -2833    -2891    -2894    -2894 
   -2943    -2978    -2979    -2999    -3021    -3013    -3017    -3030 
   -3006    -2952    -2922    -2943    -2982    -3007    -3007    -2965 
   -2937    -2972    -3006    -3021    -3038    -3015    -2960    -2929 
   -2883    -2820    -2801    -2810    -2824    -2872    -2922    -2947 
   -2991    -3038    -3049    -3044    -3010    -2968    -2963    -2976 
   -2994    -3014    -3033    -3029    -2971    -2933    -2951    -2920 
   -2847    -2830    -2853    -2876    -2925    -2978    -2956    -2889 
   -2899    -2980    -3030    -3029    -2984    -2941    -2980    -3061 
   -3087    -3068    -3034    -2978    -2940    -2932    -2925    -2953 
   -2970    -2907    -2855    -2852    -2857    -2894    -2936    -2965 
   -3018    -3036    -2979    -2916    -2874    -2866    -2929    -2991 
   -2929    -2814    -2805    -2875    -2943    -2998    -3049    -3069 
   -3036    -3005    -3019    -3018    -2986    -2952    -2901    -2883 
   -2955    -3011    -3002    -2975    -2937    -2914    -2928    -2934 
   -2925    -2930    -2951    -2957    -2921    -2878    -2901    -2971 
   -3022    -3040    -3025    -2992    -2975    -2956    -2920    -2884 
   -2853    -2843    -2879    -2940    -2982    -2995    -2988    -2959 
   -2933    -2956    -3005    -3021    -3011    -3025    -3049    -3046 
   -3007    -2948    -2921    -2929    -2921    -2906    -2903    -2907 
   -2906    -2884    -2863    -2893    -2953    -2979    -2948    -2913 
   -2926    -2975    -3014    -3030    -3038    -3048    -3042    -3014 
   -2975    -2948    -2918    -2883    -2899    -2941    -2934    -2917 
   -2916    -2899    -2890    -2914    -2959    -3005    -2995    -2952 
   -2937    -2922    -2903    -2928    -2968    -2992    -2995    -2978 
   -2972    -2972    -2945    -2913    -2901    -2895    -2897    -2922 
   -2961    -2991    -3021    -3052    -3034    -2965    -2903    -2879 
   -2890    -2920    -2963    -3014    -3030    -2999    -2971    -2952 
   -2924    -2906    -2905    -2909    -2926    -2965    -3011    -3029 
   -3010    -2978    -2947    -2926    -2928    -2948    -2960    -2959 
   -2965    -2964    -2936    -2910    -2902    -2911    -2932    -2929 
   -2906    -2917    -2986    -3044    -3040    -3015    -3003    -2983 
   -2945    -2905    -2880    -2876    -2910    -2980    -3024    -3001 
   -2972    -2970    -2959    -2943    -2945    -2970    -2992    -2980 
   -2934    -2910    -2917    -2926    -2928    -2924    -2934    -2965 
   -2974    -2948    -2926    -2905    -2887    -2911    -2961    -2983 
   -2986    -2990    -2980    -2959    -2943    -2948    -2961    -2974 
   -2984    -2975    -2951    -2940    -2934    -2925    -2936    -2957 
   -2959    -2943    -2934    -2944    -2965    -2990    -3011    -3019 
   -2990    -2943    -2911    -2899    -2901    -2917    -2940    -2959 
   -2974    -2991    -2986    -2949    -2917    -2914    -2913    -2917 
   -2968    -3024    -3028    -3014    -2982    -2922    -2887    -2878 
   -2889    -2930    -2948    -2930    -2938    -2961    -2968    -2975 
   -2980    -2974    -2984    -3005    -2998    -2970    -2948    -2932 
   -2922    -2937    -2943    -2933    -2945    -2952    -2936    -2932 
   -2949    -2957    -2949    -2953    -2965    -2947    -2920    -2925 
   -2955    -2986    -3007    -3026    -3042    -3026    -2967    -2918 
   -2907    -2905    -2907    -2929    -2951    -2948    -2929    -2914 
   -2932    -2961    -2952    -2925    -2925    -2953    -2988    -3017 
   -3025    -3010    -2986    -2957    -2947    -2959    -2956    -2932 
   -2916    -2907    -2902    -2905    -2920    -2967    -3010    -3009 
   -2986    -2964    -2945    -2953    -2974    -2974    -2968    -2976 
   -2979    -2961    -2936    -2917    -2913    -2924    -2934    -2922 
   -2907    -2918    -2933    -2936    -2947    -2972    -2979    -2955 
   -2940    -2960    -2972    -2961    -2968    -2994    -3009    -3009 
   -2998    -2971    -2934    -2922    -2940    -2953    -2957    -2959 
   -2936    -2906    -2914    -2936    -2936    -2922    -2910    -2906 
   -2911    -2921    -2932    -2944    -2961    -3002    -3032    -3003 
   -2959    -2936    -2920    -2925    -2957    -2984    -2990    -2974 
