Origin Time       2025/03/30 10:46:00
Lat.              32.923
Long.             130.372
Depth. (km)       11
Mag.              3.4
Station Code      KMMH16
Station Lat.      32.7967
Station Long.     130.8199
Station Height(m) -197
Record Time       2025/03/30 10:46:34
Sampling Freq(Hz) 100Hz
Duration Time(s)  120
Dir.              2
Scale Factor      2942(gal)/8224139
Max. Acc. (gal)   0.371
Last Correction   2025/03/30 10:46:34
Memo.             
[...]
  114249   114251   114249   114247   114250   114250   114250   114250 
  114249   114250   114250   114246   114247   114250   114250   114250 
  114250   114249   114249   114250   114251   114251   114249   114249 
  114251   114250   114250   114247   114246   114249   114250   114249 
  114249   114249   114249   114250   114250   114249   114247   114250 
  114250   114247   114250   114251   114246   114245   114247   114247 
  114246   114249   114249   114249   114250   114249   114249   114249 
  114249   114249   114250   114251   114250   114249   114249   114250 
  114249   114247   114249   114249   114247   114249   114251   114250 
  114247   114247   114246   114246   114247   114249   114250   114251 
  114247   114246   114250   114250   114249   114249   114249   114250 
  114251   114249   114247   114250   114250   114249   114249   114247 
  114249   114249   114246   114247   114249   114247   114247   114247 
  114247   114250   114250   114246   114249   114250   114247   114249 
  114251   114250   114249   114249   114250   114249   114247   114249 
  114249   114249   114250   114250   114250   114251   114251   114249 
  114247   114249   114250   114249   114247   114250   114251   114249 
  114247   114249   114250   114250   114250   114250   114250   114251 
  114249   114246   114249   114250   114250   114251   114249   114246 
  114250   114250   114250   114251   114250   114247   114249   114250 
  114250   114247   114247   114251   114250   114249   114249   114250 
  114250   114250   114249   114247   114249   114251   114253   114254 
  114254   114251   114250   114250   114250   114249   114249   114250 
  114250   114249   114249   114250   114250   114247   114246   114249 
  114251   114250   114247   114249   114249   114250   114250   114249 
  114247   114247   114249   114249   114249   114250   114250   114249 
  114249   114249   114250   114249   114247   114249   114250   114249 
  114247   114247   114246   114246   114247   114249   114250   114249 
  114247   114249   114250   114250   114249   114247   114249   114251 
  114250   114249   114247   114247   114249   114247   114247   114250 
  114250   114249   114250   114250   114250   114251   114253   114253 
  114251   114249   114249   114249   114247   114249   114249   114247 
  114249   114251   114251   114247   114246   114250   114251   114250 
  114249   114246   114245   114246   114250   114249   114247   114249 
  114249   114247   114247   114250   114250   114250   114249   114250 
  114250   114249   114249   114249   114247   114249   114251   114250 
  114247   114249   114249   114247   114249   114250   114250   114249 
  114249   114247   114249   114249   114249   114250   114251   114250 
  114250   114250   114249   114249   114249   114247   114247   114247 
  114247   114249   114251   114250   114247   114249   114250   114249 
  114249   114250   114251   114251   114249   114250   114253   114250 
  114249   114247   114246   114247   114251   114250   114249   114249 
  114249   114249   114250   114251   114249   114249   114250   114249 
  114246   114247   114249   114249   114247   114246   114247   114249 
  114250   114251   114250   114247   114250   114253   114250   114250 
  114251   114249   114250   114251   114250   114250   114249   114247 
  114249   114247   114246   114250   114249   114246   114247   114249 
  114250   114250   114251   114250   114246   114246   114249   114251 
  114251   114250   114249   114249   114249   114250   114250   114249 
  114246   114246   114247   114249   114247   114247   114247   114249 
  114249   114247   114247   114249   114247   114246   114247   114247 
  114249   114250   114247   114246   114247   114249   114247   114247 
  114249   114247   114247   114249   114249   114247   114251   114251 
  114247   114246   114249   114250   114247   114246   114250   114250 
  114250   114251   114250   114246   114246   114247   114246   114247 
  114250   114250   114250   114249   114247   114247   114249   114249 
  114250   114249   114246   114247   114249   114249   114250   114250 
  114247   114247   114249   114249   114249   114249   114247   114246 
  114245   114246   114245   114245   114246   114246   114247   114250 
  114250   114250   114250   114249   114249   114250   114249   114247 
  114249   114249   114250   114250   114246   114247   114251   114250 
  114246   114246   114247   114247   114247   114246   114246   114247 
  114246   114247   114247   114249   114249   114249   114250   114251 
  114249   114246   114249   114251   114250   114249   114249   114249 
  114250   114251   114249   114247   114249   114250   114246   114245 
  114249   114249   114249   114251   114250   114245   114247   114250 
  114250   114249   114249   114247   114249   114250   114249   114249 
  114247   114250   114253   114250   114247   114250   114249   114247 
  114249   114249   114249   114249   114247   114247   114249   114249 
  114249   114249   114249   114249   114247   114250   114251   114247 
  114249   114251   114247   114246   114250   114251   114251   114250 
  114250   114250   114249   114250   114253   114251   114251   114251 
  114250   114251   114251   114249   114247   114247   114250   114250 
  114249   114247   114247   114250   114250   114247   114246   114246 
  114249   114250   114249   114247   114250   114253   114249   114247 
  114249   114250   114250   114247   114247   114249   114249   114247 
  114249   114250   114249   114249   114250   114250   114249   114249 
  114249   114249   114247   114249   114251   114250   114250   114251 
  114251   114251   114251   114250   114249   114247   114247   114250 
  114250   114249   114249   114249   114249   114250   114249   114249 
  114250   114250   114247   114250   114250   114249   114250   114250 
  114249   114250   114250   114249   114249   114247   114247   114250 
  114249   114247   114249   114250   114249   114249   114250   114249 
  114249   114249   114246   114249   114250   114249   114250   114250 
  114249   114251   114253   114249   114247   114247   114246   114246 
  114250   114251   114250   114249   114249   114250   114251   114250 
  114247   114246   114249   114249   114247   114249   114251   114249 
  114246   114249   114250   114247   114249   114253   114253   114249 
  114247   114247   114246   114249   114251   114249   114247   114250 
  114250   114250   114247   114246   114246   114247   114249   114247 
  114247   114250   114251   114251   114247   114246   114249   114249 
  114246   114247   114249   114247   114249   114249   114249   114249 
  114249   114250   114249   114249   114251   114251   114249   114247 
  114249   114251   114251   114250   114250   114250   114249   114247 
  114247   114250   114250   114249   114247   114247   114247   114249 
  114250   114250   114250   114250   114247   114247   114250   114250 
  114249   114249   114250   114250   114249   114249   114249   114250 
  114251   114251   114250   114251   114250   114249   114250   114247 
  114243   114247   114253   114249   114247   114249   114249   114247 
  114250   114249   114249   114250   114250   114251   114251   114249 
  114247   114247   114247   114247   114249   114247   114249   114249 
  114247   114246   114250   114250   114247   114249   114250   114249 
  114250   114251   114250   114247   114247   114249   114247   114250 
  114251   114249   114249   114250   114249   114247   114249   114250 
  114249   114247   114251   114253   114249   114249   114250   114249 
  114249   114251   114251   114250   114250   114250   114251   114251 
  114250   114249   114246   114247   114249   114246   114246   114250 
  114250   114247   114249   114249   114247   114247   114250   114250 
  114250   114250   114251   114251   114249   114249   114249   114247 
  114249   114249   114249   114249   114249   114250   114250   114250 
  114247   114243   114241   114232   114219   114200   114181   114183 
  114220   114292   114374   114416   114382   114280   114161   114087 
  114108   114222   114359   114442   114439   114361   114235   114123 
  114062   114027   114066   114231   114388   114419   114380   114297 
  114193   114151   114178   114214   114270   114345   114320   114212 
  114192   114243   114262   114273   114265   114215   114193   114241 
  114289   114291   114255   114212   114211   114251   114289   114272 
  114212   114205   114269   114305   114282   114254   114231   114208 
  114212   114257   114277   114231   114215   114269   114286   114299 
  114328   114266   114187   114211   114253   114273   114326   114327 
  114191   114069   114110   114246   114355   114372   114284   114192 
  114170   114160   114187   114307   114377   114331   114301   114277 
  114210   114193   114241   114257   114230   114220   114234   114201 
  114192   114241   114242   114261   114353   114365   114288   114243 
  114201   114150   114208   114305   114300   114276   114296   114285 
  114227   114185   114181   114193   114238   114303   114307   114243 
  114220   114253   114251   114223   114243   114281   114266   114197 
  114162   114218   114277   114280   114257   114255   114282   114285 
  114272   114250   114193   114176   114184   114166   114231   114363 
  114370   114250   114210   114286   114296   114254   114305   114334 
  114262   114245   114258   114208   114178   114204   114227   114218 
  114219   114265   114285   114259   114235   114247   114277   114250 
  114183   114160   114199   114238   114253   114299   114322   114246 
  114149   114127   114222   114345   114399   114397   114332   114218 
  114162   114205   114277   114284   114246   114255   114261   114224 
  114230   114266   114266   114219   114154   114153   114207   114246 
  114289   114312   114270   114226   114214   114223   114285   114326 
  114258   114204   114241   114278   114276   114261   114262   114265 
  114259   114254   114211   114170   114203   114259   114303   114327 
  114296   114235   114228   114273   114254   114203   114214   114178 
  114102   114145   114258   114318   114324   114284   114253   114268 
  114253   114241   114289   114300   114266   114278   114286   114242 
  114208   114228   114258   114262   114269   114266   114250   114228 
  114177   114130   114145   114243   114339   114318   114261   114251 
  114241   114226   114228   114241   114281   114315   114289   114241 
  114207   114251   114345   114316   114246   114273   114273   114207 
  114177   114180   114178   114193   114249   114322   114372   114367 
  114284   114173   114131   114139   114164   114230   114308   114340 
  114305   114245   114218   114210   114177   114178   114258   114295 
  114269   114278   114272   114272   114320   114281   114176   114161 
  114211   114251   114313   114363   114319   114208   114122   114118 
  114205   114346   114455   114416   114253   114153   114154   114183 
  114227   114272   114316   114343   114295   114205   114160   114168 
  114201   114250   114274   114274   114284   114262   114216   114201 
  114222   114282   114322   114270   114197   114168   114210   114293 
  114305   114239   114187   114165   114180   114274   114415   114444 
  114326   114203   114135   114135   114223   114276   114278   114355 
  114400   114282   114154   114129   114141   114154   114181   114226 
  114274   114296   114276   114238   114243   114293   114331   114334 
  114299   114243   114226   114227   114196   114200   114246   114257 
  114270   114284   114264   114266   114264   114201   114166   114191 
  114228   114285   114336   114342   114312   114243   114181   114191 
  114239   114276   114255   114173   114138   114193   114232   114219 
  114250   114357   114408   114339   114280   114257   114176   114120 
  114199   114308   114338   114296   114249   114211   114169   114170 
  114204   114219   114246   114291   114319   114308   114270   114230 
  114185   114156   114197   114270   114282   114276   114307   114299 
  114238   114216   114257   114295   114284   114266   114235   114173 
  114187   114253   114238   114187   114178   114231   114305   114332 
  114303   114272   114277   114289   114273   114237   114228   114266 
  114284   114237   114227   114284   114247   114141   114149   114242 
  114313   114339   114295   114235   114207   114174   114158   114208 
  114293   114332   114300   114201   114116   114124   114172   114241 
  114370   114450   114377   114257   114203   114207   114238   114249 
  114245   114257   114266   114278   114288   114280   114291   114291 
  114237   114187   114166   114143   114157   114231   114272   114268 
  114297   114303   114266   114266   114289   114289   114273   114249 
  114219   114208   114208   114151   114102   114134   114183   114187 
  114119   114021   114021   114129   114264   114376   114421   114399 
  114311   114243   114319   114473   114538   114454   114270   114081 
  113969   113996   114161   114411   114716   114970   114976   114683 
  114243   113877   113717   113759   113968   114232   114308   114197 
  114141   114145   114139   114231   114411   114500   114453   114358 
  114241   114156   114129   114030   113836   113717   113846   114124 
  114219   114124   114061   114062   114226   114562   114808   114852 
  114791   114691   114635   114656   114689   114627   114361   113864 
  113378   113211   113437   114000   114660   114967   114659   113957 
  113379   113319   113818   114570   115076   115049   114631   114138 
  113769   113678   113944   114301   114466   114512   114558   114571 
  114582   114620   114594   114470   114297   114129   114053   114100 
  114181   114216   114215   114224   114170   113983   113799   113815 
  114015   114197   114309   114453   114532   114430   114272   114174 
  114099   114065   114133   114254   114365   114366   114143   113806 
  113620   113730   114154   114689   114982   114955   114790   114605 
  114431   114292   114195   114127   114062   114011   114031   114134 
  114307   114531   114686   114662   114484   114191   113829   113562 
  113591   113873   114120   114218   114253   114259   114250   114281 
  114361   114393   114304   114183   114111   114143   114389   114750 
  114963   114875   114517   114116   113849   113728   113818   114114 
  114378   114411   114288   114201   114255   114420   114555   114524 
  114299   113977   113775   113829   114073   114340   114421   114289 
  114184   114250   114401   114539   114570   114420   114195   114060 
  114027   114077   114211   114361   114461   114447   114272   114095 
  114041   114015   114027   114165   114357   114442   114349   114195 
  114127   114143   114220   114326   114343   114265   114199   114149 
  114108   114126   114173   114195   114165   114139   114250   114489 
  114658   114644   114528   114376   114208   114084   113984   113900 
  113933   114070   114212   114347   114444   114451   114417   114380 
  114336   114346   114407   114442   114412   114292   114114   113995 
  113968   114012   114129   114245   114320   114386   114411   114347 
  114232   114120   114054   114079   114126   114106   114087   114133 
  114201   114303   114432   114467   114376   114270   114193   114137 
  114189   114349   114458   114427   114342   114299   114266   114223 
  114214   114255   114288   114280   114285   114292   114230   114108 
  113983   113917   113960   114093   114253   114384   114431   114366 
  114266   114257   114354   114458   114475   114392   114273   114201 
  114145   114052   114010   114093   114185   114214   114308   114475 
  114574   114555   114430   114203   113981   113903   113956   114092 
  114297   114458   114482   114416   114304   114184   114161   114239 
  114296   114277   114241   114258   114319   114350   114311   114196 
  114081   114079   114162   114246   114318   114351   114307   114187 
  114053   114011   114092   114227   114350   114408   114377   114299 
  114274   114297   114261   114185   114139   114116   114138   114204 
  114295   114389   114404   114296   114122   113981   113979   114087 
  114226   114408   114581   114617   114527   114403   114288   114176 
  114102   114130   114241   114359   114455   114477   114397   114281 
  114181   114100   114060   114065   114076   114096   114156   114239 
  114312   114334   114330   114349   114345   114297   114264   114231 
  114176   114122   114085   114085   114084   114049   114060   114172 
  114299   114370   114419   114435   114388   114347   114334   114284 
  114222   114177   114115   114066   114108   114228   114338   114408 
  114462   114475   114444   114409   114386   114350   114273   114216 
  114230   114232   114174   114134   114156   114187   114220   114280 
  114318   114295   114210   114107   114070   114087   114097   114126 
  114193   114239   114251   114303   114390   114438   114423   114373 
  114303   114228   114181   114196   114273   114336   114326   114264 
  114176   114116   114154   114245   114318   114372   114372   114284 
  114191   114169   114162   114127   114123   114173   114238   114331 
  114436   114434   114327   114235   114184   114168   114199   114231 
  114235   114227   114211   114222   114272   114315   114308   114237 
  114145   114088   114091   114150   114243   114327   114373   114361 
  114278   114160   114081   114080   114137   114200   114216   114214 
  114278   114377   114436   114457   114411   114324   114265   114205 
  114157   114183   114265   114323   114308   114265   114246   114235 
  114245   114274   114270   114230   114193   114176   114160   114133 
  114135   114189   114251   114296   114303   114249   114192   114195 
  114208   114204   114234   114297   114335   114326   114320   114334 
  114319   114265   114219   114197   114188   114214   114276   114318 
  114320   114322   114331   114308   114232   114137   114043   113984 
  114010   114111   114249   114390   114486   114502   114454   114386 
  114346   114339   114326   114278   114218   114184   114189   114211 
  114211   114192   114196   114219   114204   114196   114269   114355 
  114367   114328   114269   114181   114108   114106   114141   114166 
  114188   114196   114177   114176   114232   114312   114381   114448 
  114465   114403   114331   114288   114245   114192   114139   114116 
  114122   114131   114145   114197   114304   114428   114501   114466 
  114338   114218   114180   114170   114133   114099   114100   114139 
  114207   114261   114268   114238   114205   114191   114193   114215 
  114258   114293   114308   114308   114296   114277   114234   114185 
  114200   114259   114285   114278   114264   114245   114259   114312 
  114338   114331   114323   114281   114196   114126   114110   114135 
  114166   114193   114243   114308   114373   114436   114462   114417 
  114315   114193   114093   114041   114060   114160   114257   114292 
  114304   114343   114377   114340   114253   114165   114096   114072 
  114096   114146   114227   114315   114353   114335   114286   114242 
  114241   114261   114273   114292   114326   114338   114292   114211 
  114168   114185   114216   114222   114196   114165   114188   114269 
