Origin Time       2025/03/30 10:46:00
Lat.              32.923
Long.             130.372
Depth. (km)       11
Mag.              3.4
Station Code      KMMH03
Station Lat.      32.9984
Station Long.     130.8301
Station Height(m) 178
Record Time       2025/03/30 10:46:34
Sampling Freq(Hz) 100Hz
Duration Time(s)  120
Dir.              4
Scale Factor      7845(gal)/8223790
Max. Acc. (gal)   1.242
Last Correction   2025/03/30 10:46:34
Memo.             
[...]
    4352     4352     4348     4348     4353     4355     4355     4353 
    4351     4351     4353     4352     4348     4349     4353     4355 
    4355     4353     4352     4349     4349     4352     4353     4353 
    4353     4352     4353     4352     4351     4351     4352     4353 
    4357     4357     4352     4351     4352     4352     4352     4353 
    4352     4352     4352     4349     4351     4353     4351     4347 
    4355     4360     4355     4352     4355     4356     4353     4349 
    4351     4352     4352     4355     4357     4356     4355     4355 
    4356     4351     4348     4353     4357     4355     4352     4352 
    4353     4352     4351     4356     4357     4353     4353     4355 
    4353     4352     4353     4352     4351     4353     4356     4355 
    4355     4356     4353     4352     4355     4356     4355     4353 
    4351     4351     4353     4353     4351     4351     4355     4355 
    4355     4356     4352     4349     4355     4356     4352     4355 
    4356     4351     4351     4356     4356     4352     4352     4353 
    4355     4355     4355     4353     4352     4351     4352     4356 
    4356     4353     4352     4355     4353     4351     4351     4351 
    4351     4352     4355     4355     4353     4353     4355     4355 
    4353     4353     4353     4355     4356     4352     4349     4355 
    4357     4356     4353     4355     4356     4356     4353     4351 
    4352     4355     4355     4353     4352     4351     4353     4355 
    4355     4356     4353     4351     4353     4353     4351     4351 
    4355     4357     4355     4352     4351     4351     4352     4355 
    4356     4356     4357     4356     4355     4353     4351     4352 
    4357     4357     4353     4355     4356     4349     4345     4349 
    4355     4355     4355     4353     4349     4352     4356     4352 
    4349     4351     4355     4356     4353     4351     4352     4355 
    4355     4352     4352     4356     4355     4349     4348     4349 
    4353     4356     4356     4353     4352     4355     4355     4352 
    4352     4352     4352     4355     4357     4355     4352     4353 
    4353     4353     4353     4352     4349     4352     4356     4355 
    4348     4348     4356     4355     4349     4349     4353     4356 
    4355     4352     4352     4353     4355     4357     4356     4353 
    4355     4355     4352     4349     4351     4355     4355     4351 
    4352     4356     4356     4355     4355     4353     4355     4356 
    4355     4351     4349     4351     4353     4355     4355     4355 
    4355     4355     4355     4355     4353     4351     4352     4355 
    4359     4357     4351     4351     4356     4356     4355     4355 
    4352     4349     4352     4359     4359     4351     4351     4357 
    4355     4352     4353     4353     4353     4353     4352     4352 
    4355     4356     4356     4355     4353     4352     4351     4352 
    4352     4352     4355     4355     4353     4353     4356     4353 
    4349     4351     4355     4353     4352     4351     4351     4352 
    4357     4357     4352     4351     4351     4348     4348     4353 
    4359     4357     4356     4355     4351     4348     4349     4349 
    4349     4355     4356     4357     4359     4356     4352     4349 
    4351     4352     4352     4353     4353     4353     4352     4349 
    4351     4355     4356     4355     4355     4352     4352     4355 
    4355     4352     4352     4352     4355     4357     4355     4352 
    4352     4353     4353     4355     4355     4352     4351     4355 
    4357     4355     4351     4352     4353     4355     4355     4353 
    4351     4348     4349     4352     4353     4356     4355     4353 
    4353     4351     4352     4353     4352     4355     4357     4355 
    4352     4352     4351     4349     4351     4355     4355     4353 
    4355     4352     4349     4351     4349     4345     4352     4359 
    4356     4353     4351     4344     4348     4357     4356     4352 
    4355     4355     4353     4353     4351     4348     4352     4355 
    4356     4357     4356     4355     4353     4349     4348     4351 
    4355     4355     4356     4357     4356     4353     4351     4352 
    4353     4353     4355     4355     4353     4352     4349     4351 
    4355     4355     4352     4356     4355     4351     4352     4353 
    4352     4353     4356     4353     4348     4348     4353     4355 
    4352     4353     4357     4357     4353     4349     4348     4348 
    4352     4359     4359     4355     4355     4353     4347     4348 
    4353     4352     4352     4355     4356     4353     4352     4352 
    4352     4351     4353     4356     4355     4353     4353     4352 
    4349     4353     4355     4353     4353     4352     4353     4355 
    4353     4349     4351     4353     4355     4353     4353     4352 
    4351     4349     4347     4349     4355     4355     4352     4356 
    4357     4353     4348     4347     4351     4353     4355     4355 
    4357     4355     4351     4349     4352     4352     4351     4353 
    4355     4355     4353     4352     4349     4353     4356     4352 
    4352     4356     4353     4352     4353     4351     4351     4355 
    4355     4353     4352     4352     4353     4352     4351     4356 
    4359     4353     4351     4349     4351     4351     4351     4352 
    4356     4357     4356     4351     4349     4352     4353     4353 
    4355     4355     4353     4352     4355     4356     4353     4353 
    4352     4347     4349     4356     4356     4353     4353     4353 
    4353     4353     4356     4357     4355     4352     4352     4351 
    4353     4352     4349     4353     4357     4352     4348     4348 
    4353     4356     4353     4352     4355     4359     4357     4352 
    4345     4348     4353     4356     4355     4356     4357     4353 
    4349     4349     4352     4355     4353     4352     4356     4353 
    4349     4352     4353     4352     4352     4351     4352     4355 
    4353     4351     4353     4353     4353     4352     4351     4352 
    4356     4356     4351     4349     4356     4357     4353     4353 
    4356     4355     4352     4349     4351     4353     4352     4355 
    4357     4356     4355     4355     4352     4348     4351     4355 
    4353     4353     4357     4357     4352     4352     4355     4353 
    4353     4353     4353     4353     4352     4355     4357     4356 
    4352     4352     4353     4352     4348     4349     4352     4355 
    4356     4355     4352     4351     4349     4352     4357     4357 
    4353     4353     4356     4355     4352     4349     4352     4355 
    4353     4356     4356     4351     4349     4352     4353     4352 
    4353     4359     4359     4355     4352     4352     4352     4352 
    4353     4359     4360     4355     4351     4352     4352     4352 
    4353     4353     4355     4355     4356     4356     4353     4349 
    4348     4351     4356     4356     4355     4357     4357     4355 
    4351     4349     4347     4348     4356     4359     4357     4357 
    4355     4348     4347     4353     4355     4352     4353     4356 
    4352     4351     4351     4351     4356     4357     4351     4349 
    4353     4355     4353     4353     4353     4355     4353     4352 
    4353     4356     4357     4356     4355     4356     4355     4349 
    4347     4352     4356     4357     4357     4355     4352     4352 
    4353     4353     4353     4353     4353     4355     4356     4359 
    4361     4361     4355     4347     4336     4326     4320     4317 
    4328     4359     4390     4410     4425     4429     4399     4369 
    4378     4378     4329     4278     4239     4175     4160     4276 
    4432     4540     4654     4726     4579     4248     3933     3754 
    3782     4104     4621     5013     5040     4780     4453     4166 
    3978     3954     4044     4155     4264     4337     4384     4492 
    4666     4847     4942     4750     4187     3581     3426     3793 
    4294     4662     4919     5000     4719     4210     3904     3969 
    4203     4436     4654     4787     4660     4282     4009     4124 
    4406     4504     4476     4471     4301     3905     3701     3973 
    4380     4536     4556     4615     4545     4309     4257     4548 
    4787     4672     4428     4234     4004     3873     4085     4513 
    4776     4661     4324     4051     3966     4062     4301     4569 
    4707     4579     4261     4098     4221     4359     4494     4823 
    4968     4498     3928     3919     4214     4375     4465     4479 
    4202     3809     3746     4120     4626     4945     5053     4970 
    4577     4068     3835     3850     3985     4313     4644     4691 
    4583     4448     4189     3983     4090     4318     4409     4413 
    4388     4336     4368     4482     4533     4496     4399     4287 
    4263     4303     4326     4320     4266     4199     4198     4267 
    4367     4517     4746     4866     4673     4378     4232     4126 
    3971     3967     4213     4455     4540     4596     4592     4383 
    4164     4183     4280     4256     4255     4394     4445     4297 
    4298     4515     4530     4365     4372     4413     4276     4226 
    4406     4482     4268     4071     4058     3975     3885     4222 
    4816     5046     4876     4692     4511     4175     3939     4047 
    4239     4341     4521     4637     4340     3894     3955     4409 
    4550     4459     4650     4806     4575     4406     4449     4328 
    4105     4137     4345     4375     4243     4244     4380     4403 
    4287     4205     4182     4098     4090     4375     4693     4776 
    4768     4641     4263     3917     3898     4132     4417     4568 
    4514     4379     4264     4141     4066     4144     4348     4602 
    4747     4626     4417     4336     4264     4201     4320     4504 
    4592     4585     4419     4158     4067     4191     4340     4376 
    4301     4182     4140     4221     4372     4587     4823     4911 
    4760     4430     4067     3888     3915     3973     4093     4348 
    4531     4507     4396     4310     4307     4376     4388     4394 
    4541     4661     4590     4482     4409     4239     4051     4048 
    4162     4241     4270     4288     4386     4545     4634     4622 
    4494     4297     4268     4380     4307     4167     4282     4480 
    4583     4658     4556     4203     3946     3944     4036     4237 
    4557     4676     4503     4317     4197     4136     4257     4446 
    4496     4460     4398     4291     4221     4236     4310     4463 
    4611     4587     4372     4122     4089     4341     4585     4607 
    4518     4410     4239     4108     4159     4256     4306     4422 
    4518     4459     4352     4301     4288     4303     4364     4484 
    4612     4656     4596     4426     4118     3842     3816     3982 
    4210     4503     4735     4730     4549     4345     4212     4260 
    4422     4399     4179     4078     4195     4368     4498     4552 
    4583     4612     4482     4198     4089     4209     4275     4290 
    4387     4450     4430     4419     4363     4239     4197     4325 
    4545     4649     4563     4464     4387     4193     4068     4214 
    4394     4410     4372     4349     4351     4402     4415     4336 
    4315     4379     4328     4198     4209     4310     4356     4387 
    4514     4649     4522     4195     4045     4035     3986     4185 
    4649     4839     4626     4367     4147     3921     3873     4106 
    4469     4746     4810     4704     4591     4509     4351     4148 
    4055     4066     4174     4445     4664     4550     4305     4241 
    4240     4213     4330     4529     4584     4495     4357     4249 
    4272     4414     4529     4581     4588     4468     4226     3996 
    3867     3897     4104     4423     4718     4756     4471     4182 
    4147     4228     4294     4409     4483     4344     4121     4089 
    4318     4680     4908     4770     4392     4077     3923     3973 
    4237     4519     4669     4730     4635     4337     4075     4063 
    4202     4392     4627     4691     4383     3993     3905     4023 
    4131     4318     4627     4846     4822     4672     4540     4356 
    4090     3986     4144     4284     4286     4344     4483     4526 
    4488     4479     4347     4048     3936     4136     4378     4521 
    4554     4456     4305     4195     4186     4291     4353     4287 
    4324     4558     4745     4747     4606     4295     3954     3875 
    4110     4419     4604     4623     4509     4349     4229     4189 
    4282     4465     4540     4423     4187     3954     3981     4349 
    4720     4839     4807     4704     4463     4116     3863     3820 
    3948     4232     4577     4770     4706     4492     4378     4471 
    4544     4428     4243     4041     3825     3821     4153     4554 
    4677     4471     4190     4070     4081     4149     4342     4637 
    4796     4706     4585     4591     4540     4333     4214     4279 
    4198     3809     3553     3798     4236     4526     4873     5250 
    5130     4604     4436     4692     4708     4378     4144     4052 
    3893     3732     3744     3970     4329     4654     4739     4558 
    4360     4311     4320     4499     5008     5387     5181     4641 
    4060     3456     3051     3092     3460     4001     4648     5097 
    5078     4779     4581     4625     4704     4585     4357     4164 
    3935     3743     3800     4033     4349     4762     5016     4846 
    4402     3967     3762     3910     4244     4507     4610     4475 
    4189     4090     4302     4637     4920     4996     4780     4468 
    4212     3944     3786     3897     4086     4255     4568     4882 
    4882     4637     4401     4237     4128     4179     4378     4464 
    4352     4297     4391     4336     4064     3996     4240     4418 
    4496     4746     4958     4745     4267     3925     3797     3731 
    3709     3920     4409     4842     4900     4689     4456     4266 
    4247     4495     4770     4827     4696     4498     4233     3852 
    3538     3586     3910     4245     4596     4849     4738     4426 
    4232     4221     4417     4731     4884     4792     4656     4575 
    4402     4102     3952     4077     4256     4369     4422     4261 
    3878     3662     3910     4399     4793     5073     5198     4930 
    4325     3846     3686     3627     3754     4326     4903     4911 
    4606     4401     4226     4055     4086     4270     4332     4232 
    4236     4500     4773     4725     4432     4172     4018     4008 
    4249     4635     4914     4943     4720     4402     4203     4124 
    4101     4218     4437     4507     4311     3996     3832     3974 
    4337     4753     5040     4939     4429     3936     3797     3896 
    4037     4224     4445     4509     4313     4104     4082     4182 
    4438     4854     5092     4993     4780     4557     4315     4164 
    4129     4148     4247     4309     4128     3815     3697     3951 
    4457     4888     5047     5012     4811     4476     4237     4178 
    4089     3933     3906     4045     4203     4278     4333     4514 
    4738     4795     4727     4623     4387     4066     3908     3975 
    4156     4456     4865     5119     4968     4506     4072     3900 
    3924     4048     4287     4534     4584     4441     4190     3828 
    3511     3538     3888     4332     4788     5117     5148     4988 
    4754     4390     4039     3990     4194     4394     4484     4490 
    4467     4406     4309     4309     4382     4317     4183     4167 
    4121     3951     3944     4205     4446     4475     4360     4328 
    4495     4725     4833     4792     4631     4414     4233     4109 
    4027     4071     4337     4638     4684     4550     4480     4421 
    4248     4083     4054     4054     4027     4090     4226     4365 
    4604     4854     4774     4367     4031     3987     4094     4160 
    4225     4445     4785     5017     4959     4608     4164     3910 
    3942     4113     4311     4500     4590     4553     4469     4330 
    4143     4090     4190     4244     4276     4382     4434     4440 
    4542     4648     4629     4558     4434     4261     4198     4253 
    4297     4306     4249     4117     4093     4271     4513     4649 
    4544     4247     4047     4021     4005     4047     4315     4648 
    4750     4618     4382     4109     3942     4020     4321     4727 
    4974     4843     4453     4052     3838     3931     4232     4529 
    4696     4677     4568     4509     4483     4511     4634     4666 
    4473     4216     4017     3866     3812     3910     4139     4405 
    4571     4598     4587     4553     4453     4391     4395     4326 
    4201     4133     4141     4229     4442     4716     4869     4796 
    4537     4149     3763     3597     3709     4018     4472     4847 
    4854     4563     4272     4129     4162     4414     4741     4784 
    4498     4267     4237     4214     4243     4430     4529     4402 
    4260     4179     4059     4008     4201     4525     4718     4675 
    4475     4267     4175     4199     4274     4374     4492     4581 
    4576     4487     4422     4414     4337     4187     4166     4307 
    4406     4391     4364     4345     4302     4290     4359     4429 
    4413     4322     4176     3987     3883     4033     4364     4594 
    4637     4664     4698     4591     4380     4213     4108     4058 
    4093     4147     4135     4174     4429     4747     4838     4720 
    4575     4386     4147     4027     4081     4197     4360     4565 
    4660     4611     4596     4630     4556     4421     4371     4309 
    4133     3979     3981     4129     4383     4621     4635     4368 
    4010     3840     3970     4226     4438     4615     4621     4359 
    4182     4305     4415     4418     4546     4729     4730     4546 
    4276     4054     4035     4167     4264     4301     4307     4261 
    4203     4218     4348     4530     4634     4627     4606     4626 
    4634     4617     4544     4305     4006     3897     3912     3937 
    4171     4606     4830     4666     4365     4121     3946     3975 
    4309     4685     4779     4623     4445     4299     4180     4180 
    4306     4395     4359     4222     4079     4087     4288     4557 
    4779     4824     4587     4222     3991     3959     4095     4345 
    4511     4487     4375     4267     4245     4352     4460     4496 
    4511     4460     4307     4197     4220     4297     4360     4406 
    4395     4349     4313     4275     4284     4392     4487     4482 
    4417     4318     4203     4193     4340     4523     4662     4768 
    4754     4575     4367     4209     4056     3959     3991     4087 
    4183     4340     4545     4634     4509     4301     4194     4176 
    4172     4267     4468     4560     4456     4360     4374     4378 
    4333     4301     4260     4216     4241     4320     4367     4410 
    4522     4637     4614     4421     4167     4009     4027     4187 
    4391     4518     4513     4444     4384     4322     4264     4270 
