Origin Time       2025/03/30 10:46:00
Lat.              32.923
Long.             130.372
Depth. (km)       11
Mag.              3.4
Station Code      KMMH10
Station Lat.      32.3151
Station Long.     130.1811
Station Height(m) -142
Record Time       2025/03/30 10:46:41
Sampling Freq(Hz) 100Hz
Duration Time(s)  120
Dir.              3
Scale Factor      2942(gal)/8224139
Max. Acc. (gal)   0.091
Last Correction   2025/03/30 10:46:41
Memo.             
[...]
   22719    22721    22724    22721    22720    22723    22721    22720 
   22723    22720    22720    22725    22723    22720    22723    22721 
   22723    22724    22721    22721    22723    22721    22723    22721 
   22721    22721    22720    22721    22721    22721    22723    22723 
   22723    22721    22719    22724    22731    22727    22721    22725 
   22734    22728    22712    22719    22731    22717    22716    22727 
   22724    22721    22724    22721    22723    22723    22720    22720 
   22721    22720    22720    22721    22724    22721    22721    22723 
   22720    22717    22720    22723    22723    22723    22723    22720 
   22720    22721    22723    22720    22721    22724    22724    22721 
   22723    22724    22723    22723    22725    22721    22720    22725 
   22721    22717    22724    22723    22720    22723    22723    22720 
   22723    22725    22724    22721    22723    22724    22723    22723 
   22723    22721    22723    22721    22720    22724    22724    22723 
   22727    22728    22725    22723    22724    22723    22721    22723 
   22723    22723    22723    22720    22720    22723    22725    22724 
   22724    22724    22724    22724    22723    22721    22720    22720 
   22725    22727    22727    22729    22728    22720    22711    22720 
   22727    22717    22719    22727    22721    22720    22721    22724 
   22725    22720    22715    22723    22727    22721    22720    22724 
   22724    22720    22719    22723    22724    22721    22721    22723 
   22721    22721    22721    22721    22721    22720    22721    22723 
   22723    22720    22720    22721    22725    22723    22719    22721 
   22725    22724    22719    22716    22723    22727    22725    22721 
   22721    22721    22720    22721    22724    22723    22723    22725 
   22723    22723    22724    22721    22720    22721    22721    22723 
   22721    22723    22725    22721    22723    22729    22728    22720 
   22719    22724    22727    22724    22723    22717    22716    22725 
   22724    22719    22724    22724    22721    22723    22724    22727 
   22723    22719    22723    22724    22720    22720    22720    22721 
   22721    22724    22724    22723    22724    22724    22721    22725 
   22725    22720    22719    22721    22724    22723    22719    22721 
   22724    22721    22724    22724    22720    22721    22723    22721 
   22723    22723    22724    22723    22720    22721    22723    22723 
   22723    22723    22721    22723    22724    22721    22719    22720 
   22723    22723    22720    22719    22721    22723    22724    22723 
   22723    22724    22724    22723    22721    22721    22723    22724 
   22721    22721    22725    22724    22723    22724    22724    22724 
   22725    22724    22720    22721    22727    22729    22725    22724 
   22723    22719    22720    22724    22725    22724    22723    22720 
   22720    22721    22723    22725    22731    22732    22723    22720 
   22735    22729    22708    22717    22729    22720    22720    22724 
   22724    22724    22723    22720    22723    22725    22725    22723 
   22724    22724    22720    22721    22723    22720    22719    22719 
   22723    22725    22724    22723    22723    22721    22723    22721 
   22721    22723    22723    22724    22724    22720    22721    22724 
   22723    22721    22723    22723    22720    22720    22723    22721 
   22724    22723    22719    22720    22723    22724    22723    22719 
   22720    22724    22723    22721    22721    22723    22724    22724 
   22732    22739    22727    22712    22711    22721    22723    22715 
   22721    22727    22721    22721    22724    22720    22721    22725 
   22721    22720    22723    22721    22720    22721    22721    22721 
   22723    22724    22720    22721    22725    22725    22724    22723 
   22723    22724    22723    22721    22721    22723    22721    22720 
   22721    22725    22725    22725    22725    22724    22724    22725 
   22724    22721    22725    22724    22719    22723    22727    22725 
   22725    22724    22721    22721    22723    22723    22723    22721 
   22721    22724    22723    22720    22723    22725    22724    22719 
   22720    22721    22721    22725    22727    22721    22717    22723 
   22725    22724    22721    22717    22720    22725    22724    22721 
   22723    22723    22723    22725    22727    22725    22721    22721 
   22724    22724    22721    22721    22721    22720    22721    22724 
   22725    22723    22723    22725    22723    22721    22723    22723 
   22720    22724    22724    22720    22721    22723    22720    22720 
   22724    22727    22727    22725    22724    22723    22719    22720 
   22723    22723    22721    22721    22719    22720    22723    22720 
   22719    22723    22725    22720    22721    22723    22719    22721 
   22723    22719    22723    22725    22720    22723    22724    22719 
   22723    22724    22720    22723    22728    22728    22729    22736 
   22746    22747    22738    22728    22716    22702    22692    22677 
   22658    22654    22673    22701    22735    22777    22810    22806 
   22766    22728    22723    22720    22685    22657    22688    22754 
   22789    22769    22708    22646    22627    22659    22727    22781 
   22756    22698    22707    22765    22788    22754    22724    22755 
   22788    22742    22673    22658    22677    22685    22681    22690 
   22715    22750    22817    22848    22751    22617    22581    22646 
   22732    22777    22809    22817    22744    22667    22667    22701 
   22732    22747    22743    22748    22708    22623    22658    22775 
   22793    22786    22815    22743    22627    22639    22732    22766 
   22739    22731    22740    22720    22697    22728    22788    22797 
   22715    22621    22642    22715    22723    22744    22798    22765 
   22694    22669    22644    22653    22734    22801    22801    22766 
   22721    22702    22731    22743    22739    22756    22732    22677 
   22654    22674    22724    22734    22711    22727    22734    22723 
   22758    22797    22765    22704    22694    22696    22673    22690 
   22736    22729    22704    22729    22792    22796    22746    22717 
   22698    22684    22682    22685    22725    22754    22700    22665 
   22701    22708    22693    22732    22783    22796    22786    22744 
   22680    22663    22685    22708    22756    22775    22712    22670 
   22678    22689    22728    22748    22705    22685    22716    22721 
   22721    22786    22817    22735    22675    22715    22748    22734 
   22698    22685    22719    22744    22709    22686    22736    22756 
   22701    22690    22719    22712    22729    22788    22786    22725 
   22713    22729    22701    22684    22715    22727    22705    22709 
   22748    22742    22692    22689    22709    22698    22684    22678 
   22696    22759    22802    22763    22736    22771    22762    22715 
   22716    22701    22669    22677    22694    22713    22729    22719 
   22715    22750    22785    22765    22694    22663    22705    22767 
   22806    22785    22702    22640    22655    22700    22689    22684 
   22759    22804    22773    22761    22765    22756    22727    22680 
   22671    22698    22707    22711    22732    22735    22693    22673 
   22727    22786    22769    22713    22711    22709    22665    22701 
   22785    22732    22654    22712    22747    22694    22717    22785 
   22761    22696    22667    22698    22765    22775    22727    22690 
   22670    22658    22675    22736    22793    22797    22778    22750 
   22701    22685    22715    22739    22723    22701    22727    22756 
   22735    22697    22677    22688    22729    22762    22759    22736 
   22693    22671    22736    22781    22724    22697    22720    22689 
   22671    22728    22765    22743    22701    22663    22678    22740 
   22763    22755    22777    22766    22704    22650    22630    22665 
   22738    22770    22758    22728    22712    22740    22756    22731 
   22750    22783    22738    22694    22698    22686    22693    22736 
   22740    22707    22685    22689    22700    22704    22729    22771 
   22796    22790    22735    22667    22666    22711    22747    22752 
   22711    22682    22705    22716    22720    22762    22771    22727 
   22693    22689    22705    22728    22754    22775    22765    22723 
   22686    22680    22693    22725    22774    22774    22717    22705 
   22727    22719    22704    22688    22702    22752    22729    22674 
   22715    22786    22781    22735    22709    22701    22701    22713 
   22713    22720    22748    22729    22678    22674    22693    22716 
   22765    22800    22783    22738    22694    22662    22663    22698 
   22725    22744    22759    22731    22709    22748    22770    22739 
   22709    22675    22647    22682    22743    22744    22723    22736 
   22735    22702    22704    22732    22723    22723    22751    22729 
   22692    22708    22736    22746    22734    22708    22715    22740 
   22738    22724    22707    22702    22751    22773    22727    22694 
   22688    22690    22702    22707    22720    22763    22774    22732 
   22731    22773    22750    22681    22673    22712    22712    22682 
   22698    22736    22727    22702    22709    22720    22740    22769 
   22763    22739    22727    22716    22697    22684    22708    22742 
   22747    22740    22716    22684    22693    22727    22739    22727 
   22725    22755    22748    22704    22700    22720    22719    22724 
   22716    22689    22694    22716    22731    22759    22770    22750 
   22729    22704    22688    22702    22713    22724    22748    22743 
   22708    22693    22708    22731    22729    22712    22701    22685 
   22694    22750    22777    22754    22716    22688    22697    22715 
   22716    22735    22758    22744    22700    22690    22735    22755 
   22744    22747    22721    22674    22659    22669    22697    22734 
   22748    22755    22769    22754    22724    22742    22769    22734 
   22681    22678    22709    22747    22752    22716    22715    22742 
   22702    22669    22705    22716    22709    22752    22769    22723 
   22704    22729    22739    22727    22725    22729    22719    22694 
   22684    22708    22736    22747    22738    22724    22725    22724 
   22721    22717    22700    22702    22739    22751    22715    22690 
   22717    22743    22738    22728    22719    22723    22732    22702 
   22681    22713    22743    22746    22734    22713    22715    22712 
   22684    22688    22717    22719    22723    22762    22779    22721 
   22665    22701    22746    22732    22739    22752    22711    22685 
   22704    22723    22744    22744    22732    22743    22720    22682 
   22715    22748    22728    22721    22727    22709    22707    22742 
   22755    22723    22698    22705    22716    22727    22739    22736 
   22716    22707    22716    22723    22723    22725    22723    22711 
   22705    22731    22754    22735    22724    22752    22746    22698 
   22701    22731    22723    22698    22700    22719    22738    22740 
   22711    22682    22697    22719    22719    22735    22747    22728 
   22723    22738    22744    22732    22711    22697    22701    22723 
   22740    22734    22727    22727    22701    22673    22684    22715 
   22736    22742    22721    22704    22721    22743    22739    22735 
   22742    22732    22716    22725    22736    22707    22682    22698 
   22698    22686    22728    22766    22748    22743    22752    22723 
   22704    22729    22739    22725    22729    22743    22729    22693 
   22686    22723    22742    22711    22677    22686    22723    22752 
   22769    22750    22709    22711    22724    22702    22712    22742 
   22727    22723    22754    22748    22711    22704    22720    22717 
   22707    22721    22738    22731    22719    22709    22711    22734 
   22751    22744    22717    22700    22729    22746    22723    22721 
   22731    22711    22682    22681    22712    22739    22739    22723 
   22711    22732    22762    22746    22716    22707    22696    22701 
   22731    22748    22751    22756    22742    22705    22696    22719 
   22723    22705    22700    22716    22723    22719    22721    22716 
   22674    22631    22646    22707    22775    22847    22898    22909 
   22885    22831    22732    22613    22534    22511    22538    22616 
   22692    22738    22788    22797    22748    22721    22721    22713 
   22708    22728    22783    22821    22796    22763    22762    22739 
   22688    22669    22692    22704    22681    22659    22663    22669 
   22692    22756    22813    22832    22816    22756    22717    22721 
   22697    22654    22677    22736    22740    22717    22705    22705 
   22752    22782    22713    22603    22549    22576    22644    22720 
   22804    22866    22885    22906    22881    22761    22663    22658 
   22669    22655    22615    22570    22604    22707    22777    22797 
   22820    22837    22825    22804    22801    22815    22781    22669 
   22566    22547    22573    22601    22653    22727    22786    22816 
   22817    22751    22659    22643    22694    22771    22856    22900 
   22869    22789    22681    22574    22538    22600    22673    22693 
   22700    22705    22702    22731    22778    22752    22646    22600 
   22686    22810    22885    22896    22855    22813    22788    22767 
   22773    22779    22719    22621    22554    22508    22469    22476 
   22565    22682    22742    22783    22854    22908    22947    22967 
   22925    22851    22781    22728    22704    22671    22612    22585 
   22603    22617    22631    22662    22689    22713    22742    22740 
   22723    22724    22723    22725    22761    22802    22817    22827 
   22851    22839    22738    22630    22605    22608    22586    22590 
   22628    22658    22697    22740    22754    22779    22819    22798 
   22752    22759    22778    22775    22761    22715    22675    22685 
   22701    22693    22673    22663    22678    22694    22698    22698 
   22690    22680    22693    22727    22765    22802    22816    22792 
   22763    22746    22728    22716    22721    22736    22763    22796 
   22778    22721    22717    22739    22697    22631    22600    22603 
   22644    22712    22763    22786    22775    22756    22758    22747 
   22739    22775    22794    22775    22759    22743    22735    22729 
   22682    22642    22651    22653    22643    22674    22725    22756 
   22770    22755    22723    22729    22771    22794    22810    22805 
   22743    22682    22675    22688    22684    22666    22669    22694 
   22702    22692    22690    22693    22701    22729    22752    22743 
   22715    22700    22705    22705    22709    22748    22770    22743 
   22750    22778    22750    22715    22740    22758    22727    22729 
   22752    22709    22662    22686    22720    22734    22740    22715 
   22689    22711    22743    22744    22725    22680    22631    22635 
   22690    22746    22778    22797    22815    22794    22742    22721 
   22721    22698    22673    22673    22708    22746    22751    22736 
   22713    22696    22708    22752    22790    22796    22775    22734 
   22688    22663    22667    22694    22728    22747    22743    22721 
   22701    22702    22705    22693    22686    22709    22739    22738 
   22723    22736    22751    22723    22685    22688    22720    22739 
   22725    22717    22742    22763    22759    22743    22711    22684 
   22696    22729    22763    22788    22775    22728    22690    22698 
   22727    22723    22709    22719    22725    22723    22724    22721 
   22702    22673    22666    22688    22717    22747    22778    22794 
   22781    22747    22712    22686    22685    22701    22705    22685 
   22681    22707    22719    22713    22724    22755    22774    22755 
   22719    22693    22671    22647    22653    22696    22734    22754 
   22766    22766    22769    22774    22755    22713    22688    22707 
   22744    22761    22765    22756    22732    22724    22736    22729 
   22702    22696    22702    22704    22729    22759    22739    22709 
   22711    22707    22700    22727    22758    22765    22759    22731 
   22694    22686    22707    22740    22754    22738    22716    22689 
   22689    22717    22705    22673    22693    22720    22713    22731 
   22771    22778    22763    22750    22728    22709    22711    22712 
   22701    22707    22727    22728    22709    22700    22700    22698 
   22702    22713    22719    22734    22751    22736    22721    22746 
   22752    22723    22720    22731    22719    22715    22720    22702 
   22680    22678    22690    22694    22690    22693    22702    22708 
   22720    22735    22729    22724    22729    22734    22756    22788 
   22788    22763    22738    22721    22719    22728    22744    22748 
   22720    22673    22654    22674    22702    22727    22738    22720 
   22712    22732    22731    22720    22739    22744    22734    22740 
   22752    22748    22735    22717    22709    22716    22708    22694 
   22696    22697    22697    22715    22746    22766    22762    22742 
   22727    22716    22705    22705    22713    22723    22736    22720 
   22686    22693    22716    22724    22738    22746    22731    22705 
   22694    22701    22701    22694    22713    22740    22750    22743 
   22735    22735    22725    22704    22693    22694    22696    22708 
   22728    22740    22728    22721    22744    22759    22762    22777 
   22774    22752    22743    22727    22707    22702    22705    22707 
   22719    22740    22748    22748    22758    22758    22731    22705 
   22702    22693    22667    22671    22701    22712    22711    22715 
   22708    22704    22712    22721    22731    22739    22750    22758 
   22747    22734    22738    22742    22735    22728    22727    22728 
   22735    22735    22719    22712    22727    22735    22728    22724 
   22727    22725    22713    22705    22705    22700    22690    22696 
   22723    22742    22725    22694    22682    22689    22696    22696 
   22696    22707    22719    22727    22739    22750    22754    22763 
   22771    22759    22740    22725    22712    22711    22725    22732 
   22728    22721    22719    22723    22716    22709    22723    22742 
   22742    22734    22717    22696    22688    22692    22696    22709 
   22731    22743    22746    22739    22720    22700    22704    22717 
   22724    22725    22725    22731    22736    22728    22727    22735 
   22731    22716    22711    22719    22727    22728    22731    22742 
   22748    22744    22744    22742    22734    22729    22728    22724 
   22715    22693    22688    22704    22712    22711    22716    22723 
   22725    22731    22740    22735    22720    22707    22693    22693 
   22713    22728    22729    22729    22728    22720    22719    22717 
   22713    22711    22708    22705    22708    22713    22728    22739 
   22728    22725    22740    22738    22729    22739    22735    22719 
   22719    22721    22731    22746    22732    22707    22705    22707 
   22709    22727    22744    22746    22738    22727    22719    22729 
   22748    22754    22746    22727    22716    22731    22742    22725 
