Origin Time       2025/03/30 10:46:00
Lat.              32.923
Long.             130.372
Depth. (km)       11
Mag.              3.4
Station Code      KMMH18
Station Lat.      33.0031
Station Long.     131.0071
Station Height(m) 854.038
Record Time       2025/03/30 10:46:39
Sampling Freq(Hz) 100Hz
Duration Time(s)  120
Dir.              1
Scale Factor      3923(gal)/8224838
Max. Acc. (gal)   0.169
Last Correction   2025/03/30 10:46:38
Memo.             
[...]
   -9634    -9634    -9637    -9637    -9634    -9637    -9637    -9637 
   -9637    -9637    -9637    -9636    -9633    -9632    -9634    -9636 
   -9634    -9634    -9637    -9637    -9636    -9636    -9637    -9637 
   -9636    -9636    -9636    -9633    -9634    -9634    -9633    -9633 
   -9636    -9636    -9633    -9632    -9634    -9637    -9637    -9637 
   -9636    -9636    -9634    -9634    -9636    -9636    -9636    -9636 
   -9637    -9636    -9634    -9634    -9634    -9634    -9634    -9637 
   -9639    -9639    -9634    -9634    -9636    -9637    -9637    -9636 
   -9634    -9636    -9634    -9634    -9637    -9636    -9636    -9637 
   -9636    -9634    -9634    -9634    -9634    -9636    -9634    -9634 
   -9636    -9639    -9639    -9637    -9637    -9639    -9637    -9636 
   -9636    -9636    -9637    -9636    -9633    -9634    -9637    -9637 
   -9637    -9639    -9637    -9636    -9636    -9637    -9636    -9634 
   -9634    -9636    -9637    -9636    -9637    -9640    -9637    -9633 
   -9634    -9637    -9637    -9636    -9634    -9634    -9636    -9637 
   -9637    -9636    -9636    -9636    -9636    -9636    -9637    -9636 
   -9634    -9637    -9637    -9636    -9636    -9636    -9634    -9637 
   -9637    -9636    -9637    -9637    -9636    -9637    -9637    -9636 
   -9637    -9636    -9633    -9634    -9637    -9636    -9634    -9634 
   -9634    -9636    -9637    -9637    -9634    -9634    -9637    -9637 
   -9634    -9633    -9636    -9639    -9639    -9639    -9637    -9634 
   -9634    -9636    -9636    -9634    -9634    -9634    -9636    -9636 
   -9637    -9637    -9636    -9636    -9637    -9636    -9637    -9640 
   -9639    -9637    -9636    -9636    -9637    -9636    -9634    -9639 
   -9637    -9634    -9637    -9637    -9637    -9639    -9636    -9634 
   -9637    -9634    -9634    -9639    -9640    -9636    -9634    -9636 
   -9636    -9637    -9636    -9633    -9634    -9637    -9636    -9634 
   -9633    -9634    -9636    -9636    -9634    -9636    -9637    -9636 
   -9634    -9632    -9633    -9634    -9634    -9633    -9633    -9632 
   -9634    -9634    -9633    -9636    -9639    -9639    -9637    -9636 
   -9637    -9634    -9634    -9637    -9636    -9633    -9636    -9637 
   -9636    -9634    -9634    -9636    -9634    -9634    -9639    -9639 
   -9637    -9636    -9634    -9637    -9636    -9633    -9637    -9639 
   -9634    -9634    -9639    -9637    -9636    -9637    -9634    -9632 
   -9637    -9640    -9636    -9633    -9634    -9633    -9634    -9637 
   -9636    -9636    -9637    -9637    -9637    -9637    -9634    -9636 
   -9639    -9640    -9639    -9637    -9639    -9637    -9633    -9636 
   -9637    -9636    -9637    -9637    -9637    -9639    -9636    -9633 
   -9637    -9637    -9634    -9636    -9637    -9634    -9634    -9637 
   -9634    -9634    -9639    -9637    -9636    -9639    -9636    -9634 
   -9634    -9634    -9636    -9636    -9636    -9637    -9637    -9634 
   -9634    -9636    -9636    -9634    -9633    -9634    -9637    -9637 
   -9633    -9633    -9636    -9637    -9636    -9634    -9636    -9637 
   -9639    -9637    -9633    -9634    -9639    -9637    -9636    -9634 
   -9636    -9636    -9634    -9634    -9637    -9637    -9634    -9634 
   -9634    -9636    -9639    -9637    -9634    -9633    -9636    -9639 
   -9639    -9636    -9636    -9637    -9637    -9639    -9640    -9637 
   -9636    -9636    -9636    -9636    -9636    -9639    -9637    -9633 
   -9633    -9637    -9636    -9633    -9633    -9636    -9637    -9637 
   -9636    -9636    -9634    -9634    -9639    -9637    -9634    -9637 
   -9637    -9634    -9636    -9639    -9637    -9637    -9639    -9637 
   -9634    -9634    -9636    -9636    -9634    -9637    -9637    -9633 
   -9633    -9636    -9636    -9637    -9639    -9636    -9634    -9636 
   -9634    -9633    -9633    -9634    -9637    -9639    -9637    -9636 
   -9633    -9634    -9636    -9636    -9637    -9637    -9636    -9636 
   -9636    -9636    -9636    -9637    -9637    -9639    -9637    -9636 
   -9636    -9634    -9636    -9637    -9634    -9636    -9637    -9636 
   -9636    -9636    -9634    -9634    -9636    -9636    -9636    -9634 
   -9636    -9636    -9634    -9636    -9637    -9636    -9636    -9636 
   -9634    -9637    -9637    -9633    -9634    -9637    -9634    -9634 
   -9637    -9634    -9634    -9636    -9634    -9636    -9636    -9634 
   -9634    -9636    -9637    -9637    -9637    -9637    -9636    -9636 
   -9637    -9637    -9637    -9636    -9634    -9636    -9636    -9633 
   -9636    -9637    -9636    -9636    -9637    -9637    -9636    -9634 
   -9637    -9637    -9636    -9636    -9637    -9637    -9637    -9636 
   -9634    -9636    -9636    -9636    -9636    -9633    -9634    -9636 
   -9634    -9636    -9634    -9633    -9636    -9637    -9634    -9636 
   -9637    -9634    -9634    -9636    -9636    -9634    -9634    -9633 
   -9634    -9636    -9633    -9633    -9636    -9636    -9634    -9634 
   -9636    -9636    -9639    -9639    -9636    -9634    -9636    -9634 
   -9633    -9636    -9639    -9637    -9634    -9636    -9637    -9636 
   -9634    -9636    -9639    -9637    -9636    -9636    -9634    -9634 
   -9636    -9634    -9634    -9636    -9636    -9637    -9640    -9640 
   -9637    -9636    -9636    -9636    -9636    -9637    -9636    -9639 
   -9639    -9636    -9637    -9640    -9639    -9637    -9637    -9637 
   -9639    -9636    -9634    -9634    -9634    -9634    -9636    -9636 
   -9636    -9637    -9639    -9637    -9636    -9636    -9637    -9636 
   -9636    -9634    -9634    -9637    -9637    -9636    -9633    -9634 
   -9636    -9637    -9637    -9639    -9639    -9636    -9634    -9636 
   -9634    -9633    -9636    -9634    -9634    -9637    -9637    -9636 
   -9636    -9634    -9636    -9637    -9636    -9634    -9634    -9637 
   -9641    -9643    -9641    -9639    -9639    -9637    -9636    -9641 
   -9649    -9649    -9634    -9617    -9606    -9607    -9622    -9640 
   -9652    -9660    -9656    -9641    -9625    -9622    -9643    -9667 
   -9668    -9636    -9591    -9580    -9617    -9663    -9688    -9687 
   -9653    -9605    -9570    -9579    -9628    -9666    -9657    -9626 
   -9614    -9613    -9620    -9670    -9752    -9794    -9748    -9653 
   -9589    -9579    -9578    -9541    -9493    -9478    -9497    -9526 
   -9574    -9648    -9738    -9821    -9867    -9855    -9786    -9691 
   -9620    -9590    -9564    -9520    -9497    -9526    -9580    -9614 
   -9625    -9636    -9655    -9683    -9707    -9694    -9630    -9567 
   -9574    -9647    -9707    -9695    -9651    -9655    -9693    -9705 
   -9706    -9722    -9720    -9657    -9552    -9459    -9441    -9508 
   -9590    -9630    -9648    -9660    -9668    -9674    -9663    -9633 
   -9633    -9674    -9686    -9641    -9594    -9607    -9680    -9748 
   -9745    -9680    -9622    -9613    -9628    -9632    -9617    -9585 
   -9541    -9514    -9526    -9564    -9597    -9626    -9672    -9707 
   -9697    -9667    -9671    -9720    -9756    -9736    -9683    -9649 
   -9629    -9591    -9568    -9593    -9614    -9598    -9571    -9583 
   -9622    -9632    -9624    -9649    -9683    -9682    -9667    -9653 
   -9629    -9612    -9616    -9622    -9626    -9648    -9667    -9664 
   -9660    -9659    -9632    -9590    -9544    -9502    -9514    -9597 
   -9684    -9728    -9728    -9702    -9686    -9690    -9664    -9598 
   -9555    -9552    -9563    -9595    -9671    -9752    -9759    -9702 
   -9668    -9693    -9711    -9664    -9576    -9532    -9560    -9606 
   -9610    -9568    -9524    -9520    -9568    -9653    -9752    -9792 
   -9722    -9629    -9617    -9643    -9629    -9598    -9590    -9603 
   -9649    -9705    -9706    -9674    -9668    -9663    -9621    -9567 
   -9535    -9544    -9583    -9621    -9666    -9734    -9786    -9759 
   -9667    -9591    -9571    -9541    -9468    -9450    -9532    -9605 
   -9613    -9632    -9693    -9736    -9737    -9714    -9695    -9691 
   -9690    -9680    -9679    -9676    -9644    -9595    -9580    -9612 
   -9640    -9618    -9597    -9620    -9621    -9574    -9576    -9641 
   -9667    -9641    -9648    -9690    -9706    -9688    -9656    -9637 
   -9664    -9679    -9595    -9478    -9450    -9516    -9620    -9693 
   -9697    -9688    -9715    -9706    -9628    -9583    -9624    -9676 
   -9688    -9671    -9644    -9625    -9628    -9640    -9659    -9690 
   -9705    -9680    -9630    -9583    -9559    -9547    -9539    -9555 
   -9578    -9583    -9603    -9678    -9769    -9796    -9725    -9607 
   -9533    -9549    -9597    -9603    -9598    -9625    -9680    -9722 
   -9717    -9686    -9684    -9713    -9720    -9674    -9583    -9502 
   -9487    -9556    -9664    -9721    -9675    -9580    -9543    -9587 
   -9661    -9705    -9706    -9698    -9684    -9643    -9609    -9621 
   -9637    -9625    -9613    -9634    -9664    -9655    -9602    -9559 
   -9568    -9616    -9661    -9684    -9666    -9616    -9601    -9653 
   -9714    -9707    -9633    -9587    -9610    -9653    -9674    -9655 
   -9598    -9564    -9607    -9686    -9714    -9675    -9622    -9601 
   -9585    -9551    -9533    -9558    -9599    -9661    -9751    -9787 
   -9715    -9633    -9625    -9636    -9620    -9617    -9620    -9593 
   -9576    -9610    -9644    -9656    -9670    -9675    -9659    -9629 
   -9612    -9625    -9637    -9630    -9644    -9679    -9671    -9597 
   -9532    -9539    -9585    -9633    -9687    -9722    -9714    -9695 
   -9710    -9734    -9715    -9652    -9593    -9580    -9606    -9612 
   -9567    -9532    -9563    -9629    -9663    -9660    -9663    -9676 
   -9664    -9648    -9668    -9684    -9641    -9575    -9551    -9575 
   -9603    -9633    -9671    -9687    -9675    -9661    -9648    -9620 
   -9579    -9549    -9540    -9563    -9628    -9676    -9653    -9620 
   -9626    -9645    -9648    -9649    -9675    -9724    -9763    -9768 
   -9734    -9683    -9649    -9657    -9667    -9602    -9499    -9494 
   -9579    -9616    -9564    -9506    -9522    -9622    -9717    -9737 
   -9733    -9748    -9741    -9693    -9651    -9632    -9609    -9578 
   -9576    -9601    -9606    -9591    -9589    -9590    -9576    -9574 
   -9603    -9633    -9639    -9666    -9722    -9742    -9706    -9661 
   -9649    -9666    -9693    -9715    -9711    -9656    -9583    -9563 
   -9593    -9620    -9626    -9612    -9589    -9580    -9580    -9563 
   -9556    -9603    -9670    -9686    -9652    -9612    -9609    -9645 
   -9690    -9720    -9728    -9699    -9653    -9651    -9705    -9738 
   -9713    -9663    -9620    -9580    -9540    -9513    -9520    -9556 
   -9591    -9614    -9640    -9670    -9699    -9711    -9691    -9649 
   -9610    -9598    -9617    -9630    -9603    -9543    -9504    -9532 
   -9598    -9648    -9684    -9722    -9744    -9722    -9647    -9553 
   -9529    -9597    -9675    -9698    -9690    -9691    -9724    -9768 
   -9765    -9714    -9659    -9612    -9564    -9513    -9475    -9486 
   -9548    -9626    -9678    -9671    -9616    -9597    -9680    -9778 
   -9751    -9649    -9609    -9624    -9620    -9587    -9579    -9636 
   -9702    -9688    -9620    -9590    -9598    -9602    -9606    -9632 
   -9672    -9688    -9657    -9632    -9667    -9702    -9663    -9610 
   -9613    -9616    -9585    -9590    -9659    -9714    -9695    -9625 
   -9572    -9571    -9593    -9606    -9626    -9663    -9679    -9655 
   -9626    -9621    -9626    -9622    -9617    -9637    -9683    -9710 
   -9701    -9680    -9672    -9655    -9589    -9506    -9490    -9552 
   -9634    -9674    -9660    -9644    -9647    -9645    -9629    -9641 
   -9691    -9740    -9742    -9694    -9643    -9617    -9597    -9606 
   -9657    -9674    -9628    -9597    -9606    -9616    -9626    -9645 
   -9637    -9603    -9594    -9607    -9603    -9578    -9580    -9636 
   -9686    -9676    -9626    -9602    -9647    -9720    -9729    -9653 
   -9595    -9614    -9640    -9634    -9656    -9691    -9667    -9603 
   -9580    -9603    -9626    -9660    -9722    -9756    -9714    -9633 
   -9571    -9564    -9593    -9593    -9580    -9617    -9670    -9667 
   -9624    -9599    -9598    -9597    -9597    -9605    -9622    -9645 
   -9653    -9644    -9647    -9660    -9653    -9625    -9613    -9649 
   -9705    -9718    -9698    -9676    -9649    -9606    -9549    -9517 
   -9540    -9594    -9636    -9661    -9688    -9714    -9713    -9688 
   -9698    -9747    -9768    -9722    -9639    -9566    -9531    -9522 
   -9522    -9528    -9541    -9567    -9610    -9641    -9637    -9634 
   -9670    -9709    -9701    -9653    -9620    -9625    -9633    -9621 
   -9616    -9620    -9617    -9644    -9705    -9726    -9679    -9618 
   -9570    -9514    -9459    -9456    -9539    -9674    -9791    -9841 
   -9838    -9832    -9832    -9794    -9718    -9671    -9679    -9691 
   -9655    -9586    -9528    -9485    -9445    -9409    -9374    -9339 
   -9352    -9481    -9691    -9872    -9940    -9906    -9840    -9790 
   -9753    -9697    -9617    -9572    -9601    -9644    -9644    -9637 
   -9661    -9674    -9632    -9540    -9427    -9363    -9408    -9516 
   -9613    -9686    -9749    -9817    -9861    -9819    -9711    -9628 
   -9616    -9645    -9670    -9651    -9594    -9556    -9549    -9537 
   -9512    -9498    -9487    -9444    -9389    -9402    -9528    -9721 
   -9891    -9980    -9991    -9909    -9741    -9587    -9526    -9525 
   -9536    -9576    -9664    -9759    -9796    -9780    -9759    -9751 
   -9734    -9686    -9616    -9558    -9532    -9528    -9543    -9559 
   -9553    -9547    -9579    -9640    -9682    -9688    -9690    -9697 
   -9693    -9683    -9656    -9572    -9455    -9383    -9405    -9513 
   -9648    -9760    -9832    -9836    -9756    -9653    -9591    -9544 
   -9493    -9499    -9580    -9679    -9778    -9867    -9864    -9755 
   -9645    -9594    -9578    -9580    -9562    -9495    -9455    -9521 
   -9655    -9744    -9756    -9747    -9726    -9637    -9483    -9383 
   -9421    -9564    -9713    -9780    -9733    -9621    -9558    -9609 
   -9707    -9765    -9772    -9757    -9744    -9726    -9686    -9634 
   -9614    -9607    -9545    -9431    -9369    -9451    -9640    -9810 
   -9890    -9888    -9811    -9668    -9520    -9447    -9479    -9571 
   -9666    -9745    -9806    -9819    -9760    -9634    -9491    -9401 
   -9409    -9498    -9612    -9690    -9695    -9661    -9657    -9672 
   -9649    -9602    -9602    -9649    -9653    -9571    -9506    -9563 
   -9707    -9828    -9840    -9738    -9620    -9572    -9586    -9622 
   -9660    -9660    -9607    -9543    -9514    -9539    -9597    -9660 
   -9705    -9707    -9647    -9556    -9549    -9668    -9791    -9795 
   -9714    -9667    -9702    -9734    -9679    -9586    -9559    -9589 
   -9603    -9597    -9605    -9632    -9647    -9625    -9576    -9545 
   -9564    -9607    -9644    -9672    -9690    -9707    -9738    -9764 
   -9738    -9643    -9555    -9552    -9597    -9595    -9526    -9452 
   -9447    -9504    -9568    -9618    -9663    -9713    -9759    -9778 
   -9774    -9769    -9763    -9733    -9680    -9625    -9589    -9575 
   -9580    -9578    -9576    -9626    -9682    -9656    -9571    -9510 
   -9512    -9563    -9632    -9678    -9671    -9641    -9621    -9606 
   -9591    -9590    -9603    -9625    -9660    -9728    -9821    -9895 
   -9896    -9819    -9698    -9556    -9435    -9386    -9409    -9463 
   -9558    -9683    -9749    -9693    -9593    -9544    -9555    -9598 
   -9660    -9711    -9742    -9761    -9765    -9734    -9655    -9551 
   -9498    -9531    -9612    -9698    -9756    -9755    -9693    -9610 
   -9551    -9533    -9552    -9597    -9645    -9688    -9730    -9761 
   -9753    -9691    -9583    -9478    -9433    -9472    -9586    -9729 
   -9825    -9842    -9782    -9651    -9498    -9410    -9412    -9468 
   -9552    -9630    -9663    -9636    -9580    -9544    -9572    -9655 
   -9744    -9822    -9907    -9965    -9936    -9829    -9713    -9628 
   -9551    -9485    -9482    -9559    -9663    -9728    -9718    -9645 
   -9562    -9506    -9490    -9494    -9510    -9536    -9587    -9668 
   -9726    -9707    -9655    -9613    -9567    -9524    -9533    -9594 
   -9670    -9747    -9794    -9782    -9715    -9612    -9512    -9466 
   -9475    -9522    -9618    -9752    -9856    -9871    -9802    -9695 
   -9605    -9564    -9567    -9593    -9629    -9666    -9693    -9706 
   -9688    -9634    -9562    -9505    -9486    -9498    -9532    -9578 
   -9616    -9640    -9675    -9703    -9670    -9576    -9514    -9547 
   -9649    -9761    -9846    -9895    -9880    -9787    -9659    -9563 
   -9532    -9551    -9585    -9603    -9601    -9594    -9580    -9549 
   -9526    -9526    -9533    -9563    -9655    -9791    -9909    -9954 
   -9888    -9709    -9504    -9385    -9401    -9518    -9657    -9726 
   -9711    -9667    -9624    -9605    -9630    -9656    -9643    -9614 
   -9587    -9529    -9464    -9470    -9560    -9679    -9769    -9792 
   -9748    -9682    -9617    -9567    -9552    -9580    -9624    -9651 
   -9660    -9674    -9699    -9715    -9678    -9587    -9525    -9540 
   -9594    -9640    -9657    -9660    -9682    -9722    -9751    -9744 
   -9694    -9614    -9549    -9547    -9589    -9618    -9620    -9628 
   -9647    -9643    -9609    -9567    -9544    -9583    -9690    -9799 
   -9846    -9841    -9822    -9795    -9753    -9687    -9582    -9466 
   -9414    -9451    -9517    -9567    -9593    -9613    -9634    -9657 
   -9679    -9705    -9729    -9734    -9697    -9618    -9541    -9513 
   -9539    -9587    -9629    -9647    -9639    -9610    -9566    -9532 
   -9525    -9544    -9593    -9661    -9713    -9728    -9733    -9741 
   -9732    -9702    -9682    -9679    -9670    -9640    -9607    -9599 
   -9605    -9599    -9594    -9605    -9617    -9626    -9644    -9663 
   -9668    -9640    -9590    -9575    -9622    -9675    -9674    -9624 
   -9571    -9553    -9591    -9647    -9676    -9690    -9703    -9703 
   -9690    -9675    -9663    -9652    -9640    -9629    -9624    -9630 
   -9668    -9732    -9752    -9701    -9624    -9551    -9489    -9464 
   -9490    -9552    -9636    -9722    -9768    -9756    -9699    -9632 
   -9578    -9533    -9499    -9508    -9571    -9655    -9709    -9711 
   -9672    -9629    -9609    -9626    -9671    -9690    -9645    -9576 
   -9556    -9609    -9676    -9709    -9718    -9709    -9667    -9610 
   -9560    -9528    -9537    -9593    -9663    -9710    -9718    -9711 
   -9722    -9741    -9733    -9691    -9643    -9612    -9591    -9579 
   -9583    -9594    -9591    -9574    -9570    -9594    -9624    -9636 
   -9637    -9648    -9672    -9683    -9668    -9645    -9634    -9644 
   -9667    -9683    -9678    -9647    -9602    -9576    -9599    -9634 
   -9632    -9603    -9605    -9648    -9702    -9736    -9747    -9737 
   -9707    -9652    -9583    -9528    -9524    -9594    -9702    -9772 
   -9769    -9709    -9632    -9572    -9543    -9535    -9547    -9566 
   -9579    -9589    -9589    -9590    -9610    -9645    -9671    -9653 
   -9603    -9572    -9593    -9641    -9675    -9670    -9645    -9628 
