Origin Time       2025/03/30 10:46:00
Lat.              32.923
Long.             130.372
Depth. (km)       11
Mag.              3.4
Station Code      KMMH14
Station Lat.      32.6345
Station Long.     130.7521
Station Height(m) 70
Record Time       2025/03/30 10:46:35
Sampling Freq(Hz) 100Hz
Duration Time(s)  120
Dir.              5
Scale Factor      7845(gal)/8223790
Max. Acc. (gal)   1.357
Last Correction   2025/03/30 10:46:36
Memo.             
[...]
   43833    43839    43839    43834    43823    43815    43812    43818 
   43823    43819    43814    43816    43821    43825    43825    43825 
   43827    43827    43826    43829    43825    43815    43814    43816 
   43815    43812    43818    43830    43837    43835    43837    43831 
   43822    43815    43815    43819    43825    43823    43816    43814 
   43816    43823    43827    43827    43831    43838    43830    43812 
   43810    43812    43811    43815    43829    43833    43829    43826 
   43827    43827    43825    43821    43814    43810    43812    43821 
   43827    43833    43833    43826    43822    43822    43816    43811 
   43814    43821    43826    43830    43829    43822    43821    43822 
   43816    43814    43825    43837    43834    43826    43827    43829 
   43822    43810    43804    43816    43829    43822    43821    43831 
   43833    43825    43821    43819    43818    43819    43822    43822 
   43819    43818    43818    43823    43839    43845    43837    43826 
   43819    43814    43808    43803    43804    43815    43825    43827 
   43830    43827    43825    43826    43827    43825    43818    43814 
   43819    43819    43818    43823    43829    43826    43822    43822 
   43823    43818    43818    43829    43834    43830    43826    43825 
   43818    43812    43815    43819    43821    43825    43829    43827 
   43826    43825    43819    43818    43825    43827    43823    43821 
   43826    43829    43830    43831    43829    43822    43816    43814 
   43816    43819    43819    43818    43818    43819    43822    43822 
   43823    43829    43833    43830    43830    43834    43827    43816 
   43815    43819    43818    43816    43821    43825    43823    43823 
   43823    43819    43816    43821    43830    43834    43833    43829 
   43825    43825    43825    43825    43825    43819    43815    43816 
   43818    43818    43818    43823    43835    43845    43841    43830 
   43818    43812    43811    43807    43808    43819    43829    43829 
   43826    43826    43827    43826    43823    43827    43835    43833 
   43819    43814    43816    43821    43833    43837    43829    43818 
   43808    43803    43808    43823    43835    43834    43827    43826 
   43834    43835    43827    43816    43812    43811    43812    43819 
   43830    43839    43834    43825    43826    43831    43829    43825 
   43822    43816    43814    43819    43822    43825    43829    43826 
   43821    43821    43818    43815    43823    43827    43823    43826 
   43830    43829    43830    43827    43821    43818    43814    43810 
   43810    43815    43822    43825    43833    43843    43841    43829 
   43822    43815    43808    43810    43815    43823    43830    43829 
   43823    43823    43823    43823    43825    43827    43830    43829 
   43821    43816    43819    43822    43819    43822    43829    43831 
   43829    43827    43821    43814    43815    43821    43825    43821 
   43816    43821    43821    43821    43827    43829    43826    43822 
   43819    43821    43823    43823    43819    43819    43823    43826 
   43825    43821    43818    43819    43821    43818    43822    43831 
   43833    43827    43823    43818    43815    43818    43821    43826 
   43831    43830    43827    43825    43816    43810    43811    43816 
   43823    43830    43830    43823    43821    43822    43821    43822 
   43823    43819    43816    43819    43826    43827    43826    43830 
   43831    43819    43810    43811    43814    43818    43826    43830 
   43829    43827    43826    43823    43818    43816    43823    43826 
   43823    43822    43822    43815    43811    43814    43819    43821 
   43822    43827    43830    43826    43825    43829    43829    43826 
   43826    43822    43818    43818    43822    43822    43819    43823 
   43829    43827    43822    43815    43811    43814    43821    43823 
   43829    43838    43835    43825    43822    43822    43819    43822 
   43827    43822    43816    43815    43812    43816    43822    43827 
   43833    43829    43822    43821    43823    43826    43823    43823 
   43827    43826    43814    43810    43815    43814    43811    43819 
   43833    43834    43829    43826    43823    43826    43830    43829 
   43823    43822    43819    43814    43807    43811    43822    43826 
   43823    43822    43819    43825    43834    43834    43833    43837 
   43834    43821    43811    43811    43808    43807    43812    43818 
   43819    43822    43829    43831    43826    43822    43825    43827 
   43830    43833    43833    43826    43815    43808    43811    43816 
   43822    43825    43823    43823    43825    43818    43815    43823 
   43829    43831    43831    43825    43814    43808    43812    43823 
   43826    43827    43831    43825    43814    43815    43816    43816 
   43827    43838    43834    43826    43816    43807    43806    43812 
   43819    43819    43822    43829    43827    43825    43826    43833 
   43831    43826    43826    43822    43812    43808    43811    43814 
   43818    43823    43829    43831    43833    43831    43825    43818 
   43821    43819    43818    43821    43819    43818    43822    43821 
   43821    43825    43826    43826    43826    43822    43821    43823 
   43825    43825    43825    43823    43816    43810    43811    43816 
   43826    43837    43837    43831    43831    43826    43818    43821 
   43821    43821    43818    43815    43815    43814    43816    43822 
   43826    43827    43826    43818    43815    43819    43825    43830 
   43833    43830    43825    43822    43816    43814    43821    43826 
   43830    43831    43826    43818    43812    43811    43811    43819 
   43829    43834    43835    43827    43815    43810    43810    43818 
   43830    43837    43834    43826    43819    43818    43821    43825 
   43827    43823    43819    43819    43816    43814    43819    43826 
   43827    43826    43829    43827    43816    43811    43811    43811 
   43815    43826    43831    43827    43827    43827    43821    43819 
   43827    43826    43814    43812    43818    43816    43814    43815 
   43822    43827    43827    43831    43834    43823    43815    43818 
   43815    43816    43826    43827    43822    43827    43826    43818 
   43815    43815    43814    43815    43816    43819    43823    43829 
   43831    43829    43823    43818    43818    43819    43819    43821 
   43823    43830    43835    43830    43822    43818    43812    43811 
   43816    43826    43831    43830    43822    43807    43796    43798 
   43810    43822    43835    43846    43846    43846    43852    43856 
   43853    43843    43839    43843    43837    43810    43780    43753 
   43731    43725    43746    43787    43827    43864    43895    43904 
   43891    43868    43841    43807    43772    43753    43761    43788 
   43823    43857    43884    43903    43906    43891    43868    43839 
   43807    43775    43744    43722    43717    43726    43753    43799 
   43849    43897    43934    43950    43956    43934    43856    43746 
   43677    43667    43676    43702    43768    43843    43893    43924 
   43943    43946    43938    43915    43875    43821    43768    43733 
   43738    43781    43816    43814    43807    43806    43767    43723 
   43750    43804    43819    43843    43934    44001    43965    43899 
   43849    43769    43707    43688    43653    43650    43738    43833 
   43903    43992    44062    44053    43974    43852    43729    43696 
   43742    43765    43731    43687    43691    43750    43810    43868 
   43926    43911    43852    43858    43885    43876    43854    43806 
   43752    43741    43748    43776    43816    43830    43862    43912 
   43939    43984    44018    43931    43772    43679    43640    43576 
   43530    43592    43737    43896    44030    44082    44047    43984 
   43920    43841    43748    43696    43696    43700    43725    43807 
   43856    43835    43856    43919    43908    43846    43848    43887 
   43852    43764    43734    43758    43781    43804    43849    43887 
   43875    43808    43713    43634    43629    43715    43852    43968 
   44018    44003    43941    43895    43895    43849    43731    43671 
   43686    43715    43776    43865    43916    43895    43837    43798 
   43787    43818    43880    43900    43846    43792    43788    43799 
   43811    43825    43822    43835    43835    43740    43634    43619 
   43644    43726    43916    44088    44155    44142    44023    43879 
   43816    43744    43645    43653    43686    43667    43731    43879 
   43927    43839    43771    43792    43811    43823    43912    43966 
   43870    43776    43802    43839    43810    43768    43760    43767 
   43753    43744    43779    43842    43906    43935    43881    43800 
   43788    43792    43785    43849    43920    43902    43854    43816 
   43768    43779    43876    43935    43893    43814    43757    43718 
   43694    43706    43730    43761    43845    43922    43895    43853 
   43884    43880    43799    43773    43826    43861    43856    43831 
   43810    43800    43789    43795    43843    43860    43785    43734 
   43815    43961    44047    44023    43924    43814    43700    43630 
   43659    43715    43727    43698    43654    43680    43800    43911 
   43987    44058    44054    43970    43903    43827    43683    43518 
   43434    43505    43730    44028    44236    44267    44193    44053 
   43837    43663    43614    43614    43610    43625    43672    43775 
   43885    43934    43943    43947    43926    43873    43795    43700 
   43614    43582    43660    43849    44070    44221    44228    44124 
   43964    43742    43519    43416    43420    43430    43484    43677 
   43946    44132    44190    44161    44031    43821    43661    43649 
   43764    43939    44062    44011    43818    43634    43578    43633 
   43692    43744    43825    43856    43816    43866    44020    44084 
   44003    43900    43841    43791    43718    43669    43696    43725 
   43731    43800    43897    43937    43946    43962    43939    43852 
   43738    43650    43606    43622    43687    43777    43899    44010 
   44045    43992    43870    43745    43704    43754    43834    43912 
   43951    43893    43779    43729    43777    43842    43857    43825 
   43776    43726    43713    43753    43799    43795    43733    43684 
   43734    43841    43931    44012    44043    43953    43815    43756 
   43784    43852    43926    43939    43869    43818    43860    43910 
   43884    43808    43717    43617    43526    43486    43546    43727 
   43960    44118    44142    44118    44118    44059    43881    43687 
   43582    43533    43502    43526    43642    43777    43841    43893 
   44005    44086    44042    43929    43835    43776    43749    43777 
   43835    43872    43854    43808    43830    43896    43872    43787 
   43742    43706    43653    43637    43691    43773    43807    43865 
   44062    44253    44253    44118    43953    43738    43472    43298 
   43348    43518    43660    43812    43995    44113    44163    44186 
   44143    43992    43772    43571    43453    43472    43646    43883 
   44026    44024    43951    43884    43848    43822    43748    43617 
   43529    43561    43654    43777    43956    44077    44035    43965 
   43966    43973    43953    43907    43812    43700    43633    43636 
   43706    43780    43795    43787    43814    43865    43902    43930 
   43951    43930    43876    43843    43856    43875    43842    43752 
   43676    43676    43722    43749    43735    43694    43659    43698 
   43843    44022    44142    44204    44188    44080    43943    43794 
   43596    43426    43390    43491    43646    43812    43980    44046 
   43933    43799    43798    43819    43771    43768    43830    43861 
   43857    43837    43803    43776    43756    43740    43713    43649 
   43618    43667    43684    43630    43638    43791    44024    44255 
   44440    44560    44590    44452    44118    43752    43499    43324 
   43276    43434    43625    43692    43695    43696    43717    43795 
   43907    43981    43989    43968    43935    43861    43784    43781 
   43827    43911    44032    44080    44057    44081    44107    44032 
   43868    43663    43470    43309    43173    43117    43198    43360 
   43556    43822    44153    44425    44509    44439    44350    44262 
   44107    43919    43775    43654    43546    43510    43524    43519 
   43494    43429    43291    43156    43133    43245    43456    43688 
   43873    44027    44205    44386    44521    44651    44783    44803 
   44656    44386    44023    43625    43293    43075    42966    42978 
   43128    43389    43659    43829    43896    43922    43926    43930 
   43983    44109    44294    44462    44548    44572    44521    44320 
   43970    43595    43312    43133    43000    42894    42901    43086 
   43397    43748    44070    44302    44442    44502    44451    44309 
   44120    43826    43398    42996    42813    42943    43347    43885 
   44394    44755    44891    44809    44567    44194    43737    43390 
   43318    43467    43672    43848    43983    43987    43703    43258 
   42998    42966    42963    43029    43268    43524    43654    43753 
   43931    44147    44323    44487    44691    44826    44783    44670 
   44554    44365    44172    44097    44047    43879    43609    43318 
   42994    42623    42399    42514    42850    43218    43648    44157 
   44593    44841    44910    44824    44604    44311    44092    44028 
   44015    43946    43816    43614    43367    43156    43058    43108 
   43235    43370    43559    43764    43872    43965    44185    44462 
   44643    44670    44502    44123    43664    43309    43131    43127 
   43274    43533    43821    43977    43896    43636    43335    43181 
   43313    43611    43918    44207    44397    44375    44182    43953 
   43799    43723    43681    43722    43884    44062    44105    43969 
   43756    43590    43491    43441    43464    43584    43816    44132 
   44408    44523    44462    44304    44147    43981    43757    43579 
   43560    43598    43559    43492    43484    43483    43463    43492 
   43564    43667    43902    44286    44707    45052    45183    44992 
   44536    43958    43382    42942    42747    42723    42736    42793 
   42930    43077    43222    43453    43776    44109    44433    44736 
   44891    44788    44527    44308    44188    44119    44115    44158 
   44120    43900    43544    43173    42851    42626    42623    42924 
   43379    43757    43984    44120    44215    44246    44224    44216 
   44216    44149    44032    43988    43987    43877    43664    43452 
   43289    43255    43452    43807    44099    44223    44246    44174 
   43960    43707    43569    43561    43676    43942    44243    44397 
   44378    44226    43947    43621    43402    43363    43438    43542 
   43683    43841    43935    43951    43899    43808    43784    43815 
   43765    43621    43480    43424    43517    43757    44041    44290 
   44485    44529    44350    44085    43934    43915    43922    43880 
   43753    43536    43305    43214    43322    43510    43684    43831 
   43822    43568    43286    43212    43332    43564    43895    44271 
   44568    44701    44656    44435    44100    43825    43700    43684 
   43738    43794    43777    43726    43642    43482    43333    43316 
   43363    43403    43513    43714    43879    43943    43972    43969 
   43918    43918    44041    44215    44347    44412    44424    44393 
   44288    44096    43857    43610    43407    43335    43449    43681 
   43869    43924    43865    43729    43625    43688    43850    43923 
   43887    43827    43735    43551    43330    43245    43363    43605 
   43920    44270    44493    44458    44254    44032    43839    43695 
   43640    43656    43675    43664    43623    43572    43568    43611 
   43627    43650    43771    43974    44208    44419    44501    44383 
   44138    43860    43563    43291    43171    43233    43384    43536 
   43648    43698    43698    43692    43752    43883    43988    44037 
   44111    44224    44297    44273    44153    43956    43702    43463 
   43330    43336    43457    43660    43884    44058    44154    44158 
   44064    43907    43775    43719    43760    43891    44046    44131 
   44085    43933    43767    43669    43659    43704    43740    43731 
   43725    43715    43700    43792    44000    44169    44223    44182 
   44061    43910    43785    43700    43648    43621    43618    43632 
   43619    43561    43495    43464    43528    43717    43985    44223 
   44288    44140    43893    43661    43544    43610    43787    43935 
   44010    44012    43918    43746    43583    43482    43459    43556 
   43760    43965    44119    44224    44235    44120    43927    43733 
   43609    43575    43611    43706    43808    43842    43821    43788 
   43715    43598    43509    43506    43596    43769    43980    44182 
   44347    44416    44347    44169    43945    43741    43625    43623 
   43700    43799    43853    43845    43822    43800    43765    43742 
   43753    43762    43748    43725    43702    43676    43675    43731 
   43852    43991    44091    44101    44007    43850    43708    43629 
   43640    43771    43968    44084    44050    43939    43822    43707 
   43615    43580    43571    43568    43607    43698    43792    43852 
   43849    43780    43704    43704    43799    43927    44001    43970 
   43857    43731    43660    43659    43717    43815    43935    44096 
   44296    44448    44459    44308    44058    43784    43532    43347 
   43289    43345    43443    43553    43684    43804    43880    43935 
   43973    43958    43899    43848    43829    43827    43827    43823 
   43808    43814    43864    43910    43915    43914    43899    43850 
   43834    43891    43961    43976    43903    43740    43553    43447 
   43472    43615    43822    44003    44095    44139    44170    44155 
   44086    44010    43929    43807    43661    43564    43524    43498 
   43498    43546    43607    43668    43764    43850    43853    43807 
   43791    43799    43803    43829    43895    43968    43996    43973 
   43915    43860    43869    43960    44050    44069    44016    43903 
   43737    43553    43393    43302    43312    43402    43537    43703 
   43881    44008    44038    44035    44068    44103    44109    44120 
   44124    44059    43961    43911    43907    43896    43888    43883 
   43856    43826    43803    43740    43637    43559    43530    43529 
   43573    43688    43849    43983    44042    44035    43981    43902 
   43823    43758    43694    43638    43638    43692    43757    43807 
   43831    43841    43854    43866    43868    43880    43873    43806 
   43710    43642    43630    43680    43769    43861    43922    43920 
   43869    43818    43784    43750    43738    43785    43889    44007 
   44078    44065    43992    43907    43802    43703    43668    43684 
   43704    43737    43781    43796    43779    43780    43819    43885 
   43958    44015    44057    44059    43974    43814    43665    43567 
   43511    43530    43649    43814    43957    44051    44097    44099 
