Origin Time       2025/03/30 10:46:00
Lat.              32.923
Long.             130.372
Depth. (km)       11
Mag.              3.4
Station Code      KMMH16
Station Lat.      32.7967
Station Long.     130.8199
Station Height(m) 55
Record Time       2025/03/30 10:46:34
Sampling Freq(Hz) 100Hz
Duration Time(s)  120
Dir.              6
Scale Factor      7845(gal)/8223790
Max. Acc. (gal)   1.515
Last Correction   2025/03/30 10:46:34
Memo.             
[...]
   -5459    -5502    -5427    -5279    -5190    -5221    -5316    -5393 
   -5413    -5387    -5367    -5381    -5404    -5391    -5344    -5310 
   -5319    -5348    -5366    -5351    -5333    -5339    -5344    -5344 
   -5347    -5356    -5377    -5389    -5374    -5346    -5339    -5354 
   -5360    -5348    -5344    -5354    -5350    -5336    -5340    -5363 
   -5381    -5377    -5360    -5350    -5340    -5333    -5333    -5343 
   -5358    -5377    -5382    -5368    -5356    -5348    -5341    -5347 
   -5355    -5347    -5344    -5346    -5341    -5351    -5362    -5354 
   -5346    -5354    -5359    -5358    -5359    -5363    -5370    -5379 
   -5377    -5352    -5329    -5329    -5348    -5360    -5356    -5346 
   -5337    -5337    -5344    -5358    -5367    -5356    -5352    -5366 
   -5367    -5354    -5347    -5348    -5354    -5362    -5366    -5360 
   -5354    -5347    -5346    -5347    -5340    -5344    -5356    -5363 
   -5374    -5373    -5352    -5329    -5327    -5347    -5367    -5367 
   -5354    -5352    -5362    -5364    -5359    -5348    -5340    -5340 
   -5355    -5367    -5364    -5356    -5350    -5347    -5352    -5351 
   -5359    -5370    -5356    -5341    -5344    -5350    -5352    -5356 
   -5355    -5350    -5347    -5350    -5354    -5358    -5368    -5379 
   -5375    -5352    -5335    -5335    -5340    -5348    -5359    -5364 
   -5360    -5355    -5348    -5346    -5351    -5359    -5355    -5350 
   -5354    -5360    -5364    -5367    -5364    -5362    -5356    -5352 
   -5351    -5344    -5335    -5329    -5336    -5354    -5367    -5368 
   -5368    -5367    -5355    -5343    -5343    -5348    -5352    -5356 
   -5362    -5366    -5366    -5366    -5370    -5367    -5354    -5337 
   -5328    -5331    -5340    -5355    -5368    -5368    -5358    -5354 
   -5354    -5346    -5340    -5348    -5363    -5373    -5375    -5366 
   -5350    -5339    -5343    -5352    -5359    -5359    -5355    -5346 
   -5335    -5327    -5331    -5350    -5370    -5381    -5381    -5368 
   -5352    -5339    -5341    -5360    -5366    -5360    -5363    -5360 
   -5351    -5346    -5340    -5339    -5344    -5340    -5337    -5356 
   -5370    -5362    -5360    -5367    -5367    -5367    -5362    -5347 
   -5339    -5346    -5351    -5352    -5351    -5346    -5350    -5356 
   -5351    -5344    -5348    -5352    -5358    -5368    -5373    -5364 
   -5358    -5352    -5347    -5346    -5343    -5344    -5352    -5362 
   -5367    -5360    -5350    -5351    -5352    -5347    -5351    -5356 
   -5352    -5351    -5354    -5358    -5360    -5360    -5354    -5340 
   -5339    -5351    -5360    -5366    -5368    -5367    -5362    -5356 
   -5352    -5347    -5341    -5341    -5347    -5354    -5359    -5360 
   -5360    -5356    -5343    -5337    -5348    -5360    -5370    -5378 
   -5370    -5352    -5341    -5337    -5339    -5346    -5354    -5356 
   -5358    -5362    -5364    -5360    -5355    -5354    -5359    -5364 
   -5358    -5341    -5336    -5344    -5352    -5358    -5360    -5358 
   -5354    -5354    -5352    -5346    -5343    -5344    -5346    -5354 
   -5375    -5393    -5386    -5358    -5337    -5337    -5341    -5340 
   -5339    -5344    -5358    -5373    -5370    -5355    -5350    -5348 
   -5344    -5354    -5367    -5363    -5351    -5356    -5363    -5354 
   -5343    -5341    -5347    -5352    -5347    -5341    -5354    -5364 
   -5366    -5366    -5364    -5360    -5362    -5362    -5355    -5348 
   -5347    -5346    -5341    -5340    -5344    -5350    -5356    -5359 
   -5352    -5346    -5348    -5358    -5364    -5367    -5373    -5371 
   -5362    -5354    -5354    -5358    -5359    -5358    -5354    -5343 
   -5327    -5324    -5339    -5358    -5370    -5374    -5370    -5363 
   -5368    -5366    -5351    -5343    -5343    -5346    -5352    -5356 
   -5351    -5343    -5346    -5350    -5350    -5350    -5356    -5366 
   -5375    -5375    -5366    -5359    -5355    -5347    -5344    -5344 
   -5343    -5343    -5347    -5354    -5355    -5346    -5340    -5347 
   -5355    -5359    -5364    -5373    -5374    -5359    -5344    -5341 
   -5348    -5363    -5377    -5371    -5356    -5346    -5340    -5336 
   -5336    -5343    -5344    -5340    -5348    -5366    -5378    -5377 
   -5368    -5359    -5351    -5343    -5336    -5340    -5354    -5362 
   -5370    -5370    -5352    -5340    -5344    -5355    -5366    -5364 
   -5351    -5339    -5340    -5348    -5355    -5359    -5366    -5370 
   -5360    -5344    -5343    -5348    -5347    -5346    -5350    -5352 
   -5355    -5360    -5366    -5375    -5373    -5360    -5354    -5346 
   -5339    -5346    -5355    -5355    -5350    -5340    -5335    -5336 
   -5351    -5367    -5378    -5381    -5366    -5343    -5337    -5348 
   -5356    -5358    -5355    -5352    -5355    -5360    -5359    -5356 
   -5351    -5340    -5335    -5341    -5351    -5356    -5359    -5366 
   -5368    -5359    -5347    -5340    -5341    -5347    -5352    -5356 
   -5363    -5371    -5371    -5358    -5350    -5351    -5354    -5355 
   -5354    -5346    -5340    -5339    -5343    -5352    -5360    -5366 
   -5358    -5350    -5348    -5346    -5352    -5367    -5370    -5358 
   -5351    -5356    -5363    -5364    -5358    -5348    -5346    -5347 
   -5346    -5344    -5355    -5363    -5350    -5331    -5339    -5360 
   -5368    -5368    -5364    -5358    -5358    -5363    -5367    -5363 
   -5347    -5335    -5340    -5348    -5348    -5347    -5350    -5350 
   -5350    -5355    -5358    -5358    -5366    -5377    -5373    -5360 
   -5356    -5359    -5347    -5329    -5340    -5358    -5352    -5348 
   -5356    -5358    -5358    -5358    -5351    -5355    -5360    -5350 
   -5347    -5356    -5356    -5352    -5352    -5360    -5360    -5341 
   -5339    -5362    -5377    -5381    -5374    -5355    -5340    -5332 
   -5333    -5348    -5356    -5354    -5356    -5360    -5352    -5347 
   -5348    -5350    -5350    -5354    -5366    -5370    -5362    -5358 
   -5363    -5368    -5370    -5355    -5329    -5319    -5336    -5366 
   -5381    -5374    -5356    -5343    -5336    -5340    -5351    -5359 
   -5356    -5355    -5355    -5360    -5364    -5359    -5346    -5343 
   -5356    -5367    -5362    -5351    -5346    -5339    -5337    -5341 
   -5348    -5356    -5366    -5370    -5368    -5362    -5356    -5356 
   -5354    -5350    -5346    -5339    -5335    -5340    -5350    -5364 
   -5374    -5367    -5360    -5356    -5344    -5337    -5350    -5367 
   -5374    -5381    -5410    -5466    -5521    -5571    -5594    -5517 
   -5292    -4966    -4675    -4564    -4723    -5127    -5625    -5996 
   -6060    -5819    -5468    -5198    -5101    -5181    -5346    -5499 
   -5621    -5682    -5566    -5259    -4973    -4927    -5100    -5352 
   -5559    -5575    -5405    -5221    -5119    -5119    -5263    -5499 
   -5655    -5644    -5551    -5490    -5471    -5420    -5297    -5166 
   -5123    -5185    -5283    -5321    -5289    -5270    -5308    -5398 
   -5464    -5379    -5217    -5208    -5364    -5486    -5493    -5452 
   -5414    -5421    -5499    -5599    -5599    -5406    -5096    -4850 
   -4862    -5127    -5343    -5374    -5366    -5404    -5494    -5659 
   -5796    -5711    -5417    -5140    -5022    -5092    -5294    -5448 
   -5505    -5586    -5620    -5409    -5046    -4803    -4811    -5088 
   -5494    -5741    -5709    -5517    -5356    -5351    -5506    -5697 
   -5651    -5327    -5051    -4981    -5051    -5208    -5310    -5319 
   -5362    -5516    -5691    -5683    -5416    -5093    -4946    -5085 
   -5425    -5659    -5611    -5437    -5316    -5252    -5244    -5370 
   -5491    -5397    -5232    -5202    -5224    -5194    -5216    -5424 
   -5594    -5456    -5350    -5570    -5744    -5557    -5270    -5167 
   -5179    -5236    -5386    -5451    -5305    -5216    -5282    -5243 
   -5151    -5271    -5424    -5336    -5188    -5205    -5269    -5271 
   -5381    -5652    -5825    -5749    -5590    -5435    -5208    -5026 
   -5115    -5374    -5552    -5572    -5440    -5233    -5144    -5224 
   -5287    -5201    -5097    -5146    -5239    -5246    -5359    -5683 
   -5907    -5865    -5768    -5691    -5421    -4943    -4630    -4727 
   -5096    -5501    -5690    -5517    -5152    -4965    -5159    -5521 
   -5684    -5599    -5464    -5404    -5402    -5435    -5486    -5422 
   -5242    -5201    -5320    -5386    -5373    -5319    -5263    -5267 
   -5277    -5270    -5274    -5232    -5208    -5362    -5644    -5769 
   -5549    -5254    -5175    -5167    -5163    -5283    -5400    -5366 
   -5331    -5435    -5530    -5456    -5316    -5310    -5503    -5721 
   -5728    -5427    -4965    -4764    -5012    -5340    -5428    -5412 
   -5429    -5405    -5398    -5482    -5475    -5282    -5138    -5286 
   -5549    -5547    -5267    -5042    -5107    -5367    -5599    -5722 
   -5668    -5451    -5259    -5167    -5178    -5246    -5201    -5047 
   -5062    -5398    -5713    -5595    -5238    -5094    -5238    -5475 
   -5674    -5734    -5632    -5497    -5417    -5328    -5221    -5159 
   -5144    -5177    -5212    -5198    -5184    -5185    -5189    -5279 
   -5479    -5618    -5575    -5485    -5512    -5603    -5616    -5501 
   -5351    -5232    -5154    -5185    -5248    -5127    -4943    -5042 
   -5362    -5566    -5545    -5421    -5366    -5501    -5730    -5810 
   -5620    -5287    -5051    -5035    -5217    -5443    -5518    -5401 
   -5236    -5154    -5147    -5166    -5169    -5169    -5219    -5343 
   -5514    -5607    -5576    -5545    -5552    -5518    -5436    -5397 
   -5436    -5412    -5244    -5031    -4881    -4927    -5227    -5607 
   -5826    -5745    -5490    -5350    -5346    -5309    -5221    -5109 
   -5042    -5166    -5463    -5710    -5715    -5471    -5186    -5104 
   -5228    -5389    -5463    -5416    -5247    -5098    -5107    -5186 
   -5260    -5412    -5653    -5856    -5915    -5768    -5431    -5127 
   -5015    -5001    -5061    -5215    -5329    -5351    -5356    -5364 
   -5312    -5171    -5104    -5254    -5486    -5613    -5617    -5545 
   -5498    -5564    -5644    -5553    -5325    -5182    -5184    -5169 
   -5069    -4999    -5026    -5135    -5344    -5574    -5591    -5417 
   -5339    -5421    -5520    -5543    -5454    -5335    -5354    -5541 
   -5687    -5552    -5212    -4978    -4957    -5046    -5228    -5441 
   -5521    -5441    -5374    -5437    -5475    -5317    -5116    -5101 
   -5316    -5602    -5713    -5549    -5300    -5266    -5439    -5495 
   -5358    -5192    -5076    -5051    -5167    -5312    -5306    -5208 
   -5247    -5476    -5707    -5717    -5543    -5447    -5536    -5656 
   -5640    -5418    -5076    -4858    -4912    -5108    -5304    -5460 
   -5479    -5305    -5138    -5179    -5319    -5385    -5389    -5413 
   -5529    -5671    -5648    -5441    -5308    -5437    -5655    -5603 
   -5258    -4954    -4855    -4897    -5074    -5373    -5633    -5684 
   -5533    -5297    -5142    -5304    -5633    -5725    -5603    -5463 
   -5267    -4986    -4833    -5042    -5414    -5556    -5471    -5373 
   -5354    -5431    -5479    -5377    -5250    -5217    -5204    -5166 
   -5158    -5277    -5533    -5803    -5946    -5890    -5576    -5044 
   -4612    -4607    -4936    -5304    -5532    -5603    -5626    -5661 
   -5665    -5595    -5510    -5545    -5589    -5370    -4955    -4599 
   -4514    -4862    -5505    -5996    -6016    -5660    -5314    -5263 
   -5478    -5679    -5545    -5067    -4664    -4703    -5084    -5508 
   -5764    -5776    -5657    -5505    -5343    -5260    -5213    -5163 
   -5275    -5489    -5530    -5292    -4878    -4679    -5032    -5645 
   -5891    -5718    -5567    -5593    -5656    -5714    -5776    -5748 
   -5529    -5221    -5003    -4792    -4521    -4392    -4491    -4716 
   -5024    -5305    -5486    -5667    -5898    -6123    -6189    -6022 
   -5899    -5954    -5891    -5587    -5236    -4889    -4500    -4313 
   -4603    -5175    -5591    -5711    -5589    -5263    -4939    -4941 
   -5289    -5664    -5806    -5694    -5471    -5354    -5389    -5431 
   -5418    -5339    -5188    -5062    -5017    -5040    -5213    -5620 
   -6062    -6193    -5934    -5431    -4885    -4587    -4707    -5074 
   -5398    -5586    -5661    -5594    -5374    -5031    -4731    -4746 
   -5171    -5865    -6417    -6385    -5751    -4865    -4198    -4106 
   -4554    -5239    -5872    -6270    -6396    -6277    -5931    -5498 
   -5240    -5127    -4907    -4658    -4602    -4712    -4861    -5007 
   -5287    -5749    -6085    -6106    -5981    -5888    -5796    -5551 
   -5169    -4938    -4962    -5005    -4985    -5022    -5090    -5084 
   -5042    -5148    -5499    -5881    -6019    -5875    -5549    -5217 
   -5034    -5035    -5185    -5424    -5667    -5683    -5310    -4866 
   -4726    -4789    -4896    -5170    -5670    -6122    -6293    -6238 
   -6026    -5710    -5339    -4926    -4583    -4426    -4515    -4918 
   -5448    -5663    -5491    -5320    -5413    -5771    -6239    -6411 
   -5984    -5138    -4348    -4018    -4207    -4683    -5216    -5715 
   -6151    -6411    -6331    -5933    -5400    -5013    -5032    -5317 
   -5464    -5317    -5031    -4854    -4889    -5035    -5208    -5301 
   -5227    -5146    -5189    -5287    -5412    -5568    -5769    -5992 
   -6157    -6259    -6250    -6008    -5605    -5219    -4907    -4634 
   -4360    -4050    -3766    -3777    -4301    -5182    -6022    -6539 
   -6710    -6574    -6195    -5852    -5748    -5714    -5548    -5279 
   -5024    -4816    -4612    -4506    -4664    -5003    -5374    -5772 
   -6081    -6108    -5903    -5672    -5478    -5292    -5158    -5066 
   -4986    -5059    -5297    -5416    -5271    -5044    -4945    -5047 
   -5274    -5400    -5274    -5096    -5088    -5220    -5498    -5913 
   -6234    -6280    -6014    -5506    -4936    -4465    -4253    -4499 
   -5185    -5985    -6524    -6619    -6265    -5598    -4893    -4449 
   -4371    -4519    -4757    -5043    -5346    -5684    -6015    -6150 
   -6031    -5815    -5589    -5256    -4788    -4433    -4459    -4807 
   -5250    -5652    -5880    -5790    -5489    -5306    -5397    -5667 
   -5922    -5950    -5672    -5244    -4914    -4823    -4953    -5193 
   -5422    -5557    -5517    -5275    -5007    -4932    -5039    -5159 
   -5212    -5289    -5470    -5640    -5742    -5884    -5988    -5782 
   -5252    -4757    -4567    -4654    -4905    -5204    -5425    -5567 
   -5718    -5914    -6049    -5977    -5767    -5589    -5417    -5217 
   -5043    -4891    -4737    -4665    -4853    -5285    -5644    -5709 
   -5567    -5443    -5400    -5367    -5390    -5472    -5493    -5429 
   -5340    -5223    -5047    -4884    -4907    -5202    -5579    -5753 
   -5726    -5668    -5630    -5633    -5678    -5665    -5495    -5252 
   -5076    -4930    -4789    -4733    -4803    -5031    -5358    -5598 
   -5622    -5474    -5321    -5352    -5601    -5848    -5894    -5768 
   -5566    -5398    -5300    -5157    -4943    -4781    -4792    -5011 
   -5350    -5672    -5822    -5746    -5634    -5621    -5617    -5499 
   -5247    -5000    -4932    -5035    -5167    -5219    -5146    -4993 
   -4905    -5036    -5360    -5701    -5863    -5756    -5548    -5472 
   -5548    -5679    -5782    -5799    -5711    -5552    -5391    -5229 
   -5038    -4834    -4706    -4741    -4900    -5030    -5028    -4974 
   -5066    -5358    -5676    -5895    -6007    -5995    -5853    -5606 
   -5377    -5316    -5373    -5458    -5518    -5439    -5224    -5049 
   -5023    -5097    -5148    -5166    -5233    -5366    -5505    -5597 
   -5570    -5400    -5216    -5178    -5266    -5371    -5439    -5441 
   -5367    -5266    -5224    -5244    -5252    -5267    -5364    -5476 
   -5445    -5302    -5256    -5347    -5412    -5359    -5262    -5229 
   -5281    -5381    -5506    -5602    -5579    -5455    -5373    -5379 
   -5366    -5292    -5258    -5333    -5447    -5514    -5530    -5466 
   -5332    -5273    -5314    -5304    -5235    -5232    -5290    -5298 
   -5236    -5204    -5219    -5200    -5198    -5317    -5458    -5456 
   -5333    -5260    -5339    -5522    -5703    -5786    -5726    -5571 
   -5414    -5279    -5158    -5089    -5104    -5193    -5273    -5254 
   -5171    -5138    -5213    -5375    -5536    -5613    -5599    -5525 
   -5386    -5213    -5128    -5190    -5310    -5421    -5514    -5543 
   -5472    -5373    -5327    -5347    -5395    -5363    -5221    -5171 
   -5301    -5454    -5526    -5509    -5405    -5277    -5202    -5173 
   -5142    -5109    -5124    -5232    -5422    -5560    -5508    -5327 
   -5232    -5340    -5532    -5645    -5648    -5583    -5486    -5418 
   -5428    -5452    -5394    -5273    -5193    -5213    -5270    -5248 
   -5147    -5081    -5136    -5273    -5370    -5374    -5354    -5355 
   -5378    -5464    -5618    -5692    -5548    -5293    -5143    -5140 
   -5193    -5236    -5293    -5391    -5526    -5651    -5702    -5647 
   -5486    -5292    -5184    -5165    -5161    -5175    -5223    -5251 
   -5250    -5287    -5395    -5471    -5458    -5427    -5394    -5316 
   -5233    -5238    -5341    -5459    -5510    -5482    -5408    -5298 
   -5140    -5007    -5011    -5148    -5324    -5489    -5624    -5699 
   -5703    -5630    -5472    -5324    -5287    -5305    -5279    -5235 
   -5231    -5255    -5283    -5347    -5448    -5506    -5475    -5421 
   -5371    -5260    -5109    -5016    -5034    -5150    -5354    -5579 
   -5687    -5622    -5464    -5332    -5265    -5260    -5323    -5402 
   -5427    -5409    -5421    -5491    -5532    -5449    -5323    -5263 
   -5247    -5229    -5201    -5165    -5139    -5144    -5186    -5258 
   -5347    -5447    -5543    -5638    -5744    -5802    -5715    -5501 
   -5300    -5205    -5171    -5158    -5174    -5208    -5224    -5201 
   -5178    -5216    -5269    -5290    -5347    -5449    -5503    -5482 
   -5421    -5339    -5290    -5332    -5437    -5508    -5491    -5437 
   -5381    -5316    -5286    -5293    -5286    -5289    -5337    -5393 
   -5404    -5385    -5385    -5416    -5444    -5447    -5422    -5335 
   -5204    -5171    -5273    -5352    -5340    -5327    -5358    -5390 
   -5404    -5416    -5386    -5274    -5178    -5200    -5313    -5418 
   -5422    -5331    -5274    -5339    -5449    -5521    -5541    -5526 
   -5506    -5495    -5447    -5344    -5229    -5109    -5011    -5039 
   -5221    -5416    -5508    -5571    -5652    -5640    -5494    -5317 
   -5181    -5115    -5132    -5223    -5352    -5432    -5401    -5328 
   -5297    -5333    -5394    -5382    -5296    -5254    -5305    -5395 
   -5456    -5472    -5467    -5452    -5424    -5387    -5374    -5373 
   -5339    -5269    -5200    -5170    -5188    -5240    -5317    -5402 
   -5482    -5524    -5512    -5471    -5468    -5512    -5514    -5431 
   -5309    -5196    -5120    -5108    -5167    -5248    -5279    -5267 
   -5292    -5352    -5391    -5401    -5397    -5381    -5378    -5405 
   -5472    -5578    -5640    -5576    -5451    -5371    -5339    -5275 
   -5178    -5128    -5142    -5162    -5186    -5254    -5336    -5401 
   -5449    -5475    -5494    -5518    -5502    -5382    -5220    -5184 
