Origin Time       2025/03/30 10:46:00
Lat.              32.923
Long.             130.372
Depth. (km)       11
Mag.              3.4
Station Code      KMMH14
Station Lat.      32.6345
Station Long.     130.7521
Station Height(m) 70
Record Time       2025/03/30 10:46:35
Sampling Freq(Hz) 100Hz
Duration Time(s)  120
Dir.              6
Scale Factor      7845(gal)/8223790
Max. Acc. (gal)   0.812
Last Correction   2025/03/30 10:46:36
Memo.             
[...]
    3312     3311     3310     3311     3316     3310     3303     3307 
    3308     3304     3308     3310     3304     3306     3308     3307 
    3308     3310     3307     3306     3308     3303     3298     3307 
    3318     3314     3310     3321     3321     3303     3298     3306 
    3308     3308     3310     3310     3307     3303     3299     3303 
    3311     3314     3312     3306     3302     3304     3310     3310 
    3311     3312     3311     3307     3304     3304     3303     3302 
    3303     3306     3315     3322     3315     3310     3312     3315 
    3307     3300     3302     3307     3310     3308     3303     3300 
    3306     3316     3322     3319     3311     3306     3310     3312 
    3308     3306     3306     3302     3298     3303     3312     3316 
    3316     3314     3307     3306     3310     3306     3299     3304 
    3307     3303     3304     3312     3316     3316     3316     3315 
    3307     3306     3308     3310     3308     3308     3307     3303 
    3300     3303     3307     3314     3315     3308     3306     3308 
    3310     3315     3319     3315     3310     3311     3312     3310 
    3304     3302     3303     3304     3306     3308     3310     3307 
    3307     3311     3312     3310     3306     3303     3306     3310 
    3314     3308     3302     3307     3310     3303     3299     3303 
    3312     3319     3318     3315     3310     3304     3302     3303 
    3306     3306     3303     3307     3314     3310     3307     3312 
    3311     3303     3303     3308     3316     3322     3319     3307 
    3291     3288     3299     3314     3323     3319     3308     3303 
    3304     3308     3310     3310     3307     3307     3307     3308 
    3308     3304     3308     3318     3319     3311     3300     3296 
    3298     3303     3316     3322     3314     3308     3311     3311 
    3308     3304     3302     3298     3299     3302     3306     3314 
    3323     3325     3321     3314     3303     3298     3300     3307 
    3307     3304     3303     3300     3304     3316     3323     3319 
    3316     3308     3300     3300     3304     3306     3312     3315 
    3307     3302     3303     3307     3314     3318     3314     3310 
    3306     3302     3302     3307     3314     3314     3310     3304 
    3303     3306     3306     3307     3314     3316     3314     3312 
    3310     3303     3302     3306     3307     3304     3303     3308 
    3318     3318     3315     3316     3314     3307     3302     3303 
    3306     3306     3310     3314     3310     3302     3304     3310 
    3311     3316     3318     3310     3302     3303     3308     3311 
    3312     3314     3311     3307     3304     3306     3311     3314 
    3311     3307     3302     3302     3307     3316     3326     3325 
    3312     3298     3296     3304     3306     3303     3311     3315 
    3307     3300     3304     3311     3315     3321     3321     3314 
    3310     3302     3294     3296     3306     3315     3321     3318 
    3308     3304     3304     3307     3311     3312     3310     3307 
    3306     3308     3312     3316     3316     3311     3302     3296 
    3296     3302     3315     3323     3318     3308     3306     3306 
    3308     3311     3312     3312     3311     3308     3304     3302 
    3306     3315     3316     3310     3308     3310     3307     3311 
    3316     3314     3306     3299     3300     3308     3315     3316 
    3316     3310     3302     3303     3307     3306     3306     3310 
    3310     3304     3304     3312     3319     3314     3303     3298 
    3303     3308     3311     3318     3322     3314     3304     3302 
    3304     3304     3304     3311     3318     3315     3310     3306 
    3314     3316     3303     3298     3303     3306     3304     3308 
    3311     3310     3311     3318     3319     3310     3306     3308 
    3310     3311     3308     3304     3306     3306     3306     3308 
    3310     3308     3312     3315     3314     3308     3308     3311 
    3310     3307     3307     3304     3302     3304     3312     3316 
    3311     3304     3307     3311     3315     3315     3311     3307 
    3303     3299     3302     3307     3310     3312     3314     3310 
    3304     3303     3308     3319     3321     3316     3310     3302 
    3295     3294     3302     3310     3311     3314     3316     3311 
    3308     3308     3314     3318     3312     3303     3298     3296 
    3302     3312     3321     3321     3311     3304     3302     3300 
    3303     3310     3318     3316     3310     3307     3307     3308 
    3310     3315     3315     3304     3298     3300     3304     3310 
    3316     3315     3308     3308     3306     3302     3304     3311 
    3316     3318     3312     3306     3300     3302     3310     3314 
    3308     3307     3311     3308     3304     3308     3312     3312 
    3310     3307     3306     3307     3308     3307     3310     3308 
    3303     3304     3310     3314     3314     3312     3311     3310 
    3304     3303     3307     3306     3304     3314     3316     3307 
    3306     3311     3314     3314     3311     3306     3303     3306 
    3308     3311     3314     3315     3310     3306     3304     3306 
    3307     3311     3316     3316     3310     3304     3302     3298 
    3303     3315     3319     3315     3312     3308     3307     3310 
    3312     3315     3311     3303     3300     3302     3308     3319 
    3326     3318     3306     3299     3300     3308     3315     3314 
    3307     3307     3307     3303     3308     3315     3311     3307 
    3311     3311     3306     3304     3307     3310     3312     3310 
    3303     3298     3302     3312     3319     3319     3314     3307 
    3300     3299     3303     3306     3311     3316     3316     3315 
    3318     3316     3314     3315     3318     3316     3310     3306 
    3312     3315     3308     3304     3303     3304     3312     3314 
    3291     3258     3230     3200     3183     3204     3267     3349 
    3434     3489     3491     3450     3388     3318     3265     3261 
    3284     3289     3264     3234     3219     3225     3262     3330 
    3396     3426     3399     3329     3252     3204     3202     3225 
    3256     3292     3304     3291     3307     3372     3445     3512 
    3547     3497     3370     3233     3130     3109     3157     3188 
    3176     3171     3198     3276     3416     3573     3662     3620 
    3433     3227     3126     3095     3105     3179     3241     3245 
    3260     3303     3350     3407     3414     3356     3358     3434 
    3461     3439     3422     3323     3145     3051     3048     3076 
    3195     3357     3427     3450     3466     3429     3395     3389 
    3333     3279     3254     3156     3078     3168     3323     3450 
    3522     3465     3330     3218     3127     3136     3291     3447 
    3524     3507     3356     3222     3240     3280     3288     3268 
    3159     3113     3240     3334     3404     3554     3573     3430 
    3261     3060     3011     3181     3264     3291     3415     3429 
    3341     3322     3316     3391     3528     3460     3249     3144 
    3121     3211     3451     3577     3426     3165     2976     2978 
    3191     3406     3411     3321     3322     3385     3445     3547 
    3680     3653     3348     2956     2751     2808     3036     3325 
    3593     3716     3603     3389     3256     3210     3203     3223 
    3289     3415     3516     3480     3341     3222     3123     3041 
    3075     3218     3357     3400     3302     3215     3315     3487 
    3584     3549     3350     3167     3119     3103     3144     3258 
    3319     3365     3430     3434     3450     3481     3387     3264 
    3213     3129     3121     3287     3362     3271     3225     3249 
    3357     3543     3576     3465     3402     3271     3076     3065 
    3218     3365     3392     3252     3145     3194     3267     3380 
    3481     3388     3260     3276     3331     3402     3478     3451 
    3368     3256     3086     3056     3213     3322     3345     3362 
    3333     3300     3356     3491     3639     3639     3380     3019 
    2808     2822     2976     3186     3424     3582     3574     3500 
    3420     3327     3272     3225     3168     3244     3373     3368 
    3345     3396     3412     3422     3446     3392     3267     3103 
    3025     3204     3489     3600     3491     3262     3068     2980 
    2956     3092     3431     3628     3485     3302     3279     3327 
    3406     3460     3406     3294     3153     3001     3040     3307 
    3505     3565     3627     3599     3411     3234     3175     3154 
    3102     3036     3009     3053     3192     3352     3470     3615 
    3728     3622     3353     3173     3161     3229     3284     3277 
    3257     3269     3235     3176     3237     3410     3508     3499 
    3518     3528     3399     3237     3175     3141     3086     2995 
    2872     2913     3206     3489     3593     3603     3531     3369 
    3280     3373     3553     3692     3688     3454     3109     2914 
    2920     3021     3190     3303     3238     3130     3087     3137 
    3404     3797     4005     3900     3520     3028     2797     2968 
    3208     3280     3245     3160     3094     3134     3300     3585 
    3781     3649     3366     3176     3099     3192     3377     3445 
    3414     3326     3148     3015     3042     3167     3354     3489 
    3454     3402     3454     3495     3489     3457     3349     3226 
    3144     3033     2983     3090     3223     3319     3404     3380 
    3245     3144     3144     3303     3613     3828     3786     3566 
    3280     3090     3107     3171     3176     3198     3168     3071 
    3132     3387     3608     3681     3584     3345     3118     2971 
    2897     3001     3244     3419     3481     3520     3564     3562 
    3492     3433     3429     3365     3217     3123     3083     3029 
    3034     3126     3218     3272     3292     3321     3388     3431 
    3456     3568     3696     3654     3491     3384     3341     3261 
    3121     2979     2911     2913     2970     3160     3414     3514 
    3454     3400     3420     3496     3542     3496     3381     3214 
    3041     3006     3133     3254     3289     3330     3403     3445 
    3488     3557     3532     3392     3240     3118     3072     3180 
    3337     3376     3311     3168     3003     3044     3298     3531 
    3666     3650     3454     3275     3188     3117     3144     3262 
    3306     3311     3389     3485     3564     3605     3497     3235 
    2960     2806     2852     3060     3269     3377     3403     3376 
    3337     3381     3531     3642     3616     3495     3335     3188 
    3152     3258     3389     3369     3208     3079     3032     3060 
    3219     3419     3501     3488     3404     3267     3240     3356 
    3430     3380     3218     3013     3003     3273     3578     3730 
    3680     3406     3048     2859     2957     3238     3454     3499 
    3477     3418     3358     3403     3447     3404     3349     3223 
    3006     2884     2917     3063     3304     3480     3538     3611 
    3611     3492     3429     3365     3250     3227     3213     3149 
    3233     3415     3497     3511     3422     3165     2934     2844 
    2859     3082     3488     3794     3881     3835     3680     3420 
    3138     2918     2853     2984     3171     3252     3238     3261 
    3348     3379     3368     3420     3388     3175     3053     3191 
    3456     3666     3665     3424     3109     2853     2801     3049 
    3443     3711     3742     3635     3576     3586     3542     3441 
    3302     3068     2845     2841     3038     3264     3406     3426 
    3389     3384     3346     3233     3199     3283     3268     3105 
    3036     3173     3410     3618     3608     3322     3040     2963 
    3010     3161     3406     3597     3666     3616     3508     3504 
    3586     3551     3435     3385     3372     3348     3295     3181 
    3048     2951     2926     3022     3142     3144     3088     3082 
    3177     3393     3643     3812     3821     3582     3210     3044 
    3222     3577     3863     3809     3375     2867     2559     2559 
    2878     3276     3434     3292     3041     2970     3252     3676 
    3939     4033     3960     3609     3196     3046     3075     3125 
    3181     3152     3051     3003     2984     3082     3434     3742 
    3705     3510     3315     3096     3021     3200     3487     3708 
    3700     3445     3223     3156     3102     3150     3373     3480 
    3287     2959     2747     2847     3213     3561     3694     3630 
    3520     3510     3572     3694     3897     3920     3557     3030 
    2621     2459     2578     2814     3001     3094     3032     2975 
    3156     3438     3711     3996     4033     3754     3470     3307 
    3264     3314     3210     2956     2882     3017     3218     3507 
    3798     3831     3553     3175     2899     2793     2849     3041 
    3303     3588     3858     3985     3917     3730     3461     3171 
    2987     2964     3040     3115     3117     3042     2974     3009 
    3129     3235     3306     3388     3518     3711     3897     3855 
    3526     3176     2964     2837     2893     3177     3442     3566 
    3657     3681     3596     3426     3091     2674     2457     2516 
    2778     3198     3632     3933     4106     4152     4047     3890 
    3697     3337     2914     2663     2574     2604     2810     3065 
    3176     3184     3186     3213     3331     3522     3663     3740 
    3781     3730     3558     3388     3342     3360     3269     3032 
    2809     2781     2938     3169     3451     3762     3900     3723 
    3385     3107     2936     2856     2901     3057     3244     3449 
    3663     3735     3562     3269     3095     3203     3472     3620 
    3597     3464     3187     2932     2987     3315     3634     3717 
    3470     3079     2883     2970     3230     3568     3778     3732 
    3526     3211     2891     2845     3055     3191     3180     3088 
    2944     2943     3249     3699     4010     4014     3744     3407 
    3180     3132     3190     3203     3126     3049     3017     3042 
    3156     3283     3368     3423     3406     3402     3550     3701 
    3701     3686     3657     3454     3163     2945     2805     2787 
    2905     3028     3115     3223     3331     3429     3522     3532 
    3447     3379     3364     3397     3524     3635     3566     3402 
    3306     3256     3141     2965     2816     2791     2949     3253 
    3592     3823     3854     3713     3549     3458     3412     3372 
    3258     3003     2735     2635     2722     2990     3391     3766 
    3960     3908     3661     3407     3279     3234     3206     3175 
    3100     2978     2898     2926     3060     3294     3553     3693 
    3661     3507     3384     3439     3584     3612     3488     3250 
    2957     2775     2816     2992     3154     3221     3250     3361 
    3528     3654     3734     3742     3572     3257     3003     2937 
    2999     3103     3215     3285     3304     3319     3334     3348 
    3427     3549     3572     3468     3322     3190     3140     3222 
    3350     3407     3385     3306     3234     3306     3480     3566 
    3522     3411     3295     3226     3214     3268     3377     3416 
    3306     3150     3056     3018     3013     3052     3125     3181 
    3206     3268     3397     3541     3666     3732     3694     3574 
    3447     3352     3268     3164     3068     2990     2899     2864 
    2951     3088     3253     3460     3589     3582     3551     3530 
    3501     3512     3488     3346     3240     3240     3233     3252 
    3339     3377     3342     3261     3140     3113     3227     3338 
    3388     3376     3258     3129     3110     3217     3424     3616 
    3638     3503     3321     3187     3175     3246     3334     3424 
    3445     3343     3208     3107     3034     3013     3051     3125 
    3249     3411     3508     3524     3539     3568     3562     3505 
    3415     3341     3314     3275     3159     3014     2924     2940 
    3073     3265     3406     3451     3465     3472     3446     3396 
    3368     3410     3507     3561     3519     3408     3242     3063 
    2955     2956     3057     3200     3298     3341     3381     3434 
    3477     3466     3389     3316     3287     3257     3242     3264 
    3253     3219     3280     3408     3468     3431     3353     3292 
    3276     3258     3211     3141     3055     3011     3087     3265 
    3434     3543     3616     3618     3512     3402     3385     3406 
    3393     3356     3264     3092     2914     2828     2871     3024 
    3221     3375     3468     3568     3678     3740     3751     3697 
    3555     3412     3358     3331     3237     3072     2913     2830 
    2830     2918     3118     3346     3504     3588     3611     3584 
    3537     3488     3435     3345     3222     3140     3118     3134 
    3223     3342     3353     3283     3244     3227     3226     3256 
    3283     3331     3424     3501     3522     3489     3377     3235 
    3181     3213     3241     3244     3210     3148     3129     3213 
    3346     3423     3410     3358     3306     3256     3225     3231 
    3275     3329     3350     3330     3300     3287     3289     3292 
    3287     3294     3337     3423     3515     3557     3573     3577 
    3515     3373     3192     3006     2905     2949     3061     3171 
    3299     3424     3492     3505     3491     3450     3411     3375 
    3339     3318     3283     3226     3196     3217     3262     3275 
    3242     3249     3306     3339     3354     3387     3414     3441 
    3447     3381     3272     3165     3069     3028     3098     3250 
    3383     3415     3338     3221     3156     3195     3318     3456 
    3538     3539     3468     3350     3261     3252     3289     3330 
    3325     3257     3213     3241     3287     3326     3368     3353 
    3280     3237     3229     3242     3306     3361     3349     3330 
    3304     3235     3219     3315     3437     3516     3520     3435 
    3338     3296     3261     3234     3249     3227     3136     3102 
    3179     3299     3427     3534     3551     3485     3403     3346 
    3306     3250     3172     3110     3091     3091     3111     3173 
    3264     3352     3407     3424     3451     3491     3485     3433 
    3364     3294     3281     3330     3335     3281     3242     3199 
    3148     3150     3173     3181     3234     3325     3420     3543 
    3611     3559     3484     3411     3296     3199     3140     3095 
    3121     3207     3258     3285     3335     3375     3395     3400 
    3380     3353     3330     3294     3245     3231     3279     3335 
    3341     3308     3292     3312     3338     3335     3333     3372 
    3410     3397     3360     3325     3273     3203     3122     3061 
    3091     3210     3330     3416     3477     3495     3464     3412 
    3353     3288     3225     3188     3195     3223     3283     3381 
