Origin Time       2025/03/30 10:46:00
Lat.              32.923
Long.             130.372
Depth. (km)       11
Mag.              3.4
Station Code      KMMH07
Station Lat.      32.6234
Station Long.     130.5584
Station Height(m) 22
Record Time       2025/03/30 10:46:32
Sampling Freq(Hz) 100Hz
Duration Time(s)  120
Dir.              5
Scale Factor      7845(gal)/8223790
Max. Acc. (gal)   2.121
Last Correction   2025/03/30 10:46:32
Memo.             
[...]
    8351     8359     8363     8365     8365     8356     8353     8360 
    8364     8360     8359     8361     8361     8361     8363     8357 
    8359     8365     8363     8355     8353     8355     8357     8365 
    8370     8364     8355     8352     8355     8359     8367     8368 
    8360     8356     8353     8353     8363     8365     8360     8359 
    8360     8357     8357     8359     8360     8365     8368     8357 
    8349     8360     8364     8359     8359     8364     8360     8359 
    8361     8359     8356     8359     8357     8361     8363     8361 
    8367     8364     8353     8353     8360     8361     8361     8361 
    8363     8365     8360     8351     8356     8365     8356     8351 
    8360     8359     8357     8370     8367     8351     8356     8363 
    8356     8357     8364     8360     8357     8360     8363     8363 
    8359     8353     8353     8356     8363     8364     8361     8363 
    8359     8351     8352     8359     8364     8367     8363     8351 
    8347     8364     8375     8365     8355     8356     8357     8359 
    8365     8357     8345     8356     8370     8360     8352     8359 
    8363     8359     8361     8363     8356     8355     8365     8364 
    8353     8357     8365     8359     8359     8359     8353     8356 
    8363     8360     8352     8355     8365     8363     8355     8357 
    8363     8365     8360     8353     8360     8363     8356     8359 
    8359     8356     8363     8365     8360     8360     8361     8359 
    8359     8361     8359     8359     8361     8357     8360     8367 
    8360     8351     8356     8371     8365     8353     8365     8370 
    8356     8356     8363     8359     8357     8360     8357     8360 
    8361     8359     8363     8363     8357     8357     8355     8353 
    8368     8374     8363     8351     8348     8357     8368     8364 
    8355     8359     8368     8365     8356     8351     8355     8365 
    8370     8361     8361     8364     8353     8351     8357     8360 
    8367     8367     8360     8357     8353     8361     8368     8351 
    8348     8372     8370     8356     8359     8355     8352     8359 
    8360     8360     8364     8364     8360     8352     8353     8360 
    8356     8357     8365     8361     8361     8361     8357     8360 
    8361     8356     8353     8364     8368     8356     8356     8370 
    8360     8343     8345     8360     8374     8375     8360     8353 
    8359     8359     8361     8360     8355     8361     8363     8356 
    8371     8375     8347     8340     8360     8364     8363     8371 
    8361     8347     8359     8375     8357     8348     8365     8363 
    8351     8359     8363     8361     8363     8365     8367     8355 
    8351     8360     8361     8370     8370     8351     8349     8357 
    8360     8370     8368     8348     8352     8378     8375     8347 
    8343     8368     8374     8355     8356     8368     8360     8351 
    8352     8359     8365     8371     8371     8353     8343     8363 
    8368     8356     8364     8367     8352     8348     8359     8367 
    8363     8361     8360     8351     8356     8370     8363     8356 
    8367     8368     8356     8359     8363     8355     8351     8360 
    8374     8370     8353     8353     8367     8360     8344     8361 
    8380     8353     8340     8375     8379     8345     8348     8360 
    8356     8368     8370     8349     8357     8372     8361     8356 
    8356     8349     8361     8379     8360     8347     8376     8376 
    8333     8340     8380     8376     8355     8357     8356     8351 
    8368     8374     8349     8345     8365     8371     8365     8357 
    8347     8349     8371     8376     8345     8343     8376     8375 
    8344     8343     8371     8378     8353     8347     8359     8363 
    8367     8370     8360     8360     8360     8349     8352     8367 
    8364     8363     8359     8340     8351     8379     8370     8349 
    8355     8356     8355     8372     8372     8345     8345     8365 
    8371     8365     8363     8360     8349     8349     8367     8370 
    8360     8356     8356     8367     8370     8355     8347     8352 
    8365     8382     8372     8352     8347     8343     8357     8387 
    8382     8348     8336     8351     8363     8375     8379     8360 
    8345     8349     8360     8365     8356     8351     8367     8372 
    8367     8360     8348     8347     8361     8368     8365     8364 
    8357     8352     8353     8364     8372     8356     8341     8353 
    8370     8364     8355     8364     8368     8356     8353     8353 
    8355     8371     8374     8357     8348     8348     8357     8363 
    8365     8371     8361     8353     8367     8370     8349     8349 
    8365     8374     8370     8355     8349     8361     8363     8359 
    8364     8356     8352     8368     8365     8353     8360     8349 
    8340     8371     8390     8364     8344     8347     8356     8365 
    8368     8363     8361     8355     8352     8375     8375     8341 
    8341     8363     8363     8361     8365     8360     8351     8352 
    8368     8376     8353     8330     8351     8383     8376     8357 
    8353     8349     8351     8364     8374     8364     8347     8356 
    8372     8360     8357     8367     8349     8353     8380     8365 
    8340     8347     8364     8378     8370     8344     8343     8355 
    8367     8382     8376     8353     8348     8357     8367     8375 
    8360     8336     8345     8382     8398     8367     8332     8343 
    8368     8370     8367     8360     8343     8343     8367     8386 
    8372     8343     8345     8368     8372     8365     8355     8344 
    8360     8380     8375     8361     8349     8347     8360     8370 
    8371     8359     8344     8352     8372     8378     8357     8340 
    8349     8357     8361     8376     8371     8352     8357     8365 
    8360     8359     8357     8351     8356     8371     8370     8359 
    8356     8355     8359     8374     8367     8345     8349     8360 
    8361     8372     8372     8348     8347     8361     8365     8364 
    8355     8348     8361     8364     8351     8349     8360     8368 
    8370     8364     8359     8353     8352     8367     8376     8360 
    8343     8352     8363     8363     8363     8363     8356     8351 
    8356     8359     8360     8359     8349     8356     8371     8363 
    8356     8359     8349     8357     8375     8364     8353     8356 
    8363     8374     8368     8349     8347     8357     8372     8375 
    8355     8348     8364     8363     8349     8357     8374     8368 
    8363     8364     8351     8347     8367     8372     8364     8361 
    8359     8357     8349     8351     8372     8375     8356     8352 
    8363     8364     8360     8355     8355     8370     8371     8360 
    8360     8356     8352     8364     8364     8359     8363     8357 
    8353     8363     8367     8363     8361     8355     8353     8359 
    8361     8365     8363     8357     8361     8359     8360     8364 
    8353     8352     8361     8365     8365     8363     8360     8353 
    8355     8371     8361     8341     8357     8370     8364     8365 
    8357     8348     8357     8367     8363     8353     8351     8360 
    8368     8365     8356     8349     8356     8368     8371     8357 
    8347     8351     8361     8365     8364     8357     8351     8355 
    8367     8375     8364     8344     8344     8365     8380     8372 
    8355     8351     8355     8355     8363     8368     8363     8355 
    8351     8359     8370     8363     8357     8360     8352     8356 
    8368     8361     8356     8365     8367     8359     8348     8343 
    8361     8380     8368     8349     8348     8352     8360     8374 
    8374     8360     8351     8356     8363     8359     8359     8365 
    8357     8348     8361     8374     8368     8353     8352     8363 
    8364     8360     8368     8372     8378     8384     8370     8355 
    8357     8360     8352     8344     8336     8326     8338     8359 
    8352     8344     8345     8343     8349     8353     8343     8347 
    8390     8440     8437     8392     8361     8341     8316     8321 
    8368     8384     8368     8370     8365     8348     8368     8445 
    8519     8498     8341     8097     7956     8086     8361     8590 
    8719     8676     8480     8263     8078     8066     8266     8379 
    8390     8505     8569     8500     8465     8386     8224     8171 
    8194     8191     8289     8465     8550     8519     8392     8244 
    8229     8378     8518     8464     8295     8191     8183     8316 
    8480     8468     8451     8455     8318     8293     8384     8347 
    8352     8330     8166     8228     8482     8640     8685     8511 
    8209     8006     7935     8163     8584     8714     8567     8376 
    8174     8186     8424     8510     8425     8395     8367     8248 
    8168     8232     8338     8407     8471     8507     8484     8437 
    8376     8248     8102     8062     8163     8445     8784     8851 
    8629     8318     8097     8064     8037     8037     8318     8529 
    8495     8645     8785     8608     8403     8255     8139     8060 
    7958     8056     8338     8494     8648     8787     8560     8226 
    8145     8116     8151     8395     8537     8491     8459     8410 
    8367     8360     8336     8382     8440     8424     8451     8428 
    8293     8251     8276     8172     8093     8286     8491     8457 
    8507     8606     8441     8274     8164     8001     8104     8444 
    8617     8572     8567     8656     8486     8101     8017     8197 
    8418     8618     8510     8252     8262     8352     8325     8253 
    8162     8217     8457     8518     8352     8325     8417     8410 
    8451     8569     8505     8326     8321     8401     8367     8221 
    8056     8028     8210     8484     8634     8583     8530     8442 
    8113     7938     8256     8579     8615     8592     8529     8399 
    8257     8147     8148     8209     8383     8661     8645     8370 
    8287     8280     8129     8110     8295     8334     8320     8621 
    8881     8680     8239     7843     7751     8100     8586     8841 
    8745     8434     8240     8248     8248     8236     8286     8293 
    8305     8452     8571     8536     8488     8405     8156     7998 
    8212     8523     8580     8487     8425     8406     8394     8309 
    8156     8105     8262     8460     8488     8415     8357     8318 
    8394     8564     8575     8361     8071     7933     8160     8553 
    8711     8618     8486     8397     8255     8155     8241     8267 
    8187     8260     8341     8316     8392     8614     8757     8572 
    8230     8113     8229     8428     8503     8367     8284     8293 
    8216     8213     8425     8592     8532     8436     8361     8160 
    8128     8430     8496     8291     8328     8372     8236     8279 
    8422     8459     8542     8553     8318     8116     8120     8270 
    8519     8685     8564     8193     7962     8197     8598     8668 
    8349     8001     7989     8397     8931     8951     8328     7821 
    7813     8070     8583     9028     8823     8307     8108     8133 
    8170     8232     8237     8247     8532     8850     8760     8552 
    8434     8095     7803     8012     8371     8487     8424     8301 
    8368     8652     8677     8295     7958     7974     8240     8607 
    8914     8762     8114     7735     8004     8347     8467     8614 
    8729     8599     8488     8488     8176     7862     8143     8538 
    8675     8804     8726     8295     7897     7815     8023     8239 
    8286     8306     8329     8484     8857     8872     8364     8013 
    8006     8224     8754     9047     8523     7819     7722     8046 
    8407     8802     8991     8615     8051     7962     8186     8268 
    8372     8517     8283     8114     8584     8896     8513     8100 
    7898     7866     8378     9038     8949     8368     8132     8194 
    8201     8341     8495     8276     8167     8505     8667     8464 
    8253     8037     7911     8125     8455     8635     8754     8694 
    8437     8334     8298     8110     7960     7861     7877     8363 
    9130     9521     9134     8183     7437     7338     7723     8370 
    8742     8563     8529     8750     8548     8164     8037     7921 
    7958     8433     8939     9178     9134     8653     8059     7894 
    8002     8112     8282     8556     8962     9350     9323     8743 
    7947     7472     7539     7867     8193     8463     8438     8164 
    8051     7943     7674     7712     8060     8307     8607     9045 
    9138     8754     8391     8248     8017     7746     7842     8478 
    9552    10444    10378     9340     7865     6615     6174     6639 
    7618     8614     9302     9570     9356     8819     8301     7724 
    7049     7003     7827     8757     9312     9262     8594     8127 
    8333     8698     8965     8982     8340     7454     7180     7488 
    7889     8163     8371     8860     9629     9888     9086     7715 
    6687     6602     7615     9142    10071    10018     9409     8614 
    7989     7715     7604     7705     8305     9190     9547     8918 
    7855     7044     6704     7209     8464     9247     9058     8834 
    8860     8496     7738     6995     6642     7279     8775     9965 
   10285    10170     9805     8916     7717     6712     6137     6435 
    7765     9256    10149    10206     9381     8299     7528     7068 
    7210     7898     8451     8769     8986     8900     8734     8787 
    8635     7993     7481     7524     7762     8232     9169     9798 
    9348     8243     7280     6885     7253     8252     9043     8914 
    8495     8625     8974     9101     9011     8662     8191     7878 
    7817     7989     8247     8321     8263     8417     8649     8518 
    8244     8186     8066     7821     7977     8596     9163     9273 
    8788     7983     7460     7527     7962     8461     8930     9254 
    9271     8812     7970     7415     7470     7693     8058     8779 
    9212     8793     8101     7709     7568     7902     8795     9412 
    9181     8679     8576     8757     8858     8743     8176     7265 
    6914     7487     8276     8750     8850     8823     8976     9026 
    8591     7844     7261     7311     8059     8950     9297     8954 
    8291     7759     7724     8147     8660     9177     9379     8692 
    7777     7705     8063     8097     8012     8114     8425     8834 
    9045     8935     8707     8473     8160     7844     7743     7746 
    7754     8132     8911     9423     9354     8947     8276     7564 
    7410     7811     8094     8025     8047     8490     9080     9319 
    9121     8549     7720     7294     7626     8303     8968     9246 
    8847     8226     8044     8316     8629     8681     8247     7473 
    7196     7770     8602     9213     9329     8847     8256     8021 
    8117     8278     8283     8282     8498     8775     8866     8761 
    8519     8185     7901     7744     7726     8033     8652     9146 
    9139     8626     7942     7499     7499     7819     8203     8513 
    8721     8907     9073     8947     8517     8156     8058     8179 
    8398     8560     8587     8394     8102     7965     8005     8290 
    8820     9134     8878     8263     7766     7699     7889     8046 
    8136     8267     8565     8868     8770     8298     7877     7792 
    8051     8544     9016     9078     8662     8256     8175     8306 
    8567     8692     8467     8328     8453     8330     8032     7979 
    7886     7765     8206     8876     8985     8743     8600     8440 
    8334     8444     8303     7758     7519     7834     8178     8355 
    8517     8602     8577     8645     8834     8897     8760     8479 
    8037     7651     7692     8127     8579     8847     9042     9134 
    8907     8510     8197     7749     7219     7215     7821     8532 
    9034     9178     8862     8353     8081     8131     8334     8459 
    8388     8283     8316     8554     8901     8931     8419     7762 
    7456     7693     8283     8676     8575     8191     7886     7992 
    8510     8939     8869     8414     8067     8332     9085     9437 
    8901     8059     7580     7616     8086     8602     8671     8349 
    8079     8114     8425     8741     8752     8475     8116     7882 
    7983     8343     8592     8584     8388     8127     8037     8224 
    8441     8387     8139     7998     8105     8468     8837     8797 
    8414     8100     8149     8606     9045     9001     8576     8174 
    8014     8032     8064     8097     8187     8311     8428     8486 
    8507     8553     8533     8469     8546     8645     8561     8375 
    8202     8109     8198     8360     8324     8175     8132     8125 
    8139     8195     8201     8226     8411     8641     8680     8457 
    8132     7989     8257     8797     9073     8796     8317     7974 
    7851     8074     8540     8891     8942     8788     8648     8550 
    8272     7780     7375     7416     7962     8622     8982     8964 
    8710     8429     8198     7971     7828     7888     8132     8453 
    8719     8864     8861     8622     8214     7959     8033     8317 
    8665     8932     8926     8637     8316     8143     8050     7973 
    8001     8162     8320     8329     8190     8095     8178     8345 
    8556     8711     8511     8176     8148     8190     8171     8345 
    8559     8645     8737     8760     8679     8710     8819     8758 
    8464     8064     7767     7732     7981     8417     8664     8452 
    8108     7925     7831     7929     8239     8469     8587     8696 
    8695     8610     8580     8550     8460     8324     8095     7902 
    8035     8442     8776     8847     8695     8405     8105     7990 
    8054     8105     8191     8471     8754     8822     8802     8677 
    8284     7866     7717     7770     7919     8195     8563     8919 
    9162     9109     8695     8124     7681     7626     8004     8506 
    8735     8610     8457     8482     8511     8424     8253     8066 
    8004     8221     8573     8650     8487     8436     8445     8426 
    8426     8279     7985     7847     7975     8224     8465     8646 
    8689     8576     8514     8565     8530     8403     8253     8075 
    8037     8205     8391     8569     8704     8615     8449     8399 
    8303     8187     8174     8124     8132     8411     8725     8772 
    8588     8255     7843     7636     7808     8217     8662     8942 
    8895     8529     8073     7896     8074     8337     8592     8814 
    8831     8719     8613     8351     7965     7793     7969     8309 
    8554     8583     8482     8356     8297     8388     8518     8467 
    8268     8135     8116     8220     8521     8781     8672     8415 
    8293     8222     8237     8305     8163     7982     8132     8456 
    8662     8729     8653     8421     8155     7982     7950     8117 
    8448     8673     8610     8434     8388     8460     8428     8240 
    8148     8272     8459     8608     8635     8487     8262     8068 
    8012     8070     8167     8402     8656     8660     8550     8502 
