Origin Time       2025/03/30 10:46:00
Lat.              32.923
Long.             130.372
Depth. (km)       11
Mag.              3.4
Station Code      KMMH14
Station Lat.      32.6345
Station Long.     130.7521
Station Height(m) -40
Record Time       2025/03/30 10:46:35
Sampling Freq(Hz) 100Hz
Duration Time(s)  120
Dir.              2
Scale Factor      2942(gal)/8224139
Max. Acc. (gal)   0.160
Last Correction   2025/03/30 10:46:36
Memo.             
[...]
   31344    31342    31341    31341    31342    31344    31344    31342 
   31342    31342    31344    31344    31344    31342    31344    31345 
   31345    31342    31341    31344    31342    31338    31342    31345 
   31341    31341    31345    31347    31344    31342    31344    31341 
   31340    31341    31342    31342    31342    31341    31341    31344 
   31345    31341    31341    31344    31345    31344    31342    31340 
   31341    31345    31345    31342    31341    31341    31342    31344 
   31345    31341    31340    31344    31344    31340    31340    31341 
   31341    31342    31342    31340    31342    31344    31341    31341 
   31341    31341    31342    31342    31344    31342    31342    31344 
   31341    31340    31342    31345    31344    31341    31340    31342 
   31342    31341    31340    31341    31341    31341    31341    31342 
   31342    31341    31341    31342    31345    31344    31341    31342 
   31342    31342    31345    31345    31344    31342    31342    31342 
   31342    31342    31342    31342    31342    31341    31341    31342 
   31342    31341    31342    31344    31344    31344    31341    31341 
   31342    31342    31342    31342    31342    31341    31340    31342 
   31344    31344    31345    31345    31344    31344    31344    31342 
   31342    31344    31342    31342    31345    31345    31341    31342 
   31342    31342    31344    31341    31340    31342    31342    31340 
   31342    31345    31344    31342    31344    31345    31341    31341 
   31342    31342    31341    31342    31344    31341    31341    31344 
   31342    31341    31341    31340    31342    31347    31347    31345 
   31344    31341    31338    31341    31342    31341    31344    31344 
   31341    31342    31342    31342    31344    31344    31342    31341 
   31342    31342    31342    31344    31342    31342    31344    31345 
   31345    31344    31341    31342    31344    31341    31341    31344 
   31344    31344    31342    31340    31341    31342    31342    31342 
   31341    31341    31344    31347    31345    31342    31342    31341 
   31338    31341    31344    31341    31340    31341    31342    31342 
   31342    31342    31340    31341    31342    31342    31342    31344 
   31342    31342    31344    31342    31341    31342    31341    31341 
   31342    31342    31341    31340    31342    31344    31342    31342 
   31340    31340    31344    31344    31342    31344    31342    31341 
   31340    31341    31342    31342    31341    31341    31342    31342 
   31342    31342    31344    31342    31340    31342    31344    31340 
   31340    31341    31341    31341    31342    31340    31341    31344 
   31341    31342    31345    31344    31341    31341    31342    31342 
   31340    31341    31344    31345    31342    31342    31345    31344 
   31341    31342    31342    31341    31341    31341    31340    31341 
   31344    31342    31340    31341    31342    31344    31344    31344 
   31344    31344    31342    31342    31341    31341    31344    31342 
   31344    31347    31344    31342    31344    31344    31344    31342 
   31342    31342    31344    31345    31342    31340    31344    31345 
   31341    31340    31342    31344    31342    31341    31340    31340 
   31340    31340    31341    31341    31342    31342    31341    31340 
   31342    31344    31344    31341    31341    31342    31341    31340 
   31341    31344    31344    31340    31341    31344    31342    31344 
   31344    31342    31342    31342    31342    31341    31340    31342 
   31344    31341    31341    31342    31341    31338    31340    31342 
   31344    31347    31345    31340    31338    31342    31342    31341 
   31341    31342    31344    31344    31341    31340    31340    31342 
   31345    31342    31340    31342    31344    31341    31340    31344 
   31344    31341    31342    31344    31341    31342    31345    31344 
   31342    31345    31347    31342    31340    31344    31344    31344 
   31342    31340    31342    31347    31345    31341    31342    31344 
   31342    31342    31342    31342    31341    31342    31344    31344 
   31344    31347    31347    31344    31342    31344    31342    31338 
   31340    31345    31344    31340    31342    31344    31341    31342 
   31345    31341    31340    31341    31344    31344    31342    31342 
   31345    31342    31341    31341    31341    31341    31341    31342 
   31342    31345    31344    31342    31342    31342    31341    31344 
   31345    31344    31342    31344    31345    31344    31341    31342 
   31344    31344    31344    31344    31342    31342    31342    31342 
   31344    31342    31341    31344    31347    31344    31342    31342 
   31344    31344    31342    31342    31344    31344    31345    31345 
   31345    31342    31342    31342    31341    31341    31342    31344 
   31344    31342    31341    31342    31342    31342    31341    31341 
   31341    31341    31344    31344    31341    31338    31340    31344 
   31345    31344    31344    31345    31342    31340    31342    31345 
   31344    31342    31341    31341    31342    31341    31342    31342 
   31342    31344    31342    31342    31341    31341    31344    31344 
   31342    31342    31341    31344    31342    31340    31341    31344 
   31341    31341    31342    31342    31342    31342    31341    31341 
   31344    31347    31345    31342    31342    31342    31342    31344 
   31344    31342    31342    31342    31341    31341    31344    31344 
   31342    31342    31342    31342    31344    31342    31342    31342 
   31341    31344    31345    31344    31341    31342    31341    31341 
   31344    31344    31341    31344    31344    31344    31345    31344 
   31342    31344    31344    31342    31342    31344    31341    31342 
   31342    31341    31342    31345    31345    31345    31344    31340 
   31342    31344    31344    31344    31340    31340    31345    31345 
   31341    31340    31340    31341    31342    31342    31342    31342 
   31341    31342    31342    31341    31344    31345    31341    31341 
   31341    31340    31340    31341    31341    31342    31344    31344 
   31344    31344    31342    31344    31342    31341    31342    31345 
   31342    31344    31344    31338    31338    31344    31344    31341 
   31342    31342    31338    31340    31342    31342    31342    31342 
   31342    31341    31341    31345    31344    31341    31344    31344 
   31342    31345    31345    31344    31347    31345    31342    31345 
   31345    31344    31347    31347    31347    31348    31344    31340 
   31336    31329    31325    31324    31324    31333    31344    31352 
   31361    31364    31359    31349    31341    31336    31330    31329 
   31332    31337    31347    31353    31351    31349    31351    31347 
   31337    31330    31329    31337    31347    31351    31347    31338 
   31332    31334    31345    31355    31364    31375    31376    31368 
   31348    31313    31291    31299    31317    31337    31353    31353 
   31352    31345    31336    31337    31337    31337    31357    31369 
   31361    31351    31340    31341    31345    31330    31324    31326 
   31330    31338    31332    31332    31357    31368    31374    31387 
   31374    31348    31334    31318    31314    31313    31299    31307 
   31330    31338    31347    31368    31386    31380    31361    31352 
   31333    31302    31297    31305    31320    31361    31401    31406 
   31380    31326    31295    31324    31344    31334    31348    31353 
   31332    31326    31330    31337    31356    31352    31347    31367 
   31382    31382    31375    31371    31361    31347    31324    31274 
   31267    31286    31280    31311    31352    31365    31379    31371 
   31376    31399    31376    31349    31357    31360    31334    31321 
   31332    31315    31303    31311    31303    31321    31365    31371 
   31352    31353    31369    31357    31326    31328    31364    31387 
   31379    31357    31340    31317    31294    31301    31329    31347 
   31345    31344    31359    31382    31379    31357    31341    31328 
   31318    31317    31307    31310    31329    31349    31392    31417 
   31396    31351    31282    31263    31301    31326    31371    31399 
   31376    31361    31325    31295    31310    31315    31334    31365 
   31351    31324    31322    31322    31325    31357    31374    31341 
   31315    31309    31310    31333    31356    31369    31384    31379 
   31379    31403    31390    31345    31311    31286    31280    31288 
   31306    31340    31364    31380    31411    31429    31396    31338 
   31282    31253    31294    31333    31329    31357    31380    31360 
   31345    31305    31271    31311    31371    31421    31456    31426 
   31352    31297    31268    31270    31298    31310    31313    31338 
   31342    31330    31348    31363    31352    31353    31379    31396 
   31382    31359    31347    31318    31299    31325    31338    31330 
   31340    31349    31352    31347    31333    31325    31290    31270 
   31324    31371    31383    31415    31437    31413    31375    31342 
   31306    31267    31244    31276    31348    31387    31401    31406 
   31365    31329    31326    31293    31264    31303    31349    31375 
   31406    31399    31367    31351    31306    31271    31298    31348 
   31376    31363    31336    31330    31324    31313    31333    31351 
   31337    31351    31391    31401    31371    31336    31326    31326 
   31318    31334    31352    31332    31332    31360    31374    31380 
   31353    31302    31313    31345    31344    31357    31365    31332 
   31297    31293    31315    31333    31351    31380    31388    31376 
   31357    31333    31328    31347    31361    31342    31325    31328 
   31314    31326    31364    31338    31310    31337    31337    31320 
   31342    31359    31345    31349    31360    31360    31357    31334 
   31325    31326    31299    31306    31341    31355    31344    31330 
   31347    31367    31359    31348    31351    31348    31344    31361 
   31372    31372    31376    31345    31320    31318    31305    31311 
   31355    31380    31367    31348    31340    31328    31322    31334 
   31336    31332    31351    31372    31356    31340    31372    31391 
   31353    31318    31310    31302    31314    31363    31379    31345 
   31321    31315    31318    31338    31364    31369    31355    31326 
   31313    31330    31340    31344    31364    31351    31320    31317 
   31311    31299    31336    31407    31429    31405    31387    31361 
   31322    31295    31305    31342    31363    31356    31326    31297 
   31295    31301    31286    31283    31317    31371    31399    31403 
   31409    31395    31352    31334    31363    31361    31340    31364 
   31367    31326    31310    31305    31279    31260    31279    31314 
   31329    31356    31388    31386    31392    31399    31356    31329 
   31328    31309    31307    31338    31374    31399    31405    31402 
   31391    31349    31301    31282    31276    31278    31306    31363 
   31405    31403    31364    31317    31287    31278    31313    31371 
   31390    31392    31390    31353    31317    31305    31302    31313 
   31334    31359    31357    31329    31332    31351    31349    31345 
   31351    31348    31311    31298    31344    31387    31402    31401 
   31374    31326    31307    31333    31333    31298    31322    31399 
   31419    31379    31349    31334    31306    31290    31303    31305 
   31276    31278    31336    31382    31384    31382    31382    31360 
   31332    31321    31324    31345    31378    31409    31409    31365 
   31318    31302    31321    31360    31369    31340    31313    31311 
   31330    31337    31317    31313    31298    31278    31315    31355 
   31357    31361    31336    31293    31270    31207    31116    31095 
   31155    31226    31284    31344    31418    31514    31567    31536 
   31510    31514    31527    31549    31545    31523    31494    31433 
   31348    31270    31243    31255    31261    31275    31287    31271 
   31259    31268    31271    31294    31340    31375    31398    31410 
   31426    31457    31463    31433    31376    31328    31328    31340 
   31360    31371    31310    31224    31143    31068    31066    31114 
   31164    31244    31356    31455    31534    31581    31564    31509 
   31475    31496    31554    31579    31523    31401    31244    31086 
   30978    30973    31067    31212    31364    31473    31482    31418 
   31363    31338    31333    31309    31268    31248    31267    31326 
   31379    31363    31287    31197    31160    31183    31197    31202 
   31241    31345    31499    31607    31662    31703    31687    31618 
   31533    31469    31452    31436    31406    31351    31221    31078 
   31029    31036    31043    31082    31136    31131    31125    31230 
   31392    31496    31556    31612    31603    31500    31392    31332 
   31313    31320    31334    31344    31330    31286    31228    31187 
   31156    31151    31228    31342    31453    31571    31675    31746 
   31769    31726    31633    31527    31436    31336    31237    31199 
   31182    31125    31064    31012    30971    30989    31071    31158 
   31206    31226    31261    31317    31333    31321    31374    31471 
   31513    31504    31517    31563    31627    31677    31656    31546 
   31390    31229    31099    31032    31013    31041    31163    31328 
   31445    31556    31702    31789    31723    31533    31345    31230 
   31144    31091    31131    31180    31175    31179    31224    31280 
   31311    31307    31297    31309    31334    31357    31396    31453 
   31496    31530    31579    31600    31549    31467    31409    31347 
   31288    31295    31351    31411    31432    31390    31329    31251 
   31186    31207    31245    31225    31210    31240    31290    31330 
   31357    31382    31364    31294    31263    31278    31263    31240 
   31241    31248    31276    31330    31359    31337    31295    31295 
   31325    31329    31303    31272    31293    31356    31387    31399 
   31429    31410    31351    31356    31411    31440    31456    31461 
   31405    31326    31302    31341    31380    31402    31465    31521 
   31477    31387    31334    31328    31309    31256    31221    31218 
   31229    31239    31228    31198    31210    31284    31401    31529 
   31603    31615    31595    31504    31334    31179    31143    31225 
   31325    31410    31486    31498    31453    31433    31440    31421 
   31367    31270    31170    31153    31210    31263    31270    31241 
   31213    31199    31209    31245    31274    31287    31318    31378 
   31426    31453    31502    31550    31534    31475    31415    31357 
   31290    31212    31139    31137    31216    31307    31378    31418 
   31425    31415    31388    31355    31333    31329    31361    31390 
   31348    31276    31249    31259    31271    31291    31315    31356 
   31395    31388    31383    31433    31463    31436    31406    31376 
   31320    31270    31268    31298    31301    31291    31314    31340 
   31338    31317    31278    31264    31275    31287    31329    31387 
   31415    31440    31486    31517    31521    31484    31415    31376 
   31351    31324    31325    31314    31294    31314    31341    31353 
   31341    31267    31197    31203    31236    31257    31295    31355 
   31407    31430    31433    31395    31317    31283    31322    31353 
   31345    31322    31297    31287    31275    31248    31233    31232 
   31247    31284    31334    31379    31419    31433    31411    31407 
   31438    31450    31411    31352    31318    31307    31314    31348 
   31378    31380    31394    31425    31437    31425    31402    31367 
   31322    31291    31280    31288    31313    31324    31338    31384 
   31403    31378    31369    31383    31384    31372    31361    31357 
   31342    31306    31298    31329    31352    31356    31349    31321 
   31290    31278    31287    31320    31363    31380    31353    31322 
   31330    31341    31349    31364    31364    31349    31326    31298 
   31278    31264    31261    31260    31255    31264    31263    31245 
   31260    31306    31355    31414    31460    31471    31460    31419 
   31356    31291    31234    31207    31228    31248    31248    31282 
   31347    31372    31361    31375    31399    31401    31417    31456 
   31459    31432    31403    31345    31283    31294    31345    31383 
   31414    31440    31453    31456    31452    31444    31438    31415 
   31371    31315    31256    31226    31259    31306    31320    31314 
   31309    31293    31249    31222    31266    31329    31371    31402 
   31406    31364    31311    31293    31290    31301    31341    31383 
   31394    31384    31369    31364    31368    31357    31345    31359 
   31378    31376    31359    31332    31307    31301    31320    31359 
   31391    31376    31333    31311    31299    31279    31272    31278 
   31286    31299    31311    31320    31356    31405    31421    31396 
   31361    31338    31318    31303    31315    31347    31363    31348 
   31330    31330    31344    31361    31360    31334    31307    31301 
   31309    31326    31347    31368    31386    31388    31388    31399 
   31414    31417    31396    31372    31357    31337    31334    31365 
   31399    31419    31425    31409    31380    31356    31317    31263 
   31221    31193    31194    31240    31303    31352    31369    31363 
   31344    31307    31276    31282    31299    31301    31297    31299 
   31307    31326    31349    31349    31336    31353    31380    31376 
   31365    31386    31388    31361    31359    31374    31360    31345 
   31351    31353    31349    31340    31324    31320    31329    31342 
   31365    31369    31338    31317    31321    31311    31298    31324 
   31371    31405    31434    31448    31418    31375    31365    31359 
   31330    31328    31355    31361    31351    31342    31328    31318 
   31329    31341    31337    31334    31345    31364    31386    31418 
   31442    31436    31415    31382    31336    31291    31255    31234 
   31239    31241    31244    31270    31306    31340    31374    31405 
   31423    31410    31371    31333    31303    31297    31324    31371 
   31395    31371    31337    31310    31274    31244    31251    31288 
   31328    31368    31418    31452    31441    31405    31352    31305 
   31287    31297    31313    31333    31367    31391    31394    31395 
   31371    31311    31270    31245    31217    31222    31267    31307 
   31342    31384    31411    31407    31383    31365    31360    31345 
   31328    31347    31382    31399    31419    31426    31399    31368 
   31347    31341    31340    31329    31326    31344    31357    31352 
   31336    31328    31329    31329    31336    31353    31353    31344 
   31341    31330    31317    31306    31286    31287    31328    31353 
   31356    31369    31379    31363    31353    31360    31364    31361 
   31349    31329    31314    31297    31286    31298    31307    31294 
   31286    31301    31317    31320    31320    31325    31322    31313 
   31318    31336    31345    31355    31363    31361    31353    31349 
   31348    31336    31322    31326    31338    31356    31367    31378 
