Origin Time       2025/03/30 10:46:00
Lat.              32.923
Long.             130.372
Depth. (km)       11
Mag.              3.4
Station Code      KMMH16
Station Lat.      32.7967
Station Long.     130.8199
Station Height(m) 55
Record Time       2025/03/30 10:46:34
Sampling Freq(Hz) 100Hz
Duration Time(s)  120
Dir.              4
Scale Factor      7845(gal)/8223790
Max. Acc. (gal)   1.946
Last Correction   2025/03/30 10:46:34
Memo.             
[...]
      81       85       99       94       75       72       70       58 
      56       63       59       55       66       82       93      101 
      98       87       76       68       68       74       74       68 
      64       52       43       58       82       94      101      103 
      97       81       60       48       54       60       63       63 
      64       60       62       72       87      102      116      113 
      93       79       64       44       43       62       72       76 
      81       78       74       78       89       95       87       67 
      54       48       51       62       82      103      108       94 
      76       54       29       24       51       81       82       87 
     116      117       93       81       72       62       67       81 
      72       62       62       55       48       56       74       87 
      94       95       87       82       87       81       63       64 
      81       81       70       67       64       64       64       62 
      64       78       85       85       87       89       87       87 
      85       76       70       70       71       68       55       43 
      45       54       62       79       97      102      101       93 
      79       66       60       68       78       72       62       60 
      68       78       81       83       87       89       86       79 
      67       60       55       52       56       60       59       63 
      72       85       93       94       90       78       66       63 
      68       72       75       79       83       87       81       75 
      83       82       66       55       58       60       63       71 
      75       75       76       82       79       68       72       83 
      76       67       71       72       66       67       78       85 
      82       75       74       74       72       78       86       87 
      76       59       51       54       64       78       89       91 
      89       78       60       48       49       63       76       87 
      90       85       79       76       79       82       81       74 
      63       55       62       74       81       85       93       94 
      86       74       62       59       70       79       82       83 
      75       64       56       47       43       59       86      101 
      99       87       78       75       75       76       81       85 
      82       74       67       60       56       59       63       66 
      68       71       75       78       76       74       78       81 
      78       76       78       81       78       67       60       62 
      68       76       82       82       82       82       86       89 
      89       82       71       56       47       45       48       55 
      60       64       71       81       87       90       90       89 
      87       87       87       78       67       63       58       51 
      58       71       76       78       79       76       74       72 
      68       68       78       83       79       74       72       75 
      81       85       81       72       71       64       54       49 
      54       62       68       75       83       86       85       86 
      83       75       68       67       68       68       70       78 
      82       82       81       82       82       83       82       76 
      62       41       39       51       58       64       76       82 
      81       79       75       68       67       72       85       94 
      94       89       82       82       86       85       82       79 
      71       62       56       52       51       58       64       70 
      71       66       59       59       66       67       70       83 
     101      103       91       82       81       83       83       83 
      85       85       79       71       68       60       55       63 
      70       67       60       58       58       60       68       75 
      79       79       76       81       86       89       87       78 
      68       68       68       71       82       90       91       93 
      83       67       66       70       63       59       60       59 
      66       79       81       72       71       70       64       64 
      72       81       83       81       79       78       75       79 
      81       78       82       85       81       76       74       71 
      62       49       52       63       70       74       76       70 
      63       67       72       78       89       97       94       83 
      78       81       76       70       66       59       51       44 
      51       72       91       95       89       82       76       70 
      64       67       71       75       78       70       60       63 
      72       79       86       93       93       86       78       72 
      64       56       58       63       70       75       81       85 
      83       75       71       74       72       74       75       67 
      55       60       83       87       74       70       70       62 
      58       71       87       94       97       91       76       64 
      59       60       66       79       86       76       67       72 
      76       67       52       48       56       67       74       78 
      89       97       91       89       85       66       54       54 
      51       59       76       90      102      106       91       85 
      83       64       41       36       44       67       82       70 
      64       74       85       91       89       89       97       98 
      90       83       78       68       58       51       49       58 
      67       67       66       68       64       59       63       71 
      81       95      106      105       93       82       75       68 
      63       63       68       74       74       70       68       74 
      86       89       78       60       48       45       56       79 
      94       94       89       81       71       68       68       67 
      66       66       70       75       76       83       98      105 
      97       89       81       64       52       49       48       48 
      52       62       75       90       93       86       81       76 
      70       67       74       90      117      139      136      109 
      64       10      -27      -37      -31       -4       45       99 
     143      167      155      112       78       78       85       75 
      63       55       52       64       83       98      112      121 
     114       93       72       52       10      -37      -49        0 
      91      182      229      206      117       -5     -113     -153 
     -97       36      191      314      344      249       82      -39 
     -54        1       78      135      130       59      -45     -117 
     -97        8      143      253      326      326      229       60 
    -128     -274     -306     -195        5      213      357      405 
     382      314      179      -12     -174     -226     -162      -35 
      82      163      209      195      140      129      151      113 
      24      -43      -44        5       37       44       81      141 
     187      214      220      159       14     -122     -160     -109 
     -25       79      201      284      260      129      -33     -137 
    -139      -56      108      302      396      334      183        4 
    -149     -187      -70      132      248      157      -21     -118 
    -139     -128      -22      189      400      504      477      349 
     149      -62     -197     -229     -197     -137      -41       95 
     233      315      290      168       40      -56     -147     -205 
    -163      -36       79      191      346      444      380      202 
     -10     -170     -186      -79       51      143      187      194 
     141       13     -113     -141      -71       58      197      284 
     286      216       90      -20       -8      109      203      205 
     125       28      -41      -91      -99      -56       12      116 
     241      329      351      287      136      -40     -178     -270 
    -314     -249      -28      241      384      376      306      179 
      -6     -132      -94       27       99      133      162      145 
      93       60       36       -8      -24       43      155      199 
     129       49       51      102      162      216      226      175 
     101       22      -78     -151     -152     -110      -22       87 
     155      162      135      109       99       90       74       87 
     110       85       36       12       21       68      106      109 
     136      187      152       32      -21       40      114      147 
     141       82       -2      -54      -45        5       72      129 
     145      110       36      -17       24      124      193      245 
     295      265      156       67       27      -24      -85     -133 
    -167     -163     -128      -59       86      263      363      346 
     243      112       17      -16        5       76      129      102 
      58       45       37       29       20        0        2       28 
      27       36      112      220      290      257      118      -29 
     -98      -97      -48       55      157      199      213      224 
     201      120      -17     -133     -139      -43       83      202 
     271      244      156       63      -31     -113     -126      -52 
      51      135      172      152      103       71       76      133 
     202      199      128       45      -40     -135     -190     -180 
     -99       55      226      333      371      353      270      152 
      48      -40      -97      -86      -21       54       97       78 
      14      -27       31      167      247      205      126       37 
     -79     -137      -76       31      135      213      216      135 
      28      -35       -1      108      221      292      291      205 
      94       24      -22      -58      -40       16       62       93 
      97       56        8      -24      -79     -162     -193      -97 
      97      292      403      410      328      159       -5      -18 
     105      234      272      207       85      -71     -238     -329 
    -263      -64      145      270      310      291      213      133 
     120      140      109        9      -90     -133     -149     -152 
     -86       51      195      302      338      283      184      117 
      68        4      -36      -29      -13       -5       10       37 
      89      157      197      193      184      162       75      -67 
    -180     -172      -49       85      191      301      353      249 
      35     -132     -182     -141      -33       95      222      315 
     299      184       85       41       21       14       63      174 
     238      160        6     -109     -171     -184     -141      -78 
     -12       48       81       89      110      155      202      252 
     321      367      299      136       10      -20       28      112 
     133       43      -60      -94     -102     -120      -81       47 
     216      351      361      228       29     -157     -247     -179 
     -27      106      205      295      391      453      388      180 
     -58     -251     -363     -328     -153       75      256      332 
     344      314      189        5     -139     -183     -147     -122 
    -140     -122      -10      156      313      425      476      449 
     302       41     -221     -411     -535     -549     -421     -206 
      56      352      639      861      923      762      422       13 
    -330     -510     -508     -364     -113      170      391      533 
     631      684      642      446       86     -363     -816    -1189 
   -1324    -1139     -689      -67      642     1297     1711     1760 
    1447      891      265     -247     -500     -471     -267      -24 
     133      151       93       55       64      121      157       56 
    -210     -588     -992    -1279    -1314    -1097     -730     -275 
     193      544      702      656      481      330      288      372 
     550      754      936     1057     1074     1008      889      723 
     499      193     -175     -484     -616     -615     -567     -494 
    -409     -322     -238     -187     -175     -203     -321     -548 
    -756     -769     -549     -167      253      629      918     1082 
    1135     1131     1039      768      346      -55     -334     -518 
    -592     -461     -114      305      608      714      626      355 
     -45     -469     -780     -854     -679     -364      -74      105 
     172      139       48      -31      -49       25      207      432 
     585      633      639      673      699      635      483      268 
      12     -216     -372     -469     -527     -521     -376      -95 
     175      309      298      211      113       25      -27      -28 
      -2        8      -32     -121     -195     -238     -275     -271 
    -187      -58       60      139      164      179      249      368 
     461      507      511      434      272       86      -89     -236 
    -311     -259      -12      430      924     1285     1422     1294 
     884      283     -334     -807    -1058    -1134    -1100     -977 
    -816     -680     -553     -378     -116      202      473      602 
     561      373       99     -140     -247     -206       -8      326 
     677      932     1044      961      693      342       -6     -268 
    -345     -229       32      386      742      992     1053      916 
     618      179     -367     -949    -1485    -1876    -1966    -1628 
    -922      -78      664     1124     1192      882      373     -103 
    -371     -378     -190      101      405      649      837     1016 
    1175     1219     1065      704      178     -396     -845    -1066 
   -1065     -880     -573     -245       12      162      176       49 
    -152     -328     -425     -433     -345     -157       86      342 
     584      769      843      785      653      538      479      480 
     534      573      534      406      210        6     -182     -382 
    -537     -549     -457     -376     -337     -305     -255     -197 
    -152     -103      -39       12       28        8      -62     -164 
    -205      -89      183      550      958     1308     1437     1231 
     742      153     -382     -773     -916     -746     -328      178 
     631      932      990      788      417      -18     -472     -889 
   -1165    -1179     -946     -569     -139      243      464      469 
     290       45     -117     -102       85      349      575      687 
     658      465      137     -171     -317     -286     -125      112 
     373      608      761      803      765      669      460      114 
    -298     -699    -1021    -1186    -1134     -891     -534     -148 
     186      454      673      810      849      823      745      608 
     430      237       33     -176     -395     -626     -811     -869 
    -797     -603     -272      130      496      778      974     1039 
     955      793      607      398      125     -207     -519     -716 
    -753     -637     -422     -180       31      198      325      418 
     502      583      633      619      526      337       89     -157 
    -361     -494     -521     -417     -199       29      202      340 
     471      568      579      486      287       13     -267     -500 
    -650     -693     -611     -379      -35      328      634      819 
     843      738      554      301       -2     -276     -441     -465 
    -382     -259     -129       -6       70       98      116      132 
     133      155      236      368      495      561      560      488 
     338      141      -35     -149     -194     -190     -180     -189 
    -193     -171     -126      -75      -39      -22      -39      -89 
    -137     -153     -130      -72        4      109      256      414 
     526      571      541      440      298      166       49      -64 
    -153     -176     -147      -97      -33       39      101      124 
     110      102      126      176      247      322      369      334 
     211       72      -58     -210     -353     -433     -434     -341 
    -166        9      135      205      210      164      125      155 
     263      406      538      621      598      421      135     -122 
    -253     -271     -230     -164      -93      -40      -21      -35 
     -41      -40      -64     -101     -116     -114      -94      -10 
     162      369      521      541      414      205       27      -56 
     -43       58      206      317      356      334      260      145 
      47        0      -16      -22      -10       27       75      101 
     106      106      102       66      -22     -149     -292     -430 
    -510     -498     -409     -261      -52      206      476      695 
     808      805      704      502      226      -35     -221     -341 
    -402     -365     -217       -9      180      315      400      434 
     380      237       72      -51     -124     -153     -125      -51 
      13       43       52       43       21        6       -5      -31 
     -67      -93      -86      -22      105      279      468      606 
     626      513      321      110      -66     -167     -187     -159 
    -117      -81      -55      -39      -49      -86      -95      -37 
      59      167      288      403      471      464      380      241 
      67     -129     -299     -392     -391     -310     -176      -20 
     105      171      198      193      162      132      109       85 
      72       81      113      175      264      380      488      535 
     490      338      113     -105     -268     -357     -341     -222 
     -45      124      228      248      206      129       44      -33 
    -114     -199     -268     -302     -279     -180       -5      217 
     434      588      635      560      406      244      108        5 
     -36      -20        0      -10      -48     -109     -178     -229 
    -255     -226     -117       37      179      291      391      486 
     533      498      375      179      -54     -271     -413     -438 
    -356     -201      -25      128      214      210      153       99 
      67       66       98      175      282      361      375      346 
     303      238      149       54      -31      -90     -125     -137 
    -118      -59       18       79      121      149      147      113 
      68       35       18       20       36       59       76       78 
      60        5      -91     -167     -160      -98      -28       37 
      99      151      184      207      243      291      329      340 
     314      253      184      136      120      135      147      125 
      72        2      -70     -122     -143     -139     -136     -153 
    -183     -194     -166     -113      -33       85      207      297 
     356      414      468      480      434      351      237      106 
      -8     -101     -172     -191     -143      -70      -16       -6 
     -28      -24       13       48       74       83       70       48 
      32       37       74      125      164      183      179      140 
      81       47       66      122      199      265      290      260 
     183       82       -8      -71     -106     -109      -87      -44 
       1       27       27       14        0      -20      -41      -32 
