Origin Time       2025/03/30 10:46:00
Lat.              32.923
Long.             130.372
Depth. (km)       11
Mag.              3.4
Station Code      KMMH10
Station Lat.      32.3151
Station Long.     130.1811
Station Height(m) -142
Record Time       2025/03/30 10:46:41
Sampling Freq(Hz) 100Hz
Duration Time(s)  120
Dir.              1
Scale Factor      2942(gal)/8224139
Max. Acc. (gal)   0.139
Last Correction   2025/03/30 10:46:41
Memo.             
[...]
   62394    62392    62390    62392    62392    62388    62390    62391 
   62390    62390    62392    62392    62392    62392    62391    62392 
   62392    62388    62391    62392    62390    62391    62392    62391 
   62391    62390    62390    62391    62392    62391    62390    62388 
   62388    62390    62392    62392    62391    62391    62392    62390 
   62388    62390    62391    62391    62390    62388    62391    62394 
   62391    62390    62391    62390    62390    62391    62390    62391 
   62391    62388    62390    62394    62394    62394    62394    62390 
   62388    62391    62392    62390    62390    62390    62390    62390 
   62391    62390    62388    62390    62390    62390    62391    62391 
   62391    62390    62387    62390    62392    62390    62390    62392 
   62392    62392    62392    62391    62387    62387    62392    62392 
   62391    62391    62390    62388    62386    62387    62390    62388 
   62390    62392    62388    62387    62392    62392    62390    62387 
   62387    62390    62391    62387    62390    62395    62391    62387 
   62390    62390    62388    62388    62388    62391    62391    62391 
   62391    62390    62390    62392    62391    62388    62391    62394 
   62391    62390    62391    62391    62391    62391    62392    62394 
   62391    62390    62390    62390    62388    62391    62392    62391 
   62391    62391    62390    62390    62390    62390    62388    62390 
   62390    62387    62388    62392    62390    62386    62387    62390 
   62390    62390    62391    62390    62390    62391    62388    62388 
   62392    62395    62394    62390    62388    62392    62394    62391 
   62390    62390    62391    62388    62388    62390    62390    62391 
   62391    62388    62390    62390    62391    62392    62391    62390 
   62388    62388    62390    62391    62391    62391    62390    62390 
   62390    62392    62392    62391    62390    62388    62388    62388 
   62388    62391    62394    62394    62391    62387    62388    62390 
   62391    62394    62394    62394    62390    62388    62390    62390 
   62391    62391    62390    62391    62390    62390    62390    62388 
   62388    62391    62390    62388    62388    62390    62390    62391 
   62390    62387    62390    62395    62394    62387    62390    62394 
   62391    62390    62390    62388    62391    62390    62391    62392 
   62391    62392    62392    62388    62388    62391    62390    62391 
   62391    62388    62388    62390    62391    62388    62388    62394 
   62392    62391    62392    62390    62388    62391    62392    62391 
   62390    62388    62390    62391    62391    62392    62391    62390 
   62388    62391    62392    62391    62392    62392    62390    62391 
   62392    62391    62388    62390    62391    62391    62391    62390 
   62391    62390    62388    62391    62391    62390    62390    62391 
   62391    62388    62387    62390    62392    62391    62392    62392 
   62391    62391    62392    62392    62391    62391    62391    62388 
   62390    62392    62388    62390    62392    62388    62388    62392 
   62392    62391    62391    62390    62391    62392    62391    62391 
   62391    62391    62390    62390    62391    62392    62390    62390 
   62390    62388    62392    62390    62386    62387    62391    62388 
   62388    62392    62392    62391    62392    62391    62388    62390 
   62391    62390    62390    62391    62392    62391    62390    62390 
   62391    62391    62388    62387    62390    62390    62391    62392 
   62391    62390    62391    62392    62390    62388    62390    62388 
   62390    62392    62394    62392    62392    62391    62392    62392 
   62391    62390    62391    62390    62390    62390    62391    62392 
   62391    62390    62391    62391    62391    62390    62391    62392 
   62394    62392    62391    62390    62390    62392    62392    62390 
   62390    62392    62390    62388    62390    62390    62390    62392 
   62392    62391    62391    62390    62390    62390    62388    62391 
   62391    62390    62390    62391    62390    62391    62392    62392 
   62394    62391    62390    62390    62390    62392    62394    62391 
   62388    62391    62392    62392    62395    62392    62391    62391 
   62390    62388    62390    62391    62391    62390    62391    62394 
   62392    62392    62392    62390    62390    62391    62390    62388 
   62390    62391    62394    62397    62392    62392    62392    62388 
   62392    62397    62391    62390    62390    62390    62391    62391 
   62392    62392    62391    62391    62391    62392    62392    62391 
   62390    62392    62394    62391    62390    62390    62391    62394 
   62395    62391    62388    62391    62392    62390    62391    62392 
   62391    62391    62394    62394    62390    62390    62390    62391 
   62392    62390    62391    62394    62394    62391    62388    62390 
   62391    62391    62392    62392    62388    62390    62390    62390 
   62390    62390    62388    62390    62392    62390    62390    62391 
   62391    62390    62390    62390    62391    62392    62394    62394 
   62390    62388    62390    62390    62388    62387    62383    62379 
   62370    62364    62372    62387    62399    62409    62414    62426 
   62444    62451    62438    62414    62386    62355    62325    62320 
   62348    62388    62401    62383    62383    62410    62405    62347 
   62295    62320    62411    62499    62517    62473    62414    62360 
   62340    62365    62383    62353    62334    62394    62468    62437 
   62326    62284    62368    62479    62483    62402    62382    62455 
   62492    62410    62264    62187    62271    62437    62518    62460 
   62361    62334    62370    62390    62386    62402    62448    62483 
   62478    62429    62353    62276    62266    62333    62383    62368 
   62363    62399    62433    62464    62480    62451    62415    62410 
   62414    62410    62379    62332    62306    62314    62322    62328 
   62378    62459    62472    62402    62356    62378    62409    62410 
   62399    62407    62448    62468    62403    62314    62306    62371 
   62424    62403    62349    62359    62418    62433    62399    62372 
   62382    62403    62395    62371    62387    62428    62417    62355 
   62307    62330    62415    62478    62452    62398    62401    62430 
   62414    62361    62340    62365    62382    62361    62353    62380 
   62424    62445    62419    62378    62343    62326    62356    62421 
   62460    62453    62446    62444    62403    62326    62272    62307 
   62415    62483    62441    62368    62349    62372    62397    62386 
   62372    62407    62453    62455    62430    62411    62392    62370 
   62355    62347    62343    62372    62415    62409    62360    62332 
   62352    62397    62421    62417    62419    62433    62411    62355 
   62336    62379    62432    62456    62449    62413    62375    62365 
   62368    62372    62388    62399    62391    62386    62401    62411 
   62382    62344    62355    62397    62425    62433    62421    62399 
   62374    62334    62306    62337    62415    62460    62440    62409 
   62403    62402    62380    62359    62371    62405    62430    62440 
   62430    62386    62324    62309    62371    62445    62452    62382 
   62328    62360    62419    62419    62382    62379    62428    62456 
   62407    62329    62303    62356    62418    62417    62397    62413 
   62419    62375    62330    62333    62374    62426    62457    62455 
   62436    62401    62360    62356    62378    62392    62406    62392 
   62348    62337    62368    62380    62374    62387    62406    62417 
   62429    62438    62434    62407    62352    62320    62357    62424 
   62445    62417    62382    62361    62343    62328    62343    62394 
   62437    62429    62392    62384    62414    62428    62392    62349 
   62351    62398    62434    62413    62374    62376    62406    62415 
   62407    62391    62376    62371    62380    62391    62391    62397 
   62405    62387    62360    62359    62384    62415    62419    62395 
   62378    62383    62374    62349    62353    62406    62473    62487 
   62424    62356    62349    62374    62384    62374    62379    62430 
   62460    62410    62337    62321    62359    62401    62409    62401 
   62418    62445    62430    62383    62352    62360    62376    62371 
   62374    62397    62417    62417    62394    62361    62347    62363 
   62398    62424    62428    62428    62419    62395    62375    62378 
   62390    62403    62405    62388    62370    62368    62386    62409 
   62418    62405    62394    62390    62372    62367    62395    62426 
   62428    62399    62367    62365    62388    62395    62382    62378 
   62375    62364    62378    62417    62437    62409    62357    62337 
   62365    62401    62413    62422    62429    62413    62388    62383 
   62382    62365    62334    62325    62378    62452    62463    62411 
   62379    62395    62411    62399    62383    62372    62375    62390 
   62397    62405    62428    62421    62361    62326    62368    62419 
   62418    62398    62398    62403    62395    62367    62345    62363 
   62395    62382    62340    62347    62418    62469    62430    62352 
   62337    62388    62436    62433    62392    62371    62399    62430 
   62410    62372    62372    62387    62374    62344    62349    62403 
   62438    62406    62357    62364    62411    62424    62380    62357 
   62388    62413    62401    62391    62413    62434    62409    62348 
   62328    62370    62424    62434    62403    62380    62386    62387 
   62380    62383    62395    62418    62438    62428    62399    62390 
   62388    62356    62314    62329    62391    62430    62413    62370 
   62363    62397    62417    62406    62392    62391    62390    62387 
   62386    62388    62390    62383    62383    62395    62397    62379 
   62365    62380    62415    62430    62414    62392    62379    62372 
   62374    62372    62374    62397    62426    62429    62405    62371 
   62361    62370    62357    62357    62411    62464    62444    62379 
   62349    62365    62388    62392    62392    62414    62434    62406 
   62353    62334    62352    62388    62422    62422    62401    62403 
   62428    62430    62387    62341    62347    62406    62441    62403 
   62351    62345    62361    62368    62376    62395    62421    62430 
   62422    62403    62391    62402    62409    62384    62367    62371 
   62382    62391    62390    62379    62383    62401    62403    62382 
   62364    62386    62425    62425    62386    62370    62399    62430 
   62421    62388    62372    62382    62405    62410    62388    62378 
   62388    62390    62374    62361    62370    62388    62398    62397 
   62407    62424    62415    62392    62371    62356    62363    62399 
   62433    62434    62407    62379    62359    62349    62365    62392 
   62407    62417    62425    62424    62411    62378    62347    62351 
   62376    62394    62398    62401    62411    62422    62418    62399 
   62383    62388    62399    62387    62356    62340    62352    62378 
   62392    62384    62365    62368    62401    62432    62444    62437 
   62419    62399    62383    62378    62376    62364    62355    62378 
   62409    62409    62401    62407    62407    62386    62351    62340 
   62378    62424    62419    62387    62378    62388    62392    62388 
   62394    62405    62406    62398    62392    62398    62407    62395 
   62371    62371    62397    62415    62410    62391    62383    62386 
   62380    62371    62376    62403    62418    62402    62383    62380 
   62368    62343    62336    62364    62409    62438    62434    62411 
   62399    62413    62415    62391    62379    62394    62397    62386 
   62380    62367    62353    62370    62402    62414    62415    62422 
   62428    62413    62371    62344    62372    62410    62402    62360 
   62337    62357    62392    62397    62386    62414    62441    62411 
   62371    62374    62398    62403    62391    62391    62406    62411 
   62397    62375    62363    62372    62391    62409    62415    62402 
   62380    62374    62387    62407    62407    62386    62375    62384 
   62392    62392    62394    62402    62407    62399    62380    62371 
   62386    62401    62387    62376    62395    62415    62405    62372 
   62353    62370    62398    62405    62402    62413    62425    62414 
   62386    62365    62367    62364    62340    62321    62313    62295 
   62295    62351    62438    62514    62559    62598    62648    62665 
   62588    62436    62279    62147    62058    62046    62122    62260 
   62406    62507    62542    62517    62448    62360    62298    62305 
   62376    62456    62506    62529    62540    62505    62395    62267 
   62213    62241    62295    62332    62371    62424    62460    62473 
   62484    62490    62492    62490    62473    62453    62402    62297 
   62203    62206    62306    62421    62468    62453    62432    62418 
   62397    62364    62332    62316    62303    62299    62356    62482 
   62580    62559    62440    62336    62313    62344    62368    62383 
   62432    62483    62429    62282    62190    62240    62379    62509 
   62591    62645    62679    62671    62596    62456    62283    62135 
   62052    62062    62140    62233    62314    62401    62494    62545 
   62507    62402    62325    62363    62513    62662    62689    62588 
   62444    62284    62109    62002    62067    62257    62390    62371 
   62294    62311    62461    62641    62730    62698    62592    62478 
   62405    62391    62378    62290    62170    62141    62232    62351 
   62399    62375    62368    62379    62303    62178    62167    62332 
   62545    62621    62552    62498    62529    62561    62521    62438 
   62383    62363    62324    62229    62140    62167    62298    62419 
   62482    62496    62487    62484    62479    62445    62382    62309 
   62249    62210    62206    62271    62394    62521    62617    62653 
   62610    62500    62363    62271    62275    62325    62357    62387 
   62444    62505    62505    62430    62333    62274    62279    62344 
   62446    62507    62468    62365    62270    62235    62294    62399 
   62469    62480    62442    62390    62357    62352    62356    62353 
   62349    62349    62363    62415    62487    62513    62479    62438 
   62426    62421    62388    62361    62405    62472    62442    62324 
   62239    62264    62379    62467    62452    62406    62407    62434 
   62428    62379    62349    62368    62374    62322    62260    62260 
   62330    62384    62387    62406    62463    62478    62388    62286 
   62307    62430    62507    62482    62428    62418    62432    62386 
   62280    62235    62316    62444    62500    62479    62444    62424 
   62409    62387    62378    62388    62392    62367    62329    62311 
   62333    62372    62394    62407    62415    62399    62375    62370 
   62348    62295    62279    62355    62446    62455    62422    62441 
   62515    62549    62457    62317    62306    62442    62553    62506 
   62367    62294    62320    62353    62337    62305    62310    62345 
   62367    62376    62415    62487    62523    62467    62371    62334 
   62364    62390    62391    62401    62428    62438    62403    62341 
   62311    62338    62398    62442    62437    62392    62361    62378 
   62399    62364    62314    62340    62433    62503    62503    62452 
   62375    62318    62317    62351    62383    62410    62417    62395 
   62384    62406    62437    62442    62410    62367    62357    62398 
   62457    62483    62465    62433    62376    62303    62268    62291 
   62337    62371    62372    62365    62376    62370    62328    62320 
   62387    62476    62515    62492    62440    62388    62345    62320 
   62334    62410    62498    62526    62484    62418    62353    62302 
   62290    62313    62347    62403    62464    62459    62387    62322 
   62307    62337    62371    62390    62407    62407    62380    62367 
   62388    62425    62451    62448    62424    62433    62484    62507 
   62445    62363    62341    62360    62372    62372    62374    62372 
   62355    62325    62318    62352    62409    62445    62437    62399 
   62370    62379    62414    62410    62349    62305    62317    62344 
   62355    62368    62410    62468    62479    62421    62375    62401 
   62437    62411    62355    62345    62397    62449    62446    62401 
   62360    62348    62360    62394    62429    62440    62413    62370 
   62351    62371    62397    62386    62355    62344    62359    62374 
   62374    62371    62374    62372    62370    62384    62422    62460 
   62468    62452    62421    62378    62345    62349    62390    62433 
   62433    62402    62394    62418    62426    62395    62349    62325 
   62349    62399    62411    62380    62340    62316    62321    62356 
   62399    62430    62448    62460    62468    62459    62410    62347 
   62317    62337    62372    62394    62403    62413    62415    62403 
   62390    62391    62384    62344    62310    62336    62399    62433 
   62410    62364    62359    62405    62451    62465    62453    62425 
   62380    62345    62345    62380    62421    62437    62422    62391 
   62363    62353    62360    62370    62378    62375    62359    62348 
   62351    62361    62375    62375    62367    62370    62374    62368 
   62372    62399    62448    62476    62456    62429    62426    62422 
   62394    62360    62365    62419    62459    62437    62410    62421 
   62426    62399    62367    62360    62375    62379    62363    62357 
   62361    62361    62359    62368    62402    62434    62429    62402 
   62388    62386    62383    62386    62401    62428    62437    62419 
   62405    62405    62401    62383    62361    62356    62378    62402 
   62398    62387    62397    62409    62397    62375    62360    62364 
   62382    62383    62374    62374    62372    62364    62363    62368 
   62372    62365    62365    62394    62428    62426    62394    62365 
   62370    62394    62402    62378    62359    62388    62441    62460 
   62437    62399    62372    62380    62409    62428    62438    62442 
   62429    62402    62395    62406    62392    62357    62341    62359 
   62388    62409    62421    62425    62425    62410    62374    62337 
   62337    62355    62357    62356    62374    62402    62429    62445 
   62444    62419    62372    62326    62324    62375    62433    62452 
   62430    62397    62380    62372    62357    62355    62376    62403 
   62413    62402    62383    62378    62383    62382    62383    62399 
   62415    62422    62409    62386    62364    62356    62374    62409 
   62436    62429    62397    62378    62387    62394    62380    62367 
   62371    62384    62376    62359    62368    62387    62375    62355 
   62363    62397    62425    62424    62403    62394    62405    62411 
   62402    62391    62390    62399    62414    62430    62438    62429 
   62394    62349    62320    62325    62353    62388    62418    62432 
   62434    62422    62397    62376    62370    62380    62401    62418 
   62415    62383    62341    62332    62356    62378    62382    62384 
   62402    62425    62428    62406    62379    62370    62376    62378 
