Origin Time       2025/03/30 10:46:00
Lat.              32.923
Long.             130.372
Depth. (km)       11
Mag.              3.4
Station Code      KMMH14
Station Lat.      32.6345
Station Long.     130.7521
Station Height(m) -40
Record Time       2025/03/30 10:46:35
Sampling Freq(Hz) 100Hz
Duration Time(s)  120
Dir.              3
Scale Factor      2942(gal)/8224139
Max. Acc. (gal)   0.104
Last Correction   2025/03/30 10:46:36
Memo.             
[...]
  -11497   -11495   -11492   -11497   -11499   -11496   -11495   -11495 
  -11496   -11496   -11496   -11497   -11497   -11496   -11495   -11495 
  -11495   -11495   -11496   -11499   -11497   -11497   -11497   -11496 
  -11496   -11497   -11497   -11495   -11495   -11496   -11496   -11496 
  -11495   -11493   -11496   -11497   -11497   -11496   -11497   -11497 
  -11497   -11497   -11496   -11497   -11500   -11497   -11495   -11495 
  -11497   -11500   -11499   -11496   -11499   -11499   -11496   -11496 
  -11497   -11496   -11496   -11497   -11497   -11499   -11500   -11499 
  -11497   -11497   -11500   -11499   -11496   -11497   -11500   -11499 
  -11497   -11495   -11496   -11497   -11497   -11497   -11496   -11496 
  -11496   -11496   -11496   -11497   -11497   -11497   -11499   -11499 
  -11496   -11495   -11497   -11497   -11496   -11497   -11497   -11495 
  -11495   -11499   -11499   -11497   -11499   -11497   -11497   -11495 
  -11495   -11495   -11495   -11497   -11499   -11497   -11497   -11499 
  -11499   -11497   -11497   -11496   -11496   -11497   -11497   -11496 
  -11496   -11497   -11499   -11497   -11495   -11493   -11493   -11496 
  -11497   -11497   -11497   -11496   -11496   -11496   -11497   -11497 
  -11496   -11497   -11497   -11495   -11495   -11495   -11495   -11495 
  -11496   -11496   -11496   -11496   -11497   -11500   -11500   -11497 
  -11497   -11499   -11497   -11497   -11499   -11499   -11497   -11499 
  -11499   -11496   -11496   -11500   -11499   -11496   -11497   -11499 
  -11497   -11497   -11496   -11496   -11497   -11499   -11499   -11497 
  -11499   -11499   -11496   -11497   -11497   -11497   -11499   -11499 
  -11496   -11496   -11496   -11495   -11496   -11499   -11497   -11495 
  -11496   -11497   -11497   -11496   -11497   -11496   -11493   -11495 
  -11497   -11497   -11496   -11496   -11495   -11496   -11497   -11496 
  -11495   -11497   -11499   -11497   -11497   -11497   -11493   -11495 
  -11496   -11495   -11495   -11497   -11497   -11496   -11495   -11496 
  -11497   -11496   -11495   -11493   -11497   -11500   -11497   -11496 
  -11499   -11497   -11495   -11496   -11497   -11496   -11497   -11496 
  -11495   -11496   -11496   -11495   -11496   -11497   -11495   -11495 
  -11499   -11502   -11497   -11493   -11497   -11502   -11496   -11495 
  -11499   -11499   -11500   -11500   -11499   -11499   -11500   -11497 
  -11497   -11499   -11499   -11497   -11497   -11497   -11499   -11497 
  -11496   -11497   -11496   -11495   -11499   -11502   -11497   -11496 
  -11497   -11496   -11495   -11496   -11496   -11495   -11496   -11497 
  -11499   -11496   -11497   -11497   -11496   -11497   -11500   -11499 
  -11496   -11496   -11495   -11495   -11497   -11499   -11496   -11496 
  -11495   -11495   -11497   -11497   -11497   -11497   -11497   -11497 
  -11497   -11497   -11499   -11496   -11495   -11497   -11499   -11495 
  -11495   -11497   -11497   -11497   -11496   -11496   -11496   -11496 
  -11496   -11499   -11499   -11497   -11497   -11496   -11496   -11496 
  -11496   -11497   -11497   -11496   -11497   -11499   -11499   -11499 
  -11497   -11497   -11497   -11493   -11495   -11496   -11496   -11496 
  -11496   -11495   -11499   -11502   -11495   -11493   -11497   -11497 
  -11497   -11500   -11499   -11496   -11497   -11497   -11497   -11499 
  -11499   -11497   -11497   -11497   -11493   -11495   -11499   -11499 
  -11496   -11496   -11496   -11495   -11496   -11497   -11497   -11496 
  -11496   -11495   -11496   -11497   -11496   -11495   -11497   -11500 
  -11499   -11495   -11495   -11499   -11499   -11495   -11495   -11497 
  -11497   -11497   -11497   -11497   -11496   -11495   -11496   -11499 
  -11500   -11497   -11495   -11496   -11496   -11495   -11495   -11495 
  -11497   -11499   -11499   -11496   -11495   -11496   -11496   -11497 
  -11499   -11497   -11495   -11496   -11496   -11495   -11493   -11496 
  -11497   -11496   -11495   -11497   -11499   -11499   -11499   -11497 
  -11499   -11497   -11493   -11493   -11496   -11496   -11496   -11497 
  -11497   -11500   -11502   -11496   -11495   -11497   -11499   -11496 
  -11496   -11497   -11499   -11499   -11496   -11496   -11496   -11497 
  -11499   -11496   -11495   -11496   -11497   -11497   -11496   -11497 
  -11499   -11497   -11497   -11497   -11496   -11497   -11497   -11496 
  -11496   -11497   -11496   -11493   -11493   -11497   -11499   -11496 
  -11497   -11499   -11497   -11497   -11499   -11499   -11499   -11499 
  -11499   -11499   -11499   -11499   -11497   -11497   -11497   -11497 
  -11496   -11496   -11495   -11497   -11502   -11500   -11497   -11497 
  -11499   -11497   -11496   -11497   -11499   -11497   -11496   -11497 
  -11500   -11499   -11497   -11497   -11496   -11496   -11497   -11496 
  -11495   -11495   -11495   -11496   -11499   -11497   -11496   -11496 
  -11497   -11500   -11497   -11495   -11496   -11497   -11497   -11500 
  -11499   -11495   -11495   -11496   -11496   -11497   -11495   -11495 
  -11499   -11500   -11499   -11496   -11495   -11496   -11500   -11500 
  -11499   -11497   -11496   -11495   -11496   -11496   -11495   -11496 
  -11499   -11496   -11496   -11499   -11496   -11495   -11499   -11500 
  -11497   -11496   -11499   -11499   -11497   -11499   -11499   -11497 
  -11500   -11500   -11499   -11499   -11499   -11497   -11497   -11499 
  -11497   -11495   -11495   -11496   -11496   -11497   -11500   -11499 
  -11499   -11497   -11495   -11496   -11499   -11497   -11497   -11499 
  -11500   -11500   -11500   -11499   -11496   -11495   -11497   -11497 
  -11495   -11493   -11495   -11495   -11496   -11497   -11493   -11493 
  -11496   -11497   -11495   -11495   -11497   -11496   -11495   -11493 
  -11495   -11496   -11495   -11497   -11499   -11497   -11497   -11499 
  -11496   -11496   -11497   -11497   -11496   -11495   -11495   -11496 
  -11497   -11500   -11499   -11497   -11499   -11500   -11497   -11495 
  -11496   -11497   -11495   -11497   -11500   -11499   -11496   -11497 
  -11497   -11497   -11499   -11499   -11497   -11497   -11497   -11495 
  -11493   -11497   -11496   -11493   -11496   -11497   -11495   -11495 
  -11499   -11496   -11495   -11496   -11497   -11499   -11497   -11497 
  -11497   -11496   -11495   -11496   -11497   -11497   -11497   -11497 
  -11497   -11496   -11495   -11499   -11499   -11497   -11499   -11499 
  -11497   -11497   -11496   -11496   -11496   -11496   -11497   -11499 
  -11497   -11495   -11496   -11499   -11499   -11499   -11499   -11497 
  -11497   -11499   -11499   -11499   -11497   -11497   -11497   -11497 
  -11499   -11499   -11496   -11496   -11496   -11495   -11497   -11496 
  -11491   -11491   -11493   -11495   -11496   -11497   -11497   -11496 
  -11495   -11496   -11497   -11493   -11493   -11499   -11500   -11499 
  -11500   -11497   -11497   -11497   -11496   -11495   -11496   -11497 
  -11500   -11502   -11500   -11497   -11496   -11496   -11497   -11497 
  -11497   -11499   -11499   -11497   -11499   -11499   -11496   -11496 
  -11497   -11499   -11500   -11499   -11497   -11497   -11493   -11496 
  -11502   -11497   -11495   -11497   -11497   -11497   -11497   -11497 
  -11496   -11496   -11499   -11499   -11497   -11496   -11495   -11495 
  -11496   -11496   -11496   -11496   -11496   -11495   -11495   -11495 
  -11493   -11493   -11489   -11487   -11488   -11489   -11491   -11491 
  -11492   -11491   -11489   -11487   -11487   -11489   -11500   -11516 
  -11530   -11543   -11558   -11558   -11535   -11499   -11469   -11460 
  -11465   -11476   -11493   -11520   -11543   -11543   -11507   -11460 
  -11446   -11468   -11493   -11506   -11502   -11487   -11470   -11461 
  -11458   -11466   -11495   -11530   -11547   -11545   -11531   -11510 
  -11504   -11519   -11520   -11495   -11462   -11443   -11450   -11475 
  -11495   -11511   -11522   -11519   -11515   -11516   -11512   -11504 
  -11491   -11469   -11453   -11441   -11430   -11458   -11516   -11533 
  -11504   -11499   -11534   -11560   -11551   -11529   -11497   -11480 
  -11491   -11495   -11495   -11519   -11510   -11445   -11402   -11400 
  -11419   -11485   -11583   -11618   -11593   -11584   -11553   -11479 
  -11426   -11408   -11414   -11439   -11483   -11542   -11587   -11565 
  -11510   -11495   -11499   -11485   -11468   -11439   -11434   -11480 
  -11514   -11535   -11574   -11568   -11507   -11452   -11403   -11394 
  -11473   -11554   -11578   -11581   -11530   -11484   -11524   -11506 
  -11388   -11335   -11362   -11435   -11556   -11591   -11549   -11592 
  -11605   -11523   -11488   -11470   -11430   -11433   -11458   -11514 
  -11564   -11516   -11469   -11508   -11534   -11506   -11493   -11484 
  -11457   -11475   -11520   -11546   -11565   -11535   -11445   -11400 
  -11449   -11518   -11515   -11464   -11468   -11515   -11504   -11461 
  -11480   -11526   -11535   -11539   -11554   -11546   -11492   -11423 
  -11400   -11423   -11480   -11578   -11620   -11561   -11504   -11460 
  -11361   -11310   -11407   -11526   -11578   -11607   -11570   -11496 
  -11468   -11476   -11512   -11515   -11458   -11464   -11520   -11546 
  -11565   -11546   -11499   -11499   -11527   -11561   -11565   -11481 
  -11404   -11430   -11470   -11477   -11518   -11539   -11485   -11457 
  -11502   -11533   -11518   -11489   -11485   -11511   -11476   -11392 
  -11416   -11502   -11515   -11518   -11539   -11529   -11499   -11456 
  -11430   -11449   -11452   -11481   -11569   -11570   -11523   -11539 
  -11546   -11516   -11462   -11391   -11412   -11510   -11562   -11596 
  -11603   -11522   -11454   -11453   -11443   -11438   -11450   -11457 
  -11491   -11534   -11526   -11475   -11457   -11522   -11570   -11526 
  -11492   -11514   -11507   -11466   -11437   -11437   -11473   -11542 
  -11601   -11615   -11585   -11534   -11483   -11439   -11408   -11425 
  -11476   -11512   -11546   -11545   -11504   -11508   -11516   -11460 
  -11400   -11385   -11414   -11460   -11470   -11488   -11564   -11601 
  -11524   -11431   -11448   -11520   -11531   -11515   -11522   -11538 
  -11577   -11599   -11546   -11499   -11496   -11458   -11435   -11479 
  -11500   -11477   -11464   -11457   -11439   -11439   -11500   -11572 
  -11566   -11515   -11489   -11499   -11499   -11465   -11433   -11450 
  -11515   -11572   -11561   -11511   -11502   -11527   -11524   -11481 
  -11454   -11487   -11530   -11497   -11416   -11392   -11426   -11457 
  -11481   -11488   -11484   -11520   -11551   -11547   -11554   -11550 
  -11518   -11500   -11512   -11543   -11566   -11570   -11529   -11434 
  -11380   -11411   -11462   -11518   -11568   -11576   -11562   -11539 
  -11500   -11487   -11499   -11460   -11407   -11408   -11423   -11453 
  -11487   -11462   -11442   -11503   -11573   -11580   -11538   -11512 
  -11519   -11500   -11464   -11484   -11542   -11535   -11489   -11495 
  -11504   -11503   -11515   -11480   -11423   -11422   -11456   -11499 
  -11533   -11522   -11511   -11535   -11520   -11476   -11504   -11524 
  -11450   -11402   -11431   -11469   -11508   -11526   -11491   -11491 
  -11530   -11511   -11480   -11483   -11485   -11495   -11522   -11569 
  -11622   -11620   -11535   -11446   -11407   -11400   -11454   -11539 
  -11562   -11573   -11593   -11531   -11442   -11411   -11377   -11368 
  -11423   -11453   -11466   -11524   -11558   -11570   -11601   -11570 
  -11500   -11485   -11492   -11487   -11460   -11425   -11456   -11535 
  -11553   -11510   -11468   -11430   -11416   -11452   -11519   -11581 
  -11599   -11588   -11574   -11524   -11446   -11430   -11487   -11511 
  -11461   -11441   -11499   -11533   -11499   -11477   -11470   -11435 
  -11427   -11466   -11495   -11485   -11470   -11475   -11503   -11519 
  -11492   -11479   -11504   -11543   -11562   -11558   -11574   -11574 
  -11522   -11507   -11533   -11507   -11445   -11438   -11499   -11524 
  -11511   -11508   -11497   -11483   -11462   -11406   -11360   -11389 
  -11477   -11572   -11628   -11631   -11596   -11516   -11406   -11372 
  -11443   -11520   -11570   -11597   -11574   -11527   -11485   -11427 
  -11353   -11290   -11306   -11434   -11584   -11646   -11614   -11547 
  -11484   -11443   -11452   -11484   -11516   -11570   -11628   -11634 
  -11583   -11534   -11500   -11448   -11394   -11388   -11421   -11439 
  -11445   -11489   -11562   -11574   -11524   -11483   -11468   -11477 
  -11493   -11481   -11460   -11472   -11507   -11496   -11441   -11439 
  -11530   -11618   -11605   -11524   -11469   -11466   -11514   -11576 
  -11589   -11551   -11503   -11446   -11410   -11394   -11375   -11419 
  -11481   -11453   -11466   -11570   -11601   -11558   -11527   -11516 
  -11504   -11475   -11466   -11526   -11569   -11506   -11443   -11454 
  -11456   -11475   -11488   -11433   -11414   -11458   -11487   -11522 
  -11534   -11499   -11508   -11570   -11614   -11619   -11610   -11564 
  -11446   -11321   -11280   -11321   -11408   -11511   -11574   -11603 
  -11623   -11604   -11565   -11539   -11533   -11496   -11419   -11423 
  -11520   -11561   -11531   -11504   -11485   -11457   -11411   -11400 
  -11469   -11566   -11646   -11691   -11651   -11556   -11487   -11460 
  -11445   -11396   -11307   -11283   -11394   -11526   -11568   -11542 
  -11484   -11399   -11341   -11362   -11426   -11502   -11601   -11638 
  -11574   -11537   -11551   -11520   -11442   -11427   -11507   -11584 
  -11618   -11639   -11676   -11719   -11681   -11518   -11349   -11283 
  -11300   -11303   -11227   -11207   -11338   -11484   -11583   -11659 
  -11692   -11703   -11716   -11726   -11750   -11747   -11678   -11574 
  -11468   -11362   -11295   -11269   -11259   -11264   -11267   -11267 
  -11338   -11425   -11438   -11475   -11580   -11659   -11680   -11627 
  -11508   -11462   -11547   -11637   -11657   -11634   -11572   -11470 
  -11404   -11434   -11508   -11523   -11442   -11353   -11335   -11322 
  -11299   -11356   -11449   -11520   -11611   -11705   -11758   -11738 
  -11601   -11437   -11394   -11412   -11371   -11364   -11484   -11581 
  -11615   -11686   -11699   -11569   -11422   -11349   -11388   -11504 
  -11546   -11507   -11524   -11560   -11526   -11480   -11476   -11477 
  -11439   -11376   -11325   -11318   -11400   -11547   -11607   -11527 
  -11484   -11535   -11522   -11431   -11407   -11479   -11556   -11564 
  -11569   -11638   -11677   -11657   -11643   -11560   -11392   -11349 
  -11422   -11415   -11364   -11394   -11461   -11502   -11523   -11569 
  -11646   -11643   -11522   -11439   -11479   -11518   -11466   -11406 
  -11403   -11415   -11456   -11542   -11573   -11519   -11470   -11449 
  -11412   -11385   -11415   -11496   -11564   -11593   -11607   -11558 
  -11457   -11388   -11349   -11330   -11371   -11461   -11565   -11631 
  -11628   -11595   -11589   -11593   -11543   -11495   -11553   -11622 
  -11588   -11533   -11500   -11456   -11435   -11466   -11497   -11491 
  -11462   -11443   -11464   -11485   -11450   -11411   -11433   -11472 
  -11479   -11457   -11430   -11429   -11466   -11531   -11573   -11587 
  -11612   -11622   -11595   -11560   -11489   -11407   -11411   -11460 
  -11465   -11452   -11462   -11487   -11506   -11533   -11546   -11516 
  -11518   -11596   -11639   -11573   -11503   -11543   -11607   -11539 
  -11419   -11394   -11427   -11414   -11341   -11280   -11304   -11416 
  -11574   -11693   -11691   -11592   -11500   -11454   -11406   -11387 
  -11476   -11622   -11686   -11603   -11464   -11396   -11371   -11345 
  -11361   -11392   -11399   -11408   -11412   -11418   -11496   -11627 
  -11686   -11661   -11624   -11578   -11524   -11468   -11399   -11423 
  -11565   -11635   -11591   -11535   -11491   -11449   -11433   -11445 
  -11484   -11527   -11554   -11561   -11519   -11458   -11460   -11475 
  -11443   -11449   -11524   -11577   -11569   -11538   -11515   -11506 
  -11475   -11442   -11468   -11485   -11418   -11354   -11385   -11452 
  -11470   -11468   -11488   -11518   -11547   -11557   -11533   -11507 
  -11497   -11499   -11516   -11522   -11520   -11551   -11561   -11508 
  -11483   -11499   -11464   -11395   -11377   -11434   -11504   -11518 
  -11507   -11520   -11512   -11475   -11438   -11407   -11392   -11407 
  -11487   -11620   -11713   -11734   -11735   -11707   -11634   -11570 
  -11514   -11434   -11384   -11399   -11429   -11434   -11430   -11438 
  -11443   -11429   -11423   -11446   -11480   -11503   -11507   -11499 
  -11499   -11512   -11520   -11506   -11475   -11443   -11442   -11493 
  -11553   -11551   -11502   -11468   -11466   -11479   -11497   -11514 
  -11515   -11503   -11500   -11508   -11484   -11427   -11414   -11479 
  -11554   -11592   -11599   -11589   -11549   -11469   -11408   -11402 
  -11408   -11415   -11457   -11512   -11550   -11587   -11616   -11591 
  -11534   -11508   -11502   -11495   -11499   -11526   -11596   -11653 
  -11619   -11545   -11493   -11449   -11416   -11402   -11389   -11380 
  -11357   -11342   -11373   -11402   -11396   -11394   -11427   -11481 
  -11526   -11551   -11568   -11570   -11560   -11549   -11551   -11554 
  -11545   -11537   -11541   -11519   -11461   -11445   -11499   -11533 
  -11523   -11518   -11507   -11493   -11503   -11512   -11511   -11524 
  -11543   -11530   -11496   -11504   -11542   -11556   -11534   -11475 
  -11431   -11452   -11476   -11476   -11500   -11524   -11510   -11476 
  -11456   -11462   -11483   -11470   -11445   -11454   -11485   -11530 
  -11578   -11570   -11514   -11454   -11402   -11369   -11372   -11410 
  -11469   -11516   -11538   -11561   -11569   -11535   -11483   -11449 
  -11449   -11483   -11550   -11622   -11650   -11628   -11572   -11497 
  -11457   -11460   -11462   -11456   -11465   -11488   -11503   -11496 
  -11475   -11456   -11448   -11460   -11496   -11518   -11488   -11446 
  -11449   -11491   -11524   -11524   -11483   -11441   -11465   -11516 
  -11514   -11484   -11470   -11461   -11469   -11504   -11530   -11537 
  -11534   -11526   -11524   -11524   -11510   -11485   -11466   -11476 
  -11499   -11503   -11512   -11554   -11589   -11585   -11568   -11556 
  -11518   -11462   -11445   -11480   -11519   -11516   -11484   -11473 
  -11475   -11460   -11457   -11484   -11518   -11535   -11554   -11569 
  -11530   -11462   -11460   -11493   -11484   -11452   -11449   -11469 
  -11480   -11472   -11461   -11439   -11435   -11472   -11489   -11481 
  -11487   -11481   -11465   -11476   -11493   -11502   -11518   -11533 
  -11534   -11541   -11560   -11588   -11604   -11588   -11557   -11519 
  -11485   -11477   -11466   -11445   -11445   -11466   -11485   -11492 
  -11491   -11499   -11507   -11492   -11468   -11473   -11483   -11472 
  -11483   -11504   -11499   -11497   -11508   -11510   -11520   -11524 
  -11484   -11425   -11399   -11414   -11449   -11488   -11526   -11535 
  -11503   -11469   -11472   -11508   -11547   -11553   -11531   -11519 
  -11516   -11512   -11500   -11491   -11499   -11510   -11507   -11516 
  -11518   -11497   -11496   -11511   -11520   -11530   -11527   -11520 
  -11520   -11510   -11502   -11499   -11479   -11470   -11479   -11460 
  -11437   -11475   -11530   -11537   -11524   -11534   -11531   -11502 
  -11476   -11462   -11441   -11423   -11427   -11441   -11439   -11430 
  -11435   -11453   -11470   -11489   -11510   -11541   -11564   -11551 
