Origin Time       2025/03/30 10:46:00
Lat.              32.923
Long.             130.372
Depth. (km)       11
Mag.              3.4
Station Code      KMMH03
Station Lat.      32.9984
Station Long.     130.8301
Station Height(m) 178
Record Time       2025/03/30 10:46:34
Sampling Freq(Hz) 100Hz
Duration Time(s)  120
Dir.              5
Scale Factor      7845(gal)/8223790
Max. Acc. (gal)   1.019
Last Correction   2025/03/30 10:46:34
Memo.             
[...]
    3186     3187     3186     3184     3184     3187     3188     3186 
    3186     3188     3188     3186     3180     3181     3187     3186 
    3181     3181     3186     3188     3187     3183     3184     3188 
    3187     3183     3186     3188     3186     3186     3188     3187 
    3184     3184     3186     3186     3186     3184     3181     3183 
    3186     3184     3180     3181     3187     3188     3186     3183 
    3183     3184     3184     3181     3184     3190     3190     3184 
    3181     3184     3184     3186     3188     3190     3188     3187 
    3186     3180     3180     3187     3187     3186     3186     3187 
    3187     3184     3180     3181     3184     3187     3190     3188 
    3184     3184     3186     3184     3184     3187     3186     3183 
    3181     3186     3188     3187     3184     3184     3186     3187 
    3186     3186     3186     3184     3184     3184     3186     3187 
    3186     3186     3186     3184     3184     3186     3184     3184 
    3186     3186     3186     3187     3186     3184     3181     3181 
    3181     3186     3187     3184     3184     3186     3184     3183 
    3183     3186     3184     3184     3186     3187     3187     3186 
    3183     3179     3179     3184     3187     3186     3181     3183 
    3187     3183     3181     3186     3183     3180     3181     3183 
    3183     3184     3187     3186     3184     3186     3187     3184 
    3181     3183     3186     3186     3183     3186     3188     3181 
    3179     3187     3188     3181     3180     3188     3190     3184 
    3183     3184     3183     3186     3190     3186     3181     3181 
    3180     3180     3186     3187     3190     3191     3184     3180 
    3181     3183     3183     3186     3188     3186     3181     3183 
    3186     3187     3184     3183     3184     3187     3187     3186 
    3183     3181     3183     3186     3184     3184     3190     3190 
    3181     3177     3183     3187     3184     3183     3186     3187 
    3186     3183     3184     3187     3186     3186     3187     3186 
    3187     3187     3183     3181     3183     3187     3187     3183 
    3184     3188     3184     3179     3186     3188     3183     3183 
    3186     3183     3181     3183     3184     3186     3188     3190 
    3187     3183     3184     3186     3184     3184     3186     3187 
    3187     3186     3183     3186     3186     3184     3183     3183 
    3183     3186     3187     3187     3190     3187     3180     3180 
    3187     3190     3187     3183     3181     3183     3184     3187 
    3187     3188     3187     3184     3181     3183     3188     3188 
    3187     3184     3183     3184     3184     3187     3188     3186 
    3183     3181     3183     3186     3187     3188     3190     3186 
    3180     3183     3186     3187     3190     3188     3183     3183 
    3184     3183     3184     3184     3183     3186     3187     3184 
    3184     3184     3183     3184     3186     3183     3183     3186 
    3184     3183     3186     3187     3186     3184     3184     3188 
    3190     3184     3180     3184     3186     3184     3187     3187 
    3187     3186     3181     3177     3181     3188     3188     3184 
    3183     3184     3183     3181     3184     3186     3187     3190 
    3187     3183     3186     3187     3184     3181     3183     3186 
    3184     3183     3184     3187     3186     3184     3184     3184 
    3186     3187     3184     3183     3183     3184     3186     3186 
    3187     3187     3184     3179     3179     3184     3187     3187 
    3190     3190     3184     3181     3183     3186     3186     3187 
    3190     3186     3181     3184     3184     3183     3184     3187 
    3186     3184     3186     3186     3186     3183     3179     3181 
    3188     3191     3191     3192     3188     3183     3179     3179 
    3181     3184     3186     3187     3187     3184     3184     3184 
    3181     3181     3184     3181     3181     3190     3192     3187 
    3186     3184     3183     3183     3184     3184     3184     3186 
    3183     3177     3181     3188     3186     3184     3186     3187 
    3187     3184     3179     3181     3188     3188     3186     3186 
    3186     3184     3181     3181     3186     3187     3186     3186 
    3184     3183     3184     3184     3183     3184     3186     3184 
    3181     3183     3186     3186     3187     3188     3187     3184 
    3181     3180     3180     3184     3190     3192     3190     3184 
    3183     3184     3183     3181     3186     3190     3190     3187 
    3186     3184     3183     3180     3181     3184     3186     3190 
    3188     3184     3181     3180     3179     3183     3190     3191 
    3187     3184     3183     3181     3184     3184     3183     3187 
    3190     3188     3186     3181     3181     3184     3181     3181 
    3188     3188     3183     3184     3187     3184     3183     3180 
    3179     3181     3187     3187     3186     3184     3184     3180 
    3177     3181     3188     3190     3187     3187     3186     3180 
    3179     3183     3187     3187     3186     3186     3184     3183 
    3181     3183     3184     3187     3187     3187     3184     3184 
    3187     3183     3179     3183     3187     3187     3186     3188 
    3187     3183     3181     3181     3183     3184     3186     3187 
    3187     3184     3184     3187     3188     3184     3181     3184 
    3183     3181     3186     3187     3186     3187     3184     3180 
    3181     3183     3183     3181     3184     3188     3188     3186 
    3190     3187     3180     3180     3187     3186     3181     3183 
    3184     3186     3183     3181     3187     3190     3188     3186 
    3181     3183     3187     3186     3183     3186     3190     3188 
    3184     3183     3183     3181     3180     3184     3187     3187 
    3186     3184     3186     3187     3186     3181     3183     3186 
    3186     3187     3187     3183     3181     3183     3183     3183 
    3186     3187     3186     3188     3190     3188     3187     3184 
    3186     3184     3181     3181     3186     3187     3186     3184 
    3183     3184     3188     3188     3184     3186     3187     3184 
    3184     3186     3183     3184     3188     3190     3188     3184 
    3183     3183     3184     3188     3190     3184     3181     3183 
    3183     3184     3188     3188     3187     3187     3188     3184 
    3180     3183     3184     3184     3184     3186     3186     3184 
    3183     3183     3183     3187     3188     3184     3181     3181 
    3183     3184     3187     3188     3188     3188     3186     3184 
    3184     3181     3183     3186     3187     3188     3186     3180 
    3181     3186     3186     3183     3186     3187     3184     3183 
    3184     3187     3186     3183     3179     3180     3187     3190 
    3188     3188     3184     3181     3183     3184     3184     3190 
    3190     3186     3186     3184     3180     3180     3186     3190 
    3190     3190     3188     3186     3184     3184     3184     3180 
    3184     3186     3183     3183     3188     3188     3186     3184 
    3186     3187     3184     3181     3183     3186     3186     3184 
    3183     3186     3188     3184     3180     3179     3183     3184 
    3187     3190     3188     3184     3184     3186     3186     3186 
    3188     3187     3181     3184     3190     3184     3179     3184 
    3188     3187     3186     3186     3183     3181     3184     3184 
    3177     3172     3167     3157     3154     3167     3180     3191 
    3198     3203     3199     3175     3141     3122     3129     3150 
    3179     3188     3157     3129     3187     3341     3518     3618 
    3527     3233     2920     2778     2808     2905     3019     3137 
    3272     3426     3493     3383     3203     3115     3144     3252 
    3368     3399     3304     3117     2893     2743     2793     3046 
    3365     3573     3573     3357     3025     2790     2810     3056 
    3357     3497     3343     3015     2840     2994     3333     3640 
    3728     3449     2943     2648     2808     3203     3507     3580 
    3385     2992     2660     2606     2799     3121     3476     3688 
    3622     3443     3392     3393     3271     3069     2926     2863 
    2874     2979     3142     3281     3280     3113     2957     2961 
    3122     3445     3775     3801     3489     3068     2731     2617 
    2809     3177     3408     3327     3105     3046     3292     3658 
    3785     3534     3119     2776     2538     2486     2766     3138 
    3233     3235     3485     3726     3618     3360     3177     3021 
    2901     2933     3206     3599     3673     3275     2893     2847 
    2884     2887     3026     3280     3526     3676     3543     3195 
    2972     2929     2949     3078     3267     3333     3288     3213 
    3144     3210     3399     3465     3303     3065     2933     2906 
    2880     2841     2832     2941     3227     3528     3624     3483 
    3276     3196     3234     3268     3280     3245     3123     2997 
    2965     3033     3122     3196     3256     3179     2978     2889 
    2997     3265     3612     3800     3765     3597     3202     2673 
    2477     2743     3095     3300     3434     3460     3307     3165 
    3136     3064     2991     3110     3337     3396     3240     3187 
    3337     3348     3106     2859     2745     2791     2987     3289 
    3596     3709     3608     3416     3130     2920     2987     3115 
    3067     2953     2959     3123     3335     3470     3497     3399 
    3200     3007     2895     2859     2855     2955     3213     3373 
    3307     3311     3435     3423     3360     3402     3380     3211 
    3017     2860     2820     2971     3165     3217     3156     3088 
    3102     3225     3325     3330     3331     3304     3207     3148 
    3168     3229     3319     3388     3338     3129     2898     2852 
    3001     3176     3267     3292     3238     3082     2983     3063 
    3249     3427     3450     3253     3033     3067     3338     3524 
    3442     3208     2930     2709     2733     3001     3280     3430 
    3450     3310     3072     2978     3123     3365     3549     3559 
    3338     2979     2756     2843     3052     3206     3308     3323 
    3308     3345     3316     3240     3245     3206     3003     2839 
    2913     3187     3460     3488     3245     3034     3071     3200 
    3233     3187     3111     3072     3114     3169     3215     3281 
    3306     3248     3127     2963     2887     3068     3396     3611 
    3595     3325     2909     2641     2714     3014     3329     3519 
    3493     3254     2987     2917     3111     3412     3551     3473 
    3327     3152     2979     2964     3122     3295     3350     3242 
    3082     3064     3186     3288     3322     3273     3071     2816 
    2737     2898     3146     3288     3277     3267     3387     3564 
    3654     3607     3376     2976     2654     2623     2849     3225 
    3512     3473     3213     2991     2953     3129     3318     3329 
    3249     3194     3167     3175     3214     3231     3233     3262 
    3203     3009     2943     3055     3090     3060     3176     3435 
    3618     3522     3231     2948     2779     2844     3150     3473 
    3592     3456     3188     3028     3064     3118     3075     3061 
    3107     3110     3153     3272     3342     3358     3325     3194 
    3083     3125     3221     3206     3094     3005     3022     3187 
    3333     3231     3057     3107     3234     3211     3140     3187 
    3334     3381     3207     2995     2957     3010     3048     3169 
    3397     3597     3667     3500     3107     2802     2844     3103 
    3334     3442     3354     3056     2779     2758     2941     3230 
    3564     3699     3511     3217     2994     2891     2959     3091 
    3123     3072     3079     3165     3269     3393     3465     3410 
    3322     3210     3046     2951     2983     3118     3299     3338 
    3171     3013     3030     3186     3366     3450     3361     3204 
    3122     3130     3217     3279     3105     2782     2740     3038 
    3285     3346     3379     3393     3329     3204     3073     3011 
    3069     3184     3284     3329     3221     3029     2994     3132 
    3308     3495     3555     3288     2883     2782     2960     3102 
    3210     3310     3252     3171     3294     3510     3572     3383 
    3067     2825     2729     2808     3092     3403     3458     3338 
    3329     3358     3213     3038     3041     3121     3225     3410 
    3558     3520     3299     2987     2775     2770     2843     2894 
    2980     3118     3253     3387     3514     3520     3370     3215 
    3169     3237     3384     3418     3195     2884     2683     2682 
    2936     3291     3468     3369     3076     2843     2934     3275 
    3584     3727     3697     3493     3184     2905     2717     2679 
    2899     3229     3376     3319     3191     3103     3190     3403 
    3526     3466     3276     2999     2728     2686     2979     3335 
    3435     3396     3516     3747     3770     3454     2978     2505 
    2164     2220     2698     3219     3497     3570     3611     3665 
    3622     3538     3612     3708     3523     3063     2592     2350 
    2322     2354     2538     3015     3612     4067     4253     4072 
    3593     3109     2782     2586     2604     2843     3017     3055 
    3169     3292     3299     3329     3384     3384     3420     3474 
    3434     3281     2972     2597     2482     2725     3060     3288 
    3460     3622     3711     3647     3384     3028     2755     2635 
    2768     3121     3356     3326     3176     3005     2975     3303 
    3794     4054     3950     3527     2976     2650     2660     2814 
    2956     3014     2948     2916     3078     3314     3514     3724 
    3832     3677     3379     3052     2705     2463     2388     2401 
    2620     3084     3481     3630     3628     3530     3404     3331 
    3261     3233     3337     3458     3511     3481     3252     2867 
    2624     2687     3044     3501     3708     3493     3024     2671 
    2744     3196     3732     4001     3713     2997     2384     2265 
    2616     3127     3464     3480     3283     3096     3040     3117 
    3302     3438     3407     3376     3438     3414     3250     3082 
    3013     3084     3198     3183     3044     2943     2933     2940 
    3034     3329     3541     3420     3285     3350     3334     3140 
    2995     2970     3001     3100     3242     3312     3246     3094 
    3028     3186     3400     3443     3389     3304     3106     2933 
    3005     3252     3462     3450     3157     2824     2710     2833 
    3090     3346     3468     3396     3196     3063     3144     3322 
    3372     3279     3149     3018     2937     2971     3040     3087 
    3215     3466     3696     3765     3673     3397     2947     2565 
    2511     2803     3298     3661     3561     3091     2651     2512 
    2781     3339     3748     3711     3443     3194     2984     2943 
    3125     3287     3303     3284     3225     3121     3118     3184 
    3168     3134     3192     3303     3389     3357     3180     2992 
    2921     3022     3299     3555     3527     3262     2986     2791 
    2790     3084     3478     3650     3524     3271     3061     2898 
    2779     2840     3067     3202     3173     3196     3318     3350 
    3257     3142     3021     2940     3003     3242     3616     3893 
    3771     3339     2945     2781     2852     3009     3003     2860 
    2825     2938     3150     3488     3750     3618     3207     2965 
    3067     3365     3711     3848     3510     2875     2428     2439 
    2805     3204     3356     3253     3096     3051     3198     3460 
    3554     3395     3179     3003     2936     3069     3258     3272 
    3110     3010     3156     3437     3659     3727     3539     3130 
    2724     2502     2523     2774     3204     3638     3769     3514 
    3134     2860     2762     2928     3325     3595     3472     3196 
    3044     3017     3096     3186     3172     3150     3190     3245 
    3395     3612     3632     3383     3067     2849     2829     2987 
    3125     3154     3160     3100     2988     3045     3248     3334 
    3307     3285     3257     3229     3242     3277     3279     3262 
    3271     3315     3392     3396     3252     3099     2994     2817 
    2633     2558     2581     2743     3053     3426     3743     3834 
    3642     3345     3132     3115     3280     3441     3478     3400 
    3187     2933     2835     2887     2961     3045     3132     3153 
    3171     3252     3299     3315     3348     3327     3292     3296 
    3254     3208     3241     3242     3142     3017     2917     2889 
    3009     3211     3304     3284     3287     3271     3164     3069 
    3071     3144     3268     3373     3376     3288     3164     3028 
    2890     2874     3123     3484     3676     3636     3400     3092 
    2957     3053     3192     3262     3254     3121     2897     2708 
    2601     2671     3040     3553     3889     3932     3715     3310 
    2967     2910     3018     3106     3191     3215     3087     2963 
    2995     3098     3167     3194     3142     3060     3099     3223 
    3248     3214     3267     3322     3276     3213     3192     3156 
    3127     3204     3307     3294     3252     3275     3257     3141 
    3045     3076     3215     3349     3375     3304     3250     3199 
    3034     2821     2758     2870     3030     3181     3300     3350 
    3341     3289     3230     3264     3383     3411     3284     3138 
    3105     3168     3265     3339     3294     3114     2930     2878 
    3010     3277     3534     3599     3368     2982     2705     2659 
    2809     3045     3241     3384     3499     3495     3356     3260 
    3262     3194     3032     2955     2984     3086     3294     3438 
    3339     3146     3030     3003     3086     3256     3391     3412 
    3315     3160     3092     3188     3323     3333     3206     3079 
    3053     3095     3119     3109     3084     3065     3036     2999 
    3080     3319     3524     3554     3433     3177     2875     2733 
    2884     3190     3381     3379     3308     3267     3245     3245 
    3277     3294     3229     3117     3055     3099     3237     3353 
    3302     3118     3019     3102     3234     3310     3294     3130 
    2910     2876     3087     3348     3499     3532     3437     3231 
    3034     2897     2836     2884     2955     2979     3034     3150 
    3244     3248     3214     3284     3443     3505     3462     3449 
    3407     3210     2987     2959     3090     3184     3195     3223 
    3273     3207     3038     2964     3046     3199     3334     3361 
    3258     3122     3040     3046     3137     3261     3339     3295 
    3137     3011     3033     3137     3188     3203     3276     3364 
    3353     3249     3134     3067     3056     3083     3149     3233 
    3246     3123     2957     2929     3106     3350     3507     3577 
