Origin Time       2025/03/30 10:46:00
Lat.              32.923
Long.             130.372
Depth. (km)       11
Mag.              3.4
Station Code      KMMH07
Station Lat.      32.6234
Station Long.     130.5584
Station Height(m) 22
Record Time       2025/03/30 10:46:32
Sampling Freq(Hz) 100Hz
Duration Time(s)  120
Dir.              6
Scale Factor      7845(gal)/8223790
Max. Acc. (gal)   1.287
Last Correction   2025/03/30 10:46:32
Memo.             
[...]
   -3874    -3877    -3878    -3879    -3881    -3878    -3873    -3874 
   -3883    -3881    -3871    -3881    -3882    -3871    -3877    -3885 
   -3875    -3869    -3877    -3881    -3878    -3878    -3877    -3871 
   -3877    -3885    -3882    -3873    -3870    -3878    -3883    -3879 
   -3879    -3878    -3871    -3875    -3886    -3881    -3871    -3874 
   -3877    -3877    -3877    -3877    -3878    -3879    -3873    -3870 
   -3883    -3889    -3871    -3866    -3879    -3882    -3874    -3871 
   -3878    -3882    -3878    -3874    -3877    -3877    -3878    -3879 
   -3877    -3875    -3877    -3883    -3879    -3867    -3874    -3885 
   -3882    -3877    -3875    -3875    -3878    -3882    -3881    -3875 
   -3874    -3877    -3877    -3875    -3875    -3879    -3882    -3875 
   -3870    -3873    -3878    -3883    -3882    -3875    -3879    -3879 
   -3871    -3879    -3882    -3869    -3879    -3892    -3870    -3865 
   -3886    -3889    -3875    -3874    -3873    -3875    -3883    -3882 
   -3874    -3870    -3874    -3881    -3885    -3874    -3867    -3883 
   -3889    -3873    -3871    -3878    -3878    -3881    -3881    -3875 
   -3874    -3878    -3878    -3874    -3875    -3879    -3875    -3871 
   -3877    -3879    -3877    -3877    -3878    -3877    -3875    -3878 
   -3878    -3873    -3874    -3877    -3878    -3879    -3875    -3874 
   -3881    -3878    -3875    -3879    -3881    -3875    -3874    -3879 
   -3874    -3874    -3883    -3877    -3873    -3885    -3878    -3869 
   -3873    -3875    -3881    -3888    -3877    -3863    -3871    -3886 
   -3885    -3874    -3870    -3875    -3879    -3881    -3875    -3870 
   -3875    -3885    -3883    -3873    -3869    -3875    -3881    -3879 
   -3878    -3877    -3875    -3881    -3885    -3877    -3875    -3878 
   -3874    -3877    -3885    -3879    -3873    -3874    -3875    -3877 
   -3888    -3883    -3866    -3865    -3879    -3888    -3883    -3870 
   -3869    -3886    -3886    -3874    -3874    -3875    -3875    -3886 
   -3883    -3865    -3871    -3885    -3877    -3878    -3883    -3875 
   -3873    -3881    -3881    -3875    -3870    -3874    -3885    -3878 
   -3866    -3881    -3892    -3878    -3870    -3878    -3882    -3875 
   -3877    -3882    -3873    -3873    -3883    -3877    -3873    -3878 
   -3873    -3875    -3882    -3875    -3873    -3877    -3878    -3882 
   -3878    -3865    -3873    -3894    -3883    -3862    -3873    -3888 
   -3882    -3877    -3878    -3878    -3878    -3879    -3874    -3875 
   -3881    -3882    -3882    -3870    -3862    -3886    -3892    -3863 
   -3862    -3881    -3886    -3881    -3869    -3870    -3885    -3882 
   -3875    -3875    -3870    -3871    -3882    -3883    -3873    -3867 
   -3879    -3882    -3870    -3869    -3877    -3885    -3883    -3870 
   -3869    -3883    -3886    -3873    -3867    -3875    -3886    -3882 
   -3870    -3873    -3879    -3883    -3888    -3878    -3862    -3871 
   -3885    -3881    -3875    -3878    -3874    -3873    -3882    -3885 
   -3878    -3870    -3873    -3888    -3882    -3874    -3885    -3874 
   -3861    -3883    -3896    -3875    -3866    -3874    -3885    -3889 
   -3873    -3865    -3882    -3879    -3874    -3888    -3882    -3867 
   -3869    -3878    -3886    -3883    -3871    -3871    -3877    -3877 
   -3882    -3888    -3875    -3867    -3881    -3892    -3879    -3867 
   -3871    -3879    -3886    -3885    -3870    -3866    -3879    -3882 
   -3885    -3883    -3867    -3874    -3890    -3874    -3878    -3888 
   -3867    -3867    -3890    -3885    -3870    -3874    -3878    -3874 
   -3881    -3892    -3873    -3859    -3879    -3890    -3879    -3871 
   -3870    -3878    -3885    -3881    -3878    -3873    -3873    -3888 
   -3890    -3877    -3863    -3871    -3896    -3879    -3855    -3885 
   -3893    -3863    -3869    -3882    -3877    -3881    -3877    -3870 
   -3879    -3877    -3871    -3885    -3886    -3866    -3862    -3889 
   -3896    -3867    -3861    -3882    -3888    -3877    -3874    -3874 
   -3873    -3879    -3889    -3883    -3877    -3869    -3863    -3888 
   -3902    -3870    -3862    -3883    -3879    -3879    -3885    -3867 
   -3867    -3882    -3883    -3881    -3881    -3875    -3866    -3870 
   -3892    -3893    -3862    -3854    -3889    -3901    -3869    -3861 
   -3886    -3885    -3870    -3874    -3883    -3881    -3869    -3873 
   -3889    -3883    -3874    -3875    -3867    -3865    -3894    -3900 
   -3858    -3850    -3888    -3901    -3878    -3866    -3874    -3878 
   -3881    -3892    -3885    -3865    -3869    -3885    -3882    -3881 
   -3882    -3871    -3867    -3883    -3898    -3885    -3855    -3852 
   -3886    -3908    -3889    -3861    -3859    -3875    -3896    -3902 
   -3871    -3851    -3875    -3892    -3888    -3886    -3869    -3855 
   -3882    -3905    -3881    -3859    -3874    -3878    -3871    -3888 
   -3896    -3875    -3859    -3869    -3886    -3892    -3879    -3863 
   -3869    -3888    -3892    -3879    -3862    -3865    -3886    -3886 
   -3870    -3870    -3878    -3875    -3877    -3883    -3879    -3870 
   -3873    -3874    -3883    -3896    -3867    -3847    -3885    -3905 
   -3879    -3866    -3871    -3877    -3882    -3883    -3877    -3870 
   -3875    -3879    -3871    -3875    -3889    -3878    -3870    -3879 
   -3886    -3883    -3873    -3869    -3879    -3882    -3883    -3881 
   -3865    -3869    -3890    -3888    -3874    -3870    -3867    -3877 
   -3897    -3890    -3856    -3855    -3893    -3901    -3878    -3870 
   -3871    -3870    -3879    -3889    -3879    -3869    -3870    -3874 
   -3885    -3898    -3890    -3855    -3847    -3883    -3910    -3896 
   -3856    -3843    -3879    -3909    -3892    -3873    -3867    -3859 
   -3877    -3905    -3885    -3855    -3866    -3879    -3886    -3890 
   -3874    -3865    -3874    -3885    -3893    -3886    -3859    -3862 
   -3886    -3890    -3883    -3875    -3862    -3871    -3892    -3886 
   -3874    -3873    -3866    -3874    -3894    -3889    -3875    -3870 
   -3865    -3875    -3894    -3893    -3873    -3859    -3870    -3894 
   -3900    -3875    -3854    -3870    -3896    -3892    -3878    -3871 
   -3861    -3879    -3908    -3883    -3852    -3871    -3888    -3889 
   -3886    -3869    -3863    -3879    -3886    -3888    -3879    -3867 
   -3870    -3885    -3888    -3877    -3877    -3878    -3871    -3877 
   -3883    -3886    -3881    -3866    -3867    -3886    -3890    -3883 
   -3865    -3855    -3881    -3904    -3892    -3863    -3856    -3878 
   -3894    -3888    -3869    -3863    -3882    -3889    -3878    -3873 
   -3875    -3879    -3885    -3883    -3873    -3870    -3881    -3881 
   -3870    -3877    -3893    -3877    -3851    -3874    -3901    -3885 
   -3866    -3865    -3877    -3893    -3881    -3858    -3874    -3893 
   -3874    -3874    -3890    -3874    -3863    -3886    -3888    -3874 
   -3879    -3881    -3875    -3877    -3877    -3882    -3885    -3873 
   -3870    -3881    -3889    -3881    -3862    -3869    -3888    -3886 
   -3875    -3875    -3871    -3870    -3878    -3889    -3886    -3871 
   -3867    -3878    -3879    -3878    -3882    -3877    -3875    -3881 
   -3881    -3877    -3871    -3878    -3885    -3879    -3878    -3879 
   -3873    -3871    -3885    -3885    -3869    -3871    -3883    -3881 
   -3878    -3885    -3881    -3869    -3877    -3893    -3883    -3871 
   -3875    -3878    -3882    -3886    -3874    -3871    -3883    -3885 
   -3882    -3878    -3873    -3882    -3882    -3871    -3881    -3886 
   -3873    -3874    -3882    -3879    -3878    -3881    -3879    -3877 
   -3875    -3879    -3889    -3882    -3859    -3871    -3904    -3889 
   -3861    -3871    -3883    -3883    -3883    -3877    -3871    -3873 
   -3885    -3894    -3878    -3862    -3874    -3886    -3881    -3879 
   -3879    -3871    -3873    -3883    -3892    -3886    -3874    -3869 
   -3877    -3885    -3893    -3885    -3865    -3870    -3886    -3883 
   -3874    -3870    -3875    -3882    -3882    -3881    -3881    -3874 
   -3873    -3881    -3879    -3875    -3879    -3877    -3873    -3882 
   -3886    -3874    -3871    -3881    -3879    -3873    -3875    -3878 
   -3871    -3874    -3892    -3886    -3862    -3867    -3892    -3889 
   -3869    -3871    -3882    -3878    -3875    -3885    -3885    -3875 
   -3871    -3875    -3881    -3881    -3877    -3874    -3873    -3866 
   -3854    -3848    -3847    -3838    -3839    -3865    -3882    -3882 
   -3896    -3910    -3908    -3919    -3931    -3905    -3875    -3892 
   -3944    -3970    -3939    -3882    -3828    -3777    -3771    -3847 
   -3946    -3971    -3900    -3813    -3788    -3846    -3974    -4090 
   -4128    -4036    -3740    -3361    -3264    -3581    -4048    -4365 
   -4382    -4125    -3755    -3458    -3493    -3881    -4149    -4032 
   -3817    -3739    -3808    -3966    -4062    -4045    -4002    -3915 
   -3736    -3589    -3690    -4018    -4213    -4037    -3721    -3599 
   -3730    -3979    -4141    -4079    -3874    -3657    -3588    -3802 
   -4032    -4012    -3902    -3792    -3726    -3819    -3969    -4116 
   -4118    -3811    -3605    -3734    -3886    -3960    -3950    -3920 
   -3969    -3852    -3662    -3712    -3859    -4024    -4121    -3944 
   -3805    -3925    -3991    -3927    -3901    -3886    -3807    -3639 
   -3543    -3740    -4027    -4106    -4047    -3931    -3843    -3882 
   -3920    -3852    -3766    -3717    -3731    -3882    -4018    -3943 
   -3854    -3890    -3958    -4002    -3948    -3856    -3757    -3640 
   -3819    -4201    -4210    -3858    -3609    -3670    -3901    -4056 
   -4085    -3910    -3553    -3566    -3958    -4037    -3881    -3859 
   -3816    -3766    -3890    -4045    -4033    -3896    -3811    -3854 
   -3875    -3823    -3870    -3927    -3856    -3943    -4137    -4045 
   -3807    -3685    -3677    -3781    -3889    -3890    -3878    -3974 
   -4082    -3978    -3766    -3663    -3642    -3751    -3936    -3937 
   -3866    -3935    -4056    -4037    -3825    -3709    -3775    -3842 
   -4037    -4174    -3867    -3522    -3603    -3983    -4248    -4071 
   -3811    -3813    -3809    -3808    -3979    -4036    -3802    -3620 
   -3796    -4008    -3889    -3758    -3923    -4041    -3905    -3798 
   -3771    -3730    -3871    -4078    -4029    -3973    -4083    -3947 
   -3588    -3549    -3789    -3977    -4048    -3956    -3785    -3688 
   -3716    -3913    -4066    -4089    -4141    -3929    -3523    -3542 
   -3775    -3808    -3991    -4361    -4233    -3504    -3119    -3681 
   -4457    -4564    -4110    -3586    -3322    -3565    -4137    -4357 
   -3962    -3584    -3669    -3900    -4013    -4039    -3946    -3838 
   -3894    -3950    -3789    -3554    -3603    -3952    -4078    -3889 
   -3859    -3998    -4024    -3940    -3901    -3979    -3977    -3784 
   -3618    -3589    -3726    -3962    -4020    -3936    -3933    -3900 
   -3811    -3897    -4121    -4074    -3647    -3389    -3618    -3920 
   -3994    -4020    -4126    -4174    -4028    -3831    -3697    -3636 
   -3879    -4247    -4082    -3519    -3360    -3797    -4294    -4384 
   -4039    -3562    -3500    -3896    -4006    -3719    -3620    -3744 
   -3951    -4120    -3987    -3831    -3948    -3983    -3713    -3573 
   -3913    -4209    -4043    -3909    -3912    -3689    -3516    -3707 
   -4091    -4294    -4048    -3784    -3812    -3759    -3661    -3820 
   -4122    -4321    -4097    -3443    -3164    -3672    -4253    -4407 
   -4087    -3511    -3466    -4079    -4468    -4214    -3747    -3416 
   -3210    -3397    -4018    -4398    -4266    -3871    -3549    -3700 
   -4156    -4293    -4032    -3762    -3639    -3597    -3792    -4221 
   -4213    -3613    -3354    -3796    -4294    -4334    -3923    -3480 
   -3481    -3874    -4243    -4359    -4166    -3689    -3312    -3511 
   -4020    -4132    -3863    -3748    -3865    -3987    -4040    -3910 
   -3676    -3832    -4284    -4143    -3449    -3329    -3828    -4008 
   -3913    -3943    -3904    -3774    -3705    -3793    -4072    -4310 
   -4315    -3982    -3485    -3489    -3910    -4091    -4033    -3727 
   -3303    -3515    -4240    -4554    -4264    -3697    -3157    -3215 
   -4091    -4838    -4556    -3744    -3370    -3484    -3639    -3970 
   -4450    -4275    -3465    -3167    -3630    -4090    -4274    -4148 
   -3642    -3404    -3925    -4441    -4222    -3724    -3537    -3635 
   -3955    -4325    -4225    -3726    -3569    -3811    -3942    -3905 
   -3807    -3677    -3659    -3740    -3852    -4005    -3977    -3838 
   -3998    -4163    -3946    -3811    -3959    -3927    -3719    -3769 
   -4102    -4251    -3883    -3402    -3348    -3685    -4205    -4496 
   -4124    -3615    -3589    -3699    -3846    -4229    -4294    -3796 
   -3443    -3577    -3866    -3978    -3915    -3908    -3937    -3842 
   -3731    -3758    -3873    -3898    -3811    -3850    -3969    -3858 
   -3705    -3834    -4074    -4267    -4302    -3958    -3599    -3773 
   -4078    -3987    -3898    -3950    -3688    -3420    -3605    -3770 
   -3519    -3434    -4110    -4904    -4868    -4175    -3403    -2948 
   -3294    -4276    -4892    -4379    -3136    -2575    -3366    -4487 
   -4853    -4449    -3839    -3507    -3605    -4068    -4375    -3947 
   -3312    -3281    -3709    -4164    -4271    -3744    -3013    -2918 
   -3734    -4820    -5227    -4644    -3663    -3204    -3630    -4368 
   -4584    -4087    -3354    -2952    -3218    -3951    -4419    -4266 
   -3808    -3427    -3412    -3673    -3720    -3639    -3820    -4163 
   -4509    -4621    -4294    -3805    -3531    -3584    -3771    -3964 
   -4164    -4170    -4121    -4333    -4326    -3542    -2559    -2540 
   -3599    -4590    -4622    -3966    -3564    -3828    -4216    -4145 
   -3654    -3298    -3537    -4141    -4608    -4534    -3867    -3366 
   -3520    -3831    -4054    -4212    -4075    -3681    -3342    -3358 
   -3685    -4008    -4330    -4496    -4185    -3807    -3827    -3909 
   -3731    -3672    -4002    -4089    -3518    -3231    -3804    -4324 
   -4336    -4139    -3585    -2960    -3238    -4291    -4743    -4232 
   -3802    -3762    -3611    -3431    -3489    -3684    -3910    -4251 
   -4671    -4639    -3977    -3520    -3727    -3897    -3589    -3350 
   -3572    -3856    -4012    -4352    -4642    -4283    -3611    -3356 
   -3339    -3341    -3831    -4630    -4692    -3906    -3376    -3690 
   -4202    -4140    -3696    -3457    -3388    -3399    -3773    -4256 
   -4372    -4325    -4310    -3943    -3323    -3272    -3793    -4110 
   -4121    -3963    -3523    -3275    -3843    -4608    -4442    -3678 
   -3492    -3908    -4174    -4109    -3952    -3775    -3557    -3561 
   -3947    -4060    -3596    -3483    -4068    -4599    -4544    -3883 
   -3198    -3177    -3711    -4244    -4452    -4301    -3931    -3526 
   -3250    -3310    -3763    -4236    -4353    -4229    -4006    -3759 
   -3593    -3342    -3229    -3827    -4484    -4299    -3970    -4010 
   -3890    -3740    -3904    -4212    -4537    -4480    -3788    -3191 
   -3342    -3873    -4075    -3738    -3262    -3267    -3986    -4839 
   -4807    -3808    -3055    -3194    -3510    -3720    -4199    -4540 
   -4255    -3753    -3546    -3771    -4272    -4494    -3955    -3227 
   -3214    -3693    -4090    -4253    -3989    -3535    -3542    -4006 
   -4417    -4341    -3843    -3549    -3643    -3758    -3866    -4025 
   -4113    -4160    -4136    -3908    -3565    -3349    -3434    -3800 
   -4207    -4387    -4256    -3954    -3686    -3545    -3612    -3847 
   -3962    -3981    -4093    -4039    -3762    -3716    -3933    -3936 
   -3721    -3650    -3654    -3757    -4191    -4391    -3839    -3307 
   -3433    -3807    -4135    -4307    -4106    -3850    -3935    -4044 
   -3794    -3512    -3744    -4237    -4345    -4091    -3820    -3666 
   -3647    -3657    -3713    -3850    -3866    -3793    -3823    -3893 
   -3979    -4001    -3807    -3635    -3817    -4318    -4657    -4297 
   -3541    -3253    -3553    -3855    -3920    -3893    -3740    -3483 
   -3489    -3881    -4218    -4271    -4226    -4054    -3704    -3551 
   -3763    -3967    -3997    -4126    -4249    -3987    -3661    -3662 
   -3751    -3812    -3937    -4054    -4005    -3763    -3670    -3890 
   -4094    -4078    -3902    -3692    -3589    -3591    -3619    -3743 
   -4013    -4232    -4155    -3843    -3623    -3632    -3736    -3933 
   -4206    -4153    -3689    -3527    -4018    -4455    -4290    -3885 
   -3697    -3761    -3850    -3851    -3855    -3763    -3505    -3470 
   -3866    -4337    -4440    -4017    -3414    -3253    -3770    -4456 
   -4608    -4091    -3379    -3186    -3744    -4329    -4159    -3542 
   -3389    -3865    -4344    -4386    -4001    -3489    -3253    -3480 
   -3966    -4268    -4264    -4240    -4124    -3730    -3534    -3890 
   -4251    -4085    -3596    -3289    -3503    -4089    -4460    -4243 
   -3686    -3345    -3516    -3970    -4149    -3859    -3532    -3582 
   -3955    -4276    -4263    -3943    -3524    -3361    -3670    -4141 
   -4391    -4334    -3994    -3703    -3816    -4047    -3985    -3693 
   -3420    -3433    -3827    -4278    -4361    -4105    -3825    -3653 
   -3708    -4025    -4218    -3991    -3607    -3569    -3927    -4137 
   -3846    -3385    -3369    -3913    -4375    -4233    -3759    -3426 
   -3470    -3890    -4261    -4225    -3960    -3739    -3689    -3831 
   -4045    -4156    -4008    -3751    -3774    -3991    -3954    -3740 
   -3811    -4085    -4117    -3906    -3735    -3646    -3694    -3960 
   -4170    -4033    -3701    -3508    -3597    -3777    -3846    -3916 
   -4032    -3971    -3767    -3817    -4168    -4334    -4055    -3655 
   -3527    -3672    -3901    -4144    -4270    -4008    -3515    -3410 
   -3788    -4036    -3940    -3890    -3908    -3850    -3908    -3977 
   -3840    -3835    -4078    -4112    -3761    -3422    -3520    -3966 
   -4280    -4217    -3854    -3526    -3667    -4136    -4302    -4041 
   -3732    -3578    -3603    -3802    -4043    -4152    -4120    -3973 
   -3703    -3465    -3516    -3869    -4216    -4213    -3813    -3397 
   -3387    -3778    -4243    -4422    -4131    -3627    -3524    -3909 
   -4124    -3932    -3851    -4000    -4006    -3916    -3939    -3909 
   -3765    -3767    -3862    -3796    -3696    -3778    -3933    -3929 
   -3838    -3881    -3985    -3942    -3820    -3835    -3967    -4029 
   -3932    -3765    -3697    -3765    -3937    -4128    -4086    -3809 
   -3650    -3828    -4058    -3950    -3688    -3604    -3678    -3931 
   -4229    -4182    -3834    -3623    -3742    -3929    -3998    -4017 
   -3897    -3667    -3653    -3834    -3970    -4075    -4132    -4012 
   -3758    -3582    -3721    -4078    -4203    -3946    -3649    -3638 
   -3874    -4074    -4066    -3923    -3763    -3659    -3716    -3909 
   -4001    -3909    -3755    -3651    -3670    -3807    -4021    -4193 
   -4074    -3763    -3728    -3990    -4090    -4005    -4009    -3944 
   -3730    -3701    -3852    -3846    -3701    -3734    -4002    -4151 
   -3985    -3821    -3797    -3792    -3910    -4027    -3889    -3755 
