Origin Time       2025/03/30 10:46:00
Lat.              32.923
Long.             130.372
Depth. (km)       11
Mag.              3.4
Station Code      KMMH18
Station Lat.      33.0031
Station Long.     131.0071
Station Height(m) 854.038
Record Time       2025/03/30 10:46:39
Sampling Freq(Hz) 100Hz
Duration Time(s)  120
Dir.              2
Scale Factor      3923(gal)/8224838
Max. Acc. (gal)   0.201
Last Correction   2025/03/30 10:46:38
Memo.             
[...]
   24688    24688    24690    24690    24687    24687    24688    24687 
   24686    24686    24686    24684    24686    24687    24684    24683 
   24687    24688    24687    24686    24684    24682    24686    24688 
   24687    24686    24687    24687    24688    24688    24686    24684 
   24686    24687    24688    24686    24686    24687    24686    24683 
   24686    24686    24683    24683    24684    24687    24686    24684 
   24687    24687    24686    24686    24684    24684    24687    24687 
   24687    24686    24686    24688    24687    24684    24687    24688 
   24684    24686    24688    24686    24684    24686    24686    24684 
   24684    24686    24686    24684    24684    24686    24686    24687 
   24686    24683    24686    24688    24687    24684    24686    24688 
   24687    24687    24687    24686    24683    24686    24687    24684 
   24682    24683    24686    24686    24684    24686    24687    24684 
   24683    24684    24683    24684    24688    24688    24684    24686 
   24688    24687    24686    24686    24687    24690    24688    24686 
   24686    24687    24687    24686    24684    24687    24686    24684 
   24686    24687    24686    24684    24686    24686    24684    24687 
   24688    24684    24684    24687    24686    24686    24684    24686 
   24692    24690    24684    24688    24691    24686    24684    24687 
   24686    24686    24690    24688    24686    24686    24686    24684 
   24687    24686    24683    24686    24688    24687    24686    24686 
   24687    24687    24686    24686    24686    24687    24688    24688 
   24686    24686    24687    24687    24686    24687    24686    24686 
   24688    24688    24686    24686    24686    24684    24687    24687 
   24686    24687    24687    24687    24686    24686    24687    24686 
   24684    24686    24686    24684    24687    24688    24687    24687 
   24688    24687    24683    24684    24686    24683    24683    24686 
   24684    24684    24687    24686    24684    24686    24687    24684 
   24683    24686    24688    24687    24686    24688    24688    24687 
   24684    24683    24683    24686    24686    24686    24686    24686 
   24686    24686    24687    24688    24688    24687    24686    24686 
   24686    24684    24687    24688    24687    24686    24686    24687 
   24687    24687    24684    24684    24687    24688    24688    24687 
   24688    24690    24688    24686    24686    24687    24688    24688 
   24687    24686    24687    24687    24687    24687    24687    24687 
   24687    24684    24684    24687    24686    24684    24686    24687 
   24684    24686    24688    24687    24684    24684    24686    24687 
   24684    24683    24686    24688    24687    24684    24686    24686 
   24686    24687    24687    24686    24687    24687    24687    24687 
   24683    24683    24687    24687    24687    24687    24687    24687 
   24687    24686    24686    24684    24686    24690    24690    24688 
   24688    24687    24687    24687    24687    24687    24687    24687 
   24688    24690    24687    24686    24684    24686    24687    24686 
   24686    24686    24687    24687    24686    24686    24686    24684 
   24684    24686    24687    24687    24687    24686    24684    24684 
   24684    24687    24688    24686    24684    24686    24687    24686 
   24686    24687    24687    24684    24684    24686    24687    24684 
   24683    24684    24686    24684    24684    24687    24687    24684 
   24686    24686    24684    24687    24687    24683    24684    24686 
   24687    24687    24687    24686    24683    24684    24688    24687 
   24682    24684    24687    24684    24682    24684    24686    24684 
   24686    24687    24686    24686    24684    24686    24687    24686 
   24686    24684    24686    24686    24686    24688    24687    24684 
   24684    24684    24684    24686    24687    24688    24686    24686 
   24686    24684    24683    24686    24687    24686    24686    24684 
   24683    24686    24688    24686    24683    24686    24686    24684 
   24686    24684    24683    24684    24686    24684    24684    24687 
   24688    24684    24686    24690    24690    24687    24686    24687 
   24686    24687    24687    24684    24684    24687    24686    24684 
   24687    24686    24683    24684    24686    24686    24686    24686 
   24684    24683    24683    24686    24688    24687    24684    24684 
   24686    24686    24688    24687    24686    24686    24687    24687 
   24686    24684    24686    24687    24686    24687    24687    24684 
   24683    24683    24684    24684    24684    24687    24686    24684 
   24686    24686    24684    24686    24686    24686    24686    24686 
   24687    24683    24683    24686    24684    24682    24687    24688 
   24687    24687    24687    24686    24687    24686    24684    24688 
   24687    24684    24688    24690    24684    24683    24686    24684 
   24684    24687    24684    24683    24687    24690    24686    24686 
   24686    24686    24687    24688    24688    24688    24687    24686 
   24686    24686    24686    24687    24688    24686    24683    24684 
   24686    24687    24688    24686    24687    24688    24687    24687 
   24690    24688    24688    24688    24686    24684    24687    24687 
   24687    24687    24686    24686    24684    24684    24684    24687 
   24688    24686    24686    24687    24686    24684    24686    24686 
   24687    24688    24687    24687    24686    24686    24687    24686 
   24684    24686    24687    24687    24686    24687    24688    24688 
   24687    24686    24687    24688    24686    24684    24686    24686 
   24687    24687    24686    24687    24687    24687    24688    24687 
   24686    24687    24688    24686    24686    24687    24687    24688 
   24686    24686    24686    24684    24684    24684    24683    24683 
   24678    24673    24676    24678    24675    24675    24675    24678 
   24682    24690    24694    24696    24692    24682    24673    24672 
   24679    24695    24710    24706    24684    24663    24661    24682 
   24705    24709    24699    24678    24660    24669    24700    24718 
   24699    24668    24668    24700    24737    24753    24741    24714 
   24703    24725    24761    24773    24740    24671    24594    24541 
   24544    24591    24632    24625    24588    24565    24595    24684 
   24808    24894    24884    24810    24754    24750    24772    24773 
   24719    24634    24574    24557    24564    24576    24602    24644 
   24683    24709    24722    24729    24740    24757    24756    24718 
   24672    24678    24738    24784    24754    24664    24571    24532 
   24561    24633    24691    24684    24640    24641    24698    24737 
   24736    24750    24792    24807    24763    24675    24584    24533 
   24541    24598    24672    24714    24700    24687    24718    24749 
   24753    24759    24765    24746    24706    24667    24646    24656 
   24673    24656    24610    24613    24691    24742    24695    24628 
   24592    24574    24607    24698    24769    24806    24819    24784 
   24729    24732    24775    24773    24691    24570    24493    24525 
   24621    24675    24664    24655    24663    24678    24717    24771 
   24822    24852    24814    24729    24661    24610    24588    24642 
   24710    24709    24664    24622    24605    24637    24691    24726 
   24752    24748    24690    24663    24710    24744    24725    24691 
   24649    24601    24579    24597    24633    24680    24733    24756 
   24732    24719    24734    24706    24659    24675    24713    24717 
   24736    24753    24687    24597    24594    24653    24705    24746 
   24753    24684    24609    24615    24669    24707    24736    24748 
   24695    24610    24584    24636    24713    24767    24784    24765 
   24715    24656    24609    24597    24637    24702    24744    24742 
   24698    24619    24559    24571    24630    24683    24730    24779 
   24790    24753    24713    24692    24691    24700    24703    24688 
   24669    24672    24684    24667    24634    24651    24699    24722 
   24738    24737    24679    24621    24638    24705    24765    24769 
   24703    24636    24628    24680    24738    24730    24657    24603 
   24597    24601    24625    24692    24756    24772    24749    24692 
   24641    24642    24676    24711    24736    24723    24680    24657 
   24653    24651    24667    24705    24734    24729    24699    24686 
   24688    24692    24709    24726    24700    24646    24632    24664 
   24700    24715    24688    24649    24671    24723    24719    24669 
   24618    24578    24576    24633    24714    24764    24769    24761 
   24764    24761    24727    24673    24638    24625    24629    24657 
   24671    24660    24690    24742    24736    24696    24692    24710 
   24696    24651    24618    24644    24711    24764    24763    24713 
   24667    24636    24606    24606    24668    24726    24703    24619 
   24549    24544    24628    24754    24833    24830    24784    24723 
   24673    24673    24707    24714    24713    24741    24744    24686 
   24637    24630    24634    24649    24695    24729    24707    24676 
   24682    24699    24687    24659    24646    24651    24664    24699 
   24736    24711    24645    24630    24687    24727    24711    24684 
   24667    24653    24673    24730    24756    24710    24648    24614 
   24588    24584    24625    24672    24695    24690    24661    24646 
   24672    24719    24776    24819    24815    24769    24723    24680 
   24634    24613    24628    24642    24652    24682    24696    24665 
   24651    24688    24725    24726    24732    24749    24746    24723 
   24699    24668    24638    24644    24691    24727    24725    24706 
   24679    24636    24615    24668    24727    24711    24673    24679 
   24692    24683    24668    24657    24638    24613    24606    24628 
   24651    24682    24730    24763    24763    24761    24763    24740 
   24700    24675    24682    24714    24736    24717    24649    24564 
   24536    24592    24671    24709    24718    24714    24700    24719 
   24779    24788    24717    24644    24621    24624    24644    24667 
   24657    24651    24682    24684    24630    24598    24621    24649 
   24671    24719    24775    24786    24783    24804    24813    24772 
   24711    24659    24613    24591    24606    24625    24629    24640 
   24684    24738    24763    24742    24705    24680    24655    24637 
   24656    24680    24687    24717    24736    24695    24651    24648 
   24668    24706    24745    24738    24682    24633    24648    24709 
   24745    24732    24690    24642    24609    24606    24630    24672 
   24703    24706    24717    24761    24802    24798    24741    24657 
   24590    24568    24609    24673    24695    24672    24642    24624 
   24645    24699    24722    24713    24714    24718    24700    24679 
   24673    24683    24711    24760    24784    24748    24675    24626 
   24621    24645    24676    24683    24671    24680    24706    24688 
   24649    24665    24717    24736    24730    24726    24713    24690 
   24668    24633    24597    24619    24709    24771    24750    24700 
   24655    24607    24606    24676    24733    24711    24665    24653 
   24668    24684    24692    24710    24750    24777    24749    24680 
   24625    24614    24646    24698    24740    24740    24688    24615 
   24586    24617    24668    24699    24710    24719    24713    24675 
   24645    24672    24711    24696    24657    24665    24730    24783 
   24779    24745    24711    24667    24629    24621    24634    24663 
   24702    24732    24741    24740    24719    24683    24665    24678 
   24669    24625    24597    24611    24645    24686    24710    24694 
   24675    24699    24726    24709    24680    24692    24721    24725 
   24721    24717    24695    24688    24713    24707    24653    24619 
   24632    24649    24668    24695    24694    24660    24649    24669 
   24679    24687    24710    24714    24706    24729    24746    24717 
   24679    24671    24667    24651    24653    24676    24682    24679 
   24703    24730    24729    24700    24663    24636    24644    24672 
   24676    24651    24634    24645    24665    24687    24710    24710 
   24683    24659    24671    24713    24729    24699    24673    24684 
   24706    24711    24705    24705    24705    24698    24695    24703 
   24719    24742    24756    24741    24707    24684    24660    24606 
   24559    24556    24592    24646    24696    24742    24777    24788 
   24780    24773    24771    24772    24768    24754    24736    24702 
   24661    24644    24652    24652    24629    24597    24556    24517 
   24501    24517    24565    24633    24692    24746    24804    24853 
   24889    24903    24856    24741    24625    24582    24599    24614 
   24622    24657    24694    24694    24664    24636    24634    24663 
   24703    24734    24763    24803    24826    24794    24738    24699 
   24642    24548    24491    24511    24543    24544    24553    24590 
   24629    24659    24684    24695    24698    24714    24741    24761 
   24775    24794    24811    24811    24787    24740    24682    24649 
   24657    24680    24706    24740    24780    24815    24817    24768 
   24711    24699    24706    24686    24648    24597    24516    24452 
   24478    24575    24680    24757    24761    24652    24487    24391 
   24464    24692    24950    25107    25104    24958    24761    24636 
   24629    24669    24659    24588    24524    24507    24528    24556 
   24595    24648    24698    24730    24729    24707    24745    24867 
   24970    24970    24862    24687    24541    24514    24553    24565 
   24537    24490    24436    24436    24540    24668    24736    24775 
   24846    24922    24956    24942    24891    24822    24786    24794 
   24786    24723    24636    24568    24529    24489    24428    24397 
   24439    24541    24673    24792    24837    24822    24790    24738 
   24683    24688    24763    24830    24814    24696    24522    24385 
   24399    24588    24819    24903    24813    24692    24659    24711 
   24806    24869    24834    24741    24688    24694    24705    24694 
   24665    24638    24656    24715    24711    24579    24436    24437 
   24567    24709    24783    24738    24602    24507    24543    24656 
   24764    24814    24787    24729    24679    24625    24576    24587 
   24688    24833    24930    24915    24803    24665    24580    24599 
   24713    24857    24935    24856    24638    24440    24393    24503 
   24683    24842    24926    24898    24769    24625    24537    24526 
   24574    24633    24653    24633    24624    24665    24717    24717 
   24694    24688    24673    24629    24601    24634    24713    24790 
   24829    24821    24781    24707    24591    24471    24420    24513 
   24744    24972    25050    24958    24783    24637    24564    24533 
   24524    24565    24646    24691    24675    24649    24657    24710 
   24788    24821    24763    24661    24583    24525    24456    24426 
   24506    24676    24853    24964    24981    24935    24860    24750 
   24630    24553    24545    24602    24686    24733    24719    24676 
   24655    24691    24760    24798    24791    24771    24723    24622 
   24530    24513    24541    24588    24656    24692    24634    24536 
   24536    24672    24853    24983    24992    24852    24653    24541 
   24536    24570    24603    24629    24655    24698    24737    24736 
   24696    24672    24710    24764    24745    24667    24611    24615 
   24660    24733    24831    24922    24912    24767    24595    24526 
   24560    24628    24655    24601    24520    24513    24595    24690 
   24738    24754    24768    24777    24769    24753    24750    24769 
   24800    24798    24709    24564    24440    24398    24470    24625 
   24784    24871    24838    24737    24661    24649    24680    24736 
   24807    24848    24780    24629    24525    24547    24632    24683 
   24679    24657    24661    24692    24709    24678    24617    24571 
   24568    24622    24732    24840    24873    24838    24783    24711 
   24615    24525    24471    24483    24568    24675    24757    24811 
   24840    24823    24759    24698    24698    24740    24777    24800 
   24779    24706    24648    24645    24664    24665    24628    24561 
   24513    24522    24578    24648    24715    24773    24817    24821 
   24775    24713    24684    24705    24767    24833    24846    24781 
   24678    24583    24524    24524    24579    24649    24676    24636 
   24571    24557    24614    24710    24788    24798    24737    24645 
   24588    24622    24721    24800    24806    24737    24649    24584 
   24526    24489    24533    24673    24823    24899    24888    24827 
   24752    24692    24660    24646    24656    24699    24759    24800 
   24779    24687    24575    24495    24480    24552    24683    24806 
   24860    24814    24703    24605    24579    24621    24664    24653 
   24609    24598    24652    24727    24783    24800    24776    24748 
   24744    24741    24699    24618    24557    24584    24703    24830 
   24877    24834    24745    24655    24590    24555    24529    24514 
   24559    24669    24779    24822    24807    24779    24761    24741 
   24692    24632    24592    24572    24565    24578    24611    24663 
   24714    24754    24764    24738    24699    24667    24641    24633 
   24659    24700    24738    24765    24773    24742    24656    24549 
   24505    24557    24671    24783    24841    24830    24780    24725 
   24691    24703    24754    24798    24787    24705    24590    24510 
   24506    24563    24645    24719    24779    24818    24791    24676 
   24544    24497    24557    24682    24799    24829    24753    24646 
   24580    24580    24642    24723    24776    24798    24806    24790 
   24740    24678    24638    24626    24624    24630    24669    24734 
   24784    24772    24684    24574    24505    24498    24541    24618 
   24702    24748    24736    24702    24675    24641    24621    24651 
   24717    24786    24826    24819    24786    24765    24760    24737 
   24705    24717    24773    24796    24746    24659    24591    24590 
   24656    24744    24781    24730    24618    24513    24455    24447 
   24480    24548    24638    24741    24840    24898    24891    24841 
   24767    24684    24642    24675    24740    24779    24772    24722 
   24661    24633    24642    24668    24683    24678    24656    24614 
   24568    24551    24582    24655    24729    24772    24777    24749 
   24692    24628    24606    24648    24702    24710    24684    24663 
   24665    24709    24783    24827    24798    24726    24669    24640 
   24632    24646    24680    24721    24740    24710    24638    24564 
   24532    24560    24630    24707    24765    24787    24767    24725 
   24698    24698    24703    24692    24667    24651    24655    24659 
   24641    24611    24605    24653    24741    24814    24835    24810 
   24752    24676    24619    24621    24676    24732    24742    24709 
   24652    24586    24543    24545    24588    24664    24746    24787 
   24775    24741    24719    24719    24733    24741    24738    24734 
