Origin Time       2025/03/30 10:46:00
Lat.              32.923
Long.             130.372
Depth. (km)       11
Mag.              3.4
Station Code      KMMH10
Station Lat.      32.3151
Station Long.     130.1811
Station Height(m) 158
Record Time       2025/03/30 10:46:41
Sampling Freq(Hz) 100Hz
Duration Time(s)  120
Dir.              6
Scale Factor      7845(gal)/8223790
Max. Acc. (gal)   0.531
Last Correction   2025/03/30 10:46:41
Memo.             
  -26789   -26794   -26792   -26789   -26794   -26794   -26788   -26789 
  -26794   -26793   -26789   -26792   -26793   -26790   -26786   -26789 
  -26796   -26796   -26789   -26789   -26794   -26793   -26788   -26790 
  -26793   -26789   -26790   -26796   -26793   -26788   -26792   -26794 
  -26793   -26794   -26792   -26788   -26792   -26793   -26790   -26792 
  -26794   -26790   -26788   -26796   -26797   -26788   -26786   -26798 
  -26796   -26785   -26788   -26797   -26797   -26794   -26793   -26788 
  -26789   -26793   -26790   -26792   -26798   -26794   -26785   -26789 
  -26801   -26798   -26786   -26785   -26793   -26798   -26790   -26784 
  -26789   -26793   -26790   -26790   -26794   -26796   -26793   -26789 
  -26790   -26794   -26794   -26790   -26789   -26793   -26793   -26792 
  -26790   -26789   -26792   -26792   -26790   -26793   -26794   -26793 
  -26792   -26792   -26790   -26792   -26792   -26790   -26792   -26793 
  -26792   -26792   -26793   -26792   -26790   -26790   -26790   -26790 
  -26790   -26790   -26793   -26793   -26790   -26790   -26792   -26790 
  -26790   -26793   -26792   -26792   -26793   -26792   -26792   -26794 
  -26794   -26788   -26788   -26796   -26798   -26792   -26789   -26793 
  -26792   -26792   -26796   -26796   -26790   -26790   -26790   -26792 
  -26792   -26790   -26790   -26792   -26792   -26793   -26790   -26790 
  -26793   -26790   -26792   -26793   -26790   -26790   -26793   -26790 
  -26790   -26792   -26790   -26792   -26796   -26794   -26792   -26793 
  -26794   -26789   -26789   -26792   -26790   -26789   -26790   -26793 
  -26793   -26792   -26792   -26790   -26789   -26793   -26797   -26793 
  -26789   -26789   -26786   -26790   -26797   -26794   -26789   -26790 
  -26793   -26792   -26793   -26793   -26790   -26789   -26793   -26797 
  -26794   -26789   -26789   -26792   -26797   -26796   -26789   -26789 
  -26793   -26794   -26796   -26794   -26789   -26788   -26794   -26798 
  -26790   -26789   -26793   -26790   -26790   -26793   -26793   -26793 
  -26796   -26793   -26789   -26790   -26790   -26793   -26796   -26793 
  -26792   -26796   -26793   -26789   -26789   -26790   -26794   -26794 
  -26793   -26793   -26792   -26792   -26793   -26790   -26789   -26790 
  -26790   -26793   -26797   -26793   -26786   -26790   -26793   -26793 
  -26790   -26790   -26793   -26793   -26792   -26792   -26790   -26790 
  -26794   -26796   -26793   -26789   -26789   -26794   -26793   -26790 
  -26792   -26792   -26789   -26790   -26790   -26793   -26792   -26789 
  -26790   -26794   -26794   -26789   -26789   -26794   -26794   -26789 
  -26789   -26792   -26793   -26789   -26788   -26793   -26792   -26789 
  -26790   -26790   -26793   -26793   -26792   -26793   -26794   -26789 
  -26792   -26797   -26789   -26784   -26790   -26793   -26790   -26792 
  -26792   -26793   -26794   -26790   -26790   -26790   -26792   -26793 
  -26792   -26793   -26796   -26790   -26785   -26792   -26794   -26790 
  -26793   -26796   -26790   -26790   -26793   -26789   -26789   -26793 
  -26792   -26789   -26789   -26790   -26790   -26792   -26789   -26785 
  -26790   -26796   -26793   -26789   -26792   -26793   -26788   -26789 
  -26794   -26789   -26788   -26796   -26797   -26788   -26788   -26794 
  -26790   -26785   -26792   -26800   -26794   -26782   -26790   -26798 
  -26790   -26786   -26792   -26794   -26790   -26789   -26794   -26794 
  -26788   -26792   -26797   -26793   -26784   -26789   -26797   -26793 
  -26788   -26789   -26790   -26789   -26793   -26797   -26789   -26785 
  -26793   -26793   -26789   -26792   -26793   -26790   -26789   -26790 
  -26792   -26792   -26790   -26790   -26793   -26792   -26790   -26793 
  -26793   -26790   -26790   -26793   -26790   -26793   -26796   -26790 
  -26789   -26792   -26793   -26792   -26793   -26793   -26792   -26789 
  -26790   -26797   -26794   -26789   -26792   -26793   -26789   -26792 
  -26793   -26789   -26788   -26796   -26797   -26792   -26786   -26789 
  -26796   -26792   -26789   -26794   -26793   -26789   -26793   -26796 
  -26792   -26789   -26794   -26794   -26788   -26785   -26792   -26796 
  -26790   -26788   -26792   -26793   -26792   -26793   -26796   -26792 
  -26792   -26797   -26793   -26786   -26792   -26798   -26788   -26782 
  -26794   -26794   -26788   -26794   -26793   -26786   -26793   -26796 
  -26788   -26792   -26796   -26790   -26793   -26797   -26789   -26790 
  -26796   -26794   -26790   -26792   -26794   -26793   -26790   -26790 
  -26790   -26789   -26792   -26794   -26792   -26790   -26796   -26792 
  -26785   -26792   -26797   -26793   -26792   -26794   -26792   -26790 
  -26793   -26793   -26790   -26790   -26792   -26793   -26792   -26789 
  -26790   -26793   -26793   -26792   -26790   -26792   -26794   -26793 
  -26790   -26792   -26792   -26790   -26792   -26790   -26790   -26792 
  -26792   -26789   -26790   -26794   -26793   -26790   -26789   -26789 
  -26792   -26794   -26792   -26788   -26790   -26796   -26793   -26789 
  -26792   -26793   -26789   -26789   -26793   -26790   -26790   -26794 
  -26794   -26792   -26790   -26790   -26793   -26796   -26790   -26788 
  -26790   -26793   -26793   -26793   -26790   -26790   -26792   -26790 
  -26789   -26792   -26794   -26792   -26788   -26793   -26793   -26785 
  -26789   -26797   -26789   -26786   -26794   -26794   -26788   -26785 
  -26793   -26797   -26792   -26786   -26790   -26796   -26792   -26789 
  -26794   -26793   -26788   -26789   -26792   -26789   -26790   -26793 
  -26790   -26786   -26790   -26792   -26790   -26792   -26796   -26794 
  -26790   -26788   -26792   -26794   -26790   -26789   -26794   -26794 
  -26790   -26789   -26790   -26794   -26793   -26792   -26794   -26792 
  -26786   -26788   -26792   -26793   -26790   -26790   -26793   -26792 
  -26786   -26789   -26796   -26793   -26788   -26788   -26792   -26790 
  -26788   -26789   -26792   -26792   -26790   -26790   -26789   -26785 
  -26789   -26785   -26770   -26757   -26750   -26755   -26778   -26815 
  -26843   -26854   -26870   -26896   -26898   -26863   -26804   -26736 
  -26674   -26634   -26635   -26705   -26821   -26896   -26882   -26843 
  -26838   -26809   -26693   -26555   -26532   -26704   -26993   -27182 
  -27143   -26941   -26705   -26554   -26568   -26663   -26698   -26730 
  -26894   -27078   -27016   -26697   -26445   -26539   -26869   -27066 
  -26990   -26875   -26912   -26955   -26784   -26449   -26235   -26391 
  -26843   -27230   -27280   -27036   -26746   -26611   -26572   -26504 
  -26528   -26762   -27086   -27270   -27136   -26763   -26468   -26437 
  -26600   -26828   -26982   -27016   -26982   -26817   -26541   -26451 
  -26634   -26843   -26970   -27002   -26932   -26852   -26775   -26628 
  -26520   -26605   -26812   -26968   -27029   -26989   -26854   -26719 
  -26682   -26707   -26717   -26759   -26854   -26931   -26971   -26908 
  -26680   -26496   -26541   -26678   -26752   -26805   -26910   -27031 
  -27024   -26817   -26596   -26581   -26738   -26865   -26882   -26892 
  -26955   -26948   -26769   -26523   -26445   -26646   -26943   -27021 
  -26878   -26802   -26874   -26866   -26725   -26662   -26738   -26808 
  -26802   -26738   -26685   -26758   -26940   -27016   -26879   -26716 
  -26676   -26692   -26715   -26751   -26771   -26832   -26951   -26944 
  -26752   -26590   -26593   -26748   -26963   -27022   -26916   -26851 
  -26789   -26627   -26514   -26565   -26759   -27013   -27117   -26995 
  -26838   -26748   -26670   -26607   -26616   -26682   -26770   -26901 
  -26991   -26898   -26698   -26620   -26715   -26850   -26897   -26871 
  -26863   -26873   -26821   -26719   -26682   -26757   -26850   -26851 
  -26742   -26628   -26655   -26820   -26923   -26867   -26802   -26824 
  -26844   -26802   -26730   -26653   -26635   -26771   -26967   -27010 
  -26919   -26828   -26758   -26705   -26673   -26643   -26662   -26777 
  -26901   -26905   -26832   -26792   -26796   -26816   -26824   -26805 
  -26782   -26769   -26767   -26797   -26828   -26778   -26676   -26673 
  -26817   -26929   -26851   -26666   -26596   -26738   -26927   -26941 
  -26821   -26775   -26842   -26873   -26765   -26623   -26635   -26806 
  -26932   -26886   -26796   -26800   -26829   -26798   -26727   -26665 
  -26671   -26775   -26909   -26958   -26870   -26736   -26692   -26751 
  -26821   -26847   -26836   -26778   -26724   -26784   -26877   -26820 
  -26698   -26704   -26763   -26800   -26865   -26892   -26836   -26789 
  -26766   -26717   -26696   -26761   -26867   -26908   -26851   -26758 
  -26669   -26623   -26673   -26793   -26890   -26921   -26921   -26910 
  -26843   -26707   -26586   -26604   -26759   -26920   -26990   -26971 
  -26862   -26697   -26603   -26650   -26761   -26851   -26871   -26833 
  -26816   -26800   -26739   -26717   -26759   -26779   -26786   -26815 
  -26852   -26908   -26904   -26766   -26640   -26657   -26705   -26716 
  -26789   -26956   -27072   -26990   -26763   -26584   -26568   -26681 
  -26797   -26838   -26889   -26983   -26946   -26735   -26555   -26531 
  -26653   -26860   -27004   -27008   -26941   -26831   -26701   -26647 
  -26682   -26738   -26797   -26869   -26856   -26743   -26732   -26860 
  -26892   -26779   -26667   -26635   -26723   -26860   -26905   -26877 
  -26862   -26835   -26761   -26685   -26696   -26793   -26860   -26858 
  -26817   -26751   -26700   -26701   -26750   -26824   -26878   -26870 
  -26821   -26773   -26743   -26738   -26763   -26828   -26905   -26950 
  -26894   -26720   -26578   -26616   -26738   -26793   -26824   -26882 
  -26909   -26879   -26793   -26666   -26631   -26732   -26816   -26825 
  -26839   -26875   -26916   -26898   -26751   -26569   -26541   -26708 
  -26923   -27010   -26944   -26856   -26844   -26786   -26612   -26542 
  -26685   -26838   -26916   -26962   -26921   -26831   -26775   -26701 
  -26622   -26680   -26825   -26878   -26850   -26839   -26824   -26763 
  -26707   -26681   -26692   -26767   -26859   -26886   -26854   -26819 
  -26823   -26823   -26750   -26677   -26712   -26808   -26881   -26887 
  -26800   -26734   -26792   -26862   -26844   -26793   -26758   -26752 
  -26757   -26743   -26738   -26771   -26817   -26824   -26809   -26842 
  -26870   -26792   -26711   -26754   -26804   -26771   -26765   -26824 
  -26871   -26851   -26765   -26693   -26716   -26792   -26842   -26846 
  -26832   -26829   -26801   -26727   -26678   -26692   -26751   -26863 
  -26955   -26928   -26835   -26765   -26701   -26631   -26631   -26751 
  -26898   -26941   -26877   -26784   -26750   -26790   -26815   -26790 
  -26778   -26784   -26788   -26793   -26777   -26777   -26827   -26855 
  -26813   -26746   -26693   -26689   -26759   -26835   -26843   -26821 
  -26850   -26894   -26851   -26766   -26743   -26739   -26728   -26777 
  -26843   -26859   -26833   -26784   -26738   -26707   -26692   -26742 
  -26839   -26869   -26820   -26790   -26792   -26767   -26750   -26782 
  -26833   -26877   -26886   -26824   -26750   -26731   -26727   -26715 
  -26743   -26800   -26840   -26883   -26910   -26842   -26701   -26616 
  -26654   -26798   -26905   -26858   -26806   -26865   -26862   -26752 
  -26678   -26665   -26704   -26812   -26897   -26887   -26850   -26827 
  -26777   -26713   -26700   -26757   -26852   -26901   -26870   -26811 
  -26759   -26735   -26742   -26738   -26744   -26825   -26905   -26851 
  -26705   -26655   -26744   -26828   -26829   -26812   -26828   -26852 
  -26840   -26770   -26701   -26738   -26852   -26886   -26804   -26720 
  -26727   -26781   -26804   -26820   -26866   -26865   -26796   -26734 
  -26693   -26665   -26694   -26801   -26908   -26920   -26870   -26829 
  -26766   -26701   -26711   -26746   -26784   -26867   -26902   -26819 
  -26727   -26697   -26723   -26792   -26843   -26846   -26835   -26808 
  -26774   -26765   -26750   -26717   -26742   -26832   -26883   -26842 
  -26773   -26744   -26758   -26778   -26794   -26796   -26789   -26816 
  -26879   -26898   -26825   -26739   -26736   -26765   -26743   -26742 
  -26781   -26792   -26796   -26840   -26842   -26765   -26719   -26755 
  -26793   -26792   -26784   -26784   -26809   -26852   -26836   -26763 
  -26748   -26796   -26817   -26815   -26801   -26777   -26786   -26824 
  -26833   -26805   -26761   -26720   -26735   -26804   -26839   -26821 
  -26820   -26847   -26842   -26769   -26673   -26651   -26734   -26827 
  -26850   -26840   -26839   -26813   -26766   -26746   -26750   -26755 
  -26793   -26871   -26910   -26859   -26793   -26761   -26709   -26676 
  -26728   -26794   -26831   -26892   -26905   -26796   -26696   -26701 
  -26735   -26744   -26786   -26869   -26900   -26835   -26744   -26732 
  -26801   -26851   -26819   -26752   -26731   -26770   -26805   -26771 
  -26742   -26815   -26889   -26851   -26775   -26736   -26724   -26750 
  -26813   -26858   -26860   -26844   -26831   -26798   -26736   -26698 
  -26732   -26811   -26858   -26809   -26724   -26727   -26802   -26832 
  -26767   -26708   -26771   -26879   -26882   -26823   -26827   -26870 
  -26850   -26747   -26644   -26661   -26784   -26858   -26827   -26802 
  -26846   -26869   -26804   -26696   -26650   -26709   -26786   -26789 
  -26765   -26815   -26916   -26939   -26847   -26747   -26720   -26752 
  -26792   -26782   -26743   -26762   -26855   -26927   -26893   -26784 
  -26713   -26723   -26752   -26757   -26743   -26750   -26796   -26848 
  -26863   -26851   -26840   -26796   -26739   -26736   -26748   -26740 
  -26754   -26763   -26734   -26707   -26698   -26711   -26762   -26855 
  -26971   -27037   -27017   -26975   -26933   -26875   -26840   -26802 
  -26719   -26646   -26595   -26547   -26522   -26508   -26559   -26724 
  -26912   -27040   -27078   -26982   -26838   -26763   -26736   -26705 
  -26727   -26865   -27040   -27109   -27027   -26866   -26711   -26619 
  -26561   -26477   -26453   -26605   -26843   -26970   -26962   -26896 
  -26855   -26882   -26856   -26680   -26500   -26477   -26638   -26890 
  -27032   -27020   -27028   -27087   -27043   -26858   -26682   -26650 
  -26723   -26742   -26651   -26566   -26586   -26655   -26659   -26631 
  -26716   -26939   -27148   -27170   -27000   -26827   -26748   -26647 
  -26492   -26392   -26424   -26624   -26937   -27184   -27272   -27271 
  -27216   -27016   -26663   -26346   -26277   -26487   -26774   -26921 
  -26912   -26840   -26765   -26688   -26595   -26557   -26667   -26856 
  -26994   -27041   -27027   -26970   -26851   -26708   -26655   -26734 
  -26865   -26975   -27013   -26940   -26769   -26549   -26372   -26352 
  -26543   -26833   -27027   -27054   -26989   -26875   -26723   -26599 
  -26562   -26608   -26730   -26893   -27024   -27106   -27136   -27082 
  -26966   -26808   -26605   -26430   -26346   -26333   -26426   -26646 
  -26879   -27051   -27175   -27234   -27198   -27078   -26928   -26782 
  -26634   -26542   -26559   -26626   -26678   -26716   -26728   -26759 
  -26832   -26875   -26816   -26673   -26541   -26515   -26631   -26850 
  -27071   -27198   -27213   -27113   -26890   -26638   -26504   -26539 
  -26704   -26904   -26986   -26921   -26827   -26719   -26557   -26450 
  -26514   -26688   -26854   -26978   -27064   -27081   -27009   -26875 
  -26690   -26515   -26478   -26597   -26774   -26920   -26966   -26919 
  -26869   -26839   -26781   -26734   -26752   -26802   -26823   -26784 
  -26727   -26732   -26786   -26811   -26789   -26725   -26650   -26639 
  -26686   -26752   -26860   -26991   -27059   -26993   -26833   -26709 
  -26692   -26747   -26808   -26825   -26816   -26855   -26912   -26869 
  -26750   -26665   -26623   -26620   -26690   -26813   -26912   -26932 
  -26885   -26798   -26682   -26603   -26646   -26785   -26944   -27062 
  -27049   -26873   -26634   -26503   -26542   -26659   -26789   -26921 
  -27002   -26987   -26900   -26775   -26646   -26585   -26658   -26819 
  -26928   -26935   -26883   -26786   -26671   -26655   -26752   -26860 
  -26941   -26975   -26916   -26813   -26748   -26676   -26566   -26546 
  -26662   -26812   -26910   -26925   -26865   -26792   -26743   -26698 
  -26646   -26649   -26767   -26929   -27010   -26974   -26894   -26848 
  -26801   -26723   -26681   -26704   -26771   -26838   -26815   -26720 
  -26680   -26730   -26798   -26856   -26900   -26912   -26878   -26797 
  -26709   -26669   -26692   -26765   -26852   -26882   -26836   -26805 
  -26797   -26739   -26670   -26720   -26867   -26954   -26916   -26815 
  -26721   -26676   -26682   -26715   -26774   -26871   -26924   -26859 
  -26728   -26620   -26613   -26731   -26879   -26958   -26952   -26878 
  -26782   -26717   -26698   -26711   -26742   -26793   -26869   -26909 
  -26863   -26781   -26730   -26730   -26788   -26848   -26847   -26828 
  -26828   -26789   -26709   -26666   -26693   -26782   -26890   -26954 
  -26937   -26869   -26801   -26765   -26739   -26707   -26701   -26748 
  -26815   -26835   -26811   -26790   -26777   -26752   -26738   -26740 
  -26738   -26723   -26716   -26725   -26752   -26805   -26854   -26873 
  -26883   -26879   -26819   -26723   -26680   -26735   -26828   -26890 
  -26920   -26901   -26812   -26742   -26742   -26752   -26767   -26823 
  -26871   -26851   -26785   -26703   -26620   -26615   -26707   -26808 
  -26873   -26919   -26928   -26904   -26859   -26774   -26692   -26681 
  -26736   -26812   -26843   -26800   -26750   -26758   -26806   -26846 
  -26823   -26765   -26762   -26800   -26781   -26716   -26698   -26750 
  -26809   -26829   -26817   -26816   -26858   -26900   -26859   -26759 
  -26704   -26724   -26779   -26844   -26896   -26908   -26873   -26789 
  -26684   -26649   -26705   -26770   -26817   -26870   -26885   -26827 
  -26755   -26715   -26696   -26724   -26816   -26900   -26909   -26875 
  -26835   -26790   -26757   -26740   -26727   -26730   -26765   -26812 
  -26839   -26832   -26792   -26736   -26701   -26717   -26761   -26778 
  -26771   -26779   -26817   -26856   -26859   -26842   -26846   -26856 
  -26832   -26790   -26746   -26712   -26709   -26731   -26769   -26819 
  -26847   -26839   -26812   -26757   -26703   -26715   -26785   -26847 
  -26874   -26875   -26862   -26839   -26808   -26784   -26773   -26752 
  -26723   -26711   -26738   -26809   -26867   -26854   -26808   -26793 
  -26802   -26788   -26744   -26738   -26798   -26867   -26877   -26824 
  -26752   -26707   -26704   -26717   -26720   -26736   -26801   -26874 
  -26878   -26828   -26792   -26781   -26788   -26797   -26785   -26769 
  -26790   -26829   -26842   -26829   -26815   -26804   -26800   -26784 
  -26734   -26689   -26703   -26763   -26824   -26862   -26870   -26860 
  -26851   -26816   -26752   -26696   -26674   -26696   -26744   -26790 
  -26821   -26835   -26823   -26790   -26755   -26744   -26785   -26844 
  -26860   -26843   -26828   -26815   -26798   -26775   -26765   -26793 
  -26835   -26839   -26798   -26754   -26761   -26808   -26817   -26771 
  -26747   -26765   -26785   -26785   -26779   -26790   -26827   -26850 
  -26817   -26752   -26724   -26743   -26766   -26770   -26779   -26808 
  -26835   -26850   -26848   -26827   -26788   -26763   -26767   -26781 
  -26778   -26769   -26777   -26797   -26823   -26850   -26858   -26846 
  -26831   -26806   -26774   -26751   -26738   -26719   -26712   -26747 
  -26788   -26788   -26771   -26785   -26811   -26801   -26769   -26771 
