Origin Time       2025/03/30 10:46:00
Lat.              32.923
Long.             130.372
Depth. (km)       11
Mag.              3.4
Station Code      KMMH10
Station Lat.      32.3151
Station Long.     130.1811
Station Height(m) 158
Record Time       2025/03/30 10:46:41
Sampling Freq(Hz) 100Hz
Duration Time(s)  120
Dir.              5
Scale Factor      7845(gal)/8223790
Max. Acc. (gal)   1.308
Last Correction   2025/03/30 10:46:41
Memo.             
[...]
  -10588   -10581   -10577   -10584   -10588   -10588   -10579   -10579 
  -10589   -10585   -10575   -10582   -10585   -10581   -10581   -10578 
  -10578   -10586   -10590   -10588   -10582   -10577   -10575   -10581 
  -10588   -10582   -10579   -10581   -10582   -10585   -10586   -10579 
  -10577   -10578   -10585   -10590   -10586   -10579   -10577   -10579 
  -10588   -10590   -10581   -10575   -10581   -10584   -10581   -10584 
  -10585   -10577   -10575   -10586   -10590   -10581   -10578   -10589 
  -10589   -10579   -10578   -10578   -10579   -10589   -10590   -10579 
  -10579   -10581   -10574   -10581   -10592   -10586   -10578   -10579 
  -10582   -10585   -10584   -10582   -10584   -10579   -10578   -10585 
  -10586   -10585   -10585   -10581   -10579   -10584   -10581   -10578 
  -10585   -10589   -10588   -10584   -10582   -10578   -10577   -10582 
  -10589   -10586   -10582   -10581   -10584   -10585   -10584   -10584 
  -10581   -10578   -10586   -10588   -10579   -10577   -10581   -10584 
  -10586   -10585   -10578   -10577   -10579   -10581   -10585   -10588 
  -10582   -10581   -10581   -10577   -10582   -10589   -10578   -10574 
  -10584   -10582   -10578   -10584   -10584   -10582   -10582   -10582 
  -10585   -10584   -10579   -10584   -10588   -10582   -10578   -10582 
  -10582   -10581   -10584   -10586   -10582   -10581   -10584   -10585 
  -10584   -10584   -10584   -10582   -10582   -10584   -10586   -10586 
  -10581   -10578   -10584   -10586   -10585   -10584   -10579   -10579 
  -10585   -10586   -10581   -10577   -10578   -10585   -10588   -10585 
  -10582   -10582   -10582   -10586   -10589   -10585   -10581   -10578 
  -10577   -10579   -10586   -10590   -10585   -10577   -10579   -10584 
  -10581   -10581   -10582   -10582   -10585   -10586   -10585   -10581 
  -10579   -10581   -10584   -10588   -10584   -10578   -10582   -10585 
  -10582   -10582   -10579   -10578   -10582   -10582   -10582   -10586 
  -10581   -10577   -10584   -10589   -10585   -10581   -10582   -10585 
  -10584   -10579   -10584   -10586   -10579   -10578   -10588   -10588 
  -10575   -10575   -10588   -10588   -10579   -10582   -10585   -10577 
  -10577   -10588   -10589   -10579   -10577   -10579   -10582   -10585 
  -10582   -10579   -10584   -10584   -10581   -10581   -10584   -10582 
  -10581   -10582   -10585   -10582   -10577   -10579   -10584   -10577 
  -10578   -10585   -10585   -10578   -10581   -10585   -10584   -10579 
  -10577   -10578   -10581   -10584   -10585   -10584   -10579   -10577 
  -10584   -10589   -10582   -10574   -10581   -10589   -10589   -10585 
  -10579   -10570   -10571   -10589   -10597   -10584   -10578   -10584 
  -10579   -10573   -10582   -10593   -10588   -10579   -10582   -10584 
  -10579   -10579   -10585   -10586   -10577   -10577   -10589   -10588 
  -10577   -10584   -10590   -10579   -10570   -10581   -10592   -10585 
  -10578   -10584   -10581   -10574   -10579   -10590   -10588   -10579 
  -10581   -10585   -10579   -10578   -10585   -10582   -10577   -10582 
  -10588   -10584   -10577   -10581   -10584   -10578   -10579   -10588 
  -10586   -10577   -10579   -10585   -10579   -10579   -10589   -10588 
  -10578   -10579   -10585   -10584   -10582   -10588   -10589   -10582 
  -10578   -10581   -10582   -10581   -10589   -10593   -10581   -10574 
  -10582   -10586   -10585   -10582   -10582   -10581   -10578   -10584 
  -10589   -10582   -10577   -10584   -10593   -10584   -10577   -10589 
  -10586   -10574   -10582   -10593   -10585   -10577   -10582   -10585 
  -10579   -10584   -10585   -10578   -10579   -10584   -10582   -10582 
  -10582   -10582   -10586   -10581   -10581   -10589   -10581   -10577 
  -10588   -10581   -10571   -10582   -10585   -10582   -10586   -10584 
  -10579   -10581   -10584   -10584   -10582   -10582   -10579   -10575 
  -10579   -10585   -10584   -10582   -10581   -10581   -10584   -10586 
  -10582   -10577   -10578   -10585   -10582   -10578   -10582   -10582 
  -10578   -10582   -10586   -10585   -10584   -10579   -10577   -10582 
  -10585   -10581   -10581   -10585   -10584   -10578   -10578   -10584 
  -10586   -10586   -10581   -10575   -10581   -10584   -10581   -10585 
  -10588   -10578   -10578   -10582   -10578   -10579   -10586   -10585 
  -10581   -10579   -10579   -10581   -10582   -10582   -10586   -10585 
  -10578   -10579   -10588   -10585   -10577   -10581   -10588   -10582 
  -10578   -10584   -10585   -10579   -10581   -10586   -10582   -10577 
  -10579   -10585   -10584   -10584   -10586   -10581   -10574   -10581 
  -10586   -10584   -10586   -10582   -10575   -10581   -10586   -10582 
  -10578   -10579   -10585   -10586   -10579   -10579   -10584   -10579 
  -10577   -10584   -10586   -10582   -10581   -10582   -10581   -10579 
  -10581   -10581   -10582   -10582   -10585   -10586   -10584   -10581 
  -10578   -10579   -10584   -10582   -10579   -10584   -10584   -10584 
  -10582   -10575   -10577   -10585   -10586   -10582   -10585   -10584 
  -10579   -10581   -10586   -10584   -10578   -10578   -10581   -10584 
  -10586   -10582   -10578   -10579   -10582   -10584   -10586   -10584 
  -10579   -10578   -10582   -10585   -10584   -10581   -10582   -10586 
  -10584   -10579   -10585   -10586   -10579   -10579   -10584   -10582 
  -10579   -10584   -10585   -10581   -10579   -10579   -10584   -10585 
  -10581   -10584   -10585   -10581   -10582   -10585   -10586   -10589 
  -10584   -10575   -10579   -10584   -10577   -10569   -10569   -10575 
  -10586   -10596   -10604   -10604   -10585   -10551   -10528   -10544 
  -10592   -10619   -10609   -10617   -10659   -10683   -10656   -10584 
  -10473   -10362   -10326   -10400   -10559   -10721   -10782   -10744 
  -10732   -10735   -10629   -10466   -10403   -10440   -10520   -10642 
  -10768   -10804   -10682   -10455   -10280   -10300   -10470   -10638 
  -10754   -10805   -10717   -10535   -10436   -10486   -10600   -10687 
  -10712   -10673   -10582   -10511   -10515   -10511   -10409   -10314 
  -10346   -10516   -10752   -10937   -10987   -10875   -10604   -10376 
  -10401   -10505   -10525   -10611   -10678   -10520   -10343   -10380 
  -10540   -10732   -10878   -10848   -10671   -10449   -10265   -10307 
  -10598   -10841   -10848   -10712   -10531   -10341   -10280   -10466 
  -10727   -10797   -10702   -10579   -10454   -10439   -10620   -10787 
  -10767   -10608   -10417   -10332   -10411   -10547   -10687   -10783 
  -10694   -10462   -10334   -10422   -10619   -10775   -10827   -10767 
  -10616   -10482   -10494   -10605   -10674   -10690   -10655   -10517 
  -10401   -10467   -10601   -10625   -10563   -10478   -10399   -10412 
  -10563   -10729   -10794   -10763   -10675   -10604   -10621   -10647 
  -10548   -10400   -10345   -10363   -10463   -10683   -10843   -10812 
  -10697   -10539   -10409   -10461   -10590   -10652   -10698   -10663 
  -10511   -10416   -10409   -10454   -10632   -10840   -10868   -10758 
  -10611   -10426   -10318   -10428   -10627   -10696   -10636   -10557 
  -10501   -10500   -10569   -10682   -10755   -10673   -10457   -10319 
  -10388   -10566   -10719   -10805   -10786   -10658   -10542   -10535 
  -10566   -10570   -10566   -10530   -10462   -10467   -10573   -10647 
  -10598   -10508   -10470   -10486   -10582   -10741   -10847   -10831 
  -10712   -10532   -10409   -10412   -10439   -10453   -10536   -10652 
  -10683   -10654   -10642   -10629   -10597   -10559   -10525   -10531 
  -10569   -10562   -10521   -10544   -10629   -10693   -10701   -10647 
  -10554   -10490   -10484   -10515   -10578   -10635   -10621   -10565 
  -10536   -10562   -10613   -10619   -10540   -10480   -10555   -10710 
  -10793   -10781   -10723   -10594   -10395   -10272   -10357   -10550 
  -10670   -10682   -10640   -10574   -10519   -10555   -10669   -10683 
  -10573   -10523   -10550   -10535   -10561   -10666   -10647   -10505 
  -10480   -10575   -10636   -10632   -10604   -10590   -10612   -10631 
  -10636   -10652   -10631   -10525   -10432   -10453   -10550   -10629 
  -10638   -10573   -10503   -10509   -10606   -10712   -10735   -10663 
  -10551   -10451   -10435   -10558   -10710   -10733   -10643   -10551 
  -10513   -10528   -10543   -10542   -10570   -10585   -10573   -10624 
  -10689   -10632   -10531   -10489   -10489   -10551   -10621   -10594 
  -10552   -10574   -10570   -10565   -10633   -10685   -10638   -10550 
  -10516   -10563   -10644   -10696   -10651   -10515   -10413   -10427 
  -10507   -10655   -10835   -10867   -10705   -10513   -10397   -10399 
  -10528   -10650   -10654   -10604   -10531   -10434   -10420   -10540 
  -10640   -10643   -10674   -10728   -10686   -10620   -10613   -10592 
  -10538   -10496   -10461   -10454   -10480   -10511   -10577   -10696 
  -10804   -10801   -10667   -10501   -10400   -10393   -10503   -10660 
  -10728   -10683   -10577   -10462   -10428   -10519   -10648   -10694 
  -10621   -10516   -10494   -10585   -10710   -10781   -10752   -10631 
  -10442   -10315   -10381   -10558   -10670   -10714   -10713   -10631 
  -10540   -10507   -10493   -10519   -10567   -10565   -10565   -10609 
  -10638   -10647   -10648   -10615   -10575   -10544   -10494   -10488 
  -10584   -10663   -10666   -10687   -10669   -10513   -10392   -10424 
  -10511   -10636   -10786   -10785   -10632   -10531   -10511   -10500 
  -10542   -10601   -10577   -10519   -10521   -10575   -10650   -10694 
  -10643   -10535   -10453   -10449   -10554   -10690   -10746   -10723 
  -10644   -10525   -10477   -10520   -10550   -10573   -10609   -10604 
  -10579   -10602   -10632   -10608   -10558   -10524   -10516   -10544 
  -10588   -10590   -10593   -10660   -10698   -10617   -10548   -10548 
  -10494   -10427   -10485   -10600   -10647   -10642   -10633   -10638 
  -10642   -10627   -10616   -10611   -10570   -10515   -10494   -10523 
  -10588   -10635   -10609   -10555   -10521   -10511   -10562   -10675 
  -10743   -10700   -10609   -10532   -10470   -10446   -10505   -10606 
  -10663   -10669   -10655   -10620   -10557   -10489   -10474   -10525 
  -10571   -10593   -10623   -10627   -10611   -10639   -10681   -10675 
  -10640   -10574   -10471   -10384   -10399   -10508   -10612   -10686 
  -10725   -10655   -10532   -10504   -10558   -10624   -10679   -10675 
  -10608   -10543   -10517   -10558   -10640   -10639   -10540   -10476 
  -10462   -10480   -10573   -10687   -10712   -10660   -10590   -10531 
  -10548   -10631   -10670   -10642   -10586   -10500   -10440   -10508 
  -10642   -10697   -10659   -10578   -10493   -10481   -10539   -10592 
  -10650   -10673   -10566   -10478   -10550   -10631   -10620   -10606 
  -10579   -10519   -10521   -10601   -10659   -10658   -10620   -10567 
  -10531   -10505   -10500   -10547   -10609   -10643   -10667   -10660 
  -10602   -10562   -10570   -10574   -10571   -10594   -10612   -10584 
  -10543   -10535   -10557   -10584   -10611   -10609   -10574   -10557 
  -10557   -10532   -10532   -10594   -10652   -10658   -10631   -10605 
  -10588   -10540   -10493   -10523   -10585   -10582   -10548   -10548 
  -10552   -10543   -10596   -10708   -10748   -10692   -10619   -10534 
  -10454   -10451   -10513   -10594   -10659   -10658   -10619   -10598 
  -10573   -10551   -10586   -10629   -10613   -10589   -10575   -10530 
  -10490   -10512   -10558   -10584   -10600   -10617   -10620   -10604 
  -10598   -10624   -10628   -10573   -10525   -10519   -10524   -10558 
  -10625   -10654   -10625   -10609   -10606   -10566   -10535   -10566 
  -10581   -10536   -10531   -10582   -10602   -10590   -10592   -10589 
  -10578   -10577   -10567   -10567   -10601   -10615   -10594   -10597 
  -10611   -10597   -10578   -10579   -10593   -10615   -10606   -10552 
  -10500   -10481   -10488   -10532   -10608   -10662   -10675   -10662 
  -10632   -10613   -10601   -10559   -10509   -10500   -10516   -10532 
  -10577   -10651   -10677   -10605   -10507   -10470   -10490   -10540 
  -10639   -10741   -10725   -10632   -10584   -10544   -10498   -10531 
  -10573   -10547   -10548   -10615   -10654   -10636   -10615   -10600 
  -10552   -10481   -10471   -10562   -10663   -10697   -10670   -10617 
  -10552   -10513   -10531   -10570   -10600   -10617   -10582   -10538 
  -10577   -10647   -10650   -10601   -10544   -10481   -10451   -10504 
  -10604   -10669   -10654   -10593   -10538   -10535   -10579   -10624 
  -10654   -10667   -10627   -10548   -10497   -10505   -10566   -10616 
  -10620   -10628   -10654   -10639   -10593   -10567   -10567   -10581 
  -10579   -10530   -10474   -10476   -10519   -10581   -10670   -10732 
  -10706   -10617   -10512   -10436   -10455   -10544   -10606   -10617 
  -10628   -10650   -10658   -10647   -10632   -10600   -10523   -10430 
  -10419   -10509   -10609   -10669   -10697   -10659   -10558   -10478 
  -10469   -10512   -10579   -10655   -10736   -10821   -10875   -10859 
  -10777   -10638   -10427   -10222   -10129   -10127   -10191   -10359 
  -10602   -10812   -10933   -10962   -10893   -10717   -10500   -10359 
  -10308   -10303   -10384   -10548   -10721   -10871   -10979   -11038 
  -11026   -10883   -10638   -10392   -10183   -10062   -10099   -10258 
  -10488   -10751   -10914   -10870   -10683   -10440   -10183   -10023 
  -10065   -10282   -10597   -10932   -11190   -11291   -11257   -11156 
  -10964   -10682   -10400   -10152    -9964    -9963   -10166   -10488 
  -10824   -11011   -10966   -10748   -10372    -9927    -9678    -9744 
  -10069   -10619   -11280   -11788   -11954   -11772   -11337   -10794 
  -10242    -9721    -9335    -9231    -9420    -9822   -10358   -10901 
  -11286   -11460   -11454   -11300   -11083   -10882   -10690   -10523 
  -10423   -10378   -10395   -10503   -10624   -10665   -10613   -10477 
  -10308   -10192   -10145   -10154   -10243   -10409   -10619   -10848 
  -11029   -11099   -11048   -10854   -10573   -10378   -10349   -10384 
  -10381   -10370   -10405   -10447   -10463   -10507   -10601   -10696 
  -10758   -10810   -10847   -10817   -10709   -10559   -10417   -10366 
  -10477   -10696   -10885   -10952   -10852   -10608   -10350   -10207 
  -10242   -10466   -10751   -10932   -11006   -10980   -10786   -10481 
  -10210   -10019    -9938   -10003   -10138   -10281   -10463   -10671 
  -10841   -10968   -11051   -11018   -10828   -10565   -10363   -10305 
  -10403   -10616   -10848   -10976   -10952   -10816   -10654   -10555 
  -10528   -10528   -10538   -10516   -10423   -10345   -10404   -10543 
  -10620   -10615   -10566   -10463   -10347   -10326   -10430   -10619 
  -10821   -10906   -10804   -10617   -10461   -10346   -10295   -10359 
  -10515   -10698   -10883   -11029   -11072   -10998   -10816   -10520 
  -10214   -10072   -10114   -10260   -10494   -10746   -10881   -10883 
  -10805   -10667   -10507   -10382   -10338   -10386   -10470   -10550 
  -10650   -10717   -10709   -10686   -10658   -10582   -10523   -10546 
  -10586   -10590   -10589   -10594   -10577   -10542   -10523   -10525 
  -10532   -10521   -10484   -10450   -10485   -10598   -10716   -10814 
  -10910   -10937   -10840   -10677   -10551   -10494   -10469   -10434 
  -10376   -10297   -10250   -10293   -10446   -10648   -10836   -10968 
  -10986   -10856   -10696   -10579   -10453   -10354   -10377   -10457 
  -10496   -10486   -10471   -10480   -10486   -10512   -10596   -10654 
  -10628   -10601   -10613   -10633   -10654   -10647   -10594   -10554 
  -10571   -10594   -10625   -10706   -10789   -10818   -10809   -10767 
  -10701   -10632   -10554   -10461   -10372   -10307   -10280   -10300 
  -10358   -10465   -10623   -10762   -10800   -10758   -10693   -10584 
  -10428   -10307   -10255   -10274   -10384   -10569   -10771   -10945 
  -11026   -10980   -10843   -10667   -10527   -10466   -10431   -10404 
  -10422   -10443   -10465   -10574   -10741   -10832   -10824   -10763 
  -10647   -10486   -10378   -10380   -10428   -10481   -10536   -10561 
  -10552   -10552   -10552   -10565   -10633   -10705   -10720   -10716 
  -10706   -10656   -10581   -10507   -10458   -10449   -10458   -10469 
  -10500   -10561   -10627   -10670   -10696   -10708   -10682   -10625 
  -10577   -10562   -10579   -10608   -10596   -10532   -10474   -10453 
  -10447   -10474   -10554   -10636   -10667   -10675   -10687   -10700 
  -10706   -10692   -10646   -10582   -10516   -10453   -10450   -10521 
  -10575   -10577   -10582   -10611   -10632   -10640   -10640   -10602 
  -10513   -10407   -10323   -10301   -10373   -10513   -10685   -10851 
  -10943   -10932   -10836   -10685   -10555   -10493   -10451   -10453 
  -10531   -10596   -10590   -10573   -10555   -10532   -10551   -10597 
  -10613   -10620   -10602   -10517   -10450   -10466   -10517   -10593 
  -10679   -10702   -10669   -10606   -10552   -10550   -10555   -10548 
  -10573   -10592   -10594   -10638   -10685   -10690   -10671   -10581 
  -10427   -10349   -10400   -10505   -10617   -10714   -10755   -10720 
  -10625   -10520   -10462   -10466   -10511   -10557   -10588   -10636 
  -10694   -10716   -10717   -10702   -10644   -10584   -10548   -10509 
  -10473   -10463   -10442   -10399   -10416   -10509   -10578   -10608 
  -10646   -10674   -10667   -10648   -10636   -10625   -10620   -10628 
  -10644   -10660   -10681   -10675   -10628   -10559   -10486   -10432 
  -10435   -10494   -10566   -10612   -10619   -10585   -10546   -10558 
  -10612   -10662   -10687   -10673   -10629   -10592   -10565   -10550 
  -10544   -10535   -10532   -10552   -10589   -10635   -10670   -10650 
  -10563   -10458   -10390   -10377   -10422   -10517   -10631   -10708 
  -10721   -10712   -10701   -10669   -10632   -10611   -10585   -10559 
  -10534   -10508   -10513   -10562   -10624   -10666   -10673   -10644 
  -10578   -10501   -10480   -10528   -10596   -10648   -10669   -10646 
  -10594   -10530   -10470   -10431   -10420   -10451   -10513   -10559 
  -10582   -10604   -10620   -10627   -10642   -10651   -10631   -10597 
  -10563   -10558   -10612   -10689   -10725   -10709   -10662   -10609 
  -10569   -10558   -10558   -10547   -10519   -10494   -10519   -10601 
  -10682   -10720   -10709   -10647   -10555   -10477   -10424   -10408 
  -10435   -10484   -10532   -10567   -10575   -10581   -10606   -10625 
  -10642   -10670   -10677   -10654   -10623   -10584   -10557   -10548 
  -10554   -10577   -10600   -10597   -10577   -10557   -10542   -10554 
  -10596   -10663   -10735   -10767   -10759   -10728   -10667   -10567 
  -10459   -10382   -10362   -10390   -10436   -10493   -10555   -10590 
  -10584   -10570   -10578   -10585   -10584   -10596   -10608   -10601 
  -10602   -10620   -10632   -10628   -10612   -10579   -10542   -10530 
  -10538   -10550   -10569   -10605   -10639   -10650   -10659   -10687 
  -10706   -10690   -10654   -10612   -10566   -10536   -10557   -10608 
  -10631   -10609   -10570   -10524   -10496   -10500   -10503   -10492 
  -10481   -10470   -10482   -10532   -10590   -10627   -10632   -10624 
  -10609   -10589   -10590   -10608   -10620   -10627   -10621   -10597 
  -10578   -10584   -10601   -10612   -10608   -10592   -10569   -10550 
  -10551   -10570   -10590   -10612   -10639   -10662   -10665   -10639 
  -10588   -10530   -10477   -10436   -10416   -10431   -10474   -10520 
  -10578   -10643   -10671   -10666   -10654   -10642   -10628   -10617 
