Origin Time       2025/03/30 10:46:00
Lat.              32.923
Long.             130.372
Depth. (km)       11
Mag.              3.4
Station Code      KMMH03
Station Lat.      32.9984
Station Long.     130.8301
Station Height(m) -22
Record Time       2025/03/30 10:46:34
Sampling Freq(Hz) 100Hz
Duration Time(s)  120
Dir.              3
Scale Factor      2942(gal)/8224139
Max. Acc. (gal)   0.114
Last Correction   2025/03/30 10:46:34
Memo.             
  -30866   -30867   -30869   -30866   -30865   -30869   -30870   -30865 
  -30865   -30866   -30866   -30867   -30867   -30866   -30867   -30870 
  -30867   -30867   -30869   -30866   -30863   -30866   -30866   -30863 
  -30865   -30866   -30867   -30869   -30865   -30863   -30866   -30867 
  -30866   -30867   -30867   -30866   -30865   -30866   -30867   -30867 
  -30865   -30863   -30863   -30865   -30866   -30869   -30870   -30867 
  -30867   -30870   -30870   -30867   -30867   -30867   -30867   -30867 
  -30870   -30870   -30867   -30865   -30865   -30865   -30865   -30869 
  -30870   -30866   -30866   -30867   -30866   -30865   -30865   -30866 
  -30869   -30869   -30865   -30865   -30866   -30865   -30865   -30866 
  -30867   -30867   -30867   -30866   -30866   -30867   -30866   -30865 
  -30866   -30866   -30866   -30867   -30867   -30867   -30867   -30866 
  -30865   -30866   -30867   -30867   -30867   -30866   -30866   -30867 
  -30865   -30863   -30866   -30869   -30867   -30866   -30869   -30869 
  -30867   -30866   -30866   -30865   -30865   -30866   -30866   -30865 
  -30865   -30867   -30866   -30865   -30867   -30866   -30865   -30865 
  -30866   -30866   -30867   -30869   -30867   -30866   -30869   -30869 
  -30866   -30866   -30867   -30869   -30866   -30865   -30866   -30866 
  -30866   -30867   -30869   -30869   -30867   -30869   -30869   -30869 
  -30870   -30867   -30865   -30867   -30869   -30869   -30869   -30867 
  -30867   -30867   -30866   -30865   -30865   -30867   -30867   -30867 
  -30867   -30865   -30867   -30870   -30869   -30866   -30867   -30869 
  -30867   -30869   -30867   -30863   -30865   -30866   -30865   -30867 
  -30869   -30865   -30866   -30867   -30866   -30866   -30869   -30869 
  -30867   -30869   -30869   -30866   -30866   -30865   -30865   -30867 
  -30866   -30866   -30867   -30867   -30866   -30866   -30866   -30866 
  -30869   -30870   -30867   -30867   -30869   -30869   -30869   -30869 
  -30869   -30870   -30867   -30866   -30867   -30867   -30866   -30865 
  -30865   -30867   -30866   -30863   -30866   -30869   -30867   -30867 
  -30869   -30867   -30866   -30867   -30866   -30867   -30869   -30867 
  -30867   -30866   -30863   -30867   -30869   -30869   -30871   -30870 
  -30867   -30866   -30867   -30869   -30870   -30867   -30870   -30871 
  -30869   -30869   -30871   -30867   -30869   -30871   -30869   -30866 
  -30870   -30870   -30866   -30866   -30869   -30866   -30866   -30870 
  -30866   -30865   -30870   -30869   -30866   -30869   -30871   -30867 
  -30867   -30867   -30867   -30867   -30869   -30869   -30867   -30866 
  -30866   -30867   -30866   -30867   -30870   -30867   -30869   -30870 
  -30867   -30866   -30869   -30866   -30865   -30863   -30866   -30869 
  -30869   -30869   -30867   -30866   -30866   -30866   -30867   -30869 
  -30869   -30867   -30866   -30866   -30867   -30869   -30866   -30866 
  -30867   -30865   -30866   -30867   -30863   -30865   -30867   -30865 
  -30865   -30866   -30867   -30867   -30866   -30865   -30867   -30867 
  -30863   -30863   -30866   -30866   -30865   -30865   -30866   -30866 
  -30866   -30869   -30869   -30867   -30866   -30866   -30867   -30866 
  -30866   -30867   -30867   -30867   -30867   -30866   -30867   -30866 
  -30867   -30869   -30867   -30866   -30869   -30867   -30863   -30865 
  -30866   -30866   -30869   -30869   -30866   -30866   -30867   -30865 
  -30867   -30867   -30865   -30866   -30866   -30863   -30865   -30866 
  -30866   -30867   -30869   -30866   -30863   -30865   -30867   -30866 
  -30865   -30866   -30866   -30865   -30866   -30866   -30867   -30866 
  -30867   -30869   -30866   -30866   -30869   -30866   -30866   -30869 
  -30865   -30865   -30869   -30865   -30862   -30866   -30869   -30865 
  -30862   -30866   -30869   -30866   -30867   -30866   -30863   -30863 
  -30866   -30866   -30862   -30862   -30867   -30869   -30866   -30866 
  -30867   -30867   -30865   -30866   -30869   -30867   -30863   -30865 
  -30867   -30867   -30867   -30865   -30866   -30869   -30866   -30863 
  -30866   -30867   -30865   -30866   -30869   -30866   -30863   -30866 
  -30867   -30867   -30866   -30867   -30866   -30863   -30865   -30869 
  -30867   -30863   -30865   -30866   -30867   -30867   -30865   -30866 
  -30869   -30867   -30863   -30863   -30863   -30865   -30866   -30866 
  -30865   -30866   -30866   -30863   -30863   -30866   -30866   -30867 
  -30866   -30866   -30866   -30865   -30865   -30869   -30866   -30865 
  -30867   -30867   -30867   -30869   -30869   -30869   -30867   -30866 
  -30865   -30866   -30867   -30867   -30869   -30865   -30863   -30867 
  -30867   -30866   -30866   -30865   -30865   -30866   -30866   -30865 
  -30866   -30870   -30867   -30863   -30866   -30870   -30870   -30866 
  -30865   -30867   -30867   -30867   -30867   -30867   -30866   -30867 
  -30866   -30866   -30867   -30867   -30865   -30865   -30866   -30866 
  -30867   -30873   -30870   -30866   -30867   -30871   -30869   -30866 
  -30867   -30867   -30866   -30866   -30865   -30866   -30867   -30869 
  -30870   -30869   -30867   -30867   -30869   -30869   -30867   -30867 
  -30869   -30867   -30867   -30867   -30866   -30866   -30867   -30867 
  -30867   -30866   -30867   -30867   -30866   -30870   -30870   -30866 
  -30867   -30869   -30865   -30865   -30869   -30867   -30866   -30867 
  -30867   -30866   -30866   -30867   -30869   -30869   -30870   -30867 
  -30866   -30869   -30869   -30867   -30867   -30866   -30866   -30867 
  -30866   -30865   -30865   -30866   -30866   -30867   -30867   -30866 
  -30867   -30866   -30863   -30866   -30867   -30866   -30867   -30869 
  -30867   -30866   -30866   -30866   -30867   -30867   -30865   -30865 
  -30866   -30867   -30866   -30869   -30869   -30867   -30867   -30866 
  -30866   -30867   -30866   -30866   -30869   -30870   -30869   -30870 
  -30870   -30869   -30867   -30867   -30869   -30869   -30869   -30869 
  -30865   -30863   -30869   -30873   -30870   -30867   -30869   -30869 
  -30865   -30865   -30867   -30867   -30867   -30869   -30869   -30866 
  -30867   -30869   -30867   -30866   -30869   -30870   -30867   -30867 
  -30870   -30869   -30866   -30866   -30866   -30866   -30866   -30865 
  -30865   -30865   -30867   -30869   -30869   -30867   -30867   -30867 
  -30866   -30866   -30865   -30865   -30866   -30867   -30866   -30866 
  -30866   -30865   -30866   -30869   -30867   -30865   -30866   -30867 
  -30867   -30867   -30866   -30863   -30866   -30869   -30866   -30866 
  -30869   -30867   -30867   -30867   -30866   -30867   -30867   -30865 
  -30867   -30869   -30866   -30867   -30870   -30867   -30865   -30866 
  -30866   -30866   -30867   -30870   -30869   -30865   -30865   -30866 
  -30865   -30867   -30869   -30865   -30863   -30869   -30869   -30867 
  -30869   -30869   -30869   -30869   -30867   -30866   -30867   -30867 
  -30869   -30869   -30867   -30870   -30870   -30866   -30866   -30869 
  -30870   -30870   -30869   -30866   -30865   -30866   -30867   -30865 
  -30865   -30870   -30869   -30865   -30866   -30867   -30867   -30869 
  -30867   -30866   -30867   -30867   -30867   -30867   -30867   -30867 
  -30865   -30866   -30869   -30867   -30866   -30869   -30869   -30869 
  -30870   -30869   -30869   -30867   -30863   -30865   -30869   -30869 
  -30865   -30866   -30869   -30867   -30866   -30865   -30866   -30869 
  -30867   -30867   -30866   -30865   -30866   -30870   -30870   -30869 
  -30866   -30865   -30867   -30869   -30866   -30867   -30867   -30866 
  -30869   -30869   -30866   -30866   -30866   -30865   -30866   -30869 
  -30866   -30865   -30867   -30867   -30866   -30869   -30870   -30867 
  -30867   -30867   -30866   -30866   -30869   -30870   -30869   -30867 
  -30867   -30866   -30867   -30869   -30867   -30865   -30866   -30866 
  -30865   -30866   -30869   -30867   -30863   -30867   -30869   -30867 
  -30870   -30871   -30869   -30869   -30869   -30869   -30870   -30866 
  -30865   -30869   -30869   -30866   -30867   -30869   -30866   -30866 
  -30867   -30866   -30865   -30867   -30869   -30867   -30867   -30866 
  -30866   -30867   -30867   -30865   -30863   -30866   -30870   -30870 
  -30867   -30866   -30866   -30865   -30865   -30867   -30869   -30867 
  -30866   -30869   -30869   -30865   -30865   -30866   -30866   -30867 
  -30869   -30869   -30871   -30873   -30873   -30878   -30894   -30915 
  -30933   -30946   -30952   -30952   -30932   -30889   -30842   -30802 
  -30774   -30758   -30754   -30740   -30715   -30728   -30824   -30966 
  -31083   -31114   -31006   -30808   -30682   -30688   -30735   -30774 
  -30835   -30916   -30959   -30958   -30931   -30866   -30781   -30762 
  -30805   -30811   -30769   -30773   -30875   -31055   -31186   -31133 
  -30971   -30850   -30775   -30742   -30774   -30846   -30898   -30915 
  -30912   -30888   -30840   -30767   -30701   -30731   -30838   -30901 
  -30908   -30924   -30977   -31004   -30937   -30851   -30838   -30847 
  -30844   -30870   -30885   -30843   -30811   -30852   -30896   -30851 
  -30804   -30843   -30894   -30892   -30865   -30859   -30875   -30869 
  -30870   -30940   -30977   -30901   -30839   -30820   -30785   -30785 
  -30820   -30844   -30862   -30866   -30910   -31024   -31043   -30906 
  -30800   -30789   -30817   -30881   -30892   -30832   -30809   -30781 
  -30786   -30966   -31094   -30964   -30823   -30805   -30754   -30716 
  -30785   -30850   -30925   -31056   -31040   -30877   -30801   -30766 
  -30704   -30751   -30874   -30916   -30901   -30902   -30890   -30840 
  -30828   -30888   -30933   -30893   -30854   -30889   -30882   -30823 
  -30861   -30940   -30901   -30813   -30827   -30855   -30781   -30744 
  -30813   -30844   -30838   -30879   -30917   -30886   -30862   -30947 
  -31017   -30982   -30944   -30908   -30870   -30879   -30870   -30796 
  -30740   -30770   -30867   -30960   -30963   -30866   -30778   -30785 
  -30835   -30874   -30924   -30942   -30886   -30844   -30873   -30958 
  -30974   -30834   -30747   -30827   -30875   -30881   -30943   -30940 
  -30817   -30730   -30790   -30902   -30865   -30766   -30848   -30955 
  -30916   -30886   -30897   -30856   -30839   -30912   -30935   -30848 
  -30788   -30782   -30798   -30832   -30863   -30921   -30969   -30924 
  -30878   -30889   -30834   -30748   -30790   -30898   -30935   -30893 
  -30844   -30858   -30898   -30894   -30908   -30956   -30910   -30804 
  -30802   -30897   -30917   -30856   -30859   -30871   -30850   -30863 
  -30836   -30790   -30844   -30932   -30943   -30871   -30811   -30808 
  -30824   -30848   -30865   -30905   -30950   -30913   -30910   -30939 
  -30883   -30881   -30896   -30808   -30778   -30824   -30844   -30858 
  -30870   -30861   -30831   -30848   -30916   -30897   -30859   -30900 
  -30897   -30885   -30898   -30866   -30893   -30963   -30900   -30758 
  -30689   -30746   -30874   -30924   -30865   -30878   -30985   -30979 
  -30873   -30825   -30812   -30792   -30823   -30865   -30889   -30933 
  -30936   -30873   -30851   -30877   -30855   -30804   -30789   -30794 
  -30847   -30947   -30966   -30910   -30906   -30951   -30951   -30859 
  -30748   -30740   -30827   -30873   -30820   -30817   -30904   -30955 
  -30960   -30879   -30739   -30738   -30859   -30951   -31008   -31041 
  -31010   -30906   -30813   -30780   -30773   -30778   -30769   -30797 
  -30870   -30875   -30882   -30973   -31000   -30936   -30893   -30844 
  -30802   -30836   -30858   -30825   -30816   -30834   -30886   -30967 
  -30959   -30875   -30848   -30848   -30824   -30843   -30875   -30840 
  -30825   -30862   -30861   -30863   -30896   -30854   -30789   -30831 
  -30893   -30874   -30846   -30835   -30846   -30920   -30944   -30889 
  -30897   -30923   -30897   -30901   -30897   -30856   -30843   -30828 
  -30815   -30840   -30854   -30862   -30900   -30939   -30963   -30927 
  -30854   -30829   -30828   -30838   -30875   -30894   -30913   -30905 
  -30813   -30753   -30747   -30740   -30801   -30897   -30954   -30978 
  -30920   -30846   -30885   -30932   -30879   -30835   -30839   -30832 
  -30877   -30931   -30877   -30854   -30897   -30859   -30816   -30846 
  -30839   -30788   -30815   -30912   -30956   -30931   -30904   -30870 
  -30816   -30821   -30875   -30861   -30798   -30780   -30840   -30954 
  -30993   -30896   -30798   -30823   -30902   -30885   -30827   -30893 
  -31004   -31010   -30935   -30835   -30758   -30757   -30816   -30862 
  -30870   -30885   -30905   -30877   -30815   -30824   -30910   -30917 
  -30856   -30863   -30867   -30824   -30829   -30852   -30871   -30939 
  -30967   -30893   -30835   -30835   -30802   -30790   -30847   -30871 
  -30888   -30942   -30909   -30846   -30882   -30906   -30865   -30854 
  -30862   -30831   -30828   -30888   -30908   -30877   -30879   -30859 
  -30802   -30827   -30920   -30948   -30867   -30777   -30797   -30892 
  -30944   -30950   -30921   -30855   -30839   -30881   -30878   -30856 
  -30873   -30897   -30917   -30927   -30890   -30800   -30715   -30739 
  -30840   -30892   -30863   -30821   -30859   -30935   -30935   -30889 
  -30877   -30878   -30856   -30862   -30908   -30886   -30808   -30805 
  -30851   -30840   -30825   -30889   -30933   -30897   -30924   -30998 
  -30939   -30835   -30794   -30736   -30719   -30817   -30921   -30969 
  -30974   -30937   -30904   -30921   -30954   -30925   -30862   -30824 
  -30815   -30836   -30862   -30862   -30865   -30865   -30844   -30846 
  -30854   -30852   -30893   -30936   -30890   -30800   -30777   -30835 
  -30902   -30943   -30925   -30843   -30811   -30865   -30893   -30877 
  -30893   -30925   -30900   -30838   -30804   -30798   -30782   -30738 
  -30727   -30811   -30915   -30952   -30959   -30973   -30946   -30862 
  -30807   -30801   -30798   -30840   -30920   -30937   -30888   -30821 
  -30773   -30809   -30900   -30910   -30852   -30835   -30863   -30879 
  -30878   -30909   -30947   -30894   -30829   -30916   -30987   -30856 
  -30751   -30851   -30950   -30931   -30916   -30896   -30780   -30692 
  -30739   -30844   -30929   -30978   -30974   -30906   -30850   -30825 
  -30796   -30789   -30819   -30882   -30971   -31010   -30960   -30890 
  -30892   -30882   -30780   -30753   -30842   -30847   -30827   -30939 
  -31033   -30967   -30906   -30920   -30836   -30707   -30715   -30740 
  -30717   -30811   -30955   -31001   -31009   -30963   -30848   -30811 
  -30839   -30856   -30883   -30859   -30781   -30743   -30739   -30823 
  -30977   -30981   -30894   -30925   -30959   -30921   -30925   -30879 
  -30778   -30821   -30912   -30870   -30839   -30866   -30850   -30809 
  -30773   -30786   -30859   -30898   -30894   -30886   -30893   -30936 
  -30978   -31002   -30979   -30848   -30734   -30747   -30774   -30800 
  -30893   -30937   -30901   -30877   -30846   -30862   -30935   -30892 
  -30801   -30851   -30936   -30947   -30923   -30875   -30800   -30742 
  -30771   -30859   -30901   -30881   -30859   -30888   -30940   -30977 
  -30970   -30858   -30717   -30694   -30720   -30740   -30813   -30862 
  -30877   -30937   -30978   -31006   -31074   -31024   -30832   -30747 
  -30835   -30898   -30854   -30805   -30828   -30856   -30831   -30828 
  -30878   -30890   -30875   -30875   -30873   -30885   -30883   -30850 
  -30855   -30870   -30840   -30834   -30869   -30862   -30825   -30879 
  -30916   -30823   -30797   -30902   -30977   -30978   -30927   -30861 
  -30848   -30851   -30869   -30939   -30959   -30917   -30882   -30838 
  -30815   -30844   -30832   -30761   -30754   -30829   -30897   -30940 
  -30935   -30862   -30836   -30858   -30820   -30800   -30823   -30800 
  -30796   -30882   -30987   -31001   -30912   -30824   -30782   -30769 
  -30835   -30962   -31006   -30954   -30915   -30866   -30784   -30789 
  -30865   -30890   -30919   -30958   -30928   -30905   -30940   -30900 
  -30784   -30784   -30866   -30863   -30832   -30847   -30824   -30778 
  -30785   -30850   -30944   -30960   -30878   -30843   -30882   -30893 
  -30838   -30794   -30831   -30873   -30867   -30883   -30928   -30935 
  -30892   -30863   -30847   -30824   -30871   -30977   -30983   -30882 
  -30802   -30770   -30750   -30786   -30869   -30870   -30809   -30847 
  -30971   -31023   -30950   -30823   -30759   -30812   -30888   -30910 
  -30900   -30869   -30847   -30889   -30944   -30921   -30885   -30890 
  -30835   -30754   -30794   -30855   -30824   -30809   -30827   -30819 
  -30823   -30827   -30847   -30898   -30905   -30917   -30981   -30971 
  -30896   -30867   -30878   -30881   -30875   -30865   -30854   -30842 
  -30835   -30836   -30832   -30829   -30883   -30964   -30924   -30804 
  -30782   -30835   -30836   -30835   -30927   -31016   -30979   -30893 
  -30850   -30825   -30781   -30774   -30852   -30917   -30886   -30870 
  -30905   -30859   -30767   -30805   -30937   -31004   -30975   -30909 
  -30865   -30859   -30848   -30829   -30854   -30867   -30827   -30848 
  -30935   -30936   -30870   -30842   -30835   -30815   -30796   -30816 
  -30863   -30867   -30840   -30859   -30904   -30906   -30901   -30931 
  -30929   -30879   -30861   -30852   -30829   -30823   -30797   -30782 
  -30866   -30959   -30955   -30915   -30878   -30827   -30801   -30817 
  -30854   -30906   -30935   -30921   -30896   -30877   -30870   -30856 
  -30811   -30781   -30836   -30921   -30960   -30951   -30906   -30867 
  -30848   -30832   -30834   -30855   -30865   -30878   -30893   -30870 
  -30840   -30875   -30925   -30894   -30836   -30809   -30784   -30775 
  -30840   -30923   -30925   -30885   -30862   -30825   -30832   -30908 
  -30917   -30866   -30852   -30838   -30824   -30856   -30870   -30839 
  -30852   -30908   -30920   -30892   -30892   -30904   -30870   -30831 
  -30852   -30898   -30923   -30927   -30893   -30851   -30852   -30846 
  -30834   -30886   -30925   -30877   -30846   -30879   -30885   -30844 
  -30854   -30874   -30825   -30836   -30935   -30915   -30798   -30767 
  -30793   -30832   -30897   -30908   -30863   -30862   -30886   -30886 
  -30882   -30879   -30851   -30824   -30856   -30900   -30886   -30882 
  -30915   -30897   -30832   -30804   -30817   -30847   -30862   -30838 
  -30817   -30842   -30875   -30888   -30904   -30917   -30888   -30852 
  -30870   -30898   -30877   -30834   -30827   -30844   -30847   -30866 
  -30896   -30879   -30866   -30881   -30846   -30790   -30804   -30878 
  -30950   -30948   -30874   -30839   -30865   -30861   -30839   -30855 
  -30885   -30905   -30915   -30885   -30838   -30829   -30843   -30869 
  -30902   -30909   -30909   -30908   -30867   -30821   -30817   -30854 
  -30901   -30908   -30879   -30871   -30881   -30865   -30843   -30842 
  -30824   -30831   -30883   -30920   -30927   -30908   -30886   -30901 
  -30890   -30842   -30855   -30879   -30834   -30807   -30840   -30856 
  -30852   -30881   -30923   -30921   -30867   -30836   -30867   -30892 
  -30888   -30886   -30871   -30842   -30823   -30817   -30829   -30851 
  -30847   -30835   -30870   -30931   -30939   -30886   -30834   -30827 
  -30862   -30890   -30882   -30855   -30828   -30825   -30840   -30865 
  -30906   -30897   -30840   -30854   -30905   -30917   -30924   -30893 
  -30817   -30797   -30832   -30878   -30927   -30920   -30859   -30863 
  -30915   -30879   -30821   -30844   -30874   -30861   -30865   -30894 
