Origin Time       2025/03/30 10:46:00
Lat.              32.923
Long.             130.372
Depth. (km)       11
Mag.              3.4
Station Code      KMMH17
Station Lat.      32.9873
Station Long.     130.5608
Station Height(m) -45
Record Time       2025/03/30 10:46:24
Sampling Freq(Hz) 100Hz
Duration Time(s)  120
Dir.              1
Scale Factor      3923(gal)/8224838
Max. Acc. (gal)   1.031
Last Correction   2025/03/30 10:46:24
Memo.             
[...]
  -11119   -11117   -11114   -11114   -11117   -11118   -11117   -11115 
  -11115   -11114   -11115   -11117   -11115   -11113   -11114   -11117 
  -11117   -11115   -11115   -11115   -11115   -11117   -11117   -11115 
  -11114   -11115   -11118   -11115   -11115   -11118   -11117   -11115 
  -11118   -11117   -11115   -11115   -11115   -11114   -11114   -11115 
  -11117   -11117   -11117   -11117   -11113   -11114   -11115   -11115 
  -11115   -11115   -11115   -11117   -11114   -11115   -11118   -11117 
  -11115   -11114   -11114   -11117   -11118   -11115   -11115   -11115 
  -11114   -11114   -11114   -11115   -11115   -11113   -11114   -11117 
  -11115   -11115   -11119   -11118   -11114   -11115   -11117   -11117 
  -11117   -11115   -11114   -11115   -11114   -11113   -11115   -11117 
  -11117   -11117   -11115   -11114   -11115   -11117   -11115   -11115 
  -11115   -11115   -11115   -11117   -11117   -11115   -11115   -11115 
  -11114   -11115   -11117   -11117   -11118   -11119   -11117   -11115 
  -11118   -11115   -11114   -11117   -11117   -11114   -11114   -11117 
  -11117   -11115   -11117   -11117   -11115   -11117   -11115   -11114 
  -11115   -11115   -11114   -11115   -11115   -11115   -11117   -11117 
  -11114   -11115   -11115   -11114   -11115   -11117   -11115   -11113 
  -11113   -11114   -11117   -11115   -11113   -11114   -11115   -11113 
  -11113   -11115   -11115   -11117   -11115   -11115   -11118   -11117 
  -11114   -11114   -11115   -11115   -11117   -11117   -11114   -11111 
  -11114   -11117   -11115   -11113   -11114   -11117   -11115   -11113 
  -11115   -11114   -11113   -11115   -11117   -11114   -11115   -11115 
  -11113   -11114   -11114   -11113   -11113   -11115   -11115   -11115 
  -11115   -11114   -11117   -11118   -11115   -11114   -11114   -11117 
  -11118   -11115   -11114   -11115   -11114   -11114   -11117   -11117 
  -11115   -11114   -11115   -11114   -11114   -11115   -11117   -11115 
  -11115   -11117   -11114   -11114   -11115   -11115   -11114   -11115 
  -11117   -11117   -11114   -11117   -11118   -11115   -11115   -11114 
  -11115   -11117   -11115   -11114   -11114   -11114   -11113   -11114 
  -11115   -11117   -11117   -11114   -11114   -11114   -11114   -11115 
  -11115   -11114   -11114   -11117   -11117   -11117   -11117   -11114 
  -11113   -11114   -11114   -11113   -11114   -11115   -11115   -11115 
  -11113   -11113   -11115   -11115   -11114   -11114   -11114   -11114 
  -11115   -11114   -11115   -11117   -11115   -11115   -11117   -11118 
  -11118   -11118   -11117   -11115   -11115   -11118   -11115   -11113 
  -11111   -11114   -11117   -11118   -11117   -11114   -11115   -11117 
  -11117   -11115   -11117   -11118   -11117   -11115   -11115   -11115 
  -11115   -11117   -11115   -11115   -11118   -11117   -11115   -11117 
  -11115   -11115   -11115   -11117   -11117   -11115   -11117   -11117 
  -11114   -11117   -11118   -11114   -11115   -11117   -11118   -11121 
  -11118   -11115   -11117   -11115   -11117   -11118   -11117   -11117 
  -11115   -11114   -11117   -11118   -11118   -11115   -11115   -11117 
  -11115   -11115   -11114   -11114   -11115   -11115   -11114   -11117 
  -11117   -11113   -11115   -11118   -11115   -11114   -11114   -11114 
  -11114   -11115   -11118   -11117   -11115   -11115   -11117   -11115 
  -11114   -11115   -11117   -11117   -11117   -11115   -11115   -11117 
  -11117   -11115   -11117   -11117   -11115   -11115   -11115   -11114 
  -11117   -11118   -11117   -11115   -11117   -11117   -11117   -11117 
  -11115   -11114   -11118   -11118   -11113   -11114   -11117   -11115 
  -11114   -11115   -11115   -11114   -11115   -11118   -11118   -11115 
  -11117   -11117   -11115   -11114   -11113   -11115   -11114   -11113 
  -11117   -11117   -11113   -11114   -11117   -11115   -11114   -11117 
  -11117   -11115   -11115   -11114   -11114   -11117   -11117   -11115 
  -11117   -11118   -11115   -11114   -11117   -11117   -11114   -11114 
  -11117   -11118   -11115   -11115   -11118   -11117   -11114   -11114 
  -11117   -11117   -11115   -11114   -11115   -11115   -11114   -11114 
  -11115   -11117   -11117   -11115   -11117   -11115   -11115   -11115 
  -11115   -11115   -11117   -11118   -11115   -11115   -11117   -11115 
  -11115   -11115   -11117   -11117   -11117   -11117   -11115   -11115 
  -11115   -11114   -11115   -11115   -11113   -11114   -11118   -11119 
  -11118   -11114   -11115   -11115   -11115   -11117   -11118   -11117 
  -11115   -11113   -11114   -11118   -11117   -11114   -11114   -11113 
  -11113   -11117   -11117   -11114   -11113   -11115   -11117   -11117 
  -11115   -11117   -11118   -11117   -11115   -11117   -11115   -11117 
  -11118   -11115   -11115   -11115   -11114   -11115   -11117   -11115 
  -11115   -11115   -11117   -11117   -11114   -11115   -11115   -11114 
  -11114   -11115   -11117   -11117   -11118   -11115   -11113   -11115 
  -11117   -11115   -11117   -11118   -11115   -11114   -11115   -11117 
  -11117   -11117   -11115   -11114   -11114   -11114   -11115   -11114 
  -11115   -11115   -11117   -11117   -11117   -11115   -11114   -11114 
  -11117   -11118   -11118   -11115   -11115   -11115   -11118   -11117 
  -11117   -11119   -11119   -11118   -11119   -11118   -11117   -11115 
  -11115   -11117   -11117   -11115   -11114   -11114   -11115   -11118 
  -11117   -11115   -11115   -11114   -11115   -11115   -11115   -11117 
  -11117   -11114   -11115   -11117   -11115   -11115   -11117   -11114 
  -11114   -11117   -11117   -11114   -11113   -11114   -11114   -11115 
  -11115   -11114   -11115   -11117   -11115   -11115   -11117   -11117 
  -11114   -11115   -11115   -11114   -11114   -11115   -11115   -11114 
  -11113   -11114   -11115   -11117   -11115   -11114   -11113   -11113 
  -11115   -11115   -11114   -11114   -11117   -11117   -11113   -11115 
  -11117   -11117   -11118   -11118   -11117   -11118   -11117   -11115 
  -11117   -11117   -11114   -11115   -11117   -11118   -11117   -11115 
  -11115   -11115   -11115   -11115   -11117   -11115   -11117   -11117 
  -11115   -11114   -11115   -11118   -11118   -11115   -11115   -11115 
  -11114   -11115   -11117   -11114   -11115   -11117   -11114   -11114 
  -11115   -11117   -11115   -11115   -11115   -11115   -11115   -11117 
  -11115   -11113   -11115   -11117   -11115   -11115   -11117   -11115 
  -11114   -11115   -11117   -11117   -11118   -11115   -11115   -11117 
  -11115   -11115   -11118   -11119   -11117   -11115   -11115   -11114 
  -11115   -11115   -11115   -11115   -11115   -11115   -11114   -11113 
  -11115   -11118   -11115   -11114   -11115   -11117   -11118   -11117 
  -11117   -11118   -11117   -11115   -11115   -11115   -11113   -11115 
  -11117   -11115   -11117   -11118   -11115   -11115   -11117   -11117 
  -11113   -11113   -11117   -11117   -11115   -11115   -11115   -11117 
  -11119   -11118   -11115   -11115   -11117   -11115   -11114   -11117 
  -11115   -11114   -11115   -11117   -11115   -11117   -11117   -11114 
  -11114   -11117   -11117   -11115   -11115   -11115   -11115   -11117 
  -11117   -11115   -11115   -11115   -11117   -11117   -11117   -11117 
  -11115   -11115   -11115   -11113   -11114   -11117   -11117   -11117 
  -11117   -11115   -11117   -11118   -11115   -11114   -11115   -11117 
  -11117   -11117   -11118   -11117   -11114   -11113   -11114   -11117 
  -11117   -11114   -11114   -11115   -11115   -11113   -11115   -11117 
  -11115   -11113   -11113   -11117   -11117   -11113   -11113   -11117 
  -11115   -11114   -11117   -11115   -11113   -11117   -11117   -11115 
  -11114   -11115   -11115   -11117   -11117   -11115   -11114   -11115 
  -11115   -11114   -11111   -11113   -11117   -11117   -11115   -11117 
  -11117   -11114   -11114   -11115   -11115   -11117   -11117   -11117 
  -11118   -11117   -11114   -11117   -11119   -11115   -11111   -11113 
  -11114   -11114   -11115   -11115   -11115   -11115   -11117   -11118 
  -11115   -11115   -11115   -11114   -11115   -11118   -11117   -11115 
  -11117   -11115   -11113   -11114   -11114   -11115   -11118   -11115 
  -11111   -11111   -11115   -11118   -11115   -11115   -11119   -11117 
  -11114   -11117   -11118   -11115   -11117   -11118   -11117   -11115 
  -11115   -11117   -11117   -11117   -11115   -11115   -11117   -11118 
  -11117   -11115   -11115   -11117   -11114   -11114   -11115   -11115 
  -11115   -11114   -11115   -11114   -11114   -11115   -11115   -11115 
  -11114   -11114   -11114   -11114   -11114   -11113   -11115   -11114 
  -11113   -11115   -11118   -11117   -11115   -11114   -11114   -11115 
  -11115   -11115   -11115   -11114   -11113   -11114   -11114   -11113 
  -11114   -11115   -11117   -11115   -11113   -11114   -11115   -11114 
  -11115   -11118   -11115   -11115   -11117   -11114   -11114   -11117 
  -11115   -11114   -11114   -11115   -11115   -11115   -11117   -11117 
  -11115   -11114   -11115   -11115   -11114   -11115   -11115   -11118 
  -11118   -11115   -11115   -11119   -11118   -11115   -11115   -11113 
  -11111   -11115   -11117   -11115   -11114   -11115   -11115   -11117 
  -11118   -11118   -11115   -11115   -11115   -11115   -11115   -11118 
  -11118   -11117   -11117   -11114   -11115   -11119   -11117   -11114 
  -11117   -11118   -11115   -11117   -11117   -11114   -11117   -11118 
  -11115   -11115   -11113   -11113   -11115   -11117   -11117   -11117 
  -11117   -11117   -11117   -11114   -11115   -11117   -11115   -11114 
  -11117   -11118   -11115   -11115   -11115   -11114   -11115   -11118 
  -11117   -11117   -11117   -11115   -11115   -11115   -11115   -11117 
  -11114   -11113   -11115   -11117   -11117   -11117   -11114   -11115 
  -11115   -11114   -11117   -11118   -11117   -11117   -11115   -11115 
  -11115   -11117   -11117   -11114   -11114   -11115   -11115   -11115 
  -11117   -11117   -11115   -11117   -11118   -11118   -11118   -11118 
  -11115   -11115   -11115   -11115   -11115   -11115   -11115   -11114 
  -11114   -11114   -11114   -11115   -11115   -11117   -11117   -11118 
  -11118   -11115   -11114   -11114   -11114   -11115   -11117   -11115 
  -11114   -11115   -11115   -11115   -11117   -11117   -11115   -11117 
  -11117   -11115   -11113   -11114   -11115   -11115   -11115   -11115 
  -11114   -11117   -11118   -11115   -11117   -11118   -11114   -11111 
  -11114   -11117   -11118   -11117   -11117   -11118   -11115   -11114 
  -11115   -11118   -11118   -11117   -11115   -11117   -11118   -11118 
  -11118   -11115   -11113   -11115   -11118   -11118   -11117   -11115 
  -11114   -11114   -11115   -11115   -11114   -11114   -11117   -11117 
  -11115   -11115   -11114   -11115   -11117   -11115   -11114   -11115 
  -11115   -11114   -11113   -11114   -11117   -11115   -11114   -11115 
  -11115   -11117   -11115   -11113   -11114   -11114   -11114   -11115 
  -11117   -11117   -11117   -11114   -11115   -11117   -11115   -11114 
  -11114   -11114   -11114   -11111   -11113   -11117   -11113   -11110 
  -11111   -11114   -11117   -11117   -11115   -11114   -11115   -11117 
  -11115   -11113   -11113   -11114   -11115   -11115   -11114   -11115 
  -11117   -11114   -11117   -11118   -11118   -11118   -11117   -11115 
  -11114   -11114   -11118   -11117   -11114   -11114   -11113   -11114 
  -11115   -11115   -11114   -11115   -11118   -11117   -11114   -11113 
  -11115   -11115   -11117   -11117   -11114   -11115   -11115   -11114 
  -11117   -11118   -11114   -11111   -11114   -11118   -11118   -11115 
  -11115   -11114   -11114   -11115   -11115   -11115   -11115   -11114 
  -11115   -11118   -11115   -11115   -11117   -11117   -11117   -11117 
  -11115   -11115   -11119   -11119   -11115   -11117   -11119   -11115 
  -11114   -11117   -11118   -11117   -11115   -11117   -11118   -11115 
  -11114   -11114   -11114   -11114   -11115   -11115   -11115   -11114 
  -11115   -11118   -11117   -11117   -11115   -11115   -11117   -11117 
  -11115   -11115   -11117   -11115   -11115   -11117   -11117   -11115 
  -11114   -11115   -11117   -11115   -11115   -11118   -11118   -11117 
  -11117   -11115   -11114   -11114   -11115   -11117   -11115   -11117 
  -11115   -11113   -11114   -11117   -11117   -11118   -11118   -11115 
  -11115   -11117   -11114   -11114   -11115   -11115   -11117   -11117 
  -11115   -11115   -11114   -11113   -11114   -11114   -11114   -11114 
  -11117   -11115   -11113   -11115   -11117   -11118   -11118   -11117 
  -11114   -11115   -11115   -11114   -11117   -11117   -11115   -11115 
  -11115   -11115   -11114   -11114   -11117   -11117   -11115   -11114 
  -11115   -11114   -11114   -11115   -11115   -11115   -11115   -11114 
  -11114   -11117   -11118   -11118   -11117   -11114   -11115   -11117 
  -11117   -11115   -11114   -11114   -11115   -11115   -11113   -11113 
  -11115   -11117   -11115   -11117   -11117   -11117   -11117   -11115 
  -11113   -11114   -11117   -11115   -11115   -11119   -11118   -11113 
  -11114   -11117   -11115   -11114   -11115   -11115   -11114   -11114 
  -11115   -11117   -11118   -11118   -11118   -11118   -11117   -11115 
  -11115   -11117   -11118   -11118   -11115   -11114   -11115   -11115 
  -11115   -11118   -11117   -11118   -11117   -11115   -11117   -11128 
  -11175   -11323   -11569   -11649   -11113   -10053    -9587   -10643 
  -12259   -12509   -11349   -10720   -11267   -11291    -9944    -9224 
  -10879   -13001   -12683   -10605   -10042   -11808   -12698   -10814 
   -8954    -9788   -12100   -12955   -11352    -9779   -10673   -12523 
  -12372   -10150    -9072   -11082   -13000   -11709    -9709   -10265 
  -12148   -12301   -10550    -9772   -11018   -11840   -11124   -10611 
  -11261   -11834   -11294   -10608   -10723   -11083   -11315   -11422 
  -11173   -10910   -11043   -11246   -11157   -10945   -11025   -11256 
  -11169   -10980   -11055   -11195   -11200   -11038   -10893   -11070 
  -11245   -11043   -10951   -11311   -11519   -11141   -10748   -11016 
  -11574   -11518   -11009   -10994   -11338   -11234   -10793   -10692 
  -11092   -11399   -11191   -10975   -11061   -11148   -11156   -11142 
  -11057   -10990   -11021   -11075   -11168   -11273   -11252   -11215 
  -11129   -10822   -10762   -11190   -11387   -11114   -11038   -11254 
  -11261   -11025   -10990   -11284   -11295   -10893   -10883   -11259 
  -11232   -10937   -10972   -11230   -11236   -10912   -10782   -11083 
  -11337   -11364   -11295   -11079   -10928   -11087   -11330   -11296 
  -11009   -10898   -11109   -11187   -10989   -11011   -11330   -11354 
  -10998   -10849   -11110   -11367   -11283   -11002   -10922   -11118 
  -11256   -11198   -11115   -11092   -11090   -11106   -11144   -11140 
  -11080   -11067   -11151   -11191   -11083   -11018   -11134   -11213 
  -11126   -10993   -10903   -10926   -11059   -11180   -11260   -11268 
  -11130   -10994   -11006   -11130   -11306   -11354   -11198   -11065 
  -11059   -11061   -11059   -11070   -11121   -11222   -11223   -11056 
  -10940   -11010   -11086   -11078   -11136   -11257   -11291   -11183 
  -11041   -11020   -11117   -11236   -11215   -11005   -10881   -11045 
  -11245   -11105   -10825   -11009   -11535   -11547   -10929   -10650 
  -11138   -11556   -11287   -10864   -10994   -11396   -11275   -10789 
  -10746   -11155   -11372   -11182   -10947   -11022   -11264   -11233 
  -10949   -10876   -11122   -11223   -10986   -10956   -11358   -11562 
  -11229   -10844   -10937   -11345   -11446   -11122   -10909   -11018 
  -11101   -10953   -10821   -11055   -11481   -11472   -11022   -10805 
  -11059   -11362   -11222   -10847   -10930   -11360   -11430   -11072 
  -10913   -11299   -11531   -11029   -10631   -11011   -11406   -11202 
  -10930   -11128   -11484   -11340   -10714   -10528   -11056   -11215 
  -10667   -10501   -11145   -11801   -11759   -11178   -10868   -11144 
  -11242   -10831   -10619   -10935   -11271   -11238   -11103   -11218 
  -11358   -11218   -10963   -10967   -11325   -11620   -11427   -10943 
  -10723   -11024   -11433   -11299   -10816   -10741   -11071   -11214 
  -11110   -11210   -11456   -11264   -10773   -10729   -11101   -11250 
  -11009   -10818   -11032   -11361   -11433   -11422   -11496   -11377 
  -10978   -10739   -10936   -11267   -11330   -11088   -10876   -11010 
  -11306   -11360   -11111   -10801   -10791   -11171   -11453   -11322 
  -11156   -11227   -11191   -10868   -10791   -11215   -11400   -10914 
  -10596   -10997   -11313   -10952   -10623   -10989   -11489   -11377 
  -11018   -11129   -11473   -11384   -10960   -10775   -10925   -11087 
  -11105   -11151   -11265   -11156   -10882   -10879   -11103   -11191 
  -11148   -11234   -11396   -11387   -11254   -11134   -11049   -11032 
  -11102   -11217   -11211   -11072   -11053   -11145   -11107   -11114 
  -11388   -11496   -11113   -10786   -10997   -11345   -11214   -10839 
  -10909   -11225   -11111   -10733   -10758   -11215   -11477   -11333 
  -11128   -10966   -10844   -10859   -10960   -11121   -11283   -11308 
  -11259   -11227   -11215   -11215   -11152   -11032   -10945   -10943 
  -10997   -11052   -11153   -11267   -11256   -11129   -11053   -11160 
  -11188   -10952   -10849   -11132   -11450   -11388   -11041   -10949 
  -11183   -11234   -11076   -11134   -11299   -11188   -10995   -11045 
  -11149   -11076   -10971   -10978   -11056   -11110   -11052   -10960 
  -10991   -11088   -11142   -11178   -11178   -11151   -11192   -11191 
  -11065   -11087   -11280   -11205   -10872   -10878   -11257   -11380 
  -11126   -11074   -11376   -11410   -10951   -10743   -11119   -11361 
  -11121   -10921   -10998   -11071   -11130   -11329   -11454   -11227 
  -10868   -10844   -11103   -11237   -11222   -11230   -11168   -10948 
  -10795   -10951   -11203   -11211   -11098   -11099   -11132   -11129 
  -11171   -11234   -11200   -11076   -11060   -11142   -11086   -10959 
  -11101   -11381   -11265   -10876   -10856   -11172   -11267   -11051 
  -10972   -11163   -11236   -11063   -11038   -11341   -11448   -11034 
  -10727   -10998   -11354   -11225   -10864   -10912   -11296   -11395 
  -11076   -10840   -11045   -11364   -11291   -10994   -10949   -11141 
  -11248   -11203   -11098   -10897   -10789   -11044   -11426   -11523 
  -11308   -11048   -10932   -10918   -10999   -11167   -11260   -11233 
  -11175   -11092   -11051   -11132   -11252   -11232   -11051   -10947 
  -11070   -11186   -11094   -11011   -11111   -11217   -11217   -11149 
  -11030   -10943   -10991   -11117   -11152   -11097   -11129   -11196 
  -11149   -11094   -11111   -11161   -11183   -11121   -11105   -11161 
  -11078   -10940   -11075   -11352   -11253   -10883   -10917   -11314 
  -11375   -11045   -10910   -11128   -11246   -11043   -10933   -11110 
  -11194   -11129   -11173   -11275   -11238   -11101   -11017   -10968 
  -10930   -11020   -11203   -11276   -11160   -11037   -11057   -11091 
  -11068   -11105   -11163   -11130   -11086   -11133   -11225   -11215 
  -11095   -11033   -11056   -11025   -10989   -11092   -11249   -11271 
  -11159   -11040   -11036   -11144   -11232   -11190   -11053   -10999 
  -11106   -11157   -11033   -10975   -11125   -11279   -11275   -11195 
  -11106   -10943   -10845   -11090   -11458   -11394   -10999   -10951 
  -11206   -11152   -10871   -10936   -11286   -11387   -11145   -10948 
