Origin Time       2025/03/30 10:46:00
Lat.              32.923
Long.             130.372
Depth. (km)       11
Mag.              3.4
Station Code      KMMH17
Station Lat.      32.9873
Station Long.     130.5608
Station Height(m) -45
Record Time       2025/03/30 10:46:24
Sampling Freq(Hz) 100Hz
Duration Time(s)  120
Dir.              3
Scale Factor      3923(gal)/8224838
Max. Acc. (gal)   0.843
Last Correction   2025/03/30 10:46:24
Memo.             
[...]
  -16526   -16528   -16528   -16528   -16526   -16529   -16529   -16526 
  -16528   -16530   -16528   -16528   -16530   -16528   -16525   -16529 
  -16530   -16526   -16526   -16528   -16528   -16526   -16526   -16528 
  -16528   -16529   -16530   -16530   -16528   -16528   -16529   -16530 
  -16530   -16529   -16528   -16528   -16528   -16529   -16526   -16525 
  -16528   -16528   -16526   -16528   -16529   -16525   -16524   -16525 
  -16526   -16526   -16525   -16526   -16528   -16526   -16528   -16528 
  -16526   -16528   -16529   -16526   -16525   -16528   -16528   -16526 
  -16528   -16526   -16525   -16526   -16526   -16528   -16530   -16528 
  -16525   -16525   -16528   -16526   -16525   -16525   -16525   -16525 
  -16525   -16525   -16526   -16526   -16524   -16526   -16528   -16525 
  -16526   -16528   -16525   -16525   -16526   -16528   -16529   -16526 
  -16526   -16528   -16529   -16528   -16528   -16528   -16529   -16530 
  -16528   -16526   -16528   -16528   -16528   -16528   -16528   -16528 
  -16528   -16529   -16528   -16526   -16529   -16530   -16528   -16525 
  -16526   -16526   -16526   -16528   -16526   -16528   -16529   -16528 
  -16528   -16525   -16524   -16529   -16530   -16528   -16528   -16529 
  -16528   -16526   -16528   -16528   -16526   -16526   -16529   -16528 
  -16526   -16525   -16525   -16528   -16528   -16528   -16529   -16526 
  -16528   -16529   -16528   -16528   -16528   -16526   -16524   -16525 
  -16526   -16525   -16525   -16528   -16529   -16529   -16526   -16525 
  -16524   -16524   -16526   -16528   -16528   -16525   -16524   -16526 
  -16528   -16526   -16526   -16529   -16529   -16525   -16525   -16526 
  -16526   -16525   -16526   -16528   -16529   -16528   -16526   -16525 
  -16525   -16528   -16528   -16524   -16528   -16530   -16526   -16525 
  -16528   -16528   -16525   -16528   -16529   -16525   -16525   -16528 
  -16526   -16526   -16529   -16528   -16526   -16525   -16526   -16528 
  -16528   -16526   -16526   -16525   -16526   -16528   -16526   -16526 
  -16528   -16526   -16525   -16526   -16529   -16528   -16528   -16529 
  -16528   -16529   -16530   -16528   -16526   -16529   -16526   -16524 
  -16526   -16530   -16529   -16525   -16526   -16529   -16528   -16526 
  -16528   -16528   -16528   -16528   -16529   -16530   -16528   -16526 
  -16526   -16528   -16529   -16528   -16524   -16522   -16526   -16529 
  -16526   -16524   -16529   -16532   -16528   -16526   -16529   -16528 
  -16525   -16526   -16528   -16528   -16528   -16526   -16525   -16526 
  -16529   -16528   -16525   -16526   -16528   -16526   -16528   -16528 
  -16525   -16526   -16530   -16528   -16525   -16526   -16526   -16526 
  -16529   -16526   -16526   -16529   -16526   -16525   -16526   -16528 
  -16529   -16528   -16525   -16526   -16528   -16528   -16528   -16526 
  -16526   -16528   -16528   -16528   -16528   -16528   -16526   -16526 
  -16528   -16528   -16528   -16525   -16525   -16528   -16529   -16526 
  -16528   -16529   -16528   -16528   -16528   -16526   -16525   -16525 
  -16529   -16529   -16526   -16526   -16526   -16525   -16528   -16529 
  -16526   -16525   -16526   -16528   -16526   -16526   -16528   -16526 
  -16526   -16528   -16526   -16525   -16528   -16530   -16526   -16525 
  -16525   -16526   -16525   -16525   -16526   -16528   -16526   -16525 
  -16526   -16528   -16528   -16526   -16528   -16525   -16522   -16524 
  -16526   -16528   -16525   -16525   -16526   -16525   -16525   -16528 
  -16526   -16525   -16528   -16528   -16528   -16528   -16528   -16526 
  -16528   -16526   -16525   -16526   -16526   -16525   -16529   -16528 
  -16524   -16526   -16529   -16528   -16526   -16528   -16528   -16525 
  -16526   -16529   -16529   -16528   -16529   -16528   -16528   -16528 
  -16526   -16526   -16529   -16528   -16528   -16530   -16528   -16526 
  -16529   -16528   -16522   -16524   -16528   -16528   -16526   -16528 
  -16526   -16525   -16529   -16530   -16528   -16526   -16526   -16526 
  -16526   -16526   -16528   -16528   -16528   -16530   -16528   -16525 
  -16526   -16525   -16525   -16529   -16528   -16526   -16529   -16529 
  -16526   -16526   -16528   -16528   -16526   -16528   -16530   -16529 
  -16526   -16528   -16529   -16528   -16528   -16529   -16526   -16525 
  -16525   -16528   -16528   -16526   -16528   -16529   -16528   -16526 
  -16526   -16529   -16529   -16526   -16529   -16530   -16529   -16528 
  -16526   -16526   -16525   -16528   -16530   -16526   -16525   -16528 
  -16526   -16525   -16528   -16528   -16525   -16525   -16526   -16526 
  -16526   -16529   -16529   -16529   -16529   -16528   -16526   -16528 
  -16528   -16529   -16529   -16526   -16526   -16526   -16525   -16524 
  -16528   -16530   -16529   -16526   -16525   -16525   -16526   -16528 
  -16528   -16529   -16529   -16526   -16525   -16528   -16528   -16526 
  -16526   -16526   -16529   -16530   -16528   -16526   -16526   -16525 
  -16525   -16525   -16526   -16528   -16529   -16528   -16524   -16522 
  -16525   -16528   -16528   -16528   -16526   -16526   -16526   -16528 
  -16528   -16528   -16528   -16528   -16526   -16525   -16524   -16526 
  -16526   -16525   -16526   -16529   -16530   -16528   -16526   -16528 
  -16529   -16529   -16526   -16526   -16530   -16530   -16529   -16528 
  -16525   -16526   -16530   -16528   -16525   -16526   -16528   -16526 
  -16528   -16528   -16526   -16524   -16524   -16528   -16528   -16526 
  -16529   -16530   -16528   -16526   -16528   -16526   -16526   -16528 
  -16528   -16528   -16529   -16528   -16526   -16525   -16525   -16526 
  -16526   -16528   -16529   -16529   -16528   -16526   -16528   -16528 
  -16526   -16529   -16529   -16526   -16525   -16528   -16528   -16525 
  -16525   -16529   -16529   -16525   -16525   -16526   -16529   -16528 
  -16526   -16528   -16528   -16526   -16526   -16528   -16528   -16525 
  -16525   -16528   -16528   -16526   -16526   -16525   -16526   -16530 
  -16529   -16525   -16526   -16528   -16526   -16526   -16530   -16532 
  -16528   -16525   -16528   -16526   -16524   -16525   -16526   -16528 
  -16528   -16528   -16529   -16530   -16529   -16528   -16526   -16528 
  -16528   -16525   -16525   -16528   -16529   -16528   -16528   -16529 
  -16528   -16525   -16526   -16529   -16528   -16528   -16528   -16528 
  -16528   -16528   -16526   -16528   -16529   -16528   -16528   -16529 
  -16528   -16528   -16528   -16526   -16526   -16528   -16529   -16529 
  -16526   -16528   -16528   -16525   -16529   -16529   -16524   -16524 
  -16526   -16529   -16526   -16525   -16525   -16528   -16528   -16525 
  -16524   -16525   -16525   -16528   -16529   -16526   -16525   -16526 
  -16526   -16528   -16529   -16528   -16529   -16528   -16526   -16529 
  -16530   -16526   -16526   -16529   -16526   -16525   -16526   -16528 
  -16528   -16528   -16526   -16526   -16526   -16526   -16525   -16526 
  -16529   -16528   -16525   -16526   -16529   -16528   -16529   -16530 
  -16526   -16526   -16528   -16526   -16526   -16528   -16528   -16526 
  -16528   -16526   -16526   -16529   -16528   -16526   -16526   -16526 
  -16526   -16529   -16528   -16526   -16528   -16526   -16526   -16525 
  -16525   -16526   -16528   -16525   -16525   -16529   -16530   -16528 
  -16528   -16526   -16528   -16529   -16528   -16528   -16529   -16528 
  -16526   -16529   -16532   -16529   -16526   -16526   -16525   -16528 
  -16528   -16526   -16528   -16529   -16528   -16528   -16528   -16528 
  -16529   -16530   -16529   -16526   -16526   -16528   -16529   -16532 
  -16529   -16526   -16526   -16529   -16529   -16526   -16526   -16528 
  -16528   -16529   -16530   -16526   -16524   -16525   -16528   -16530 
  -16528   -16528   -16528   -16526   -16528   -16528   -16524   -16525 
  -16529   -16526   -16525   -16526   -16525   -16526   -16529   -16526 
  -16525   -16528   -16526   -16525   -16525   -16528   -16530   -16529 
  -16528   -16529   -16528   -16528   -16528   -16526   -16526   -16529 
  -16528   -16526   -16528   -16528   -16525   -16524   -16526   -16528 
  -16526   -16526   -16526   -16525   -16526   -16528   -16526   -16524 
  -16526   -16529   -16530   -16529   -16526   -16525   -16526   -16528 
  -16529   -16529   -16526   -16526   -16529   -16529   -16525   -16524 
  -16525   -16526   -16526   -16526   -16528   -16530   -16529   -16529 
  -16530   -16528   -16525   -16526   -16528   -16528   -16526   -16528 
  -16528   -16528   -16526   -16525   -16528   -16528   -16526   -16528 
  -16529   -16529   -16528   -16528   -16528   -16529   -16530   -16528 
  -16526   -16529   -16532   -16528   -16528   -16528   -16525   -16526 
  -16528   -16526   -16526   -16528   -16529   -16532   -16529   -16526 
  -16528   -16528   -16526   -16525   -16526   -16525   -16528   -16528 
  -16526   -16526   -16529   -16529   -16529   -16528   -16529   -16530 
  -16529   -16526   -16526   -16524   -16526   -16530   -16529   -16526 
  -16529   -16528   -16526   -16529   -16529   -16526   -16528   -16528 
  -16528   -16528   -16525   -16524   -16526   -16529   -16526   -16525 
  -16526   -16529   -16530   -16529   -16528   -16525   -16528   -16530 
  -16528   -16528   -16529   -16529   -16529   -16529   -16528   -16530 
  -16529   -16522   -16525   -16529   -16528   -16528   -16528   -16526 
  -16526   -16526   -16529   -16529   -16526   -16525   -16528   -16526 
  -16525   -16528   -16529   -16529   -16526   -16524   -16526   -16526 
  -16525   -16528   -16528   -16526   -16525   -16525   -16525   -16526 
  -16526   -16529   -16529   -16524   -16524   -16528   -16526   -16525 
  -16528   -16526   -16524   -16524   -16525   -16526   -16525   -16526 
  -16528   -16526   -16526   -16529   -16529   -16526   -16528   -16526 
  -16525   -16526   -16528   -16528   -16526   -16525   -16526   -16530 
  -16529   -16525   -16525   -16526   -16528   -16528   -16525   -16524 
  -16525   -16528   -16525   -16524   -16528   -16532   -16526   -16522 
  -16525   -16526   -16528   -16526   -16525   -16525   -16526   -16526 
  -16526   -16526   -16526   -16526   -16526   -16526   -16528   -16528 
  -16529   -16529   -16526   -16524   -16525   -16526   -16525   -16526 
  -16530   -16526   -16524   -16526   -16528   -16526   -16525   -16525 
  -16528   -16530   -16528   -16525   -16528   -16526   -16525   -16526 
  -16528   -16528   -16528   -16528   -16526   -16528   -16529   -16528 
  -16530   -16530   -16526   -16526   -16528   -16528   -16526   -16525 
  -16524   -16525   -16526   -16529   -16528   -16526   -16528   -16526 
  -16528   -16529   -16528   -16526   -16528   -16530   -16526   -16525 
  -16526   -16526   -16525   -16526   -16526   -16526   -16525   -16528 
  -16526   -16525   -16528   -16528   -16528   -16529   -16526   -16525 
  -16530   -16532   -16526   -16525   -16525   -16525   -16526   -16525 
  -16525   -16528   -16526   -16525   -16525   -16529   -16529   -16525 
  -16526   -16530   -16529   -16528   -16528   -16528   -16526   -16528 
  -16526   -16526   -16530   -16529   -16525   -16526   -16528   -16526 
  -16526   -16526   -16524   -16524   -16526   -16528   -16525   -16525 
  -16529   -16526   -16525   -16528   -16526   -16525   -16528   -16530 
  -16528   -16526   -16528   -16529   -16526   -16526   -16528   -16528 
  -16528   -16528   -16526   -16525   -16528   -16528   -16528   -16526 
  -16526   -16528   -16528   -16526   -16528   -16528   -16528   -16528 
  -16528   -16528   -16528   -16528   -16528   -16528   -16529   -16529 
  -16529   -16530   -16528   -16525   -16526   -16528   -16528   -16528 
  -16528   -16532   -16530   -16526   -16528   -16526   -16526   -16528 
  -16529   -16529   -16528   -16525   -16526   -16528   -16528   -16528 
  -16529   -16528   -16528   -16528   -16526   -16526   -16526   -16525 
  -16525   -16526   -16528   -16526   -16526   -16528   -16526   -16526 
  -16529   -16530   -16528   -16528   -16529   -16530   -16529   -16528 
  -16530   -16530   -16526   -16526   -16529   -16529   -16528   -16528 
  -16526   -16526   -16528   -16528   -16528   -16528   -16526   -16526 
  -16525   -16526   -16528   -16528   -16528   -16526   -16526   -16526 
  -16525   -16525   -16528   -16529   -16529   -16528   -16526   -16525 
  -16526   -16525   -16525   -16528   -16526   -16528   -16528   -16525 
  -16526   -16528   -16526   -16528   -16529   -16526   -16526   -16529 
  -16528   -16525   -16525   -16528   -16530   -16526   -16526   -16528 
  -16525   -16525   -16526   -16526   -16528   -16529   -16526   -16526 
  -16526   -16528   -16529   -16528   -16528   -16528   -16529   -16528 
  -16526   -16525   -16526   -16528   -16526   -16526   -16526   -16526 
  -16525   -16528   -16526   -16524   -16525   -16528   -16526   -16524 
  -16525   -16529   -16529   -16525   -16526   -16530   -16529   -16528 
  -16526   -16528   -16526   -16526   -16529   -16529   -16526   -16528 
  -16530   -16528   -16525   -16528   -16529   -16529   -16528   -16526 
  -16526   -16529   -16528   -16525   -16528   -16528   -16528   -16530 
  -16529   -16525   -16526   -16529   -16529   -16526   -16526   -16529 
  -16529   -16529   -16529   -16528   -16526   -16525   -16526   -16529 
  -16529   -16525   -16522   -16525   -16529   -16528   -16528   -16529 
  -16529   -16529   -16529   -16530   -16528   -16525   -16526   -16526 
  -16525   -16526   -16528   -16528   -16526   -16526   -16525   -16525 
  -16526   -16525   -16522   -16526   -16528   -16528   -16528   -16529 
  -16528   -16526   -16525   -16526   -16528   -16528   -16530   -16559 
  -16703   -17146   -17888   -18177   -16926   -14901   -14760   -16513 
  -16753   -15205   -15090   -16411   -17174   -17170   -16256   -15288 
  -15936   -17265   -17362   -16290   -16027   -17131   -17485   -17069 
  -16933   -16113   -16002   -17298   -16544   -15315   -16735   -17010 
  -15923   -16897   -17298   -16175   -16370   -16696   -16175   -16429 
  -16816   -16552   -16513   -16644   -16731   -16798   -16514   -16310 
  -16398   -16285   -16190   -16285   -16308   -16507   -16854   -16799 
  -16483   -16475   -16641   -16625   -16671   -16704   -16387   -16357 
  -16773   -16642   -16252   -16480   -16723   -16549   -16459   -16592 
  -16654   -16395   -16274   -16653   -16618   -16183   -16434   -16700 
  -16333   -16220   -16449   -16556   -16555   -16394   -16407   -16700 
  -16698   -16687   -16845   -16591   -16498   -16872   -16881   -16649 
  -16402   -16120   -16356   -16679   -16522   -16432   -16405   -16329 
  -16514   -16524   -16336   -16486   -16534   -16448   -16818   -16923 
  -16390   -16343   -16742   -16711   -16505   -16468   -16484   -16521 
  -16586   -16603   -16465   -16339   -16411   -16479   -16534   -16632 
  -16515   -16409   -16586   -16568   -16371   -16549   -16663   -16337 
  -16320   -16559   -16483   -16479   -16537   -16451   -16613   -16754 
  -16556   -16460   -16644   -16738   -16525   -16395   -16578   -16695 
  -16591   -16453   -16456   -16555   -16537   -16586   -16723   -16487 
  -16313   -16605   -16546   -16193   -16282   -16530   -16575   -16536 
  -16541   -16563   -16521   -16557   -16722   -16680   -16506   -16551 
  -16615   -16578   -16505   -16387   -16449   -16695   -16822   -16621 
  -16289   -16353   -16621   -16579   -16457   -16430   -16451   -16545 
  -16441   -16210   -16316   -16544   -16546   -16575   -16664   -16564 
  -16482   -16568   -16548   -16576   -16777   -16691   -16445   -16424 
  -16460   -16490   -16514   -16503   -16652   -16764   -16484   -16330 
  -16646   -16688   -16339   -16382   -16683   -16657   -16555   -16578 
  -16479   -16417   -16428   -16251   -16405   -16741   -16384   -16127 
  -16507   -16610   -16479   -16659   -16896   -16837   -16646   -16671 
  -16761   -16741   -16676   -16425   -16227   -16387   -16498   -16380 
  -16302   -16247   -16240   -16444   -16621   -16551   -16479   -16492 
  -16421   -16326   -16494   -16808   -16850   -16799   -16640   -16225 
  -16456   -17147   -17028   -16497   -16175   -16033   -16395   -16762 
  -16478   -16082   -16025   -16278   -16681   -16800   -16687   -16675 
  -16673   -16668   -16636   -16506   -16525   -16644   -16522   -16330 
  -16471   -16776   -16734   -16398   -16414   -16829   -16892   -16623 
  -16465   -16175   -16077   -16656   -17081   -16715   -16225   -16069 
  -16067   -16437   -16965   -16989   -16787   -16588   -16324   -16397 
  -16627   -16525   -16362   -16438   -16505   -16416   -16422   -16538 
  -16497   -16410   -16507   -16614   -16621   -16487   -16247   -16347 
  -16750   -16816   -16497   -16355   -16530   -16515   -16409   -16672 
  -16727   -16279   -16171   -16536   -16707   -16587   -16445   -16394 
  -16425   -16467   -16498   -16525   -16501   -16522   -16654   -16713 
  -16623   -16534   -16556   -16586   -16461   -16362   -16556   -16845 
  -16850   -16559   -16422   -16636   -16723   -16556   -16544   -16721 
  -16691   -16495   -16406   -16295   -16363   -16677   -16772   -16633 
  -16347   -16141   -16316   -16441   -16397   -16522   -16468   -16154 
  -16384   -16908   -16726   -16360   -16536   -16600   -16393   -16563 
  -16819   -16665   -16542   -16654   -16677   -16622   -16595   -16464 
  -16231   -16123   -16318   -16609   -16559   -16363   -16497   -16637 
  -16495   -16578   -16800   -16545   -16248   -16405   -16491   -16505 
  -16768   -16808   -16501   -16378   -16637   -16853   -16637   -16410 
  -16430   -16359   -16360   -16514   -16480   -16461   -16645   -16756 
  -16679   -16509   -16470   -16541   -16513   -16524   -16579   -16509 
  -16490   -16632   -16659   -16495   -16544   -16687   -16416   -16096 
  -16303   -16675   -16613   -16363   -16399   -16513   -16541   -16646 
  -16680   -16580   -16545   -16623   -16683   -16552   -16409   -16509 
  -16575   -16472   -16461   -16521   -16506   -16509   -16517   -16375 
  -16347   -16568   -16490   -16282   -16569   -16806   -16630   -16623 
  -16690   -16451   -16245   -16414   -16729   -16752   -16560   -16465 
  -16440   -16518   -16664   -16596   -16497   -16618   -16637   -16425 
  -16434   -16691   -16617   -16401   -16578   -16681   -16448   -16395 
  -16502   -16395   -16341   -16599   -16683   -16417   -16352   -16567 
  -16518   -16285   -16441   -16700   -16640   -16517   -16397   -16343 
  -16599   -16827   -16629   -16383   -16472   -16622   -16599   -16521 
  -16474   -16515   -16646   -16652   -16514   -16479   -16502   -16498 
  -16522   -16552   -16621   -16606   -16482   -16541   -16606   -16420 
  -16413   -16664   -16627   -16379   -16426   -16650   -16614   -16393 
  -16378   -16501   -16569   -16654   -16642   -16529   -16488   -16488 
  -16553   -16627   -16465   -16285   -16440   -16560   -16509   -16618 
  -16544   -16351   -16636   -16791   -16380   -16274   -16638   -16723 
  -16464   -16325   -16418   -16474   -16447   -16546   -16654   -16588 
  -16525   -16627   -16737   -16569   -16266   -16309   -16568   -16563 
  -16463   -16521   -16595   -16657   -16663   -16586   -16654   -16708 
  -16482   -16413   -16586   -16503   -16359   -16403   -16468   -16611 
  -16664   -16474   -16426   -16567   -16588   -16598   -16663   -16645 
  -16605   -16548   -16492   -16494   -16444   -16387   -16429   -16541 
  -16578   -16443   -16418   -16588   -16618   -16528   -16488   -16448 
  -16413   -16403   -16494   -16671   -16602   -16345   -16414   -16715 
  -16733   -16514   -16384   -16391   -16507   -16555   -16438   -16491 
