Origin Time       2025/03/30 10:46:00
Lat.              32.923
Long.             130.372
Depth. (km)       11
Mag.              3.4
Station Code      KMMH17
Station Lat.      32.9873
Station Long.     130.5608
Station Height(m) 55
Record Time       2025/03/30 10:46:24
Sampling Freq(Hz) 100Hz
Duration Time(s)  120
Dir.              5
Scale Factor      7845(gal)/8223790
Max. Acc. (gal)   3.057
Last Correction   2025/03/30 10:46:24
Memo.             
[...]
   -7662    -7662    -7658    -7659    -7659    -7653    -7654    -7659 
   -7659    -7659    -7658    -7657    -7657    -7659    -7658    -7659 
   -7659    -7658    -7654    -7655    -7658    -7657    -7658    -7659 
   -7655    -7657    -7658    -7657    -7657    -7659    -7661    -7659 
   -7657    -7655    -7657    -7658    -7659    -7661    -7659    -7655 
   -7654    -7657    -7658    -7655    -7657    -7659    -7658    -7657 
   -7658    -7658    -7658    -7658    -7658    -7659    -7658    -7657 
   -7657    -7658    -7658    -7658    -7658    -7659    -7659    -7658 
   -7654    -7654    -7658    -7661    -7659    -7658    -7658    -7658 
   -7657    -7659    -7662    -7658    -7654    -7658    -7658    -7657 
   -7659    -7661    -7655    -7654    -7658    -7659    -7657    -7655 
   -7658    -7659    -7661    -7661    -7659    -7658    -7657    -7658 
   -7659    -7659    -7655    -7657    -7657    -7655    -7658    -7662 
   -7659    -7657    -7655    -7655    -7655    -7658    -7663    -7662 
   -7658    -7657    -7661    -7661    -7657    -7657    -7661    -7659 
   -7657    -7658    -7658    -7657    -7659    -7661    -7657    -7655 
   -7657    -7659    -7659    -7658    -7655    -7655    -7661    -7663 
   -7657    -7657    -7658    -7651    -7655    -7661    -7658    -7661 
   -7661    -7653    -7658    -7661    -7654    -7657    -7658    -7658 
   -7659    -7655    -7655    -7657    -7654    -7657    -7658    -7654 
   -7658    -7661    -7655    -7651    -7654    -7655    -7658    -7661 
   -7655    -7653    -7657    -7657    -7657    -7657    -7657    -7655 
   -7655    -7657    -7657    -7658    -7661    -7658    -7654    -7657 
   -7659    -7658    -7658    -7655    -7653    -7657    -7659    -7659 
   -7662    -7661    -7654    -7653    -7657    -7662    -7661    -7658 
   -7659    -7655    -7654    -7658    -7658    -7657    -7659    -7661 
   -7657    -7655    -7658    -7657    -7657    -7661    -7662    -7661 
   -7655    -7654    -7658    -7661    -7661    -7661    -7658    -7657 
   -7658    -7657    -7658    -7658    -7657    -7659    -7658    -7654 
   -7658    -7659    -7655    -7654    -7658    -7659    -7657    -7654 
   -7654    -7657    -7659    -7658    -7657    -7657    -7658    -7657 
   -7658    -7661    -7658    -7659    -7659    -7655    -7655    -7659 
   -7662    -7662    -7659    -7655    -7653    -7655    -7659    -7658 
   -7657    -7657    -7659    -7658    -7657    -7661    -7659    -7653 
   -7653    -7657    -7655    -7657    -7662    -7661    -7655    -7653 
   -7655    -7659    -7659    -7657    -7659    -7659    -7657    -7655 
   -7657    -7658    -7657    -7658    -7658    -7658    -7657    -7655 
   -7657    -7658    -7657    -7658    -7659    -7658    -7657    -7655 
   -7657    -7659    -7661    -7659    -7654    -7651    -7658    -7663 
   -7658    -7655    -7654    -7653    -7655    -7658    -7661    -7661 
   -7658    -7654    -7654    -7658    -7658    -7657    -7659    -7659 
   -7655    -7655    -7658    -7655    -7657    -7662    -7662    -7657 
   -7655    -7657    -7657    -7657    -7659    -7661    -7659    -7658 
   -7659    -7659    -7659    -7655    -7655    -7658    -7658    -7659 
   -7661    -7659    -7658    -7658    -7657    -7657    -7659    -7661 
   -7659    -7657    -7657    -7657    -7657    -7658    -7659    -7657 
   -7655    -7658    -7661    -7658    -7657    -7659    -7659    -7657 
   -7657    -7657    -7657    -7657    -7658    -7659    -7659    -7655 
   -7657    -7659    -7657    -7658    -7661    -7658    -7654    -7654 
   -7658    -7658    -7657    -7655    -7658    -7662    -7661    -7658 
   -7653    -7651    -7655    -7659    -7657    -7658    -7661    -7661 
   -7658    -7658    -7658    -7657    -7655    -7657    -7659    -7659 
   -7658    -7657    -7655    -7655    -7662    -7665    -7659    -7658 
   -7661    -7661    -7654    -7657    -7663    -7659    -7654    -7658 
   -7661    -7657    -7657    -7659    -7661    -7657    -7657    -7659 
   -7658    -7658    -7661    -7661    -7655    -7654    -7658    -7659 
   -7657    -7658    -7659    -7658    -7657    -7658    -7661    -7661 
   -7657    -7658    -7659    -7657    -7657    -7662    -7661    -7658 
   -7658    -7657    -7659    -7663    -7659    -7655    -7657    -7657 
   -7661    -7661    -7657    -7658    -7659    -7657    -7657    -7658 
   -7659    -7658    -7658    -7659    -7658    -7657    -7658    -7659 
   -7659    -7659    -7661    -7658    -7655    -7658    -7659    -7658 
   -7657    -7659    -7659    -7657    -7659    -7662    -7659    -7657 
   -7655    -7657    -7658    -7657    -7658    -7658    -7657    -7659 
   -7661    -7658    -7657    -7657    -7655    -7657    -7659    -7658 
   -7658    -7658    -7658    -7657    -7658    -7657    -7655    -7661 
   -7665    -7661    -7657    -7657    -7661    -7659    -7655    -7657 
   -7658    -7658    -7661    -7662    -7659    -7659    -7658    -7655 
   -7655    -7657    -7658    -7659    -7659    -7659    -7661    -7658 
   -7657    -7655    -7655    -7658    -7662    -7659    -7657    -7657 
   -7655    -7657    -7658    -7658    -7657    -7659    -7662    -7659 
   -7658    -7663    -7659    -7654    -7658    -7662    -7659    -7657 
   -7657    -7657    -7655    -7655    -7663    -7663    -7655    -7657 
   -7661    -7658    -7658    -7659    -7657    -7658    -7661    -7658 
   -7658    -7659    -7655    -7654    -7655    -7658    -7662    -7659 
   -7658    -7658    -7659    -7662    -7659    -7657    -7659    -7658 
   -7655    -7661    -7662    -7659    -7658    -7657    -7658    -7659 
   -7658    -7658    -7659    -7658    -7657    -7658    -7659    -7659 
   -7659    -7658    -7658    -7658    -7657    -7655    -7659    -7662 
   -7658    -7654    -7655    -7657    -7655    -7659    -7665    -7662 
   -7657    -7655    -7657    -7658    -7657    -7657    -7657    -7658 
   -7659    -7655    -7657    -7658    -7658    -7659    -7657    -7654 
   -7658    -7661    -7655    -7655    -7658    -7659    -7658    -7657 
   -7657    -7658    -7659    -7658    -7654    -7657    -7662    -7659 
   -7654    -7658    -7661    -7655    -7655    -7658    -7654    -7651 
   -7654    -7661    -7662    -7655    -7653    -7659    -7659    -7653 
   -7655    -7661    -7658    -7655    -7658    -7659    -7658    -7653 
   -7653    -7657    -7659    -7658    -7658    -7658    -7657    -7657 
   -7655    -7658    -7659    -7657    -7654    -7653    -7654    -7659 
   -7661    -7658    -7657    -7655    -7653    -7659    -7663    -7661 
   -7658    -7658    -7655    -7654    -7653    -7658    -7662    -7658 
   -7651    -7657    -7659    -7655    -7657    -7662    -7662    -7657 
   -7657    -7659    -7659    -7658    -7659    -7661    -7658    -7655 
   -7658    -7661    -7662    -7661    -7655    -7653    -7654    -7658 
   -7662    -7658    -7653    -7657    -7658    -7657    -7662    -7665 
   -7661    -7658    -7655    -7657    -7661    -7661    -7657    -7658 
   -7658    -7657    -7658    -7658    -7657    -7659    -7659    -7658 
   -7657    -7658    -7659    -7659    -7659    -7659    -7657    -7655 
   -7657    -7661    -7659    -7655    -7655    -7654    -7654    -7659 
   -7661    -7659    -7658    -7658    -7657    -7657    -7658    -7657 
   -7657    -7658    -7658    -7658    -7655    -7657    -7659    -7659 
   -7658    -7658    -7659    -7658    -7658    -7658    -7658    -7659 
   -7658    -7655    -7657    -7658    -7659    -7659    -7661    -7658 
   -7657    -7655    -7653    -7657    -7659    -7655    -7657    -7657 
   -7653    -7655    -7661    -7661    -7659    -7657    -7654    -7655 
   -7661    -7661    -7657    -7657    -7659    -7658    -7658    -7658 
   -7658    -7658    -7657    -7657    -7658    -7658    -7657    -7657 
   -7661    -7661    -7658    -7658    -7657    -7654    -7657    -7659 
   -7661    -7661    -7658    -7658    -7659    -7661    -7659    -7655 
   -7654    -7658    -7662    -7661    -7657    -7659    -7659    -7653 
   -7654    -7659    -7662    -7658    -7657    -7655    -7657    -7659 
   -7659    -7659    -7657    -7655    -7657    -7658    -7658    -7657 
   -7657    -7658    -7657    -7658    -7662    -7662    -7658    -7657 
   -7658    -7655    -7655    -7662    -7659    -7653    -7655    -7662 
   -7662    -7658    -7655    -7658    -7659    -7654    -7653    -7659 
   -7661    -7659    -7659    -7657    -7654    -7653    -7658    -7662 
   -7658    -7655    -7658    -7658    -7657    -7658    -7661    -7659 
   -7657    -7658    -7661    -7661    -7655    -7655    -7658    -7661 
   -7659    -7657    -7659    -7662    -7657    -7654    -7658    -7662 
   -7659    -7657    -7661    -7659    -7654    -7655    -7661    -7661 
   -7654    -7654    -7661    -7661    -7657    -7658    -7659    -7655 
   -7654    -7658    -7661    -7657    -7654    -7658    -7659    -7657 
   -7657    -7661    -7661    -7657    -7658    -7659    -7657    -7655 
   -7657    -7658    -7658    -7655    -7657    -7661    -7658    -7654 
   -7658    -7658    -7657    -7659    -7662    -7658    -7654    -7658 
   -7659    -7657    -7658    -7659    -7657    -7654    -7658    -7662 
   -7662    -7658    -7658    -7657    -7654    -7654    -7659    -7659 
   -7655    -7655    -7659    -7659    -7655    -7657    -7659    -7658 
   -7657    -7658    -7658    -7658    -7662    -7661    -7655    -7657 
   -7659    -7657    -7657    -7661    -7661    -7659    -7661    -7659 
   -7655    -7655    -7658    -7659    -7658    -7658    -7658    -7657 
   -7655    -7658    -7659    -7659    -7657    -7658    -7661    -7658 
   -7654    -7658    -7662    -7658    -7659    -7659    -7657    -7657 
   -7659    -7662    -7662    -7659    -7653    -7655    -7659    -7659 
   -7658    -7657    -7657    -7659    -7658    -7659    -7663    -7655 
   -7651    -7659    -7661    -7655    -7657    -7661    -7658    -7655 
   -7655    -7659    -7659    -7658    -7657    -7661    -7661    -7657 
   -7658    -7662    -7658    -7653    -7657    -7658    -7657    -7659 
   -7661    -7655    -7651    -7655    -7662    -7661    -7653    -7658 
   -7662    -7653    -7654    -7663    -7659    -7651    -7657    -7662 
   -7658    -7654    -7659    -7661    -7653    -7650    -7661    -7666 
   -7661    -7657    -7657    -7655    -7654    -7657    -7659    -7662 
   -7659    -7655    -7655    -7661    -7661    -7657    -7659    -7662 
   -7655    -7657    -7662    -7659    -7655    -7659    -7658    -7655 
   -7657    -7658    -7662    -7662    -7658    -7658    -7657    -7653 
   -7657    -7662    -7658    -7654    -7657    -7657    -7653    -7655 
   -7661    -7659    -7657    -7655    -7661    -7662    -7655    -7654 
   -7662    -7659    -7654    -7663    -7663    -7655    -7655    -7658 
   -7659    -7658    -7658    -7662    -7659    -7655    -7657    -7659 
   -7658    -7657    -7658    -7657    -7651    -7655    -7662    -7662 
   -7659    -7658    -7654    -7655    -7657    -7657    -7661    -7663 
   -7658    -7653    -7655    -7662    -7659    -7655    -7658    -7659 
   -7658    -7658    -7659    -7658    -7657    -7658    -7659    -7658 
   -7658    -7661    -7661    -7658    -7657    -7657    -7658    -7657 
   -7657    -7661    -7659    -7655    -7657    -7658    -7658    -7659 
   -7662    -7662    -7659    -7654    -7654    -7659    -7661    -7661 
   -7659    -7657    -7658    -7661    -7657    -7653    -7657    -7662 
   -7663    -7659    -7657    -7659    -7654    -7650    -7659    -7665 
   -7659    -7658    -7657    -7654    -7655    -7658    -7658    -7657 
   -7657    -7655    -7654    -7654    -7659    -7659    -7657    -7657 
   -7658    -7655    -7657    -7661    -7662    -7658    -7655    -7657 
   -7658    -7658    -7657    -7658    -7659    -7655    -7654    -7655 
   -7658    -7657    -7655    -7658    -7661    -7655    -7651    -7654 
   -7657    -7655    -7654    -7655    -7659    -7661    -7655    -7654 
   -7658    -7659    -7655    -7657    -7659    -7658    -7657    -7657 
   -7658    -7658    -7658    -7658    -7658    -7655    -7657    -7659 
   -7657    -7654    -7655    -7661    -7658    -7655    -7661    -7659 
   -7654    -7655    -7658    -7658    -7661    -7659    -7658    -7661 
   -7658    -7654    -7654    -7658    -7662    -7659    -7658    -7657 
   -7655    -7655    -7655    -7659    -7663    -7661    -7655    -7657 
   -7655    -7653    -7655    -7658    -7658    -7658    -7658    -7655 
   -7657    -7659    -7658    -7655    -7658    -7661    -7661    -7655 
   -7655    -7661    -7659    -7655    -7661    -7665    -7662    -7658 
   -7657    -7657    -7655    -7655    -7655    -7657    -7661    -7662 
   -7659    -7657    -7655    -7657    -7661    -7659    -7658    -7658 
   -7655    -7657    -7661    -7659    -7657    -7659    -7658    -7654 
   -7655    -7661    -7659    -7658    -7658    -7655    -7657    -7658 
   -7657    -7658    -7661    -7657    -7657    -7661    -7659    -7654 
   -7654    -7662    -7659    -7651    -7657    -7662    -7655    -7653 
   -7657    -7658    -7658    -7658    -7657    -7657    -7658    -7657 
   -7655    -7657    -7657    -7657    -7658    -7659    -7659    -7658 
   -7654    -7653    -7657    -7662    -7661    -7654    -7653    -7658 
   -7659    -7655    -7655    -7668    -7719    -7909    -8374    -8957 
   -8964    -7946    -6609    -5636    -4803    -5058    -7423    -9490 
   -9532    -9478    -9387    -8114    -6475    -4711    -4467    -7518 
  -10524   -10471    -8499    -6891    -7425    -8047    -6508    -5879 
   -7600    -9759   -10863    -8519    -5169    -5501    -6513    -6501 
   -7788    -8279    -7797    -8610    -8534    -7256    -7493    -8287 
   -7847    -6991    -7079    -8267    -8899    -8203    -7418    -7075 
   -6930    -6720    -6824    -7780    -8387    -8375    -8703    -8164 
   -6902    -6994    -7539    -7458    -7630    -8063    -8530    -8507 
   -7457    -6812    -6928    -6924    -7547    -7938    -7213    -7558 
   -8414    -7786    -7389    -7782    -7653    -7738    -7901    -7236 
   -7068    -7884    -8534    -8614    -8143    -7762    -7682    -7086 
   -6802    -7453    -7641    -7477    -7663    -7411    -7099    -7580 
   -7997    -8028    -8108    -7824    -7462    -7443    -7402    -7842 
   -8310    -7699    -7389    -7866    -7519    -7169    -7774    -7809 
   -7577    -7979    -7839    -7252    -7111    -7365    -7943    -8187 
   -7821    -7447    -7149    -7186    -7628    -7936    -8291    -8440 
   -7974    -7738    -7546    -7013    -7195    -7587    -7291    -7535 
   -8407    -8525    -8043    -7523    -6947    -6844    -7335    -7724 
   -7824    -7781    -7591    -7406    -7535    -7890    -8068    -8125 
   -8100    -7827    -7668    -7701    -7481    -7176    -7098    -7276 
   -7730    -7982    -7794    -7488    -7291    -7516    -7965    -8278 
   -8397    -7792    -6926    -6949    -7354    -7719    -8284    -8193 
   -7388    -7107    -7466    -7863    -8073    -8047    -7808    -7412 
   -7175    -7377    -7738    -7908    -7913    -7840    -7597    -7233 
   -7113    -7497    -8086    -8306    -8008    -7416    -6990    -7213 
   -7692    -7850    -8051    -8229    -7728    -7102    -7155    -7668 
   -8332    -8672    -8120    -7245    -6984    -7080    -7078    -7366 
   -7893    -8043    -8043    -8064    -7616    -7207    -7457    -7512 
   -7368    -7905    -8136    -7550    -7508    -7884    -7776    -7580 
   -7627    -7878    -8105    -7904    -7515    -7441    -7553    -7283 
   -6806    -6961    -7497    -7862    -8236    -8224    -7782    -7686 
   -7690    -7550    -7774    -8001    -7844    -7701    -7533    -7443 
   -7839    -8329    -8237    -7334    -6547    -7009    -7990    -8464 
   -8010    -6389    -5323    -6427    -8197    -8912    -8743    -8345 
   -8090    -7967    -7977    -8206    -8178    -7501    -6696    -6574 
   -7222    -7604    -7307    -7380    -7861    -8102    -8332    -8008 
   -7130    -7369    -8127    -7620    -7022    -7253    -7264    -7429 
   -8467    -9437    -9316    -7985    -6347    -5972    -7477    -9342 
   -9513    -7981    -6201    -5462    -5917    -6512    -7215    -8658 
   -9555    -8958    -8176    -7861    -7781    -7928    -7546    -6847 
   -7088    -7439    -6856    -6531    -7241    -8179    -8653    -8529 
   -8087    -7866    -7786    -7406    -6980    -7030    -7512    -7807 
   -7684    -7713    -7600    -7118    -7619    -8792    -8814    -8163 
   -7739    -7020    -6374    -6859    -8128    -8721    -8100    -7299 
   -7006    -7063    -7715    -8590    -8607    -8105    -7593    -6731 
   -6369    -7167    -8154    -8743    -8600    -7520    -6543    -6442 
   -7024    -7919    -8563    -8854    -8505    -7022    -5992    -6745 
   -7959    -8671    -8746    -8029    -7434    -7311    -7029    -7167 
   -7920    -7979    -7269    -6979    -7375    -8104    -8814    -8696 
   -7647    -7059    -7207    -7028    -6945    -7546    -7974    -8206 
   -8548    -8137    -7304    -7063    -6943    -7136    -8098    -8527 
   -8218    -8135    -7735    -6991    -6995    -7599    -8154    -8386 
   -7954    -7157    -6801    -7099    -7615    -7879    -7902    -7844 
   -7587    -7358    -7473    -7716    -8032    -8131    -7569    -7149 
   -7574    -8077    -8048    -7852    -7817    -7726    -7465    -7285 
   -7267    -7302    -7265    -7199    -7454    -7917    -8087    -8232 
   -8623    -8617    -7970    -7249    -6770    -6732    -7095    -7398 
   -7686    -8071    -8051    -7631    -7404    -7576    -7947    -8116 
   -7896    -7750    -7828    -7577    -7209    -7372    -7449    -7109 
   -7422    -8168    -8174    -8102    -8455    -8181    -7322    -6750 
   -6777    -7551    -8295    -8075    -7449    -7180    -7215    -7231 
   -7249    -7743    -8532    -8700    -8118    -7569    -7483    -7516 
   -7506    -7526    -7414    -7304    -7281    -7268    -7616    -8245 
   -8499    -8356    -7940    -7084    -6544    -7010    -7858    -8534 
   -8804    -8278    -7015    -5969    -6309    -7653    -8549    -8669 
   -8345    -7724    -7306    -7388    -7728    -8160    -8212    -7491 
   -6828    -7052    -7542    -7568    -7558    -7879    -8141    -8048 
   -7611    -7294    -7520    -7776    -7827    -7931    -7630    -7025 
   -7053    -7695    -8275    -8418    -7985    -7271    -6997    -7479 
   -8058    -8228    -8189    -7715    -7022    -7115    -7496    -7474 
   -7722    -7766    -7204    -7322    -7730    -7445    -7738    -8662 
   -8669    -8132    -7747    -7137    -6728    -6978    -7439    -7747 
   -7692    -7477    -7565    -7894    -8283    -8432    -8109    -7719 
   -7299    -6775    -6816    -7422    -7866    -8008    -8055    -8064 
   -7854    -7499    -7580    -7917    -7771    -7466    -7539    -7609 
   -7506    -7480    -7518    -7607    -7658    -7622    -7753    -7835 
   -7554    -7414    -7724    -7906    -7776    -7751    -7695    -7515 
   -7600    -7734    -7616    -7587    -7747    -7777    -7609    -7441 
   -7479    -7842    -8175    -7935    -7414    -7163    -7118    -7338 
   -7805    -8039    -8085    -8131    -7925    -7612    -7422    -7283 
   -7416    -7821    -8021    -7967    -7715    -7209    -7087    -7728 
   -8268    -8017    -7338    -6951    -7171    -7574    -7902    -8311 
   -8272    -7470    -6898    -7217    -7827    -8086    -8068    -7943 
   -7593    -7156    -7122    -7632    -8051    -7970    -7812    -7650 
