Origin Time       2025/03/30 10:46:00
Lat.              32.923
Long.             130.372
Depth. (km)       11
Mag.              3.4
Station Code      KMMH18
Station Lat.      33.0031
Station Long.     131.0071
Station Height(m) 932
Record Time       2025/03/30 10:46:39
Sampling Freq(Hz) 100Hz
Duration Time(s)  120
Dir.              4
Scale Factor      7845(gal)/8223790
Max. Acc. (gal)   0.405
Last Correction   2025/03/30 10:46:38
Memo.             
[...]
    2230     2228     2227     2230     2226     2222     2224     2226 
    2223     2223     2224     2226     2224     2223     2224     2226 
    2224     2224     2224     2226     2226     2224     2227     2230 
    2226     2223     2226     2223     2220     2224     2223     2224 
    2226     2224     2227     2230     2228     2227     2226     2226 
    2230     2230     2224     2223     2223     2222     2224     2227 
    2227     2226     2222     2222     2226     2224     2223     2226 
    2226     2228     2231     2227     2226     2226     2224     2224 
    2224     2223     2227     2227     2226     2228     2226     2223 
    2226     2227     2226     2226     2226     2226     2224     2226 
    2226     2226     2224     2223     2226     2228     2226     2222 
    2224     2227     2226     2226     2227     2226     2224     2224 
    2224     2226     2228     2228     2227     2224     2223     2224 
    2223     2224     2228     2226     2223     2224     2223     2224 
    2227     2226     2224     2224     2223     2223     2227     2227 
    2227     2226     2223     2222     2223     2224     2226     2224 
    2226     2228     2226     2223     2224     2224     2224     2227 
    2226     2224     2224     2223     2226     2226     2222     2227 
    2231     2226     2224     2226     2223     2222     2223     2224 
    2223     2223     2223     2223     2224     2227     2228     2227 
    2226     2227     2226     2224     2224     2224     2224     2224 
    2223     2223     2224     2227     2228     2227     2223     2223 
    2226     2226     2224     2224     2227     2223     2220     2224 
    2226     2223     2224     2226     2227     2227     2223     2223 
    2226     2223     2223     2226     2226     2227     2226     2223 
    2226     2226     2224     2227     2228     2224     2223     2222 
    2222     2224     2227     2227     2228     2227     2224     2223 
    2223     2224     2226     2226     2228     2227     2222     2223 
    2226     2227     2228     2226     2224     2227     2226     2226 
    2227     2222     2222     2227     2228     2228     2226     2224 
    2227     2224     2223     2227     2224     2223     2223     2224 
    2228     2228     2226     2226     2224     2222     2223     2222 
    2222     2227     2226     2222     2223     2224     2226     2228 
    2228     2227     2228     2226     2224     2223     2219     2223 
    2228     2227     2227     2224     2223     2226     2223     2223 
    2230     2231     2227     2224     2223     2222     2222     2223 
    2224     2226     2227     2228     2224     2222     2227     2227 
    2224     2226     2226     2224     2224     2226     2224     2224 
    2226     2224     2224     2224     2223     2224     2224     2226 
    2227     2227     2227     2226     2220     2222     2226     2223 
    2222     2227     2227     2224     2224     2226     2228     2227 
    2226     2224     2222     2224     2226     2222     2223     2227 
    2226     2226     2227     2227     2227     2226     2223     2227 
    2227     2223     2226     2230     2228     2226     2223     2224 
    2227     2227     2228     2227     2226     2227     2227     2224 
    2226     2224     2219     2219     2222     2223     2223     2226 
    2230     2228     2227     2231     2228     2224     2227     2228 
    2223     2222     2223     2224     2226     2223     2223     2227 
    2227     2226     2226     2226     2226     2224     2224     2226 
    2223     2223     2224     2226     2226     2227     2226     2223 
    2226     2227     2226     2226     2223     2223     2224     2223 
    2224     2228     2228     2227     2226     2224     2226     2227 
    2226     2226     2227     2227     2227     2226     2223     2222 
    2223     2226     2228     2228     2226     2224     2222     2223 
    2226     2224     2227     2228     2227     2227     2223     2219 
    2224     2227     2226     2228     2227     2223     2227     2227 
    2224     2227     2227     2226     2226     2222     2222     2222 
    2220     2224     2230     2230     2230     2226     2222     2222 
    2220     2222     2224     2223     2224     2227     2222     2220 
    2222     2222     2226     2230     2228     2228     2227     2223 
    2226     2226     2222     2224     2224     2223     2226     2226 
    2224     2227     2226     2227     2228     2226     2227     2228 
    2223     2222     2224     2223     2224     2226     2227     2231 
    2227     2223     2227     2226     2223     2226     2226     2224 
    2224     2222     2222     2224     2224     2224     2224     2224 
    2226     2226     2224     2226     2227     2228     2228     2224 
    2224     2228     2226     2222     2223     2226     2226     2222 
    2220     2224     2224     2223     2224     2226     2224     2224 
    2224     2224     2226     2223     2222     2224     2227     2228 
    2227     2226     2226     2224     2222     2224     2224     2226 
    2228     2230     2228     2226     2223     2226     2227     2224 
    2226     2228     2226     2226     2226     2223     2226     2226 
    2224     2227     2227     2224     2227     2228     2226     2227 
    2228     2226     2224     2223     2224     2224     2223     2226 
    2230     2227     2224     2226     2224     2226     2226     2226 
    2228     2228     2224     2224     2224     2223     2227     2227 
    2224     2227     2226     2223     2223     2226     2226     2224 
    2226     2227     2226     2226     2226     2222     2220     2222 
    2222     2223     2226     2226     2226     2226     2226     2227 
    2228     2226     2224     2226     2227     2226     2223     2222 
    2220     2220     2224     2226     2226     2228     2228     2224 
    2224     2224     2222     2226     2230     2224     2226     2227 
    2223     2223     2224     2226     2227     2226     2223     2226 
    2226     2224     2224     2224     2224     2227     2227     2227 
    2226     2224     2226     2224     2220     2224     2226     2224 
    2227     2228     2224     2226     2227     2226     2224     2223 
    2223     2224     2224     2226     2226     2223     2226     2227 
    2224     2224     2224     2226     2228     2228     2228     2230 
    2224     2219     2216     2214     2214     2218     2224     2232 
    2238     2235     2234     2235     2239     2245     2239     2227 
    2212     2193     2184     2193     2212     2234     2247     2236 
    2208     2191     2189     2203     2231     2253     2266     2273 
    2273     2277     2276     2265     2258     2249     2215     2158 
    2099     2076     2108     2176     2254     2323     2361     2378 
    2381     2358     2311     2254     2192     2118     2019     1929 
    1903     1980     2147     2328     2431     2435     2398     2371 
    2343     2288     2218     2155     2110     2085     2088     2107 
    2151     2246     2363     2442     2444     2393     2338     2292 
    2231     2147     2073     2053     2099     2149     2139     2100 
    2106     2181     2284     2331     2290     2220     2182     2201 
    2251     2281     2295     2336     2390     2394     2330     2235 
    2166     2146     2139     2097     2027     2011     2108     2261 
    2359     2363     2324     2301     2300     2282     2242     2195 
    2151     2107     2073     2095     2181     2276     2316     2307 
    2270     2253     2277     2303     2301     2278     2247     2228 
    2203     2133     2062     2066     2153     2255     2311     2288 
    2211     2162     2199     2286     2358     2374     2332     2263 
    2219     2196     2158     2138     2169     2211     2218     2188 
    2168     2197     2236     2227     2185     2155     2168     2222 
    2257     2235     2230     2297     2384     2404     2331     2224 
    2188     2235     2272     2234     2153     2107     2131     2189 
    2226     2234     2234     2236     2238     2208     2134     2050 
    2037     2112     2216     2289     2308     2280     2257     2295 
    2359     2371     2322     2270     2254     2241     2212     2216 
    2274     2331     2327     2276     2218     2169     2122     2072 
    2042     2069     2135     2188     2191     2181     2220     2288 
    2320     2303     2263     2242     2257     2278     2290     2296 
    2307     2301     2258     2204     2177     2174     2187     2219 
    2242     2223     2174     2128     2131     2189     2246     2259 
    2253     2251     2255     2243     2204     2158     2145     2187 
    2238     2218     2134     2088     2147     2278     2380     2403 
    2384     2347     2277     2189     2139     2149     2180     2193 
    2195     2201     2211     2220     2238     2273     2320     2353 
    2339     2276     2177     2087     2057     2074     2114     2197 
    2305     2370     2347     2250     2153     2118     2110     2091 
    2096     2164     2270     2363     2416     2438     2444     2436 
    2384     2262     2112     2008     1985     2029     2096     2162 
    2232     2308     2358     2369     2344     2282     2189     2114 
    2104     2149     2185     2176     2151     2160     2201     2253 
    2282     2285     2277     2268     2243     2216     2205     2236 
    2301     2336     2309     2249     2184     2131     2103     2099 
    2142     2230     2297     2289     2250     2249     2280     2296 
    2272     2224     2185     2173     2191     2224     2247     2247 
    2239     2235     2224     2211     2222     2263     2313     2334 
    2303     2249     2201     2149     2101     2092     2119     2165 
    2207     2222     2203     2181     2204     2274     2331     2332 
    2299     2251     2195     2151     2143     2173     2232     2297 
    2326     2311     2278     2250     2236     2241     2242     2216 
    2157     2108     2116     2158     2191     2209     2222     2232 
    2243     2253     2255     2242     2228     2235     2243     2235 
    2219     2195     2168     2170     2219     2288     2332     2335 
    2312     2276     2227     2182     2154     2146     2157     2178 
    2205     2238     2277     2308     2309     2270     2212     2162 
    2146     2176     2226     2254     2243     2218     2219     2254 
    2285     2277     2232     2182     2160     2168     2174     2176 
    2191     2222     2253     2254     2205     2166     2204     2286 
    2324     2262     2139     2068     2110     2203     2272     2316 
    2355     2376     2353     2272     2161     2095     2126     2208 
    2249     2236     2216     2208     2219     2254     2284     2276 
    2251     2243     2242     2226     2208     2219     2247     2268 
    2272     2254     2224     2185     2150     2142     2145     2135 
    2138     2164     2188     2201     2215     2220     2220     2239 
    2273     2285     2277     2265     2247     2238     2253     2278 
    2297     2301     2266     2187     2108     2089     2150     2259 
    2354     2382     2351     2285     2211     2146     2108     2116 
    2154     2172     2170     2173     2193     2231     2278     2317 
    2340     2322     2258     2212     2223     2245     2239     2216 
    2200     2211     2249     2290     2299     2268     2228     2201 
    2172     2127     2076     2050     2080     2158     2247     2312 
    2331     2319     2292     2249     2201     2181     2188     2196 
    2196     2185     2174     2199     2266     2344     2394     2392 
    2355     2301     2219     2119     2052     2047     2101     2181 
    2246     2272     2272     2292     2343     2355     2280     2164 
    2079     2053     2080     2141     2212     2289     2358     2384 
    2339     2251     2195     2189     2192     2166     2131     2139 
    2192     2242     2272     2289     2315     2363     2382     2305 
    2174     2066     2012     2027     2091     2161     2223     2280 
    2326     2340     2312     2265     2245     2255     2270     2262 
    2226     2182     2165     2174     2203     2253     2307     2334 
    2312     2243     2162     2120     2157     2234     2270     2243 
    2199     2170     2169     2168     2147     2158     2227     2297 
    2313     2269     2205     2182     2214     2247     2255     2254 
    2254     2257     2257     2249     2228     2195     2165     2158 
    2177     2214     2238     2226     2214     2230     2262     2295 
    2303     2263     2209     2168     2135     2133     2176     2238 
    2278     2285     2284     2296     2320     2338     2326     2274 
    2204     2133     2079     2064     2083     2130     2199     2251 
    2273     2277     2268     2254     2245     2238     2238     2245 
    2245     2242     2249     2242     2204     2155     2126     2139 
    2185     2242     2297     2334     2339     2307     2230     2147 
    2114     2138     2200     2262     2281     2265     2251     2255 
    2286     2326     2330     2281     2177     2045     1948     1939 
    2011     2133     2270     2396     2481     2502     2475     2444 
    2415     2366     2278     2162     2045     1949     1907     1962 
    2097     2250     2369     2419     2392     2315     2207     2080 
    1984     1960     2007     2114     2254     2397     2520     2594 
    2574     2447     2277     2141     2025     1900     1806     1802 
    1896     2043     2177     2276     2354     2432     2502     2525 
    2490     2444     2425     2417     2390     2317     2227     2170 
    2137     2069     1980     1937     1980     2074     2161     2209 
    2238     2281     2343     2389     2381     2328     2262     2220 
    2226     2261     2292     2317     2328     2309     2254     2172 
    2114     2124     2173     2193     2164     2126     2146     2211 
    2235     2192     2142     2162     2254     2323     2293     2200 
    2126     2097     2088     2073     2087     2168     2296     2416 
    2489     2492     2448     2392     2301     2166     2029     1949 
    1950     2008     2093     2201     2316     2398     2407     2338 
    2238     2169     2173     2253     2367     2444     2434     2346 
    2241     2189     2211     2277     2330     2324     2250     2138 
    2023     1946     1952     2039     2135     2165     2151     2170 
    2231     2295     2332     2330     2300     2274     2262     2266 
    2293     2308     2284     2253     2242     2249     2272     2308 
    2332     2296     2176     2027     1949     1968     2023     2065 
    2119     2238     2407     2536     2554     2450     2282     2145 
    2087     2092     2134     2195     2266     2332     2347     2274 
    2158     2093     2112     2170     2197     2161     2093     2080 
    2161     2290     2407     2477     2466     2355     2188     2035 
    1975     2022     2107     2164     2197     2236     2292     2376 
    2479     2555     2535     2421     2303     2231     2184     2135 
    2092     2070     2074     2096     2122     2142     2164     2214 
    2285     2336     2322     2235     2118     2030     2006     2049 
    2158     2304     2408     2411     2316     2192     2130     2158 
    2255     2381     2478     2497     2419     2258     2091     1992 
    1989     2079     2205     2290     2296     2222     2108     2039 
    2042     2070     2091     2114     2165     2270     2400     2502 
    2565     2587     2552     2438     2259     2076     1966     1996 
    2137     2268     2313     2311     2303     2285     2232     2128 
    2026     1996     2043     2112     2143     2139     2187     2315 
    2443     2493     2458     2382     2319     2272     2195     2088 
    1999     1983     2047     2143     2231     2296     2320     2307 
    2282     2254     2241     2268     2323     2358     2320     2208 
    2095     2046     2076     2170     2286     2358     2359     2297 
    2218     2162     2135     2145     2199     2261     2273     2205 
    2069     1954     1965     2091     2238     2339     2392     2400 
    2351     2277     2226     2238     2326     2457     2533     2489 
    2339     2160     2031     1984     2025     2147     2292     2371 
    2340     2214     2092     2079     2143     2207     2231     2207 
    2154     2097     2053     2050     2120     2238     2338     2358 
    2303     2235     2211     2231     2247     2227     2199     2211 
    2250     2263     2251     2258     2300     2353     2384     2386 
    2361     2326     2304     2286     2242     2158     2046     1964 
    1973     2054     2135     2157     2114     2077     2107     2180 
    2265     2338     2367     2369     2355     2307     2235     2193 
    2223     2317     2419     2469     2448     2361     2243     2174 
    2180     2209     2209     2177     2137     2096     2037     1983 
    1995     2085     2211     2300     2316     2280     2223     2166 
    2135     2154     2211     2282     2362     2409     2380     2309 
    2274     2286     2282     2219     2133     2097     2155     2263 
    2331     2328     2285     2238     2204     2169     2127     2122 
    2174     2239     2259     2204     2116     2074     2095     2118 
    2124     2145     2224     2355     2466     2484     2405     2286 
    2193     2154     2164     2189     2199     2188     2169     2161 
    2172     2215     2301     2421     2529     2547     2436     2249 
    2072     1958     1914     1925     1979     2084     2228     2359 
    2428     2435     2396     2311     2204     2127     2118     2173 
    2246     2288     2282     2250     2218     2204     2204     2200 
    2188     2182     2204     2258     2313     2331     2307     2254 
    2205     2188     2185     2172     2146     2116     2111     2134 
    2158     2189     2227     2250     2259     2249     2212     2182 
    2187     2223     2277     2312     2293     2242     2208     2211 
    2220     2215     2209     2209     2207     2197     2178     2164 
    2191     2261     2331     2369     2357     2309     2265     2239 
    2243     2276     2308     2320     2297     2228     2143     2087 
    2081     2138     2227     2297     2319     2281     2208     2147 
    2128     2169     2258     2338     2361     2332     2270     2184 
    2106     2064     2052     2054     2073     2116     2165     2192 
    2207     2246     2317     2389     2442     2467     2446     2350 
    2214     2099     2026     2007     2047     2119     2195     2245 
    2250     2232     2231     2272     2331     2365     2359     2344 
    2316     2257     2191     2153     2151     2181     2207     2187 
    2133     2104     2143     2236     2326     2363     2339     2288 
    2253     2235     2215     2193     2185     2185     2192     2199 
    2199     2204     2222     2245     2269     2280     2270     2251 
    2231     2230     2251     2268     2265     2247     2205     2135 
    2066     2049     2116     2239     2354     2400     2358     2261 
    2160     2093     2079     2107     2169     2247     2304     2312 
    2285     2239     2193     2185     2227     2295     2358     2378 
