Origin Time       2025/03/30 10:46:00
Lat.              32.923
Long.             130.372
Depth. (km)       11
Mag.              3.4
Station Code      KMMH16
Station Lat.      32.7967
Station Long.     130.8199
Station Height(m) -197
Record Time       2025/03/30 10:46:34
Sampling Freq(Hz) 100Hz
Duration Time(s)  120
Dir.              1
Scale Factor      2942(gal)/8224139
Max. Acc. (gal)   0.507
Last Correction   2025/03/30 10:46:34
Memo.             
[...]
  106095   106096   106099   106099   106095   106093   106096   106096 
  106097   106097   106097   106100   106100   106097   106097   106097 
  106095   106096   106099   106099   106097   106099   106096   106095 
  106096   106099   106099   106096   106095   106095   106096   106096 
  106096   106096   106096   106097   106099   106099   106100   106101 
  106097   106095   106096   106096   106099   106101   106100   106097 
  106096   106097   106099   106095   106095   106097   106097   106097 
  106099   106097   106097   106099   106099   106097   106100   106099 
  106095   106093   106097   106099   106097   106095   106099   106100 
  106093   106095   106099   106097   106096   106096   106095   106095 
  106095   106093   106095   106097   106096   106096   106096   106095 
  106096   106097   106096   106093   106095   106096   106095   106096 
  106096   106092   106092   106097   106099   106096   106095   106096 
  106097   106097   106099   106099   106096   106095   106099   106099 
  106096   106097   106099   106096   106097   106097   106096   106097 
  106100   106097   106096   106100   106103   106099   106095   106096 
  106099   106097   106096   106097   106097   106096   106096   106099 
  106099   106095   106095   106097   106097   106096   106096   106096 
  106097   106097   106096   106099   106099   106099   106099   106097 
  106097   106097   106096   106095   106099   106099   106097   106097 
  106097   106097   106097   106096   106096   106096   106096   106097 
  106096   106097   106097   106099   106097   106096   106097   106096 
  106095   106097   106100   106096   106096   106099   106099   106099 
  106097   106095   106097   106099   106095   106095   106097   106097 
  106095   106096   106097   106093   106093   106096   106096   106095 
  106095   106095   106095   106093   106093   106100   106099   106095 
  106097   106096   106093   106097   106099   106096   106097   106097 
  106093   106092   106093   106093   106093   106095   106096   106097 
  106096   106096   106099   106099   106097   106096   106097   106097 
  106096   106097   106097   106097   106099   106097   106095   106096 
  106096   106093   106095   106097   106099   106097   106096   106097 
  106099   106097   106097   106097   106097   106097   106097   106097 
  106096   106091   106092   106097   106097   106096   106097   106097 
  106096   106097   106097   106096   106095   106095   106097   106096 
  106095   106099   106097   106093   106095   106097   106097   106099 
  106097   106096   106099   106100   106097   106095   106097   106100 
  106096   106093   106097   106099   106096   106096   106097   106096 
  106095   106097   106099   106099   106099   106099   106099   106097 
  106096   106096   106097   106097   106095   106095   106095   106096 
  106096   106096   106097   106100   106100   106099   106099   106099 
  106099   106100   106099   106097   106099   106099   106097   106097 
  106099   106099   106097   106096   106099   106101   106099   106099 
  106100   106099   106097   106100   106097   106096   106095   106095 
  106096   106097   106096   106096   106099   106097   106095   106095 
  106095   106095   106096   106097   106097   106097   106096   106097 
  106095   106095   106099   106099   106095   106097   106100   106099 
  106099   106099   106097   106096   106097   106097   106096   106096 
  106095   106097   106100   106099   106096   106097   106097   106096 
  106097   106099   106099   106097   106097   106099   106099   106097 
  106097   106097   106095   106096   106097   106096   106095   106095 
  106095   106096   106099   106099   106097   106097   106097   106096 
  106097   106100   106100   106096   106096   106099   106097   106096 
  106099   106099   106096   106097   106099   106097   106096   106097 
  106097   106097   106099   106099   106095   106095   106100   106099 
  106096   106097   106097   106097   106097   106096   106095   106096 
  106097   106097   106096   106096   106097   106097   106096   106096 
  106096   106097   106099   106099   106099   106100   106099   106097 
  106097   106096   106096   106097   106097   106097   106097   106099 
  106097   106096   106097   106097   106097   106097   106097   106096 
  106096   106097   106096   106093   106097   106100   106100   106099 
  106100   106100   106101   106100   106096   106095   106099   106100 
  106099   106097   106097   106097   106096   106095   106099   106100 
  106099   106096   106096   106096   106099   106100   106097   106096 
  106100   106099   106096   106096   106095   106093   106097   106100 
  106097   106095   106096   106096   106097   106096   106093   106099 
  106099   106096   106096   106097   106096   106096   106097   106096 
  106095   106096   106096   106093   106095   106096   106097   106097 
  106096   106097   106097   106096   106096   106097   106097   106099 
  106095   106093   106095   106096   106100   106097   106093   106096 
  106100   106097   106096   106097   106099   106096   106096   106099 
  106099   106096   106096   106097   106095   106096   106099   106099 
  106096   106095   106096   106099   106096   106096   106097   106095 
  106096   106096   106095   106100   106099   106095   106097   106099 
  106097   106099   106099   106096   106096   106100   106100   106093 
  106095   106101   106101   106096   106097   106100   106097   106095 
  106096   106097   106096   106096   106097   106097   106099   106101 
  106100   106099   106096   106096   106095   106096   106097   106100 
  106100   106096   106097   106099   106095   106096   106097   106096 
  106099   106099   106097   106100   106099   106095   106099   106103 
  106099   106097   106097   106097   106096   106099   106099   106097 
  106099   106101   106096   106096   106101   106100   106096   106097 
  106097   106097   106096   106097   106099   106100   106097   106093 
  106096   106099   106096   106099   106099   106095   106096   106099 
  106097   106097   106097   106097   106101   106100   106093   106095 
  106099   106097   106097   106096   106096   106097   106096   106097 
  106099   106096   106097   106100   106097   106096   106097   106096 
  106095   106095   106095   106096   106093   106095   106097   106096 
  106095   106095   106093   106096   106097   106097   106095   106095 
  106096   106100   106100   106096   106095   106096   106096   106097 
  106093   106089   106095   106101   106099   106096   106099   106097 
  106095   106095   106099   106099   106095   106095   106097   106099 
  106097   106099   106099   106096   106095   106096   106099   106099 
  106097   106097   106100   106097   106096   106099   106097   106096 
  106097   106099   106097   106096   106099   106097   106092   106095 
  106097   106096   106097   106100   106097   106095   106099   106099 
  106093   106095   106097   106097   106099   106099   106097   106099 
  106101   106099   106096   106096   106096   106095   106095   106096 
  106096   106099   106099   106096   106096   106099   106099   106099 
  106097   106095   106096   106097   106097   106097   106097   106096 
  106099   106100   106099   106099   106097   106095   106096   106097 
  106096   106097   106100   106100   106099   106097   106097   106097 
  106096   106097   106097   106095   106095   106097   106099   106097 
  106096   106097   106099   106100   106100   106099   106099   106096 
  106096   106099   106100   106099   106100   106100   106099   106097 
  106097   106097   106097   106096   106097   106097   106097   106099 
  106100   106096   106096   106101   106099   106095   106096   106097 
  106097   106099   106099   106099   106099   106099   106097   106099 
  106099   106096   106095   106096   106099   106100   106097   106095 
  106099   106100   106099   106100   106099   106096   106097   106101 
  106099   106097   106099   106097   106099   106100   106097   106095 
  106097   106101   106103   106107   106112   106120   106131   106132 
  106115   106084   106050   106030   106035   106058   106076   106091 
  106120   106157   106169   106149   106089   106014   105983   106024 
  106114   106213   106251   106180   106072   106007   105979   105983 
  106051   106142   106193   106227   106208   106097   106006   106002 
  106023   106065   106132   106166   106165   106143   106078   106042 
  106068   106092   106130   106164   106132   106096   106097   106084 
  106058   106046   106034   106043   106097   106149   106162   106159 
  106130   106054   106008   106047   106105   106123   106112   106072 
  106046   106112   106174   106142   106130   106130   106030   105960 
  106037   106142   106184   106185   106145   106066   106023   106029 
  106053   106139   106219   106172   106088   106076   106061   105999 
  105985   106064   106161   106197   106173   106135   106058   105976 
  106018   106120   106180   106222   106172   106047   106000   105991 
  106008   106103   106173   106177   106157   106132   106130   106099 
  106046   106074   106114   106077   106041   106072   106120   106112 
  106073   106074   106112   106150   106153   106112   106087   106107 
  106099   106037   106023   106107   106158   106097   106031   106023 
  106031   106066   106165   106261   106245   106135   106022   105941 
  105952   106083   106158   106103   106127   106212   106154   106061 
  106042   105988   105975   106107   106219   106196   106149   106134 
  106101   106060   106041   106045   106058   106061   106091   106191 
  106257   106173   106041   106031   106081   106056   106035   106091 
  106137   106150   106157   106127   106077   106037   105997   106016 
  106087   106110   106112   106130   106137   106137   106134   106130 
  106111   106076   106077   106093   106093   106092   106091   106124 
  106153   106095   106042   106034   106047   106103   106103   106081 
  106164   106177   106095   106088   106066   106018   106058   106128 
  106172   106157   106085   106031   105992   105999   106077   106131 
  106174   106227   106172   106051   106046   106100   106077   106078 
  106104   106066   106111   106203   106154   106112   106091   105966 
  105975   106100   106081   106092   106204   106208   106158   106143 
  106122   106103   106062   105985   105961   106046   106111   106074 
  106108   106224   106224   106159   106124   106057   105979   105970 
  106046   106119   106110   106087   106101   106111   106103   106087 
  106060   106043   106073   106149   106222   106223   106174   106115 
  106022   105981   106041   106073   106093   106147   106112   106026 
  106033   106104   106193   106224   106138   106053   106015   105975 
  106024   106153   106204   106170   106110   106058   106054   106057 
  106045   106074   106122   106137   106145   106168   106150   106073 
  106037   106088   106135   106122   106093   106083   106089   106115 
  106158   106177   106091   105979   105991   106054   106080   106120 
  106116   106069   106087   106104   106073   106089   106114   106093 
  106108   106126   106103   106131   106162   106123   106092   106068 
  106049   106078   106084   106070   106101   106127   106116   106114 
  106146   106162   106101   106046   106077   106122   106097   106035 
  106010   106026   106066   106149   106197   106159   106134   106080 
  105992   106026   106114   106154   106174   106116   106062   106088 
  106065   106035   106093   106128   106142   106169   106130   106069 
  106047   106023   106016   106054   106122   106177   106176   106154 
  106126   106103   106124   106101   106022   106030   106085   106096 
  106120   106135   106110   106100   106077   106068   106111   106108 
  106104   106159   106135   106065   106065   106041   106003   106060 
  106112   106092   106084   106115   106131   106118   106132   106164 
  106131   106089   106074   106039   106046   106085   106076   106108 
  106188   106173   106101   106088   106097   106084   106074   106054 
  106057   106147   106205   106147   106108   106101   106061   106023 
  106018   106054   106099   106101   106096   106092   106061   106060 
  106110   106159   106176   106145   106099   106064   106047   106070 
  106103   106137   106185   106182   106099   106030   106047   106076 
  106078   106115   106131   106084   106056   106056   106038   106027 
  106070   106141   106177   106161   106103   106062   106089   106095 
  106070   106105   106135   106116   106123   106127   106096   106096 
  106078   106002   106018   106139   106200   106181   106162   106131 
  106065   106026   106053   106074   106078   106099   106074   106057 
  106087   106051   106020   106101   106162   106164   106146   106080 
  106027   106016   106018   106095   106209   106215   106146   106112 
  106070   105999   106022   106131   106176   106188   106226   106215 
  106174   106120   105991   105877   105900   105958   105988   106064 
  106139   106142   106127   106112   106085   106054   106027   106043 
  106107   106147   106112   106062   106034   105989   105999   106070 
  106112   106188   106312   106398   106432   106334   106138   106062 
  106099   106108   106101   106019   105754   105381   105098   105165 
  105659   106332   106978   107454   107508   107179   106760   106327 
  105884   105526   105305   105337   105574   105736   105825   105933 
  105984   106142   106504   106855   107133   107187   106666   105744 
  104989   104680   104836   105331   105900   106354   106625   106635 
  106407   106131   105929   105757   105625   105630   105849   106273 
  106731   106901   106689   106296   105930   105818   106069   106385 
  106425   106188   105910   105900   106240   106659   106806   106459 
  105732   105104   104953   105237   105730   106231   106637   106957 
  107133   106956   106357   105571   104971   104819   105108   105742 
  106577   107171   107141   106620   105996   105522   105310   105391 
  105703   106182   106686   106938   106905   106790   106639   106400 
  106099   105798   105588   105489   105455   105510   105659   105835 
  105987   106105   106301   106605   106828   106902   106849   106578 
  106196   105942   105802   105668   105582   105632   105734   105748 
  105754   105848   105995   106211   106402   106431   106324   106107 
  105881   105875   106049   106147   106138   106122   106057   105922 
  105848   105960   106240   106492   106542   106446   106292   106108 
  106008   106081   106238   106338   106313   106153   105919   105742 
  105644   105619   105744   105961   106154   106342   106466   106402 
  106197   105931   105679   105637   105879   106245   106570   106687 
  106502   106201   106039   105976   105850   105745   105769   105880 
  106072   106305   106425   106394   106309   106189   106045   106022 
  106154   106200   106065   105898   105727   105646   105811   106092 
  106316   106462   106486   106447   106447   106375   106147   105891 
  105692   105568   105586   105741   105976   106232   106416   106485 
  106481   106392   106186   105903   105671   105633   105827   106193 
  106552   106655   106527   106390   106249   106046   105904   105900 
  105911   105854   105792   105744   105734   105833   105919   105896 
  105921   106076   106269   106423   106493   106470   106417   106367 
  106269   106111   105929   105754   105691   105818   106046   106243 
  106278   106134   106083   106209   106249   106196   106196   106158 
  106100   106135   106165   106096   105925   105709   105646   105817 
  106057   106246   106335   106253   106058   105968   106081   106297 
  106479   106535   106447   106309   106188   106050   105929   105911 
  105948   105931   105868   105822   105823   105891   106008   106135 
  106254   106313   106255   106131   106072   106151   106286   106338 
  106276   106189   106151   106110   106029   105999   106037   106076 
  106134   106211   106226   106115   105908   105709   105611   105700 
  106006   106323   106425   106402   106381   106308   106191   106070 
  105939   105879   105933   105969   105958   106015   106107   106158 
  106185   106174   106122   106041   105985   106031   106120   106182 
  106219   106173   106064   106033   106103   106174   106172   106124 
  106107   106091   106049   106069   106132   106168   106195   106203 
  106169   106128   106092   106050   105991   105945   105965   105996 
  105997   106038   106112   106169   106223   106273   106301   106315 
  106245   106060   105916   105898   105902   105923   106002   106062 
  106056   106051   106093   106145   106191   106219   106172   106047 
  105918   105876   105939   106030   106110   106188   106234   106238 
  106200   106149   106165   106230   106250   106220   106181   106122 
  106029   105941   105933   105995   106081   106177   106209   106159 
  106116   106080   106045   106062   106070   106010   105972   106002 
  106038   106072   106096   106104   106145   106186   106172   106169 
  106223   106250   106211   106166   106130   106078   106026   105964 
  105914   105985   106118   106147   106114   106088   106024   105949 
  105939   106020   106151   106251   106284   106259   106211   106164 
  106091   106006   105991   106038   106089   106105   106061   106030 
  106053   106031   105983   105995   106031   106064   106107   106139 
  106149   106151   106141   106112   106095   106105   106128   106142 
  106114   106053   106031   106051   106065   106066   106070   106103 
  106181   106249   106246   106177   106095   106050   106012   105976 
  105996   106051   106105   106141   106138   106168   106265   106326 
  106316   106272   106153   105984   105883   105884   105953   106035 
  106061   106058   106110   106159   106151   106126   106093   106060 
  106049   106024   105952   105923   105970   106016   106069   106149 
  106189   106181   106157   106110   106073   106093   106127   106143 
  106180   106231   106227   106157   106065   106002   105987   106041 
  106151   106243   106266   106240   106184   106089   105989   105929 
  105895   105876   105903   105981   106089   106199   106269   106273 
  106213   106150   106097   106020   105964   105979   106030   106076 
  106120   106170   106213   106236   106207   106076   105900   105811 
  105857   105987   106134   106240   106276   106272   106254   106203 
  106139   106114   106116   106110   106091   106084   106072   106034 
  106018   106064   106135   106195   106222   106201   106164   106131 
  106078   106019   106003   106022   106047   106074   106104   106103 
  106053   105989   105939   105943   106035   106154   106239   106276 
  106257   106215   106173   106108   106041   106008   106003   106011 
  106026   106049   106093   106145   106172   106166   106124   106070 
  106042   106029   106030   106062   106101   106143   106189   106199 
  106176   106153   106122   106095   106085   106069   106027   105983 
  105965   105968   105979   106015   106083   106165   106223   106212 
  106178   106153   106085   106016   106006   106012   106033   106066 
  106069   106064   106077   106101   106166   106234   106243   106228 
  106189   106126   106073   106006   105945   105962   106015   106065 
  106147   106228   106249   106203   106119   106058   106062   106103 
