Origin Time       2025/03/30 10:46:00
Lat.              32.923
Long.             130.372
Depth. (km)       11
Mag.              3.4
Station Code      KMMH07
Station Lat.      32.6234
Station Long.     130.5584
Station Height(m) -278
Record Time       2025/03/30 10:46:32
Sampling Freq(Hz) 100Hz
Duration Time(s)  120
Dir.              2
Scale Factor      2942(gal)/8224139
Max. Acc. (gal)   0.290
Last Correction   2025/03/30 10:46:32
Memo.             
[...]
  194152   194152   194154   194154   194152   194154   194157   194155 
  194154   194152   194151   194152   194154   194154   194154   194155 
  194155   194154   194152   194151   194154   194155   194154   194152 
  194152   194154   194157   194155   194157   194155   194151   194154 
  194157   194152   194151   194155   194155   194155   194154   194152 
  194152   194155   194154   194151   194152   194155   194154   194155 
  194157   194155   194154   194154   194155   194155   194152   194152 
  194154   194154   194157   194157   194152   194151   194155   194155 
  194152   194151   194152   194154   194154   194155   194157   194155 
  194154   194154   194154   194155   194155   194152   194154   194157 
  194155   194154   194155   194154   194154   194155   194152   194152 
  194152   194152   194154   194154   194152   194155   194158   194155 
  194152   194152   194154   194154   194154   194155   194154   194154 
  194154   194154   194151   194152   194155   194155   194152   194152 
  194154   194152   194154   194157   194155   194152   194152   194154 
  194154   194152   194152   194154   194154   194152   194151   194152 
  194155   194154   194152   194155   194155   194154   194155   194152 
  194152   194155   194155   194152   194154   194154   194152   194152 
  194154   194154   194154   194155   194155   194154   194154   194155 
  194154   194155   194155   194152   194152   194155   194155   194154 
  194155   194155   194155   194155   194155   194154   194151   194154 
  194155   194154   194155   194157   194154   194154   194157   194157 
  194155   194155   194154   194152   194154   194155   194155   194154 
  194152   194155   194155   194151   194151   194154   194154   194154 
  194155   194155   194158   194157   194151   194150   194154   194154 
  194154   194158   194158   194155   194154   194155   194155   194157 
  194157   194155   194155   194157   194154   194152   194155   194154 
  194152   194154   194154   194152   194151   194151   194155   194157 
  194154   194152   194154   194152   194152   194155   194157   194155 
  194152   194152   194155   194155   194154   194152   194155   194158 
  194155   194155   194161   194159   194152   194154   194157   194154 
  194152   194154   194154   194154   194154   194155   194157   194154 
  194152   194154   194155   194157   194157   194155   194154   194152 
  194152   194154   194154   194155   194154   194152   194155   194155 
  194152   194152   194152   194154   194154   194154   194155   194155 
  194152   194152   194155   194155   194154   194152   194154   194155 
  194154   194152   194152   194154   194155   194154   194155   194154 
  194154   194155   194154   194151   194152   194151   194151   194152 
  194151   194151   194155   194155   194151   194151   194152   194152 
  194154   194154   194155   194152   194152   194154   194152   194150 
  194151   194155   194155   194152   194154   194154   194152   194151 
  194152   194155   194155   194154   194154   194154   194152   194155 
  194157   194154   194155   194155   194152   194152   194155   194155 
  194154   194155   194155   194155   194155   194154   194152   194154 
  194154   194152   194154   194155   194155   194154   194154   194154 
  194152   194152   194151   194152   194155   194155   194151   194154 
  194154   194151   194154   194154   194154   194154   194152   194151 
  194154   194155   194155   194155   194154   194152   194152   194152 
  194154   194152   194152   194152   194154   194155   194155   194154 
  194152   194154   194152   194150   194152   194155   194151   194152 
  194157   194155   194154   194154   194151   194154   194155   194152 
  194155   194155   194151   194154   194155   194152   194154   194155 
  194152   194152   194152   194155   194154   194152   194154   194155 
  194157   194157   194152   194151   194152   194154   194154   194154 
  194155   194155   194154   194154   194154   194154   194152   194150 
  194152   194157   194155   194155   194155   194151   194152   194154 
  194154   194155   194155   194152   194154   194154   194154   194155 
  194154   194157   194161   194158   194154   194152   194154   194154 
  194151   194151   194154   194152   194154   194157   194154   194151 
  194151   194152   194154   194155   194155   194154   194152   194154 
  194155   194152   194151   194154   194154   194154   194154   194152 
  194154   194157   194155   194152   194152   194154   194155   194151 
  194150   194155   194157   194154   194154   194154   194151   194154 
  194155   194151   194151   194157   194157   194154   194154   194154 
  194155   194155   194155   194154   194152   194154   194157   194155 
  194152   194154   194155   194154   194152   194152   194152   194154 
  194155   194154   194155   194154   194151   194152   194154   194154 
  194155   194155   194152   194154   194155   194152   194151   194152 
  194155   194155   194154   194152   194154   194154   194152   194154 
  194155   194154   194155   194152   194154   194157   194155   194154 
  194154   194152   194152   194154   194157   194155   194152   194154 
  194155   194152   194152   194155   194154   194152   194157   194155 
  194154   194155   194155   194152   194154   194155   194154   194152 
  194154   194152   194152   194154   194154   194154   194155   194154 
  194154   194155   194155   194154   194152   194155   194157   194154 
  194154   194157   194157   194154   194154   194158   194157   194152 
  194152   194155   194154   194154   194155   194155   194155   194152 
  194151   194154   194155   194154   194152   194155   194155   194151 
  194151   194155   194155   194154   194155   194155   194152   194152 
  194154   194152   194154   194155   194155   194155   194154   194154 
  194157   194155   194157   194157   194152   194151   194154   194157 
  194157   194155   194152   194152   194157   194157   194154   194154 
  194154   194152   194152   194157   194157   194154   194154   194154 
  194151   194152   194154   194152   194155   194155   194154   194152 
  194151   194152   194155   194154   194152   194154   194155   194152 
  194151   194151   194152   194154   194157   194155   194151   194150 
  194151   194152   194157   194157   194152   194154   194155   194154 
  194151   194150   194154   194157   194152   194154   194155   194152 
  194154   194157   194152   194151   194155   194155   194151   194152 
  194154   194154   194155   194157   194154   194154   194152   194151 
  194155   194157   194154   194151   194154   194157   194155   194154 
  194152   194152   194152   194154   194154   194154   194155   194155 
  194151   194154   194154   194152   194154   194155   194154   194154 
  194151   194152   194155   194152   194152   194157   194155   194152 
  194151   194152   194157   194155   194155   194159   194157   194152 
  194154   194154   194155   194154   194151   194150   194152   194155 
  194154   194152   194152   194155   194154   194154   194155   194154 
  194154   194155   194155   194155   194154   194154   194154   194151 
  194151   194157   194158   194155   194154   194155   194155   194152 
  194151   194152   194152   194151   194152   194154   194154   194152 
  194152   194154   194152   194152   194154   194152   194154   194155 
  194155   194154   194152   194155   194157   194154   194151   194151 
  194152   194152   194152   194152   194152   194154   194154   194154 
  194154   194152   194154   194154   194152   194152   194152   194152 
  194152   194151   194151   194152   194152   194152   194151   194154 
  194157   194154   194154   194157   194157   194152   194152   194154 
  194152   194154   194154   194152   194152   194154   194152   194154 
  194152   194151   194151   194151   194154   194154   194154   194152 
  194151   194154   194154   194151   194150   194154   194154   194154 
  194154   194154   194150   194148   194151   194154   194152   194154 
  194152   194151   194152   194155   194154   194155   194159   194167 
  194173   194178   194178   194165   194143   194128   194121   194127 
  194143   194150   194139   194138   194163   194174   194138   194093 
  194105   194171   194216   194198   194173   194161   194143   194140 
  194157   194155   194154   194171   194165   194116   194069   194094 
  194221   194331   194310   194236   194162   194031   193922   193974 
  194119   194194   194247   194359   194368   194163   194015   194073 
  194081   193973   194000   194154   194228   194243   194294   194285 
  194158   194084   194105   194080   194031   194093   194193   194197 
  194188   194267   194298   194193   194128   194131   194054   194009 
  194109   194192   194177   194188   194256   194239   194103   194070 
  194181   194185   194085   194093   194155   194163   194171   194185 
  194167   194152   194174   194208   194170   194071   194063   194134 
  194157   194140   194128   194151   194223   194243   194190   194186 
  194216   194140   194009   194017   194142   194150   194077   194197 
  194391   194308   194081   194053   194148   194146   194113   194161 
  194198   194162   194144   194190   194182   194103   194113   194215 
  194231   194107   194008   194093   194205   194147   194054   194130 
  194282   194271   194113   194086   194175   194130   194074   194171 
  194209   194163   194235   194298   194173   194053   194162   194302 
  194163   193985   194059   194113   194049   194147   194262   194151 
  194076   194217   194277   194093   193992   194151   194297   194235 
  194123   194143   194219   194212   194159   194130   194105   194096 
  194128   194171   194178   194167   194204   194224   194103   194011 
  194177   194321   194157   193969   194067   194243   194198   194073 
  194152   194290   194185   194059   194178   194229   194096   194098 
  194178   194090   194005   194150   194309   194216   194109   194215 
  194250   194089   194046   194185   194236   194151   194116   194163 
  194165   194117   194144   194188   194121   194067   194152   194227 
  194165   194057   194046   194146   194260   194335   194304   194151 
  194042   194084   194130   194066   194040   194181   194306   194244 
  194119   194092   194171   194228   194158   194088   194105   194130 
  194144   194144   194139   194170   194166   194117   194121   194173 
  194194   194165   194173   194255   194252   194134   194092   194115 
  194058   194038   194157   194231   194193   194221   194297   194186 
  194022   194082   194161   194108   194139   194197   194107   194088 
  194275   194309   194073   194036   194273   194270   194028   194042 
  194185   194066   194020   194302   194404   194144   194015   194143 
  194185   194111   194148   194197   194081   194007   194140   194285 
  194302   194290   194211   194031   193973   194092   194143   194090 
  194158   194317   194271   194098   194154   194296   194193   194004 
  194005   194128   194140   194062   194139   194294   194266   194177 
  194193   194185   194092   194044   194090   194124   194136   194193 
  194196   194104   194081   194161   194240   194243   194200   194194 
  194150   194036   194026   194119   194186   194236   194269   194238 
  194132   194032   194071   194184   194178   194120   194194   194309 
  194228   194066   194066   194138   194123   194070   194098   194246 
  194294   194157   194080   194094   194092   194162   194277   194282 
  194167   194076   194113   194147   194030   193957   194158   194377 
  194223   193993   194161   194402   194277   194067   194119   194212 
  194125   194076   194161   194170   194112   194125   194158   194182 
  194240   194246   194148   194058   194065   194097   194081   194120 
  194255   194302   194211   194142   194161   194138   194016   193993 
  194158   194247   194166   194198   194341   194255   194032   194040 
  194158   194059   193945   194120   194323   194269   194166   194216 
  194285   194216   194104   194094   194142   194162   194127   194061 
  194119   194285   194232   194030   194105   194292   194131   193897 
  194076   194366   194250   193959   194047   194346   194263   193969 
  194070   194374   194278   193973   194055   194355   194286   194031 
  194125   194285   194049   193828   194066   194277   194028   193823 
  194069   194298   194165   194049   194158   194174   194063   194144 
  194351   194393   194348   194341   194278   194178   194113   194116 
  194236   194347   194333   194308   194314   194301   194292   194281 
  194244   194163   193995   193803   193746   193882   194097   194121 
  193858   193677   193841   194031   194031   194108   194433   194710 
  194597   194225   193978   193931   193955   194125   194382   194344 
  194003   193935   194350   194574   194112   193648   193990   194672 
  194813   194449   194081   193927   193958   194069   194220   194304 
  194198   194125   194205   194178   194039   194011   194044   193954 
  193878   194125   194401   194115   193606   193738   194324   194410 
  193965   193882   194344   194572   194274   193986   193982   194061 
  194244   194566   194544   194023   193750   194165   194671   194734 
  194620   194580   194379   194023   193849   193816   193691   193641 
  193881   194103   194040   194038   194255   194304   194098   194073 
  194370   194391   193834   193615   194287   194886   194692   194252 
  194034   193781   193514   193752   194340   194485   194188   194120 
  194211   193961   193772   194296   194965   194832   194138   193680 
  193576   193641   193934   194394   194680   194532   194161   194016 
  194069   194066   194093   194140   194062   194051   194289   194458 
  194293   194063   194011   193990   193965   194144   194452   194483 
  194211   194009   193999   194100   194198   194105   194046   194387 
  194683   194243   193471   193421   194138   194620   194451   194186 
  194109   194003   193977   194179   194273   194140   194135   194279 
  194266   194139   194134   194138   194059   194198   194401   194117 
  193764   194093   194586   194466   194128   194070   194012   193801 
  193787   193995   194084   194132   194331   194440   194405   194440 
  194428   194157   193932   194112   194331   194115   193850   193984 
  194108   193986   194053   194347   194379   194103   194001   194212 
  194358   194344   194304   194054   193679   193752   194196   194335 
  194167   194148   194251   194278   194269   194267   194259   194247 
  194259   194215   194000   193793   193807   194017   194328   194539 
  194475   194192   193904   193888   194084   194158   194127   194192 
  194364   194493   194373   194143   194090   194005   193768   193765 
  194038   194235   194348   194493   194445   194090   193865   194061 
  194194   193995   194004   194378   194491   194132   193818   193922 
  194184   194233   194169   194208   194224   194116   194046   194081 
  194157   194229   194239   194213   194266   194300   194193   194117 
  194196   194235   194076   193946   194089   194269   194200   194071 
  194103   194112   194009   194067   194283   194336   194301   194405 
  194379   194028   193818   193986   194019   193745   193762   194248 
  194560   194404   194232   194190   193992   193866   194135   194310 
  194104   194098   194408   194441   194212   194155   194204   194121 
  194077   194306   194533   194328   193919   193835   194063   194204 
  194093   193927   193993   194252   194347   194208   194080   194017 
  194017   194131   194252   194281   194243   194202   194248   194340 
  194262   194011   193914   194088   194185   194058   194057   194211 
  194148   193966   194028   194186   194171   194165   194296   194331 
  194215   194165   194159   194003   193887   194093   194329   194227 
  194019   194093   194347   194379   194170   194115   194225   194123 
  193900   193978   194278   194386   194274   194161   194061   194038 
  194181   194204   193968   193901   194200   194389   194181   193995 
  194096   194166   194143   194286   194424   194321   194240   194341 
  194352   194159   194016   194070   194120   194024   193939   193980 
  194028   194055   194163   194274   194256   194233   194320   194289 
  193986   193797   194023   194273   194219   194148   194265   194352 
  194273   194107   193978   193970   194042   194117   194163   194162 
  194178   194279   194332   194262   194232   194211   194035   193872 
  193953   194192   194339   194336   194341   194364   194251   194049 
  193954   194031   194163   194189   194044   193853   193855   194090 
  194270   194220   194216   194437   194521   194209   193870   193887 
  194101   194242   194327   194359   194233   194084   194096   194107 
  194020   194044   194173   194170   194089   194158   194312   194308 
  194181   194120   194057   193931   193992   194278   194402   194193 
  193984   194061   194200   194107   193999   194125   194231   194167 
  194169   194254   194250   194170   194119   194107   194085   194104 
  194229   194367   194371   194302   194277   194211   194055   193942 
  193953   194044   194119   194166   194259   194271   194100   194038 
  194232   194266   193968   193854   194142   194306   194139   194090 
  194220   194127   193958   194136   194385   194279   194115   194202 
  194287   194201   194146   194182   194138   194013   194044   194223 
  194225   194005   193922   194119   194341   194359   194243   194202 
  194219   194111   193977   194038   194165   194135   194062   194127 
  194256   194294   194227   194162   194178   194216   194208   194154 
  194100   194097   194081   194016   194034   194142   194192   194189 
  194229   194266   194219   194174   194188   194142   194073   194124 
  194188   194151   194117   194109   194067   194038   194098   194221 
  194298   194251   194112   193985   193959   194070   194236   194305 
  194262   194205   194167   194150   194185   194232   194198   194092 
  194034   194119   194279   194350   194296   194219   194155   194089 
  194022   193977   193986   194034   194098   194173   194211   194170 
  194127   194170   194227   194201   194170   194190   194152   194049 
  194055   194158   194192   194231   194331   194294   194120   194058 
  194121   194115   194065   194135   194240   194227   194179   194178 
  194157   194128   194178   194198   194077   194009   194128   194243 
  194243   194204   194179   194179   194181   194189   194186   194148 
  194163   194224   194169   194069   194070   194066   194019   194070 
  194197   194224   194167   194165   194170   194103   194063   194113 
  194138   194113   194167   194262   194209   194084   194097   194182 
  194186   194194   194240   194167   194034   194065   194221   194255 
  194139   194113   194246   194304   194188   194066   194070   194125 
  194119   194100   194152   194206   194225   194265   194297   194232 
  194111   194057   194093   194125   194125   194173   194239   194182 
  194050   194050   194170   194200   194115   194078   194163   194260 
  194233   194154   194148   194127   194055   194047   194109   194162 
  194154   194113   194130   194208   194240   194198   194139   194097 
  194096   194144   194184   194162   194127   194155   194221   194221 
  194140   194085   194113   194177   194219   194186   194127   194163 
