Origin Time       2025/03/30 10:46:00
Lat.              32.923
Long.             130.372
Depth. (km)       11
Mag.              3.4
Station Code      KMMH17
Station Lat.      32.9873
Station Long.     130.5608
Station Height(m) -45
Record Time       2025/03/30 10:46:24
Sampling Freq(Hz) 100Hz
Duration Time(s)  120
Dir.              2
Scale Factor      3923(gal)/8224838
Max. Acc. (gal)   1.246
Last Correction   2025/03/30 10:46:24
Memo.             
[...]
   -6214    -6212    -6212    -6215    -6212    -6211    -6214    -6214 
   -6211    -6211    -6212    -6212    -6214    -6214    -6210    -6211 
   -6216    -6212    -6210    -6214    -6214    -6211    -6210    -6210 
   -6214    -6214    -6211    -6212    -6212    -6211    -6212    -6211 
   -6208    -6211    -6211    -6210    -6211    -6211    -6211    -6212 
   -6212    -6212    -6212    -6211    -6211    -6211    -6211    -6211 
   -6210    -6212    -6214    -6211    -6211    -6214    -6214    -6212 
   -6212    -6211    -6211    -6212    -6214    -6211    -6210    -6214 
   -6214    -6212    -6212    -6212    -6211    -6210    -6211    -6212 
   -6211    -6208    -6210    -6212    -6212    -6210    -6210    -6211 
   -6212    -6214    -6214    -6212    -6210    -6212    -6212    -6210 
   -6210    -6210    -6211    -6212    -6212    -6211    -6211    -6210 
   -6210    -6214    -6214    -6210    -6210    -6212    -6211    -6211 
   -6212    -6212    -6211    -6212    -6212    -6212    -6211    -6212 
   -6215    -6214    -6211    -6212    -6211    -6210    -6212    -6212 
   -6211    -6211    -6212    -6214    -6214    -6210    -6207    -6211 
   -6214    -6211    -6211    -6214    -6211    -6211    -6214    -6214 
   -6214    -6214    -6212    -6211    -6212    -6212    -6211    -6211 
   -6211    -6211    -6214    -6214    -6212    -6212    -6214    -6211 
   -6210    -6211    -6211    -6215    -6214    -6212    -6212    -6211 
   -6208    -6211    -6210    -6207    -6211    -6214    -6212    -6211 
   -6211    -6212    -6214    -6214    -6214    -6212    -6214    -6212 
   -6212    -6212    -6211    -6210    -6210    -6210    -6208    -6208 
   -6211    -6210    -6208    -6210    -6211    -6212    -6214    -6212 
   -6210    -6211    -6212    -6211    -6212    -6214    -6212    -6210 
   -6211    -6215    -6214    -6212    -6212    -6210    -6211    -6212 
   -6211    -6210    -6211    -6212    -6211    -6211    -6212    -6211 
   -6210    -6212    -6212    -6212    -6214    -6212    -6211    -6214 
   -6214    -6211    -6208    -6210    -6214    -6211    -6207    -6210 
   -6212    -6210    -6211    -6214    -6214    -6211    -6210    -6210 
   -6212    -6211    -6211    -6211    -6214    -6214    -6212    -6211 
   -6211    -6211    -6211    -6212    -6214    -6214    -6212    -6212 
   -6214    -6214    -6211    -6212    -6211    -6208    -6211    -6211 
   -6210    -6212    -6212    -6214    -6212    -6210    -6210    -6211 
   -6211    -6210    -6211    -6214    -6211    -6210    -6212    -6212 
   -6211    -6211    -6212    -6214    -6214    -6211    -6211    -6212 
   -6212    -6212    -6212    -6211    -6212    -6212    -6211    -6211 
   -6210    -6208    -6211    -6210    -6210    -6212    -6212    -6210 
   -6210    -6212    -6212    -6212    -6211    -6211    -6211    -6212 
   -6210    -6210    -6212    -6212    -6212    -6211    -6210    -6211 
   -6212    -6214    -6212    -6212    -6215    -6214    -6208    -6211 
   -6214    -6211    -6208    -6210    -6212    -6212    -6211    -6212 
   -6214    -6212    -6212    -6211    -6211    -6212    -6214    -6211 
   -6208    -6208    -6211    -6214    -6214    -6210    -6210    -6214 
   -6212    -6211    -6212    -6212    -6212    -6214    -6212    -6211 
   -6212    -6212    -6211    -6212    -6212    -6210    -6210    -6212 
   -6211    -6210    -6212    -6214    -6212    -6211    -6212    -6212 
   -6211    -6210    -6211    -6212    -6211    -6211    -6212    -6211 
   -6211    -6212    -6212    -6211    -6212    -6212    -6210    -6208 
   -6211    -6211    -6210    -6210    -6211    -6211    -6211    -6212 
   -6212    -6212    -6214    -6211    -6211    -6212    -6211    -6208 
   -6210    -6211    -6214    -6215    -6211    -6210    -6211    -6211 
   -6212    -6212    -6212    -6212    -6211    -6211    -6211    -6208 
   -6210    -6212    -6212    -6211    -6210    -6211    -6211    -6211 
   -6212    -6214    -6212    -6211    -6211    -6210    -6212    -6212 
   -6210    -6211    -6212    -6212    -6212    -6210    -6210    -6211 
   -6211    -6211    -6211    -6212    -6211    -6210    -6210    -6214 
   -6214    -6210    -6210    -6211    -6212    -6212    -6210    -6210 
   -6212    -6214    -6212    -6211    -6211    -6212    -6212    -6212 
   -6212    -6210    -6211    -6214    -6214    -6211    -6210    -6212 
   -6212    -6210    -6210    -6212    -6211    -6210    -6212    -6211 
   -6210    -6211    -6214    -6214    -6212    -6210    -6210    -6211 
   -6212    -6214    -6214    -6211    -6212    -6212    -6211    -6211 
   -6212    -6211    -6211    -6211    -6211    -6212    -6212    -6212 
   -6211    -6210    -6211    -6212    -6214    -6212    -6212    -6212 
   -6210    -6208    -6211    -6212    -6211    -6212    -6214    -6211 
   -6211    -6214    -6214    -6212    -6212    -6212    -6212    -6214 
   -6211    -6210    -6211    -6211    -6212    -6212    -6211    -6211 
   -6211    -6211    -6212    -6212    -6212    -6212    -6214    -6214 
   -6212    -6212    -6212    -6211    -6211    -6212    -6214    -6212 
   -6212    -6212    -6210    -6211    -6214    -6212    -6211    -6212 
   -6212    -6212    -6212    -6210    -6210    -6211    -6212    -6212 
   -6212    -6211    -6210    -6211    -6212    -6212    -6212    -6211 
   -6212    -6214    -6212    -6212    -6212    -6214    -6214    -6211 
   -6210    -6212    -6212    -6212    -6212    -6211    -6211    -6212 
   -6214    -6211    -6211    -6212    -6212    -6211    -6212    -6214 
   -6211    -6208    -6211    -6214    -6212    -6211    -6212    -6212 
   -6212    -6212    -6214    -6214    -6212    -6212    -6214    -6212 
   -6214    -6214    -6211    -6211    -6212    -6212    -6211    -6211 
   -6210    -6210    -6211    -6211    -6212    -6211    -6212    -6214 
   -6212    -6211    -6211    -6211    -6212    -6212    -6212    -6212 
   -6211    -6212    -6214    -6212    -6211    -6214    -6215    -6214 
   -6214    -6211    -6211    -6211    -6211    -6214    -6214    -6211 
   -6212    -6212    -6208    -6211    -6214    -6210    -6208    -6210 
   -6211    -6211    -6211    -6211    -6211    -6210    -6211    -6211 
   -6210    -6212    -6211    -6211    -6214    -6214    -6212    -6214 
   -6212    -6212    -6212    -6211    -6211    -6211    -6211    -6211 
   -6210    -6210    -6210    -6211    -6215    -6212    -6210    -6212 
   -6215    -6214    -6211    -6211    -6215    -6215    -6210    -6211 
   -6216    -6212    -6207    -6211    -6212    -6208    -6210    -6214 
   -6212    -6211    -6211    -6210    -6211    -6211    -6210    -6212 
   -6214    -6210    -6211    -6214    -6212    -6210    -6212    -6211 
   -6208    -6211    -6211    -6210    -6210    -6212    -6214    -6212 
   -6212    -6211    -6210    -6212    -6212    -6212    -6214    -6214 
   -6211    -6210    -6212    -6214    -6212    -6211    -6212    -6211 
   -6210    -6211    -6212    -6212    -6211    -6211    -6211    -6211 
   -6211    -6210    -6211    -6212    -6214    -6212    -6210    -6211 
   -6214    -6214    -6214    -6214    -6212    -6210    -6211    -6214 
   -6215    -6212    -6210    -6210    -6214    -6214    -6211    -6211 
   -6212    -6212    -6214    -6214    -6212    -6215    -6216    -6214 
   -6215    -6214    -6212    -6212    -6211    -6211    -6211    -6211 
   -6212    -6214    -6212    -6211    -6211    -6212    -6212    -6210 
   -6210    -6212    -6210    -6210    -6214    -6214    -6212    -6211 
   -6211    -6212    -6211    -6210    -6211    -6214    -6214    -6212 
   -6212    -6211    -6211    -6212    -6211    -6211    -6212    -6212 
   -6212    -6210    -6211    -6215    -6212    -6210    -6212    -6211 
   -6210    -6212    -6212    -6210    -6210    -6211    -6212    -6214 
   -6211    -6211    -6212    -6211    -6210    -6212    -6214    -6211 
   -6212    -6212    -6212    -6212    -6214    -6212    -6211    -6211 
   -6214    -6215    -6215    -6212    -6211    -6211    -6211    -6210 
   -6208    -6210    -6211    -6214    -6215    -6212    -6212    -6215 
   -6214    -6211    -6211    -6212    -6211    -6211    -6211    -6210 
   -6211    -6212    -6210    -6210    -6212    -6214    -6212    -6212 
   -6212    -6214    -6214    -6212    -6212    -6211    -6212    -6211 
   -6211    -6212    -6211    -6210    -6212    -6214    -6212    -6212 
   -6212    -6211    -6211    -6212    -6211    -6211    -6214    -6211 
   -6208    -6208    -6212    -6214    -6212    -6212    -6211    -6210 
   -6211    -6211    -6210    -6211    -6210    -6210    -6212    -6214 
   -6211    -6211    -6212    -6210    -6210    -6211    -6212    -6212 
   -6210    -6211    -6211    -6211    -6211    -6210    -6210    -6212 
   -6210    -6208    -6212    -6212    -6211    -6212    -6214    -6212 
   -6210    -6212    -6214    -6212    -6210    -6210    -6210    -6212 
   -6212    -6211    -6210    -6212    -6212    -6211    -6212    -6212 
   -6211    -6211    -6212    -6211    -6211    -6211    -6211    -6211 
   -6214    -6214    -6214    -6214    -6212    -6211    -6214    -6211 
   -6210    -6212    -6212    -6211    -6211    -6210    -6211    -6212 
   -6210    -6210    -6212    -6214    -6214    -6212    -6212    -6214 
   -6211    -6210    -6211    -6211    -6211    -6212    -6212    -6212 
   -6210    -6210    -6210    -6210    -6211    -6212    -6212    -6211 
   -6208    -6208    -6211    -6212    -6212    -6212    -6214    -6214 
   -6212    -6211    -6212    -6211    -6208    -6210    -6212    -6212 
   -6214    -6212    -6210    -6210    -6210    -6211    -6212    -6210 
   -6208    -6210    -6211    -6210    -6211    -6212    -6212    -6211 
   -6211    -6212    -6212    -6212    -6212    -6210    -6210    -6211 
   -6210    -6211    -6212    -6211    -6211    -6212    -6211    -6212 
   -6211    -6208    -6211    -6215    -6212    -6210    -6211    -6211 
   -6211    -6215    -6212    -6211    -6214    -6214    -6214    -6212 
   -6210    -6212    -6214    -6214    -6214    -6214    -6211    -6214 
   -6214    -6211    -6211    -6214    -6215    -6214    -6214    -6214 
   -6212    -6214    -6215    -6214    -6212    -6212    -6211    -6211 
   -6211    -6211    -6212    -6211    -6212    -6215    -6212    -6210 
   -6211    -6212    -6210    -6211    -6211    -6211    -6214    -6214 
   -6211    -6212    -6211    -6211    -6212    -6212    -6211    -6210 
   -6212    -6214    -6211    -6211    -6212    -6212    -6211    -6212 
   -6212    -6212    -6214    -6212    -6208    -6208    -6211    -6212 
   -6211    -6208    -6211    -6215    -6212    -6210    -6212    -6214 
   -6208    -6210    -6215    -6214    -6210    -6212    -6212    -6210 
   -6211    -6212    -6214    -6212    -6211    -6212    -6211    -6210 
   -6211    -6212    -6212    -6210    -6211    -6211    -6210    -6211 
   -6214    -6214    -6211    -6210    -6210    -6212    -6212    -6210 
   -6210    -6214    -6211    -6208    -6210    -6210    -6211    -6212 
   -6211    -6210    -6211    -6212    -6211    -6210    -6210    -6211 
   -6212    -6211    -6211    -6212    -6211    -6210    -6211    -6212 
   -6212    -6210    -6210    -6211    -6211    -6210    -6211    -6211 
   -6210    -6210    -6212    -6212    -6211    -6211    -6211    -6210 
   -6211    -6212    -6211    -6212    -6212    -6210    -6208    -6210 
   -6210    -6211    -6211    -6211    -6211    -6212    -6214    -6214 
   -6212    -6211    -6210    -6211    -6212    -6210    -6208    -6211 
   -6212    -6212    -6211    -6211    -6211    -6214    -6212    -6208 
   -6211    -6215    -6212    -6211    -6212    -6212    -6214    -6212 
   -6210    -6211    -6214    -6215    -6215    -6214    -6212    -6212 
   -6212    -6211    -6212    -6214    -6212    -6214    -6214    -6211 
   -6211    -6212    -6214    -6214    -6212    -6212    -6212    -6214 
   -6212    -6211    -6214    -6214    -6214    -6214    -6211    -6211 
   -6214    -6211    -6208    -6211    -6212    -6211    -6211    -6211 
   -6211    -6215    -6215    -6210    -6211    -6214    -6211    -6212 
   -6216    -6214    -6211    -6211    -6211    -6212    -6211    -6210 
   -6211    -6214    -6212    -6212    -6211    -6211    -6211    -6211 
   -6212    -6211    -6210    -6214    -6214    -6211    -6211    -6211 
   -6212    -6215    -6215    -6212    -6212    -6212    -6211    -6211 
   -6212    -6211    -6208    -6208    -6210    -6212    -6212    -6210 
   -6212    -6215    -6215    -6212    -6211    -6214    -6214    -6210 
   -6210    -6210    -6211    -6214    -6212    -6211    -6212    -6212 
   -6212    -6214    -6212    -6211    -6210    -6211    -6214    -6211 
   -6207    -6210    -6212    -6210    -6211    -6214    -6212    -6210 
   -6211    -6212    -6212    -6211    -6212    -6212    -6211    -6214 
   -6215    -6214    -6211    -6211    -6212    -6214    -6214    -6214 
   -6212    -6212    -6215    -6214    -6211    -6211    -6211    -6211 
   -6212    -6214    -6212    -6212    -6211    -6211    -6211    -6211 
   -6212    -6211    -6212    -6214    -6212    -6211    -6211    -6211 
   -6214    -6214    -6211    -6212    -6214    -6211    -6212    -6214 
   -6210    -6211    -6215    -6215    -6212    -6214    -6211    -6210 
   -6212    -6215    -6212    -6211    -6212    -6211    -6211    -6212 
   -6211    -6210    -6211    -6211    -6212    -6215    -6214    -6211 
   -6211    -6212    -6214    -6212    -6211    -6212    -6212    -6214 
   -6214    -6212    -6211    -6212    -6212    -6211    -6215    -6238 
   -6350    -6704    -7327    -7600    -6443    -4229    -3600    -5863 
   -8151    -7601    -5548    -4887    -6262    -7264    -5679    -3782 
   -4745    -7283    -8252    -6910    -5695    -6262    -6637    -5952 
   -5657    -5899    -6663    -7445    -6685    -5692    -5914    -5942 
   -5965    -6416    -6232    -6058    -6191    -5832    -5734    -6408 
   -6790    -6185    -5609    -6191    -6945    -6571    -5800    -5879 
   -6459    -6412    -5956    -6072    -6447    -6320    -6110    -6297 
   -6458    -6351    -6197    -6123    -6232    -6326    -6174    -6116 
   -6243    -6258    -6274    -6316    -6100    -5922    -6062    -6230 
   -6299    -6228    -6123    -6176    -6178    -6223    -6439    -6338 
   -5888    -5688    -6046    -6601    -6542    -5953    -5981    -6535 
   -6461    -6003    -6064    -6430    -6498    -6238    -6131    -6431 
   -6471    -5875    -5607    -6227    -6777    -6482    -5908    -5907 
   -6278    -6235    -5933    -6019    -6311    -6397    -6345    -6226 
   -6038    -6037    -6354    -6602    -6343    -5814    -5845    -6367 
   -6417    -6107    -6157    -6401    -6331    -5996    -5994    -6390 
   -6442    -6188    -6292    -6408    -6151    -6054    -6239    -6338 
   -6239    -6093    -6196    -6334    -6103    -5948    -6158    -6282 
   -6305    -6369    -6264    -6053    -5950    -6095    -6334    -6291 
   -6123    -6166    -6434    -6613    -6346    -5977    -5983    -6177 
   -6339    -6372    -6199    -6087    -6146    -6154    -6187    -6286 
   -6288    -6242    -6087    -5881    -6060    -6504    -6598    -6219 
   -5902    -6075    -6365    -6305    -6068    -6037    -6334    -6461 
   -6108    -5921    -6149    -6421    -6581    -6409    -6083    -6110 
   -6235    -6133    -6079    -6178    -6281    -6219    -5929    -5821 
   -6204    -6612    -6511    -6169    -6205    -6419    -6232    -5929 
   -6050    -6450    -6575    -6303    -6114    -6131    -6035    -5972 
   -6181    -6384    -6419    -6426    -6274    -5972    -5983    -6292 
   -6335    -6056    -5927    -6150    -6435    -6323    -5973    -6052 
   -6370    -6396    -6281    -6215    -6259    -6372    -6346    -6210 
   -6111    -6119    -6149    -6060    -6061    -6242    -6247    -6035 
   -5950    -6211    -6540    -6397    -5935    -5888    -6346    -6681 
   -6571    -6396    -6372    -6178    -5857    -5946    -6420    -6639 
   -6305    -5679    -5454    -5987    -6543    -6457    -5989    -5721 
   -5991    -6512    -6679    -6335    -5996    -6068    -6150    -6134 
   -6412    -6556    -6153    -5761    -5848    -6250    -6544    -6480 
   -6218    -6069    -6201    -6427    -6334    -5902    -5584    -5807 
   -6386    -6766    -6793    -6442    -5869    -5830    -6529    -7096 
   -6856    -6126    -5755    -5983    -6292    -6311    -6048    -5853 
   -6122    -6515    -6489    -6234    -6195    -6357    -6272    -5868 
   -5825    -6286    -6470    -6146    -5949    -6183    -6354    -6096 
   -5859    -6195    -6720    -6539    -5827    -5728    -6335    -6556 
   -6119    -5836    -5977    -6127    -6223    -6432    -6558    -6268 
   -5865    -5991    -6372    -6299    -6072    -6300    -6578    -6342 
   -6003    -6108    -6465    -6547    -6251    -6060    -6216    -6399 
   -6336    -6091    -6006    -6255    -6474    -6308    -5944    -5844 
   -6112    -6397    -6426    -6285    -6218    -6232    -6130    -5972 
   -6016    -6305    -6443    -6089    -5842    -6246    -6554    -6253 
   -5988    -6110    -6224    -6141    -6095    -6161    -6234    -6293 
   -6322    -6315    -6307    -6277    -6215    -6018    -5794    -5977 
   -6436    -6534    -6234    -6058    -6168    -6200    -6033    -6042 
   -6415    -6745    -6596    -6195    -6050    -6154    -6219    -6243 
   -6316    -6328    -6265    -6239    -6245    -6191    -6058    -6041 
   -6147    -6077    -5926    -6099    -6443    -6486    -6242    -6120 
   -6340    -6525    -6253    -5921    -5999    -6210    -6286    -6312 
   -6295    -6207    -6054    -5900    -5888    -6085    -6347    -6516 
   -6582    -6500    -6349    -6288    -6106    -5757    -5809    -6237 
   -6339    -6204    -6280    -6412    -6331    -6057    -5892    -6064 
   -6257    -6219    -6259    -6421    -6390    -6295    -6304    -6184 
   -5938    -5940    -6205    -6404    -6469    -6471    -6340    -6052 
   -5864    -6084    -6428    -6351    -6026    -6060    -6394    -6411 
   -6034    -5833    -6037    -6274    -6338    -6354    -6297    -6143 
   -6139    -6367    -6455    -6215    -5995    -6021    -6091    -6087 
   -6250    -6581    -6552    -6112    -5875    -6103    -6405    -6432 
   -6291    -6204    -6180    -6033    -5840    -5999    -6316    -6339 
   -6243    -6257    -6286    -6291    -6331    -6367    -6274    -6154 
   -6188    -6280    -6235    -6079    -6049    -6235    -6363    -6238 
   -6058    -6085    -6261    -6270    -6142    -6214    -6343    -6197 
   -6015    -6164    -6470    -6469    -6103    -5913    -6197    -6466 
   -6315    -6091    -6165    -6334    -6307    -6214    -6165    -6112 
   -6193    -6320    -6231    -6093    -6093    -6119    -6177    -6319 
   -6393    -6273    -6118    -6092    -6084    -6073    -6162    -6224 
   -6172    -6158    -6274    -6393    -6312    -6099    -6095    -6319 
   -6345    -6069    -5971    -6262    -6523    -6421    -6162    -6091 
   -6129    -6016    -5996    -6258    -6393    -6301    -6336    -6434 
   -6300    -6080    -6119    -6309    -6238    -6004    -6072    -6312 
   -6284    -6099    -6092    -6235    -6255    -6164    -6210    -6304 
   -6228    -6131    -6201    -6301    -6243    -6129    -6160    -6246 
   -6197    -6139    -6238    -6324    -6234    -6100    -6149    -6316 
   -6301    -6110    -6056    -6224    -6431    -6459    -6231    -6016 
   -6118    -6322    -6319    -6255    -6278    -6230    -6137    -6200 
