Origin Time       2025/03/30 10:46:00
Lat.              32.923
Long.             130.372
Depth. (km)       11
Mag.              3.4
Station Code      KMMH18
Station Lat.      33.0031
Station Long.     131.0071
Station Height(m) 932
Record Time       2025/03/30 10:46:39
Sampling Freq(Hz) 100Hz
Duration Time(s)  120
Dir.              6
Scale Factor      7845(gal)/8223790
Max. Acc. (gal)   0.393
Last Correction   2025/03/30 10:46:38
Memo.             
   -2405    -2407    -2407    -2405    -2405    -2407    -2405    -2405 
   -2407    -2405    -2405    -2407    -2405    -2404    -2404    -2403 
   -2404    -2408    -2407    -2405    -2408    -2405    -2404    -2407 
   -2407    -2405    -2405    -2403    -2405    -2408    -2404    -2405 
   -2408    -2405    -2405    -2407    -2404    -2403    -2404    -2405 
   -2405    -2404    -2407    -2407    -2404    -2403    -2408    -2407 
   -2405    -2408    -2407    -2401    -2405    -2408    -2405    -2405 
   -2407    -2405    -2404    -2403    -2407    -2409    -2404    -2403 
   -2405    -2405    -2405    -2404    -2405    -2408    -2408    -2407 
   -2407    -2405    -2405    -2405    -2405    -2405    -2404    -2404 
   -2404    -2404    -2405    -2407    -2407    -2407    -2407    -2405 
   -2407    -2409    -2405    -2404    -2405    -2404    -2405    -2405 
   -2405    -2407    -2405    -2403    -2407    -2407    -2404    -2407 
   -2408    -2405    -2405    -2404    -2401    -2407    -2407    -2404 
   -2405    -2404    -2403    -2407    -2407    -2404    -2407    -2407 
   -2404    -2405    -2404    -2403    -2404    -2407    -2408    -2407 
   -2407    -2407    -2407    -2408    -2407    -2405    -2407    -2404 
   -2401    -2405    -2407    -2407    -2408    -2407    -2405    -2408 
   -2407    -2405    -2407    -2403    -2403    -2404    -2405    -2404 
   -2403    -2404    -2407    -2405    -2403    -2405    -2408    -2407 
   -2408    -2407    -2403    -2404    -2407    -2405    -2404    -2407 
   -2405    -2403    -2407    -2409    -2408    -2407    -2407    -2405 
   -2403    -2403    -2404    -2405    -2404    -2403    -2404    -2407 
   -2407    -2405    -2405    -2407    -2409    -2407    -2404    -2407 
   -2407    -2405    -2409    -2411    -2405    -2404    -2407    -2405 
   -2405    -2405    -2405    -2405    -2404    -2404    -2405    -2408 
   -2409    -2408    -2405    -2407    -2408    -2405    -2407    -2408 
   -2404    -2405    -2407    -2404    -2407    -2408    -2407    -2408 
   -2408    -2407    -2405    -2405    -2405    -2404    -2404    -2409 
   -2408    -2407    -2409    -2409    -2405    -2405    -2404    -2405 
   -2407    -2407    -2407    -2405    -2404    -2407    -2407    -2405 
   -2408    -2409    -2408    -2407    -2407    -2408    -2405    -2404 
   -2407    -2407    -2405    -2407    -2408    -2409    -2407    -2407 
   -2407    -2405    -2405    -2404    -2405    -2407    -2404    -2404 
   -2408    -2408    -2405    -2407    -2407    -2407    -2407    -2407 
   -2407    -2407    -2407    -2405    -2404    -2407    -2408    -2405 
   -2408    -2411    -2407    -2405    -2408    -2405    -2404    -2405 
   -2405    -2404    -2404    -2405    -2405    -2403    -2404    -2405 
   -2405    -2407    -2407    -2405    -2404    -2404    -2407    -2408 
   -2405    -2408    -2412    -2407    -2403    -2405    -2404    -2405 
   -2409    -2407    -2405    -2408    -2409    -2409    -2407    -2407 
   -2408    -2405    -2401    -2405    -2408    -2405    -2407    -2408 
   -2405    -2405    -2408    -2408    -2407    -2407    -2404    -2403 
   -2405    -2408    -2407    -2405    -2404    -2407    -2409    -2407 
   -2405    -2404    -2405    -2405    -2403    -2404    -2404    -2403 
   -2404    -2405    -2404    -2403    -2404    -2405    -2405    -2405 
   -2407    -2408    -2407    -2405    -2404    -2404    -2405    -2405 
   -2407    -2407    -2404    -2405    -2407    -2403    -2407    -2411 
   -2407    -2405    -2407    -2404    -2407    -2408    -2404    -2404 
   -2407    -2407    -2408    -2408    -2405    -2405    -2405    -2405 
   -2407    -2405    -2404    -2408    -2405    -2405    -2407    -2405 
   -2404    -2407    -2408    -2408    -2407    -2405    -2407    -2404 
   -2404    -2407    -2405    -2403    -2405    -2405    -2403    -2405 
   -2408    -2407    -2404    -2405    -2407    -2404    -2405    -2407 
   -2403    -2403    -2411    -2409    -2400    -2401    -2407    -2407 
   -2405    -2407    -2407    -2407    -2404    -2404    -2407    -2404 
   -2404    -2405    -2404    -2403    -2405    -2404    -2404    -2405 
   -2404    -2405    -2408    -2408    -2408    -2407    -2404    -2407 
   -2407    -2405    -2405    -2405    -2405    -2405    -2405    -2405 
   -2405    -2404    -2405    -2404    -2401    -2404    -2407    -2407 
   -2407    -2405    -2405    -2408    -2407    -2403    -2403    -2404 
   -2405    -2405    -2407    -2404    -2404    -2404    -2405    -2407 
   -2403    -2403    -2407    -2408    -2408    -2408    -2407    -2404 
   -2404    -2408    -2407    -2403    -2405    -2407    -2404    -2403 
   -2405    -2405    -2405    -2407    -2408    -2409    -2409    -2407 
   -2405    -2405    -2403    -2403    -2407    -2404    -2404    -2408 
   -2407    -2404    -2404    -2405    -2407    -2407    -2405    -2404 
   -2405    -2405    -2405    -2408    -2407    -2404    -2405    -2404 
   -2404    -2407    -2407    -2405    -2405    -2404    -2404    -2408 
   -2408    -2407    -2408    -2405    -2404    -2405    -2403    -2404 
   -2409    -2408    -2407    -2409    -2409    -2405    -2405    -2405 
   -2404    -2404    -2407    -2409    -2408    -2405    -2407    -2408 
   -2405    -2404    -2405    -2405    -2404    -2403    -2405    -2408 
   -2407    -2405    -2405    -2405    -2405    -2407    -2407    -2408 
   -2409    -2408    -2407    -2407    -2404    -2404    -2404    -2407 
   -2409    -2407    -2405    -2407    -2408    -2409    -2409    -2408 
   -2408    -2409    -2405    -2403    -2404    -2405    -2405    -2404 
   -2404    -2404    -2405    -2407    -2407    -2407    -2408    -2409 
   -2407    -2404    -2407    -2407    -2408    -2409    -2407    -2405 
   -2405    -2404    -2405    -2404    -2404    -2405    -2405    -2405 
   -2411    -2411    -2405    -2404    -2407    -2405    -2405    -2408 
   -2405    -2403    -2405    -2407    -2405    -2407    -2408    -2405 
   -2405    -2408    -2407    -2407    -2409    -2405    -2404    -2405 
   -2404    -2405    -2408    -2408    -2405    -2404    -2401    -2405 
   -2407    -2404    -2405    -2405    -2404    -2404    -2403    -2405 
   -2407    -2408    -2408    -2407    -2403    -2401    -2405    -2405 
   -2405    -2405    -2407    -2404    -2404    -2408    -2409    -2407 
   -2405    -2404    -2405    -2407    -2407    -2405    -2405    -2407 
   -2405    -2407    -2407    -2404    -2408    -2409    -2408    -2407 
   -2408    -2415    -2420    -2427    -2442    -2469    -2500    -2531 
   -2550    -2535    -2473    -2367    -2242    -2138    -2087    -2088 
   -2124    -2180    -2249    -2353    -2493    -2639    -2759    -2816 
   -2782    -2667    -2509    -2369    -2286    -2253    -2230    -2200 
   -2173    -2170    -2227    -2347    -2482    -2563    -2562    -2515 
   -2482    -2488    -2504    -2492    -2444    -2394    -2371    -2385 
   -2424    -2471    -2511    -2523    -2489    -2409    -2315    -2250 
   -2246    -2281    -2311    -2322    -2335    -2376    -2442    -2497 
   -2520    -2509    -2462    -2382    -2295    -2230    -2230    -2323 
   -2462    -2565    -2596    -2556    -2481    -2420    -2392    -2382 
   -2370    -2359    -2371    -2392    -2382    -2353    -2343    -2374 
   -2430    -2463    -2454    -2428    -2411    -2393    -2357    -2330 
   -2349    -2407    -2462    -2485    -2447    -2370    -2338    -2403 
   -2524    -2592    -2547    -2440    -2339    -2278    -2285    -2347 
   -2404    -2430    -2430    -2404    -2376    -2385    -2421    -2451 
   -2436    -2369    -2313    -2332    -2393    -2447    -2461    -2430 
   -2394    -2397    -2438    -2497    -2562    -2589    -2525    -2384 
   -2234    -2150    -2166    -2246    -2312    -2331    -2323    -2331 
   -2390    -2477    -2535    -2570    -2597    -2578    -2515    -2454 
   -2400    -2355    -2340    -2342    -2357    -2394    -2420    -2412 
   -2419    -2439    -2424    -2385    -2354    -2343    -2369    -2416 
   -2457    -2490    -2494    -2443    -2381    -2359    -2381    -2411 
   -2408    -2363    -2322    -2338    -2396    -2455    -2501    -2498 
   -2439    -2384    -2359    -2327    -2282    -2265    -2297    -2349 
   -2380    -2405    -2459    -2528    -2558    -2520    -2447    -2385 
   -2363    -2397    -2457    -2485    -2470    -2439    -2415    -2417 
   -2421    -2392    -2346    -2297    -2263    -2288    -2359    -2420 
   -2443    -2440    -2428    -2415    -2411    -2428    -2442    -2416 
   -2374    -2380    -2446    -2517    -2536    -2488    -2390    -2300 
   -2284    -2344    -2419    -2458    -2459    -2432    -2397    -2370 
   -2344    -2330    -2350    -2389    -2408    -2415    -2439    -2474 
   -2500    -2502    -2481    -2452    -2421    -2376    -2327    -2293 
   -2288    -2305    -2322    -2343    -2397    -2484    -2566    -2602 
   -2574    -2485    -2366    -2270    -2230    -2238    -2285    -2339 
   -2346    -2330    -2385    -2517    -2641    -2686    -2625    -2493 
   -2362    -2286    -2266    -2286    -2327    -2363    -2403    -2457 
   -2494    -2484    -2439    -2397    -2385    -2409    -2424    -2385 
   -2319    -2292    -2336    -2417    -2454    -2428    -2397    -2378 
   -2370    -2398    -2463    -2512    -2512    -2478    -2438    -2420 
   -2421    -2421    -2407    -2376    -2338    -2304    -2265    -2242 
   -2286    -2384    -2459    -2479    -2458    -2443    -2466    -2505 
   -2531    -2520    -2467    -2408    -2371    -2354    -2331    -2307 
   -2315    -2351    -2377    -2377    -2381    -2425    -2489    -2528 
   -2515    -2444    -2351    -2305    -2342    -2425    -2489    -2490 
   -2443    -2400    -2397    -2415    -2413    -2381    -2330    -2296 
   -2295    -2328    -2396    -2459    -2496    -2513    -2520    -2519 
   -2515    -2505    -2484    -2448    -2400    -2351    -2308    -2263 
   -2231    -2234    -2276    -2332    -2369    -2386    -2409    -2458 
   -2515    -2538    -2505    -2443    -2392    -2371    -2366    -2358 
   -2355    -2362    -2373    -2394    -2434    -2489    -2533    -2535 
   -2493    -2443    -2407    -2392    -2393    -2394    -2384    -2370 
   -2367    -2366    -2362    -2361    -2347    -2316    -2305    -2347 
   -2413    -2484    -2554    -2589    -2581    -2543    -2477    -2390 
   -2309    -2253    -2228    -2235    -2274    -2332    -2388    -2432 
   -2465    -2488    -2511    -2533    -2529    -2473    -2397    -2347 
   -2330    -2320    -2320    -2340    -2384    -2427    -2454    -2462 
   -2463    -2459    -2450    -2435    -2408    -2354    -2299    -2284 
   -2319    -2366    -2386    -2392    -2419    -2478    -2515    -2479 
   -2416    -2388    -2398    -2431    -2446    -2425    -2404    -2401 
   -2413    -2434    -2435    -2425    -2431    -2434    -2419    -2407 
   -2400    -2382    -2350    -2320    -2317    -2344    -2382    -2424 
   -2455    -2461    -2450    -2428    -2394    -2357    -2319    -2289 
   -2303    -2373    -2465    -2532    -2547    -2517    -2469    -2421 
   -2394    -2382    -2378    -2374    -2354    -2315    -2303    -2335 
   -2393    -2461    -2489    -2458    -2413    -2392    -2401    -2443 
   -2477    -2462    -2420    -2381    -2365    -2385    -2427    -2467 
   -2489    -2486    -2463    -2421    -2367    -2312    -2268    -2250 
   -2263    -2292    -2326    -2371    -2438    -2519    -2589    -2606 
   -2555    -2478    -2440    -2454    -2463    -2420    -2344    -2272 
   -2228    -2241    -2301    -2380    -2459    -2506    -2486    -2412 
   -2339    -2317    -2359    -2423    -2448    -2427    -2403    -2411 
   -2447    -2477    -2475    -2451    -2411    -2354    -2303    -2299 
   -2332    -2370    -2423    -2490    -2527    -2525    -2511    -2479 
   -2442    -2405    -2347    -2277    -2251    -2293    -2363    -2417 
   -2461    -2498    -2506    -2492    -2485    -2481    -2455    -2393 
   -2299    -2208    -2169    -2211    -2332    -2474    -2550    -2524 
   -2461    -2444    -2484    -2502    -2450    -2373    -2322    -2290 
   -2278    -2308    -2378    -2451    -2481    -2471    -2458    -2463 
   -2475    -2481    -2482    -2469    -2420    -2363    -2347    -2365 
   -2365    -2349    -2351    -2371    -2389    -2389    -2373    -2370 
   -2393    -2420    -2432    -2428    -2423    -2431    -2454    -2489 
   -2513    -2492    -2425    -2353    -2311    -2307    -2332    -2373 
   -2390    -2374    -2373    -2417    -2478    -2509    -2501    -2452 
   -2385    -2335    -2316    -2313    -2328    -2362    -2397    -2427 
   -2462    -2490    -2493    -2484    -2479    -2458    -2404    -2346 
   -2316    -2316    -2346    -2396    -2428    -2438    -2435    -2411 
   -2367    -2340    -2354    -2380    -2398    -2427    -2465    -2485 
   -2482    -2457    -2421    -2407    -2415    -2416    -2403    -2390 
   -2384    -2381    -2390    -2415    -2425    -2393    -2342    -2319 
   -2335    -2365    -2400    -2440    -2484    -2502    -2494    -2474 
   -2448    -2401    -2340    -2300    -2304    -2344    -2378    -2388 
   -2404    -2455    -2516    -2547    -2533    -2492    -2448    -2417 
   -2386    -2332    -2259    -2201    -2191    -2232    -2316    -2425 
   -2543    -2624    -2625    -2569    -2504    -2462    -2447    -2432 
   -2401    -2363    -2303    -2208    -2133    -2126    -2204    -2339 
   -2478    -2581    -2629    -2623    -2586    -2535    -2471    -2405 
   -2338    -2276    -2235    -2223    -2269    -2374    -2493    -2574 
   -2577    -2512    -2446    -2417    -2401    -2384    -2371    -2366 
   -2357    -2350    -2355    -2357    -2350    -2353    -2378    -2440 
   -2516    -2544    -2519    -2498    -2496    -2471    -2419    -2350 
   -2273    -2218    -2216    -2263    -2353    -2469    -2567    -2606 
   -2574    -2494    -2415    -2351    -2299    -2266    -2261    -2290 
   -2361    -2421    -2417    -2386    -2403    -2457    -2488    -2478 
   -2439    -2392    -2377    -2404    -2431    -2448    -2463    -2469 
   -2462    -2446    -2415    -2377    -2343    -2313    -2305    -2335 
   -2374    -2392    -2390    -2369    -2332    -2320    -2365    -2457 
   -2562    -2628    -2620    -2556    -2490    -2446    -2409    -2361 
   -2300    -2258    -2262    -2296    -2320    -2335    -2367    -2424 
   -2463    -2444    -2401    -2388    -2386    -2381    -2398    -2435 
   -2474    -2509    -2515    -2459    -2373    -2313    -2317    -2365 
   -2405    -2415    -2413    -2420    -2430    -2432    -2420    -2393 
   -2369    -2361    -2363    -2365    -2361    -2385    -2452    -2533 
   -2582    -2571    -2517    -2450    -2373    -2289    -2232    -2231 
   -2276    -2343    -2411    -2457    -2469    -2454    -2447    -2454 
   -2454    -2454    -2467    -2466    -2417    -2326    -2238    -2191 
   -2192    -2236    -2316    -2415    -2524    -2624    -2686    -2697 
   -2648    -2556    -2444    -2327    -2232    -2191    -2196    -2236 
   -2313    -2408    -2489    -2533    -2516    -2461    -2430    -2442 
   -2447    -2403    -2336    -2300    -2293    -2304    -2343    -2411 
   -2465    -2484    -2477    -2451    -2423    -2419    -2447    -2488 
   -2497    -2446    -2355    -2273    -2228    -2227    -2259    -2322 
   -2390    -2428    -2430    -2431    -2474    -2556    -2637    -2662 
   -2609    -2498    -2373    -2297    -2284    -2296    -2311    -2317 
   -2315    -2323    -2342    -2361    -2396    -2459    -2524    -2544 
   -2502    -2420    -2342    -2300    -2293    -2317    -2376    -2451 
   -2509    -2506    -2438    -2370    -2362    -2381    -2405    -2431 
   -2434    -2413    -2417    -2454    -2477    -2475    -2447    -2404 
   -2380    -2373    -2346    -2304    -2270    -2272    -2331    -2413 
   -2461    -2462    -2450    -2443    -2430    -2397    -2369    -2363 
   -2370    -2377    -2373    -2373    -2409    -2477    -2535    -2558 
   -2535    -2469    -2405    -2388    -2397    -2404    -2421    -2451 
   -2459    -2439    -2404    -2359    -2309    -2290    -2326    -2376 
   -2389    -2381    -2384    -2394    -2397    -2382    -2362    -2357 
   -2369    -2381    -2400    -2450    -2508    -2516    -2473    -2417 
   -2389    -2393    -2408    -2417    -2409    -2386    -2370    -2367 
   -2384    -2424    -2465    -2475    -2461    -2430    -2377    -2327 
   -2309    -2330    -2389    -2463    -2492    -2448    -2378    -2339 
   -2350    -2384    -2392    -2370    -2349    -2355    -2385    -2413 
   -2428    -2447    -2471    -2471    -2448    -2430    -2415    -2398 
   -2393    -2407    -2438    -2473    -2489    -2478    -2444    -2411 
   -2373    -2324    -2296    -2312    -2363    -2430    -2478    -2484 
   -2446    -2400    -2382    -2380    -2374    -2371    -2389    -2428 
   -2457    -2424    -2347    -2290    -2285    -2320    -2378    -2427 
   -2447    -2459    -2492    -2531    -2528    -2459    -2367    -2305 
   -2280    -2289    -2319    -2349    -2390    -2455    -2521    -2558 
   -2543    -2481    -2403    -2353    -2340    -2347    -2359    -2380 
   -2412    -2448    -2469    -2457    -2415    -2374    -2354    -2359 
   -2365    -2353    -2340    -2349    -2365    -2382    -2425    -2494 
   -2560    -2593    -2574    -2512    -2428    -2351    -2300    -2265 
   -2234    -2236    -2297    -2389    -2470    -2506    -2493    -2461 
   -2443    -2446    -2428    -2363    -2289    -2274    -2339    -2443 
   -2516    -2515    -2461    -2394    -2358    -2359    -2369    -2382 
   -2411    -2455    -2508    -2547    -2542    -2485    -2398    -2295 
   -2196    -2146    -2162    -2232    -2323    -2400    -2467    -2539 
   -2612    -2668    -2681    -2631    -2531    -2421    -2347    -2303 
   -2262    -2236    -2246    -2284    -2336    -2382    -2404    -2411 
   -2427    -2446    -2455    -2455    -2446    -2425    -2408    -2394 
   -2377    -2354    -2331    -2316    -2336    -2411    -2508    -2575 
   -2577    -2509    -2405    -2317    -2289    -2324    -2376    -2403 
   -2412    -2423    -2439    -2458    -2475    -2466    -2419    -2357 
   -2316    -2305    -2307    -2320    -2349    -2393    -2454    -2512 
   -2542    -2533    -2486    -2417    -2354    -2317    -2315    -2336 
   -2374    -2411    -2424    -2423    -2442    -2485    -2523    -2535 
   -2502    -2425    -2334    -2259    -2211    -2191    -2211    -2282 
   -2400    -2528    -2608    -2605    -2536    -2443    -2370    -2353 
   -2382    -2423    -2444    -2434    -2398    -2354    -2319    -2330 
   -2388    -2440    -2458    -2457    -2439    -2409    -2384    -2384 
   -2416    -2444    -2442    -2425    -2416    -2425    -2440    -2439 
   -2412    -2371    -2334    -2320    -2338    -2367    -2384    -2373 
   -2351    -2361    -2411    -2467    -2498    -2497    -2466    -2412 
   -2367    -2358    -2388    -2424    -2434    -2408    -2367    -2353 
   -2377    -2413    -2443    -2459    -2450    -2421    -2400    -2403 
   -2416    -2419    -2408    -2393    -2381    -2384    -2411    -2442 
   -2444    -2411    -2374    -2369    -2377    -2366    -2344    -2338 
   -2363    -2404    -2430    -2446    -2470    -2488    -2496    -2490 
   -2455    -2400    -2349    -2309    -2288    -2282    -2295    -2332 
   -2393    -2463    -2515    -2531    -2517    -2477    -2417    -2369 
   -2357    -2384    -2413    -2415    -2394    -2382    -2386    -2401 
