Origin Time       2025/03/30 10:46:00
Lat.              32.923
Long.             130.372
Depth. (km)       11
Mag.              3.4
Station Code      KMMH16
Station Lat.      32.7967
Station Long.     130.8199
Station Height(m) -197
Record Time       2025/03/30 10:46:34
Sampling Freq(Hz) 100Hz
Duration Time(s)  120
Dir.              3
Scale Factor      2942(gal)/8224139
Max. Acc. (gal)   0.294
Last Correction   2025/03/30 10:46:34
Memo.             
[...]
  205240   205240   205240   205240   205241   205244   205241   205239 
  205239   205240   205240   205239   205239   205240   205241   205241 
  205243   205244   205241   205240   205240   205239   205240   205244 
  205243   205240   205240   205240   205240   205240   205239   205239 
  205241   205239   205239   205241   205241   205240   205241   205243 
  205241   205244   205245   205241   205240   205241   205243   205241 
  205240   205237   205239   205243   205241   205240   205240   205240 
  205240   205241   205243   205241   205241   205241   205240   205239 
  205240   205241   205243   205241   205241   205241   205239   205239 
  205241   205240   205240   205241   205241   205240   205243   205245 
  205243   205240   205241   205241   205240   205240   205241   205243 
  205239   205236   205239   205239   205241   205241   205237   205237 
  205241   205241   205241   205241   205241   205241   205243   205243 
  205239   205240   205241   205236   205237   205241   205241   205239 
  205239   205241   205241   205239   205241   205241   205240   205240 
  205239   205239   205240   205237   205236   205239   205241   205240 
  205239   205240   205241   205239   205237   205240   205243   205243 
  205240   205240   205240   205239   205243   205243   205239   205239 
  205241   205240   205241   205240   205239   205239   205240   205241 
  205240   205239   205241   205243   205243   205240   205239   205239 
  205239   205239   205241   205241   205239   205240   205240   205239 
  205239   205240   205243   205240   205239   205240   205239   205237 
  205240   205243   205243   205243   205240   205239   205239   205239 
  205240   205241   205241   205239   205237   205240   205241   205240 
  205240   205240   205239   205240   205240   205239   205241   205244 
  205240   205239   205240   205240   205241   205244   205243   205241 
  205241   205239   205239   205241   205240   205239   205239   205240 
  205240   205241   205241   205241   205239   205237   205237   205239 
  205240   205241   205240   205241   205241   205239   205237   205240 
  205241   205240   205239   205239   205240   205240   205241   205241 
  205240   205240   205239   205239   205240   205239   205240   205243 
  205240   205237   205239   205240   205237   205239   205241   205241 
  205239   205239   205240   205239   205237   205239   205239   205239 
  205241   205240   205240   205241   205240   205241   205243   205241 
  205241   205241   205239   205240   205241   205241   205239   205240 
  205240   205239   205240   205241   205241   205239   205240   205241 
  205240   205240   205243   205240   205237   205240   205240   205237 
  205241   205244   205239   205237   205243   205241   205240   205243 
  205243   205240   205240   205241   205240   205237   205239   205239 
  205239   205240   205239   205237   205241   205241   205239   205239 
  205241   205240   205240   205243   205243   205241   205241   205243 
  205240   205240   205243   205240   205240   205243   205244   205243 
  205243   205243   205241   205240   205240   205243   205243   205240 
  205240   205240   205243   205243   205239   205239   205239   205239 
  205240   205240   205240   205240   205240   205240   205240   205240 
  205240   205243   205243   205237   205239   205241   205243   205243 
  205243   205241   205240   205240   205240   205240   205241   205240 
  205240   205243   205243   205240   205240   205241   205241   205240 
  205241   205243   205243   205240   205239   205239   205240   205243 
  205243   205241   205243   205241   205241   205240   205239   205241 
  205241   205239   205240   205240   205240   205240   205240   205239 
  205240   205240   205239   205239   205237   205239   205240   205239 
  205237   205239   205240   205240   205237   205236   205236   205237 
  205239   205239   205239   205241   205243   205240   205239   205240 
  205241   205237   205236   205237   205240   205241   205240   205239 
  205241   205243   205240   205239   205240   205241   205241   205240 
  205239   205240   205241   205240   205237   205237   205240   205240 
  205239   205240   205243   205240   205239   205240   205240   205237 
  205237   205240   205240   205240   205243   205240   205237   205239 
  205237   205237   205240   205241   205240   205239   205240   205239 
  205239   205243   205243   205237   205239   205240   205240   205240 
  205244   205244   205241   205240   205241   205240   205239   205239 
  205241   205241   205237   205240   205241   205239   205239   205240 
  205240   205241   205240   205239   205241   205240   205237   205239 
  205241   205241   205240   205240   205241   205241   205241   205241 
  205241   205241   205241   205241   205240   205240   205240   205239 
  205240   205241   205241   205243   205243   205240   205240   205243 
  205243   205241   205241   205240   205241   205243   205243   205243 
  205241   205240   205240   205241   205240   205239   205241   205243 
  205240   205240   205243   205241   205240   205241   205239   205240 
  205240   205240   205241   205241   205239   205240   205239   205239 
  205239   205237   205240   205243   205240   205239   205240   205241 
  205240   205239   205241   205241   205239   205239   205240   205243 
  205244   205240   205239   205241   205244   205243   205240   205240 
  205240   205240   205239   205237   205239   205241   205240   205237 
  205240   205243   205240   205239   205240   205240   205240   205240 
  205240   205240   205239   205239   205239   205239   205240   205240 
  205240   205240   205241   205240   205239   205240   205239   205237 
  205239   205240   205240   205240   205241   205243   205241   205241 
  205243   205240   205240   205243   205243   205240   205240   205240 
  205239   205239   205239   205240   205240   205240   205243   205244 
  205241   205239   205240   205241   205240   205240   205241   205241 
  205240   205239   205239   205240   205239   205239   205243   205241 
  205237   205237   205241   205240   205240   205241   205239   205237 
  205243   205243   205240   205241   205241   205240   205240   205244 
  205244   205240   205240   205243   205241   205240   205240   205239 
  205237   205236   205239   205241   205240   205243   205244   205240 
  205236   205237   205240   205239   205239   205241   205241   205240 
  205240   205241   205240   205240   205241   205240   205241   205241 
  205239   205240   205240   205240   205243   205243   205239   205237 
  205241   205243   205241   205240   205241   205244   205243   205240 
  205240   205241   205243   205243   205241   205240   205240   205240 
  205240   205240   205243   205243   205240   205240   205241   205240 
  205240   205241   205243   205241   205241   205243   205241   205239 
  205239   205240   205240   205240   205237   205237   205240   205240 
  205240   205241   205241   205239   205239   205240   205243   205241 
  205241   205243   205240   205237   205239   205239   205240   205241 
  205239   205237   205240   205240   205239   205240   205241   205241 
  205240   205241   205240   205239   205239   205240   205241   205241 
  205240   205240   205240   205240   205239   205239   205240   205241 
  205241   205239   205240   205240   205240   205241   205241   205239 
  205240   205240   205237   205240   205241   205240   205240   205240 
  205240   205241   205243   205241   205237   205237   205240   205239 
  205239   205240   205239   205239   205240   205240   205241   205241 
  205241   205240   205241   205240   205241   205244   205243   205239 
  205236   205235   205228   205212   205186   205154   205120   205102 
  205137   205247   205411   205555   205583   205468   205263   205075 
  205004   205058   205168   205262   205314   205329   205302   205259 
  205222   205143   205071   205158   205326   205360   205301   205272 
  205239   205209   205245   205270   205221   205217   205255   205193 
  205152   205276   205397   205389   205317   205195   205065   205058 
  205179   205276   205281   205228   205206   205255   205317   205275 
  205129   205089   205245   205375   205340   205271   205241   205197 
  205170   205218   205290   205258   205183   205210   205229   205227 
  205337   205367   205254   205271   205330   205233   205174   205233 
  205179   205067   205181   205375   205370   205266   205189   205131 
  205163   205206   205163   205243   205411   205372   205275   205276 
  205159   205046   205195   205383   205321   205168   205193   205255 
  205231   205268   205263   205197   205279   205333   205216   205162 
  205232   205251   205195   205204   205279   205298   205263   205254 
  205213   205119   205114   205235   205333   205348   205340   205262 
  205129   205154   205272   205240   205220   205344   205366   205197 
  205094   205232   205366   205263   205133   205164   205241   205216 
  205173   205255   205254   205133   205193   205285   205232   205314 
  205490   205393   205155   205148   205268   205239   205183   205255 
  205255   205181   205281   205429   205324   205127   205178   205282 
  205177   205141   205258   205240   205137   205186   205312   205279 
  205182   205268   205397   205308   205173   205252   205363   205275 
  205160   205173   205191   205109   205070   205225   205379   205368 
  205322   205308   205308   205258   205156   205164   205206   205164 
  205178   205252   205263   205195   205132   205185   205266   205276 
  205345   205425   205360   205247   205193   205163   205175   205243 
  205254   205190   205201   205299   205276   205162   205186   205274 
  205295   205321   205310   205287   205305   205228   205139   205200 
  205271   205189   205071   205144   205285   205262   205213   205216 
  205181   205236   205407   205448   205306   205163   205151   205229 
  205258   205262   205285   205251   205206   205216   205213   205171 
  205155   205229   205328   205345   205289   205178   205125   205240 
  205318   205228   205154   205182   205187   205167   205237   205343 
  205356   205283   205222   205263   205324   205325   205378   205407 
  205200   205008   205124   205222   205101   205083   205218   205259 
  205212   205245   205360   205391   205320   205303   205320   205290 
  205252   205182   205114   205127   205139   205166   205243   205294 
  205290   205244   205235   205289   205291   205290   205364   205314 
  205127   205127   205266   205286   205254   205227   205152   205109 
  205170   205271   205316   205317   205293   205214   205164   205212 
  205240   205197   205205   205275   205308   205274   205255   205306 
  205310   205201   205110   205116   205168   205209   205263   205322 
  205305   205258   205247   205282   205355   205362   205278   205159 
  205035   205083   205267   205272   205148   205131   205229   205405 
  205510   205376   205221   205210   205191   205185   205248   205247 
  205163   205125   205148   205147   205208   205321   205301   205252 
  205332   205378   205299   205227   205210   205160   205089   205119 
  205200   205256   205314   205313   205236   205225   205298   205329 
  205295   205286   205309   205268   205182   205195   205275   205260 
  205190   205147   205102   205152   205301   205305   205202   205227 
  205293   205309   205318   205275   205185   205137   205186   205279 
  205297   205274   205272   205252   205258   205276   205231   205143 
  205071   205156   205340   205314   205237   205371   205411   205227 
  205116   205162   205221   205217   205225   205302   205275   205178 
  205197   205217   205190   205241   205340   205337   205220   205159 
  205181   205183   205231   205325   205321   205249   205282   205379 
  205344   205206   205156   205205   205221   205205   205178   205108 
  205114   205232   205302   205299   205244   205214   205318   205339 
  205151   205092   205276   205374   205302   205262   205287   205313 
  205286   205186   205135   205194   205235   205156   205071   205147 
  205343   205434   205353   205281   205298   205240   205073   205019 
  205144   205320   205432   205349   205140   205093   205174   205194 
  205254   205397   205433   205297   205202   205279   205310   205183 
  205102   205077   205019   205100   205285   205351   205390   205463 
  205440   205332   205245   205167   205029   204954   205040   205193 
  205390   205544   205524   205416   205286   205170   205128   205113 
  205092   205160   205299   205231   205040   205124   205333   205471 
  205607   205534   205231   204998   204975   205137   205302   205345 
  205282   205109   205019   205100   205140   205110   205166   205305 
  205355   205302   205275   205155   204911   204886   205182   205471 
  205544   205553   205592   205465   205251   205259   205310   205181 
  205173   205310   205158   204746   204573   204726   204876   205023 
  205368   205785   206004   205970   205762   205357   204898   204751 
  204884   205133   205526   205737   205592   205414   205328   205264 
  205156   205002   204982   205089   205117   205036   205001   205079 
  205054   204932   205000   205185   205324   205519   205683   205533 
  205185   204962   204897   204974   205252   205522   205575   205580 
  205587   205424   205232   205197   205213   205245   205356   205429 
  205317   205090   204920   204923   205090   205228   205245   205251 
  205286   205245   205108   205081   205235   205433   205626   205795 
  205808   205465   204869   204469   204419   204639   205112   205560 
  205721   205641   205389   205100   204963   204994   205133   205332 
  205451   205457   205482   205451   205221   204993   205042   205303 
  205480   205444   205333   205240   205139   205044   205023   205085 
  205114   205066   205060   205218   205482   205669   205646   205456 
  205326   205248   205021   204850   204947   205090   205128   205137 
  205216   205376   205471   205474   205445   205352   205268   205206 
  205102   205078   205173   205328   205430   205371   205233   205097 
  205013   205023   205089   205241   205411   205459   205394   205221 
  204997   204927   205094   205344   205434   205359   205326   205345 
  205294   205190   205085   205038   205131   205308   205378   205310 
  205178   205051   205117   205368   205569   205648   205555   205352 
  205240   205185   205094   204969   204912   205067   205285   205357 
  205357   205321   205200   205094   205089   205136   205220   205333 
  205428   205456   205367   205224   205151   205105   205005   204924 
  205001   205210   205407   205551   205579   205397   205129   205017 
  205117   205252   205295   205283   205245   205200   205209   205266 
  205283   205264   205264   205251   205201   205179   205170   205116 
  205101   205170   205235   205241   205231   205233   205214   205241 
  205434   205599   205465   205275   205343   205406   205264   205173 
  205141   204993   204896   204986   205101   205262   205521   205626 
  205484   205325   205264   205183   205077   205102   205231   205240 
  205083   204927   204924   205051   205182   205297   205452   205560 
  205498   205389   205363   205330   205249   205213   205241   205281 
  205320   205359   205299   205156   205151   205276   205276   205166 
  205113   205079   205038   205116   205235   205255   205286   205335 
  205270   205158   205121   205121   205100   205164   205347   205411 
  205318   205243   205187   205174   205235   205254   205216   205205 
  205240   205281   205278   205274   205312   205343   205348   205367 
  205424   205417   205266   205112   205033   204978   205042   205204 
  205244   205206   205243   205286   205264   205237   205286   205360 
  205356   205343   205390   205424   205343   205194   205160   205204 
  205148   205028   204998   205094   205183   205201   205256   205324 
  205335   205340   205370   205376   205298   205183   205137   205148 
  205166   205213   205270   205254   205168   205139   205222   205272 
  205209   205212   205321   205349   205281   205252   205244   205174 
  205123   205186   205268   205281   205275   205289   205303   205317 
  205364   205401   205341   205239   205159   205105   205108   205158 
  205236   205282   205248   205240   205251   205154   205040   205060 
  205177   205270   205317   205360   205366   205318   205258   205244 
  205294   205320   205293   205266   205282   205337   205309   205163 
  205051   205050   205098   205159   205236   205299   205301   205249 
  205195   205206   205251   205233   205210   205267   205347   205391 
  205394   205360   205289   205214   205225   205275   205248   205224 
  205259   205229   205120   205040   205038   205105   205191   205252 
  205271   205254   205297   205344   205256   205175   205213   205244 
  205232   205255   205278   205217   205158   205220   205303   205310 
  205329   205347   205263   205181   205200   205225   205193   205178 
  205254   205328   205286   205205   205209   205281   205333   205349 
  205378   205367   205275   205212   205212   205193   205140   205105 
  205104   205141   205221   205251   205197   205197   205240   205224 
  205222   205248   205251   205291   205328   205286   205229   205224 
  205275   205318   205293   205244   205181   205108   205101   205181 
  205291   205333   205278   205237   205256   205251   205216   205193 
  205189   205214   205263   205308   205325   205281   205217   205235 
  205283   205256   205217   205247   205279   205271   205249   205239 
  205260   205302   205295   205216   205137   205131   205185   205245 
  205290   205295   205252   205200   205150   205147   205236   205281 
  205221   205216   205295   205328   205268   205216   205213   205205 
  205236   205314   205340   205314   205301   205297   205326   205371 
  205337   205228   205158   205160   205159   205144   205175   205214 
  205178   205129   205177   205233   205210   205186   205195   205194 
  205204   205259   205310   205308   205289   205283   205276   205272 
  205272   205272   205259   205237   205254   205278   205244   205177 
  205139   205144   205175   205210   205202   205164   205171   205213 
  205247   205301   205374   205389   205325   205266   205236   205210 
  205228   205264   205240   205212   205237   205258   205237   205229 
  205266   205278   205231   205202   205228   205248   205225   205194 
  205209   205249   205267   205256   205235   205213   205197   205189 
  205193   205202   205244   205312   205336   205301   205279   205310 
  205330   205290   205272   205271   205204   205150   205175   205179 
  205140   205158   205222   205236   205231   205291   205347   205326 
  205286   205286   205295   205270   205231   205217   205205   205213 
  205245   205252   205245   205224   205191   205220   205239   205202 
  205201   205220   205216   205235   205274   205285   205262   205255 
  205270   205254   205210   205195   205205   205189   205181   205239 
  205287   205254   205222   205251   205278   205272   205258   205260 
  205275   205260   205244   205264   205262   205221   205212   205232 
  205227   205217   205249   205264   205228   205201   205216   205224 
  205206   205209   205228   205216   205221   205270   205279   205252 
  205276   205309   205286   205249   205232   205224   205198   205179 
