Origin Time       2025/03/30 10:46:00
Lat.              32.923
Long.             130.372
Depth. (km)       11
Mag.              3.4
Station Code      KMMH10
Station Lat.      32.3151
Station Long.     130.1811
Station Height(m) -142
Record Time       2025/03/30 10:46:41
Sampling Freq(Hz) 100Hz
Duration Time(s)  120
Dir.              2
Scale Factor      2942(gal)/8224139
Max. Acc. (gal)   0.183
Last Correction   2025/03/30 10:46:41
Memo.             
[...]
  115155   115156   115156   115156   115159   115159   115155   115153 
  115156   115156   115156   115157   115156   115159   115155   115149 
  115153   115157   115157   115159   115159   115155   115156   115157 
  115157   115159   115159   115159   115160   115157   115156   115156 
  115156   115157   115160   115159   115156   115155   115155   115155 
  115156   115156   115156   115159   115159   115156   115157   115156 
  115155   115156   115156   115159   115159   115157   115159   115156 
  115153   115157   115159   115156   115156   115156   115157   115159 
  115157   115159   115157   115156   115156   115157   115157   115156 
  115155   115156   115155   115155   115159   115159   115156   115155 
  115155   115157   115157   115156   115156   115156   115156   115160 
  115159   115153   115156   115159   115156   115153   115156   115156 
  115156   115157   115159   115157   115157   115157   115156   115155 
  115157   115155   115155   115156   115157   115156   115156   115155 
  115153   115157   115159   115155   115150   115156   115157   115153 
  115156   115156   115153   115157   115157   115153   115153   115157 
  115157   115156   115156   115157   115159   115159   115155   115150 
  115153   115159   115156   115156   115156   115156   115155   115153 
  115155   115157   115153   115155   115160   115157   115153   115156 
  115159   115157   115155   115155   115156   115156   115152   115149 
  115155   115159   115155   115157   115157   115153   115157   115159 
  115153   115155   115157   115157   115156   115156   115156   115159 
  115159   115155   115153   115157   115157   115156   115157   115157 
  115157   115157   115157   115156   115155   115155   115156   115159 
  115159   115157   115157   115157   115156   115155   115155   115156 
  115157   115159   115157   115157   115153   115153   115157   115159 
  115157   115156   115153   115153   115155   115156   115156   115156 
  115155   115155   115156   115157   115156   115155   115155   115153 
  115155   115157   115157   115156   115157   115157   115157   115159 
  115156   115156   115157   115156   115156   115156   115155   115156 
  115157   115155   115155   115157   115159   115157   115155   115155 
  115156   115155   115156   115156   115155   115153   115156   115157 
  115156   115155   115156   115156   115156   115156   115157   115157 
  115157   115157   115156   115156   115157   115157   115153   115153 
  115157   115157   115157   115157   115156   115155   115156   115156 
  115157   115159   115159   115157   115155   115155   115157   115156 
  115156   115155   115155   115157   115156   115155   115153   115153 
  115156   115155   115155   115157   115159   115155   115156   115159 
  115156   115153   115156   115157   115157   115157   115155   115155 
  115157   115157   115157   115157   115156   115155   115155   115157 
  115156   115155   115156   115156   115153   115156   115156   115156 
  115156   115155   115153   115155   115157   115156   115156   115153 
  115155   115157   115155   115153   115155   115155   115153   115157 
  115159   115156   115156   115156   115155   115156   115156   115156 
  115155   115155   115153   115155   115156   115157   115156   115152 
  115152   115159   115160   115156   115156   115152   115149   115157 
  115159   115153   115153   115155   115153   115153   115152   115153 
  115155   115153   115153   115155   115155   115153   115156   115156 
  115155   115156   115155   115156   115157   115155   115153   115157 
  115156   115155   115155   115155   115153   115155   115156   115156 
  115156   115156   115156   115156   115157   115157   115155   115156 
  115157   115156   115156   115157   115155   115153   115155   115156 
  115155   115153   115156   115159   115156   115153   115155   115159 
  115156   115156   115159   115156   115153   115155   115156   115155 
  115152   115155   115157   115156   115153   115155   115157   115156 
  115155   115157   115157   115156   115156   115156   115157   115157 
  115156   115157   115157   115153   115155   115156   115156   115156 
  115156   115157   115159   115159   115153   115153   115155   115155 
  115155   115156   115156   115156   115156   115155   115156   115156 
  115153   115155   115157   115156   115153   115155   115159   115160 
  115157   115152   115155   115160   115156   115155   115156   115156 
  115157   115156   115155   115157   115155   115153   115157   115159 
  115156   115156   115156   115155   115156   115156   115156   115156 
  115156   115156   115157   115157   115156   115156   115156   115157 
  115156   115155   115156   115156   115156   115156   115157   115157 
  115156   115156   115156   115156   115156   115156   115157   115159 
  115156   115155   115156   115156   115156   115157   115159   115159 
  115157   115157   115160   115159   115157   115159   115161   115159 
  115156   115156   115155   115155   115157   115157   115155   115155 
  115156   115155   115155   115157   115159   115156   115155   115155 
  115155   115156   115157   115157   115159   115156   115152   115156 
  115157   115156   115155   115156   115156   115155   115155   115153 
  115153   115155   115157   115159   115156   115155   115156   115155 
  115155   115157   115157   115155   115153   115155   115159   115159 
  115156   115153   115155   115156   115156   115157   115156   115155 
  115156   115156   115156   115157   115156   115152   115153   115155 
  115150   115148   115152   115156   115155   115156   115161   115167 
  115169   115172   115173   115169   115161   115155   115149   115149 
  115153   115153   115142   115129   115121   115121   115115   115109 
  115115   115149   115196   115230   115237   115219   115184   115153 
  115152   115167   115168   115153   115148   115168   115180   115146 
  115098   115082   115102   115130   115161   115186   115184   115160 
  115138   115132   115137   115148   115180   115229   115252   115214 
  115146   115109   115099   115082   115079   115133   115215   115248 
  115210   115172   115163   115125   115072   115086   115140   115167 
  115186   115217   115206   115145   115114   115142   115173   115175 
  115186   115207   115182   115119   115096   115126   115159   115171 
  115183   115187   115137   115076   115094   115161   115192   115171 
  115145   115140   115145   115167   115204   115222   115195   115148 
  115115   115102   115117   115161   115196   115157   115094   115106 
  115171   115180   115122   115117   115199   115248   115213   115164 
  115157   115175   115176   115157   115126   115092   115091   115136 
  115183   115186   115159   115146   115145   115132   115134   115165 
  115183   115165   115148   115146   115136   115121   115133   115164 
  115180   115182   115209   115233   115188   115107   115088   115136 
  115167   115144   115133   115167   115180   115132   115086   115101 
  115152   115186   115187   115188   115203   115192   115144   115107 
  115125   115164   115179   115183   115191   115160   115092   115069 
  115118   115164   115160   115144   115160   115186   115186   115175 
  115180   115191   115173   115138   115134   115150   115144   115126 
  115134   115153   115160   115152   115141   115132   115134   115161 
  115182   115173   115164   115171   115179   115161   115130   115128 
  115141   115145   115160   115184   115184   115165   115163   115179 
  115173   115138   115115   115122   115137   115137   115141   115165 
  115184   115177   115176   115187   115184   115169   115157   115146 
  115130   115128   115150   115163   115142   115133   115157   115177 
  115165   115150   115157   115180   115196   115177   115146   115150 
  115160   115136   115110   115121   115153   115169   115164   115164 
  115168   115163   115165   115183   115176   115144   115138   115156 
  115141   115118   115137   115167   115160   115138   115142   115165 
  115169   115161   115171   115173   115144   115128   115159   115194 
  115194   115165   115146   115141   115128   115123   115145   115159 
  115150   115150   115173   115196   115182   115146   115132   115141 
  115156   115175   115200   115203   115168   115132   115119   115123 
  115137   115150   115149   115145   115161   115172   115138   115109 
  115138   115180   115175   115159   115179   115200   115165   115111 
  115121   115182   115199   115161   115144   115156   115163   115148 
  115132   115133   115130   115119   115144   115187   115204   115209 
  115207   115182   115136   115109   115121   115144   115157   115160 
  115159   115156   115144   115119   115114   115144   115187   115206 
  115195   115169   115159   115172   115183   115152   115094   115074 
  115114   115160   115175   115184   115192   115172   115146   115155 
  115175   115167   115155   115169   115179   115153   115136   115156 
  115165   115137   115115   115145   115192   115194   115155   115136 
  115140   115134   115132   115163   115195   115180   115155   115160 
  115169   115152   115122   115133   115167   115161   115126   115122 
  115153   115173   115172   115179   115186   115165   115145   115160 
  115176   115164   115144   115145   115160   115161   115157   115157 
  115152   115132   115107   115118   115148   115157   115159   115184 
  115219   115222   115180   115141   115133   115134   115132   115134 
  115142   115149   115159   115161   115148   115142   115150   115157 
  115155   115149   115155   115164   115167   115164   115164   115175 
  115192   115195   115172   115150   115148   115148   115144   115141 
  115138   115121   115114   115137   115157   115155   115163   115187 
  115180   115144   115129   115152   115176   115164   115137   115136 
  115153   115156   115148   115157   115192   115211   115180   115148 
  115146   115142   115125   115121   115134   115146   115150   115156 
  115160   115155   115144   115146   115165   115177   115175   115173 
  115183   115184   115173   115169   115179   115165   115129   115113 
  115122   115121   115114   115137   115172   115173   115152   115148 
  115157   115163   115160   115155   115156   115164   115164   115159 
  115152   115144   115140   115149   115176   115194   115171   115141 
  115142   115149   115142   115155   115179   115173   115138   115122 
  115140   115149   115130   115125   115157   115183   115168   115146 
  115160   115183   115171   115144   115149   115171   115161   115142 
  115161   115188   115179   115153   115148   115153   115145   115138 
  115160   115172   115136   115096   115117   115171   115192   115165 
  115142   115145   115145   115149   115169   115184   115182   115173 
  115172   115171   115150   115129   115136   115159   115164   115148 
  115136   115144   115155   115157   115167   115176   115165   115134 
  115121   115145   115168   115153   115122   115123   115153   115171 
  115167   115179   115199   115186   115157   115155   115164   115161 
  115141   115129   115145   115157   115142   115132   115148   115175 
  115179   115150   115133   115149   115161   115142   115130   115153 
  115173   115173   115172   115169   115155   115136   115138   115167 
  115186   115171   115145   115144   115146   115136   115130   115152 
  115180   115183   115167   115160   115164   115155   115141   115153 
  115169   115163   115146   115145   115152   115145   115134   115146 
  115175   115182   115161   115146   115156   115169   115165   115150 
  115146   115156   115159   115148   115150   115165   115161   115144 
  115142   115156   115161   115153   115138   115126   115134   115164 
  115206   115229   115203   115157   115138   115144   115148   115149 
  115153   115157   115149   115132   115132   115132   115118   115118 
  115152   115192   115210   115202   115186   115169   115155   115146 
  115140   115133   115141   115163   115167   115156   115159   115167 
  115153   115132   115140   115168   115175   115161   115160   115160 
  115141   115129   115150   115184   115190   115177   115180   115188 
  115164   115125   115111   115123   115138   115146   115159   115168 
  115159   115136   115122   115130   115157   115182   115180   115160 
  115150   115171   115194   115177   115155   115173   115200   115184 
  115146   115128   115118   115101   115107   115156   115184   115175 
  115171   115184   115175   115136   115113   115140   115169   115148 
  115114   115134   115184   115190   115149   115137   115168   115182 
  115161   115153   115176   115186   115159   115123   115113   115134 
  115160   115169   115172   115177   115173   115161   115155   115146 
  115136   115133   115150   115177   115183   115165   115164   115192 
  115209   115198   115180   115172   115167   115153   115136   115121 
  115095   115051   115003   114975   114984   115052   115168   115291 
  115381   115425   115416   115358   115261   115155   115063   115002 
  114978   114997   115063   115156   115227   115230   115177   115115 
  115069   115051   115072   115133   115203   115244   115248   115231 
  115194   115140   115109   115105   115084   115063   115119   115249 
  115342   115345   115303   115267   115223   115148   115068   115003 
  114939   114903   114949   115057   115133   115130   115125   115192 
  115294   115342   115327   115291   115207   115052   114930   114994 
  115240   115507   115635   115572   115341   115038   114801   114709 
  114727   114777   114848   115003   115254   115512   115668   115662 
  115488   115242   115086   115098   115199   115227   115110   114921 
  114760   114678   114671   114732   114887   115144   115407   115568 
  115608   115566   115474   115338   115184   115088   115099   115155 
  115179   115165   115136   115069   114955   114844   114828   114945 
  115128   115277   115357   115392   115388   115314   115176   115048 
  115018   115103   115213   115261   115248   115183   115105   115067 
  115069   115071   115053   115037   115051   115086   115099   115134 
  115261   115406   115439   115376   115323   115276   115137   114916 
  114758   114781   114986   115263   115442   115441   115319   115198 
  115165   115195   115180   115105   115032   114993   114993   115056 
  115182   115284   115258   115123   115036   115063   115118   115171 
  115260   115326   115265   115155   115176   115294   115246   115020 
  114898   114997   115098   115071   115072   115217   115315   115215 
  115110   115198   115327   115281   115137   115096   115156   115163 
  115082   115021   115047   115141   115231   115238   115171   115138 
  115198   115253   115219   115164   115180   115209   115163   115091 
  115072   115079   115067   115091   115172   115223   115200   115173 
  115196   115210   115159   115109   115133   115164   115121   115080 
  115148   115249   115242   115179   115196   115265   115246   115134 
  115053   115060   115084   115064   115051   115114   115210   115253 
  115246   115237   115209   115133   115060   115052   115107   115175 
  115209   115188   115136   115118   115167   115207   115153   115068 
  115069   115146   115200   115207   115202   115179   115119   115094 
  115149   115209   115210   115211   115245   115241   115153   115065 
  115060   115094   115102   115115   115157   115179   115156   115132 
  115132   115129   115113   115117   115177   115268   115312   115265 
  115169   115076   115013   115032   115137   115231   115252   115231 
  115213   115200   115171   115138   115145   115146   115071   114976 
  114980   115068   115145   115188   115238   115294   115302   115249 
  115186   115133   115095   115107   115169   115204   115161   115083 
  115044   115075   115146   115206   115227   115214   115186   115171 
  115169   115140   115086   115084   115138   115172   115191   115241 
  115277   115229   115140   115117   115169   115187   115129   115105 
  115160   115190   115134   115079   115098   115149   115183   115202 
  115218   115219   115203   115186   115153   115071   114987   115003 
  115121   115223   115231   115186   115159   115150   115121   115090 
  115109   115165   115210   115230   115237   115226   115199   115171 
  115132   115072   115033   115059   115149   115238   115253   115211 
  115161   115111   115090   115126   115187   115211   115184   115145 
  115136   115157   115175   115155   115134   115153   115190   115214 
  115211   115186   115150   115114   115076   115067   115121   115213 
  115242   115190   115150   115157   115159   115141   115144   115173 
  115187   115161   115132   115138   115160   115164   115167   115182 
  115176   115145   115125   115130   115144   115153   115165   115182 
  115165   115129   115140   115183   115177   115137   115137   115161 
  115137   115075   115068   115149   115223   115203   115149   115141 
  115145   115123   115128   115171   115194   115180   115177   115198 
  115203   115180   115152   115123   115099   115109   115157   115200 
  115196   115165   115146   115136   115115   115094   115102   115153 
  115198   115199   115191   115200   115199   115164   115137   115152 
  115159   115126   115109   115140   115159   115121   115084   115102 
  115136   115149   115164   115196   115218   115213   115204   115206 
  115188   115142   115096   115078   115106   115156   115188   115209 
  115229   115223   115176   115123   115113   115141   115157   115130 
  115096   115105   115150   115195   115223   115242   115221   115159 
  115117   115125   115145   115134   115105   115107   115134   115142 
  115134   115148   115169   115179   115187   115214   115240   115219 
  115155   115114   115128   115142   115126   115122   115155   115169 
  115142   115115   115122   115142   115145   115146   115168   115179 
  115148   115117   115125   115149   115148   115136   115152   115180 
  115182   115165   115183   115219   115206   115149   115136   115176 
  115207   115199   115173   115149   115130   115122   115146   115187 
  115207   115199   115180   115156   115125   115101   115105   115134 
  115169   115188   115182   115153   115123   115115   115128   115138 
  115132   115125   115152   115200   115225   115211   115196   115183 
  115144   115107   115119   115159   115167   115136   115123   115156 
  115191   115184   115146   115118   115109   115091   115075   115103 
  115156   115192   115222   115238   115202   115129   115091   115129 
  115190   115200   115168   115150   115160   115164   115161   115179 
  115209   115202   115159   115130   115137   115144   115136   115140 
  115161   115179   115173   115161   115164   115171   115152   115119 
  115115   115134   115138   115133   115144   115163   115161   115142 
  115140   115163   115176   115156   115136   115160   115182   115155 
  115122   115138   115164   115152   115129   115142   115172   115171 
  115156   115167   115180   115161   115132   115123   115137   115155 
  115172   115191   115194   115173   115159   115165   115169   115160 
  115157   115161   115161   115160   115167   115175   115163   115128 
  115107   115113   115111   115118   115164   115214   115213   115172 
  115156   115172   115169   115149   115163   115200   115209   115169 
  115134   115137   115146   115146   115156   115175   115179   115160 
