Origin Time       2025/03/30 10:46:00
Lat.              32.923
Long.             130.372
Depth. (km)       11
Mag.              3.4
Station Code      KMMH10
Station Lat.      32.3151
Station Long.     130.1811
Station Height(m) 158
Record Time       2025/03/30 10:46:41
Sampling Freq(Hz) 100Hz
Duration Time(s)  120
Dir.              4
Scale Factor      7845(gal)/8223790
Max. Acc. (gal)   1.004
Last Correction   2025/03/30 10:46:41
Memo.             
[...]
   -4371    -4376    -4374    -4369    -4375    -4379    -4376    -4376 
   -4369    -4365    -4372    -4378    -4379    -4375    -4372    -4371 
   -4372    -4378    -4378    -4371    -4369    -4372    -4371    -4374 
   -4378    -4378    -4376    -4375    -4372    -4368    -4367    -4371 
   -4376    -4376    -4375    -4376    -4374    -4371    -4374    -4374 
   -4372    -4372    -4375    -4375    -4372    -4369    -4372    -4372 
   -4371    -4374    -4376    -4374    -4371    -4374    -4374    -4369 
   -4372    -4379    -4375    -4371    -4374    -4374    -4376    -4376 
   -4374    -4376    -4379    -4372    -4371    -4378    -4375    -4372 
   -4372    -4371    -4374    -4376    -4371    -4368    -4375    -4378 
   -4374    -4371    -4371    -4372    -4372    -4378    -4383    -4376 
   -4368    -4372    -4376    -4374    -4374    -4372    -4368    -4369 
   -4375    -4379    -4378    -4372    -4371    -4374    -4375    -4375 
   -4379    -4376    -4368    -4368    -4376    -4375    -4376    -4378 
   -4369    -4369    -4379    -4376    -4372    -4375    -4375    -4376 
   -4376    -4379    -4384    -4375    -4365    -4375    -4379    -4372 
   -4375    -4380    -4374    -4367    -4374    -4376    -4374    -4378 
   -4379    -4374    -4368    -4369    -4376    -4379    -4374    -4375 
   -4375    -4369    -4372    -4384    -4383    -4372    -4369    -4371 
   -4371    -4374    -4378    -4379    -4375    -4371    -4368    -4371 
   -4378    -4379    -4374    -4371    -4372    -4374    -4376    -4376 
   -4375    -4374    -4374    -4376    -4376    -4375    -4374    -4375 
   -4375    -4374    -4374    -4376    -4378    -4372    -4365    -4371 
   -4376    -4372    -4372    -4378    -4371    -4360    -4367    -4386 
   -4383    -4368    -4365    -4372    -4375    -4372    -4379    -4383 
   -4369    -4364    -4379    -4384    -4376    -4374    -4372    -4365 
   -4371    -4380    -4378    -4369    -4375    -4376    -4365    -4368 
   -4380    -4380    -4375    -4374    -4375    -4376    -4371    -4371 
   -4378    -4379    -4378    -4378    -4371    -4369    -4376    -4378 
   -4378    -4376    -4371    -4371    -4375    -4375    -4376    -4380 
   -4378    -4376    -4378    -4372    -4368    -4375    -4378    -4369 
   -4369    -4382    -4382    -4368    -4368    -4375    -4376    -4374 
   -4375    -4375    -4368    -4369    -4380    -4378    -4367    -4369 
   -4379    -4378    -4374    -4378    -4376    -4368    -4369    -4378 
   -4376    -4371    -4375    -4380    -4374    -4368    -4374    -4382 
   -4378    -4371    -4369    -4368    -4368    -4374    -4380    -4379 
   -4378    -4378    -4368    -4368    -4379    -4379    -4376    -4374 
   -4369    -4375    -4378    -4375    -4375    -4374    -4371    -4368 
   -4372    -4379    -4376    -4367    -4368    -4378    -4371    -4372 
   -4382    -4371    -4368    -4378    -4372    -4371    -4379    -4376 
   -4369    -4375    -4378    -4374    -4372    -4374    -4374    -4376 
   -4376    -4374    -4371    -4374    -4375    -4372    -4372    -4374 
   -4378    -4379    -4376    -4374    -4374    -4375    -4375    -4371 
   -4371    -4374    -4374    -4376    -4376    -4371    -4371    -4376 
   -4375    -4374    -4372    -4372    -4374    -4372    -4374    -4380 
   -4379    -4374    -4374    -4376    -4376    -4374    -4375    -4376 
   -4372    -4371    -4378    -4378    -4372    -4374    -4376    -4369 
   -4369    -4375    -4376    -4374    -4374    -4374    -4371    -4369 
   -4375    -4378    -4376    -4374    -4376    -4380    -4376    -4372 
   -4376    -4375    -4371    -4378    -4379    -4372    -4372    -4374 
   -4371    -4372    -4372    -4369    -4368    -4375    -4380    -4374 
   -4368    -4374    -4376    -4374    -4371    -4374    -4376    -4368 
   -4371    -4379    -4374    -4371    -4378    -4378    -4375    -4369 
   -4369    -4376    -4369    -4368    -4379    -4375    -4365    -4372 
   -4376    -4369    -4372    -4379    -4375    -4369    -4371    -4374 
   -4374    -4374    -4372    -4372    -4372    -4375    -4380    -4378 
   -4372    -4371    -4372    -4378    -4378    -4371    -4371    -4372 
   -4371    -4374    -4378    -4378    -4374    -4369    -4371    -4374 
   -4374    -4372    -4375    -4376    -4371    -4371    -4375    -4378 
   -4375    -4374    -4375    -4372    -4369    -4378    -4380    -4369 
   -4365    -4375    -4379    -4376    -4378    -4375    -4367    -4369 
   -4379    -4380    -4379    -4378    -4372    -4367    -4368    -4376 
   -4374    -4369    -4379    -4384    -4379    -4382    -4388    -4387 
   -4382    -4383    -4382    -4371    -4360    -4352    -4338    -4328 
   -4336    -4353    -4368    -4379    -4390    -4384    -4374    -4384 
   -4411    -4428    -4421    -4395    -4363    -4360    -4405    -4422 
   -4357    -4275    -4252    -4320    -4440    -4488    -4418    -4309 
   -4255    -4320    -4461    -4541    -4500    -4392    -4315    -4318 
   -4337    -4310    -4282    -4310    -4380    -4426    -4426    -4423 
   -4410    -4332    -4224    -4162    -4220    -4426    -4662    -4731 
   -4588    -4330    -4124    -4129    -4301    -4476    -4572    -4531 
   -4365    -4197    -4118    -4166    -4325    -4476    -4546    -4591 
   -4575    -4436    -4305    -4245    -4217    -4278    -4413    -4519 
   -4583    -4565    -4456    -4337    -4194    -4043    -4040    -4209 
   -4425    -4611    -4653    -4471    -4201    -4043    -4137    -4445 
   -4722    -4793    -4648    -4329    -4027    -3951    -4126    -4436 
   -4668    -4673    -4513    -4326    -4232    -4297    -4437    -4510 
   -4477    -4376    -4278    -4239    -4259    -4355    -4469    -4446 
   -4298    -4209    -4268    -4422    -4572    -4615    -4499    -4298 
   -4167    -4174    -4280    -4423    -4514    -4469    -4317    -4205 
   -4244    -4390    -4507    -4500    -4391    -4306    -4320    -4371 
   -4402    -4403    -4380    -4392    -4464    -4480    -4398    -4320 
   -4267    -4264    -4364    -4465    -4483    -4421    -4286    -4194 
   -4249    -4342    -4426    -4527    -4548    -4464    -4375    -4298 
   -4228    -4220    -4310    -4464    -4602    -4629    -4479    -4210 
   -4023    -4075    -4329    -4581    -4660    -4546    -4336    -4156 
   -4110    -4234    -4464    -4623    -4588    -4418    -4274    -4252 
   -4332    -4436    -4488    -4449    -4357    -4294    -4295    -4318 
   -4329    -4337    -4349    -4384    -4417    -4414    -4403    -4387 
   -4357    -4361    -4395    -4421    -4430    -4433    -4410    -4347 
   -4291    -4294    -4313    -4332    -4371    -4394    -4388    -4386 
   -4382    -4363    -4337    -4322    -4357    -4463    -4575    -4594 
   -4484    -4322    -4243    -4287    -4355    -4356    -4303    -4249 
   -4247    -4303    -4364    -4399    -4421    -4419    -4396    -4392 
   -4432    -4471    -4428    -4311    -4234    -4280    -4419    -4550 
   -4577    -4475    -4301    -4140    -4116    -4282    -4490    -4563 
   -4506    -4375    -4248    -4247    -4378    -4476    -4473    -4448 
   -4413    -4376    -4379    -4372    -4338    -4317    -4305    -4351 
   -4444    -4460    -4368    -4264    -4236    -4317    -4446    -4544 
   -4556    -4452    -4294    -4209    -4264    -4382    -4438    -4413 
   -4317    -4213    -4232    -4376    -4495    -4507    -4422    -4303 
   -4256    -4307    -4402    -4496    -4503    -4402    -4336    -4332 
   -4301    -4288    -4313    -4328    -4396    -4527    -4583    -4507 
   -4364    -4245    -4255    -4388    -4507    -4518    -4421    -4272 
   -4175    -4178    -4282    -4446    -4544    -4509    -4414    -4314 
   -4267    -4330    -4405    -4401    -4380    -4374    -4363    -4386 
   -4411    -4396    -4353    -4290    -4232    -4234    -4336    -4480 
   -4527    -4453    -4347    -4252    -4237    -4326    -4423    -4483 
   -4517    -4507    -4468    -4414    -4338    -4275    -4249    -4279 
   -4372    -4468    -4496    -4430    -4306    -4241    -4301    -4422 
   -4509    -4491    -4374    -4256    -4251    -4361    -4473    -4496 
   -4426    -4299    -4202    -4220    -4329    -4434    -4467    -4399 
   -4303    -4288    -4356    -4453    -4561    -4610    -4514    -4336 
   -4199    -4156    -4224    -4342    -4426    -4475    -4472    -4403 
   -4356    -4356    -4369    -4410    -4461    -4477    -4430    -4326 
   -4234    -4220    -4298    -4395    -4417    -4384    -4338    -4294 
   -4325    -4432    -4488    -4449    -4361    -4266    -4243    -4353 
   -4503    -4557    -4487    -4368    -4286    -4279    -4347    -4433 
   -4455    -4392    -4302    -4256    -4294    -4392    -4483    -4490 
   -4406    -4330    -4330    -4364    -4399    -4418    -4387    -4364 
   -4388    -4392    -4364    -4352    -4348    -4336    -4336    -4351 
   -4342    -4320    -4325    -4361    -4415    -4473    -4477    -4383 
   -4279    -4274    -4324    -4390    -4472    -4492    -4405    -4286 
   -4230    -4286    -4406    -4499    -4537    -4498    -4399    -4329 
   -4295    -4272    -4303    -4365    -4395    -4410    -4414    -4392 
   -4375    -4372    -4375    -4371    -4368    -4403    -4428    -4378 
   -4321    -4299    -4295    -4318    -4341    -4345    -4363    -4369 
   -4383    -4423    -4428    -4406    -4409    -4405    -4402    -4422 
   -4432    -4409    -4369    -4337    -4326    -4338    -4379    -4421 
   -4396    -4333    -4287    -4271    -4324    -4437    -4509    -4475 
   -4368    -4260    -4234    -4315    -4450    -4556    -4556    -4444 
   -4303    -4221    -4225    -4291    -4372    -4410    -4403    -4391 
   -4384    -4380    -4395    -4409    -4390    -4345    -4317    -4342 
   -4401    -4448    -4445    -4360    -4264    -4271    -4357    -4453 
   -4487    -4403    -4299    -4274    -4291    -4348    -4440    -4491 
   -4475    -4426    -4372    -4329    -4329    -4352    -4360    -4369 
   -4392    -4405    -4402    -4371    -4330    -4329    -4352    -4364 
   -4363    -4363    -4390    -4436    -4461    -4446    -4390    -4320 
   -4280    -4288    -4330    -4387    -4418    -4392    -4348    -4317 
   -4330    -4413    -4488    -4480    -4432    -4376    -4325    -4310 
   -4311    -4311    -4340    -4372    -4379    -4371    -4351    -4341 
   -4356    -4391    -4436    -4441    -4410    -4384    -4349    -4321 
   -4355    -4398    -4421    -4441    -4413    -4345    -4313    -4303 
   -4320    -4391    -4456    -4463    -4438    -4398    -4349    -4322 
   -4333    -4380    -4433    -4438    -4391    -4321    -4266    -4271 
   -4340    -4414    -4452    -4433    -4364    -4294    -4260    -4291 
   -4357    -4394    -4417    -4445    -4438    -4413    -4405    -4390 
   -4371    -4374    -4365    -4345    -4357    -4387    -4383    -4357 
   -4349    -4364    -4403    -4449    -4453    -4409    -4364    -4336 
   -4303    -4283    -4283    -4298    -4342    -4409    -4456    -4456 
   -4415    -4383    -4383    -4394    -4396    -4391    -4360    -4317 
   -4306    -4338    -4396    -4446    -4455    -4415    -4348    -4295 
   -4302    -4353    -4406    -4434    -4428    -4396    -4364    -4344 
   -4344    -4330    -4310    -4318    -4332    -4369    -4460    -4515 
   -4484    -4409    -4325    -4287    -4326    -4392    -4428    -4413 
   -4361    -4306    -4280    -4305    -4379    -4465    -4498    -4436 
   -4326    -4252    -4247    -4299    -4372    -4406    -4399    -4401 
   -4405    -4418    -4459    -4476    -4452    -4409    -4356    -4321 
   -4317    -4321    -4315    -4293    -4282    -4330    -4415    -4482 
   -4491    -4440    -4390    -4388    -4394    -4379    -4353    -4333 
   -4332    -4341    -4351    -4363    -4353    -4318    -4297    -4322 
   -4391    -4455    -4461    -4411    -4361    -4371    -4428    -4469 
   -4463    -4415    -4359    -4334    -4352    -4356    -4340    -4330 
   -4309    -4267    -4256    -4311    -4401    -4467    -4479    -4429 
   -4369    -4349    -4356    -4363    -4359    -4356    -4383    -4446 
   -4522    -4588    -4625    -4596    -4500    -4367    -4201    -4018 
   -3877    -3788    -3800    -3979    -4260    -4563    -4847    -5022 
   -5031    -4904    -4681    -4436    -4228    -4098    -4099    -4206 
   -4334    -4468    -4556    -4526    -4406    -4240    -4081    -4017 
   -4045    -4141    -4314    -4484    -4608    -4706    -4716    -4625 
   -4482    -4318    -4203    -4174    -4175    -4203    -4284    -4402 
   -4515    -4581    -4569    -4476    -4321    -4159    -4050    -4016 
   -4068    -4185    -4264    -4257    -4233    -4279    -4465    -4777 
   -5034    -5104    -5016    -4799    -4536    -4359    -4264    -4206 
   -4149    -4033    -3875    -3792    -3890    -4187    -4560    -4843 
   -4966    -4909    -4654    -4255    -3878    -3693    -3740    -3913 
   -4081    -4189    -4283    -4477    -4808    -5127    -5235    -5063 
   -4692    -4321    -4113    -4090    -4182    -4261    -4236    -4126 
   -4025    -4033    -4191    -4460    -4735    -4938    -5065    -5081 
   -4922    -4615    -4261    -4000    -3909    -3919    -3912    -3835 
   -3719    -3684    -3835    -4179    -4634    -5036    -5227    -5170 
   -4947    -4660    -4367    -4109    -3936    -3865    -3877    -3996 
   -4244    -4534    -4733    -4749    -4576    -4363    -4284    -4367 
   -4544    -4672    -4604    -4384    -4145    -3983    -4043    -4356 
   -4714    -4914    -4847    -4521    -4128    -3859    -3763    -3825 
   -3973    -4153    -4388    -4676    -4984    -5224    -5242    -4972 
   -4498    -3959    -3527    -3322    -3369    -3643    -4054    -4482 
   -4851    -5115    -5221    -5136    -4872    -4519    -4190    -3966 
   -3915    -4031    -4203    -4345    -4440    -4453    -4382    -4324 
   -4338    -4405    -4463    -4445    -4353    -4291    -4372    -4596 
   -4828    -4918    -4791    -4464    -4095    -3889    -3909    -4104 
   -4352    -4479    -4398    -4194    -4004    -3940    -4077    -4340 
   -4569    -4669    -4637    -4533    -4464    -4452    -4459    -4461 
   -4398    -4288    -4264    -4341    -4471    -4615    -4646    -4511 
   -4320    -4182    -4170    -4283    -4437    -4572    -4634    -4565 
   -4396    -4230    -4144    -4153    -4228    -4303    -4352    -4359 
   -4318    -4268    -4275    -4345    -4446    -4522    -4499    -4359 
   -4180    -4089    -4160    -4380    -4649    -4810    -4754    -4510 
   -4217    -4039    -4067    -4272    -4533    -4679    -4619    -4421 
   -4241    -4199    -4291    -4429    -4513    -4492    -4368    -4198 
   -4097    -4152    -4344    -4596    -4796    -4812    -4652    -4450 
   -4274    -4131    -4054    -4029    -4039    -4113    -4229    -4325 
   -4395    -4441    -4477    -4514    -4538    -4567    -4588    -4564 
   -4482    -4357    -4243    -4183    -4190    -4244    -4313    -4386 
   -4468    -4537    -4573    -4552    -4446    -4299    -4183    -4128 
   -4158    -4293    -4486    -4642    -4687    -4614    -4479    -4337 
   -4217    -4144    -4112    -4102    -4132    -4201    -4274    -4337 
   -4422    -4545    -4661    -4703    -4673    -4610    -4510    -4406 
   -4337    -4290    -4260    -4261    -4261    -4244    -4236    -4252 
   -4309    -4410    -4513    -4575    -4560    -4464    -4363    -4330 
   -4356    -4401    -4425    -4386    -4276    -4139    -4050    -4083 
   -4239    -4455    -4648    -4720    -4642    -4468    -4280    -4149 
   -4126    -4210    -4345    -4468    -4536    -4537    -4490    -4423 
   -4344    -4270    -4240    -4264    -4329    -4413    -4460    -4436 
   -4380    -4341    -4344    -4405    -4498    -4579    -4577    -4457 
   -4303    -4203    -4178    -4228    -4314    -4395    -4442    -4426 
   -4392    -4382    -4376    -4387    -4403    -4372    -4317    -4267 
   -4237    -4276    -4368    -4444    -4496    -4518    -4496    -4455 
   -4410    -4396    -4436    -4500    -4553    -4545    -4460    -4325 
   -4175    -4074    -4064    -4133    -4252    -4364    -4415    -4409 
   -4360    -4303    -4302    -4355    -4410    -4448    -4433    -4340 
   -4243    -4232    -4287    -4380    -4519    -4618    -4604    -4550 
   -4513    -4476    -4441    -4410    -4384    -4375    -4371    -4374 
   -4387    -4396    -4387    -4334    -4263    -4233    -4264    -4341 
   -4441    -4492    -4450    -4359    -4264    -4194    -4179    -4225 
   -4295    -4360    -4413    -4429    -4396    -4342    -4288    -4266 
   -4317    -4438    -4557    -4615    -4591    -4504    -4395    -4310 
   -4282    -4302    -4349    -4407    -4440    -4432    -4417    -4403 
   -4390    -4398    -4402    -4375    -4341    -4311    -4306    -4342 
   -4375    -4382    -4383    -4359    -4318    -4313    -4334    -4348 
   -4349    -4334    -4328    -4357    -4415    -4479    -4506    -4455 
   -4365    -4298    -4267    -4293    -4369    -4434    -4459    -4440 
   -4392    -4355    -4325    -4299    -4309    -4341    -4348    -4329 
   -4311    -4332    -4410    -4511    -4576    -4568    -4492    -4379 
   -4264    -4205    -4229    -4297    -4365    -4401    -4384    -4345 
   -4313    -4298    -4325    -4390    -4463    -4519    -4526    -4464 
   -4357    -4279    -4287    -4348    -4399    -4433    -4440    -4429 
   -4442    -4468    -4461    -4418    -4349    -4299    -4295    -4313 
   -4340    -4356    -4326    -4280    -4266    -4283    -4321    -4365 
   -4391    -4394    -4392    -4390    -4384    -4367    -4320    -4279 
   -4276    -4305    -4359    -4426    -4483    -4521    -4526    -4507 
   -4480    -4455    -4436    -4428    -4403    -4359    -4317    -4290 
   -4282    -4299    -4338    -4378    -4395    -4394    -4379    -4364 
   -4375    -4388    -4372    -4334    -4293    -4261    -4261    -4293 
   -4340    -4380    -4403    -4411    -4410    -4405    -4398    -4388 
   -4390    -4418    -4456    -4483    -4477    -4434    -4368    -4313 
   -4288    -4297    -4324    -4359    -4390    -4413    -4428    -4428 
   -4421    -4413    -4386    -4344    -4309    -4303    -4341    -4403 
   -4457    -4486    -4461    -4390    -4306    -4237    -4213    -4232 
   -4259    -4274    -4278    -4272    -4293    -4356    -4433    -4502 
   -4537    -4523    -4471    -4399    -4363    -4391    -4457    -4526 
   -4558    -4519    -4432    -4345    -4299    -4315    -4375    -4438 
   -4459    -4418    -4341    -4264    -4222    -4253    -4311    -4329 
   -4315    -4275    -4225    -4217    -4248    -4299    -4356    -4395 
   -4419    -4436    -4457    -4487    -4492    -4477    -4472    -4448 
   -4388    -4322    -4261    -4226    -4243    -4322    -4442    -4540 
   -4561    -4515    -4442    -4372    -4333    -4337    -4353    -4361 
   -4374    -4392    -4409    -4406    -4395    -4403    -4423    -4436 
   -4441    -4423    -4363    -4303    -4283    -4291    -4318    -4341 
   -4324    -4276    -4244    -4255    -4309    -4382    -4440    -4445 
   -4415    -4378    -4333    -4314    -4356    -4409    -4428    -4422 
   -4413    -4403    -4390    -4380    -4382    -4384    -4386    -4376 
   -4353    -4344    -4351    -4355    -4367    -4388    -4401    -4399 
   -4399    -4396    -4398    -4414    -4432    -4423    -4394    -4361 
   -4336    -4324    -4332    -4351    -4353    -4332    -4318    -4336 
   -4376    -4418    -4437    -4410    -4357    -4325    -4320    -4329 
   -4347    -4357    -4361    -4364    -4367    -4386    -4414    -4430 
