Origin Time       2025/03/30 10:46:00
Lat.              32.923
Long.             130.372
Depth. (km)       11
Mag.              3.4
Station Code      KMMH07
Station Lat.      32.6234
Station Long.     130.5584
Station Height(m) -278
Record Time       2025/03/30 10:46:32
Sampling Freq(Hz) 100Hz
Duration Time(s)  120
Dir.              3
Scale Factor      2942(gal)/8224139
Max. Acc. (gal)   0.213
Last Correction   2025/03/30 10:46:32
Memo.             
[...]
  125984   125987   125987   125986   125987   125988   125986   125984 
  125987   125986   125986   125987   125984   125984   125986   125986 
  125987   125983   125980   125984   125986   125984   125986   125982 
  125979   125983   125986   125986   125984   125984   125984   125984 
  125984   125986   125984   125982   125983   125983   125984   125984 
  125984   125986   125987   125986   125984   125987   125987   125984 
  125984   125986   125984   125984   125987   125987   125984   125984 
  125986   125986   125986   125987   125986   125982   125982   125986 
  125987   125983   125983   125986   125986   125986   125984   125984 
  125986   125986   125984   125986   125986   125986   125987   125986 
  125983   125984   125986   125984   125984   125986   125986   125983 
  125983   125987   125988   125986   125984   125986   125986   125983 
  125983   125984   125987   125987   125984   125984   125984   125984 
  125986   125987   125987   125986   125984   125986   125988   125988 
  125984   125984   125987   125987   125988   125987   125983   125986 
  125988   125984   125984   125984   125984   125988   125987   125982 
  125984   125987   125986   125984   125983   125983   125986   125986 
  125984   125987   125990   125988   125986   125984   125986   125984 
  125983   125984   125984   125986   125987   125986   125987   125987 
  125984   125986   125987   125986   125986   125986   125984   125986 
  125986   125986   125988   125988   125984   125983   125984   125984 
  125983   125984   125984   125983   125983   125984   125984   125987 
  125986   125982   125983   125984   125983   125984   125984   125984 
  125984   125986   125984   125983   125984   125984   125983   125983 
  125984   125984   125982   125983   125987   125987   125987   125987 
  125984   125983   125984   125986   125986   125983   125987   125990 
  125986   125983   125986   125988   125987   125984   125986   125990 
  125987   125980   125983   125987   125984   125982   125983   125984 
  125986   125986   125984   125984   125984   125982   125982   125983 
  125983   125984   125984   125983   125984   125983   125982   125984 
  125986   125984   125984   125986   125984   125986   125988   125986 
  125983   125986   125991   125987   125983   125984   125986   125987 
  125988   125987   125987   125986   125984   125987   125988   125986 
  125986   125988   125987   125984   125984   125986   125984   125984 
  125984   125984   125986   125988   125987   125987   125986   125983 
  125984   125987   125987   125986   125986   125986   125983   125983 
  125986   125986   125986   125984   125986   125988   125986   125984 
  125990   125988   125984   125986   125986   125984   125984   125986 
  125986   125984   125983   125983   125984   125984   125986   125986 
  125983   125984   125986   125988   125987   125982   125982   125986 
  125982   125979   125983   125983   125982   125984   125986   125986 
  125984   125983   125983   125983   125980   125982   125983   125980 
  125982   125984   125984   125983   125986   125988   125988   125983 
  125979   125983   125984   125986   125986   125983   125983   125983 
  125984   125986   125983   125983   125984   125984   125983   125984 
  125984   125984   125983   125986   125987   125984   125982   125983 
  125984   125984   125987   125987   125984   125983   125983   125983 
  125986   125987   125987   125987   125987   125987   125986   125984 
  125986   125988   125984   125984   125988   125984   125982   125987 
  125990   125986   125987   125987   125986   125987   125986   125984 
  125987   125986   125982   125983   125987   125988   125990   125988 
  125986   125983   125984   125987   125987   125986   125987   125987 
  125984   125984   125983   125982   125986   125988   125983   125984 
  125986   125983   125983   125986   125983   125982   125986   125986 
  125983   125984   125984   125984   125987   125988   125988   125984 
  125984   125986   125982   125986   125988   125983   125984   125987 
  125984   125986   125988   125986   125986   125984   125982   125982 
  125986   125986   125986   125987   125986   125983   125984   125987 
  125988   125986   125984   125983   125984   125986   125984   125986 
  125990   125987   125986   125986   125986   125987   125988   125986 
  125986   125986   125983   125983   125987   125988   125984   125984 
  125986   125984   125983   125986   125986   125984   125987   125987 
  125982   125982   125987   125986   125983   125983   125986   125984 
  125983   125984   125984   125986   125984   125984   125984   125984 
  125982   125984   125987   125986   125986   125984   125983   125984 
  125983   125982   125984   125984   125984   125986   125984   125982 
  125986   125987   125984   125983   125984   125984   125984   125983 
  125983   125984   125986   125983   125983   125987   125984   125983 
  125986   125983   125980   125984   125986   125984   125983   125986 
  125986   125984   125987   125987   125983   125984   125990   125988 
  125987   125986   125986   125986   125984   125984   125987   125987 
  125986   125987   125986   125984   125987   125986   125983   125986 
  125988   125986   125986   125988   125986   125983   125986   125988 
  125987   125987   125984   125982   125984   125987   125988   125987 
  125984   125984   125988   125988   125986   125984   125984   125984 
  125986   125986   125984   125986   125990   125988   125986   125984 
  125984   125984   125986   125986   125986   125987   125987   125987 
  125986   125984   125986   125986   125982   125984   125986   125984 
  125986   125987   125984   125983   125983   125984   125987   125987 
  125986   125984   125987   125986   125982   125983   125984   125984 
  125984   125984   125983   125984   125984   125986   125986   125983 
  125982   125984   125984   125983   125984   125984   125983   125984 
  125982   125979   125984   125986   125986   125984   125982   125984 
  125986   125983   125984   125984   125983   125982   125982   125983 
  125983   125984   125987   125987   125983   125986   125987   125984 
  125986   125986   125983   125984   125987   125987   125987   125987 
  125984   125984   125986   125986   125986   125984   125986   125987 
  125988   125986   125984   125986   125984   125986   125987   125990 
  125990   125986   125986   125988   125987   125986   125990   125988 
  125984   125984   125988   125990   125988   125984   125984   125986 
  125984   125986   125986   125984   125987   125988   125984   125983 
  125986   125987   125987   125984   125987   125990   125987   125984 
  125984   125983   125986   125987   125986   125984   125986   125987 
  125986   125987   125984   125983   125984   125988   125988   125984 
  125983   125986   125984   125983   125990   125988   125983   125987 
  125988   125986   125984   125986   125986   125987   125987   125986 
  125987   125986   125983   125983   125984   125986   125987   125987 
  125987   125986   125984   125986   125984   125984   125988   125984 
  125979   125983   125987   125987   125987   125987   125986   125986 
  125986   125984   125983   125984   125986   125984   125982   125986 
  125988   125986   125983   125986   125987   125987   125988   125987 
  125984   125984   125984   125986   125986   125986   125986   125987 
  125987   125984   125983   125984   125984   125983   125984   125984 
  125984   125984   125983   125983   125984   125986   125984   125984 
  125983   125984   125987   125984   125983   125986   125986   125984 
  125983   125983   125984   125984   125983   125983   125982   125984 
  125987   125984   125984   125987   125983   125982   125986   125987 
  125984   125984   125984   125984   125983   125982   125983   125986 
  125987   125983   125983   125987   125984   125983   125984   125986 
  125984   125983   125984   125986   125984   125984   125986   125986 
  125983   125984   125987   125986   125983   125984   125987   125986 
  125983   125986   125987   125987   125988   125990   125994   126002 
  126011   126023   126037   126033   126006   125977   125957   125953 
  125972   125986   125965   125953   125979   125984   125948   125914 
  125907   125955   126046   126096   126068   125995   125926   125929 
  125987   126018   126026   126010   125919   125807   125748   125825 
  126098   126338   126261   126054   125986   125941   125826   125809 
  125906   125917   125907   126068   126176   126057   126026   126081 
  125894   125756   125930   126048   126049   126104   126081   125988 
  125944   125890   125859   125945   126075   126112   126068   126030 
  125950   125872   125934   125982   125994   126063   126002   125933 
  125982   125946   125973   126044   125933   125911   126002   125982 
  126003   126018   125923   125977   126073   125971   125959   126072 
  126063   126053   125999   125838   125898   126000   125878   125869 
  125988   126018   126063   126056   125945   125963   126084   126068 
  125975   126014   126054   125926   125863   125929   125938   125995 
  126068   125999   125969   125994   125972   126006   126009   125955 
  126038   126087   125950   125934   125979   125848   125810   125979 
  126161   126203   125991   125849   125995   126031   125945   125975 
  126011   126036   126018   125941   125984   126056   125960   125852 
  125915   126009   125944   125849   126017   126242   126058   125847 
  125976   125968   125914   126091   126018   125797   125999   126250 
  126026   125824   125975   126031   125963   125983   125956   125942 
  126011   126042   126026   125972   125973   126052   125971   125805 
  125849   126015   126154   126166   125977   125869   125977   126090 
  126088   125907   125782   125956   126152   126127   126037   126009 
  125882   125791   125952   125996   125909   125992   126090   126103 
  126046   125915   125857   125922   126071   126142   126031   125940 
  125942   125942   125903   125811   125830   125984   126053   126046 
  126048   126022   126027   126087   126071   125965   125917   125938 
  125968   125984   125977   125959   125944   126004   126095   126068 
  126025   126031   125977   125921   125915   125888   125842   125872 
  126041   126180   126100   125937   125864   125980   126149   126050 
  125944   126003   125926   125896   125999   125987   125987   126041 
  126015   125946   125906   125988   126095   125950   125844   126072 
  126107   125824   125771   125928   125976   126002   126129   126126 
  125996   126079   126145   125945   125888   126014   125936   125794 
  125903   126061   126058   126060   126125   126096   125868   125739 
  125963   126052   125926   126018   126058   125948   126022   126102 
  126033   125960   125901   125880   125953   126015   125980   125928 
  125986   126112   126099   125973   125925   125861   125863   126026 
  126034   125938   125999   126061   126068   126050   125965   125860 
  125830   125956   126099   126119   126068   125979   125991   126087 
  126018   125872   125840   125895   126025   126063   125952   125992 
  126065   125986   125973   125946   125859   125984   126175   126064 
  125815   125786   125882   125968   126130   126195   126058   125959 
  125975   126037   126065   125969   125788   125790   126064   126144 
  125941   125925   126009   125932   125906   125995   126063   126133 
  126079   125884   125955   126171   125994   125675   125756   126046 
  126092   126015   126087   126098   125992   125955   125936   125930 
  125914   125891   126017   126148   126045   125851   125837   125926 
  125945   126064   126200   126029   125810   125933   126162   126114 
  125979   126083   126165   125929   125721   125863   126002   125890 
  125834   125956   126058   126111   126168   126138   125980   125921 
  126038   125973   125814   126022   126229   126017   125806   125825 
  125891   125967   126045   126049   125960   125928   126094   126173 
  125976   125855   125875   125922   126119   126141   125896   125882 
  126027   126030   125988   125999   125967   125848   125867   126004 
  125975   125898   126030   126216   126112   125880   125956   126106 
  125990   125878   126013   126130   125996   125955   126107   125990 
  125748   125761   125855   125938   125930   125861   126042   126234 
  126195   126157   126080   125949   125922   125923   125865   125906 
  126058   125999   125849   125980   126131   126107   126069   125996 
  125871   125868   126014   126083   126029   126023   126025   125919 
  125817   125883   126031   126054   126027   125999   125882   125882 
  126049   126081   125979   125955   126080   126216   126071   125837 
  125953   126096   126003   126064   126253   126211   125999   125780 
  125635   125621   125656   125653   125678   125814   125980   126162 
  126422   126501   126258   126011   125903   125794   125771   125996 
  126184   126083   126000   126022   125965   125937   125918   125822 
  125807   125965   126164   126173   126073   126063   126007   125972 
  126057   125968   125743   125709   125784   125834   126002   126196 
  126181   126096   126022   125806   125658   125842   126103   126179 
  126158   126108   126112   126262   126416   126285   125828   125462 
  125505   125802   126148   126333   126115   125726   125663   125782 
  125767   125925   126222   126225   126169   126202   126157   126148 
  125894   125390   125423   125971   126319   126414   126411   126138 
  125802   125807   125888   125690   125585   125860   126119   126080 
  126045   126210   126189   125879   125849   126072   126037   125987 
  126189   126187   125779   125558   125815   126037   126000   126080 
  126291   126219   125896   125834   125956   125851   125838   126087 
  126131   126088   126148   125941   125739   125959   126084   125952 
  126080   126276   126133   125982   126027   125965   125751   125652 
  125724   125863   126042   126125   126042   126009   126056   126108 
  126079   125887   125857   126060   126052   125923   125998   126041 
  125914   125899   126004   125980   125898   125975   126025   125894 
  125899   126095   126179   126108   125952   125868   126021   126068 
  125829   125751   126003   126198   126103   125965   125988   125928 
  125786   125938   126193   126111   125965   126075   126098   126046 
  126133   126014   125806   125825   125882   125984   126037   125888 
  125847   125911   125863   125906   126041   125994   125946   126073 
  126019   125794   125922   126249   126206   126061   126176   126177 
  125983   125940   125963   125898   125887   125950   125980   125930 
  125817   125833   126034   126106   125987   125915   125842   125856 
  126087   126219   126154   126021   125830   125861   126067   126004 
  125929   126092   126103   125996   126038   126061   126004   125984 
  125987   125977   125941   125892   125879   125871   125868   125984 
  126119   126096   126006   125875   125739   125811   125936   125903 
  125944   126060   126029   126029   126210   126300   126176   126081 
  126072   126036   126004   125963   125871   125787   125795   125936 
  126080   126153   126161   126030   125852   125768   125740   125787 
  125919   126048   126121   126106   126010   125886   125790   125848 
  126038   126084   125969   126010   126199   126229   126052   125861 
  125778   125844   126003   126072   126014   125994   126029   126061 
  126121   126052   125859   125876   126015   125973   125888   125968 
  126104   126056   125905   125944   126036   125956   125980   126160 
  126073   125838   125899   126072   126052   125968   125926   125949 
  126058   126052   125910   125886   125917   125898   125965   126045 
  126053   126107   126134   126011   125865   125886   125976   125968 
  125937   125953   126050   126161   126084   125944   125909   125832 
  125837   126112   126237   126002   125856   125928   125980   126013 
  126021   125884   125760   125867   126019   126002   125964   126029 
  126075   126065   126134   126195   126064   125959   125996   125903 
  125788   125880   125968   126013   126094   126038   125922   125914 
  125896   125838   125892   126037   126080   126036   126027   126009 
  126033   126119   126083   125987   125936   125848   125906   126125 
  126123   125964   125937   125986   126002   125946   125892   125964 
  126017   125934   125871   125899   125917   125917   125946   125957 
  125937   125956   125999   126080   126179   126139   126040   126050 
  126054   125984   125919   125859   125851   125944   126049   126083 
  126025   125955   125976   126040   126058   126021   125937   125910 
  125998   126058   126057   126031   125903   125791   125879   125973 
  125923   125926   126052   126084   126018   126049   126095   126040 
  126048   126095   126018   125949   125995   126053   125977   125830 
  125884   126029   126017   125964   125925   125891   125956   126037 
  125994   125921   125953   125996   125968   125946   125949   125968 
  126041   126080   125992   125936   126021   126083   126063   126052 
  126018   125928   125860   125851   125860   125875   125913   125988 
  126057   126081   126083   126045   125938   125892   125991   126056 
  125971   125909   125942   125963   126000   126115   126169   126057 
  125926   125952   126026   126023   125959   125871   125899   125995 
  125934   125883   126013   126079   125971   125880   125922   126010 
  126045   126073   126118   126054   125911   125872   125923   125957 
  126018   126100   126102   126027   125934   125872   125903   125988 
  126018   126004   126015   126031   125965   125874   125923   126033 
  126026   126002   126004   125940   125915   125963   125960   125996 
  126065   126031   125984   126009   126052   126057   125983   125895 
  125902   125983   126071   126072   125960   125910   125999   126029 
  125952   125953   126021   126011   125987   125977   125918   125895 
  125976   126027   126007   126011   126010   125960   125977   126058 
  126048   125980   125975   125960   125950   126003   126010   126000 
  126004   125914   125863   125972   126067   126019   125948   125988 
  126030   125980   125991   126085   126048   125913   125955   126056 
  125973   125895   125933   125938   125932   125969   126027   126079 
  126065   125976   125899   125899   125940   125973   126011   126021 
  125957   125887   125915   126015   126053   126021   125982   125945 
  125948   126009   126040   126002   125982   125995   125973   125976 
  126038   126030   125952   125946   126010   126031   125980   125914 
  125942   126036   126045   125988   125976   125992   125976   125948 
  125971   125979   125896   125910   126065   126130   126076   126002 
  125936   125941   125987   126003   125992   125964   125956   125957 
  125938   125960   126015   126017   125984   126027   126095   126040 
  125953   125929   125894   125882   125925   125957   125994   126023 
  126029   126030   126013   125975   125940   125921   125941   125984 
  126048   126098   126022   125909   125940   126004   125992   126011 
  126045   126025   126017   126019   125990   125980   125988   125955 
  125949   126014   125990   125872   125892   126002   125988   125948 
