Origin Time       2025/03/30 10:46:00
Lat.              32.923
Long.             130.372
Depth. (km)       11
Mag.              3.4
Station Code      KMMH18
Station Lat.      33.0031
Station Long.     131.0071
Station Height(m) 932
Record Time       2025/03/30 10:46:39
Sampling Freq(Hz) 100Hz
Duration Time(s)  120
Dir.              5
Scale Factor      7845(gal)/8223790
Max. Acc. (gal)   0.539
Last Correction   2025/03/30 10:46:38
Memo.             
[...]
   -8610    -8610    -8614    -8615    -8611    -8608    -8608    -8610 
   -8610    -8610    -8608    -8604    -8602    -8607    -8608    -8607 
   -8608    -8611    -8610    -8607    -8607    -8608    -8607    -8610 
   -8614    -8613    -8610    -8611    -8611    -8607    -8606    -8607 
   -8610    -8610    -8607    -8606    -8608    -8613    -8613    -8611 
   -8613    -8611    -8610    -8614    -8610    -8604    -8607    -8608 
   -8606    -8604    -8608    -8611    -8611    -8608    -8608    -8610 
   -8610    -8610    -8614    -8613    -8611    -8614    -8611    -8608 
   -8611    -8610    -8604    -8606    -8610    -8610    -8611    -8611 
   -8608    -8608    -8610    -8613    -8611    -8610    -8610    -8608 
   -8607    -8608    -8607    -8607    -8610    -8608    -8607    -8608 
   -8611    -8613    -8614    -8615    -8611    -8608    -8607    -8607 
   -8607    -8604    -8607    -8608    -8607    -8607    -8608    -8608 
   -8611    -8613    -8610    -8607    -8608    -8608    -8606    -8607 
   -8610    -8611    -8611    -8608    -8607    -8608    -8608    -8608 
   -8608    -8610    -8611    -8607    -8606    -8608    -8608    -8606 
   -8608    -8611    -8610    -8610    -8613    -8611    -8610    -8614 
   -8611    -8607    -8610    -8610    -8608    -8611    -8608    -8606 
   -8608    -8610    -8610    -8611    -8610    -8610    -8607    -8604 
   -8608    -8613    -8608    -8604    -8607    -8610    -8613    -8611 
   -8613    -8615    -8610    -8606    -8608    -8607    -8608    -8610 
   -8607    -8608    -8608    -8607    -8611    -8613    -8610    -8613 
   -8613    -8611    -8613    -8613    -8610    -8608    -8610    -8611 
   -8610    -8607    -8606    -8607    -8607    -8610    -8613    -8611 
   -8608    -8610    -8610    -8610    -8610    -8610    -8610    -8608 
   -8608    -8614    -8614    -8610    -8608    -8611    -8608    -8608 
   -8611    -8610    -8610    -8611    -8613    -8610    -8610    -8611 
   -8611    -8610    -8608    -8608    -8608    -8607    -8606    -8608 
   -8611    -8610    -8610    -8611    -8613    -8610    -8610    -8614 
   -8611    -8607    -8607    -8608    -8608    -8608    -8610    -8611 
   -8608    -8608    -8613    -8614    -8611    -8608    -8608    -8611 
   -8610    -8606    -8608    -8611    -8608    -8611    -8611    -8607 
   -8607    -8611    -8610    -8607    -8608    -8610    -8608    -8607 
   -8608    -8608    -8610    -8611    -8611    -8611    -8611    -8613 
   -8613    -8608    -8606    -8611    -8614    -8611    -8610    -8611 
   -8611    -8608    -8607    -8606    -8608    -8610    -8608    -8611 
   -8613    -8611    -8610    -8611    -8610    -8606    -8607    -8611 
   -8611    -8613    -8614    -8607    -8604    -8610    -8613    -8608 
   -8607    -8611    -8610    -8608    -8608    -8607    -8608    -8613 
   -8614    -8610    -8610    -8611    -8608    -8608    -8614    -8614 
   -8608    -8606    -8606    -8611    -8617    -8611    -8606    -8610 
   -8614    -8611    -8608    -8610    -8614    -8613    -8606    -8607 
   -8610    -8607    -8610    -8610    -8606    -8607    -8611    -8610 
   -8608    -8610    -8611    -8610    -8608    -8611    -8611    -8610 
   -8611    -8614    -8610    -8607    -8611    -8614    -8611    -8611 
   -8611    -8613    -8613    -8607    -8608    -8611    -8607    -8606 
   -8610    -8607    -8607    -8611    -8611    -8608    -8610    -8611 
   -8610    -8610    -8611    -8613    -8613    -8608    -8606    -8610 
   -8608    -8603    -8606    -8611    -8611    -8610    -8615    -8613 
   -8606    -8606    -8610    -8608    -8610    -8614    -8613    -8607 
   -8610    -8614    -8610    -8607    -8610    -8610    -8610    -8610 
   -8610    -8610    -8607    -8606    -8607    -8608    -8610    -8614 
   -8613    -8611    -8610    -8607    -8606    -8607    -8608    -8613 
   -8614    -8611    -8611    -8611    -8608    -8607    -8608    -8610 
   -8611    -8613    -8613    -8613    -8608    -8606    -8610    -8614 
   -8613    -8611    -8611    -8610    -8610    -8608    -8610    -8610 
   -8608    -8611    -8613    -8613    -8613    -8614    -8608    -8604 
   -8607    -8610    -8608    -8610    -8611    -8610    -8608    -8606 
   -8606    -8611    -8615    -8614    -8611    -8611    -8608    -8604 
   -8606    -8608    -8611    -8614    -8613    -8606    -8606    -8608 
   -8611    -8613    -8613    -8610    -8610    -8611    -8607    -8606 
   -8610    -8611    -8614    -8617    -8614    -8608    -8606    -8610 
   -8608    -8607    -8610    -8611    -8610    -8608    -8606    -8606 
   -8607    -8608    -8611    -8611    -8613    -8614    -8613    -8610 
   -8610    -8610    -8611    -8610    -8611    -8614    -8613    -8610 
   -8610    -8607    -8604    -8610    -8615    -8611    -8606    -8608 
   -8610    -8603    -8603    -8608    -8613    -8613    -8611    -8611 
   -8608    -8607    -8610    -8610    -8607    -8606    -8607    -8611 
   -8611    -8607    -8608    -8611    -8608    -8610    -8610    -8607 
   -8608    -8610    -8606    -8607    -8611    -8611    -8610    -8610 
   -8608    -8607    -8608    -8608    -8610    -8608    -8608    -8610 
   -8608    -8608    -8607    -8608    -8611    -8610    -8610    -8611 
   -8611    -8608    -8607    -8610    -8610    -8608    -8611    -8613 
   -8607    -8604    -8606    -8604    -8604    -8610    -8615    -8610 
   -8606    -8608    -8608    -8606    -8608    -8608    -8610    -8613 
   -8614    -8611    -8607    -8608    -8611    -8606    -8606    -8610 
   -8613    -8610    -8608    -8608    -8608    -8608    -8610    -8610 
   -8607    -8606    -8607    -8608    -8613    -8613    -8610    -8610 
   -8610    -8608    -8610    -8607    -8606    -8608    -8611    -8610 
   -8608    -8610    -8610    -8611    -8613    -8610    -8607    -8607 
   -8608    -8610    -8613    -8613    -8613    -8613    -8611    -8610 
   -8608    -8607    -8608    -8610    -8611    -8611    -8607    -8606 
   -8608    -8611    -8610    -8610    -8608    -8608    -8608    -8608 
   -8611    -8611    -8608    -8608    -8610    -8610    -8610    -8611 
   -8613    -8611    -8610    -8611    -8610    -8607    -8606    -8607 
   -8610    -8611    -8610    -8610    -8611    -8608    -8607    -8613 
   -8611    -8608    -8610    -8611    -8608    -8607    -8607    -8610 
   -8610    -8608    -8608    -8611    -8613    -8611    -8608    -8610 
   -8608    -8607    -8608    -8608    -8607    -8606    -8602    -8604 
   -8610    -8619    -8637    -8656    -8667    -8664    -8640    -8598 
   -8553    -8526    -8526    -8546    -8572    -8594    -8610    -8625 
   -8649    -8684    -8715    -8725    -8700    -8648    -8586    -8544 
   -8538    -8563    -8577    -8561    -8529    -8506    -8521    -8581 
   -8654    -8707    -8723    -8707    -8673    -8641    -8626    -8630 
   -8630    -8590    -8514    -8460    -8452    -8478    -8526    -8580 
   -8607    -8599    -8588    -8615    -8679    -8734    -8750    -8733 
   -8703    -8680    -8653    -8604    -8559    -8530    -8502    -8486 
   -8517    -8595    -8687    -8753    -8765    -8721    -8658    -8618 
   -8594    -8552    -8486    -8436    -8457    -8554    -8645    -8664 
   -8622    -8576    -8557    -8572    -8633    -8721    -8776    -8780 
   -8746    -8668    -8577    -8526    -8523    -8550    -8569    -8553 
   -8519    -8536    -8617    -8688    -8687    -8635    -8590    -8586 
   -8615    -8622    -8580    -8550    -8576    -8607    -8581    -8534 
   -8540    -8606    -8683    -8734    -8750    -8743    -8737    -8716 
   -8667    -8608    -8569    -8544    -8521    -8509    -8509    -8521 
   -8563    -8627    -8671    -8649    -8571    -8490    -8465    -8502 
   -8552    -8602    -8653    -8708    -8780    -8858    -8874    -8791 
   -8650    -8517    -8409    -8341    -8352    -8448    -8564    -8627 
   -8633    -8634    -8676    -8737    -8745    -8685    -8625    -8607 
   -8606    -8577    -8541    -8556    -8613    -8650    -8660    -8661 
   -8654    -8657    -8677    -8664    -8591    -8515    -8496    -8518 
   -8544    -8563    -8583    -8623    -8676    -8672    -8595    -8546 
   -8571    -8591    -8584    -8581    -8569    -8553    -8602    -8711 
   -8800    -8815    -8754    -8642    -8550    -8525    -8537    -8560 
   -8594    -8626    -8631    -8583    -8498    -8475    -8573    -8692 
   -8715    -8679    -8660    -8650    -8611    -8545    -8510    -8545 
   -8613    -8664    -8696    -8716    -8708    -8671    -8607    -8523 
   -8471    -8496    -8552    -8577    -8587    -8595    -8590    -8565 
   -8542    -8554    -8607    -8656    -8657    -8630    -8630    -8665 
   -8696    -8698    -8683    -8668    -8648    -8613    -8572    -8536 
   -8527    -8556    -8587    -8607    -8637    -8679    -8711    -8710 
   -8657    -8576    -8533    -8523    -8496    -8465    -8498    -8587 
   -8644    -8614    -8564    -8584    -8649    -8687    -8706    -8743 
   -8768    -8735    -8658    -8581    -8534    -8527    -8540    -8534 
   -8521    -8545    -8595    -8603    -8564    -8544    -8572    -8618 
   -8648    -8662    -8681    -8706    -8696    -8650    -8645    -8695 
   -8700    -8606    -8498    -8480    -8550    -8615    -8607    -8561 
   -8554    -8595    -8634    -8642    -8640    -8668    -8716    -8702 
   -8588    -8453    -8391    -8429    -8523    -8627    -8731    -8810 
   -8814    -8757    -8694    -8646    -8606    -8548    -8483    -8459 
   -8498    -8571    -8626    -8633    -8604    -8591    -8600    -8587 
   -8548    -8550    -8607    -8660    -8669    -8649    -8645    -8692 
   -8765    -8793    -8750    -8665    -8557    -8437    -8360    -8375 
   -8465    -8568    -8644    -8677    -8684    -8695    -8703    -8676 
   -8619    -8571    -8533    -8488    -8448    -8455    -8533    -8656 
   -8768    -8797    -8719    -8611    -8560    -8568    -8613    -8683 
   -8743    -8761    -8745    -8719    -8667    -8583    -8505    -8457 
   -8438    -8456    -8502    -8552    -8587    -8617    -8660    -8708 
   -8707    -8660    -8634    -8662    -8703    -8704    -8648    -8571 
   -8533    -8537    -8545    -8545    -8553    -8559    -8546    -8544 
   -8583    -8654    -8706    -8692    -8623    -8549    -8518    -8567 
   -8665    -8721    -8681    -8581    -8490    -8475    -8554    -8649 
   -8704    -8731    -8730    -8692    -8657    -8630    -8571    -8505 
   -8494    -8529    -8579    -8631    -8654    -8634    -8592    -8542 
   -8503    -8515    -8591    -8702    -8799    -8830    -8777    -8675 
   -8560    -8479    -8460    -8475    -8495    -8545    -8625    -8700 
   -8748    -8758    -8714    -8619    -8529    -8492    -8526    -8621 
   -8712    -8729    -8662    -8548    -8432    -8386    -8446    -8545 
   -8608    -8642    -8665    -8683    -8704    -8712    -8694    -8672 
   -8677    -8685    -8662    -8613    -8559    -8537    -8563    -8618 
   -8657    -8648    -8607    -8572    -8564    -8575    -8587    -8590 
   -8592    -8591    -8590    -8613    -8657    -8681    -8656    -8592 
   -8525    -8479    -8471    -8514    -8602    -8691    -8727    -8711 
   -8669    -8645    -8667    -8702    -8695    -8622    -8511    -8434 
   -8438    -8484    -8540    -8606    -8662    -8681    -8658    -8606 
   -8567    -8583    -8625    -8642    -8633    -8629    -8653    -8692 
   -8733    -8766    -8766    -8719    -8644    -8569    -8533    -8541 
   -8556    -8560    -8569    -8577    -8571    -8560    -8553    -8537 
   -8509    -8498    -8523    -8561    -8584    -8607    -8637    -8656 
   -8672    -8707    -8745    -8748    -8707    -8634    -8564    -8537 
   -8550    -8563    -8564    -8576    -8592    -8621    -8660    -8667 
   -8631    -8603    -8595    -8577    -8548    -8519    -8515    -8553 
   -8604    -8646    -8688    -8723    -8733    -8723    -8699    -8650 
   -8599    -8567    -8556    -8564    -8564    -8552    -8592    -8691 
   -8723    -8644    -8548    -8491    -8463    -8465    -8498    -8563 
   -8673    -8796    -8838    -8768    -8656    -8571    -8529    -8521 
   -8519    -8496    -8456    -8444    -8511    -8637    -8739    -8780 
   -8770    -8730    -8673    -8622    -8594    -8599    -8622    -8622 
   -8591    -8563    -8573    -8607    -8631    -8646    -8645    -8610 
   -8565    -8548    -8553    -8561    -8563    -8565    -8583    -8608 
   -8625    -8630    -8640    -8667    -8679    -8644    -8588    -8560 
   -8550    -8548    -8576    -8641    -8706    -8727    -8694    -8635 
   -8603    -8607    -8610    -8579    -8540    -8510    -8482    -8483 
   -8538    -8600    -8631    -8654    -8667    -8640    -8610    -8621 
   -8629    -8611    -8617    -8662    -8716    -8739    -8733    -8719 
   -8718    -8718    -8683    -8591    -8502    -8480    -8491    -8494 
   -8510    -8549    -8564    -8544    -8527    -8536    -8560    -8603 
   -8645    -8660    -8650    -8641    -8657    -8692    -8702    -8671 
   -8631    -8615    -8610    -8577    -8515    -8495    -8559    -8644 
   -8673    -8650    -8619    -8599    -8598    -8622    -8657    -8680 
   -8671    -8633    -8586    -8545    -8530    -8540    -8553    -8568 
   -8594    -8615    -8608    -8604    -8630    -8640    -8587    -8511 
   -8483    -8533    -8635    -8735    -8806    -8856    -8891    -8897 
   -8843    -8704    -8509    -8325    -8205    -8149    -8133    -8135 
   -8191    -8344    -8545    -8711    -8816    -8883    -8922    -8912 
   -8856    -8795    -8768    -8791    -8857    -8930    -8985    -9009 
   -8957    -8787    -8533    -8280    -8109    -8044    -8058    -8132 
   -8303    -8563    -8807    -8931    -8946    -8922    -8860    -8719 
   -8536    -8390    -8341    -8390    -8475    -8553    -8637    -8730 
   -8780    -8749    -8656    -8532    -8426    -8397    -8440    -8505 
   -8567    -8637    -8712    -8780    -8839    -8874    -8869    -8824 
   -8733    -8594    -8441    -8320    -8278    -8337    -8456    -8568 
   -8633    -8635    -8618    -8635    -8675    -8702    -8716    -8723 
   -8703    -8638    -8522    -8413    -8387    -8460    -8598    -8784 
   -8977    -9066    -8977    -8750    -8509    -8357    -8326    -8370 
   -8425    -8494    -8631    -8816    -8932    -8896    -8723    -8494 
   -8301    -8205    -8205    -8284    -8424    -8592    -8770    -8937 
   -9042    -9049    -8961    -8807    -8627    -8464    -8334    -8244 
   -8205    -8256    -8414    -8622    -8777    -8808    -8734    -8644 
   -8596    -8579    -8604    -8708    -8865    -8972    -8969    -8869 
   -8731    -8652    -8671    -8699    -8629    -8459    -8267    -8136 
   -8105    -8154    -8245    -8361    -8506    -8675    -8829    -8904 
   -8900    -8877    -8850    -8758    -8588    -8437    -8425    -8554 
   -8702    -8752    -8702    -8646    -8665    -8739    -8800    -8797 
   -8712    -8549    -8355    -8190    -8114    -8163    -8314    -8521 
   -8725    -8862    -8927    -8958    -8958    -8914    -8857    -8842 
   -8845    -8792    -8657    -8496    -8376    -8322    -8302    -8272 
   -8241    -8278    -8429    -8638    -8812    -8905    -8895    -8766 
   -8563    -8375    -8294    -8364    -8568    -8819    -8982    -8970 
   -8792    -8552    -8375    -8329    -8378    -8476    -8614    -8770 
   -8866    -8833    -8699    -8564    -8490    -8487    -8552    -8641 
   -8692    -8689    -8660    -8637    -8633    -8641    -8654    -8661 
   -8625    -8540    -8448    -8406    -8449    -8548    -8642    -8706 
   -8731    -8694    -8602    -8536    -8536    -8545    -8515    -8488 
   -8532    -8652    -8785    -8876    -8922    -8939    -8891    -8750 
   -8568    -8442    -8432    -8487    -8503    -8440    -8365    -8361 
   -8434    -8534    -8592    -8587    -8575    -8610    -8675    -8723 
   -8739    -8723    -8699    -8679    -8642    -8592    -8567    -8595 
   -8648    -8688    -8721    -8745    -8725    -8634    -8487    -8343 
   -8278    -8326    -8452    -8599    -8729    -8827    -8900    -8924 
   -8858    -8707    -8548    -8463    -8457    -8484    -8506    -8540 
   -8608    -8665    -8645    -8576    -8540    -8556    -8592    -8617 
   -8619    -8596    -8552    -8519    -8509    -8514    -8557    -8627 
   -8672    -8680    -8692    -8722    -8749    -8770    -8802    -8838 
   -8822    -8712    -8541    -8388    -8336    -8399    -8505    -8588 
   -8637    -8661    -8658    -8610    -8507    -8403    -8368    -8407 
   -8464    -8517    -8603    -8738    -8870    -8930    -8892    -8784 
   -8679    -8630    -8630    -8648    -8687    -8727    -8699    -8561 
   -8374    -8240    -8235    -8349    -8522    -8684    -8795    -8835 
   -8804    -8725    -8635    -8598    -8653    -8762    -8822    -8758 
   -8596    -8422    -8329    -8347    -8415    -8483    -8546    -8591 
   -8619    -8662    -8715    -8750    -8769    -8758    -8692    -8602 
   -8527    -8503    -8572    -8714    -8810    -8780    -8669    -8569 
   -8530    -8527    -8514    -8475    -8433    -8426    -8475    -8544 
   -8587    -8614    -8658    -8700    -8688    -8619    -8560    -8564 
   -8603    -8622    -8622    -8633    -8653    -8676    -8714    -8765 
   -8789    -8750    -8672    -8599    -8548    -8509    -8475    -8461 
   -8475    -8509    -8552    -8575    -8575    -8591    -8637    -8691 
   -8719    -8715    -8721    -8760    -8775    -8711    -8592    -8487 
   -8441    -8445    -8440    -8407    -8403    -8488    -8652    -8837 
   -8969    -8995    -8922    -8787    -8614    -8457    -8382    -8418 
   -8513    -8576    -8571    -8537    -8548    -8617    -8688    -8710 
   -8672    -8583    -8483    -8425    -8436    -8498    -8569    -8618 
   -8642    -8653    -8656    -8661    -8679    -8692    -8672    -8617 
   -8567    -8565    -8615    -8683    -8731    -8748    -8735    -8685 
   -8595    -8509    -8461    -8459    -8519    -8621    -8677    -8642 
   -8561    -8513    -8513    -8521    -8522    -8540    -8602    -8703 
   -8788    -8796    -8716    -8595    -8514    -8518    -8564    -8590 
   -8586    -8586    -8622    -8706    -8802    -8857    -8842    -8756 
   -8621    -8475    -8368    -8340    -8388    -8480    -8565    -8630 
   -8681    -8706    -8703    -8707    -8726    -8722    -8675    -8615 
   -8580    -8580    -8577    -8540    -8503    -8515    -8565    -8630 
   -8687    -8707    -8676    -8603    -8509    -8422    -8371    -8371 
   -8422    -8499    -8569    -8604    -8614    -8634    -8683    -8753 
   -8847    -8931    -8935    -8841    -8702    -8581    -8517    -8518 
   -8567    -8619    -8657    -8688    -8698    -8652    -8563    -8502 
   -8522    -8617    -8737    -8818    -8802    -8680    -8513    -8370 
   -8270    -8225    -8262    -8365    -8480    -8549    -8571    -8599 
   -8664    -8741    -8789    -8804    -8804    -8788    -8745    -8685 
   -8642    -8626    -8621    -8634    -8673    -8710    -8698    -8629 
   -8526    -8437    -8415    -8487    -8615    -8723    -8760    -8710 
   -8591    -8437    -8317    -8283    -8360    -8515    -8664    -8741 
   -8757    -8757    -8762    -8757    -8719    -8662    -8619    -8610 
   -8611    -8600    -8594    -8607    -8622    -8625    -8627    -8648 
   -8657    -8606    -8502    -8399    -8355    -8394    -8494    -8611 
   -8712    -8773    -8779    -8748    -8722    -8711    -8695    -8677 
   -8668    -8654    -8629    -8602    -8563    -8523    -8526    -8584 
