Origin Time       2025/03/30 10:46:00
Lat.              32.923
Long.             130.372
Depth. (km)       11
Mag.              3.4
Station Code      KMMH07
Station Lat.      32.6234
Station Long.     130.5584
Station Height(m) -278
Record Time       2025/03/30 10:46:32
Sampling Freq(Hz) 100Hz
Duration Time(s)  120
Dir.              1
Scale Factor      2942(gal)/8224139
Max. Acc. (gal)   0.353
Last Correction   2025/03/30 10:46:32
Memo.             
[...]
  174366   174367   174370   174364   174363   174368   174367   174363 
  174363   174366   174366   174366   174366   174364   174363   174363 
  174364   174366   174366   174363   174366   174366   174363   174366 
  174367   174364   174364   174364   174364   174364   174363   174364 
  174367   174366   174363   174364   174366   174367   174364   174361 
  174366   174366   174363   174364   174364   174361   174361   174366 
  174364   174361   174363   174364   174366   174364   174363   174364 
  174364   174364   174366   174366   174364   174364   174363   174361 
  174363   174364   174363   174361   174363   174366   174366   174364 
  174366   174364   174361   174363   174366   174364   174363   174366 
  174366   174363   174364   174364   174364   174367   174364   174360 
  174361   174364   174366   174363   174364   174367   174364   174363 
  174366   174364   174363   174366   174367   174364   174366   174367 
  174364   174363   174366   174363   174361   174364   174364   174366 
  174367   174364   174361   174361   174361   174363   174366   174364 
  174364   174364   174364   174364   174364   174364   174364   174364 
  174363   174366   174370   174366   174363   174364   174363   174363 
  174367   174367   174363   174361   174363   174364   174366   174367 
  174366   174363   174366   174367   174361   174360   174364   174368 
  174368   174364   174363   174363   174363   174364   174363   174364 
  174367   174367   174364   174364   174364   174363   174363   174363 
  174366   174364   174363   174366   174367   174363   174361   174366 
  174368   174366   174366   174367   174366   174363   174361   174364 
  174366   174364   174363   174364   174363   174361   174363   174363 
  174364   174366   174366   174364   174363   174363   174366   174366 
  174363   174364   174366   174364   174364   174364   174363   174363 
  174361   174364   174366   174361   174361   174364   174361   174363 
  174367   174366   174363   174364   174364   174364   174364   174363 
  174363   174364   174366   174366   174366   174363   174360   174361 
  174361   174363   174364   174366   174363   174363   174364   174363 
  174363   174366   174364   174363   174364   174364   174364   174366 
  174366   174363   174363   174364   174364   174364   174364   174364 
  174366   174366   174366   174366   174366   174364   174363   174363 
  174364   174366   174366   174364   174364   174367   174366   174364 
  174364   174363   174363   174363   174361   174361   174366   174366 
  174363   174361   174363   174364   174363   174364   174364   174361 
  174363   174366   174364   174363   174363   174364   174364   174364 
  174366   174367   174367   174366   174363   174363   174364   174363 
  174361   174364   174366   174364   174364   174364   174366   174367 
  174366   174364   174364   174367   174366   174364   174364   174364 
  174364   174366   174367   174366   174367   174368   174366   174364 
  174363   174364   174366   174366   174367   174366   174364   174364 
  174363   174363   174364   174364   174364   174364   174364   174367 
  174367   174364   174364   174364   174366   174366   174364   174364 
  174364   174363   174364   174366   174363   174364   174366   174366 
  174366   174366   174364   174364   174366   174366   174363   174363 
  174366   174364   174363   174364   174366   174364   174366   174366 
  174363   174364   174366   174364   174364   174364   174363   174364 
  174364   174363   174364   174364   174361   174361   174363   174363 
  174363   174367   174367   174363   174363   174366   174364   174363 
  174366   174366   174364   174364   174367   174366   174364   174363 
  174363   174364   174363   174363   174366   174366   174364   174367 
  174366   174364   174364   174366   174366   174364   174366   174366 
  174366   174364   174364   174366   174364   174364   174366   174366 
  174364   174363   174366   174367   174366   174364   174366   174366 
  174366   174367   174367   174366   174364   174366   174367   174364 
  174363   174364   174364   174363   174366   174366   174363   174364 
  174366   174364   174366   174368   174368   174366   174364   174366 
  174366   174364   174366   174366   174366   174364   174364   174367 
  174368   174366   174364   174366   174366   174364   174366   174367 
  174366   174366   174366   174364   174364   174366   174363   174361 
  174364   174366   174364   174364   174364   174364   174364   174364 
  174361   174363   174364   174364   174366   174366   174366   174363 
  174364   174367   174367   174364   174367   174367   174367   174368 
  174366   174364   174367   174366   174363   174366   174366   174364 
  174366   174366   174364   174366   174367   174363   174361   174363 
  174366   174364   174363   174363   174364   174366   174364   174363 
  174363   174367   174368   174364   174364   174367   174366   174363 
  174363   174364   174363   174364   174366   174366   174364   174363 
  174363   174363   174364   174364   174363   174364   174366   174364 
  174363   174364   174364   174364   174363   174361   174361   174363 
  174364   174366   174366   174363   174363   174364   174364   174363 
  174364   174366   174366   174364   174366   174364   174361   174361 
  174364   174364   174361   174361   174364   174364   174363   174361 
  174363   174366   174366   174360   174361   174366   174363   174363 
  174364   174361   174363   174367   174364   174361   174364   174363 
  174361   174364   174367   174364   174361   174361   174363   174363 
  174363   174364   174364   174363   174364   174366   174366   174364 
  174364   174366   174366   174364   174363   174364   174363   174364 
  174367   174366   174363   174366   174367   174364   174364   174366 
  174366   174364   174363   174361   174363   174367   174370   174367 
  174364   174366   174366   174366   174366   174364   174364   174367 
  174367   174366   174367   174366   174363   174364   174366   174364 
  174363   174364   174366   174366   174366   174364   174364   174364 
  174363   174361   174363   174364   174366   174364   174366   174366 
  174364   174361   174363   174366   174364   174363   174364   174364 
  174366   174367   174366   174364   174363   174364   174364   174364 
  174367   174368   174366   174364   174367   174367   174366   174364 
  174366   174366   174364   174366   174366   174361   174364   174367 
  174366   174367   174368   174367   174366   174364   174364   174364 
  174364   174366   174368   174368   174366   174366   174367   174366 
  174366   174367   174366   174363   174366   174366   174366   174366 
  174367   174367   174366   174361   174360   174364   174366   174364 
  174366   174366   174363   174366   174366   174363   174366   174367 
  174364   174367   174366   174363   174364   174364   174363   174363 
  174364   174366   174363   174363   174367   174364   174360   174361 
  174363   174360   174360   174364   174366   174363   174364   174367 
  174366   174366   174367   174367   174363   174361   174364   174364 
  174364   174364   174361   174363   174366   174363   174360   174359 
  174360   174364   174364   174366   174366   174364   174363   174363 
  174364   174363   174363   174363   174361   174361   174364   174363 
  174363   174366   174363   174360   174360   174364   174366   174363 
  174363   174363   174363   174361   174363   174363   174363   174363 
  174366   174364   174363   174363   174363   174361   174363   174363 
  174363   174364   174363   174364   174366   174364   174364   174364 
  174361   174361   174364   174363   174363   174364   174364   174364 
  174366   174366   174364   174364   174364   174366   174364   174363 
  174364   174363   174363   174366   174367   174367   174364   174366 
  174364   174360   174361   174366   174367   174366   174366   174367 
  174366   174361   174360   174363   174363   174363   174367   174366 
  174360   174363   174366   174364   174364   174364   174364   174364 
  174364   174364   174364   174364   174364   174363   174363   174363 
  174363   174364   174367   174367   174363   174366   174367   174363 
  174363   174368   174366   174363   174363   174363   174361   174361 
  174364   174366   174366   174366   174366   174363   174363   174366 
  174366   174361   174363   174364   174361   174361   174364   174361 
  174359   174364   174364   174361   174364   174367   174363   174360 
  174360   174361   174361   174364   174364   174360   174361   174364 
  174364   174361   174360   174364   174367   174363   174363   174366 
  174366   174363   174363   174364   174361   174359   174355   174345 
  174334   174326   174321   174328   174352   174378   174393   174387 
  174364   174351   174376   174409   174393   174366   174401   174467 
  174472   174395   174299   174270   174310   174371   174426   174430 
  174349   174274   174287   174340   174406   174518   174590   174479 
  174202   173978   174012   174226   174394   174491   174595   174613 
  174495   174407   174383   174251   174091   174132   174241   174299 
  174515   174769   174685   174442   174366   174290   174155   174187 
  174317   174359   174414   174488   174428   174330   174345   174374 
  174366   174380   174370   174337   174317   174262   174263   174398 
  174488   174455   174410   174363   174295   174268   174287   174330 
  174380   174418   174436   174422   174375   174349   174359   174375 
  174378   174337   174317   174393   174407   174299   174321   174440 
  174403   174360   174460   174465   174340   174283   174236   174191 
  174313   174434   174398   174413   174475   174413   174370   174379 
  174278   174224   174366   174441   174328   174297   174424   174457 
  174370   174348   174372   174352   174382   174465   174422   174290 
  174256   174295   174364   174463   174487   174418   174364   174316 
  174253   174243   174276   174328   174393   174371   174309   174407 
  174498   174359   174283   174398   174378   174282   174409   174510 
  174402   174429   174505   174302   174245   174532   174474   174098 
  174186   174475   174341   174245   174460   174440   174286   174426 
  174436   174166   174235   174483   174344   174191   174366   174467 
  174426   174445   174370   174244   174314   174411   174368   174317 
  174309   174380   174526   174530   174359   174256   174283   174337 
  174406   174453   174398   174337   174406   174479   174422   174347 
  174343   174332   174317   174340   174278   174155   174214   174386 
  174442   174441   174448   174436   174444   174424   174305   174243 
  174359   174459   174395   174326   174360   174357   174303   174351 
  174437   174433   174418   174401   174279   174179   174226   174321 
  174433   174540   174475   174301   174255   174332   174413   174452 
  174379   174259   174294   174434   174480   174429   174376   174351 
  174367   174394   174379   174349   174351   174366   174339   174266 
  174216   174266   174388   174471   174476   174521   174515   174301 
  174166   174309   174379   174322   174451   174525   174276   174193 
  174394   174343   174218   174436   174546   174325   174324   174478 
  174297   174164   174399   174448   174199   174172   174395   174541 
  174544   174499   174478   174428   174317   174341   174486   174406 
  174190   174222   174386   174424   174452   174483   174384   174317 
  174321   174160   174016   174218   174501   174542   174479   174430 
  174361   174339   174380   174359   174275   174268   174287   174301 
  174428   174523   174447   174387   174375   174317   174339   174410 
  174347   174302   174464   174521   174293   174231   174465   174505 
  174298   174252   174344   174382   174441   174460   174328   174259 
  174366   174403   174298   174271   174305   174231   174190   174360 
  174552   174534   174407   174356   174382   174386   174310   174275 
  174422   174529   174388   174267   174301   174328   174387   174433 
  174348   174351   174455   174363   174224   174337   174436   174344 
  174363   174433   174343   174352   174465   174366   174262   174406 
  174469   174356   174383   174438   174314   174294   174418   174351 
  174229   174310   174343   174278   174394   174474   174297   174274 
  174503   174505   174283   174290   174469   174445   174294   174289 
  174353   174337   174320   174344   174320   174305   174421   174530 
  174461   174359   174398   174401   174251   174212   174347   174386 
  174363   174486   174560   174380   174258   174386   174445   174310 
  174245   174258   174222   174279   174418   174447   174421   174426 
  174375   174316   174318   174282   174309   174507   174571   174428 
  174409   174451   174279   174110   174206   174351   174336   174329 
  174436   174499   174411   174286   174303   174399   174344   174249 
  174324   174399   174310   174262   174388   174455   174355   174356 
  174438   174299   174175   174393   174534   174314   174224   174370 
  174394   174490   174742   174725   174528   174478   174415   174334 
  174403   174367   174158   174204   174382   174220   174054   174310 
  174568   174534   174491   174426   174162   174010   174217   174407 
  174322   174249   174360   174417   174333   174282   174376   174640 
  174847   174673   174329   174309   174461   174326   174087   174090 
  174069   173854   173842   174128   174216   174063   174343   175080 
  175352   174926   174505   174376   174349   174422   174549   174525 
  174332   174143   174096   174205   174322   174245   174050   174046 
  174285   174544   174619   174422   174267   174565   174938   174742 
  174271   174139   174190   174170   174279   174371   174194   174275 
  174769   174815   174256   173936   173997   174037   174212   174495 
  174409   174216   174407   174583   174492   174474   174388   174205 
  174480   174954   174796   174235   173963   173977   174101   174409 
  174737   174703   174279   173898   173958   174421   174827   174714 
  174194   173875   174064   174438   174588   174611   174772   174780 
  174359   174009   174060   174231   174424   174532   174303   174090 
  174297   174414   174059   173986   174573   174852   174441   174249 
  174440   174361   174183   174360   174582   174540   174475   174496 
  174456   174386   174317   174193   174141   174220   174310   174490 
  174730   174671   174289   174013   173971   173990   174129   174424 
  174729   174943   174834   174413   174264   174402   174237   174027 
  174186   174253   174141   174318   174521   174326   174116   174266 
  174519   174557   174375   174177   174241   174557   174681   174464 
  174309   174339   174322   174380   174505   174271   173993   174349 
  174756   174457   174096   174266   174517   174583   174630   174582 
  174359   174150   174147   174363   174514   174301   174070   174258 
  174440   174228   174091   174309   174479   174465   174498   174475 
  174282   174279   174572   174596   174289   174313   174650   174661 
  174294   173994   174069   174420   174557   174351   174314   174483 
  174359   174139   174267   174463   174434   174361   174321   174285 
  174314   174401   174478   174390   174143   174151   174471   174556 
  174361   174349   174457   174418   174320   174256   174320   174538 
  174645   174502   174291   174225   174366   174496   174380   174235 
  174322   174413   174313   174247   174301   174298   174247   174280 
  174387   174455   174357   174154   174105   174260   174436   174548 
  174653   174688   174513   174248   174140   174221   174447   174621 
  174453   174216   174236   174191   174127   174415   174568   174325 
  174467   174838   174519   174109   174374   174492   174217   174406 
  174675   174279   174008   174289   174324   174147   174303   174405 
  174301   174426   174517   174289   174231   174375   174297   174233 
  174420   174546   174538   174521   174422   174310   174295   174195 
  174071   174276   174567   174455   174198   174210   174401   174571 
  174573   174380   174299   174464   174517   174376   174391   174476 
  174380   174366   174429   174216   174075   174371   174545   174359 
  174314   174356   174190   174245   174641   174677   174322   174241 
  174322   174198   174222   174430   174403   174343   174502   174536 
  174348   174274   174341   174343   174255   174182   174233   174370 
  174436   174465   174564   174540   174241   174023   174220   174490 
  174434   174353   174542   174625   174355   174145   174226   174321 
  174330   174372   174409   174414   174455   174418   174258   174251 
  174420   174478   174495   174571   174436   174154   174140   174287 
  174255   174282   174510   174522   174336   174332   174356   174245 
  174282   174457   174536   174523   174403   174183   174144   174317 
  174388   174393   174568   174707   174556   174329   174233   174202 
  174262   174415   174441   174279   174172   174220   174328   174425 
  174447   174405   174352   174298   174286   174329   174364   174391 
  174428   174425   174421   174457   174409   174353   174455   174414 
  174208   174324   174555   174378   174181   174341   174407   174255 
  174316   174425   174309   174356   174590   174542   174361   174393 
  174424   174322   174278   174280   174272   174329   174399   174410 
  174380   174298   174297   174478   174503   174247   174209   174402 
  174325   174198   174397   174546   174455   174411   174403   174294 
  174225   174214   174177   174218   174341   174379   174372   174456 
  174515   174445   174441   174577   174579   174372   174241   174297 
  174337   174321   174371   174405   174344   174340   174410   174432 
  174445   174445   174343   174263   174293   174255   174148   174237 
  174467   174474   174318   174324   174380   174330   174398   174575 
  174569   174438   174361   174289   174270   174345   174345   174274 
  174329   174395   174271   174225   174447   174575   174448   174283 
  174166   174172   174364   174452   174317   174313   174442   174349 
  174213   174356   174495   174448   174514   174607   174411   174212 
  174330   174457   174361   174299   174375   174394   174322   174291 
  174340   174367   174329   174372   174474   174405   174290   174340 
  174351   174262   174349   174505   174411   174285   174378   174434 
  174325   174348   174475   174367   174167   174213   174336   174298 
  174295   174422   174424   174280   174263   174370   174460   174542 
  174517   174321   174228   174357   174451   174430   174434   174422 
  174357   174390   174499   174487   174359   174305   174322   174291 
  174303   174393   174322   174183   174326   174549   174475   174285 
  174231   174258   174363   174469   174405   174305   174330   174343 
  174341   174420   174383   174224   174247   174371   174366   174386 
  174482   174442   174360   174432   174511   174447   174321   174237 
  174239   174326   174378   174343   174359   174453   174484   174441 
  174414   174379   174320   174294   174274   174239   174263   174367 
  174463   174507   174486   174356   174225   174249   174297   174235 
  174267   174434   174487   174429   174403   174379   174371   174442 
  174494   174467   174429   174374   174320   174340   174340   174268 
