Origin Time       2025/03/30 10:46:00
Lat.              32.923
Long.             130.372
Depth. (km)       11
Mag.              3.4
Station Code      KMMH07
Station Lat.      32.6234
Station Long.     130.5584
Station Height(m) 22
Record Time       2025/03/30 10:46:32
Sampling Freq(Hz) 100Hz
Duration Time(s)  120
Dir.              4
Scale Factor      7845(gal)/8223790
Max. Acc. (gal)   2.176
Last Correction   2025/03/30 10:46:32
Memo.             
[...]
   11830    11824    11823    11831    11838    11835    11832    11838 
   11832    11821    11828    11839    11834    11832    11836    11831 
   11830    11838    11836    11824    11824    11834    11834    11834 
   11838    11838    11831    11827    11834    11838    11830    11828 
   11835    11834    11830    11834    11832    11831    11830    11827 
   11830    11831    11836    11839    11828    11827    11838    11830 
   11823    11834    11835    11834    11834    11831    11827    11834 
   11839    11834    11828    11828    11834    11832    11830    11839 
   11842    11826    11821    11838    11840    11828    11828    11836 
   11835    11831    11827    11831    11835    11832    11832    11836 
   11836    11830    11830    11836    11834    11831    11840    11840 
   11826    11824    11834    11831    11828    11838    11840    11835 
   11831    11828    11827    11832    11834    11834    11836    11835 
   11832    11832    11830    11827    11834    11839    11831    11824 
   11831    11840    11835    11826    11821    11831    11839    11834 
   11823    11831    11840    11836    11830    11826    11823    11836 
   11847    11834    11828    11838    11830    11821    11828    11834 
   11831    11832    11830    11826    11835    11838    11826    11824 
   11827    11828    11839    11842    11828    11824    11830    11828 
   11830    11838    11835    11826    11827    11835    11842    11838 
   11827    11817    11823    11840    11844    11827    11815    11827 
   11844    11842    11832    11828    11828    11831    11831    11838 
   11840    11827    11820    11838    11842    11832    11827    11828 
   11834    11838    11831    11828    11842    11840    11824    11830 
   11838    11827    11826    11839    11842    11830    11819    11826 
   11839    11839    11830    11826    11830    11830    11830    11839 
   11843    11830    11819    11830    11842    11834    11828    11834 
   11838    11834    11824    11826    11836    11836    11830    11832 
   11843    11835    11823    11835    11842    11824    11821    11834 
   11835    11834    11835    11834    11832    11830    11830    11832 
   11839    11835    11826    11824    11834    11840    11839    11827 
   11823    11827    11832    11836    11838    11835    11834    11821 
   11820    11836    11838    11830    11835    11835    11830    11834 
   11831    11827    11834    11840    11834    11821    11826    11843 
   11838    11821    11826    11836    11830    11828    11843    11846 
   11830    11824    11827    11832    11834    11835    11838    11831 
   11826    11836    11838    11827    11824    11831    11839    11840 
   11832    11826    11827    11834    11838    11835    11830    11827 
   11827    11828    11835    11842    11838    11824    11826    11839 
   11838    11828    11828    11831    11838    11843    11834    11819 
   11819    11828    11838    11847    11843    11824    11815    11831 
   11842    11835    11828    11831    11835    11831    11831    11842 
   11831    11816    11834    11848    11836    11820    11817    11834 
   11850    11838    11824    11824    11820    11831    11853    11846 
   11820    11808    11823    11857    11865    11830    11803    11817 
   11843    11847    11842    11831    11817    11827    11844    11831 
   11819    11830    11835    11840    11844    11819    11804    11827 
   11851    11855    11831    11811    11826    11832    11831    11854 
   11846    11800    11808    11855    11857    11831    11824    11817 
   11813    11840    11854    11828    11823    11835    11828    11830 
   11843    11832    11811    11827    11850    11836    11824    11831 
   11832    11835    11836    11821    11812    11823    11842    11857 
   11844    11817    11816    11826    11830    11853    11855    11817 
   11808    11832    11842    11843    11835    11816    11824    11847 
   11838    11820    11831    11839    11824    11824    11843    11839 
   11811    11813    11846    11853    11847    11836    11804    11805 
   11855    11857    11827    11823    11820    11832    11862    11835 
   11796    11821    11854    11848    11842    11831    11808    11812 
   11850    11862    11842    11816    11799    11821    11865    11859 
   11824    11808    11808    11832    11865    11857    11820    11801 
   11820    11854    11851    11824    11817    11826    11840    11865 
   11850    11796    11788    11847    11882    11850    11815    11811 
   11809    11836    11877    11854    11800    11793    11834    11870 
   11863    11821    11797    11812    11844    11862    11847    11808 
   11797    11835    11869    11859    11820    11789    11809    11861 
   11873    11832    11803    11811    11828    11854    11865    11826 
   11794    11821    11857    11855    11826    11801    11812    11850 
   11869    11844    11804    11799    11830    11857    11854    11836 
   11821    11809    11819    11851    11859    11834    11813    11811 
   11830    11855    11846    11819    11816    11830    11843    11843 
   11823    11811    11826    11853    11859    11827    11797    11813 
   11848    11867    11850    11799    11789    11840    11867    11853 
   11828    11803    11807    11847    11861    11836    11823    11823 
   11832    11846    11838    11815    11815    11831    11857    11866 
   11826    11790    11807    11843    11874    11859    11804    11786 
   11823    11857    11862    11836    11794    11799    11855    11882 
   11847    11804    11800    11827    11857    11855    11820    11797 
   11816    11861    11878    11836    11790    11796    11828    11875 
   11892    11819    11754    11793    11871    11896    11851    11788 
   11772    11823    11888    11884    11812    11776    11813    11857 
   11865    11842    11799    11799    11850    11878    11853    11803 
   11782    11823    11870    11877    11836    11784    11790    11853 
   11885    11859    11803    11781    11828    11871    11866    11830 
   11788    11801    11865    11884    11842    11796    11784    11826 
   11880    11877    11823    11780    11793    11848    11881    11858 
   11811    11792    11817    11855    11863    11838    11809    11815 
   11847    11859    11836    11812    11808    11831    11862    11862 
   11824    11797    11820    11854    11854    11832    11811    11804 
   11830    11870    11867    11815    11786    11820    11863    11866 
   11836    11803    11805    11836    11862    11859    11821    11792 
   11815    11853    11862    11842    11812    11807    11832    11853 
   11853    11832    11807    11813    11848    11855    11826    11805 
   11817    11844    11857    11842    11808    11803    11834    11854 
   11854    11838    11808    11801    11832    11857    11847    11831 
   11817    11813    11840    11865    11839    11805    11811    11835 
   11854    11851    11817    11804    11836    11857    11842    11824 
   11816    11815    11842    11870    11839    11800    11820    11848 
   11840    11836    11840    11821    11812    11842    11861    11835 
   11808    11813    11831    11846    11846    11834    11819    11816 
   11839    11854    11826    11812    11835    11844    11840    11838 
   11820    11815    11839    11855    11842    11821    11815    11824 
   11842    11847    11836    11824    11811    11824    11857    11854 
   11824    11808    11821    11844    11847    11840    11830    11813 
   11817    11844    11848    11832    11826    11826    11832    11843 
   11838    11824    11821    11832    11844    11836    11824    11824 
   11827    11840    11846    11832    11826    11817    11821    11848 
   11853    11830    11817    11821    11834    11846    11838    11820 
   11820    11838    11850    11842    11820    11816    11830    11846 
   11847    11828    11817    11826    11835    11848    11847    11823 
   11811    11817    11840    11855    11839    11817    11815    11824 
   11842    11850    11831    11816    11831    11844    11838    11828 
   11826    11826    11832    11840    11835    11820    11820    11836 
   11844    11838    11821    11816    11827    11840    11846    11836 
   11824    11824    11830    11835    11842    11836    11823    11824 
   11839    11846    11832    11821    11827    11836    11843    11839 
   11823    11817    11835    11848    11842    11823    11815    11820 
   11831    11842    11831    11807    11801    11816    11830    11834 
   11830    11830    11840    11857    11867    11858    11830    11815 
   11839    11871    11870    11840    11820    11823    11842    11847 
   11816    11773    11767    11797    11836    11877    11911    11907 
   11875    11839    11777    11707    11709    11820    11921    11871 
   11730    11691    11853    12104    12199    12059    11801    11507 
   11310    11399    11703    12082    12399    12360    12009    11731 
   11570    11439    11442    11569    11793    12109    12274    12206 
   12110    11966    11657    11350    11250    11458    11919    12325 
   12411    12191    11839    11565    11468    11545    11716    11838 
   11935    12023    11975    11958    12013    11834    11605    11561 
   11557    11743    12051    12123    12113    12037    11743    11514 
   11473    11577    11850    12021    11990    11997    12028    11969 
   11838    11632    11526    11665    11811    11839    11912    12025 
   12062    11975    11780    11630    11688    11830    11857    11776 
   11734    11853    12052    12108    11928    11676    11583    11645 
   11740    11898    11977    11861    11866    11993    11923    11797 
   11715    11588    11618    11796    11946    12044    11931    11765 
   11835    11888    11875    11947    11878    11731    11758    11781 
   11738    11749    11718    11746    11970    12121    12087    11939 
   11622    11425    11576    11785    11927    12036    11996    11915 
   11967    12004    11880    11724    11645    11588    11654    11823 
   11866    11920    12029    11983    11938    11902    11736    11657 
   11651    11584    11580    11696    11986    12336    12395    12108 
   11665    11395    11458    11553    11682    11978    12082    12005 
   12077    12125    11973    11753    11537    11461    11664    11885 
   11871    11778    11831    12015    12069    11848    11669    11805 
   12017    12050    11961    11757    11516    11453    11535    11743 
   12071    12214    12083    11892    11704    11616    11637    11654 
   11866    12171    12116    11886    11786    11686    11641    11755 
   11893    11990    11951    11732    11662    11927    12132    11994 
   11701    11449    11500    11897    12083    11896    11740    11707 
   11761    11920    11966    11870    11821    11803    11831    11958 
   11965    11804    11704    11761    11924    12052    11978    11747 
   11578    11647    11919    12101    11996    11705    11523    11634 
   11816    11804    11747    11788    11808    11842    11971    12086 
   12056    11880    11684    11630    11747    11923    12002    11955 
   11882    11858    11774    11584    11569    11827    12091    12166 
   11939    11587    11503    11657    11812    11916    11954    11950 
   11975    12015    11902    11645    11607    11826    11940    11915 
   11866    11820    11786    11746    11788    11861    11784    11740 
   11839    11901    11911    11796    11615    11726    11973    11956 
   11807    11727    11754    11898    11948    11826    11859    11992 
   11915    11797    11851    12046    12124    11777    11311    11291 
   11728    12237    12411    12116    11646    11468    11628    11824 
   11967    11907    11485    11298    11753    12208    12267    12125 
   11839    11599    11673    11861    11869    11763    11641    11562 
   11832    12375    12534    12151    11574    11128    11241    11844 
   12185    12025    11794    11758    11875    11956    11873    11769 
   11732    11730    11927    12162    11947    11545    11592    11967 
   12185    12062    11627    11326    11601    11950    11961    11952 
   11823    11570    11703    12016    12081    12006    11786    11506 
   11584    12025    12380    12240    11713    11384    11446    11626 
   11843    12016    11889    11646    11739    12116    12330    12147 
   11699    11352    11348    11654    12031    12124    11916    11808 
   11908    12062    12170    11938    11435    11245    11411    11738 
   12278    12595    12276    11731    11389    11368    11635    11840 
   11816    11830    12012    12175    12129    11890    11551    11341 
   11546    11982    12110    11875    11731    11781    11834    11939 
   12015    11920    11824    11767    11731    11824    11867    11696 
   11468    11414    11776    12376    12561    12218    11722    11257 
   11159    11588    12005    12147    12164    11934    11713    11846 
   11886    11668    11581    11697    12071    12576    12611    12197 
   11871    11626    11376    11245    11163    11237    11711    12324 
   12650    12600    12280    11861    11392    10939    10887    11299 
   11732    12148    12656    12943    12714    11974    11079    10605 
   10879    11716    12480    12726    12634    12395    12087    11708 
   10947    10030     9771    10424    11677    12931    13431    13018 
   12399    12228    12349    12195    11624    11043    10940    11554 
   12529    13086    12931    12208    11226    10752    11083    11426 
   11288    11010    11140    12141    13559    14112    13365    11898 
   10547    10057    10390    10887    11330    11988    12887    13486 
   13153    11959    10648    10003    10435    11665    12799    13026 
   12453    11946    11803    11759    11851    11970    11951    12124 
   12424    12266    11693    11250    11277    11800    12337    12214 
   11473    10802    10723    11349    12253    12587    12197    11753 
   11634    11664    11608    11485    11470    11692    12235    12820 
   12908    12422    11678    11124    11097    11450    12028    12695 
   12881    12361    11547    10774    10354    10658    11577    12491 
   12927    12899    12564    12012    11430    11076    10978    11021 
   11385    12222    12961    13016    12576    11902    11172    10787 
   10785    11006    11485    12063    12712    13374    13336    12347 
   11236    10655    10602    11036    11709    12075    12137    12345 
   12637    12495    11728    10851    10579    11021    11750    12559 
   13279    13321    12479    11421    10789    10717    11230    12108 
   12644    12409    11653    10987    11128    12017    12631    12406 
   11830    11531    11601    11738    11707    11615    11657    11695 
   11680    11931    12348    12514    12317    11907    11745    11958 
   11943    11641    11476    11434    11610    11916    11781    11391 
   11302    11483    11940    12530    12613    12085    11534    11337 
   11522    11924    12225    12345    12318    11919    11342    11215 
   11446    11550    11610    11894    12428    12838    12552    11807 
   11361    11337    11595    11867    11719    11477    11681    12144 
   12573    12526    11659    10821    10953    11736    12513    12868 
   12528    11724    10959    10578    10893    11700    12240    12321 
   12349    12498    12505    12048    11306    10723    10650    11384 
   12565    13217    12954    12205    11488    11110    11215    11620 
   11965    12202    12253    11909    11485    11229    11053    11245 
   11745    12070    12410    12765    12587    12087    11739    11475 
   11470    11835    12071    12054    11956    11695    11470    11475 
   11404    11384    11875    12541    12735    12525    12102    11456 
   11020    11074    11294    11638    12164    12420    12236    12012 
   11881    11685    11499    11502    11607    11701    11893    12177 
   12320    12094    11529    11080    11043    11232    11649    12302 
   12811    12943    12619    11797    11014    10944    11514    12158 
   12449    12360    12170    12050    11943    11731    11411    11152 
   11151    11529    12162    12560    12386    11851    11358    11157 
   11337    11707    11908    11992    12264    12556    12536    12225 
   11718    11203    11047    11242    11543    11908    12191    12280 
   12297    12050    11449    11030    11183    11777    12418    12703 
   12528    12036    11461    11106    11196    11676    12168    12332 
   12145    11854    11711    11668    11596    11619    11659    11520 
   11479    11766    12117    12356    12498    12383    11951    11476 
   11248    11373    11695    11929    12074    12212    12212    12120 
   12150    12121    11763    11307    11145    11450    11996    12171 
   11824    11493    11492    11681    11889    11897    11641    11542 
   11940    12552    12884    12634    11889    11155    10905    11256 
   11971    12448    12255    11786    11692    11932    11988    11639 
   11138    10844    11002    11622    12337    12660    12457    12006 
   11700    11720    11885    11994    12044    11962    11812    11826 
   11924    11928    11838    11674    11495    11368    11404    11684 
   12016    12199    12248    12210    12174    12090    11734    11275 
   11113    11275    11751    12378    12596    12274    11800    11454 
   11373    11569    11823    11974    12079    12090    11962    11854 
   11769    11668    11715    11888    11927    11766    11565    11516 
   11708    11992    12114    11956    11695    11674    11956    12291 
   12407    12128    11615    11252    11218    11487    11855    12047 
   12109    12213    12224    12006    11688    11430    11329    11475 
   11785    11982    11959    11880    11874    11884    11800    11673 
   11651    11799    12069    12271    12185    11839    11523    11476 
   11712    12015    12077    11898    11816    11928    12046    12085 
   12021    11789    11466    11226    11164    11323    11696    12175 
   12503    12382    11873    11381    11244    11557    12087    12442 
   12426    12098    11732    11572    11572    11658    11797    11851 
   11885    12055    12216    12187    11952    11589    11346    11385 
   11562    11773    12052    12268    12235    11954    11635    11534 
   11668    11774    11712    11632    11643    11726    11892    12086 
   12144    11990    11699    11476    11529    11847    12166    12186 
   11943    11820    11985    12108    11890    11493    11295    11531 
   12040    12364    12263    11924    11686    11686    11777    11769 
   11692    11753    11920    11950    11815    11662    11603    11654 
   11788    11923    11894    11732    11639    11716    11928    12027 
   11900    11765    11755    11881    12063    12116    11971    11709 
   11554    11688    11985    12205    12182    11890    11550    11418 
   11566    11839    11985    11950    11809    11630    11612    11869 
   12187    12306    12125    11703    11319    11267    11503    11828 
   12097    12204    12185    12135    12043    11917    11772    11561 
   11399    11441    11646    11902    12064    11981    11777    11673 
   11627    11627    11774    11950    12073    12213    12263    12135 
   11921    11650    11449    11506    11711    11908    12051    12037 
   11947    11932    11889    11738    11550    11403    11443    11712 
