Origin Time       2025/03/30 10:46:00
Lat.              32.923
Long.             130.372
Depth. (km)       11
Mag.              3.4
Station Code      KMMH03
Station Lat.      32.9984
Station Long.     130.8301
Station Height(m) -22
Record Time       2025/03/30 10:46:34
Sampling Freq(Hz) 100Hz
Duration Time(s)  120
Dir.              2
Scale Factor      2942(gal)/8224139
Max. Acc. (gal)   0.098
Last Correction   2025/03/30 10:46:34
Memo.             
   37918    37920    37918    37918    37917    37920    37922    37920 
   37918    37917    37916    37920    37921    37917    37920    37921 
   37918    37920    37920    37920    37921    37920    37918    37918 
   37920    37921    37920    37920    37920    37918    37918    37920 
   37917    37918    37920    37918    37918    37918    37920    37920 
   37920    37921    37921    37920    37920    37920    37920    37920 
   37917    37916    37917    37917    37920    37920    37920    37920 
   37920    37918    37920    37918    37917    37920    37920    37917 
   37920    37921    37917    37917    37921    37921    37918    37918 
   37918    37918    37920    37920    37918    37921    37921    37918 
   37921    37921    37918    37918    37918    37918    37918    37918 
   37920    37918    37917    37918    37920    37918    37918    37917 
   37918    37920    37918    37920    37920    37917    37917    37918 
   37920    37920    37918    37917    37920    37920    37918    37920 
   37920    37918    37918    37918    37921    37922    37918    37920 
   37921    37920    37920    37921    37918    37920    37921    37921 
   37918    37918    37921    37921    37917    37916    37920    37920 
   37920    37920    37917    37914    37918    37920    37917    37921 
   37921    37917    37918    37920    37920    37918    37917    37917 
   37918    37917    37916    37917    37920    37921    37918    37918 
   37921    37921    37920    37918    37920    37922    37920    37918 
   37918    37918    37918    37921    37921    37920    37921    37922 
   37921    37920    37921    37920    37920    37918    37918    37920 
   37918    37918    37920    37920    37918    37918    37921    37921 
   37918    37918    37920    37918    37917    37917    37918    37921 
   37920    37920    37920    37920    37921    37920    37918    37918 
   37917    37917    37918    37917    37916    37917    37917    37916 
   37917    37918    37920    37921    37921    37920    37918    37917 
   37918    37918    37918    37920    37920    37917    37918    37920 
   37920    37917    37917    37920    37920    37918    37920    37921 
   37920    37920    37920    37920    37920    37918    37916    37916 
   37918    37918    37920    37921    37920    37920    37918    37917 
   37920    37920    37918    37918    37916    37917    37920    37920 
   37918    37918    37918    37918    37920    37918    37917    37917 
   37918    37918    37917    37918    37920    37921    37920    37921 
   37922    37921    37917    37920    37921    37920    37918    37918 
   37917    37918    37921    37920    37918    37918    37917    37916 
   37918    37920    37917    37917    37920    37921    37921    37921 
   37920    37920    37921    37921    37917    37914    37918    37921 
   37918    37916    37917    37920    37918    37918    37918    37917 
   37918    37920    37920    37920    37918    37918    37920    37921 
   37920    37920    37920    37918    37918    37918    37916    37917 
   37920    37920    37918    37918    37918    37918    37918    37918 
   37920    37918    37916    37916    37918    37920    37918    37917 
   37918    37918    37920    37920    37917    37917    37920    37920 
   37917    37917    37917    37917    37918    37920    37920    37920 
   37918    37918    37920    37920    37920    37918    37917    37917 
   37920    37920    37918    37918    37918    37916    37917    37920 
   37918    37918    37918    37918    37918    37918    37920    37920 
   37918    37917    37918    37918    37917    37918    37918    37918 
   37918    37918    37917    37918    37918    37916    37916    37917 
   37918    37920    37918    37918    37920    37917    37918    37920 
   37920    37922    37920    37916    37920    37922    37918    37917 
   37921    37921    37920    37920    37916    37916    37920    37918 
   37917    37917    37918    37918    37918    37918    37920    37920 
   37918    37917    37920    37920    37917    37917    37918    37918 
   37917    37918    37918    37918    37918    37918    37918    37917 
   37918    37918    37917    37916    37918    37920    37917    37916 
   37918    37918    37917    37918    37920    37918    37921    37918 
   37916    37921    37921    37916    37917    37921    37921    37921 
   37918    37917    37916    37917    37920    37918    37916    37918 
   37920    37918    37918    37921    37918    37916    37921    37922 
   37918    37917    37921    37922    37921    37918    37917    37920 
   37918    37918    37918    37917    37917    37918    37920    37920 
   37917    37917    37920    37917    37917    37918    37917    37917 
   37920    37917    37914    37917    37918    37918    37917    37917 
   37917    37918    37918    37920    37918    37916    37917    37920 
   37918    37918    37918    37918    37918    37918    37917    37920 
   37918    37914    37914    37917    37918    37918    37917    37916 
   37914    37917    37917    37917    37918    37918    37917    37917 
   37916    37918    37920    37917    37916    37917    37917    37918 
   37918    37918    37917    37917    37918    37917    37916    37918 
   37918    37916    37918    37921    37918    37916    37917    37917 
   37916    37916    37920    37920    37918    37918    37918    37918 
   37918    37916    37914    37917    37920    37920    37917    37917 
   37917    37916    37917    37917    37916    37914    37916    37916 
   37917    37918    37918    37918    37920    37920    37918    37916 
   37918    37920    37918    37918    37918    37917    37917    37920 
   37918    37917    37917    37918    37920    37918    37917    37918 
   37917    37914    37917    37920    37917    37917    37920    37918 
   37918    37918    37917    37917    37918    37917    37916    37917 
   37917    37917    37920    37920    37917    37916    37917    37917 
   37916    37916    37917    37916    37914    37916    37917    37916 
   37916    37917    37917    37916    37920    37921    37917    37916 
   37916    37916    37916    37917    37917    37917    37917    37917 
   37920    37918    37916    37917    37920    37917    37916    37917 
   37918    37917    37918    37918    37916    37916    37917    37916 
   37914    37916    37916    37914    37917    37920    37918    37914 
   37916    37916    37914    37918    37921    37917    37916    37918 
   37917    37917    37917    37914    37916    37920    37920    37918 
   37917    37916    37917    37918    37916    37914    37917    37917 
   37917    37918    37917    37917    37917    37917    37917    37917 
   37918    37921    37921    37918    37916    37918    37920    37918 
   37918    37917    37916    37918    37917    37913    37917    37920 
   37917    37916    37916    37918    37920    37918    37918    37918 
   37918    37917    37917    37918    37917    37918    37920    37917 
   37914    37917    37918    37917    37917    37917    37917    37918 
   37918    37918    37920    37920    37918    37918    37918    37917 
   37920    37922    37921    37918    37918    37920    37920    37920 
   37918    37918    37918    37918    37918    37918    37917    37917 
   37920    37918    37917    37920    37920    37917    37918    37920 
   37920    37920    37920    37918    37918    37920    37918    37917 
   37917    37917    37918    37920    37918    37918    37921    37920 
   37916    37916    37918    37918    37917    37917    37918    37918 
   37920    37920    37918    37918    37917    37918    37920    37918 
   37918    37920    37918    37918    37918    37916    37916    37917 
   37918    37918    37916    37916    37918    37917    37916    37914 
   37914    37916    37918    37920    37918    37916    37916    37917 
   37917    37916    37916    37916    37917    37917    37916    37916 
   37917    37918    37918    37917    37917    37918    37917    37918 
   37920    37918    37917    37917    37917    37916    37918    37918 
   37914    37916    37918    37918    37916    37914    37917    37920 
   37917    37917    37920    37918    37917    37918    37917    37917 
   37918    37918    37917    37918    37918    37917    37917    37918 
   37921    37918    37916    37917    37917    37917    37918    37918 
   37918    37921    37920    37914    37910    37905    37890    37874 
   37859    37847    37843    37848    37864    37901    37947    37979 
   37998    38014    38026    38037    38061    38064    37982    37836 
   37720    37696    37804    38016    38176    38151    37983    37810 
   37696    37640    37656    37740    37870    38018    38121    38117 
   38044    37999    38032    38061    37991    37839    37741    37794 
   37909    37968    37962    37932    37899    37852    37812    37833 
   37903    37939    37918    37914    37959    37991    37993    38007 
   38026    38018    37971    37908    37893    37917    37897    37840 
   37816    37812    37787    37806    37903    37970    37956    37957 
   37989    37987    37957    37936    37918    37920    37945    37943 
   37906    37903    37921    37903    37878    37898    37914    37862 
   37797    37810    37885    37929    37881    37814    37852    37971 
   38067    38110    38067    37951    37890    37883    37852    37878 
   37956    37948    37895    37905    37937    37962    37995    37991 
   37920    37822    37748    37751    37822    37885    37925    37986 
   38014    37974    37957    37964    37906    37839    37874    37974 
   38025    38013    37982    37930    37871    37863    37916    37941 
   37894    37858    37858    37833    37808    37859    37928    37930 
   37929    37978    38037    38060    38037    37974    37903    37847 
   37829    37858    37890    37918    37948    37920    37856    37870 
   37920    37867    37800    37856    37962    38014    38018    38005 
   37995    37993    37998    38016    37986    37882    37832    37845 
   37797    37754    37789    37828    37858    37895    37910    37901 
   37922    37983    37987    37922    37932    38017    38014    37936 
   37903    37894    37891    37909    37913    37887    37866    37894 
   37955    37987    37955    37910    37933    37924    37828    37817 
   37902    37943    37967    38013    38003    37929    37875    37883 
   37897    37879    37899    37943    37932    37910    37936    37971 
   37979    37955    37903    37874    37871    37860    37867    37908 
   37925    37887    37840    37845    37897    37979    38052    38044 
   37962    37881    37856    37860    37868    37916    37940    37905 
   37910    37912    37868    37885    37932    37943    37937    37914 
   37874    37843    37875    37967    38028    38005    37916    37847 
   37871    37899    37887    37917    37940    37908    37893    37949 
   38006    37978    37933    37925    37908    37883    37882    37912 
   37933    37912    37914    37940    37912    37891    37909    37870 
   37835    37898    37945    37939    37982    38036    38002    37908 
   37837    37822    37868    37920    37897    37881    37924    37949 
   37974    37984    37918    37894    37963    37957    37889    37889 
   37918    37944    37984    37974    37932    37916    37876    37827 
   37821    37882    37962    37967    37916    37881    37854    37812 
   37822    37916    38001    38029    38003    37936    37924    37976 
   37962    37882    37827    37822    37864    37897    37874    37859 
   37906    37944    37929    37932    37991    38036    38016    37959 
   37901    37866    37883    37903    37885    37894    37924    37914 
   37905    37922    37937    37924    37863    37818    37863    37917 
   37894    37883    37914    37903    37932    38028    38032    37968 
   37953    37951    37940    37932    37921    37893    37881    37922 
   37922    37855    37854    37908    37913    37908    37910    37885 
   37893    37959    38006    37989    37930    37891    37871    37851 
   37881    37922    37910    37926    37989    37963    37886    37882 
   37890    37864    37868    37871    37882    37960    38001    37956 
   37928    37928    37899    37851    37868    37970    38036    38024 
   38003    37960    37891    37854    37848    37858    37882    37902 
   37897    37895    37898    37860    37827    37879    37948    37914 
   37848    37852    37928    38037    38086    38018    37916    37858 
   37860    37890    37901    37944    38010    37970    37883    37902 
   37957    37944    37882    37816    37798    37855    37906    37909 
   37914    37956    37967    37910    37898    37957    37974    37978 
   38011    37987    37918    37858    37821    37856    37893    37871 
   37901    37991    38017    37964    37870    37786    37804    37903 
   37956    37913    37862    37870    37917    37983    38028    37995 
   37926    37918    37956    37976    37957    37912    37863    37821 
   37800    37813    37870    37970    38037    38016    37960    37914 
   37860    37801    37817    37940    38025    37979    37930    37953 
   37947    37876    37845    37858    37866    37895    37922    37920 
   37921    37902    37898    37940    37910    37832    37864    37971 
   38061    38092    37998    37862    37795    37756    37746    37798 
   37875    37980    38088    38117    38078    38013    37935    37887 
   37879    37891    37912    37901    37872    37886    37925    37959 
   37951    37897    37851    37832    37836    37878    37932    37955 
   37935    37913    37941    37979    37964    37930    37910    37876 
   37836    37814    37805    37804    37820    37856    37909    37993 
   38067    38055    38020    38036    38026    37979    37944    37898 
   37864    37868    37841    37778    37740    37720    37756    37901 
   38068    38141    38117    38076    38016    37906    37806    37755 
   37773    37847    37909    37972    38014    37953    37895    37924 
   37956    37940    37893    37898    37955    37952    37897    37876 
   37917    37962    37925    37855    37894    37998    38021    37970 
   37895    37795    37763    37785    37793    37887    38047    38106 
   38079    38033    37968    37913    37854    37790    37767    37813 
   37935    38055    38044    37948    37902    37918    37945    37987 
   37968    37831    37756    37868    37989    38006    37957    37882 
   37827    37798    37793    37871    37990    37990    37886    37858 
   37964    38064    38006    37835    37740    37783    37895    38007 
   38049    38021    38005    37945    37825    37820    37906    37908 
   37876    37891    37937    38006    38014    37945    37901    37914 
   37959    37993    37987    37947    37831    37731    37794    37924 
   37948    37905    37866    37785    37694    37746    37941    38111 
   38144    38070    37995    37974    37974    37928    37828    37770 
   37817    37941    38078    38114    37998    37858    37832    37902 
   37932    37868    37808    37791    37781    37801    37875    37949 
   37937    37890    37979    38134    38113    37960    37879    37913 
   37971    37955    37878    37840    37860    37901    37928    37903 
   37871    37935    38052    38061    37939    37810    37778    37827 
   37860    37875    37940    38011    37989    37906    37871    37867 
   37848    37886    37986    37998    37921    37902    37966    38014 
   37990    37948    37949    37953    37905    37810    37736    37771 
   37859    37921    38003    38053    37959    37831    37816    37851 
   37870    37895    37928    37972    38011    37982    37903    37858 
   37894    37976    38014    37998    37997    37994    37947    37872 
   37804    37779    37816    37897    37982    38006    37920    37800 
   37774    37814    37836    37894    38009    38070    38038    37997 
   37960    37908    37903    37933    37876    37783    37797    37871 
   37932    37978    37947    37874    37885    37921    37930    38011 
   38142    38129    37935    37766    37719    37736    37814    37930 
   38016    38026    37975    37918    37883    37894    37955    37964 
   37885    37831    37867    37926    37933    37879    37817    37840 
   37947    38033    38051    38014    37928    37864    37895    37979 
   38038    38025    37903    37771    37782    37932    38013    37897 
   37804    37913    38021    37974    37886    37827    37818    37882 
   37920    37899    37858    37836    37918    38038    38060    37998 
   37918    37871    37883    37913    37925    37924    37918    37908 
   37882    37885    37928    37939    37872    37768    37739    37852 
   38002    38055    38022    37968    37899    37871    37964    38103 
   38133    38024    37871    37766    37756    37845    37940    37918 
   37805    37763    37837    37918    37955    37984    38002    37984 
   37914    37821    37829    37921    37941    37894    37885    37897 
   37901    37926    37967    37971    37912    37847    37852    37895 
   37894    37871    37908    37987    38032    38036    38026    37997 
   37963    37955    37939    37891    37860    37851    37862    37917 
   37966    37943    37905    37925    37989    38021    37984    37912 
   37816    37750    37808    37913    37945    37937    37918    37895 
   37913    37949    37936    37881    37817    37768    37798    37937 
   38072    38087    38022    37967    37960    37971    37933    37871 
   37866    37866    37849    37901    37993    37991    37895    37845 
   37881    37921    37921    37883    37843    37863    37928    37964 
   37936    37889    37910    37976    37962    37912    37932    37964 
   37972    37955    37867    37762    37736    37812    37947    38064 
   38088    38007    37890    37849    37905    37971    37990    37949 
   37874    37812    37802    37882    37990    38006    37987    38017 
   38003    37928    37891    37874    37832    37813    37821    37843 
   37891    37951    37997    38029    38032    37984    37926    37902 
   37893    37864    37854    37912    37955    37924    37899    37897 
   37864    37839    37852    37894    37948    37962    37922    37912 
   37945    37925    37858    37859    37939    38002    38005    37970 
   37920    37855    37802    37829    37902    37921    37909    37932 
   37960    37955    37943    37947    37937    37912    37906    37917 
   37914    37903    37906    37917    37928    37905    37839    37802 
   37841    37905    37962    38002    37999    37966    37951    37957 
   37939    37881    37836    37867    37937    37944    37902    37898 
   37933    37971    37995    37990    37964    37939    37893    37839 
   37829    37864    37903    37910    37891    37887    37916    37955 
   37978    37968    37935    37905    37897    37898    37898    37890 
   37878    37889    37933    37975    37970    37928    37899    37921 
   37989    38017    37979    37916    37851    37835    37890    37930 
   37899    37843    37832    37872    37903    37894    37881    37906 
   37962    37974    37944    37940    37943    37913    37898    37917 
   37901    37870    37895    37924    37912    37903    37886    37855 
   37891    37990    38053    38026    37933    37868    37897    37955 
   37957    37928    37936    37966    37962    37922    37886    37879 
