Origin Time       2025/03/30 10:46:00
Lat.              32.923
Long.             130.372
Depth. (km)       11
Mag.              3.4
Station Code      KMMH16
Station Lat.      32.7967
Station Long.     130.8199
Station Height(m) 55
Record Time       2025/03/30 10:46:34
Sampling Freq(Hz) 100Hz
Duration Time(s)  120
Dir.              5
Scale Factor      7845(gal)/8223790
Max. Acc. (gal)   2.018
Last Correction   2025/03/30 10:46:34
Memo.             
[...]
   -5108    -5104    -5131    -5154    -5165    -5171    -5155    -5128 
   -5143    -5185    -5192    -5165    -5148    -5138    -5132    -5154 
   -5185    -5202    -5184    -5120    -5082    -5108    -5132    -5135 
   -5154    -5175    -5173    -5165    -5159    -5154    -5155    -5157 
   -5151    -5151    -5163    -5169    -5163    -5157    -5155    -5148 
   -5143    -5148    -5157    -5162    -5165    -5151    -5127    -5113 
   -5112    -5124    -5140    -5165    -5190    -5181    -5163    -5205 
   -5242    -5165    -5066    -5067    -5104    -5125    -5177    -5238 
   -5243    -5189    -5109    -5088    -5134    -5132    -5116    -5182 
   -5220    -5192    -5167    -5116    -5077    -5108    -5144    -5159 
   -5185    -5196    -5181    -5159    -5131    -5117    -5132    -5162 
   -5185    -5179    -5154    -5139    -5131    -5130    -5144    -5161 
   -5169    -5173    -5171    -5165    -5151    -5120    -5092    -5107 
   -5152    -5167    -5166    -5190    -5193    -5152    -5130    -5144 
   -5169    -5185    -5169    -5139    -5140    -5142    -5131    -5136 
   -5139    -5134    -5148    -5170    -5177    -5165    -5142    -5143 
   -5159    -5158    -5155    -5163    -5166    -5162    -5158    -5155 
   -5155    -5154    -5151    -5142    -5134    -5150    -5170    -5167 
   -5157    -5142    -5132    -5142    -5151    -5151    -5159    -5171 
   -5159    -5150    -5155    -5148    -5148    -5163    -5161    -5157 
   -5166    -5147    -5124    -5135    -5151    -5165    -5181    -5182 
   -5174    -5162    -5143    -5134    -5136    -5140    -5143    -5142 
   -5140    -5142    -5140    -5154    -5174    -5166    -5159    -5173 
   -5174    -5161    -5157    -5151    -5144    -5148    -5140    -5123 
   -5131    -5148    -5152    -5166    -5192    -5193    -5174    -5155 
   -5138    -5121    -5119    -5131    -5147    -5158    -5161    -5152 
   -5138    -5132    -5143    -5157    -5173    -5192    -5189    -5166 
   -5143    -5128    -5130    -5146    -5169    -5178    -5173    -5163 
   -5144    -5121    -5120    -5132    -5140    -5157    -5173    -5175 
   -5174    -5162    -5143    -5135    -5134    -5143    -5158    -5165 
   -5158    -5150    -5146    -5147    -5151    -5161    -5173    -5174 
   -5165    -5154    -5144    -5142    -5146    -5146    -5140    -5143 
   -5142    -5136    -5139    -5154    -5166    -5170    -5167    -5169 
   -5166    -5158    -5150    -5146    -5150    -5158    -5158    -5148 
   -5140    -5143    -5147    -5151    -5161    -5161    -5152    -5146 
   -5142    -5146    -5161    -5170    -5169    -5162    -5147    -5142 
   -5150    -5147    -5134    -5139    -5154    -5157    -5157    -5165 
   -5163    -5163    -5166    -5151    -5146    -5158    -5150    -5142 
   -5152    -5152    -5146    -5155    -5162    -5154    -5147    -5146 
   -5147    -5143    -5142    -5157    -5169    -5170    -5167    -5159 
   -5147    -5148    -5155    -5157    -5158    -5155    -5151    -5157 
   -5159    -5150    -5146    -5146    -5144    -5148    -5161    -5162 
   -5151    -5135    -5124    -5131    -5155    -5185    -5202    -5202 
   -5181    -5154    -5138    -5135    -5140    -5144    -5140    -5136 
   -5138    -5138    -5138    -5148    -5158    -5159    -5163    -5169 
   -5170    -5169    -5162    -5155    -5155    -5152    -5147    -5143 
   -5143    -5143    -5140    -5148    -5158    -5163    -5170    -5173 
   -5169    -5163    -5159    -5155    -5147    -5136    -5132    -5135 
   -5136    -5135    -5144    -5157    -5162    -5169    -5179    -5174 
   -5154    -5136    -5128    -5130    -5139    -5157    -5171    -5173 
   -5166    -5162    -5161    -5154    -5146    -5138    -5138    -5148 
   -5157    -5162    -5165    -5159    -5148    -5140    -5139    -5140 
   -5143    -5150    -5151    -5140    -5134    -5138    -5151    -5177 
   -5196    -5192    -5181    -5175    -5165    -5147    -5143    -5151 
   -5152    -5144    -5143    -5142    -5134    -5131    -5134    -5138 
   -5148    -5158    -5161    -5163    -5161    -5150    -5140    -5140 
   -5146    -5157    -5171    -5182    -5182    -5175    -5165    -5154 
   -5151    -5152    -5147    -5146    -5147    -5140    -5138    -5147 
   -5148    -5142    -5140    -5135    -5138    -5148    -5157    -5165 
   -5170    -5166    -5158    -5152    -5155    -5161    -5167    -5174 
   -5167    -5157    -5155    -5162    -5163    -5157    -5146    -5131 
   -5121    -5128    -5136    -5138    -5140    -5140    -5143    -5158 
   -5166    -5167    -5170    -5174    -5171    -5158    -5150    -5159 
   -5167    -5169    -5163    -5155    -5151    -5146    -5135    -5138 
   -5152    -5162    -5159    -5151    -5144    -5140    -5134    -5130 
   -5132    -5136    -5140    -5146    -5157    -5166    -5174    -5182 
   -5185    -5179    -5166    -5158    -5161    -5155    -5139    -5132 
   -5140    -5147    -5146    -5151    -5161    -5158    -5157    -5158 
   -5150    -5140    -5135    -5134    -5142    -5154    -5158    -5161 
   -5159    -5151    -5148    -5155    -5161    -5173    -5181    -5173 
   -5158    -5151    -5144    -5139    -5140    -5147    -5155    -5157 
   -5148    -5142    -5140    -5143    -5155    -5162    -5158    -5152 
   -5157    -5166    -5169    -5159    -5146    -5135    -5134    -5152 
   -5173    -5177    -5173    -5151    -5128    -5132    -5148    -5162 
   -5171    -5167    -5154    -5146    -5143    -5144    -5150    -5148 
   -5142    -5139    -5138    -5140    -5148    -5155    -5162    -5170 
   -5175    -5178    -5175    -5165    -5157    -5151    -5147    -5144 
   -5142    -5142    -5144    -5147    -5152    -5154    -5147    -5142 
   -5143    -5147    -5155    -5162    -5165    -5165    -5161    -5157 
   -5155    -5150    -5139    -5132    -5134    -5139    -5155    -5175 
   -5182    -5177    -5170    -5161    -5158    -5158    -5146    -5138 
   -5151    -5165    -5158    -5140    -5131    -5138    -5144    -5136 
   -5136    -5154    -5162    -5157    -5155    -5152    -5151    -5154 
   -5162    -5173    -5178    -5173    -5163    -5155    -5146    -5140 
   -5140    -5144    -5146    -5144    -5142    -5144    -5154    -5166 
   -5179    -5171    -5152    -5157    -5162    -5147    -5139    -5135 
   -5128    -5140    -5150    -5147    -5154    -5163    -5169    -5170 
   -5163    -5165    -5175    -5173    -5155    -5140    -5136    -5131 
   -5116    -5119    -5143    -5157    -5158    -5174    -5182    -5165 
   -5159    -5171    -5170    -5148    -5135    -5139    -5148    -5151 
   -5151    -5158    -5162    -5150    -5138    -5148    -5163    -5161 
   -5157    -5163    -5157    -5136    -5128    -5140    -5162    -5177 
   -5173    -5161    -5151    -5138    -5131    -5140    -5144    -5148 
   -5161    -5167    -5163    -5159    -5155    -5154    -5151    -5146 
   -5148    -5161    -5163    -5150    -5140    -5142    -5142    -5143 
   -5151    -5155    -5144    -5142    -5162    -5178    -5173    -5163 
   -5154    -5139    -5134    -5144    -5159    -5161    -5157    -5152 
   -5146    -5144    -5155    -5165    -5165    -5161    -5151    -5144 
   -5152    -5167    -5177    -5182    -5182    -5174    -5159    -5130 
   -5096    -5086    -5100    -5113    -5117    -5111    -5103    -5097 
   -5111    -5170    -5263    -5327    -5329    -5281    -5193    -5100 
   -5043    -5028    -5038    -5070    -5130    -5204    -5259    -5269 
   -5229    -5157    -5090    -5078    -5112    -5162    -5205    -5205 
   -5151    -5094    -5094    -5165    -5258    -5309    -5279    -5170 
   -5032    -4914    -4838    -4842    -4951    -5136    -5346    -5513 
   -5547    -5416    -5193    -5000    -4912    -4912    -4969    -5093 
   -5239    -5332    -5363    -5354    -5305    -5200    -5053    -4957 
   -4973    -5036    -5063    -5066    -5105    -5198    -5310    -5405 
   -5424    -5324    -5131    -4939    -4880    -4997    -5169    -5254 
   -5250    -5212    -5152    -5074    -5011    -4985    -4980    -5012 
   -5150    -5333    -5427    -5389    -5223    -5020    -4943    -5001 
   -5115    -5228    -5270    -5242    -5216    -5205    -5185    -5144 
   -5088    -5077    -5138    -5221    -5274    -5244    -5142    -5078 
   -5117    -5181    -5194    -5154    -5085    -5038    -5065    -5155 
   -5231    -5211    -5128    -5120    -5178    -5169    -5100    -5032 
   -4953    -4924    -5039    -5260    -5449    -5494    -5400    -5247 
   -5105    -5019    -4985    -4969    -4995    -5096    -5235    -5359 
   -5405    -5316    -5109    -4888    -4781    -4858    -5088    -5301 
   -5382    -5402    -5405    -5351    -5250    -5119    -4985    -4950 
   -5058    -5225    -5298    -5221    -5117    -5098    -5136    -5204 
   -5246    -5140    -4928    -4812    -4854    -4973    -5142    -5348 
   -5479    -5459    -5382    -5336    -5235    -5016    -4804    -4733 
   -4803    -4968    -5178    -5320    -5327    -5275    -5265    -5300 
   -5340    -5363    -5359    -5292    -5159    -5039    -4988    -5016 
   -5096    -5151    -5181    -5202    -5174    -5111    -5057    -5032 
   -5038    -5023    -5007    -5061    -5152    -5273    -5416    -5445 
   -5313    -5154    -5062    -5034    -5047    -5063    -5071    -5105 
   -5139    -5113    -5076    -5090    -5134    -5201    -5298    -5371 
   -5391    -5327    -5125    -4932    -4930    -5038    -5125    -5170 
   -5163    -5130    -5131    -5186    -5273    -5323    -5298    -5258 
   -5250    -5216    -5121    -5054    -5057    -5078    -5089    -5105 
   -5131    -5123    -5062    -5001    -5019    -5152    -5294    -5285 
   -5162    -5080    -5059    -5039    -5038    -5116    -5236    -5305 
   -5300    -5265    -5231    -5211    -5198    -5175    -5113    -5013 
   -4949    -4968    -5022    -5124    -5304    -5439    -5445    -5401 
   -5332    -5205    -5036    -4878    -4801    -4839    -4970    -5167 
   -5329    -5340    -5260    -5196    -5157    -5142    -5159    -5162 
   -5125    -5061    -5005    -5027    -5138    -5262    -5341    -5368 
   -5362    -5360    -5323    -5202    -5059    -4959    -4919    -4930 
   -4966    -5013    -5093    -5188    -5229    -5194    -5127    -5062 
   -5047    -5124    -5246    -5350    -5409    -5355    -5182    -5017 
   -4965    -5016    -5101    -5169    -5216    -5251    -5254    -5221 
   -5174    -5151    -5163    -5177    -5165    -5125    -5067    -5038 
   -5088    -5166    -5211    -5211    -5148    -5062    -5051    -5131 
   -5213    -5227    -5161    -5062    -5016    -5047    -5125    -5209 
   -5247    -5251    -5281    -5348    -5410    -5377    -5220    -5030 
   -4888    -4855    -4958    -5082    -5128    -5138    -5159    -5238 
   -5371    -5402    -5238    -5022    -4876    -4827    -4930    -5148 
   -5320    -5371    -5355    -5312    -5244    -5179    -5116    -5022 
   -4955    -5003    -5120    -5233    -5323    -5341    -5292    -5231 
   -5159    -5094    -5092    -5113    -5113    -5109    -5112    -5132 
   -5154    -5136    -5094    -5067    -5057    -5036    -5016    -5043 
   -5117    -5217    -5347    -5462    -5474    -5332    -5094    -4911 
   -4884    -5011    -5209    -5350    -5367    -5273    -5100    -4947 
   -4908    -4970    -5096    -5235    -5309    -5286    -5196    -5061 
   -4957    -4995    -5175    -5383    -5505    -5490    -5331    -5107 
   -4955    -4922    -4939    -4966    -5019    -5094    -5157    -5209 
   -5242    -5192    -5107    -5134    -5282    -5414    -5448    -5370 
   -5198    -5016    -4936    -4966    -5026    -5076    -5105    -5104 
   -5096    -5115    -5131    -5100    -5066    -5094    -5181    -5292 
   -5344    -5279    -5175    -5108    -5088    -5108    -5132    -5193 
   -5319    -5400    -5367    -5265    -5115    -4966    -4887    -4899 
   -5004    -5154    -5242    -5229    -5158    -5084    -5055    -5065 
   -5070    -5100    -5212    -5351    -5427    -5395    -5265    -5111 
   -5015    -5007    -5070    -5108    -5086    -5063    -5032    -5026 
   -5132    -5287    -5362    -5347    -5281    -5190    -5117    -5062 
   -5000    -4978    -5059    -5201    -5317    -5378    -5387    -5355 
   -5281    -5206    -5204    -5267    -5306    -5286    -5233    -5152 
   -5067    -5039    -5076    -5130    -5171    -5167    -5067    -4873 
   -4658    -4487    -4464    -4665    -4993    -5301    -5514    -5535 
   -5286    -4896    -4641    -4662    -4900    -5292    -5718    -5957 
   -5891    -5630    -5404    -5360    -5424    -5374    -5148    -4818 
   -4433    -4135    -4052    -4153    -4428    -4934    -5629    -6349 
   -6882    -7048    -6786    -6245    -5724    -5394    -5224    -5101 
   -4882    -4476    -3960    -3541    -3392    -3545    -3897    -4305 
   -4662    -4947    -5173    -5385    -5664    -6010    -6309    -6438 
   -6297    -5892    -5393    -5013    -4900    -5073    -5386    -5586 
   -5475    -5094    -4730    -4629    -4826    -5208    -5551    -5675 
   -5575    -5332    -5078    -4922    -4854    -4850    -4870    -4896 
   -4982    -5070    -4980    -4629    -4151    -3827    -3877    -4279 
   -4845    -5389    -5757    -5927    -6072    -6318    -6588    -6752 
   -6748    -6528    -6023    -5235    -4355    -3704    -3457    -3607 
   -4075    -4638    -4990    -5009    -4834    -4824    -5209    -5806 
   -6286    -6488    -6358    -5927    -5341    -4800    -4457    -4348 
   -4395    -4502    -4614    -4654    -4533    -4314    -4187    -4295 
   -4729    -5466    -6284    -6916    -7203    -7134    -6790    -6319 
   -5892    -5491    -4966    -4315    -3670    -3195    -3037    -3237 
   -3794    -4626    -5424    -5910    -6066    -5935    -5605    -5283 
   -5103    -5054    -5152    -5386    -5625    -5740    -5684    -5459 
   -5158    -4945    -4881    -4889    -4908    -4911    -4872    -4888 
   -5092    -5475    -5919    -6269    -6349    -6050    -5440    -4723 
   -4120    -3825    -3951    -4386    -4864    -5150    -5148    -4977 
   -4884    -5027    -5363    -5679    -5764    -5595    -5275    -4995 
   -4963    -5198    -5513    -5728    -5771    -5683    -5522    -5321 
   -5134    -5026    -4969    -4874    -4702    -4437    -4124    -3963 
   -4136    -4584    -5115    -5540    -5738    -5764    -5734    -5697 
   -5719    -5799    -5768    -5548    -5200    -4818    -4573    -4599 
   -4853    -5221    -5576    -5764    -5678    -5335    -4854    -4357 
   -3991    -3959    -4302    -4853    -5422    -5845    -6006    -5931 
   -5691    -5316    -4882    -4531    -4387    -4544    -5022    -5684 
   -6272    -6536    -6354    -5783    -5065    -4494    -4217    -4222 
   -4473    -4900    -5379    -5823    -6142    -6188    -5915    -5431 
   -4855    -4303    -3915    -3750    -3788    -4032    -4465    -4968 
   -5375    -5624    -5733    -5741    -5706    -5697    -5725    -5745 
   -5702    -5582    -5402    -5202    -5030    -4939    -4963    -5081 
   -5256    -5436    -5518    -5420    -5166    -4855    -4565    -4361 
   -4342    -4549    -4900    -5224    -5364    -5325    -5198    -5034 
   -4897    -4873    -4946    -5032    -5055    -5034    -5109    -5351 
   -5643    -5876    -6007    -6014    -5884    -5657    -5386    -5090 
   -4807    -4603    -4504    -4502    -4592    -4741    -4870    -4951 
   -5046    -5213    -5447    -5659    -5742    -5678    -5506    -5266 
   -5026    -4877    -4826    -4839    -4893    -4965    -5073    -5235 
   -5404    -5537    -5556    -5402    -5166    -4962    -4826    -4757 
   -4758    -4833    -4970    -5135    -5293    -5427    -5526    -5563 
   -5494    -5309    -5047    -4788    -4622    -4610    -4757    -4996 
   -5219    -5373    -5459    -5503    -5521    -5493    -5393    -5212 
   -4980    -4796    -4757    -4855    -5017    -5198    -5386    -5537 
   -5602    -5609    -5580    -5448    -5236    -5088    -5043    -5040 
   -5019    -4943    -4826    -4719    -4654    -4648    -4725    -4849 
   -4934    -4972    -5027    -5143    -5312    -5489    -5629    -5686 
   -5624    -5456    -5225    -5005    -4888    -4909    -5049    -5244 
   -5397    -5458    -5440    -5346    -5208    -5086    -5004    -4972 
   -4996    -5023    -5020    -5022    -5046    -5107    -5201    -5251 
   -5217    -5142    -5053    -4992    -5027    -5144    -5247    -5250 
   -5151    -5053    -5078    -5250    -5486    -5701    -5807    -5756 
   -5545    -5219    -4869    -4602    -4459    -4442    -4536    -4695 
   -4870    -5017    -5151    -5314    -5482    -5599    -5621    -5506 
   -5278    -4997    -4765    -4696    -4787    -4946    -5143    -5354 
   -5522    -5625    -5667    -5655    -5576    -5435    -5259    -5115 
   -5038    -5017    -5031    -5069    -5086    -5046    -4969    -4896 
   -4855    -4869    -4922    -4976    -5003    -5013    -5042    -5090 
   -5132    -5165    -5205    -5278    -5374    -5474    -5562    -5593 
   -5503    -5308    -5077    -4877    -4750    -4700    -4716    -4810 
   -4974    -5162    -5320    -5424    -5467    -5466    -5463    -5468 
   -5462    -5435    -5370    -5269    -5167    -5069    -4954    -4828 
   -4703    -4610    -4629    -4797    -5050    -5290    -5462    -5518 
   -5443    -5275    -5070    -4896    -4822    -4862    -4989    -5142 
   -5252    -5304    -5305    -5263    -5204    -5150    -5107    -5067 
   -5053    -5088    -5171    -5293    -5435    -5530    -5509    -5377 
   -5177    -4953    -4795    -4787    -4905    -5054    -5182    -5269 
   -5306    -5320    -5351    -5379    -5341    -5251    -5158    -5086 
   -5042    -5027    -5049    -5107    -5142    -5107    -5058    -5061 
   -5080    -5080    -5094    -5116    -5096    -5051    -5013    -4989 
   -5017    -5121    -5243    -5324    -5366    -5379    -5358    -5302 
   -5223    -5139    -5086    -5057    -5031    -5043    -5112    -5204 
   -5287    -5359    -5390    -5352    -5289    -5252    -5228    -5179 
   -5090    -4984    -4911    -4901    -4947    -5004    -5040    -5049 
   -5022    -4976    -4951    -4963    -5015    -5096    -5178    -5277 
   -5410    -5536    -5607    -5607    -5524    -5356    -5151    -4958 
   -4816    -4752    -4777    -4880    -5044    -5243    -5401    -5445 
   -5381    -5266    -5154    -5093    -5093    -5107    -5109    -5119 
   -5115    -5096    -5088    -5085    -5082    -5098    -5131    -5154 
   -5151    -5131    -5123    -5158    -5238    -5319    -5356    -5351 
   -5316    -5255    -5204    -5188    -5177    -5147    -5107    -5067 
   -5028    -4984    -4936    -4888    -4861    -4896    -5017    -5205 
   -5373    -5440    -5417    -5344    -5246    -5157    -5108    -5088 
   -5074    -5082    -5124    -5184    -5256    -5331    -5350    -5266 
   -5124    -4988    -4884    -4826    -4818    -4857    -4959    -5125 
   -5317    -5493    -5587    -5540    -5367    -5144    -4962    -4889 
   -4928    -5038    -5192    -5348    -5448    -5475    -5433    -5319 
   -5155    -5008    -4918    -4869    -4850    -4880    -4949    -5009 
   -5069    -5162    -5271    -5356    -5381    -5325    -5224    -5119 
   -5031    -4980    -4984    -5034    -5100    -5162    -5201    -5193 
   -5151    -5116    -5119    -5174    -5283    -5401    -5459    -5447 
   -5401    -5325    -5231    -5155    -5093    -5004    -4897    -4820 
   -4795    -4827    -4918    -5054    -5201    -5317    -5351    -5297 
   -5206    -5127    -5090    -5128    -5240    -5381    -5493    -5548 
