Origin Time       2025/03/30 10:46:00
Lat.              32.923
Long.             130.372
Depth. (km)       11
Mag.              3.4
Station Code      KMMH03
Station Lat.      32.9984
Station Long.     130.8301
Station Height(m) -22
Record Time       2025/03/30 10:46:34
Sampling Freq(Hz) 100Hz
Duration Time(s)  120
Dir.              1
Scale Factor      2942(gal)/8224139
Max. Acc. (gal)   0.159
Last Correction   2025/03/30 10:46:34
Memo.             
[...]
 -119915  -119911  -119913  -119916  -119913  -119915  -119916  -119912 
 -119912  -119915  -119915  -119912  -119913  -119915  -119915  -119913 
 -119913  -119913  -119913  -119913  -119913  -119916  -119917  -119916 
 -119913  -119915  -119915  -119911  -119911  -119913  -119913  -119913 
 -119913  -119912  -119913  -119915  -119916  -119916  -119915  -119913 
 -119912  -119913  -119915  -119913  -119912  -119912  -119912  -119912 
 -119909  -119912  -119917  -119916  -119913  -119913  -119912  -119912 
 -119912  -119911  -119912  -119913  -119915  -119915  -119913  -119913 
 -119915  -119912  -119913  -119915  -119912  -119912  -119915  -119915 
 -119913  -119913  -119912  -119912  -119913  -119915  -119915  -119916 
 -119913  -119912  -119912  -119912  -119915  -119917  -119916  -119913 
 -119913  -119913  -119913  -119912  -119912  -119913  -119915  -119915 
 -119915  -119913  -119912  -119915  -119915  -119913  -119912  -119912 
 -119915  -119915  -119913  -119916  -119916  -119913  -119913  -119913 
 -119915  -119915  -119913  -119913  -119915  -119916  -119913  -119911 
 -119912  -119915  -119913  -119912  -119915  -119917  -119912  -119911 
 -119915  -119916  -119913  -119911  -119912  -119916  -119917  -119913 
 -119912  -119915  -119913  -119911  -119912  -119913  -119912  -119915 
 -119915  -119912  -119912  -119915  -119915  -119915  -119916  -119916 
 -119912  -119913  -119916  -119913  -119912  -119913  -119912  -119911 
 -119911  -119912  -119913  -119913  -119912  -119911  -119913  -119916 
 -119913  -119913  -119915  -119915  -119916  -119913  -119909  -119912 
 -119912  -119913  -119916  -119912  -119911  -119915  -119913  -119912 
 -119916  -119913  -119912  -119915  -119915  -119916  -119919  -119915 
 -119909  -119913  -119916  -119912  -119912  -119913  -119912  -119911 
 -119915  -119916  -119912  -119909  -119913  -119916  -119913  -119916 
 -119917  -119912  -119912  -119916  -119912  -119909  -119915  -119916 
 -119912  -119912  -119915  -119913  -119913  -119915  -119915  -119913 
 -119916  -119917  -119915  -119913  -119915  -119915  -119916  -119913 
 -119912  -119915  -119916  -119916  -119915  -119912  -119911  -119912 
 -119915  -119916  -119916  -119913  -119912  -119916  -119917  -119913 
 -119916  -119917  -119911  -119911  -119915  -119913  -119912  -119916 
 -119915  -119909  -119911  -119915  -119915  -119915  -119916  -119913 
 -119912  -119913  -119915  -119917  -119916  -119915  -119917  -119916 
 -119909  -119911  -119916  -119913  -119912  -119913  -119913  -119915 
 -119916  -119913  -119913  -119916  -119916  -119916  -119916  -119915 
 -119913  -119916  -119916  -119915  -119913  -119915  -119913  -119912 
 -119913  -119913  -119915  -119916  -119913  -119911  -119911  -119912 
 -119913  -119915  -119913  -119912  -119915  -119917  -119916  -119915 
 -119915  -119913  -119912  -119912  -119913  -119916  -119915  -119915 
 -119915  -119915  -119917  -119917  -119915  -119913  -119913  -119915 
 -119916  -119915  -119913  -119915  -119915  -119915  -119915  -119915 
 -119915  -119913  -119915  -119915  -119913  -119913  -119912  -119911 
 -119913  -119916  -119915  -119913  -119913  -119917  -119916  -119911 
 -119911  -119915  -119916  -119915  -119915  -119915  -119913  -119913 
 -119915  -119917  -119917  -119913  -119912  -119913  -119915  -119915 
 -119916  -119915  -119911  -119911  -119915  -119915  -119912  -119913 
 -119916  -119913  -119912  -119913  -119913  -119913  -119915  -119916 
 -119915  -119917  -119917  -119913  -119913  -119915  -119915  -119915 
 -119915  -119913  -119912  -119912  -119912  -119913  -119915  -119916 
 -119916  -119913  -119913  -119913  -119913  -119915  -119916  -119916 
 -119915  -119915  -119913  -119912  -119913  -119915  -119913  -119912 
 -119912  -119913  -119916  -119915  -119911  -119911  -119916  -119916 
 -119913  -119913  -119913  -119912  -119913  -119913  -119915  -119915 
 -119912  -119909  -119913  -119915  -119911  -119912  -119917  -119913 
 -119912  -119917  -119916  -119913  -119915  -119915  -119912  -119911 
 -119912  -119913  -119915  -119915  -119913  -119915  -119915  -119913 
 -119913  -119915  -119912  -119913  -119917  -119915  -119912  -119913 
 -119916  -119916  -119915  -119915  -119912  -119912  -119916  -119915 
 -119912  -119913  -119913  -119912  -119916  -119916  -119912  -119913 
 -119915  -119915  -119913  -119916  -119916  -119913  -119913  -119916 
 -119913  -119912  -119913  -119912  -119911  -119911  -119913  -119912 
 -119911  -119913  -119916  -119919  -119915  -119913  -119913  -119912 
 -119912  -119915  -119912  -119913  -119916  -119917  -119917  -119916 
 -119915  -119915  -119915  -119915  -119913  -119915  -119917  -119916 
 -119913  -119916  -119916  -119911  -119912  -119917  -119916  -119913 
 -119913  -119913  -119915  -119919  -119919  -119915  -119916  -119916 
 -119913  -119915  -119919  -119919  -119913  -119913  -119916  -119913 
 -119911  -119913  -119916  -119916  -119915  -119913  -119913  -119912 
 -119911  -119915  -119917  -119913  -119912  -119916  -119915  -119913 
 -119917  -119917  -119913  -119913  -119913  -119912  -119913  -119915 
 -119913  -119912  -119915  -119913  -119911  -119915  -119920  -119917 
 -119916  -119916  -119913  -119913  -119913  -119915  -119916  -119915 
 -119915  -119916  -119915  -119915  -119913  -119913  -119913  -119915 
 -119916  -119915  -119913  -119913  -119915  -119913  -119911  -119913 
 -119916  -119912  -119912  -119916  -119916  -119912  -119915  -119916 
 -119913  -119915  -119915  -119909  -119911  -119913  -119913  -119915 
 -119913  -119912  -119916  -119917  -119915  -119915  -119912  -119911 
 -119913  -119916  -119915  -119916  -119916  -119912  -119915  -119917 
 -119916  -119915  -119916  -119916  -119916  -119913  -119913  -119916 
 -119916  -119916  -119917  -119913  -119915  -119917  -119915  -119913 
 -119915  -119913  -119916  -119916  -119913  -119913  -119916  -119915 
 -119912  -119915  -119915  -119912  -119912  -119916  -119916  -119916 
 -119916  -119915  -119915  -119915  -119915  -119913  -119913  -119913 
 -119916  -119916  -119916  -119912  -119913  -119917  -119916  -119912 
 -119915  -119916  -119912  -119915  -119916  -119913  -119916  -119916 
 -119911  -119912  -119917  -119916  -119911  -119909  -119912  -119915 
 -119915  -119911  -119912  -119915  -119913  -119913  -119913  -119913 
 -119915  -119913  -119912  -119915  -119915  -119911  -119915  -119916 
 -119913  -119913  -119913  -119915  -119917  -119916  -119913  -119915 
 -119915  -119913  -119915  -119915  -119917  -119919  -119913  -119913 
 -119915  -119913  -119916  -119917  -119912  -119913  -119919  -119915 
 -119912  -119913  -119913  -119915  -119916  -119915  -119912  -119915 
 -119915  -119912  -119915  -119917  -119916  -119915  -119916  -119915 
 -119913  -119912  -119912  -119912  -119912  -119915  -119915  -119915 
 -119919  -119919  -119915  -119913  -119915  -119913  -119915  -119916 
 -119916  -119915  -119912  -119915  -119919  -119917  -119911  -119912 
 -119916  -119917  -119915  -119915  -119915  -119913  -119915  -119916 
 -119913  -119912  -119913  -119913  -119913  -119915  -119916  -119916 
 -119916  -119913  -119913  -119915  -119916  -119912  -119912  -119916 
 -119916  -119915  -119916  -119913  -119913  -119915  -119913  -119909 
 -119911  -119915  -119915  -119915  -119915  -119913  -119913  -119916 
 -119916  -119917  -119915  -119912  -119913  -119913  -119915  -119917 
 -119915  -119913  -119915  -119915  -119916  -119916  -119913  -119913 
 -119915  -119915  -119916  -119916  -119915  -119913  -119915  -119915 
 -119915  -119913  -119913  -119916  -119916  -119912  -119913  -119916 
 -119913  -119913  -119916  -119913  -119912  -119915  -119915  -119913 
 -119912  -119912  -119917  -119916  -119909  -119912  -119916  -119913 
 -119913  -119916  -119917  -119915  -119912  -119912  -119912  -119911 
 -119913  -119919  -119917  -119915  -119915  -119916  -119916  -119915 
 -119912  -119911  -119913  -119916  -119913  -119912  -119917  -119917 
 -119912  -119915  -119916  -119913  -119913  -119916  -119915  -119913 
 -119915  -119916  -119915  -119916  -119915  -119913  -119912  -119912 
 -119909  -119908  -119907  -119905  -119905  -119908  -119915  -119925 
 -119929  -119938  -119951  -119951  -119942  -119942  -119927  -119889 
 -119858  -119835  -119813  -119843  -119943  -120031  -120032  -119955 
 -119858  -119805  -119824  -119873  -119928  -119993  -120040  -120044 
 -120005  -119925  -119853  -119835  -119851  -119859  -119840  -119823 
 -119844  -119878  -119893  -119928  -119985  -120006  -119993  -119989 
 -119989  -119959  -119913  -119884  -119881  -119886  -119884  -119870 
 -119854  -119871  -119919  -119917  -119862  -119853  -119920  -119986 
 -119997  -119979  -119958  -119929  -119928  -119954  -119950  -119898 
 -119842  -119839  -119877  -119885  -119855  -119854  -119888  -119908 
 -119919  -119954  -119973  -119951  -119905  -119861  -119901  -120017 
 -120040  -119951  -119904  -119921  -119915  -119886  -119880  -119851 
 -119804  -119809  -119873  -119925  -119928  -119927  -119963  -120015 
 -120046  -120027  -119961  -119892  -119826  -119763  -119774  -119908 
 -120023  -120008  -119986  -119970  -119874  -119817  -119861  -119907 
 -119927  -119939  -119943  -119962  -119982  -119931  -119854  -119869 
 -119905  -119888  -119890  -119886  -119813  -119796  -119889  -119982 
 -120036  -120035  -119973  -119912  -119889  -119912  -119971  -119975 
 -119907  -119884  -119928  -119938  -119880  -119820  -119839  -119888 
 -119871  -119830  -119842  -119927  -120024  -120046  -119956  -119836 
 -119823  -119917  -119970  -119977  -120013  -119998  -119905  -119853 
 -119889  -119912  -119831  -119758  -119830  -119948  -119989  -119994 
 -119990  -119934  -119857  -119875  -119992  -120035  -119982  -119950 
 -119913  -119840  -119804  -119830  -119893  -119950  -119950  -119925 
 -119913  -119889  -119881  -119929  -119962  -119939  -119917  -119929 
 -119947  -119931  -119920  -119942  -119932  -119871  -119842  -119881 
 -119893  -119878  -119925  -119971  -119947  -119900  -119867  -119847 
 -119842  -119912  -120015  -120013  -119940  -119907  -119917  -119911 
 -119853  -119828  -119900  -119963  -119952  -119893  -119846  -119888 
 -119959  -119985  -120005  -119986  -119908  -119888  -119932  -119948 
 -119936  -119925  -119907  -119900  -119898  -119866  -119848  -119886 
 -119929  -119924  -119908  -119912  -119911  -119915  -119943  -119966 
 -119938  -119861  -119816  -119846  -119894  -119936  -119970  -119961 
 -119924  -119896  -119882  -119923  -120010  -120017  -119907  -119855 
 -119912  -119931  -119900  -119889  -119867  -119835  -119851  -119917 
 -119958  -119944  -119970  -120020  -119966  -119878  -119889  -119925 
 -119920  -119925  -119951  -119955  -119935  -119901  -119835  -119816 
 -119885  -119904  -119875  -119913  -119934  -119870  -119843  -119907 
 -119962  -119958  -119952  -119963  -119962  -119946  -119923  -119917 
 -119940  -119944  -119909  -119866  -119850  -119878  -119901  -119869 
 -119867  -119955  -119996  -119951  -119943  -119950  -119898  -119857 
 -119855  -119881  -119911  -119935  -119975  -119969  -119888  -119854 
 -119893  -119897  -119878  -119912  -119954  -119971  -119989  -119965 
 -119920  -119916  -119912  -119909  -119946  -119967  -119911  -119824 
 -119786  -119824  -119908  -119974  -119982  -119944  -119905  -119888 
 -119874  -119874  -119924  -119970  -119965  -119961  -119962  -119940 
 -119927  -119927  -119909  -119889  -119893  -119882  -119840  -119858 
 -119934  -119932  -119859  -119858  -119928  -119989  -120004  -119955 
 -119871  -119831  -119869  -119932  -119928  -119888  -119900  -119919 
 -119904  -119925  -119970  -119975  -119952  -119913  -119888  -119897 
 -119920  -119923  -119898  -119893  -119911  -119901  -119888  -119912 
 -119947  -119946  -119912  -119877  -119873  -119919  -119966  -119958 
 -119919  -119904  -119893  -119838  -119809  -119892  -119990  -120025 
 -120031  -119981  -119890  -119854  -119870  -119901  -119956  -119965 
 -119902  -119871  -119898  -119897  -119878  -119905  -119929  -119913 
 -119924  -119954  -119932  -119885  -119869  -119884  -119915  -119947 
 -119969  -119959  -119925  -119907  -119890  -119870  -119886  -119924 
 -119925  -119894  -119888  -119923  -119963  -119989  -119985  -119932 
 -119888  -119893  -119905  -119890  -119882  -119893  -119904  -119909 
 -119897  -119909  -119948  -119904  -119848  -119916  -120001  -119998 
 -119947  -119878  -119859  -119889  -119870  -119844  -119874  -119909 
 -119951  -119998  -119974  -119925  -119929  -119939  -119946  -119956 
 -119896  -119796  -119782  -119867  -119951  -119992  -119975  -119897 
 -119847  -119893  -119955  -119954  -119907  -119875  -119886  -119935 
 -119970  -119952  -119931  -119920  -119893  -119912  -119950  -119919 
 -119896  -119923  -119913  -119884  -119904  -119920  -119890  -119892 
 -119934  -119928  -119881  -119875  -119929  -119997  -119988  -119900 
 -119884  -119948  -119934  -119867  -119867  -119871  -119855  -119890 
 -119946  -119977  -119985  -119977  -119963  -119948  -119940  -119912 
 -119847  -119819  -119843  -119866  -119902  -119912  -119869  -119882 
 -119948  -119967  -119939  -119920  -119934  -119928  -119855  -119800 
 -119830  -119888  -119944  -119979  -119971  -119967  -119951  -119878 
 -119831  -119881  -119986  -120071  -120077  -120055  -120087  -120106 
 -120071  -120037  -119971  -119831  -119647  -119503  -119470  -119566 
 -119728  -119908  -120105  -120272  -120312  -120249  -120152  -119997 
 -119819  -119719  -119697  -119669  -119631  -119680  -119811  -119946 
 -120069  -120160  -120137  -119992  -119840  -119796  -119862  -119958 
 -119993  -119963  -119916  -119881  -119850  -119808  -119804  -119847 
 -119869  -119902  -119977  -119978  -119909  -119904  -119971  -120047 
 -120094  -120101  -120082  -119981  -119808  -119750  -119816  -119890 
 -120005  -120075  -119959  -119761  -119646  -119642  -119724  -119851 
 -119936  -119961  -119997  -120025  -120008  -119996  -119971  -119924 
 -119952  -119988  -119894  -119792  -119772  -119786  -119857  -119950 
 -119994  -120000  -119993  -119990  -119979  -119955  -119961  -119967 
 -119908  -119821  -119807  -119855  -119882  -119875  -119877  -119855 
 -119824  -119894  -120015  -120069  -120105  -120086  -119958  -119898 
 -119927  -119842  -119758  -119853  -119975  -119997  -119955  -119897 
 -119859  -119832  -119831  -119913  -120016  -120063  -120058  -119983 
 -119885  -119836  -119803  -119765  -119758  -119785  -119801  -119805 
 -119884  -120029  -120097  -120051  -119993  -119919  -119853  -119898 
 -119975  -119993  -120020  -120021  -119955  -119921  -119932  -119900 
 -119824  -119785  -119830  -119916  -119946  -119894  -119834  -119803 
 -119844  -119979  -120060  -119992  -119894  -119871  -119871  -119850 
 -119823  -119813  -119861  -119963  -120082  -120160  -120101  -119931 
 -119782  -119754  -119847  -119916  -119915  -119952  -119981  -119915 
 -119851  -119846  -119842  -119859  -119925  -119986  -120019  -120019 
 -119969  -119943  -119935  -119840  -119773  -119857  -119927  -119885 
 -119854  -119893  -119924  -119938  -119978  -120023  -120039  -120035 
 -120005  -119954  -119917  -119904  -119865  -119785  -119707  -119688 
 -119739  -119823  -119935  -120048  -120101  -120081  -120008  -119952 
 -119983  -120028  -120017  -120006  -119963  -119844  -119751  -119728 
 -119745  -119819  -119900  -119928  -119967  -120024  -120035  -120035 
 -120046  -119983  -119853  -119773  -119796  -119855  -119877  -119865 
 -119848  -119817  -119830  -119924  -119993  -119970  -119916  -119874 
 -119854  -119842  -119824  -119853  -119956  -120075  -120104  -120044 
 -120031  -120058  -119998  -119897  -119846  -119804  -119776  -119801 
 -119828  -119865  -119946  -119975  -119882  -119763  -119739  -119813 
 -119917  -119993  -120032  -120056  -120028  -119948  -119904  -119905 
 -119897  -119874  -119893  -119969  -120010  -119981  -119958  -119921 
 -119813  -119739  -119792  -119873  -119901  -119931  -119947  -119919 
 -119931  -120001  -119989  -119882  -119853  -119900  -119912  -119942 
 -120000  -119990  -119946  -119950  -119947  -119885  -119867  -119962 
 -120036  -120005  -119943  -119904  -119882  -119855  -119828  -119838 
 -119853  -119838  -119859  -119912  -119932  -119947  -119982  -119992 
 -119935  -119869  -119859  -119875  -119890  -119924  -119963  -119970 
 -119955  -119961  -119979  -119951  -119867  -119834  -119904  -119970 
 -119965  -119963  -119965  -119886  -119808  -119844  -119925  -119958 
 -119939  -119912  -119896  -119850  -119792  -119820  -119911  -119952 
 -119961  -119986  -119966  -119908  -119911  -119944  -119936  -119917 
 -119904  -119885  -119878  -119857  -119813  -119820  -119892  -119951 
 -119955  -119923  -119902  -119921  -119958  -119966  -119942  -119920 
 -119892  -119854  -119861  -119905  -119924  -119916  -119925  -119931 
 -119901  -119915  -119983  -119989  -119932  -119916  -119947  -119978 
 -119982  -119970  -119983  -119986  -119934  -119886  -119866  -119817 
 -119765  -119762  -119807  -119874  -119919  -119907  -119875  -119907 
 -119985  -120012  -120006  -120020  -119996  -119915  -119850  -119869 
 -119959  -120020  -120012  -119979  -119920  -119850  -119811  -119786 
 -119794  -119877  -119955  -119961  -119950  -119952  -119921  -119865 
 -119848  -119885  -119943  -119994  -120012  -119996  -119936  -119859 
 -119853  -119931  -120000  -119986  -119915  -119809  -119711  -119707 
 -119809  -119924  -120016  -120096  -120105  -120012  -119915  -119871 
 -119836  -119805  -119821  -119859  -119878  -119878  -119884  -119915 
 -119963  -119989  -119955  -119900  -119924  -120004  -119996  -119916 
 -119886  -119905  -119917  -119900  -119892  -119935  -119989  -119985 
 -119916  -119850  -119855  -119880  -119871  -119881  -119920  -119934 
 -119942  -119958  -119936  -119902  -119886  -119870  -119857  -119874 
 -119921  -119967  -119965  -119927  -119894  -119890  -119920  -119962 
 -119983  -119977  -119971  -119961  -119924  -119909  -119907  -119870 
 -119854  -119877  -119880  -119866  -119867  -119870  -119874  -119900 
 -119940  -119961  -119958  -119939  -119913  -119889  -119875  -119884 
 -119909  -119951  -119997  -120013  -119979  -119907  -119853  -119867 
 -119919  -119963  -119988  -119988  -119975  -119952  -119900  -119838 
 -119826  -119853  -119847  -119816  -119821  -119865  -119917  -119948 
 -119958  -119994  -120048  -120043  -119983  -119925  -119889  -119884 
 -119889  -119871  -119853  -119862  -119869  -119853  -119846  -119884 
 -119938  -119947  -119932  -119940  -119940  -119909  -119882  -119870 
 -119892  -119944  -119971  -119952  -119927  -119904  -119884  -119888 
 -119913  -119936  -119955  -119955  -119932  -119921  -119929  -119928 
 -119896  -119862  -119866  -119878  -119866  -119880  -119929  -119967 
 -119969  -119958  -119942  -119912  -119893  -119904  -119920  -119927 
 -119936  -119938  -119915  -119885  -119874  -119885  -119890  -119908 
 -119955  -119975  -119935  -119893  -119889  -119907  -119928  -119932 
 -119912  -119902  -119907  -119909  -119923  -119946  -119934  -119898 
 -119900  -119920  -119920  -119920  -119931  -119921  -119889  -119865 
