Origin Time       2025/03/30 10:46:00
Lat.              32.923
Long.             130.372
Depth. (km)       11
Mag.              3.4
Station Code      KMMH17
Station Lat.      32.9873
Station Long.     130.5608
Station Height(m) 55
Record Time       2025/03/30 10:46:24
Sampling Freq(Hz) 100Hz
Duration Time(s)  120
Dir.              4
Scale Factor      7845(gal)/8223790
Max. Acc. (gal)   4.972
Last Correction   2025/03/30 10:46:24
Memo.             
[...]
    2629     2624     2624     2628     2631     2628     2625     2628 
    2632     2629     2625     2624     2625     2628     2625     2627 
    2629     2628     2625     2625     2629     2629     2624     2627 
    2632     2631     2627     2625     2627     2627     2627     2629 
    2628     2624     2625     2628     2629     2631     2629     2624 
    2624     2628     2627     2627     2629     2629     2625     2624 
    2625     2627     2629     2627     2627     2629     2628     2624 
    2627     2631     2631     2627     2624     2624     2624     2625 
    2629     2629     2627     2627     2627     2627     2627     2625 
    2627     2628     2625     2625     2629     2629     2625     2624 
    2628     2631     2627     2623     2624     2628     2631     2629 
    2625     2627     2628     2627     2625     2625     2624     2624 
    2629     2632     2628     2624     2627     2629     2628     2627 
    2625     2623     2624     2628     2631     2629     2625     2624 
    2625     2627     2627     2628     2628     2628     2627     2627 
    2628     2629     2628     2625     2627     2627     2627     2627 
    2624     2625     2628     2628     2628     2631     2629     2625 
    2624     2625     2629     2629     2627     2627     2627     2628 
    2627     2625     2629     2631     2627     2624     2624     2621 
    2623     2629     2632     2631     2628     2624     2624     2627 
    2625     2627     2627     2628     2628     2623     2625     2632 
    2628     2627     2631     2628     2625     2628     2625     2621 
    2625     2629     2627     2625     2628     2629     2629     2629 
    2629     2627     2627     2631     2631     2628     2631     2632 
    2627     2625     2629     2629     2628     2627     2625     2625 
    2631     2631     2627     2628     2628     2625     2627     2631 
    2629     2625     2624     2627     2628     2627     2628     2631 
    2629     2624     2624     2627     2627     2627     2629     2629 
    2628     2627     2625     2627     2627     2625     2628     2632 
    2628     2623     2625     2629     2628     2625     2625     2627 
    2628     2628     2628     2628     2629     2628     2627     2627 
    2627     2627     2628     2628     2624     2625     2629     2631 
    2628     2628     2624     2624     2629     2631     2625     2627 
    2631     2627     2624     2629     2629     2623     2624     2631 
    2629     2623     2624     2629     2627     2627     2628     2625 
    2624     2623     2625     2628     2627     2628     2629     2627 
    2627     2631     2628     2625     2631     2631     2625     2627 
    2632     2632     2628     2625     2625     2629     2629     2624 
    2623     2625     2627     2629     2632     2628     2623     2624 
    2628     2628     2625     2623     2624     2629     2629     2628 
    2631     2631     2628     2627     2624     2624     2629     2629 
    2625     2628     2625     2623     2628     2627     2623     2629 
    2629     2627     2627     2625     2625     2628     2631     2629 
    2624     2621     2625     2627     2629     2631     2628     2624 
    2623     2627     2629     2629     2624     2623     2625     2627 
    2627     2627     2627     2625     2625     2628     2631     2629 
    2629     2628     2625     2627     2627     2628     2629     2628 
    2625     2624     2625     2631     2631     2628     2627     2624 
    2625     2628     2628     2628     2628     2628     2627     2624 
    2625     2629     2625     2621     2629     2632     2625     2624 
    2629     2629     2628     2627     2629     2632     2628     2625 
    2629     2629     2628     2628     2629     2628     2625     2624 
    2627     2629     2629     2627     2625     2628     2632     2629 
    2623     2623     2625     2625     2629     2629     2624     2624 
    2628     2627     2624     2624     2628     2631     2629     2625 
    2628     2628     2624     2627     2631     2629     2625     2625 
    2627     2625     2623     2628     2632     2629     2627     2625 
    2627     2628     2625     2625     2628     2631     2629     2627 
    2624     2623     2623     2625     2631     2631     2627     2627 
    2629     2627     2625     2627     2629     2628     2627     2627 
    2624     2624     2628     2631     2627     2623     2624     2629 
    2631     2627     2624     2629     2631     2625     2625     2631 
    2631     2628     2625     2625     2625     2627     2628     2629 
    2628     2627     2625     2625     2627     2629     2627     2627 
    2629     2631     2625     2624     2625     2629     2631     2629 
    2625     2625     2628     2625     2628     2632     2631     2628 
    2628     2628     2627     2625     2627     2629     2629     2628 
    2627     2628     2628     2628     2631     2629     2624     2627 
    2629     2628     2628     2628     2627     2627     2625     2625 
    2631     2633     2627     2624     2627     2627     2624     2623 
    2628     2631     2627     2627     2628     2624     2621     2625 
    2628     2627     2628     2628     2625     2627     2628     2627 
    2625     2627     2627     2625     2627     2628     2625     2624 
    2627     2628     2625     2625     2627     2624     2624     2628 
    2628     2627     2627     2627     2628     2627     2625     2627 
    2627     2625     2627     2628     2628     2629     2627     2625 
    2627     2628     2628     2627     2624     2624     2629     2632 
    2629     2627     2625     2625     2624     2625     2629     2629 
    2624     2624     2627     2627     2627     2629     2629     2625 
    2623     2627     2631     2631     2627     2624     2627     2629 
    2625     2628     2633     2627     2621     2628     2631     2627 
    2623     2628     2629     2625     2624     2629     2629     2627 
    2627     2623     2623     2629     2633     2628     2625     2627 
    2627     2625     2628     2632     2633     2627     2621     2624 
    2631     2631     2627     2627     2627     2627     2628     2628 
    2627     2627     2625     2625     2629     2631     2625     2627 
    2627     2623     2627     2631     2627     2627     2629     2628 
    2627     2625     2623     2627     2633     2628     2621     2624 
    2629     2631     2627     2627     2632     2627     2623     2628 
    2631     2625     2625     2629     2632     2629     2625     2627 
    2631     2628     2627     2629     2629     2628     2627     2624 
    2625     2629     2632     2629     2625     2625     2628     2627 
    2627     2628     2625     2625     2629     2628     2627     2627 
    2627     2625     2623     2625     2629     2631     2628     2625 
    2625     2627     2629     2631     2629     2627     2624     2625 
    2629     2628     2625     2627     2625     2624     2628     2631 
    2629     2625     2624     2627     2629     2627     2627     2629 
    2629     2625     2624     2627     2627     2628     2629     2629 
    2631     2628     2624     2625     2628     2628     2628     2631 
    2629     2627     2625     2623     2625     2629     2628     2627 
    2629     2629     2628     2627     2628     2629     2628     2628 
    2631     2631     2627     2624     2625     2629     2628     2627 
    2627     2627     2625     2627     2632     2632     2627     2623 
    2624     2627     2625     2627     2629     2627     2625     2628 
    2631     2627     2625     2625     2624     2627     2629     2628 
    2627     2624     2627     2631     2628     2628     2625     2620 
    2625     2629     2627     2627     2628     2628     2628     2628 
    2627     2625     2624     2627     2632     2631     2624     2624 
    2628     2628     2627     2627     2627     2627     2624     2625 
    2631     2627     2624     2629     2631     2623     2621     2629 
    2629     2625     2624     2624     2624     2629     2632     2629 
    2628     2629     2631     2625     2623     2625     2629     2629 
    2625     2627     2628     2627     2625     2627     2627     2629 
    2629     2625     2627     2629     2627     2623     2625     2627 
    2627     2628     2628     2628     2628     2627     2627     2628 
    2625     2625     2629     2632     2628     2624     2625     2628 
    2632     2628     2625     2629     2627     2624     2628     2631 
    2627     2623     2627     2629     2624     2625     2631     2628 
    2621     2623     2631     2632     2627     2625     2629     2627 
    2624     2627     2629     2629     2627     2625     2628     2628 
    2623     2624     2632     2629     2621     2625     2632     2629 
    2627     2627     2627     2627     2625     2628     2631     2631 
    2629     2627     2625     2627     2628     2628     2624     2624 
    2625     2625     2627     2627     2625     2628     2629     2628 
    2628     2628     2627     2628     2628     2627     2627     2627 
    2628     2628     2625     2627     2629     2628     2625     2627 
    2628     2625     2625     2632     2631     2624     2625     2629 
    2627     2625     2625     2625     2628     2628     2627     2627 
    2625     2623     2628     2631     2625     2627     2631     2628 
    2624     2625     2629     2628     2625     2627     2629     2627 
    2623     2625     2628     2627     2628     2628     2627     2629 
    2629     2624     2623     2627     2631     2631     2624     2620 
    2623     2627     2628     2628     2628     2627     2625     2623 
    2624     2629     2629     2624     2627     2629     2627     2625 
    2629     2633     2629     2625     2627     2627     2629     2629 
    2629     2629     2627     2627     2628     2627     2627     2628 
    2629     2627     2621     2623     2627     2627     2627     2625 
    2624     2628     2632     2628     2627     2629     2625     2621 
    2627     2629     2625     2628     2631     2628     2625     2627 
    2629     2628     2624     2625     2627     2625     2625     2627 
    2628     2627     2624     2627     2629     2624     2621     2628 
    2631     2631     2632     2627     2623     2624     2629     2635 
    2629     2623     2627     2629     2627     2627     2628     2627 
    2627     2627     2628     2629     2627     2624     2625     2627 
    2629     2629     2624     2623     2631     2632     2627     2627 
    2628     2627     2629     2628     2624     2625     2624     2623 
    2631     2632     2628     2627     2623     2623     2627     2631 
    2632     2628     2624     2625     2629     2629     2628     2627 
    2627     2624     2623     2628     2635     2629     2624     2625 
    2628     2627     2627     2631     2628     2621     2623     2627 
    2627     2628     2631     2627     2624     2627     2631     2628 
    2624     2621     2624     2628     2627     2629     2632     2628 
    2624     2624     2627     2628     2627     2624     2628     2632 
    2627     2623     2625     2628     2629     2627     2627     2628 
    2628     2628     2627     2624     2625     2628     2625     2627 
    2627     2627     2628     2629     2628     2628     2628     2628 
    2629     2629     2627     2625     2627     2629     2628     2625 
    2627     2631     2631     2625     2624     2628     2631     2629 
    2628     2624     2625     2629     2628     2625     2625     2629 
    2631     2628     2625     2625     2624     2624     2627     2631 
    2632     2629     2627     2625     2625     2627     2625     2625 
    2627     2629     2628     2625     2627     2629     2629     2627 
    2625     2624     2625     2627     2628     2628     2628     2627 
    2627     2627     2627     2624     2623     2624     2625     2628 
    2632     2632     2628     2624     2625     2627     2625     2625 
    2627     2625     2623     2629     2633     2628     2623     2620 
    2623     2628     2628     2624     2624     2627     2627     2628 
    2627     2625     2627     2627     2623     2627     2631     2625 
    2623     2627     2628     2627     2627     2628     2628     2625 
    2624     2627     2625     2625     2628     2627     2624     2625 
    2625     2624     2625     2628     2628     2625     2625     2625 
    2624     2623     2625     2631     2631     2627     2624     2624 
    2629     2632     2628     2627     2627     2625     2627     2627 
    2625     2628     2629     2627     2629     2631     2627     2625 
    2627     2625     2625     2627     2628     2631     2632     2629 
    2625     2623     2627     2628     2627     2631     2632     2624 
    2624     2629     2627     2624     2627     2628     2627     2624 
    2624     2627     2629     2629     2628     2625     2628     2628 
    2625     2627     2629     2629     2625     2625     2628     2629 
    2625     2627     2631     2625     2624     2631     2628     2623 
    2628     2631     2624     2623     2627     2629     2631     2629 
    2629     2629     2624     2623     2628     2629     2627     2625 
    2628     2629     2629     2628     2627     2628     2628     2627 
    2628     2628     2628     2628     2625     2623     2627     2633 
    2632     2625     2623     2620     2585     2477     2308     2251 
    2494     2778     2660     2547     3267     4461     4854     3538 
     895     -915     -627      607     2899     6374     7839     5884 
    2685     -360    -1942    -1003     1067     2948     4712     6450 
    6932     4378     1043       36      -74      487     2262     2847 
    3121     4621     4631     3121     2438     2118     1717     1856 
    2128     1931     1971     2979     3847     4027     4035     3057 
    1615     1501     1814     1880     2729     3325     2712     2361 
    2755     3076     3095     2866     2535     2145     1899     2255 
    2763     2990     3295     3187     2462     2334     2749     2712 
    2552     2320     1775     1823     2551     3291     3721     3144 
    2126     1861     2047     2547     3179     3175     2903     2843 
    2631     2443     2592     2790     2936     2790     2138     1881 
    2459     2938     2890     2656     2466     2370     2272     2366 
    2883     3295     3132     2705     2304     2038     2297     2890 
    3141     3132     2965     2620     2467     2166     1730     2043 
    2732     3207     3431     2997     2502     2612     2569     2324 
    2412     2565     2550     2416     2401     2704     2872     2785 
    2871     2906     2709     2544     2370     2380     2443     2101 
    2173     3034     3546     3376     2929     2366     2108     2259 
    2309     2295     2575     2872     2976     3036     2836     2452 
    2394     2477     2359     2509     2994     2982     2462     2303 
    2643     3053     3315     3200     2457     1417     1162     2123 
    3302     3771     3446     2722     2211     2074     2087     2322 
    2901     3366     3146     2551     2297     2408     2604     2736 
    2651     2671     2890     2687     2207     2128     2411     2691 
    2832     2860     2781     2759     2887     2810     2600     2625 
    2667     2543     2303     2073     2142     2525     2995     3285 
    3141     2539     1904     1962     2663     3156     3199     3067 
    2840     2528     2234     2235     2548     2735     2708     2667 
    2551     2515     2806     3002     2674     2170     2068     2392 
    2739     2907     2879     2639     2397     2424     2741     3129 
    3223     2899     2474     2231     2168     2334     2720     2821 
    2355     2085     2512     3025     3215     3053     2392     1783 
    2096     2916     3333     3372     3069     2374     2025     2344 
    2751     2802     2376     1944     2309     3180     3630     3653 
    3532     2852     1603      773      853     1537     2735     4006 
    4398     4029     3712     3146     2104     1537     1587     1680 
    1979     2492     2957     3208     2893     2201     1857     2157 
    2795     3287     3478     3411     3073     2648     2312     2253 
    2631     2786     2280     1931     2180     2678     3159     3326 
    3284     3231     2617     1385      634      972     2010     3289 
    4226     4388     4029     3329     2427     1873     1981     2369 
    2386     2137     2350     2762     2535     2061     2173     2739 
    3171     3175     2995     2913     2747     2519     2496     2629 
    2808     2839     2547     2442     2832     3068     2793     2305 
    1948     1896     2007     2398     3168     3667     3546     2893 
    1969     1551     1925     2706     3532     3900     3557     2636 
    1591     1298     1912     2616     2963     2974     2502     1902 
    2069     2960     3693     3699     2875     1873     1590     2025 
    2693     3314     3511     3072     2413     2191     2708     3341 
    3088     2181     1813     2327     2798     2654     2459     2485 
    2654     3076     3244     2833     2386     2168     2104     2308 
    2700     2866     2740     2616     2508     2550     2951     3253 
    3001     2396     1972     2045     2366     2718     3030     3007 
    2812     2849     2901     2700     2344     1969     1800     2124 
    2789     3248     3375     3357     3017     2326     1783     1827 
    2478     3118     3144     2960     2991     2894     2567     2323 
    2239     2280     2394     2384     2355     2678     3146     3279 
    2940     2359     2101     2454     2926     2918     2614     2529 
    2411     2000     2010     2681     3233     3272     2972     2516 
    2207     2432     2959     3041     2671     2320     2092     2122 
    2401     2810     3225     3199     2781     2521     2547     2702 
    2787     2691     2478     2231     2168     2521     2983     3079 
    2781     2249     2023     2506     3025     3079     3024     2995 
    2635     1976     1919     2560     2747     2473     2527     2785 
    3036     3215     2922     2261     1872     1973     2440     3137 
    3532     3169     2508     2242     2357     2477     2428     2366 
    2566     2929     3100     2948     2585     2336     2477     2805 
    2884     2585     2182     2249     2909     3316     2840     2042 
    1671     1900     2678     3480     3576     3138     2606     2038 
    1942     2531     2928     2816     2714     2575     2317     2382 
    2706     2907     3017     3028     2798     2452     2151     2025 
    2292     2883     3273     3022     2525     2465     2563     2398 
    2382     2668     2880     2848     2641     2469     2400     2353 
    2489     2806     2901     2786     2770     2667     2432     2415 
    2571     2744     2944     2903     2565     2436     2623     2663 
    2447     2254     2212     2330     2646     2963     3017     3017 
    3076     2925     2697     2566     2357     2253     2394     2438 
    2396     2594     2855     2871     2805     2728     2416     2143 
    2351     2870     3315     3338     2781     2123     1910     2124 
    2542     2978     3159     2990     2605     2142     2124     2740 
    3010     2658     2644     3010     2952     2354     1806     1953 
