Origin Time       2025/03/30 10:46:00
Lat.              32.923
Long.             130.372
Depth. (km)       11
Mag.              3.4
Station Code      KMMH18
Station Lat.      33.0031
Station Long.     131.0071
Station Height(m) 854.038
Record Time       2025/03/30 10:46:39
Sampling Freq(Hz) 100Hz
Duration Time(s)  120
Dir.              3
Scale Factor      3923(gal)/8224838
Max. Acc. (gal)   0.090
Last Correction   2025/03/30 10:46:38
Memo.             
  -26388   -26388   -26388   -26387   -26387   -26387   -26387   -26387 
  -26387   -26387   -26385   -26385   -26388   -26389   -26387   -26387 
  -26389   -26389   -26388   -26388   -26388   -26388   -26387   -26387 
  -26387   -26387   -26387   -26388   -26388   -26388   -26388   -26388 
  -26387   -26388   -26387   -26387   -26387   -26385   -26384   -26385 
  -26387   -26387   -26388   -26388   -26387   -26388   -26388   -26387 
  -26387   -26389   -26387   -26387   -26389   -26388   -26387   -26388 
  -26387   -26387   -26391   -26389   -26387   -26389   -26391   -26388 
  -26388   -26387   -26385   -26385   -26384   -26383   -26387   -26388 
  -26385   -26385   -26387   -26387   -26388   -26389   -26388   -26385 
  -26385   -26385   -26388   -26389   -26388   -26387   -26387   -26385 
  -26385   -26387   -26387   -26385   -26387   -26387   -26387   -26387 
  -26387   -26388   -26391   -26389   -26388   -26387   -26387   -26387 
  -26388   -26385   -26385   -26388   -26385   -26383   -26385   -26387 
  -26387   -26388   -26385   -26385   -26388   -26388   -26388   -26388 
  -26385   -26387   -26388   -26387   -26385   -26387   -26387   -26385 
  -26385   -26388   -26388   -26387   -26388   -26385   -26385   -26387 
  -26385   -26384   -26388   -26387   -26385   -26387   -26387   -26388 
  -26389   -26387   -26387   -26387   -26387   -26388   -26387   -26387 
  -26388   -26388   -26388   -26388   -26388   -26391   -26388   -26387 
  -26388   -26388   -26389   -26389   -26387   -26388   -26389   -26388 
  -26387   -26387   -26388   -26389   -26388   -26387   -26385   -26387 
  -26388   -26388   -26389   -26388   -26384   -26384   -26388   -26389 
  -26385   -26387   -26391   -26389   -26388   -26388   -26388   -26388 
  -26388   -26385   -26385   -26388   -26388   -26387   -26388   -26388 
  -26387   -26387   -26388   -26385   -26385   -26388   -26389   -26385 
  -26387   -26389   -26388   -26387   -26387   -26385   -26387   -26385 
  -26385   -26388   -26388   -26385   -26387   -26385   -26385   -26388 
  -26387   -26387   -26387   -26384   -26383   -26387   -26389   -26388 
  -26388   -26388   -26388   -26388   -26387   -26387   -26388   -26387 
  -26385   -26387   -26387   -26385   -26388   -26391   -26388   -26389 
  -26389   -26387   -26388   -26389   -26387   -26387   -26387   -26388 
  -26391   -26391   -26388   -26389   -26391   -26387   -26385   -26387 
  -26387   -26388   -26389   -26388   -26387   -26388   -26389   -26385 
  -26385   -26387   -26387   -26385   -26388   -26388   -26385   -26385 
  -26387   -26385   -26385   -26385   -26387   -26387   -26388   -26391 
  -26387   -26385   -26388   -26388   -26387   -26387   -26387   -26388 
  -26387   -26385   -26384   -26384   -26388   -26387   -26385   -26388 
  -26385   -26384   -26388   -26388   -26387   -26388   -26385   -26385 
  -26388   -26388   -26387   -26385   -26385   -26387   -26385   -26387 
  -26389   -26387   -26385   -26388   -26389   -26387   -26387   -26388 
  -26387   -26385   -26385   -26387   -26387   -26385   -26384   -26385 
  -26387   -26388   -26387   -26385   -26387   -26389   -26387   -26384 
  -26387   -26388   -26388   -26388   -26387   -26387   -26388   -26385 
  -26385   -26387   -26388   -26389   -26389   -26388   -26388   -26389 
  -26389   -26388   -26388   -26387   -26385   -26388   -26388   -26388 
  -26387   -26385   -26384   -26387   -26387   -26384   -26387   -26387 
  -26385   -26387   -26387   -26387   -26387   -26387   -26387   -26384 
  -26384   -26387   -26387   -26384   -26385   -26388   -26388   -26387 
  -26387   -26387   -26387   -26385   -26385   -26387   -26387   -26385 
  -26387   -26388   -26385   -26387   -26389   -26387   -26385   -26388 
  -26388   -26389   -26388   -26384   -26384   -26387   -26385   -26384 
  -26384   -26385   -26388   -26387   -26384   -26385   -26387   -26387 
  -26385   -26385   -26387   -26388   -26385   -26384   -26388   -26389 
  -26387   -26385   -26387   -26387   -26388   -26388   -26388   -26387 
  -26385   -26385   -26387   -26387   -26387   -26389   -26389   -26389 
  -26388   -26387   -26385   -26387   -26388   -26387   -26385   -26387 
  -26387   -26388   -26389   -26387   -26387   -26389   -26389   -26387 
  -26387   -26388   -26389   -26388   -26385   -26387   -26389   -26389 
  -26388   -26388   -26388   -26387   -26385   -26385   -26385   -26385 
  -26387   -26385   -26387   -26391   -26388   -26384   -26387   -26391 
  -26385   -26383   -26388   -26387   -26385   -26389   -26391   -26385 
  -26384   -26387   -26385   -26385   -26387   -26389   -26388   -26385 
  -26387   -26388   -26387   -26387   -26387   -26385   -26385   -26385 
  -26387   -26388   -26385   -26384   -26387   -26387   -26385   -26387 
  -26387   -26387   -26387   -26388   -26388   -26388   -26388   -26387 
  -26387   -26387   -26384   -26385   -26388   -26387   -26384   -26388 
  -26389   -26384   -26384   -26387   -26385   -26385   -26385   -26387 
  -26387   -26387   -26385   -26384   -26387   -26389   -26388   -26387 
  -26385   -26387   -26388   -26388   -26389   -26388   -26387   -26388 
  -26391   -26388   -26385   -26388   -26389   -26385   -26387   -26388 
  -26385   -26387   -26388   -26388   -26388   -26385   -26385   -26388 
  -26388   -26387   -26388   -26384   -26385   -26389   -26391   -26391 
  -26387   -26387   -26389   -26388   -26385   -26385   -26385   -26387 
  -26388   -26388   -26387   -26387   -26387   -26388   -26387   -26385 
  -26387   -26387   -26387   -26387   -26387   -26388   -26389   -26387 
  -26387   -26388   -26388   -26385   -26385   -26387   -26388   -26387 
  -26387   -26389   -26388   -26385   -26387   -26388   -26387   -26387 
  -26388   -26388   -26387   -26388   -26387   -26385   -26387   -26387 
  -26388   -26387   -26385   -26388   -26389   -26389   -26391   -26388 
  -26384   -26385   -26388   -26387   -26388   -26389   -26391   -26389 
  -26387   -26388   -26391   -26388   -26388   -26389   -26388   -26388 
  -26388   -26388   -26391   -26392   -26389   -26388   -26388   -26387 
  -26388   -26389   -26388   -26387   -26385   -26388   -26387   -26384 
  -26385   -26388   -26388   -26385   -26384   -26389   -26391   -26389 
  -26389   -26388   -26384   -26385   -26388   -26388   -26385   -26385 
  -26385   -26387   -26388   -26388   -26388   -26387   -26387   -26388 
  -26388   -26387   -26388   -26389   -26387   -26388   -26389   -26387 
  -26387   -26391   -26393   -26399   -26408   -26424   -26446   -26470 
  -26485   -26482   -26451   -26387   -26314   -26268   -26265   -26293 
  -26322   -26322   -26296   -26277   -26303   -26373   -26460   -26514 
  -26505   -26435   -26345   -26299   -26327   -26396   -26443   -26426 
  -26339   -26237   -26198   -26272   -26427   -26549   -26550   -26462 
  -26388   -26379   -26419   -26472   -26493   -26449   -26360   -26295 
  -26302   -26360   -26420   -26457   -26460   -26427   -26370   -26338 
  -26372   -26451   -26495   -26464   -26404   -26381   -26399   -26411 
  -26379   -26322   -26285   -26280   -26298   -26330   -26365   -26395 
  -26416   -26426   -26424   -26400   -26354   -26314   -26298   -26310 
  -26358   -26438   -26511   -26522   -26450   -26347   -26284   -26308 
  -26415   -26518   -26526   -26447   -26342   -26254   -26242   -26298 
  -26360   -26403   -26420   -26400   -26379   -26373   -26372   -26422 
  -26522   -26562   -26472   -26335   -26266   -26291   -26381   -26472 
  -26485   -26439   -26383   -26320   -26284   -26335   -26435   -26476 
  -26435   -26365   -26331   -26365   -26411   -26431   -26428   -26392 
  -26337   -26293   -26280   -26327   -26410   -26478   -26505   -26438 
  -26315   -26277   -26362   -26476   -26515   -26431   -26307   -26254 
  -26279   -26350   -26441   -26472   -26403   -26289   -26227   -26271 
  -26370   -26433   -26446   -26458   -26458   -26443   -26447   -26447 
  -26427   -26396   -26360   -26357   -26374   -26374   -26392   -26433 
  -26446   -26449   -26441   -26393   -26343   -26319   -26304   -26335 
  -26415   -26458   -26435   -26391   -26357   -26346   -26376   -26424 
  -26423   -26381   -26364   -26374   -26376   -26374   -26384   -26369 
  -26326   -26308   -26329   -26368   -26418   -26424   -26388   -26374 
  -26372   -26372   -26410   -26442   -26424   -26392   -26368   -26357 
  -26354   -26354   -26385   -26443   -26470   -26449   -26414   -26392 
  -26389   -26391   -26374   -26349   -26339   -26374   -26424   -26427 
  -26374   -26329   -26325   -26325   -26320   -26352   -26391   -26392 
  -26400   -26439   -26503   -26545   -26481   -26364   -26325   -26345 
  -26360   -26380   -26395   -26381   -26358   -26357   -26385   -26419 
  -26433   -26426   -26411   -26384   -26341   -26310   -26330   -26391 
  -26410   -26380   -26384   -26401   -26392   -26414   -26465   -26477 
  -26437   -26376   -26322   -26307   -26322   -26331   -26341   -26360 
  -26358   -26349   -26366   -26387   -26403   -26446   -26489   -26472 
  -26408   -26342   -26316   -26350   -26395   -26407   -26411   -26433 
  -26420   -26354   -26311   -26352   -26441   -26493   -26474   -26431 
  -26395   -26368   -26370   -26403   -26414   -26374   -26316   -26287 
  -26302   -26349   -26412   -26470   -26484   -26435   -26358   -26298 
  -26298   -26368   -26462   -26526   -26495   -26356   -26231   -26226 
  -26326   -26439   -26468   -26410   -26335   -26310   -26360   -26441 
  -26496   -26497   -26430   -26342   -26306   -26318   -26345   -26368 
  -26380   -26392   -26391   -26369   -26362   -26400   -26453   -26488 
  -26480   -26406   -26304   -26272   -26333   -26435   -26491   -26458 
  -26391   -26338   -26320   -26354   -26408   -26428   -26400   -26364 
  -26357   -26379   -26392   -26392   -26389   -26380   -26379   -26407 
  -26441   -26431   -26399   -26400   -26426   -26426   -26408   -26387 
  -26361   -26347   -26346   -26356   -26387   -26412   -26411   -26412 
  -26431   -26410   -26350   -26315   -26312   -26325   -26346   -26347 
  -26341   -26356   -26366   -26372   -26410   -26455   -26458   -26426 
  -26404   -26406   -26399   -26373   -26364   -26388   -26424   -26423 
  -26381   -26357   -26356   -26357   -26373   -26397   -26403   -26389 
  -26380   -26374   -26380   -26401   -26422   -26424   -26401   -26362 
  -26338   -26346   -26364   -26389   -26426   -26446   -26438   -26420 
  -26396   -26379   -26396   -26434   -26426   -26383   -26352   -26327 
  -26323   -26349   -26360   -26354   -26365   -26381   -26410   -26441 
  -26434   -26411   -26408   -26400   -26383   -26380   -26369   -26349 
  -26360   -26377   -26358   -26349   -26380   -26406   -26422   -26407 
  -26342   -26298   -26320   -26384   -26453   -26460   -26392   -26331 
  -26346   -26412   -26451   -26449   -26447   -26424   -26365   -26346 
  -26389   -26438   -26457   -26439   -26406   -26392   -26397   -26393 
  -26377   -26353   -26327   -26331   -26354   -26346   -26319   -26319 
  -26362   -26408   -26408   -26400   -26434   -26462   -26426   -26360 
  -26327   -26360   -26410   -26420   -26388   -26343   -26322   -26341 
  -26389   -26454   -26489   -26449   -26368   -26310   -26303   -26358 
  -26433   -26455   -26422   -26366   -26320   -26330   -26383   -26414 
  -26427   -26446   -26454   -26435   -26397   -26369   -26373   -26385 
  -26376   -26350   -26335   -26339   -26353   -26374   -26415   -26445 
  -26423   -26385   -26376   -26396   -26422   -26419   -26392   -26362 
  -26329   -26339   -26415   -26455   -26428   -26392   -26358   -26341 
  -26341   -26338   -26361   -26416   -26434   -26396   -26362   -26370 
  -26395   -26404   -26403   -26396   -26379   -26347   -26323   -26343 
  -26388   -26410   -26427   -26453   -26428   -26373   -26373   -26424 
  -26472   -26462   -26383   -26299   -26269   -26284   -26338   -26412 
  -26457   -26462   -26435   -26400   -26397   -26422   -26435   -26407 
  -26349   -26318   -26311   -26307   -26357   -26458   -26501   -26438 
  -26341   -26300   -26333   -26388   -26415   -26414   -26396   -26366 
  -26327   -26314   -26345   -26383   -26395   -26381   -26372   -26385 
  -26410   -26442   -26478   -26489   -26453   -26381   -26339   -26365 
  -26393   -26387   -26392   -26403   -26381   -26346   -26320   -26333 
  -26387   -26420   -26412   -26411   -26420   -26407   -26387   -26391 
  -26418   -26433   -26393   -26327   -26307   -26316   -26327   -26372 
  -26420   -26431   -26435   -26422   -26389   -26397   -26424   -26423 
  -26406   -26373   -26330   -26310   -26319   -26370   -26431   -26443 
  -26415   -26389   -26368   -26364   -26379   -26400   -26416   -26414 
  -26395   -26387   -26383   -26368   -26379   -26414   -26407   -26369 
  -26357   -26364   -26369   -26380   -26392   -26415   -26434   -26407 
  -26350   -26327   -26353   -26395   -26414   -26410   -26406   -26391 
  -26370   -26373   -26381   -26387   -26401   -26411   -26404   -26388 
  -26379   -26395   -26414   -26420   -26430   -26433   -26397   -26333 
  -26296   -26316   -26349   -26373   -26408   -26427   -26404   -26373 
  -26373   -26406   -26433   -26431   -26426   -26412   -26376   -26354 
  -26377   -26418   -26414   -26342   -26277   -26288   -26347   -26406 
  -26446   -26465   -26449   -26414   -26389   -26380   -26385   -26401 
  -26404   -26387   -26353   -26308   -26284   -26307   -26354   -26399 
  -26447   -26493   -26496   -26445   -26393   -26354   -26316   -26300 
  -26303   -26323   -26353   -26361   -26366   -26395   -26424   -26442 
  -26434   -26418   -26427   -26449   -26453   -26431   -26385   -26337 
  -26316   -26343   -26408   -26458   -26461   -26426   -26392   -26380 
  -26388   -26377   -26341   -26312   -26296   -26300   -26345   -26400 
  -26415   -26391   -26362   -26372   -26419   -26466   -26492   -26492 
  -26462   -26418   -26392   -26393   -26389   -26368   -26343   -26329 
  -26347   -26385   -26384   -26342   -26311   -26307   -26329   -26381 
  -26433   -26433   -26406   -26400   -26407   -26403   -26381   -26358 
  -26353   -26361   -26369   -26403   -26474   -26523   -26485   -26383 
  -26275   -26221   -26269   -26385   -26457   -26449   -26415   -26397 
  -26393   -26392   -26399   -26412   -26426   -26416   -26381   -26360 
  -26357   -26338   -26315   -26322   -26353   -26385   -26419   -26457 
  -26482   -26487   -26478   -26447   -26393   -26354   -26346   -26327 
  -26287   -26280   -26325   -26372   -26381   -26370   -26380   -26418 
  -26454   -26455   -26419   -26356   -26288   -26288   -26383   -26476 
  -26507   -26488   -26443   -26408   -26395   -26392   -26396   -26385 
  -26345   -26292   -26261   -26291   -26350   -26388   -26415   -26437 
  -26423   -26404   -26424   -26443   -26427   -26393   -26374   -26387 
  -26397   -26362   -26326   -26352   -26403   -26400   -26349   -26300 
  -26291   -26338   -26411   -26464   -26478   -26460   -26428   -26401 
  -26370   -26346   -26358   -26410   -26476   -26489   -26400   -26276 
  -26212   -26227   -26322   -26469   -26565   -26551   -26474   -26400 
  -26365   -26372   -26381   -26368   -26331   -26285   -26269   -26319 
  -26385   -26428   -26480   -26516   -26480   -26391   -26308   -26283 
  -26320   -26370   -26403   -26434   -26447   -26416   -26365   -26327 
  -26326   -26356   -26379   -26389   -26397   -26381   -26368   -26400 
  -26455   -26493   -26484   -26443   -26412   -26379   -26326   -26285 
  -26291   -26347   -26423   -26470   -26473   -26428   -26349   -26280 
  -26272   -26322   -26381   -26420   -26430   -26423   -26416   -26397 
  -26384   -26404   -26419   -26415   -26401   -26364   -26326   -26333 
  -26373   -26412   -26424   -26412   -26391   -26368   -26354   -26354 
  -26373   -26410   -26434   -26427   -26388   -26346   -26333   -26346 
  -26368   -26401   -26447   -26470   -26438   -26377   -26342   -26337 
  -26330   -26323   -26335   -26358   -26385   -26415   -26420   -26408 
  -26415   -26420   -26406   -26403   -26410   -26403   -26406   -26416 
  -26412   -26412   -26433   -26439   -26418   -26383   -26370   -26392 
  -26401   -26370   -26338   -26338   -26368   -26408   -26455   -26484 
  -26441   -26346   -26283   -26289   -26327   -26357   -26372   -26347 
  -26298   -26292   -26354   -26458   -26549   -26539   -26439   -26337 
  -26269   -26257   -26308   -26379   -26442   -26489   -26493   -26442 
  -26385   -26362   -26362   -26381   -26411   -26418   -26391   -26361 
  -26356   -26376   -26384   -26356   -26316   -26315   -26368   -26446 
  -26493   -26473   -26407   -26341   -26295   -26287   -26320   -26353 
  -26365   -26400   -26476   -26535   -26507   -26416   -26330   -26299 
  -26334   -26388   -26445   -26507   -26539   -26530   -26487   -26414 
  -26341   -26306   -26308   -26318   -26306   -26280   -26292   -26356 
  -26419   -26438   -26415   -26365   -26308   -26281   -26327   -26426 
  -26497   -26504   -26461   -26403   -26366   -26349   -26337   -26343 
  -26346   -26325   -26325   -26364   -26404   -26438   -26461   -26451 
  -26420   -26399   -26406   -26427   -26411   -26353   -26315   -26329 
  -26353   -26357   -26353   -26377   -26437   -26480   -26468   -26427 
  -26393   -26370   -26360   -26370   -26391   -26393   -26362   -26320 
  -26330   -26392   -26435   -26439   -26435   -26419   -26388   -26362 
  -26346   -26352   -26391   -26426   -26438   -26441   -26407   -26343 
  -26320   -26352   -26384   -26391   -26388   -26385   -26383   -26396 
  -26418   -26418   -26384   -26334   -26308   -26342   -26392   -26412 
  -26420   -26420   -26415   -26423   -26430   -26407   -26360   -26300 
  -26272   -26312   -26391   -26449   -26453   -26418   -26383   -26366 
  -26365   -26389   -26403   -26379   -26339   -26323   -26357   -26426 
  -26481   -26488   -26462   -26420   -26374   -26357   -26374   -26391 
  -26399   -26419   -26426   -26404   -26389   -26374   -26354   -26350 
  -26358   -26364   -26365   -26361   -26356   -26373   -26415   -26450 
  -26451   -26410   -26356   -26334   -26345   -26364   -26372   -26373 
  -26370   -26370   -26387   -26415   -26441   -26460   -26462   -26439 
  -26406   -26376   -26345   -26326   -26327   -26341   -26354   -26364 
  -26384   -26410   -26407   -26389   -26387   -26397   -26403   -26393 
  -26372   -26357   -26365   -26392   -26419   -26439   -26434   -26414 
  -26392   -26366   -26357   -26372   -26388   -26400   -26412   -26410 
  -26391   -26379   -26383   -26395   -26400   -26381   -26360   -26365 
  -26376   -26369   -26353   -26335   -26335   -26356   -26374   -26389 
  -26401   -26403   -26400   -26411   -26438   -26468   -26470   -26438 
  -26404   -26377   -26354   -26353   -26379   -26407   -26420   -26418 
  -26412   -26400   -26370   -26341   -26334   -26356   -26377   -26381 
  -26385   -26400   -26406   -26377   -26331   -26322   -26357   -26400 
  -26435   -26442   -26426   -26403   -26366   -26337   -26345   -26372 
  -26401   -26426   -26445   -26453   -26430   -26381   -26347   -26339 
  -26342   -26353   -26374   -26393   -26397   -26395   -26403   -26435 
  -26461   -26439   -26396   -26365   -26335   -26322   -26345   -26385 
  -26416   -26423   -26404   -26396   -26408   -26414   -26396   -26368 
  -26349   -26338   -26333   -26353   -26397   -26420   -26410   -26384 
  -26362   -26364   -26380   -26393   -26403   -26406   -26404   -26400 
  -26381   -26358   -26350   -26349   -26345   -26357   -26385   -26415 
  -26428   -26428   -26424   -26426   -26426   -26411   -26388   -26369 
