Origin Time       2025/03/30 10:46:00
Lat.              32.923
Long.             130.372
Depth. (km)       11
Mag.              3.4
Station Code      KMMH14
Station Lat.      32.6345
Station Long.     130.7521
Station Height(m) -40
Record Time       2025/03/30 10:46:35
Sampling Freq(Hz) 100Hz
Duration Time(s)  120
Dir.              1
Scale Factor      2942(gal)/8224139
Max. Acc. (gal)   0.153
Last Correction   2025/03/30 10:46:36
Memo.             
[...]
  -24214   -24214   -24212   -24212   -24213   -24210   -24209   -24213 
  -24213   -24213   -24213   -24210   -24212   -24214   -24213   -24213 
  -24210   -24209   -24213   -24213   -24214   -24214   -24210   -24212 
  -24213   -24213   -24212   -24212   -24213   -24214   -24212   -24210 
  -24212   -24212   -24213   -24216   -24216   -24216   -24214   -24213 
  -24214   -24214   -24212   -24210   -24212   -24210   -24213   -24214 
  -24209   -24210   -24216   -24214   -24210   -24212   -24214   -24214 
  -24214   -24213   -24210   -24210   -24210   -24210   -24212   -24212 
  -24210   -24212   -24212   -24210   -24209   -24213   -24216   -24212 
  -24210   -24213   -24213   -24213   -24213   -24210   -24210   -24214 
  -24213   -24212   -24212   -24212   -24210   -24212   -24214   -24213 
  -24213   -24214   -24213   -24212   -24213   -24212   -24213   -24213 
  -24214   -24214   -24212   -24209   -24209   -24212   -24214   -24212 
  -24213   -24213   -24212   -24210   -24213   -24214   -24212   -24209 
  -24209   -24213   -24213   -24210   -24212   -24213   -24213   -24213 
  -24213   -24212   -24212   -24212   -24214   -24216   -24213   -24213 
  -24214   -24214   -24214   -24213   -24214   -24214   -24214   -24213 
  -24213   -24214   -24214   -24212   -24210   -24213   -24210   -24209 
  -24212   -24214   -24216   -24214   -24213   -24212   -24210   -24212 
  -24213   -24213   -24214   -24214   -24214   -24214   -24210   -24212 
  -24214   -24213   -24210   -24212   -24213   -24214   -24212   -24213 
  -24216   -24212   -24212   -24216   -24214   -24210   -24213   -24214 
  -24214   -24214   -24216   -24212   -24212   -24216   -24216   -24213 
  -24213   -24213   -24213   -24212   -24213   -24213   -24213   -24213 
  -24216   -24216   -24216   -24214   -24212   -24210   -24210   -24212 
  -24213   -24214   -24212   -24210   -24214   -24214   -24212   -24212 
  -24212   -24213   -24213   -24213   -24213   -24213   -24212   -24210 
  -24212   -24214   -24216   -24213   -24210   -24210   -24213   -24212 
  -24210   -24214   -24216   -24212   -24212   -24212   -24210   -24209 
  -24209   -24212   -24214   -24213   -24214   -24216   -24213   -24212 
  -24213   -24213   -24212   -24213   -24214   -24213   -24212   -24212 
  -24212   -24209   -24209   -24212   -24214   -24214   -24213   -24214 
  -24213   -24210   -24213   -24214   -24214   -24214   -24214   -24213 
  -24213   -24213   -24213   -24213   -24214   -24213   -24213   -24214 
  -24210   -24208   -24212   -24213   -24212   -24214   -24216   -24212 
  -24212   -24212   -24210   -24212   -24212   -24213   -24213   -24212 
  -24213   -24216   -24214   -24212   -24209   -24209   -24213   -24213 
  -24214   -24214   -24212   -24210   -24213   -24214   -24212   -24212 
  -24216   -24214   -24213   -24214   -24214   -24213   -24210   -24209 
  -24212   -24213   -24214   -24214   -24212   -24212   -24214   -24214 
  -24213   -24210   -24209   -24212   -24214   -24213   -24212   -24212 
  -24214   -24214   -24213   -24213   -24212   -24212   -24212   -24213 
  -24212   -24213   -24214   -24214   -24212   -24212   -24214   -24214 
  -24210   -24212   -24214   -24214   -24213   -24212   -24210   -24212 
  -24212   -24214   -24217   -24216   -24214   -24213   -24213   -24212 
  -24213   -24214   -24212   -24210   -24212   -24213   -24214   -24213 
  -24210   -24213   -24216   -24214   -24214   -24214   -24212   -24213 
  -24217   -24216   -24212   -24212   -24212   -24210   -24210   -24213 
  -24212   -24209   -24212   -24213   -24213   -24216   -24216   -24216 
  -24214   -24214   -24213   -24212   -24212   -24214   -24213   -24212 
  -24212   -24212   -24214   -24214   -24213   -24214   -24214   -24212 
  -24212   -24212   -24212   -24212   -24212   -24212   -24213   -24213 
  -24212   -24213   -24214   -24213   -24210   -24212   -24212   -24210 
  -24210   -24212   -24213   -24214   -24213   -24212   -24210   -24210 
  -24212   -24210   -24210   -24213   -24210   -24209   -24213   -24212 
  -24210   -24212   -24210   -24210   -24210   -24212   -24213   -24212 
  -24210   -24210   -24213   -24212   -24213   -24212   -24213   -24214 
  -24213   -24212   -24213   -24210   -24209   -24212   -24212   -24213 
  -24214   -24213   -24212   -24212   -24213   -24213   -24209   -24209 
  -24213   -24212   -24209   -24212   -24214   -24212   -24212   -24214 
  -24213   -24210   -24212   -24212   -24210   -24212   -24213   -24212 
  -24210   -24210   -24210   -24213   -24213   -24212   -24214   -24213 
  -24209   -24212   -24212   -24210   -24213   -24213   -24212   -24212 
  -24212   -24212   -24210   -24210   -24212   -24212   -24214   -24214 
  -24213   -24212   -24213   -24213   -24213   -24213   -24212   -24210 
  -24212   -24214   -24214   -24212   -24213   -24214   -24212   -24210 
  -24213   -24214   -24213   -24214   -24214   -24213   -24213   -24213 
  -24212   -24212   -24213   -24216   -24213   -24210   -24212   -24214 
  -24213   -24213   -24214   -24213   -24210   -24212   -24213   -24212 
  -24212   -24213   -24212   -24212   -24212   -24212   -24213   -24212 
  -24212   -24212   -24213   -24213   -24210   -24213   -24213   -24209 
  -24213   -24216   -24213   -24212   -24214   -24213   -24210   -24212 
  -24212   -24210   -24210   -24210   -24212   -24212   -24210   -24210 
  -24210   -24213   -24213   -24212   -24210   -24210   -24210   -24210 
  -24214   -24214   -24212   -24213   -24214   -24210   -24209   -24210 
  -24212   -24209   -24209   -24210   -24210   -24212   -24212   -24213 
  -24213   -24210   -24212   -24214   -24212   -24210   -24212   -24213 
  -24213   -24213   -24213   -24213   -24213   -24212   -24210   -24210 
  -24213   -24214   -24213   -24213   -24214   -24214   -24213   -24213 
  -24213   -24212   -24213   -24216   -24216   -24214   -24214   -24216 
  -24214   -24212   -24212   -24213   -24213   -24214   -24214   -24213 
  -24214   -24213   -24210   -24212   -24216   -24216   -24212   -24213 
  -24216   -24216   -24213   -24212   -24214   -24214   -24212   -24212 
  -24213   -24213   -24214   -24213   -24212   -24214   -24216   -24213 
  -24212   -24212   -24212   -24212   -24212   -24214   -24214   -24213 
  -24212   -24210   -24214   -24214   -24213   -24216   -24216   -24213 
  -24213   -24212   -24212   -24213   -24212   -24212   -24213   -24213 
  -24216   -24214   -24212   -24212   -24212   -24212   -24214   -24216 
  -24213   -24210   -24212   -24212   -24210   -24212   -24212   -24212 
  -24214   -24213   -24213   -24213   -24212   -24210   -24213   -24213 
  -24214   -24216   -24212   -24210   -24214   -24214   -24210   -24209 
  -24213   -24214   -24210   -24212   -24217   -24216   -24212   -24212 
  -24213   -24213   -24213   -24213   -24213   -24212   -24212   -24212 
  -24213   -24214   -24214   -24213   -24210   -24213   -24216   -24213 
  -24210   -24214   -24216   -24216   -24216   -24212   -24209   -24213 
  -24216   -24213   -24213   -24213   -24212   -24213   -24212   -24210 
  -24212   -24213   -24213   -24212   -24212   -24213   -24213   -24214 
  -24213   -24210   -24209   -24212   -24213   -24212   -24213   -24213 
  -24213   -24214   -24214   -24213   -24212   -24213   -24212   -24213 
  -24217   -24217   -24216   -24214   -24214   -24214   -24216   -24221 
  -24221   -24219   -24220   -24213   -24198   -24186   -24182   -24183 
  -24190   -24201   -24214   -24228   -24237   -24237   -24225   -24209 
  -24209   -24216   -24219   -24216   -24213   -24210   -24214   -24225 
  -24236   -24239   -24243   -24239   -24214   -24186   -24173   -24174 
  -24186   -24205   -24213   -24205   -24190   -24183   -24193   -24210 
  -24235   -24255   -24256   -24241   -24216   -24196   -24200   -24213 
  -24220   -24220   -24210   -24201   -24209   -24231   -24237   -24229 
  -24210   -24197   -24202   -24192   -24177   -24186   -24196   -24201 
  -24205   -24210   -24220   -24237   -24248   -24228   -24197   -24187 
  -24206   -24243   -24258   -24240   -24209   -24185   -24182   -24192 
  -24219   -24244   -24223   -24181   -24187   -24219   -24219   -24224 
  -24229   -24205   -24204   -24217   -24219   -24204   -24182   -24196 
  -24219   -24227   -24235   -24235   -24224   -24197   -24181   -24192 
  -24194   -24205   -24229   -24227   -24208   -24197   -24209   -24239 
  -24228   -24186   -24194   -24227   -24247   -24233   -24200   -24235 
  -24248   -24183   -24182   -24204   -24194   -24205   -24204   -24198 
  -24198   -24204   -24213   -24204   -24201   -24206   -24200   -24198 
  -24206   -24220   -24244   -24281   -24298   -24255   -24182   -24165 
  -24214   -24248   -24233   -24209   -24177   -24154   -24169   -24187 
  -24206   -24239   -24240   -24220   -24194   -24163   -24185   -24225 
  -24225   -24240   -24266   -24267   -24247   -24200   -24183   -24210 
  -24212   -24204   -24232   -24241   -24216   -24206   -24165   -24142 
  -24192   -24221   -24248   -24246   -24178   -24171   -24179   -24179 
  -24247   -24264   -24221   -24220   -24232   -24227   -24216   -24200 
  -24169   -24159   -24190   -24228   -24273   -24259   -24173   -24160 
  -24219   -24228   -24237   -24271   -24262   -24239   -24205   -24162 
  -24175   -24217   -24251   -24260   -24216   -24185   -24182   -24170 
  -24187   -24235   -24258   -24240   -24229   -24228   -24206   -24194 
  -24212   -24229   -24202   -24160   -24171   -24198   -24213   -24228 
  -24210   -24189   -24200   -24237   -24258   -24228   -24194   -24175 
  -24177   -24223   -24256   -24252   -24252   -24251   -24228   -24208 
  -24214   -24209   -24186   -24156   -24139   -24175   -24198   -24220 
  -24279   -24271   -24236   -24237   -24206   -24177   -24173   -24167 
  -24193   -24236   -24244   -24216   -24209   -24250   -24264   -24221 
  -24197   -24214   -24205   -24169   -24166   -24193   -24237   -24295 
  -24314   -24268   -24235   -24223   -24183   -24154   -24123   -24098 
  -24152   -24216   -24219   -24220   -24248   -24227   -24173   -24205 
  -24246   -24231   -24243   -24254   -24227   -24208   -24243   -24289 
  -24262   -24219   -24212   -24182   -24148   -24155   -24158   -24151 
  -24187   -24228   -24231   -24236   -24240   -24229   -24220   -24205 
  -24204   -24220   -24216   -24187   -24163   -24186   -24258   -24290 
  -24281   -24264   -24240   -24233   -24205   -24167   -24187   -24210 
  -24206   -24189   -24186   -24204   -24179   -24183   -24220   -24186 
  -24179   -24227   -24235   -24219   -24194   -24189   -24196   -24189 
  -24246   -24294   -24264   -24254   -24235   -24185   -24187   -24208 
  -24206   -24216   -24227   -24232   -24231   -24201   -24181   -24201 
  -24210   -24200   -24194   -24202   -24217   -24198   -24201   -24240 
  -24229   -24219   -24221   -24185   -24159   -24166   -24169   -24177 
  -24223   -24260   -24263   -24278   -24266   -24236   -24250   -24247 
  -24204   -24162   -24143   -24169   -24228   -24267   -24254   -24237 
  -24239   -24220   -24193   -24189   -24205   -24210   -24186   -24173 
  -24186   -24200   -24189   -24182   -24198   -24193   -24205   -24244 
  -24239   -24225   -24216   -24175   -24166   -24204   -24243   -24281 
  -24305   -24285   -24252   -24221   -24187   -24201   -24224   -24192 
  -24165   -24152   -24125   -24120   -24152   -24182   -24231   -24328 
  -24360   -24291   -24228   -24189   -24147   -24152   -24213   -24255 
  -24256   -24235   -24192   -24174   -24186   -24200   -24223   -24219 
  -24192   -24189   -24193   -24187   -24193   -24221   -24240   -24239 
  -24241   -24251   -24247   -24233   -24235   -24247   -24236   -24212 
  -24190   -24179   -24196   -24223   -24210   -24182   -24194   -24192 
  -24170   -24178   -24173   -24173   -24201   -24212   -24236   -24255 
  -24231   -24250   -24260   -24221   -24247   -24290   -24270   -24241 
  -24227   -24194   -24160   -24163   -24166   -24160   -24167   -24171 
  -24194   -24200   -24178   -24192   -24198   -24213   -24262   -24298 
  -24291   -24236   -24220   -24252   -24251   -24243   -24219   -24167 
  -24156   -24183   -24204   -24182   -24163   -24190   -24212   -24213 
  -24210   -24236   -24279   -24256   -24206   -24196   -24175   -24155 
  -24169   -24216   -24282   -24312   -24300   -24287   -24248   -24197 
  -24196   -24181   -24119   -24133   -24204   -24206   -24202   -24224 
  -24227   -24241   -24231   -24169   -24142   -24152   -24178   -24235 
  -24279   -24287   -24275   -24236   -24190   -24179   -24198   -24233 
  -24251   -24212   -24197   -24229   -24235   -24228   -24235   -24235 
  -24225   -24200   -24196   -24223   -24235   -24239   -24270   -24290 
  -24252   -24214   -24189   -24123   -24085   -24112   -24136   -24166 
  -24210   -24236   -24204   -24165   -24177   -24193   -24223   -24254 
  -24220   -24169   -24131   -24125   -24170   -24209   -24229   -24236 
  -24205   -24160   -24151   -24210   -24300   -24344   -24327   -24300 
  -24304   -24312   -24295   -24277   -24302   -24322   -24278   -24221 
  -24167   -24123   -24127   -24167   -24221   -24274   -24314   -24318 
  -24277   -24232   -24192   -24142   -24131   -24156   -24156   -24146 
  -24121   -24024   -23924   -23926   -23981   -24016   -24028   -24042 
  -24075   -24144   -24233   -24286   -24308   -24327   -24331   -24325 
  -24344   -24391   -24448   -24525   -24582   -24572   -24549   -24514 
  -24451   -24359   -24233   -24131   -24048   -23954   -23880   -23838 
  -23846   -23904   -23957   -24032   -24167   -24306   -24412   -24489 
  -24547   -24591   -24583   -24506   -24402   -24304   -24192   -24057 
  -23931   -23827   -23784   -23808   -23827   -23836   -23888   -23980 
  -24052   -24119   -24206   -24258   -24281   -24336   -24399   -24444 
  -24437   -24385   -24339   -24329   -24366   -24413   -24443   -24451 
  -24413   -24347   -24273   -24189   -24127   -24119   -24131   -24125 
  -24117   -24127   -24169   -24241   -24290   -24318   -24378   -24385 
  -24300   -24244   -24221   -24179   -24177   -24173   -24106   -24063 
  -24054   -24051   -24065   -24081   -24102   -24148   -24202   -24233 
  -24289   -24395   -24418   -24309   -24193   -24108   -24034   -24019 
  -24093   -24170   -24185   -24223   -24317   -24343   -24268   -24190 
  -24144   -24140   -24177   -24206   -24236   -24264   -24279   -24333 
  -24363   -24268   -24151   -24092   -24012   -23962   -24034   -24102 
  -24136   -24206   -24263   -24324   -24429   -24522   -24552   -24505 
  -24391   -24237   -24127   -24119   -24160   -24183   -24159   -24119 
  -24124   -24189   -24254   -24243   -24175   -24131   -24138   -24148 
  -24142   -24166   -24208   -24237   -24287   -24304   -24260   -24217 
  -24209   -24262   -24320   -24331   -24325   -24310   -24264   -24152 
  -24025   -23969   -23957   -23977   -24048   -24156   -24256   -24298 
  -24304   -24304   -24306   -24347   -24354   -24302   -24297   -24290 
  -24239   -24216   -24200   -24146   -24128   -24166   -24132   -24071 
  -24125   -24177   -24155   -24182   -24228   -24264   -24345   -24406 
  -24395   -24382   -24367   -24291   -24175   -24123   -24139   -24133 
  -24125   -24125   -24111   -24139   -24194   -24247   -24295   -24290 
  -24274   -24285   -24255   -24205   -24174   -24146   -24106   -24070 
  -24069   -24079   -24054   -24040   -24094   -24170   -24216   -24263 
  -24283   -24241   -24206   -24194   -24194   -24198   -24185   -24210 
  -24273   -24304   -24329   -24335   -24291   -24271   -24287   -24285 
  -24271   -24264   -24252   -24240   -24236   -24223   -24163   -24101 
  -24115   -24165   -24197   -24236   -24268   -24251   -24217   -24212 
  -24202   -24187   -24220   -24254   -24243   -24237   -24244   -24250 
  -24254   -24250   -24243   -24231   -24209   -24190   -24196   -24217 
  -24208   -24174   -24144   -24138   -24169   -24202   -24213   -24227 
  -24262   -24313   -24355   -24345   -24262   -24160   -24098   -24069 
  -24074   -24109   -24139   -24147   -24151   -24170   -24193   -24193 
  -24174   -24165   -24187   -24247   -24305   -24318   -24304   -24294 
  -24304   -24328   -24336   -24318   -24260   -24181   -24146   -24147 
  -24154   -24175   -24217   -24264   -24278   -24244   -24189   -24143 
  -24132   -24148   -24178   -24216   -24237   -24216   -24167   -24117 
  -24092   -24123   -24192   -24221   -24223   -24233   -24231   -24210 
  -24182   -24156   -24162   -24197   -24232   -24246   -24246   -24248 
  -24262   -24279   -24273   -24271   -24294   -24286   -24254   -24235 
  -24217   -24193   -24170   -24156   -24155   -24163   -24151   -24100 
  -24058   -24063   -24112   -24198   -24275   -24309   -24324   -24320 
  -24290   -24251   -24236   -24244   -24243   -24259   -24283   -24244 
  -24198   -24212   -24205   -24165   -24151   -24147   -24135   -24148 
  -24179   -24193   -24201   -24221   -24239   -24235   -24231   -24224 
  -24189   -24165   -24181   -24227   -24274   -24285   -24287   -24304 
  -24290   -24255   -24219   -24182   -24167   -24178   -24200   -24197 
  -24179   -24186   -24202   -24204   -24201   -24197   -24206   -24247 
  -24295   -24325   -24335   -24318   -24270   -24210   -24174   -24171 
  -24194   -24212   -24200   -24162   -24119   -24100   -24117   -24132 
  -24144   -24183   -24209   -24205   -24214   -24219   -24189   -24173 
  -24196   -24216   -24240   -24260   -24254   -24255   -24268   -24281 
  -24305   -24335   -24367   -24390   -24375   -24336   -24281   -24200 
  -24120   -24078   -24069   -24082   -24111   -24127   -24135   -24156 
  -24200   -24254   -24275   -24250   -24221   -24229   -24244   -24236 
  -24241   -24256   -24228   -24166   -24113   -24088   -24111   -24160 
  -24190   -24198   -24200   -24194   -24205   -24232   -24246   -24255 
  -24256   -24225   -24179   -24156   -24167   -24196   -24225   -24256 
  -24274   -24291   -24312   -24294   -24256   -24241   -24229   -24219 
  -24216   -24202   -24192   -24192   -24187   -24186   -24194   -24204 
  -24200   -24177   -24159   -24160   -24174   -24196   -24223   -24233 
  -24198   -24143   -24131   -24160   -24196   -24224   -24235   -24243 
  -24263   -24283   -24277   -24236   -24205   -24210   -24231   -24258 
  -24271   -24264   -24246   -24209   -24178   -24166   -24160   -24174 
  -24201   -24223   -24220   -24193   -24190   -24223   -24247   -24258 
  -24279   -24289   -24263   -24240   -24236   -24231   -24225   -24220 
  -24178   -24102   -24066   -24090   -24139   -24190   -24240   -24274 
  -24273   -24243   -24214   -24206   -24225   -24255   -24266   -24246 
  -24209   -24185   -24179   -24183   -24182   -24183   -24202   -24204 
  -24185   -24181   -24179   -24174   -24181   -24192   -24210   -24235 
  -24244   -24241   -24244   -24241   -24244   -24275   -24291   -24275 
  -24258   -24248   -24233   -24216   -24204   -24197   -24185   -24193 
  -24221   -24223   -24202   -24197   -24197   -24187   -24189   -24213 
  -24213   -24173   -24152   -24160   -24155   -24148   -24167   -24185 
  -24181   -24186   -24205   -24201   -24202   -24235   -24260   -24251 
  -24237   -24246   -24239   -24216   -24220   -24228   -24200   -24174 
  -24179   -24194   -24216   -24258   -24287   -24291   -24290   -24287 
  -24274   -24241   -24213   -24212   -24214   -24206   -24201   -24181 
  -24152   -24151   -24183   -24217   -24233   -24243   -24243   -24236 
  -24232   -24219   -24178   -24147   -24150   -24163   -24183   -24213 
  -24235   -24241   -24260   -24282   -24264   -24224   -24200   -24190 
