Origin Time       2025/03/30 10:46:00
Lat.              32.923
Long.             130.372
Depth. (km)       11
Mag.              3.4
Station Code      KMMH17
Station Lat.      32.9873
Station Long.     130.5608
Station Height(m) 55
Record Time       2025/03/30 10:46:24
Sampling Freq(Hz) 100Hz
Duration Time(s)  120
Dir.              6
Scale Factor      7845(gal)/8223790
Max. Acc. (gal)   7.455
Last Correction   2025/03/30 10:46:24
Memo.             
[...]
  -28246   -28246   -28251   -28251   -28247   -28247   -28250   -28248 
  -28247   -28250   -28250   -28246   -28248   -28252   -28251   -28250 
  -28250   -28248   -28250   -28248   -28246   -28246   -28246   -28247 
  -28251   -28250   -28246   -28244   -28247   -28247   -28248   -28250 
  -28252   -28250   -28247   -28250   -28250   -28248   -28248   -28248 
  -28248   -28250   -28248   -28250   -28248   -28247   -28246   -28244 
  -28244   -28247   -28247   -28248   -28248   -28246   -28250   -28252 
  -28250   -28247   -28248   -28248   -28247   -28247   -28250   -28252 
  -28250   -28244   -28244   -28248   -28252   -28251   -28248   -28248 
  -28250   -28248   -28247   -28250   -28251   -28251   -28250   -28247 
  -28247   -28248   -28251   -28250   -28246   -28244   -28247   -28251 
  -28251   -28247   -28247   -28250   -28248   -28246   -28247   -28248 
  -28248   -28248   -28250   -28251   -28250   -28247   -28248   -28248 
  -28246   -28247   -28254   -28251   -28244   -28244   -28248   -28251 
  -28251   -28248   -28247   -28247   -28247   -28251   -28251   -28248 
  -28250   -28250   -28248   -28247   -28248   -28250   -28248   -28247 
  -28248   -28250   -28251   -28251   -28247   -28247   -28247   -28247 
  -28251   -28250   -28247   -28248   -28247   -28244   -28248   -28252 
  -28247   -28244   -28247   -28248   -28246   -28250   -28251   -28247 
  -28246   -28247   -28246   -28248   -28252   -28248   -28244   -28247 
  -28248   -28246   -28250   -28252   -28248   -28244   -28248   -28250 
  -28247   -28248   -28250   -28250   -28247   -28246   -28246   -28246 
  -28248   -28251   -28247   -28247   -28250   -28248   -28248   -28252 
  -28251   -28246   -28246   -28250   -28250   -28247   -28247   -28250 
  -28247   -28246   -28250   -28252   -28250   -28246   -28246   -28247 
  -28248   -28250   -28248   -28246   -28247   -28248   -28247   -28247 
  -28250   -28252   -28247   -28246   -28248   -28248   -28250   -28251 
  -28248   -28248   -28251   -28250   -28248   -28251   -28250   -28246 
  -28246   -28248   -28251   -28252   -28252   -28250   -28247   -28248 
  -28248   -28248   -28248   -28248   -28247   -28247   -28246   -28247 
  -28251   -28251   -28248   -28250   -28247   -28244   -28247   -28247 
  -28247   -28250   -28250   -28248   -28247   -28250   -28251   -28248 
  -28247   -28247   -28248   -28251   -28248   -28246   -28250   -28250 
  -28248   -28250   -28248   -28246   -28248   -28248   -28248   -28250 
  -28247   -28246   -28247   -28250   -28251   -28248   -28244   -28247 
  -28252   -28247   -28243   -28248   -28251   -28250   -28248   -28247 
  -28247   -28251   -28250   -28247   -28247   -28247   -28247   -28251 
  -28252   -28248   -28247   -28248   -28248   -28247   -28248   -28248 
  -28244   -28246   -28248   -28247   -28248   -28251   -28251   -28250 
  -28246   -28247   -28251   -28251   -28247   -28246   -28248   -28250 
  -28250   -28250   -28250   -28246   -28244   -28247   -28250   -28248 
  -28248   -28248   -28248   -28247   -28248   -28250   -28248   -28247 
  -28250   -28250   -28247   -28247   -28248   -28248   -28248   -28250 
  -28250   -28250   -28251   -28250   -28250   -28248   -28248   -28250 
  -28250   -28250   -28248   -28248   -28248   -28248   -28247   -28246 
  -28246   -28247   -28246   -28247   -28248   -28246   -28247   -28251 
  -28250   -28247   -28247   -28247   -28248   -28247   -28244   -28247 
  -28251   -28250   -28250   -28250   -28246   -28247   -28250   -28247 
  -28248   -28248   -28247   -28247   -28246   -28244   -28250   -28252 
  -28248   -28248   -28251   -28247   -28244   -28247   -28250   -28251 
  -28247   -28246   -28252   -28250   -28246   -28248   -28250   -28248 
  -28247   -28250   -28252   -28248   -28246   -28250   -28251   -28247 
  -28244   -28248   -28250   -28246   -28248   -28254   -28248   -28246 
  -28250   -28250   -28248   -28247   -28246   -28248   -28250   -28248 
  -28248   -28244   -28246   -28251   -28250   -28246   -28246   -28248 
  -28247   -28244   -28247   -28250   -28248   -28248   -28250   -28247 
  -28247   -28251   -28251   -28247   -28246   -28248   -28251   -28250 
  -28247   -28247   -28248   -28247   -28247   -28250   -28251   -28247 
  -28247   -28247   -28247   -28247   -28247   -28247   -28248   -28250 
  -28247   -28247   -28250   -28250   -28248   -28246   -28246   -28248 
  -28248   -28247   -28247   -28247   -28247   -28248   -28250   -28250 
  -28252   -28252   -28247   -28244   -28250   -28251   -28247   -28247 
  -28248   -28248   -28248   -28248   -28250   -28251   -28248   -28247 
  -28248   -28247   -28246   -28248   -28252   -28251   -28248   -28250 
  -28248   -28244   -28246   -28250   -28248   -28246   -28250   -28251 
  -28250   -28251   -28248   -28247   -28250   -28250   -28250   -28250 
  -28246   -28246   -28248   -28251   -28248   -28247   -28248   -28248 
  -28248   -28247   -28247   -28250   -28248   -28244   -28250   -28252 
  -28248   -28247   -28250   -28246   -28244   -28247   -28250   -28251 
  -28247   -28247   -28251   -28250   -28244   -28246   -28251   -28250 
  -28246   -28247   -28250   -28250   -28247   -28246   -28250   -28248 
  -28246   -28250   -28252   -28251   -28250   -28248   -28248   -28247 
  -28246   -28247   -28247   -28246   -28248   -28250   -28247   -28247 
  -28248   -28248   -28248   -28247   -28244   -28248   -28251   -28250 
  -28248   -28248   -28251   -28251   -28248   -28247   -28250   -28250 
  -28247   -28250   -28252   -28247   -28246   -28247   -28251   -28250 
  -28247   -28247   -28248   -28247   -28247   -28251   -28251   -28246 
  -28246   -28250   -28247   -28247   -28247   -28248   -28246   -28243 
  -28248   -28252   -28247   -28246   -28250   -28251   -28248   -28248 
  -28248   -28248   -28247   -28247   -28250   -28250   -28248   -28247 
  -28246   -28247   -28247   -28247   -28251   -28251   -28246   -28247 
  -28251   -28248   -28247   -28247   -28247   -28246   -28248   -28248 
  -28247   -28246   -28248   -28248   -28246   -28247   -28250   -28247 
  -28247   -28250   -28250   -28248   -28244   -28244   -28247   -28247 
  -28246   -28250   -28251   -28247   -28246   -28248   -28246   -28247 
  -28248   -28247   -28248   -28251   -28247   -28243   -28246   -28248 
  -28250   -28250   -28248   -28246   -28244   -28247   -28252   -28250 
  -28243   -28247   -28252   -28251   -28247   -28244   -28247   -28250 
  -28244   -28246   -28252   -28251   -28247   -28246   -28247   -28251 
  -28250   -28246   -28248   -28252   -28251   -28246   -28246   -28251 
  -28251   -28251   -28252   -28247   -28243   -28248   -28250   -28247 
  -28247   -28250   -28251   -28248   -28247   -28248   -28248   -28247 
  -28247   -28246   -28244   -28248   -28250   -28247   -28247   -28250 
  -28248   -28247   -28248   -28247   -28247   -28247   -28250   -28250 
  -28246   -28246   -28248   -28248   -28246   -28244   -28248   -28250 
  -28247   -28248   -28250   -28250   -28250   -28251   -28250   -28246 
  -28247   -28248   -28246   -28246   -28248   -28252   -28252   -28248 
  -28247   -28251   -28250   -28247   -28247   -28250   -28248   -28244 
  -28246   -28250   -28250   -28248   -28248   -28248   -28248   -28247 
  -28250   -28251   -28247   -28244   -28248   -28250   -28246   -28248 
  -28251   -28247   -28246   -28250   -28248   -28247   -28250   -28251 
  -28247   -28246   -28248   -28250   -28247   -28247   -28251   -28250 
  -28247   -28247   -28251   -28250   -28247   -28246   -28247   -28250 
  -28247   -28247   -28248   -28248   -28247   -28248   -28250   -28250 
  -28246   -28246   -28248   -28247   -28248   -28250   -28246   -28243 
  -28247   -28250   -28248   -28248   -28247   -28246   -28246   -28248 
  -28250   -28250   -28250   -28248   -28248   -28247   -28248   -28250 
  -28246   -28247   -28252   -28250   -28244   -28250   -28251   -28246 
  -28246   -28247   -28246   -28246   -28247   -28250   -28251   -28248 
  -28247   -28244   -28247   -28250   -28248   -28246   -28247   -28250 
  -28248   -28244   -28244   -28248   -28250   -28248   -28250   -28250 
  -28246   -28248   -28252   -28247   -28246   -28250   -28246   -28246 
  -28252   -28250   -28246   -28250   -28251   -28246   -28248   -28252 
  -28251   -28248   -28247   -28248   -28250   -28248   -28247   -28250 
  -28248   -28246   -28246   -28250   -28251   -28250   -28247   -28246 
  -28247   -28251   -28250   -28246   -28246   -28247   -28247   -28247 
  -28250   -28250   -28248   -28246   -28247   -28248   -28248   -28247 
  -28247   -28247   -28247   -28248   -28248   -28250   -28250   -28247 
  -28247   -28248   -28250   -28248   -28248   -28250   -28246   -28244 
  -28250   -28252   -28250   -28246   -28247   -28248   -28250   -28251 
  -28248   -28247   -28246   -28246   -28251   -28252   -28247   -28244 
  -28250   -28251   -28247   -28244   -28250   -28252   -28247   -28247 
  -28250   -28248   -28246   -28246   -28250   -28250   -28246   -28244 
  -28248   -28248   -28246   -28247   -28248   -28248   -28248   -28250 
  -28248   -28246   -28247   -28251   -28250   -28247   -28250   -28248 
  -28246   -28247   -28251   -28250   -28246   -28247   -28251   -28247 
  -28246   -28251   -28252   -28248   -28244   -28243   -28246   -28248 
  -28248   -28248   -28250   -28247   -28246   -28250   -28251   -28246 
  -28246   -28248   -28247   -28244   -28246   -28250   -28250   -28248 
  -28246   -28246   -28246   -28248   -28252   -28252   -28248   -28246 
  -28247   -28250   -28248   -28250   -28250   -28246   -28244   -28250 
  -28251   -28247   -28247   -28251   -28250   -28246   -28247   -28248 
  -28247   -28244   -28246   -28247   -28247   -28244   -28246   -28248 
  -28247   -28246   -28250   -28250   -28247   -28247   -28251   -28251 
  -28248   -28248   -28250   -28250   -28246   -28244   -28247   -28250 
  -28248   -28247   -28248   -28250   -28251   -28250   -28247   -28244 
  -28246   -28247   -28246   -28247   -28247   -28247   -28247   -28246 
  -28250   -28252   -28247   -28247   -28248   -28243   -28246   -28252 
  -28250   -28244   -28246   -28247   -28244   -28246   -28251   -28251 
  -28246   -28244   -28248   -28251   -28248   -28247   -28252   -28251 
  -28246   -28247   -28250   -28247   -28242   -28244   -28252   -28252 
  -28246   -28248   -28248   -28243   -28243   -28250   -28250   -28247 
  -28248   -28248   -28247   -28248   -28250   -28250   -28250   -28248 
  -28251   -28251   -28247   -28246   -28248   -28250   -28248   -28250 
  -28250   -28247   -28246   -28247   -28248   -28250   -28248   -28247 
  -28246   -28247   -28248   -28247   -28244   -28243   -28246   -28250 
  -28248   -28244   -28244   -28250   -28252   -28248   -28247   -28248 
  -28248   -28246   -28244   -28248   -28250   -28247   -28250   -28251 
  -28246   -28247   -28250   -28250   -28247   -28246   -28251   -28250 
  -28246   -28250   -28251   -28247   -28247   -28250   -28250   -28244 
  -28244   -28251   -28250   -28243   -28244   -28250   -28250   -28246 
  -28246   -28248   -28247   -28243   -28246   -28247   -28244   -28247 
  -28248   -28247   -28248   -28248   -28244   -28248   -28250   -28247 
  -28248   -28250   -28247   -28247   -28248   -28248   -28244   -28248 
  -28254   -28251   -28247   -28247   -28248   -28244   -28244   -28250 
  -28251   -28250   -28248   -28248   -28248   -28250   -28247   -28247 
  -28247   -28243   -28244   -28250   -28251   -28250   -28247   -28248 
  -28248   -28246   -28246   -28250   -28250   -28247   -28250   -28251 
  -28247   -28244   -28247   -28248   -28250   -28251   -28248   -28244 
  -28248   -28250   -28247   -28247   -28250   -28248   -28247   -28244 
  -28244   -28251   -28251   -28248   -28250   -28250   -28247   -28246 
  -28246   -28247   -28250   -28250   -28248   -28248   -28247   -28247 
  -28247   -28247   -28248   -28248   -28248   -28250   -28250   -28248 
  -28248   -28248   -28247   -28250   -28250   -28250   -28250   -28248 
  -28248   -28248   -28247   -28247   -28248   -28250   -28250   -28246 
  -28244   -28247   -28248   -28247   -28248   -28248   -28248   -28247 
  -28247   -28248   -28247   -28246   -28248   -28251   -28248   -28247 
  -28248   -28248   -28247   -28247   -28248   -28252   -28250   -28247 
  -28247   -28248   -28246   -28247   -28250   -28250   -28248   -28248 
  -28250   -28250   -28247   -28248   -28250   -28247   -28247   -28248 
  -28246   -28247   -28247   -28243   -28248   -28250   -28247   -28250 
  -28250   -28248   -28247   -28246   -28248   -28250   -28248   -28246 
  -28248   -28252   -28251   -28246   -28247   -28250   -28246   -28250 
  -28252   -28246   -28246   -28250   -28247   -28248   -28248   -28247 
  -28247   -28246   -28248   -28251   -28247   -28246   -28247   -28247 
  -28248   -28248   -28250   -28252   -28247   -28246   -28250   -28248 
  -28248   -28248   -28250   -28251   -28247   -28244   -28250   -28250 
  -28248   -28250   -28248   -28248   -28248   -28248   -28248   -28248 
  -28247   -28248   -28248   -28250   -28251   -28251   -28248   -28247 
  -28251   -28251   -28247   -28247   -28248   -28246   -28247   -28250 
  -28247   -28246   -28247   -28250   -28246   -28244   -28250   -28250 
  -28246   -28247   -28250   -28251   -28248   -28244   -28247   -28248 
  -28244   -28247   -28248   -28247   -28250   -28250   -28246   -28247 
  -28246   -28244   -28247   -28250   -28250   -28246   -28246   -28248 
  -28247   -28247   -28247   -28244   -28248   -28254   -28248   -28246 
  -28251   -28252   -28294   -28530   -29297   -30653   -31072   -27826 
  -21902   -20433   -27047   -34067   -34118   -30064   -26659   -25874 
  -27688   -27855   -25323   -25558   -29893   -33286   -31806   -27851 
  -26117   -26518   -27745   -28800   -27577   -27008   -29573   -29998 
  -28109   -28266   -27891   -27049   -28366   -28826   -28104   -28282 
  -28456   -27874   -27727   -29135   -29689   -28077   -27359   -27824 
  -27774   -28100   -28545   -28169   -28331   -28502   -27745   -28048 
  -28919   -28809   -28566   -27787   -26983   -28028   -29392   -29234 
  -28259   -27421   -27487   -28244   -28543   -28479   -28659   -28679 
  -28255   -27490   -27211   -28350   -29165   -28647   -28402   -28181 
  -27550   -27657   -28412   -28680   -28127   -27783   -28289   -28744 
  -28652   -28424   -28086   -27745   -28090   -28733   -28532   -28047 
  -28312   -28736   -28502   -27885   -27430   -27556   -28437   -29118 
  -28825   -28194   -27824   -27868   -27947   -27886   -28364   -28910 
  -28672   -28406   -28370   -27749   -27483   -28402   -28931   -28595 
  -28201   -27927   -27831   -27945   -28555   -28884   -28223   -27810 
  -27891   -28081   -28583   -28675   -28304   -28210   -28040   -27834 
  -28297   -28786   -28402   -27811   -27731   -27930   -28482   -29095 
  -28680   -27850   -27895   -28283   -28347   -28231   -28151   -28151 
  -28269   -28606   -28748   -28370   -27784   -27633   -28169   -28540 
  -28517   -28494   -28107   -27816   -28240   -28413   -27982   -27837 
  -28200   -28687   -28861   -28642   -28147   -27392   -27369   -28505 
  -29303   -29011   -28308   -27714   -27565   -27962   -28355   -28378 
  -28520   -29016   -28821   -27573   -26983   -27758   -28722   -29035 
  -28514   -27943   -28085   -28138   -27768   -27965   -28675   -28858 
  -28514   -28058   -27668   -27972   -28756   -28811   -28259   -28089 
  -28074   -27826   -27911   -28320   -28624   -28807   -28595   -28043 
  -27803   -27861   -27981   -28567   -29187   -28621   -27540   -27496 
  -28104   -28483   -28648   -28447   -28219   -28286   -27742   -27280 
  -28332   -29249   -28771   -28213   -28073   -27847   -27881   -28679 
  -29191   -28534   -27905   -27815   -27870   -28286   -28383   -28031 
  -28240   -28398   -28051   -28117   -28377   -28293   -28301   -28352 
  -27996   -27769   -28264   -28817   -28671   -28089   -27688   -27808 
  -28695   -29436   -28567   -27434   -27564   -27897   -28294   -28896 
  -28887   -28489   -27966   -27421   -27418   -28036   -28867   -29066 
  -28313   -27743   -28108   -28722   -28896   -28404   -27506   -27359 
  -28162   -28823   -28942   -28368   -27737   -28174   -28652   -28344 
  -28235   -28225   -28051   -28395   -28780   -28325   -27537   -27427 
  -28047   -28591   -28935   -28931   -28089   -27468   -27702   -28134 
  -28825   -29108   -28389   -27847   -27828   -27931   -28472   -28765 
  -28031   -27603   -28243   -28674   -28451   -28134   -27816   -27900 
  -28435   -28404   -28020   -28389   -28902   -28506   -27838   -27785 
  -27912   -28031   -28696   -29146   -28466   -27679   -27741   -28212 
  -28545   -28390   -27849   -27920   -28641   -28648   -27920   -27764 
  -28316   -28613   -28377   -28255   -28402   -28468   -28467   -28166 
  -27548   -27643   -28655   -29219   -28741   -28040   -27831   -27997 
  -28077   -28082   -28252   -28556   -28907   -28823   -27997   -27379 
  -27479   -27884   -28761   -29316   -28638   -27892   -27585   -27538 
  -28220   -28794   -28532   -28224   -28109   -27913   -28057   -28690 
  -28784   -27988   -27753   -28367   -28453   -28293   -28625   -28597 
  -28252   -28281   -27980   -27379   -27557   -28131   -28441   -28738 
  -28825   -28692   -28524   -27967   -27558   -27876   -28127   -28105 
  -28485   -28802   -28441   -28242   -28537   -28313   -27639   -27735 
  -28433   -28701   -28621   -28279   -27577   -27569   -28502   -28995 
  -28659   -28290   -28212   -28171   -27993   -27950   -28098   -28175 
  -28359   -28517   -28374   -28333   -28372   -28077   -27754   -28034 
  -28736   -28815   -28051   -27626   -28050   -28395   -28304   -28300 
  -28266   -28147   -28382   -28630   -28459   -28170   -28125   -28313 
  -28221   -27795   -27783   -28297   -28760   -28831   -28374   -27723 
  -27680   -28247   -28404   -28113   -28398   -28705   -28159   -27926 
  -28591   -28873   -28297   -27815   -27741   -27668   -27977   -28668 
  -28836   -28641   -28463   -27955   -27699   -28162   -28408   -28300 
  -28583   -28763   -28196   -27657   -27969   -28458   -28341   -28266 
  -28308   -27965   -27994   -28571   -28605   -28070   -28036   -28375 
  -28252   -28070   -28175   -28166   -28051   -28156   -28339   -28393 
  -28651   -28663   -27988   -27773   -28317   -28491   -28167   -28067 
  -28269   -28406   -28402   -28134   -27751   -28043   -28807   -28853 
  -28332   -28065   -27913   -27897   -28235   -28567   -28530   -28193 
  -28096   -28232   -28050   -27950   -28381   -28776   -28571   -28071 
  -28009   -28125   -27927   -28040   -28506   -28653   -28570   -28289 
  -27967   -28051   -28051   -27950   -28325   -28432   -28132   -28432 
  -28726   -28289   -28097   -28175   -27797   -27959   -28837   -28606 
  -27588   -27797   -28730   -28745   -28140   -27899   -27949   -28167 
  -28647   -28764   -28304   -27938   -27909   -28183   -28501   -28297 
  -27942   -28150   -28602   -28609   -28116   -27874   -28269   -28520 
  -28344   -28329   -28406   -28117   -27796   -28015   -28453   -28476 
  -28159   -28036   -28323   -28578   -28390   -28034   -28059   -28352 
  -28394   -28335   -28287   -28112   -28138   -28317   -28318   -28183 
  -28062   -28170   -28385   -28347   -28197   -28219   -28227   -28129 
  -28243   -28464   -28344   -28024   -27897   -28085   -28548   -28798 
  -28391   -27851   -27831   -28250   -28567   -28394   -28132   -28275 
  -28300   -27849   -27820   -28541   -28904   -28468   -28028   -28038 
