Origin Time       2025/03/30 10:46:00
Lat.              32.923
Long.             130.372
Depth. (km)       11
Mag.              3.4
Station Code      KMMH03
Station Lat.      32.9984
Station Long.     130.8301
Station Height(m) 178
Record Time       2025/03/30 10:46:34
Sampling Freq(Hz) 100Hz
Duration Time(s)  120
Dir.              6
Scale Factor      7845(gal)/8223790
Max. Acc. (gal)   1.484
Last Correction   2025/03/30 10:46:34
Memo.             
  -18023   -18025   -18025   -18021   -18022   -18025   -18022   -18025 
  -18026   -18019   -18022   -18030   -18027   -18019   -18021   -18026 
  -18026   -18023   -18018   -18018   -18022   -18025   -18023   -18023 
  -18027   -18025   -18021   -18022   -18023   -18023   -18025   -18025 
  -18022   -18023   -18026   -18025   -18022   -18019   -18019   -18025 
  -18029   -18026   -18022   -18019   -18022   -18026   -18025   -18021 
  -18019   -18023   -18023   -18022   -18023   -18025   -18022   -18021 
  -18021   -18022   -18022   -18023   -18025   -18022   -18021   -18022 
  -18023   -18022   -18021   -18022   -18022   -18022   -18025   -18027 
  -18025   -18019   -18019   -18022   -18023   -18022   -18022   -18022 
  -18023   -18022   -18019   -18022   -18025   -18022   -18018   -18019 
  -18025   -18026   -18025   -18022   -18021   -18021   -18021   -18021 
  -18023   -18025   -18022   -18022   -18022   -18022   -18023   -18021 
  -18017   -18021   -18029   -18029   -18025   -18019   -18021   -18027 
  -18025   -18018   -18021   -18025   -18023   -18025   -18026   -18023 
  -18023   -18023   -18023   -18022   -18023   -18023   -18023   -18025 
  -18027   -18025   -18019   -18019   -18022   -18025   -18025   -18021 
  -18021   -18023   -18022   -18019   -18023   -18027   -18025   -18021 
  -18022   -18026   -18027   -18026   -18021   -18019   -18022   -18025 
  -18025   -18022   -18019   -18022   -18022   -18022   -18025   -18023 
  -18022   -18022   -18023   -18025   -18023   -18021   -18022   -18022 
  -18023   -18027   -18025   -18021   -18021   -18022   -18022   -18023 
  -18019   -18018   -18025   -18025   -18023   -18025   -18025   -18023 
  -18022   -18022   -18023   -18023   -18022   -18019   -18021   -18022 
  -18023   -18026   -18023   -18018   -18022   -18023   -18018   -18019 
  -18026   -18025   -18022   -18022   -18021   -18019   -18021   -18023 
  -18027   -18027   -18022   -18022   -18025   -18023   -18019   -18022 
  -18026   -18026   -18026   -18025   -18021   -18019   -18023   -18025 
  -18023   -18022   -18021   -18021   -18021   -18022   -18025   -18026 
  -18026   -18022   -18019   -18023   -18026   -18025   -18022   -18023 
  -18023   -18023   -18023   -18023   -18021   -18018   -18021   -18023 
  -18025   -18025   -18026   -18025   -18022   -18023   -18023   -18022 
  -18023   -18023   -18021   -18021   -18026   -18027   -18021   -18021 
  -18025   -18023   -18022   -18021   -18018   -18018   -18025   -18029 
  -18023   -18019   -18021   -18022   -18023   -18027   -18025   -18018 
  -18019   -18025   -18022   -18021   -18023   -18025   -18019   -18019 
  -18022   -18023   -18023   -18022   -18022   -18025   -18023   -18019 
  -18022   -18027   -18026   -18021   -18017   -18018   -18023   -18027 
  -18023   -18018   -18021   -18027   -18025   -18021   -18022   -18022 
  -18023   -18025   -18025   -18027   -18026   -18021   -18021   -18026 
  -18025   -18022   -18021   -18021   -18022   -18027   -18029   -18023 
  -18021   -18026   -18025   -18018   -18021   -18026   -18023   -18021 
  -18023   -18026   -18025   -18023   -18021   -18022   -18023   -18025 
  -18027   -18023   -18019   -18025   -18026   -18021   -18021   -18023 
  -18023   -18023   -18027   -18029   -18019   -18015   -18022   -18027 
  -18025   -18022   -18022   -18025   -18023   -18022   -18022   -18022 
  -18023   -18026   -18022   -18019   -18021   -18022   -18023   -18022 
  -18022   -18023   -18022   -18019   -18019   -18021   -18025   -18026 
  -18023   -18018   -18019   -18025   -18026   -18025   -18023   -18022 
  -18021   -18021   -18022   -18023   -18023   -18022   -18019   -18021 
  -18022   -18022   -18022   -18025   -18023   -18021   -18025   -18026 
  -18022   -18018   -18019   -18022   -18023   -18022   -18022   -18023 
  -18021   -18019   -18022   -18023   -18022   -18023   -18025   -18022 
  -18022   -18025   -18023   -18025   -18026   -18022   -18019   -18023 
  -18023   -18018   -18019   -18026   -18027   -18023   -18018   -18022 
  -18026   -18023   -18021   -18022   -18022   -18023   -18025   -18021 
  -18018   -18021   -18025   -18025   -18022   -18017   -18021   -18027 
  -18025   -18019   -18021   -18022   -18021   -18019   -18025   -18027 
  -18025   -18023   -18025   -18021   -18018   -18019   -18025   -18027 
  -18023   -18023   -18026   -18023   -18021   -18022   -18019   -18018 
  -18022   -18026   -18023   -18022   -18025   -18022   -18021   -18021 
  -18021   -18022   -18022   -18022   -18023   -18025   -18022   -18017 
  -18018   -18026   -18029   -18026   -18023   -18023   -18023   -18021 
  -18021   -18023   -18022   -18023   -18025   -18022   -18019   -18023 
  -18027   -18023   -18018   -18019   -18022   -18022   -18022   -18025 
  -18025   -18025   -18023   -18022   -18021   -18023   -18026   -18026 
  -18023   -18021   -18022   -18025   -18023   -18022   -18022   -18021 
  -18019   -18022   -18026   -18025   -18021   -18022   -18026   -18023 
  -18019   -18018   -18022   -18025   -18023   -18021   -18023   -18023 
  -18021   -18017   -18019   -18023   -18025   -18025   -18022   -18022 
  -18025   -18023   -18018   -18019   -18025   -18026   -18025   -18023 
  -18023   -18022   -18022   -18018   -18017   -18022   -18026   -18026 
  -18025   -18025   -18023   -18019   -18018   -18019   -18022   -18025 
  -18022   -18022   -18026   -18026   -18022   -18018   -18018   -18023 
  -18029   -18027   -18025   -18023   -18023   -18022   -18022   -18025 
  -18025   -18021   -18022   -18026   -18027   -18025   -18021   -18018 
  -18021   -18025   -18023   -18021   -18021   -18022   -18025   -18023 
  -18018   -18019   -18025   -18027   -18025   -18022   -18025   -18023 
  -18018   -18015   -18019   -18022   -18026   -18027   -18021   -18019 
  -18023   -18023   -18021   -18021   -18023   -18026   -18026   -18023 
  -18026   -18026   -18021   -18019   -18023   -18025   -18022   -18019 
  -18021   -18023   -18023   -18021   -18023   -18022   -18021   -18021 
  -18021   -18022   -18025   -18026   -18022   -18018   -18021   -18023 
  -18021   -18018   -18023   -18027   -18023   -18021   -18023   -18023 
  -18019   -18022   -18025   -18021   -18022   -18026   -18025   -18022 
  -18023   -18025   -18023   -18019   -18021   -18026   -18027   -18023 
  -18021   -18023   -18025   -18023   -18026   -18026   -18023   -18025 
  -18026   -18023   -18022   -18019   -18019   -18023   -18026   -18022 
  -18022   -18026   -18026   -18022   -18018   -18018   -18025   -18025 
  -18022   -18022   -18022   -18023   -18025   -18022   -18019   -18022 
  -18026   -18026   -18021   -18019   -18022   -18026   -18026   -18025 
  -18023   -18025   -18023   -18019   -18019   -18023   -18025   -18021 
  -18019   -18023   -18026   -18023   -18019   -18021   -18023   -18023 
  -18026   -18026   -18022   -18022   -18022   -18022   -18025   -18027 
  -18023   -18018   -18021   -18026   -18025   -18022   -18022   -18022 
  -18023   -18026   -18022   -18021   -18026   -18026   -18019   -18015 
  -18019   -18025   -18025   -18022   -18022   -18023   -18023   -18021 
  -18022   -18026   -18023   -18021   -18021   -18021   -18025   -18026 
  -18021   -18018   -18022   -18023   -18022   -18022   -18023   -18022 
  -18022   -18022   -18022   -18022   -18023   -18023   -18023   -18023 
  -18022   -18021   -18022   -18025   -18023   -18023   -18023   -18023 
  -18021   -18021   -18025   -18026   -18022   -18022   -18025   -18023 
  -18023   -18026   -18025   -18019   -18023   -18026   -18026   -18026 
  -18022   -18018   -18022   -18026   -18025   -18019   -18019   -18023 
  -18025   -18021   -18019   -18022   -18023   -18021   -18018   -18022 
  -18026   -18023   -18023   -18023   -18021   -18022   -18023   -18021 
  -18022   -18027   -18025   -18021   -18022   -18022   -18022   -18025 
  -18022   -18019   -18021   -18023   -18023   -18022   -18023   -18022 
  -18021   -18026   -18026   -18021   -18023   -18023   -18018   -18021 
  -18022   -18021   -18023   -18027   -18026   -18022   -18023   -18026 
  -18025   -18023   -18025   -18026   -18026   -18025   -18022   -18019 
  -18018   -18021   -18026   -18025   -18022   -18026   -18026   -18022 
  -18021   -18023   -18023   -18021   -18019   -18019   -18023   -18027 
  -18022   -18018   -18021   -18026   -18026   -18023   -18022   -18021 
  -18023   -18025   -18023   -18022   -18023   -18022   -18019   -18022 
  -18023   -18022   -18022   -18025   -18022   -18021   -18021   -18019 
  -18022   -18025   -18025   -18022   -18025   -18030   -18037   -18058 
  -18096   -18139   -18171   -18172   -18135   -18071   -17977   -17848 
  -17720   -17667   -17710   -17799   -17898   -17972   -17971   -17972 
  -18202   -18652   -18982   -18873   -18229   -17221   -16467   -16681 
  -17776   -18874   -19326   -19117   -18473   -17701   -17158   -17049 
  -17401   -18118   -18790   -18816   -18096   -17320   -17253   -18009 
  -18995   -19332   -18661   -17563   -16841   -16794   -17377   -18372 
  -19165   -19101   -18273   -17435   -17100   -17235   -17706   -18414 
  -18975   -18863   -18046   -17173   -17046   -17818   -18732   -19024 
  -18735   -18231   -17678   -17328   -17473   -17874   -18056   -18003 
  -17964   -17921   -17788   -17813   -18223   -18740   -18874   -18458 
  -17744   -17223   -17274   -17865   -18526   -18667   -18210   -17641 
  -17396   -17610   -18149   -18557   -18492   -18191   -18102   -18187 
  -18060   -17659   -17316   -17292   -17678   -18395   -18893   -18665 
  -18094   -17820   -17832   -17973   -18210   -18223   -17845   -17514 
  -17551   -17757   -18054   -18500   -18744   -18511   -18160   -17972 
  -17679   -17235   -17151   -17694   -18438   -18863   -18841   -18443 
  -17806   -17267   -17240   -17780   -18411   -18596   -18292   -17797 
  -17478   -17718   -18419   -18879   -18661   -18027   -17439   -17235 
  -17537   -18007   -18185   -18137   -18138   -18158   -18142   -18110 
  -18030   -18090   -18393   -18554   -18229   -17567   -17107   -17354 
  -18080   -18486   -18333   -18091   -18018   -18003   -18014   -17983 
  -17842   -17871   -18222   -18450   -18250   -17936   -17752   -17672 
  -17757   -18111   -18574   -18666   -18200   -17670   -17525   -17724 
  -18075   -18299   -18079   -17589   -17469   -17949   -18403   -18265 
  -17980   -18098   -18262   -18110   -17940   -17950   -18002   -18154 
  -18418   -18323   -17730   -17331   -17605   -18083   -18198   -18199 
  -18412   -18408   -18014   -17759   -17652   -17429   -17586   -18345 
  -18881   -18635   -18049   -17720   -17680   -17710   -17883   -18237 
  -18354   -18048   -17729   -17703   -17887   -18161   -18449   -18566 
  -18280   -17717   -17397   -17564   -17938   -18283   -18550   -18457 
  -17888   -17444   -17555   -17913   -18222   -18449   -18493   -18285 
  -17995   -17824   -17740   -17699   -17820   -18106   -18330   -18218 
  -17832   -17647   -17922   -18349   -18465   -18162   -17801   -17722 
  -17876   -18073   -18189   -18171   -18081   -17956   -17840   -17903 
  -18149   -18165   -17740   -17446   -17832   -18434   -18573   -18397 
  -18288   -18179   -17925   -17632   -17481   -17598   -17973   -18345 
  -18438   -18299   -18036   -17720   -17686   -18063   -18316   -18110 
  -17864   -17903   -18010   -18053   -18104   -18138   -18181   -18260 
  -18177   -17844   -17570   -17647   -17907   -18085   -18215   -18284 
  -18115   -17883   -17952   -18187   -18168   -17865   -17651   -17810 
  -18261   -18648   -18623   -18138   -17520   -17181   -17317   -17868 
  -18477   -18665   -18414   -18139   -18019   -17963   -18029   -18164 
  -18075   -17814   -17767   -17894   -17861   -17793   -17969   -18195 
  -18225   -18146   -18048   -17994   -18046   -18068   -17919   -17791 
  -17957   -18237   -18173   -17849   -17786   -18068   -18316   -18273 
  -17986   -17734   -17806   -18117   -18288   -18160   -17971   -18007 
  -18196   -18234   -18002   -17720   -17718   -18015   -18191   -18013 
  -17793   -17801   -17944   -18073   -18137   -18177   -18231   -18258 
  -18252   -18196   -18023   -17761   -17544   -17517   -17775   -18219 
  -18577   -18654   -18364   -17725   -17170   -17257   -17886   -18481 
  -18771   -18750   -18335   -17668   -17273   -17427   -17861   -18268 
  -18463   -18281   -17986   -18007   -18110   -17955   -17795   -17852 
  -17977   -18041   -18019   -17941   -17945   -18193   -18519   -18474 
  -18014   -17618   -17524   -17633   -17968   -18360   -18384   -18090 
  -17938   -18007   -18048   -18017   -18036   -18118   -18129   -17969 
  -17784   -17828   -18110   -18392   -18424   -18079   -17532   -17271 
  -17586   -18200   -18621   -18609   -18280   -17891   -17586   -17498 
  -17822   -18328   -18465   -18254   -18096   -17941   -17703   -17712 
  -18056   -18360   -18401   -18219   -17820   -17423   -17425   -17844 
  -18297   -18463   -18311   -18046   -17945   -18091   -18206   -18068 
  -17941   -18025   -18057   -17865   -17651   -17685   -18050   -18485 
  -18586   -18262   -17811   -17604   -17809   -18238   -18412   -18045 
  -17504   -17444   -17968   -18470   -18416   -18007   -17815   -18007 
  -18288   -18304   -17965   -17676   -17840   -18134   -18087   -17842 
  -17686   -17702   -18090   -18709   -18785   -18094   -17470   -17498 
  -17906   -18252   -18351   -18211   -17979   -17844   -17856   -17923 
  -17971   -17986   -18046   -18184   -18191   -17969   -17820   -17922 
  -18137   -18301   -18223   -17853   -17559   -17635   -17975   -18368 
  -18608   -18585   -18345   -17895   -17401   -17309   -17753   -18272 
  -18463   -18405   -18200   -17782   -17459   -17672   -18188   -18466 
  -18414   -18153   -17770   -17539   -17748   -18181   -18319   -18054 
  -17787   -17855   -18146   -18289   -18173   -17992   -17836   -17783 
  -17977   -18227   -18226   -18121   -18158   -18214   -18085   -17805 
  -17502   -17305   -17436   -18014   -18689   -18918   -18600   -18044 
  -17602   -17524   -17793   -18131   -18314   -18330   -18293   -18230 
  -17976   -17523   -17236   -17505   -18210   -18746   -18712   -18307 
  -17890   -17591   -17455   -17609   -18046   -18412   -18385   -18210 
  -18219   -18237   -18079   -17971   -17960   -17780   -17520   -17525 
  -17690   -17809   -18126   -18692   -19005   -18716   -17998   -17274 
  -17012   -17446   -18226   -18694   -18696   -18551   -18291   -17778 
  -17307   -17235   -17552   -18107   -18628   -18679   -18214   -17761 
  -17749   -18038   -18300   -18327   -18056   -17729   -17697   -17798 
  -17686   -17579   -17888   -18505   -18901   -18733   -18196   -17703 
  -17479   -17506   -17718   -18125   -18539   -18468   -17825   -17320 
  -17552   -18254   -18759   -18724   -18276   -17791   -17544   -17574 
  -17820   -18098   -18157   -18098   -18185   -18270   -18115   -17887 
  -17859   -17953   -17909   -17813   -17917   -18013   -17929   -17994 
  -18237   -18327   -18293   -18223   -18010   -17779   -17717   -17764 
  -17882   -18031   -18118   -18183   -18204   -18094   -18010   -18129 
  -18285   -18226   -17999   -17857   -17875   -17925   -17936   -17917 
  -17778   -17539   -17649   -18297   -18828   -18702   -18227   -17813 
  -17467   -17342   -17766   -18436   -18636   -18316   -17886   -17521 
  -17447   -17828   -18287   -18462   -18462   -18435   -18322   -18050 
  -17712   -17504   -17625   -18090   -18486   -18372   -17946   -17653 
  -17545   -17620   -17956   -18310   -18358   -18168   -17946   -17798 
  -17834   -18042   -18230   -18315   -18269   -18064   -17937   -18076 
  -18185   -18063   -17896   -17729   -17579   -17771   -18262   -18463 
  -18225   -18031   -18090   -18107   -17996   -17982   -18041   -17973 
  -17833   -17774   -17780   -17752   -17740   -17933   -18310   -18563 
  -18553   -18435   -18265   -17906   -17493   -17420   -17698   -18009 
  -18219   -18272   -18126   -17975   -17976   -18029   -18026   -18011 
  -18042   -18090   -18092   -18110   -18196   -18222   -18098   -17869 
  -17598   -17494   -17814   -18396   -18770   -18684   -18165   -17544 
  -17370   -17687   -17936   -17906   -17921   -18100   -18279   -18380 
  -18334   -18060   -17745   -17699   -17871   -17994   -18092   -18277 
  -18361   -18123   -17706   -17494   -17710   -18175   -18472   -18393 
  -18135   -17934   -17833   -17844   -17882   -17830   -17892   -18322 
  -18817   -18798   -18153   -17412   -17188   -17527   -17976   -18192 
  -18177   -18107   -18184   -18357   -18291   -17926   -17601   -17524 
  -17652   -17882   -18080   -18164   -18165   -18218   -18373   -18412 
  -18180   -17933   -17856   -17798   -17817   -18067   -18256   -18166 
  -18025   -17941   -17879   -17964   -18216   -18353   -18145   -17787 
  -17628   -17716   -17896   -18041   -18103   -18187   -18310   -18242 
  -17992   -17836   -17837   -17926   -18018   -17928   -17784   -18002 
  -18370   -18316   -17995   -17902   -18033   -18154   -18238   -18303 
  -18225   -17945   -17679   -17617   -17703   -17906   -18234   -18466 
  -18310   -17872   -17614   -17694   -17830   -17888   -18023   -18299 
  -18516   -18438   -18133   -17917   -17953   -18125   -18185   -17995 
  -17676   -17525   -17713   -18073   -18281   -18220   -18027   -17901 
  -17941   -18063   -18153   -18154   -18029   -17895   -17894   -17937 
  -17959   -18092   -18303   -18346   -18203   -18069   -17971   -17826 
  -17709   -17710   -17828   -18045   -18266   -18297   -18076   -17844 
  -17851   -18013   -18162   -18250   -18230   -18138   -18130   -18156 
  -17990   -17701   -17587   -17713   -17936   -18195   -18424   -18430 
  -18156   -17832   -17659   -17637   -17736   -17948   -18208   -18384 
  -18378   -18206   -17977   -17856   -17919   -18052   -18142   -18207 
  -18158   -17917   -17698   -17779   -18041   -18141   -18023   -17921 
  -17930   -17992   -18065   -18114   -18073   -17963   -17914   -17984 
  -18080   -18139   -18153   -18156   -18219   -18274   -18144   -17848 
  -17535   -17377   -17577   -18050   -18468   -18631   -18472   -18094 
  -17767   -17625   -17701   -18048   -18441   -18469   -18122   -17799 
  -17707   -17766   -17926   -18080   -18022   -17941   -18183   -18470 
  -18273   -17763   -17523   -17737   -18181   -18515   -18438   -18026 
  -17730   -17745   -17822   -17836   -17928   -18056   -18069   -18069 
  -18130   -18154   -18198   -18272   -18134   -17837   -17728   -17868 
  -18057   -18149   -18069   -17915   -17911   -18037   -18095   -18119 
  -18200   -18149   -17901   -17779   -17929   -18072   -18065   -18061 
  -18054   -17944   -17864   -17932   -18002   -18040   -18137   -18181 
  -18044   -17919   -18021   -18222   -18292   -18223   -18085   -17906 
  -17736   -17628   -17670   -17963   -18355   -18457   -18173   -17855 
  -17756   -17825   -17987   -18219   -18436   -18439   -18104   -17666 
  -17471   -17605   -17971   -18365   -18462   -18139   -17760   -17743 
  -18000   -18187   -18135   -17942   -17879   -18018   -18134   -18171 
  -18234   -18276   -18169   -17944   -17797   -17832   -17894   -17875 
  -17936   -18152   -18250   -18079   -17932   -18003   -18079   -17991 
  -17890   -17921   -18000   -18054   -18052   -17952   -17905   -18045 
  -18210   -18245   -18157   -17969   -17798   -17790   -17969   -18204 
  -18270   -18126   -17976   -17930   -17910   -17910   -17960   -17977 
  -17975   -18033   -18079   -18048   -18034   -18133   -18269   -18261 
  -18071   -17830   -17671   -17702   -17942   -18233   -18400   -18346 
