Origin Time       2025/03/30 10:46:00
Lat.              32.923
Long.             130.372
Depth. (km)       11
Mag.              3.4
Station Code      KMMH14
Station Lat.      32.6345
Station Long.     130.7521
Station Height(m) 70
Record Time       2025/03/30 10:46:35
Sampling Freq(Hz) 100Hz
Duration Time(s)  120
Dir.              4
Scale Factor      7845(gal)/8223790
Max. Acc. (gal)   1.347
Last Correction   2025/03/30 10:46:36
Memo.             
[...]
  -10027   -10029   -10037   -10038   -10031   -10025   -10022   -10021 
  -10030   -10037   -10038   -10042   -10044   -10033   -10023   -10021 
  -10021   -10027   -10035   -10038   -10039   -10038   -10031   -10025 
  -10026   -10026   -10026   -10037   -10042   -10035   -10033   -10033 
  -10023   -10019   -10029   -10039   -10039   -10033   -10029   -10029 
  -10033   -10033   -10031   -10033   -10039   -10044   -10037   -10029 
  -10027   -10025   -10021   -10019   -10025   -10037   -10045   -10042 
  -10038   -10030   -10018   -10018   -10025   -10030   -10031   -10034 
  -10037   -10035   -10034   -10033   -10029   -10027   -10033   -10034 
  -10031   -10031   -10033   -10030   -10030   -10035   -10034   -10026 
  -10021   -10018   -10022   -10033   -10041   -10039   -10031   -10026 
  -10027   -10031   -10034   -10037   -10033   -10030   -10029   -10022 
  -10023   -10030   -10035   -10038   -10039   -10035   -10033   -10034 
  -10033   -10030   -10025   -10023   -10030   -10031   -10027   -10033 
  -10042   -10038   -10030   -10029   -10033   -10034   -10029   -10026 
  -10031   -10030   -10026   -10030   -10033   -10034   -10038   -10041 
  -10037   -10033   -10030   -10026   -10029   -10031   -10030   -10029 
  -10031   -10033   -10034   -10035   -10033   -10033   -10037   -10037 
  -10033   -10029   -10027   -10029   -10027   -10027   -10031   -10031 
  -10027   -10030   -10035   -10037   -10037   -10034   -10030   -10030 
  -10029   -10023   -10018   -10022   -10033   -10035   -10029   -10034 
  -10044   -10042   -10035   -10033   -10033   -10030   -10027   -10030 
  -10038   -10042   -10035   -10027   -10021   -10014   -10015   -10022 
  -10026   -10030   -10034   -10034   -10035   -10042   -10048   -10045 
  -10034   -10030   -10030   -10025   -10023   -10029   -10033   -10033 
  -10031   -10030   -10026   -10023   -10026   -10027   -10030   -10038 
  -10042   -10037   -10030   -10026   -10023   -10025   -10029   -10031 
  -10033   -10034   -10038   -10039   -10034   -10030   -10027   -10025 
  -10022   -10019   -10026   -10035   -10035   -10029   -10030   -10037 
  -10035   -10031   -10031   -10031   -10030   -10031   -10037   -10037 
  -10029   -10025   -10026   -10025   -10022   -10023   -10026   -10029 
  -10029   -10030   -10029   -10033   -10041   -10048   -10049   -10041 
  -10031   -10030   -10029   -10023   -10023   -10030   -10038   -10038 
  -10031   -10029   -10029   -10027   -10026   -10030   -10033   -10030 
  -10029   -10026   -10022   -10021   -10029   -10038   -10041   -10045 
  -10045   -10037   -10037   -10041   -10034   -10027   -10029   -10026 
  -10026   -10033   -10031   -10026   -10027   -10029   -10029   -10030 
  -10027   -10027   -10033   -10033   -10034   -10038   -10037   -10033 
  -10033   -10034   -10034   -10033   -10031   -10031   -10027   -10023 
  -10027   -10033   -10037   -10041   -10039   -10033   -10026   -10019 
  -10018   -10017   -10021   -10029   -10039   -10048   -10050   -10046 
  -10037   -10029   -10025   -10025   -10031   -10034   -10029   -10023 
  -10023   -10026   -10030   -10038   -10038   -10031   -10029   -10030 
  -10029   -10027   -10030   -10034   -10033   -10031   -10037   -10038 
  -10037   -10034   -10025   -10021   -10027   -10033   -10034   -10039 
  -10042   -10035   -10027   -10026   -10026   -10026   -10026   -10030 
  -10030   -10027   -10027   -10033   -10038   -10044   -10046   -10041 
  -10029   -10022   -10019   -10021   -10030   -10038   -10039   -10035 
  -10034   -10034   -10030   -10027   -10033   -10033   -10029   -10033 
  -10033   -10027   -10026   -10030   -10029   -10029   -10031   -10033 
  -10033   -10037   -10044   -10038   -10030   -10033   -10034   -10026 
  -10022   -10027   -10030   -10029   -10031   -10035   -10033   -10030 
  -10027   -10027   -10029   -10034   -10041   -10035   -10034   -10039 
  -10031   -10019   -10022   -10025   -10021   -10026   -10038   -10045 
  -10046   -10041   -10029   -10018   -10012   -10015   -10027   -10035 
  -10039   -10044   -10038   -10031   -10034   -10033   -10030   -10031 
  -10027   -10019   -10019   -10026   -10030   -10035   -10044   -10048 
  -10039   -10030   -10026   -10021   -10017   -10022   -10031   -10035 
  -10037   -10037   -10029   -10021   -10023   -10026   -10029   -10037 
  -10041   -10033   -10027   -10031   -10033   -10030   -10031   -10035 
  -10034   -10033   -10033   -10027   -10021   -10022   -10027   -10033 
  -10041   -10044   -10039   -10033   -10030   -10026   -10021   -10027 
  -10038   -10033   -10023   -10027   -10030   -10025   -10027   -10035 
  -10041   -10038   -10031   -10026   -10027   -10034   -10039   -10038 
  -10039   -10038   -10029   -10022   -10023   -10027   -10033   -10034 
  -10035   -10035   -10030   -10029   -10030   -10029   -10025   -10026 
  -10026   -10025   -10031   -10038   -10038   -10039   -10037   -10025 
  -10021   -10027   -10029   -10029   -10037   -10038   -10030   -10029 
  -10030   -10031   -10035   -10038   -10035   -10030   -10030   -10031 
  -10025   -10019   -10026   -10031   -10026   -10025   -10031   -10035 
  -10033   -10030   -10035   -10038   -10029   -10026   -10033   -10038 
  -10035   -10033   -10033   -10030   -10027   -10026   -10023   -10025 
  -10031   -10033   -10030   -10034   -10038   -10037   -10039   -10042 
  -10029   -10014   -10012   -10017   -10021   -10031   -10044   -10048 
  -10046   -10042   -10033   -10022   -10018   -10021   -10026   -10033 
  -10033   -10025   -10019   -10027   -10038   -10041   -10038   -10037 
  -10038   -10035   -10030   -10027   -10029   -10030   -10031   -10030 
  -10025   -10026   -10033   -10034   -10035   -10037   -10035   -10031 
  -10029   -10026   -10026   -10027   -10026   -10025   -10031   -10037 
  -10037   -10037   -10038   -10037   -10033   -10026   -10025   -10033 
  -10038   -10035   -10031   -10027   -10022   -10018   -10019   -10027 
  -10035   -10042   -10044   -10038   -10033   -10027   -10025   -10027 
  -10034   -10039   -10038   -10033   -10027   -10022   -10019   -10026 
  -10033   -10033   -10031   -10037   -10038   -10034   -10029   -10026 
  -10027   -10023   -10022   -10029   -10037   -10042   -10042   -10037 
  -10031   -10029   -10027   -10031   -10034   -10030   -10029   -10033 
  -10031   -10022   -10021   -10033   -10038   -10037   -10037   -10035 
  -10031   -10029   -10027   -10030   -10033   -10033   -10034   -10034 
  -10037   -10039   -10037   -10029   -10021   -10018   -10023   -10029 
  -10035   -10042   -10042   -10038   -10030   -10021   -10019   -10027 
  -10030   -10033   -10039   -10041   -10033   -10027   -10026   -10025 
  -10027   -10035   -10042   -10039   -10034   -10029   -10023   -10021 
  -10025   -10029   -10030   -10033   -10039   -10041   -10038   -10035 
  -10034   -10030   -10026   -10025   -10029   -10034   -10038   -10042 
  -10038   -10027   -10021   -10023   -10026   -10027   -10030   -10033 
  -10033   -10033   -10030   -10026   -10029   -10038   -10042   -10038 
  -10042   -10041   -10026   -10014   -10017   -10022   -10027   -10031 
  -10034   -10038   -10044   -10041   -10031   -10026   -10025   -10022 
  -10022   -10029   -10037   -10042   -10044   -10038   -10029   -10022 
  -10018   -10021   -10027   -10030   -10033   -10034   -10035   -10033 
  -10029   -10027   -10031   -10038   -10045   -10050   -10054   -10053 
  -10042   -10027   -10014   -10004   -10000   -10002   -10006   -10018 
  -10034   -10044   -10045   -10044   -10037   -10031   -10034   -10044 
  -10046   -10037   -10027   -10026   -10030   -10030   -10026   -10026 
  -10033   -10030   -10023   -10031   -10053   -10061   -10060   -10056 
  -10035   -10004    -9985    -9985    -9999   -10011   -10010   -10008 
  -10017   -10034   -10061   -10093   -10110   -10108   -10089   -10042 
   -9990    -9958    -9954    -9977   -10017   -10038   -10042   -10052 
  -10056   -10048   -10053   -10056   -10052   -10060   -10058   -10014 
   -9957    -9934    -9940    -9969   -10015   -10049   -10071   -10099 
  -10114   -10104   -10099   -10081   -10045   -10044   -10068   -10038 
   -9976    -9952    -9958    -9961    -9956    -9969   -10038   -10126 
  -10153   -10126   -10066    -9969    -9922    -9976   -10004    -9984 
  -10011   -10035   -10026   -10057   -10080   -10068   -10100   -10119 
  -10061   -10031   -10041   -10030   -10034   -10041   -10012    -9981 
   -9940    -9904    -9931    -9973   -10023   -10104   -10141   -10152 
  -10149   -10073   -10031   -10050    -9969    -9857    -9869    -9937 
   -9996   -10079   -10156   -10195   -10192   -10135   -10054   -10006 
   -9965    -9913    -9917    -9975   -10023   -10077   -10098   -10046 
  -10017   -10031   -10010    -9990   -10023   -10037   -10014   -10029 
  -10098   -10138   -10077    -9984    -9990   -10022    -9944    -9869 
   -9926   -10008   -10030   -10089   -10231   -10278   -10150   -10048 
  -10026    -9940    -9875    -9930    -9971    -9973   -10030   -10092 
  -10112   -10110   -10072    -9980    -9890    -9915   -10044   -10106 
  -10091   -10138   -10183   -10085    -9946    -9902    -9910    -9921 
   -9958   -10018   -10068   -10100   -10125   -10133   -10106   -10061 
  -10026    -9968    -9902    -9915   -10010   -10118   -10174   -10135 
  -10048    -9983    -9946    -9985   -10092   -10108   -10021    -9967 
   -9944    -9930    -9996   -10102   -10170   -10184   -10112   -10011 
   -9963    -9930    -9899    -9933   -10019   -10056   -10038   -10072 
  -10123   -10089   -10039   -10038   -10018    -9983   -10011   -10073 
  -10091   -10050    -9979    -9931    -9953    -9994    -9998    -9987 
  -10006   -10050   -10077   -10119   -10219   -10249   -10133   -10025 
   -9984    -9941    -9911    -9929    -9967    -9985    -9963    -9985 
  -10130   -10234   -10169   -10076   -10019    -9933    -9876    -9900 
   -9950   -10045   -10147   -10146   -10100   -10096   -10052    -9944 
   -9899    -9960   -10003    -9953    -9900    -9969   -10129   -10184 
  -10111   -10108   -10164   -10115   -10046   -10052   -10054   -10026 
   -9990    -9971    -9972    -9950    -9930    -9958    -9987    -9994 
  -10004   -10018   -10066   -10127   -10114   -10062   -10088   -10157 
  -10129   -10026    -9977    -9936    -9856    -9852    -9954   -10081 
  -10161   -10111    -9968    -9913    -9977   -10054   -10125   -10191 
  -10219   -10231   -10228   -10179   -10099    -9971    -9802    -9710 
   -9755    -9875   -10007   -10087   -10080   -10037   -10017   -10026 
  -10031   -10017   -10003   -10018   -10027   -10042   -10111   -10160 
  -10125   -10100   -10125   -10126   -10081   -10008    -9930    -9882 
   -9902    -9948    -9957    -9992   -10083   -10135   -10147   -10161 
  -10130   -10064   -10002    -9940    -9931    -9977    -9994    -9999 
  -10022   -10003    -9960    -9950    -9957   -10004   -10125   -10224 
  -10223   -10165   -10093   -10003    -9922    -9899    -9914    -9942 
  -10000   -10098   -10184   -10177   -10095   -10044   -10006    -9919 
   -9855    -9883    -9987   -10100   -10108   -10042   -10033   -10026 
   -9958    -9937    -9995   -10054   -10095   -10110   -10102   -10120 
  -10147   -10127   -10088   -10056   -10022   -10006    -9980    -9922 
   -9898    -9944    -9990   -10006   -10017   -10011    -9996    -9990 
  -10003   -10071   -10127   -10088   -10058   -10116   -10133   -10065 
  -10021   -10042   -10088   -10099   -10010    -9873    -9841    -9931 
  -10033   -10104   -10161   -10162   -10088    -9983    -9907    -9891 
   -9923   -10002   -10084   -10102   -10108   -10154   -10152   -10066 
   -9968    -9900    -9891    -9938    -9996   -10066   -10127   -10098 
  -10037   -10049   -10045    -9999   -10030   -10111   -10149   -10141 
  -10088   -10007    -9918    -9811    -9763    -9853    -9987   -10060 
  -10115   -10183   -10183   -10103   -10061   -10092   -10125   -10126 
  -10089   -10019    -9960    -9918    -9895    -9941   -10006    -9973 
   -9917    -9954   -10054   -10179   -10304   -10318   -10157    -9940 
   -9810    -9796    -9872    -9987   -10073   -10130   -10183   -10192 
  -10134   -10017    -9902    -9882    -9948   -10021   -10073   -10072 
   -9988    -9903    -9899    -9926    -9969   -10081   -10196   -10216 
  -10199   -10188   -10131   -10003    -9876    -9841    -9871    -9929 
  -10064   -10231   -10288   -10254   -10226   -10157    -9984    -9821 
   -9786    -9842    -9934   -10030   -10087   -10096   -10069   -10022 
   -9960    -9869    -9811    -9869    -9998   -10120   -10200   -10197 
  -10138   -10073   -10034   -10041   -10062   -10085   -10133   -10180 
  -10193   -10137   -10002    -9899    -9869    -9840    -9844    -9934 
  -10038   -10137   -10264   -10301   -10173   -10027    -9958    -9898 
   -9810    -9753    -9805    -9940   -10029   -10031   -10015   -10010 
   -9973    -9929    -9964   -10056   -10133   -10239   -10359   -10430 
  -10438   -10308   -10058    -9840    -9690    -9637    -9722    -9809 
   -9828    -9884    -9963    -9972    -9971   -10062   -10189   -10239 
  -10238   -10249   -10254   -10261   -10238   -10131   -10060   -10116 
  -10170   -10139   -10062    -9972    -9910    -9876    -9872    -9977 
  -10166   -10272   -10231   -10143   -10049    -9926    -9856    -9898 
   -9936    -9887    -9830    -9822    -9837    -9841    -9815    -9764 
   -9706    -9657    -9626    -9640    -9717    -9829    -9929    -9991 
  -10045   -10204   -10451   -10650   -10768   -10818   -10809   -10841 
  -10898   -10832   -10658   -10434   -10058    -9543    -9080    -8772 
   -8619    -8654    -8881    -9269    -9783   -10261   -10571   -10760 
  -10833   -10744   -10594   -10509   -10516   -10604   -10709   -10714 
  -10574   -10299    -9868    -9347    -8918    -8687    -8633    -8735 
   -9049    -9563   -10083   -10461   -10741   -10935   -10982   -10905 
  -10748   -10582   -10419   -10179    -9963    -9942   -10008    -9983 
   -9848    -9585    -9236    -8989    -8972    -9229    -9734   -10247 
  -10584   -10795   -10849   -10690   -10534   -10524   -10527   -10457 
  -10308   -10037    -9711    -9424    -9192    -9120    -9259    -9493 
   -9774   -10088   -10303   -10322   -10210   -10049    -9871    -9748 
   -9803   -10053   -10328   -10498   -10612   -10673   -10627   -10552 
  -10523   -10428   -10139    -9741    -9463    -9320    -9200    -9223 
   -9516    -9884   -10142   -10338   -10473   -10450   -10331   -10268 
  -10262   -10226   -10152   -10029    -9818    -9579    -9424    -9417 
   -9543    -9651    -9671    -9776   -10026   -10307   -10602   -10910 
  -11115   -11110   -10868   -10527   -10238    -9972    -9744    -9679 
   -9690    -9593    -9421    -9296    -9238    -9255    -9370    -9553 
   -9783   -10065   -10315   -10447   -10523   -10616   -10750   -10912 
  -11002   -10944   -10747   -10407   -10030    -9798    -9701    -9602 
   -9451    -9288    -9166    -9123    -9185    -9352    -9551    -9697 
   -9846   -10120   -10461   -10685   -10758   -10737   -10623   -10426 
  -10239   -10142   -10131   -10152   -10108    -9961    -9788    -9593 
   -9375    -9327    -9541    -9900   -10312   -10667   -10808   -10748 
  -10613   -10462   -10316   -10201   -10066    -9848    -9589    -9350 
   -9200    -9204    -9274    -9369    -9629   -10004   -10237   -10272 
  -10257   -10307   -10399   -10451   -10476   -10509   -10474   -10300 
  -10087    -9944    -9879    -9884    -9941    -9960    -9886    -9759 
   -9657    -9629    -9656    -9690    -9702    -9695    -9764   -10038 
  -10496   -10964   -11298   -11411   -11250   -10860   -10328    -9733 
   -9267    -9088    -9157    -9420    -9787   -10031   -10034    -9863 
   -9610    -9391    -9331    -9487    -9790   -10087   -10315   -10516 
  -10683   -10762   -10750   -10648   -10430   -10135    -9922    -9915 
  -10073   -10293   -10469   -10470   -10255    -9898    -9464    -9066 
   -8878    -8981    -9289    -9663    -9998   -10230   -10326   -10280 
  -10142   -10048   -10157   -10453   -10709   -10775   -10658   -10365 
   -9987    -9706    -9583    -9597    -9741    -9904    -9952    -9950 
  -10004   -10039   -10019   -10076   -10254   -10412   -10455   -10415 
  -10300   -10098    -9836    -9591    -9481    -9540    -9702    -9940 
  -10199   -10338   -10315   -10193   -10000    -9782    -9637    -9605 
   -9676    -9840   -10050   -10282   -10508   -10648   -10642   -10503 
  -10258    -9948    -9705    -9659    -9757    -9884    -9996   -10046 
   -9981    -9864    -9801    -9807    -9837    -9902   -10069   -10303 
  -10474   -10536   -10498   -10336   -10081    -9849    -9710    -9656 
   -9675    -9759    -9868    -9929    -9894    -9818    -9833    -9972 
  -10133   -10249   -10338   -10400   -10401   -10363   -10320   -10241 
  -10093    -9936    -9818    -9721    -9648    -9660    -9771    -9930 
  -10096   -10230   -10274   -10214   -10135   -10166   -10296   -10389 
  -10361   -10208   -10006    -9863    -9786    -9757    -9833    -9967 
  -10023    -9994    -9940    -9857    -9745    -9683    -9740    -9896 
  -10111   -10330   -10497   -10559   -10439   -10141    -9845    -9684 
   -9656    -9780   -10022   -10235   -10372   -10439   -10370   -10137 
   -9832    -9572    -9436    -9459    -9624    -9848   -10052   -10204 
  -10281   -10296   -10288   -10265   -10249   -10243   -10199   -10104 
   -9948    -9733    -9585    -9595    -9721    -9940   -10192   -10343 
  -10399   -10444   -10449   -10397   -10351   -10312   -10220   -10093 
   -9981    -9898    -9863    -9877    -9904    -9965   -10080   -10180 
  -10208   -10153   -10008    -9825    -9668    -9570    -9545    -9594 
   -9666    -9726    -9788    -9857    -9926    -9998   -10072   -10164 
  -10282   -10369   -10359   -10274   -10180   -10081    -9957    -9869 
   -9896   -10015   -10154   -10292   -10405   -10426   -10336   -10239 
  -10206   -10184   -10108    -9985    -9832    -9670    -9540    -9494 
   -9553    -9691    -9868   -10048   -10187   -10237   -10183   -10066 
   -9969    -9952   -10039   -10237   -10480   -10647   -10644   -10473 
  -10192    -9879    -9636    -9510    -9502    -9606    -9756    -9865 
   -9933   -10002   -10093   -10174   -10173   -10110   -10080   -10096 
  -10114   -10137   -10192   -10253   -10265   -10218   -10131   -10026 
   -9934    -9876    -9861    -9864    -9848    -9865    -9958   -10038 
  -10038    -9996    -9933    -9857    -9814    -9840    -9942   -10107 
  -10311   -10492   -10554   -10492   -10388   -10273   -10146   -10048 
   -9996    -9969    -9942    -9896    -9811    -9695    -9612    -9624 
   -9707    -9801    -9879    -9944    -9998   -10050   -10122   -10214 
  -10281   -10282   -10228   -10172   -10135   -10092   -10025    -9968 
   -9946    -9941    -9914    -9865    -9826    -9809    -9837    -9930 
  -10049   -10161   -10277   -10366   -10389   -10374   -10380   -10370 
  -10270   -10112    -9967    -9837    -9744    -9737    -9769    -9776 
   -9772    -9768    -9795    -9888    -9988   -10052   -10108   -10143 
  -10135   -10129   -10123   -10072    -9987    -9936    -9933    -9954 
  -10015   -10116   -10197   -10200   -10149   -10106   -10092   -10104 
  -10154   -10214   -10215   -10170   -10126   -10089   -10068   -10071 
  -10085   -10076   -10019    -9945    -9880    -9803    -9718    -9659 
   -9639    -9657    -9745    -9922   -10150   -10346   -10442   -10407 
  -10247   -10035    -9871    -9803    -9836    -9964   -10154   -10343 
