Origin Time       2025/03/30 10:46:00
Lat.              32.923
Long.             130.372
Depth. (km)       11
Mag.              3.4
Station Code      NGSH05
Station Lat.      32.9103
Station Long.     130.1408
Station Height(m) 29
Record Time       2025/03/30 10:46:24
Sampling Freq(Hz) 100Hz
Duration Time(s)  120
Dir.              5
Scale Factor      7845(gal)/8223790
Max. Acc. (gal)   4.391
Last Correction   2025/03/30 10:46:24
Memo.             
[...]
    4422     4434     4448     4444     4394     4375     4413     4432 
    4446     4457     4402     4371     4426     4461     4442     4399 
    4363     4396     4455     4457     4437     4413     4394     4419 
    4438     4414     4415     4425     4406     4423     4457     4434 
    4399     4384     4372     4423     4490     4469     4414     4374 
    4367     4421     4446     4422     4430     4440     4434     4440 
    4417     4388     4390     4398     4419     4455     4463     4433 
    4394     4384     4415     4442     4444     4436     4413     4383 
    4390     4417     4449     4476     4455     4396     4380     4415 
    4417     4396     4421     4437     4421     4444     4469     4419 
    4368     4401     4449     4444     4414     4394     4398     4428 
    4444     4448     4461     4436     4379     4367     4405     4434 
    4429     4438     4453     4430     4422     4421     4378     4365 
    4433     4488     4457     4410     4394     4386     4415     4445 
    4415     4406     4429     4444     4455     4429     4387     4384 
    4418     4441     4432     4429     4425     4409     4423     4425 
    4399     4413     4429     4428     4438     4436     4419     4405 
    4390     4407     4452     4448     4402     4398     4428     4448 
    4433     4392     4399     4432     4423     4428     4426     4396 
    4429     4448     4399     4399     4410     4421     4460     4438 
    4411     4423     4402     4403     4425     4413     4422     4444 
    4436     4425     4406     4394     4417     4434     4432     4436 
    4423     4406     4413     4415     4414     4419     4415     4422 
    4438     4434     4428     4413     4387     4398     4426     4436 
    4438     4428     4410     4415     4421     4422     4419     4403 
    4414     4452     4452     4409     4383     4388     4414     4446 
    4457     4440     4414     4401     4409     4417     4409     4411 
    4423     4434     4437     4419     4414     4429     4411     4390 
    4423     4455     4430     4406     4415     4422     4423     4426 
    4421     4409     4396     4413     4445     4444     4418     4406 
    4415     4425     4413     4417     4442     4426     4401     4419 
    4437     4421     4415     4426     4428     4423     4417     4409 
    4403     4410     4437     4453     4434     4402     4399     4411 
    4410     4423     4452     4436     4405     4410     4419     4417 
    4414     4410     4421     4444     4437     4406     4399     4417 
    4428     4429     4423     4415     4415     4421     4419     4419 
    4422     4419     4415     4417     4419     4422     4425     4421 
    4409     4411     4429     4432     4423     4414     4410     4422 
    4429     4411     4405     4421     4425     4430     4441     4419 
    4392     4398     4423     4442     4432     4410     4407     4423 
    4437     4429     4406     4402     4418     4428     4433     4436 
    4422     4401     4399     4419     4430     4419     4411     4415 
    4426     4446     4442     4405     4391     4399     4411     4436 
    4440     4425     4434     4434     4418     4413     4399     4391 
    4417     4441     4448     4437     4410     4402     4413     4422 
    4423     4415     4414     4423     4432     4432     4422     4410 
    4411     4421     4418     4417     4423     4421     4414     4415 
    4422     4429     4417     4409     4426     4434     4421     4414 
    4414     4414     4426     4433     4421     4410     4414     4421 
    4428     4430     4421     4411     4415     4415     4419     4434 
    4432     4419     4419     4415     4411     4414     4415     4425 
    4434     4432     4421     4410     4414     4421     4419     4417 
    4417     4421     4426     4432     4430     4419     4410     4410 
    4415     4418     4421     4426     4433     4429     4419     4419 
    4417     4405     4410     4432     4434     4418     4413     4422 
    4421     4414     4428     4434     4414     4405     4418     4422 
    4414     4413     4425     4434     4428     4415     4417     4419 
    4413     4417     4429     4425     4419     4421     4421     4421 
    4419     4414     4417     4423     4418     4418     4426     4423 
    4417     4419     4422     4418     4418     4421     4419     4422 
    4425     4421     4418     4413     4409     4425     4436     4418 
    4407     4415     4418     4423     4433     4426     4413     4411 
    4415     4421     4428     4425     4411     4409     4419     4419 
    4411     4417     4428     4430     4426     4418     4413     4414 
    4414     4419     4426     4429     4423     4414     4414     4422 
    4419     4417     4418     4415     4422     4432     4428     4415 
    4407     4409     4418     4423     4422     4417     4421     4429 
    4423     4419     4422     4411     4401     4410     4428     4433 
    4423     4410     4413     4430     4430     4417     4410     4411 
    4417     4419     4418     4422     4432     4430     4422     4411 
    4405     4415     4425     4419     4421     4428     4425     4421 
    4418     4411     4410     4422     4430     4421     4414     4422 
    4428     4421     4413     4414     4425     4432     4417     4407 
    4423     4432     4425     4421     4417     4417     4418     4414 
    4418     4428     4433     4419     4414     4432     4429     4403 
    4399     4418     4433     4437     4426     4407     4406     4415 
    4418     4425     4433     4426     4419     4421     4414     4411 
    4419     4423     4429     4430     4421     4410     4409     4414 
    4422     4428     4429     4425     4419     4419     4422     4414 
    4409     4415     4428     4432     4426     4422     4421     4417 
    4413     4414     4419     4426     4428     4423     4421     4417 
    4413     4415     4417     4422     4432     4430     4418     4417 
    4425     4419     4407     4406     4417     4430     4430     4421 
    4415     4415     4415     4417     4415     4418     4428     4433 
    4428     4421     4415     4415     4418     4417     4413     4414 
    4425     4438     4430     4414     4418     4421     4407     4402 
    4413     4426     4430     4430     4433     4425     4407     4401 
    4411     4418     4417     4425     4432     4426     4414     4411 
    4422     4423     4409     4415     4432     4426     4411     4410 
    4421     4425     4415     4414     4423     4428     4426     4422 
    4413     4418     4426     4421     4419     4422     4422     4421 
    4415     4418     4432     4426     4411     4414     4418     4417 
    4421     4423     4421     4423     4425     4418     4414     4417 
    4421     4417     4414     4419     4428     4429     4430     4419 
    4403     4409     4423     4426     4428     4432     4428     4417 
    4410     4411     4413     4414     4419     4429     4436     4425 
    4409     4414     4421     4414     4419     4429     4426     4417 
    4411     4422     4426     4414     4415     4422     4422     4421 
    4419     4425     4429     4415     4410     4414     4414     4423 
    4438     4434     4413     4405     4415     4423     4422     4428 
    4432     4417     4407     4422     4430     4419     4413     4418 
    4426     4423     4421     4422     4414     4406     4421     4430 
    4419     4413     4417     4423     4422     4417     4421     4426 
    4422     4415     4410     4414     4425     4425     4422     4421 
    4415     4415     4429     4430     4410     4405     4421     4433 
    4430     4421     4414     4415     4425     4428     4415     4411 
    4418     4419     4422     4428     4428     4428     4426     4415 
    4407     4410     4421     4430     4433     4428     4419     4415 
    4414     4413     4415     4418     4425     4430     4425     4417 
    4418     4414     4410     4418     4428     4428     4425     4418 
    4413     4417     4423     4422     4417     4417     4423     4425 
    4418     4417     4419     4421     4421     4421     4422     4422 
    4422     4422     4419     4415     4417     4421     4423     4422 
    4421     4415     4414     4422     4426     4421     4422     4426 
    4418     4407     4411     4418     4422     4428     4425     4425 
    4430     4426     4417     4411     4411     4421     4426     4423 
    4425     4426     4423     4423     4422     4418     4411     4409 
    4415     4428     4434     4426     4411     4417     4430     4425 
    4410     4407     4422     4432     4426     4423     4421     4417 
    4415     4417     4423     4430     4430     4423     4414     4413 
    4417     4415     4419     4429     4428     4419     4419     4429 
    4428     4421     4415     4407     4410     4426     4434     4432 
    4422     4414     4410     4413     4418     4422     4425     4425 
    4423     4425     4425     4414     4406     4413     4421     4419 
    4422     4428     4425     4418     4413     4409     4414     4423 
    4428     4429     4421     4414     4419     4426     4426     4418 
    4415     4421     4421     4418     4421     4421     4419     4421 
    4419     4418     4421     4423     4421     4418     4417     4418 
    4428     4429     4418     4417     4425     4419     4411     4419 
    4426     4425     4421     4419     4422     4421     4421     4425 
    4418     4413     4417     4422     4426     4428     4421     4419 
    4421     4419     4421     4421     4418     4421     4423     4422 
    4421     4417     4415     4419     4422     4425     4423     4421 
    4422     4419     4418     4422     4421     4414     4418     4425 
    4423     4422     4422     4419     4419     4421     4418     4419 
    4425     4429     4419     4411     4415     4417     4415     4422 
    4426     4423     4421     4415     4414     4423     4428     4421 
    4415     4419     4422     4418     4415     4414     4415     4422 
    4428     4426     4419     4415     4417     4413     4414     4425 
    4430     4429     4425     4417     4411     4414     4418     4417 
    4421     4426     4422     4417     4421     4421     4418     4417 
    4417     4419     4425     4425     4422     4419     4417     4413 
    4417     4421     4419     4418     4418     4418     4419     4418 
    4414     4418     4423     4423     4422     4418     4418     4422 
    4429     4453     4500     4568     4656     4742     4774     4671 
    4383     4012     3789     3767     3640     3323     3532     4810 
    6196     6176     4704     3469     4010     5437     5341     3601 
    2633     3719     5688     6496     5263     3532     2944     3036 
    3348     4055     4797     5287     5282     4923     4936     5009 
    4730     4537     4257     3948     3927     3940     4237     4290 
    3411     3160     4226     5389     6208     6243     5171     4156 
    4051     4290     3997     3268     3231     3966     4557     4791 
    4648     4276     4008     4190     5138     5942     5684     4905 
    4222     3667     3063     2745     3547     4978     5756     5692 
    5119     4465     4149     3909     3518     3433     4060     4941 
    5215     4773     4125     3943     4544     5016     4527     4121 
    4837     5470     4691     3406     3195     4056     4590     4244 
    4197     4980     5476     5263     4779     3846     3226     4023 
    4899     4596     3851     3493     4299     5668     5633     4413 
    3604     3873     4870     5192     4297     3369     3503     4777 
    5826     5286     4018     3438     3705     4526     5154     5005 
    4575     4158     3842     3997     4244     4282     4507     4766 
    4806     4630     4244     4291     4646     4198     3582     4132 
    5262     5634     4969     4136     3929     4055     3894     3690 
    4124     4897     5055     4631     4293     4278     4557     4687 
    4396     4267     4563     4770     4498     4043     3902     3917 
    4183     4986     5281     4587     4066     4112     4318     4498 
    4608     4774     4725     4288     3921     3804     3889     4326 
    4870     5004     4819     4710     4738     4652     4087     3437 
    3616     4432     4841     4708     4610     4449     4174     4426 
    4882     4556     3924     4032     4596     4903     4891     4627 
    4344     4284     4197     4147     4072     3658     3774     4814 
    5508     5221     4618     4311     4221     4180     4241     4110 
    4085     4932     5688     5085     3792     3018     3480     4780 
    5089     4129     3793     4421     5069     5409     4823     3836 
    3990     4822     5277     4885     3572     2952     3801     4519 
    4220     3693     4199     5817     6705     5733     3981     3041 
    3435     4209     4414     4179     4037     4496     5067     4693 
    3963     4151     4806     4796     4398     4545     4962     4635 
    3678     3375     4298     5224     4874     3939     3885     4718 
    5181     4608     3960     4234     4633     4541     4553     4418 
    4029     4122     4220     4108     4762     5321     4626     3937 
    4014     4405     4834     4472     3670     3900     4587     4591 
    4297     4371     5024     5717     5895     5859     5737     5375 
    4568     3310     2737     3169     3298     2840     2061     1232 
    1779     4159     6542     6921     5521     5003     6534     7770 
    7273     5784     3136      136     -183     2666     5529     6054 
    5246     5189     5632     5397     4833     3952     2508     2257 
    4341     6215     5309     3724     4908     6967     5728     2643 
    2043     3950     5290     4857     4153     4594     5297     4492 
    2612     1763     2628     4850     7773     8788     6289     3488 
    3483     4561     4237     2899     2247     2932     4128     4671 
    3790     2384     2745     5023     7071     7577     6794     5564 
    4368     3473     3480     4175     4332     3931     4167     4854 
    4869     4266     3520     3011     3377     4440     5094     4816 
    4735     5818     6465     5366     3993     3510     3505     3692 
    3844     3604     3183     2976     3059     3875     5551     6939 
    7292     6893     5803     3925     2062     1844     3520     5093 
    5058     4214     3975     4367     4494     4213     4105     4255 
    4615     5583     6397     5317     3198     2760     3626     3715 
    3850     5209     6038     4955     3520     3280     3724     4216 
    5049     6305     7222     6685     4453     1817      622     1463 
    3287     4962     5983     6254     6153     5953     5462     4376 
    2936     2338     3188     4396     5119     5489     5190     4135 
    3335     3261     3708     4653     5323     4989     4579     4783 
    4656     4066     4356     5219     5076     4494     4688     4946 
    4545     3964     3615     3338     2841     2513     3260     4935 
    6346     6982     6966     6153     4816     3693     3107     3146 
    3476     3221     2724     3115     3852     4197     4756     5733 
    6737     7091     6088     4394     3249     2806     2789     3272 
    3839     3761     3789     5024     6423     6536     5660     4677 
    4216     4268     3817     2978     3379     4617     4780     4176 
    4040     4326     4931     5553     5250     4271     3678     3573 
    3523     3438     3816     4737     5120     4666     4499     5101 
    5526     4950     4175     4286     4831     5030     4781     4124 
    3408     3156     3554     4480     5196     5097     4838     4868 
    4622     4093     3748     3635     3715     3952     4509     5298 
    5367     4615     4175     4325     4548     4654     4764     4977 
    4815     4068     3589     3828     4307     4361     3812     3605 
    4194     4768     5341     6030     5771     4428     3227     3083 
    3883     4615     4618     4414     4665     5143     4996     4045 
    3454     4110     5074     5169     4661     4194     3879     3686 
    3654     3834     4036     3936     3821     4375     5227     5405 
    5134     5151     5209     4658     3731     3520     4330     5178 
    5487     5254     4369     3489     3507     4033     4469     4930 
    5374     5455     4935     4205     4047     4260     4112     3666 
    3511     4005     4743     4924     4334     3447     3076     3681 
    4572     4911     5016     5429     5886     5633     4295     2933 
    3059     4198     4912     4981     4623     4125     4008     4051 
    3931     3982     4322     4934     5463     5119     4338     4210 
    4490     4421     4045     3993     4453     4764     4723     4851 
    5069     4812     4139     3775     4001     4153     3780     3315 
    3491     4575     5744     6064     5784     5132     4097     3501 
    3531     3454     3537     4247     5011     5044     4228     3650 
    4307     5181     5150     4841     4666     4317     4187     4494 
    4747     4878     4900     4521     3740     3076     3387     4487 
    4986     4666     4329     4190     4423     4973     5174     4893 
    4484     4106     3840     3773     4082     4718     5233     5321 
    4758     3680     2980     3281     4194     4882     4903     4556 
    4237     4105     4506     5410     5834     5324     4658     4175 
    3701     3488     3546     3792     4569     5541     5597     4603 
    3755     3827     4336     4453     4028     3817     4411     5104 
    4938     4302     4101     4341     4684     4842     4554     4382 
    4743     4699     3812     3159     3323     3754     4174     4781 
    5270     5121     4626     4324     4229     4399     4845     5224 
    5387     5232     4700     4151     3667     3173     3149     3902 
    4873     5310     5219     4972     4526     3960     3738     4122 
    4834     5130     4841     4619     4492     3994     3411     3272 
    3601     4234     4861     5081     4969     4777     4465     4106 
    3854     3821     4179     4720     5224     5800     5931     4986 
    3678     3080     3226     3774     4448     4792     4704     4548 
    4498     4633     5058     5350     4970     4261     3858     3712 
    3569     3623     4045     4463     4507     4391     4480     4630 
    4469     4253     4494     4969     5255     5283     4907     4303 
    4098     4182     3971     3682     3827     4347     4866     4981 
    4553     4128     4159     4175     3966     4148     4700     4997 
    4980     4737     4183     3731     3812     4121     4413     4914 
    5316     5065     4475     4072     3970     4191     4492     4617 
    4706     4729     4414     3893     3574     3642     3994     4494 
    5117     5714     5917     5571     4966     4390     3761     3118 
    3013     3632     4247     4359     4380     4635     4880     4935 
    4905     4924     4968     4800     4253     3524     3073     3208 
    3735     4245     4716     5297     5773     5667     4815     3915 
    3720     3956     4207     4509     4660     4550     4409     4275 
    4139     4139     4380     4693     4789     4711     4477     4021 
    3774     4029     4584     5267     5559     5036     4363     4166 
    4086     3713     3335     3519     4187     4710     4880     4816 
