Origin Time       2025/03/30 10:46:00
Lat.              32.923
Long.             130.372
Depth. (km)       11
Mag.              3.4
Station Code      NGSH05
Station Lat.      32.9103
Station Long.     130.1408
Station Height(m) 29
Record Time       2025/03/30 10:46:24
Sampling Freq(Hz) 100Hz
Duration Time(s)  120
Dir.              6
Scale Factor      7845(gal)/8223790
Max. Acc. (gal)   3.354
Last Correction   2025/03/30 10:46:24
Memo.             
[...]
   35464    35467    35465    35473    35482    35471    35455    35455 
   35471    35480    35465    35451    35463    35480    35482    35467 
   35451    35452    35467    35483    35480    35457    35449    35476 
   35492    35459    35437    35465    35487    35473    35449    35451 
   35487    35498    35467    35441    35442    35463    35488    35492 
   35471    35441    35445    35482    35494    35464    35441    35455 
   35484    35484    35452    35446    35478    35496    35479    35444 
   35438    35472    35478    35452    35463    35490    35478    35465 
   35471    35445    35428    35480    35514    35468    35441    35467 
   35478    35471    35465    35461    35464    35465    35468    35473 
   35464    35457    35468    35479    35491    35472    35425    35445 
   35498    35484    35448    35460    35491    35471    35432    35460 
   35498    35472    35456    35473    35468    35446    35442    35465 
   35514    35503    35419    35415    35506    35513    35430    35426 
   35492    35498    35464    35452    35456    35467    35467    35467 
   35488    35480    35445    35441    35473    35496    35478    35446 
   35452    35480    35471    35452    35475    35475    35451    35482 
   35491    35436    35449    35490    35459    35449    35480    35491 
   35476    35438    35446    35491    35468    35441    35487    35503 
   35459    35437    35451    35479    35506    35473    35426    35473 
   35500    35422    35433    35526    35506    35430    35424    35476 
   35499    35452    35453    35506    35475    35419    35446    35490 
   35488    35473    35460    35449    35461    35476    35472    35473 
   35469    35451    35459    35476    35486    35488    35445    35421 
   35476    35502    35473    35460    35457    35457    35467    35476 
   35475    35457    35460    35482    35464    35445    35482    35500 
   35456    35434    35457    35476    35496    35488    35453    35448 
   35456    35463    35473    35479    35487    35476    35441    35453 
   35500    35469    35403    35449    35533    35505    35444    35457 
   35461    35425    35440    35496    35526    35490    35428    35438 
   35471    35459    35473    35498    35480    35441    35413    35469 
   35550    35498    35403    35419    35487    35495    35455    35459 
   35498    35480    35426    35426    35490    35511    35452    35449 
   35503    35457    35417    35483    35496    35453    35461    35476 
   35483    35472    35434    35448    35492    35478    35455    35463 
   35475    35486    35459    35434    35486    35495    35433    35456 
   35514    35460    35418    35475    35521    35494    35429    35410 
   35468    35505    35478    35464    35478    35464    35448    35461 
   35468    35484    35484    35440    35451    35486    35464    35473 
   35484    35440    35446    35484    35494    35494    35446    35419 
   35465    35475    35476    35509    35480    35430    35438    35459 
   35487    35526    35490    35395    35405    35514    35536    35469 
   35426    35415    35459    35525    35513    35459    35440    35434 
   35448    35490    35511    35483    35432    35428    35478    35499 
   35496    35488    35407    35390    35523    35554    35444    35405 
   35438    35480    35527    35518    35444    35392    35434    35506 
   35500    35482    35484    35440    35414    35469    35506    35490 
   35463    35436    35446    35498    35503    35441    35410    35467 
   35522    35499    35475    35465    35406    35391    35484    35552 
   35525    35482    35440    35388    35413    35492    35517    35499 
   35490    35463    35441    35445    35437    35436    35492    35553 
   35526    35432    35378    35424    35500    35491    35459    35514 
   35537    35446    35370    35411    35502    35526    35500    35468 
   35440    35464    35483    35425    35406    35491    35550    35507 
   35429    35414    35464    35480    35452    35465    35505    35486 
   35461    35469    35446    35433    35469    35492    35488    35465 
   35453    35472    35471    35467    35471    35449    35440    35464 
   35507    35513    35444    35409    35456    35482    35478    35503 
   35498    35429    35407    35465    35517    35509    35451    35413 
   35442    35495    35519    35480    35426    35436    35468    35479 
   35486    35468    35446    35475    35491    35456    35438    35448 
   35472    35496    35482    35465    35467    35441    35438    35483 
   35487    35471    35482    35467    35440    35455    35469    35467 
   35479    35479    35468    35465    35449    35448    35473    35488 
   35482    35452    35436    35464    35484    35484    35484    35456 
   35437    35468    35486    35463    35453    35480    35495    35471 
   35459    35453    35438    35460    35491    35496    35495    35461 
   35422    35436    35469    35499    35502    35463    35444    35459 
   35465    35471    35468    35459    35478    35490    35460    35449 
   35465    35464    35465    35483    35478    35467    35465    35449 
   35444    35469    35498    35498    35453    35429    35459    35482 
   35478    35465    35468    35471    35459    35465    35472    35448 
   35461    35500    35480    35445    35457    35457    35453    35486 
   35490    35461    35455    35455    35455    35472    35487    35472 
   35460    35464    35453    35452    35480    35479    35457    35472 
   35483    35461    35448    35459    35473    35482    35478    35460 
   35449    35463    35475    35473    35469    35459    35463    35478 
   35468    35459    35468    35473    35465    35461    35465    35473 
   35469    35456    35463    35476    35471    35467    35464    35461 
   35468    35475    35478    35471    35449    35448    35473    35491 
   35478    35453    35445    35461    35487    35491    35465    35442 
   35449    35479    35491    35473    35456    35456    35464    35472 
   35472    35465    35469    35471    35456    35457    35476    35475 
   35463    35460    35467    35483    35482    35455    35448    35467 
   35479    35478    35464    35456    35464    35471    35468    35465 
   35468    35473    35465    35459    35467    35475    35473    35465 
   35455    35461    35473    35469    35468    35469    35464    35464 
   35467    35467    35469    35465    35464    35468    35475    35478 
   35463    35457    35472    35472    35467    35471    35460    35451 
   35468    35478    35468    35467    35471    35469    35464    35461 
   35461    35468    35480    35473    35457    35460    35468    35465 
   35471    35476    35467    35460    35465    35468    35463    35464 
   35472    35471    35465    35467    35464    35461    35464    35467 
   35472    35472    35461    35464    35475    35472    35467    35463 
   35461    35461    35465    35473    35472    35468    35471    35468 
   35463    35467    35471    35468    35461    35465    35475    35472 
   35465    35460    35460    35468    35472    35471    35465    35461 
   35465    35471    35465    35467    35469    35463    35465    35472 
   35472    35468    35456    35452    35465    35476    35479    35473 
   35463    35464    35464    35460    35465    35468    35472    35475 
   35467    35463    35463    35459    35467    35475    35468    35460 
   35463    35468    35469    35467    35468    35467    35461    35468 
   35473    35467    35461    35463    35469    35472    35468    35469 
   35468    35463    35468    35467    35463    35467    35471    35479 
   35480    35463    35451    35452    35465    35483    35478    35464 
   35461    35463    35469    35471    35465    35469    35469    35464 
   35465    35467    35467    35465    35465    35473    35478    35463 
   35452    35460    35476    35482    35472    35459    35457    35468 
   35478    35469    35465    35473    35471    35464    35463    35465 
   35467    35465    35471    35480    35478    35465    35455    35451 
   35464    35480    35483    35475    35463    35459    35463    35465 
   35464    35464    35479    35492    35476    35449    35441    35457 
   35480    35483    35469    35468    35473    35468    35461    35461 
   35461    35469    35476    35473    35471    35471    35463    35455 
   35461    35475    35475    35461    35461    35473    35476    35468 
   35457    35456    35469    35486    35484    35465    35455    35456 
   35463    35473    35473    35467    35465    35465    35464    35463 
   35461    35467    35471    35469    35467    35464    35465    35471 
   35473    35468    35463    35464    35464    35461    35467    35478 
   35475    35463    35455    35457    35465    35475    35479    35473 
   35467    35463    35460    35457    35459    35467    35480    35479 
   35468    35461    35457    35461    35472    35472    35465    35468 
   35471    35468    35461    35459    35461    35467    35478    35479 
   35464    35451    35459    35471    35476    35471    35463    35463 
   35467    35468    35464    35460    35465    35473    35472    35471 
   35468    35460    35459    35464    35471    35472    35464    35464 
   35473    35471    35459    35457    35467    35476    35478    35473 
   35467    35464    35467    35467    35463    35460    35467    35484 
   35484    35463    35446    35451    35468    35482    35475    35464 
   35467    35468    35461    35460    35461    35463    35473    35478 
   35469    35468    35469    35460    35456    35468    35473    35465 
   35464    35467    35473    35475    35463    35456    35467    35473 
   35468    35467    35468    35465    35463    35463    35463    35467 
   35473    35479    35475    35465    35455    35449    35459    35475 
   35478    35475    35473    35464    35456    35459    35460    35465 
   35471    35473    35475    35469    35457    35453    35460    35469 
   35476    35478    35471    35465    35460    35460    35464    35473 
   35476    35468    35465    35468    35463    35463    35469    35465 
   35463    35472    35473    35465    35463    35468    35473    35469 
   35461    35463    35468    35468    35468    35472    35475    35467 
   35457    35457    35456    35463    35484    35494    35476    35452 
   35442    35446    35469    35491    35486    35469    35472    35473 
   35451    35436    35456    35488    35505    35490    35459    35441 
   35448    35467    35483    35480    35465    35465    35472    35467 
   35459    35467    35473    35464    35460    35475    35478    35461 
   35456    35469    35476    35469    35456    35451    35469    35488 
   35480    35459    35461    35479    35473    35455    35452    35465 
   35476    35478    35471    35464    35459    35460    35468    35468 
   35469    35478    35469    35455    35457    35467    35468    35467 
   35471    35479    35476    35463    35446    35449    35475    35488 
   35475    35457    35452    35463    35475    35476    35471    35465 
   35461    35464    35467    35469    35473    35471    35463    35465 
   35475    35471    35463    35468    35469    35461    35461    35467 
   35468    35472    35473    35465    35459    35463    35464    35463 
   35467    35473    35473    35465    35460    35469    35475    35465 
   35465    35468    35467    35469    35468    35461    35460    35468 
   35476    35475    35467    35460    35456    35461    35469    35475 
   35473    35471    35472    35465    35457    35461    35469    35473 
   35475    35469    35461    35459    35465    35468    35463    35467 
   35478    35473    35461    35460    35465    35469    35473    35468 
   35459    35461    35476    35478    35467    35463    35459    35457 
   35468    35476    35472    35463    35465    35467    35463    35464 
   35465    35464    35468    35472    35468    35465    35464    35465 
   35463    35463    35469    35473    35471    35467    35461    35459 
   35465    35473    35476    35475    35465    35460    35463    35465 
   35471    35471    35465    35461    35464    35472    35473    35465 
   35460    35463    35468    35468    35465    35467    35467    35467 
   35468    35464    35464    35468    35469    35469    35468    35465 
   35464    35469    35471    35464    35463    35471    35473    35467 
   35463    35463    35467    35472    35473    35468    35468    35469 
   35463    35461    35467    35468    35471    35472    35471    35469 
   35464    35460    35468    35472    35469    35468    35464    35467 
   35471    35468    35465    35463    35461    35463    35471    35479 
   35476    35467    35459    35459    35465    35472    35473    35469 
   35465    35465    35467    35469    35472    35471    35465    35461 
   35467    35471    35465    35465    35472    35469    35468    35467 
   35463    35464    35468    35468    35471    35473    35468    35464 
   35465    35465    35467    35471    35471    35467    35464    35460 
   35463    35468    35471    35472    35471    35465    35463    35465 
   35467    35467    35469    35471    35468    35468    35468    35467 
   35464    35463    35464    35467    35472    35472    35467    35467 
   35467    35465    35465    35461    35463    35469    35471    35468 
   35465    35463    35463    35464    35465    35469    35469    35464 
   35465    35465    35463    35467    35471    35468    35467    35465 
   35464    35468    35467    35464    35464    35460    35445    35405 
   35324    35191    34987    34746    34612    34832    35684    37227 
   38730    38595    35955    32688    31951    33961    35995    36686 
   36478    35606    35008    35449    35600    35054    35284    35866 
   35568    35110    35040    35317    35958    36070    35499    35143 
   35081    35094    35291    35922    36321    35191    34294    35619 
   36548    35870    35444    34958    34711    35669    35850    34908 
   35160    36135    36362    36306    35611    34229    34067    35154 
   35646    35661    36169    36354    35654    34851    34605    35233 
   35993    36135    35918    35398    34808    34705    35361    36162 
   35930    35124    35154    35604    35374    35075    35506    36076 
   36132    35475    34688    34885    35499    35488    35557    35793 
   35635    35662    35510    35031    35460    36169    35893    35032 
   34464    34682    35487    36348    36706    36157    35151    34723 
   34985    35166    35214    35137    35171    35939    36470    35996 
   34985    33990    34611    36748    37436    35820    34041    33952 
   35453    36748    36470    35478    35087    35139    35183    35036 
   34924    35378    35829    35919    35888    35320    34958    35761 
   36529    35931    34393    33833    35135    36289    36325    36424 
   35954    34693    34673    35610    35694    35579    35741    35137 
   34661    35247    35418    35127    35783    36477    35973    35274 
   35113    35093    35232    35661    36197    36269    35374    34306 
   34353    35241    35866    36355    36490    35276    34145    34873 
   36092    36271    35626    34839    34771    35375    35781    35988 
   36205    35903    35016    34497    34955    36024    36470    35681 
   35086    35095    34757    35000    36108    36139    35183    35178 
   35613    35160    35047    35874    36065    35735    36138    36167 
   34724    33782    34704    35810    36000    35777    35858    36212 
   35692    34940    35302    35451    34672    34658    35529    35418 
   34786    35464    36513    36464    35811    35176    34978    35503 
   35799    35384    35467    35870    35565    35515    35495    34441 
   34385    35999    36869    36435    35314    34263    34550    35814 
   36648    36049    34635    34443    35317    35554    35299    35634 
   36270    36207    35317    34152    33939    35321    36826    37064 
   36112    34932    34846    35243    35131    35703    36483    35775 
   34739    34723    35382    36238    36351    35286    34418    34560 
   35224    36042    36188    35797    36000    35483    33955    34250 
   36049    36521    35613    35010    35070    34966    35109    36169 
   36749    36275    36134    35507    33812    33998    36070    36674 
   35613    34782    34994    35513    35549    36120    36996    36204 
   34607    33880    33650    34279    35988    37143    37014    36321 
   35297    34020    33654    34866    36073    36255    36252    35687 
   34341    34697    36873    37300    35703    34765    34804    34554 
   33984    34857    37307    38230    36625    34589    33124    33060 
   35295    37901    38497    37081    34642    33064    33593    34844 
   35425    35364    35368    35928    35762    34159    33562    35437 
   37438    37909    37353    35698    33844    33852    35761    37573 
   37180    34902    33431    33632    34680    36626    37791    36128 
   34233    34431    34979    35557    36887    36828    34439    32988 
   34132    35364    35646    36050    36153    35918    36256    36175 
   34828    33970    34661    35810    36710    36911    36298    35795 
   35083    33991    34221    35452    35791    35646    36012    36308 
   36046    35656    35008    33995    34022    35635    36709    35839 
   34604    34658    35922    37219    36514    34407    34360    36016 
   36405    35608    35125    35235    35101    34549    34780    35861 
   36468    36394    36053    34811    33531    34707    36946    36774 
   35213    34807    35117    35340    35577    35737    36084    36479 
   36012    35083    34923    35282    35074    34254    34121    35187 
   35807    35550    36070    36883    36459    35560    35183    34928 
   34547    34716    35662    36402    36124    35334    34985    35154 
   35546    36089    35919    34701    34203    35313    36443    36637 
   36393    35444    34059    33886    34832    35676    36283    36456 
   36263    36254    35968    35208    34820    34580    33993    34364 
   35980    36612    35743    35175    35391    35760    36039    36008 
   35679    35452    35391    35214    34888    34724    34889    35160 
   35603    36189    36369    36386    36402    35826    35023    34460 
   34183    34668    35630    36088    36135    35915    34921    34466 
   35611    36431    35776    34681    34425    35434    36310    36259 
   36244    36019    35093    34550    34798    35151    35442    35708 
   35599    35009    34843    35885    36684    35920    34884    34689 
   35203    35845    35837    35761    36234    36077    35005    34447 
   34761    35208    35695    36177    36117    35438    35027    35583 
   35928    35062    34215    34410    35527    36771    36821    35927 
   35310    35056    35166    35430    35128    34616    34771    35749 
   36760    36586    35452    34574    34430    35058    35847    36117 
   36247    36319    35883    35201    34762    34754    34978    35035 
   35374    36170    36200    35371    34978    35081    35104    35299 
   35602    35649    36084    36753    36242    34867    34098    34238 
   34850    35584    36175    36219    35660    35255    35459    35575 
   35376    35560    35669    35306    35252    35344    35232    35283 
   35604    36094    36082    35210    34697    35228    35780    35816 
   35781    35773    35449    34866    34927    35681    35889    35464 
   35232    35506    36042    35988    35375    35205    35170    34867 
