Origin Time       2025/03/30 10:46:00
Lat.              32.923
Long.             130.372
Depth. (km)       11
Mag.              3.4
Station Code      NGSH03
Station Lat.      33.1256
Station Long.     129.8102
Station Height(m) -190
Record Time       2025/03/30 10:46:37
Sampling Freq(Hz) 100Hz
Duration Time(s)  120
Dir.              1
Scale Factor      3923(gal)/8224838
Max. Acc. (gal)   0.242
Last Correction   2025/03/30 10:46:37
Memo.             
[...]
   16390    16390    16387    16389    16390    16390    16389    16389 
   16390    16389    16387    16386    16389    16390    16387    16387 
   16387    16387    16390    16390    16387    16389    16390    16387 
   16386    16387    16387    16389    16387    16386    16387    16389 
   16389    16389    16389    16387    16387    16389    16389    16387 
   16389    16389    16389    16389    16387    16386    16389    16389 
   16389    16389    16387    16387    16387    16389    16390    16387 
   16386    16390    16391    16390    16389    16387    16387    16391 
   16389    16387    16391    16390    16387    16387    16389    16389 
   16386    16386    16390    16390    16389    16387    16387    16387 
   16387    16387    16387    16387    16386    16389    16391    16387 
   16386    16390    16390    16389    16390    16389    16389    16391 
   16390    16387    16389    16389    16390    16393    16391    16391 
   16390    16389    16390    16389    16389    16390    16389    16387 
   16387    16386    16387    16390    16389    16387    16390    16390 
   16387    16389    16390    16386    16387    16391    16390    16387 
   16387    16387    16387    16387    16389    16389    16389    16389 
   16389    16386    16386    16387    16389    16390    16390    16391 
   16390    16384    16384    16389    16387    16387    16389    16386 
   16384    16387    16387    16387    16390    16389    16384    16389 
   16391    16386    16386    16390    16387    16386    16386    16386 
   16387    16389    16391    16390    16387    16389    16390    16386 
   16386    16389    16389    16389    16387    16389    16389    16389 
   16387    16386    16387    16390    16389    16384    16386    16387 
   16391    16393    16390    16387    16386    16390    16391    16387 
   16387    16390    16387    16384    16389    16391    16391    16389 
   16389    16389    16389    16387    16390    16390    16387    16386 
   16390    16393    16390    16387    16389    16387    16387    16387 
   16389    16387    16387    16389    16386    16387    16389    16386 
   16389    16390    16389    16389    16389    16387    16389    16390 
   16387    16386    16387    16391    16389    16384    16389    16390 
   16389    16389    16387    16386    16389    16390    16386    16384 
   16390    16390    16387    16389    16389    16389    16387    16387 
   16389    16390    16390    16391    16389    16387    16390    16390 
   16387    16386    16386    16386    16389    16390    16387    16389 
   16387    16386    16389    16391    16390    16387    16386    16387 
   16387    16389    16389    16390    16387    16386    16389    16389 
   16386    16387    16389    16389    16390    16391    16391    16391 
   16389    16387    16390    16391    16387    16387    16390    16391 
   16389    16387    16389    16391    16390    16389    16389    16390 
   16390    16387    16386    16389    16387    16387    16389    16387 
   16386    16387    16386    16386    16390    16390    16390    16389 
   16389    16390    16389    16387    16390    16387    16386    16390 
   16390    16386    16389    16390    16389    16390    16391    16389 
   16387    16387    16390    16390    16387    16389    16391    16390 
   16386    16384    16389    16390    16387    16387    16387    16387 
   16390    16391    16390    16387    16386    16389    16390    16389 
   16390    16390    16389    16386    16384    16386    16389    16390 
   16387    16389    16390    16389    16387    16386    16389    16387 
   16386    16386    16387    16389    16390    16390    16390    16390 
   16389    16386    16383    16386    16391    16390    16389    16390 
   16387    16387    16389    16389    16389    16387    16386    16386 
   16387    16389    16389    16389    16389    16387    16386    16387 
   16390    16389    16384    16389    16390    16387    16387    16390 
   16389    16389    16387    16386    16389    16390    16389    16389 
   16389    16389    16389    16387    16386    16386    16387    16387 
   16387    16389    16389    16387    16386    16387    16387    16389 
   16389    16389    16387    16389    16389    16389    16387    16386 
   16387    16387    16386    16387    16391    16390    16387    16389 
   16387    16387    16389    16389    16386    16386    16386    16387 
   16389    16387    16386    16387    16387    16387    16389    16387 
   16389    16389    16387    16387    16387    16387    16389    16387 
   16384    16387    16389    16389    16387    16387    16387    16390 
   16390    16387    16384    16384    16387    16389    16389    16386 
   16387    16390    16389    16389    16389    16387    16386    16386 
   16389    16389    16386    16387    16389    16389    16391    16389 
   16386    16386    16384    16384    16387    16386    16386    16389 
   16389    16387    16387    16389    16389    16387    16386    16387 
   16387    16384    16384    16387    16387    16386    16384    16386 
   16386    16384    16386    16387    16384    16386    16387    16387 
   16389    16389    16387    16387    16387    16386    16387    16390 
   16389    16389    16389    16390    16387    16386    16386    16386 
   16387    16390    16386    16387    16389    16386    16384    16389 
   16389    16386    16389    16389    16387    16387    16389    16386 
   16386    16390    16387    16383    16389    16390    16386    16387 
   16389    16386    16387    16390    16389    16387    16387    16387 
   16389    16384    16384    16390    16389    16384    16386    16389 
   16387    16387    16390    16389    16386    16389    16393    16390 
   16386    16386    16387    16387    16389    16391    16389    16387 
   16389    16390    16390    16390    16387    16384    16386    16389 
   16389    16389    16389    16386    16386    16387    16390    16389 
   16386    16389    16390    16389    16389    16387    16387    16390 
   16387    16387    16387    16386    16387    16390    16390    16390 
   16387    16386    16390    16390    16389    16389    16391    16391 
   16387    16389    16391    16390    16386    16386    16389    16389 
   16387    16386    16389    16390    16390    16389    16390    16389 
   16387    16386    16386    16387    16389    16390    16390    16387 
   16384    16384    16386    16389    16389    16387    16387    16387 
   16387    16387    16387    16387    16387    16387    16386    16384 
   16387    16387    16389    16389    16386    16387    16391    16389 
   16387    16389    16389    16389    16387    16387    16390    16390 
   16386    16386    16387    16387    16387    16387    16387    16387 
   16389    16389    16387    16387    16387    16384    16386    16387 
   16387    16387    16386    16383    16383    16383    16383    16384 
   16382    16379    16382    16389    16398    16406    16409    16399 
   16387    16389    16395    16394    16384    16366    16349    16357 
   16384    16395    16380    16378    16403    16424    16405    16384 
   16387    16383    16378    16391    16383    16347    16340    16376 
   16414    16428    16425    16425    16403    16372    16387    16407 
   16380    16363    16356    16322    16339    16413    16433    16403 
   16402    16420    16420    16414    16398    16356    16337    16352 
   16344    16351    16402    16403    16370    16401    16436    16413 
   16409    16421    16391    16382    16395    16371    16378    16417 
   16382    16340    16362    16371    16397    16437    16390    16341 
   16372    16406    16430    16413    16352    16372    16391    16313 
   16345    16451    16397    16349    16413    16405    16384    16437 
   16420    16347    16343    16390    16417    16394    16380    16426 
   16436    16383    16384    16406    16357    16314    16348    16399 
   16407    16394    16378    16352    16374    16432    16405    16344 
   16380    16425    16398    16386    16399    16389    16390    16406 
   16389    16383    16417    16409    16360    16357    16389    16401 
   16395    16378    16375    16411    16413    16352    16335    16375 
   16370    16340    16387    16443    16421    16394    16397    16380 
   16376    16394    16399    16399    16383    16357    16383    16414 
   16399    16398    16410    16380    16347    16349    16374    16382 
   16380    16406    16433    16410    16383    16391    16394    16401 
   16418    16402    16390    16384    16352    16355    16372    16337 
   16336    16383    16390    16397    16424    16410    16395    16406 
   16414    16430    16411    16360    16382    16436    16405    16353 
   16348    16340    16341    16370    16386    16383    16386    16407 
   16421    16386    16345    16375    16443    16464    16424    16384 
   16372    16359    16382    16413    16345    16303    16391    16409 
   16357    16417    16440    16359    16370    16402    16359    16379 
   16428    16414    16410    16390    16371    16422    16436    16383 
   16362    16345    16357    16395    16344    16335    16453    16455 
   16340    16348    16406    16384    16387    16428    16420    16384 
   16368    16379    16397    16386    16362    16382    16420    16395 
   16341    16345    16390    16407    16401    16397    16395    16410 
   16441    16428    16362    16337    16370    16384    16375    16352 
   16345    16410    16464    16407    16349    16375    16390    16376 
   16397    16424    16416    16376    16366    16399    16378    16333 
   16382    16407    16356    16384    16457    16440    16398    16376 
   16353    16360    16393    16402    16387    16386    16399    16372 
   16360    16417    16413    16355    16391    16405    16335    16356 
   16403    16380    16406    16416    16378    16401    16382    16351 
   16441    16438    16333    16367    16410    16356    16359    16384 
   16380    16394    16391    16428    16470    16409    16371    16378 
   16324    16349    16426    16382    16370    16418    16391    16395 
   16418    16352    16353    16420    16384    16359    16410    16407 
   16357    16363    16420    16421    16357    16367    16416    16384 
   16380    16417    16366    16356    16438    16425    16380    16417 
   16403    16347    16345    16352    16383    16421    16371    16345 
   16418    16424    16380    16402    16394    16357    16406    16432 
   16371    16347    16368    16370    16397    16443    16411    16367 
   16405    16425    16370    16355    16382    16363    16351    16411 
   16451    16410    16367    16363    16348    16333    16374    16432 
   16424    16389    16410    16447    16430    16390    16360    16339 
   16332    16345    16393    16443    16428    16374    16371    16386 
   16367    16375    16406    16398    16384    16394    16390    16383 
   16379    16371    16382    16397    16414    16445    16420    16370 
   16401    16426    16364    16329    16363    16390    16389    16371 
   16349    16360    16405    16429    16403    16380    16402    16414 
   16382    16355    16360    16391    16418    16395    16360    16376 
   16398    16380    16366    16364    16366    16406    16436    16384 
   16372    16438    16434    16382    16379    16379    16371    16387 
   16409    16424    16386    16332    16356    16363    16309    16344 
   16418    16411    16409    16413    16368    16370    16413    16413 
   16411    16417    16383    16370    16389    16382    16376    16397 
   16399    16384    16380    16362    16345    16386    16416    16386 
   16398    16429    16397    16394    16436    16414    16380    16383 
   16353    16345    16379    16362    16353    16402    16375    16337 
   16402    16414    16366    16409    16409    16324    16351    16421 
   16416    16417    16428    16424    16447    16434    16394    16382 
   16367    16376    16387    16316    16287    16374    16407    16364 
   16353    16372    16389    16416    16445    16453    16441    16448 
   16425    16335    16306    16351    16333    16339    16410    16398 
   16378    16448    16451    16386    16380    16390    16387    16384 
   16366    16375    16384    16340    16347    16432    16463    16422 
   16398    16399    16372    16341    16375    16402    16364    16367 
   16401    16406    16430    16391    16291    16332    16420    16401 
   16384    16382    16398    16468    16430    16356    16393    16382 
   16368    16434    16348    16275    16434    16476    16364    16383 
   16371    16298    16402    16495    16410    16359    16397    16387 
   16325    16326    16422    16443    16355    16371    16445    16402 
   16376    16422    16387    16357    16405    16398    16370    16378 
   16353    16345    16368    16339    16362    16447    16428    16405 
   16456    16436    16402    16399    16320    16324    16459    16443 
   16340    16366    16418    16424    16374    16313    16386    16416 
   16287    16313    16432    16387    16380    16436    16393    16405 
   16475    16453    16395    16318    16306    16460    16544    16432 
   16359    16409    16484    16503    16452    16420    16407    16378 
   16389    16375    16308    16374    16476    16368    16213    16170 
   16182    16320    16465    16397    16344    16441    16421    16353 
   16421    16426    16368    16407    16344    16108    15984    16087 
   16243    16344    16522    16768    16788    16611    16559    16607 
   16603    16503    16290    16193    16274    16227    16186    16386 
   16540    16659    16895    16845    16449    16195    16204    16295 
   16247    16004    15905    15957    15931    16046    16236    16333 
   16633    16810    16519    16428    16494    16189    16097    16372 
   16416    16499    16789    16838    16788    16762    16555    16378 
   16271    16087    16146    16395    16344    16155    16209    16325 
   16335    16399    16540    16599    16588    16594    16588    16494 
   16347    16352    16474    16395    16214    16232    16290    16320 
   16465    16524    16403    16298    16183    16090    16167    16303 
   16364    16301    16168    16179    16335    16471    16583    16625 
   16603    16640    16590    16409    16387    16499    16556    16575 
   16468    16293    16329    16436    16339    16221    16248    16285 
   16339    16437    16349    16116    16128    16341    16472    16551 
   16501    16268    16225    16399    16421    16372    16472    16542 
   16426    16291    16335    16436    16463    16610    16696    16340 
   16047    16198    16235    16208    16548    16758    16606    16545 
   16529    16417    16409    16424    16335    16251    16220    16232 
   16224    16227    16418    16559    16345    16178    16325    16374 
   16220    16193    16276    16320    16382    16428    16406    16447 
   16534    16578    16677    16799    16781    16688    16546    16313 
   16191    16249    16248    16158    16131    16178    16244    16295 
   16335    16410    16484    16501    16491    16463    16409    16410 
   16494    16529    16441    16347    16308    16255    16255    16348 
   16335    16221    16275    16437    16471    16467    16541    16525 
   16356    16255    16333    16398    16337    16363    16528    16549 
   16440    16434    16418    16330    16374    16440    16363    16308 
   16310    16282    16297    16349    16364    16367    16340    16343 
   16464    16518    16414    16389    16437    16397    16387    16430 
   16368    16339    16418    16407    16374    16467    16482    16376 
   16359    16366    16302    16289    16324    16335    16390    16438 
   16367    16341    16513    16638    16544    16416    16339    16290 
   16318    16351    16356    16422    16437    16375    16428    16475 
   16364    16291    16310    16301    16303    16294    16258    16337 
   16472    16515    16525    16522    16444    16382    16390    16355 
   16298    16357    16440    16384    16295    16309    16359    16344 
   16283    16291    16416    16502    16445    16387    16422    16472 
   16464    16438    16452    16445    16357    16293    16303    16314 
   16325    16347    16367    16414    16417    16352    16387    16471 
   16440    16399    16416    16405    16416    16448    16403    16362 
   16391    16410    16401    16366    16301    16302    16389    16436 
   16424    16434    16472    16476    16436    16401    16362    16283 
   16241    16295    16351    16343    16325    16314    16305    16344 
   16433    16482    16445    16413    16444    16447    16409    16418 
   16422    16394    16417    16432    16391    16406    16421    16371 
   16374    16397    16351    16339    16386    16421    16440    16438 
   16409    16370    16335    16325    16363    16438    16475    16411 
   16335    16303    16267    16272    16332    16339    16349    16422 
   16443    16417    16407    16372    16348    16360    16380    16447 
   16502    16456    16425    16447    16414    16368    16390    16425 
   16420    16391    16371    16351    16324    16345    16395    16374 
   16352    16428    16474    16444    16455    16444    16362    16352 
   16403    16389    16357    16330    16289    16324    16384    16333 
   16279    16322    16380    16405    16406    16420    16468    16457 
   16390    16376    16367    16353    16422    16443    16398    16444 
   16459    16379    16407    16467    16406    16357    16368    16360 
   16356    16366    16393    16414    16363    16345    16407    16378 
   16299    16347    16406    16382    16383    16417    16436    16428 
   16370    16321    16349    16389    16402    16417    16393    16353 
   16375    16403    16393    16389    16394    16395    16394    16371 
   16349    16362    16383    16403    16413    16420    16452    16457 
   16414    16376    16325    16281    16330    16389    16380    16375 
   16379    16389    16433    16449    16440    16452    16426    16393 
   16411    16391    16339    16362    16395    16359    16343    16395 
   16411    16356    16340    16379    16390    16402    16434    16418 
   16397    16416    16410    16383    16395    16426    16433    16416 
   16382    16345    16329    16357    16380    16345    16332    16389 
   16422    16405    16394    16387    16378    16378    16375    16380 
   16406    16410    16376    16367    16380    16382    16397    16443 
   16467    16449    16403    16367    16366    16355    16335    16360 
   16370    16332    16325    16322    16305    16339    16386    16405 
   16444    16474    16461    16444    16401    16360    16366    16362 
   16347    16353    16336    16328    16384    16428    16433    16451 
   16448    16418    16421    16445    16445    16449    16463    16432 
   16363    16337    16355    16330    16287    16310    16339    16320 
   16339    16394    16406    16411    16429    16432    16455    16456 
   16398    16393    16424    16383    16366    16398    16362    16322 
   16355    16379    16387    16401    16394    16405    16425    16395 
   16375    16390    16376    16359    16363    16352    16341    16351 
   16372    16394    16383    16391    16445    16438    16376    16359 
   16341    16328    16379    16403    16367    16393    16464    16492 
   16484    16447    16410    16429    16436    16384    16353    16366 
   16370    16340    16295    16285    16316    16340    16351    16376 
