Origin Time       2025/03/30 10:46:00
Lat.              32.923
Long.             130.372
Depth. (km)       11
Mag.              3.4
Station Code      NGSH03
Station Lat.      33.1256
Station Long.     129.8102
Station Height(m) 10
Record Time       2025/03/30 10:46:37
Sampling Freq(Hz) 100Hz
Duration Time(s)  120
Dir.              6
Scale Factor      7845(gal)/8223790
Max. Acc. (gal)   0.551
Last Correction   2025/03/30 10:46:37
Memo.             
[...]
    4271     4272     4276     4272     4268     4270     4268     4268 
    4272     4272     4271     4276     4278     4270     4267     4271 
    4271     4272     4276     4271     4266     4271     4271     4268 
    4271     4271     4271     4275     4276     4276     4274     4268 
    4267     4268     4272     4275     4274     4272     4271     4270 
    4274     4275     4272     4272     4274     4272     4270     4271 
    4272     4272     4271     4268     4271     4276     4276     4272 
    4271     4271     4271     4274     4274     4272     4274     4272 
    4268     4272     4276     4268     4270     4280     4275     4270 
    4278     4275     4267     4272     4274     4270     4272     4275 
    4272     4275     4275     4271     4270     4272     4274     4271 
    4268     4272     4274     4272     4270     4272     4274     4271 
    4271     4274     4274     4272     4271     4268     4270     4272 
    4272     4272     4276     4272     4267     4270     4272     4267 
    4271     4279     4270     4263     4278     4276     4264     4274 
    4278     4267     4270     4276     4274     4272     4270     4270 
    4272     4274     4275     4271     4270     4274     4274     4271 
    4272     4272     4270     4272     4276     4274     4270     4272 
    4271     4268     4272     4274     4271     4272     4272     4270 
    4271     4275     4274     4271     4272     4272     4270     4275 
    4276     4267     4267     4275     4274     4271     4276     4270 
    4267     4278     4275     4268     4274     4275     4270     4271 
    4274     4271     4270     4271     4272     4270     4271     4275 
    4274     4271     4271     4274     4272     4272     4272     4274 
    4274     4272     4272     4271     4270     4271     4272     4274 
    4275     4274     4271     4270     4271     4274     4275     4271 
    4268     4275     4274     4268     4272     4274     4272     4276 
    4274     4267     4272     4276     4270     4271     4278     4271 
    4264     4272     4276     4274     4274     4272     4268     4270 
    4275     4276     4271     4270     4274     4271     4270     4274 
    4275     4272     4272     4272     4274     4272     4270     4271 
    4275     4272     4268     4271     4271     4268     4272     4276 
    4268     4268     4278     4272     4268     4275     4275     4272 
    4274     4274     4272     4272     4271     4271     4271     4274 
    4276     4276     4270     4267     4274     4272     4268     4272 
    4275     4271     4274     4275     4270     4271     4275     4272 
    4271     4271     4272     4275     4272     4268     4271     4275 
    4274     4271     4270     4271     4272     4276     4278     4270 
    4264     4274     4275     4267     4272     4276     4272     4275 
    4274     4271     4272     4272     4270     4271     4275     4275 
    4270     4270     4275     4272     4264     4270     4280     4272 
    4268     4278     4276     4264     4268     4279     4275     4270 
    4272     4275     4271     4270     4276     4275     4268     4271 
    4275     4272     4272     4274     4274     4275     4270     4268 
    4275     4274     4270     4274     4272     4270     4271     4274 
    4274     4274     4274     4274     4272     4272     4274     4275 
    4275     4274     4272     4271     4270     4267     4268     4275 
    4278     4268     4268     4278     4272     4266     4274     4276 
    4267     4271     4276     4270     4270     4279     4275     4272 
    4272     4270     4271     4275     4278     4274     4266     4264 
    4274     4272     4268     4274     4275     4270     4270     4275 
    4275     4272     4270     4270     4272     4272     4274     4274 
    4271     4271     4272     4271     4271     4275     4274     4274 
    4274     4270     4268     4274     4276     4272     4266     4272 
    4279     4268     4266     4279     4276     4267     4275     4276 
    4268     4268     4270     4274     4275     4271     4275     4274 
    4267     4274     4276     4270     4274     4278     4271     4270 
    4271     4274     4274     4271     4271     4272     4274     4271 
    4270     4274     4275     4271     4271     4270     4268     4272 
    4276     4275     4272     4272     4271     4271     4274     4276 
    4274     4271     4270     4271     4276     4275     4270     4275 
    4274     4264     4271     4283     4276     4264     4271     4276 
    4271     4270     4274     4274     4272     4271     4270     4270 
    4272     4274     4271     4271     4274     4274     4275     4274 
    4272     4275     4272     4270     4271     4274     4274     4274 
    4274     4274     4272     4271     4272     4272     4271     4271 
    4275     4276     4274     4274     4274     4268     4268     4274 
    4275     4275     4274     4271     4270     4268     4272     4275 
    4272     4270     4267     4272     4275     4268     4272     4275 
    4268     4268     4276     4276     4270     4267     4272     4275 
    4272     4271     4271     4272     4274     4274     4272     4271 
    4272     4275     4274     4271     4272     4274     4272     4270 
    4270     4272     4274     4275     4275     4274     4272     4271 
    4271     4274     4276     4278     4268     4267     4279     4276 
    4268     4274     4274     4267     4274     4278     4270     4268 
    4276     4275     4270     4272     4272     4272     4274     4270 
    4271     4275     4275     4271     4272     4276     4275     4271 
    4272     4274     4272     4274     4274     4274     4275     4274 
    4272     4274     4272     4270     4274     4278     4274     4270 
    4271     4275     4274     4268     4275     4282     4271     4267 
    4274     4274     4271     4272     4272     4268     4268     4274 
    4278     4274     4271     4274     4271     4268     4274     4276 
    4272     4271     4272     4271     4271     4271     4272     4274 
    4272     4274     4272     4270     4271     4274     4271     4272 
    4274     4272     4270     4268     4270     4274     4275     4274 
    4272     4274     4270     4264     4274     4282     4275     4274 
    4274     4271     4272     4271     4270     4274     4275     4276 
    4274     4268     4271     4271     4268     4276     4280     4270 
    4272     4278     4268     4267     4274     4272     4272     4272 
    4271     4274     4272     4272     4274     4272     4270     4272 
    4274     4272     4272     4275     4274     4274     4271     4268 
    4272     4274     4267     4274     4280     4271     4268     4275 
    4272     4271     4272     4274     4274     4271     4267     4266 
    4261     4251     4241     4241     4251     4267     4287     4302 
    4305     4314     4345     4382     4382     4311     4189     4099 
    4140     4280     4338     4245     4162     4214     4330     4384 
    4356     4294     4267     4302     4309     4239     4183     4189 
    4240     4329     4353     4271     4202     4217     4318     4421 
    4351     4171     4166     4329     4383     4245     4118     4198 
    4375     4359     4194     4176     4283     4298     4264     4320 
    4406     4374     4240     4153     4139     4155     4243     4333 
    4344     4355     4349     4271     4248     4313     4326     4270 
    4198     4183     4249     4240     4180     4298     4459     4421 
    4264     4118     4109     4307     4469     4411     4255     4113 
    4097     4252     4403     4449     4356     4095     4013     4305 
    4484     4357     4251     4182     4098     4174     4394     4544 
    4441     4144     4041     4283     4482     4374     4133     4045 
    4224     4463     4464     4260     4118     4141     4241     4338 
    4391     4338     4193     4155     4344     4422     4155     4021 
    4276     4452     4398     4353     4276     4139     4129     4253 
    4324     4286     4276     4371     4429     4318     4162     4143 
    4225     4321     4367     4271     4149     4209     4363     4392 
    4264     4156     4212     4305     4282     4230     4259     4359 
    4413     4315     4210     4222     4212     4164     4234     4379 
    4413     4266     4117     4201     4392     4364     4179     4170 
    4322     4378     4311     4263     4297     4336     4283     4197 
    4212     4306     4359     4288     4163     4140     4226     4299 
    4325     4347     4318     4202     4162     4291     4386     4368 
    4374     4348     4203     4104     4199     4341     4357     4318 
    4271     4167     4141     4268     4336     4279     4271     4328 
    4317     4209     4155     4253     4387     4422     4340     4164 
    4074     4224     4407     4395     4283     4172     4104     4190 
    4384     4494     4456     4280     4083     4052     4170     4313 
    4428     4386     4220     4198     4317     4368     4349     4291 
    4197     4199     4259     4190     4151     4322     4471     4405 
    4252     4136     4118     4245     4382     4363     4248     4203 
    4261     4313     4283     4249     4280     4293     4257     4276 
    4345     4351     4288     4234     4201     4163     4198     4351 
    4455     4321     4089     4093     4332     4433     4272     4166 
    4320     4482     4380     4175     4147     4240     4241     4178 
    4217     4347     4410     4325     4155     4102     4241     4360 
    4349     4322     4324     4306     4236     4175     4276     4433 
    4382     4232     4194     4205     4234     4318     4336     4286 
    4271     4175     4050     4225     4536     4471     4114     3991 
    4249     4525     4494     4245     4097     4179     4326     4352 
    4310     4344     4336     4135     4004     4218     4492     4430 
    4178     4122     4286     4415     4390     4240     4113     4168 
    4271     4257     4299     4425     4399     4263     4178     4156 
    4257     4390     4382     4313     4218     4102     4176     4351 
    4318     4212     4213     4260     4349     4382     4252     4198 
    4351     4378     4174     4145     4371     4419     4194     4091 
    4261     4388     4291     4202     4301     4398     4310     4186 
    4198     4270     4305     4287     4222     4234     4342     4310 
    4153     4176     4375     4414     4229     4158     4310     4351 
    4193     4164     4328     4401     4315     4230     4193     4241 
    4351     4320     4207     4255     4328     4263     4218     4282 
    4329     4276     4202     4247     4365     4367     4214     4106 
    4212     4357     4307     4243     4349     4414     4322     4182 
    4050     4104     4405     4583     4428     4190     4099     4151 
    4225     4237     4313     4464     4402     4162     4143     4322 
    4342     4199     4152     4243     4314     4340     4356     4314 
    4241     4237     4295     4349     4318     4210     4179     4237 
    4261     4236     4218     4288     4415     4368     4158     4144 
    4374     4449     4222     4064     4194     4353     4355     4310 
    4306     4301     4253     4243     4321     4337     4224     4166 
    4203     4222     4270     4329     4276     4222     4264     4321 
    4382     4357     4195     4168     4342     4399     4290     4216 
    4202     4212     4243     4283     4351     4382     4263     4145 
    4214     4305     4270     4253     4315     4332     4287     4247 
    4234     4313     4438     4344     4081     4101     4342     4326 
    4143     4158     4310     4387     4348     4260     4236     4291 
    4302     4268     4282     4264     4159     4137     4310     4438 
    4321     4199     4310     4429     4334     4199     4218     4298 
    4268     4131     4054     4214     4444     4398     4234     4293 
    4434     4402     4240     4124     4175     4321     4348     4256 
    4222     4247     4287     4352     4328     4185     4153     4302 
    4382     4263     4108     4110     4288     4461     4482     4378 
    4222     4110     4145     4209     4178     4245     4455     4496 
    4317     4170     4125     4191     4394     4482     4284     4116 
    4206     4307     4247     4206     4311     4429     4382     4183 
    4077     4187     4313     4313     4253     4224     4329     4460 
    4284     3978     4062     4414     4550     4405     4194     4178 
    4375     4417     4247     4272     4417     4270     3959     3924 
    4293     4653     4484     4077     4093     4307     4263     4207 
    4276     4274     4288     4321     4190     4144     4429     4634 
    4332     3951     4101     4417     4301     4129     4359     4552 
    4363     4121     4077     4159     4293     4379     4413     4448 
    4355     4108     3964     4091     4357     4446     4290     4216 
    4310     4314     4232     4271     4372     4334     4221     4244 
    4305     4172     4048     4239     4515     4463     4168     4070 
    4280     4450     4399     4347     4259     3944     3844     4352 
    4722     4301     3859     4156     4623     4576     4194     3993 
    4216     4542     4482     4186     4168     4421     4513     4320 
    4228     4429     4523     4286     4078     4132     4214     4060 
    3819     3878     4140     4271     4379     4415     4210     4252 
    4683     4719     4225     3993     4249     4417     4140     3832 
    4148     4814     4850     4298     4050     4224     4330     4203 
    4066     4135     4171     3951     3847     4129     4510     4733 
    4737     4546     4368     4353     4368     4274     4139     4098 
    4183     4236     4182     4261     4546     4608     4185     3735 
    3788     4147     4365     4318     4098     4045     4371     4675 
    4594     4390     4422     4544     4395     4114     4071     4171 
    4145     4002     3940     4087     4306     4374     4351     4415 
    4507     4479     4455     4521     4441     4194     4167     4345 
    4225     3900     3915     4136     4155     4104     4222     4445 
    4502     4317     4244     4371     4413     4436     4459     4257 
    4102     4278     4338     4059     3952     4199     4374     4353 
    4342     4283     4163     4272     4527     4459     4164     4159 
    4355     4336     4198     4248     4356     4298     4203     4228 
    4234     4136     4109     4256     4410     4396     4244     4190 
    4368     4492     4314     4101     4137     4256     4191     4081 
    4274     4622     4664     4425     4272     4263     4198     4058 
    4014     4113     4218     4260     4253     4228     4240     4284 
    4357     4459     4444     4280     4191     4237     4290     4301 
    4257     4209     4267     4341     4307     4313     4372     4278 
    4167     4230     4249     4171     4220     4368     4444     4388 
    4257     4175     4158     4183     4287     4325     4182     4122 
    4293     4442     4434     4355     4239     4185     4286     4345 
    4224     4135     4183     4241     4291     4337     4305     4259 
    4299     4310     4212     4158     4224     4274     4295     4374 
    4396     4280     4256     4437     4506     4283     4066     4098 
    4264     4356     4279     4121     4054     4131     4243     4272 
    4286     4407     4463     4291     4187     4351     4444     4274 
    4147     4232     4336     4351     4325     4241     4116     4097 
    4252     4444     4482     4318     4135     4167     4347     4353 
    4155     4097     4263     4363     4340     4347     4320     4185 
    4118     4217     4297     4282     4337     4423     4330     4220 
    4298     4376     4359     4328     4201     4081     4198     4352 
    4261     4066     4031     4244     4527     4564     4344     4168 
    4170     4249     4261     4172     4183     4383     4453     4268 
    4172     4288     4387     4367     4270     4162     4136     4185 
    4228     4236     4222     4220     4234     4244     4274     4353 
    4401     4361     4317     4303     4283     4257     4239     4263 
    4391     4486     4333     4118     4187     4376     4326     4136 
    4085     4193     4321     4338     4259     4233     4317     4415 
    4390     4228     4124     4220     4353     4320     4216     4213 
    4255     4247     4224     4257     4341     4374     4337     4330 
    4306     4217     4213     4295     4276     4183     4153     4170 
    4241     4357     4342     4239     4270     4336     4255     4205 
    4310     4392     4371     4326     4249     4148     4163     4284 
    4313     4247     4283     4356     4295     4202     4224     4302 
    4344     4314     4237     4191     4234     4287     4266     4243 
    4270     4293     4307     4306     4240     4179     4213     4279 
    4278     4226     4205     4256     4361     4423     4369     4293 
    4302     4345     4328     4252     4182     4182     4248     4310 
    4317     4305     4303     4283     4252     4257     4274     4267 
    4255     4226     4193     4228     4297     4303     4278     4307 
    4332     4259     4174     4183     4264     4294     4228     4226 
    4320     4315     4244     4259     4295     4270     4240     4276 
    4372     4413     4307     4174     4168     4255     4294     4291 
    4342     4372     4255     4139     4228     4369     4328     4216 
    4226     4290     4280     4255     4278     4287     4263     4282 
    4299     4243     4239     4337     4353     4276     4271     4257 
    4155     4174     4321     4329     4217     4209     4303     4348 
    4275     4212     4280     4318     4229     4212     4272     4267 
    4257     4284     4286     4299     4324     4295     4260     4291 
    4347     4334     4248     4185     4205     4245     4243     4226 
    4226     4239     4271     4309     4299     4232     4202     4287 
    4388     4363     4252     4218     4303     4384     4359     4283 
    4253     4279     4288     4232     4180     4202     4249     4297 
    4374     4395     4283     4172     4199     4283     4315     4297 
    4267     4284     4309     4245     4179     4226     4282     4256 
    4237     4290     4352     4326     4221     4182     4279     4369 
    4325     4241     4236     4240     4205     4206     4275     4353 
    4357     4257     4197     4270     4324     4260     4195     4210 
    4286     4352     4313     4232     4270     4375     4353     4210 
    4139     4236     4364     4353     4245     4202     4256     4322 
    4328     4286     4256     4256     4247     4234     4261     4307 
    4302     4248     4225     4280     4349     4338     4275     4253 
    4278     4287     4267     4248     4251     4270     4270     4237 
    4218     4244     4267     4253     4237     4243     4255     4274 
    4303     4315     4309     4299     4282     4263     4267     4286 
    4303     4301     4256     4216     4228     4263     4295     4322 
    4295     4245     4243     4256     4257     4282     4279     4224 
    4237     4303     4301     4294     4336     4329     4291     4299 
    4291     4236     4210     4233     4259     4256     4244     4264 
    4287     4259     4228     4263     4321     4321     4276     4260 
