Origin Time       2025/03/30 10:46:00
Lat.              32.923
Long.             130.372
Depth. (km)       11
Mag.              3.4
Station Code      NGSH03
Station Lat.      33.1256
Station Long.     129.8102
Station Height(m) 10
Record Time       2025/03/30 10:46:37
Sampling Freq(Hz) 100Hz
Duration Time(s)  120
Dir.              5
Scale Factor      7845(gal)/8223790
Max. Acc. (gal)   1.201
Last Correction   2025/03/30 10:46:37
Memo.             
[...]
   38003    38003    38007    38016    38018    38016    38011    38007 
   37999    37999    38003    38009    38016    38018    38014    38009 
   38003    38001    38005    38011    38016    38020    38017    38007 
   38001    38005    38011    38011    38007    38010    38014    38013 
   38009    38010    38009    38003    38002    38011    38017    38010 
   38005    38009    38011    38013    38009    38005    38006    38010 
   38010    38007    38009    38010    38010    38009    38007    38010 
   38013    38013    38009    38005    38003    38009    38014    38014 
   38010    38006    38007    38009    38009    38007    38005    38002 
   38006    38013    38011    38010    38011    38010    38006    38003 
   38009    38017    38014    38006    38009    38010    38009    38009 
   38007    38010    38018    38017    38010    38006    38003    38006 
   38016    38017    38010    38006    38005    38007    38011    38011 
   38013    38014    38009    38007    38010    38010    38010    38011 
   38011    38011    38011    38010    38010    38011    38010    38007 
   38007    38006    38006    38011    38018    38020    38010    38002 
   38002    38002    38010    38022    38016    38003    38005    38010 
   38010    38009    38009    38007    38006    38007    38011    38016 
   38014    38010    38009    38006    38003    38003    38006    38016 
   38021    38016    38010    38006    38002    38005    38010    38013 
   38014    38013    38010    38009    38006    38007    38011    38011 
   38005    38001    38007    38016    38013    38006    38007    38009 
   38007    38006    38007    38009    38011    38010    38002    38005 
   38014    38016    38010    38010    38007    38006    38011    38011 
   38006    38007    38009    38007    38009    38010    38007    38009 
   38010    38011    38013    38009    38005    38006    38009    38011 
   38010    38007    38007    38009    38009    38007    38006    38007 
   38010    38007    38003    38009    38016    38006    38003    38013 
   38010    38005    38011    38011    38006    38010    38010    38007 
   38009    38009    38007    38007    38005    38006    38017    38017 
   38002    38001    38009    38007    38009    38011    38006    38006 
   38011    38010    38011    38009    38003    38003    38007    38010 
   38013    38011    38009    38007    38007    38009    38007    38009 
   38006    38003    38009    38017    38010    38007    38017    38013 
   38001    38006    38011    38006    38009    38013    38007    38009 
   38011    38009    38009    38009    38003    38006    38013    38011 
   38010    38010    38006    38007    38014    38009    38002    38006 
   38014    38016    38013    38006    38005    38006    38010    38014 
   38010    38005    38007    38010    38007    38009    38010    38007 
   38009    38013    38010    38002    38002    38009    38009    38007 
   38014    38020    38013    38006    38005    38005    38007    38014 
   38020    38017    38010    38007    38007    38003    38005    38009 
   38009    38011    38018    38016    38003    38001    38009    38010 
   38013    38020    38013    38001    38002    38010    38013    38014 
   38013    38009    38003    38002    38007    38014    38010    38005 
   38006    38010    38016    38011    38006    38013    38013    38005 
   38005    38009    38007    38011    38014    38009    38003    38007 
   38010    38011    38010    38010    38011    38011    38010    38009 
   38007    38007    38007    38010    38013    38013    38013    38010 
   38006    38007    38009    38009    38006    38011    38018    38010 
   38003    38007    38009    38009    38014    38010    38003    38006 
   38010    38011    38010    38007    38007    38007    38010    38011 
   38005    38005    38011    38010    38006    38009    38007    38010 
   38014    38013    38009    38006    38007    38007    38007    38007 
   38007    38009    38014    38013    38006    37999    38001    38011 
   38018    38016    38007    38006    38009    38007    38005    38005 
   38007    38013    38016    38011    38006    38014    38016    38005 
   38003    38005    38001    38006    38020    38021    38007    38001 
   38006    38007    38010    38013    38009    38003    38003    38009 
   38010    38009    38010    38007    38003    38007    38013    38013 
   38010    38009    38005    38003    38005    38007    38011    38013 
   38010    38009    38007    38007    38010    38009    38002    38001 
   38006    38013    38018    38018    38009    37997    37997    38003 
   38010    38017    38020    38014    38007    37999    37999    38009 
   38013    38009    38006    38006    38010    38016    38016    38007 
   38002    38002    38005    38010    38013    38011    38009    38007 
   38009    38010    38007    38009    38007    38005    38006    38007 
   38010    38014    38016    38014    38009    38002    38005    38009 
   38009    38010    38013    38010    38007    38009    38010    38010 
   38009    38005    38003    38010    38011    38005    38007    38018 
   38020    38009    37999    37999    38009    38011    38010    38010 
   38010    38010    38011    38010    38006    38006    38009    38009 
   38009    38011    38014    38010    38006    38007    38007    38006 
   38006    38009    38011    38014    38016    38016    38013    38007 
   38002    38001    38006    38014    38017    38018    38020    38011 
   38002    38003    38007    38009    38010    38013    38010    38009 
   38011    38011    38009    38006    38002    38007    38014    38011 
   38011    38013    38010    38005    38005    38006    38007    38011 
   38017    38014    38007    38005    38003    38003    38009    38014 
   38011    38010    38010    38010    38009    38007    38005    38007 
   38011    38009    38005    38005    38010    38016    38016    38010 
   38005    38003    37999    38002    38011    38020    38020    38014 
   38005    38001    38002    38005    38007    38011    38013    38010 
   38014    38014    38006    38006    38011    38005    37999    38007 
   38014    38013    38011    38011    38006    38002    38006    38009 
   38010    38011    38011    38010    38007    38005    38005    38011 
   38017    38013    38009    38005    38001    38007    38016    38013 
   38010    38007    38007    38009    38006    38002    38006    38009 
   38010    38016    38013    38007    38009    38011    38009    38009 
   38011    38013    38014    38017    38022    38021    38010    37999 
   37995    37997    37998    37997    37995    37989    37991    38013 
   38040    38055    38048    38017    37991    37991    38006    38021 
   38024    38003    37964    37939    37949    37980    38016    38060 
   38101    38103    38048    37966    37917    37939    38016    38086 
   38078    37991    37933    37962    38020    38036    37995    37948 
   37967    38055    38118    38084    37994    37948    37983    38030 
   38013    37955    37941    37986    38041    38086    38099    38079 
   38037    37978    37924    37939    38017    38079    38071    38005 
   37908    37847    37889    38001    38098    38152    38156    38102 
   38017    37952    37935    37959    37980    37976    37971    37986 
   38029    38078    38079    38034    37987    37951    37949    37978 
   38010    38044    38070    38061    38038    38017    37986    37955 
   37951    37970    38006    38041    38045    38025    38014    38018 
   38026    38018    37986    37960    37980    38055    38130    38118 
   38003    37866    37825    37924    38060    38118    38101    38055 
   38003    37983    38006    38005    37967    37972    38038    38105 
   38109    38020    37895    37871    37941    37995    38037    38078 
   38075    38053    38028    37966    37906    37924    38010    38102 
   38146    38105    37995    37926    37940    37957    37966    38006 
   38056    38070    38037    37984    37947    37964    38038    38103 
   38095    38024    37944    37935    38011    38065    38037    37989 
   37957    37953    37998    38055    38057    38018    37990    37978 
   37964    37956    37983    38064    38144    38128    38045    37990 
   37974    37964    37963    37972    37986    38016    38055    38049 
   38001    37957    37936    37940    37987    38072    38140    38137 
   38075    37986    37893    37863    37937    38043    38101    38103 
   38059    37986    37939    37947    37987    38014    38002    37976 
   37979    38040    38125    38155    38084    37952    37866    37902 
   37997    38060    38072    38016    37933    37917    37972    38051 
   38122    38148    38080    37959    37885    37912    37999    38071 
   38071    38005    37944    37949    38006    38072    38114    38091 
   38006    37925    37901    37943    38026    38098    38095    38013 
   37929    37917    37979    38056    38088    38079    38044    37976 
   37905    37890    37947    38048    38128    38124    38053    37984 
   37955    37960    37990    38017    38038    38063    38063    38016 
   37956    37935    37963    38002    38021    38024    38034    38049 
   38038    37994    37959    37974    38024    38061    38063    38049 
   38040    37997    37908    37851    37903    38020    38113    38163 
   38141    38029    37906    37872    37928    38033    38137    38156 
   38071    37963    37912    37918    37955    37993    38006    37999 
   38001    38037    38098    38114    38047    37947    37889    37924 
   38018    38082    38095    38090    38055    37972    37899    37905 
   37980    38055    38075    38052    38011    37974    37952    37964 
   38013    38067    38080    38051    38018    38007    37989    37957 
   37951    37984    38038    38067    38028    37951    37943    38021 
   38094    38107    38061    37980    37930    37956    37994    38007 
   38028    38043    38016    37959    37930    37968    38055    38128 
   38126    38053    37982    37960    37967    37964    37949    37952 
   37976    38009    38052    38103    38119    38075    38009    37960 
   37928    37912    37930    37983    38057    38103    38075    38001 
   37957    37972    38001    38010    38024    38043    38038    38041 
   38063    38049    38003    37974    37956    37947    37970    38003 
   38010    38009    38017    38013    37994    37982    37999    38047 
   38084    38086    38070    38051    38010    37957    37933    37937 
   37940    37966    38020    38043    38028    38001    37970    37979 
   38052    38109    38106    38064    37993    37935    37930    37963 
   38013    38079    38118    38071    37974    37912    37916    37962 
   38021    38056    38053    38024    37986    37953    37957    38013 
   38068    38088    38086    38068    38047    38014    37960    37929 
   37948    37982    38016    38029    37989    37949    37995    38065 
   38049    37987    37978    38032    38095    38124    38079    37990 
   37930    37916    37929    37983    38052    38090    38079    38033 
   37971    37906    37868    37899    37990    38083    38134    38125 
   38065    38010    37999    38009    38006    37986    37979    38028 
   38080    38064    38006    37970    37960    37955    37945    37947 
   37978    38022    38059    38057    38002    37937    37935    38028 
   38159    38200    38126    38025    37949    37885    37856    37882 
   37960    38091    38167    38109    38017    37978    37975    37998 
   38025    38002    37948    37959    38032    38074    38056    38020 
   38003    38030    38079    38070    37993    37962    37989    37952 
   37868    37862    37945    38056    38145    38172    38121    38041 
   37964    37893    37894    37990    38084    38125    38128    38068 
   37966    37906    37895    37887    37925    38038    38136    38129 
   38048    37959    37910    37940    38024    38091    38107    38070 
   38005    37947    37895    37897    37990    38086    38115    38117 
   38082    38007    37974    37999    38020    37998    37963    37953 
   37960    37975    38020    38078    38070    37993    37952    37994 
   38043    38055    38063    38070    38065    38041    37966    37874 
   37855    37929    38026    38055    37993    37949    38021    38119 
   38133    38078    38025    37983    37932    37886    37899    37993 
   38094    38128    38088    38017    37960    37966    38018    38057 
   38070    38037    37951    37925    38045    38175    38148    37986 
   37818    37740    37801    37974    38134    38200    38186    38070 
   37894    37814    37912    38110    38250    38233    38113    37959 
   37808    37752    37840    37990    38103    38148    38128    38083 
   38041    38010    38017    38028    37980    37960    38009    38001 
   37948    37998    38105    38126    38059    37980    37974    38059 
   38163    38176    38060    37910    37836    37824    37816    37785 
   37732    37723    37766    37752    37679    37732    37999    38329 
   38489    38439    38350    38391    38535    38603    38512    38352 
   38140    37833    37524    37350    37334    37419    37557    37759 
   38038    38337    38561    38591    38364    38082    37980    37987 
   37952    37867    37708    37492    37401    37585    38038    38638 
   39059    38979    38495    37928    37459    37203    37216    37450 
   37827    38176    38281    38184    38163    38302    38406    38341 
   38138    37894    37750    37756    37790    37741    37636    37578 
   37714    38126    38712    39197    39268    38797    38002    37307 
   36948    36903    37096    37480    37980    38387    38502    38429 
   38414    38512    38546    38331    37918    37494    37257    37347 
   37669    37968    38102    38083    38071    38221    38458    38610 
   38611    38479    38256    38020    37802    37601    37470    37442 
   37496    37647    37876    38072    38184    38294    38425    38462 
   38346    38136    37905    37731    37656    37710    37955    38288 
   38412    38227    37899    37589    37417    37477    37731    38056 
   38377    38641    38715    38477    38028    37689    37656    37828 
   38009    38076    38041    37998    37993    38009    38009    37963 
   37936    38017    38141    38157    38047    37935    37889    37848 
   37768    37735    37824    38028    38281    38412    38318    38153 
   38076    38064    38076    38107    38072    37917    37770    37737 
   37760    37808    37864    37844    37781    37833    38030    38280 
   38469    38497    38387    38244    38091    37898    37702    37619 
   37712    37887    38021    38080    38074    38052    38087    38165 
   38200    38144    38022    37874    37759    37764    37905    38101 
   38257    38325    38272    38129    37974    37822    37682    37627 
   37709    37905    38118    38202    38138    38055    38028    38057 
   38105    38088    38025    38018    38091    38176    38175    38022 
   37789    37632    37609    37710    37943    38229    38416    38452 
   38338    38091    37832    37714    37746    37836    37933    38016 
   38070    38122    38195    38226    38146    38007    37920    37920 
   37978    38032    38045    38017    37944    37855    37820    37868 
   37983    38136    38232    38196    38057    37893    37786    37801 
   37908    38013    38079    38114    38092    38048    38059    38118 
   38203    38295    38306    38145    37852    37598    37508    37582 
   37798    38080    38302    38395    38364    38223    37993    37770 
   37674    37705    37791    37921    38086    38203    38236    38215 
   38152    38068    38026    38005    37956    37918    37925    37975 
   38061    38146    38187    38152    38005    37782    37658    37739 
   37949    38167    38276    38195    38011    37872    37835    37908 
   38056    38176    38209    38145    37976    37795    37719    37750 
   37851    38016    38182    38257    38233    38164    38078    38001 
   37964    37944    37925    37943    37995    38044    38052    38043 
   38065    38076    38010    37922    37886    37886    37916    37971 
   38021    38080    38163    38229    38221    38114    37957    37840 
   37810    37847    37910    37983    38026    37994    37922    37913 
   37991    38092    38163    38175    38136    38087    38057    38036 
   38011    37984    37971    37990    38018    38028    38025    38034 
   38052    38032    37951    37878    37860    37889    37968    38071 
   38105    38057    38001    37967    37947    37967    38025    38059 
   38038    37994    37943    37913    37945    38018    38082    38114 
   38110    38068    38033    38037    38047    38034    38017    37987 
   37937    37895    37868    37854    37887    37989    38113    38187 
   38196    38175    38122    38055    38017    37987    37971    38016 
   38078    38075    38016    37933    37859    37859    37933    38010 
   38055    38055    38002    37944    37930    37953    37995    38034 
   38040    38009    37968    37948    37956    37983    38034    38109 
   38167    38171    38106    38002    37922    37917    37991    38097 
   38164    38163    38094    37994    37913    37859    37836    37851 
   37893    37948    38017    38091    38145    38136    38053    37966 
   37935    37967    38036    38102    38132    38102    38009    37899 
   37825    37802    37839    37920    38007    38075    38119    38149 
   38157    38128    38072    38006    37937    37891    37898    37948 
   38024    38091    38111    38094    38059    38016    37986    37966 
   37929    37908    37933    37989    38037    38057    38056    38045 
   38029    38043    38092    38121    38110    38086    38051    38007 
   37970    37916    37841    37794    37821    37925    38045    38121 
   38151    38159    38134    38049    37922    37848    37874    37951 
   38029    38075    38080    38098    38138    38136    38072    37978 
   37895    37874    37912    37952    37966    37974    37995    38045 
   38091    38060    37970    37921    37963    38080    38215    38261 
   38188    38043    37863    37719    37719    37859    38033    38171 
   38230    38190    38097    37997    37897    37849    37902    38006 
   38092    38132    38102    38022    37941    37894    37903    37943 
   37956    37963    38005    38065    38101    38082    38034    38014 
   38032    38034    37995    37951    37948    37997    38056    38072 
   38052    38033    38017    37987    37960    37971    38014    38060 
   38087    38090    38060    38005    37940    37887    37867    37890 
   37971    38095    38179    38168    38098    38020    37960    37937 
   37944    37943    37920    37914    37944    37980    37983    37953 
   37947    37998    38080    38148    38164    38125    38068    38048 
   38059    38068    38061    38030    37972    37926    37924    37952 
   37972    37956    37920    37913    37974    38076    38159    38168 
   38095    37990    37917    37909    37955    38013    38053    38079 
   38095    38103    38090    38034    37933    37839    37812    37864 
   37962    38061    38113    38098    38047    37987    37941    37953 
   38016    38079    38118    38119    38063    37967    37891    37872 
   37897    37955    38041    38117    38151    38124    38029    37918 
   37860    37879    37955    38038    38092    38109    38095    38064 
