Origin Time       2025/03/30 10:46:00
Lat.              32.923
Long.             130.372
Depth. (km)       11
Mag.              3.4
Station Code      NGSH03
Station Lat.      33.1256
Station Long.     129.8102
Station Height(m) 10
Record Time       2025/03/30 10:46:37
Sampling Freq(Hz) 100Hz
Duration Time(s)  120
Dir.              4
Scale Factor      7845(gal)/8223790
Max. Acc. (gal)   1.317
Last Correction   2025/03/30 10:46:37
Memo.             
[...]
  -16128   -16124   -16124   -16127   -16124   -16121   -16125   -16128 
  -16133   -16129   -16119   -16120   -16125   -16123   -16128   -16131 
  -16124   -16127   -16127   -16120   -16119   -16120   -16123   -16127 
  -16127   -16127   -16125   -16121   -16123   -16124   -16125   -16128 
  -16128   -16125   -16124   -16124   -16127   -16128   -16127   -16127 
  -16125   -16123   -16121   -16121   -16120   -16120   -16125   -16133 
  -16133   -16123   -16121   -16124   -16116   -16117   -16129   -16132 
  -16132   -16131   -16120   -16116   -16117   -16117   -16128   -16133 
  -16125   -16128   -16132   -16123   -16116   -16116   -16121   -16127 
  -16129   -16129   -16125   -16123   -16124   -16127   -16124   -16121 
  -16121   -16123   -16124   -16125   -16125   -16124   -16124   -16127 
  -16125   -16121   -16120   -16123   -16125   -16127   -16129   -16129 
  -16125   -16124   -16125   -16124   -16120   -16117   -16121   -16131 
  -16135   -16131   -16128   -16119   -16112   -16117   -16123   -16129 
  -16137   -16133   -16123   -16119   -16120   -16121   -16124   -16128 
  -16129   -16128   -16123   -16120   -16121   -16124   -16127   -16125 
  -16123   -16124   -16125   -16124   -16120   -16123   -16125   -16124 
  -16124   -16125   -16123   -16121   -16124   -16125   -16124   -16124 
  -16127   -16129   -16128   -16124   -16123   -16124   -16123   -16120 
  -16123   -16127   -16123   -16125   -16135   -16131   -16123   -16121 
  -16121   -16121   -16119   -16124   -16135   -16131   -16123   -16125 
  -16121   -16114   -16121   -16129   -16128   -16127   -16125   -16124 
  -16124   -16123   -16124   -16125   -16124   -16125   -16125   -16124 
  -16124   -16127   -16127   -16127   -16124   -16121   -16124   -16128 
  -16129   -16125   -16123   -16123   -16124   -16123   -16123   -16129 
  -16128   -16123   -16121   -16120   -16117   -16127   -16135   -16133 
  -16127   -16121   -16121   -16121   -16119   -16125   -16132   -16128 
  -16129   -16131   -16120   -16117   -16125   -16128   -16124   -16123 
  -16123   -16123   -16123   -16125   -16128   -16127   -16125   -16125 
  -16121   -16121   -16125   -16125   -16124   -16127   -16128   -16127 
  -16124   -16123   -16124   -16124   -16125   -16128   -16123   -16123 
  -16128   -16121   -16121   -16131   -16125   -16123   -16128   -16125 
  -16124   -16124   -16124   -16124   -16123   -16120   -16123   -16128 
  -16129   -16127   -16123   -16121   -16124   -16124   -16127   -16131 
  -16124   -16117   -16123   -16121   -16121   -16124   -16125   -16128 
  -16129   -16125   -16125   -16123   -16119   -16123   -16128   -16133 
  -16131   -16121   -16119   -16123   -16129   -16127   -16119   -16127 
  -16129   -16124   -16129   -16129   -16121   -16124   -16125   -16123 
  -16124   -16124   -16127   -16127   -16125   -16125   -16125   -16125 
  -16125   -16124   -16124   -16124   -16123   -16124   -16125   -16117 
  -16123   -16132   -16123   -16123   -16132   -16127   -16123   -16124 
  -16123   -16124   -16123   -16123   -16128   -16125   -16123   -16125 
  -16127   -16127   -16124   -16124   -16125   -16125   -16127   -16121 
  -16117   -16125   -16128   -16120   -16123   -16128   -16125   -16121 
  -16121   -16125   -16123   -16121   -16125   -16125   -16124   -16128 
  -16129   -16125   -16121   -16121   -16123   -16124   -16123   -16124 
  -16125   -16125   -16129   -16129   -16116   -16119   -16137   -16128 
  -16119   -16129   -16124   -16121   -16132   -16129   -16129   -16127 
  -16117   -16119   -16124   -16125   -16125   -16128   -16133   -16127 
  -16121   -16127   -16123   -16120   -16128   -16128   -16124   -16125 
  -16127   -16127   -16125   -16120   -16119   -16123   -16125   -16129 
  -16131   -16125   -16123   -16123   -16124   -16124   -16124   -16121 
  -16123   -16129   -16128   -16125   -16128   -16124   -16119   -16127 
  -16129   -16120   -16125   -16127   -16116   -16128   -16133   -16119 
  -16121   -16124   -16119   -16131   -16133   -16119   -16120   -16131 
  -16123   -16119   -16131   -16128   -16117   -16123   -16124   -16124 
  -16129   -16129   -16125   -16123   -16121   -16123   -16128   -16127 
  -16125   -16125   -16127   -16125   -16121   -16119   -16123   -16132 
  -16136   -16129   -16124   -16120   -16120   -16123   -16125   -16128 
  -16128   -16127   -16125   -16123   -16120   -16114   -16123   -16136 
  -16127   -16120   -16137   -16128   -16114   -16132   -16124   -16112 
  -16128   -16127   -16123   -16136   -16129   -16120   -16121   -16121 
  -16123   -16127   -16125   -16125   -16133   -16133   -16125   -16117 
  -16113   -16119   -16128   -16132   -16133   -16131   -16127   -16121 
  -16116   -16114   -16123   -16129   -16131   -16129   -16127   -16124 
  -16120   -16117   -16123   -16127   -16123   -16121   -16127   -16131 
  -16131   -16131   -16124   -16116   -16123   -16120   -16114   -16136 
  -16139   -16119   -16124   -16127   -16114   -16119   -16125   -16124 
  -16127   -16128   -16127   -16129   -16124   -16119   -16120   -16121 
  -16125   -16132   -16128   -16124   -16124   -16125   -16127   -16128 
  -16131   -16128   -16120   -16121   -16128   -16125   -16124   -16124 
  -16123   -16127   -16133   -16132   -16123   -16114   -16114   -16117 
  -16125   -16137   -16131   -16124   -16131   -16119   -16110   -16123 
  -16123   -16127   -16136   -16127   -16124   -16124   -16117   -16128 
  -16128   -16116   -16123   -16125   -16124   -16131   -16128   -16121 
  -16121   -16123   -16123   -16123   -16124   -16129   -16131   -16128 
  -16127   -16124   -16120   -16119   -16123   -16128   -16131   -16128 
  -16128   -16125   -16120   -16120   -16121   -16120   -16123   -16131 
  -16129   -16123   -16133   -16132   -16112   -16113   -16125   -16124 
  -16127   -16135   -16131   -16123   -16123   -16128   -16128   -16123 
  -16120   -16119   -16127   -16136   -16131   -16127   -16124   -16117 
  -16117   -16120   -16125   -16131   -16129   -16128   -16127   -16123 
  -16121   -16123   -16124   -16125   -16127   -16131   -16131   -16128 
  -16125   -16125   -16119   -16116   -16124   -16132   -16135   -16132 
  -16117   -16109   -16128   -16136   -16125   -16129   -16128   -16112 
  -16114   -16125   -16128   -16132   -16133   -16128   -16124   -16121 
  -16120   -16123   -16121   -16117   -16124   -16136   -16133   -16123 
  -16128   -16125   -16120   -16127   -16124   -16123   -16131   -16129 
  -16125   -16125   -16127   -16127   -16125   -16123   -16119   -16117 
  -16123   -16131   -16135   -16135   -16127   -16121   -16121   -16117 
  -16116   -16127   -16132   -16127   -16131   -16135   -16121   -16116 
  -16125   -16124   -16123   -16124   -16124   -16129   -16131   -16125 
  -16125   -16124   -16120   -16120   -16124   -16128   -16131   -16133 
  -16133   -16131   -16129   -16125   -16116   -16119   -16125   -16113 
  -16102   -16117   -16135   -16144   -16139   -16133   -16135   -16116 
  -16089   -16108   -16156   -16168   -16146   -16119   -16082   -16059 
  -16083   -16114   -16132   -16152   -16163   -16162   -16154   -16132 
  -16121   -16113   -16087   -16074   -16090   -16109   -16127   -16164 
  -16197   -16181   -16136   -16139   -16175   -16147   -16051   -16005 
  -16052   -16094   -16081   -16096   -16164   -16194   -16155   -16147 
  -16200   -16210   -16177   -16158   -16098   -16005   -16002   -16090 
  -16166   -16175   -16148   -16141   -16128   -16090   -16094   -16154 
  -16182   -16177   -16179   -16146   -16066   -16017   -16040   -16081 
  -16083   -16085   -16143   -16206   -16228   -16220   -16166   -16097 
  -16085   -16090   -16077   -16109   -16158   -16120   -16058   -16112 
  -16229   -16227   -16119   -16066   -16066   -16038   -16054   -16155 
  -16216   -16162   -16098   -16108   -16135   -16120   -16120   -16152 
  -16158   -16158   -16177   -16170   -16131   -16093   -16044   -16000 
  -16054   -16195   -16256   -16206   -16181   -16159   -16043   -15947 
  -16021   -16146   -16166   -16174   -16243   -16225   -16087   -16028 
  -16087   -16129   -16141   -16171   -16183   -16141   -16089   -16070 
  -16052   -16019   -16024   -16106   -16197   -16235   -16240   -16222 
  -16141   -16046   -16029   -16087   -16166   -16202   -16164   -16132 
  -16151   -16139   -16071   -16025   -16038   -16056   -16074   -16151 
  -16255   -16262   -16166   -16097   -16098   -16074   -16008   -16012 
  -16116   -16216   -16247   -16251   -16249   -16193   -16085   -16001 
  -15981   -16016   -16104   -16195   -16205   -16148   -16113   -16102 
  -16079   -16085   -16128   -16158   -16170   -16190   -16198   -16150 
  -16090   -16087   -16083   -16044   -16065   -16139   -16174   -16170 
  -16166   -16141   -16097   -16081   -16119   -16152   -16133   -16129 
  -16154   -16127   -16087   -16106   -16129   -16140   -16151   -16121 
  -16073   -16085   -16140   -16164   -16139   -16101   -16074   -16079 
  -16136   -16210   -16227   -16178   -16124   -16086   -16077   -16104 
  -16129   -16127   -16114   -16114   -16119   -16119   -16123   -16114 
  -16069   -16048   -16128   -16233   -16264   -16241   -16195   -16097 
  -16000   -15990   -16013   -16035   -16114   -16208   -16209   -16160 
  -16170   -16212   -16190   -16112   -16047   -16020   -16032   -16092 
  -16190   -16259   -16228   -16131   -16056   -16028   -16015   -16039 
  -16158   -16293   -16274   -16139   -16075   -16082   -16028   -15962 
  -16038   -16201   -16267   -16231   -16204   -16175   -16082   -15994 
  -16002   -16082   -16179   -16240   -16229   -16159   -16073   -16033 
  -16056   -16070   -16066   -16125   -16218   -16254   -16220   -16156 
  -16082   -16029   -16024   -16065   -16151   -16233   -16222   -16132 
  -16070   -16051   -16023   -16033   -16166   -16294   -16236   -16082 
  -16029   -16086   -16141   -16150   -16124   -16100   -16116   -16155 
  -16152   -16113   -16093   -16077   -16051   -16102   -16222   -16267 
  -16205   -16121   -16056   -16040   -16081   -16110   -16108   -16136 
  -16160   -16127   -16104   -16136   -16154   -16113   -16079   -16124 
  -16195   -16189   -16146   -16136   -16106   -16051   -16066   -16147 
  -16191   -16177   -16125   -16063   -16050   -16104   -16121   -16078 
  -16113   -16232   -16239   -16129   -16105   -16151   -16097   -16015 
  -16078   -16190   -16164   -16094   -16137   -16185   -16125   -16082 
  -16121   -16143   -16131   -16140   -16131   -16081   -16079   -16143 
  -16154   -16094   -16096   -16162   -16152   -16089   -16110   -16170 
  -16151   -16117   -16140   -16154   -16123   -16102   -16105   -16114 
  -16146   -16156   -16101   -16060   -16090   -16117   -16102   -16112 
  -16160   -16183   -16163   -16152   -16173   -16186   -16158   -16083 
  -16017   -16015   -16044   -16082   -16150   -16224   -16247   -16216 
  -16171   -16113   -16058   -16071   -16119   -16098   -16047   -16083 
  -16163   -16164   -16128   -16158   -16185   -16106   -16040   -16112 
  -16173   -16102   -16052   -16101   -16131   -16121   -16147   -16193 
  -16175   -16105   -16083   -16129   -16164   -16167   -16160   -16133 
  -16120   -16132   -16124   -16102   -16112   -16121   -16082   -16047 
  -16094   -16171   -16179   -16139   -16152   -16212   -16198   -16116 
  -16090   -16092   -16050   -16048   -16139   -16193   -16141   -16082 
  -16074   -16086   -16097   -16139   -16210   -16212   -16100   -16024 
  -16077   -16146   -16141   -16136   -16189   -16227   -16167   -16075 
  -16052   -16066   -16069   -16112   -16208   -16245   -16173   -16075 
  -16056   -16081   -16058   -16048   -16102   -16143   -16162   -16194 
  -16174   -16117   -16141   -16206   -16179   -16110   -16096   -16085 
  -16028   -16025   -16114   -16166   -16141   -16143   -16168   -16173 
  -16174   -16162   -16147   -16139   -16067   -15989   -16067   -16228 
  -16229   -16090   -16044   -16124   -16159   -16135   -16133   -16135 
  -16136   -16155   -16146   -16094   -16059   -16038   -16015   -16043 
  -16144   -16239   -16259   -16231   -16175   -16098   -16050   -16077 
  -16152   -16182   -16131   -16083   -16075   -16055   -16029   -16062 
  -16143   -16220   -16251   -16228   -16154   -16033   -15969   -16040 
  -16128   -16129   -16131   -16167   -16171   -16181   -16231   -16227 
  -16133   -16069   -16059   -16042   -16074   -16173   -16183   -16086 
  -16069   -16162   -16200   -16154   -16132   -16129   -16085   -16043 
  -16047   -16071   -16117   -16195   -16229   -16170   -16128   -16177 
  -16214   -16155   -16063   -16032   -16081   -16119   -16067   -16000 
  -16025   -16116   -16170   -16189   -16241   -16276   -16193   -16069 
  -16063   -16129   -16125   -16074   -16062   -16073   -16063   -16079 
  -16156   -16187   -16140   -16166   -16229   -16136   -16029   -16116 
  -16167   -16025   -15994   -16174   -16235   -16112   -16125   -16294 
  -16310   -16135   -16012   -16012   -16021   -16024   -16075   -16160 
  -16206   -16194   -16158   -16116   -16082   -16093   -16137   -16154 
  -16139   -16117   -16106   -16152   -16220   -16183   -16058   -16024 
  -16148   -16272   -16195   -16028   -16020   -16082   -16012   -15978 
  -16140   -16262   -16163   -16089   -16185   -16143   -15885   -15849 
  -16089   -16150   -16015   -16096   -16357   -16386   -16119   -15861 
  -15746   -15696   -15732   -15897   -16090   -16276   -16502   -16730 
  -16902   -16996   -16969   -16733   -16308   -15934   -15769   -15680 
  -15676   -15900   -16183   -16303   -16380   -16436   -16245   -15865 
  -15641   -15580   -15357   -15033   -15101   -15678   -16371   -16943 
  -17385   -17506   -17101   -16339   -15727   -15628   -15840   -15955 
  -15959   -16020   -15982   -15691   -15422   -15445   -15638   -15930 
  -16417   -16885   -16957   -16692   -16421   -16143   -15732   -15469 
  -15703   -16275   -16764   -17027   -17116   -16866   -16178   -15426 
  -15028   -15028   -15317   -15786   -16235   -16492   -16621   -16703 
  -16622   -16328   -16008   -15827   -15781   -15820   -15951   -16143 
  -16266   -16224   -16098   -16005   -15969   -16001   -16156   -16383 
  -16472   -16316   -16148   -16208   -16306   -16195   -16059   -16071 
  -16016   -15850   -15889   -16189   -16414   -16380   -16258   -16191 
  -16140   -16102   -16163   -16216   -16047   -15766   -15653   -15688 
  -15755   -15967   -16308   -16471   -16409   -16351   -16289   -16148 
  -16101   -16163   -16112   -16021   -16131   -16282   -16200   -16036 
  -16050   -16120   -16051   -15959   -15997   -16035   -15994   -16060 
  -16289   -16498   -16584   -16563   -16409   -16139   -15881   -15774 
  -15853   -16001   -16016   -15870   -15822   -15988   -16170   -16267 
  -16370   -16482   -16501   -16364   -16143   -15928   -15735   -15670 
  -15854   -16159   -16384   -16461   -16398   -16245   -16075   -15961 
  -15965   -16042   -16075   -16093   -16197   -16328   -16314   -16105 
  -15822   -15664   -15766   -16052   -16324   -16471   -16476   -16316 
  -16086   -15969   -15958   -15932   -15948   -16140   -16387   -16484 
  -16452   -16325   -16051   -15753   -15668   -15792   -15954   -16096 
  -16267   -16413   -16430   -16347   -16229   -16075   -15946   -15985 
  -16170   -16324   -16343   -16229   -16066   -15990   -16024   -16071 
  -16090   -16066   -15992   -15952   -16029   -16114   -16137   -16231 
  -16409   -16463   -16349   -16209   -16052   -15847   -15712   -15780 
  -16021   -16322   -16542   -16530   -16262   -15938   -15777   -15790 
  -15909   -16129   -16344   -16366   -16224   -16125   -16090   -15981 
  -15834   -15830   -15979   -16162   -16324   -16436   -16418   -16276 
  -16154   -16140   -16156   -16106   -16017   -15990   -16027   -16025 
  -15965   -15950   -16031   -16148   -16274   -16418   -16491   -16356 
  -16089   -15909   -15854   -15877   -16040   -16289   -16414   -16359 
  -16224   -16059   -15916   -15874   -15946   -16065   -16190   -16329 
  -16417   -16362   -16217   -16129   -16117   -16096   -16036   -15969 
  -15939   -15985   -16051   -16059   -16063   -16151   -16259   -16281 
  -16244   -16224   -16198   -16136   -16071   -16016   -15939   -15884 
  -15940   -16070   -16170   -16236   -16317   -16389   -16398   -16330 
  -16210   -16079   -15974   -15907   -15894   -15967   -16059   -16093 
  -16137   -16233   -16235   -16105   -15998   -15984   -16021   -16125 
  -16281   -16362   -16285   -16140   -16055   -16027   -16028   -16102 
  -16224   -16229   -16077   -15943   -15951   -16021   -16070   -16125 
  -16178   -16158   -16098   -16114   -16212   -16282   -16316   -16362 
  -16364   -16287   -16218   -16193   -16121   -15974   -15843   -15795 
  -15854   -16017   -16194   -16305   -16363   -16351   -16213   -16052 
  -16004   -16017   -16023   -16062   -16108   -16059   -15992   -16059 
  -16205   -16266   -16243   -16198   -16105   -15997   -15963   -16008 
  -16075   -16146   -16195   -16195   -16151   -16089   -16032   -16028 
  -16124   -16282   -16416   -16479   -16444   -16291   -16071   -15873 
  -15747   -15749   -15869   -16025   -16177   -16305   -16340   -16263 
  -16133   -16019   -15984   -16051   -16164   -16263   -16321   -16303 
  -16197   -16069   -15996   -15988   -16047   -16160   -16231   -16185 
  -16086   -16009   -15955   -15963   -16066   -16195   -16282   -16324 
  -16308   -16198   -16040   -15967   -16031   -16139   -16195   -16205 
  -16191   -16150   -16098   -16089   -16131   -16152   -16116   -16078 
  -16083   -16100   -16105   -16106   -16112   -16114   -16071   -15996 
  -15979   -16040   -16094   -16139   -16248   -16387   -16411   -16306 
  -16183   -16081   -15982   -15961   -16059   -16154   -16139   -16109 
  -16117   -16074   -15997   -16017   -16102   -16141   -16174   -16237 
  -16237   -16183   -16198   -16240   -16162   -16027   -16019   -16106 
  -16141   -16141   -16167   -16156   -16094   -16070   -16092   -16086 
  -16047   -16031   -16038   -16035   -16066   -16164   -16258   -16268 
  -16220   -16173   -16150   -16146   -16170   -16209   -16202   -16127 
  -16039   -15984   -15955   -15967   -16042   -16136   -16185   -16195 
  -16198   -16186   -16151   -16121   -16109   -16087   -16054   -16051 
  -16110   -16190   -16210   -16162   -16119   -16109   -16092   -16078 
  -16112   -16155   -16140   -16085   -16070   -16120   -16174   -16189 
  -16178   -16164   -16158   -16143   -16123   -16128   -16156   -16173 
  -16170   -16178   -16194   -16186   -16128   -16046   -16005   -16020 
  -16036   -16042   -16075   -16131   -16164   -16162   -16144   -16127 
  -16097   -16081   -16132   -16231   -16298   -16289   -16187   -16029 
  -15904   -15884   -15966   -16077   -16175   -16263   -16302   -16248 
  -16152   -16101   -16098   -16096   -16086   -16109   -16158   -16186 
  -16174   -16137   -16087   -16038   -16005   -16013   -16055   -16105 
  -16140   -16146   -16132   -16133   -16150   -16143   -16120   -16124 
  -16162   -16212   -16252   -16263   -16221   -16131   -16040   -16002 
  -16036   -16114   -16174   -16178   -16154   -16123   -16087   -16059 
  -16039   -16027   -16051   -16106   -16152   -16178   -16187   -16198 
  -16214   -16213   -16189   -16170   -16177   -16187   -16164   -16113 
  -16070   -16052   -16040   -16020   -16006   -16040   -16101   -16139 
  -16160   -16173   -16140   -16092   -16092   -16121   -16152   -16206 
  -16260   -16236   -16140   -16065   -16043   -16048   -16073   -16135 
  -16217   -16254   -16202   -16094   -15989   -15925   -15940   -16048 
