Origin Time       2025/03/30 10:46:00
Lat.              32.923
Long.             130.372
Depth. (km)       11
Mag.              3.4
Station Code      NGSH03
Station Lat.      33.1256
Station Long.     129.8102
Station Height(m) -190
Record Time       2025/03/30 10:46:37
Sampling Freq(Hz) 100Hz
Duration Time(s)  120
Dir.              3
Scale Factor      3923(gal)/8224838
Max. Acc. (gal)   0.164
Last Correction   2025/03/30 10:46:37
Memo.             
[...]
  -38348   -38349   -38350   -38349   -38349   -38349   -38348   -38349 
  -38349   -38349   -38349   -38350   -38349   -38348   -38349   -38350 
  -38349   -38346   -38346   -38349   -38349   -38348   -38349   -38350 
  -38346   -38345   -38348   -38348   -38349   -38352   -38348   -38344 
  -38348   -38352   -38350   -38348   -38346   -38349   -38350   -38348 
  -38346   -38349   -38350   -38350   -38352   -38350   -38349   -38349 
  -38349   -38350   -38349   -38348   -38348   -38349   -38350   -38349 
  -38349   -38349   -38348   -38348   -38348   -38348   -38349   -38348 
  -38348   -38350   -38349   -38348   -38349   -38349   -38349   -38349 
  -38346   -38346   -38349   -38348   -38348   -38349   -38349   -38350 
  -38350   -38349   -38348   -38348   -38348   -38350   -38348   -38348 
  -38349   -38350   -38349   -38350   -38349   -38349   -38349   -38350 
  -38349   -38349   -38349   -38349   -38350   -38352   -38349   -38345 
  -38346   -38349   -38348   -38348   -38352   -38352   -38349   -38348 
  -38352   -38350   -38348   -38348   -38350   -38350   -38350   -38352 
  -38352   -38350   -38350   -38349   -38350   -38350   -38348   -38346 
  -38348   -38349   -38349   -38349   -38349   -38350   -38352   -38350 
  -38349   -38349   -38348   -38346   -38348   -38350   -38352   -38349 
  -38348   -38349   -38348   -38349   -38352   -38349   -38345   -38348 
  -38350   -38350   -38350   -38349   -38346   -38349   -38350   -38349 
  -38349   -38348   -38346   -38349   -38350   -38349   -38349   -38350 
  -38349   -38348   -38349   -38348   -38346   -38348   -38349   -38349 
  -38349   -38349   -38350   -38349   -38346   -38346   -38348   -38350 
  -38350   -38348   -38348   -38350   -38348   -38345   -38344   -38348 
  -38349   -38348   -38349   -38348   -38346   -38348   -38350   -38349 
  -38346   -38346   -38349   -38349   -38346   -38348   -38349   -38346 
  -38348   -38349   -38348   -38349   -38349   -38349   -38349   -38346 
  -38346   -38349   -38349   -38350   -38350   -38348   -38346   -38350 
  -38350   -38348   -38348   -38346   -38346   -38349   -38348   -38346 
  -38345   -38348   -38350   -38349   -38345   -38348   -38349   -38346 
  -38348   -38349   -38348   -38348   -38349   -38349   -38348   -38346 
  -38346   -38350   -38352   -38346   -38345   -38349   -38349   -38346 
  -38349   -38352   -38349   -38346   -38346   -38345   -38346   -38348 
  -38348   -38348   -38348   -38346   -38349   -38350   -38350   -38352 
  -38348   -38345   -38349   -38350   -38349   -38349   -38349   -38349 
  -38349   -38348   -38348   -38348   -38348   -38350   -38350   -38348 
  -38348   -38348   -38348   -38349   -38349   -38348   -38350   -38348 
  -38348   -38350   -38349   -38350   -38350   -38349   -38348   -38350 
  -38350   -38349   -38348   -38349   -38350   -38346   -38346   -38350 
  -38349   -38346   -38349   -38350   -38350   -38350   -38349   -38349 
  -38352   -38349   -38349   -38350   -38349   -38349   -38349   -38349 
  -38349   -38348   -38349   -38350   -38348   -38349   -38350   -38348 
  -38349   -38352   -38350   -38350   -38350   -38348   -38348   -38349 
  -38349   -38348   -38349   -38350   -38349   -38349   -38350   -38350 
  -38350   -38350   -38349   -38350   -38349   -38348   -38349   -38353 
  -38350   -38345   -38346   -38349   -38349   -38348   -38349   -38350 
  -38349   -38349   -38350   -38349   -38348   -38349   -38349   -38346 
  -38346   -38349   -38349   -38349   -38350   -38350   -38349   -38349 
  -38349   -38348   -38345   -38346   -38349   -38350   -38349   -38348 
  -38348   -38350   -38348   -38346   -38350   -38350   -38348   -38349 
  -38349   -38349   -38349   -38348   -38348   -38350   -38352   -38350 
  -38348   -38348   -38349   -38349   -38348   -38346   -38348   -38350 
  -38349   -38348   -38349   -38349   -38348   -38346   -38345   -38346 
  -38348   -38348   -38349   -38349   -38346   -38345   -38345   -38346 
  -38348   -38349   -38348   -38346   -38349   -38348   -38345   -38348 
  -38350   -38349   -38346   -38345   -38348   -38348   -38346   -38348 
  -38348   -38348   -38350   -38352   -38348   -38349   -38350   -38349 
  -38352   -38350   -38346   -38346   -38349   -38348   -38346   -38345 
  -38344   -38348   -38350   -38349   -38349   -38348   -38348   -38350 
  -38352   -38349   -38349   -38346   -38346   -38348   -38348   -38348 
  -38349   -38349   -38349   -38349   -38349   -38350   -38348   -38346 
  -38348   -38346   -38345   -38350   -38350   -38345   -38345   -38348 
  -38346   -38346   -38349   -38350   -38349   -38346   -38346   -38348 
  -38350   -38350   -38348   -38348   -38348   -38349   -38349   -38350 
  -38350   -38349   -38346   -38346   -38349   -38352   -38349   -38348 
  -38349   -38348   -38349   -38352   -38349   -38348   -38350   -38348 
  -38345   -38348   -38352   -38349   -38349   -38352   -38349   -38348 
  -38350   -38349   -38349   -38349   -38349   -38350   -38352   -38352 
  -38350   -38352   -38353   -38353   -38352   -38352   -38350   -38350 
  -38352   -38350   -38352   -38354   -38353   -38352   -38350   -38350 
  -38349   -38348   -38348   -38349   -38352   -38350   -38349   -38349 
  -38348   -38348   -38348   -38348   -38349   -38350   -38349   -38350 
  -38352   -38349   -38348   -38350   -38349   -38348   -38349   -38350 
  -38350   -38349   -38349   -38350   -38350   -38349   -38349   -38349 
  -38346   -38349   -38350   -38348   -38348   -38349   -38348   -38349 
  -38349   -38348   -38350   -38349   -38346   -38348   -38348   -38348 
  -38346   -38346   -38349   -38349   -38346   -38348   -38350   -38352 
  -38349   -38346   -38345   -38349   -38349   -38349   -38348   -38348 
  -38348   -38349   -38348   -38346   -38349   -38350   -38346   -38346 
  -38349   -38350   -38348   -38348   -38350   -38349   -38346   -38348 
  -38346   -38346   -38349   -38350   -38348   -38346   -38348   -38348 
  -38348   -38349   -38349   -38348   -38348   -38348   -38349   -38349 
  -38346   -38348   -38349   -38348   -38346   -38346   -38346   -38348 
  -38348   -38349   -38349   -38346   -38348   -38349   -38348   -38349 
  -38350   -38348   -38345   -38346   -38348   -38349   -38346   -38346 
  -38350   -38349   -38344   -38346   -38350   -38350   -38348   -38345 
  -38348   -38349   -38349   -38349   -38348   -38350   -38352   -38349 
  -38349   -38352   -38350   -38348   -38349   -38349   -38349   -38349 
  -38348   -38348   -38352   -38350   -38349   -38350   -38348   -38346 
  -38348   -38348   -38349   -38349   -38346   -38346   -38349   -38348 
  -38345   -38348   -38349   -38350   -38349   -38349   -38350   -38349 
  -38349   -38350   -38346   -38346   -38348   -38348   -38349   -38349 
  -38349   -38356   -38360   -38361   -38368   -38373   -38372   -38365 
  -38354   -38342   -38333   -38321   -38300   -38286   -38284   -38313 
  -38380   -38446   -38449   -38391   -38338   -38329   -38331   -38315 
  -38294   -38277   -38286   -38335   -38381   -38385   -38380   -38385 
  -38396   -38402   -38373   -38334   -38325   -38319   -38325   -38349 
  -38344   -38314   -38319   -38360   -38380   -38354   -38335   -38348 
  -38345   -38331   -38352   -38380   -38372   -38354   -38365   -38365 
  -38342   -38335   -38310   -38288   -38323   -38365   -38398   -38434 
  -38434   -38408   -38352   -38277   -38272   -38311   -38322   -38335 
  -38353   -38365   -38381   -38387   -38392   -38388   -38330   -38272 
  -38276   -38292   -38337   -38419   -38446   -38398   -38323   -38281 
  -38330   -38389   -38352   -38288   -38273   -38308   -38400   -38469 
  -38415   -38330   -38318   -38322   -38321   -38383   -38454   -38400 
  -38250   -38200   -38306   -38396   -38376   -38314   -38291   -38354 
  -38458   -38495   -38433   -38311   -38202   -38207   -38311   -38411 
  -38454   -38389   -38276   -38294   -38388   -38368   -38294   -38325 
  -38388   -38380   -38392   -38419   -38345   -38259   -38284   -38353 
  -38375   -38373   -38408   -38415   -38354   -38304   -38267   -38241 
  -38308   -38404   -38414   -38387   -38394   -38398   -38342   -38277 
  -38265   -38281   -38335   -38395   -38408   -38421   -38419   -38365 
  -38315   -38292   -38283   -38303   -38330   -38373   -38410   -38395 
  -38387   -38392   -38345   -38299   -38290   -38287   -38325   -38394 
  -38416   -38404   -38395   -38356   -38303   -38311   -38340   -38331 
  -38319   -38327   -38353   -38357   -38348   -38375   -38385   -38354 
  -38342   -38353   -38340   -38319   -38357   -38395   -38353   -38335 
  -38349   -38311   -38299   -38331   -38364   -38402   -38395   -38365 
  -38365   -38319   -38287   -38335   -38331   -38298   -38341   -38396 
  -38402   -38360   -38329   -38362   -38391   -38357   -38299   -38281 
  -38345   -38408   -38396   -38384   -38389   -38344   -38303   -38346 
  -38383   -38340   -38288   -38272   -38279   -38330   -38410   -38453 
  -38438   -38399   -38364   -38329   -38295   -38280   -38280   -38287 
  -38299   -38331   -38396   -38434   -38426   -38415   -38379   -38308 
  -38259   -38246   -38279   -38365   -38429   -38381   -38321   -38371 
  -38430   -38394   -38337   -38300   -38288   -38323   -38376   -38408 
  -38383   -38319   -38290   -38299   -38325   -38357   -38381   -38408 
  -38410   -38325   -38242   -38295   -38384   -38368   -38319   -38353 
  -38412   -38416   -38380   -38334   -38273   -38244   -38294   -38365 
  -38415   -38458   -38446   -38341   -38257   -38284   -38341   -38348 
  -38360   -38389   -38385   -38381   -38384   -38327   -38272   -38311 
  -38354   -38329   -38323   -38383   -38407   -38357   -38311   -38306 
  -38322   -38323   -38321   -38389   -38430   -38344   -38284   -38338 
  -38395   -38387   -38345   -38317   -38313   -38334   -38379   -38403 
  -38362   -38303   -38292   -38321   -38375   -38425   -38400   -38342 
  -38338   -38360   -38349   -38340   -38353   -38315   -38244   -38276 
  -38379   -38427   -38446   -38415   -38307   -38299   -38384   -38335 
  -38268   -38350   -38408   -38356   -38310   -38334   -38392   -38367 
  -38281   -38292   -38369   -38402   -38412   -38399   -38337   -38291 
  -38326   -38364   -38315   -38314   -38396   -38358   -38300   -38394 
  -38431   -38334   -38291   -38330   -38357   -38340   -38331   -38358 
  -38346   -38323   -38376   -38421   -38373   -38340   -38346   -38313 
  -38296   -38344   -38380   -38367   -38334   -38341   -38369   -38349 
  -38338   -38379   -38376   -38338   -38353   -38361   -38325   -38348 
  -38414   -38380   -38314   -38342   -38358   -38304   -38321   -38369 
  -38315   -38273   -38330   -38379   -38380   -38383   -38369   -38346 
  -38375   -38408   -38364   -38323   -38345   -38329   -38280   -38295 
  -38335   -38352   -38383   -38415   -38380   -38326   -38341   -38357 
  -38323   -38321   -38364   -38383   -38344   -38302   -38325   -38345 
  -38307   -38302   -38350   -38395   -38431   -38468   -38437   -38325 
  -38275   -38294   -38267   -38279   -38353   -38373   -38380   -38396 
  -38372   -38348   -38329   -38335   -38385   -38361   -38287   -38330 
  -38415   -38372   -38292   -38329   -38392   -38367   -38346   -38369 
  -38345   -38300   -38300   -38353   -38395   -38354   -38315   -38368 
  -38412   -38392   -38372   -38349   -38299   -38292   -38340   -38348 
  -38335   -38335   -38344   -38377   -38388   -38361   -38345   -38333 
  -38329   -38344   -38368   -38400   -38385   -38321   -38295   -38310 
  -38337   -38369   -38365   -38338   -38337   -38337   -38341   -38354 
  -38333   -38331   -38358   -38306   -38275   -38399   -38484   -38412 
  -38341   -38329   -38341   -38365   -38372   -38345   -38284   -38265 
  -38337   -38379   -38387   -38431   -38421   -38391   -38441   -38415 
  -38279   -38245   -38296   -38292   -38287   -38337   -38360   -38334 
  -38348   -38408   -38412   -38394   -38419   -38369   -38287   -38311 
  -38313   -38242   -38252   -38302   -38326   -38396   -38477   -38461 
  -38371   -38304   -38302   -38326   -38302   -38260   -38313   -38402 
  -38406   -38381   -38349   -38307   -38362   -38445   -38394   -38284 
  -38223   -38261   -38384   -38414   -38391   -38465   -38468   -38375 
  -38354   -38306   -38219   -38263   -38356   -38323   -38267   -38357 
  -38472   -38406   -38303   -38338   -38357   -38288   -38303   -38394 
  -38411   -38391   -38407   -38380   -38327   -38350   -38346   -38254 
  -38246   -38348   -38410   -38437   -38468   -38395   -38273   -38310 
  -38391   -38304   -38219   -38296   -38334   -38288   -38341   -38442 
  -38453   -38389   -38313   -38268   -38263   -38276   -38331   -38414 
  -38430   -38389   -38373   -38369   -38352   -38358   -38396   -38377 
  -38275   -38253   -38375   -38418   -38376   -38421   -38430   -38322 
  -38264   -38294   -38295   -38267   -38321   -38426   -38449   -38408 
  -38323   -38217   -38252   -38376   -38389   -38353   -38383   -38408 
  -38395   -38375   -38341   -38314   -38313   -38308   -38337   -38406 
  -38395   -38338   -38340   -38372   -38385   -38321   -38272   -38360 
  -38369   -38264   -38337   -38445   -38313   -38217   -38395   -38577 
  -38511   -38333   -38353   -38538   -38503   -38310   -38295   -38350 
  -38371   -38414   -38319   -38122   -38048   -38056   -38053   -38107 
  -38271   -38435   -38497   -38573   -38649   -38527   -38357   -38335 
  -38341   -38354   -38407   -38414   -38369   -38209   -38056   -38203 
  -38376   -38281   -38260   -38448   -38556   -38504   -38448   -38488 
  -38535   -38430   -38272   -38252   -38254   -38180   -38168   -38246 
  -38348   -38439   -38480   -38534   -38676   -38693   -38425   -38171 
  -38144   -38145   -38173   -38383   -38507   -38360   -38234   -38203 
  -38138   -38175   -38358   -38510   -38508   -38384   -38296   -38287 
  -38265   -38265   -38333   -38331   -38263   -38379   -38583   -38545 
  -38427   -38411   -38380   -38391   -38408   -38342   -38330   -38358 
  -38365   -38352   -38250   -38196   -38287   -38354   -38354   -38327 
  -38275   -38323   -38476   -38511   -38399   -38334   -38377   -38375 
  -38277   -38259   -38331   -38290   -38213   -38284   -38327   -38259 
  -38249   -38308   -38392   -38439   -38412   -38462   -38511   -38403 
  -38380   -38464   -38350   -38176   -38250   -38453   -38500   -38399 
  -38361   -38388   -38357   -38364   -38410   -38298   -38182   -38298 
  -38392   -38326   -38340   -38384   -38276   -38173   -38244   -38381 
  -38353   -38210   -38292   -38543   -38596   -38500   -38448   -38394 
  -38326   -38268   -38209   -38203   -38245   -38288   -38338   -38411 
  -38457   -38387   -38299   -38303   -38261   -38183   -38214   -38323 
  -38418   -38429   -38425   -38530   -38595   -38506   -38433   -38400 
  -38317   -38271   -38276   -38284   -38337   -38380   -38341   -38267 
  -38226   -38244   -38256   -38304   -38460   -38531   -38431   -38344 
  -38315   -38284   -38259   -38292   -38345   -38329   -38311   -38349 
  -38364   -38352   -38357   -38381   -38399   -38380   -38408   -38502 
  -38470   -38291   -38192   -38242   -38314   -38379   -38439   -38380 
  -38253   -38259   -38373   -38419   -38365   -38299   -38287   -38362 
  -38470   -38493   -38416   -38329   -38304   -38356   -38407   -38371 
  -38271   -38236   -38313   -38369   -38310   -38276   -38356   -38388 
  -38342   -38321   -38287   -38241   -38265   -38333   -38395   -38422 
  -38411   -38381   -38349   -38392   -38479   -38407   -38280   -38327 
  -38431   -38466   -38468   -38419   -38358   -38325   -38268   -38252 
  -38338   -38400   -38352   -38306   -38327   -38325   -38286   -38286 
  -38311   -38315   -38310   -38340   -38411   -38433   -38380   -38346 
  -38372   -38410   -38407   -38371   -38354   -38307   -38218   -38259 
  -38406   -38408   -38323   -38314   -38299   -38296   -38367   -38389 
  -38348   -38321   -38337   -38414   -38453   -38375   -38298   -38294 
  -38315   -38335   -38326   -38306   -38338   -38399   -38412   -38411 
  -38402   -38322   -38291   -38383   -38403   -38344   -38353   -38380 
  -38354   -38311   -38296   -38337   -38389   -38414   -38423   -38402 
  -38361   -38345   -38327   -38317   -38342   -38367   -38395   -38430 
  -38396   -38298   -38227   -38254   -38327   -38329   -38281   -38302 
  -38369   -38399   -38394   -38373   -38345   -38321   -38325   -38369 
  -38357   -38283   -38291   -38349   -38354   -38353   -38375   -38395 
  -38375   -38318   -38310   -38337   -38331   -38356   -38404   -38383 
  -38330   -38333   -38340   -38298   -38286   -38335   -38396   -38448 
  -38460   -38395   -38307   -38283   -38307   -38303   -38288   -38338 
  -38404   -38410   -38407   -38406   -38350   -38325   -38388   -38391 
  -38300   -38291   -38357   -38364   -38327   -38317   -38322   -38334 
  -38345   -38345   -38362   -38403   -38414   -38372   -38315   -38317 
  -38364   -38364   -38358   -38381   -38357   -38338   -38384   -38400 
  -38361   -38330   -38345   -38368   -38362   -38346   -38322   -38317 
  -38331   -38306   -38299   -38346   -38352   -38333   -38356   -38385 
  -38373   -38315   -38284   -38321   -38362   -38362   -38334   -38318 
  -38331   -38345   -38341   -38349   -38365   -38353   -38337   -38372 
  -38399   -38367   -38380   -38418   -38362   -38311   -38342   -38372 
  -38368   -38348   -38338   -38344   -38337   -38348   -38381   -38402 
  -38381   -38310   -38264   -38300   -38344   -38373   -38387   -38356 
  -38329   -38314   -38300   -38331   -38369   -38364   -38350   -38357 
  -38368   -38371   -38368   -38345   -38290   -38259   -38315   -38392 
  -38395   -38373   -38391   -38389   -38338   -38323   -38352   -38310 
  -38268   -38344   -38410   -38396   -38396   -38394   -38348   -38325 
  -38350   -38383   -38373   -38327   -38322   -38341   -38310   -38299 
  -38354   -38362   -38338   -38361   -38354   -38322   -38356   -38408 
  -38396   -38342   -38321   -38346   -38369   -38388   -38408   -38392 
  -38354   -38329   -38308   -38304   -38308   -38304   -38331   -38391 
  -38415   -38399   -38387   -38394   -38398   -38364   -38317   -38315 
  -38317   -38299   -38313   -38327   -38321   -38340   -38349   -38341 
  -38349   -38331   -38310   -38353   -38371   -38329   -38342   -38394 
  -38375   -38340   -38346   -38331   -38306   -38323   -38341   -38349 
  -38379   -38388   -38345   -38314   -38337   -38361   -38349   -38353 
  -38373   -38364   -38345   -38338   -38338   -38361   -38379   -38350 
  -38323   -38333   -38353   -38360   -38354   -38356   -38375   -38402 
  -38419   -38414   -38379   -38340   -38329   -38325   -38302   -38291 
  -38340   -38392   -38380   -38345   -38344   -38360   -38369   -38362 
  -38333   -38304   -38298   -38307   -38327   -38358   -38373   -38342 
  -38296   -38288   -38326   -38365   -38367   -38338   -38335   -38364 
  -38369   -38356   -38362   -38360   -38334   -38341   -38368   -38371 
  -38357   -38354   -38368   -38373   -38364   -38356   -38357   -38375 
  -38379   -38353   -38344   -38342   -38313   -38322   -38380   -38395 
  -38364   -38338   -38322   -38323   -38349   -38364   -38356   -38349 
  -38356   -38357   -38334   -38330   -38362   -38362   -38331   -38335 
  -38365   -38364   -38344   -38344   -38344   -38338   -38358   -38372 
  -38331   -38299   -38326   -38346   -38334   -38344   -38368   -38357 
  -38323   -38318   -38335   -38346   -38368   -38399   -38403   -38388 
  -38385   -38371   -38342   -38340   -38337   -38321   -38338   -38362 
