Origin Time       2025/03/30 10:46:00
Lat.              32.923
Long.             130.372
Depth. (km)       11
Mag.              3.4
Station Code      NGSH05
Station Lat.      32.9103
Station Long.     130.1408
Station Height(m) -171
Record Time       2025/03/30 10:46:24
Sampling Freq(Hz) 100Hz
Duration Time(s)  120
Dir.              3
Scale Factor      3923(gal)/8224838
Max. Acc. (gal)   0.721
Last Correction   2025/03/30 10:46:24
Memo.             
[...]
  -55609   -55609   -55610   -55609   -55606   -55609   -55610   -55609 
  -55609   -55609   -55606   -55609   -55613   -55610   -55609   -55607 
  -55607   -55613   -55610   -55605   -55610   -55611   -55609   -55609 
  -55607   -55607   -55609   -55607   -55609   -55610   -55611   -55610 
  -55609   -55607   -55607   -55609   -55611   -55609   -55606   -55607 
  -55609   -55609   -55609   -55610   -55610   -55610   -55610   -55610 
  -55610   -55610   -55610   -55613   -55611   -55609   -55607   -55610 
  -55611   -55610   -55607   -55609   -55611   -55610   -55607   -55610 
  -55613   -55611   -55610   -55609   -55610   -55610   -55609   -55609 
  -55611   -55610   -55610   -55610   -55609   -55609   -55610   -55610 
  -55609   -55609   -55609   -55610   -55610   -55611   -55610   -55609 
  -55610   -55611   -55610   -55610   -55609   -55610   -55613   -55611 
  -55609   -55609   -55610   -55609   -55607   -55607   -55607   -55609 
  -55613   -55610   -55609   -55609   -55609   -55613   -55614   -55611 
  -55607   -55607   -55611   -55614   -55611   -55609   -55607   -55607 
  -55610   -55611   -55610   -55609   -55609   -55610   -55610   -55610 
  -55609   -55606   -55607   -55610   -55611   -55610   -55606   -55606 
  -55610   -55613   -55609   -55605   -55609   -55611   -55610   -55609 
  -55611   -55611   -55609   -55609   -55609   -55611   -55615   -55610 
  -55607   -55611   -55609   -55607   -55610   -55609   -55609   -55610 
  -55610   -55610   -55609   -55607   -55610   -55611   -55610   -55609 
  -55609   -55610   -55611   -55609   -55607   -55609   -55610   -55609 
  -55609   -55609   -55610   -55611   -55610   -55609   -55610   -55610 
  -55607   -55609   -55611   -55610   -55609   -55609   -55610   -55610 
  -55610   -55607   -55610   -55613   -55610   -55609   -55613   -55611 
  -55607   -55610   -55610   -55609   -55607   -55609   -55610   -55609 
  -55607   -55610   -55610   -55610   -55611   -55610   -55609   -55609 
  -55611   -55609   -55609   -55610   -55610   -55610   -55611   -55610 
  -55613   -55613   -55610   -55610   -55613   -55610   -55607   -55610 
  -55614   -55611   -55610   -55611   -55610   -55610   -55611   -55610 
  -55607   -55610   -55611   -55610   -55611   -55613   -55607   -55605 
  -55607   -55610   -55609   -55609   -55613   -55609   -55603   -55610 
  -55614   -55609   -55609   -55611   -55607   -55607   -55611   -55613 
  -55609   -55607   -55607   -55607   -55607   -55606   -55607   -55609 
  -55609   -55606   -55607   -55610   -55607   -55606   -55607   -55609 
  -55607   -55607   -55610   -55609   -55605   -55607   -55610   -55607 
  -55607   -55611   -55611   -55609   -55607   -55610   -55611   -55610 
  -55611   -55610   -55609   -55610   -55607   -55606   -55610   -55610 
  -55607   -55607   -55607   -55610   -55610   -55607   -55606   -55606 
  -55610   -55611   -55609   -55607   -55609   -55609   -55609   -55609 
  -55607   -55609   -55610   -55609   -55607   -55610   -55609   -55609 
  -55610   -55609   -55609   -55613   -55611   -55609   -55609   -55610 
  -55610   -55609   -55610   -55610   -55606   -55605   -55609   -55611 
  -55607   -55609   -55613   -55607   -55602   -55610   -55615   -55609 
  -55607   -55611   -55609   -55606   -55609   -55609   -55609   -55610 
  -55609   -55609   -55610   -55611   -55611   -55610   -55609   -55609 
  -55609   -55607   -55607   -55609   -55609   -55607   -55610   -55611 
  -55607   -55607   -55607   -55607   -55610   -55609   -55607   -55609 
  -55609   -55609   -55610   -55607   -55606   -55607   -55609   -55609 
  -55609   -55609   -55607   -55606   -55607   -55609   -55610   -55610 
  -55606   -55603   -55607   -55611   -55606   -55603   -55607   -55609 
  -55607   -55609   -55609   -55607   -55606   -55607   -55609   -55611 
  -55613   -55607   -55605   -55611   -55611   -55609   -55609   -55609 
  -55610   -55611   -55610   -55609   -55610   -55607   -55607   -55611 
  -55610   -55609   -55611   -55609   -55607   -55610   -55609   -55607 
  -55610   -55607   -55609   -55613   -55610   -55607   -55609   -55606 
  -55606   -55611   -55610   -55607   -55607   -55611   -55614   -55610 
  -55606   -55611   -55610   -55607   -55609   -55613   -55614   -55610 
  -55607   -55610   -55611   -55609   -55609   -55610   -55609   -55607 
  -55609   -55611   -55610   -55609   -55610   -55610   -55607   -55607 
  -55610   -55613   -55611   -55607   -55606   -55606   -55609   -55610 
  -55607   -55607   -55609   -55609   -55609   -55610   -55610   -55610 
  -55611   -55610   -55607   -55609   -55609   -55609   -55609   -55606 
  -55607   -55610   -55610   -55607   -55606   -55607   -55609   -55610 
  -55609   -55607   -55609   -55609   -55607   -55609   -55611   -55610 
  -55610   -55610   -55609   -55610   -55610   -55609   -55609   -55611 
  -55609   -55606   -55607   -55607   -55610   -55610   -55605   -55606 
  -55611   -55606   -55605   -55609   -55607   -55607   -55610   -55609 
  -55609   -55610   -55607   -55606   -55609   -55607   -55609   -55611 
  -55610   -55609   -55609   -55609   -55609   -55609   -55609   -55609 
  -55607   -55606   -55606   -55607   -55607   -55609   -55611   -55609 
  -55607   -55609   -55607   -55609   -55611   -55610   -55607   -55607 
  -55609   -55609   -55609   -55609   -55610   -55610   -55607   -55605 
  -55609   -55610   -55609   -55609   -55610   -55609   -55610   -55610 
  -55607   -55610   -55611   -55610   -55610   -55610   -55609   -55610 
  -55614   -55611   -55607   -55609   -55610   -55609   -55607   -55610 
  -55610   -55609   -55609   -55610   -55611   -55610   -55607   -55609 
  -55609   -55607   -55611   -55611   -55607   -55609   -55611   -55609 
  -55606   -55609   -55613   -55610   -55606   -55606   -55609   -55610 
  -55610   -55607   -55607   -55610   -55613   -55611   -55609   -55609 
  -55607   -55609   -55611   -55610   -55610   -55610   -55609   -55611 
  -55610   -55607   -55609   -55610   -55611   -55611   -55607   -55609 
  -55611   -55611   -55610   -55607   -55606   -55609   -55610   -55610 
  -55609   -55610   -55611   -55609   -55607   -55609   -55610   -55607 
  -55610   -55613   -55607   -55606   -55611   -55607   -55605   -55610 
  -55610   -55606   -55607   -55607   -55606   -55610   -55610   -55609 
  -55609   -55606   -55606   -55610   -55610   -55607   -55605   -55609 
  -55611   -55607   -55606   -55607   -55607   -55609   -55607   -55606 
  -55607   -55611   -55610   -55607   -55610   -55610   -55607   -55609 
  -55607   -55607   -55613   -55610   -55609   -55614   -55611   -55607 
  -55609   -55607   -55607   -55611   -55609   -55606   -55610   -55609 
  -55607   -55613   -55611   -55610   -55611   -55610   -55610   -55611 
  -55611   -55610   -55610   -55613   -55613   -55610   -55609   -55610 
  -55610   -55609   -55609   -55607   -55606   -55607   -55609   -55607 
  -55609   -55607   -55607   -55610   -55611   -55610   -55610   -55609 
  -55609   -55610   -55611   -55611   -55609   -55607   -55611   -55610 
  -55607   -55611   -55611   -55609   -55611   -55613   -55610   -55610 
  -55611   -55610   -55610   -55607   -55607   -55610   -55610   -55610 
  -55610   -55610   -55613   -55613   -55610   -55610   -55609   -55607 
  -55609   -55609   -55607   -55609   -55610   -55611   -55609   -55607 
  -55610   -55611   -55610   -55609   -55609   -55610   -55609   -55609 
  -55613   -55611   -55607   -55607   -55611   -55611   -55609   -55607 
  -55609   -55609   -55609   -55610   -55610   -55611   -55610   -55609 
  -55609   -55610   -55610   -55609   -55609   -55611   -55610   -55610 
  -55610   -55610   -55611   -55609   -55607   -55611   -55613   -55610 
  -55606   -55606   -55610   -55613   -55607   -55606   -55609   -55606 
  -55607   -55611   -55610   -55610   -55611   -55610   -55609   -55606 
  -55607   -55609   -55609   -55610   -55611   -55610   -55609   -55606 
  -55607   -55611   -55610   -55607   -55609   -55610   -55605   -55606 
  -55609   -55607   -55609   -55610   -55610   -55609   -55606   -55605 
  -55607   -55609   -55609   -55606   -55606   -55610   -55610   -55607 
  -55607   -55607   -55609   -55606   -55606   -55609   -55605   -55603 
  -55609   -55611   -55609   -55606   -55607   -55607   -55606   -55607 
  -55610   -55610   -55609   -55609   -55607   -55605   -55607   -55610 
  -55609   -55607   -55609   -55609   -55609   -55610   -55610   -55606 
  -55606   -55609   -55610   -55609   -55609   -55610   -55609   -55609 
  -55611   -55611   -55611   -55611   -55609   -55607   -55610   -55611 
  -55611   -55611   -55610   -55607   -55606   -55609   -55609   -55610 
  -55611   -55609   -55610   -55611   -55610   -55611   -55611   -55609 
  -55610   -55611   -55609   -55610   -55610   -55610   -55610   -55609 
  -55609   -55610   -55609   -55609   -55610   -55610   -55610   -55614 
  -55613   -55610   -55611   -55611   -55610   -55610   -55611   -55607 
  -55606   -55609   -55613   -55613   -55609   -55609   -55610   -55607 
  -55610   -55613   -55610   -55607   -55607   -55609   -55611   -55609 
  -55611   -55613   -55610   -55611   -55613   -55613   -55613   -55610 
  -55609   -55610   -55610   -55610   -55609   -55610   -55613   -55614 
  -55615   -55613   -55610   -55609   -55609   -55610   -55610   -55609 
  -55607   -55610   -55613   -55610   -55609   -55611   -55609   -55605 
  -55610   -55611   -55610   -55611   -55611   -55610   -55609   -55607 
  -55609   -55611   -55611   -55610   -55610   -55610   -55609   -55607 
  -55609   -55610   -55607   -55605   -55610   -55610   -55606   -55607 
  -55609   -55609   -55607   -55607   -55610   -55611   -55610   -55611 
  -55613   -55611   -55606   -55607   -55611   -55611   -55610   -55609 
  -55609   -55609   -55609   -55610   -55611   -55611   -55609   -55609 
  -55610   -55609   -55610   -55610   -55607   -55609   -55613   -55610 
  -55607   -55610   -55613   -55609   -55609   -55607   -55607   -55609 
  -55610   -55611   -55610   -55607   -55610   -55610   -55610   -55610 
  -55610   -55610   -55610   -55610   -55611   -55609   -55607   -55609 
  -55610   -55610   -55607   -55610   -55611   -55610   -55611   -55609 
  -55609   -55613   -55613   -55610   -55610   -55609   -55607   -55610 
  -55610   -55609   -55610   -55610   -55609   -55609   -55613   -55611 
  -55607   -55607   -55607   -55609   -55610   -55607   -55607   -55610 
  -55610   -55607   -55607   -55607   -55607   -55610   -55609   -55609 
  -55609   -55607   -55607   -55609   -55609   -55610   -55610   -55607 
  -55606   -55607   -55609   -55609   -55607   -55606   -55607   -55611 
  -55610   -55607   -55609   -55607   -55607   -55610   -55609   -55607 
  -55611   -55611   -55609   -55611   -55610   -55609   -55610   -55610 
  -55610   -55613   -55613   -55610   -55609   -55607   -55607   -55610 
  -55610   -55610   -55613   -55611   -55609   -55614   -55613   -55609 
  -55609   -55610   -55610   -55611   -55610   -55611   -55613   -55610 
  -55610   -55611   -55610   -55609   -55609   -55610   -55607   -55607 
  -55611   -55610   -55609   -55611   -55611   -55609   -55609   -55609 
  -55609   -55610   -55611   -55610   -55609   -55610   -55609   -55610 
  -55609   -55606   -55607   -55610   -55609   -55609   -55610   -55609 
  -55606   -55609   -55610   -55609   -55609   -55607   -55607   -55607 
  -55609   -55609   -55607   -55607   -55609   -55607   -55607   -55609 
  -55610   -55609   -55609   -55610   -55609   -55607   -55609   -55610 
  -55609   -55607   -55609   -55610   -55609   -55610   -55611   -55609 
  -55607   -55607   -55607   -55611   -55610   -55607   -55609   -55611 
  -55613   -55610   -55610   -55611   -55610   -55611   -55613   -55613 
  -55611   -55611   -55610   -55607   -55610   -55610   -55609   -55614 
  -55615   -55609   -55609   -55613   -55611   -55609   -55610   -55613 
  -55610   -55610   -55610   -55607   -55610   -55614   -55610   -55607 
  -55611   -55611   -55609   -55609   -55609   -55610   -55611   -55611 
  -55609   -55607   -55610   -55610   -55611   -55611   -55609   -55610 
  -55613   -55609   -55606   -55610   -55611   -55609   -55610   -55609 
  -55609   -55611   -55609   -55607   -55611   -55611   -55610   -55609 
  -55609   -55610   -55609   -55607   -55609   -55609   -55609   -55609 
  -55610   -55611   -55607   -55605   -55609   -55611   -55609   -55607 
  -55607   -55609   -55610   -55614   -55614   -55610   -55609   -55610 
  -55609   -55609   -55610   -55609   -55609   -55610   -55609   -55607 
  -55609   -55610   -55609   -55607   -55606   -55610   -55611   -55609 
  -55607   -55609   -55611   -55613   -55610   -55609   -55609   -55609 
  -55609   -55609   -55609   -55610   -55609   -55606   -55607   -55610 
  -55607   -55610   -55611   -55607   -55607   -55610   -55607   -55606 
  -55607   -55609   -55609   -55609   -55609   -55609   -55609   -55610 
  -55611   -55607   -55606   -55607   -55606   -55607   -55609   -55606 
  -55607   -55610   -55607   -55605   -55609   -55610   -55609   -55609 
  -55611   -55611   -55611   -55611   -55610   -55607   -55610   -55611 
  -55609   -55609   -55610   -55613   -55613   -55610   -55610   -55611 
  -55610   -55610   -55610   -55607   -55607   -55610   -55607   -55606 
  -55610   -55611   -55611   -55611   -55611   -55611   -55610   -55606 
  -55607   -55610   -55610   -55610   -55609   -55607   -55609   -55613 
  -55611   -55609   -55609   -55609   -55610   -55613   -55611   -55607 
  -55610   -55611   -55607   -55609   -55611   -55613   -55622   -55644 
  -55686   -55768   -55894   -56034   -56130   -56064   -55660   -54858 
  -54098   -54224   -55306   -56170   -56131   -55903   -55894   -55761 
  -55811   -56151   -55996   -55587   -55570   -55275   -54793   -55071 
  -55579   -55788   -55908   -55656   -55468   -55742   -55729   -55553 
  -55516   -55478   -55780   -55952   -55750   -55702   -55333   -54982 
  -55462   -55773   -55613   -55726   -55799   -55842   -56070   -55848 
  -55452   -55421   -55351   -55444   -55734   -55698   -55629   -55590 
  -55378   -55333   -55541   -55757   -55790   -55756   -55636   -55354 
  -55368   -55486   -55422   -55711   -56157   -56093   -55652   -55502 
  -55761   -55663   -55221   -55289   -55667   -55768   -55668   -55417 
  -55340   -55769   -56008   -55621   -55343   -55544   -55771   -55750 
  -55485   -55298   -55590   -55872   -55701   -55553   -55606   -55710 
  -55846   -55692   -55344   -55359   -55549   -55587   -55605   -55520 
  -55506   -55771   -55821   -55624   -55466   -55440   -55752   -56003 
  -55926   -55749   -55255   -54912   -55316   -55791   -55914   -55829 
  -55744   -55757   -55530   -55309   -55524   -55757   -55858   -55786 
  -55368   -55281   -55645   -55702   -55686   -55845   -55678   -55301 
  -55314   -55779   -55910   -55404   -55318   -55825   -55802   -55379 
  -55462   -55740   -55705   -55718   -55655   -55197   -55252   -55926 
  -55971   -55656   -55725   -55656   -55398   -55404   -55572   -55715 
  -55661   -55518   -55718   -55787   -55290   -55286   -55915   -55973 
  -55603   -55582   -55629   -55410   -55478   -55910   -55842   -55374 
  -55225   -55386   -55711   -55875   -55757   -55857   -55881   -55413 
  -55158   -55479   -55915   -55988   -55476   -55094   -55532   -55776 
  -55417   -55634   -56023   -55557   -55220   -55691   -55872   -55475 
  -55615   -56101   -55737   -55144   -55375   -55568   -55271   -55516 
  -56029   -55856   -55549   -55586   -55706   -55692   -55385   -55413 
  -55890   -55726   -55312   -55633   -55934   -55513   -55216   -55737 
  -56181   -55904   -55607   -55453   -55362   -55543   -55470   -55246 
  -55613   -55821   -55445   -55617   -56014   -55664   -55568   -55975 
  -55672   -55188   -55449   -55644   -55485   -55699   -55993   -55609 
  -55125   -55487   -55746   -55298   -55534   -56026   -55640   -55506 
  -55696   -55513   -55667   -55925   -55722   -55540   -55490   -55649 
  -55784   -55333   -55204   -55803   -55772   -55298   -55507   -55740 
  -55642   -55868   -55807   -55117   -55175   -55921   -55953   -55742 
  -55750   -55456   -55394   -55545   -55455   -55651   -55780   -55363 
  -55206   -55601   -56012   -56124   -55934   -55711   -55556   -55435 
  -55485   -55410   -55248   -55632   -55968   -55614   -55305   -55395 
  -55593   -55601   -55377   -55509   -55676   -55205   -55251   -55911 
  -55713   -55530   -56101   -56115   -55861   -56193   -56382   -56101 
  -55900   -55923   -55715   -55182   -54850   -54664   -54406   -54885 
  -55894   -55877   -55301   -55413   -55718   -55957   -56218   -56022 
  -55570   -55502   -55854   -56097   -55908   -55818   -56089   -56092 
  -55817   -55675   -55314   -54876   -54870   -54989   -55170   -55364 
  -55058   -54745   -55088   -55472   -55578   -55935   -56357   -56451 
  -56361   -56115   -56169   -56473   -55941   -55094   -54965   -55046 
  -55317   -55644   -55417   -55452   -55711   -55491   -55734   -56034 
  -55445   -55210   -55537   -55520   -55556   -55742   -55539   -55306 
  -55614   -56114   -56096   -55672   -55630   -55813   -55659   -55606 
  -55749   -55656   -55540   -55429   -55117   -55166   -55728   -55857 
  -55485   -55471   -55717   -55803   -55923   -55854   -55447   -55333 
  -55530   -55506   -55406   -55498   -55647   -55696   -55823   -56079 
  -55954   -55451   -55308   -55634   -55726   -55366   -55235   -55516 
  -55614   -55541   -55528   -55597   -55991   -56143   -55532   -55305 
  -55674   -55386   -55080   -55669   -55738   -55111   -55483   -56247 
  -56058   -55683   -55692   -55696   -55641   -55583   -55487   -55408 
  -55544   -55903   -55822   -55143   -54954   -55476   -55709   -55657 
  -55763   -55657   -55483   -55725   -55848   -55621   -55810   -56111 
  -55746   -55449   -55661   -55557   -55255   -55506   -55837   -55636 
  -55356   -55482   -55761   -55850   -55823   -55675   -55393   -55297 
  -55541   -55817   -55818   -55773   -55798   -55537   -55329   -55505 
  -55475   -55436   -55765   -55668   -55318   -55606   -55827   -55510 
  -55486   -55728   -55827   -55945   -55742   -55267   -55321   -55626 
  -55521   -55390   -55603   -55880   -55838   -55483   -55335   -55564 
  -55647   -55521   -55483   -55441   -55548   -55881   -56042   -55973 
  -55784   -55547   -55479   -55456   -55367   -55503   -55702   -55621 
  -55495   -55402   -55351   -55613   -55872   -55845   -55956   -56079 
  -55741   -55470   -55615   -55526   -55232   -55256   -55320   -55377 
  -55734   -55922   -55583   -55398   -55702   -55887   -55726   -55547 
  -55552   -55756   -55872   -55711   -55532   -55479   -55522   -55649 
  -55726   -55686   -55587   -55431   -55371   -55391   -55237   -55297 
  -55811   -56081   -55917   -55705   -55524   -55466   -55524   -55621 
  -55804   -55807   -55678   -55699   -55624   -55497   -55561   -55561 
  -55540   -55638   -55582   -55431   -55418   -55472   -55598   -55647 
  -55480   -55432   -55599   -55718   -55718   -55775   -55942   -55821 
  -55441   -55426   -55576   -55424   -55381   -55644   -55753   -55692 
  -55713   -55625   -55480   -55621   -55682   -55497   -55744   -56181 
  -56018   -55644   -55580   -55683   -55675   -55397   -55304   -55637 
  -55674   -55372   -55455   -55653   -55549   -55559   -55678   -55591 
  -55505   -55476   -55480   -55613   -55705   -55723   -55688   -55557 
  -55490   -55537   -55703   -55809   -55584   -55435   -55590   -55678 
  -55645   -55568   -55530   -55586   -55429   -55282   -55598   -55803 
