Origin Time       2025/03/30 10:46:00
Lat.              32.923
Long.             130.372
Depth. (km)       11
Mag.              3.4
Station Code      NGSH03
Station Lat.      33.1256
Station Long.     129.8102
Station Height(m) -190
Record Time       2025/03/30 10:46:37
Sampling Freq(Hz) 100Hz
Duration Time(s)  120
Dir.              2
Scale Factor      3923(gal)/8224838
Max. Acc. (gal)   0.212
Last Correction   2025/03/30 10:46:37
Memo.             
[...]
     527      527      526      527      527      525      526      529 
     526      523      523      523      523      526      526      526 
     527      529      527      525      525      526      527      526 
     525      526      526      525      526      527      525      523 
     527      527      525      526      526      523      525      526 
     525      525      526      525      526      527      525      525 
     525      525      526      527      525      526      529      525 
     522      527      527      525      526      526      526      525 
     523      525      525      527      527      523      523      525 
     526      526      523      525      527      527      527      527 
     523      522      525      526      525      525      526      526 
     523      523      529      527      523      525      529      526 
     523      523      523      525      526      527      526      526 
     527      526      525      525      527      527      526      525 
     525      523      526      527      523      525      526      525 
     526      526      523      525      527      526      526      526 
     526      526      526      523      522      527      527      523 
     525      526      526      529      527      525      525      526 
     525      521      522      526      526      525      527      529 
     526      526      526      525      526      529      527      526 
     526      525      525      526      526      525      525      523 
     526      526      526      527      527      525      526      527 
     527      526      526      526      523      522      525      529 
     527      527      529      526      525      526      526      529 
     529      525      523      525      527      527      525      525 
     527      527      527      526      525      523      526      529 
     526      527      529      525      523      523      525      527 
     527      526      527      525      525      529      527      525 
     526      530      529      526      526      525      525      526 
     525      523      525      527      529      527      525      525 
     525      526      526      527      525      525      527      527 
     526      526      525      525      526      526      525      525 
     527      526      523      523      523      525      526      525 
     523      525      526      527      529      527      526      525 
     525      525      523      526      526      526      526      523 
     525      526      521      521      527      526      525      526 
     525      523      523      521      523      526      526      526 
     525      525      525      523      523      523      523      526 
     527      526      526      525      523      523      525      526 
     525      525      525      523      525      525      525      526 
     526      525      526      523      525      527      525      523 
     526      526      525      527      527      523      526      527 
     525      523      523      526      525      523      523      526 
     526      525      527      527      525      523      526      525 
     525      529      527      522      523      525      523      526 
     525      523      527      526      522      525      529      525 
     522      522      523      525      526      526      523      523 
     523      525      526      525      526      527      526      526 
     527      525      526      527      525      526      527      526 
     523      523      525      529      527      523      526      527 
     525      523      523      523      527      529      527      527 
     527      527      527      527      525      522      523      523 
     525      526      527      526      526      527      527      527 
     525      525      527      527      526      525      526      527 
     526      526      526      527      529      526      525      525 
     525      525      526      527      526      525      525      525 
     526      526      523      526      526      525      527      530 
     526      523      527      527      525      526      526      523 
     526      526      525      526      527      526      526      529 
     526      523      526      527      525      525      525      522 
     523      527      527      523      525      527      523      525 
     527      523      522      523      525      523      522      523 
     525      525      525      525      523      523      522      525 
     527      525      522      522      525      525      523      523 
     523      523      525      526      525      525      527      525 
     525      529      527      525      525      523      523      526 
     526      525      525      523      523      526      527      526 
     523      523      523      522      522      523      525      523 
     523      526      526      526      526      525      526      527 
     525      523      525      526      525      525      525      523 
     523      525      527      527      526      525      526      526 
     527      527      525      525      527      525      523      526 
     526      523      526      527      525      525      526      527 
     527      526      525      525      525      525      525      525 
     526      526      525      525      525      526      527      529 
     526      522      526      527      525      525      526      526 
     527      526      527      529      526      525      526      525 
     525      526      526      526      529      529      525      525 
     523      523      526      527      526      526      525      525 
     526      527      525      523      526      527      526      523 
     525      525      525      525      526      525      525      526 
     526      526      526      526      527      526      523      525 
     527      529      527      523      522      523      525      527 
     527      529      529      526      526      526      525      527 
     529      525      525      526      526      527      526      522 
     523      527      526      525      526      526      527      526 
     525      526      527      527      529      529      526      526 
     529      529      527      527      527      527      526      525 
     523      525      526      526      527      527      523      525 
     527      526      525      527      527      527      525      525 
     527      526      525      527      529      526      523      522 
     526      527      525      525      526      523      523      525 
     525      526      527      526      523      525      526      526 
     525      525      525      527      529      529      525      525 
     526      525      525      527      527      526      526      526 
     525      525      526      525      523      525      526      525 
     525      526      526      525      523      522      525      527 
     527      529      530      533      535      538      537      531 
     527      522      517      507      494      483      484      498 
     533      569      560      514      506      552      585      562 
     529      527      527      511      504      486      471      515 
     568      557      534      526      515      519      533      541 
     533      471      438      500      553      545      544      540 
     531      537      542      557      562      533      522      529 
     506      498      507      492      507      552      542      529 
     556      535      479      490      531      544      538      519 
     494      506      554      561      491      477      575      594 
     510      494      530      537      549      534      484      476 
     504      534      569      587      587      535      440      469 
     589      549      446      481      521      515      576      598 
     518      487      510      515      523      519      519      560 
     575      568      568      491      421      488      554      526 
     517      518      487      504      560      561      534      556 
     589      567      534      546      525      449      442      498 
     499      486      510      544      579      567      502      507 
     567      577      561      517      464      508      573      538 
     510      541      544      527      517      521      576      580 
     461      395      464      530      542      525      518      580 
     612      540      488      506      526      542      533      518 
     533      521      502      537      540      521      554      549 
     479      465      515      545      550      541      521      521 
     540      558      567      544      517      531      546      507 
     479      507      527      499      486      522      557      550 
     533      517      475      476      549      561      529      569 
     576      507      521      576      556      515      490      477 
     504      531      545      556      538      506      469      453 
     521      583      545      500      494      496      552      606 
     596      587      548      444      422      515      572      556 
     511      468      479      518      533      579      618      530 
     433      480      553      546      548      548      502      507 
     541      507      486      525      556      573      583      569 
     548      491      419      432      508      531      521      556 
     581      525      484      557      612      548      487      525 
     584      576      504      460      468      463      463      492 
     525      598      643      535      434      492      560      577 
     604      565      487      473      471      446      491      591 
     612      510      441      537      629      542      453      504 
     558      531      494      500      568      599      483      410 
     533      607      540      533      541      483      486      518 
     518      565      581      513      488      507      503      508 
     510      525      579      588      552      538      498      460 
     522      585      560      549      549      499      495      498 
     433      472      591      538      453      533      596      584 
     561      491      502      589      530      469      550      540 
     486      558      549      461      534      575      465      499 
     608      522      452      545      549      481      533      568 
     522      506      488      488      550      561      537      561 
     535      491      544      557      481      502      602      589 
     488      480      546      517      444      473      534      554 
     577      537      467      523      577      498      498      589 
     534      481      579      573      471      490      500      446 
     508      592      568      580      630      571      480      464 
     464      460      507      561      531      471      479      530 
     544      522      541      595      576      486      479      562 
     575      513      504      553      568      550      534      514 
     499      499      475      453      502      558      549      531 
     519      491      499      537      568      591      569      546 
     577      544      465      513      558      495      486      521 
     486      473      515      531      530      522      495      503 
     558      569      514      510      564      589      592      561 
     506      513      517      471      506      546      486      498 
     550      502      525      616      553      457      457      460 
     507      591      575      540      560      531      498      529 
     526      496      519      525      487      500      553      556 
     513      514      560      568      565      577      519      459 
     515      557      507      494      521      508      522      542 
     503      518      592      567      503      492      473      479 
     514      506      531      581      562      569      575      519 
     535      537      442      476      558      511      527      584 
     498      461      527      521      527      583      575      546 
     527      491      476      473      500      568      556      514 
     562      580      518      488      490      514      550      517 
     483      525      523      494      556      596      523      488 
     548      553      487      515      585      518      456      556 
     603      544      571      579      473      476      561      506 
     414      448      548      623      606      498      456      544 
     612      558      469      467      471      400      426      556 
     558      530      616      587      488      600      710      608 
     517      486      445      465      479      479      567      592 
     494      473      521      544      567      541      513      530 
     438      341      444      561      594      658      637      511 
     467      471      492      583      627      604      612      583 
     525      533      503      446      496      518      432      425 
     484      484      545      637      569      498      562      564 
     521      572      567      498      498      449      382      461 
     518      409      302      301      317      349      510      712 
     743      712      799      896      945      970      885      735 
     579      348      149       98      113      229      426      538 
     618      742      745      545      275       97      118      326 
     575      710      707      681      633      479      449      688 
     778      572      457      476      445      452      504      575 
     673      549      315      459      696      602      573      730 
     687      542      476      425      469      522      545      739 
     795      481      360      515      438      305      391      438 
     383      318      261      430      750      774      588      587 
     691      645      538      544      546      411      330      402 
     483      550      522      337      287      396      399      521 
     796      770      654      766      704      527      638      711 
     580      567      576      469      387      294      255      449 
     684      697      579      571      633      480      324      521 
     588      318      363      573      402      326      537      530 
     541      797      797      576      533      498      461      645 
     711      437      232      321      514      670      747      734 
     653      545      479      409      253      203      357      500 
     608      668      495      353      588      834      741      569 
     494      434      418      472      552      612      603      584 
     571      504      491      498      332      233      456      687 
     734      746      692      591      579      513      334      278 
     371      495      650      714      596      504      476      380 
     413      630      645      468      450      530      518      452 
     378      375      511      661      733      714      553      444 
     533      519      426      584      696      534      500      571 
     480      456      527      494      471      513      595      695 
     549      302      419      577      464      534      741      622 
     427      395      317      318      538      643      556      557 
     630      595      494      450      541      668      629      515 
     568      639      510      379      417      445      407      456 
     576      635      626      604      554      476      449      504 
     541      508      487      527      557      538      571      650 
     638      575      568      572      511      384      297      390 
     565      629      602      542      473      503      576      513 
     438      496      533      533      589      553      450      460 
     450      405      531      692      677      573      479      494 
     603      584      514      577      575      460      442      449 
     423      461      494      521      572      522      487      580 
     588      579      695      653      454      410      427      436 
     533      538      438      477      533      508      583      660 
     615      621      630      504      436      506      529      480 
     460      473      530      594      558      479      484      504 
     453      403      407      477      611      707      669      560 
     519      592      656      600      511      464      406      369 
     406      453      496      556      562      552      602      618 
     545      486      459      449      502      560      568      602 
     658      635      556      523      530      475      396      419 
     487      494      471      421      373      438      533      565 
     639      719      666      595      599      580      561      589 
     562      496      495      496      465      461      463      459 
     463      453      483      567      580      510      488      506 
     514      564      610      564      527      552      522      475 
     518      568      540      483      448      453      481      503 
     545      610      600      541      562      615      600      579 
     560      502      476      475      441      441      479      518 
     592      621      561      542      525      457      459      481 
     450      504      591      576      556      527      461      502 
     577      544      538      564      514      529      618      589 
     521      542      533      459      454      500      498      502 
     530      513      502      546      556      513      494      522 
     572      591      565      535      495      453      473      499 
     484      494      499      473      486      514      526      553 
     562      540      522      507      517      553      546      531 
     548      531      521      549      553      542      526      491 
     513      557      544      554      579      522      486      517 
     518      533      572      538      510      558      565      523 
     521      527      521      531      517      461      456      510 
     537      521      495      480      500      544      560      565 
     575      548      519      534      535      523      546      558 
     550      577      564      467      432      492      517      521 
     576      596      537      494      513      553      571      540 
     502      506      503      465      463      495      494      484 
     517      556      572      562      553      580      589      554 
     549      564      527      488      500      507      502      498 
     468      457      488      480      457      517      591      588 
     557      567      580      560      531      514      492      494 
     533      553      550      552      525      490      498      508 
     499      499      502      508      538      550      515      476 
     480      548      610      587      540      529      525      544 
     579      556      523      525      498      457      459      481 
