Origin Time       2025/03/30 10:46:00
Lat.              32.923
Long.             130.372
Depth. (km)       11
Mag.              3.4
Station Code      NGSH05
Station Lat.      32.9103
Station Long.     130.1408
Station Height(m) -171
Record Time       2025/03/30 10:46:24
Sampling Freq(Hz) 100Hz
Duration Time(s)  120
Dir.              1
Scale Factor      3923(gal)/8224838
Max. Acc. (gal)   0.716
Last Correction   2025/03/30 10:46:24
Memo.             
[...]
  -19673   -19670   -19673   -19673   -19674   -19674   -19672   -19672 
  -19672   -19668   -19672   -19676   -19673   -19673   -19674   -19673 
  -19674   -19674   -19672   -19672   -19673   -19674   -19673   -19673 
  -19676   -19674   -19674   -19673   -19672   -19672   -19672   -19674 
  -19674   -19674   -19673   -19673   -19673   -19673   -19674   -19673 
  -19672   -19672   -19672   -19673   -19673   -19672   -19673   -19677 
  -19677   -19673   -19673   -19674   -19673   -19673   -19676   -19674 
  -19672   -19673   -19674   -19673   -19672   -19672   -19673   -19673 
  -19670   -19672   -19674   -19673   -19672   -19676   -19676   -19670 
  -19673   -19677   -19672   -19672   -19676   -19670   -19672   -19676 
  -19672   -19672   -19674   -19673   -19672   -19673   -19673   -19673 
  -19673   -19673   -19672   -19672   -19676   -19674   -19672   -19674 
  -19677   -19672   -19669   -19673   -19676   -19676   -19674   -19673 
  -19672   -19673   -19673   -19673   -19674   -19676   -19674   -19670 
  -19672   -19674   -19673   -19672   -19674   -19676   -19674   -19673 
  -19672   -19669   -19670   -19674   -19674   -19672   -19673   -19674 
  -19674   -19672   -19672   -19674   -19676   -19673   -19670   -19672 
  -19673   -19672   -19669   -19670   -19672   -19673   -19673   -19672 
  -19670   -19670   -19672   -19673   -19674   -19674   -19670   -19670 
  -19673   -19673   -19674   -19676   -19672   -19669   -19672   -19672 
  -19672   -19672   -19672   -19673   -19674   -19672   -19673   -19674 
  -19672   -19670   -19673   -19673   -19673   -19673   -19673   -19672 
  -19672   -19670   -19672   -19673   -19672   -19673   -19674   -19672 
  -19669   -19672   -19672   -19673   -19674   -19672   -19672   -19673 
  -19670   -19669   -19672   -19672   -19670   -19672   -19673   -19676 
  -19674   -19670   -19673   -19674   -19670   -19670   -19673   -19674 
  -19676   -19674   -19672   -19672   -19674   -19673   -19672   -19672 
  -19672   -19672   -19672   -19673   -19673   -19672   -19672   -19673 
  -19670   -19670   -19674   -19673   -19670   -19674   -19674   -19672 
  -19670   -19669   -19670   -19674   -19674   -19674   -19672   -19669 
  -19673   -19672   -19669   -19672   -19673   -19673   -19674   -19674 
  -19674   -19672   -19672   -19670   -19669   -19673   -19676   -19670 
  -19672   -19673   -19670   -19672   -19674   -19673   -19670   -19670 
  -19670   -19672   -19672   -19672   -19674   -19676   -19672   -19673 
  -19676   -19672   -19670   -19672   -19672   -19677   -19676   -19670 
  -19672   -19676   -19674   -19674   -19674   -19674   -19672   -19668 
  -19672   -19673   -19670   -19673   -19673   -19673   -19674   -19674 
  -19674   -19674   -19673   -19673   -19673   -19674   -19674   -19674 
  -19673   -19673   -19673   -19674   -19674   -19669   -19669   -19673 
  -19674   -19673   -19673   -19674   -19674   -19674   -19676   -19676 
  -19673   -19674   -19677   -19674   -19673   -19673   -19674   -19673 
  -19672   -19672   -19673   -19672   -19672   -19673   -19672   -19672 
  -19672   -19672   -19674   -19673   -19672   -19673   -19674   -19674 
  -19672   -19672   -19674   -19674   -19672   -19670   -19672   -19674 
  -19672   -19670   -19674   -19673   -19670   -19673   -19674   -19673 
  -19674   -19670   -19672   -19677   -19674   -19670   -19676   -19677 
  -19674   -19674   -19673   -19669   -19670   -19676   -19676   -19674 
  -19672   -19670   -19673   -19674   -19673   -19674   -19674   -19673 
  -19673   -19672   -19673   -19676   -19674   -19672   -19674   -19673 
  -19669   -19672   -19673   -19672   -19674   -19677   -19676   -19673 
  -19672   -19672   -19674   -19672   -19669   -19670   -19670   -19669 
  -19673   -19673   -19672   -19674   -19676   -19670   -19670   -19674 
  -19673   -19673   -19673   -19673   -19672   -19672   -19672   -19673 
  -19672   -19672   -19672   -19673   -19673   -19672   -19670   -19672 
  -19672   -19673   -19674   -19673   -19672   -19674   -19673   -19674 
  -19676   -19673   -19672   -19673   -19674   -19674   -19673   -19670 
  -19672   -19674   -19673   -19670   -19673   -19674   -19672   -19672 
  -19674   -19674   -19670   -19670   -19673   -19673   -19670   -19673 
  -19674   -19672   -19673   -19674   -19673   -19672   -19669   -19670 
  -19674   -19673   -19672   -19673   -19674   -19670   -19670   -19673 
  -19673   -19670   -19673   -19674   -19674   -19674   -19672   -19669 
  -19670   -19672   -19670   -19672   -19674   -19673   -19672   -19674 
  -19674   -19672   -19674   -19674   -19670   -19672   -19673   -19672 
  -19673   -19673   -19669   -19672   -19676   -19674   -19673   -19670 
  -19669   -19670   -19670   -19672   -19676   -19673   -19670   -19672 
  -19673   -19670   -19672   -19673   -19673   -19674   -19673   -19672 
  -19673   -19672   -19670   -19672   -19674   -19676   -19676   -19674 
  -19674   -19673   -19672   -19670   -19670   -19673   -19676   -19674 
  -19672   -19673   -19673   -19670   -19672   -19674   -19674   -19674 
  -19673   -19670   -19670   -19673   -19674   -19674   -19674   -19672 
  -19674   -19676   -19674   -19673   -19673   -19676   -19676   -19672 
  -19672   -19676   -19673   -19672   -19672   -19672   -19670   -19670 
  -19670   -19672   -19672   -19670   -19672   -19672   -19672   -19674 
  -19672   -19672   -19673   -19672   -19672   -19673   -19670   -19669 
  -19673   -19673   -19673   -19673   -19673   -19670   -19670   -19674 
  -19674   -19672   -19673   -19673   -19672   -19672   -19673   -19673 
  -19672   -19672   -19673   -19673   -19673   -19673   -19674   -19674 
  -19672   -19673   -19676   -19673   -19673   -19674   -19672   -19670 
  -19672   -19673   -19672   -19672   -19670   -19672   -19673   -19672 
  -19670   -19673   -19673   -19672   -19672   -19672   -19673   -19674 
  -19676   -19674   -19672   -19673   -19674   -19672   -19673   -19673 
  -19672   -19673   -19672   -19670   -19672   -19672   -19672   -19673 
  -19674   -19674   -19674   -19674   -19674   -19673   -19673   -19673 
  -19672   -19673   -19672   -19669   -19672   -19677   -19676   -19672 
  -19669   -19670   -19673   -19674   -19673   -19673   -19672   -19673 
  -19674   -19674   -19673   -19673   -19673   -19674   -19673   -19673 
  -19674   -19674   -19674   -19673   -19673   -19674   -19673   -19673 
  -19676   -19677   -19673   -19672   -19674   -19672   -19672   -19673 
  -19673   -19674   -19673   -19672   -19673   -19674   -19672   -19674 
  -19676   -19670   -19669   -19673   -19676   -19673   -19673   -19673 
  -19674   -19677   -19676   -19673   -19670   -19672   -19673   -19673 
  -19674   -19673   -19672   -19673   -19674   -19673   -19672   -19676 
  -19677   -19672   -19669   -19673   -19674   -19673   -19673   -19674 
  -19677   -19676   -19673   -19672   -19673   -19677   -19676   -19673 
  -19674   -19676   -19673   -19673   -19673   -19672   -19676   -19676 
  -19672   -19673   -19673   -19672   -19672   -19673   -19673   -19672 
  -19670   -19674   -19674   -19673   -19672   -19673   -19674   -19673 
  -19673   -19674   -19673   -19673   -19674   -19672   -19669   -19673 
  -19674   -19672   -19672   -19673   -19672   -19673   -19674   -19674 
  -19674   -19674   -19672   -19672   -19672   -19673   -19676   -19673 
  -19672   -19673   -19674   -19673   -19674   -19674   -19673   -19673 
  -19672   -19670   -19672   -19673   -19672   -19670   -19673   -19674 
  -19672   -19669   -19672   -19674   -19673   -19672   -19673   -19673 
  -19672   -19672   -19672   -19672   -19674   -19676   -19676   -19673 
  -19669   -19669   -19673   -19672   -19670   -19672   -19670   -19670 
  -19673   -19674   -19674   -19672   -19672   -19673   -19673   -19669 
  -19672   -19672   -19670   -19672   -19670   -19669   -19674   -19676 
  -19670   -19668   -19672   -19676   -19676   -19674   -19672   -19672 
  -19676   -19676   -19672   -19669   -19670   -19669   -19670   -19673 
  -19673   -19672   -19672   -19672   -19670   -19672   -19673   -19672 
  -19672   -19673   -19670   -19672   -19674   -19673   -19670   -19672 
  -19672   -19670   -19672   -19673   -19674   -19673   -19672   -19672 
  -19673   -19673   -19672   -19674   -19677   -19673   -19672   -19673 
  -19672   -19673   -19673   -19673   -19673   -19673   -19672   -19672 
  -19673   -19672   -19670   -19673   -19673   -19673   -19674   -19673 
  -19672   -19673   -19673   -19672   -19673   -19670   -19670   -19674 
  -19673   -19672   -19676   -19674   -19670   -19672   -19673   -19673 
  -19673   -19673   -19673   -19674   -19674   -19672   -19673   -19674 
  -19672   -19672   -19673   -19673   -19673   -19669   -19669   -19674 
  -19674   -19670   -19674   -19677   -19672   -19669   -19672   -19674 
  -19672   -19670   -19674   -19676   -19674   -19673   -19673   -19672 
  -19670   -19672   -19673   -19672   -19672   -19673   -19672   -19673 
  -19674   -19672   -19670   -19674   -19677   -19676   -19672   -19670 
  -19670   -19672   -19672   -19672   -19673   -19674   -19673   -19672 
  -19673   -19674   -19674   -19673   -19672   -19673   -19674   -19673 
  -19672   -19672   -19674   -19674   -19672   -19673   -19674   -19670 
  -19673   -19674   -19670   -19672   -19674   -19672   -19672   -19673 
  -19672   -19670   -19672   -19672   -19672   -19673   -19672   -19670 
  -19672   -19672   -19670   -19672   -19674   -19673   -19670   -19672 
  -19673   -19672   -19672   -19673   -19670   -19673   -19674   -19673 
  -19672   -19672   -19673   -19674   -19674   -19672   -19672   -19674 
  -19674   -19673   -19672   -19672   -19674   -19673   -19673   -19674 
  -19670   -19669   -19673   -19674   -19673   -19672   -19672   -19672 
  -19672   -19670   -19673   -19674   -19673   -19673   -19673   -19673 
  -19673   -19672   -19672   -19670   -19672   -19673   -19673   -19672 
  -19672   -19673   -19672   -19670   -19672   -19674   -19674   -19672 
  -19672   -19672   -19670   -19673   -19673   -19670   -19672   -19674 
  -19673   -19670   -19672   -19676   -19674   -19670   -19672   -19674 
  -19674   -19673   -19672   -19670   -19672   -19672   -19670   -19672 
  -19673   -19672   -19670   -19672   -19673   -19673   -19672   -19673 
  -19673   -19670   -19670   -19673   -19674   -19672   -19672   -19673 
  -19673   -19673   -19670   -19669   -19673   -19674   -19673   -19672 
  -19673   -19674   -19674   -19673   -19674   -19673   -19669   -19670 
  -19674   -19674   -19673   -19673   -19672   -19672   -19672   -19674 
  -19674   -19672   -19670   -19673   -19674   -19674   -19674   -19674 
  -19674   -19673   -19672   -19673   -19676   -19677   -19673   -19673 
  -19677   -19673   -19664   -19653   -19634   -19608   -19587   -19595 
  -19681   -19835   -19926   -19834   -19647   -19572   -19637   -19674 
  -19630   -19603   -19642   -19689   -19691   -19646   -19618   -19626 
  -19654   -19693   -19731   -19773   -19785   -19692   -19565   -19552 
  -19645   -19719   -19699   -19692   -19746   -19681   -19588   -19697 
  -19754   -19577   -19499   -19627   -19726   -19750   -19735   -19665 
  -19602   -19577   -19606   -19715   -19824   -19885   -19874   -19670 
  -19444   -19498   -19695   -19738   -19669   -19680   -19700   -19629 
  -19545   -19498   -19592   -19749   -19700   -19651   -19796   -19824 
  -19705   -19716   -19780   -19677   -19550   -19678   -19866   -19738 
  -19471   -19406   -19552   -19738   -19750   -19691   -19758   -19724 
  -19570   -19642   -19801   -19674   -19479   -19616   -19854   -19840 
  -19704   -19647   -19685   -19710   -19620   -19560   -19607   -19661 
  -19712   -19696   -19606   -19616   -19677   -19710   -19797   -19762 
  -19569   -19546   -19712   -19768   -19612   -19525   -19696   -19815 
  -19660   -19541   -19707   -19862   -19700   -19533   -19642   -19749 
  -19684   -19637   -19716   -19738   -19608   -19602   -19741   -19697 
  -19580   -19680   -19746   -19615   -19591   -19672   -19689   -19741 
  -19758   -19645   -19566   -19580   -19606   -19710   -19874   -19843 
  -19672   -19711   -19800   -19657   -19487   -19453   -19589   -19770 
  -19673   -19473   -19584   -19789   -19780   -19714   -19716   -19735 
  -19764   -19745   -19669   -19593   -19508   -19488   -19616   -19773 
  -19754   -19651   -19751   -19884   -19701   -19500   -19643   -19826 
  -19764   -19684   -19683   -19557   -19430   -19604   -19886   -19889 
  -19649   -19521   -19678   -19784   -19568   -19462   -19768   -19915 
  -19596   -19415   -19573   -19622   -19573   -19661   -19777   -19782 
  -19714   -19732   -19789   -19691   -19612   -19714   -19759   -19662 
  -19554   -19546   -19657   -19689   -19611   -19662   -19791   -19799 
  -19720   -19724   -19843   -19846   -19677   -19568   -19485   -19337 
  -19380   -19660   -19807   -19714   -19653   -19764   -19774   -19535 
  -19549   -19923   -19928   -19633   -19737   -19935   -19678   -19349 
  -19477   -19811   -19720   -19377   -19460   -19773   -19750   -19629 
  -19803   -19911   -19595   -19403   -19708   -19842   -19583   -19638 
  -20007   -19936   -19529   -19496   -19708   -19645   -19512   -19627 
  -19765   -19689   -19489   -19472   -19731   -19878   -19714   -19569 
  -19661   -19822   -19843   -19773   -19772   -19646   -19307   -19273 
  -19683   -19877   -19650   -19643   -19971   -19923   -19468   -19407 
  -19782   -19878   -19596   -19481   -19661   -19742   -19604   -19529 
  -19589   -19612   -19602   -19704   -19880   -20012   -20071   -19954 
  -19710   -19630   -19649   -19395   -18940   -18748   -18922   -19125 
  -19327   -19650   -19700   -19541   -20013   -20914   -21174   -20947 
  -20783   -20244   -19381   -19043   -19113   -18914   -18777   -19303 
  -19920   -20002   -20029   -20169   -19988   -19641   -19383   -19149 
  -19064   -19296   -19753   -19965   -19557   -19048   -19132   -19484 
  -19561   -19619   -19969   -20372   -20532   -20291   -19727   -19230 
  -19055   -19306   -19851   -19974   -19565   -19580   -20162   -20383 
  -20002   -19750   -19970   -19981   -19431   -19147   -19406   -19352 
  -19035   -19357   -20101   -20401   -20075   -19417   -18887   -19021 
  -19650   -19886   -19616   -19587   -19834   -19805   -19562   -19514 
  -19813   -20264   -20252   -19597   -19228   -19552   -19719   -19477 
  -19359   -19303   -19276   -19691   -20144   -19877   -19467   -19795 
  -20152   -19758   -19357   -19665   -20196   -20231   -19924   -19836 
  -19896   -19819   -19576   -19182   -18968   -19190   -19394   -19252 
  -19197   -19638   -20254   -20317   -19727   -19367   -19803   -20281 
  -19985   -19576   -19867   -20121   -19576   -19018   -19273   -19840 
  -19865   -19384   -19144   -19442   -19751   -19714   -19687   -19913 
  -20071   -19917   -19661   -19527   -19495   -19512   -19631   -19822 
  -19835   -19619   -19608   -19865   -19843   -19535   -19473   -19662 
  -19693   -19557   -19526   -19638   -19742   -19724   -19650   -19677 
  -19782   -19799   -19657   -19511   -19612   -19854   -19785   -19548 
  -19735   -20066   -19882   -19498   -19457   -19565   -19531   -19526 
  -19714   -19826   -19676   -19546   -19552   -19518   -19584   -19930 
  -20190   -19934   -19475   -19500   -19873   -19838   -19437   -19359 
  -19570   -19572   -19462   -19487   -19487   -19508   -19696   -19847 
  -19878   -19888   -19762   -19570   -19629   -19859   -19916   -19730 
  -19581   -19761   -19955   -19664   -19349   -19593   -19872   -19761 
  -19654   -19684   -19646   -19588   -19580   -19539   -19454   -19437 
  -19549   -19685   -19678   -19642   -19824   -20034   -20024   -19961 
  -19866   -19615   -19449   -19506   -19512   -19468   -19552   -19603 
  -19603   -19765   -19889   -19731   -19549   -19614   -19800   -19774 
  -19508   -19472   -19818   -20019   -19861   -19722   -19718   -19639 
  -19522   -19543   -19600   -19535   -19516   -19751   -19992   -19857 
  -19611   -19649   -19660   -19465   -19417   -19534   -19591   -19627 
  -19680   -19685   -19681   -19651   -19556   -19616   -19907   -20007 
  -19769   -19607   -19660   -19665   -19634   -19739   -19826   -19727 
  -19645   -19712   -19766   -19766   -19769   -19689   -19570   -19541 
  -19468   -19315   -19352   -19533   -19597   -19674   -19846   -19865 
  -19747   -19714   -19710   -19680   -19715   -19788   -19866   -19882 
  -19792   -19735   -19741   -19777   -19827   -19697   -19461   -19445 
  -19511   -19419   -19417   -19579   -19597   -19521   -19564   -19660 
  -19842   -20054   -19946   -19633   -19599   -19766   -19696   -19489 
  -19525   -19653   -19619   -19673   -19877   -19815   -19522   -19545 
  -19903   -20019   -19796   -19728   -19884   -19811   -19500   -19390 
  -19510   -19596   -19575   -19496   -19457   -19525   -19650   -19772 
  -19834   -19772   -19650   -19626   -19728   -19819   -19797   -19701 
  -19616   -19550   -19510   -19597   -19792   -19897   -19876   -19812 
  -19707   -19627   -19619   -19581   -19503   -19514   -19687   -19866 
  -19840   -19714   -19691   -19666   -19535   -19521   -19716   -19793 
  -19641   -19579   -19616   -19516   -19419   -19572   -19793   -19797 
  -19741   -19877   -19986   -19804   -19589   -19610   -19647   -19523 
  -19434   -19487   -19561   -19615   -19650   -19650   -19687   -19731 
  -19672   -19612   -19700   -19800   -19809   -19904   -20016   -19823 
  -19523   -19499   -19498   -19340   -19413   -19710   -19753   -19631 
  -19804   -20123   -20090   -19745   -19462   -19399   -19539   -19753 
  -19839   -19762   -19670   -19624   -19577   -19522   -19488   -19526 
  -19666   -19812   -19859   -19850   -19839   -19780   -19664   -19583 
  -19560   -19546   -19592   -19715   -19723   -19566   -19519   -19616 
  -19612   -19546   -19616   -19778   -19867   -19827   -19791   -19880 
  -19889   -19619   -19348   -19376   -19553   -19603   -19557   -19614 
  -19751   -19788   -19737   -19731   -19769   -19732   -19627   -19614 
  -19711   -19789   -19809   -19791   -19778   -19793   -19746   -19596 
  -19503   -19595   -19678   -19566   -19472   -19539   -19558   -19507 
  -19566   -19693   -19778   -19799   -19742   -19727   -19847   -19889 
  -19730   -19585   -19558   -19561   -19637   -19809   -19870   -19716 
  -19591   -19638   -19649   -19535   -19516   -19669   -19795   -19768 
  -19692   -19680   -19684   -19635   -19588   -19620   -19678   -19643 
  -19624   -19749   -19784   -19635   -19620   -19757   -19747   -19635 
  -19614   -19607   -19577   -19626   -19705   -19716   -19693   -19668 
  -19660   -19692   -19673   -19596   -19639   -19808   -19911   -19878 
  -19799   -19712   -19585   -19461   -19429   -19502   -19612   -19664 
  -19657   -19684   -19714   -19700   -19750   -19836   -19792   -19680 
  -19662   -19631   -19496   -19467   -19616   -19726   -19770   -19859 
  -19890   -19785   -19677   -19665   -19695   -19687   -19651   -19618 
  -19568   -19512   -19507   -19537   -19535   -19570   -19741   -19885 
  -19826   -19716   -19743   -19772   -19654   -19530   -19579   -19699 
  -19707   -19666   -19746   -19866   -19808   -19639   -19607   -19685 
  -19681   -19641   -19674   -19689   -19641   -19606   -19595   -19624 
  -19688   -19708   -19680   -19614   -19516   -19512   -19634   -19712 
  -19705   -19746   -19809   -19761   -19668   -19689   -19793   -19789 
  -19689   -19658   -19653   -19580   -19558   -19610   -19638   -19670 
  -19739   -19805   -19857   -19863   -19835   -19777   -19634   -19481 
