Origin Time       2025/03/30 10:46:00
Lat.              32.923
Long.             130.372
Depth. (km)       11
Mag.              3.4
Station Code      NGSH05
Station Lat.      32.9103
Station Long.     130.1408
Station Height(m) 29
Record Time       2025/03/30 10:46:24
Sampling Freq(Hz) 100Hz
Duration Time(s)  120
Dir.              4
Scale Factor      7845(gal)/8223790
Max. Acc. (gal)   3.517
Last Correction   2025/03/30 10:46:24
Memo.             
[...]
  -17872   -17919   -17930   -17903   -17883   -17882   -17907   -17909 
  -17874   -17910   -17960   -17906   -17863   -17884   -17887   -17902 
  -17925   -17906   -17895   -17892   -17901   -17933   -17909   -17863 
  -17875   -17882   -17905   -17955   -17928   -17882   -17886   -17883 
  -17898   -17929   -17913   -17878   -17875   -17895   -17922   -17942 
  -17926   -17875   -17859   -17887   -17914   -17932   -17917   -17874 
  -17865   -17911   -17953   -17930   -17887   -17875   -17871   -17895 
  -17942   -17926   -17884   -17871   -17874   -17911   -17959   -17942 
  -17880   -17848   -17856   -17902   -17973   -17960   -17863   -17826 
  -17882   -17955   -17964   -17906   -17851   -17849   -17902   -17960 
  -17949   -17883   -17845   -17864   -17901   -17933   -17946   -17937 
  -17909   -17849   -17825   -17907   -17969   -17919   -17874   -17895 
  -17921   -17921   -17901   -17879   -17884   -17910   -17909   -17891 
  -17909   -17930   -17921   -17878   -17840   -17879   -17945   -17963 
  -17923   -17865   -17849   -17884   -17926   -17946   -17910   -17855 
  -17859   -17910   -17945   -17948   -17926   -17872   -17829   -17861 
  -17936   -17971   -17929   -17865   -17863   -17884   -17898   -17934 
  -17938   -17883   -17864   -17899   -17929   -17926   -17890   -17872 
  -17888   -17895   -17906   -17930   -17914   -17880   -17886   -17903 
  -17917   -17917   -17895   -17880   -17884   -17911   -17934   -17906 
  -17860   -17875   -17914   -17922   -17930   -17918   -17875   -17868 
  -17896   -17911   -17915   -17906   -17887   -17901   -17929   -17914 
  -17880   -17878   -17884   -17894   -17928   -17940   -17901   -17879 
  -17895   -17899   -17890   -17896   -17902   -17901   -17921   -17938 
  -17911   -17875   -17868   -17875   -17903   -17946   -17941   -17891 
  -17876   -17887   -17884   -17903   -17930   -17906   -17880   -17910 
  -17928   -17902   -17882   -17880   -17887   -17910   -17918   -17910 
  -17906   -17905   -17898   -17888   -17902   -17921   -17896   -17883 
  -17909   -17903   -17901   -17925   -17896   -17861   -17898   -17941 
  -17921   -17879   -17883   -17907   -17911   -17907   -17899   -17892 
  -17898   -17915   -17913   -17891   -17902   -17907   -17888   -17896 
  -17905   -17909   -17922   -17901   -17875   -17888   -17909   -17913 
  -17913   -17914   -17902   -17887   -17884   -17894   -17901   -17911 
  -17929   -17918   -17891   -17888   -17894   -17892   -17896   -17905 
  -17925   -17921   -17896   -17906   -17909   -17880   -17880   -17902 
  -17909   -17910   -17907   -17911   -17914   -17895   -17882   -17886 
  -17892   -17909   -17929   -17922   -17894   -17886   -17895   -17895 
  -17888   -17902   -17919   -17911   -17907   -17909   -17883   -17875 
  -17902   -17917   -17914   -17910   -17903   -17902   -17896   -17886 
  -17891   -17909   -17914   -17910   -17914   -17906   -17883   -17887 
  -17909   -17898   -17891   -17913   -17921   -17910   -17899   -17888 
  -17890   -17902   -17909   -17910   -17907   -17906   -17902   -17891 
  -17890   -17902   -17909   -17911   -17910   -17896   -17890   -17898 
  -17905   -17902   -17896   -17896   -17909   -17914   -17905   -17894 
  -17890   -17887   -17891   -17896   -17909   -17922   -17922   -17907 
  -17890   -17882   -17884   -17896   -17907   -17911   -17913   -17913 
  -17901   -17894   -17896   -17899   -17901   -17902   -17901   -17902 
  -17906   -17909   -17902   -17892   -17898   -17905   -17907   -17905 
  -17892   -17892   -17905   -17905   -17905   -17907   -17905   -17902 
  -17898   -17901   -17906   -17895   -17892   -17906   -17907   -17902 
  -17902   -17896   -17896   -17909   -17911   -17905   -17894   -17891 
  -17902   -17903   -17899   -17910   -17911   -17898   -17894   -17898 
  -17899   -17894   -17896   -17909   -17909   -17898   -17901   -17910 
  -17905   -17896   -17905   -17906   -17891   -17890   -17903   -17911 
  -17911   -17906   -17896   -17891   -17891   -17899   -17909   -17907 
  -17899   -17899   -17903   -17907   -17901   -17898   -17906   -17902 
  -17894   -17898   -17903   -17902   -17901   -17901   -17909   -17909 
  -17901   -17898   -17890   -17891   -17906   -17911   -17910   -17905 
  -17895   -17901   -17905   -17898   -17901   -17907   -17902   -17894 
  -17895   -17899   -17901   -17903   -17902   -17895   -17896   -17909 
  -17914   -17902   -17892   -17892   -17902   -17909   -17905   -17902 
  -17901   -17902   -17905   -17902   -17895   -17894   -17898   -17906 
  -17906   -17907   -17910   -17902   -17891   -17895   -17903   -17905 
  -17899   -17899   -17905   -17905   -17903   -17907   -17902   -17890 
  -17890   -17901   -17906   -17909   -17905   -17901   -17909   -17913 
  -17899   -17891   -17901   -17903   -17896   -17896   -17902   -17902 
  -17905   -17906   -17905   -17909   -17909   -17890   -17883   -17896 
  -17906   -17906   -17907   -17902   -17895   -17902   -17906   -17898 
  -17890   -17898   -17906   -17902   -17905   -17913   -17898   -17887 
  -17903   -17915   -17905   -17891   -17892   -17901   -17901   -17902 
  -17914   -17913   -17895   -17890   -17899   -17898   -17899   -17906 
  -17901   -17899   -17905   -17902   -17903   -17907   -17902   -17898 
  -17898   -17896   -17905   -17907   -17896   -17896   -17902   -17899 
  -17899   -17910   -17915   -17896   -17875   -17887   -17918   -17925 
  -17906   -17888   -17891   -17902   -17905   -17899   -17905   -17913 
  -17905   -17895   -17901   -17903   -17901   -17902   -17901   -17898 
  -17907   -17913   -17898   -17891   -17907   -17906   -17890   -17895 
  -17907   -17906   -17906   -17906   -17896   -17898   -17906   -17903 
  -17903   -17909   -17905   -17896   -17899   -17905   -17906   -17901 
  -17899   -17903   -17907   -17906   -17898   -17890   -17895   -17909 
  -17910   -17899   -17892   -17898   -17907   -17909   -17905   -17901 
  -17899   -17899   -17899   -17903   -17910   -17905   -17898   -17899 
  -17899   -17899   -17902   -17901   -17901   -17909   -17907   -17898 
  -17896   -17902   -17905   -17902   -17898   -17899   -17896   -17892 
  -17903   -17919   -17911   -17894   -17898   -17906   -17899   -17890 
  -17890   -17905   -17919   -17911   -17895   -17902   -17909   -17895 
  -17887   -17895   -17903   -17907   -17910   -17906   -17902   -17896 
  -17892   -17895   -17903   -17899   -17898   -17914   -17913   -17895 
  -17892   -17903   -17903   -17901   -17905   -17903   -17906   -17907 
  -17895   -17895   -17910   -17899   -17892   -17913   -17915   -17903 
  -17901   -17888   -17884   -17909   -17918   -17902   -17895   -17902 
  -17903   -17898   -17898   -17907   -17914   -17906   -17891   -17895 
  -17903   -17890   -17888   -17918   -17928   -17909   -17901   -17896 
  -17882   -17890   -17909   -17905   -17905   -17917   -17910   -17901 
  -17905   -17901   -17894   -17896   -17903   -17903   -17896   -17899 
  -17915   -17918   -17899   -17894   -17909   -17905   -17887   -17895 
  -17909   -17906   -17905   -17907   -17901   -17898   -17901   -17898 
  -17895   -17898   -17903   -17913   -17915   -17902   -17894   -17902 
  -17901   -17887   -17894   -17919   -17918   -17892   -17891   -17907 
  -17905   -17896   -17905   -17907   -17895   -17887   -17898   -17917 
  -17921   -17902   -17887   -17896   -17907   -17903   -17896   -17895 
  -17906   -17919   -17906   -17888   -17901   -17910   -17892   -17886 
  -17905   -17915   -17913   -17903   -17888   -17894   -17914   -17906 
  -17883   -17890   -17915   -17922   -17905   -17887   -17887   -17898 
  -17902   -17907   -17911   -17907   -17905   -17896   -17890   -17898 
  -17907   -17901   -17894   -17909   -17917   -17899   -17886   -17894 
  -17907   -17905   -17892   -17892   -17913   -17921   -17902   -17887 
  -17894   -17902   -17906   -17910   -17903   -17894   -17899   -17909 
  -17899   -17891   -17901   -17909   -17901   -17899   -17909   -17907 
  -17898   -17896   -17896   -17892   -17898   -17911   -17913   -17906 
  -17909   -17907   -17891   -17884   -17898   -17906   -17901   -17903 
  -17909   -17903   -17901   -17905   -17903   -17894   -17895   -17902 
  -17899   -17899   -17907   -17910   -17905   -17901   -17901   -17899 
  -17899   -17905   -17907   -17898   -17896   -17902   -17902   -17903 
  -17911   -17910   -17895   -17888   -17905   -17910   -17891   -17892 
  -17915   -17913   -17894   -17899   -17914   -17911   -17905   -17902 
  -17896   -17898   -17905   -17896   -17899   -17918   -17910   -17890 
  -17894   -17910   -17906   -17892   -17899   -17914   -17905   -17890 
  -17898   -17911   -17906   -17898   -17898   -17901   -17907   -17913 
  -17903   -17894   -17892   -17898   -17906   -17907   -17902   -17902 
  -17905   -17901   -17892   -17894   -17903   -17907   -17907   -17907 
  -17903   -17898   -17899   -17901   -17896   -17895   -17901   -17902 
  -17901   -17910   -17914   -17903   -17896   -17896   -17895   -17899 
  -17902   -17903   -17907   -17911   -17902   -17896   -17903   -17902 
  -17894   -17895   -17901   -17905   -17909   -17907   -17902   -17898 
  -17896   -17896   -17902   -17907   -17905   -17898   -17896   -17899 
  -17903   -17903   -17903   -17903   -17902   -17901   -17901   -17902 
  -17907   -17903   -17895   -17896   -17901   -17902   -17905   -17906 
  -17901   -17898   -17901   -17905   -17903   -17901   -17901   -17905 
  -17905   -17901   -17899   -17901   -17905   -17903   -17903   -17902 
  -17901   -17906   -17907   -17899   -17895   -17899   -17901   -17901 
  -17906   -17910   -17906   -17901   -17899   -17896   -17896   -17903 
  -17907   -17905   -17903   -17902   -17898   -17899   -17906   -17906 
  -17903   -17902   -17898   -17898   -17901   -17903   -17903   -17902 
  -17901   -17901   -17902   -17902   -17902   -17902   -17899   -17901 
  -17902   -17901   -17902   -17902   -17902   -17909   -17909   -17901 
  -17901   -17902   -17896   -17895   -17903   -17906   -17901   -17903 
  -17905   -17899   -17901   -17905   -17902   -17903   -17905   -17898 
  -17896   -17901   -17901   -17901   -17902   -17902   -17905   -17902 
  -17898   -17902   -17903   -17898   -17901   -17906   -17903   -17902 
  -17906   -17906   -17902   -17901   -17899   -17898   -17898   -17898 
  -17906   -17911   -17902   -17892   -17899   -17906   -17905   -17901 
  -17901   -17905   -17909   -17903   -17896   -17901   -17906   -17898 
  -17895   -17906   -17906   -17901   -17907   -17907   -17899   -17902 
  -17902   -17895   -17899   -17905   -17902   -17902   -17905   -17905 
  -17902   -17898   -17895   -17901   -17918   -17953   -18006   -18053 
  -18038   -17913   -17686   -17421   -17239   -17316   -17795   -18488 
  -18882   -18747   -18247   -17721   -17739   -18212   -18018   -17111 
  -16834   -17275   -17631   -18048   -18443   -18501   -18662   -18531 
  -17664   -17420   -18050   -17855   -17099   -17244   -17594   -17629 
  -18516   -19638   -19186   -17811   -16875   -16391   -16627   -17640 
  -18427   -18670   -18883   -18773   -17984   -17520   -17632   -17381 
  -17471   -18210   -17955   -17404   -17975   -18045   -17348   -17606 
  -18279   -18485   -18576   -18573   -18455   -17982   -17101   -16843 
  -17415   -17578   -17150   -17382   -18539   -19535   -19516   -18401 
  -17184   -16860   -16865   -16922   -17556   -18295   -18785   -19057 
  -18775   -18239   -17664   -17026   -16912   -17262   -17724   -18504 
  -19040   -18655   -17957   -17477   -17126   -17104   -17204   -17047 
  -17477   -18742   -19472   -19342   -18898   -17905   -17026   -17242 
  -17566   -17296   -17176   -17374   -17982   -18843   -18662   -17620 
  -17547   -18323   -18419   -17972   -17691   -17419   -17550   -18137 
  -18175   -17895   -17855   -17564   -17469   -18060   -18418   -18311 
  -18239   -17902   -17292   -17053   -17460   -18343   -18939   -18605 
  -17945   -17574   -17231   -17177   -17857   -18407   -18030   -17598 
  -17734   -17915   -18288   -18671   -18158   -17641   -17794   -17491 
  -17352   -18293   -18503   -17529   -17362   -18044   -18256   -18102 
  -18058   -18027   -17977   -17788   -17282   -17074   -17633   -18162 
  -18260   -18397   -18376   -17987   -17760   -17763   -17652   -17582 
  -17837   -18272   -18365   -17771   -17089   -17455   -18470   -18654 
  -18177   -17892   -17660   -17462   -17618   -18002   -18046   -17489 
  -17270   -18144   -18893   -18724   -18654   -18422   -17240   -16634 
  -17248   -17420   -17373   -18310   -18739   -17805   -17490   -18044 
  -18037   -17926   -18033   -17861   -18130   -18678   -18341   -17977 
  -18215   -17544   -16460   -16941   -17891   -17805   -17720   -18102 
  -18463   -18808   -18631   -17972   -17836   -17998   -17955   -18188 
  -18075   -17000   -16625   -17271   -17242   -17266   -18308   -19051 
  -19261   -19230   -18385   -17334   -17012   -17305   -17921   -18227 
  -17605   -17064   -17648   -18318   -18339   -18399   -18358   -17859 
  -17373   -17244   -17460   -17435   -17284   -18214   -19198   -18439 
  -17493   -18134   -19048   -18904   -18108   -17281   -16822   -16818 
  -17011   -17489   -18339   -18972   -18771   -17869   -17105   -17077 
  -17382   -17863   -18792   -19179   -18418   -17917   -18041   -17832 
  -17547   -17281   -16646   -16632   -17720   -18499   -18522   -18887 
  -19241   -18536   -17734   -17678   -17608   -17405   -17394   -17231 
  -17023   -17335   -18102   -18692   -18766   -18666   -18696   -18551 
  -18107   -17887   -17891   -17527   -16880   -15951   -14665   -14644 
  -16806   -19326   -21007   -21589   -20096   -17718   -17555   -19353 
  -19997   -18693   -17130   -16303   -16353   -17022   -17285   -16908 
  -16888   -17289   -17246   -16954   -17809   -20016   -21124   -20054 
  -19349   -19263   -17309   -15134   -16155   -18320   -17613   -15522 
  -15811   -17695   -18534   -18593   -18948   -19192   -18994   -18550 
  -17842   -17370   -17490   -17289   -16587   -16521   -17355   -18792 
  -20142   -19593   -17427   -16513   -17292   -18148   -18785   -18704 
  -17473   -16835   -17567   -18064   -18002   -18292   -18700   -18485 
  -17822   -17583   -17516   -16723   -16387   -17875   -19376   -18603 
  -16659   -16357   -17982   -19539   -20275   -20340   -19233   -17381 
  -16170   -15757   -15643   -16046   -16791   -17397   -18416   -19962 
  -20738   -20162   -19099   -18193   -17309   -16505   -16162   -16572 
  -17741   -18824   -18836   -18090   -17367   -16862   -16735   -16934 
  -16972   -17219   -18539   -20135   -20402   -19503   -18754   -18554 
  -18110   -17000   -16144   -16050   -16411   -17447   -18520   -18435 
  -17976   -18033   -17791   -17471   -18277   -19060   -18250   -17248 
  -17490   -17911   -17637   -17352   -17753   -18700   -19419   -19206 
  -18103   -16980   -16622   -16858   -17365   -18164   -18766   -18544 
  -17872   -17621   -17902   -18146   -18058   -17828   -17774   -17670 
  -17042   -16760   -17888   -19228   -19332   -19022   -18829   -17720 
  -16245   -16198   -17271   -17795   -17502   -17639   -18763   -19543 
  -18962   -18176   -17968   -17069   -15777   -16287   -17975   -18700 
  -18720   -18809   -18922   -19182   -19093   -18181   -17335   -16976 
  -16276   -15557   -16146   -17550   -18291   -18546   -18958   -19388 
  -19719   -19434   -18306   -17460   -17181   -16432   -15627   -16056 
  -17208   -18212   -19414   -20124   -19425   -18752   -18904   -18512 
  -17383   -16506   -16055   -16065   -16929   -18200   -18573   -18064 
  -18126   -18887   -19113   -18547   -17844   -17504   -17628   -17676 
  -17344   -17338   -17880   -18114   -17755   -17485   -17712   -18146 
  -18342   -18180   -17852   -17598   -17706   -18211   -18615   -18565 
  -18269   -18010   -17718   -17151   -16587   -16762   -17825   -18878 
  -18913   -18245   -17844   -17706   -17594   -17876   -18408   -18453 
  -17996   -17562   -17334   -17427   -17876   -18256   -18447   -18650 
  -18353   -17155   -15993   -16147   -17587   -18891   -19051   -18694 
  -18597   -18455   -18141   -18087   -18117   -17813   -17427   -17081 
  -16740   -16993   -17676   -17818   -17902   -18596   -18960   -18685 
  -18748   -19101   -18682   -17406   -16244   -15753   -15886   -16632 
  -17736   -18812   -19692   -20043   -19599   -18763   -18092   -17536 
  -16999   -16838   -17058   -17280   -17379   -17427   -17736   -18365 
  -18620   -18235   -17864   -17923   -18211   -18393   -18328   -17988 
  -17355   -16729   -16704   -17571   -18856   -19645   -19581   -18877 
  -17786   -16949   -16916   -17200   -17159   -17267   -17937   -18187 
  -17528   -17076   -17510   -18353   -18929   -18873   -18601   -18646 
  -18457   -17531   -16711   -16664   -16861   -17285   -18288   -19035 
  -18941   -18640   -18465   -18206   -17724   -17216   -17142   -17462 
  -17834   -18138   -18092   -17671   -17436   -17556   -17705   -17848 
  -18017   -18160   -18500   -18874   -18654   -17996   -17512   -17193 
  -17047   -17307   -17716   -18031   -18373   -18504   -18099   -17564 
  -17474   -17780   -18237   -18439   -17938   -17135   -16787   -17046 
  -17730   -18536   -19109   -19302   -19022   -18297   -17788   -17925 
  -17911   -17325   -16823   -16460   -16154   -16525   -17663   -19033 
  -20089   -20227   -19450   -18422   -17494   -16803   -16586   -16866 
  -17475   -18022   -18029   -17651   -17523   -17786   -18119   -18343 
  -18427   -18318   -18172   -18239   -18378   -18196   -17745   -17517 
  -17609   -17536   -17219   -17350   -18077   -18465   -17982   -17275 
  -17244   -18046   -18810   -18790   -18524   -18508   -18161   -17351 
  -16838   -16846   -17027   -17286   -17686   -18277   -18825   -18659 
  -17840   -17460   -17821   -18158   -18257   -18338   -18216   -17946 
  -17810   -17489   -16977   -17145   -18029   -18507   -18225   -17925 
  -17880   -17753   -17729   -18073   -18311   -18270   -18443   -18712 
  -18445   -17656   -17113   -17373   -17844   -17648   -17339   -17884 
  -18634   -18594   -18250   -18048   -17614   -17280   -17401   -17304 
  -17069   -17502   -18100   -18079   -17946   -18208   -18553   -18582 
  -18118   -17517   -17494   -17887   -18017   -17942   -17892   -17763 
  -17768   -18081   -18180   -17820   -17598   -17699   -17695   -17599 
  -17694   -17928   -18177   -18447   -18615   -18439   -17895   -17301 
  -17254   -17994   -18813   -18928   -18432   -17761   -17157   -16880 
  -17091   -17633   -18195   -18360   -17820   -17045   -17031   -17848 
  -18516   -18679   -18762   -18685   -18265   -17790   -17371   -17224 
  -17614   -17942   -17776   -17695   -17880   -17971   -18081   -18229 
  -17998   -17591   -17574   -17635   -17393   -17435   -18023   -18592 
  -18816   -18648   -18146   -17685   -17440   -17254   -17319   -17905 
  -18490   -18485   -18130   -17829   -17698   -17644   -17514   -17608 
  -18150   -18578   -18374   -17780   -17431   -17651   -18041   -18091 
  -17825   -17648   -17838   -18146   -18199   -18058   -17868   -17582 
  -17298   -17219   -17385   -17689   -17975   -18245   -18650   -19113 
  -19197   -18716   -18056   -17382   -16688   -16472   -16884   -17355 
  -17795   -18412   -18840   -18809   -18546   -18283   -18052   -17725 
  -17285   -16951   -16974   -17355   -17761   -18092   -18621   -19114 
  -18928   -18175   -17632   -17544   -17496   -17444   -17667   -17848 
  -17725   -17763   -17991   -17953   -17887   -18098   -18299   -18284 
