Origin Time       2025/03/30 10:46:00
Lat.              32.923
Long.             130.372
Depth. (km)       11
Mag.              3.4
Station Code      NGSH05
Station Lat.      32.9103
Station Long.     130.1408
Station Height(m) -171
Record Time       2025/03/30 10:46:24
Sampling Freq(Hz) 100Hz
Duration Time(s)  120
Dir.              2
Scale Factor      3923(gal)/8224838
Max. Acc. (gal)   0.657
Last Correction   2025/03/30 10:46:24
Memo.             
[...]
   21290    21289    21289    21290    21290    21292    21289    21286 
   21289    21292    21290    21289    21288    21286    21286    21288 
   21290    21290    21286    21285    21290    21290    21290    21290 
   21288    21289    21290    21289    21289    21289    21288    21290 
   21292    21289    21289    21290    21290    21288    21289    21290 
   21289    21290    21290    21288    21286    21289    21290    21289 
   21289    21292    21292    21289    21290    21290    21289    21289 
   21289    21292    21293    21289    21289    21292    21288    21286 
   21290    21289    21288    21292    21292    21292    21292    21289 
   21289    21290    21292    21290    21286    21286    21289    21290 
   21289    21286    21288    21293    21293    21290    21289    21289 
   21289    21290    21290    21289    21289    21290    21290    21288 
   21288    21290    21292    21292    21289    21289    21290    21289 
   21289    21290    21289    21289    21292    21292    21290    21292 
   21293    21293    21289    21288    21289    21290    21290    21289 
   21290    21292    21289    21288    21289    21289    21289    21289 
   21290    21290    21289    21288    21290    21289    21289    21292 
   21290    21289    21290    21292    21290    21290    21292    21289 
   21288    21288    21288    21289    21289    21289    21290    21290 
   21289    21288    21290    21292    21289    21289    21290    21288 
   21289    21290    21289    21289    21292    21292    21289    21289 
   21290    21289    21289    21290    21290    21290    21289    21286 
   21289    21289    21289    21289    21286    21285    21286    21289 
   21289    21288    21289    21289    21286    21288    21289    21289 
   21288    21288    21288    21288    21289    21290    21290    21288 
   21286    21286    21289    21290    21289    21288    21288    21288 
   21286    21289    21290    21286    21289    21292    21288    21288 
   21289    21286    21285    21289    21290    21286    21286    21288 
   21288    21289    21292    21292    21290    21290    21292    21290 
   21290    21290    21288    21290    21292    21289    21288    21288 
   21286    21289    21292    21290    21289    21290    21289    21289 
   21292    21292    21286    21286    21292    21293    21289    21289 
   21290    21292    21289    21289    21290    21289    21288    21290 
   21289    21289    21289    21288    21289    21290    21288    21288 
   21289    21288    21290    21290    21290    21289    21288    21288 
   21289    21288    21288    21289    21290    21290    21289    21290 
   21292    21289    21290    21290    21289    21289    21290    21292 
   21292    21290    21289    21289    21289    21290    21290    21290 
   21289    21289    21292    21290    21289    21290    21290    21290 
   21289    21288    21289    21292    21290    21288    21290    21292 
   21288    21286    21289    21290    21293    21292    21288    21289 
   21290    21292    21289    21288    21289    21289    21289    21292 
   21290    21288    21290    21290    21290    21292    21290    21288 
   21290    21290    21289    21292    21293    21290    21289    21290 
   21289    21289    21290    21290    21289    21288    21289    21289 
   21289    21290    21289    21289    21290    21290    21290    21289 
   21289    21290    21286    21286    21290    21289    21288    21289 
   21289    21290    21293    21293    21290    21289    21289    21290 
   21289    21286    21289    21290    21289    21288    21289    21290 
   21290    21289    21288    21289    21290    21292    21290    21289 
   21290    21290    21288    21290    21294    21292    21289    21290 
   21289    21289    21290    21290    21290    21289    21288    21292 
   21292    21289    21289    21290    21292    21292    21290    21289 
   21288    21289    21289    21288    21289    21292    21293    21293 
   21293    21293    21290    21289    21292    21292    21289    21292 
   21294    21293    21290    21290    21289    21290    21292    21292 
   21290    21289    21292    21292    21292    21292    21290    21290 
   21293    21290    21292    21292    21290    21292    21293    21290 
   21290    21292    21289    21289    21290    21289    21289    21289 
   21289    21292    21293    21290    21290    21292    21290    21286 
   21288    21290    21290    21292    21294    21290    21289    21292 
   21290    21289    21289    21290    21290    21290    21290    21289 
   21289    21290    21289    21289    21289    21288    21289    21290 
   21288    21289    21290    21288    21288    21289    21288    21288 
   21288    21289    21290    21290    21288    21290    21293    21289 
   21286    21289    21292    21290    21288    21289    21289    21289 
   21290    21289    21289    21292    21290    21288    21288    21288 
   21286    21286    21286    21289    21290    21288    21288    21289 
   21288    21289    21290    21289    21289    21290    21289    21288 
   21288    21289    21290    21290    21289    21288    21289    21288 
   21288    21290    21292    21290    21290    21292    21288    21288 
   21293    21290    21288    21292    21290    21288    21292    21290 
   21288    21289    21289    21290    21293    21290    21289    21290 
   21292    21289    21288    21292    21292    21288    21289    21290 
   21289    21290    21292    21290    21290    21290    21289    21289 
   21292    21293    21290    21290    21290    21288    21288    21292 
   21290    21289    21290    21293    21290    21288    21292    21290 
   21289    21290    21289    21289    21292    21292    21292    21293 
   21292    21288    21288    21290    21290    21289    21290    21292 
   21290    21292    21292    21290    21290    21290    21288    21288 
   21289    21288    21288    21289    21290    21290    21289    21288 
   21290    21290    21290    21289    21289    21289    21289    21290 
   21289    21289    21290    21288    21286    21290    21293    21290 
   21289    21289    21289    21288    21289    21289    21288    21288 
   21289    21289    21288    21288    21289    21292    21289    21289 
   21290    21289    21288    21289    21289    21286    21289    21293 
   21290    21288    21289    21292    21289    21289    21290    21289 
   21286    21286    21289    21290    21290    21289    21288    21289 
   21289    21289    21290    21290    21290    21288    21288    21292 
   21290    21286    21288    21289    21288    21288    21289    21286 
   21286    21289    21289    21289    21290    21289    21285    21286 
   21288    21288    21289    21289    21289    21288    21288    21289 
   21288    21286    21288    21289    21289    21289    21289    21285 
   21285    21288    21288    21288    21290    21289    21289    21292 
   21290    21288    21289    21290    21289    21289    21290    21289 
   21288    21289    21289    21288    21289    21292    21290    21288 
   21290    21292    21288    21289    21290    21290    21290    21290 
   21290    21289    21288    21288    21289    21292    21292    21292 
   21292    21289    21288    21289    21289    21290    21290    21289 
   21290    21290    21290    21290    21290    21289    21290    21290 
   21290    21290    21290    21289    21289    21289    21290    21290 
   21292    21290    21288    21288    21290    21292    21289    21290 
   21292    21288    21286    21289    21290    21292    21292    21290 
   21290    21289    21289    21288    21289    21292    21290    21290 
   21289    21286    21288    21292    21292    21290    21290    21290 
   21288    21290    21292    21288    21290    21293    21290    21289 
   21290    21290    21289    21290    21290    21288    21290    21290 
   21289    21290    21289    21288    21290    21292    21289    21286 
   21289    21292    21290    21290    21292    21292    21289    21286 
   21286    21290    21290    21288    21289    21290    21290    21290 
   21292    21290    21289    21289    21288    21288    21288    21286 
   21288    21289    21289    21289    21289    21290    21290    21288 
   21286    21289    21289    21286    21290    21292    21288    21288 
   21290    21289    21289    21289    21288    21289    21290    21289 
   21290    21288    21290    21294    21292    21288    21289    21288 
   21286    21290    21292    21288    21289    21290    21288    21288 
   21290    21289    21286    21290    21290    21288    21286    21288 
   21289    21289    21288    21289    21290    21288    21290    21292 
   21292    21290    21290    21289    21289    21290    21289    21290 
   21290    21288    21290    21292    21290    21289    21290    21289 
   21286    21289    21294    21290    21286    21290    21292    21290 
   21289    21289    21290    21290    21289    21289    21289    21290 
   21292    21290    21288    21288    21288    21289    21289    21289 
   21292    21290    21288    21288    21290    21290    21290    21289 
   21289    21290    21290    21290    21289    21289    21289    21288 
   21288    21289    21289    21290    21292    21289    21288    21289 
   21289    21289    21289    21289    21290    21289    21286    21286 
   21288    21292    21292    21288    21288    21290    21290    21286 
   21288    21290    21289    21288    21288    21288    21289    21290 
   21289    21290    21290    21289    21289    21288    21288    21289 
   21288    21290    21290    21286    21289    21290    21292    21293 
   21288    21289    21292    21288    21289    21292    21288    21289 
   21292    21289    21289    21290    21289    21288    21288    21289 
   21290    21289    21286    21288    21292    21290    21288    21290 
   21290    21286    21289    21289    21286    21289    21289    21288 
   21290    21289    21288    21289    21289    21290    21290    21289 
   21290    21290    21289    21290    21292    21290    21290    21289 
   21288    21286    21288    21289    21289    21288    21290    21293 
   21290    21288    21290    21290    21288    21288    21288    21288 
   21290    21292    21290    21288    21289    21289    21290    21292 
   21288    21288    21290    21290    21289    21288    21286    21288 
   21289    21288    21288    21290    21290    21288    21288    21289 
   21289    21288    21290    21290    21289    21290    21296    21312 
   21346    21398    21482    21591    21683    21668    21425    20887 
   20299    20229    20879    21547    21512    21141    21157    21442 
   21548    21460    21307    21278    21512    21725    21768    21844 
   21701    21177    20880    20974    20946    20853    21188    21622 
   21293    20677    20985    21639    21540    21195    21173    21219 
   21249    21358    21482    21398    21103    21232    21745    21521 
   20790    20853    21460    21614    21389    21396    21600    21423 
   20942    20869    21284    21463    21190    21255    21644    21438 
   20999    21114    21334    21304    21308    21331    21288    21292 
   21280    21205    21274    21432    21402    21390    21566    21455 
   21038    20976    21262    21265    20970    21014    21451    21567 
   21199    21074    21451    21585    21193    21054    21396    21567 
   21497    21524    21458    21139    20946    21151    21411    21219 
   20846    20991    21510    21687    21357    21011    21135    21444 
   21477    21466    21466    21220    21037    21262    21597    21525 
   21119    20925    21096    21277    21213    21147    21315    21458 
   21397    21335    21369    21398    21409    21436    21424    21254 
   20956    20983    21481    21659    21240    21068    21284    21185 
   20930    21119    21439    21402    21204    21197    21482    21708 
   21447    21104    21230    21423    21325    21258    21321    21352 
   21286    21103    21078    21303    21328    21190    21319    21489 
   21294    21064    21226    21386    21220    21195    21465    21570 
   21334    21085    21188    21455    21348    21064    21203    21475 
   21290    20988    21170    21527    21390    21037    21186    21535 
   21413    21188    21301    21340    21219    21374    21582    21415 
   21236    21351    21384    21236    21190    21154    21046    21105 
   21315    21398    21312    21186    21211    21448    21431    20992 
   20899    21297    21375    21207    21420    21676    21525    21427 
   21671    21713    21174    20690    21097    21867    21670    20812 
   20777    21334    21201    20795    20995    21196    21084    21351 
   21740    21452    20934    21054    21672    22011    21766    21304 
   21033    21170    21513    21512    21176    20989    21143    21424 
   21483    21263    21046    21050    21246    21284    21107    21197 
   21435    21389    21336    21371    21219    21114    21267    21363 
   21363    21417    21244    20889    20999    21467    21560    21378 
   21361    21354    21265    21234    21265    21357    21432    21375 
   21323    21424    21477    21320    21232    21330    21207    20839 
   20864    21234    21246    21037    21122    21357    21514    21632 
   21714    21795    21855    21775    21573    21308    21085    20988 
   21010    21192    21281    21024    20734    20559    20491    20920 
   21645    21786    21305    20993    21288    21991    22314    21556 
   20302    20059    21331    22393    21649    20599    21082    21764 
   21282    21039    21822    22167    21466    20939    21181    21311 
   21014    21123    21552    21230    20248    19913    20839    22071 
   22222    21393    20999    21436    21905    22086    21897    21303 
   20918    20992    21022    20798    20671    21093    21801    21938 
   21519    21217    21238    21458    21509    21115    20831    21082 
   21301    21151    21043    21236    21567    21679    21344    20952 
   21062    21370    21190    20945    21382    21852    21681    21444 
   21388    21184    21076    21168    21136    21316    21840    21768 
   21109    21001    21274    21126    21041    21309    21227    20925 
   21022    21262    21358    21487    21643    21698    21686    21637 
   21541    21359    21226    21269    21231    21047    20972    20929 
   20788    20806    21051    21066    20821    21006    21717    22135 
   21774    21224    21280    21675    21695    21478    21435    21352 
   21092    21039    21209    21095    20806    21031    21636    21841 
   21585    21300    21018    20645    20505    20930    21608    21828 
   21413    20985    21066    21470    21668    21517    21402    21442 
   21251    20935    21192    21890    21960    21236    20746    20891 
   21055    21026    21155    21479    21566    21290    21254    21636 
   21717    21363    21172    21212    21247    21298    21298    21153 
   21015    20964    20997    21219    21444    21409    21319    21338 
   21271    21172    21378    21786    21830    21379    20908    20791 
   20984    21155    21153    21290    21639    21616    21242    21288 
   21625    21608    21347    21186    21208    21300    21205    21049 
   21165    21390    21378    21227    21236    21377    21344    21132 
   21196    21651    21811    21317    20899    21042    21163    20947 
   20884    21143    21334    21308    21313    21477    21625    21595 
   21420    21170    20911    20885    21192    21393    21213    21076 
   21263    21493    21600    21695    21741    21659    21533    21385 
   21162    21004    21046    21219    21324    21186    21018    21130 
   21262    21141    21047    21201    21446    21559    21479    21361 
   21317    21312    21412    21543    21427    21207    21145    21041 
   20892    21033    21352    21481    21375    21215    21174    21332 
   21548    21581    21458    21442    21442    21203    21043    21254 
   21386    21227    21176    21250    21172    21062    21174    21469 
   21664    21568    21292    21065    20980    20937    20899    20952 
   21060    21159    21274    21378    21428    21427    21420    21451 
   21469    21465    21460    21365    21240    21332    21531    21483 
   21230    21069    21132    21321    21452    21506    21541    21452 
   21247    21184    21378    21550    21400    21180    21267    21446 
   21277    20881    20744    20962    21203    21274    21286    21358 
   21496    21577    21425    21170    21184    21451    21595    21514 
   21416    21386    21294    21112    21108    21359    21470    21244 
   20974    20916    21041    21120    21051    21065    21280    21470 
   21501    21396    21196    21085    21216    21415    21450    21377 
   21316    21320    21390    21308    21033    20996    21270    21417 
   21386    21413    21451    21428    21424    21397    21259    21157 
   21235    21269    21076    20918    21016    21231    21397    21477 
   21475    21451    21398    21293    21274    21411    21540    21498 
   21301    21139    21103    21097    21166    21324    21350    21253 
   21253    21317    21320    21286    21307    21366    21332    21212 
   21203    21357    21517    21504    21294    21111    21082    21078 
   21177    21505    21698    21452    21082    21027    21228    21358 
   21409    21537    21516    21193    20943    20997    21138    21250 
   21381    21486    21533    21512    21374    21184    21157    21301 
   21304    21077    20973    21153    21334    21316    21208    21182 
   21259    21352    21458    21574    21579    21498    21475    21442 
   21294    21157    21097    21099    21193    21242    21108    21053 
   21231    21312    21217    21309    21547    21510    21261    21201 
   21312    21270    21112    21095    21223    21342    21432    21469 
   21343    21181    21235    21402    21424    21358    21352    21319 
   21176    21087    21138    21172    21141    21150    21227    21316 
   21379    21401    21409    21416    21359    21274    21266    21331 
   21420    21513    21562    21520    21427    21379    21377    21324 
   21239    21205    21186    21163    21127    21026    20996    21216 
   21448    21394    21216    21153    21154    21149    21184    21251 
   21305    21281    21147    21072    21207    21362    21340    21304 
   21421    21547    21506    21394    21390    21466    21494    21433 
   21320    21255    21305    21382    21342    21204    21136    21186 
   21212    21158    21126    21158    21228    21288    21285    21274 
   21303    21292    21199    21114    21139    21273    21397    21447 
   21455    21432    21375    21324    21296    21290    21282    21209 
   21131    21146    21174    21178    21234    21323    21406    21471 
   21463    21417    21444    21450    21320    21184    21196    21277 
   21267    21199    21162    21103    21042    21135    21370    21552 
   21595    21574    21531    21382    21165    21130    21290    21350 
   21257    21217    21239    21217    21201    21239    21307    21423 
   21524    21459    21294    21217    21212    21166    21111    21174 
   21288    21286    21235    21234    21230    21242    21339    21443 
   21435    21346    21269    21213    21189    21277    21413    21440 
   21371    21204    21010    21076    21336    21358    21165    21124 
   21284    21432    21438    21342    21281    21282    21239    21163 
   21153    21192    21244    21308    21344    21355    21355    21330 
