Origin Time       2025/03/30 10:46:00
Lat.              32.923
Long.             130.372
Depth. (km)       11
Mag.              3.4
Station Code      SAGH02
Station Lat.      33.2656
Station Long.     129.8798
Station Height(m) -71.5
Record Time       2025/03/30 10:46:38
Sampling Freq(Hz) 100Hz
Duration Time(s)  120
Dir.              2
Scale Factor      3923(gal)/8224838
Max. Acc. (gal)   0.231
Last Correction   2025/03/30 10:46:37
Memo.             
[...]
  -33184   -33184   -33183   -33183   -33185   -33187   -33183   -33181 
  -33181   -33180   -33184   -33183   -33183   -33185   -33185   -33183 
  -33184   -33183   -33181   -33183   -33183   -33183   -33184   -33183 
  -33183   -33184   -33183   -33181   -33183   -33183   -33181   -33183 
  -33183   -33181   -33185   -33188   -33184   -33181   -33183   -33183 
  -33185   -33184   -33180   -33181   -33183   -33180   -33184   -33187 
  -33180   -33181   -33185   -33183   -33183   -33185   -33184   -33183 
  -33181   -33183   -33183   -33183   -33184   -33183   -33181   -33184 
  -33185   -33183   -33180   -33180   -33181   -33183   -33181   -33180 
  -33180   -33183   -33185   -33184   -33180   -33181   -33183   -33180 
  -33181   -33185   -33183   -33181   -33183   -33183   -33183   -33183 
  -33183   -33183   -33183   -33183   -33183   -33183   -33183   -33184 
  -33183   -33184   -33187   -33184   -33181   -33183   -33181   -33181 
  -33181   -33180   -33180   -33180   -33180   -33183   -33184   -33183 
  -33180   -33183   -33184   -33184   -33181   -33180   -33181   -33184 
  -33183   -33181   -33181   -33183   -33183   -33183   -33183   -33183 
  -33181   -33183   -33185   -33184   -33183   -33183   -33184   -33184 
  -33185   -33183   -33181   -33184   -33185   -33183   -33183   -33184 
  -33183   -33181   -33183   -33181   -33180   -33184   -33183   -33178 
  -33180   -33181   -33183   -33184   -33185   -33184   -33184   -33185 
  -33185   -33181   -33183   -33184   -33185   -33184   -33180   -33180 
  -33183   -33183   -33185   -33185   -33181   -33181   -33181   -33181 
  -33185   -33185   -33181   -33181   -33184   -33183   -33181   -33181 
  -33183   -33181   -33181   -33181   -33184   -33187   -33187   -33181 
  -33181   -33184   -33184   -33184   -33184   -33181   -33183   -33183 
  -33183   -33185   -33187   -33183   -33180   -33183   -33185   -33184 
  -33181   -33183   -33184   -33181   -33181   -33187   -33187   -33184 
  -33183   -33184   -33184   -33184   -33183   -33181   -33181   -33185 
  -33187   -33183   -33181   -33183   -33184   -33183   -33183   -33184 
  -33183   -33183   -33183   -33184   -33183   -33180   -33180   -33183 
  -33183   -33183   -33184   -33183   -33181   -33181   -33183   -33180 
  -33180   -33185   -33185   -33183   -33184   -33184   -33183   -33183 
  -33181   -33183   -33183   -33181   -33181   -33181   -33180   -33180 
  -33180   -33183   -33184   -33183   -33184   -33184   -33180   -33181 
  -33185   -33184   -33181   -33181   -33183   -33181   -33183   -33184 
  -33180   -33180   -33184   -33183   -33183   -33184   -33184   -33183 
  -33183   -33183   -33181   -33180   -33183   -33183   -33180   -33180 
  -33181   -33183   -33181   -33183   -33185   -33184   -33183   -33185 
  -33184   -33183   -33183   -33183   -33181   -33183   -33183   -33183 
  -33181   -33184   -33184   -33181   -33180   -33184   -33183   -33178 
  -33181   -33185   -33184   -33184   -33184   -33180   -33181   -33184 
  -33183   -33181   -33184   -33184   -33181   -33181   -33183   -33180 
  -33181   -33185   -33181   -33183   -33187   -33181   -33180   -33184 
  -33183   -33180   -33183   -33185   -33181   -33181   -33181   -33178 
  -33184   -33184   -33177   -33181   -33188   -33183   -33183   -33184 
  -33180   -33180   -33185   -33184   -33181   -33183   -33187   -33184 
  -33177   -33181   -33185   -33183   -33181   -33181   -33183   -33184 
  -33183   -33184   -33184   -33180   -33180   -33181   -33183   -33183 
  -33181   -33181   -33181   -33183   -33183   -33183   -33183   -33181 
  -33183   -33185   -33181   -33180   -33183   -33184   -33180   -33180 
  -33184   -33184   -33181   -33181   -33183   -33178   -33178   -33183 
  -33184   -33181   -33183   -33184   -33181   -33181   -33183   -33181 
  -33181   -33183   -33184   -33183   -33183   -33181   -33181   -33181 
  -33181   -33183   -33183   -33183   -33183   -33183   -33178   -33178 
  -33183   -33183   -33183   -33180   -33178   -33181   -33183   -33181 
  -33181   -33181   -33181   -33180   -33180   -33181   -33181   -33181 
  -33184   -33183   -33180   -33181   -33181   -33181   -33181   -33183 
  -33181   -33181   -33184   -33183   -33178   -33181   -33181   -33183 
  -33184   -33183   -33183   -33183   -33180   -33180   -33181   -33180 
  -33180   -33183   -33184   -33184   -33184   -33181   -33178   -33183 
  -33185   -33180   -33178   -33185   -33184   -33180   -33183   -33184 
  -33181   -33181   -33183   -33181   -33181   -33185   -33183   -33180 
  -33184   -33184   -33181   -33183   -33181   -33181   -33185   -33183 
  -33178   -33183   -33185   -33183   -33184   -33185   -33181   -33181 
  -33185   -33183   -33178   -33183   -33183   -33183   -33184   -33183 
  -33181   -33184   -33184   -33181   -33183   -33184   -33181   -33183 
  -33185   -33184   -33183   -33183   -33180   -33180   -33184   -33183 
  -33178   -33183   -33185   -33180   -33178   -33183   -33183   -33180 
  -33181   -33183   -33183   -33184   -33181   -33181   -33181   -33180 
  -33180   -33181   -33184   -33183   -33180   -33183   -33183   -33178 
  -33181   -33185   -33181   -33177   -33181   -33184   -33181   -33178 
  -33180   -33183   -33183   -33183   -33183   -33181   -33183   -33184 
  -33184   -33183   -33178   -33181   -33184   -33180   -33180   -33184 
  -33184   -33181   -33180   -33178   -33183   -33183   -33183   -33185 
  -33184   -33183   -33184   -33183   -33183   -33185   -33183   -33181 
  -33184   -33184   -33183   -33180   -33178   -33183   -33185   -33181 
  -33180   -33181   -33181   -33183   -33184   -33180   -33180   -33183 
  -33181   -33181   -33183   -33181   -33181   -33184   -33183   -33181 
  -33184   -33183   -33183   -33183   -33180   -33178   -33183   -33184 
  -33183   -33181   -33183   -33181   -33181   -33183   -33183   -33181 
  -33184   -33184   -33180   -33183   -33184   -33181   -33181   -33181 
  -33181   -33183   -33183   -33180   -33180   -33181   -33180   -33181 
  -33183   -33181   -33181   -33184   -33184   -33183   -33181   -33181 
  -33181   -33181   -33185   -33185   -33181   -33181   -33183   -33183 
  -33183   -33181   -33184   -33187   -33183   -33180   -33181   -33181 
  -33181   -33184   -33184   -33184   -33185   -33185   -33181   -33181 
  -33181   -33181   -33183   -33183   -33183   -33183   -33184   -33180 
  -33178   -33183   -33184   -33183   -33183   -33184   -33184   -33181 
  -33180   -33183   -33183   -33183   -33181   -33181   -33184   -33184 
  -33183   -33184   -33184   -33181   -33183   -33181   -33181   -33183 
  -33181   -33180   -33183   -33183   -33181   -33181   -33185   -33184 
  -33184   -33187   -33183   -33178   -33181   -33184   -33183   -33183 
  -33184   -33181   -33184   -33185   -33183   -33181   -33181   -33180 
  -33181   -33183   -33185   -33183   -33181   -33181   -33181   -33184 
  -33183   -33181   -33181   -33181   -33181   -33183   -33183   -33184 
  -33184   -33185   -33185   -33180   -33177   -33178   -33180   -33183 
  -33185   -33184   -33183   -33184   -33185   -33183   -33181   -33183 
  -33169   -33165   -33199   -33205   -33145   -33146   -33238   -33247 
  -33176   -33146   -33137   -33157   -33230   -33215   -33116   -33138 
  -33242   -33241   -33162   -33143   -33200   -33231   -33177   -33138 
  -33177   -33183   -33161   -33207   -33199   -33127   -33192   -33257 
  -33156   -33149   -33249   -33174   -33103   -33207   -33214   -33129 
  -33168   -33199   -33169   -33210   -33226   -33160   -33147   -33181 
  -33192   -33210   -33201   -33139   -33139   -33214   -33197   -33116 
  -33153   -33246   -33220   -33139   -33165   -33246   -33211   -33131 
  -33188   -33250   -33141   -33088   -33214   -33215   -33111   -33208 
  -33299   -33153   -33097   -33219   -33216   -33166   -33214   -33185 
  -33133   -33201   -33195   -33107   -33172   -33257   -33181   -33151 
  -33223   -33195   -33145   -33189   -33166   -33146   -33270   -33250 
  -33069   -33156   -33300   -33119   -33053   -33277   -33258   -33092 
  -33188   -33258   -33160   -33170   -33188   -33126   -33195   -33227 
  -33097   -33150   -33293   -33183   -33126   -33264   -33181   -33057 
  -33216   -33268   -33129   -33195   -33276   -33142   -33129   -33235 
  -33181   -33129   -33189   -33188   -33177   -33207   -33172   -33180 
  -33249   -33156   -33052   -33184   -33282   -33185   -33169   -33219 
  -33139   -33127   -33228   -33189   -33129   -33223   -33250   -33147 
  -33133   -33204   -33222   -33181   -33146   -33183   -33228   -33172 
  -33145   -33231   -33234   -33145   -33150   -33187   -33158   -33177 
  -33216   -33187   -33184   -33214   -33168   -33135   -33162   -33154 
  -33166   -33223   -33193   -33160   -33214   -33203   -33157   -33216 
  -33214   -33103   -33133   -33243   -33201   -33162   -33224   -33184 
  -33095   -33162   -33251   -33220   -33165   -33139   -33177   -33246 
  -33199   -33124   -33168   -33165   -33127   -33204   -33237   -33195 
  -33246   -33235   -33114   -33133   -33200   -33150   -33142   -33177 
  -33160   -33197   -33238   -33173   -33177   -33246   -33172   -33106 
  -33218   -33261   -33153   -33135   -33200   -33178   -33123   -33141 
  -33204   -33220   -33177   -33212   -33278   -33154   -33048   -33215 
  -33292   -33107   -33102   -33250   -33183   -33127   -33258   -33230 
  -33115   -33208   -33239   -33115   -33177   -33254   -33107   -33104 
  -33274   -33215   -33099   -33220   -33282   -33133   -33093   -33242 
  -33250   -33088   -33111   -33277   -33210   -33069   -33189   -33270 
  -33129   -33158   -33327   -33214   -33039   -33166   -33265   -33119 
  -33097   -33253   -33253   -33178   -33220   -33197   -33093   -33133 
  -33196   -33137   -33169   -33276   -33210   -33137   -33210   -33196 
  -33116   -33192   -33259   -33169   -33147   -33188   -33116   -33129 
  -33278   -33246   -33111   -33173   -33234   -33135   -33142   -33247 
  -33211   -33156   -33199   -33188   -33149   -33185   -33207   -33188 
  -33168   -33160   -33192   -33193   -33151   -33200   -33239   -33170 
  -33184   -33231   -33135   -33087   -33196   -33243   -33170   -33130 
  -33208   -33276   -33169   -33072   -33177   -33234   -33178   -33220 
  -33201   -33087   -33184   -33312   -33180   -33097   -33193   -33195 
  -33156   -33189   -33170   -33174   -33250   -33203   -33116   -33204 
  -33273   -33166   -33110   -33199   -33223   -33143   -33145   -33210 
  -33168   -33123   -33187   -33191   -33141   -33192   -33237   -33212 
  -33208   -33168   -33135   -33193   -33197   -33165   -33199   -33158 
  -33134   -33249   -33216   -33085   -33196   -33282   -33139   -33143 
  -33258   -33164   -33073   -33177   -33258   -33222   -33177   -33173 
  -33185   -33160   -33134   -33200   -33249   -33176   -33146   -33203 
  -33193   -33170   -33191   -33149   -33147   -33227   -33165   -33114 
  -33258   -33258   -33107   -33162   -33219   -33134   -33203   -33266 
  -33120   -33127   -33280   -33211   -33116   -33188   -33176   -33119 
  -33195   -33224   -33174   -33210   -33224   -33133   -33115   -33197 
  -33218   -33165   -33156   -33204   -33214   -33154   -33153   -33239 
  -33243   -33160   -33146   -33156   -33127   -33162   -33226   -33208 
  -33184   -33207   -33203   -33188   -33181   -33134   -33134   -33215 
  -33205   -33138   -33176   -33191   -33126   -33176   -33270   -33220 
  -33165   -33199   -33192   -33180   -33215   -33162   -33077   -33134 
  -33196   -33172   -33200   -33214   -33158   -33196   -33241   -33149 
  -33154   -33277   -33219   -33097   -33156   -33189   -33110   -33150 
  -33273   -33269   -33195   -33165   -33149   -33126   -33157   -33237 
  -33237   -33158   -33180   -33232   -33135   -33111   -33276   -33249 
  -33062   -33138   -33265   -33145   -33124   -33280   -33205   -33077 
  -33204   -33237   -33085   -33161   -33295   -33176   -33142   -33268 
  -33195   -33085   -33192   -33259   -33161   -33107   -33158   -33212 
  -33191   -33180   -33258   -33228   -33091   -33146   -33227   -33120 
  -33160   -33309   -33176   -33030   -33189   -33285   -33162   -33156 
  -33257   -33200   -33110   -33185   -33245   -33156   -33104   -33160 
  -33200   -33234   -33272   -33203   -33095   -33142   -33230   -33158 
  -33099   -33180   -33212   -33177   -33203   -33215   -33193   -33208 
  -33189   -33130   -33135   -33196   -33245   -33223   -33149   -33162 
  -33219   -33180   -33164   -33192   -33153   -33201   -33292   -33127 
  -32999   -33211   -33307   -33142   -33165   -33272   -33170   -33130 
  -33200   -33146   -33138   -33222   -33162   -33139   -33266   -33224 
  -33092   -33146   -33215   -33193   -33195   -33189   -33195   -33220 
  -33142   -33104   -33238   -33281   -33189   -33184   -33169   -33104 
  -33168   -33210   -33119   -33160   -33273   -33192   -33107   -33196 
  -33218   -33138   -33157   -33219   -33201   -33176   -33173   -33164 
  -33170   -33187   -33196   -33207   -33192   -33183   -33201   -33183 
  -33158   -33184   -33169   -33141   -33211   -33243   -33168   -33165 
  -33199   -33137   -33147   -33243   -33214   -33141   -33166   -33184 
  -33183   -33188   -33142   -33154   -33241   -33201   -33141   -33224 
  -33234   -33130   -33138   -33174   -33150   -33191   -33214   -33150 
  -33176   -33254   -33234   -33211   -33223   -33165   -33115   -33153 
  -33176   -33141   -33103   -33110   -33168   -33227   -33230   -33218 
  -33234   -33226   -33177   -33164   -33156   -33080   -33041   -33104 
  -33164   -33234   -33377   -33442   -33372   -33377   -33447   -33315 
  -33031   -32857   -32761   -32697   -32830   -33110   -33291   -33353 
  -33370   -33355   -33384   -33430   -33347   -33201   -33135   -33080 
  -32989   -32975   -33012   -33025   -33116   -33311   -33404   -33350 
  -33316   -33316   -33204   -33021   -33053   -33347   -33430   -33119 
  -32953   -33091   -33068   -33011   -33351   -33629   -33357   -33033 
  -33079   -33214   -33265   -33242   -33039   -32852   -32996   -33223 
  -33185   -33147   -33270   -33200   -33057   -33307   -33532   -33210 
  -32934   -33141   -33297   -33253   -33289   -33203   -32958   -32975 
  -33158   -33197   -33214   -33232   -33130   -33042   -33139   -33381 
  -33469   -33164   -32899   -33119   -33300   -33069   -33030   -33307 
  -33334   -33219   -33226   -33089   -32992   -33243   -33385   -33253 
  -33301   -33339   -33070   -33003   -33258   -33270   -33073   -33039 
  -33069   -33147   -33354   -33393   -33165   -33003   -33042   -33161 
  -33218   -33096   -33015   -33226   -33404   -33307   -33265   -33295 
  -33150   -33053   -33083   -33068   -33177   -33285   -33103   -33103 
  -33384   -33258   -32979   -33092   -33126   -33096   -33436   -33480 
  -33070   -33161   -33488   -33265   -33073   -33222   -33130   -33065 
  -33367   -33358   -32918   -32761   -32953   -33154   -33293   -33235 
  -33083   -33234   -33438   -33259   -33065   -33161   -33238   -33169 
  -33099   -33088   -33161   -33188   -33079   -33112   -33350   -33381 
  -33185   -33166   -33269   -33193   -33102   -33193   -33246   -33177 
  -33231   -33312   -33185   -33092   -33156   -33122   -33119   -33289 
  -33220   -32950   -33023   -33242   -33193   -33177   -33324   -33338 
  -33307   -33282   -33080   -33007   -33243   -33254   -32941   -32842 
  -33050   -33254   -33285   -33195   -33232   -33350   -33211   -33089 
  -33382   -33512   -33095   -32884   -33204   -33401   -33243   -33102 
  -33025   -32933   -33034   -33334   -33447   -33295   -33187   -33142 
  -33023   -33050   -33335   -33469   -33246   -33015   -32988   -33049 
  -33164   -33259   -33216   -33147   -33188   -33265   -33301   -33216 
  -33011   -32987   -33188   -33205   -33107   -33304   -33513   -33385 
  -33261   -33255   -33095   -33006   -33238   -33380   -33189   -33018 
  -33031   -33096   -33181   -33228   -33191   -33218   -33266   -33142 
  -32996   -32972   -32942   -32998   -33277   -33469   -33343   -33141 
  -33077   -33138   -33247   -33285   -33227   -33157   -33084   -33045 
  -33106   -33172   -33199   -33273   -33353   -33369   -33342   -33231 
  -33095   -33106   -33151   -33068   -33002   -33062   -33157   -33250 
  -33324   -33282   -33157   -33124   -33203   -33232   -33188   -33172 
  -33173   -33150   -33137   -33127   -33165   -33284   -33282   -33083 
  -33016   -33203   -33292   -33183   -33153   -33210   -33193   -33208 
  -33258   -33157   -33096   -33215   -33214   -33154   -33296   -33289 
  -33048   -33081   -33254   -33160   -33161   -33392   -33372   -33180 
  -33164   -33150   -33092   -33149   -33164   -33119   -33165   -33119 
  -33045   -33232   -33312   -33085   -33134   -33355   -33184   -33073 
  -33249   -33093   -32937   -33291   -33369   -33033   -33170   -33417 
  -33154   -33099   -33355   -33183   -32994   -33274   -33332   -33091 
  -33169   -33284   -33130   -33127   -33241   -33168   -33137   -33204 
  -33185   -33204   -33251   -33153   -33089   -33178   -33227   -33230 
  -33243   -33173   -33106   -33164   -33216   -33223   -33254   -33254 
  -33212   -33172   -33093   -33070   -33220   -33285   -33075   -32969 
  -33181   -33284   -33168   -33197   -33272   -33141   -33107   -33266 
  -33281   -33183   -33172   -33150   -33137   -33200   -33149   -33041 
  -33156   -33303   -33245   -33192   -33184   -33092   -33093   -33226 
  -33286   -33264   -33180   -33080   -33160   -33266   -33107   -32964 
  -33112   -33264   -33276   -33270   -33207   -33150   -33215   -33247 
  -33220   -33214   -33111   -33030   -33173   -33269   -33165   -33168 
  -33254   -33200   -33146   -33149   -33112   -33177   -33291   -33215 
  -33141   -33231   -33211   -33088   -33146   -33268   -33251   -33227 
  -33232   -33158   -33104   -33145   -33161   -33169   -33231   -33230 
  -33173   -33207   -33238   -33166   -33129   -33142   -33115   -33130 
  -33192   -33183   -33164   -33207   -33208   -33146   -33124   -33161 
  -33195   -33218   -33250   -33224   -33119   -33091   -33188   -33210 
  -33131   -33170   -33274   -33237   -33185   -33246   -33253   -33191 
  -33201   -33205   -33133   -33083   -33068   -33087   -33200   -33285 
  -33234   -33196   -33224   -33223   -33228   -33226   -33143   -33122 
  -33203   -33197   -33150   -33176   -33150   -33097   -33176   -33255 
  -33211   -33188   -33215   -33201   -33216   -33249   -33212   -33189 
  -33197   -33143   -33133   -33214   -33187   -33085   -33116   -33188 
  -33165   -33156   -33224   -33261   -33212   -33158   -33160   -33188 
  -33193   -33178   -33187   -33215   -33203   -33129   -33087   -33147 
  -33215   -33211   -33196   -33185   -33153   -33168   -33201   -33169 
  -33164   -33212   -33205   -33187   -33204   -33176   -33137   -33150 
  -33134   -33122   -33207   -33247   -33173   -33150   -33197   -33197 
  -33170   -33154   -33154   -33227   -33289   -33215   -33139   -33166 
  -33180   -33164   -33178   -33178   -33181   -33201   -33157   -33149 
  -33261   -33255   -33116   -33130   -33193   -33151   -33207   -33289 
  -33172   -33107   -33219   -33199   -33103   -33174   -33212   -33129 
  -33143   -33196   -33169   -33193   -33231   -33187   -33185   -33228 
  -33214   -33205   -33197   -33147   -33183   -33264   -33222   -33172 
  -33212   -33180   -33112   -33169   -33224   -33176   -33166   -33207 
  -33189   -33151   -33137   -33129   -33149   -33181   -33196   -33231 
  -33237   -33165   -33153   -33218   -33191   -33129   -33181   -33226 
