Origin Time       2025/03/30 10:46:00
Lat.              32.923
Long.             130.372
Depth. (km)       11
Mag.              3.4
Station Code      SAGH04
Station Lat.      33.3654
Station Long.     130.4046
Station Height(m) -145
Record Time       2025/03/30 10:46:35
Sampling Freq(Hz) 100Hz
Duration Time(s)  120
Dir.              2
Scale Factor      3923(gal)/8224838
Max. Acc. (gal)   0.169
Last Correction   2025/03/30 10:46:35
Memo.             
[...]
   -1109    -1111    -1111    -1107    -1109    -1112    -1111    -1111 
   -1112    -1109    -1109    -1111    -1113    -1112    -1112    -1112 
   -1111    -1111    -1113    -1112    -1109    -1112    -1115    -1111 
   -1109    -1113    -1113    -1111    -1113    -1113    -1108    -1108 
   -1113    -1113    -1113    -1115    -1113    -1108    -1108    -1115 
   -1116    -1109    -1109    -1113    -1115    -1112    -1112    -1112 
   -1109    -1111    -1113    -1112    -1113    -1112    -1108    -1111 
   -1113    -1112    -1111    -1112    -1115    -1113    -1112    -1111 
   -1112    -1113    -1115    -1111    -1111    -1115    -1113    -1112 
   -1113    -1115    -1112    -1109    -1111    -1111    -1111    -1113 
   -1111    -1109    -1113    -1116    -1115    -1111    -1112    -1113 
   -1113    -1113    -1108    -1107    -1115    -1115    -1112    -1112 
   -1109    -1109    -1112    -1111    -1109    -1111    -1112    -1115 
   -1113    -1111    -1108    -1109    -1111    -1109    -1108    -1111 
   -1112    -1109    -1108    -1112    -1115    -1116    -1113    -1111 
   -1112    -1111    -1112    -1113    -1112    -1112    -1111    -1109 
   -1111    -1109    -1108    -1112    -1113    -1112    -1113    -1111 
   -1109    -1113    -1112    -1109    -1112    -1112    -1109    -1111 
   -1112    -1112    -1109    -1111    -1115    -1112    -1112    -1113 
   -1108    -1107    -1112    -1113    -1109    -1109    -1111    -1113 
   -1115    -1112    -1111    -1113    -1112    -1112    -1112    -1112 
   -1111    -1111    -1111    -1111    -1108    -1108    -1112    -1112 
   -1111    -1111    -1111    -1109    -1112    -1115    -1113    -1112 
   -1113    -1113    -1111    -1108    -1109    -1113    -1113    -1111 
   -1113    -1115    -1111    -1109    -1112    -1115    -1112    -1111 
   -1111    -1112    -1112    -1113    -1113    -1111    -1111    -1116 
   -1117    -1111    -1111    -1113    -1111    -1109    -1113    -1112 
   -1111    -1113    -1113    -1113    -1112    -1112    -1115    -1113 
   -1111    -1112    -1112    -1111    -1109    -1112    -1113    -1112 
   -1111    -1111    -1111    -1111    -1112    -1111    -1111    -1109 
   -1111    -1112    -1113    -1113    -1112    -1112    -1113    -1113 
   -1109    -1109    -1112    -1109    -1109    -1111    -1108    -1108 
   -1112    -1113    -1111    -1112    -1113    -1111    -1109    -1112 
   -1112    -1111    -1112    -1109    -1111    -1115    -1112    -1111 
   -1111    -1112    -1112    -1112    -1115    -1115    -1112    -1111 
   -1109    -1111    -1109    -1107    -1111    -1111    -1111    -1116 
   -1113    -1109    -1111    -1112    -1111    -1112    -1113    -1113 
   -1112    -1112    -1111    -1113    -1115    -1112    -1113    -1112 
   -1111    -1112    -1112    -1109    -1111    -1112    -1112    -1109 
   -1109    -1111    -1115    -1115    -1112    -1111    -1111    -1113 
   -1113    -1111    -1109    -1111    -1111    -1109    -1112    -1112 
   -1111    -1111    -1111    -1111    -1111    -1111    -1111    -1112 
   -1109    -1109    -1112    -1112    -1112    -1113    -1112    -1111 
   -1113    -1112    -1111    -1115    -1113    -1109    -1109    -1109 
   -1112    -1113    -1112    -1112    -1111    -1109    -1111    -1111 
   -1109    -1111    -1112    -1109    -1112    -1113    -1108    -1111 
   -1115    -1112    -1111    -1112    -1111    -1111    -1111    -1111 
   -1111    -1112    -1111    -1109    -1109    -1112    -1113    -1109 
   -1109    -1112    -1112    -1108    -1109    -1111    -1111    -1111 
   -1111    -1109    -1112    -1112    -1111    -1112    -1111    -1109 
   -1111    -1111    -1109    -1112    -1113    -1113    -1115    -1112 
   -1109    -1112    -1111    -1113    -1112    -1108    -1111    -1112 
   -1111    -1113    -1113    -1111    -1113    -1113    -1111    -1111 
   -1112    -1111    -1111    -1112    -1111    -1111    -1111    -1108 
   -1109    -1111    -1109    -1111    -1111    -1111    -1111    -1109 
   -1109    -1111    -1109    -1111    -1109    -1107    -1109    -1113 
   -1111    -1109    -1112    -1113    -1111    -1109    -1109    -1111 
   -1111    -1111    -1112    -1112    -1111    -1111    -1108    -1111 
   -1111    -1108    -1108    -1111    -1113    -1112    -1109    -1112 
   -1112    -1111    -1112    -1112    -1109    -1111    -1111    -1111 
   -1113    -1111    -1107    -1111    -1112    -1109    -1111    -1111 
   -1109    -1112    -1112    -1109    -1113    -1113    -1109    -1112 
   -1113    -1109    -1111    -1113    -1112    -1112    -1112    -1111 
   -1109    -1109    -1108    -1108    -1112    -1115    -1112    -1109 
   -1109    -1111    -1112    -1111    -1111    -1112    -1113    -1112 
   -1111    -1112    -1113    -1112    -1111    -1112    -1112    -1109 
   -1111    -1111    -1109    -1111    -1112    -1111    -1112    -1112 
   -1109    -1108    -1108    -1112    -1112    -1111    -1108    -1109 
   -1113    -1113    -1112    -1111    -1109    -1109    -1111    -1112 
   -1113    -1111    -1109    -1113    -1112    -1109    -1111    -1111 
   -1109    -1112    -1113    -1109    -1111    -1115    -1112    -1109 
   -1112    -1112    -1112    -1113    -1115    -1113    -1112    -1111 
   -1109    -1109    -1112    -1113    -1109    -1108    -1112    -1116 
   -1113    -1109    -1111    -1115    -1112    -1109    -1111    -1112 
   -1112    -1113    -1113    -1112    -1111    -1112    -1115    -1115 
   -1113    -1112    -1111    -1111    -1112    -1113    -1113    -1112 
   -1111    -1112    -1113    -1112    -1109    -1112    -1113    -1112 
   -1111    -1111    -1109    -1111    -1113    -1113    -1111    -1111 
   -1112    -1111    -1111    -1113    -1111    -1112    -1112    -1111 
   -1111    -1111    -1111    -1112    -1115    -1113    -1112    -1112 
   -1112    -1111    -1108    -1108    -1113    -1113    -1111    -1112 
   -1113    -1108    -1111    -1115    -1112    -1111    -1111    -1109 
   -1112    -1112    -1111    -1112    -1112    -1108    -1108    -1113 
   -1112    -1109    -1113    -1111    -1105    -1111    -1113    -1109 
   -1109    -1111    -1112    -1111    -1113    -1113    -1115    -1116 
   -1113    -1109    -1111    -1112    -1112    -1112    -1111    -1111 
   -1113    -1112    -1109    -1111    -1111    -1111    -1109    -1109 
   -1111    -1109    -1108    -1112    -1113    -1111    -1108    -1109 
   -1113    -1112    -1111    -1113    -1113    -1111    -1112    -1111 
   -1108    -1108    -1112    -1113    -1111    -1109    -1111    -1112 
   -1113    -1111    -1109    -1109    -1111    -1113    -1113    -1111 
   -1112    -1113    -1113    -1113    -1112    -1111    -1112    -1112 
   -1111    -1109    -1111    -1112    -1112    -1113    -1112    -1111 
   -1112    -1113    -1112    -1112    -1112    -1112    -1112    -1112 
   -1113    -1115    -1113    -1109    -1109    -1111    -1111    -1109 
   -1111    -1112    -1112    -1112    -1111    -1111    -1112    -1113 
   -1113    -1111    -1111    -1113    -1111    -1111    -1111    -1109 
   -1112    -1113    -1108    -1111    -1115    -1112    -1111    -1111 
   -1111    -1111    -1109    -1109    -1113    -1113    -1111    -1112 
   -1113    -1109    -1109    -1111    -1111    -1111    -1112    -1113 
   -1113    -1112    -1113    -1113    -1113    -1112    -1112    -1112 
   -1109    -1111    -1115    -1113    -1112    -1113    -1111    -1108 
   -1111    -1112    -1113    -1113    -1109    -1109    -1111    -1111 
   -1109    -1112    -1115    -1112    -1108    -1109    -1111    -1111 
   -1112    -1111    -1109    -1111    -1113    -1113    -1112    -1112 
   -1111    -1109    -1111    -1112    -1112    -1112    -1112    -1111 
   -1111    -1113    -1112    -1112    -1113    -1112    -1109    -1111 
   -1115    -1113    -1109    -1111    -1111    -1111    -1112    -1112 
   -1111    -1112    -1113    -1112    -1109    -1111    -1113    -1113 
   -1113    -1112    -1116    -1119    -1109    -1104    -1105    -1101 
   -1097    -1107    -1120    -1117    -1104    -1101    -1113    -1135 
   -1143    -1123    -1108    -1121    -1127    -1107    -1080    -1071 
   -1088    -1104    -1100    -1082    -1082    -1135    -1198    -1194 
   -1124    -1074    -1090    -1132    -1124    -1057    -1015    -1081 
   -1196    -1220    -1111    -1005    -1053    -1173    -1221    -1167 
   -1062    -1019    -1094    -1165    -1129    -1053    -1048    -1124 
   -1178    -1152    -1092    -1082    -1155    -1196    -1107     -997 
   -1009    -1119    -1205    -1178    -1077    -1038    -1105    -1173 
   -1150    -1075    -1050    -1108    -1173    -1151    -1080    -1058 
   -1093    -1135    -1136    -1096    -1082    -1129    -1165    -1140 
   -1096    -1086    -1113    -1119    -1094    -1086    -1119    -1163 
   -1155    -1090    -1054    -1088    -1139    -1138    -1098    -1084 
   -1121    -1167    -1129    -1055    -1061    -1119    -1147    -1127 
   -1071    -1063    -1135    -1174    -1131    -1080    -1084    -1129 
   -1162    -1129    -1063    -1048    -1101    -1143    -1138    -1117 
   -1108    -1098    -1101    -1115    -1112    -1105    -1117    -1127 
   -1119    -1109    -1119    -1134    -1128    -1096    -1059    -1062 
   -1117    -1167    -1156    -1107    -1075    -1107    -1159    -1159 
   -1090    -1034    -1073    -1156    -1159    -1088    -1053    -1089 
   -1143    -1146    -1097    -1086    -1150    -1193    -1154    -1082 
   -1050    -1084    -1129    -1124    -1082    -1063    -1092    -1144 
   -1163    -1128    -1097    -1108    -1123    -1116    -1104    -1100 
   -1119    -1166    -1165    -1077    -1008    -1042    -1132    -1179 
   -1140    -1078    -1078    -1120    -1139    -1112    -1073    -1090 
   -1159    -1177    -1116    -1063    -1077    -1128    -1139    -1097 
   -1080    -1117    -1150    -1132    -1086    -1078    -1121    -1150 
   -1119    -1070    -1082    -1134    -1144    -1117    -1097    -1097 
   -1123    -1129    -1097    -1084    -1123    -1159    -1151    -1119 
   -1081    -1061    -1085    -1119    -1123    -1128    -1135    -1107 
   -1082    -1096    -1117    -1136    -1147    -1108    -1059    -1075 
   -1120    -1142    -1147    -1135    -1115    -1124    -1138    -1112 
   -1088    -1093    -1092    -1088    -1098    -1113    -1117    -1105 
   -1081    -1077    -1117    -1163    -1155    -1116    -1101    -1117 
   -1138    -1120    -1071    -1074    -1135    -1155    -1112    -1069 
   -1057    -1089    -1139    -1142    -1111    -1111    -1135    -1135 
   -1117    -1108    -1111    -1119    -1125    -1115    -1093    -1089 
   -1104    -1113    -1120    -1124    -1104    -1085    -1096    -1121 
   -1139    -1129    -1092    -1077    -1109    -1142    -1116    -1071 
   -1089    -1151    -1173    -1123    -1050    -1050    -1127    -1165 
   -1119    -1074    -1098    -1163    -1178    -1117    -1059    -1070 
   -1125    -1135    -1082    -1059    -1115    -1163    -1139    -1105 
   -1117    -1148    -1143    -1082    -1026    -1070    -1182    -1205 
   -1104    -1028    -1080    -1165    -1165    -1088    -1032    -1062 
   -1140    -1171    -1119    -1078    -1125    -1179    -1139    -1061 
   -1043    -1078    -1116    -1135    -1129    -1116    -1119    -1124 
   -1100    -1073    -1081    -1108    -1140    -1150    -1112    -1071 
   -1093    -1156    -1183    -1136    -1065    -1040    -1086    -1147 
   -1147    -1097    -1067    -1097    -1156    -1161    -1086    -1042 
   -1088    -1151    -1161    -1127    -1092    -1096    -1139    -1155 
   -1116    -1089    -1119    -1131    -1085    -1054    -1082    -1128 
   -1143    -1112    -1067    -1080    -1147    -1166    -1108    -1066 
   -1111    -1177    -1162    -1081    -1044    -1101    -1171    -1148 
   -1063    -1040    -1102    -1152    -1128    -1069    -1069    -1150 
   -1206    -1146    -1054    -1055    -1131    -1169    -1116    -1043 
   -1053    -1135    -1169    -1119    -1071    -1098    -1169    -1185 
   -1116    -1044    -1059    -1135    -1161    -1112    -1073    -1085 
   -1121    -1132    -1096    -1071    -1096    -1116    -1113    -1111 
   -1115    -1139    -1163    -1142    -1097    -1088    -1107    -1116 
   -1125    -1121    -1096    -1086    -1100    -1088    -1070    -1092 
   -1134    -1156    -1159    -1138    -1102    -1096    -1119    -1121 
   -1098    -1080    -1086    -1128    -1162    -1129    -1069    -1057 
   -1094    -1132    -1132    -1117    -1117    -1116    -1116    -1121 
   -1094    -1080    -1132    -1158    -1098    -1059    -1094    -1135 
   -1155    -1142    -1094    -1100    -1156    -1158    -1111    -1077 
   -1066    -1078    -1090    -1075    -1098    -1161    -1161    -1102 
   -1080    -1090    -1121    -1158    -1143    -1096    -1097    -1124 
   -1113    -1090    -1092    -1115    -1142    -1135    -1096    -1084 
   -1104    -1120    -1109    -1081    -1082    -1129    -1156    -1140 
   -1116    -1104    -1101    -1104    -1121    -1144    -1155    -1151 
   -1116    -1075    -1081    -1117    -1112    -1059    -1044    -1112 
   -1206    -1236    -1188    -1146    -1161    -1178    -1142    -1070 
   -1016    -1020    -1078    -1124    -1121    -1128    -1147    -1128 
   -1102    -1113    -1123    -1109    -1098    -1078    -1055    -1051 
   -1039    -1020    -1059    -1158    -1228    -1185    -1058     -955 
    -963    -1048    -1093    -1081    -1093    -1150    -1215    -1244 
   -1247    -1269    -1310    -1305    -1204    -1047     -939     -919 
    -901     -818     -758     -870    -1119    -1308    -1329    -1259 
   -1251    -1354    -1422    -1314    -1085     -903     -881     -988 
   -1067    -1034    -1011    -1082    -1131    -1116    -1104    -1089 
   -1065    -1066    -1127    -1224    -1260    -1215    -1163    -1128 
   -1116    -1139    -1120    -1043    -1058    -1200    -1275    -1165 
    -976     -888     -980    -1165    -1254    -1182    -1129    -1209 
   -1277    -1221    -1128    -1073    -1063    -1077    -1062     -992 
    -946    -1005    -1101    -1142    -1151    -1165    -1162    -1138 
   -1127    -1151    -1142    -1058     -990    -1019    -1129    -1209 
   -1166    -1107    -1128    -1138    -1081    -1027    -1030    -1094 
   -1154    -1117    -1057    -1102    -1227    -1281    -1162     -939 
    -859    -1026    -1210    -1208    -1098    -1073    -1170    -1255 
   -1221    -1138    -1098    -1111    -1124    -1082    -1023    -1055 
   -1162    -1196    -1100     -977     -949    -1004    -1077    -1154 
   -1247    -1309    -1248    -1075     -953    -1007    -1181    -1282 
   -1210    -1107    -1117    -1182    -1170    -1066     -984    -1027 
   -1146    -1196    -1117    -1017    -1019    -1080    -1094    -1015 
    -934    -1012    -1183    -1260    -1228    -1165    -1142    -1194 
   -1212    -1097     -981    -1004    -1113    -1181    -1152    -1074 
   -1035    -1069    -1136    -1171    -1161    -1142    -1146    -1165 
   -1170    -1127    -1048     -996     -985    -1001    -1046    -1094 
   -1124    -1183    -1264    -1273    -1216    -1166    -1112    -1069 
   -1084    -1108    -1077    -1040    -1048    -1086    -1121    -1136 
   -1131    -1115    -1092    -1084    -1108    -1175    -1247    -1219 
   -1081     -982    -1026    -1146    -1194    -1108    -1008    -1027 
   -1113    -1143    -1096    -1067    -1140    -1254    -1262    -1129 
   -1011    -1036    -1125    -1134    -1047     -966     -977    -1053 
   -1131    -1183    -1197    -1190    -1183    -1155    -1120    -1123 
   -1143    -1107     -989     -911     -989    -1142    -1194    -1107 
   -1012    -1050    -1193    -1294    -1263    -1175    -1150    -1178 
   -1152    -1053     -994    -1040    -1097    -1101    -1086    -1086 
   -1131    -1188    -1158    -1077    -1055    -1082    -1102    -1121 
   -1148    -1181    -1213    -1198    -1120    -1055    -1065    -1084 
   -1044    -1001    -1024    -1105    -1182    -1178    -1120    -1112 
   -1155    -1156    -1093    -1030    -1043    -1129    -1196    -1171 
   -1090    -1058    -1125    -1194    -1165    -1082    -1065    -1147 
   -1235    -1210    -1093    -1015    -1047    -1119    -1124    -1048 
    -993    -1023    -1097    -1162    -1202    -1219    -1204    -1143 
   -1061    -1034    -1082    -1136    -1107    -1005     -957    -1027 
   -1135    -1173    -1134    -1115    -1155    -1189    -1182    -1159 
   -1129    -1120    -1117    -1069    -1012    -1031    -1105    -1136 
   -1119    -1115    -1132    -1163    -1188    -1150    -1078    -1046 
   -1054    -1085    -1139    -1167    -1140    -1098    -1063    -1048 
   -1085    -1148    -1161    -1121    -1096    -1112    -1144    -1140 
   -1100    -1081    -1098    -1121    -1136    -1144    -1156    -1154 
   -1128    -1088    -1054    -1069    -1116    -1124    -1131    -1189 
   -1225    -1182    -1117    -1088    -1097    -1100    -1040     -962 
    -989    -1140    -1267    -1236    -1102    -1039    -1089    -1156 
   -1158    -1097    -1065    -1104    -1131    -1074    -1007    -1027 
   -1105    -1158    -1140    -1074    -1059    -1125    -1156    -1104 
   -1067    -1115    -1192    -1210    -1135    -1044    -1050    -1121 
   -1146    -1093    -1027    -1044    -1138    -1197    -1173    -1108 
   -1073    -1102    -1135    -1129    -1121    -1127    -1120    -1096 
   -1071    -1078    -1109    -1128    -1117    -1096    -1086    -1113 
   -1170    -1189    -1140    -1075    -1051    -1078    -1139    -1178 
   -1142    -1070    -1043    -1077    -1136    -1174    -1166    -1139 
   -1127    -1128    -1117    -1098    -1097    -1105    -1094    -1069 
   -1066    -1107    -1165    -1177    -1128    -1085    -1086    -1107 
   -1107    -1098    -1117    -1148    -1166    -1159    -1128    -1111 
   -1112    -1086    -1047    -1040    -1077    -1121    -1121    -1086 
   -1085    -1138    -1192    -1181    -1120    -1084    -1101    -1131 
   -1108    -1043    -1026    -1096    -1177    -1185    -1135    -1094 
   -1101    -1128    -1123    -1093    -1094    -1125    -1134    -1098 
   -1048    -1042    -1092    -1134    -1117    -1088    -1111    -1170 
   -1196    -1158    -1073    -1005    -1017    -1093    -1169    -1194 
   -1163    -1115    -1093    -1084    -1067    -1062    -1086    -1132 
   -1163    -1159    -1140    -1136    -1144    -1134    -1089    -1039 
   -1048    -1112    -1143    -1111    -1081    -1107    -1171    -1204 
   -1154    -1080    -1063    -1109    -1152    -1138    -1090    -1077 
   -1111    -1135    -1113    -1078    -1090    -1143    -1175    -1156 
   -1108    -1077    -1089    -1109    -1097    -1066    -1058    -1097 
   -1146    -1148    -1121    -1111    -1120    -1123    -1109    -1085 
   -1080    -1098    -1100    -1074    -1073    -1112    -1146    -1143 
   -1123    -1116    -1125    -1124    -1094    -1069    -1082    -1121 
   -1155    -1150    -1097    -1069    -1102    -1119    -1082    -1063 
   -1088    -1135    -1174    -1165    -1119    -1102    -1131    -1158 
   -1138    -1094    -1080    -1100    -1124    -1125    -1111    -1101 
   -1100    -1093    -1086    -1085    -1089    -1109    -1139    -1156 
   -1148    -1111    -1082    -1108    -1154    -1151    -1102    -1043 
   -1019    -1065    -1146    -1182    -1146    -1094    -1090    -1125 
   -1163    -1175    -1146    -1105    -1102    -1108    -1084    -1075 
