Origin Time       2025/03/30 10:46:00
Lat.              32.923
Long.             130.372
Depth. (km)       11
Mag.              3.4
Station Code      SAGH02
Station Lat.      33.2656
Station Long.     129.8798
Station Height(m) -71.5
Record Time       2025/03/30 10:46:38
Sampling Freq(Hz) 100Hz
Duration Time(s)  120
Dir.              1
Scale Factor      3923(gal)/8224838
Max. Acc. (gal)   0.205
Last Correction   2025/03/30 10:46:37
Memo.             
[...]
  -46746   -46747   -46746   -46743   -46746   -46749   -46747   -46745 
  -46745   -46743   -46745   -46746   -46743   -46741   -46745   -46747 
  -46745   -46747   -46747   -46745   -46746   -46749   -46747   -46747 
  -46746   -46746   -46747   -46746   -46745   -46746   -46747   -46746 
  -46745   -46743   -46745   -46745   -46745   -46746   -46745   -46742 
  -46743   -46746   -46746   -46745   -46742   -46741   -46743   -46743 
  -46742   -46745   -46747   -46743   -46742   -46745   -46745   -46745 
  -46745   -46745   -46746   -46747   -46746   -46746   -46745   -46745 
  -46747   -46745   -46741   -46743   -46746   -46745   -46746   -46750 
  -46749   -46745   -46743   -46743   -46743   -46743   -46746   -46746 
  -46746   -46745   -46745   -46747   -46749   -46746   -46746   -46747 
  -46745   -46746   -46747   -46746   -46746   -46747   -46746   -46745 
  -46745   -46745   -46745   -46746   -46747   -46747   -46745   -46745 
  -46747   -46749   -46745   -46746   -46749   -46745   -46742   -46745 
  -46747   -46746   -46746   -46745   -46746   -46746   -46743   -46746 
  -46749   -46746   -46747   -46747   -46746   -46746   -46746   -46747 
  -46747   -46745   -46745   -46746   -46747   -46746   -46745   -46746 
  -46747   -46747   -46747   -46747   -46747   -46745   -46742   -46746 
  -46747   -46746   -46746   -46746   -46742   -46742   -46747   -46746 
  -46745   -46746   -46745   -46745   -46745   -46745   -46745   -46746 
  -46746   -46745   -46746   -46745   -46742   -46742   -46745   -46747 
  -46745   -46746   -46747   -46743   -46743   -46746   -46743   -46742 
  -46743   -46745   -46745   -46743   -46745   -46747   -46745   -46742 
  -46743   -46745   -46746   -46746   -46745   -46745   -46743   -46743 
  -46745   -46745   -46746   -46749   -46746   -46745   -46746   -46743 
  -46742   -46743   -46743   -46743   -46745   -46746   -46745   -46745 
  -46746   -46745   -46743   -46746   -46747   -46747   -46746   -46745 
  -46743   -46743   -46745   -46746   -46745   -46746   -46745   -46743 
  -46746   -46750   -46746   -46745   -46745   -46746   -46746   -46742 
  -46742   -46745   -46745   -46743   -46745   -46745   -46743   -46743 
  -46745   -46745   -46746   -46745   -46743   -46745   -46743   -46745 
  -46747   -46743   -46742   -46745   -46745   -46745   -46745   -46745 
  -46743   -46743   -46746   -46745   -46742   -46742   -46742   -46742 
  -46743   -46747   -46746   -46746   -46745   -46745   -46746   -46747 
  -46745   -46743   -46745   -46745   -46745   -46746   -46745   -46745 
  -46747   -46749   -46749   -46747   -46746   -46746   -46749   -46749 
  -46746   -46746   -46747   -46749   -46747   -46747   -46747   -46749 
  -46749   -46747   -46746   -46746   -46747   -46747   -46745   -46746 
  -46747   -46747   -46745   -46745   -46745   -46746   -46745   -46746 
  -46747   -46745   -46743   -46746   -46747   -46746   -46745   -46745 
  -46745   -46745   -46745   -46743   -46743   -46746   -46747   -46745 
  -46743   -46745   -46745   -46745   -46747   -46747   -46746   -46743 
  -46746   -46746   -46743   -46742   -46745   -46746   -46746   -46743 
  -46743   -46745   -46746   -46746   -46745   -46745   -46745   -46746 
  -46745   -46742   -46743   -46745   -46747   -46749   -46750   -46747 
  -46745   -46746   -46747   -46745   -46745   -46746   -46746   -46746 
  -46746   -46745   -46745   -46746   -46746   -46746   -46746   -46743 
  -46745   -46745   -46742   -46743   -46747   -46746   -46745   -46746 
  -46745   -46742   -46743   -46745   -46745   -46745   -46746   -46746 
  -46745   -46745   -46745   -46743   -46746   -46746   -46742   -46745 
  -46747   -46745   -46743   -46747   -46746   -46745   -46746   -46747 
  -46745   -46745   -46746   -46745   -46743   -46746   -46745   -46742 
  -46746   -46746   -46746   -46747   -46746   -46745   -46746   -46746 
  -46742   -46743   -46746   -46745   -46743   -46745   -46745   -46746 
  -46746   -46745   -46745   -46747   -46746   -46745   -46745   -46743 
  -46743   -46746   -46746   -46743   -46742   -46742   -46743   -46746 
  -46746   -46745   -46745   -46743   -46745   -46746   -46745   -46746 
  -46746   -46745   -46745   -46745   -46746   -46749   -46746   -46743 
  -46746   -46746   -46745   -46743   -46746   -46746   -46745   -46745 
  -46746   -46743   -46743   -46743   -46745   -46745   -46743   -46743 
  -46743   -46742   -46743   -46746   -46745   -46745   -46746   -46746 
  -46746   -46742   -46743   -46746   -46746   -46746   -46746   -46743 
  -46743   -46746   -46745   -46742   -46745   -46745   -46742   -46745 
  -46746   -46746   -46745   -46742   -46743   -46746   -46746   -46746 
  -46746   -46743   -46743   -46746   -46745   -46745   -46746   -46742 
  -46745   -46747   -46745   -46745   -46746   -46746   -46746   -46745 
  -46745   -46745   -46745   -46743   -46743   -46746   -46743   -46742 
  -46746   -46746   -46742   -46745   -46746   -46742   -46743   -46745 
  -46745   -46747   -46745   -46742   -46745   -46747   -46745   -46743 
  -46743   -46745   -46742   -46742   -46746   -46745   -46745   -46747 
  -46745   -46742   -46745   -46745   -46742   -46745   -46746   -46743 
  -46743   -46746   -46747   -46746   -46743   -46745   -46747   -46746 
  -46745   -46743   -46743   -46745   -46743   -46743   -46746   -46747 
  -46746   -46745   -46743   -46742   -46745   -46747   -46745   -46746 
  -46749   -46746   -46745   -46746   -46746   -46745   -46743   -46743 
  -46745   -46746   -46745   -46743   -46746   -46749   -46746   -46745 
  -46747   -46746   -46743   -46746   -46746   -46743   -46745   -46749 
  -46747   -46743   -46743   -46745   -46743   -46743   -46742   -46742 
  -46743   -46743   -46746   -46746   -46745   -46743   -46743   -46743 
  -46745   -46745   -46743   -46742   -46745   -46747   -46747   -46746 
  -46745   -46742   -46742   -46746   -46747   -46742   -46743   -46747 
  -46745   -46742   -46746   -46745   -46742   -46743   -46743   -46745 
  -46746   -46742   -46743   -46746   -46743   -46742   -46742   -46743 
  -46745   -46745   -46746   -46747   -46746   -46743   -46743   -46743 
  -46742   -46743   -46746   -46743   -46742   -46745   -46746   -46743 
  -46742   -46745   -46747   -46747   -46742   -46742   -46746   -46749 
  -46746   -46745   -46746   -46747   -46745   -46743   -46745   -46745 
  -46745   -46743   -46745   -46745   -46742   -46745   -46747   -46746 
  -46746   -46745   -46743   -46743   -46743   -46743   -46745   -46745 
  -46742   -46745   -46745   -46743   -46743   -46746   -46745   -46742 
  -46742   -46743   -46745   -46749   -46747   -46745   -46749   -46746 
  -46742   -46745   -46746   -46745   -46745   -46743   -46743   -46746 
  -46746   -46745   -46743   -46743   -46742   -46743   -46746   -46746 
  -46745   -46746   -46746   -46743   -46745   -46745   -46743   -46746 
  -46745   -46741   -46742   -46743   -46743   -46745   -46745   -46742 
  -46741   -46741   -46742   -46743   -46743   -46746   -46746   -46743 
  -46745   -46745   -46742   -46742   -46743   -46745   -46746   -46747 
  -46751   -46749   -46739   -46749   -46761   -46735   -46711   -46737 
  -46764   -46754   -46747   -46754   -46764   -46777   -46757   -46704 
  -46695   -46738   -46782   -46784   -46728   -46707   -46766   -46780 
  -46726   -46735   -46766   -46738   -46727   -46747   -46753   -46754 
  -46750   -46745   -46742   -46728   -46735   -46745   -46742   -46772 
  -46746   -46707   -46780   -46774   -46673   -46758   -46834   -46710 
  -46692   -46796   -46777   -46700   -46683   -46735   -46795   -46770 
  -46747   -46772   -46741   -46718   -46739   -46705   -46697   -46774 
  -46778   -46745   -46782   -46762   -46693   -46726   -46757   -46732 
  -46770   -46785   -46730   -46730   -46743   -46735   -46755   -46739 
  -46719   -46751   -46758   -46766   -46759   -46708   -46754   -46801 
  -46720   -46716   -46768   -46732   -46743   -46751   -46705   -46743 
  -46759   -46719   -46769   -46796   -46739   -46715   -46743   -46792 
  -46759   -46661   -46687   -46759   -46745   -46751   -46778   -46785 
  -46797   -46739   -46683   -46731   -46749   -46737   -46766   -46762 
  -46735   -46728   -46735   -46757   -46723   -46691   -46764   -46803 
  -46762   -46761   -46747   -46719   -46741   -46747   -46726   -46720 
  -46743   -46777   -46768   -46745   -46747   -46734   -46728   -46726 
  -46708   -46762   -46799   -46759   -46776   -46745   -46657   -46723 
  -46781   -46728   -46754   -46765   -46715   -46738   -46747   -46730 
  -46739   -46715   -46747   -46813   -46762   -46739   -46780   -46750 
  -46734   -46708   -46661   -46747   -46793   -46735   -46793   -46808 
  -46718   -46746   -46741   -46664   -46724   -46776   -46751   -46778 
  -46769   -46732   -46743   -46739   -46739   -46754   -46737   -46731 
  -46741   -46749   -46761   -46755   -46745   -46714   -46684   -46741 
  -46789   -46758   -46764   -46757   -46716   -46757   -46774   -46723 
  -46724   -46732   -46735   -46782   -46777   -46764   -46781   -46716 
  -46676   -46734   -46739   -46726   -46751   -46762   -46776   -46772 
  -46737   -46747   -46774   -46754   -46719   -46700   -46718   -46759 
  -46800   -46809   -46745   -46680   -46703   -46727   -46732   -46780 
  -46805   -46774   -46724   -46693   -46724   -46766   -46762   -46761 
  -46768   -46754   -46714   -46691   -46746   -46778   -46712   -46710 
  -46764   -46755   -46751   -46762   -46757   -46781   -46778   -46739 
  -46727   -46714   -46719   -46739   -46741   -46753   -46726   -46704 
  -46781   -46782   -46720   -46788   -46791   -46683   -46710   -46788 
  -46776   -46724   -46672   -46714   -46764   -46718   -46770   -46847 
  -46753   -46735   -46784   -46691   -46685   -46786   -46747   -46712 
  -46753   -46724   -46716   -46755   -46759   -46784   -46800   -46738 
  -46688   -46730   -46777   -46745   -46724   -46793   -46793   -46708 
  -46707   -46734   -46705   -46701   -46739   -46758   -46750   -46772 
  -46807   -46747   -46715   -46795   -46774   -46697   -46737   -46747 
  -46696   -46689   -46728   -46791   -46765   -46714   -46785   -46768 
  -46678   -46761   -46799   -46753   -46801   -46749   -46683   -46773 
  -46732   -46651   -46747   -46746   -46688   -46773   -46815   -46785 
  -46769   -46734   -46742   -46731   -46691   -46751   -46792   -46758 
  -46778   -46751   -46666   -46678   -46753   -46795   -46762   -46727 
  -46781   -46792   -46726   -46718   -46719   -46730   -46764   -46715 
  -46703   -46766   -46755   -46749   -46764   -46735   -46769   -46769 
  -46701   -46739   -46764   -46724   -46751   -46742   -46724   -46757 
  -46715   -46737   -46811   -46707   -46673   -46816   -46812   -46726 
  -46731   -46749   -46758   -46737   -46711   -46747   -46738   -46704 
  -46755   -46780   -46768   -46781   -46761   -46749   -46755   -46737 
  -46745   -46732   -46699   -46739   -46754   -46726   -46773   -46793 
  -46723   -46689   -46712   -46749   -46764   -46751   -46781   -46796 
  -46745   -46731   -46718   -46678   -46700   -46727   -46755   -46816 
  -46792   -46750   -46784   -46753   -46699   -46742   -46753   -46691 
  -46684   -46761   -46822   -46793   -46754   -46754   -46724   -46687 
  -46699   -46730   -46755   -46772   -46780   -46777   -46738   -46715 
  -46761   -46782   -46734   -46704   -46732   -46743   -46715   -46743 
  -46795   -46738   -46680   -46758   -46819   -46751   -46716   -46770 
  -46770   -46704   -46714   -46791   -46800   -46743   -46726   -46734 
  -46715   -46716   -46754   -46755   -46739   -46761   -46770   -46745 
  -46746   -46765   -46757   -46724   -46703   -46735   -46774   -46737 
  -46695   -46715   -46728   -46749   -46795   -46784   -46732   -46742 
  -46788   -46747   -46681   -46755   -46807   -46681   -46661   -46781 
  -46769   -46742   -46800   -46768   -46726   -46743   -46714   -46723 
  -46785   -46784   -46739   -46705   -46737   -46776   -46712   -46715 
  -46800   -46746   -46696   -46759   -46754   -46715   -46749   -46812 
  -46815   -46722   -46696   -46720   -46645   -46708   -46870   -46768 
  -46661   -46745   -46751   -46755   -46830   -46804   -46746   -46728 
  -46730   -46722   -46666   -46708   -46809   -46734   -46689   -46801 
  -46809   -46747   -46741   -46731   -46724   -46710   -46732   -46807 
  -46773   -46718   -46764   -46751   -46714   -46745   -46742   -46724 
  -46716   -46712   -46780   -46797   -46739   -46778   -46789   -46704 
  -46707   -46734   -46711   -46741   -46776   -46777   -46768   -46711 
  -46699   -46757   -46758   -46758   -46785   -46745   -46711   -46724 
  -46714   -46723   -46732   -46735   -46788   -46781   -46731   -46782 
  -46777   -46677   -46699   -46753   -46757   -46809   -46804   -46726 
  -46731   -46737   -46683   -46699   -46781   -46811   -46773   -46750 
  -46749   -46714   -46712   -46755   -46751   -46755   -46777   -46724 
  -46688   -46718   -46732   -46774   -46804   -46769   -46770   -46755 
  -46683   -46699   -46746   -46741   -46764   -46781   -46757   -46734 
  -46707   -46716   -46754   -46751   -46766   -46776   -46732   -46731 
  -46741   -46726   -46758   -46765   -46734   -46750   -46728   -46700 
  -46764   -46782   -46745   -46768   -46777   -46753   -46747   -46716 
  -46683   -46707   -46735   -46737   -46741   -46746   -46742   -46738 
  -46755   -46770   -46778   -46808   -46797   -46731   -46714   -46704 
  -46673   -46692   -46700   -46685   -46708   -46699   -46680   -46727 
  -46747   -46714   -46708   -46750   -46765   -46697   -46680   -46731 
  -46674   -46623   -46730   -46839   -46947   -47119   -47175   -47059 
  -46889   -46737   -46624   -46503   -46423   -46494   -46575   -46602 
  -46774   -47054   -47156   -47074   -47005   -46942   -46786   -46596 
  -46435   -46364   -46464   -46610   -46656   -46719   -46797   -46718 
  -46630   -46753   -46878   -46818   -46801   -46872   -46766   -46566 
  -46538   -46650   -46768   -46828   -46872   -46966   -46969   -46819 
  -46665   -46518   -46400   -46461   -46633   -46792   -46974   -47150 
  -47167   -46947   -46677   -46604   -46668   -46718   -46726   -46674 
  -46647   -46660   -46597   -46603   -46724   -46745   -46792   -46953 
  -46900   -46719   -46700   -46723   -46726   -46769   -46800   -46786 
  -46710   -46629   -46627   -46677   -46796   -46892   -46784   -46658 
  -46700   -46715   -46662   -46743   -46926   -46950   -46768   -46646 
  -46666   -46647   -46653   -46791   -46828   -46705   -46696   -46811 
  -46838   -46809   -46835   -46840   -46731   -46595   -46587   -46687 
  -46772   -46766   -46677   -46678   -46811   -46773   -46634   -46765 
  -46919   -46827   -46731   -46696   -46738   -46854   -46761   -46608 
  -46670   -46649   -46630   -46823   -46793   -46607   -46715   -46842 
  -46777   -46723   -46676   -46674   -46792   -46878   -46867   -46781 
  -46708   -46731   -46688   -46629   -46765   -46820   -46707   -46757 
  -46846   -46795   -46793   -46781   -46677   -46645   -46654   -46650 
  -46678   -46735   -46851   -46928   -46831   -46750   -46795   -46807 
  -46778   -46751   -46730   -46776   -46778   -46681   -46660   -46685 
  -46674   -46696   -46678   -46666   -46831   -46948   -46866   -46851 
  -46851   -46711   -46678   -46705   -46561   -46529   -46700   -46732 
  -46714   -46791   -46732   -46683   -46845   -46849   -46677   -46739 
  -46884   -46859   -46762   -46611   -46512   -46638   -46788   -46811 
  -46834   -46822   -46746   -46742   -46769   -46738   -46734   -46778 
  -46796   -46754   -46674   -46618   -46641   -46743   -46831   -46834 
  -46884   -47001   -46930   -46693   -46599   -46651   -46691   -46674 
  -46643   -46689   -46782   -46754   -46653   -46665   -46739   -46737 
  -46730   -46770   -46757   -46718   -46778   -46861   -46845   -46801 
  -46795   -46803   -46781   -46672   -46595   -46672   -46692   -46620 
  -46723   -46832   -46759   -46788   -46890   -46872   -46892   -46878 
  -46695   -46606   -46627   -46600   -46612   -46642   -46672   -46801 
  -46890   -46849   -46793   -46755   -46766   -46788   -46701   -46677 
  -46773   -46697   -46568   -46672   -46780   -46758   -46778   -46784 
  -46739   -46754   -46769   -46804   -46842   -46728   -46699   -46830 
  -46716   -46593   -46826   -46888   -46634   -46573   -46650   -46658 
  -46695   -46734   -46768   -46845   -46896   -46886   -46782   -46678 
  -46728   -46754   -46676   -46701   -46751   -46708   -46700   -46734 
  -46758   -46777   -46751   -46757   -46827   -46834   -46801   -46764 
  -46672   -46687   -46816   -46778   -46661   -46685   -46727   -46755 
  -46832   -46815   -46720   -46726   -46789   -46818   -46822   -46796 
  -46734   -46653   -46616   -46664   -46705   -46724   -46792   -46846 
  -46831   -46766   -46660   -46619   -46674   -46688   -46695   -46796 
  -46865   -46809   -46734   -46742   -46796   -46777   -46715   -46759 
  -46820   -46741   -46650   -46658   -46669   -46692   -46755   -46770 
  -46758   -46793   -46826   -46809   -46781   -46764   -46719   -46647 
  -46626   -46692   -46765   -46784   -46799   -46826   -46785   -46738 
  -46778   -46776   -46711   -46716   -46738   -46759   -46789   -46685 
  -46569   -46629   -46701   -46735   -46789   -46772   -46738   -46749 
  -46734   -46724   -46708   -46656   -46700   -46801   -46801   -46770 
  -46801   -46843   -46804   -46711   -46753   -46882   -46845   -46715 
  -46684   -46707   -46739   -46765   -46766   -46813   -46824   -46714 
  -46666   -46728   -46741   -46722   -46728   -46703   -46661   -46681 
  -46754   -46795   -46770   -46745   -46754   -46758   -46724   -46700 
  -46734   -46757   -46724   -46704   -46738   -46805   -46834   -46761 
  -46711   -46749   -46749   -46724   -46735   -46730   -46731   -46750 
  -46766   -46786   -46778   -46780   -46824   -46811   -46776   -46766 
  -46684   -46634   -46695   -46700   -46695   -46745   -46701   -46643 
  -46710   -46754   -46734   -46750   -46780   -46770   -46739   -46737 
  -46742   -46711   -46734   -46801   -46792   -46776   -46805   -46804 
  -46799   -46778   -46715   -46697   -46714   -46704   -46741   -46807 
  -46811   -46780   -46770   -46782   -46791   -46764   -46734   -46732 
  -46727   -46718   -46731   -46734   -46711   -46701   -46722   -46739 
  -46747   -46776   -46809   -46797   -46773   -46755   -46689   -46635 
  -46669   -46715   -46715   -46724   -46765   -46785   -46741   -46687 
  -46714   -46758   -46755   -46764   -46764   -46730   -46730   -46759 
  -46759   -46734   -46726   -46745   -46743   -46715   -46739   -46778 
  -46761   -46750   -46745   -46705   -46734   -46786   -46753   -46734 
  -46761   -46745   -46737   -46758   -46738   -46712   -46720   -46738 
  -46770   -46781   -46755   -46751   -46754   -46718   -46695   -46712 
  -46735   -46747   -46751   -46741   -46728   -46747   -46788   -46795 
  -46780   -46788   -46777   -46724   -46712   -46746   -46754   -46753 
  -46772   -46757   -46715   -46703   -46710   -46734   -46769   -46735 
  -46699   -46754   -46770   -46714   -46727   -46770   -46761   -46774 
  -46805   -46776   -46738   -46749   -46747   -46708   -46681   -46699 
  -46730   -46723   -46715   -46758   -46777   -46738   -46735   -46769 
  -46774   -46755   -46728   -46714   -46719   -46720   -46741   -46781 
  -46768   -46728   -46728   -46743   -46759   -46769   -46742   -46727 
  -46750   -46734   -46701   -46732   -46776   -46761   -46730   -46735 
