Origin Time       2025/03/30 10:46:00
Lat.              32.923
Long.             130.372
Depth. (km)       11
Mag.              3.4
Station Code      SAGH02
Station Lat.      33.2656
Station Long.     129.8798
Station Height(m) -71.5
Record Time       2025/03/30 10:46:38
Sampling Freq(Hz) 100Hz
Duration Time(s)  120
Dir.              3
Scale Factor      3923(gal)/8224838
Max. Acc. (gal)   0.138
Last Correction   2025/03/30 10:46:37
Memo.             
[...]
   -8637    -8635    -8637    -8638    -8637    -8635    -8635    -8637 
   -8637    -8637    -8635    -8634    -8635    -8635    -8633    -8635 
   -8640    -8637    -8635    -8638    -8638    -8634    -8634    -8638 
   -8637    -8634    -8637    -8635    -8634    -8635    -8637    -8635 
   -8635    -8640    -8640    -8635    -8638    -8637    -8634    -8638 
   -8638    -8635    -8637    -8635    -8633    -8637    -8638    -8635 
   -8637    -8637    -8635    -8637    -8635    -8637    -8638    -8634 
   -8634    -8635    -8635    -8635    -8634    -8634    -8638    -8638 
   -8635    -8635    -8637    -8638    -8638    -8634    -8634    -8637 
   -8635    -8635    -8638    -8637    -8634    -8633    -8633    -8635 
   -8637    -8635    -8637    -8637    -8634    -8634    -8634    -8635 
   -8637    -8637    -8634    -8635    -8638    -8638    -8635    -8634 
   -8635    -8638    -8637    -8634    -8635    -8637    -8633    -8633 
   -8637    -8637    -8634    -8634    -8635    -8637    -8638    -8637 
   -8637    -8637    -8637    -8635    -8637    -8635    -8637    -8638 
   -8634    -8630    -8635    -8634    -8633    -8640    -8640    -8633 
   -8635    -8637    -8635    -8637    -8638    -8637    -8635    -8634 
   -8637    -8638    -8637    -8637    -8640    -8635    -8635    -8638 
   -8635    -8635    -8637    -8635    -8637    -8638    -8635    -8637 
   -8637    -8631    -8631    -8635    -8638    -8637    -8633    -8635 
   -8640    -8638    -8635    -8637    -8638    -8634    -8633    -8638 
   -8638    -8635    -8635    -8635    -8635    -8637    -8637    -8637 
   -8635    -8634    -8635    -8637    -8635    -8635    -8635    -8634 
   -8637    -8637    -8634    -8635    -8640    -8640    -8638    -8637 
   -8635    -8635    -8637    -8634    -8634    -8637    -8637    -8635 
   -8637    -8637    -8634    -8637    -8638    -8634    -8633    -8637 
   -8637    -8635    -8635    -8635    -8637    -8638    -8634    -8633 
   -8637    -8638    -8635    -8638    -8637    -8634    -8637    -8637 
   -8635    -8634    -8635    -8637    -8634    -8635    -8635    -8633 
   -8634    -8635    -8634    -8635    -8637    -8638    -8634    -8633 
   -8635    -8637    -8635    -8637    -8640    -8637    -8631    -8634 
   -8637    -8634    -8634    -8637    -8640    -8635    -8634    -8637 
   -8637    -8637    -8638    -8635    -8634    -8635    -8637    -8637 
   -8637    -8635    -8635    -8638    -8638    -8635    -8633    -8635 
   -8638    -8638    -8635    -8635    -8637    -8637    -8637    -8637 
   -8637    -8637    -8637    -8635    -8635    -8637    -8635    -8635 
   -8638    -8640    -8640    -8637    -8633    -8633    -8634    -8638 
   -8637    -8635    -8635    -8635    -8637    -8637    -8635    -8637 
   -8638    -8635    -8634    -8635    -8638    -8638    -8634    -8631 
   -8635    -8638    -8638    -8637    -8633    -8634    -8637    -8634 
   -8633    -8635    -8637    -8638    -8640    -8635    -8631    -8634 
   -8635    -8634    -8637    -8640    -8635    -8635    -8635    -8635 
   -8637    -8635    -8634    -8638    -8637    -8635    -8638    -8638 
   -8635    -8637    -8635    -8637    -8637    -8635    -8640    -8640 
   -8635    -8635    -8638    -8635    -8634    -8638    -8637    -8633 
   -8635    -8637    -8637    -8635    -8635    -8638    -8637    -8634 
   -8634    -8637    -8635    -8633    -8634    -8638    -8638    -8635 
   -8633    -8635    -8635    -8635    -8638    -8640    -8635    -8635 
   -8635    -8634    -8635    -8634    -8634    -8637    -8635    -8637 
   -8638    -8637    -8634    -8634    -8635    -8638    -8638    -8638 
   -8637    -8637    -8635    -8635    -8637    -8638    -8638    -8637 
   -8635    -8635    -8635    -8635    -8635    -8637    -8640    -8640 
   -8634    -8634    -8637    -8638    -8637    -8633    -8634    -8638 
   -8637    -8633    -8634    -8637    -8638    -8634    -8634    -8638 
   -8638    -8634    -8634    -8637    -8635    -8637    -8635    -8634 
   -8637    -8637    -8635    -8634    -8633    -8635    -8637    -8635 
   -8638    -8638    -8635    -8637    -8638    -8635    -8634    -8635 
   -8637    -8635    -8635    -8637    -8637    -8637    -8637    -8637 
   -8634    -8633    -8634    -8635    -8635    -8634    -8634    -8635 
   -8638    -8638    -8634    -8635    -8638    -8637    -8635    -8634 
   -8634    -8637    -8638    -8637    -8635    -8637    -8637    -8635 
   -8637    -8638    -8637    -8634    -8634    -8634    -8635    -8637 
   -8634    -8634    -8635    -8635    -8635    -8634    -8637    -8637 
   -8633    -8637    -8640    -8634    -8637    -8638    -8633    -8634 
   -8637    -8635    -8635    -8635    -8634    -8635    -8638    -8640 
   -8635    -8633    -8635    -8637    -8634    -8635    -8638    -8638 
   -8637    -8637    -8635    -8635    -8637    -8637    -8637    -8638 
   -8637    -8637    -8637    -8635    -8635    -8635    -8635    -8635 
   -8635    -8635    -8637    -8637    -8635    -8638    -8638    -8634 
   -8637    -8637    -8633    -8638    -8641    -8635    -8635    -8635 
   -8633    -8634    -8637    -8635    -8633    -8634    -8637    -8638 
   -8634    -8635    -8638    -8635    -8634    -8638    -8637    -8635 
   -8637    -8635    -8635    -8640    -8638    -8633    -8634    -8635 
   -8633    -8635    -8640    -8637    -8634    -8637    -8638    -8637 
   -8634    -8633    -8635    -8638    -8637    -8634    -8633    -8635 
   -8638    -8637    -8634    -8634    -8637    -8638    -8638    -8634 
   -8634    -8638    -8637    -8635    -8637    -8635    -8635    -8638 
   -8637    -8635    -8635    -8635    -8634    -8635    -8637    -8637 
   -8638    -8640    -8638    -8635    -8634    -8635    -8635    -8635 
   -8638    -8637    -8633    -8634    -8638    -8637    -8634    -8635 
   -8634    -8635    -8638    -8635    -8631    -8634    -8637    -8635 
   -8635    -8634    -8633    -8634    -8638    -8638    -8634    -8634 
   -8635    -8634    -8635    -8637    -8638    -8638    -8637    -8640 
   -8641    -8634    -8631    -8638    -8638    -8633    -8633    -8637 
   -8635    -8634    -8634    -8634    -8634    -8638    -8637    -8634 
   -8635    -8637    -8637    -8637    -8637    -8635    -8637    -8637 
   -8637    -8638    -8635    -8635    -8641    -8638    -8634    -8634 
   -8634    -8634    -8635    -8635    -8637    -8637    -8633    -8635 
   -8638    -8637    -8637    -8635    -8634    -8637    -8638    -8637 
   -8637    -8635    -8633    -8638    -8641    -8635    -8633    -8635 
   -8637    -8634    -8631    -8633    -8634    -8633    -8634    -8637 
   -8638    -8637    -8637    -8640    -8638    -8637    -8637    -8635 
   -8635    -8637    -8638    -8635    -8635    -8638    -8637    -8635 
   -8640    -8635    -8631    -8635    -8637    -8631    -8634    -8640 
   -8635    -8635    -8635    -8633    -8637    -8637    -8633    -8634 
   -8635    -8634    -8635    -8637    -8637    -8638    -8635    -8630 
   -8631    -8640    -8645    -8640    -8631    -8631    -8633    -8645 
   -8665    -8644    -8600    -8631    -8689    -8664    -8584    -8550 
   -8611    -8733    -8742    -8592    -8494    -8586    -8758    -8785 
   -8602    -8495    -8623    -8723    -8667    -8586    -8565    -8634 
   -8710    -8667    -8561    -8552    -8677    -8741    -8641    -8571 
   -8590    -8621    -8680    -8681    -8611    -8611    -8656    -8669 
   -8668    -8640    -8617    -8629    -8634    -8656    -8672    -8614 
   -8583    -8590    -8588    -8662    -8719    -8660    -8602    -8619 
   -8662    -8629    -8588    -8657    -8672    -8618    -8640    -8634 
   -8592    -8618    -8638    -8656    -8689    -8665    -8640    -8638 
   -8614    -8637    -8662    -8622    -8631    -8645    -8606    -8623 
   -8622    -8602    -8667    -8675    -8608    -8604    -8607    -8637 
   -8706    -8657    -8568    -8619    -8710    -8658    -8575    -8660 
   -8696    -8548    -8564    -8716    -8700    -8652    -8633    -8591 
   -8637    -8648    -8581    -8644    -8711    -8631    -8567    -8603 
   -8648    -8653    -8658    -8665    -8634    -8640    -8692    -8635 
   -8533    -8563    -8637    -8669    -8692    -8656    -8591    -8625 
   -8689    -8672    -8603    -8579    -8652    -8722    -8700    -8621 
   -8545    -8596    -8734    -8696    -8545    -8541    -8633    -8710 
   -8707    -8568    -8496    -8621    -8723    -8688    -8627    -8629 
   -8661    -8631    -8602    -8658    -8672    -8629    -8634    -8622 
   -8617    -8649    -8598    -8586    -8696    -8692    -8618    -8640 
   -8638    -8603    -8629    -8654    -8661    -8653    -8627    -8622 
   -8602    -8594    -8664    -8703    -8665    -8641    -8602    -8561 
   -8621    -8694    -8656    -8592    -8598    -8650    -8684    -8657 
   -8645    -8656    -8599    -8584    -8681    -8698    -8618    -8592 
   -8588    -8629    -8726    -8698    -8591    -8599    -8637    -8610 
   -8588    -8622    -8695    -8696    -8607    -8572    -8606    -8640 
   -8689    -8714    -8685    -8652    -8590    -8532    -8602    -8710 
   -8668    -8571    -8577    -8618    -8645    -8716    -8738    -8623 
   -8554    -8610    -8633    -8608    -8652    -8725    -8695    -8569 
   -8525    -8613    -8685    -8699    -8680    -8599    -8571    -8649 
   -8649    -8600    -8650    -8680    -8650    -8664    -8638    -8568 
   -8581    -8665    -8710    -8644    -8568    -8621    -8658    -8608 
   -8646    -8710    -8660    -8615    -8623    -8594    -8606    -8699 
   -8687    -8557    -8533    -8641    -8734    -8723    -8642    -8587 
   -8580    -8625    -8680    -8629    -8587    -8691    -8699    -8564 
   -8567    -8646    -8660    -8715    -8710    -8607    -8602    -8633 
   -8600    -8595    -8644    -8671    -8635    -8633    -8652    -8577 
   -8560    -8679    -8726    -8667    -8613    -8581    -8614    -8653 
   -8640    -8638    -8623    -8635    -8723    -8662    -8527    -8600 
   -8680    -8617    -8618    -8673    -8649    -8629    -8657    -8660 
   -8644    -8646    -8654    -8640    -8579    -8575    -8691    -8723 
   -8590    -8537    -8633    -8688    -8689    -8657    -8534    -8533 
   -8716    -8721    -8581    -8599    -8668    -8707    -8702    -8583 
   -8540    -8625    -8668    -8673    -8656    -8641    -8664    -8621 
   -8560    -8607    -8657    -8650    -8658    -8654    -8608    -8586 
   -8615    -8679    -8700    -8629    -8600    -8661    -8638    -8579 
   -8621    -8661    -8684    -8694    -8576    -8509    -8656    -8757 
   -8662    -8557    -8572    -8662    -8712    -8695    -8626    -8521 
   -8537    -8721    -8788    -8631    -8529    -8614    -8685    -8644 
   -8617    -8656    -8675    -8640    -8614    -8608    -8606    -8660 
   -8699    -8629    -8591    -8610    -8603    -8669    -8735    -8669 
   -8590    -8553    -8580    -8696    -8743    -8644    -8536    -8560 
   -8687    -8695    -8583    -8583    -8652    -8665    -8664    -8658 
   -8599    -8568    -8661    -8722    -8634    -8604    -8650    -8621 
   -8621    -8671    -8631    -8583    -8625    -8657    -8638    -8631 
   -8638    -8649    -8685    -8669    -8584    -8579    -8646    -8679 
   -8700    -8665    -8554    -8549    -8669    -8719    -8641    -8580 
   -8622    -8656    -8648    -8669    -8680    -8653    -8618    -8584 
   -8606    -8641    -8610    -8596    -8646    -8684    -8680    -8645 
   -8614    -8635    -8685    -8680    -8596    -8537    -8590    -8695 
   -8700    -8613    -8584    -8611    -8635    -8664    -8645    -8576 
   -8561    -8658    -8745    -8679    -8606    -8633    -8596    -8557 
   -8665    -8726    -8641    -8631    -8699    -8634    -8533    -8606 
   -8695    -8649    -8646    -8692    -8614    -8556    -8656    -8714 
   -8652    -8603    -8563    -8550    -8661    -8762    -8695    -8545 
   -8545    -8699    -8714    -8598    -8603    -8656    -8669    -8712 
   -8681    -8549    -8550    -8662    -8653    -8646    -8698    -8590 
   -8484    -8592    -8716    -8743    -8661    -8553    -8598    -8648 
   -8594    -8631    -8696    -8672    -8662    -8603    -8510    -8611 
   -8777    -8726    -8587    -8577    -8619    -8625    -8649    -8677 
   -8654    -8600    -8600    -8680    -8703    -8635    -8626    -8619 
   -8541    -8567    -8679    -8672    -8630    -8669    -8656    -8599 
   -8630    -8642    -8617    -8699    -8716    -8577    -8561    -8669 
   -8684    -8654    -8645    -8629    -8635    -8629    -8598    -8621 
   -8638    -8613    -8630    -8638    -8608    -8642    -8679    -8627 
   -8576    -8596    -8653    -8698    -8708    -8654    -8568    -8575 
   -8660    -8699    -8692    -8649    -8606    -8640    -8653    -8576 
   -8564    -8644    -8704    -8700    -8623    -8550    -8573    -8629 
   -8638    -8642    -8652    -8640    -8644    -8641    -8617    -8656 
   -8714    -8684    -8606    -8583    -8658    -8706    -8658    -8594 
   -8522    -8549    -8696    -8723    -8633    -8599    -8606    -8611 
   -8635    -8667    -8684    -8661    -8604    -8598    -8658    -8688 
   -8649    -8608    -8613    -8635    -8649    -8638    -8603    -8604 
   -8652    -8672    -8667    -8652    -8615    -8598    -8638    -8689 
   -8680    -8640    -8623    -8608    -8583    -8576    -8617    -8638 
   -8584    -8599    -8694    -8694    -8660    -8680    -8687    -8646 
   -8596    -8594    -8614    -8630    -8660    -8629    -8587    -8673 
   -8739    -8685    -8660    -8687    -8737    -8797    -8760    -8587 
   -8403    -8347    -8414    -8483    -8546    -8627    -8656    -8711 
   -8837    -8865    -8764    -8629    -8538    -8541    -8602    -8688 
   -8721    -8626    -8561    -8600    -8660    -8715    -8702    -8653 
   -8657    -8649    -8677    -8730    -8664    -8590    -8522    -8384 
   -8409    -8580    -8634    -8602    -8583    -8648    -8753    -8714 
   -8671    -8738    -8688    -8611    -8668    -8677    -8637    -8703 
   -8750    -8623    -8490    -8554    -8691    -8691    -8630    -8629 
   -8626    -8641    -8680    -8599    -8499    -8577    -8727    -8807 
   -8758    -8613    -8550    -8590    -8598    -8607    -8654    -8692 
   -8679    -8614    -8572    -8549    -8549    -8662    -8754    -8684 
   -8607    -8581    -8569    -8614    -8687    -8704    -8630    -8567 
   -8633    -8689    -8621    -8587    -8653    -8723    -8715    -8608 
   -8540    -8631    -8749    -8698    -8559    -8515    -8561    -8619 
   -8648    -8638    -8623    -8637    -8675    -8669    -8619    -8646 
   -8718    -8667    -8584    -8688    -8843    -8781    -8629    -8634 
   -8707    -8648    -8505    -8475    -8594    -8704    -8679    -8579 
   -8542    -8577    -8629    -8680    -8673    -8604    -8587    -8641 
   -8696    -8710    -8641    -8526    -8506    -8630    -8773    -8803 
   -8731    -8644    -8530    -8459    -8549    -8645    -8615    -8625 
   -8657    -8598    -8567    -8625    -8685    -8685    -8653    -8680 
   -8721    -8675    -8622    -8625    -8622    -8600    -8615    -8692 
   -8733    -8650    -8596    -8685    -8741    -8687    -8630    -8650 
   -8719    -8654    -8517    -8534    -8581    -8583    -8677    -8712 
   -8621    -8607    -8637    -8622    -8619    -8608    -8554    -8521 
   -8630    -8793    -8721    -8498    -8478    -8622    -8716    -8737 
   -8691    -8618    -8569    -8556    -8653    -8784    -8716    -8548 
   -8521    -8608    -8699    -8750    -8699    -8588    -8567    -8606 
   -8568    -8549    -8618    -8672    -8719    -8731    -8661    -8626 
   -8658    -8673    -8665    -8623    -8573    -8615    -8716    -8733 
   -8619    -8488    -8484    -8559    -8613    -8676    -8694    -8649 
   -8671    -8715    -8654    -8527    -8503    -8648    -8761    -8726 
   -8653    -8613    -8675    -8796    -8749    -8607    -8577    -8550 
   -8510    -8546    -8576    -8630    -8749    -8779    -8695    -8606 
   -8559    -8545    -8546    -8592    -8629    -8598    -8599    -8626 
   -8608    -8598    -8600    -8630    -8698    -8750    -8781    -8730 
   -8607    -8587    -8660    -8715    -8731    -8650    -8575    -8684 
   -8785    -8645    -8472    -8496    -8565    -8554    -8625    -8734 
   -8712    -8696    -8730    -8654    -8588    -8680    -8735    -8606 
   -8523    -8637    -8689    -8603    -8584    -8617    -8600    -8607 
   -8631    -8599    -8595    -8679    -8708    -8640    -8633    -8668 
   -8606    -8519    -8534    -8642    -8723    -8676    -8619    -8679 
   -8716    -8630    -8560    -8583    -8617    -8611    -8587    -8586 
   -8626    -8662    -8680    -8703    -8711    -8665    -8614    -8640 
   -8676    -8644    -8622    -8660    -8681    -8665    -8645    -8576 
   -8507    -8588    -8696    -8625    -8521    -8573    -8676    -8681 
   -8641    -8580    -8505    -8572    -8741    -8745    -8622    -8596 
   -8689    -8779    -8762    -8685    -8629    -8617    -8652    -8650 
   -8583    -8575    -8640    -8661    -8599    -8526    -8529    -8617 
   -8698    -8691    -8644    -8645    -8669    -8633    -8559    -8579 
   -8683    -8704    -8662    -8665    -8656    -8623    -8637    -8637 
   -8627    -8645    -8619    -8615    -8689    -8703    -8630    -8568 
   -8563    -8635    -8698    -8644    -8560    -8579    -8637    -8631 
   -8619    -8630    -8600    -8586    -8679    -8735    -8638    -8575 
   -8637    -8661    -8633    -8635    -8618    -8595    -8644    -8668 
   -8617    -8596    -8594    -8592    -8654    -8722    -8729    -8708 
   -8667    -8623    -8629    -8635    -8613    -8614    -8617    -8603 
   -8640    -8668    -8626    -8617    -8649    -8644    -8638    -8653 
   -8652    -8656    -8637    -8557    -8536    -8634    -8699    -8652 
   -8607    -8613    -8608    -8608    -8622    -8607    -8621    -8684 
   -8706    -8665    -8625    -8618    -8633    -8650    -8654    -8631 
   -8602    -8622    -8675    -8685    -8664    -8662    -8652    -8630 
   -8634    -8627    -8607    -8618    -8635    -8642    -8633    -8621 
   -8630    -8631    -8614    -8622    -8649    -8660    -8654    -8640 
   -8646    -8672    -8665    -8642    -8637    -8619    -8590    -8615 
   -8657    -8638    -8619    -8645    -8621    -8590    -8650    -8667 
   -8575    -8556    -8627    -8661    -8654    -8635    -8637    -8661 
   -8635    -8613    -8658    -8667    -8633    -8656    -8684    -8657 
   -8649    -8669    -8661    -8656    -8657    -8611    -8563    -8584 
   -8617    -8615    -8634    -8660    -8638    -8614    -8602    -8604 
   -8652    -8671    -8661    -8694    -8703    -8660    -8614    -8576 
   -8596    -8656    -8652    -8607    -8606    -8646    -8667    -8626 
   -8583    -8617    -8661    -8654    -8646    -8653    -8653    -8641 
   -8587    -8552    -8617    -8675    -8638    -8608    -8642    -8657 
   -8641    -8660    -8688    -8667    -8640    -8634    -8633    -8650 
   -8657    -8630    -8638    -8665    -8638    -8615    -8638    -8629 
   -8603    -8629    -8648    -8617    -8590    -8596    -8630    -8658 
   -8646    -8630    -8645    -8656    -8645    -8618    -8599    -8629 
   -8671    -8654    -8614    -8604    -8633    -8660    -8654    -8652 
   -8660    -8638    -8617    -8629    -8650    -8668    -8664    -8633 
   -8631    -8658    -8649    -8614    -8611    -8633    -8633    -8618 
   -8625    -8637    -8627    -8631    -8661    -8652    -8598    -8583 
