Origin Time       2025/03/30 10:46:00
Lat.              32.923
Long.             130.372
Depth. (km)       11
Mag.              3.4
Station Code      SAGH02
Station Lat.      33.2656
Station Long.     129.8798
Station Height(m) 31
Record Time       2025/03/30 10:46:38
Sampling Freq(Hz) 100Hz
Duration Time(s)  120
Dir.              6
Scale Factor      7845(gal)/8223790
Max. Acc. (gal)   0.485
Last Correction   2025/03/30 10:46:37
Memo.             
[...]
   -2647    -2650    -2651    -2654    -2656    -2650    -2644    -2644 
   -2650    -2656    -2658    -2652    -2644    -2640    -2652    -2667 
   -2658    -2640    -2641    -2654    -2658    -2654    -2644    -2648 
   -2658    -2651    -2644    -2652    -2662    -2650    -2635    -2651 
   -2667    -2654    -2641    -2646    -2654    -2654    -2650    -2654 
   -2654    -2646    -2647    -2659    -2656    -2646    -2646    -2651 
   -2652    -2652    -2646    -2647    -2656    -2654    -2646    -2650 
   -2655    -2651    -2648    -2652    -2654    -2654    -2650    -2646 
   -2650    -2656    -2654    -2646    -2650    -2656    -2650    -2647 
   -2656    -2656    -2644    -2646    -2655    -2656    -2655    -2648 
   -2647    -2658    -2656    -2648    -2650    -2648    -2647    -2648 
   -2652    -2655    -2651    -2648    -2651    -2656    -2651    -2644 
   -2650    -2651    -2651    -2655    -2655    -2654    -2647    -2644 
   -2648    -2655    -2658    -2650    -2643    -2650    -2654    -2652 
   -2650    -2648    -2651    -2652    -2655    -2655    -2646    -2641 
   -2652    -2660    -2654    -2643    -2644    -2654    -2652    -2648 
   -2651    -2648    -2646    -2651    -2654    -2655    -2654    -2646 
   -2644    -2654    -2658    -2651    -2647    -2648    -2652    -2655 
   -2651    -2650    -2652    -2650    -2646    -2654    -2662    -2650 
   -2640    -2651    -2658    -2650    -2650    -2652    -2650    -2650 
   -2651    -2651    -2655    -2655    -2647    -2651    -2656    -2652 
   -2652    -2652    -2651    -2652    -2650    -2650    -2652    -2648 
   -2651    -2654    -2651    -2650    -2648    -2650    -2656    -2655 
   -2646    -2650    -2655    -2651    -2650    -2651    -2654    -2658 
   -2652    -2646    -2652    -2654    -2650    -2651    -2651    -2648 
   -2654    -2655    -2651    -2651    -2652    -2651    -2648    -2648 
   -2648    -2650    -2652    -2648    -2650    -2658    -2652    -2644 
   -2648    -2655    -2656    -2651    -2647    -2652    -2656    -2651 
   -2647    -2654    -2654    -2648    -2654    -2654    -2647    -2651 
   -2654    -2651    -2651    -2651    -2650    -2652    -2652    -2647 
   -2648    -2655    -2656    -2648    -2647    -2656    -2654    -2647 
   -2651    -2650    -2651    -2656    -2652    -2647    -2651    -2656 
   -2655    -2647    -2646    -2654    -2654    -2650    -2655    -2654 
   -2644    -2644    -2651    -2655    -2654    -2650    -2652    -2651 
   -2648    -2654    -2658    -2655    -2647    -2647    -2651    -2655 
   -2656    -2650    -2647    -2654    -2652    -2648    -2654    -2655 
   -2646    -2641    -2652    -2660    -2654    -2646    -2646    -2652 
   -2656    -2652    -2648    -2647    -2648    -2654    -2656    -2651 
   -2648    -2650    -2647    -2651    -2654    -2647    -2647    -2652 
   -2652    -2650    -2647    -2650    -2655    -2651    -2643    -2651 
   -2659    -2650    -2640    -2647    -2655    -2650    -2644    -2651 
   -2655    -2655    -2654    -2650    -2650    -2654    -2650    -2648 
   -2654    -2654    -2648    -2648    -2652    -2652    -2651    -2650 
   -2650    -2651    -2650    -2650    -2650    -2650    -2651    -2650 
   -2650    -2651    -2650    -2647    -2650    -2656    -2654    -2650 
   -2648    -2648    -2655    -2652    -2647    -2650    -2652    -2647 
   -2650    -2658    -2654    -2646    -2648    -2651    -2652    -2654 
   -2650    -2650    -2650    -2648    -2654    -2654    -2644    -2644 
   -2651    -2655    -2654    -2650    -2648    -2648    -2650    -2654 
   -2655    -2654    -2650    -2647    -2648    -2658    -2655    -2644 
   -2647    -2654    -2655    -2652    -2647    -2641    -2650    -2660 
   -2650    -2644    -2655    -2655    -2651    -2651    -2650    -2651 
   -2652    -2648    -2650    -2654    -2652    -2648    -2648    -2652 
   -2652    -2648    -2655    -2658    -2644    -2643    -2655    -2652 
   -2648    -2651    -2650    -2651    -2654    -2650    -2650    -2652 
   -2648    -2647    -2651    -2648    -2648    -2650    -2650    -2651 
   -2650    -2644    -2648    -2652    -2652    -2654    -2652    -2644 
   -2646    -2654    -2651    -2651    -2652    -2647    -2650    -2656 
   -2650    -2640    -2651    -2662    -2652    -2646    -2650    -2652 
   -2658    -2651    -2639    -2651    -2660    -2648    -2646    -2654 
   -2652    -2650    -2650    -2647    -2648    -2652    -2651    -2651 
   -2652    -2648    -2644    -2650    -2656    -2651    -2647    -2650 
   -2648    -2650    -2652    -2652    -2650    -2648    -2650    -2650 
   -2651    -2651    -2646    -2647    -2654    -2655    -2651    -2651 
   -2648    -2650    -2654    -2648    -2646    -2654    -2655    -2647 
   -2647    -2652    -2650    -2647    -2648    -2651    -2652    -2651 
   -2648    -2650    -2650    -2647    -2651    -2654    -2646    -2641 
   -2651    -2656    -2654    -2648    -2644    -2650    -2656    -2652 
   -2646    -2647    -2650    -2650    -2655    -2656    -2647    -2646 
   -2651    -2648    -2652    -2654    -2644    -2647    -2658    -2656 
   -2650    -2648    -2648    -2646    -2644    -2647    -2652    -2658 
   -2660    -2659    -2654    -2643    -2636    -2650    -2663    -2658 
   -2643    -2639    -2651    -2675    -2698    -2667    -2586    -2609 
   -2732    -2720    -2556    -2473    -2589    -2829    -2926    -2683 
   -2378    -2450    -2814    -2953    -2651    -2350    -2496    -2808 
   -2814    -2631    -2546    -2569    -2679    -2806    -2714    -2496 
   -2547    -2739    -2700    -2619    -2643    -2582    -2596    -2794 
   -2781    -2533    -2547    -2782    -2790    -2605    -2500    -2521 
   -2659    -2828    -2779    -2535    -2505    -2685    -2678    -2592 
   -2694    -2783    -2662    -2565    -2652    -2668    -2565    -2594 
   -2652    -2610    -2691    -2818    -2701    -2536    -2585    -2675 
   -2710    -2740    -2667    -2554    -2578    -2679    -2695    -2632 
   -2624    -2651    -2650    -2689    -2685    -2578    -2598    -2713 
   -2658    -2578    -2647    -2693    -2708    -2729    -2602    -2504 
   -2675    -2760    -2570    -2593    -2817    -2673    -2443    -2652 
   -2874    -2721    -2548    -2552    -2598    -2639    -2637    -2651 
   -2771    -2767    -2546    -2516    -2739    -2764    -2570    -2500 
   -2593    -2737    -2874    -2785    -2439    -2340    -2662    -2856 
   -2731    -2606    -2587    -2625    -2727    -2803    -2697    -2458 
   -2427    -2710    -2924    -2783    -2513    -2474    -2689    -2789 
   -2585    -2419    -2581    -2855    -2879    -2613    -2400    -2529 
   -2797    -2808    -2596    -2543    -2697    -2733    -2639    -2675 
   -2690    -2506    -2498    -2760    -2832    -2656    -2532    -2573 
   -2740    -2797    -2602    -2502    -2659    -2713    -2579    -2556 
   -2728    -2857    -2739    -2506    -2470    -2636    -2743    -2693 
   -2635    -2670    -2677    -2589    -2585    -2722    -2766    -2621 
   -2519    -2598    -2718    -2735    -2694    -2658    -2571    -2513 
   -2652    -2813    -2731    -2554    -2525    -2652    -2828    -2828 
   -2579    -2430    -2538    -2647    -2654    -2670    -2724    -2758 
   -2709    -2632    -2625    -2627    -2577    -2593    -2693    -2724 
   -2641    -2546    -2586    -2763    -2797    -2586    -2473    -2621 
   -2739    -2733    -2758    -2691    -2509    -2525    -2685    -2652 
   -2585    -2754    -2843    -2610    -2452    -2601    -2716    -2646 
   -2641    -2706    -2682    -2681    -2690    -2566    -2520    -2659 
   -2725    -2722    -2735    -2606    -2446    -2555    -2812    -2828 
   -2623    -2536    -2583    -2594    -2710    -2893    -2744    -2451 
   -2531    -2686    -2574    -2620    -2829    -2686    -2405    -2528 
   -2876    -2929    -2685    -2501    -2466    -2567    -2760    -2728 
   -2501    -2587    -2870    -2785    -2540    -2551    -2610    -2650 
   -2781    -2771    -2587    -2540    -2612    -2578    -2589    -2755 
   -2787    -2683    -2691    -2621    -2392    -2462    -2856    -2943 
   -2627    -2463    -2631    -2781    -2682    -2509    -2484    -2633 
   -2840    -2818    -2546    -2484    -2721    -2760    -2573    -2620 
   -2763    -2647    -2536    -2639    -2720    -2701    -2691    -2660 
   -2547    -2535    -2748    -2844    -2596    -2407    -2555    -2743 
   -2817    -2818    -2550    -2281    -2601    -3015    -2798    -2443 
   -2521    -2758    -2825    -2712    -2502    -2409    -2577    -2790 
   -2799    -2727    -2678    -2551    -2482    -2675    -2822    -2628 
   -2478    -2673    -2806    -2644    -2516    -2639    -2801    -2716 
   -2520    -2582    -2754    -2663    -2462    -2501    -2787    -2983 
   -2720    -2311    -2475    -2975    -2943    -2430    -2253    -2596 
   -2886    -2839    -2679    -2520    -2446    -2647    -2913    -2801 
   -2496    -2504    -2693    -2708    -2662    -2658    -2589    -2562 
   -2714    -2808    -2629    -2542    -2729    -2740    -2520    -2492 
   -2647    -2759    -2798    -2708    -2517    -2474    -2629    -2789 
   -2837    -2706    -2473    -2479    -2741    -2779    -2513    -2425 
   -2678    -2887    -2806    -2659    -2597    -2524    -2546    -2697 
   -2724    -2631    -2600    -2608    -2673    -2821    -2781    -2488 
   -2421    -2675    -2747    -2604    -2594    -2718    -2830    -2824 
   -2597    -2397    -2527    -2759    -2775    -2648    -2521    -2496 
   -2681    -2886    -2775    -2539    -2594    -2740    -2644    -2558 
   -2664    -2689    -2550    -2539    -2710    -2783    -2673    -2558 
   -2592    -2740    -2797    -2673    -2512    -2519    -2732    -2855 
   -2664    -2452    -2502    -2670    -2725    -2647    -2613    -2717 
   -2758    -2646    -2605    -2631    -2508    -2469    -2754    -2929 
   -2728    -2563    -2575    -2565    -2647    -2791    -2660    -2488 
   -2687    -2813    -2563    -2539    -2789    -2718    -2533    -2655 
   -2700    -2543    -2625    -2794    -2658    -2527    -2619    -2643 
   -2639    -2786    -2791    -2504    -2442    -2802    -2897    -2551 
   -2478    -2727    -2744    -2666    -2721    -2573    -2373    -2600 
   -2816    -2712    -2739    -2743    -2424    -2396    -2847    -2968 
   -2582    -2409    -2631    -2732    -2583    -2565    -2741    -2810 
   -2724    -2600    -2498    -2600    -2822    -2710    -2411    -2529 
   -2848    -2793    -2585    -2612    -2709    -2666    -2571    -2583 
   -2666    -2654    -2609    -2662    -2687    -2624    -2621    -2656 
   -2652    -2739    -2779    -2559    -2448    -2637    -2743    -2722 
   -2758    -2685    -2540    -2589    -2689    -2617    -2596    -2743 
   -2764    -2586    -2515    -2666    -2743    -2608    -2566    -2709 
   -2733    -2609    -2548    -2577    -2652    -2720    -2687    -2678 
   -2797    -2743    -2458    -2450    -2755    -2840    -2644    -2515 
   -2578    -2768    -2882    -2678    -2362    -2398    -2725    -2882 
   -2739    -2544    -2509    -2592    -2628    -2664    -2776    -2771 
   -2635    -2598    -2648    -2671    -2666    -2620    -2559    -2617 
   -2781    -2789    -2632    -2546    -2508    -2528    -2736    -2871 
   -2683    -2519    -2597    -2629    -2623    -2752    -2770    -2589 
   -2516    -2620    -2716    -2721    -2687    -2651    -2620    -2625 
   -2675    -2668    -2552    -2517    -2656    -2772    -2766    -2736 
   -2690    -2567    -2504    -2636    -2759    -2671    -2535    -2558 
   -2675    -2700    -2668    -2679    -2629    -2587    -2693    -2766 
   -2706    -2647    -2590    -2496    -2512    -2686    -2754    -2641 
   -2625    -2710    -2724    -2755    -2790    -2612    -2392    -2492 
   -2772    -2866    -2767    -2609    -2467    -2536    -2799    -2839 
   -2600    -2506    -2566    -2544    -2583    -2698    -2613    -2417 
   -2511    -2841    -2984    -2893    -2760    -2581    -2475    -2623 
   -2743    -2551    -2378    -2551    -2752    -2751    -2852    -3011 
   -2786    -2324    -2143    -2277    -2488    -2710    -2911    -2911 
   -2681    -2586    -2828    -2972    -2775    -2562    -2442    -2370 
   -2609    -3017    -2948    -2524    -2446    -2560    -2448    -2434 
   -2637    -2668    -2671    -2928    -3005    -2758    -2606    -2471 
   -2261    -2408    -2860    -3044    -2841    -2581    -2494    -2550 
   -2668    -2805    -2695    -2303    -2242    -2713    -3007    -2805 
   -2641    -2758    -2791    -2675    -2575    -2397    -2308    -2604 
   -2916    -2860    -2700    -2655    -2641    -2643    -2597    -2469 
   -2548    -2874    -2944    -2632    -2371    -2450    -2740    -2783 
   -2477    -2376    -2640    -2818    -2836    -2879    -2759    -2448 
   -2416    -2690    -2803    -2731    -2739    -2745    -2602    -2482 
   -2574    -2718    -2675    -2582    -2663    -2673    -2436    -2390 
   -2751    -3021    -2864    -2586    -2517    -2602    -2690    -2718 
   -2609    -2440    -2529    -2848    -2938    -2731    -2552    -2461 
   -2462    -2648    -2758    -2606    -2567    -2833    -2959    -2650 
   -2249    -2195    -2601    -3119    -3121    -2529    -2168    -2556 
   -2999    -2764    -2312    -2376    -2825    -3121    -2997    -2583 
   -2305    -2428    -2698    -2774    -2700    -2623    -2527    -2556 
   -2857    -2997    -2567    -2195    -2562    -3051    -2862    -2367 
   -2295    -2695    -3072    -2906    -2382    -2278    -2668    -2833 
   -2629    -2508    -2548    -2608    -2743    -2934    -2920    -2529 
   -2141    -2338    -2880    -3028    -2733    -2516    -2623    -2803 
   -2741    -2570    -2598    -2677    -2569    -2543    -2729    -2714 
   -2428    -2347    -2687    -3046    -2913    -2455    -2322    -2648 
   -2938    -2855    -2648    -2631    -2678    -2636    -2633    -2667 
   -2563    -2435    -2547    -2764    -2759    -2575    -2513    -2612 
   -2677    -2678    -2690    -2660    -2570    -2559    -2724    -2901 
   -2867    -2706    -2610    -2614    -2693    -2716    -2535    -2339 
   -2417    -2678    -2893    -2980    -2836    -2509    -2369    -2558 
   -2700    -2560    -2467    -2619    -2724    -2610    -2542    -2701 
   -2890    -2918    -2781    -2508    -2308    -2388    -2581    -2690 
   -2772    -2864    -2848    -2666    -2559    -2740    -2887    -2675 
   -2450    -2490    -2554    -2616    -2778    -2735    -2496    -2558 
   -2794    -2714    -2547    -2629    -2720    -2674    -2662    -2679 
   -2621    -2593    -2683    -2691    -2601    -2675    -2745    -2567 
   -2497    -2717    -2810    -2636    -2547    -2614    -2644    -2662 
   -2668    -2582    -2589    -2755    -2745    -2529    -2520    -2741 
   -2778    -2625    -2610    -2682    -2658    -2628    -2640    -2629 
   -2682    -2774    -2690    -2504    -2461    -2521    -2650    -2870 
   -2938    -2686    -2415    -2496    -2808    -2932    -2720    -2452 
   -2425    -2601    -2783    -2776    -2542    -2413    -2597    -2763 
   -2673    -2538    -2594    -2794    -2889    -2690    -2407    -2481 
   -2825    -2901    -2670    -2525    -2582    -2729    -2814    -2709 
   -2544    -2535    -2619    -2619    -2562    -2585    -2682    -2718 
   -2628    -2555    -2644    -2783    -2806    -2713    -2619    -2596 
   -2617    -2650    -2631    -2539    -2528    -2666    -2798    -2794 
   -2668    -2547    -2596    -2774    -2830    -2686    -2525    -2501 
   -2594    -2706    -2733    -2678    -2650    -2637    -2569    -2516 
   -2593    -2737    -2743    -2600    -2583    -2767    -2824    -2598 
   -2470    -2666    -2778    -2612    -2519    -2609    -2705    -2732 
   -2631    -2474    -2542    -2775    -2782    -2596    -2574    -2704 
   -2760    -2751    -2739    -2664    -2536    -2502    -2624    -2713 
   -2651    -2601    -2624    -2612    -2673    -2799    -2733    -2574 
   -2575    -2610    -2613    -2700    -2741    -2655    -2620    -2662 
   -2631    -2567    -2600    -2660    -2660    -2681    -2714    -2656 
   -2562    -2566    -2659    -2701    -2650    -2627    -2670    -2702 
   -2690    -2640    -2604    -2651    -2698    -2633    -2579    -2625 
   -2654    -2659    -2729    -2774    -2701    -2587    -2523    -2558 
   -2678    -2744    -2655    -2578    -2646    -2694    -2656    -2694 
   -2747    -2648    -2548    -2593    -2641    -2654    -2718    -2727 
   -2602    -2543    -2625    -2722    -2768    -2710    -2579    -2569 
   -2652    -2606    -2542    -2654    -2728    -2636    -2624    -2720 
   -2717    -2616    -2582    -2647    -2679    -2633    -2632    -2698 
   -2700    -2650    -2658    -2686    -2674    -2614    -2517    -2517 
   -2693    -2816    -2700    -2555    -2602    -2685    -2663    -2640 
   -2686    -2704    -2625    -2601    -2695    -2705    -2617    -2648 
   -2733    -2670    -2535    -2511    -2616    -2754    -2771    -2631 
   -2552    -2647    -2737    -2667    -2531    -2546    -2693    -2748 
   -2694    -2650    -2600    -2579    -2646    -2681    -2664    -2685 
   -2673    -2623    -2687    -2767    -2629    -2452    -2542    -2747 
   -2775    -2662    -2610    -2682    -2721    -2616    -2532    -2640 
   -2781    -2725    -2552    -2517    -2644    -2722    -2671    -2654 
   -2705    -2673    -2579    -2583    -2647    -2658    -2635    -2654 
   -2708    -2701    -2582    -2517    -2655    -2816    -2735    -2523 
   -2489    -2648    -2771    -2762    -2686    -2617    -2597    -2639 
   -2713    -2759    -2706    -2574    -2515    -2627    -2729    -2636 
   -2517    -2596    -2743    -2760    -2675    -2612    -2609    -2620 
   -2627    -2632    -2625    -2631    -2667    -2686    -2670    -2651 
   -2640    -2662    -2694    -2658    -2587    -2602    -2666    -2690 
   -2709    -2686    -2577    -2558    -2691    -2752    -2664    -2600 
   -2625    -2681    -2698    -2636    -2590    -2640    -2691    -2648 
   -2606    -2668    -2694    -2583    -2544    -2664    -2755    -2727 
   -2628    -2551    -2627    -2775    -2752    -2589    -2543    -2620 
   -2647    -2644    -2670    -2650    -2629    -2685    -2714    -2640 
   -2573    -2629    -2739    -2763    -2674    -2550    -2536    -2671 
   -2747    -2647    -2570    -2637    -2701    -2675    -2644    -2629 
   -2616    -2631    -2677    -2691    -2650    -2604    -2579    -2567 
   -2625    -2747    -2781    -2677    -2593    -2606    -2662    -2721 
   -2686    -2546    -2535    -2694    -2751    -2659    -2616    -2640 
   -2662    -2690    -2695    -2635    -2577    -2608    -2690    -2712 
   -2656    -2621    -2663    -2702    -2663    -2616    -2614    -2624 
   -2651    -2666    -2633    -2627    -2650    -2640    -2627    -2658 
   -2685    -2667    -2647    -2644    -2655    -2675    -2656    -2619 
   -2624    -2647    -2687    -2743    -2706    -2585    -2560    -2656 
   -2709    -2654    -2587    -2624    -2704    -2668    -2574    -2598 
   -2683    -2685    -2640    -2635    -2660    -2683    -2700    -2689 
   -2651    -2612    -2594    -2616    -2654    -2640    -2614    -2666 
   -2735    -2725    -2660    -2608    -2612    -2664    -2673    -2610 
   -2590    -2663    -2709    -2659    -2601    -2610    -2664    -2705 
   -2682    -2625    -2609    -2639    -2660    -2658    -2652    -2664 
   -2673    -2644    -2621    -2651    -2658    -2620    -2648    -2714 
   -2678    -2589    -2567    -2617    -2693    -2731    -2687    -2624 
