Origin Time       2025/03/30 10:46:00
Lat.              32.923
Long.             130.372
Depth. (km)       11
Mag.              3.4
Station Code      SAGH02
Station Lat.      33.2656
Station Long.     129.8798
Station Height(m) 31
Record Time       2025/03/30 10:46:38
Sampling Freq(Hz) 100Hz
Duration Time(s)  120
Dir.              4
Scale Factor      7845(gal)/8223790
Max. Acc. (gal)   2.473
Last Correction   2025/03/30 10:46:37
Memo.             
[...]
    4179     4180     4187     4194     4198     4193     4187     4187 
    4186     4185     4186     4189     4191     4195     4197     4193 
    4187     4185     4183     4186     4190     4191     4189     4190 
    4197     4198     4190     4183     4178     4179     4189     4195 
    4201     4201     4194     4190     4187     4186     4187     4183 
    4182     4190     4197     4199     4194     4186     4186     4187 
    4187     4187     4189     4191     4194     4191     4189     4190 
    4186     4185     4191     4194     4191     4189     4185     4187 
    4194     4191     4186     4187     4185     4189     4193     4189 
    4189     4189     4186     4190     4190     4187     4191     4191 
    4190     4191     4187     4179     4179     4186     4193     4202 
    4201     4191     4190     4189     4182     4179     4182     4187 
    4194     4197     4194     4193     4193     4187     4179     4182 
    4186     4187     4193     4197     4198     4195     4189     4182 
    4176     4180     4190     4194     4193     4194     4191     4187 
    4187     4187     4185     4185     4186     4189     4193     4195 
    4193     4186     4183     4187     4193     4190     4187     4191 
    4190     4187     4191     4190     4190     4189     4186     4186 
    4189     4189     4190     4189     4187     4189     4187     4189 
    4190     4186     4187     4193     4187     4185     4194     4197 
    4189     4182     4182     4187     4191     4191     4193     4190 
    4189     4187     4189     4189     4187     4186     4189     4191 
    4195     4193     4186     4183     4187     4193     4195     4190 
    4183     4182     4189     4194     4193     4189     4189     4187 
    4185     4185     4189     4191     4187     4186     4191     4194 
    4191     4189     4185     4186     4191     4194     4194     4191 
    4189     4187     4186     4185     4189     4194     4190     4187 
    4191     4190     4186     4185     4186     4190     4193     4190 
    4187     4189     4191     4189     4189     4191     4189     4185 
    4185     4193     4194     4190     4191     4191     4186     4189 
    4191     4186     4187     4193     4189     4189     4191     4189 
    4189     4190     4187     4187     4187     4190     4193     4191 
    4190     4187     4185     4185     4185     4189     4193     4193 
    4187     4189     4193     4189     4185     4189     4190     4189 
    4187     4189     4187     4185     4189     4193     4191     4186 
    4185     4187     4189     4189     4191     4190     4189     4191 
    4193     4189     4186     4186     4190     4190     4189     4190 
    4191     4189     4190     4189     4183     4185     4187     4189 
    4193     4194     4187     4185     4189     4187     4186     4190 
    4189     4186     4189     4189     4189     4191     4190     4189 
    4190     4189     4189     4189     4186     4191     4195     4190 
    4189     4191     4186     4185     4190     4189     4189     4194 
    4194     4190     4187     4189     4187     4183     4180     4185 
    4190     4191     4190     4189     4190     4190     4187     4189 
    4189     4185     4186     4190     4189     4186     4191     4191 
    4187     4187     4190     4187     4187     4191     4191     4187 
    4186     4189     4190     4187     4185     4187     4190     4189 
    4189     4190     4191     4190     4191     4187     4185     4190 
    4190     4185     4183     4187     4190     4191     4190     4189 
    4190     4191     4185     4183     4193     4191     4183     4185 
    4190     4190     4190     4191     4187     4187     4190     4187 
    4189     4190     4187     4189     4186     4183     4186     4186 
    4187     4190     4191     4190     4189     4190     4191     4187 
    4183     4186     4190     4189     4190     4194     4193     4190 
    4187     4189     4190     4187     4187     4191     4191     4191 
    4195     4189     4182     4185     4187     4185     4187     4194 
    4191     4187     4187     4190     4189     4191     4193     4191 
    4191     4187     4182     4185     4191     4190     4187     4190 
    4193     4189     4189     4193     4191     4185     4183     4187 
    4187     4187     4191     4193     4193     4194     4190     4180 
    4180     4186     4191     4197     4194     4190     4186     4182 
    4182     4185     4191     4198     4198     4194     4190     4183 
    4180     4187     4190     4189     4193     4193     4191     4193 
    4189     4183     4185     4187     4190     4191     4190     4190 
    4190     4193     4193     4189     4187     4191     4193     4189 
    4186     4186     4187     4187     4189     4191     4191     4191 
    4193     4193     4187     4186     4187     4186     4187     4191 
    4193     4193     4187     4185     4189     4191     4191     4190 
    4190     4189     4189     4189     4187     4187     4190     4189 
    4183     4186     4193     4193     4193     4195     4194     4190 
    4186     4180     4179     4183     4190     4194     4195     4194 
    4187     4183     4185     4185     4186     4194     4197     4187 
    4180     4185     4189     4190     4187     4187     4189     4187 
    4189     4194     4195     4191     4185     4182     4185     4187 
    4189     4190     4193     4194     4193     4190     4189     4189 
    4187     4186     4187     4190     4190     4187     4190     4193 
    4189     4187     4193     4191     4183     4186     4194     4195 
    4193     4189     4183     4182     4186     4190     4190     4195 
    4201     4194     4185     4183     4183     4185     4186     4187 
    4190     4194     4194     4189     4183     4186     4190     4189 
    4187     4190     4197     4193     4186     4186     4186     4187 
    4189     4187     4189     4193     4194     4194     4193     4191 
    4187     4183     4183     4183     4185     4189     4191     4193 
    4195     4194     4189     4182     4179     4185     4193     4193 
    4193     4193     4189     4186     4183     4182     4186     4193 
    4195     4194     4193     4191     4185     4178     4183     4190 
    4189     4190     4195     4195     4189     4185     4186     4187 
    4185     4187     4190     4191     4193     4191     4190     4187 
    4187     4186     4182     4186     4195     4198     4195     4193 
    4187     4182     4183     4185     4182     4187     4194     4195 
    4194     4194     4189     4183     4183     4185     4186     4190 
    4190     4193     4197     4194     4189     4190     4190     4186 
    4182     4183     4191     4197     4194     4194     4197     4189 
    4179     4180     4189     4190     4189     4186     4182     4197 
    4207     4178     4156     4193     4239     4226     4163     4121 
    4166     4236     4210     4126     4122     4230     4317     4237 
    4097     4113     4253     4305     4186     4040     4067     4222 
    4293     4229     4159     4183     4275     4280     4174     4090 
    4067     4110     4210     4241     4186     4195     4282     4283 
    4199     4175     4174     4129     4114     4124     4121     4191 
    4287     4268     4216     4195     4166     4179     4218     4203 
    4174     4163     4143     4117     4141     4241     4278     4201 
    4198     4278     4268     4191     4110     4045     4075     4174 
    4241     4264     4251     4224     4193     4147     4153     4176 
    4137     4160     4276     4328     4248     4106     4060     4131 
    4163     4174     4225     4272     4307     4255     4128     4132 
    4186     4116     4097     4191     4225     4201     4202     4247 
    4275     4193     4094     4139     4241     4222     4109     4118 
    4256     4276     4202     4210     4206     4128     4125     4174 
    4182     4225     4259     4205     4139     4114     4143     4213 
    4276     4252     4160     4159     4220     4183     4117     4093 
    4113     4244     4371     4303     4162     4108     4121     4190 
    4225     4143     4144     4286     4307     4166     4085     4140 
    4203     4178     4148     4183     4212     4193     4199     4282 
    4313     4183     4064     4120     4198     4149     4101     4182 
    4283     4272     4209     4212     4217     4124     4066     4136 
    4202     4209     4216     4260     4299     4249     4164     4124 
    4097     4102     4148     4191     4266     4315     4222     4126 
    4171     4207     4164     4156     4178     4179     4171     4153 
    4187     4278     4266     4163     4179     4266     4253     4166 
    4067     4027     4095     4191     4247     4275     4259     4229 
    4239     4259     4263     4220     4082     3966     4014     4121 
    4182     4249     4330     4361     4321     4234     4147     4078 
    4062     4109     4152     4136     4160     4306     4402     4320 
    4185     4105     4070     4074     4099     4137     4224     4321 
    4315     4253     4226     4135     3998     4027     4168     4236 
    4302     4402     4340     4137     4063     4091     4066     4086 
    4187     4224     4207     4267     4336     4286     4217     4203 
    4129     4021     4032     4122     4171     4206     4263     4305 
    4348     4359     4225     4037     4018     4129     4152     4097 
    4125     4225     4307     4349     4284     4144     4099     4156 
    4168     4144     4190     4205     4120     4132     4251     4274 
    4249     4278     4247     4116     4033     4095     4197     4195 
    4170     4212     4263     4310     4303     4185     4093     4098 
    4118     4132     4153     4216     4307     4315     4240     4155 
    4082     4047     4060     4112     4209     4321     4414     4452 
    4326     4110     4032     4035     3977     3967     4071     4232 
    4403     4452     4341     4270     4283     4199     4001     3889 
    3952     4113     4267     4314     4309     4357     4325     4187 
    4159     4176     4077     4012     4077     4170     4257     4318 
    4320     4290     4221     4106     4048     4116     4195     4170 
    4136     4236     4375     4332     4116     4012     4132     4236 
    4180     4144     4251     4336     4239     4089     4062     4106 
    4164     4267     4328     4267     4222     4234     4160     4031 
    3958     4010     4207     4357     4326     4274     4270     4236 
    4202     4205     4168     4059     3986     4054     4222     4333 
    4333     4310     4241     4114     4098     4148     4108     4153 
    4310     4276     4147     4182     4233     4167     4101     4114 
    4185     4268     4297     4220     4125     4145     4232     4261 
    4233     4172     4059     3986     4091     4278     4342     4276 
    4203     4197     4220     4182     4106     4099     4159     4213 
    4251     4298     4301     4198     4101     4082     4041     4037 
    4209     4390     4368     4263     4229     4218     4143     4044 
    4048     4131     4162     4199     4310     4365     4257     4070 
    4002     4108     4234     4271     4248     4195     4164     4182 
    4171     4143     4197     4294     4330     4275     4179     4118 
    4083     4078     4106     4108     4145     4274     4351     4328 
    4261     4160     4105     4153     4191     4172     4166     4158 
    4132     4141     4194     4224     4230     4264     4271     4228 
    4224     4160     3981     3966     4182     4305     4256     4267 
    4369     4359     4170     3986     3951     4035     4176     4294 
    4315     4310     4328     4270     4133     4060     4055     4055 
    4110     4226     4303     4284     4243     4282     4334     4241 
    4048     3916     3978     4186     4280     4248     4284     4329 
    4279     4214     4144     4063     4037     4072     4168     4313 
    4395     4337     4190     4055     4032     4152     4276     4260 
    4171     4116     4102     4148     4220     4237     4225     4247 
    4270     4257     4245     4213     4085     3951     3977     4124 
    4276     4363     4364     4351     4317     4182     4045     4024 
    4045     4066     4129     4249     4372     4383     4256     4145 
    4126     4118     4124     4186     4228     4189     4145     4198 
    4284     4274     4194     4147     4143     4132     4060     4002 
    4113     4314     4402     4371     4311     4253     4179     4068 
    3951     3917     4013     4193     4371     4461     4465     4419 
    4234     3964     3848     3920     4070     4247     4372     4394 
    4375     4324     4167     4004     3959     4029     4213     4348 
    4272     4185     4218     4234     4195     4156     4137     4126 
    4099     4125     4252     4329     4290     4251     4217     4179 
    4155     4082     4010     4041     4170     4345     4441     4352 
    4164     4060     4077     4128     4158     4170     4217     4288 
    4328     4328     4240     4078     3993     4017     4090     4198 
    4317     4334     4244     4221     4248     4191     4203     4342 
    4418     4396     4326     4180     4012     3882     3788     3836 
    4089     4405     4656     4719     4530     4218     3873     3458 
    3068     2963     3311     3994     4812     5537     5875     5688 
    5104     4401     3773     3179     2601     2273     2465     3264 
    4494     5784     6673     6782     6126     4930     3446     2218 
    1769     2204     3385     4822     5819     6011     5332     4186 
    3296     2793     2551     2822     3616     4658     5649     6103 
    5786     4916     3871     3141     3011     3369     3985     4498 
    4671     4691     4575     4191     3838     3650     3352     3132 
    3485     4390     5394     5996     5881     5055     3842     2936 
    2739     2933     3323     4082     5035     5680     5722     5100 
    3910     2760     2465     3021     3874     4789     5501     5563 
    4995     4221     3492     2924     2887     3619     4649     5374 
    5614     5238     4287     3343     2883     2902     3377     4205 
    4945     5278     5169     4671     4041     3634     3597     3846 
    4159     4294     4185     4140     4414     4664     4519     4274 
    4220     4043     3689     3650     3958     4259     4476     4565 
    4438     4237     4072     3871     3731     3898     4288     4581 
    4730     4753     4473     3973     3678     3782     4045     4170 
    4078     3964     4172     4653     4880     4669     4329     3947 
    3527     3370     3600     3977     4311     4549     4687     4742 
    4677     4515     4332     4087     3775     3546     3566     3819 
    4085     4290     4511     4639     4610     4494     4216     3952 
    3935     3835     3638     3913     4596     5012     4932     4657 
    4288     3654     3028     2980     3501     4190     4896     5514 
    5734     5389     4634     3747     2995     2647     2849     3499 
    4396     5163     5266     4866     4565     4203     3607     3354 
    3597     3897     4194     4569     4819     4806     4592     4222 
    3809     3620     3734     3931     4054     4193     4533     4984 
    5167     4792     3908     2980     2575     2976     4075     5277 
    5784     5456     4810     4143     3449     2951     2988     3573 
    4336     4980     5393     5308     4666     3944     3449     3169 
    3226     3657     4186     4534     4703     4780     4706     4488 
    4297     4141     4005     4060     4243     4233     4006     3759 
    3604     3618     3898     4406     4865     5026     4914     4658 
    4315     3898     3458     3219     3407     3944     4565     4963 
    4941     4603     4212     3952     3910     4009     4078     4120 
    4197     4218     4214     4321     4342     4087     3796     3703 
    3832     4137     4471     4712     4810     4718     4488     4195 
    3931     3832     3874     3924     3990     4128     4233     4195 
    4145     4221     4314     4301     4225     4193     4259     4324 
    4271     4191     4128     3994     3924     4056     4186     4194 
    4203     4220     4222     4279     4328     4243     4129     4194 
    4374     4455     4361     4118     3817     3639     3728     4033 
    4329     4456     4433     4445     4604     4611     4318     4055 
    3905     3746     3681     3774     3990     4387     4873     5094 
    4877     4334     3701     3362     3497     3782     3975     4251 
    4626     4731     4490     4297     4278     4241     4198     4176 
    4050     3878     3844     3928     4062     4315     4583     4567 
    4293     4089     4047     4029     4091     4299     4444     4391 
    4249     4102     3956     3863     3947     4222     4471     4538 
    4455     4263     4094     4081     4075     4018     4109     4301 
    4365     4288     4143     4013     4064     4267     4341     4229 
    4117     4085     4052     3944     3852     3937     4148     4329 
    4467     4571     4568     4436     4288     4260     4230     3954 
    3628     3672     4005     4303     4541     4727     4719     4484 
    4159     3859     3663     3627     3742     4033     4472     4795 
    4815     4638     4342     3925     3561     3483     3651     3919 
    4298     4723     4897     4742     4482     4198     3863     3622 
    3647     3937     4307     4600     4752     4666     4326     3896 
    3592     3588     3909     4344     4623     4671     4577     4371 
    4029     3736     3735     3946     4160     4374     4587     4641 
    4436     4126     3973     3952     3913     3954     4141     4291 
    4293     4191     4098     4101     4163     4199     4222     4321 
    4456     4448     4252     4016     3871     3866     3959     4083 
    4261     4463     4571     4579     4482     4203     3858     3708 
    3835     4086     4306     4464     4522     4418     4234     4074 
    3928     3856     3952     4198     4475     4617     4554     4376 
    4189     3994     3816     3792     3951     4133     4311     4519 
    4579     4378     4109     3947     3882     3894     4032     4288 
    4492     4483     4383     4333     4234     4077     3966     3893 
    3897     4068     4284     4386     4440     4490     4387     4151 
    3985     3959     4010     4106     4232     4325     4315     4248 
    4217     4197     4158     4136     4109     4077     4156     4279 
    4256     4167     4129     4070     4014     4059     4194     4398 
    4573     4521     4283     4105     4028     3956     3940     4064 
    4234     4337     4392     4415     4352     4162     3917     3790 
    3886     4126     4330     4433     4468     4402     4245     4132 
    4105     4104     4120     4182     4239     4217     4152     4136 
    4158     4141     4132     4226     4363     4403     4322     4182 
    4079     4024     3960     3962     4097     4247     4326     4399 
    4428     4330     4185     4089     4033     4005     4044     4135 
    4197     4230     4299     4363     4365     4322     4228     4097 
    4018     4008     4020     4081     4214     4334     4363     4313 
    4228     4145     4083     4040     4040     4091     4162     4287 
