Origin Time       2025/03/30 10:46:00
Lat.              32.923
Long.             130.372
Depth. (km)       11
Mag.              3.4
Station Code      SAGH04
Station Lat.      33.3654
Station Long.     130.4046
Station Height(m) 55
Record Time       2025/03/30 10:46:35
Sampling Freq(Hz) 100Hz
Duration Time(s)  120
Dir.              6
Scale Factor      7845(gal)/8223790
Max. Acc. (gal)   0.510
Last Correction   2025/03/30 10:46:35
Memo.             
    5381     5351     5348     5381     5394     5377     5363     5363 
    5370     5373     5363     5370     5393     5385     5352     5355 
    5382     5377     5364     5383     5394     5366     5346     5370 
    5386     5377     5375     5378     5379     5368     5350     5370 
    5395     5374     5366     5377     5364     5356     5374     5387 
    5377     5367     5377     5375     5360     5364     5387     5389 
    5366     5362     5370     5374     5375     5374     5375     5375 
    5366     5360     5377     5386     5371     5366     5371     5375 
    5382     5377     5364     5366     5374     5381     5375     5364 
    5375     5383     5366     5368     5383     5362     5359     5393 
    5385     5359     5371     5378     5371     5379     5371     5363 
    5383     5383     5359     5364     5389     5386     5363     5362 
    5377     5381     5375     5368     5373     5381     5374     5370 
    5377     5370     5363     5375     5383     5377     5370     5366 
    5363     5370     5390     5387     5354     5352     5381     5382 
    5381     5379     5362     5363     5374     5378     5378     5371 
    5368     5370     5374     5370     5374     5383     5366     5360 
    5382     5379     5366     5370     5374     5371     5371     5371 
    5382     5386     5358     5362     5393     5383     5363     5370 
    5382     5375     5368     5368     5371     5382     5377     5362 
    5375     5387     5371     5364     5374     5371     5368     5382 
    5379     5362     5374     5389     5363     5351     5387     5398 
    5368     5359     5367     5377     5385     5378     5364     5364 
    5371     5375     5381     5377     5370     5366     5359     5371 
    5390     5378     5355     5368     5386     5377     5366     5371 
    5371     5367     5379     5389     5375     5360     5358     5371 
    5383     5379     5373     5371     5367     5364     5373     5382 
    5374     5367     5373     5378     5375     5368     5370     5371 
    5370     5371     5383     5383     5362     5356     5374     5382 
    5378     5371     5368     5370     5374     5378     5377     5370 
    5362     5370     5378     5374     5377     5373     5360     5374 
    5383     5371     5368     5366     5367     5385     5385     5370 
    5363     5364     5385     5391     5371     5358     5367     5381 
    5381     5370     5362     5364     5379     5387     5378     5368 
    5367     5363     5366     5383     5383     5366     5368     5370 
    5373     5387     5374     5355     5374     5385     5368     5378 
    5390     5359     5351     5382     5387     5377     5368     5363 
    5374     5379     5371     5377     5377     5362     5364     5386 
    5385     5367     5374     5377     5366     5378     5385     5364 
    5364     5382     5377     5364     5367     5374     5378     5378 
    5367     5370     5378     5363     5368     5391     5382     5363 
    5370     5378     5368     5373     5379     5364     5364     5378 
    5375     5379     5383     5370     5358     5362     5377     5383 
    5385     5378     5354     5356     5390     5386     5360     5364 
    5377     5381     5378     5366     5367     5371     5367     5379 
    5383     5366     5360     5375     5382     5375     5375     5367 
    5350     5368     5398     5385     5364     5366     5359     5364 
    5387     5393     5374     5359     5363     5370     5386     5394 
    5366     5356     5373     5374     5379     5385     5368     5363 
    5377     5375     5366     5374     5379     5370     5370     5373 
    5371     5371     5370     5371     5382     5385     5371     5360 
    5366     5378     5383     5375     5366     5367     5374     5375 
    5379     5378     5367     5363     5368     5373     5379     5381 
    5371     5368     5373     5373     5366     5364     5377     5385 
    5382     5370     5360     5367     5375     5375     5377     5377 
    5368     5366     5375     5379     5371     5366     5367     5373 
    5383     5382     5373     5366     5364     5367     5374     5385 
    5382     5363     5368     5385     5373     5363     5371     5368 
    5373     5386     5381     5370     5368     5363     5363     5377 
    5382     5379     5371     5363     5373     5383     5374     5364 
    5364     5373     5379     5379     5374     5364     5374     5385 
    5367     5366     5379     5371     5371     5378     5370     5374 
    5381     5367     5368     5383     5377     5358     5367     5381 
    5374     5375     5377     5368     5364     5364     5373     5385 
    5381     5367     5366     5377     5373     5367     5378     5379 
    5377     5374     5368     5374     5381     5366     5360     5378 
    5382     5371     5367     5368     5371     5371     5368     5377 
    5381     5374     5368     5368     5375     5377     5370     5375 
    5382     5373     5364     5370     5381     5377     5366     5373 
    5382     5367     5360     5377     5375     5363     5383     5390 
    5364     5358     5371     5371     5379     5387     5366     5352 
    5373     5382     5377     5375     5368     5363     5373     5378 
    5371     5373     5381     5373     5364     5368     5374     5381 
    5375     5362     5368     5374     5368     5374     5379     5374 
    5371     5370     5366     5373     5382     5377     5373     5375 
    5367     5360     5375     5386     5375     5373     5370     5358 
    5373     5393     5379     5366     5371     5370     5368     5378 
    5381     5368     5374     5379     5367     5370     5378     5370 
    5378     5378     5355     5366     5393     5378     5356     5366 
    5381     5375     5363     5374     5381     5373     5371     5373 
    5366     5370     5375     5377     5378     5371     5363     5366 
    5374     5383     5375     5360     5368     5385     5377     5366 
    5370     5370     5374     5379     5374     5377     5371     5360 
    5371     5383     5382     5373     5363     5368     5367     5374 
    5387     5375     5355     5360     5377     5386     5379     5359 
    5359     5382     5373     5358     5377     5378     5366     5373 
    5373     5366     5374     5374     5373     5385     5378     5358 
    5364     5375     5367     5379     5387     5362     5362     5386 
    5373     5358     5377     5377     5364     5378     5379     5359 
    5362     5375     5374     5375     5378     5370     5366     5373 
    5370     5373     5383     5373     5358     5367     5381     5379 
    5374     5368     5360     5368     5389     5379     5363     5368 
    5370     5374     5382     5371     5360     5375     5382     5368 
    5370     5378     5367     5374     5386     5370     5363     5377 
    5373     5364     5373     5382     5382     5374     5360     5363 
    5381     5377     5368     5374     5371     5367     5374     5378 
    5371     5368     5370     5374     5382     5373     5358     5367 
    5375     5373     5375     5377     5368     5362     5371     5378 
    5381     5378     5363     5363     5381     5379     5366     5370 
    5377     5368     5374     5383     5371     5360     5373     5379 
    5371     5373     5379     5367     5363     5378     5377     5370 
    5375     5374     5370     5375     5377     5373     5373     5368 
    5366     5375     5381     5373     5367     5374     5374     5371 
    5381     5375     5363     5377     5379     5366     5373     5383 
    5374     5368     5377     5377     5375     5375     5368     5370 
    5379     5373     5368     5375     5373     5374     5378     5371 
    5371     5375     5374     5370     5373     5371     5370     5381 
    5379     5363     5366     5378     5375     5373     5373     5368 
    5371     5378     5371     5370     5378     5371     5360     5373 
    5382     5373     5371     5378     5371     5368     5373     5373 
    5375     5377     5368     5370     5375     5370     5368     5378 
    5375     5367     5374     5378     5370     5368     5377     5371 
    5364     5377     5375     5370     5377     5373     5364     5377 
    5379     5366     5374     5378     5362     5374     5383     5367 
    5374     5381     5367     5366     5378     5377     5371     5373 
    5371     5370     5377     5375     5366     5371     5377     5371 
    5371     5373     5367     5375     5391     5408     5439     5455 
    5409     5332     5279     5242     5212     5267     5427     5548 
    5528     5405     5267     5251     5413     5582     5539     5296 
    5138     5255     5443     5429     5240     5171     5431     5759 
    5697     5236     4904     5135     5601     5675     5393     5211 
    5277     5358     5259     5229     5563     5908     5730     5179 
    4864     5036     5404     5605     5567     5393     5247     5277 
    5404     5410     5362     5433     5482     5391     5321     5300 
    5259     5319     5468     5428     5239     5289     5516     5562 
    5444     5352     5355     5378     5273     5148     5242     5486 
    5661     5605     5323     5121     5194     5340     5437     5524 
    5449     5243     5217     5400     5517     5452     5328     5313 
    5405     5441     5341     5263     5339     5404     5394     5431 
    5417     5341     5370     5408     5356     5341     5374     5371 
    5360     5328     5325     5431     5476     5379     5304     5286 
    5289     5351     5494     5564     5413     5219     5273     5459 
    5428     5290     5370     5497     5435     5321     5292     5354 
    5379     5267     5235     5416     5571     5548     5421     5281 
    5225     5279     5333     5347     5402     5508     5545     5459 
    5294     5159     5220     5455     5566     5459     5298     5211 
    5265     5395     5441     5377     5324     5370     5435     5428 
    5398     5416     5451     5424     5356     5314     5279     5321 
    5449     5444     5292     5229     5355     5505     5472     5324 
    5240     5265     5391     5513     5476     5362     5341     5424 
    5467     5310     5120     5289     5622     5605     5337     5216 
    5262     5309     5316     5387     5513     5513     5381     5287 
    5278     5344     5440     5413     5310     5377     5513     5437 
    5265     5255     5348     5382     5383     5427     5485     5427 
    5244     5196     5348     5470     5502     5490     5354     5201 
    5247     5370     5406     5439     5443     5378     5374     5424 
    5412     5356     5328     5348     5387     5383     5364     5382 
    5356     5277     5271     5383     5475     5425     5341     5387 
    5459     5398     5305     5324     5418     5482     5448     5350 
    5263     5255     5393     5513     5347     5136     5231     5424 
    5486     5520     5524     5429     5332     5287     5229     5220 
    5386     5611     5634     5409     5190     5190     5282     5321 
    5395     5509     5524     5410     5306     5290     5310     5366 
    5437     5441     5401     5358     5319     5350     5416     5435 
    5402     5332     5289     5340     5422     5432     5383     5373 
    5378     5320     5279     5332     5395     5398     5417     5466 
    5395     5266     5309     5437     5424     5329     5302     5373 
    5497     5543     5397     5171     5146     5385     5575     5505 
    5327     5217     5238     5373     5460     5427     5431     5490 
    5427     5285     5239     5296     5395     5448     5431     5447 
    5443     5317     5250     5324     5382     5374     5358     5371 
    5401     5389     5325     5328     5454     5506     5395     5336 
    5387     5367     5296     5335     5408     5386     5375     5420 
    5391     5271     5224     5328     5427     5437     5455     5448 
    5335     5258     5359     5459     5424     5391     5405     5370 
    5324     5341     5335     5282     5335     5436     5444     5449 
    5447     5314     5200     5277     5417     5498     5520     5418 
    5270     5262     5312     5343     5428     5482     5424     5337 
    5301     5325     5370     5431     5456     5375     5325     5377 
    5373     5314     5336     5400     5405     5387     5381     5332 
    5306     5366     5416     5401     5409     5445     5364     5260 
    5340     5460     5448     5343     5285     5347     5379     5313 
    5341     5472     5493     5383     5314     5325     5328     5327 
    5377     5447     5462     5394     5279     5242     5329     5402 
    5439     5482     5393     5275     5393     5505     5374     5263 
    5313     5391     5441     5409     5332     5347     5362     5283 
    5285     5425     5530     5502     5383     5312     5324     5294 
    5236     5298     5458     5533     5416     5300     5358     5391 
    5306     5323     5427     5425     5386     5439     5458     5354 
    5271     5258     5262     5405     5591     5476     5246     5274 
    5354     5290     5292     5421     5560     5571     5393     5260 
    5302     5293     5248     5371     5510     5487     5404     5352 
    5308     5281     5341     5445     5447     5364     5339     5406 
    5455     5312     5094     5136     5440     5668     5661     5518 
    5327     5151     5165     5395     5544     5455     5340     5289 
    5254     5301     5352     5320     5394     5562     5536     5366 
    5289     5286     5282     5341     5476     5521     5390     5251 
    5273     5448     5589     5471     5255     5259     5317     5238 
    5293     5535     5567     5325     5192     5285     5382     5402 
    5414     5494     5547     5395     5240     5285     5300     5233 
    5332     5530     5576     5470     5314     5200     5223     5339 
    5466     5547     5498     5400     5367     5317     5223     5233 
    5425     5657     5659     5385     5174     5121     5044     5117 
    5432     5626     5559     5409     5312     5292     5281     5324 
    5521     5678     5525     5216     5101     5157     5157     5200 
    5454     5692     5601     5370     5435     5690     5718     5485 
    5200     4995     4922     4988     5231     5557     5702     5667 
    5617     5528     5382     5263     5198     5205     5296     5421 
    5532     5584     5444     5143     5042     5274     5506     5495 
    5363     5325     5433     5460     5269     5170     5352     5478 
    5371     5339     5552     5729     5605     5363     5279     5254 
    5182     5217     5354     5360     5232     5220     5435     5595 
    5458     5247     5271     5460     5543     5402     5219     5197 
    5319     5470     5562     5476     5235     5173     5425     5593 
    5470     5321     5256     5250     5341     5406     5391     5420 
    5409     5316     5242     5178     5243     5517     5684     5572 
    5375     5171     5055     5224     5537     5707     5711     5576 
    5323     5120     5132     5283     5416     5520     5574     5460 
    5255     5152     5162     5212     5332     5514     5628     5562 
    5395     5304     5247     5165     5189     5321     5479     5670 
    5730     5522     5242     5109     5136     5239     5391     5545 
    5545     5394     5248     5188     5260     5416     5505     5489 
    5427     5416     5448     5394     5305     5310     5309     5290 
    5377     5443     5363     5271     5305     5489     5632     5481 
    5228     5162     5185     5255     5424     5520     5472     5401 
    5277     5147     5211     5428     5614     5649     5491     5320 
    5328     5389     5391     5381     5327     5267     5308     5409 
    5452     5378     5308     5355     5397     5341     5306     5414 
    5583     5579     5351     5117     5098     5314     5593     5699 
    5520     5217     5103     5227     5387     5451     5436     5394 
    5363     5367     5404     5404     5355     5347     5346     5283 
    5308     5448     5475     5325     5192     5228     5385     5483 
    5493     5553     5606     5416     5123     5158     5428     5503 
    5421     5351     5229     5165     5274     5431     5510     5472 
    5385     5389     5464     5498     5470     5377     5260     5235 
    5251     5209     5265     5495     5634     5509     5258     5144 
    5329     5578     5555     5347     5200     5216     5335     5400 
    5416     5485     5536     5489     5381     5266     5246     5359 
    5459     5441     5386     5314     5231     5277     5445     5491 
    5370     5289     5316     5366     5394     5427     5474     5483 
    5398     5269     5205     5250     5381     5481     5417     5325 
    5374     5439     5391     5339     5362     5404     5417     5352 
    5256     5293     5410     5462     5490     5487     5367     5235 
    5248     5359     5383     5296     5293     5391     5370     5282 
    5352     5508     5589     5548     5410     5355     5439     5444 
    5316     5192     5113     5150     5371     5586     5606     5526 
    5417     5290     5252     5293     5298     5319     5432     5529 
    5474     5336     5300     5371     5366     5265     5265     5394 
    5466     5472     5495     5424     5247     5162     5251     5408 
    5476     5432     5408     5409     5335     5275     5355     5440 
    5404     5366     5404     5409     5363     5363     5439     5482 
    5417     5309     5248     5267     5308     5283     5247     5339 
    5540     5657     5578     5375     5181     5127     5267     5435 
    5467     5428     5397     5390     5383     5317     5242     5323 
    5513     5566     5451     5327     5259     5255     5314     5404 
    5474     5481     5444     5395     5314     5251     5269     5316 
    5359     5400     5378     5308     5350     5513     5580     5445 
    5269     5250     5352     5400     5386     5398     5418     5390 
    5316     5267     5316     5432     5497     5462     5390     5308 
    5213     5220     5374     5476     5422     5354     5363     5398 
    5427     5432     5337     5247     5350     5499     5476     5352 
    5285     5298     5306     5325     5455     5572     5486     5312 
    5263     5296     5283     5302     5400     5462     5448     5397 
    5364     5436     5514     5409     5240     5229     5316     5351 
    5367     5394     5364     5302     5346     5487     5544     5420 
    5267     5289     5414     5414     5317     5300     5324     5335 
    5387     5416     5371     5385     5471     5472     5375     5324 
    5354     5358     5316     5343     5437     5435     5312     5256 
    5319     5391     5449     5520     5536     5416     5235     5175 
    5262     5359     5394     5402     5409     5404     5410     5441 
    5416     5319     5283     5347     5382     5344     5347     5437 
    5475     5397     5316     5317     5393     5428     5356     5305 
    5344     5401     5468     5512     5417     5262     5255     5359 
    5397     5382     5387     5405     5398     5354     5327     5347 
    5379     5432     5448     5366     5279     5277     5347     5433 
    5418     5327     5339     5451     5467     5341     5255     5314 
    5440     5505     5478     5405     5325     5277     5267     5271 
