Origin Time       2025/03/30 10:46:00
Lat.              32.923
Long.             130.372
Depth. (km)       11
Mag.              3.4
Station Code      SAGH04
Station Lat.      33.3654
Station Long.     130.4046
Station Height(m) 55
Record Time       2025/03/30 10:46:35
Sampling Freq(Hz) 100Hz
Duration Time(s)  120
Dir.              5
Scale Factor      7845(gal)/8223790
Max. Acc. (gal)   1.009
Last Correction   2025/03/30 10:46:35
Memo.             
[...]
    6979     6970     6971     6986     6976     6964     6968     6980 
    6993     6991     6979     6967     6963     6971     6979     6986 
    6993     6978     6964     6975     6979     6966     6963     6978 
    6994     7001     6994     6968     6948     6956     6978     6995 
    6991     6968     6964     6983     6983     6975     6984     6975 
    6959     6976     6990     6978     6975     6979     6983     6988 
    6978     6956     6960     6983     6987     6978     6976     6972 
    6971     6983     6987     6975     6963     6967     6986     6997 
    6984     6964     6949     6961     6997     7010     6997     6975 
    6952     6951     6972     6987     6987     6980     6976     6982 
    6986     6983     6968     6949     6961     6991     7002     6993 
    6974     6964     6975     6976     6970     6976     6987     6987 
    6983     6975     6966     6960     6971     6987     6997     6997 
    6983     6959     6953     6971     6988     6990     6986     6980 
    6972     6974     6978     6967     6968     6982     6991     6999 
    6984     6956     6957     6975     6982     6988     6997     6986 
    6967     6966     6975     6974     6975     6982     6982     6976 
    6976     6976     6976     6979     6978     6975     6978     6980 
    6980     6978     6968     6968     6983     6987     6979     6968 
    6959     6963     6975     6997     7006     6979     6955     6961 
    6975     6982     6982     6979     6975     6974     6978     6976 
    6967     6976     6986     6980     6982     6982     6966     6967 
    6978     6972     6968     6979     6987     6986     6986     6980 
    6970     6970     6972     6976     6982     6979     6975     6972 
    6972     6982     6990     6979     6964     6964     6978     6987 
    6986     6980     6975     6974     6975     6971     6974     6991 
    6991     6972     6961     6964     6974     6986     6988     6984 
    6975     6967     6967     6975     6984     6984     6982     6975 
    6961     6967     6983     6991     6991     6979     6970     6972 
    6971     6972     6982     6984     6980     6971     6964     6974 
    6986     6988     6979     6967     6964     6972     6984     6991 
    6979     6967     6968     6980     6987     6974     6968     6974 
    6972     6986     6995     6971     6960     6972     6975     6982 
    6993     6980     6968     6971     6972     6972     6975     6978 
    6984     6987     6983     6983     6972     6952     6956     6983 
    7002     6993     6971     6966     6968     6979     6991     6980 
    6974     6980     6971     6972     6983     6978     6974     6978 
    6980     6982     6980     6974     6972     6980     6984     6975 
    6972     6976     6974     6978     6988     6972     6960     6975 
    6987     6983     6988     6987     6959     6955     6979     6991 
    6995     6986     6964     6964     6978     6982     6976     6971 
    6974     6982     6988     6983     6972     6967     6963     6974 
    6993     6987     6972     6972     6976     6980     6979     6972 
    6974     6979     6980     6975     6972     6978     6983     6978 
    6976     6983     6976     6966     6975     6983     6978     6982 
    6984     6971     6961     6975     6990     6987     6978     6967 
    6966     6979     6988     6982     6968     6968     6978     6982 
    6979     6979     6979     6968     6972     6986     6982     6979 
    6976     6967     6974     6988     6982     6968     6975     6984 
    6979     6978     6975     6966     6970     6982     6988     6991 
    6982     6964     6964     6979     6979     6971     6972     6980 
    6987     6991     6984     6975     6967     6967     6986     6990 
    6971     6967     6978     6984     6983     6978     6975     6974 
    6978     6980     6976     6974     6979     6982     6975     6970 
    6971     6972     6979     6993     6990     6970     6960     6974 
    6986     6986     6983     6974     6960     6970     6987     6987 
    6982     6976     6971     6972     6980     6979     6974     6976 
    6978     6974     6976     6983     6980     6976     6972     6975 
    6984     6978     6966     6976     6988     6982     6978     6975 
    6968     6975     6990     6980     6970     6975     6976     6976 
    6979     6976     6975     6979     6979     6976     6976     6980 
    6975     6966     6972     6986     6986     6979     6978     6979 
    6978     6976     6978     6979     6976     6978     6983     6982 
    6975     6970     6970     6975     6983     6983     6976     6976 
    6974     6975     6982     6975     6970     6978     6978     6975 
    6978     6980     6979     6978     6979     6978     6976     6976 
    6978     6978     6976     6975     6976     6975     6971     6976 
    6986     6983     6974     6976     6975     6971     6975     6976 
    6976     6979     6980     6982     6982     6978     6966     6949 
    6943     6941     6944     6967     7005     7052     7096     7087 
    7026     6956     6891     6863     6902     6957     6963     6948 
    6953     6979     7026     7064     7047     6999     6982     6983 
    6941     6878     6859     6917     7067     7209     7160     6949 
    6782     6799     6975     7105     7060     6897     6731     6732 
    6940     7157     7275     7303     7200     6944     6670     6609 
    6826     7098     7156     6986     6835     6883     7053     7153 
    7123     7074     7060     7007     6879     6733     6705     6875 
    7094     7144     7017     6901     6966     7129     7172     7051 
    6890     6837     6874     6886     6891     6947     7049     7113 
    7044     6953     6991     7096     7126     7041     6883     6710 
    6664     6821     7026     7157     7211     7155     7029     6961 
    6945     6921     6924     6953     6928     6894     6913     6920 
    6925     7005     7087     7129     7163     7109     6914     6744 
    6771     6930     7042     7063     7044     7014     6998     6990 
    6966     6916     6860     6835     6868     7017     7210     7258 
    7150     6966     6786     6748     6821     6895     7005     7110 
    7137     7103     7026     6948     6894     6824     6805     6951 
    7161     7225     7090     6907     6822     6813     6839     6925 
    7069     7202     7204     7060     6903     6804     6759     6847 
    7040     7149     7102     7002     6937     6880     6822     6864 
    7025     7126     7072     6984     6970     7028     7055     6972 
    6872     6851     6922     7083     7186     7061     6829     6750 
    6879     7037     7080     7052     7003     6929     6880     6901 
    6995     7137     7203     7121     6956     6782     6718     6852 
    7047     7101     7017     6953     6984     7020     6957     6891 
    6975     7113     7090     6929     6833     6875     6957     7022 
    7069     7084     7057     6967     6853     6843     6916     6976 
    7084     7173     7087     6926     6840     6816     6871     7013 
    7125     7107     6999     6879     6816     6901     7060     7105 
    7040     6998     6988     6957     6939     6955     6949     6947 
    6975     7002     7021     7006     6948     6910     6914     6948 
    7006     7047     7032     6984     6947     6939     6979     7052 
    7087     7086     7038     6898     6791     6844     6932     6952 
    6961     6990     7006     7036     7074     7063     7048     7041 
    6945     6814     6791     6868     7002     7163     7219     7088 
    6902     6813     6824     6890     6960     7013     7057     7037 
    6941     6909     7018     7149     7163     7065     6902     6736 
    6700     6820     6997     7137     7172     7128     7067     6987 
    6930     6944     6956     6905     6835     6844     6936     7020 
    7098     7167     7092     6910     6820     6867     6953     7005 
    7024     7020     6998     7024     7084     7040     6889     6795 
    6860     7018     7109     7036     6921     6922     7003     7048 
    7025     6978     6951     6934     6921     6941     6983     7026 
    7065     7063     7020     6991     6963     6887     6822     6852 
    6939     6979     7014     7102     7126     7048     6993     7005 
    6986     6921     6895     6907     6914     6940     6966     6968 
    7015     7114     7133     7032     6924     6882     6852     6840 
    6918     7041     7076     7033     7017     7020     6988     6984 
    6993     6933     6894     6944     6974     6978     6993     6937 
    6878     6979     7130     7149     7072     6967     6862     6826 
    6870     6944     7034     7094     7069     6979     6910     6917 
    6937     6945     6994     7052     7052     7015     6988     6945 
    6906     6945     7001     6971     6928     6945     6988     7021 
    7051     7060     6990     6889     6856     6902     6988     7051 
    7067     7051     6984     6925     6937     6987     7011     7003 
    6988     6968     6916     6835     6820     6945     7129     7221 
    7175     7045     6872     6737     6789     6964     7041     7044 
    7053     7011     6980     7013     7006     6959     6922     6872 
    6867     6964     7025     6990     6998     7037     7033     7052 
    7084     7041     6955     6876     6816     6859     6979     7011 
    6984     7030     7061     7013     7006     7042     7014     6961 
    6902     6781     6725     6866     7065     7179     7231     7222 
    7088     6924     6867     6853     6804     6818     6901     6956 
    7003     7051     7067     7091     7111     7059     6993     6964 
    6909     6826     6804     6852     6947     7091     7199     7146 
    7026     6956     6895     6891     6966     6963     6897     6894 
    6921     6960     7063     7148     7109     6980     6867     6828 
    6870     6972     7064     7094     7076     7013     6921     6909 
    6994     7037     7006     6986     6945     6870     6878     6967 
    6993     6932     6914     6951     6966     7014     7083     7075 
    7065     7068     6960     6817     6777     6782     6802     6887 
    7010     7123     7184     7176     7156     7107     6966     6825 
    6767     6743     6808     7013     7214     7273     7191     7020 
    6876     6880     7022     7157     7149     7003     6875     6841 
    6856     6920     7041     7149     7195     7177     7101     6983 
    6790     6540     6415     6454     6467     6489     6685     6995 
    7326     7628     7758     7653     7488     7403     7322     7184 
    7040     6851     6577     6372     6320     6299     6343     6629 
    7111     7576     7827     7717     7312     6859     6543     6488 
    6689     6863     6836     6777     6841     7033     7302     7526 
    7550     7331     7064     6939     6851     6647     6397     6251 
    6296     6547     6937     7315     7593     7792     7862     7719 
    7393     6922     6397     6085     6153     6408     6582     6727 
    7017     7350     7546     7592     7453     7149     6936     6947 
    6960     6862     6829     6906     6930     6876     6837     6768 
    6674     6782     7125     7349     7292     7206     7207     7144 
    6988     6847     6740     6637     6578     6673     6943     7207 
    7298     7227     7086     6925     6836     6905     7048     7101 
    7076     7099     7161     7123     6905     6625     6521     6682 
    6961     7171     7206     7034     6810     6802     7025     7222 
    7288     7325     7295     7037     6588     6200     6154     6555 
    7194     7711     7857     7554     6960     6474     6396     6652 
    6957     7152     7252     7250     7150     7088     7109     7053 
    6853     6667     6631     6718     6853     7018     7164     7187 
    7065     6907     6837     6906     7041     7103     7078     7060 
    7061     7009     6917     6916     7028     7096     7030     6907 
    6809     6728     6667     6691     6771     6804     6882     7176 
    7596     7892     7866     7407     6687     6161     6025     6166 
    6565     7130     7516     7511     7271     7064     7020     7095 
    7175     7101     6835     6601     6582     6725     6894     6994 
    7051     7087     7064     7045     7088     7125     7140     7163 
    7109     6949     6841     6852     6858     6782     6667     6655 
    6894     7246     7408     7323     7115     6914     6824     6871 
    7018     7134     7069     6929     6889     6890     6887     6910 
    6916     6939     7007     7021     6999     7021     7009     6897 
    6801     6843     6971     7126     7333     7433     7236     6833 
    6459     6311     6478     6856     7168     7215     7113     7136 
    7319     7441     7375     7167     6831     6504     6461     6663 
    6832     6924     7034     7141     7199     7241     7258     7177 
    6978     6721     6574     6712     7020     7217     7227     7117 
    6933     6748     6643     6677     6843     7102     7339     7361 
    7177     6984     6860     6844     6930     6922     6741     6617 
    6701     6893     7076     7261     7446     7480     7296     7080 
    6963     6847     6712     6631     6565     6550     6750     7101 
    7387     7516     7435     7136     6789     6573     6505     6570 
    6822     7161     7357     7375     7348     7352     7357     7248 
    6939     6465     6031     5919     6255     6917     7566     7844 
    7715     7423     7141     6897     6686     6535     6502     6617 
    6887     7260     7543     7533     7210     6818     6637     6667 
    6758     6867     6963     7002     7045     7149     7204     7092 
    6906     6766     6714     6816     7015     7183     7258     7148 
    6886     6718     6763     6951     7160     7223     7098     6933 
    6862     6863     6878     6876     6860     6853     6872     6937 
    7072     7233     7329     7300     7146     6914     6705     6636 
    6743     6941     7111     7179     7134     7037     6948     6882 
    6859     6936     7067     7138     7141     7049     6840     6689 
    6751     6898     7001     7080     7117     7087     7063     7021 
    6907     6851     6932     7042     7096     7092     7044     6971 
    6887     6797     6705     6720     6941     7233     7361     7245 
    6964     6698     6659     6909     7207     7250     7082     6949 
    6928     6921     6885     6809     6678     6642     6853     7155 
    7315     7356     7302     7107     6918     6928     7024     6984 
    6814     6617     6498     6601     6955     7365     7591     7541 
    7295     6988     6714     6520     6423     6435     6594     6917 
    7308     7595     7655     7496     7175     6789     6529     6482 
    6527     6648     6909     7187     7364     7457     7411     7196 
    6961     6797     6691     6685     6755     6822     6886     6978 
    7065     7115     7118     7067     6986     6921     6893     6939 
    7057     7137     7117     7056     6991     6898     6777     6681 
    6669     6766     6975     7231     7406     7438     7344     7141 
    6903     6706     6552     6492     6593     6809     7082     7350 
    7483     7422     7207     6924     6698     6637     6747     6921 
    7003     6957     6918     6979     7069     7113     7091     6999 
    6903     6891     6943     6983     7006     7042     7076     7065 
    6993     6878     6791     6748     6747     6864     7090     7268 
    7306     7207     6993     6770     6712     6836     6983     7052 
    7063     7038     7002     6995     7009     6999     6966     6945 
    6937     6922     6937     7002     7069     7102     7092     7051 
    6974     6878     6804     6758     6804     7001     7210     7248 
    7099     6885     6759     6797     6928     7052     7119     7136 
    7091     6971     6832     6756     6760     6899     7152     7288 
    7199     7013     6832     6735     6804     6960     7060     7090 
    7087     7055     6994     6922     6874     6890     6952     6995 
    7014     7014     6986     6997     7056     7048     6990     6997 
    7006     6907     6781     6731     6758     6898     7160     7361 
    7321     7105     6910     6847     6885     6949     7010     7013 
    6893     6747     6756     6909     7034     7061     7042     7014 
    6997     7022     7064     7053     7005     6980     6971     6976 
    7011     7025     7010     7015     6978     6870     6804     6816 
    6875     6976     7065     7098     7069     7002     6959     6978 
    7007     6978     6914     6897     6918     6933     6970     7029 
    7056     7079     7130     7125     7033     6925     6813     6718 
    6727     6855     7038     7221     7315     7246     7041     6831 
    6713     6685     6751     6910     7068     7149     7179     7155 
    7051     6913     6829     6847     6917     6979     7014     7011 
    6999     7013     7011     6984     6987     7053     7130     7106 
    6994     6878     6766     6741     6913     7138     7222     7172 
    7021     6790     6646     6701     6849     6997     7125     7194 
    7200     7179     7119     7009     6866     6748     6721     6789 
    6899     7001     7055     7053     7034     7063     7130     7160 
    7110     6993     6847     6740     6729     6816     6957     7099 
    7196     7221     7146     6987     6809     6702     6712     6808 
    6957     7138     7268     7253     7130     6995     6876     6785 
    6772     6847     6940     6987     7020     7047     7022     6979 
    6978     6987     6988     7026     7087     7105     7042     6936 
    6843     6806     6853     6963     7055     7080     7053     6974 
    6879     6863     6930     7002     7078     7168     7184     7106 
    7001     6874     6741     6685     6725     6833     6999     7187 
    7331     7372     7288     7080     6797     6570     6536     6697 
    6925     7114     7230     7238     7115     6934     6837     6885 
    6991     7052     7041     6955     6839     6810     6921     7078 
    7164     7160     7106     7036     6961     6902     6876     6851 
    6809     6829     6943     7057     7106     7101     7057     6999 
    6974     6972     6940     6880     6871     6913     6957     7001 
    7022     6993     6961     6991     7051     7080     7065     7022 
    6956     6876     6840     6875     6917     6955     7026     7083 
    7091     7083     7025     6910     6825     6818     6876     6993 
    7133     7218     7192     7060     6886     6767     6759     6848 
    6948     6998     7036     7094     7119     7080     7007     6932 
    6868     6829     6859     6955     7018     7030     7040     7047 
    7048     7045     7022     6978     6914     6853     6849     6903 
    6967     7013     7018     7007     7038     7095     7118     7072 
    6959     6841     6778     6789     6863     6967     7059     7121 
    7110     7028     6971     6979     6979     6959     6978     7020 
    7006     6920     6831     6810     6845     6920     7049     7180 
    7223     7160     7030     6907     6859     6905     6990     7029 
    6988     6920     6887     6918     6984     7033     7052     7024 
