Origin Time       2025/03/30 10:46:00
Lat.              32.923
Long.             130.372
Depth. (km)       11
Mag.              3.4
Station Code      SAGH02
Station Lat.      33.2656
Station Long.     129.8798
Station Height(m) 31
Record Time       2025/03/30 10:46:38
Sampling Freq(Hz) 100Hz
Duration Time(s)  120
Dir.              5
Scale Factor      7845(gal)/8223790
Max. Acc. (gal)   1.974
Last Correction   2025/03/30 10:46:37
Memo.             
[...]
     -74      -75      -74      -72      -75      -76      -74      -75 
     -81      -78      -74      -75      -75      -75      -76      -78 
     -79      -79      -78      -75      -75      -76      -75      -75 
     -78      -78      -78      -78      -72      -74      -75      -76 
     -79      -79      -78      -78      -78      -75      -70      -66 
     -71      -76      -82      -85      -79      -72      -71      -72 
     -76      -82      -78      -74      -75      -75      -76      -81 
     -78      -72      -72      -75      -78      -78      -76      -76 
     -78      -74      -72      -76      -78      -76      -71      -74 
     -79      -78      -76      -76      -75      -72      -72      -71 
     -76      -86      -85      -76      -76      -74      -68      -71 
     -71      -74      -79      -82      -79      -74      -71      -75 
     -75      -71      -74      -82      -82      -75      -74      -78 
     -76      -72      -74      -74      -72      -76      -79      -79 
     -79      -76      -71      -68      -72      -74      -74      -78 
     -82      -81      -76      -75      -72      -70      -72      -72 
     -74      -82      -81      -76      -76      -74      -68      -68 
     -70      -75      -79      -79      -76      -76      -76      -75 
     -74      -71      -71      -72      -76      -79      -81      -82 
     -78      -70      -70      -72      -72      -78      -79      -74 
     -75      -76      -74      -75      -75      -72      -74      -81 
     -82      -75      -78      -81      -74      -70      -78      -81 
     -75      -75      -78      -74      -75      -79      -76      -74 
     -78      -76      -70      -71      -79      -81      -76      -75 
     -75      -78      -75      -71      -74      -78      -81      -83 
     -83      -76      -71      -68      -70      -76      -82      -79 
     -79      -76      -68      -72      -78      -76      -78      -78 
     -76      -79      -79      -70      -66      -72      -81      -81 
     -76      -79      -76      -67      -68      -74      -75      -76 
     -75      -74      -78      -76      -74      -81      -82      -74 
     -68      -71      -75      -78      -75      -74      -79      -79 
     -74      -70      -71      -74      -78      -82      -81      -75 
     -75      -71      -67      -70      -74      -76      -82      -83 
     -75      -74      -79      -78      -72      -67      -66      -74 
     -79      -82      -83      -78      -72      -72      -72      -71 
     -72      -75      -78      -79      -79      -78      -75      -70 
     -67      -71      -76      -76      -75      -76      -79      -81 
     -76      -70      -71      -75      -76      -74      -76      -81 
     -76      -74      -81      -76      -67      -71      -72      -72 
     -82      -83      -71      -72      -79      -76      -72      -75 
     -74      -68      -71      -78      -76      -75      -76      -75 
     -72      -74      -75      -74      -74      -74      -74      -78 
     -82      -76      -71      -72      -76      -76      -78      -78 
     -75      -74      -81      -82      -76      -74      -75      -74 
     -72      -78      -78      -76      -76      -76      -75      -74 
     -75      -74      -71      -72      -75      -76      -75      -75 
     -75      -71      -71      -72      -72      -78      -81      -79 
     -76      -75      -72      -75      -75      -72      -74      -75 
     -75      -79      -81      -76      -74      -75      -74      -75 
     -78      -72      -71      -79      -78      -72      -72      -71 
     -71      -78      -81      -83      -83      -76      -68      -68 
     -71      -74      -76      -76      -78      -78      -75      -76 
     -75      -71      -76      -79      -74      -75      -79      -76 
     -72      -76      -78      -75      -75      -76      -75      -75 
     -76      -74      -74      -78      -79      -76      -71      -72 
     -78      -78      -75      -76      -75      -74      -72      -71 
     -74      -79      -83      -82      -79      -78      -68      -63 
     -72      -76      -75      -82      -86      -78      -71      -70 
     -71      -72      -72      -78      -85      -81      -72      -70 
     -70      -68      -71      -79      -87      -87      -75      -67 
     -70      -71      -70      -76      -85      -85      -81      -76 
     -71      -68      -72      -76      -75      -72      -71      -72 
     -78      -83      -81      -72      -71      -70      -70      -75 
     -78      -79      -81      -78      -70      -71      -71      -64 
     -66      -78      -87      -91      -86      -76      -67      -64 
     -64      -66      -71      -79      -89      -89      -82      -76 
     -70      -64      -67      -71      -72      -81      -86      -83 
     -82      -76      -70      -70      -72      -75      -75      -78 
     -81      -78      -78      -81      -78      -72      -74      -75 
     -74      -76      -79      -79      -78      -74      -75      -78 
     -75      -70      -71      -78      -82      -83      -82      -76 
     -71      -68      -70      -72      -74      -72      -79      -87 
     -82      -72      -70      -72      -75      -76      -78      -79 
     -76      -72      -74      -72      -70      -71      -76      -82 
     -85      -83      -79      -71      -68      -74      -76      -74 
     -75      -75      -76      -76      -74      -75      -76      -78 
     -79      -78      -78      -76      -71      -71      -74      -76 
     -76      -75      -72      -74      -79      -83      -81      -75 
     -74      -72      -71      -68      -70      -76      -78      -76 
     -85      -86      -74      -67      -71      -70      -68      -75 
     -79      -81      -82      -79      -74      -72      -72      -74 
     -74      -72      -78      -82      -79      -78      -78      -72 
     -71      -75      -75      -75      -75      -75      -75      -72 
     -76      -82      -75      -67      -66      -71      -75      -81 
     -85      -83      -81      -76      -70      -71      -72      -72 
     -75      -75      -75      -76      -74      -72      -76      -75 
     -74      -81      -81      -74      -74      -75      -74      -72 
     -72      -72      -74      -76      -81      -81      -79      -83 
     -78      -68      -70      -72      -72      -74      -76      -78 
     -78      -79      -81      -76      -75      -72      -72      -78 
     -81      -79      -78      -74      -70      -72      -74      -74 
     -76      -78      -81      -82      -81      -78      -72      -68 
     -71      -76      -79      -81      -79      -76      -72      -70 
     -72      -75      -74      -72      -76      -79      -75      -74 
     -72      -67      -67      -75      -76      -74      -78      -82 
     -79      -78      -78      -74      -68      -62      -62      -75 
     -83      -71      -68      -93     -110      -98      -54      -12 
     -51     -110      -74      -24      -74     -147     -144      -67 
       4      -25     -112     -108      -36      -41     -145     -222 
    -125       66       93      -52     -147     -144     -114      -60 
     -24      -82     -126      -49       -8     -113     -172      -79 
      17       10      -54     -116     -147     -117      -56      -51 
    -128     -164      -48       74        8     -109      -60       -2 
    -122     -230     -201     -162      -94       43      128       85 
     -67     -216     -214     -151     -137      -48      110      135 
     -14     -194     -271     -236     -132        9       72       16 
     -24      -87     -230     -213      -35       25      -27      -51 
     -52      -75     -137     -175     -114      -21       16      -21 
    -102     -125      -63      -43     -118     -135      -40      -40 
    -152     -103       51        6     -116      -63       32      -58 
    -268     -315     -130       16       29       89      113      -72 
    -267     -245     -156     -149      -78       89      118       -9 
    -116     -187     -202      -99        2        8       -9       -9 
     -55     -176     -265     -183       -2       45      -45      -47 
      25      -45     -205     -225     -130      -67        2       44 
     -32      -90      -75     -130     -221     -216     -108       18 
      78       94       83      -55     -251     -275     -170     -112 
     -82       -9       62       21      -98      -91        4      -45 
    -176     -234     -234     -151      -10       70      116      112 
     -16     -193     -284     -248     -125      -48      -16       58 
      59      -74     -141      -89      -87     -159     -167      -93 
     -37      -39      -17       18      -47     -129      -70       16 
     -51     -209     -288     -198      -10       93       70       25 
     -17      -87     -174     -222     -167      -75     -103     -175 
     -89       52       74       66       71      -39     -247     -345 
    -225      -17       67       29        5      -43     -163     -193 
     -93      -97     -221     -175       47      122       36       41 
      35     -193     -396     -306      -93       59      156      140 
      -5     -137     -202     -226     -207     -163      -85       22 
      63        0      -64      -10       44      -74     -225     -220 
    -175     -168      -70       71       60      -43      -54      -41 
    -137     -216     -120       22        4      -75      -47      -48 
    -162     -209     -147      -68       47      141       62     -147 
    -288     -256     -162     -114      -14      133      140       -1 
    -149     -225     -199     -113      -14       25      -27      -78 
    -105     -175     -206     -141      -29       82       62     -101 
    -184     -126      -48      -25      -47      -41      -22      -98 
    -179     -149      -97      -52       31       25     -108     -183 
    -110        9       25      -74     -129      -97     -155     -275 
    -171       87      133        0      -72     -152     -232     -153 
     -49      -68      -35      117      121     -133     -309     -175 
     -20      -63     -117      -64      -14      -28      -76      -97 
     -90     -125     -101       33       78      -29     -140     -191 
    -218     -263     -275      -90      228      348      170      -93 
    -275     -348     -322     -194       37      217      143      -75 
    -183     -195     -232     -207      -29      102       14     -101 
     -66      -43     -124     -130      -31        8      -70     -160 
    -155     -106      -70       13       43      -72     -136     -103 
    -141     -162      -32       78       -6     -164     -183     -113 
     -91      -51       43       33     -129     -214      -76       27 
     -95     -180      -44       51      -43     -114      -70      -70 
    -153     -178      -89       -2      -17      -78     -103     -103 
     -98      -74      -20       47       71      -27     -176     -217 
    -168     -152     -144      -76      -18      -32      -28        2 
     -70     -135       -8       70     -110     -261     -151        1 
     -18      -95      -93      -68      -83     -102      -87      -39 
     -12      -44      -74      -85     -105      -78      -58     -140 
    -167      -71      -75     -176      -94       98       63     -122 
    -108       20      -44     -174     -164     -157     -220     -155 
      66      187       95      -20      -74     -172     -283     -317 
    -260      -63      224      325      129      -98     -210     -349 
    -454     -279       43      199      191       98      -90     -245 
    -263     -199      -86       28       67       20      -62      -82 
     -37     -121     -307     -294     -106       -8       95      264 
     184     -152     -360     -357     -291     -152       31      120 
     120      112       13     -217     -309     -152      -70     -147 
     -93       76      110       52       10     -114     -286     -341 
    -295     -143      124      275      162      -37     -183     -314 
    -384     -248       17      171      133       -4     -135     -160 
     -99     -108     -183     -137       63      164        0     -209 
    -228     -148     -110      -97      -24      102      108     -109 
    -305     -247      -47       40      -41      -79       -1      -70 
    -230     -129       55      -39     -180     -109      -16      -71 
    -126      -27       82        0     -170     -234     -201     -143 
     -55       29       59       44       10      -76     -217     -274 
    -141       20       24      -31      -22      -27     -102     -182 
    -211     -172      -66       47       60      -63     -210     -220 
    -108      -21       31      106      120      -12     -217     -319 
    -236     -108      -56        1       60        5      -93     -103 
    -105     -163     -151      -32       24      -51     -130     -128 
     -83      -27       33       40      -55     -193     -245     -172 
     -56       16       17      -68     -190     -199      -86      -51 
     -89       48      232      108     -149     -193     -174     -244 
    -224     -113      -44       25      105      139      116       25 
     -86     -175     -305     -495     -637     -653     -558     -361 
     -40      383      849     1297     1483     1104      310     -573 
   -1487    -2145    -2052    -1274     -275      746     1624     1935 
    1494      554     -531    -1445    -1958    -1954    -1366     -328 
     776     1594     1865     1498      711     -202    -1089    -1672 
   -1491     -523      473      938     1015      577     -515    -1409 
   -1348     -720     -116      394      845      970      631      295 
     255       31     -616    -1186    -1287     -877      -97      592 
     876      884      612      -79     -881    -1225    -1047     -669 
     -86      800     1501     1444      758     -152    -1085    -1657 
   -1414     -611      141      738     1061      669     -183     -673 
    -691     -633     -454      -12      369      387      230      126 
      37      -86     -230     -364     -392     -319     -206       75 
     558      851      610      -13     -699    -1298    -1528    -1027 
     -54      785     1339     1529      990     -206    -1206    -1351 
   -1028     -791     -292      712     1312      870      189      -62 
    -436    -1220    -1525     -756      369      989     1084      823 
     147     -693    -1169    -1090     -650       -6      621      823 
     511       44     -318     -468     -264       63       72      -20 
     205      301     -221     -768     -596      -72        5     -202 
     -40      382      525      256     -259     -726     -760     -353 
      48      228      368      461      261     -144     -469     -697 
    -737     -310      313      469       60     -342     -286       71 
     310      232       31       67      202      -55     -413     -321 
    -251     -595     -679     -180      225      191      201      508 
     623      238     -313     -691     -716     -400     -224     -328 
     -49      496      351     -172      -56      224     -139     -496 
    -232       17     -129     -126      183      299      -10     -517 
    -781     -430      278      635      504      275        2     -375 
    -610     -589     -375      106      602      546      -49     -615 
    -820     -737     -527     -167      510     1223     1159      124 
   -1005    -1453    -1308     -795      167     1329     1868     1310 
     186     -764    -1441    -1779    -1336     -268      479      648 
     969     1468     1271      342     -529    -1219    -1811    -1713 
    -815       10      454      989     1429     1030       14     -545 
    -500     -581     -756     -579     -306     -187       83      463 
     506      290      109     -152     -454     -449     -155       74 
      70      -40      -63      -90     -272     -356     -121       74 
     -28      -76      101      230      199        2     -427     -737 
    -437      194      498      386      149     -152     -529     -722 
    -514     -109      199      299      114     -176     -206      -49 
     -22      -35       59       48     -167     -284     -139       17 
      -9      -93     -105     -151     -240     -145      152      361 
     337      174      -91     -427     -680     -710     -538     -194 
     330      788      762      272     -247     -522     -595     -556 
    -414     -130      214      311       89      -68      -41      -97 
    -197     -175     -162     -201      -85      176      317      216 
     -62     -356     -438     -318     -218     -163      -18      199 
     306      167     -145     -406     -437     -261      -76      -29 
     -37       18      117      230      267       63     -251     -363 
    -286     -220     -159       32      263      189     -205     -413 
    -244     -112     -137      -66        9      -56      -43      109 
     125      -55     -148      -79      -94     -238     -247      -66 
      33      -48     -118      -76      -45     -139     -251     -191 
       4      148      210      237      152      -70     -305     -468 
    -477     -282      -28      152      271      226      -43     -288 
    -345     -386     -403     -156      232      360      191        6 
     -68     -105     -210     -379     -406     -241      -79       55 
     236      325      178      -94     -302     -425     -449     -244 
     145      383      280       33     -182     -352     -392     -218 
      59      221      205      102      -79     -349     -491     -319 
     -37       52       14       40       27     -148     -245      -97 
      83      147      160       98     -120     -356     -423     -415 
    -395     -170      182      332      292      237      112     -120 
    -330     -444     -477     -409     -201       56      264      380 
     333      112     -183     -445     -556     -461     -238       56 
     376      544      398      -14     -463     -708     -676     -445 
    -137      210      526      568      264      -87     -263     -332 
    -360     -326     -213      -56       14      -35      -17       97 
      90      -44     -125     -167     -275     -307     -132      103 
     218      186       64     -103     -292     -386     -306     -121 
      79      207      157       -9     -125     -198     -301     -332 
    -190       60      244      228       76      -79     -247     -403 
    -414     -244       24      251      256       55     -135     -234 
    -279     -237     -151      -89        5      106       93       12 
     -55     -152     -255     -264     -157       51      243      183 
    -103     -311     -355     -376     -292       39      351      321 
      85      -99     -207     -251     -216     -156      -95      -22 
     -22     -103     -101        1       24      -82     -197     -236 
    -221     -176      -83       29       87      105       82      -12 
     -89     -132     -257     -357     -211       52      172      164 
     137       37     -147     -318     -423     -430     -257       41 
     245      243      155       62     -129     -371     -402     -175 
