Origin Time       2025/03/30 10:46:00
Lat.              32.923
Long.             130.372
Depth. (km)       11
Mag.              3.4
Station Code      SAGH04
Station Lat.      33.3654
Station Long.     130.4046
Station Height(m) -145
Record Time       2025/03/30 10:46:35
Sampling Freq(Hz) 100Hz
Duration Time(s)  120
Dir.              3
Scale Factor      3923(gal)/8224838
Max. Acc. (gal)   0.111
Last Correction   2025/03/30 10:46:35
Memo.             
  -45249   -45247   -45247   -45247   -45246   -45247   -45247   -45246 
  -45247   -45245   -45243   -45246   -45249   -45247   -45246   -45247 
  -45250   -45249   -45247   -45247   -45247   -45245   -45247   -45249 
  -45247   -45247   -45250   -45249   -45245   -45247   -45252   -45249 
  -45247   -45250   -45249   -45246   -45247   -45247   -45247   -45249 
  -45249   -45247   -45247   -45245   -45246   -45252   -45250   -45246 
  -45249   -45249   -45249   -45250   -45249   -45246   -45247   -45250 
  -45250   -45249   -45249   -45249   -45247   -45249   -45250   -45249 
  -45247   -45247   -45249   -45246   -45246   -45250   -45249   -45245 
  -45246   -45247   -45247   -45247   -45247   -45250   -45250   -45247 
  -45247   -45247   -45246   -45247   -45253   -45250   -45247   -45249 
  -45247   -45246   -45247   -45247   -45250   -45250   -45247   -45246 
  -45247   -45246   -45246   -45247   -45246   -45247   -45249   -45249 
  -45246   -45247   -45246   -45245   -45246   -45249   -45246   -45246 
  -45250   -45247   -45246   -45252   -45249   -45246   -45249   -45250 
  -45247   -45247   -45247   -45250   -45250   -45249   -45247   -45245 
  -45245   -45249   -45250   -45247   -45245   -45245   -45247   -45247 
  -45249   -45249   -45247   -45246   -45246   -45246   -45245   -45245 
  -45246   -45247   -45249   -45246   -45246   -45249   -45247   -45246 
  -45247   -45246   -45246   -45249   -45250   -45247   -45250   -45252 
  -45249   -45246   -45246   -45247   -45246   -45246   -45247   -45249 
  -45247   -45245   -45246   -45247   -45249   -45250   -45249   -45246 
  -45246   -45247   -45249   -45249   -45249   -45247   -45246   -45247 
  -45247   -45247   -45247   -45247   -45247   -45249   -45247   -45246 
  -45247   -45246   -45247   -45250   -45249   -45246   -45249   -45246 
  -45245   -45246   -45243   -45243   -45247   -45247   -45247   -45250 
  -45249   -45246   -45246   -45246   -45249   -45249   -45246   -45250 
  -45252   -45246   -45246   -45250   -45250   -45249   -45247   -45249 
  -45249   -45246   -45247   -45249   -45246   -45246   -45247   -45247 
  -45246   -45245   -45245   -45246   -45249   -45249   -45247   -45249 
  -45249   -45247   -45246   -45246   -45247   -45247   -45245   -45246 
  -45247   -45245   -45245   -45246   -45246   -45246   -45247   -45247 
  -45247   -45245   -45243   -45247   -45252   -45249   -45249   -45250 
  -45247   -45247   -45250   -45249   -45245   -45243   -45245   -45247 
  -45247   -45247   -45249   -45245   -45246   -45250   -45249   -45245 
  -45246   -45246   -45246   -45249   -45249   -45247   -45249   -45249 
  -45247   -45250   -45249   -45245   -45245   -45246   -45245   -45247 
  -45249   -45245   -45246   -45249   -45246   -45245   -45246   -45246 
  -45246   -45249   -45249   -45246   -45247   -45249   -45246   -45243 
  -45246   -45246   -45246   -45247   -45247   -45247   -45250   -45247 
  -45247   -45249   -45245   -45245   -45247   -45246   -45246   -45247 
  -45246   -45246   -45246   -45246   -45249   -45250   -45247   -45246 
  -45247   -45247   -45246   -45246   -45247   -45247   -45246   -45246 
  -45245   -45245   -45247   -45249   -45246   -45246   -45247   -45247 
  -45247   -45246   -45247   -45247   -45246   -45247   -45249   -45247 
  -45246   -45252   -45252   -45249   -45249   -45249   -45246   -45249 
  -45250   -45249   -45246   -45247   -45247   -45246   -45246   -45249 
  -45252   -45247   -45245   -45247   -45246   -45245   -45250   -45249 
  -45247   -45250   -45249   -45246   -45247   -45246   -45246   -45249 
  -45250   -45249   -45247   -45246   -45247   -45247   -45247   -45247 
  -45247   -45246   -45246   -45247   -45250   -45249   -45247   -45250 
  -45252   -45253   -45250   -45247   -45249   -45247   -45247   -45250 
  -45250   -45246   -45246   -45252   -45252   -45249   -45247   -45247 
  -45249   -45249   -45247   -45250   -45249   -45247   -45250   -45249 
  -45243   -45246   -45249   -45249   -45247   -45247   -45245   -45246 
  -45250   -45252   -45250   -45247   -45245   -45249   -45250   -45247 
  -45250   -45253   -45250   -45250   -45253   -45250   -45246   -45250 
  -45254   -45252   -45247   -45247   -45249   -45249   -45250   -45252 
  -45250   -45246   -45245   -45247   -45249   -45249   -45250   -45249 
  -45250   -45252   -45249   -45246   -45249   -45250   -45249   -45246 
  -45247   -45250   -45249   -45250   -45250   -45247   -45246   -45246 
  -45249   -45249   -45246   -45243   -45247   -45252   -45250   -45247 
  -45247   -45249   -45249   -45249   -45249   -45249   -45250   -45247 
  -45243   -45246   -45250   -45246   -45247   -45247   -45246   -45247 
  -45247   -45246   -45246   -45247   -45250   -45249   -45246   -45246 
  -45247   -45249   -45249   -45246   -45247   -45249   -45246   -45246 
  -45247   -45247   -45246   -45246   -45247   -45246   -45246   -45247 
  -45247   -45247   -45250   -45250   -45246   -45247   -45250   -45247 
  -45245   -45247   -45249   -45246   -45246   -45247   -45249   -45250 
  -45247   -45247   -45249   -45250   -45249   -45247   -45250   -45252 
  -45246   -45246   -45249   -45247   -45247   -45247   -45247   -45246 
  -45246   -45247   -45247   -45246   -45246   -45247   -45247   -45249 
  -45247   -45247   -45247   -45247   -45249   -45249   -45247   -45247 
  -45247   -45249   -45249   -45247   -45246   -45246   -45247   -45249 
  -45247   -45246   -45247   -45247   -45245   -45245   -45247   -45246 
  -45245   -45247   -45249   -45245   -45246   -45250   -45250   -45247 
  -45247   -45247   -45246   -45246   -45249   -45249   -45246   -45249 
  -45250   -45245   -45245   -45249   -45247   -45245   -45247   -45246 
  -45245   -45247   -45247   -45247   -45246   -45246   -45247   -45247 
  -45246   -45247   -45247   -45247   -45247   -45247   -45249   -45250 
  -45247   -45245   -45246   -45246   -45245   -45246   -45249   -45247 
  -45246   -45247   -45247   -45246   -45247   -45250   -45250   -45249 
  -45246   -45246   -45246   -45246   -45247   -45249   -45250   -45250 
  -45249   -45247   -45246   -45246   -45247   -45247   -45246   -45245 
  -45247   -45250   -45247   -45249   -45252   -45247   -45246   -45247 
  -45246   -45247   -45247   -45245   -45245   -45246   -45249   -45247 
  -45245   -45243   -45246   -45246   -45246   -45247   -45246   -45245 
  -45246   -45247   -45246   -45245   -45247   -45246   -45246   -45249 
  -45249   -45243   -45245   -45249   -45249   -45247   -45246   -45249 
  -45246   -45245   -45247   -45247   -45246   -45243   -45245   -45247 
  -45247   -45247   -45249   -45249   -45249   -45247   -45245   -45245 
  -45246   -45246   -45247   -45249   -45249   -45250   -45247   -45243 
  -45242   -45245   -45245   -45246   -45247   -45247   -45247   -45249 
  -45246   -45245   -45249   -45245   -45243   -45249   -45247   -45245 
  -45247   -45246   -45246   -45247   -45243   -45242   -45245   -45246 
  -45245   -45246   -45249   -45246   -45246   -45249   -45247   -45245 
  -45245   -45246   -45246   -45247   -45249   -45247   -45247   -45247 
  -45245   -45246   -45246   -45245   -45247   -45247   -45246   -45247 
  -45247   -45246   -45245   -45245   -45246   -45247   -45246   -45246 
  -45245   -45246   -45247   -45247   -45247   -45249   -45250   -45249 
  -45247   -45247   -45245   -45246   -45249   -45246   -45246   -45250 
  -45247   -45243   -45245   -45247   -45246   -45242   -45246   -45249 
  -45246   -45246   -45247   -45247   -45246   -45246   -45246   -45249 
  -45250   -45247   -45245   -45245   -45245   -45246   -45249   -45247 
  -45246   -45247   -45247   -45246   -45246   -45243   -45243   -45246 
  -45247   -45247   -45246   -45245   -45243   -45246   -45246   -45246 
  -45247   -45247   -45246   -45247   -45245   -45242   -45246   -45247 
  -45243   -45245   -45249   -45246   -45241   -45245   -45247   -45245 
  -45245   -45246   -45245   -45246   -45250   -45247   -45243   -45249 
  -45250   -45245   -45245   -45249   -45249   -45246   -45249   -45252 
  -45249   -45247   -45249   -45246   -45245   -45246   -45247   -45246 
  -45247   -45247   -45246   -45249   -45249   -45246   -45247   -45249 
  -45247   -45246   -45246   -45245   -45246   -45250   -45249   -45245 
  -45246   -45249   -45247   -45246   -45245   -45245   -45247   -45247 
  -45247   -45247   -45246   -45247   -45249   -45249   -45247   -45246 
  -45249   -45249   -45246   -45249   -45249   -45245   -45243   -45243 
  -45237   -45223   -45210   -45210   -45227   -45249   -45270   -45296 
  -45304   -45268   -45219   -45210   -45242   -45293   -45307   -45233 
  -45154   -45192   -45277   -45297   -45284   -45269   -45241   -45250 
  -45274   -45208   -45148   -45231   -45314   -45284   -45235   -45230 
  -45274   -45303   -45250   -45212   -45264   -45350   -45376   -45250 
  -45041   -45015   -45227   -45378   -45335   -45269   -45241   -45192 
  -45168   -45229   -45315   -45316   -45249   -45204   -45188   -45204 
  -45256   -45296   -45289   -45245   -45225   -45246   -45285   -45300 
  -45247   -45196   -45238   -45262   -45179   -45148   -45249   -45326 
  -45310   -45257   -45207   -45193   -45237   -45266   -45252   -45249 
  -45269   -45272   -45243   -45222   -45249   -45264   -45258   -45269 
  -45245   -45223   -45246   -45272   -45289   -45261   -45202   -45188 
  -45218   -45254   -45261   -45250   -45261   -45245   -45225   -45249 
  -45249   -45223   -45252   -45288   -45266   -45249   -45260   -45223 
  -45172   -45210   -45301   -45341   -45291   -45218   -45220   -45254 
  -45225   -45204   -45250   -45266   -45234   -45222   -45234   -45233 
  -45250   -45295   -45277   -45223   -45233   -45261   -45238   -45200 
  -45202   -45250   -45296   -45287   -45261   -45269   -45284   -45258 
  -45193   -45187   -45247   -45258   -45249   -45272   -45247   -45198 
  -45207   -45249   -45288   -45311   -45299   -45269   -45239   -45215 
  -45208   -45260   -45328   -45280   -45161   -45154   -45258   -45303 
  -45249   -45214   -45222   -45220   -45245   -45287   -45281   -45214 
  -45172   -45229   -45308   -45323   -45291   -45243   -45235   -45258 
  -45239   -45208   -45239   -45283   -45279   -45246   -45208   -45203 
  -45230   -45235   -45215   -45223   -45266   -45296   -45306   -45270 
  -45185   -45184   -45281   -45311   -45266   -45242   -45237   -45223 
  -45212   -45246   -45291   -45270   -45230   -45226   -45229   -45225 
  -45234   -45250   -45269   -45281   -45268   -45242   -45226   -45215 
  -45223   -45273   -45314   -45281   -45241   -45242   -45235   -45235 
  -45268   -45261   -45210   -45214   -45254   -45230   -45218   -45283 
  -45277   -45188   -45202   -45279   -45274   -45262   -45279   -45264 
  -45246   -45241   -45242   -45260   -45254   -45238   -45246   -45238 
  -45223   -45229   -45222   -45222   -45246   -45241   -45225   -45265 
  -45315   -45283   -45234   -45257   -45257   -45198   -45207   -45277 
  -45293   -45287   -45289   -45230   -45154   -45183   -45241   -45227 
  -45249   -45315   -45287   -45223   -45216   -45219   -45223   -45258 
  -45288   -45269   -45234   -45256   -45266   -45212   -45200   -45243 
  -45260   -45252   -45237   -45233   -45245   -45237   -45243   -45265 
  -45241   -45216   -45223   -45233   -45268   -45300   -45284   -45256 
  -45230   -45207   -45231   -45285   -45299   -45268   -45237   -45239 
  -45252   -45233   -45218   -45222   -45211   -45242   -45300   -45268 
  -45225   -45257   -45254   -45227   -45246   -45258   -45281   -45324 
  -45292   -45198   -45169   -45230   -45288   -45277   -45223   -45206 
  -45257   -45273   -45225   -45233   -45261   -45211   -45198   -45269 
  -45296   -45268   -45230   -45225   -45268   -45280   -45250   -45238 
  -45230   -45229   -45243   -45241   -45231   -45239   -45241   -45249 
  -45256   -45237   -45230   -45262   -45281   -45249   -45220   -45273 
  -45303   -45227   -45198   -45254   -45268   -45253   -45272   -45270 
  -45207   -45169   -45247   -45323   -45284   -45237   -45243   -45231 
  -45225   -45243   -45223   -45214   -45281   -45296   -45241   -45242 
  -45260   -45225   -45199   -45234   -45295   -45308   -45268   -45241 
  -45226   -45196   -45207   -45264   -45296   -45270   -45223   -45219 
  -45235   -45230   -45235   -45254   -45250   -45227   -45237   -45288 
  -45296   -45250   -45242   -45253   -45252   -45254   -45252   -45245 
  -45215   -45220   -45273   -45262   -45223   -45237   -45257   -45262 
  -45258   -45254   -45237   -45204   -45214   -45243   -45246   -45252 
  -45262   -45277   -45283   -45253   -45223   -45222   -45237   -45279 
  -45299   -45258   -45237   -45238   -45212   -45210   -45246   -45258 
  -45249   -45242   -45237   -45249   -45250   -45238   -45273   -45284 
  -45225   -45216   -45272   -45268   -45208   -45196   -45235   -45245 
  -45239   -45268   -45291   -45283   -45258   -45229   -45235   -45272 
  -45268   -45239   -45261   -45269   -45216   -45214   -45266   -45242 
  -45175   -45214   -45307   -45292   -45241   -45258   -45242   -45202 
  -45256   -45308   -45264   -45230   -45258   -45261   -45225   -45223 
  -45257   -45280   -45258   -45218   -45234   -45284   -45272   -45210 
  -45198   -45234   -45238   -45241   -45270   -45253   -45223   -45243 
  -45257   -45239   -45227   -45225   -45273   -45349   -45314   -45216 
  -45223   -45242   -45188   -45177   -45260   -45312   -45249   -45177 
  -45199   -45241   -45261   -45274   -45284   -45287   -45254   -45216 
  -45219   -45233   -45230   -45246   -45301   -45323   -45277   -45229 
  -45203   -45204   -45216   -45218   -45225   -45234   -45246   -45261 
  -45258   -45277   -45311   -45289   -45212   -45148   -45156   -45226 
  -45277   -45292   -45306   -45297   -45239   -45215   -45269   -45281 
  -45231   -45219   -45261   -45296   -45274   -45238   -45249   -45245 
  -45207   -45204   -45218   -45226   -45257   -45258   -45208   -45184 
  -45211   -45234   -45198   -45149   -45149   -45219   -45346   -45396 
  -45362   -45392   -45415   -45358   -45323   -45300   -45256   -45241 
  -45235   -45223   -45223   -45188   -45100   -45050   -45118   -45227 
  -45293   -45346   -45328   -45242   -45246   -45307   -45287   -45245 
  -45256   -45235   -45198   -45254   -45334   -45327   -45237   -45103 
  -45046   -45110   -45160   -45185   -45264   -45307   -45296   -45335 
  -45369   -45327   -45291   -45265   -45227   -45230   -45225   -45150 
  -45137   -45235   -45284   -45243   -45234   -45272   -45276   -45261 
  -45281   -45296   -45288   -45268   -45204   -45114   -45118   -45215 
  -45253   -45229   -45265   -45326   -45319   -45269   -45225   -45222 
  -45222   -45177   -45193   -45314   -45365   -45310   -45276   -45284 
  -45300   -45291   -45208   -45134   -45153   -45212   -45276   -45312 
  -45280   -45243   -45293   -45353   -45306   -45210   -45145   -45156 
  -45276   -45350   -45285   -45238   -45260   -45285   -45293   -45279 
  -45243   -45202   -45207   -45247   -45241   -45203   -45206   -45256 
  -45311   -45288   -45210   -45202   -45219   -45177   -45196   -45266 
  -45235   -45169   -45175   -45214   -45254   -45269   -45268   -45283 
  -45285   -45276   -45273   -45243   -45227   -45252   -45249   -45250 
  -45310   -45312   -45229   -45200   -45216   -45193   -45184   -45246 
  -45315   -45315   -45283   -45262   -45229   -45235   -45289   -45269 
  -45250   -45295   -45250   -45142   -45118   -45175   -45257   -45330 
  -45380   -45382   -45308   -45189   -45126   -45175   -45246   -45246 
  -45220   -45212   -45226   -45266   -45274   -45256   -45280   -45300 
  -45283   -45270   -45266   -45285   -45283   -45216   -45216   -45284 
  -45276   -45230   -45229   -45241   -45229   -45218   -45231   -45229 
  -45192   -45193   -45218   -45222   -45250   -45281   -45268   -45234 
  -45203   -45211   -45243   -45212   -45192   -45280   -45337   -45288 
  -45264   -45262   -45227   -45220   -45252   -45273   -45266   -45227 
  -45211   -45246   -45266   -45243   -45235   -45264   -45265   -45225 
  -45216   -45265   -45318   -45306   -45239   -45203   -45230   -45266 
  -45272   -45249   -45235   -45265   -45272   -45223   -45250   -45328 
  -45289   -45206   -45206   -45225   -45229   -45273   -45303   -45268 
  -45222   -45193   -45195   -45225   -45239   -45256   -45272   -45256 
  -45238   -45241   -45230   -45233   -45303   -45342   -45261   -45195 
  -45223   -45252   -45257   -45273   -45274   -45260   -45231   -45216 
  -45246   -45256   -45227   -45235   -45238   -45212   -45249   -45276 
  -45218   -45206   -45238   -45222   -45215   -45219   -45214   -45245 
  -45273   -45272   -45279   -45266   -45219   -45212   -45266   -45299 
  -45268   -45219   -45203   -45220   -45256   -45297   -45304   -45241 
  -45207   -45293   -45338   -45238   -45169   -45206   -45235   -45249 
  -45289   -45319   -45301   -45249   -45218   -45231   -45238   -45196 
  -45180   -45237   -45274   -45277   -45306   -45312   -45274   -45266 
  -45283   -45265   -45219   -45191   -45196   -45183   -45192   -45258 
  -45261   -45223   -45268   -45303   -45258   -45223   -45231   -45234 
  -45206   -45188   -45211   -45234   -45247   -45281   -45314   -45314 
  -45268   -45188   -45157   -45212   -45285   -45303   -45273   -45274 
  -45288   -45242   -45202   -45220   -45238   -45241   -45262   -45274 
  -45241   -45225   -45256   -45257   -45235   -45252   -45270   -45268 
  -45279   -45287   -45269   -45245   -45218   -45200   -45208   -45230 
  -45250   -45249   -45225   -45218   -45230   -45245   -45253   -45250 
  -45262   -45284   -45274   -45233   -45219   -45264   -45295   -45277 
  -45268   -45276   -45265   -45250   -45247   -45241   -45237   -45238 
  -45238   -45253   -45247   -45196   -45202   -45277   -45283   -45247 
  -45262   -45264   -45229   -45208   -45211   -45220   -45218   -45220 
  -45254   -45274   -45253   -45230   -45256   -45314   -45335   -45315 
  -45283   -45226   -45189   -45196   -45206   -45237   -45279   -45268 
  -45230   -45227   -45246   -45260   -45265   -45257   -45231   -45226 
  -45246   -45233   -45198   -45219   -45260   -45245   -45241   -45297 
  -45316   -45270   -45241   -45237   -45241   -45257   -45252   -45239 
  -45264   -45274   -45256   -45243   -45249   -45257   -45237   -45207 
  -45210   -45238   -45284   -45301   -45268   -45254   -45242   -45204 
  -45222   -45258   -45239   -45226   -45227   -45215   -45220   -45241 
  -45272   -45314   -45307   -45249   -45210   -45230   -45258   -45245 
  -45237   -45256   -45258   -45254   -45250   -45226   -45229   -45264 
  -45276   -45280   -45288   -45274   -45253   -45252   -45247   -45226 
  -45212   -45206   -45191   -45207   -45257   -45277   -45270   -45270 
  -45277   -45265   -45223   -45222   -45270   -45270   -45229   -45225 
  -45250   -45277   -45268   -45211   -45189   -45227   -45250   -45239 
  -45246   -45265   -45262   -45274   -45293   -45269   -45242   -45252 
  -45264   -45252   -45226   -45229   -45258   -45261   -45252   -45247 
  -45242   -45238   -45230   -45210   -45196   -45203   -45238   -45273 
  -45274   -45262   -45256   -45238   -45219   -45227   -45250   -45268 
  -45262   -45245   -45242   -45231   -45202   -45208   -45256   -45273 
  -45258   -45247   -45257   -45272   -45264   -45252   -45243   -45241 
  -45273   -45287   -45242   -45222   -45254   -45262   -45229   -45219 
  -45260   -45279   -45253   -45238   -45229   -45204   -45216   -45268 
