Origin Time       2025/03/30 10:46:00
Lat.              32.923
Long.             130.372
Depth. (km)       11
Mag.              3.4
Station Code      SAGH04
Station Lat.      33.3654
Station Long.     130.4046
Station Height(m) 55
Record Time       2025/03/30 10:46:35
Sampling Freq(Hz) 100Hz
Duration Time(s)  120
Dir.              4
Scale Factor      7845(gal)/8223790
Max. Acc. (gal)   1.753
Last Correction   2025/03/30 10:46:35
Memo.             
[...]
    9410     9421     9417     9421     9427     9414     9406     9414 
    9425     9429     9418     9397     9404     9435     9439     9420 
    9410     9406     9414     9425     9417     9409     9414     9421 
    9424     9428     9423     9405     9396     9416     9433     9427 
    9413     9397     9401     9440     9445     9412     9404     9406 
    9401     9425     9444     9428     9409     9402     9408     9433 
    9433     9404     9408     9428     9424     9428     9428     9394 
    9387     9416     9433     9439     9432     9414     9401     9405 
    9424     9431     9417     9402     9402     9421     9435     9423 
    9410     9408     9406     9417     9432     9421     9413     9418 
    9413     9408     9414     9420     9428     9432     9423     9412 
    9413     9413     9408     9421     9433     9418     9402     9413 
    9425     9421     9416     9409     9405     9423     9441     9435 
    9420     9406     9396     9406     9427     9425     9417     9409 
    9409     9428     9440     9420     9401     9402     9414     9429 
    9433     9417     9396     9393     9417     9447     9447     9417 
    9394     9401     9414     9418     9428     9425     9412     9417 
    9428     9418     9406     9409     9412     9414     9423     9425 
    9420     9417     9413     9409     9417     9429     9421     9410 
    9416     9425     9424     9412     9401     9405     9420     9431 
    9425     9413     9412     9420     9428     9423     9406     9400 
    9405     9418     9432     9431     9414     9402     9409     9429 
    9437     9423     9402     9400     9423     9439     9429     9408 
    9394     9402     9435     9450     9417     9385     9401     9429 
    9433     9428     9417     9401     9406     9423     9423     9418 
    9421     9423     9424     9420     9410     9410     9416     9410 
    9412     9423     9423     9423     9425     9421     9416     9412 
    9408     9406     9418     9428     9427     9424     9416     9406 
    9412     9418     9416     9423     9428     9413     9408     9421 
    9417     9409     9416     9417     9417     9420     9416     9416 
    9428     9429     9416     9413     9416     9406     9409     9427 
    9428     9414     9412     9414     9420     9424     9416     9408 
    9409     9406     9412     9428     9433     9425     9414     9408 
    9410     9418     9416     9401     9405     9431     9439     9428 
    9417     9406     9401     9412     9424     9421     9417     9420 
    9421     9421     9417     9409     9413     9418     9420     9428 
    9429     9404     9387     9410     9432     9433     9432     9416 
    9400     9416     9433     9425     9409     9394     9397     9424 
    9443     9436     9423     9412     9405     9405     9409     9412 
    9417     9427     9432     9431     9417     9398     9398     9421 
    9437     9431     9414     9402     9404     9420     9433     9428 
    9413     9405     9405     9420     9433     9423     9409     9410 
    9413     9417     9424     9417     9412     9420     9420     9412 
    9412     9414     9417     9421     9427     9423     9412     9413 
    9416     9416     9420     9414     9409     9421     9427     9420 
    9418     9409     9397     9409     9432     9437     9425     9412 
    9404     9405     9416     9418     9416     9418     9420     9423 
    9428     9421     9402     9397     9410     9424     9433     9424 
    9401     9401     9418     9423     9425     9429     9414     9409 
    9423     9417     9409     9414     9406     9402     9420     9431 
    9432     9428     9417     9410     9413     9409     9400     9408 
    9427     9429     9423     9417     9410     9410     9416     9416 
    9417     9423     9420     9414     9424     9420     9406     9412 
    9414     9406     9420     9429     9423     9418     9413     9405 
    9414     9427     9416     9408     9414     9418     9423     9423 
    9413     9409     9416     9416     9420     9428     9421     9410 
    9408     9408     9409     9424     9429     9420     9418     9417 
    9406     9408     9418     9421     9421     9417     9410     9409 
    9414     9424     9431     9420     9404     9406     9417     9417 
    9416     9423     9421     9413     9417     9420     9406     9405 
    9421     9425     9420     9417     9416     9418     9420     9413 
    9409     9412     9413     9417     9429     9427     9408     9400 
    9406     9418     9429     9429     9414     9402     9409     9421 
    9425     9428     9420     9402     9406     9420     9420     9423 
    9425     9414     9412     9413     9410     9421     9425     9414 
    9418     9417     9404     9410     9424     9427     9432     9425 
    9401     9402     9421     9425     9423     9421     9406     9405 
    9427     9425     9413     9417     9418     9417     9420     9412 
    9409     9421     9420     9408     9414     9429     9423     9413 
    9414     9413     9413     9417     9410     9414     9425     9420 
    9410     9412     9416     9418     9429     9427     9409     9406 
    9410     9406     9414     9424     9420     9414     9414     9420 
    9425     9423     9408     9400     9409     9424     9433     9433 
    9413     9397     9416     9436     9424     9408     9404     9408 
    9425     9437     9424     9410     9408     9408     9423     9431 
    9405     9396     9423     9435     9425     9425     9410     9387 
    9406     9435     9431     9421     9410     9397     9416     9440 
    9425     9406     9402     9406     9428     9441     9416     9391 
    9405     9425     9433     9431     9413     9400     9410     9425 
    9418     9409     9410     9412     9424     9439     9423     9398 
    9405     9417     9416     9425     9428     9410     9406     9420 
    9421     9418     9416     9405     9406     9424     9427     9421 
    9420     9406     9404     9420     9424     9416     9413     9412 
    9413     9427     9429     9406     9400     9416     9427     9429 
    9423     9409     9405     9412     9421     9427     9425     9418 
    9413     9414     9413     9413     9421     9418     9406     9418 
    9431     9421     9416     9414     9405     9413     9428     9424 
    9418     9416     9406     9410     9425     9420     9413     9420 
    9417     9416     9428     9424     9410     9417     9427     9420 
    9414     9408     9404     9418     9429     9421     9417     9420 
    9420     9416     9412     9412     9418     9421     9420     9417 
    9412     9408     9412     9424     9428     9421     9414     9414 
    9418     9418     9417     9416     9409     9408     9420     9427 
    9421     9418     9413     9406     9413     9420     9414     9409 
    9414     9423     9421     9413     9409     9414     9420     9418 
    9416     9414     9412     9412     9417     9417     9416     9420 
    9418     9414     9418     9418     9414     9413     9413     9416 
    9424     9425     9416     9405     9406     9418     9423     9418 
    9410     9409     9418     9424     9417     9416     9414     9406 
    9413     9421     9413     9409     9417     9418     9418     9420 
    9413     9409     9416     9416     9416     9425     9417     9406 
    9417     9421     9412     9413     9417     9413     9418     9424 
    9413     9408     9416     9413     9414     9427     9421     9408 
    9413     9414     9412     9416     9414     9409     9414     9420 
    9418     9421     9420     9409     9409     9417     9417     9417 
    9418     9413     9413     9424     9423     9412     9416     9413 
    9404     9417     9427     9417     9417     9420     9413     9423 
    9448     9462     9471     9472     9439     9387     9343     9292 
    9263     9306     9385     9455     9485     9454     9439     9528 
    9644     9643     9489     9269     9154     9235     9356     9329 
    9246     9296     9472     9633     9639     9514     9479     9571 
    9571     9404     9213     9178     9297     9313     9165     9200 
    9556     9850     9765     9460     9315     9475     9671     9566 
    9234     9018     9070     9225     9323     9420     9590     9745 
    9734     9551     9397     9425     9490     9381     9165     9036 
    9070     9271     9525     9583     9512     9624     9841     9809 
    9518     9235     9143     9242     9328     9239     9127     9202 
    9436     9668     9721     9599     9502     9460     9409     9408 
    9400     9286     9200     9255     9350     9401     9460     9555 
    9603     9574     9509     9417     9364     9385     9348     9258 
    9242     9308     9425     9560     9602     9545     9498     9456 
    9369     9242     9181     9282     9445     9532     9553     9517 
    9433     9386     9404     9441     9462     9445     9413     9417 
    9414     9354     9348     9420     9423     9360     9333     9381 
    9486     9526     9443     9369     9400     9456     9443     9379 
    9360     9433     9513     9451     9289     9250     9378     9520 
    9566     9499     9450     9478     9454     9366     9301     9262 
    9265     9312     9382     9481     9585     9693     9721     9556 
    9339     9232     9207     9234     9301     9328     9310     9364 
    9512     9593     9560     9539     9571     9602     9521     9305 
    9151     9178     9294     9396     9387     9328     9416     9587 
    9637     9575     9475     9408     9401     9332     9220     9258 
    9401     9479     9462     9409     9429     9533     9570     9490 
    9404     9385     9402     9328     9170     9166     9363     9532 
    9576     9580     9549     9458     9387     9378     9397     9448 
    9435     9306     9227     9274     9375     9475     9537     9559 
    9537     9487     9432     9355     9310     9356     9420     9433 
    9413     9404     9412     9414     9437     9467     9444     9420 
    9400     9331     9313     9408     9512     9532     9459     9404 
    9418     9405     9354     9340     9375     9452     9502     9432 
    9301     9248     9325     9468     9563     9579     9579     9547 
    9429     9270     9181     9229     9363     9467     9483     9428 
    9404     9491     9555     9472     9386     9420     9440     9371 
    9337     9363     9391     9425     9444     9404     9336     9354 
    9458     9505     9505     9541     9524     9400     9282     9269 
    9332     9391     9450     9490     9425     9348     9379     9431 
    9466     9526     9531     9443     9369     9348     9335     9316 
    9316     9342     9405     9526     9621     9572     9413     9286 
    9278     9373     9475     9487     9416     9375     9402     9421 
    9421     9447     9477     9451     9382     9342     9366     9424 
    9436     9370     9308     9350     9468     9543     9533     9539 
    9541     9444     9321     9282     9304     9332     9337     9366 
    9435     9475     9471     9460     9467     9505     9548     9533 
    9441     9317     9225     9217     9282     9383     9470     9510 
    9513     9506     9531     9540     9448     9329     9286     9283 
    9296     9324     9358     9420     9494     9545     9582     9580 
    9491     9379     9336     9323     9332     9378     9366     9316 
    9382     9528     9590     9525     9390     9279     9296     9412 
    9494     9478     9390     9327     9362     9451     9525     9549 
    9510     9447     9397     9382     9373     9300     9200     9178 
    9278     9451     9593     9661     9653     9583     9514     9467 
    9387     9277     9189     9188     9289     9408     9448     9451 
    9504     9562     9537     9451     9400     9424     9462     9424 
    9343     9315     9320     9310     9340     9424     9506     9555 
    9556     9502     9421     9374     9324     9220     9234     9409 
    9539     9613     9632     9498     9389     9396     9302     9158 
    9185     9312     9440     9579     9639     9590     9543     9510 
    9421     9317     9282     9274     9251     9282     9363     9412 
    9439     9483     9567     9660     9648     9536     9431     9346 
    9246     9143     9100     9177     9328     9510     9698     9767 
    9693     9578     9437     9297     9258     9244     9171     9212 
    9386     9470     9494     9589     9613     9508     9429     9402 
    9362     9342     9325     9238     9211     9387     9587     9634 
    9587     9521     9518     9555     9448     9217     9053     9063 
    9269     9497     9571     9575     9586     9575     9572     9526 
    9382     9248     9192     9217     9328     9404     9394     9435 
    9567     9693     9688     9491     9270     9219     9262     9277 
    9310     9385     9416     9432     9545     9659     9609     9471 
    9367     9302     9321     9439     9506     9471     9413     9288 
    9113     9088     9209     9316     9440     9612     9724     9755 
    9722     9572     9355     9197     9140     9208     9362     9474 
    9555     9671     9737     9661     9447     9205     9108     9200 
    9373     9491     9478     9409     9387     9339     9243     9221 
    9281     9418     9637     9742     9630     9458     9273     9076 
    9061     9300     9614     9891    10161    10370    10308     9888 
    9261     8573     7967     7655     7816     8425     9252    10080 
   10778    11215    11254    10800     9956     9061     8409     8083 
    7978     8017     8272     8737     9379    10197    10924    11205 
   10949    10276     9513     8996     8742     8577     8387     8255 
    8434     8989     9674    10218    10543    10721    10671    10168 
    9343     8641     8279     8178     8263     8591     9117     9620 
   10037    10400    10600    10575    10330     9799     9047     8411 
    8162     8278     8691     9315     9871    10118    10111    10002 
    9817     9579     9387     9250     9065     8811     8630     8680 
    9007     9540    10064    10322    10262    10057     9852     9607 
    9271     8930     8679     8610     8796     9112     9409     9687 
    9821     9695     9495     9436     9516     9624     9645     9564 
    9451     9297     9104     8974     9012     9263     9655     9998 
   10114     9969     9711     9448     9120     8711     8452     8563 
    8993     9522     9852     9807     9603     9617     9892    10111 
    9987     9540     9046     8843     8988     9158     9143     9105 
    9213     9431     9690     9964    10104     9925     9560     9271 
    9080     8958     8920     8903     8953     9220     9618     9873 
    9944     9968     9930     9726     9444     9265     9166     9039 
    8973     9100     9336     9495     9518     9493     9505     9556 
    9612     9632     9567     9405     9265     9217     9181     9177 
    9223     9188     9159     9328     9597     9787     9819     9706 
    9599     9558     9466     9332     9265     9244     9177     9093 
    9119     9255     9439     9687     9863     9775     9556     9396 
    9283     9215     9225     9270     9331     9439     9537     9537 
    9508     9544     9560     9455     9286     9207     9292     9485 
    9644     9632     9466     9366     9432     9535     9513     9283 
    9007     8955     9105     9290     9494     9703     9845     9873 
    9767     9571     9406     9309     9189     9067     9055     9070 
    9043     9109     9325     9630     9949    10112     9979     9647 
    9367     9289     9305     9225     9026     8854     8885     9181 
    9572     9796     9846     9917     9954     9759     9371     9019 
    8903     9053     9274     9393     9409     9400     9433     9495 
    9521     9504     9505     9551     9575     9541     9521     9505 
    9382     9153     8985     8993     9065     9130     9315     9614 
    9887    10108    10206     9990     9485     8991     8770     8861 
    9103     9286     9354     9390     9482     9648     9779     9776 
    9697     9572     9327     9023     8887     8972     9140     9332 
    9552     9776     9972    10064     9968     9722     9432     9158 
    8892     8672     8623     8814     9192     9607     9829     9798 
    9738     9836     9992    10004     9769     9362     8977     8761 
    8737     8843     9015     9232     9501     9782     9984    10023 
    9886     9598     9267     9080     9111     9232     9331     9408 
    9385     9259     9255     9406     9493     9478     9490     9590 
    9738     9787     9624     9329     9042     8874     8938     9198 
    9512     9771     9888     9819     9653     9471     9267     9093 
    9046     9155     9359     9537     9603     9551     9428     9324 
    9293     9308     9358     9452     9544     9591     9585     9521 
    9467     9470     9455     9405     9343     9244     9188     9263 
    9373     9435     9477     9468     9409     9425     9536     9603 
    9567     9466     9350     9267     9231     9248     9336     9447 
    9548     9629     9624     9524     9391     9269     9204     9197 
    9219     9319     9505     9693     9769     9667     9448     9255 
    9174     9211     9288     9310     9300     9373     9579     9801 
    9868     9784     9640     9425     9154     8924     8795     8820 
    9024     9329     9652     9904     9988     9880     9651     9435 
    9335     9317     9297     9256     9238     9289     9363     9370 
    9325     9315     9351     9431     9567     9711     9748     9648 
    9458     9240     9099     9105     9224     9398     9603     9764 
    9786     9674     9494     9281     9078     8946     8897     8946 
    9158     9494     9761     9864     9877     9853     9796     9710 
    9576     9381     9150     8939     8812     8845     9035     9298 
    9586     9838     9954     9931     9837     9682     9470     9271 
    9135     9020     8928     8935     9046     9209     9436     9711 
    9937    10027     9968     9767     9472     9180     8968     8864 
    8884     9050     9333     9614     9801     9884     9857     9724 
    9532     9296     9055     8912     8914     9035     9270     9630 
    9991    10112     9940     9645     9351     9084     8922     8914 
    9011     9155     9332     9558     9786     9861     9763     9616 
    9472     9348     9288     9266     9240     9219     9254     9351 
    9463     9572     9661     9661     9558     9413     9282     9184 
    9138     9177     9327     9558     9741     9774     9675     9545 
    9424     9273     9120     9072     9162     9321     9464     9562 
    9621     9651     9633     9528     9354     9201     9134     9166 
    9300     9463     9598     9698     9705     9613     9494     9362 
    9239     9198     9247     9319     9350     9329     9310     9348 
    9462     9587     9634     9595     9524     9448     9362     9281 
    9275     9350     9396     9382     9371     9366     9360     9386 
    9444     9513     9567     9590     9586     9520     9375     9240 
    9194     9254     9396     9536     9591     9539     9401     9275 
    9265     9336     9383     9406     9479     9553     9524     9412 
    9312     9278     9328     9445     9564     9630     9630     9566 
