Origin Time       2025/03/30 10:46:00
Lat.              32.923
Long.             130.372
Depth. (km)       11
Mag.              3.4
Station Code      SAGH04
Station Lat.      33.3654
Station Long.     130.4046
Station Height(m) -145
Record Time       2025/03/30 10:46:35
Sampling Freq(Hz) 100Hz
Duration Time(s)  120
Dir.              1
Scale Factor      3923(gal)/8224838
Max. Acc. (gal)   0.163
Last Correction   2025/03/30 10:46:35
Memo.             
[...]
   50195    50194    50195    50197    50193    50191    50194    50194 
   50193    50194    50195    50194    50194    50197    50197    50193 
   50193    50198    50197    50193    50194    50194    50195    50195 
   50194    50194    50197    50197    50194    50194    50195    50194 
   50194    50194    50197    50198    50197    50194    50194    50195 
   50195    50195    50197    50197    50195    50194    50193    50195 
   50195    50191    50193    50197    50195    50195    50194    50194 
   50197    50197    50195    50194    50195    50197    50197    50197 
   50198    50197    50195    50194    50195    50197    50195    50197 
   50197    50194    50194    50195    50195    50195    50197    50194 
   50194    50197    50194    50193    50195    50195    50193    50197 
   50198    50195    50195    50197    50197    50194    50195    50197 
   50194    50193    50194    50195    50195    50194    50194    50195 
   50191    50193    50194    50194    50195    50195    50193    50195 
   50195    50193    50193    50195    50194    50193    50195    50195 
   50194    50195    50197    50195    50194    50195    50195    50194 
   50195    50195    50195    50195    50195    50193    50193    50195 
   50195    50195    50197    50193    50191    50197    50195    50193 
   50195    50194    50194    50197    50197    50194    50193    50193 
   50193    50194    50195    50195    50193    50193    50194    50194 
   50193    50193    50195    50197    50197    50195    50194    50193 
   50193    50195    50197    50195    50195    50195    50194    50194 
   50194    50193    50195    50197    50194    50195    50198    50197 
   50197    50197    50195    50194    50195    50195    50195    50195 
   50195    50197    50197    50195    50195    50194    50194    50197 
   50197    50195    50194    50194    50195    50195    50195    50195 
   50198    50195    50193    50194    50194    50193    50197    50195 
   50193    50194    50199    50195    50191    50197    50197    50191 
   50194    50195    50193    50195    50197    50195    50195    50193 
   50193    50195    50195    50194    50197    50197    50194    50194 
   50195    50195    50197    50198    50195    50191    50194    50198 
   50195    50195    50197    50195    50194    50195    50197    50195 
   50195    50194    50194    50197    50195    50193    50194    50195 
   50194    50195    50195    50193    50193    50195    50197    50194 
   50194    50195    50194    50194    50194    50197    50194    50193 
   50197    50197    50191    50193    50197    50195    50194    50194 
   50198    50198    50195    50195    50195    50195    50195    50197 
   50195    50195    50199    50197    50191    50197    50201    50195 
   50197    50197    50194    50195    50197    50195    50195    50194 
   50194    50197    50197    50195    50197    50197    50194    50195 
   50197    50197    50195    50194    50194    50197    50199    50197 
   50194    50195    50197    50194    50194    50197    50197    50195 
   50195    50198    50195    50194    50197    50195    50193    50195 
   50195    50193    50193    50194    50197    50198    50194    50193 
   50195    50195    50198    50197    50194    50195    50197    50197 
   50199    50197    50195    50197    50197    50197    50197    50198 
   50197    50194    50194    50195    50194    50195    50197    50194 
   50195    50195    50193    50195    50197    50195    50195    50197 
   50197    50195    50198    50199    50197    50194    50195    50197 
   50198    50197    50195    50195    50198    50198    50194    50194 
   50193    50191    50194    50198    50197    50194    50195    50195 
   50193    50193    50197    50199    50195    50195    50198    50195 
   50194    50197    50195    50194    50197    50195    50195    50199 
   50198    50194    50194    50197    50197    50195    50195    50194 
   50194    50195    50194    50193    50195    50198    50195    50195 
   50194    50194    50195    50197    50195    50195    50195    50195 
   50195    50194    50194    50195    50194    50197    50195    50191 
   50193    50197    50195    50194    50194    50194    50194    50193 
   50193    50195    50195    50194    50193    50194    50197    50198 
   50195    50194    50193    50195    50199    50198    50197    50195 
   50195    50195    50195    50197    50194    50191    50195    50195 
   50194    50195    50195    50195    50198    50198    50194    50195 
   50197    50197    50195    50194    50195    50195    50194    50195 
   50194    50193    50194    50198    50197    50194    50193    50195 
   50198    50199    50197    50197    50197    50194    50193    50195 
   50197    50194    50193    50195    50195    50194    50194    50195 
   50195    50195    50197    50194    50193    50194    50195    50197 
   50195    50194    50195    50195    50195    50195    50195    50197 
   50197    50193    50193    50197    50197    50195    50195    50194 
   50194    50197    50197    50194    50191    50191    50197    50199 
   50195    50193    50194    50197    50197    50195    50195    50195 
   50195    50195    50195    50195    50197    50194    50194    50194 
   50194    50195    50197    50195    50195    50195    50197    50197 
   50195    50194    50197    50195    50194    50195    50197    50194 
   50194    50195    50194    50195    50195    50194    50194    50198 
   50198    50195    50195    50194    50195    50195    50195    50198 
   50197    50194    50198    50198    50194    50194    50197    50195 
   50195    50198    50197    50195    50197    50197    50197    50197 
   50195    50195    50197    50194    50193    50195    50198    50197 
   50197    50199    50197    50195    50197    50194    50194    50197 
   50195    50195    50197    50195    50195    50194    50195    50198 
   50197    50195    50198    50199    50197    50195    50195    50197 
   50195    50195    50194    50195    50195    50197    50197    50195 
   50195    50198    50195    50194    50195    50195    50194    50197 
   50197    50194    50194    50198    50199    50197    50195    50195 
   50197    50197    50197    50198    50197    50195    50198    50198 
   50193    50195    50198    50195    50194    50197    50198    50195 
   50194    50195    50195    50197    50197    50194    50195    50197 
   50195    50197    50197    50194    50193    50194    50195    50194 
   50195    50195    50194    50195    50195    50195    50194    50197 
   50195    50195    50198    50197    50195    50197    50197    50194 
   50197    50198    50194    50194    50197    50197    50195    50195 
   50195    50195    50195    50194    50195    50195    50194    50193 
   50194    50197    50198    50198    50195    50193    50195    50197 
   50193    50191    50195    50194    50195    50197    50195    50194 
   50197    50195    50193    50194    50194    50193    50194    50195 
   50193    50193    50195    50194    50194    50194    50193    50194 
   50195    50195    50195    50195    50197    50197    50195    50194 
   50194    50193    50195    50198    50197    50197    50197    50193 
   50194    50197    50195    50195    50197    50195    50193    50193 
   50195    50195    50195    50197    50195    50193    50194    50198 
   50195    50197    50197    50193    50197    50199    50195    50194 
   50195    50195    50197    50197    50195    50198    50198    50194 
   50193    50194    50194    50194    50195    50195    50193    50197 
   50198    50195    50197    50198    50195    50194    50195    50197 
   50194    50191    50191    50195    50197    50193    50191    50195 
   50195    50194    50193    50193    50194    50193    50191    50193 
   50195    50194    50195    50195    50194    50194    50193    50194 
   50194    50193    50195    50195    50193    50194    50193    50197 
   50209    50224    50240    50249    50230    50193    50145    50095 
   50067    50098    50174    50248    50278    50252    50229    50259 
   50296    50278    50188    50090    50085    50163    50201    50137 
   50068    50118    50253    50328    50267    50161    50183    50305 
   50326    50197    50035    50001    50144    50257    50193    50112 
   50194    50357    50410    50284    50099    50045    50139    50222 
   50198    50109    50098    50234    50334    50249    50134    50136 
   50226    50307    50276    50168    50120    50144    50167    50144 
   50110    50159    50280    50329    50261    50203    50236    50263 
   50193    50071    50009    50103    50291    50352    50238    50128 
   50136    50225    50269    50183    50082    50118    50241    50303 
   50240    50144    50147    50222    50260    50206    50120    50112 
   50175    50232    50228    50178    50174    50236    50265    50233 
   50184    50151    50149    50175    50187    50188    50207    50233 
   50238    50195    50126    50113    50172    50225    50220    50193 
   50207    50272    50303    50238    50130    50076    50126    50240 
   50299    50230    50130    50124    50180    50197    50172    50172 
   50232    50303    50287    50195    50132    50130    50157    50171 
   50144    50143    50218    50291    50280    50218    50195    50226 
   50224    50147    50087    50126    50206    50233    50183    50124 
   50161    50265    50311    50268    50179    50145    50221    50283 
   50224    50106    50059    50144    50247    50226    50130    50114 
   50217    50318    50295    50171    50103    50195    50321    50286 
   50134    50071    50160    50284    50287    50156    50062    50128 
   50260    50283    50184    50118    50172    50253    50242    50156 
   50109    50174    50274    50287    50214    50140    50140    50191 
   50220    50201    50168    50178    50230    50242    50191    50136 
   50124    50184    50265    50257    50174    50132    50176    50242 
   50242    50167    50107    50152    50230    50232    50175    50134 
   50172    50288    50329    50224    50125    50143    50201    50213 
   50171    50125    50157    50234    50242    50179    50134    50163 
   50232    50255    50217    50178    50193    50249    50245    50174 
   50151    50191    50226    50218    50153    50117    50176    50226 
   50188    50134    50130    50193    50280    50296    50229    50183 
   50201    50218    50199    50149    50114    50152    50207    50195 
   50170    50186    50197    50194    50198    50193    50193    50228 
   50247    50206    50170    50190    50217    50206    50168    50145 
   50171    50221    50241    50203    50148    50161    50226    50259 
   50238    50186    50147    50164    50209    50210    50166    50137 
   50141    50170    50217    50241    50228    50236    50274    50265 
   50193    50112    50093    50160    50249    50240    50156    50113 
   50160    50255    50286    50201    50103    50106    50198    50269 
   50245    50184    50187    50241    50280    50256    50156    50063 
   50072    50170    50256    50256    50201    50180    50211    50240 
   50220    50171    50151    50168    50193    50193    50160    50157 
   50220    50282    50269    50197    50143    50167    50232    50252 
   50203    50145    50133    50168    50218    50226    50176    50143 
   50170    50222    50247    50218    50188    50201    50217    50207 
   50187    50156    50148    50188    50211    50195    50193    50205 
   50201    50194    50195    50205    50230    50252    50220    50152 
   50126    50157    50203    50220    50191    50161    50171    50206 
   50221    50202    50195    50218    50238    50237    50206    50157 
   50152    50205    50233    50191    50139    50139    50171    50190 
   50191    50186    50193    50238    50269    50237    50191    50187 
   50211    50211    50172    50147    50151    50188    50236    50224 
   50180    50164    50167    50183    50209    50220    50225    50237 
   50225    50199    50183    50176    50190    50191    50161    50151 
   50170    50209    50244    50236    50195    50161    50174    50240 
   50263    50191    50110    50099    50180    50274    50261    50167 
   50117    50170    50259    50280    50199    50110    50130    50238 
   50302    50253    50147    50098    50153    50218    50194    50136 
   50145    50222    50286    50267    50182    50124    50171    50252 
   50257    50197    50144    50140    50176    50193    50172    50175 
   50202    50214    50217    50220    50220    50210    50180    50179 
   50201    50193    50209    50244    50202    50144    50167    50190 
   50176    50186    50188    50167    50190    50236    50236    50205 
   50167    50151    50193    50245    50241    50176    50103    50102 
   50176    50242    50261    50247    50215    50215    50261    50257 
   50160    50071    50093    50194    50257    50217    50128    50107 
   50195    50294    50299    50211    50126    50155    50253    50265 
   50172    50082    50094    50207    50309    50290    50210    50199 
   50257    50256    50170    50120    50157    50206    50201    50117 
   50017    50060    50234    50326    50287    50228    50205    50220 
   50226    50152    50082    50155    50287    50306    50207    50107 
   50105    50217    50305    50249    50148    50124    50164    50203 
   50199    50149    50122    50168    50213    50184    50148    50174 
   50230    50272    50260    50180    50133    50214    50357    50444 
   50453    50418    50367    50322    50256    50116    49940    49852 
   49910    50070    50213    50198    50053    49967    50039    50217 
   50359    50326    50171    50048    50028    50103    50217    50299 
   50345    50338    50265    50205    50225    50260    50241    50176 
   50082    50032    50105    50224    50279    50276    50240    50203 
   50201    50242    50288    50233    50080    49991    50048    50170 
   50263    50276    50197    50126    50182    50323    50402    50359 
   50240    50098    50012    50048    50170    50278    50288    50207 
   50155    50211    50295    50306    50241    50178    50182    50229 
   50233    50134    50021    50059    50222    50328    50318    50244 
   50176    50187    50244    50211    50090    50029    50094    50183 
   50199    50156    50143    50213    50278    50249    50218    50259 
   50314    50319    50242    50097    49997    50026    50109    50143 
   50182    50276    50330    50291    50228    50203    50241    50287 
   50206    50029    49972    50116    50321    50394    50278    50128 
   50105    50203    50303    50282    50168    50121    50178    50234 
   50209    50126    50074    50099    50164    50214    50225    50224 
   50242    50271    50271    50211    50124    50074    50097    50180 
   50255    50260    50224    50207    50242    50288    50279    50209 
   50141    50143    50210    50276    50267    50180    50107    50118 
   50190    50263    50272    50210    50167    50172    50184    50201 
   50202    50160    50140    50175    50210    50222    50218    50202 
   50201    50217    50205    50160    50126    50114    50114    50122 
   50132    50166    50229    50267    50259    50242    50228    50214 
   50194    50134    50098    50152    50206    50205    50179    50176 
   50257    50353    50321    50186    50078    50080    50170    50228 
   50195    50152    50183    50283    50356    50305    50187    50156 
   50210    50245    50224    50160    50097    50103    50161    50191 
   50207    50240    50251    50234    50221    50203    50197    50214 
   50203    50170    50166    50164    50145    50152    50179    50198 
   50205    50210    50205    50190    50187    50211    50228    50197 
   50137    50116    50147    50190    50233    50261    50245    50230 
   50224    50161    50093    50116    50211    50283    50257    50156 
   50105    50161    50244    50267    50209    50144    50188    50295 
   50309    50218    50132    50109    50160    50203    50143    50052 
   50048    50130    50247    50314    50294    50244    50218    50207 
   50201    50205    50220    50237    50251    50245    50209    50163 
   50156    50194    50230    50221    50145    50072    50086    50157 
   50213    50228    50222    50245    50284    50292    50264    50232 
   50205    50170    50110    50045    50055    50178    50294    50279 
   50171    50118    50193    50283    50263    50170    50117    50170 
   50295    50350    50271    50147    50076    50101    50179    50211 
   50180    50166    50207    50241    50215    50180    50183    50202 
   50206    50174    50126    50136    50199    50244    50238    50201 
   50171    50203    50271    50275    50203    50133    50112    50130 
   50164    50171    50161    50197    50241    50221    50178    50176 
   50220    50268    50263    50213    50194    50218    50221    50176 
   50126    50132    50203    50261    50225    50140    50101    50147 
   50236    50261    50188    50133    50175    50249    50279    50247 
   50214    50210    50188    50148    50125    50136    50190    50253 
   50248    50176    50139    50178    50225    50226    50195    50174 
   50198    50240    50226    50176    50161    50205    50252    50221 
   50129    50082    50134    50233    50276    50234    50172    50160 
   50211    50232    50174    50139    50176    50229    50253    50240 
   50211    50215    50244    50252    50225    50188    50161    50147 
   50134    50128    50149    50206    50242    50213    50160    50148 
   50171    50193    50195    50193    50210    50236    50244    50245 
   50256    50263    50237    50157    50071    50068    50161    50245 
   50234    50172    50151    50190    50228    50195    50126    50132 
   50240    50322    50284    50193    50159    50210    50267    50214 
   50076    50017    50106    50232    50264    50210    50170    50210 
   50298    50323    50244    50157    50153    50201    50214    50176 
   50130    50121    50149    50182    50194    50205    50232    50251 
   50236    50215    50211    50221    50229    50201    50151    50155 
   50193    50209    50210    50206    50202    50205    50190    50151 
   50129    50148    50191    50233    50251    50248    50244    50217 
   50163    50124    50122    50155    50186    50180    50166    50190 
   50233    50252    50233    50197    50191    50213    50213    50182 
   50155    50166    50213    50242    50217    50167    50141    50155 
   50193    50218    50214    50210    50233    50241    50191    50140 
   50148    50194    50226    50222    50203    50202    50224    50230 
   50190    50121    50093    50134    50199    50240    50241    50226 
   50225    50214    50183    50170    50191    50214    50222    50210 
   50183    50175    50199    50218    50201    50179    50187    50209 
   50190    50134    50110    50155    50236    50291    50275    50238 
   50242    50255    50225    50166    50122    50129    50183    50215 
   50183    50149    50166    50193    50190    50153    50129    50171 
   50247    50271    50228    50171    50155    50186    50221    50226 
   50217    50209    50201    50197    50184    50160    50153    50166 
   50190    50224    50229    50197    50170    50176    50207    50226 
   50209    50170    50156    50183    50209    50201    50193    50213 
