Origin Time       2025/03/29 04:45:00
Lat.              31.090
Long.             131.512
Depth. (km)       33
Mag.              4.6
Station Code      KGS019
Station Lat.      31.2776
Station Long.     130.3008
Station Height(m) 10
Record Time       2025/03/29 04:45:50
Sampling Freq(Hz) 100Hz
Duration Time(s)  60
Dir.              N-S
Scale Factor      3920(gal)/6182761
Max. Acc. (gal)   1.148
Last Correction   2025/03/29 04:45:50
Memo.             
[...]
   -3303    -3441    -3679    -3904    -3971    -3824    -3524    -3195 
   -2967    -2935    -3116    -3420    -3709    -3902    -3962    -3856 
   -3597    -3296    -3097    -3074    -3212    -3446    -3694    -3872 
   -3915    -3809    -3610    -3404    -3270    -3254    -3347    -3497 
   -3631    -3701    -3720    -3718    -3701    -3649    -3545    -3396 
   -3257    -3207    -3279    -3425    -3567    -3646    -3661    -3651 
   -3624    -3555    -3446    -3336    -3274    -3306    -3419    -3524 
   -3559    -3559    -3595    -3658    -3649    -3526    -3376    -3326 
   -3412    -3557    -3682    -3764    -3775    -3696    -3553    -3403 
   -3301    -3291    -3368    -3480    -3563    -3598    -3606    -3590 
   -3538    -3446    -3324    -3238    -3284    -3450    -3620    -3703 
   -3673    -3554    -3410    -3326    -3351    -3473    -3642    -3760 
   -3713    -3506    -3288    -3192    -3247    -3411    -3594    -3693 
   -3698    -3684    -3690    -3688    -3646    -3567    -3489    -3473 
   -3544    -3631    -3646    -3583    -3456    -3292    -3183    -3221 
   -3375    -3532    -3611    -3583    -3464    -3330    -3283    -3365 
   -3520    -3649    -3680    -3615    -3539    -3534    -3596    -3673 
   -3729    -3736    -3684    -3593    -3506    -3439    -3397    -3405 
   -3460    -3502    -3512    -3518    -3523    -3520    -3519    -3515 
   -3495    -3472    -3473    -3494    -3521    -3548    -3551    -3519 
   -3488    -3478    -3440    -3331    -3210    -3180    -3267    -3431 
   -3624    -3759    -3758    -3657    -3543    -3457    -3435    -3510 
   -3636    -3733    -3770    -3744    -3688    -3635    -3577    -3491 
   -3372    -3247    -3171    -3189    -3326    -3537    -3692    -3681 
   -3529    -3351    -3265    -3345    -3560    -3774    -3864    -3811 
   -3674    -3506    -3356    -3271    -3263    -3316    -3406    -3514 
   -3620    -3690    -3674    -3560    -3390    -3231    -3166    -3262 
   -3509    -3790    -3957    -3939    -3780    -3581    -3438    -3401 
   -3456    -3548    -3617    -3622    -3583    -3536    -3485    -3421 
   -3349    -3272    -3192    -3133    -3145    -3256    -3447    -3650 
   -3787    -3816    -3743    -3639    -3583    -3575    -3559    -3498 
   -3411    -3361    -3398    -3511    -3621    -3647    -3568    -3442 
   -3363    -3404    -3566    -3756    -3846    -3783    -3623    -3457 
   -3358    -3355    -3409    -3447    -3434    -3403    -3403    -3453 
   -3528    -3551    -3462    -3311    -3232    -3295    -3462    -3634 
   -3715    -3678    -3591    -3539    -3555    -3595    -3602    -3565 
   -3517    -3499    -3522    -3563    -3603    -3622    -3601    -3529 
   -3431    -3356    -3352    -3434    -3547    -3604    -3573    -3492 
   -3424    -3422    -3471    -3521    -3539    -3536    -3528    -3504 
   -3460    -3431    -3456    -3549    -3674    -3756    -3734    -3605 
   -3426    -3262    -3152    -3117    -3172    -3321    -3515    -3687 
   -3792    -3818    -3780    -3708    -3633    -3573    -3524    -3463 
   -3383    -3312    -3275    -3292    -3389    -3555    -3723    -3824 
   -3814    -3694    -3517    -3362    -3284    -3278    -3318    -3380 
   -3438    -3468    -3472    -3472    -3494    -3542    -3599    -3635 
   -3626    -3569    -3501    -3485    -3541    -3652    -3767    -3808 
   -3728    -3572    -3444    -3422    -3497    -3577    -3570    -3472 
   -3340    -3223    -3161    -3184    -3293    -3437    -3537    -3545 
   -3484    -3421    -3424    -3519    -3665    -3781    -3819    -3793 
   -3731    -3629    -3501    -3402    -3381    -3447    -3556    -3626 
   -3598    -3490    -3373    -3291    -3260    -3281    -3344    -3429 
   -3523    -3633    -3744    -3806    -3797    -3746    -3681    -3618 
   -3574    -3548    -3525    -3505    -3486    -3446    -3355    -3235 
   -3164    -3182    -3270    -3386    -3484    -3552    -3624    -3719 
   -3804    -3838    -3826    -3790    -3725    -3622    -3501    -3369 
   -3237    -3162    -3202    -3335    -3469    -3547    -3555    -3495 
   -3411    -3376    -3407    -3473    -3548    -3610    -3642    -3648 
   -3640    -3620    -3574    -3506    -3446    -3406    -3391    -3415 
   -3479    -3555    -3598    -3577    -3494    -3391    -3329    -3330 
   -3372    -3440    -3548    -3684    -3789    -3822    -3785    -3698 
   -3583    -3472    -3388    -3326    -3273    -3247    -3268    -3342 
   -3461    -3595    -3703    -3751    -3724    -3633    -3511    -3413 
   -3385    -3442    -3569    -3735    -3868    -3883    -3763    -3563 
   -3366    -3244    -3202    -3186    -3181    -3227    -3346    -3510 
   -3663    -3753    -3760    -3690    -3575    -3462    -3380    -3341 
   -3354    -3413    -3485    -3531    -3539    -3516    -3481    -3465 
   -3487    -3537    -3592    -3629    -3632    -3603    -3548    -3475 
   -3414    -3389    -3401    -3435    -3474    -3503    -3523    -3538 
   -3551    -3572    -3585    -3557    -3490    -3421    -3386    -3405 
   -3477    -3566    -3615    -3600    -3551    -3502    -3463    -3445 
   -3456    -3502    -3598    -3733    -3840    -3831    -3676    -3421 
   -3172    -3046    -3109    -3320    -3554    -3705    -3733    -3655 
   -3528    -3431    -3402    -3417    -3438    -3447    -3441    -3429 
   -3425    -3450    -3514    -3621    -3756    -3879    -3939    -3913 
   -3806    -3644    -3481    -3365    -3299    -3266    -3266    -3304 
   -3365    -3424    -3469    -3499    -3522    -3541    -3559    -3591 
   -3637    -3663    -3625    -3540    -3469    -3438    -3431    -3431 
   -3445    -3460    -3449    -3419    -3388    -3337    -3261    -3202 
   -3206    -3289    -3429    -3574    -3674    -3709    -3704    -3717 
   -3771    -3845    -3909    -3925    -3861    -3717    -3529    -3353 
   -3228    -3162    -3157    -3212    -3315    -3438    -3541    -3589 
   -3583    -3558    -3559    -3611    -3690    -3745    -3731    -3639 
   -3493    -3336    -3236    -3244    -3339    -3458    -3557    -3617 
   -3638    -3630    -3618    -3614    -3601    -3573    -3545    -3528 
   -3509    -3476    -3443    -3448    -3494    -3546    -3567    -3545 
   -3490    -3416    -3330    -3261    -3247    -3290    -3365    -3463 
   -3571    -3664    -3702    -3668    -3576    -3468    -3388    -3363 
   -3396    -3480    -3584    -3672    -3735    -3763    -3751    -3694 
   -3593    -3474    -3361    -3279    -3268    -3319    -3379    -3417 
   -3441    -3481    -3549    -3624    -3689    -3730    -3716    -3652 
   -3576    -3513    -3475    -3468    -3484    -3506    -3499    -3438 
   -3334    -3232    -3196    -3257    -3382    -3540    -3717    -3873 
   -3948    -3920    -3816    -3680    -3551    -3470    -3444    -3427 
   -3386    -3358    -3390    -3461    -3507    -3508    -3480    -3440 
   -3409    -3406    -3428    -3453    -3470    -3474    -3467    -3461 
   -3468    -3499    -3556    -3619    -3660    -3658    -3602    -3514 
   -3448    -3447    -3494    -3545    -3571    -3561    -3515    -3458 
   -3418    -3413    -3451    -3526    -3603    -3631    -3583    -3477 
   -3363    -3282    -3249    -3256    -3293    -3358    -3455    -3565 
   -3653    -3704    -3710    -3664    -3586    -3515    -3476    -3476 
   -3512    -3572    -3631    -3655    -3633    -3585    -3528    -3462 
   -3409    -3393    -3419    -3478    -3570    -3684    -3760    -3744 
   -3636    -3472    -3305    -3201    -3193    -3261    -3372    -3493 
   -3598    -3663    -3679    -3662    -3642    -3624    -3597    -3558 
   -3514    -3480    -3463    -3458    -3459    -3468    -3482    -3487 
   -3484    -3491    -3517    -3555    -3582    -3580    -3553    -3500 
   -3430    -3378    -3367    -3394    -3449    -3520    -3596    -3654 
   -3681    -3692    -3681    -3627    -3547    -3478    -3442    -3457 
   -3520    -3588    -3621    -3616    -3579    -3505    -3410    -3335 
   -3316    -3356    -3419    -3476    -3516    -3529    -3519    -3500 
   -3472    -3437    -3425    -3454    -3484    -3473    -3433    -3405 
   -3417    -3467    -3541    -3605    -3632    -3637    -3644    -3656 
   -3653    -3612    -3530    -3437    -3374    -3367    -3401    -3445 
   -3485    -3510    -3519    -3529    -3544    -3550    -3538    -3519 
   -3505    -3505    -3529    -3575    -3613    -3613    -3570    -3505 
   -3450    -3435    -3481    -3550    -3582    -3558    -3476    -3357 
   -3251    -3205    -3233    -3324    -3455    -3601    -3728    -3806 
   -3809    -3728    -3591    -3458    -3392    -3419    -3507    -3574 
   -3569    -3501    -3425    -3385    -3377    -3385    -3417    -3469 
   -3531    -3596    -3655    -3692    -3701    -3694    -3686    -3666 
   -3630    -3590    -3554    -3514    -3462    -3401    -3344    -3306 
   -3306    -3339    -3389    -3447    -3514    -3579    -3633    -3648 
   -3591    -3475    -3352    -3266    -3233    -3254    -3322    -3419 
   -3525    -3631    -3711    -3733    -3702    -3650    -3603    -3565 
   -3538    -3542    -3572    -3594    -3601    -3607    -3619    -3644 
   -3658    -3623    -3547    -3473    -3426    -3393    -3366    -3349 
   -3348    -3360    -3385    -3417    -3454    -3498    -3546    -3584 
   -3596    -3580    -3538    -3478    -3421    -3397    -3417    -3455 
   -3483    -3504    -3540    -3601    -3679    -3763    -3821    -3812 
   -3723    -3579    -3412    -3261    -3182    -3195    -3285    -3413 
   -3532    -3610    -3644    -3642    -3609    -3552    -3475    -3403 
   -3382    -3431    -3518    -3612    -3701    -3746    -3707    -3609 
   -3508    -3430    -3387    -3394    -3431    -3464    -3492    -3524 
   -3544    -3541    -3526    -3508    -3468    -3414    -3388    -3398 
   -3424    -3472    -3536    -3592    -3626    -3618    -3562    -3473 
   -3380    -3311    -3282    -3292    -3338    -3423    -3531    -3621 
   -3666    -3662    -3625    -3581    -3554    -3550    -3551    -3536 
   -3486    -3414    -3366    -3368    -3415    -3504    -3626    -3751 
   -3842    -3871    -3817    -3697    -3559    -3444    -3378    -3355 
   -3347    -3342    -3358    -3401    -3457    -3527    -3605    -3662 
   -3682    -3663    -3604    -3522    -3467    -3462    -3476    -3465 
   -3407    -3322    -3263    -3279    -3364    -3466    -3538    -3566 
   -3566    -3570    -3593    -3616    -3608    -3563    -3507    -3462 
   -3440    -3454    -3507    -3574    -3623    -3638    -3622    -3595 
   -3563    -3515    -3469    -3443    -3427    -3418    -3432    -3468 
   -3504    -3531    -3547    -3537    -3503    -3468    -3456    -3464 
   -3479    -3505    -3541    -3569    -3573    -3544    -3482    -3419 
   -3379    -3373    -3407    -3463    -3519    -3575    -3619    -3639 
   -3650    -3655    -3645    -3627    -3609    -3584    -3546    -3496 
   -3434    -3366    -3308    -3282    -3296    -3346    -3430    -3533 
   -3615    -3658    -3676    -3676    -3659    -3631    -3596    -3563 
   -3524    -3487    -3483    -3512    -3536    -3518    -3459    -3391 
   -3353    -3363    -3409    -3460    -3500    -3543    -3596    -3642 
   -3667    -3671    -3658    -3624    -3565    -3476    -3375    -3301 
   -3294    -3360    -3460    -3551    -3619    -3648    -3620    -3551 
   -3480    -3432    -3429    -3460    -3477    -3445    -3372    -3304 
   -3285    -3329    -3422    -3526    -3605    -3655    -3687    -3689 
   -3650    -3582    -3508    -3445    -3413    -3429    -3475    -3516 
   -3543    -3557    -3556    -3548    -3536    -3512    -3464    -3398 
   -3350    -3337    -3353    -3386    -3429    -3465    -3490    -3509 
   -3523    -3541    -3569    -3605    -3644    -3688    -3744    -3789 
   -3791    -3749    -3677    -3579    -3483    -3426    -3420    -3455 
   -3512    -3576    -3633    -3661    -3645    -3583    -3484    -3379 
   -3323    -3326    -3352    -3374    -3382    -3360    -3324    -3323 
   -3381    -3478    -3584    -3672    -3699    -3648    -3550    -3455 
   -3390    -3355    -3339    -3336    -3342    -3371    -3444    -3548 
   -3640    -3705    -3754    -3798    -3835    -3859    -3872    -3873 
   -3852    -3800    -3711    -3583    -3415    -3227    -3050    -2897 
   -2764    -2663    -2636    -2720    -2910    -3148    -3358    -3491 
   -3547    -3548    -3508    -3432    -3317    -3184    -3067    -2998 
   -2996    -3059    -3189    -3383    -3616    -3856    -4071    -4235 
   -4345    -4406    -4412    -4364    -4274    -4174    -4105    -4090 
   -4106    -4107    -4055    -3926    -3726    -3501    -3302    -3164 
   -3093    -3071    -3082    -3125    -3201    -3298    -3404    -3514 
   -3621    -3726    -3837    -3942    -4027    -4103    -4180    -4245 
   -4251    -4151    -3950    -3703    -3456    -3227    -3034    -2905 
   -2840    -2810    -2824    -2901    -3004    -3095    -3177    -3260 
   -3347    -3445    -3544    -3605    -3612    -3586    -3546    -3498 
   -3445    -3388    -3311    -3204    -3079    -2954    -2848    -2777 
   -2766    -2845    -3022    -3286    -3616    -3966    -4263    -4432 
   -4430    -4280    -4042    -3781    -3552    -3388    -3287    -3241 
   -3240    -3265    -3307    -3370    -3453    -3560    -3688    -3814 
   -3916    -3979    -3989    -3937    -3825    -3674    -3510    -3371 
   -3275    -3215    -3170    -3129    -3097    -3071    -3042    -3014 
   -3003    -3022    -3095    -3254    -3515    -3856    -4236    -4603 
   -4906    -5110    -5201    -5157    -4961    -4650    -4309    -3978 
   -3612    -3182    -2721    -2298    -1963    -1748    -1700    -1823 
   -2069    -2383    -2706    -2990    -3222    -3413    -3571    -3688 
   -3756    -3794    -3823    -3852    -3902    -3985    -4077    -4142 
   -4156    -4114    -4018    -3871    -3687    -3477    -3250    -3018 
   -2810    -2673    -2646    -2753    -2983    -3278    -3569    -3799 
   -3931    -3969    -3945    -3882    -3781    -3636    -3461    -3290 
   -3158    -3088    -3086    -3152    -3282    -3466    -3692    -3938 
   -4155    -4276    -4282    -4196    -4024    -3787    -3548    -3360 
   -3229    -3139    -3079    -3047    -3057    -3120    -3227    -3364 
   -3514    -3655    -3773    -3855    -3904    -3947    -3987    -4020 
   -4048    -4046    -3982    -3859    -3703    -3549    -3436    -3381 
   -3385    -3433    -3508    -3590    -3643    -3609    -3459    -3229 
   -2986    -2792    -2690    -2698    -2801    -2983    -3225    -3493 
   -3749    -3986    -4194    -4347    -4419    -4394    -4269    -4070 
   -3835    -3588    -3336    -3090    -2875    -2720    -2661    -2717 
   -2849    -2990    -3095    -3155    -3187    -3224    -3282    -3359 
   -3450    -3555    -3683    -3818    -3916    -3917    -3778    -3510 
   -3178    -2877    -2686    -2613    -2638    -2766    -2984    -3260 
   -3584    -3937    -4264    -4509    -4630    -4593    -4413    -4155 
   -3890    -3680    -3557    -3503    -3473    -3452    -3442    -3442 
   -3448    -3450    -3437    -3409    -3382    -3360    -3348    -3361 
   -3405    -3469    -3548    -3629    -3690    -3722    -3726    -3703 
   -3662    -3626    -3611    -3627    -3683    -3772    -3866    -3939 
   -3971    -3942    -3870    -3800    -3769    -3778    -3791    -3769 
   -3690    -3552    -3393    -3273    -3220    -3236    -3300    -3359 
   -3361    -3282    -3128    -2940    -2779    -2680    -2655    -2708 
   -2826    -2987    -3170    -3347    -3496    -3618    -3729    -3832 
   -3916    -3972    -3987    -3955    -3879    -3743    -3551    -3325 
   -3081    -2855    -2693    -2617    -2654    -2826    -3114    -3459 
   -3794    -4068    -4257    -4355    -4353    -4245    -4061    -3837 
   -3598    -3369    -3173    -3052    -3037    -3114    -3250    -3404 
   -3537    -3639    -3710    -3748    -3741    -3679    -3572    -3443 
   -3330    -3272    -3283    -3360    -3490    -3645    -3797    -3927 
   -4022    -4078    -4100    -4089    -4054    -4020    -4013    -4039 
   -4073    -4060    -3964    -3802    -3605    -3398    -3216    -3106 
   -3092    -3165    -3286    -3387    -3397    -3303    -3137    -2951 
   -2798    -2714    -2706    -2772    -2907    -3087    -3288    -3498 
   -3686    -3822    -3896    -3903    -3839    -3707    -3528    -3335 
   -3144    -2997    -2952    -3011    -3128    -3269    -3419    -3561 
   -3676    -3757    -3806    -3817    -3782    -3711    -3633    -3564 
   -3515    -3489    -3466    -3427    -3367    -3288    -3214    -3183 
   -3207    -3282    -3399    -3532    -3660    -3780    -3885    -3961 
   -4003    -4022    -4032    -4029    -4003    -3954    -3872    -3749 
   -3610    -3491    -3407    -3356    -3334    -3334    -3324    -3279 
   -3207    -3140    -3123    -3181    -3310    -3492    -3701    -3898 
   -4061    -4176    -4218    -4174    -4054    -3868    -3641    -3428 
   -3274    -3184    -3153    -3174    -3232    -3310    -3374    -3387 
   -3340    -3251    -3160    -3122    -3160    -3244    -3333    -3404 
   -3451    -3469    -3450    -3393    -3320    -3249    -3198    -3193 
   -3260    -3401    -3579    -3732    -3825    -3857    -3837    -3783 
   -3718    -3665    -3634    -3616    -3585    -3529    -3446    -3338 
   -3226    -3142    -3111    -3146    -3237    -3364    -3511    -3668 
   -3816    -3938    -4027    -4078    -4085    -4060    -4010    -3941 
   -3864    -3783    -3699    -3626    -3566    -3509    -3457    -3417 
   -3379    -3332    -3282    -3237    -3195    -3153    -3109    -3075 
   -3078    -3134    -3233    -3343    -3436    -3493    -3506    -3482 
   -3457    -3459    -3490    -3551    -3635    -3726    -3812    -3875 
   -3883    -3824    -3722    -3602    -3482    -3372    -3265    -3177 
   -3134    -3135    -3169    -3210    -3240    -3277    -3348    -3468 
   -3616    -3747    -3830    -3866    -3872    -3858    -3826    -3785 
   -3750    -3724    -3707    -3672    -3573    -3410    -3226    -3070 
   -2985    -2988    -3067    -3202    -3361    -3508    -3621    -3691 
   -3714    -3701    -3673    -3640    -3602    -3560    -3511    -3461 
   -3413    -3373    -3366    -3405    -3489    -3599    -3707    -3788 
   -3829    -3829    -3801    -3748    -3677    -3609    -3549    -3488 
   -3425    -3371    -3321    -3272    -3233    -3217    -3229    -3273 
   -3353    -3466    -3591    -3710    -3819    -3905    -3939    -3902 
   -3805    -3664    -3496    -3321    -3174    -3069    -3007    -3002 
   -3054    -3145    -3271    -3417    -3554    -3685    -3806    -3898 
   -3939    -3923    -3858    -3762    -3667    -3610    -3601    -3624 
   -3660    -3695    -3705    -3660    -3557    -3425    -3294    -3194 
   -3154    -3178    -3238    -3299    -3349    -3388    -3424    -3461 
   -3507    -3560    -3614    -3654    -3677    -3692    -3702    -3712 
   -3709    -3669    -3589    -3485    -3378    -3292    -3239    -3216 
   -3231    -3287    -3374    -3473    -3566    -3638    -3681    -3711 
   -3742    -3766    -3775    -3762    -3716    -3630    -3515    -3379 
   -3231    -3084    -2955    -2876    -2871    -2948    -3106    -3324 
   -3559    -3765    -3908    -3972    -3964    -3904    -3811    -3703 
   -3605    -3530    -3468    -3425    -3400    -3374    -3334    -3283 
   -3226    -3178    -3170    -3227    -3343    -3478    -3609    -3725 
   -3813    -3864    -3890    -3912    -3932    -3941    -3937    -3925 
