Origin Time       2025/03/29 04:45:00
Lat.              31.090
Long.             131.512
Depth. (km)       33
Mag.              4.6
Station Code      KGS014
Station Lat.      31.4963
Station Long.     130.6994
Station Height(m) 4
Record Time       2025/03/29 04:45:32
Sampling Freq(Hz) 100Hz
Duration Time(s)  73
Dir.              U-D
Scale Factor      7845(gal)/8223790
Max. Acc. (gal)   1.373
Last Correction   2025/03/29 04:45:32
Memo.             
[...]
     -21     -145     -507     -949    -1296    -1543    -1661    -1512 
   -1125     -739     -444     -170      101      330      453      400 
     145     -236     -654    -1070    -1420    -1613    -1595    -1395 
   -1124     -886     -661     -322      113      394      363      176 
      28     -171     -567    -1035    -1329    -1328    -1102     -797 
    -495     -222       -9       93       59      -70     -241     -415 
    -604     -839    -1057    -1177    -1244    -1367    -1559    -1660 
   -1482     -992     -345      194      441      411      256       52 
    -251     -630     -931    -1046     -974     -764     -499     -319 
    -271     -253     -203     -102       91      317      361       95 
    -413     -973    -1381    -1555    -1530    -1414    -1351    -1327 
   -1231    -1077     -927     -811     -696     -480     -172       59 
      82     -114     -409     -614     -642     -523     -307      -79 
      39       36      -52     -282     -610     -895    -1084    -1159 
   -1123    -1016     -846     -631     -436     -270     -122      -36 
     -83     -310     -642     -897     -992     -988     -978     -978 
    -920     -824     -734     -623     -525     -473     -422     -363 
    -311     -315     -434     -618     -781     -866     -839     -756 
    -710     -645     -459     -221      -64      -32     -120     -302 
    -468     -572     -743     -977    -1101    -1077     -957     -773 
    -533     -220       71      198      148        0     -160     -290 
    -425     -661    -1027    -1318    -1269     -905     -511     -322 
    -326     -391     -465     -537     -571     -541     -488     -531 
    -695     -935    -1225    -1437    -1443    -1278    -1030     -780 
    -591     -449     -315     -182      -74       -4       54       64 
     -24     -159     -243     -271     -329     -440     -527     -548 
    -508     -433     -342     -257     -232     -319     -508     -742 
    -972    -1194    -1382    -1476    -1455    -1317    -1117     -940 
    -854     -877     -901     -815     -665     -531     -427     -392 
    -454     -534     -567     -580     -580     -494     -278       12 
     294      502      546      413      221       18     -221     -483 
    -789    -1177    -1541    -1746    -1746    -1539    -1144     -672 
    -282      -63      -28     -149     -342     -510     -652     -810 
    -935     -950     -880     -789     -668     -517     -390     -272 
    -156     -105     -113     -130     -174     -253     -349     -479 
    -643     -800     -950    -1070    -1090    -1016     -900     -793 
    -769     -832     -912     -982    -1046    -1048     -931     -723 
    -496     -299     -159      -75       -4       72      137      202 
     245      210       91      -97     -324     -531     -673     -731 
    -735     -718     -679     -650     -711     -853     -986    -1089 
   -1220    -1405    -1583    -1671    -1611    -1390    -1061     -715 
    -383      -74      141      209      156       35     -117     -238 
    -278     -256     -205     -155     -157     -189     -198     -178 
    -145     -183     -324     -522     -764    -1021    -1224    -1360 
   -1441    -1433    -1327    -1170     -974     -750     -587     -515 
    -477     -500     -627     -769     -827     -823     -770     -598 
    -325      -93       18       32      -71     -251     -352     -378 
    -414     -463     -549     -631     -599     -468     -329     -245 
    -206     -194     -278     -475     -675     -811     -922    -1062 
   -1227    -1300    -1246    -1181    -1135    -1031     -849     -660 
    -500     -349     -238     -211     -236     -292     -355     -355 
    -338     -348     -307     -218     -130      -62      -81     -201 
    -329     -469     -641     -734     -695     -580     -464     -402 
    -419     -508     -639     -766     -864     -931     -957     -945 
    -936     -915     -830     -720     -679     -729     -835     -930 
    -915     -751     -544     -380     -261     -202     -193     -178 
    -195     -317     -490     -610     -645     -641     -646     -664 
    -664     -619     -522     -417     -373     -434     -546     -630 
    -712     -846     -994    -1094    -1094     -981     -799     -588 
    -380     -241     -207     -195     -189     -261     -365     -460 
    -596     -743     -861     -945     -950     -859     -683     -445 
    -187       67      217      137     -135     -484     -824    -1085 
   -1237    -1308    -1279    -1089     -797     -553     -383     -261 
    -221     -286     -425     -606     -797     -961    -1047    -1005 
    -826     -616     -480     -400     -355     -345     -322     -271 
    -221     -151      -66      -47     -118     -241     -395     -587 
    -770     -864     -857     -816     -761     -661     -557     -518 
    -521     -531     -567     -631     -726     -803     -823     -839 
    -858     -845     -822     -783     -669     -518     -441     -481 
    -567     -611     -604     -626     -715     -787     -774     -687 
    -526     -340     -206     -120      -45       18       49       -2 
    -145     -319     -481     -615     -722     -796     -851     -940 
   -1013     -996     -943     -896     -818     -715     -615     -525 
    -433     -365     -367     -410     -448     -507     -546     -488 
    -380     -271     -171     -160     -249     -332     -388     -498 
    -630     -727     -797     -816     -762     -688     -604     -468 
    -321     -211     -137     -151     -272     -427     -589     -758 
    -892     -996    -1090    -1150    -1155    -1124    -1065     -963 
    -838     -760     -722     -648     -568     -565     -610     -612 
    -607     -639     -634     -565     -492     -425     -355     -329 
    -369     -432     -511     -607     -648     -631     -604     -575 
    -542     -511     -487     -486     -486     -469     -488     -569 
    -631     -645     -662     -668     -610     -494     -378     -313 
    -317     -359     -390     -423     -481     -523     -558     -637 
    -726     -761     -745     -718     -668     -580     -495     -452 
    -436     -425     -441     -506     -595     -687     -760     -803 
    -796     -715     -645     -670     -708     -697     -670     -615 
    -518     -441     -399     -353     -315     -314     -386     -541 
    -685     -769     -857     -930     -919     -862     -796     -675 
    -503     -344     -245     -222     -248     -324     -432     -500 
    -519     -508     -459     -379     -307     -264     -255     -310 
    -411     -487     -564     -672     -772     -877    -1000    -1073 
   -1069    -1007     -895     -758     -645     -572     -527     -484 
    -456     -457     -457     -453     -460     -454     -442     -449 
    -490     -552     -587     -608     -625     -606     -572     -549 
    -533     -510     -492     -510     -552     -583     -621     -696 
    -749     -724     -693     -669     -610     -568     -556     -541 
    -556     -594     -616     -639     -643     -604     -568     -591 
    -639     -649     -654     -679     -648     -553     -463     -365 
    -251     -180     -186     -236     -309     -434     -564     -618 
    -639     -666     -652     -614     -619     -652     -673     -700 
    -724     -742     -764     -778     -796     -812     -781     -726 
    -660     -568     -472     -394     -336     -287     -255     -292 
    -382     -464     -546     -626     -666     -672     -649     -606 
    -556     -491     -419     -356     -318     -332     -392     -472 
    -567     -658     -719     -747     -749     -712     -654     -602 
    -537     -460     -400     -371     -384     -442     -531     -645 
    -743     -792     -808     -807     -785     -774     -781     -765 
    -714     -680     -654     -600     -571     -577     -552     -521 
    -510     -465     -410     -410     -407     -384     -423     -487 
    -503     -515     -533     -527     -533     -548     -527     -500 
    -527     -581     -621     -688     -792     -846     -824     -757 
    -672     -588     -525     -491     -490     -533     -612     -692 
    -741     -754     -737     -680     -587     -490     -426     -391 
    -373     -405     -463     -508     -567     -633     -666     -666 
    -665     -637     -580     -573     -608     -604     -598     -635 
    -633     -554     -476     -434     -392     -349     -340     -363 
    -406     -465     -507     -534     -542     -513     -495     -515 
    -531     -548     -584     -618     -635     -622     -587     -560 
    -538     -508     -500     -548     -622     -696     -777     -832 
    -808     -734     -689     -670     -660     -679     -722     -762 
    -783     -787     -772     -699     -579     -495     -449     -386 
    -353     -390     -434     -456     -483     -511     -503     -463 
    -403     -306     -211     -206     -275     -357     -459     -571 
    -657     -700     -706     -700     -681     -646     -629     -630 
    -634     -664     -741     -826     -874     -911     -935     -916 
    -872     -826     -778     -716     -657     -627     -622     -629 
    -641     -661     -672     -648     -621     -592     -526     -453 
    -409     -390     -368     -334     -326     -332     -311     -288 
    -295     -313     -328     -365     -449     -561     -670     -746 
    -788     -816     -828     -804     -758     -706     -642     -548 
    -421     -291     -191     -149     -186     -260     -336     -445 
    -561     -615     -611     -576     -531     -503     -490     -511 
    -612     -762     -874     -922     -923     -880     -803     -672 
    -496     -364     -297     -255     -241     -268     -317     -367 
    -427     -504     -583     -654     -707     -745     -778     -808 
    -846     -893     -893     -828     -758     -706     -642     -580 
    -584     -638     -679     -747     -865     -911     -846     -785 
    -758     -691     -599     -546     -515     -488     -491     -527 
    -558     -576     -571     -486     -340     -226     -151      -94 
     -89     -151     -252     -387     -534     -612     -599     -557 
    -483     -356     -253     -220     -229     -263     -314     -382 
    -472     -592     -734     -877     -980    -1023    -1012     -954 
    -846     -684     -517     -395     -298     -213     -162     -145 
    -147     -160     -213     -315     -423     -531     -653     -757 
    -808     -847     -885     -881     -842     -776     -658     -525 
    -419     -334     -291     -349     -511     -726     -951    -1152 
   -1305    -1405    -1451    -1432    -1360    -1273    -1162     -994 
    -784     -594     -426     -282     -222     -241     -286     -373 
    -480     -541     -573     -587     -560     -531     -552     -584 
    -588     -587     -581     -531     -440     -336     -221     -109 
     -36      -21      -66     -175     -349     -573     -805    -1000 
   -1123    -1144    -1046     -845     -584     -303      -41      148 
     255      260      143      -58     -321     -645     -945    -1144 
   -1228    -1173     -949     -622     -313      -68       94      137 
      45     -137     -361     -585     -783     -928    -1030    -1094 
   -1105    -1094    -1140    -1212    -1236    -1227    -1196    -1119 
    -980     -819     -702     -648     -630     -653     -737     -843 
    -931     -980     -967     -897     -815     -719     -581     -426 
    -282     -106      120      351      538      673      774      827 
     803      693      488      193     -143     -477     -770    -1007 
   -1197    -1302    -1306    -1229    -1050     -803     -604     -479 
    -383     -305     -228     -118       41      205      284      278 
     213       90      -68     -270     -492     -684     -864    -1032 
   -1117    -1140    -1140    -1092    -1031     -982     -905     -827 
    -788     -761     -720     -685     -677     -693     -738     -830 
    -932    -1026    -1139    -1278    -1429    -1593    -1748    -1861 
   -1880    -1772    -1571    -1309    -1004     -699     -433     -214 
     -37      108      230      325      407      488      530      527 
     518      479      359      162      -85     -392     -762    -1150 
   -1498    -1764    -1935    -2008    -1975    -1883    -1752    -1547 
   -1296    -1063     -830     -568     -326     -155      -49       22 
      74       99      108       95       81       86       81       32 
     -60     -201     -369     -541     -702     -810     -837     -792 
    -710     -614     -499     -400     -352     -318     -286     -282 
    -282     -268     -287     -351     -375     -360     -398     -479 
    -557     -637     -695     -696     -608     -421     -193        6 
     133      128      -32     -313     -669    -1055    -1405    -1638 
   -1718    -1648    -1453    -1202     -967     -781     -642     -573 
    -567     -558     -533     -502     -430     -307     -175      -55 
      76      228      344      386      375      303      182       49 
    -108     -310     -538     -811    -1132    -1449    -1699    -1854 
   -1911    -1861    -1730    -1567    -1397    -1243    -1102     -947 
    -774     -596     -405     -206      -29      118      251      337 
     340      249       98      -60     -191     -268     -287     -282 
    -283     -298     -346     -481     -711     -969    -1242    -1529 
   -1761    -1904    -1989    -2010    -1944    -1791    -1568    -1308 
   -1030     -750     -495     -237       25      252      446      641 
     787      841      828      762      635      475      280       60 
    -157     -380     -595     -757     -853     -897     -942    -1031 
   -1140    -1224    -1291    -1345    -1333    -1235    -1093     -951 
    -814     -662     -522     -423     -346     -310     -325     -357 
    -402     -461     -496     -465     -359     -220      -97        6 
     105      193      225      157       17     -176     -434     -712 
    -963    -1167    -1278    -1293    -1274    -1231    -1169    -1144 
   -1150    -1136    -1128    -1147    -1151    -1123    -1070     -984 
    -853     -683     -502     -301     -114      -35      -55     -122 
    -249     -433     -614     -742     -801     -822     -826     -778 
    -680     -588     -507     -417     -352     -342     -384     -457 
    -538     -595     -576     -476     -324     -126       71      203 
     241      164      -36     -321     -645     -947    -1174    -1296 
   -1312    -1256    -1123     -893     -616     -346     -102      102 
     257      345      342      278      172       17     -149     -301 
    -446     -540     -554     -553     -562     -530     -465     -445 
    -488     -571     -712     -918    -1131    -1314    -1441    -1502 
   -1526    -1514    -1443    -1356    -1305    -1252    -1171    -1085 
    -963     -766     -535     -303      -59      174      336      407 
     413      311       82     -162     -364     -580     -757     -824 
    -823     -758     -627     -517     -461     -437     -457     -525 
    -619     -723     -796     -831     -864     -896     -915     -919 
    -922     -927     -928     -940     -961     -951     -932     -909 
    -830     -707     -584     -445     -295     -164      -55       24 
      76       97       67        5      -76     -174     -264     -345 
    -410     -469     -529     -569     -621     -711     -814     -934 
   -1089    -1248    -1391    -1501    -1549    -1557    -1540    -1483 
   -1389    -1247    -1051     -850     -665     -476     -303     -164 
     -55       17       56       76      110      141      167      224 
     279      305      325      321      270      183       59      -86 
    -217     -338     -473     -575     -618     -660     -700     -723 
    -777     -858     -916     -962    -1011    -1048    -1069    -1090 
   -1129    -1185    -1260    -1367    -1487    -1583    -1625    -1609 
   -1534    -1381    -1131     -828     -523     -221       74      332 
     527      675      787      828      789      730      673      569 
     414      245       51     -183     -440     -711     -966    -1186 
   -1383    -1537    -1633    -1688    -1707    -1686    -1617    -1521 
   -1422    -1297    -1138     -967     -787     -583     -345     -126 
      25      156      267      290      245      168       45     -114 
    -292     -457     -600     -729     -807     -820     -796     -757 
    -724     -716     -733     -784     -864     -923     -961    -1001 
   -1012     -970     -904     -831     -738     -600     -467     -396 
    -340     -267     -243     -272     -305     -348     -400     -445 
    -480     -514     -533     -510     -454     -387     -319     -257 
    -184     -103      -45      -21      -32      -75     -182     -375 
    -585     -787    -1023    -1264    -1433    -1526    -1599    -1644 
   -1609    -1517    -1410    -1279    -1112     -936     -791     -666 
    -541     -429     -319     -207     -122      -63       12       82 
     101      113      136      136      126      125      122      114 
      76        1      -87     -184     -275     -337     -367     -383 
    -406     -429     -446     -513     -627     -751     -920    -1125 
   -1302    -1464    -1642    -1792    -1853    -1825    -1769    -1683 
   -1520    -1333    -1173    -1009     -870     -780     -702     -635 
    -607     -611     -600     -553     -486     -392     -253      -59 
     168      379      554      699      770      743      645      490 
     286       63     -144     -330     -487     -589     -648     -691 
    -714     -719     -735     -769     -804     -841     -868     -876 
    -873     -846     -791     -738     -677     -600     -525     -453 
    -400     -367     -341     -349     -375     -391     -441     -542 
    -656     -780     -907    -1017    -1092    -1138    -1193    -1232 
   -1229    -1242    -1267    -1262    -1227    -1166    -1100    -1036 
    -949     -865     -842     -835     -795     -762     -745     -706 
    -656     -596     -507     -406     -319     -251     -179     -114 
     -91      -76      -51      -45      -37       -8       20       58 
     103      136      166      178      147       87        8     -102 
    -230     -345     -437     -530     -634     -722     -792     -854 
    -900     -916     -905     -897     -908     -918     -915     -920 
    -934     -930     -909     -882     -839     -781     -731     -683 
    -638     -631     -661     -695     -715     -724     -734     -730 
    -696     -643     -575     -504     -454     -426     -422     -434 
    -465     -517     -579     -646     -697     -714     -715     -697 
    -654     -618     -591     -561     -541     -538     -553     -561 
    -549     -518     -457     -364     -280     -203     -129      -87 
     -67      -56      -62      -72      -94     -145     -220     -299 
    -384     -483     -589     -691     -773     -842     -908     -962 
   -1027    -1123    -1220    -1296    -1355    -1413    -1464    -1467 
   -1406    -1321    -1210    -1054     -868     -661     -429     -195 
      -5      144      270      342      342      313      288      252 
     191      135       94       47      -29     -130     -260     -418 
