Origin Time       2025/03/29 04:45:00
Lat.              31.090
Long.             131.512
Depth. (km)       33
Mag.              4.6
Station Code      KGS023
Station Lat.      31.1990
Station Long.     130.8490
Station Height(m) 179
Record Time       2025/03/29 04:45:26
Sampling Freq(Hz) 100Hz
Duration Time(s)  75
Dir.              N-S
Scale Factor      3920(gal)/6182761
Max. Acc. (gal)   16.386
Last Correction   2025/03/29 04:45:26
Memo.             
[...]
  -13018   -12993   -12992   -13003   -12990   -12989   -13011   -13008 
  -12991   -12987   -12980   -13000   -13020   -13000   -12998   -13003 
  -12982   -12984   -12999   -13002   -13006   -13013   -13006   -12977 
  -12974   -13007   -13022   -13016   -12996   -12984   -12997   -12995 
  -12988   -13007   -13011   -12991   -12992   -13000   -12998   -13001 
  -13002   -13005   -13003   -12993   -12995   -12993   -12985   -12991 
  -13003   -13013   -13006   -12992   -12997   -13002   -13000   -13010 
  -13002   -12982   -12995   -13008   -12995   -12994   -13000   -12999 
  -12999   -12984   -12988   -13025   -13020   -12995   -12999   -12993 
  -12978   -12981   -12993   -13011   -13015   -12999   -12998   -13006 
  -12992   -12986   -13011   -13020   -13000   -12987   -12988   -12992 
  -12997   -13003   -13006   -13008   -13011   -13005   -12993   -12980 
  -12972   -12985   -13011   -13015   -13000   -12997   -12998   -12998 
  -13017   -13026   -13009   -12994   -12984   -12978   -12989   -12993 
  -12989   -13003   -13006   -12998   -13014   -13021   -13000   -12991 
  -13000   -12999   -12992   -12998   -13003   -12990   -12982   -12994 
  -13012   -13007   -12993   -12996   -13012   -13020   -13003   -12980 
  -12988   -13004   -12997   -12994   -13001   -13000   -12997   -12998 
  -13000   -12995   -12986   -12994   -13010   -13011   -13005   -12993 
  -12985   -12994   -13002   -13004   -12999   -12991   -12999   -13010 
  -12997   -12988   -12996   -13001   -13000   -13000   -13001   -13001 
  -12996   -12993   -12997   -12994   -12991   -13001   -13007   -13005 
  -13003   -13001   -13004   -13004   -12996   -12996   -13001   -12995 
  -12986   -12993   -12999   -12995   -13005   -13007   -12994   -13001 
  -13007   -12996   -12988   -12988   -12992   -13000   -13003   -13006 
  -13009   -13006   -13000   -12997   -13001   -13003   -12993   -12989 
  -12993   -12990   -12991   -12996   -12997   -13003   -13007   -13006 
  -13009   -13007   -12989   -12986   -13005   -13010   -13003   -12995 
  -12976   -12979   -13007   -13009   -13005   -13012   -13004   -12996 
  -12993   -12987   -12992   -12998   -12999   -13004   -13008   -12996 
  -12981   -12992   -13014   -13023   -13016   -12992   -12977   -12996 
  -13014   -13007   -13001   -12995   -12982   -12990   -13005   -12998 
  -12988   -12994   -13009   -13027   -13024   -12982   -12962   -13002 
  -13031   -13012   -12986   -12972   -12979   -12999   -13007   -13006 
  -13005   -12999   -12996   -13002   -13007   -12995   -12984   -12999 
  -13017   -13012   -12995   -12987   -12993   -12999   -12993   -12986 
  -12991   -12998   -13004   -13012   -13010   -12992   -12984   -12990 
  -13002   -13019   -13024   -13002   -12984   -12985   -12995   -13006 
  -12997   -12983   -12997   -13018   -13017   -12991   -12964   -12980 
  -13016   -13026   -13015   -12990   -12970   -12983   -13007   -13018 
  -13012   -12994   -12989   -13005   -13007   -12985   -12971   -12987 
  -13010   -13017   -13007   -12990   -12995   -13001   -12989   -12997 
  -13021   -13016   -12999   -12983   -12971   -12980   -13008   -13027 
  -13010   -12979   -12974   -12993   -13020   -13027   -12998   -12983 
  -12996   -13001   -12999   -13002   -12997   -12993   -13001   -13000 
  -12990   -12991   -13001   -13010   -13008   -12988   -12979   -12993 
  -13013   -13019   -12999   -12984   -12992   -12999   -13009   -13017 
  -13004   -12993   -12987   -12979   -12989   -13007   -13006   -13000 
  -13002   -12999   -12995   -12999   -13001   -12998   -13007   -13023 
  -13021   -12997   -12972   -12969   -12988   -13005   -13004   -12998 
  -13000   -13004   -13006   -12998   -12985   -12988   -13009   -13028 
  -13027   -13002   -12975   -12976   -13000   -12999   -12976   -12982 
  -13002   -13003   -12997   -12993   -12988   -13001   -13028   -13038 
  -13018   -12987   -12971   -12984   -13001   -12996   -12982   -12986 
  -13004   -13010   -13000   -12992   -12982   -12983   -13010   -13034 
  -13027   -12993   -12975   -12998   -13019   -13011   -13002   -13002 
  -13001   -12996   -12985   -12970   -12974   -12996   -13007   -13005 
  -13004   -12995   -12988   -12995   -13010   -13025   -13025   -13003 
  -12992   -12999   -12998   -12990   -12985   -12989   -12998   -12997 
  -12991   -12996   -12999   -12997   -13003   -13005   -12994   -12990 
  -12999   -13013   -13027   -13019   -12995   -12984   -12981   -12981 
  -12996   -13007   -13002   -12996   -12991   -12991   -12998   -13002 
  -13010   -13019   -13018   -13008   -12996   -12993   -12995   -12987 
  -12982   -12992   -12998   -12994   -12994   -12996   -12999   -13003 
  -13003   -13011   -13020   -13012   -13001   -12996   -12988   -12984 
  -12988   -12993   -12995   -12984   -12976   -12991   -13012   -13028 
  -13053   -13089   -13127   -13162   -13185   -13178   -13119   -13005 
  -12843   -12648   -12461   -12332   -12287   -12349   -12554   -12903 
  -13345   -13813   -14207   -14406   -14323   -13928   -13272   -12511 
  -11865   -11544   -11646   -12099   -12756   -13447   -14029   -14472 
  -14736   -14676   -14197   -13285   -12004   -10605    -9518    -9226 
  -10060   -11905   -14181   -16139   -17131   -16862   -15550   -13722 
  -11908   -10531    -9885   -10106   -11122   -12620   -14126   -15146 
  -15422   -14983   -13816   -12056   -10382    -9631   -10363   -12522 
  -15197   -17211   -17754   -16603   -14234   -11494    -9282    -8427 
   -9207   -11031   -12859   -13913   -14180   -14304   -14880   -15805 
  -16429   -16067   -14386   -11918    -9783    -8552    -8286    -9184 
  -11123   -13255   -14564   -14707   -14336   -14383   -15157   -16218 
  -16817   -16254   -14285   -11512    -9038    -7805    -8363   -10648 
  -13809   -16422   -17203   -15930   -13623   -11821   -11699   -13103 
  -14402   -14076   -12084    -9589    -7991    -8069    -9748   -12478 
  -15274   -16955   -16980   -15641   -13751   -12437   -12367   -13214 
  -14279   -14998   -14991   -14330   -13217   -11778   -10706   -10741 
  -11641   -12722   -13378   -13252   -12823   -12981   -14064   -15749 
  -17201   -17371   -15669   -12379    -8589    -5728    -4840    -6186 
   -9319   -13127   -16210   -17777   -17983   -17319   -16121   -14662 
  -13291   -12078   -10720    -9237    -8321    -8729   -10574   -13281 
  -16050   -18047   -18572   -17530   -15464   -13272   -11841   -11404 
  -11552   -11826   -11960   -11908   -11722   -11577   -11918   -12844 
  -13722   -13890   -13346   -12700   -12529   -12783   -13052   -13112 
  -12978   -12772   -12710   -12904   -13065   -12909   -12807   -13264 
  -14151   -15005   -15520   -15605   -15140   -14001   -12489   -11149 
  -10264   -10010   -10449   -11272   -12088   -12657   -12922   -13038 
  -13110   -13070   -13014   -13076   -12983   -12544   -12134   -12135 
  -12621   -13564   -14719   -15500   -15241   -13844   -12238   -11625 
  -12328   -13828   -15412   -16425   -16435   -15457   -13898   -12299 
  -11125   -10520   -10252   -10124   -10288   -10955   -12131   -13556 
  -14588   -14758   -14249   -13299   -12117   -11312   -11301   -11913 
  -12816   -13751   -14556   -15021   -14870   -14217   -13501   -12827 
  -12058   -11336   -10972   -11073   -11632   -12699   -14035   -15059 
  -15388   -14997   -14175   -13409   -12892   -12544   -12277   -11927 
  -11379   -10673   -10063   -10056   -11015   -12718   -14393   -15236 
  -15024   -14289   -13930   -14375   -15109   -15275   -14525   -13196 
  -11853   -10845   -10454   -10995   -12455   -14374   -15988   -16564 
  -16006   -14865   -13784   -13040   -12324   -11134    -9551    -8344 
   -8308    -9560   -11458   -13222   -14485   -15202   -15263   -14624 
  -13718   -13162   -13094   -13120   -12866   -12448   -12343   -12852 
  -13819   -14752   -15216   -15154   -14728   -14023   -13067   -12031 
  -11250   -11016   -11354   -12017   -12628   -12913   -12861   -12653 
  -12382   -11962   -11450   -11196   -11517   -12428   -13535   -14257 
  -14356   -14048   -13663   -13502   -13763   -14399   -15131   -15649 
  -15720   -15255   -14460   -13735   -13253   -12836   -12250   -11531 
  -10936   -10654   -10673   -10834   -10926   -10798   -10420    -9880 
   -9370    -9261    -9981   -11579   -13642   -15610   -17047   -17772 
  -17851   -17473   -16844   -16133   -15475   -14931   -14469   -14032 
  -13656   -13496   -13646   -13914   -13935   -13443   -12370   -10893 
   -9364    -8086    -7262    -7073    -7626    -8849   -10463   -12088 
  -13486   -14540   -15007   -14708   -13900   -13119   -12700   -12666 
  -13008   -13719   -14623   -15522   -16327   -16930   -17156   -16930 
  -16389   -15728   -14927   -13795   -12280   -10565    -8979    -7965 
   -7902    -8746   -10092   -11552   -12915   -14094   -15049   -15659 
  -15712   -15126   -14151   -13198   -12526   -12223   -12256   -12470 
  -12734   -13013   -13380   -13966   -14693   -15233   -15277   -14697 
  -13640   -12465   -11379   -10293    -9194    -8427    -8352    -8955 
  -10019   -11413   -12951   -14266   -15098   -15512   -15676   -15593 
  -15151   -14364   -13484   -12831   -12586   -12778   -13389   -14303 
  -15187   -15673   -15703   -15519   -15255   -14762   -13919   -12879 
  -11810   -10727    -9749    -9164    -9138    -9584   -10255   -10913 
  -11518   -12156   -12829   -13439   -13924   -14218   -14174   -13748 
  -13159   -12741   -12753   -13270   -14171   -15204   -16047   -16512 
  -16645   -16476   -15919   -14896   -13422   -11682   -10034    -8811 
   -8206    -8287    -9042   -10257   -11514   -12569   -13443   -14188 
  -14743   -14899   -14533   -13803   -12971   -12264   -11846   -11765 
  -11991   -12465   -13042   -13539   -13925   -14327   -14822   -15355 
  -15792   -15963   -15725   -15083   -14248   -13466   -12855   -12431 
  -12181   -12105   -12209   -12412   -12505   -12252   -11612   -10867 
  -10397   -10329   -10472   -10550   -10470   -10419   -10699   -11439 
  -12513   -13671   -14727   -15685   -16585   -17254   -17462   -17156 
  -16357   -15091   -13546   -12115   -11208   -11070   -11638   -12518 
  -13235   -13540   -13509   -13349   -13081   -12526   -11598   -10472 
   -9427    -8636    -8213    -8331    -9143   -10593   -12307   -13795 
  -14818   -15501   -16150   -17001   -18027   -18869   -19049   -18434 
  -17277   -15822   -14198   -12614   -11337   -10446    -9823    -9378 
   -9206    -9581   -10653   -12121   -13410   -14106   -14056   -13341 
  -12261   -11201   -10486   -10247   -10436   -11023   -11954   -13013 
  -13973   -14792   -15558   -16203   -16404   -15948   -15004   -13897 
  -12892   -12158   -11635   -11125   -10654   -10507   -10935   -11920 
  -13156   -14297   -15114   -15360   -14801   -13533   -11998   -10685 
   -9874    -9627    -9920   -10728   -12003   -13587   -15213   -16602 
  -17528   -17837   -17533   -16780   -15734   -14491   -13191   -12082 
  -11429   -11334   -11684   -12199   -12567   -12629   -12406   -12051 
  -11793   -11739   -11828   -11980   -12174   -12405   -12576   -12533 
  -12293   -12043   -11873   -11789   -11768   -11642   -11293   -10905 
  -10755   -10919   -11362   -12084   -13043   -14070   -14961   -15580 
  -15881   -15898   -15678   -15240   -14640   -14069   -13760   -13750 
  -13873   -14033   -14296   -14708   -15166   -15536   -15760   -15679 
  -15082   -14015   -12757   -11540   -10516    -9871    -9730    -9984 
  -10395   -10836   -11177   -11212   -10916   -10504   -10209   -10182 
  -10471   -11014   -11745   -12665   -13752   -14872   -15791   -16257 
  -16140   -15532   -14680   -13885   -13397   -13292   -13418   -13514 
  -13450   -13281   -13102   -12953   -12784   -12531   -12223   -11970 
  -11866   -11952   -12232   -12717   -13464   -14480   -15581   -16415 
  -16694   -16340   -15396   -14019   -12449   -10908    -9687    -9133 
   -9364   -10202   -11396   -12659   -13613   -14023   -13882   -13246 
  -12357   -11604   -11143   -10957   -11059   -11398   -11863   -12408 
  -13038   -13746   -14526   -15282   -15807   -15991   -15913   -15675 
  -15298   -14774   -14130   -13444   -12834   -12401   -12207   -12321 
  -12674   -13015   -13162   -13045   -12621   -12007   -11452   -11135 
  -11161   -11534   -12082   -12586   -12871   -12849   -12609   -12301 
  -12004   -11780   -11674   -11703   -11952   -12536   -13381   -14202 
  -14757   -14954   -14774   -14276   -13615   -12939   -12362   -12010 
  -11912   -11949   -12120   -12599   -13490   -14676   -15791   -16382 
  -16225   -15441   -14334   -13157   -12091   -11361   -11153   -11442 
  -12022   -12624   -13066   -13335   -13504   -13652   -13721   -13501 
  -12888   -11983   -10986   -10093    -9401    -8941    -8767    -8947 
   -9517   -10481   -11840   -13467   -15053   -16285   -16982   -17112 
  -16716   -15864   -14769   -13757   -13109   -13032   -13635   -14792 
  -16138   -17274   -17930   -17999   -17539   -16838   -16270   -15940 
  -15739   -15641   -15613   -15517   -15110   -14182   -12835   -11428 
  -10278    -9431    -8755    -8250    -7990    -7987    -8285    -8735 
   -8989    -8852    -8329    -7576    -6807    -6141    -5600    -5104 
   -4616    -4299    -4399    -5151    -6809    -9627   -13623   -18206 
  -22451   -25797   -28052   -29060   -28784   -27277   -24645   -21184 
  -17271   -13390   -10279    -8596    -8591   -10043   -12292   -14516 
  -15985   -16172   -14818   -11871    -7432    -1994     3319     7308 
    9284     8709     5061    -1569   -10185   -19325   -27737   -34431 
  -38376   -38844   -35985   -30658   -23835   -16361    -9194    -3406 
      96      833     -845    -3972    -7763   -11716   -15427   -18692 
  -21305   -22994   -23457   -22250   -19397   -15640   -11864    -9059 
   -7959    -8573   -10718   -14113   -18024   -21782   -25023   -27058 
  -27056   -24714   -20158   -13913    -7119    -1092     3440     6417 
    7690     6975     4643     1580    -1425    -3901    -5726    -6837 
   -7292    -7527    -8064    -9233   -11158   -13751   -16815   -19911 
  -22355   -23867   -24805   -25584   -26358   -27009   -27158   -26630 
  -25622   -24131   -21942   -19157   -16110   -13061   -10046    -6965 
   -4033    -1782     -661     -862    -2161    -4153    -6736    -9909 
  -13323   -16477   -19145   -21255   -22641   -23360   -23832   -24229 
  -24288   -23650   -21933   -18827   -14328    -8785    -2937     2210 
    5877     7920     8510     7763     6019     3849     1437    -1539 
   -5336    -9716   -14176   -18310   -21840   -24657   -26846   -28459 
  -29415   -29608   -28957   -27427   -25203   -22648   -20019   -17527 
  -15500   -14084   -13007   -11942   -10869    -9855    -8732    -7183 
   -5205    -3346    -2323    -2426    -3266    -4249    -5153    -5944 
   -6450    -6604    -6803    -7684    -9649   -12791   -16981   -21799 
  -26668   -30897   -33679   -34564   -33685   -31222   -27060   -21069 
  -13696    -6228      -66     4084     6095     6164     4859     2920 
     839    -1258    -3443    -5881    -8766   -12110   -15598   -18873 
  -21905   -24904   -27925   -30582   -32628   -34292   -35437   -35405 
  -33550   -29539   -23692   -16660    -9097    -1903     4168     8758 
   11566    12478    11649     9469     6445     2695    -1542    -5339 
   -8275   -10875   -13450   -15843   -17937   -19783   -21482   -23170 
  -25013   -26879   -28245   -28720   -28124   -26239   -23206   -19661 
  -16214   -13297   -11126    -9504    -8139    -7306    -7489    -8195 
   -8373    -7914    -7482    -7124    -6292    -5170    -4581    -4927 
   -6163    -8207   -10893   -13704   -16147   -18147   -19605   -20269 
  -20112   -19355   -18148   -16601   -14978   -13624   -12955   -13173 
  -14003   -15085   -16048   -16482   -16252   -15304   -13519   -11114 
   -8504    -5862    -3495    -2060    -1894    -2975    -5294    -8579 
  -12237   -15717   -18716   -21149   -22903   -23838   -24013   -23523 
  -22328   -20430   -17943   -15032   -11982    -9156    -6716    -4642 
   -3005    -1854    -1037     -476     -424    -1256    -3265    -6547 
  -10896   -15944   -21237   -26174   -30232   -33106   -34526   -34451 
  -33191   -30881   -27411   -22993   -18284   -14014   -10503    -7531 
   -4797    -2372     -495      942     2166     3123     3824     4286 
    4320     4034     3539     2392      366    -2216    -5020    -7782 
  -10290   -12509   -14535   -16522   -18682   -21245   -24149   -26965 
  -29316   -31039   -32086   -32387   -31835   -30575   -28873   -26797 
  -24514   -22454   -20738   -19104   -17534   -15929   -14006   -11854 
   -9518    -6883    -4128    -1658      104      903      720     -262 
   -1862    -4083    -6725    -9289   -11451   -13099   -14136   -14406 
  -13764   -12240   -10054    -7580    -5240    -3282    -1816    -1138 
   -1557    -2958    -5039    -7639   -10559   -13464   -16189   -18833 
  -21499   -24130   -26485   -28231   -29183   -29371   -28827   -27594 
  -25843   -23707   -21256   -18673   -16212   -13981   -11885    -9785 
   -7614    -5469    -3632    -2324    -1600    -1562    -2273    -3612 
   -5462    -7703   -10084   -12379   -14455   -16204   -17518   -18364 
  -18800   -18842   -18493   -17859   -17082   -16204   -15169   -13980 
  -12819   -11928   -11438   -11320   -11518   -11931   -12312   -12384 
  -12024   -11277   -10304    -9307    -8476    -7995    -7972    -8381 
   -9145   -10225   -11469   -12644   -13654   -14337   -14536   -14535 
  -14665   -14876   -15156   -15648   -16271   -16820   -17149   -17109 
  -16608   -15707   -14607   -13499   -12350   -11063    -9789    -8847 
   -8487    -8860   -10018   -11844   -14069   -16368   -18450   -20058 
  -20943   -21033   -20526   -19570   -18142   -16266   -14085   -11809 
   -9663    -7873    -6639    -6065    -6191    -6875    -7743    -8521 
   -9117    -9367    -9144    -8537    -7680    -6739    -6023    -5773 
   -6119    -7215    -9001   -11229   -13773   -16436   -18815   -20664 
  -22004   -22898   -23390   -23552   -23524   -23453   -23317   -22927 
  -22159   -20957   -19253   -17119   -14761   -12370   -10081    -7949 
   -5975    -4184    -2630    -1322     -280      348      380     -192 
   -1191    -2512    -4209    -6288    -8667   -11323   -14210   -17105 
  -19697   -21700   -22969   -23560   -23525   -22865   -21718   -20383 
  -19216   -18496   -18286   -18481   -18935   -19456   -19804   -19771 
  -19198   -18020   -16323   -14230   -11826    -9248    -6707    -4408 
   -2537    -1283     -790    -1131    -2280    -4103    -6439    -9090 
  -11752   -14123   -16020   -17338   -18017   -18096   -17717   -17015 
  -16046   -14812   -13351   -11826   -10408    -9154    -8132    -7452 
   -7188    -7401    -8117    -9254   -10620   -11995   -13217   -14200 
  -14838   -15050   -15043   -15171   -15556   -16138   -16871   -17758 
  -18771   -19785   -20622   -21084   -21048   -20495   -19449   -17992 
  -16340   -14786   -13465   -12345   -11411   -10681   -10153    -9738 
   -9333    -8922    -8476    -8018    -7742    -7747    -7954    -8314 
   -8824    -9391    -9892   -10350   -10895   -11552   -12287   -13087 
  -13835   -14383   -14691   -14756   -14623   -14380   -14058   -13653 
  -13245   -12972   -12904   -13027   -13243   -13400   -13407   -13285 
  -13133   -13097   -13224   -13401   -13523   -13616   -13747   -13900 
  -14018   -14105   -14224   -14416   -14685   -15026   -15384   -15623 
