Origin Time       2025/03/29 04:45:00
Lat.              31.090
Long.             131.512
Depth. (km)       33
Mag.              4.6
Station Code      KGS024
Station Lat.      31.0888
Station Long.     130.6982
Station Height(m) 75
Record Time       2025/03/29 04:45:39
Sampling Freq(Hz) 100Hz
Duration Time(s)  60
Dir.              E-W
Scale Factor      7845(gal)/8223790
Max. Acc. (gal)   15.040
Last Correction   2025/03/29 04:45:39
Memo.             
[...]
   16977    16978    16972    16973    16973    16972    16980    16984 
   16969    16962    16970    16980    16985    16984    16976    16968 
   16969    16973    16976    16984    16977    16960    16968    16984 
   16989    16985    16970    16964    16972    16977    16980    16985 
   16983    16966    16962    16978    16991    16978    16965    16969 
   16974    16974    16972    16974    16983    16977    16964    16973 
   16985    16983    16976    16974    16978    16981    16972    16964 
   16970    16981    16980    16973    16978    16978    16972    16976 
   16977    16969    16969    16974    16981    16978    16964    16970 
   16984    16976    16969    16974    16978    16978    16974    16974 
   16978    16974    16980    16984    16976    16978    16972    16951 
   16965    16995    16985    16962    16968    16984    16984    16972 
   16969    16976    16981    16980    16968    16964    16978    16984 
   16969    16961    16980    16987    16969    16972    16985    16974 
   16965    16970    16977    16984    16976    16962    16972    16989 
   16981    16961    16958    16976    16987    16980    16972    16977 
   16983    16978    16968    16962    16977    16991    16981    16969 
   16970    16972    16972    16981    16983    16974    16972    16973 
   16977    16984    16983    16969    16956    16969    16991    16988 
   16970    16969    16977    16977    16968    16966    16977    16984 
   16974    16962    16969    16983    16981    16980    16980    16974 
   16976    16976    16969    16973    16984    16981    16974    16970 
   16970    16969    16968    16977    16987    16978    16970    16974 
   16974    16972    16976    16983    16988    16983    16965    16957 
   16973    16989    16980    16965    16973    16984    16978    16968 
   16969    16980    16983    16974    16980    16989    16976    16961 
   16970    16985    16981    16970    16974    16983    16984    16978 
   16969    16966    16972    16976    16976    16977    16978    16973 
   16976    16987    16981    16968    16964    16974    16987    16977 
   16964    16978    16995    16978    16961    16974    16993    16991 
   16988    17004    17018    17018    17026    17035    17039    17049 
   17053    17039    17027    17024    17011    16964    16896    16852 
   16827    16810    16808    16831    16869    16895    16902    16930 
   16996    17069    17111    17086    17000    16892    16802    16753 
   16753    16795    16884    17015    17149    17267    17375    17466 
   17523    17486    17321    17096    16911    16850    16899    16939 
   16880    16729    16557    16460    16487    16667    16966    17257 
   17344    17143    16815    16619    16652    16834    17055    17215 
   17220    17038    16735    16451    16335    16457    16773    17227 
   17725    18067    18084    17806    17420    17150    17100    17189 
   17196    16991    16659    16206    15550    14878    14708    15473 
   17027    18697    19746    19688    18550    16942    15685    15302 
   15742    16609    17532    18057    17679    16455    15228    14891 
   15730    17363    18994    19932    20015    19322    17864    15917 
   14239    13668    14459    15988    17328    18003    17977    17354 
   16464    15947    16302    17390    18527    19064    18837    18081 
   17126    16243    15723    15809    16306    16634    16549    16403 
   16606    17035    17236    17107    16978    17134    17432    17428 
   17001    16548    16357    16309    16221    16113    16143    16387 
   16791    17247    17670    18085    18551    18974    19214    19157 
   18712    17911    16988    16262    15824    15580    15515    15608 
   15720    15658    15337    15018    15169    15989    17259    18566 
   19522    19789    19025    17182    14936    13475    13599    15048 
   16781    17909    18365    18716    19306    19907    20201    20102 
   19550    18493    17122    15943    15411    15387    15237    14673 
   14079    13926    14299    15068    16179    17501    18601    18970 
   18539    17797    17182    16744    16443    16370    16538    16802 
   17026    17253    17732    18516    19084    18944    18368    17973 
   17922    17909    17652    17097    16308    15426    14671    14315 
   14457    14897    15465    16119    16760    17228    17323    17015 
   16638    16569    16837    17253    17635    17915    18238    18690 
   19057    19152    18954    18449    17714    16947    16398    16287 
   16552    16779    16579    15920    15187    14889    15222    15951 
   16673    17113    17166    16876    16468    16208    16206    16429 
   16749    17100    17582    18245    18891    19246    19241    18940 
   18362    17593    16907    16525    16339    16016    15473    15037 
   14990    15363    16077    16868    17401    17524    17281    16951 
   16852    16992    17105    16930    16533    16371    16722    17325 
   17842    18264    18657    18902    18831    18441    17860    17180 
   16519    16083    16015    16247    16468    16362    15992    15739 
   15854    16185    16362    16213    15904    15657    15620    15870 
   16359    16972    17577    18054    18445    18851    19211    19377 
   19233    18665    17658    16470    15556    15292    15695    16445 
   17174    17670    17867    17726    17297    16819    16472    16217 
   16012    15846    15642    15433    15363    15499    15853    16468 
   17282    18079    18711    19138    19290    19116    18628    17874 
   17061    16505    16337    16413    16513    16621    16838    17065 
   17112    16949    16657    16374    16182    16086    16102    16272 
   16533    16730    16796    16846    16930    16929    16849    16885 
   17146    17582    18004    18193    18152    17949    17540    17011 
   16652    16654    16892    17020    16829    16432    16089    15943 
   15982    16193    16598    17084    17433    17572    17570    17500 
   17373    17146    16889    16794    16926    17180    17398    17475 
   17394    17213    17014    16902    16946    17108    17253    17242 
   17055    16825    16694    16692    16713    16596    16340    16119 
   16059    16131    16201    16206    16214    16259    16372    16733 
   17470    18349    18900    18878    18422    17826    17319    16984 
   16848    16911    17074    17161    17069    16929    16970    17190 
   17336    17247    16976    16641    16324    16042    15843    15823 
   15925    15993    16093    16437    17070    17813    18447    18802 
   18765    18347    17686    16989    16474    16194    16047    15973 
   16016    16213    16501    16761    16931    17058    17211    17358 
   17389    17243    16999    16819    16873    17213    17659    17894 
   17716    17232    16749    16510    16605    16931    17221    17220 
   16852    16333    16060    16268    16862    17571    18127    18320 
   17996    17208    16313    15793    15871    16306    16642    16623 
   16355    16113    16124    16465    17031    17598    17948    18015 
   17994    18094    18243    18189    17860    17431    17069    16762 
   16410    16011    15693    15561    15637    15923    16411    17043 
   17658    18048    18096    17811    17305    16750    16229    15739 
   15333    15138    15315    15935    16856    17799    18507    18901 
   19091    19170    19129    18909    18458    17787    16933    16021 
   15284    14893    14887    15206    15741    16438    17181    17732 
   17964    17918    17695    17415    17143    16904    16708    16498 
   16205    15876    15676    15747    16028    16360    16734    17261 
   17953    18640    19039    18955    18416    17625    16839    16332 
   16262    16522    16811    16848    16590    16259    16164    16428 
   16908    17362    17618    17593    17284    16829    16449    16281 
   16263    16239    16168    16181    16410    16899    17521    18000 
   18141    17982    17667    17385    17296    17389    17531    17571 
   17369    16897    16333    15973    16027    16433    16942    17358 
   17608    17685    17617    17514    17498    17563    17558    17273 
   16611    15768    15122    14937    15213    15759    16333    16738 
   16918    16962    17026    17215    17504    17732    17748    17586 
   17485    17647    17967    18138    17963    17478    16930    16567 
   16464    16532    16606    16598    16560    16607    16812    17116 
   17379    17494    17406    17130    16756    16432    16308    16443 
   16714    16880    16783    16528    16376    16509    16899    17373 
   17724    17809    17649    17396    17135    16857    16580    16403 
   16471    16839    17339    17716    17853    17772    17537    17223 
   16939    16789    16758    16745    16677    16541    16387    16313 
   16371    16517    16677    16861    17109    17393    17590    17560 
   17267    16842    16449    16168    16005    15984    16173    16573 
   17072    17517    17770    17794    17728    17728    17828    17956 
   18042    18072    17991    17651    17014    16272    15718    15568 
   15904    16680    17618    18260    18260    17613    16625    15714 
   15180    15125    15453    15898    16190    16267    16294    16461 
   16826    17278    17647    17863    18019    18206    18384    18412 
   18196    17778    17311    16970    16884    17015    17166    17146 
   16946    16740    16677    16718    16727    16613    16357    16069 
   15934    16040    16368    16818    17207    17389    17343    17132 
   16881    16735    16754    16893    17049    17112    17064    17004 
   17041    17184    17356    17481    17532    17541    17517    17437 
   17289    17074    16825    16590    16444    16470    16633    16726 
   16590    16313    16058    15934    16024    16387    17015    17766 
   18361    18580    18416    18003    17494    17035    16767    16733 
   16826    16896    16866    16776    16710    16714    16795    16947 
   17108    17196    17213    17193    17105    16883    16510    16090 
   15774    15670    15850    16329    16991    17585    17872    17848 
   17726    17675    17716    17805    17818    17617    17193    16688 
   16308    16177    16267    16465    16667    16814    16908    16962 
   16996    16999    16956    16895    16850    16869    16972    17089 
   17128    17069    16931    16768    16656    16632    16699    16857 
   17112    17471    17838    18031    17967    17721    17412    17115 
   16883    16718    16569    16393    16181    16004    15981    16166 
   16501    16877    17192    17421    17595    17729    17768    17604 
   17169    16542    15962    15642    15642    15923    16417    16984 
   17467    17814    18068    18231    18231    18061    17840    17659 
   17496    17280    16949    16511    16074    15735    15526    15464 
   15550    15811    16282    16902    17550    18119    18499    18601 
   18418    18085    17788    17551    17265    16870    16378    15831 
   15338    15082    15202    15681    16383    17134    17761    18129 
   18181    17980    17662    17370    17220    17213    17234    17194 
   17100    17000    16931    16883    16876    16981    17205    17487 
   17753    17892    17771    17321    16638    15973    15600    15642 
   15959    16276    16416    16366    16194    16039    16098    16478 
   17076    17655    18002    18046    17871    17636    17462    17358 
   17286    17244    17286    17433    17605    17722    17724    17516 
   17086    16565    16185    16121    16328    16603    16781    16807 
   16711    16563    16406    16263    16201    16302    16549    16864 
   17186    17454    17601    17632    17614    17602    17597    17545 
   17375    17095    16806    16572    16425    16417    16556    16795 
   17055    17244    17300    17190    16877    16386    15862    15500 
   15439    15657    16001    16355    16680    16942    17189    17570 
   18152    18825    19387    19689    19700    19457    19008    18389 
   17645    16860    16128    15515    15097    14925    15016    15345 
   15824    16370    16941    17428    17676    17581    17108    16352 
   15510    14816    14457    14461    14700    15043    15473    16066 
   16881    17883    18922    19813    20472    20907    21087    20947 
   20498    19849    19110    18350    17616    16908    16155    15306 
   14424    13703    13396    13653    14436    15547    16642    17297 
   17251    16611    15786    15169    14901    14841    14770    14689 
   14774    15164    15943    17072    18404    19785    21027    22006 
   22708    23107    23143    22771    22026    21028    19840    18462 
   17051    15745    14445    13127    11888    10750     9809     9236 
    9162     9674    10786    12464    14602    16880    18870    20247 
   20918    21064    20893    20547    20204    20035    20078    20236 
   20301    20110    19637    18925    18152    17562    17227    17082 
   17084    17020    16656    16144    15766    15574    15503    15411 
   15051    14184    12756    11057     9563     8683     8634     9520 
   11442    14193    17212    20286    23575    26833    29339    30528 
   30292    28806    26308    23129    19666    16133    12629     9391 
    6863     5549     5545     6579     8684    12100    16515    20879 
   24003    25294    24733    22477    19120    15795    13394    12112 
   11696    11880    12714    14197    15857    17350    18924    20830 
   22864    24595    25875    26725    26725    25371    22711    18877 
   13882     8407     3893     1444     1209     2809     5879    10062 
   14673    19002    22782    25755    27496    28001    27746    27010 
   25585    23318    20502    17541    14862    13005    12187    12036 
   12078    12164    12480    13308    14632    16144    17579    18898 
   20058    20545    19693    17555    14870    12464    10994    10837 
   11981    14077    16422    18180    18976    18949    18412    17940 
   18111    18993    20266    21455    22081    22018    21406    20347 
   18870    17084    15237    13587    12326    11662    11731    12487 
   13598    14492    14809    14578    14053    13775    14262    15456 
   16978    18588    20070    21312    22393    23328    24057    24556 
   24775    24644    23994    22600    20449    17899    15485    13574 
   12267    11605    11477    11604    11892    12313    12621    12702 
   12745    12927    13315    13875    14428    14823    14990    14970 
   15017    15492    16646    18442    20568    22677    24397    25473 
   26007    26083    25517    24278    22470    20110    17373    14584 
   12109    10476    10054    10643    11569    12222    12492    12656 
   13039    13879    15113    16254    16838    16792    16258    15593 
   15346    15776    16749    18013    19222    20050    20426    20351 
   19849    19279    18921    18634    18409    18462    18773    19087 
   19205    18936    18081    16775    15419    14239    13397    13104 
   13315    13787    14442    15295    16262    17328    18522    19641 
   20518    21211    21712    21902    21683    20968    19755    18273 
   16899    15769    14740    13826    13104    12499    12093    11986 
   12086    12468    13297    14539    16075    17664    18922    19676 
   20012    20051    19963    19969    20083    20040    19584    18732 
   17616    16352    15221    14509    14208    14281    14760    15491 
   16208    16730    16993    16989    16760    16399    15998    15626 
   15371    15311    15487    15915    16532    17200    17799    18323 
   18839    19348    19772    20082    20353    20633    20810    20684 
   20147    19228    17992    16671    15707    15302    15225    15191 
   15057    14778    14454    14268    14305    14534    14848    15106 
   15157    14953    14638    14436    14559    15178    16232    17443 
   18616    19712    20684    21451    21926    22036    21752    21109 
   20105    18688    17011    15452    14280    13636    13575    13918 
   14366    14752    15093    15418    15769    16267    16887    17454 
   17906    18195    18264    18152    17842    17346    16869    16564 
   16448    16542    16803    17116    17390    17568    17682    17790 
   17960    18297    18739    19020    18974    18574    17775    16610 
   15317    14304    13910    14134    14654    15138    15516    15866 
   16132    16229    16258    16336    16433    16511    16623    16806 
   17038    17298    17496    17555    17605    17836    18299    18905 
   19469    19818    19908    19731    19251    18562    17864    17271 
   16823    16502    16267    16139    16120    16093    15963    15781 
   15705    15826    16109    16551    17024    17265    17275    17300 
   17435    17636    17829    17938    17948    17801    17351    16592 
   15773    15141    14758    14535    14310    14002    13683    13454 
   13417    13655    14172    14901    15766    16704    17664    18586 
   19386    20029    20557    20968    21216    21258    21038    20556 
   19977    19496    19157    18951    18835    18706    18472    18038 
   17392    16641    15834    14926    13960    13073    12374    11890 
   11626    11561    11664    11936    12469    13383    14663    16162 
   17801    19526    21150    22485    23552    24398    24904    24970 
   24609    23788    22523    20984    19298    17436    15414    13439 
   11792    10647    10045     9934    10238    10910    11805    12684 
   13452    14185    14916    15612    16259    16854    17386    17810 
   18130    18489    18970    19499    20002    20422    20730    20966 
   21132    21158    20997    20633    20071    19364    18562    17653 
   16592    15399    14156    12985    12056    11481    11246    11325 
   11746    12552    13686    14989    16320    17591    18705    19614 
   20304    20730    20899    20881    20763    20625    20499    20370 
   20205    19942    19542    19041    18474    17795    17000    16159 
   15314    14484    13651    12781    11947    11298    10982    11111 
   11700    12695    13996    15466    16965    18381    19604    20541 
   21185    21643    21978    22107    21988    21703    21312    20781 
   20098    19325    18500    17612    16629    15515    14299    13126 
   12132    11354    10820    10569    10608    10939    11578    12464 
   13506    14742    16224    17840    19429    20879    22079    22939 
   23442    23598    23436    22991    22308    21467    20540    19522 
   18427    17317    16235    15225    14318    13485    12742    12179 
   11839    11703    11758    12036    12509    13105    13836    14728 
   15712    16722    17713    18619    19444    20250    20991    21582 
   22005    22222    22165    21829    21263    20476    19445    18266 
   17093    16006    15078    14315    13663    13134    12788    12672 
   12839    13285    13886    14492    15060    15635    16224    16784 
   17324    17914    18573    19205    19697    20021    20209    20286 
   20268    20182    19989    19593    19013    18361    17663    16914 
   16175    15491    14833    14218    13676    13235    12958    12864 
   12939    13236    13764    14449    15268    16206    17181    18134 
   18998    19639    19966    20029    19942    19796    19630    19430 
   19217    19003    18748    18439    18081    17675    17293    16980 
   16698    16397    16060    15696    15303    14894    14523    14233 
