Origin Time       2025/03/29 04:45:00
Lat.              31.090
Long.             131.512
Depth. (km)       33
Mag.              4.6
Station Code      KGS021
Station Lat.      31.2535
Station Long.     130.6324
Station Height(m) 8
Record Time       2025/03/29 04:45:43
Sampling Freq(Hz) 100Hz
Duration Time(s)  60
Dir.              U-D
Scale Factor      3920(gal)/6182761
Max. Acc. (gal)   1.857
Last Correction   2025/03/29 04:45:43
Memo.             
[...]
   16240    16354    16467    16590    16692    16671    16529    16424 
   16431    16404    16212    15977    15900    15968    16069    16198 
   16355    16429    16341    16178    16071    16031    16030    16118 
   16301    16453    16498    16513    16525    16403    16138    15981 
   16069    16204    16151    15979    15985    16237    16440    16466 
   16526    16620    16524    16357    16416    16616    16663    16538 
   16400    16257    16049    15914    16005    16197    16298    16342 
   16414    16419    16285    16101    15956    15893    15935    16024 
   16088    16109    16097    16131    16263    16329    16224    16175 
   16353    16617    16813    16944    17018    16987    16803    16445 
   15991    15665    15683    15985    16271    16374    16417    16516 
   16597    16527    16287    16009    15867    15904    15983    16029 
   16151    16343    16388    16213    16033    16071    16296    16515 
   16593    16508    16350    16285    16357    16415    16348    16266 
   16337    16491    16480    16228    15932    15827    15938    16066 
   16087    16161    16419    16711    16857    16827    16632    16338 
   16081    15936    15897    15957    16039    16037    15964    15949 
   16091    16297    16371    16294    16205    16172    16135    16077 
   16131    16373    16600    16564    16344    16172    16091    16077 
   16250    16622    16901    16848    16590    16382    16282    16208 
   16149    16139    16146    16114    16046    15987    15921    15792 
   15711    15913    16420    16968    17299    17365    17226    16957 
   16653    16365    16110    15916    15764    15643    15679    15977 
   16414    16786    17031    17157    17129    16901    16541    16246 
   16127    16069    15971    15882    15790    15618    15464    15518 
   15736    15911    16019    16206    16515    16855    17122    17206 
   17019    16607    16129    15763    15644    15759    15948    16066 
   16038    15855    15681    15741    16044    16420    16760    17050 
   17240    17224    16924    16406    15895    15557    15388    15385 
   15569    15828    15977    15993    16049    16256    16540    16804 
   17018    17119    17045    16848    16600    16320    16070    15914 
   15817    15724    15662    15709    15916    16267    16650    16926 
   17031    16947    16718    16477    16296    16147    16050    16058 
   16123    16145    16103    16078    16138    16270    16442    16627 
   16766    16804    16721    16547    16342    16134    15908    15667 
   15471    15385    15416    15572    15869    16235    16549    16754 
   16840    16840    16852    16928    16998    16984    16881    16743 
   16571    16282    15857    15433    15156    15100    15316    15815 
   16470    17062    17423    17487    17276    16919    16554    16195 
   15843    15578    15446    15428    15486    15591    15740    15923 
   16116    16324    16593    16942    17288    17480    17452    17212 
   16779    16217    15656    15252    15124    15292    15625    15936 
   16134    16255    16373    16515    16667    16827    16981    17047 
   16892    16511    16092    15788    15595    15473    15415    15451 
   15646    16019    16454    16788    16936    16873    16651    16398 
   16212    16108    16073    16096    16131    16131    16100    16077 
   16106    16232    16434    16592    16639    16629    16570    16398 
   16153    15979    15966    16103    16323    16504    16528    16372 
   16119    15941    15980    16152    16274    16330    16402    16484 
   16562    16661    16742    16717    16561    16358    16251    16337 
   16581    16799    16826    16681    16469    16252    16062    15936 
   15876    15839    15803    15761    15702    15670    15728    15881 
   16108    16381    16616    16742    16771    16731    16642    16542 
   16470    16470    16531    16570    16542    16475    16419    16432 
   16490    16494    16400    16212    15937    15651    15463    15420 
   15514    15709    15917    16073    16189    16280    16347    16428 
   16524    16580    16594    16578    16488    16326    16179    16126 
   16184    16307    16420    16463    16461    16464    16453    16391 
   16299    16214    16130    16013    15894    15886    16055    16327 
   16571    16718    16781    16782    16704    16556    16402    16260 
   16115    16015    15992    16005    16032    16085    16167    16307 
   16479    16527    16360    16082    15860    15754    15732    15758 
   15811    15867    15916    15990    16149    16395    16620    16727 
   16716    16634    16564    16594    16718    16826    16819    16688 
   16479    16254    16066    15931    15842    15797    15801    15831 
   15874    15979    16183    16438    16626    16648    16497    16227 
   15920    15713    15752    16067    16524    16965    17303    17448 
   17335    17015    16630    16316    16123    16027    16003    16040 
   16092    16105    16074    16017    15947    15894    15904    16003 
   16175    16382    16610    16847    16996    16964    16774    16505 
   16232    16017    15898    15894    15987    16107    16176    16163 
   16088    15977    15869    15811    15829    15948    16166    16396 
   16509    16455    16303    16141    16051    16096    16226    16341 
   16407    16421    16405    16416    16511    16689    16887    17008 
   16981    16811    16580    16352    16110    15868    15728    15747 
   15874    16032    16177    16283    16339    16336    16277    16189 
   16102    16041    16028    16059    16116    16184    16246    16314 
   16369    16377    16363    16360    16382    16428    16492    16605 
   16777    16934    16957    16773    16448    16111    15841    15682 
   15635    15657    15746    15885    15989    16024    16059    16122 
   16174    16207    16253    16333    16438    16555    16643    16648 
   16611    16612    16673    16738    16725    16625    16488    16353 
   16234    16126    16029    15934    15819    15686    15583    15545 
   15582    15706    15894    16101    16307    16505    16689    16808 
   16806    16692    16530    16405    16368    16364    16305    16170 
   16007    15884    15887    16068    16398    16784    17100    17235 
   17173    16992    16774    16530    16258    16030    15942    15999 
   16137    16290    16397    16420    16361    16242    16112    16023 
   15979    15966    15986    16024    16039    16032    16056    16122 
   16185    16219    16231    16247    16290    16361    16453    16528 
   16524    16411    16211    15998    15855    15824    15874    15969 
   16125    16331    16524    16648    16661    16541    16322    16086 
   15924    15891    15978    16131    16300    16437    16509    16499 
   16398    16236    16077    15948    15861    15842    15927    16114 
   16352    16584    16761    16868    16911    16913    16923    16969 
   17010    17013    16990    16909    16688    16338    15958    15622 
   15363    15200    15146    15208    15390    15673    16021    16394 
   16723    16917    16933    16802    16601    16402    16259    16202 
   16219    16267    16290    16261    16199    16121    16045    15982 
   15949    15988    16142    16395    16665    16877    16995    16989 
   16841    16585    16317    16117    15976    15860    15777    15735 
   15730    15742    15742    15737    15764    15863    16042    16274 
   16513    16710    16854    16962    17033    17041    16995    16938 
   16854    16705    16521    16360    16227    16099    15976    15879 
   15819    15789    15779    15792    15830    15912    16067    16302 
   16577    16783    16829    16751    16604    16395    16150    15923 
   15760    15706    15755    15854    16001    16192    16355    16451 
   16499    16507    16457    16354    16228    16104    16011    15980 
   16040    16187    16371    16535    16654    16708    16709    16691 
   16664    16619    16538    16388    16150    15871    15621    15448 
   15414    15554    15823    16156    16514    16841    17084    17226 
   17266    17201    17045    16816    16553    16325    16161    16050 
   15979    15931    15889    15866    15878    15911    15964    16037 
   16112    16187    16245    16237    16139    15980    15821    15704 
   15664    15723    15875    16119    16435    16765    17029    17178 
   17243    17274    17289    17287    17233    17077    16800    16430 
   16030    15668    15407    15267    15228    15274    15391    15576 
   15834    16131    16404    16635    16821    16910    16860    16707 
   16530    16376    16239    16134    16089    16117    16231    16404 
   16562    16668    16706    16653    16515    16334    16147    15969 
   15821    15723    15672    15659    15692    15770    15866    15961 
   16063    16168    16254    16312    16363    16425    16486    16516 
   16518    16509    16471    16388    16303    16266    16282    16340 
   16453    16605    16734    16797    16769    16619    16362    16068 
   15840    15746    15755    15819    15936    16080    16174    16195 
   16202    16228    16268    16330    16421    16504    16544    16545 
   16539    16554    16592    16604    16553    16464    16389    16343 
   16309    16281    16263    16229    16149    16041    15931    15829 
   15765    15769    15832    15937    16079    16247    16417    16546 
   16590    16518    16337    16101    15881    15720    15624    15593 
   15638    15735    15831    15886    15910    15949    16032    16195 
   16445    16724    16965    17152    17274    17306    17265    17179 
   17054    16905    16755    16613    16457    16278    16108    15980 
   15918    15936    15988    16054    16138    16185    16159    16085 
   15970    15831    15711    15645    15666    15786    15964    16159 
   16334    16453    16510    16510    16476    16444    16407    16353 
   16294    16240    16187    16144    16128    16161    16270    16468 
   16715    16955    17127    17168    17071    16881    16637    16400 
   16237    16180    16233    16374    16559    16717    16769    16710 
   16571    16350    16075    15811    15594    15429    15334    15334 
   15434    15610    15840    16078    16263    16382    16450    16477 
   16493    16544    16641    16761    16877    16918    16848    16705 
   16514    16306    16134    16012    15929    15923    16022    16164 
   16258    16261    16174    16048    15954    15949    16033    16150 
   16275    16397    16475    16508    16512    16503    16538    16648 
   16807    16987    17134    17166    17039    16771    16452    16200 
   16072    16081    16207    16371    16461    16388    16133    15750 
   15344    15054    14963    15065    15318    15629    15878    15993 
   15955    15825    15720    15735    15913    16242    16662    17098 
   17450    17607    17539    17314    17029    16766    16596    16567 
   16665    16838    17017    17107    17038    16815    16499    16158 
   15869    15681    15597    15615    15703    15790    15827    15815 
   15777    15753    15780    15869    15981    16061    16112    16171 
   16219    16234    16238    16239    16226    16211    16187    16144 
   16091    16015    15920    15840    15805    15824    15890    15993 
   16088    16132    16124    16065    15992    15976    16037    16175 
   16374    16576    16746    16875    16967    17060    17176    17275 
   17308    17289    17250    17178    17042    16864    16654    16412 
   16220    16111    15978    15791    15605    15458    15428    15552 
   15783    16105    16484    16804    16943    16818    16472    16048 
   15589    15132    14795    14612    14583    14817    15365    16107 
   16893    17603    18096    18297    18264    18062    17716    17285 
   16854    16464    16130    15891    15772    15742    15769    15818 
   15801    15682    15528    15378    15237    15135    15080    15057 
   15113    15315    15668    16101    16526    16892    17181    17424 
   17618    17697    17633    17420    17041    16508    15865    15202 
   14650    14311    14205    14337    14738    15334    16018    16750 
   17454    18054    18517    18792    18844    18631    18146    17492 
   16780    16084    15503    15124    14992    15085    15282    15480 
   15645    15744    15769    15768    15826    16010    16289    16608 
   16940    17211    17328    17260    17021    16641    16202    15817 
   15564    15487    15576    15759    15953    16087    16150    16212 
   16337    16560    16909    17340    17738    18014    18108    18005 
   17746    17363    16821    16091    15239    14440    13850    13540 
   13538    13803    14233    14712    15137    15476    15769    16046 
   16314    16599    16923    17280    17665    18040    18337    18517 
   18535    18333    17924    17370    16716    16035    15410    14896 
   14577    14522    14676    14937    15224    15473    15625    15655 
   15630    15675    15845    16109    16433    16780    17080    17282 
   17390    17396    17276    17030    16715    16446    16290    16248 
   16341    16537    16739    16871    16905    16853    16759    16654 
   16566    16518    16476    16404    16308    16177    15988    15753 
   15535    15412    15447    15666    16015    16396    16724    16938 
   17042    17066    17017    16934    16842    16720    16550    16304 
   15924    15432    14940    14545    14298    14219    14267    14383 
   14548    14738    14902    15061    15304    15660    16121    16680 
   17302    17945    18535    18977    19207    19188    18932    18477 
   17900    17290    16703    16209    15893    15741    15655    15579 
   15484    15341    15168    15011    14906    14867    14914    15068 
   15326    15656    16014    16348    16620    16827    16928    16872 
   16676    16401    16120    15910    15810    15825    15970    16233 
   16550    16892    17268    17625    17857    17918    17833    17634 
   17363    17076    16790    16500    16216    15970    15784    15646 
   15564    15548    15569    15615    15694    15804    15937    16045 
   16092    16085    16037    15965    15922    15945    16036    16157 
   16243    16205    15997    15673    15338    15077    14956    14992 
   15170    15486    15914    16389    16875    17325    17670    17890 
   17987    17968    17895    17816    17738    17665    17581    17467 
   17325    17123    16809    16363    15789    15117    14429    13844 
   13475    13395    13627    14120    14796    15589    16386    17068 
   17572    17874    17968    17881    17667    17377    17042    16727 
   16488    16308    16189    16143    16121    16084    16030    15967 
   15936    15977    16075    16198    16320    16428    16536    16669 
   16819    16952    17045    17056    16972    16836    16667    16466 
   16233    15971    15717    15454    15148    14838    14579    14440 
   14459    14588    14793    15041    15291    15527    15714    15878 
   16120    16452    16836    17288    17793    18236    18511    18571 
   18405    18065    17638    17181    16727    16329    16025    15820 
   15731    15747    15803    15870    15941    15961    15877    15708 
   15505    15324    15228    15251    15389    15634    15960    16335 
   16709    16992    17114    17086    16953    16761    16536    16309 
   16129    16050    16068    16135    16267    16483    16714    16909 
   17082    17218    17274    17244    17144    16954    16659    16290 
   15904    15569    15338    15232    15247    15355    15518    15706 
   15891    16055    16180    16254    16277    16266    16252    16248 
   16239    16233    16229    16174    16034    15833    15613    15407 
   15275    15278    15432    15741    16163    16581    16909    17106 
   17150    17064    16888    16656    16404    16180    16035    16002 
   16077    16222    16400    16583    16773    16988    17196    17358 
   17471    17549    17630    17711    17721    17601    17354    17032 
   16660    16243    15815    15407    15037    14699    14387    14119 
   13928    13866    13944    14140    14452    14832    15203    15577 
   15959    16286    16564    16816    17002    17142    17280    17404 
   17534    17702    17895    18092    18279    18409    18431    18333 
   18117    17802    17423    17011    16626    16315    16085    15940 
   15858    15797    15709    15527    15237    14897    14548    14225 
   13979    13821    13759    13829    14071    14500    15065    15673 
   16274    16843    17335    17720    18000    18136    18109    17998 
   17838    17608    17350    17095    16826    16575    16377    16234 
   16157    16136    16136    16150    16182    16216    16257    16318 
   16390    16465    16528    16570    16612    16656    16682    16664 
   16575    16418    16226    16027    15814    15582    15350    15136 
   14958    14832    14769    14810    14966    15198    15484    15815 
   16143    16415    16644    16851    17010    17106    17146    17131 
   17074    16990    16883    16778    16703    16655    16609    16568 
   16541    16520    16496    16462    16400    16329    16300    16309 
   16328    16362    16378    16328    16233    16116    15995    15920 
   15904    15910    15925    15943    15934    15894    15846    15810 
   15797    15794    15805    15831    15881    15992    16127    16232 
   16322    16386    16397    16375    16350    16326    16288    16232 
   16163    16090    16042    16031    16043    16084    16178    16310 
   16455    16609    16789    16984    17158    17320    17475    17573 
   17611    17589    17475    17281    17038    16748    16443    16160 
   15907    15683    15490    15324    15191    15127    15137    15175 
   15223    15304    15430    15604    15835    16096    16327    16500 
   16623    16696    16713    16689    16651    16615    16572    16501 
   16410    16326    16269    16252    16272    16326    16418    16520 
   16612    16709    16786    16810    16814    16810    16772    16717 
   16650    16559    16484    16450    16432    16419    16410    16374 
   16306    16241    16166    16055    15944    15846    15750    15669 
   15606    15558    15524    15507    15525    15581    15641    15692 
   15748    15809    15884    15978    16058    16134    16227    16313 
   16400    16504    16593    16678    16805    16974    17140    17302 
   17483    17650    17765    17829    17806    17676    17468    17183 
   16810    16400    16015    15671    15364    15106    14907    14759 
   14652    14606    14656    14806    15033    15311    15604    15881 
   16133    16362    16555    16710    16847    16982    17099    17183 
   17236    17225    17132    16992    16825    16651    16507    16388 
   16264    16123    15976    15817    15652    15502    15369    15273 
   15226    15209    15223    15266    15317    15383    15486    15631 
   15839    16114    16422    16748    17088    17380    17572    17668 
   17678    17597    17447    17267    17083    16937    16863    16836 
   16850    16902    16919    16850    16707    16504    16233    15875 
   15449    15029    14677    14431    14309    14310    14426    14631 
   14907    15245    15616    15991    16373    16742    17065    17344 
   17587    17768    17867    17895    17866    17781    17646    17463 
   17246    17027    16806    16567    16329    16100    15877    15684 
