Origin Time       2025/03/29 04:45:00
Lat.              31.090
Long.             131.512
Depth. (km)       33
Mag.              4.6
Station Code      KGS022
Station Lat.      31.2804
Station Long.     131.0504
Station Height(m) 12
Record Time       2025/03/29 04:45:24
Sampling Freq(Hz) 100Hz
Duration Time(s)  65
Dir.              N-S
Scale Factor      7845(gal)/8223790
Max. Acc. (gal)   8.009
Last Correction   2025/03/29 04:45:24
Memo.             
[...]
    7113     7086     7134     7156     7099     7106     7153     7125 
    7087     7126     7144     7101     7110     7140     7123     7114 
    7117     7107     7118     7144     7128     7096     7118     7130 
    7114     7130     7142     7095     7095     7148     7123     7109 
    7149     7117     7095     7129     7121     7113     7142     7129 
    7087     7114     7152     7122     7102     7125     7123     7113 
    7123     7123     7121     7121     7118     7118     7115     7129 
    7132     7114     7106     7111     7133     7138     7114     7110 
    7123     7130     7117     7099     7132     7153     7102     7098 
    7144     7119     7099     7149     7152     7083     7087     7140 
    7125     7128     7142     7101     7111     7146     7113     7096 
    7133     7130     7110     7133     7140     7101     7098     7138 
    7130     7105     7129     7125     7094     7133     7160     7099 
    7091     7134     7121     7111     7141     7117     7090     7132 
    7137     7106     7121     7128     7117     7125     7111     7106 
    7138     7141     7102     7103     7136     7115     7107     7142 
    7121     7099     7125     7128     7115     7123     7126     7107 
    7118     7134     7103     7115     7138     7109     7123     7140 
    7090     7105     7156     7118     7086     7128     7142     7128 
    7114     7105     7114     7115     7133     7146     7102     7096 
    7134     7117     7119     7150     7109     7086     7132     7129 
    7114     7132     7119     7105     7128     7141     7107     7094 
    7126     7149     7137     7101     7091     7130     7153     7119 
    7091     7110     7136     7133     7102     7111     7149     7110 
    7101     7145     7098     7096     7176     7136     7082     7123 
    7123     7107     7144     7119     7084     7146     7153     7096 
    7107     7122     7113     7138     7136     7103     7110     7126 
    7122     7129     7130     7107     7106     7130     7134     7123 
    7125     7117     7101     7121     7141     7129     7126     7110 
    7092     7126     7145     7126     7111     7109     7123     7133 
    7113     7113     7140     7129     7107     7107     7117     7134 
    7137     7109     7106     7142     7122     7090     7138     7137 
    7105     7125     7121     7109     7129     7141     7119     7101 
    7118     7119     7123     7141     7105     7106     7160     7114 
    7074     7137     7150     7113     7113     7115     7115     7129 
    7130     7111     7114     7132     7110     7103     7129     7129 
    7119     7122     7110     7103     7145     7149     7087     7101 
    7141     7117     7132     7138     7087     7109     7149     7106 
    7109     7159     7113     7080     7140     7149     7115     7122 
    7107     7095     7132     7138     7113     7118     7119     7110 
    7130     7126     7095     7123     7149     7107     7103     7136 
    7126     7129     7125     7084     7121     7159     7113     7103 
    7115     7117     7142     7129     7101     7118     7114     7115 
    7148     7118     7098     7136     7121     7102     7138     7141 
    7101     7094     7132     7138     7113     7122     7118     7101 
    7136     7138     7098     7111     7132     7118     7125     7121 
    7103     7138     7144     7096     7107     7122     7114     7150 
    7140     7084     7109     7134     7107     7138     7144     7091 
    7125     7137     7084     7126     7161     7109     7103     7130 
    7111     7114     7136     7123     7125     7128     7102     7110 
    7134     7119     7123     7138     7105     7103     7126     7118 
    7125     7122     7119     7141     7111     7083     7132     7152 
    7122     7106     7095     7125     7144     7109     7122     7141 
    7113     7114     7119     7111     7123     7130     7123     7132 
    7119     7094     7119     7138     7122     7119     7118     7121 
    7123     7118     7121     7123     7125     7121     7107     7118 
    7136     7122     7125     7122     7091     7123     7159     7107 
    7110     7148     7095     7096     7156     7126     7105     7123 
    7109     7121     7141     7118     7121     7118     7088     7133 
    7171     7109     7080     7134     7144     7095     7107     7149 
    7130     7118     7114     7094     7140     7161     7098     7084 
    7134     7142     7109     7119     7138     7103     7109     7145 
    7113     7109     7145     7107     7096     7148     7122     7096 
    7137     7123     7098     7129     7130     7111     7125     7118 
    7109     7129     7122     7126     7133     7094     7096     7133 
    7142     7142     7103     7082     7128     7138     7129     7128 
    7087     7106     7165     7122     7092     7125     7121     7130 
    7132     7091     7115     7152     7115     7103     7126     7119 
    7110     7134     7144     7114     7098     7110     7125     7137 
    7129     7110     7107     7115     7133     7136     7111     7109 
    7117     7118     7148     7130     7071     7114     7171     7123 
    7092     7122     7118     7114     7145     7115     7096     7144 
    7119     7095     7142     7141     7096     7114     7134     7111 
    7128     7138     7095     7102     7137     7125     7125     7133 
    7094     7103     7159     7126     7095     7140     7123     7080 
    7136     7156     7094     7114     7148     7096     7102     7155 
    7132     7109     7123     7113     7102     7125     7150     7128 
    7094     7130     7157     7102     7075     7065     7022     7006 
    6997     6970     6921     6775     6589     6512     6555     6633 
    6754     6966     7175     7319     7537     7835     8110     8334 
    8386     8267     8118     7825     7294     6744     6463     6527 
    6831     7098     6932     6562     6524     6662     6887     7376 
    7580     7026     6147     5579     5919     7214     8282     8344 
    7905     7199     6405     6272     6957     7757     7804     6952 
    6060     5711     5680     5962     6939     8465     9462     9292 
    8788     8644     8476     7724     6224     4712     4318     4999 
    5881     7123     9325    11441    11655     9832     7439     5702 
    4569     3692     3731     4911     6016     6781     7889     8490 
    7720     6790     6592     6484     6539     7497     8769     8915 
    7693     6045     4612     4144     5749     8876    11488    12510 
   11959    10002     7055     4222     3018     3593     4486     5065 
    5849     7059     8392     9196     8885     7682     6710     6359 
    5576     4484     4637     6278     8276     9408     9381     8989 
    8465     7551     6729     6494     6709     7044     7406     7661 
    7361     6677     6467     6862     7443     8090     8576     8680 
    8355     7465     6327     5444     4803     4725     5776     7360 
    8262     8159     7491     6689     6077     6060     6663     7161 
    7052     6928     7353     7763     7758     8097     8889     8880 
    7738     6674     6280     6135     6435     7503     8347     8149 
    7632     7306     6590     5398     4774     5270     6300     7335 
    7885     7329     6054     5404     6197     7817     8992     9375 
    9346     8827     7820     6971     6637     6593     6654     6650 
    6346     6031     6289     7211     8301     8637     7869     6916 
    6777     7415     8025     7792     6604     5364     5098     5740 
    6605     7291     7612     7466     6859     6162     6015     6478 
    7199     8036     8698     8707     8077     7452     7318     7311 
    6910     6323     6181     6713     7495     7935     7811     7349 
    6928     6824     7036     7425     7874     8109     7932     7476 
    6745     5676     4827     4980     5867     6548     6632     6322 
    6280     6955     7938     8885     9582     9471     8691     7942 
    7399     7209     7539     7866     7717     7253     6658     6041 
    5567     5366     5603     6253     6921     7319     7420     7156 
    6579     6142     6291     6994     8013     8989     9367     8889 
    7719     6350     5547     5513     5875     6596     7568     8167 
    8091     7736     7596     7608     7302     6586     5910     5729 
    6084     6655     7265     7796     7874     7410     6825     6632 
    7053     7935     8887     9294     8779     7703     6652     5935 
    5778     6315     7133     7622     7678     7361     6705     6060 
    5733     5634     5825     6531     7246     7354     7237     7357 
    7551     7636     7624     7653     7632     7223     6720     6786 
    7317     7749     7877     7705     7194     6440     5830     5857 
    6748     8197     9467     9757     8688     6720     4938     4176 
    4502     5609     7128     8496     9244     9231     8517     7433 
    6524     6126     6110     6214     6569     7315     7950     7800 
    6893     5923     5510     5706     6313     7238     8226     8785 
    8688     8118     7427     7142     7403     7622     7504     7420 
    7581     7757     7709     7314     6551     5773     5390     5358 
    5653     6509     7732     8549     8394     7519     6588     5981 
    5872     6331     7121     7844     8124     7731     7007     6636 
    6785     7168     7655     8124     8344     8154     7495     6853 
    6889     7275     7249     6778     6295     6084     6180     6426 
    6685     7002     7387     7595     7384     6987     6814     6918 
    7068     7146     7360     7788     8048     7871     7414     6964 
    6785     6845     6805     6646     6674     7009     7524     7939 
    8009     7819     7450     6712     5854     5556     5850     6378 
    7069     7792     8274     8403     8128     7506     6885     6629 
    6752     7006     7160     7106     6880     6647     6588     6885 
    7561     8226     8270     7518     6565     6016     5991     6571 
    7618     8414     8305     7423     6385     5537     5115     5368 
    6250     7576     8932     9556     9028     7854     6844     6377 
    6555     7182     7807     8140     8016     7345     6323     5455 
    5267     5830     6682     7357     7786     8117     8235     7790 
    6837     5903     5516     6003     7268     8673     9420     9031 
    7677     6122     5178     5220     6151     7497     8429     8378 
    7715     7037     6525     6278     6172     5998     6138     6964 
    8064     8893     9147     8602     7461     6268     5485     5462 
    6224     7344     8209     8398     7908     7051     6308     6058 
    6258     6716     7275     7592     7483     7334     7530     7966 
    8205     7850     7245     6994     6816     6313     5845     5803 
    6215     6928     7547     7824     7807     7472     6920     6471 
    6330     6613     7360     8203     8575     8316     7771     7331 
    7121     6999     6816     6594     6409     6280     6241     6394 
    6890     7619     8085     7952     7492     7187     7172     7229 
    7160     6978     6794     6675     6552     6444     6619     7098 
    7412     7273     6878     6475     6359     6729     7279     7751 
    8149     8255     8029     7763     7447     7134     7177     7404 
    7425     7416     7352     6926     6394     6106     6168     6644 
    7150     7263     7219     7410     7730     7831     7655     7248 
    6540     5691     4988     4788     5563     7129     8468     8920 
    8677     8128     7604     7290     7049     6810     6814     7211 
    7794     8132     8020     7769     7614     7346     6870     6469 
    6473     6814     7096     7186     7179     7136     7171     7225 
    7042     6569     5956     5493     5493     5948     6643     7541 
    8556     9180     9009     8239     7169     6227     6088     6817 
    7740     8336     8473     8217     7894     7867     8121     8526 
    9024     9344     9204     8586     7715     6905     6106     5111 
    4195     3782     4018     4843     5854     6447     6219     5096 
    3454     2003     1354     1833     3412     5553     7489     8618 
    8483     7128     5436     4448     4862     6841     9610    12064 
   13458    13478    12568    11630    11314    11894    13154    14355 
   14758    14075    12437    10331     8302     6652     5501     4765 
    4216     3666     2943     2043     1287      990     1102     1563 
    2400     3222     3616     3690     3593     3510     3735     4230 
    4814     5571     6585     7789     9154    10520    11479    11804 
   11534    10775     9867     9159     8703     8575     8905     9633 
   10590    11457    11720    11065     9682     7996     6389     5238 
    4866     5308     6016     6304     6076     5626     5131     4608 
    4128     3951     4329     5088     5679     5688     5027     3820 
    2421     1509     1852     3689     6502     9420    11511    12294 
   12079    11307    10292     9598     9628    10297    11373    12434 
   12729    11726     9622     7018     4687     3489     3757     5098 
    6886     8357     8761     8043     6906     6076     5910     6241 
    6502     6401     5859     4746     3322     2088     1406     1617 
    2812     4599     6478     8058     8982     9132     8679     7913 
    7134     6631     6663     7182     7821     8455     9247    10345 
   11789    13282    14223    14122    12820    10650     8325     6478 
    5404     5043     4945     4414     3109     1316     -346    -1275 
   -1098      234     2370     4891     7580     9976    11408    11565 
   10532     8769     7119     6447     7103     8753    10662    12071 
   12449    11740    10411     9208     8621     8460     8174     7553 
    6818     6238     5976     6054     6257     6504     6995     7535 
    7469     6507     5023     3585     2502     1950     2069     2857 
    4189     5706     6947     7857     8640     9281     9607     9479 
    9000     8679     8911     9421     9702     9599     9069     8098 
    7082     6431     6064     5726     5196     4338     3554     3478 
    4356     6104     8275     9998    10639    10285     9339     8245 
    7553     7456     7555     7308     6413     4984     3596     2963 
    3464     5098     7427     9564    10840    11099    10528     9664 
    8949     8352     7781     7319     7095     7241     7635     7754 
    7244     6261     5202     4652     5093     6462     8160     9302 
    9146     7659     5474     3373     2182     2361     3537     5162 
    6882     8255     9070     9385     9290     9057     8900     8829 
    8916     9111     9039     8448     7339     5968     4895     4492 
    4676     5159     5617     5857     5949     6154     6740     7744 
    8887     9733     9969     9545     8765     8163     8060     8432 
    8965     9117     8550     7449     6292     5606     5794     6708 
    7626     7911     7291     5822     4063     2693     2046     2299 
    3360     4612     5529     6107     6567     7128     7927     8958 
   10111    11227    12118    12517    12185    11161     9749     8328 
    7165     6369     5854     5351     4777     4272     3870     3703 
    3986     4608     5285     5907     6412     6799     7323     8098 
    8989     9844    10363    10324     9825     8910     7599     6204 
    5167     4733     4963     5733     6571     7005     6988     6748 
    6714     7310     8419     9521    10098     9751     8482     6856 
    5575     5078     5414     6241     6991     7245     7133     7045 
    7136     7396     7684     7778     7628     7298     6885     6515 
    6151     5660     5078     4527     4135     4162     4766     5783 
    6905     7931     8839     9652    10430    11291    12087    12442 
   12070    10952     9396     7846     6639     5837     5262     4797 
    4272     3491     2578     1806     1553     2215     3731     5632 
    7538     9265    10566    11277    11452    11087    10323     9452 
    8492     7353     6188     5379     5317     6003     7013     7954 
    8683     9034     8883     8332     7515     6663     6029     5579 
    5206     4961     4884     4891     4959     5146     5381     5717 
    6342     7160     7834     8155     8205     8158     8176     8418 
    8743     8831     8591     8005     7144     6272     5576     5140 
    5015     5124     5394     5900     6740     7854     9059    10120 
   10774    10921    10724    10314     9694     8982     8306     7668 
    7056     6408     5686     4951     4329     3978     3946     4137 
    4402     4669     5044     5628     6448     7427     8382     9181 
    9598     9444     8947     8394     7867     7446     7149     6894 
    6596     6220     5877     5715     5819     6178     6631     6972 
    7157     7318     7572     7848     7942     7773     7469     7146 
    6952     7088     7508     7997     8376     8328     7732     6914 
    6268     6066     6309     6777     7411     8168     8722     8806 
    8468     7780     6872     6043     5498     5433     6018     7024 
    7923     8297     8052     7292     6277     5462     5202     5525 
    6264     7045     7479     7515     7230     6717     6187     5742 
    5497     5702     6435     7496     8569     9394     9782     9558 
    8780     7735     6740     6226     6454     7133     7844     8345 
    8410     7965     7210     6411     5834     5706     6004     6473 
    6889     7134     7196     7177     7086     6893     6754     6778 
    6879     6879     6737     6685     6882     7217     7624     8031 
    8160     7888     7442     7125     7086     7287     7526     7639 
    7574     7325     7038     6955     7115     7415     7677     7628 
    7229     6670     6004     5413     5278     5675     6465     7493 
    8367     8653     8340     7686     6887     6234     5988     6127 
    6588     7106     7296     7187     6934     6592     6365     6478 
    6934     7631     8428     9018     9142     8802     8122     7350 
    6762     6480     6546     6849     7129     7191     7045     6720 
    6289     6006     6006     6285     6781     7354     7825     7997 
    7905     7704     7416     7194     7199     7291     7337     7281 
    6963     6450     6035     5867     6064     6686     7516     8100 
    8132     7668     6894     6145     5799     5971     6582     7445 
    8257     8766     8833     8527     8086     7599     7098     6754 
    6610     6573     6608     6654     6671     6700     6763     6939 
    7245     7495     7560     7425     7064     6629     6420     6474 
    6700     7110     7562     7831     7807     7510     7055     6531 
    6069     5904     6015     6207     6488     6848     7168     7500 
    7882     8121     8212     8279     8221     8009     7720     7344 
    7057     7067     7272     7541     7788     7798     7450     6907 
    6374     5964     5819     5977     6291     6709     7141     7423 
    7580     7643     7626     7616     7608     7523     7408     7322 
    7152     6864     6583     6382     6299     6413     6718     6995 
    7065     6939     6663     6412     6389     6555     6870     7265 
    7534     7649     7692     7661     7707     7900     8032     8036 
    7989     7847     7624     7404     7186     7003     6933     6902 
