Origin Time       2025/03/29 04:45:00
Lat.              31.090
Long.             131.512
Depth. (km)       33
Mag.              4.6
Station Code      KGS021
Station Lat.      31.2535
Station Long.     130.6324
Station Height(m) 8
Record Time       2025/03/29 04:45:43
Sampling Freq(Hz) 100Hz
Duration Time(s)  60
Dir.              E-W
Scale Factor      3920(gal)/6182761
Max. Acc. (gal)   4.611
Last Correction   2025/03/29 04:45:43
Memo.             
[...]
    6698     6156     5823     5781     6137     6759     7272     7489 
    7513     7451     7362     7279     7181     7042     6826     6537 
    6273     6112     6065     6192     6537     7047     7655     8221 
    8524     8479     8145     7639     7193     7036     7165     7395 
    7523     7404     7012     6474     6067     6081     6472     6853 
    6949     6876     6893     7003     7021     6940     6850     6761 
    6690     6607     6491     6526     6868     7345     7643     7625 
    7422     7236     7115     7026     7030     7215     7571     7950 
    8160     8102     7797     7327     6777     6267     5968     6026 
    6461     7062     7513     7661     7520     7155     6713     6431 
    6455     6683     6887     6946     6955     7122     7533     8050 
    8453     8607     8441     7988     7430     6909     6457     6112 
    5903     5866     6042     6392     6820     7270     7739     8205 
    8545     8579     8239     7639     7004     6569     6398     6335 
    6234     6089     5921     5752     5680     5828     6241     6846 
    7463     7880     8010     7914     7653     7319     7091     7032 
    7064     7172     7285     7231     7061     7012     7152     7392 
    7642     7803     7777     7516     7099     6718     6497     6427 
    6466     6553     6664     6823     6962     6964     6851     6773 
    6816     6919     7050     7262     7521     7653     7506     7110 
    6669     6439     6571     6975     7396     7597     7551     7443 
    7368     7300     7312     7450     7557     7496     7292     7024 
    6794     6672     6653     6746     6912     7028     7079     7161 
    7284     7339     7252     7105     7030     7060     7161     7328 
    7504     7522     7299     6924     6526     6244     6246     6588 
    7064     7351     7347     7183     7042     7089     7360     7699 
    7918     7939     7735     7336     6917     6651     6603     6758 
    6979     7120     7134     7020     6799     6515     6257     6167 
    6316     6650     7094     7499     7654     7545     7319     7074 
    6911     6927     7126     7449     7830     8179     8323     8177 
    7804     7267     6657     6138     5840     5780     5911     6156 
    6378     6516     6658     6830     7012     7191     7259     7135 
    6917     6719     6553     6468     6568     6822     7077     7286 
    7516     7807     8159     8527     8741     8607     8111     7426 
    6749     6209     5879     5784     5915     6202     6529     6823 
    7100     7385     7642     7822     7909     7824     7575     7313 
    7081     6894     6813     6729     6547     6365     6306     6422 
    6683     6999     7269     7451     7605     7830     8117     8358 
    8422     8259     7926     7498     7091     6859     6819     6887 
    7025     7170     7273     7322     7267     7115     6959     6878 
    6842     6713     6434     6095     5781     5549     5498     5691 
    6020     6354     6659     6959     7295     7654     7971     8202 
    8371     8498     8501     8353     8127     7874     7673     7608 
    7649     7705     7656     7446     7152     6823     6459     6115 
    5809     5512     5269     5118     5081     5197     5419     5680 
    6008     6364     6680     7020     7476     8024     8579     9032 
    9269     9261     9052     8684     8270     7933     7644     7319 
    6947     6545     6192     6007     6031     6240     6567     6897 
    7145     7273     7292     7216     6998     6663     6326     6091 
    6021     6100     6263     6455     6660     6918     7253     7617 
    7940     8170     8255     8172     7973     7715     7445     7231 
    7085     6963     6843     6739     6726     6874     7122     7308 
    7360     7367     7413     7469     7515     7558     7484     7191 
    6777     6372     6035     5850     5880     6102     6461     6869 
    7206     7424     7547     7601     7626     7658     7660     7632 
    7586     7450     7229     7020     6846     6705     6635     6671 
    6815     7013     7207     7399     7560     7611     7553     7444 
    7314     7197     7116     7014     6817     6574     6415     6413 
    6552     6741     6866     6849     6727     6595     6467     6352 
    6279     6193     6098     6059     6077     6173     6340     6514 
    6760     7188     7744     8286     8703     8893     8808     8549 
    8273     8032     7751     7388     6987     6586     6262     6106 
    6131     6354     6794     7349     7849     8154     8194     8024 
    7753     7470     7233     7001     6712     6384     6057     5818 
    5765     5939     6336     6839     7264     7531     7654     7686 
    7682     7664     7678     7744     7772     7693     7545     7389 
    7277     7241     7235     7177     7041     6851     6704     6702 
    6799     6914     7067     7219     7255     7196     7142     7120 
    7133     7161     7146     7088     7041     7027     7051     7099 
    7123     7088     6992     6823     6587     6324     6124     6085 
    6218     6516     6947     7359     7604     7625     7465     7305 
    7275     7331     7393     7400     7292     7096     6938     6957 
    7179     7488     7793     8055     8195     8171     8006     7671 
    7149     6547     6021     5627     5355     5222     5219     5316 
    5476     5661     5858     6117     6523     7088     7730     8352 
    8821     9006     8940     8762     8553     8370     8263     8177 
    8034     7819     7505     7084     6616     6132     5701     5468 
    5463     5567     5678     5770     5881     6069     6318     6608 
    6963     7343     7722     8084     8347     8526     8636     8608 
    8480     8312     8062     7759     7485     7192     6847     6553 
    6384     6340     6406     6539     6701     6897     7177     7505 
    7753     7856     7779     7486     7058     6628     6238     5937 
    5801     5833     6016     6288     6512     6660     6766     6798 
    6824     6966     7209     7464     7643     7689     7636     7541 
    7448     7397     7424     7523     7635     7670     7577     7421 
    7272     7118     6908     6581     6140     5697     5388     5305 
    5526     6071     6842     7680     8429     8976     9266     9280 
    9091     8810     8499     8209     7907     7511     7023     6479 
    5947     5584     5477     5545     5664     5779     5880     5995 
    6159     6337     6457     6511     6580     6731     6959     7247 
    7535     7744     7858     7875     7781     7611     7436     7298 
    7247     7339     7496     7564     7499     7351     7140     6878 
    6659     6608     6775     7100     7446     7697     7802     7743 
    7584     7444     7363     7267     7107     6915     6740     6585 
    6441     6338     6267     6194     6141     6177     6345     6643 
    7023     7406     7702     7875     7924     7841     7686     7508 
    7304     7151     7122     7154     7161     7114     7023     6909 
    6826     6815     6864     6952     7037     7052     6960     6802 
    6661     6605     6681     6888     7133     7362     7594     7764 
    7845     7940     8046     8063     7988     7809     7486     7078 
    6666     6316     6117     6122     6278     6497     6704     6825 
    6843     6807     6821     6973     7204     7420     7588     7651 
    7584     7415     7175     6952     6817     6742     6718     6750 
    6790     6806     6830     6937     7185     7500     7767     7948 
    7998     7935     7844     7713     7539     7391     7267     7156 
    7058     6928     6766     6599     6440     6363     6414     6510 
    6579     6600     6562     6488     6429     6444     6570     6788 
    7069     7443     7908     8376     8766     8993     8974     8710 
    8226     7630     7099     6670     6312     6049     5858     5720 
    5657     5669     5779     6007     6328     6709     7086     7376 
    7567     7671     7682     7665     7619     7456     7207     6956 
    6734     6572     6466     6394     6337     6267     6188     6108 
    6048     6046     6074     6083     6136     6280     6460     6743 
    7199     7701     8139     8474     8667     8755     8821     8954 
    9186     9431     9571     9502     9128     8487     7704     6812 
    5888     5147     4643     4295     4155     4212     4328     4476 
    4647     4759     4880     5146     5539     6030     6575     7014 
    7288     7464     7567     7628     7694     7815     8035     8355 
    8822     9461    10064    10404    10416    10029     9302     8535 
    7963     7705     7850     8267     8651     8784     8564     7962 
    7125     6364     5882     5658     5587     5499     5202     4666 
    4027     3437     3040     3009     3403     4086     4883     5707 
    6477     7141     7787     8495     9186     9769    10187    10401 
   10449    10404    10313    10160     9885     9432     8816     8158 
    7560     7067     6678     6276     5802     5435     5261     5261 
    5530     5992     6499     7009     7386     7610     7798     7967 
    8176     8430     8571     8550     8393     8091     7746     7420 
    7019     6568     6171     5849     5684     5740     5913     6108 
    6235     6148     5888     5668     5655     5892     6256     6546 
    6596     6360     5972     5630     5478     5572     5852     6210 
    6562     6824     6967     7019     6994     6936     6894     6911 
    7070     7393     7836     8360     8837     9123     9272     9380 
    9311     8957     8509     7971     7197     6431     5923     5716 
    5881     6281     6672     7028     7394     7803     8303     8857 
    9311     9533     9426     8873     7906     6785     5743     4967 
    4631     4666     4888     5217     5514     5684     5765     5738 
    5646     5593     5532     5449     5490     5687     5982     6414 
    6947     7479     8032     8641     9258     9813    10290    10732 
   11128    11473    11831    12155    12274    12043    11391    10389 
    9159     7783     6402     5190     4188     3257     2307     1436 
     779      447      578     1193     2149     3272     4307     5017 
    5436     5688     5883     6194     6705     7375     8117     8825 
    9415     9891    10317    10632    10709    10514    10003     9239 
    8396     7602     7013     6701     6589     6604     6620     6563 
    6517     6495     6403     6258     6150     6102     6129     6257 
    6462     6748     7135     7613     8182     8800     9376     9768 
    9838     9588     9124     8543     7997     7667     7595     7747 
    8080     8436     8574     8298     7590     6629     5619     4648 
    3743     2932     2200     1567     1170     1138     1594     2655 
    4230     6096     8068     9914    11360    12279    12693    12678 
   12397    12031    11651    11272    10859    10322     9560     8456 
    6974     5287     3696     2481     1801     1680     2068     2788 
    3582     4303     4911     5389     5731     5950     6143     6400 
    6672     6955     7302     7629     7875     8117     8424     8764 
    9039     9206     9294     9260     9052     8746     8393     7996 
    7638     7415     7394     7583     7874     8182     8461     8540 
    8271     7733     7082     6391     5784     5398     5204     5106 
    5034     4946     4869     4820     4815     4918     5160     5516 
    5966     6535     7181     7838     8580     9417    10224    10908 
   11380    11589    11538    11212    10650     9973     9282     8604 
    7919     7176     6298     5280     4247     3354     2714     2405 
    2481     2942     3702     4687     5885     7173     8386     9465 
   10396    11093    11434    11413    11077    10476     9754     8980 
    8099     7112     6067     5016     3986     2991     2133     1533 
    1239     1277     1680     2405     3358     4459     5648     6869 
    8068     9203    10222    11049    11639    11997    12122    11966 
   11482    10736     9843     8862     7832     6765     5724     4836 
    4171     3833     3913     4336     4992     5728     6323     6724 
    6961     7000     6835     6499     6025     5507     5069     4797 
    4790     5184     5957     6943     7984     8979     9899    10653 
   11125    11369    11508    11608    11680    11699    11680    11599 
   11341    10808     9944     8718     7189     5520     3906     2485 
    1356      607      212      110      362      980     1881     3041 
    4376     5733     7020     8110     8918     9544    10079    10527 
   10854    10991    10943    10724    10281     9659     8942     8135 
    7311     6544     5829     5225     4807     4622     4745     5159 
    5760     6479     7215     7844     8306     8596     8697     8572 
    8219     7716     7141     6552     6033     5569     5105     4694 
    4311     3872     3416     3005     2696     2603     2773     3174 
    3805     4673     5721     6926     8244     9528    10700    11733 
   12514    12972    13113    12934    12455    11769    10972    10149 
    9376     8624     7891     7284     6784     6368     6168     6175 
    6255     6411     6626     6770     6809     6793     6721     6583 
    6378     6087     5757     5494     5359     5443     5794     6313 
    6948     7694     8428     9056     9561     9908    10094    10142 
   10044     9766     9290     8581     7574     6302     4911     3512 
    2164      993      171     -195      -94      410     1206     2191 
    3313     4558     5886     7266     8706    10121    11326    12222 
   12817    13165    13285    13145    12741    12072    11160    10109 
    8967     7740     6487     5295     4249     3418     2844     2566 
    2602     2910     3424     4071     4736     5376     6042     6658 
    7138     7558     7913     8126     8235     8254     8224     8276 
    8408     8584     8834     9084     9264     9374     9361     9187 
    8875     8467     8048     7698     7432     7246     7112     6976 
    6835     6713     6619     6566     6503     6376     6238     6117 
    6011     5967     6018     6181     6459     6781     7093     7386 
    7618     7762     7847     7855     7748     7522     7141     6594 
    5931     5239     4630     4195     3992     4069     4435     5020 
    5720     6451     7105     7625     7987     8145     8151     8085 
    7935     7674     7328     7013     6790     6615     6509     6537 
    6748     7174     7744     8307     8760     9088     9312     9462 
    9469     9242     8873     8458     7982     7452     6880     6290 
    5753     5332     5075     5015     5146     5453     5927     6491 
    7060     7653     8242     8735     9132     9423     9547     9476 
    9234     8876     8406     7866     7357     6872     6413     6065 
    5852     5729     5688     5712     5747     5831     5972     6089 
    6193     6297     6340     6333     6335     6394     6554     6816 
    7152     7550     7965     8332     8645     8915     9121     9238 
    9237     9065     8700     8182     7539     6798     6034     5271 
    4495     3748     3104     2605     2287     2227     2468     2997 
    3760     4649     5584     6553     7515     8385     9078     9590 
   10059    10586    11096    11522    11874    12045    11894    11435 
   10708     9703     8471     7122     5799     4653     3750     3106 
    2803     2866     3181     3704     4476     5404     6325     7152 
    7843     8356     8659     8795     8835     8806     8721     8598 
    8486     8454     8530     8700     8916     9147     9371     9504 
    9489     9371     9196     8977     8762     8578     8365     8103 
    7842     7610     7406     7181     6858     6414     5866     5228 
    4536     3846     3184     2579     2113     1867     1854     2054 
    2476     3144     4023     5017     6034     6999     7869     8670 
    9381     9895    10198    10333    10258     9993     9624     9173 
    8672     8222     7843     7471     7085     6704     6362     6087 
    5907     5844     5875     5978     6165     6412     6669     6929 
    7178     7356     7430     7392     7246     7058     6888     6739 
    6633     6639     6750     6912     7097     7278     7423     7556 
    7697     7798     7855     7958     8128     8307     8474     8608 
    8651     8606     8512     8348     8085     7737     7312     6832 
    6345     5877     5430     5063     4824     4660     4563     4586 
    4692     4817     5011     5338     5765     6271     6851     7409 
    7897     8333     8675     8916     9092     9180     9186     9141 
    9031     8858     8661     8454     8265     8107     7949     7786 
    7608     7376     7097     6809     6524     6251     6024     5872 
    5803     5850     6013     6257     6550     6850     7157     7480 
    7761     7940     8012     7998     7893     7723     7531     7329 
    7155     7027     6918     6827     6754     6689     6605     6482 
    6326     6141     5913     5630     5324     5053     4835     4684 
    4610     4594     4642     4766     4953     5213     5558     5974 
    6476     7060     7638     8155     8627     8995     9236     9409 
    9497     9487     9405     9236     8998     8748     8518     8324 
    8188     8139     8170     8242     8359     8545     8737     8857 
    8901     8835     8617     8303     7910     7396     6787     6141 
    5435     4687     4012     3459     3019     2757     2712     2842 
    3144     3643     4289     5033     5878     6764     7608     8380 
    9033     9515     9861    10102    10213    10216    10150    10011 
    9812     9539     9157     8709     8247     7784     7361     6999 
    6686     6429     6230     6066     5943     5897     5915     5987 
    6109     6225     6298     6339     6336     6266     6139     5995 
    5889     5876     5982     6188     6484     6884     7344     7805 
    8270     8701     9023     9239     9362     9375     9286     9076 
    8734     8338     7928     7513     7132     6796     6500     6234 
    5982     5789     5690     5656     5708     5885     6121     6364 
    6654     6980     7278     7532     7748     7887     7913     7840 
    7704     7522     7295     7031     6736     6413     6107     5845 
    5641     5550     5589     5729     5952     6221     6505     6800 
    7089     7327     7471     7501     7454     7387     7296     7154 
    6977     6834     6763     6725     6705     6707     6678     6605 
    6511     6403     6303     6242     6232     6304     6462     6645 
    6847     7095     7357     7633     7967     8320     8658     9022 
    9390     9697     9945    10112    10144    10057     9871     9608 
    9294     8915     8493     8087     7697     7331     7026     6772 
    6547     6366     6176     5935     5710     5494     5282     5164 
    5114     5071     5055     5073     5094     5089     5057     5011 
    4948     4878     4817     4766     4735     4782     4933     5156 
    5467     5875     6325     6781     7208     7562     7830     8024 
    8152     8231     8289     8348     8417     8500     8602     8716 
    8817     8905     8995     9036     9019     9012     9000     8941 
    8889     8862     8824     8773     8707     8605     8459     8271 
