Origin Time       2025/03/29 04:45:00
Lat.              31.090
Long.             131.512
Depth. (km)       33
Mag.              4.6
Station Code      KGS009
Station Lat.      31.7368
Station Long.     130.7613
Station Height(m) 4
Record Time       2025/03/29 04:45:45
Sampling Freq(Hz) 100Hz
Duration Time(s)  64
Dir.              N-S
Scale Factor      3920(gal)/6182761
Max. Acc. (gal)   3.223
Last Correction   2025/03/29 04:45:45
Memo.             
[...]
   -7926    -7906    -7881    -7849    -7827    -7822    -7816    -7807 
   -7817    -7872    -7965    -8059    -8121    -8115    -8041    -7949 
   -7857    -7759    -7687    -7650    -7614    -7606    -7656    -7717 
   -7759    -7785    -7761    -7693    -7666    -7694    -7737    -7797 
   -7864    -7919    -7972    -8029    -8092    -8157    -8216    -8264 
   -8286    -8268    -8218    -8150    -8084    -8052    -8045    -8026 
   -7968    -7897    -7848    -7792    -7711    -7644    -7616    -7621 
   -7632    -7591    -7483    -7369    -7304    -7296    -7348    -7454 
   -7576    -7692    -7837    -8048    -8298    -8534    -8702    -8756 
   -8692    -8550    -8411    -8328    -8263    -8157    -7985    -7746 
   -7495    -7334    -7348    -7499    -7665    -7818    -7943    -7956 
   -7849    -7679    -7455    -7235    -7132    -7181    -7310    -7402 
   -7398    -7351    -7373    -7528    -7802    -8145    -8493    -8768 
   -8885    -8800    -8576    -8347    -8176    -8052    -7970    -7952 
   -8057    -8292    -8554    -8694    -8634    -8405    -8085    -7779 
   -7588    -7519    -7484    -7416    -7317    -7211    -7157    -7209 
   -7335    -7434    -7434    -7306    -7076    -6877    -6895    -7224 
   -7745    -8247    -8606    -8749    -8675    -8500    -8334    -8232 
   -8257    -8422    -8619    -8744    -8780    -8738    -8593    -8334 
   -8028    -7741    -7519    -7417    -7449    -7552    -7609    -7508 
   -7234    -6859    -6491    -6265    -6299    -6604    -7070    -7509 
   -7765    -7828    -7790    -7765    -7852    -8101    -8501    -8970 
   -9365    -9596    -9661    -9595    -9453    -9265    -9027    -8719 
   -8308    -7836    -7429    -7159    -7055    -7106    -7207    -7263 
   -7269    -7205    -7031    -6787    -6561    -6443    -6516    -6780 
   -7142    -7493    -7773    -7973    -8100    -8167    -8252    -8461 
   -8813    -9195    -9434    -9406    -9093    -8577    -8062    -7789 
   -7853    -8141    -8429    -8522    -8350    -7971    -7489    -7027 
   -6734    -6661    -6749    -6942    -7163    -7350    -7512    -7655 
   -7736    -7744    -7743    -7788    -7875    -7966    -8019    -8009 
   -7993    -8065    -8203    -8333    -8430    -8460    -8405    -8310 
   -8237    -8202    -8133    -7970    -7753    -7535    -7342    -7203 
   -7151    -7192    -7320    -7500    -7639    -7711    -7815    -8005 
   -8230    -8373    -8343    -8195    -8062    -8023    -8058    -8077 
   -8034    -7955    -7915    -7997    -8188    -8388    -8492    -8460 
   -8333    -8165    -7973    -7788    -7632    -7501    -7421    -7383 
   -7330    -7297    -7368    -7568    -7871    -8225    -8549    -8730 
   -8680    -8417    -8020    -7572    -7162    -6892    -6826    -6915 
   -7061    -7237    -7488    -7832    -8211    -8525    -8687    -8642 
   -8428    -8163    -7925    -7725    -7580    -7553    -7676    -7892 
   -8148    -8410    -8589    -8572    -8334    -7973    -7624    -7392 
   -7356    -7499    -7696    -7843    -7904    -7842    -7653    -7402 
   -7138    -6882    -6699    -6698    -6971    -7517    -8225    -8918 
   -9411    -9620    -9560    -9272    -8856    -8458    -8178    -8045 
   -8028    -8036    -7961    -7734    -7395    -7041    -6756    -6613 
   -6678    -6947    -7325    -7669    -7877    -7924    -7864    -7812 
   -7851    -7979    -8152    -8332    -8487    -8609    -8703    -8765 
   -8771    -8717    -8612    -8447    -8220    -7974    -7765    -7591 
   -7413    -7218    -7036    -6929    -6952    -7096    -7302    -7492 
   -7579    -7556    -7525    -7550    -7607    -7681    -7818    -8057 
   -8359    -8651    -8851    -8882    -8748    -8500    -8166    -7810 
   -7522    -7351    -7282    -7277    -7316    -7388    -7491    -7641 
   -7858    -8096    -8285    -8413    -8484    -8451    -8296    -8075 
   -7814    -7522    -7274    -7133    -7132    -7269    -7469    -7670 
   -7819    -7842    -7761    -7672    -7636    -7673    -7786    -7956 
   -8158    -8370    -8557    -8681    -8697    -8609    -8504    -8397 
   -8247    -8078    -7896    -7651    -7361    -7134    -7076    -7207 
   -7436    -7647    -7760    -7736    -7626    -7521    -7451    -7436 
   -7518    -7697    -7954    -8241    -8455    -8526    -8476    -8365 
   -8251    -8177    -8138    -8082    -7967    -7815    -7670    -7549 
   -7492    -7551    -7733    -8005    -8293    -8487    -8526    -8403 
   -8157    -7880    -7642    -7479    -7441    -7515    -7617    -7691 
   -7712    -7679    -7603    -7479    -7323    -7199    -7169    -7262 
   -7471    -7770    -8109    -8430    -8714    -8945    -9092    -9137 
   -9064    -8879    -8603    -8267    -7939    -7664    -7448    -7306 
   -7258    -7287    -7374    -7484    -7553    -7553    -7501    -7426 
   -7354    -7301    -7257    -7217    -7207    -7256    -7367    -7516 
   -7679    -7858    -8025    -8133    -8172    -8149    -8064    -7964 
   -7922    -7962    -8078    -8274    -8523    -8766    -8966    -9100 
   -9140    -9076    -8910    -8643    -8295    -7942    -7667    -7474 
   -7340    -7254    -7172    -7072    -6994    -6995    -7109    -7343 
   -7642    -7889    -8017    -8070    -8080    -8022    -7904    -7737 
   -7516    -7332    -7279    -7325    -7430    -7600    -7789    -7917 
   -7978    -8029    -8079    -8110    -8136    -8163    -8150    -8097 
   -8068    -8080    -8121    -8195    -8285    -8346    -8386    -8432 
   -8452    -8419    -8346    -8254    -8161    -8049    -7905    -7742 
   -7556    -7375    -7246    -7166    -7126    -7133    -7199    -7324 
   -7474    -7622    -7758    -7863    -7936    -7982    -8032    -8111 
   -8178    -8204    -8209    -8190    -8152    -8135    -8153    -8174 
   -8156    -8092    -8003    -7924    -7871    -7814    -7738    -7643 
   -7520    -7386    -7273    -7212    -7251    -7392    -7584    -7788 
   -7981    -8155    -8286    -8346    -8338    -8321    -8330    -8341 
   -8372    -8427    -8461    -8452    -8406    -8325    -8199    -8030 
   -7839    -7657    -7503    -7365    -7242    -7147    -7100    -7131 
   -7230    -7349    -7428    -7467    -7495    -7523    -7576    -7656 
   -7730    -7749    -7704    -7665    -7673    -7716    -7809    -7968 
   -8137    -8272    -8366    -8396    -8380    -8375    -8383    -8390 
   -8403    -8414    -8388    -8301    -8135    -7911    -7688    -7489 
   -7349    -7291    -7293    -7332    -7400    -7472    -7561    -7687 
   -7799    -7876    -7947    -7980    -7949    -7904    -7894    -7930 
   -7995    -8069    -8108    -8079    -8027    -7992    -7974    -7978 
   -7984    -7955    -7886    -7811    -7761    -7744    -7747    -7766 
   -7814    -7899    -8017    -8144    -8228    -8250    -8215    -8120 
   -7995    -7873    -7759    -7701    -7716    -7745    -7767    -7796 
   -7836    -7911    -8024    -8101    -8047    -7841    -7547    -7260 
   -7050    -6977    -7060    -7222    -7404    -7596    -7758    -7862 
   -7914    -7915    -7884    -7862    -7845    -7823    -7831    -7918 
   -8101    -8359    -8638    -8882    -9047    -9092    -8987    -8744 
   -8433    -8126    -7872    -7721    -7691    -7744    -7831    -7888 
   -7861    -7766    -7627    -7447    -7258    -7101    -6980    -6923 
   -6956    -7080    -7292    -7547    -7799    -8042    -8252    -8384 
   -8415    -8360    -8228    -8035    -7839    -7694    -7625    -7674 
   -7828    -7992    -8111    -8197    -8257    -8289    -8309    -8333 
   -8355    -8344    -8288    -8204    -8095    -7943    -7772    -7641 
   -7554    -7485    -7448    -7430    -7403    -7375    -7368    -7383 
   -7407    -7432    -7477    -7536    -7600    -7698    -7814    -7894 
   -7926    -7942    -8011    -8166    -8338    -8465    -8504    -8433 
   -8303    -8166    -8041    -7939    -7872    -7857    -7881    -7925 
   -8017    -8139    -8240    -8318    -8361    -8308    -8163    -7998 
   -7854    -7738    -7656    -7622    -7652    -7731    -7808    -7855 
   -7876    -7880    -7866    -7845    -7854    -7900    -7933    -7922 
   -7874    -7801    -7767    -7823    -7903    -7949    -7997    -8038 
   -8017    -7939    -7825    -7649    -7439    -7292    -7244    -7284 
   -7434    -7654    -7849    -7995    -8094    -8121    -8089    -8073 
   -8095    -8107    -8079    -7989    -7848    -7680    -7518    -7408 
   -7357    -7352    -7409    -7520    -7632    -7667    -7632    -7622 
   -7683    -7833    -8060    -8281    -8433    -8491    -8456    -8387 
   -8341    -8322    -8287    -8212    -8140    -8082    -8011    -7964 
   -7944    -7855    -7687    -7575    -7597    -7679    -7721    -7706 
   -7655    -7596    -7582    -7619    -7639    -7586    -7492    -7440 
   -7448    -7498    -7576    -7634    -7663    -7682    -7643    -7537 
   -7442    -7409    -7468    -7628    -7850    -8100    -8341    -8544 
   -8712    -8834    -8892    -8883    -8787    -8618    -8433    -8251 
   -8073    -7919    -7785    -7654    -7567    -7565    -7607    -7650 
   -7716    -7809    -7884    -7907    -7860    -7735    -7573    -7427 
   -7332    -7325    -7399    -7502    -7591    -7652    -7674    -7694 
   -7767    -7885    -8000    -8060    -8045    -7945    -7772    -7594 
   -7467    -7415    -7472    -7644    -7875    -8096    -8274    -8394 
   -8430    -8390    -8321    -8231    -8135    -8086    -8090    -8127 
   -8197    -8256    -8255    -8205    -8153    -8086    -7990    -7890 
   -7795    -7713    -7665    -7684    -7767    -7835    -7848    -7819 
   -7720    -7562    -7436    -7390    -7399    -7449    -7517    -7583 
   -7662    -7787    -7958    -8123    -8260    -8390    -8501    -8556 
   -8558    -8519    -8449    -8381    -8341    -8313    -8268    -8205 
   -8136    -8029    -7878    -7721    -7610    -7562    -7569    -7600 
   -7610    -7574    -7508    -7455    -7458    -7512    -7555    -7598 
   -7712    -7847    -7913    -7911    -7864    -7783    -7713    -7686 
   -7723    -7803    -7851    -7855    -7834    -7781    -7708    -7655 
   -7667    -7730    -7790    -7878    -8046    -8232    -8373    -8478 
   -8546    -8546    -8451    -8270    -8014    -7691    -7356    -7100 
   -6970    -6975    -7101    -7273    -7416    -7502    -7552    -7589 
   -7652    -7777    -7942    -8151    -8415    -8638    -8744    -8738 
   -8615    -8393    -8143    -7932    -7782    -7685    -7644    -7660 
   -7723    -7834    -7972    -8098    -8202    -8273    -8297    -8262 
   -8182    -8107    -8096    -8159    -8238    -8263    -8226    -8157 
   -8049    -7878    -7667    -7473    -7325    -7205    -7137    -7154 
   -7218    -7278    -7327    -7344    -7336    -7336    -7313    -7286 
   -7317    -7388    -7505    -7713    -7965    -8163    -8306    -8435 
   -8527    -8545    -8508    -8422    -8290    -8168    -8087    -8033 
   -8000    -7977    -7955    -7920    -7854    -7776    -7713    -7665 
   -7623    -7551    -7427    -7303    -7215    -7147    -7100    -7074 
   -7043    -7001    -6991    -7042    -7131    -7227    -7338    -7486 
   -7682    -7907    -8121    -8283    -8382    -8449    -8498    -8543 
   -8627    -8754    -8899    -9048    -9169    -9239    -9258    -9211 
   -9097    -8944    -8789    -8658    -8540    -8416    -8301    -8201 
   -8115    -8040    -7945    -7821    -7666    -7468    -7261    -7096 
   -6968    -6849    -6728    -6610    -6491    -6366    -6233    -6077 
   -5892    -5742    -5705    -5773    -5932    -6190    -6507    -6863 
   -7295    -7785    -8276    -8737    -9129    -9434    -9680    -9873 
   -9985   -10022   -10001    -9898    -9721    -9529    -9346    -9147 
   -8917    -8668    -8418    -8210    -8082    -8026    -8015    -8056 
   -8153    -8266    -8327    -8321    -8277    -8216    -8141    -8045 
   -7898    -7668    -7369    -7027    -6652    -6267    -5922    -5660 
   -5498    -5449    -5539    -5789    -6161    -6579    -7003    -7405 
   -7741    -8029    -8324    -8624    -8912    -9203    -9508    -9809 
  -10089   -10338   -10524   -10603   -10562   -10408   -10156    -9845 
   -9495    -9099    -8660    -8186    -7681    -7183    -6751    -6451 
   -6304    -6273    -6325    -6463    -6667    -6873    -7005    -7043 
   -7034    -6987    -6897    -6801    -6732    -6696    -6699    -6746 
   -6851    -7040    -7280    -7469    -7565    -7583    -7521    -7399 
   -7260    -7173    -7234    -7476    -7873    -8375    -8861    -9203 
   -9373    -9362    -9170    -8865    -8524    -8171    -7818    -7530 
   -7407    -7478    -7705    -8062    -8514    -8985    -9396    -9634 
   -9612    -9362    -8958    -8512    -8180    -8022    -8018    -8134 
   -8283    -8359    -8315    -8122    -7775    -7330    -6894    -6562 
   -6381    -6363    -6483    -6689    -6964    -7340    -7796    -8231 
   -8572    -8784    -8847    -8733    -8435    -8021    -7606    -7294 
   -7147    -7162    -7307    -7557    -7862    -8155    -8395    -8582 
   -8723    -8822    -8919    -9047    -9150    -9198    -9192    -9048 
   -8728    -8294    -7766    -7164    -6576    -6054    -5607    -5265 
   -5063    -4977    -4961    -5024    -5185    -5424    -5726    -6094 
   -6537    -7069    -7718    -8471    -9244    -9980   -10677   -11279 
  -11701   -11906   -11869   -11584   -11088   -10408    -9596    -8729 
   -7877    -7059    -6251    -5469    -4768    -4191    -3804    -3663 
   -3755    -4027    -4432    -4897    -5338    -5740    -6131    -6515 
   -6911    -7344    -7811    -8316    -8844    -9388    -9965   -10598 
  -11272   -11921   -12460   -12829   -12958   -12765   -12250   -11515 
  -10673    -9835    -9121    -8549    -8087    -7774    -7627    -7569 
   -7546    -7582    -7697    -7854    -7986    -8030    -7952    -7758 
   -7471    -7090    -6622    -6098    -5534    -4971    -4508    -4254 
   -4267    -4562    -5110    -5854    -6761    -7759    -8734    -9598 
  -10268   -10663   -10787   -10706   -10481   -10113    -9574    -8880 
   -8070    -7214    -6402    -5693    -5133    -4772    -4635    -4728 
   -5091    -5733    -6570    -7479    -8341    -9063    -9594    -9879 
   -9849    -9491    -8895    -8208    -7552    -6987    -6558    -6312 
   -6244    -6346    -6587    -6871    -7168    -7500    -7809    -8026 
   -8150    -8193    -8146    -7983    -7699    -7356    -7017    -6711 
   -6513    -6493    -6643    -6947    -7370    -7826    -8252    -8601 
   -8832    -8944    -8979    -8988    -9029    -9149    -9352    -9608 
   -9866   -10071   -10176   -10113    -9814    -9277    -8583    -7850 
   -7175    -6604    -6178    -5930    -5856    -5940    -6168    -6483 
   -6785    -7027    -7202    -7317    -7392    -7452    -7536    -7646 
   -7754    -7855    -7938    -8012    -8064    -8012    -7832    -7552 
   -7238    -6964    -6723    -6584    -6707    -7088    -7626    -8304 
   -9084    -9862   -10557   -11112   -11477   -11632   -11602   -11422 
  -11092   -10586    -9925    -9163    -8331    -7500    -6733    -6084 
   -5654    -5488    -5544    -5788    -6189    -6701    -7263    -7821 
   -8364    -8896    -9357    -9665    -9781    -9697    -9413    -8946 
   -8384    -7847    -7394    -7055    -6835    -6718    -6727    -6873 
   -7106    -7357    -7585    -7801    -8010    -8228    -8511    -8872 
   -9245    -9579    -9874   -10097   -10196   -10148    -9922    -9522 
   -9004    -8422    -7795    -7165    -6628    -6271    -6128    -6195 
   -6456    -6849    -7257    -7613    -7893    -8061    -8117    -8104 
   -8064    -8027    -7988    -7939    -7909    -7904    -7898    -7853 
   -7749    -7617    -7474    -7296    -7098    -6937    -6838    -6785 
   -6795    -6904    -7105    -7333    -7535    -7692    -7782    -7799 
   -7772    -7746    -7755    -7762    -7706    -7589    -7445    -7319 
   -7266    -7306    -7428    -7607    -7790    -7920    -7946    -7833 
   -7599    -7297    -6991    -6725    -6513    -6409    -6478    -6724 
   -7128    -7661    -8254    -8838    -9347    -9706    -9868    -9814 
   -9556    -9135    -8578    -7947    -7332    -6806    -6427    -6214 
   -6132    -6124    -6178    -6288    -6424    -6618    -6840    -6998 
   -7095    -7126    -7055    -6928    -6781    -6618    -6504    -6500 
   -6616    -6819    -7027    -7192    -7358    -7549    -7756    -8004 
   -8274    -8491    -8619    -8664    -8640    -8555    -8428    -8285 
   -8109    -7881    -7666    -7509    -7408    -7405    -7484    -7588 
   -7749    -7988    -8289    -8629    -8968    -9292    -9587    -9808 
   -9920    -9892    -9666    -9257    -8777    -8279    -7769    -7317 
   -7025    -6948    -7062    -7315    -7662    -8024    -8338    -8601 
   -8778    -8824    -8733    -8509    -8167    -7786    -7467    -7251 
   -7141    -7140    -7262    -7531    -7905    -8290    -8636    -8910 
   -9094    -9206    -9258    -9252    -9196    -9119    -9046    -8954 
   -8830    -8704    -8574    -8454    -8397    -8415    -8480    -8540 
   -8577    -8619    -8670    -8747    -8887    -9077    -9299    -9523 
   -9683    -9765    -9773    -9658    -9411    -9079    -8720    -8382 
   -8088    -7864    -7747    -7731    -7791    -7920    -8073    -8174 
   -8182    -8037    -7693    -7195    -6617    -6043    -5571    -5238 
   -5023    -4954    -5080    -5385    -5832    -6362    -6892    -7368 
   -7760    -8041    -8206    -8267    -8243    -8170    -8087    -8035 
   -8053    -8151    -8316    -8513    -8693    -8838    -8929    -8935 
   -8840    -8634    -8342    -8006    -7634    -7254    -6932    -6677 
   -6465    -6298    -6144    -5971    -5792    -5601    -5388    -5165 
   -4960    -4805    -4702    -4646    -4689    -4880    -5232    -5731 
   -6331    -6976    -7628    -8253    -8810    -9264    -9630    -9921 
  -10113   -10224   -10318   -10421   -10500   -10515   -10462   -10343 
  -10139    -9869    -9576    -9245    -8868    -8476    -8070    -7654 
   -7266    -6910    -6588    -6334    -6156    -6048    -6013    -6055 
   -6176    -6347    -6537    -6749    -6975    -7199    -7426    -7642 
   -7812    -7930    -8018    -8064    -8038    -7981    -7953    -7976 
   -8061    -8175    -8279    -8398    -8541    -8686    -8833    -8969 
   -9063    -9126    -9185    -9215    -9177    -9090    -8952    -8712 
   -8376    -8006    -7649    -7331    -7058    -6831    -6692    -6686 
   -6781    -6931    -7136    -7385    -7634    -7860    -8069    -8278 
   -8506    -8714    -8855    -8939    -8965    -8911    -8801    -8656 
   -8480    -8322    -8247    -8238    -8264    -8352    -8494    -8648 
   -8815    -8974    -9050    -9018    -8892    -8651    -8293    -7851 
   -7355    -6867    -6469    -6153    -5894    -5714    -5644    -5686 
   -5827    -6056    -6349    -6702    -7138    -7614    -8078    -8524 
   -8927    -9280    -9589    -9845   -10076   -10295   -10472   -10647 
  -10841   -10983   -11058   -11082   -11018   -10859   -10622   -10272 
   -9795    -9239    -8657    -8053    -7421    -6788    -6186    -5621 
   -5100    -4646    -4283    -4030    -3885    -3832    -3887    -4074 
   -4385    -4773    -5206    -5691    -6223    -6779    -7310    -7766 
   -8150    -8462    -8700    -8871    -8962    -8990    -8988    -8959 
   -8930    -8922    -8923    -8955    -9037    -9130    -9181    -9163 
   -9071    -8920    -8732    -8498    -8209    -7897    -7595    -7308 
   -7058    -6871    -6740    -6637    -6563    -6540    -6578    -6672 
