Origin Time       2025/03/29 04:45:00
Lat.              31.090
Long.             131.512
Depth. (km)       33
Mag.              4.6
Station Code      KGS017
Station Lat.      31.3954
Station Long.     130.8702
Station Height(m) 64
Record Time       2025/03/29 04:45:36
Sampling Freq(Hz) 100Hz
Duration Time(s)  60
Dir.              N-S
Scale Factor      3920(gal)/6182761
Max. Acc. (gal)   16.261
Last Correction   2025/03/29 04:45:36
Memo.             
[...]
   -4618    -4623    -4625    -4630    -4619    -4600    -4599    -4611 
   -4622    -4612    -4602    -4633    -4652    -4628    -4625    -4624 
   -4596    -4589    -4608    -4619    -4626    -4637    -4629    -4612 
   -4617    -4617    -4608    -4611    -4604    -4601    -4624    -4631 
   -4616    -4620    -4621    -4602    -4602    -4615    -4617    -4623 
   -4631    -4628    -4623    -4619    -4610    -4601    -4607    -4622 
   -4628    -4628    -4621    -4613    -4618    -4618    -4601    -4606 
   -4630    -4631    -4626    -4627    -4611    -4599    -4596    -4600 
   -4616    -4624    -4622    -4623    -4619    -4627    -4638    -4618 
   -4600    -4609    -4611    -4621    -4639    -4623    -4604    -4618 
   -4618    -4601    -4616    -4632    -4621    -4617    -4624    -4630 
   -4623    -4611    -4604    -4598    -4599    -4608    -4623    -4635 
   -4633    -4623    -4617    -4610    -4608    -4617    -4613    -4609 
   -4632    -4632    -4601    -4593    -4608    -4615    -4621    -4633 
   -4633    -4630    -4630    -4613    -4593    -4600    -4610    -4603 
   -4618    -4647    -4652    -4636    -4621    -4606    -4593    -4600 
   -4616    -4611    -4605    -4617    -4619    -4616    -4613    -4609 
   -4624    -4621    -4613    -4642    -4645    -4611    -4593    -4587 
   -4596    -4616    -4619    -4625    -4640    -4631    -4614    -4614 
   -4611    -4605    -4602    -4608    -4627    -4639    -4633    -4618 
   -4605    -4610    -4616    -4603    -4600    -4619    -4634    -4635 
   -4640    -4635    -4604    -4587    -4598    -4611    -4616    -4621 
   -4627    -4622    -4604    -4598    -4612    -4612    -4607    -4631 
   -4647    -4624    -4611    -4605    -4590    -4601    -4629    -4636 
   -4627    -4620    -4624    -4620    -4609    -4609    -4612    -4618 
   -4627    -4625    -4617    -4614    -4613    -4611    -4616    -4627 
   -4625    -4619    -4619    -4621    -4619    -4608    -4598    -4603 
   -4609    -4620    -4620    -4606    -4625    -4642    -4618    -4607 
   -4621    -4610    -4596    -4625    -4640    -4614    -4613    -4626 
   -4616    -4604    -4602    -4616    -4626    -4626    -4632    -4624 
   -4604    -4612    -4620    -4604    -4594    -4605    -4622    -4636 
   -4642    -4627    -4607    -4604    -4608    -4604    -4606    -4627 
   -4631    -4609    -4606    -4618    -4614    -4607    -4614    -4629 
   -4633    -4623    -4612    -4605    -4610    -4622    -4621    -4616 
   -4617    -4618    -4617    -4619    -4623    -4615    -4603    -4610 
   -4633    -4628    -4605    -4608    -4613    -4603    -4612    -4620 
   -4611    -4613    -4620    -4612    -4613    -4636    -4633    -4598 
   -4591    -4607    -4609    -4612    -4632    -4643    -4631    -4625 
   -4633    -4617    -4592    -4596    -4606    -4615    -4629    -4634 
   -4630    -4619    -4606    -4601    -4602    -4612    -4629    -4627 
   -4617    -4619    -4607    -4594    -4602    -4601    -4615    -4655 
   -4666    -4679    -4723    -4751    -4764    -4762    -4700    -4571 
   -4419    -4298    -4252    -4308    -4453    -4634    -4783    -4871 
   -4947    -5042    -5103    -5064    -4931    -4758    -4566    -4403 
   -4337    -4350    -4479    -4725    -4816    -4542    -4103    -3767 
   -3646    -3830    -4226    -4607    -4946    -5233    -5436    -5676 
   -5788    -5491    -5007    -4588    -4128    -3630    -3297    -3228 
   -3344    -3590    -4138    -5067    -6064    -6861    -7319    -7056 
   -5981    -4610    -3395    -2587    -2394    -2838    -3735    -4757 
   -5657    -6117    -5598    -4253    -3174    -3047    -3512    -3978 
   -4293    -4579    -5017    -5663    -6137    -6188    -6288    -6393 
   -5426    -3111     -787     -209    -1959    -4667    -6621    -7598 
   -7725    -6693    -5126    -4106    -3796    -3976    -4300    -4270 
   -4253    -4813    -5086    -4078    -2809    -2852    -3644    -3743 
   -3611    -4649    -6870    -8734    -8520    -6407    -4483    -3534 
   -2312     -697     -441    -2451    -5417    -7483    -8121    -7773 
   -6810    -5465    -3980    -2708    -1991    -1834    -2149    -3073 
   -4782    -6863    -8138    -7935    -6771    -5190    -3563    -2636 
   -2548    -2800    -3593    -4847    -5143    -3775    -2121    -1975 
   -3675    -6051    -7672    -8161    -8199    -7949    -6659    -4480 
   -2610    -1797    -2133    -3034    -3720    -4365    -5202    -5590 
   -5285    -4835    -4630    -4643    -4439    -3664    -2899    -3040 
   -4024    -5022    -5471    -5367    -4928    -4224    -3300    -2734 
   -3310    -4915    -6534    -7360    -7220    -6278    -5052    -4249 
   -4263    -5068    -5992    -5857    -4413    -2868    -2243    -2403 
   -2838    -3345    -4124    -5354    -6417    -6485    -5863    -5444 
   -5335    -4960    -3923    -2441    -1304    -1429    -3100    -5582 
   -7621    -8249    -7301    -5468    -3681    -2521    -2308    -3098 
   -4323    -5123    -5273    -5328    -6007    -7463    -8591    -7879 
   -5367    -2338      357     2051     1704    -1047    -5231    -9176 
  -11318   -11025    -8880    -5850    -2732     -592     -492    -2331 
   -4722    -6198    -6311    -5515    -4261    -2804    -1615    -1433 
   -2757    -5043    -7132    -8585    -9367    -8999    -7208    -4572 
   -2177    -1036    -1457    -2847    -4389    -5622    -6351    -6464 
   -5836    -4530    -3005    -1790    -1112     -992    -1600    -3206 
   -5589    -7743    -8503    -7621    -6054    -4814    -3863    -2903 
   -2484    -3275    -4921    -6307    -6606    -5886    -4930    -4375 
   -4269    -4598    -5413    -6333    -6748    -6310    -5040    -3320 
   -1806    -1081    -1374    -2649    -4556    -6307    -7116    -6635 
   -5021    -3027    -1680    -1506    -2366    -3905    -5686    -7214 
   -8121    -8128    -7179    -5612    -3844    -2243    -1260    -1262 
   -2357    -4331    -6541    -8159    -8702    -8120    -6669    -5010 
   -3943    -3786    -4333    -5195    -5833    -5713    -4629    -2843 
   -1020      127      234     -749    -2630    -4804    -6521    -7444 
   -7665    -7309    -6528    -5684    -5038    -4564    -4276    -4170 
   -4033    -3711    -3413    -3540    -4204    -5041    -5483    -5266 
   -4681    -4204    -4197    -4821    -5850    -6845    -7476    -7463 
   -6568    -4902    -3026    -1494     -687     -923    -2046    -3392 
   -4493    -5335    -5996    -6362    -6242    -5700    -5028    -4486 
   -4208    -4199    -4415    -4753    -4908    -4499    -3544    -2619 
   -2376    -3061    -4461    -6143    -7714    -8743    -8745    -7565 
   -5580    -3484    -1947    -1374    -1870    -3165    -4621    -5573 
   -5706    -5087    -4081    -3280    -3130    -3614    -4438    -5238 
   -5701    -5776    -5551    -5035    -4226    -3239    -2416    -2200 
   -2772    -4010    -5641    -7214    -8218    -8341    -7553    -6173 
   -4747    -3756    -3431    -3633    -3943    -3937    -3404    -2565 
   -1964    -2062    -3033    -4649    -6339    -7464    -7504    -6354 
   -4530    -2806    -1844    -2014    -3187    -4866    -6500    -7575 
   -7738    -7060    -5909    -4560    -3198    -2185    -1925    -2561 
   -3901    -5520    -7033    -8098    -8258    -7306    -5683    -4117 
   -3026    -2369    -1975    -1855    -2118    -2774    -3618    -4453 
   -5299    -5999    -6127    -5636    -4884    -4140    -3582    -3331 
   -3368    -3609    -3956    -4341    -4779    -5334    -5999    -6491 
   -6482    -5990    -5240    -4434    -3775    -3526    -3883    -4733 
   -5692    -6429    -6803    -6753    -6327    -5729    -5085    -4362 
   -3573    -2826    -2290    -2131    -2280    -2420    -2333    -2067 
   -1909    -2302    -3491    -5278    -7161    -8512    -8919    -8410 
   -7177    -5552    -4204    -3689    -3909    -4248    -4145    -3545 
   -2851    -2543    -2881    -3818    -5139    -6566    -7683    -8060 
   -7568    -6411    -5033    -3902    -3170    -2695    -2330    -2037 
   -1904    -2174    -2979    -4137    -5293    -6066    -6275    -6054 
   -5670    -5337    -5086    -4792    -4361    -3840    -3411    -3326 
   -3683    -4312    -5008    -5683    -6229    -6419    -5993    -4941 
   -3716    -3036    -3395    -4624    -6007    -6838    -6771    -5935 
   -4834    -3982    -3652    -3748    -3886    -3752    -3406    -3218 
   -3480    -4144    -4982    -5766    -6302    -6462    -6095    -5130 
   -3835    -2679    -2098    -2332    -3190    -4310    -5391    -6075 
   -6159    -5737    -5026    -4304    -3826    -3733    -4015    -4502 
   -5026    -5463    -5722    -5783    -5604    -5125    -4392    -3636 
   -3209    -3327    -3889    -4568    -5097    -5424    -5563    -5475 
   -5153    -4685    -4295    -4259    -4639    -5214    -5618    -5616 
   -5332    -5009    -4725    -4463    -4184    -3859    -3607    -3593 
   -3732    -3767    -3630    -3484    -3545    -3934    -4562    -5207 
   -5664    -5760    -5428    -4785    -4056    -3498    -3341    -3635 
   -4291    -5138    -5872    -6233    -6203    -5917    -5601    -5470 
   -5457    -5282    -4803    -4111    -3399    -2833    -2476    -2407 
   -2696    -3243    -3948    -4750    -5472    -6016    -6417    -6604 
   -6462    -5959    -5149    -4129    -3088    -2347    -2165    -2623 
   -3632    -4897    -6065    -6861    -7062    -6602    -5720    -4840 
   -4280    -4136    -4321    -4659    -5056    -5487    -5789    -5701 
   -5160    -4353    -3580    -3141    -3220    -3755    -4418    -4790 
   -4586    -3805    -2822    -2191    -2235    -2963    -4188    -5574 
   -6749    -7353    -7071    -5854    -4096    -2473    -1616    -1880 
   -3260    -5319    -7323    -8623    -8899    -8218    -7033    -5882 
   -5065    -4621    -4413    -4244    -3991    -3594    -3065    -2561 
   -2290    -2326    -2586    -2920    -3213    -3441    -3667    -3949 
   -4246    -4486    -4658    -4822    -5050    -5336    -5610    -5816 
   -5905    -5795    -5465    -5067    -4819    -4834    -5032    -5230 
   -5302    -5167    -4797    -4321    -3914    -3720    -3852    -4196 
   -4514    -4750    -4946    -5091    -5169    -5211    -5231    -5216 
   -5174    -5060    -4786    -4361    -3865    -3364    -2887    -2507 
   -2422    -2768    -3491    -4471    -5470    -6188    -6485    -6324 
   -5719    -4856    -4057    -3568    -3470    -3745    -4288    -4986 
   -5776    -6511    -6962    -6950    -6438    -5515    -4432    -3567 
   -3156    -3209    -3659    -4370    -5148    -5800    -6076    -5797 
   -5036    -4033    -3085    -2491    -2453    -2984    -3847    -4700 
   -5267    -5390    -5141    -4747    -4374    -4118    -4037    -4141 
   -4397    -4780    -5256    -5660    -5851    -5887    -5841    -5767 
   -5738    -5723    -5603    -5304    -4815    -4156    -3418    -2816 
   -2570    -2707    -3086    -3553    -3992    -4328    -4573    -4755 
   -4822    -4758    -4650    -4516    -4284    -3976    -3717    -3613 
   -3693    -3897    -4158    -4574    -5252    -5976    -6400    -6376 
   -5943    -5255    -4531    -4010    -3877    -4129    -4670    -5414 
   -6160    -6663    -6763    -6336    -5333    -3911    -2421    -1242 
    -538     -322     -616    -1411    -2672    -4316    -6059    -7472 
   -8158    -7919    -6867    -5242    -3245    -1165      534     1421 
    1287      195    -1536    -3441    -5142    -6486    -7492    -8200 
   -8567    -8547    -8217    -7720    -7192    -6820    -6824    -7422 
   -8673   -10293   -11748   -12570   -12590   -11974   -11028    -9959 
   -8855    -7801    -6834    -5773    -4314    -2247      335     2979 
    5093     6233     6273     5393     3877     2010      107    -1509 
   -2639    -3281    -3512    -3566    -3874    -4691    -5985    -7570 
   -9102   -10222   -10743   -10533    -9486    -7649    -5160    -2263 
     565     2788     4004     4011     2781      345    -3148    -7246 
  -11220   -14355   -16179   -16499   -15390   -13217   -10555    -7944 
   -5525    -2983      -70     3071     6100     8505     9605     8865 
    6214     2043    -2948    -7821   -11533   -13473   -13688   -12529 
  -10573    -8423    -6374    -4588    -3286    -2595    -2476    -2935 
   -4103    -5973    -8312   -10724   -12714   -13877   -13987   -13062 
  -11298    -9023    -6775    -4943    -3432    -2038     -581     1259 
    3612     6249     8752    10552    11031     9818     7104     3594 
      -6    -3230    -5849    -7942    -9698   -11159   -12329   -13299 
  -14057   -14319   -13851   -12676   -10979    -9089    -7325    -5936 
   -5185    -5181    -5693    -6278    -6713    -7144    -7473    -7192 
   -6145    -4575    -2672     -841      396     1027     1403     1693 
    1938     2185     2334     2379     2436     2310     1646      292 
   -1829    -4931    -9176   -14072   -18398   -21020   -21470   -19662 
  -15814   -10904    -6290    -2831     -887     -459    -1045    -1995 
   -2925    -3564    -3657    -3140    -2262    -1396     -844     -782 
   -1050    -1243    -1104     -559      214      756      720      128 
    -794    -1903    -3042    -3908    -4351    -4460    -4350    -4166 
   -4109    -4312    -4656    -4758    -4251    -3179    -2194    -2192 
   -3680    -6604   -10471   -14539   -18087   -20497   -21180   -19678 
  -16243   -12107    -8625    -6450    -5602    -5666    -5853    -5405 
   -4058    -1941      662     3361     5806     7800     9272    10289 
   11059    11810    12597    13187    12999    11246     7369     1401 
   -6072   -14133   -21622   -27309   -30264   -30254   -27893   -24224 
  -20219   -16673   -14005   -12059   -10251    -7895    -4736    -1362 
    1430     3461     4857     5561     5472     4772     4010     3651 
    3537     3189     2282      637    -1656    -4368    -7285    -9672 
  -10541    -9474    -6568    -2403     2023     5696     7593     7006 
    4081     -234    -4806    -9080   -12956   -16294   -18951   -20916 
  -22263   -22956   -22684   -21013   -17892   -13745    -9059    -4535 
    -972     1307     2240     1963     1256     1044     1722     3349 
    5520     7399     8541     8982     8909     8539     7858     6815 
    5633     4425     2949      949    -1695    -4899    -8237   -11203 
  -13525   -15258   -16706   -18146   -19628   -20879   -21446   -20831 
  -18572   -14773   -10063    -4984      -34     4221     7287     8691 
    8091     5525     1418    -3534    -8444   -12369   -14628   -15097 
  -14141   -12108    -9030    -4966     -379     4079     7733     9943 
   10352     8888     5868     2132    -1430    -4363    -6764    -9061 
  -11489   -13819   -15516   -16119   -15679   -14563   -13030   -11341 
   -9707    -8176    -6776    -5482    -4223    -2956    -1544       90 
    1760     3113     3670     3034     1293     -898    -2762    -3758 
   -3568    -2199     -110     2006     3324     3145     1510    -1031 
   -4111    -7259    -9766   -11329   -12145   -12417   -12227   -11577 
  -10347    -8546    -6541    -4659    -2885    -1287     -248     -103 
    -856    -2267    -4019    -5755    -7297    -8635    -9624   -10210 
  -10534   -10604   -10333    -9579    -8100    -5764    -2792      375 
    3316     5536     6549     6309     5209     3683     1934       51 
   -1821    -3629    -5375    -6969    -8413    -9721   -10717   -11241 
  -11365   -11226   -10918   -10672   -10726   -11004   -11217   -11157 
  -10796   -10175    -9321    -8314    -7126    -5588    -3821    -2133 
    -607      743     1868     2773     3404     3643     3485     3034 
    2403     1758     1250      812      246     -691    -2260    -4527 
   -7262    -9987   -12146   -13418   -13832   -13626   -13060   -12291 
  -11374   -10258    -8829    -7014    -4865    -2663     -801      475 
    1071     1140     1031      950      960     1090     1241     1183 
     635     -559    -2262    -4146    -5800    -6888    -7354    -7298 
   -6894    -6460    -6256    -6345    -6712    -7281    -7862    -8237 
   -8261    -7831    -6827    -5261    -3485    -2030    -1333    -1640 
   -2823    -4411    -5923    -7061    -7743    -8024    -7944    -7518 
   -6787    -5870    -4929    -4046    -3263    -2696    -2413    -2398 
   -2711    -3385    -4318    -5330    -6133    -6455    -6251    -5704 
   -5079    -4587    -4320    -4249    -4231    -4058    -3598    -2896 
   -2116    -1532    -1461    -2016    -3039    -4183    -5028    -5351 
   -5183    -4630    -3874    -3167    -2768    -2811    -3170    -3720 
   -4482    -5365    -6208    -6919    -7331    -7278    -6789    -6010 
   -5092    -4180    -3345    -2662    -2330    -2498    -3123    -4135 
   -5481    -6976    -8302    -9157    -9394    -8963    -7884    -6413 
   -4904    -3594    -2694    -2280    -2175    -2268    -2669    -3503 
   -4734    -6160    -7496    -8484    -9007    -9003    -8342    -7007 
   -5145    -3016     -967      733     1899     2435     2446     2087 
    1471      712     -210    -1374    -2709    -4103    -5442    -6545 
   -7323    -7787    -7881    -7658    -7435    -7433    -7613    -7904 
   -8230    -8433    -8320    -7759    -6821    -5796    -5039    -4787 
   -5037    -5623    -6310    -6902    -7293    -7264    -6634    -5586 
   -4417    -3359    -2603    -2148    -1932    -1961    -2140    -2299 
   -2347    -2312    -2288    -2311    -2343    -2315    -2143    -1777 
   -1262     -749     -386     -211     -166     -223     -479    -1117 
   -2281    -4017    -6253    -8772   -11285   -13517   -15220   -16158 
  -16229   -15510   -14099   -12105    -9725    -7174    -4602    -2140 
      66     1919     3292     4091     4379     4235     3728     2973 
    1971      640    -1022    -2982    -5133    -7255    -9134   -10580 
  -11517   -11980   -11962   -11486   -10644    -9528    -8308    -7173 
   -6247    -5588    -5091    -4588    -4077    -3611    -3212    -2953 
   -2907    -3063    -3395    -3840    -4232    -4475    -4568    -4415 
   -3995    -3455    -2849    -2190    -1581    -1094     -758     -573 
    -557     -751    -1098    -1538    -2062    -2545    -2809    -2839 
   -2728    -2538    -2313    -2158    -2194    -2494    -3159    -4158 
   -5322    -6609    -7960    -9229   -10347   -11251   -11913   -12363 
  -12650   -12843   -12910   -12727   -12199   -11252    -9849    -8014 
   -5811    -3387     -962     1297     3262     4749     5548     5562 
    4849     3598     2066      435    -1204    -2774    -4226    -5529 
   -6633    -7508    -8088    -8322    -8279    -8038    -7657    -7231 
   -6812    -6383    -5967    -5583    -5223    -4956    -4877    -5017 
   -5347    -5767    -6155    -6412    -6442    -6203    -5696    -4998 
   -4310    -3806    -3555    -3589    -3889    -4360    -4931    -5573 
   -6196    -6720    -7085    -7141    -6778    -6024    -4957    -3688 
   -2309     -924      295     1239     1821     1934     1602      913 
     -88    -1311    -2570    -3749    -4878    -5977    -6989    -7844 
   -8481    -8829    -8848    -8551    -8010    -7336    -6655    -6076 
   -5633    -5257    -4895    -4632    -4538    -4566    -4623    -4575 
   -4374    -4093    -3691    -3083    -2388    -1805    -1451    -1419 
   -1765    -2469    -3423    -4464    -5465    -6345    -7024    -7537 
   -7988    -8370    -8627    -8737    -8647    -8355    -7913    -7316 
   -6524    -5559    -4552    -3739    -3325    -3310    -3490    -3678 
