Origin Time       2025/03/29 04:45:00
Lat.              31.090
Long.             131.512
Depth. (km)       33
Mag.              4.6
Station Code      KGS010
Station Lat.      31.7123
Station Long.     130.2735
Station Height(m) 16
Record Time       2025/03/29 04:45:56
Sampling Freq(Hz) 100Hz
Duration Time(s)  60
Dir.              E-W
Scale Factor      7845(gal)/8223790
Max. Acc. (gal)   1.581
Last Correction   2025/03/29 04:45:56
Memo.             
[...]
   -1584    -1501    -1418    -1358    -1324    -1316    -1345    -1393 
   -1425    -1445    -1448    -1421    -1371    -1309    -1244    -1193 
   -1174    -1193    -1244    -1325    -1422    -1513    -1598    -1676 
   -1730    -1779    -1827    -1850    -1841    -1817    -1776    -1723 
   -1657    -1568    -1462    -1347    -1237    -1156    -1120    -1124 
   -1156    -1201    -1248    -1291    -1325    -1351    -1377    -1394 
   -1409    -1422    -1414    -1390    -1377    -1379    -1401    -1439 
   -1489    -1541    -1578    -1601    -1621    -1629    -1626    -1628 
   -1636    -1640    -1636    -1618    -1591    -1552    -1499    -1441 
   -1387    -1332    -1275    -1240    -1237    -1263    -1308    -1366 
   -1426    -1468    -1497    -1521    -1529    -1525    -1514    -1491 
   -1468    -1459    -1447    -1429    -1418    -1417    -1416    -1401 
   -1386    -1379    -1382    -1402    -1439    -1467    -1482    -1486 
   -1471    -1445    -1431    -1428    -1440    -1472    -1509    -1525 
   -1521    -1510    -1510    -1520    -1530    -1540    -1541    -1520 
   -1476    -1416    -1348    -1283    -1223    -1183    -1181    -1210 
   -1255    -1309    -1367    -1418    -1472    -1534    -1598    -1663 
   -1730    -1782    -1811    -1829    -1830    -1815    -1784    -1732 
   -1659    -1561    -1445    -1329    -1233    -1163    -1131    -1142 
   -1178    -1223    -1271    -1320    -1367    -1406    -1429    -1459 
   -1498    -1521    -1530    -1537    -1537    -1534    -1539    -1533 
   -1507    -1471    -1428    -1382    -1340    -1302    -1266    -1250 
   -1262    -1287    -1329    -1389    -1449    -1506    -1557    -1597 
   -1621    -1628    -1628    -1629    -1632    -1642    -1652    -1655 
   -1652    -1637    -1593    -1526    -1462    -1401    -1345    -1309 
   -1281    -1256    -1240    -1217    -1193    -1178    -1177    -1182 
   -1190    -1205    -1225    -1239    -1258    -1302    -1378    -1479 
   -1576    -1648    -1692    -1706    -1695    -1679    -1660    -1640 
   -1607    -1568    -1537    -1490    -1437    -1406    -1397    -1402 
   -1416    -1436    -1470    -1509    -1540    -1563    -1566    -1548 
   -1514    -1464    -1410    -1368    -1344    -1336    -1351    -1390 
   -1441    -1494    -1530    -1548    -1547    -1524    -1487    -1455 
   -1433    -1418    -1413    -1417    -1421    -1414    -1394    -1363 
   -1336    -1328    -1340    -1377    -1426    -1472    -1513    -1557 
   -1603    -1634    -1637    -1628    -1624    -1611    -1595    -1578 
   -1555    -1530    -1512    -1495    -1485    -1475    -1460    -1436 
   -1398    -1356    -1316    -1275    -1248    -1236    -1239    -1244 
   -1250    -1264    -1281    -1300    -1329    -1367    -1410    -1463 
   -1525    -1593    -1651    -1691    -1706    -1701    -1679    -1636 
   -1575    -1503    -1422    -1348    -1296    -1264    -1263    -1285 
   -1317    -1374    -1455    -1543    -1624    -1701    -1773    -1819 
   -1829    -1803    -1749    -1678    -1598    -1503    -1397    -1286 
   -1181    -1078     -993     -942     -922     -935     -990    -1067 
   -1159    -1278    -1405    -1524    -1626    -1706    -1767    -1806 
   -1804    -1765    -1709    -1632    -1540    -1436    -1341    -1281 
   -1260    -1275    -1324    -1393    -1474    -1563    -1647    -1705 
   -1738    -1752    -1746    -1722    -1665    -1583    -1479    -1372 
   -1277    -1192    -1121    -1090    -1090    -1104    -1127    -1162 
   -1193    -1220    -1263    -1325    -1402    -1478    -1533    -1575 
   -1615    -1641    -1649    -1660    -1675    -1678    -1664    -1628 
   -1570    -1506    -1452    -1412    -1390    -1404    -1441    -1489 
   -1529    -1560    -1593    -1618    -1624    -1617    -1599    -1561 
   -1509    -1444    -1372    -1306    -1251    -1219    -1223    -1258 
   -1313    -1391    -1486    -1580    -1664    -1725    -1759    -1769 
   -1749    -1711    -1665    -1603    -1530    -1460    -1401    -1350 
   -1297    -1246    -1216    -1194    -1179    -1179    -1181    -1185 
   -1190    -1189    -1192    -1210    -1239    -1286    -1344    -1402 
   -1462    -1512    -1541    -1568    -1598    -1621    -1653    -1696 
   -1734    -1761    -1782    -1783    -1764    -1732    -1687    -1630 
   -1567    -1501    -1437    -1382    -1339    -1301    -1254    -1209 
   -1173    -1143    -1134    -1158    -1210    -1275    -1339    -1395 
   -1441    -1476    -1499    -1513    -1518    -1514    -1501    -1479 
   -1456    -1433    -1417    -1416    -1425    -1440    -1460    -1486 
   -1512    -1540    -1561    -1564    -1557    -1549    -1529    -1497 
   -1467    -1440    -1399    -1356    -1329    -1314    -1308    -1316 
   -1341    -1378    -1433    -1485    -1503    -1501    -1489    -1467 
   -1455    -1460    -1470    -1493    -1521    -1541    -1552    -1559 
   -1566    -1571    -1576    -1595    -1617    -1634    -1668    -1706 
   -1718    -1710    -1691    -1657    -1603    -1529    -1437    -1332 
   -1221    -1112    -1020     -961     -931     -931     -974    -1055 
   -1144    -1228    -1310    -1390    -1462    -1539    -1629    -1729 
   -1831    -1918    -1975    -1993    -1975    -1934    -1883    -1821 
   -1750    -1674    -1599    -1532    -1463    -1390    -1327    -1278 
   -1236    -1197    -1166    -1147    -1136    -1132    -1129    -1127 
   -1139    -1167    -1190    -1221    -1274    -1327    -1367    -1401 
   -1424    -1436    -1432    -1417    -1414    -1421    -1444    -1485 
   -1532    -1586    -1645    -1680    -1686    -1674    -1637    -1583 
   -1532    -1478    -1421    -1386    -1370    -1359    -1364    -1382 
   -1398    -1410    -1422    -1428    -1433    -1449    -1476    -1513 
   -1559    -1607    -1648    -1671    -1667    -1642    -1597    -1532 
   -1455    -1382    -1329    -1289    -1259    -1252    -1266    -1294 
   -1343    -1399    -1460    -1532    -1605    -1659    -1688    -1699 
   -1684    -1641    -1580    -1518    -1462    -1431    -1428    -1431 
   -1424    -1406    -1385    -1366    -1348    -1331    -1314    -1312 
   -1316    -1318    -1323    -1337    -1370    -1417    -1475    -1548 
   -1613    -1652    -1668    -1653    -1602    -1532    -1466    -1405 
   -1347    -1301    -1267    -1240    -1236    -1247    -1258    -1273 
   -1291    -1312    -1339    -1368    -1394    -1418    -1441    -1471 
   -1507    -1557    -1613    -1657    -1699    -1755    -1796    -1810 
   -1810    -1806    -1792    -1760    -1715    -1657    -1580    -1501 
   -1413    -1313    -1219    -1131    -1047     -982     -945     -931 
    -949    -1009    -1092    -1178    -1264    -1339    -1390    -1418 
   -1433    -1435    -1428    -1435    -1455    -1483    -1529    -1582 
   -1634    -1694    -1749    -1791    -1826    -1852    -1875    -1883 
   -1869    -1837    -1791    -1744    -1706    -1668    -1626    -1590 
   -1555    -1512    -1459    -1398    -1331    -1258    -1185    -1123 
   -1071    -1031    -1004     -992     -997    -1017    -1040    -1071 
   -1113    -1151    -1189    -1237    -1286    -1345    -1435    -1533 
   -1617    -1698    -1775    -1840    -1885    -1904    -1906    -1899 
   -1875    -1831    -1780    -1729    -1675    -1628    -1594    -1553 
   -1506    -1472    -1431    -1375    -1327    -1283    -1250    -1221 
   -1196    -1189    -1197    -1210    -1232    -1258    -1285    -1323 
   -1366    -1395    -1426    -1470    -1499    -1514    -1526    -1529 
   -1518    -1503    -1493    -1475    -1451    -1439    -1435    -1418 
   -1408    -1420    -1433    -1443    -1464    -1489    -1514    -1545 
   -1564    -1575    -1594    -1597    -1578    -1555    -1520    -1471 
   -1426    -1385    -1355    -1344    -1340    -1339    -1343    -1347 
   -1355    -1363    -1375    -1398    -1421    -1447    -1480    -1518 
   -1548    -1574    -1598    -1606    -1582    -1536    -1479    -1417 
   -1347    -1275    -1223    -1193    -1177    -1177    -1200    -1254 
   -1316    -1375    -1447    -1516    -1568    -1621    -1668    -1696 
   -1717    -1730    -1738    -1741    -1737    -1723    -1688    -1636 
   -1584    -1518    -1437    -1368    -1312    -1264    -1236    -1229 
   -1231    -1240    -1258    -1281    -1304    -1324    -1339    -1347 
   -1367    -1402    -1432    -1453    -1479    -1507    -1525    -1532 
   -1541    -1551    -1556    -1567    -1587    -1609    -1636    -1657 
   -1671    -1682    -1678    -1651    -1618    -1575    -1521    -1471 
   -1432    -1404    -1393    -1398    -1413    -1436    -1455    -1462 
   -1456    -1444    -1425    -1406    -1393    -1386    -1383    -1379 
   -1363    -1333    -1297    -1259    -1223    -1182    -1156    -1158 
   -1163    -1171    -1194    -1213    -1228    -1247    -1266    -1281 
   -1291    -1304    -1317    -1329    -1339    -1362    -1397    -1436 
   -1480    -1533    -1595    -1659    -1715    -1772    -1826    -1860 
   -1875    -1883    -1885    -1875    -1849    -1813    -1765    -1703 
   -1634    -1570    -1506    -1455    -1426    -1402    -1378    -1358 
   -1339    -1323    -1306    -1287    -1274    -1271    -1283    -1297 
   -1312    -1335    -1348    -1350    -1363    -1379    -1391    -1410 
   -1439    -1471    -1486    -1493    -1497    -1479    -1455    -1443 
   -1435    -1429    -1433    -1439    -1449    -1472    -1497    -1517 
   -1545    -1572    -1593    -1613    -1625    -1630    -1634    -1622 
   -1586    -1534    -1476    -1420    -1364    -1316    -1283    -1263 
   -1251    -1259    -1279    -1308    -1355    -1412    -1475    -1549 
   -1628    -1702    -1767    -1814    -1848    -1871    -1880    -1876 
   -1857    -1822    -1790    -1767    -1740    -1718    -1703    -1676 
   -1642    -1614    -1583    -1541    -1489    -1418    -1332    -1240 
   -1131    -1003     -876     -765     -679     -618     -584     -585 
    -622     -691     -778     -870     -963    -1063    -1162    -1255 
   -1339    -1417    -1501    -1587    -1669    -1749    -1819    -1888 
   -1950    -1988    -2004    -2003    -1987    -1965    -1919    -1857 
   -1791    -1714    -1628    -1526    -1421    -1317    -1198    -1089 
   -1009     -930     -865     -842     -832     -842     -882     -935 
    -992    -1048    -1098    -1140    -1174    -1204    -1239    -1298 
   -1391    -1499    -1615    -1738    -1856    -1964    -2053    -2108 
   -2137    -2143    -2126    -2084    -2026    -1961    -1884    -1783 
   -1667    -1555    -1448    -1343    -1246    -1169    -1117    -1081 
   -1061    -1067    -1105    -1154    -1198    -1240    -1275    -1301 
   -1308    -1304    -1296    -1285    -1291    -1328    -1375    -1424 
   -1472    -1507    -1526    -1529    -1513    -1498    -1505    -1525 
   -1564    -1629    -1703    -1776    -1850    -1914    -1945    -1946 
   -1930    -1895    -1846    -1798    -1752    -1709    -1674    -1659 
   -1652    -1645    -1644    -1651    -1657    -1653    -1642    -1617 
   -1576    -1536    -1497    -1459    -1433    -1422    -1414    -1408 
   -1404    -1395    -1389    -1397    -1408    -1409    -1417    -1431 
   -1436    -1447    -1458    -1443    -1404    -1350    -1287    -1224 
   -1170    -1135    -1124    -1147    -1201    -1273    -1355    -1426 
   -1459    -1452    -1405    -1314    -1198    -1073     -957     -851 
    -768     -730     -739     -785     -868     -986    -1120    -1258 
   -1398    -1525    -1624    -1690    -1734    -1772    -1796    -1803 
   -1807    -1818    -1833    -1844    -1849    -1858    -1876    -1892 
   -1902    -1912    -1917    -1900    -1873    -1842    -1802    -1757 
   -1713    -1656    -1587    -1516    -1433    -1333    -1235    -1151 
   -1089    -1062    -1067    -1107    -1178    -1260    -1329    -1371 
   -1378    -1345    -1278    -1189    -1084     -962     -855     -783 
    -741     -731     -772     -855     -953    -1050    -1142    -1223 
   -1289    -1333    -1359    -1370    -1364    -1345    -1323    -1301 
   -1281    -1267    -1269    -1287    -1332    -1406    -1502    -1613 
   -1741    -1887    -2043    -2207    -2367    -2527    -2675    -2801 
   -2894    -2934    -2917    -2855    -2747    -2606    -2465    -2338 
   -2226    -2134    -2066    -2008    -1944    -1875    -1782    -1644 
   -1476    -1289    -1078     -858     -638     -427     -245      -94 
      21       98      139      145      128       87       20      -63 
    -152     -244     -342     -442     -548     -680     -834    -1007 
   -1209    -1418    -1617    -1811    -1977    -2107    -2204    -2258 
   -2272    -2258    -2224    -2173    -2104    -2037    -1989    -1965 
   -1950    -1942    -1942    -1956    -1979    -2002    -2025    -2043 
   -2045    -2029    -1991    -1927    -1842    -1744    -1632    -1512 
   -1386    -1258    -1135    -1031     -953     -918     -938     -996 
   -1082    -1194    -1313    -1417    -1495    -1528    -1525    -1507 
   -1474    -1414    -1350    -1300    -1267    -1256    -1264    -1294 
   -1336    -1372    -1393    -1375    -1316    -1224    -1098     -957 
    -824     -720     -679     -707     -799     -946    -1125    -1317 
   -1505    -1682    -1840    -1961    -2058    -2149    -2228    -2305 
   -2386    -2473    -2558    -2624    -2663    -2674    -2640    -2546 
   -2401    -2222    -1999    -1740    -1470    -1206     -951     -703 
    -477     -295     -152      -54       -5        8      -21      -98 
    -211     -353     -518     -706     -924    -1155    -1398    -1663 
   -1929    -2184    -2425    -2643    -2830    -2979    -3073    -3111 
   -3086    -2995    -2853    -2682    -2484    -2265    -2054    -1856 
   -1651    -1451    -1269    -1089     -909     -741     -591     -473 
    -390     -317     -267     -249     -255     -282     -325     -375 
    -436     -508     -591     -689     -795     -913    -1055    -1206 
   -1359    -1525    -1702    -1881    -2056    -2212    -2335    -2409 
   -2430    -2401    -2331    -2222    -2089    -1948    -1813    -1691 
   -1594    -1516    -1451    -1393    -1343    -1306    -1281    -1263 
   -1263    -1285    -1312    -1343    -1389    -1435    -1456    -1440 
   -1391    -1314    -1212    -1092     -977     -888     -837     -837 
    -891     -996    -1151    -1333    -1522    -1715    -1885    -2020 
   -2134    -2208    -2234    -2224    -2188    -2124    -2046    -1957 
   -1869    -1779    -1683    -1591    -1516    -1458    -1404    -1340 
   -1278    -1210    -1135    -1070    -1016     -966     -936     -935 
    -957     -990    -1034    -1090    -1158    -1232    -1309    -1387 
   -1460    -1517    -1566    -1606    -1617    -1606    -1578    -1536 
   -1486    -1424    -1354    -1291    -1243    -1208    -1196    -1208 
   -1243    -1308    -1413    -1547    -1694    -1852    -2004    -2128 
   -2215    -2259    -2253    -2192    -2093    -1973    -1836    -1699 
   -1580    -1479    -1395    -1331    -1275    -1233    -1213    -1201 
   -1193    -1197    -1220    -1252    -1287    -1314    -1314    -1287 
   -1243    -1181    -1096     -997     -912     -854     -827     -823 
    -846     -892     -954    -1027    -1108    -1189    -1269    -1356 
   -1444    -1547    -1678    -1809    -1926    -2038    -2128    -2176 
   -2185    -2161    -2104    -2022    -1914    -1780    -1641    -1502 
   -1362    -1224    -1107    -1008     -939     -915     -931     -982 
   -1073    -1185    -1301    -1405    -1483    -1530    -1547    -1541 
   -1512    -1462    -1402    -1340    -1290    -1258    -1244    -1256 
   -1301    -1367    -1440    -1520    -1607    -1686    -1752    -1815 
   -1877    -1930    -1973    -2014    -2061    -2112    -2160    -2189 
   -2201    -2193    -2150    -2084    -2007    -1903    -1786    -1664 
   -1534    -1409    -1289    -1182    -1101    -1030     -974     -954 
    -947     -947     -958     -969     -967     -963     -966     -977 
    -990    -1007    -1016    -1023    -1039    -1054    -1066    -1086 
   -1112    -1135    -1156    -1193    -1233    -1270    -1314    -1379 
   -1449    -1513    -1588    -1684    -1786    -1883    -1980    -2062 
   -2124    -2158    -2157    -2126    -2056    -1946    -1810    -1655 
   -1483    -1316    -1177    -1075    -1008     -977     -992    -1047 
   -1135    -1259    -1410    -1567    -1707    -1827    -1921    -1962 
   -1949    -1898    -1807    -1683    -1540    -1386    -1229    -1077 
    -943     -826     -724     -645     -595     -576     -584     -602 
    -643     -733     -858    -1004    -1175    -1355    -1524    -1678 
   -1815    -1931    -2015    -2060    -2079    -2076    -2061    -2041 
   -2014    -1989    -1977    -1965    -1962    -1969    -1972    -1981 
   -1998    -1995    -1979    -1946    -1888    -1804    -1696    -1563 
   -1421    -1281    -1144    -1030     -943     -884     -854     -855 
    -892     -954    -1034    -1132    -1242    -1341    -1422    -1490 
   -1541    -1560    -1549    -1520    -1470    -1410    -1347    -1281 
   -1224    -1186    -1166    -1161    -1171    -1197    -1221    -1236 
   -1259    -1296    -1329    -1371    -1429    -1491    -1557    -1640 
   -1723    -1802    -1876    -1939    -1979    -1989    -1979    -1950 
   -1900    -1825    -1730    -1633    -1534    -1436    -1359    -1294 
   -1236    -1212    -1224    -1255    -1309    -1383    -1474    -1580 
   -1683    -1771    -1848    -1895    -1903    -1887    -1845    -1782 
   -1703    -1613    -1517    -1421    -1329    -1247    -1166    -1077 
    -985     -888     -793     -707     -629     -573     -549     -546 
    -562     -618     -718     -850     -996    -1148    -1306    -1467 
   -1620    -1748    -1841    -1904    -1952    -1977    -1968    -1923 
   -1844    -1744    -1620    -1471    -1336    -1229    -1155    -1129 
   -1147    -1200    -1286    -1390    -1502    -1614    -1713    -1788 
   -1840    -1871    -1885    -1891    -1888    -1875    -1867    -1865 
   -1861    -1848    -1825    -1796    -1765    -1732    -1687    -1636 
   -1602    -1583    -1564    -1545    -1530    -1517    -1507    -1497 
   -1466    -1421    -1366    -1291    -1205    -1112    -1001     -885 
    -780     -684     -595     -526     -477     -445     -437     -453 
    -499     -572     -668     -796     -947    -1113    -1287    -1460 
   -1629    -1784    -1908    -2007    -2072    -2089    -2087    -2080 
   -2061    -2041    -2045    -2072    -2112    -2165    -2239    -2327 
   -2413    -2490    -2556    -2610    -2647    -2659    -2646    -2612 
   -2552    -2454    -2313    -2138    -1930    -1703    -1466    -1217 
    -977     -757     -567     -403     -264     -167     -109      -78 
     -71      -97     -153     -232     -318     -413     -514     -625 
    -747     -876     -997    -1123    -1260    -1401    -1544    -1695 
   -1838    -1972    -2099    -2201    -2259    -2278    -2261    -2200 
   -2101    -1977    -1845    -1723    -1618    -1532    -1468    -1436 
   -1433    -1447    -1475    -1510    -1545    -1578    -1595    -1598 
   -1595    -1575    -1537    -1494    -1451    -1409    -1364    -1312 
   -1263    -1225    -1197    -1167    -1148    -1155    -1177    -1198 
   -1225    -1255    -1282    -1305    -1324    -1333    -1332    -1332 
   -1339    -1352    -1377    -1412    -1464    -1530    -1598    -1667 
   -1726    -1767    -1791    -1796    -1776    -1733    -1667    -1579 
