Origin Time       2025/03/29 04:45:00
Lat.              31.090
Long.             131.512
Depth. (km)       33
Mag.              4.6
Station Code      KGS009
Station Lat.      31.7368
Station Long.     130.7613
Station Height(m) 4
Record Time       2025/03/29 04:45:45
Sampling Freq(Hz) 100Hz
Duration Time(s)  64
Dir.              E-W
Scale Factor      3920(gal)/6182761
Max. Acc. (gal)   4.343
Last Correction   2025/03/29 04:45:45
Memo.             
[...]
   -8559    -8568    -8573    -8564    -8556    -8560    -8571    -8580 
   -8578    -8567    -8564    -8573    -8584    -8598    -8612    -8612 
   -8599    -8584    -8566    -8559    -8562    -8555    -8545    -8549 
   -8552    -8555    -8579    -8615    -8637    -8638    -8626    -8614 
   -8601    -8581    -8562    -8563    -8585    -8607    -8626    -8645 
   -8656    -8645    -8613    -8571    -8547    -8562    -8605    -8657 
   -8687    -8666    -8592    -8478    -8346    -8233    -8175    -8184 
   -8243    -8342    -8454    -8563    -8674    -8769    -8810    -8803 
   -8772    -8730    -8694    -8680    -8684    -8698    -8717    -8724 
   -8700    -8630    -8536    -8454    -8408    -8429    -8531    -8675 
   -8807    -8895    -8913    -8847    -8726    -8584    -8433    -8276 
   -8112    -7959    -7893    -7980    -8203    -8501    -8792    -8975 
   -9011    -8950    -8874    -8830    -8787    -8713    -8626    -8548 
   -8493    -8456    -8424    -8415    -8443    -8484    -8502    -8479 
   -8433    -8414    -8491    -8676    -8897    -9059    -9099    -9015 
   -8862    -8723    -8630    -8565    -8528    -8486    -8383    -8228 
   -8078    -8005    -8054    -8200    -8398    -8588    -8722    -8778 
   -8740    -8657    -8636    -8723    -8880    -9019    -9074    -9013 
   -8811    -8504    -8185    -7944    -7863    -7979    -8265    -8628 
   -8950    -9150    -9200    -9123    -8968    -8778    -8558    -8326 
   -8132    -8018    -7991    -8021    -8090    -8243    -8515    -8862 
   -9180    -9327    -9181    -8784    -8386    -8226    -8372    -8706 
   -9012    -9123    -8982    -8650    -8314    -8151    -8206    -8411 
   -8683    -8941    -9107    -9160    -9090    -8869    -8511    -8104 
   -7772    -7593    -7591    -7759    -8024    -8306    -8589    -8830 
   -8960    -8954    -8852    -8735    -8675    -8665    -8660    -8640 
   -8591    -8524    -8516    -8630    -8835    -9051    -9187    -9182 
   -9029    -8759    -8489    -8353    -8360    -8440    -8538    -8612 
   -8647    -8663    -8658    -8614    -8553    -8500    -8436    -8348 
   -8282    -8282    -8359    -8521    -8746    -8944    -9008    -8903 
   -8709    -8528    -8423    -8409    -8409    -8304    -8063    -7783 
   -7596    -7609    -7840    -8177    -8520    -8850    -9144    -9368 
   -9497    -9504    -9396    -9253    -9163    -9148    -9185    -9215 
   -9153    -8931    -8565    -8189    -7971    -8009    -8266    -8592 
   -8843    -8952    -8891    -8670    -8368    -8080    -7855    -7729 
   -7716    -7762    -7836    -7942    -8054    -8171    -8350    -8619 
   -8932    -9193    -9283    -9173    -8955    -8730    -8556    -8465 
   -8406    -8336    -8306    -8353    -8451    -8566    -8656    -8679 
   -8650    -8649    -8764    -8999    -9245    -9394    -9440    -9389 
   -9238    -9022    -8772    -8527    -8347    -8276    -8287    -8246 
   -8046    -7750    -7519    -7488    -7681    -8007    -8348    -8625 
   -8818    -8954    -9074    -9202    -9315    -9355    -9269    -9027 
   -8641    -8213    -7901    -7812    -7949    -8246    -8603    -8932 
   -9169    -9280    -9245    -9059    -8779    -8486    -8226    -8074 
   -8102    -8286    -8529    -8702    -8662    -8384    -8009    -7676 
   -7453    -7384    -7468    -7710    -8120    -8659    -9227    -9689 
   -9931    -9917    -9693    -9386    -9120    -8944    -8853    -8824 
   -8807    -8757    -8694    -8675    -8693    -8690    -8634    -8518 
   -8357    -8186    -8030    -7895    -7774    -7671    -7603    -7597 
   -7711    -7958    -8232    -8400    -8403    -8274    -8108    -8038 
   -8162    -8472    -8900    -9372    -9792   -10089   -10229   -10206 
  -10062    -9871    -9666    -9455    -9266    -9100    -8911    -8654 
   -8312    -7927    -7592    -7380    -7318    -7391    -7543    -7704 
   -7830    -7922    -8009    -8100    -8156    -8131    -8045    -7944 
   -7903    -8040    -8418    -8976    -9558    -9990   -10145   -10006 
   -9669    -9261    -8893    -8632    -8485    -8431    -8462    -8608 
   -8849    -9088    -9241    -9275    -9210    -9099    -8979    -8863 
   -8742    -8584    -8343    -8029    -7728    -7499    -7349    -7276 
   -7269    -7319    -7448    -7697    -8034    -8367    -8652    -8867 
   -8983    -9026    -9054    -9084    -9128    -9219    -9334    -9400 
   -9370    -9236    -9026    -8788    -8577    -8443    -8382    -8365 
   -8371    -8368    -8352    -8370    -8457    -8588    -8720    -8814 
   -8822    -8735    -8573    -8369    -8198    -8120    -8129    -8189 
   -8268    -8340    -8372    -8380    -8429    -8560    -8776    -9038 
   -9274    -9431    -9493    -9477    -9370    -9133    -8815    -8506 
   -8259    -8102    -8037    -8045    -8093    -8163    -8257    -8360 
   -8482    -8643    -8806    -8920    -8971    -8953    -8860    -8685 
   -8428    -8128    -7874    -7742    -7757    -7909    -8142    -8380 
   -8596    -8804    -8984    -9086    -9083    -8990    -8829    -8638 
   -8494    -8451    -8502    -8634    -8819    -9011    -9161    -9250 
   -9296    -9297    -9199    -8962    -8598    -8140    -7656    -7270 
   -7106    -7184    -7437    -7812    -8252    -8646    -8908    -9006 
   -8936    -8770    -8625    -8560    -8583    -8662    -8743    -8822 
   -8920    -9036    -9149    -9215    -9173    -9014    -8790    -8549 
   -8341    -8211    -8142    -8110    -8127    -8187    -8295    -8470 
   -8674    -8850    -8963    -9004    -8997    -8962    -8891    -8807 
   -8743    -8696    -8667    -8632    -8562    -8492    -8435    -8381 
   -8355    -8364    -8401    -8480    -8602    -8711    -8727    -8608 
   -8355    -8039    -7741    -7533    -7496    -7649    -7927    -8250 
   -8556    -8822    -9052    -9269    -9459    -9570    -9585    -9519 
   -9392    -9227    -9023    -8783    -8520    -8254    -8040    -7949 
   -8014    -8209    -8479    -8758    -8993    -9159    -9233    -9203 
   -9088    -8908    -8681    -8429    -8183    -7969    -7781    -7627 
   -7540    -7529    -7597    -7762    -8024    -8335    -8630    -8882 
   -9051    -9096    -9038    -8927    -8820    -8772    -8805    -8880 
   -8938    -8965    -8949    -8868    -8743    -8593    -8440    -8312 
   -8218    -8184    -8217    -8287    -8371    -8460    -8541    -8613 
   -8690    -8769    -8816    -8789    -8669    -8496    -8376    -8403 
   -8573    -8807    -9030    -9182    -9243    -9224    -9133    -9009 
   -8885    -8757    -8625    -8484    -8321    -8146    -7960    -7778 
   -7657    -7643    -7750    -7974    -8267    -8579    -8860    -9033 
   -9070    -9013    -8921    -8845    -8775    -8682    -8576    -8472 
   -8377    -8338    -8412    -8600    -8837    -9032    -9105    -9037 
   -8887    -8731    -8601    -8484    -8378    -8312    -8291    -8307 
   -8377    -8495    -8609    -8683    -8720    -8752    -8808    -8900 
   -9024    -9156    -9274    -9351    -9353    -9261    -9058    -8741 
   -8367    -8020    -7749    -7594    -7594    -7753    -8018    -8294 
   -8507    -8623    -8618    -8510    -8366    -8246    -8198    -8236 
   -8310    -8379    -8447    -8522    -8610    -8735    -8896    -9053 
   -9161    -9176    -9075    -8885    -8665    -8482    -8398    -8431 
   -8555    -8734    -8927    -9077    -9116    -9008    -8799    -8590 
   -8446    -8359    -8315    -8325    -8386    -8474    -8577    -8670 
   -8726    -8731    -8669    -8531    -8324    -8073    -7837    -7686 
   -7667    -7786    -7987    -8218    -8456    -8676    -8875    -9039 
   -9132    -9143    -9084    -8980    -8891    -8849    -8841    -8857 
   -8871    -8843    -8758    -8624    -8461    -8294    -8153    -8079 
   -8069    -8099    -8168    -8272    -8372    -8460    -8561    -8644 
   -8687    -8719    -8764    -8816    -8855    -8872    -8866    -8831 
   -8769    -8661    -8478    -8267    -8120    -8076    -8130    -8254 
   -8411    -8588    -8774    -8934    -9026    -9030    -8948    -8795 
   -8612    -8444    -8291    -8155    -8062    -8028    -8071    -8202 
   -8384    -8578    -8755    -8876    -8908    -8852    -8752    -8662 
   -8608    -8621    -8725    -8907    -9116    -9300    -9426    -9435 
   -9290    -9040    -8761    -8506    -8312    -8180    -8077    -8009 
   -7984    -7967    -7958    -7974    -7971    -7927    -7891    -7907 
   -7987    -8129    -8325    -8567    -8826    -9057    -9235    -9335 
   -9353    -9320    -9243    -9134    -9044    -8985    -8916    -8827 
   -8749    -8680    -8590    -8465    -8311    -8152    -8015    -7934 
   -7926    -7971    -8034    -8095    -8155    -8202    -8215    -8219 
   -8291    -8479    -8763    -9086    -9403    -9673    -9851    -9924 
   -9888    -9707    -9395    -9058    -8771    -8533    -8355    -8259 
   -8242    -8295    -8401    -8493    -8486    -8381    -8267    -8180 
   -8062    -7890    -7719    -7632    -7714    -7985    -8354    -8734 
   -9076    -9326    -9448    -9449    -9369    -9225    -9003    -8734 
   -8507    -8380    -8356    -8383    -8383    -8343    -8295    -8245 
   -8174    -8075    -8002    -8064    -8275    -8553    -8840    -9091 
   -9246    -9284    -9240    -9133    -8956    -8718    -8439    -8156 
   -7948    -7898    -7992    -8138    -8295    -8473    -8640    -8744 
   -8762    -8717    -8635    -8536    -8464    -8436    -8442    -8490 
   -8546    -8537    -8459    -8365    -8298    -8284    -8322    -8384 
   -8462    -8568    -8722    -8914    -9087    -9184    -9212    -9188 
   -9082    -8889    -8663    -8441    -8229    -8061    -7971    -7968 
   -8046    -8188    -8366    -8508    -8561    -8552    -8519    -8496 
   -8532    -8635    -8745    -8825    -8890    -8935    -8937    -8893 
   -8806    -8685    -8520    -8318    -8147    -8092    -8190    -8395 
   -8626    -8827    -8956    -8983    -8919    -8799    -8676    -8588 
   -8558    -8585    -8661    -8777    -8886    -8956    -8969    -8910 
   -8804    -8699    -8615    -8553    -8509    -8472    -8415    -8319 
   -8221    -8152    -8115    -8145    -8257    -8395    -8517    -8612 
   -8672    -8715    -8758    -8812    -8901    -9010    -9071    -9046 
   -8961    -8840    -8666    -8422    -8156    -7956    -7836    -7762 
   -7745    -7795    -7895    -8058    -8261    -8429    -8558    -8701 
   -8861    -9003    -9104    -9140    -9111    -9032    -8926    -8819 
   -8726    -8659    -8609    -8544    -8490    -8502    -8603    -8761 
   -8886    -8927    -8889    -8794    -8697    -8593    -8453    -8306 
   -8173    -8064    -8032    -8102    -8222    -8326    -8407    -8469 
   -8509    -8544    -8587    -8603    -8557    -8463    -8380    -8363 
   -8422    -8539    -8676    -8792    -8843    -8802    -8702    -8591 
   -8499    -8460    -8489    -8562    -8634    -8694    -8788    -8943 
   -9104    -9216    -9279    -9292    -9227    -9094    -8917    -8704 
   -8490    -8336    -8287    -8343    -8463    -8581    -8667    -8736 
   -8789    -8824    -8862    -8895    -8868    -8756    -8591    -8414 
   -8254    -8113    -7974    -7862    -7835    -7897    -8002    -8122 
   -8237    -8330    -8423    -8527    -8584    -8545    -8438    -8332 
   -8287    -8303    -8347    -8407    -8473    -8544    -8641    -8777 
   -8933    -9083    -9226    -9354    -9432    -9450    -9457    -9491 
   -9513    -9476    -9381    -9241    -9051    -8786    -8463    -8135 
   -7833    -7588    -7430    -7361    -7373    -7460    -7605    -7787 
   -7968    -8118    -8250    -8376    -8457    -8473    -8458    -8456 
   -8489    -8550    -8597    -8593    -8543    -8448    -8319    -8205 
   -8135    -8143    -8269    -8483    -8717    -8917    -9037    -9055 
   -8991    -8860    -8643    -8346    -8016    -7726    -7531    -7437 
   -7450    -7589    -7822    -8107    -8392    -8611    -8752    -8827 
   -8843    -8842    -8864    -8925    -9028    -9155    -9266    -9330 
   -9350    -9332    -9289    -9236    -9174    -9136    -9172    -9274 
   -9399    -9523    -9652    -9775    -9856    -9891    -9894    -9862 
   -9786    -9673    -9549    -9417    -9249    -9057    -8878    -8712 
   -8565    -8439    -8309    -8161    -8008    -7877    -7789    -7738 
   -7714    -7683    -7585    -7396    -7153    -6921    -6761    -6689 
   -6713    -6860    -7110    -7402    -7730    -8100    -8509    -8952 
   -9382    -9760   -10083   -10341   -10533   -10650   -10664   -10567 
  -10397   -10192    -9950    -9662    -9367    -9114    -8950    -8892 
   -8918    -8987    -9057    -9122    -9192    -9249    -9281    -9278 
   -9210    -9056    -8824    -8564    -8357    -8262    -8287    -8405 
   -8580    -8745    -8794    -8679    -8457    -8212    -7976    -7765 
   -7639    -7641    -7757    -7970    -8254    -8556    -8847    -9091 
   -9236    -9268    -9193    -9007    -8733    -8427    -8132    -7860 
   -7605    -7350    -7080    -6806    -6561    -6365    -6211    -6110 
   -6091    -6159    -6301    -6509    -6741    -6968    -7226    -7548 
   -7923    -8345    -8808    -9233    -9501    -9550    -9395    -9101 
   -8769    -8504    -8382    -8426    -8634    -8962    -9346    -9763 
  -10173   -10501   -10715   -10802   -10736   -10502   -10098    -9552 
   -8932    -8322    -7773    -7297    -6908    -6606    -6377    -6211 
   -6083    -5954    -5819    -5701    -5620    -5573    -5557    -5565 
   -5600    -5694    -5855    -6071    -6348    -6701    -7159    -7767 
   -8565    -9562   -10707   -11920   -13107   -14141   -14928   -15394 
  -15429   -14985   -14145   -13057   -11841   -10563    -9271    -8041 
   -6973    -6150    -5625    -5405    -5430    -5588    -5769    -5891 
   -5926    -5918    -5928    -6006    -6190    -6486    -6886    -7382 
   -7959    -8587    -9218    -9817   -10379   -10871   -11256   -11536 
  -11721   -11821   -11870   -11918   -11990   -12076   -12146   -12161 
  -12101   -11991   -11834   -11610   -11324   -10975   -10539   -10023 
   -9457    -8854    -8239    -7687    -7252    -6930    -6690    -6499 
   -6330    -6178    -6050    -5961    -5927    -5950    -6029    -6148 
   -6283    -6464    -6732    -7093    -7584    -8269    -9159   -10179 
  -11199   -12070   -12664   -12899   -12739   -12185   -11304   -10187 
   -8936    -7711    -6694    -5991    -5642    -5677    -6091    -6798 
   -7657    -8543    -9333    -9896   -10134   -10046    -9739    -9363 
   -9020    -8746    -8565    -8489    -8481    -8503    -8543    -8597 
   -8664    -8726    -8738    -8670    -8497    -8182    -7755    -7320 
   -6969    -6776    -6759    -6856    -6989    -7087    -7109    -7096 
   -7134    -7285    -7566    -7959    -8424    -8913    -9351    -9677 
   -9897   -10011   -10028    -9982    -9881    -9710    -9444    -9081 
   -8683    -8312    -7991    -7703    -7388    -6988    -6499    -5965 
   -5474    -5145    -5060    -5235    -5660    -6302    -7103    -7990 
   -8896    -9760   -10503   -11056   -11373   -11415   -11181   -10746 
  -10209    -9646    -9109    -8637    -8240    -7912    -7654    -7461 
   -7317    -7209    -7173    -7243    -7386    -7591    -7878    -8210 
   -8561    -8938    -9294    -9584    -9816    -9979    -9986    -9768 
   -9361    -8821    -8140    -7377    -6652    -6045    -5608    -5407 
   -5493    -5883    -6547    -7395    -8334    -9308   -10232   -10989 
  -11472   -11625   -11454   -11002   -10382    -9763    -9308    -9131 
   -9257    -9604   -10041   -10433   -10694   -10787   -10683   -10387 
   -9917    -9307    -8617    -7891    -7210    -6685    -6362    -6233 
   -6244    -6304    -6369    -6425    -6480    -6547    -6663    -6887 
   -7211    -7611    -8115    -8696    -9295    -9875   -10410   -10885 
  -11261   -11476   -11489   -11300   -10946   -10455    -9858    -9221 
   -8614    -8111    -7781    -7656    -7737    -7975    -8294    -8648 
   -8973    -9217    -9392    -9493    -9496    -9431    -9351    -9278 
   -9236    -9256    -9311    -9308    -9211    -9039    -8794    -8488 
   -8145    -7809    -7538    -7380    -7363    -7488    -7712    -7966 
   -8199    -8404    -8586    -8742    -8896    -9067    -9233    -9354 
   -9401    -9358    -9232    -9031    -8763    -8461    -8147    -7817 
   -7473    -7135    -6838    -6641    -6597    -6727    -7031    -7476 
   -7984    -8500    -8992    -9401    -9693    -9876    -9953    -9954 
   -9904    -9813    -9699    -9585    -9492    -9455    -9478    -9529 
   -9543    -9458    -9268    -9015    -8730    -8441    -8189    -8017 
   -7942    -7972    -8119    -8381    -8749    -9175    -9561    -9859 
  -10050   -10090    -9984    -9758    -9399    -8946    -8487    -8094 
   -7795    -7568    -7387    -7240    -7130    -7068    -7043    -7022 
   -6986    -6960    -6971    -7022    -7112    -7237    -7398    -7607 
   -7869    -8176    -8510    -8851    -9175    -9451    -9664    -9823 
   -9928    -9989   -10024   -10026    -9978    -9888    -9791    -9694 
   -9541    -9301    -9016    -8699    -8336    -7972    -7646    -7378 
   -7230    -7210    -7273    -7388    -7504    -7586    -7634    -7622 
   -7535    -7427    -7336    -7272    -7275    -7383    -7604    -7906 
   -8206    -8416    -8504    -8470    -8289    -7936    -7466    -6960 
   -6470    -6031    -5689    -5497    -5478    -5612    -5906    -6398 
   -7066    -7841    -8637    -9370    -9995   -10511   -10898   -11132 
  -11248   -11296   -11274   -11181   -11046   -10876   -10664   -10410 
  -10111    -9808    -9552    -9340    -9146    -8974    -8856    -8809 
   -8818    -8862    -8921    -8980    -9031    -9077    -9096    -9048 
   -8938    -8790    -8591    -8350    -8123    -7925    -7746    -7601 
   -7494    -7426    -7410    -7446    -7534    -7660    -7837    -8113 
   -8490    -8934    -9399    -9837   -10228   -10556   -10786   -10903 
  -10933   -10911   -10833   -10686   -10443   -10088    -9654    -9195 
   -8721    -8244    -7816    -7455    -7157    -6966    -6904    -6949 
   -7064    -7212    -7390    -7592    -7801    -8040    -8306    -8558 
   -8799    -9035    -9250    -9453    -9654    -9839   -10000   -10138 
  -10227   -10261   -10277   -10277   -10241   -10160   -10034    -9858 
   -9634    -9365    -9063    -8739    -8386    -8007    -7659    -7400 
   -7239    -7191    -7306    -7596    -7981    -8402    -8829    -9190 
   -9442    -9600    -9636    -9508    -9236    -8827    -8286    -7695 
   -7148    -6703    -6399    -6262    -6305    -6492    -6753    -7044 
   -7335    -7599    -7801    -7931    -8001    -8020    -7995    -7944 
   -7895    -7876    -7884    -7906    -7922    -7934    -7987    -8098 
   -8226    -8345    -8461    -8564    -8652    -8718    -8740    -8718 
   -8665    -8589    -8510    -8460    -8448    -8456    -8497    -8589 
   -8708    -8837    -8963    -9067    -9148    -9198    -9213    -9195 
   -9142    -9061    -8974    -8926    -8950    -9010    -9056    -9080 
   -9098    -9117    -9120    -9083    -8985    -8808    -8541    -8198 
   -7822    -7462    -7142    -6881    -6685    -6573    -6561    -6622 
   -6768    -7027    -7375    -7797    -8265    -8724    -9142    -9475 
   -9694    -9811    -9832    -9779    -9692    -9606    -9523    -9437 
   -9379    -9356    -9338    -9335    -9384    -9483    -9587    -9672 
   -9740    -9775    -9775    -9751    -9669    -9509    -9304    -9047 
   -8698    -8296    -7921    -7594    -7304    -7045    -6823    -6651 
