Origin Time       2025/03/29 04:45:00
Lat.              31.090
Long.             131.512
Depth. (km)       33
Mag.              4.6
Station Code      KGS023
Station Lat.      31.1990
Station Long.     130.8490
Station Height(m) 179
Record Time       2025/03/29 04:45:26
Sampling Freq(Hz) 100Hz
Duration Time(s)  75
Dir.              E-W
Scale Factor      3920(gal)/6182761
Max. Acc. (gal)   12.410
Last Correction   2025/03/29 04:45:26
Memo.             
[...]
   20379    20355    20359    20382    20409    20413    20399    20400 
   20401    20393    20384    20372    20369    20374    20379    20388 
   20401    20406    20397    20380    20372    20375    20382    20401 
   20409    20394    20379    20380    20384    20389    20400    20395 
   20379    20383    20392    20388    20383    20380    20383    20397 
   20398    20387    20391    20394    20382    20379    20389    20387 
   20380    20385    20396    20399    20392    20388    20390    20390 
   20392    20393    20383    20380    20389    20391    20390    20394 
   20389    20378    20370    20374    20386    20392    20397    20396 
   20388    20401    20412    20395    20387    20393    20378    20369 
   20380    20383    20380    20389    20394    20388    20389    20392 
   20387    20389    20395    20391    20392    20407    20406    20379 
   20364    20372    20380    20389    20398    20395    20396    20396 
   20383    20377    20373    20375    20394    20418    20430    20412 
   20369    20357    20378    20391    20390    20380    20377    20394 
   20408    20392    20375    20378    20380    20389    20409    20404 
   20384    20373    20384    20413    20416    20384    20371    20385 
   20392    20382    20376    20381    20382    20378    20381    20385 
   20392    20398    20400    20403    20401    20392    20383    20384 
   20392    20392    20386    20384    20388    20397    20389    20372 
   20377    20388    20386    20385    20389    20389    20390    20399 
   20410    20416    20405    20382    20368    20365    20365    20376 
   20384    20393    20407    20401    20385    20384    20386    20389 
   20395    20397    20398    20391    20382    20381    20380    20379 
   20383    20384    20386    20393    20390    20388    20396    20394 
   20392    20398    20396    20396    20396    20386    20385    20383 
   20375    20382    20392    20391    20402    20419    20433    20446 
   20457    20476    20507    20542    20576    20585    20544    20468 
   20377    20276    20182    20108    20074    20108    20239    20477 
   20771    21006    21094    21014    20782    20463    20147    19901 
   19814    19948    20192    20404    20593    20800    21066    21376 
   21474    21082    20247    19225    18277    17752    17977    18941 
   20340    21779    22802    23084    22635    21586    20112    18655 
   17633    17197    17594    19024    21112    23050    24050    23687 
   22196    20218    18326    17077    17043    18443    20820    23040 
   24141    24004    22826    20951    19106    17897    17721    18738 
   20245    21237    21493    21088    20051    19083    19083    20006 
   20990    21065    19957    18628    18049    17968    18170    19389 
   21545    23149    23368    22797    22310    22200    21971    21124 
   20168    19741    19305    18231    17491    18522    21056    23628 
   25136    24945    22938    19932    17096    15426    15728    17799 
   20271    21877    22048    20846    19172    18325    19129    21306 
   23293    23611    22145    19431    16605    15590    17154    20196 
   23427    25590    25412    23206    20615    18847    18570    19652 
   20767    20910    20313    19624    19419    20084    21537    23244 
   24333    23770    20980    16821    13532    12966    15040    18334 
   21565    23762    24027    22250    19538    17365    16451    16639 
   17553    18915    20399    21723    22806    23669    24465    25359 
   25922    25152    22693    19580    17433    17260    18900    21270 
   23359    24714    24999    23868    21467    18773    16849    15777 
   15170    15088    15553    16169    16745    17454    18534    20152 
   21920    22873    22604    21701    20879    20555    20968    21924 
   22824    23265    23249    22863    22184    21639    21873    22788 
   23506    23426    22509    20983    19411    18294    17586    17221 
   17291    17486    17475    17482    17766    18217    18756    19384 
   19895    20216    20456    20386    19865    19431    19628    20314 
   21097    22086    23619    25306    26223    25980    24786    23036 
   21351    20306    19974    20096    20345    20219    19244    17535 
   15818    14932    15260    16504    18027    19341    20297    20834 
   20859    20722    20951    21176    20590    19367    18351    17935 
   18217    19273    20736    22140    23485    24670    25327    25442 
   25134    24355    23289    22095    20616    18963    17682    17134 
   17308    17993    18788    19237    19191    18887    18636    18466 
   18168    17759    17510    17693    18510    19795    21149    22435 
   23477    23853    23577    23164    22924    22786    22540    22089 
   21685    21527    21300    20758    20224    20024    19979    19745 
   19260    18733    18410    18505    19134    20056    20690    20713 
   20510    20626    21065    21522    21854    21964    21614    20647 
   19357    18464    18448    19016    19421    19228    18708    18422 
   18496    18744    19242    20086    20939    21238    20692    19628 
   18869    19140    20591    22633    24223    24678    24124    23133 
   22185    21413    20775    20404    20444    20682    20781    20606 
   20141    19430    18618    17799    17013    16473    16541    17358 
   18665    20040    21122    21701    21827    21651    21218    20641 
   20165    19871    19647    19516    19778    20744    22255    23702 
   24622    24993    24981    24604    23654    22019    19996    18122 
   16780    16064    16034    16768    18061    19424    20369    20591 
   20098    19262    18555    18276    18541    19317    20361    21324 
   22010    22426    22641    22811    23082    23295    23180    22761 
   22214    21581    20860    20131    19499    19010    18603    18247 
   18148    18496    19056    19427    19510    19412    19215    19062 
   19218    19823    20648    21235    21381    21303    21204    20996 
   20610    20224    19989    19845    19680    19527    19548    19819 
   20186    20475    20692    20893    21095    21321    21564    21736 
   21719    21534    21379    21406    21469    21315    20872    20214 
   19496    18902    18499    18228    18024    17959    18230    18931 
   19909    20900    21709    22249    22473    22421    22262    22081 
   21760    21250    20687    20214    19934    19902    20057    20311 
   20565    20732    20908    21248    21656    21847    21582    20851 
   19953    19282    18974    18909    18935    19000    19096    19178 
   19303    19620    20099    20497    20601    20437    20255    20296 
   20571    20899    21132    21249    21243    21045    20631    20142 
   19811    19710    19666    19496    19172    18798    18506    18322 
   18187    18084    18075    18345    19109    20402    22069    23770 
   25016    25465    25200    24620    24078    23719    23470    23098 
   22463    21660    20827    20007    19255    18744    18693    19090 
   19556    19666    19361    18857    18235    17404    16444    15671 
   15325    15476    16215    17471    18789    19732    20272    20606 
   20875    21172    21640    22323    22945    23161    22982    22673 
   22357    21968    21505    21234    21470    22166    22924    23329 
   23103    22198    20865    19444    18221    17424    17180    17548 
   18470    19640    20707    21570    22282    22816    22999    22702 
   22085    21446    20910    20431    19994    19573    18999    18201 
   17411    16920    16865    17230    17920    18878    19975    20911 
   21520    21949    22344    22590    22520    22095    21368    20482 
   19701    19355    19675    20600    21755    22641    22851    22262 
   21061    19590    18267    17468    17299    17596    18118    18662 
   19155    19683    20377    21251    22108    22681    22832    22623 
   22242    21827    21424    21026    20573    20116    19881    20048 
   20633    21488    22297    22683    22423    21535    20271    18987 
   17994    17483    17382    17411    17459    17601    17840    18204 
   18796    19622    20527    21214    21433    21211    20731    20223 
   20038    20457    21452    22744    23895    24508    24452    23848 
   22991    22155    21394    20610    19740    18874    18240    18033 
   18253    18775    19456    20080    20396    20281    19833    19274 
   18720    18204    17881    17895    18293    19053    19965    20758 
   21362    21871    22365    22822    23228    23644    24044    24256 
   24091    23500    22603    21570    20532    19629    18995    18666 
   18638    18823    18958    18867    18576    18156    17707    17334 
   17104    17084    17267    17549    17865    18259    18802    19492 
   20264    21043    21834    22687    23549    24272    24716    24760 
   24309    23412    22357    21490    20950    20723    20754    20837 
   20732    20414    19961    19401    18797    18313    18120    18287 
   18713    19161    19370    19216    18889    18662    18651    18920 
   19355    19791    20359    21118    21827    22327    22731    23145 
   23453    23544    23404    23002    22409    21668    20697    19623 
   18697    18082    17942    18318    19034    19800    20295    20345 
   20050    19606    19172    18942    18999    19189    19363    19504 
   19622    19759    19976    20291    20738    21334    22008    22622 
   23025    23075    22741    22148    21450    20749    20192    19943 
   19954    20033    20102    20092    19898    19572    19197    18813 
   18575    18620    18922    19377    19909    20479    21021    21383 
   21403    21099    20656    20180    19718    19398    19385    19720 
   20209    20567    20592    20315    20082    20128    20314    20457 
   20432    20230    20068    20127    20384    20800    21414    22198 
   22956    23433    23442    22929    22012    20899    19750    18733 
   18074    17904    18210    18844    19595    20331    20943    21295 
   21259    20756    19920    19060    18402    18011    17919    18232 
   18895    19651    20362    20926    21186    21137    20907    20580 
   20155    19658    19227    19024    19144    19558    20133    20864 
   21800    22712    23360    23808    24094    24120    23981    23853 
   23748    23657    23525    23227    22791    22322    21769    20939 
   19744    18354    17038    16043    15613    15846    16574    17490 
   18341    18956    19136    18775    18197    17865    17830    17948 
   18186    18472    18612    18295    17402    16275    15268    14432 
   13851    13738    14278    15593    17659    20223    22809    24990 
   26756    28507    30632    33110    35602    37745    39115    39299 
   38183    35945    32930    29512    25828    21912    18016    14435 
   11324     8800     7089     6447     6719     7540     8872    10517 
   12022    13309    14229    14327    13773    13253    13110    13507 
   14536    15995    17577    19079    20491    21776    22755    23513 
   24437    25678    27046    28335    29285    29442    28583    27063 
   25157    22886    20812    19763    20059    21535    23615    25563 
   26897    27273    26420    24293    21183    17753    14742    12615 
   11624    11948    13515    15900    18689    21616    24338    26433 
   27632    28008    27825    27335    26676    25718    24194    21796 
   18301    14060     9855     6313     3883     2855     3303     5092 
    7857    11194    14712    18004    20723    22461    23070    23078 
   23216    23839    24904    26353    28318    30690    33008    34859 
   36010    36266    35493    33751    31324    28620    25951    23403 
   20898    18202    15091    11577     7975     4987     3395     3492 
    5319     8777    13128    17495    21410    24137    24923    24028 
   22251    20253    18720    18061    18228    19185    20846    22808 
   24631    25982    26457    25756    24030    21801    19675    18341 
   18365    19691    21853    24341    26455    27625    27725    26720 
   24745    22268    19796    17798    16523    15771    15214    14557 
   13532    12261    11369    11563    13044    15440    18480    21904 
   24827    26507    27008    26447    24782    22355    19863    17872 
   16537    15880    16298    18166    21234    25087    29187    32540 
   34257    33917    31610    27934    23586    19100    14896    11433 
    9311     8962    10261    12690    15745    18892    21645    23705 
   24686    24523    23632    22054    19777    17288    14962    12866 
   11044     9754     9335     9820    11215    13682    16973    20368 
   23365    25953    28089    29581    30657    31673    32515    33198 
   33883    33957    32693    30322    27229    23288    18951    15312 
   12709    10995    10304    10676    11962    13735    15400    16751 
   17549    17295    15960    13968    11986    10851    10932    12272 
   15020    18980    23685    28593    32925    36118    37806    37484 
   35038    30942    26013    21295    17472    14747    13422    13687 
   15159    17227    19546    22094    24643    26580    27541    27438 
   26191    24027    21338    18322    15300    12695    10661     9291 
    8712     8854     9667    11154    13124    15276    17345    19189 
   20713    21843    22711    23463    24012    24336    24696    25272 
   26031    27014    28240    29453    30137    29744    28073    25326 
   21969    18392    14693    11279     8737     7056     6213     6367 
    7481     9727    13089    17136    21544    26024    30425    34494 
   37659    39551    39963    38878    36394    32634    28129    23363 
   18603    14414    11195     8833     7425     7243     7907     9133 
   11076    13303    15671    18264    20543    22549    24279    25273 
   25608    25153    23735    21486    18656    15875    13428    11405 
   10050     9470     9850    11181    13351    16199    19266    22314 
   25256    27807    29697    30937    31768    32256    32404    32295 
   31900    31170    29994    28309    26187    23781    21399    19328 
   17756    16758    16258    16051    15838    15511    15096    14649 
   14438    14548    14864    15433    16224    17209    18421    19686 
   20848    21866    22625    23001    22943    22459    21613    20513 
   19288    18115    17222    16754    16779    17281    18072    18962 
   19815    20447    20712    20520    19824    18744    17529    16448 
   15863    16112    17184    18800    20772    22934    24916    26362 
   27191    27508    27439    27064    26440    25714    25032    24389 
   23727    23072    22460    21843    21178    20535    20002    19504 
   18846    18001    17111    16271    15582    15083    14721    14581 
   14759    15173    15750    16414    17059    17692    18376    19166 
   20173    21487    23060    24769    26428    27713    28342    28277 
   27561    26273    24581    22644    20662    18787    17031    15464 
   14204    13284    12734    12672    13247    14495    16374    18848 
   21736    24665    27337    29529    30979    31650    31675    31043 
   29783    28016    25805    23252    20479    17606    14826    12277 
   10047     8255     6907     5929     5423     5595     6481     7990 
   10105    12831    16059    19568    23096    26368    29125    31173 
   32417    32908    32829    32392    31844    31377    30958    30471 
   29866    29040    27819    26169    24294    22483    20843    19312 
   17906    16647    15368    13917    12266    10520     8920     7716 
    7207     7641     8983    11041    13520    16053    18421    20514 
   22304    23877    25257    26431    27350    27815    27727    27184 
   26280    25161    24005    22949    22094    21352    20481    19433 
   18344    17223    16005    14734    13523    12537    11944    11831 
   12253    13255    14786    16763    19173    21970    24947    27805 
   30334    32358    33696    34379    34534    34182    33297    31782 
   29632    27086    24287    21234    18098    15118    12521    10604 
    9615     9595    10358    11615    13113    14526    15509    15953 
   15943    15641    15304    15176    15442    16165    17291    18775 
   20443    21967    23128    23866    24176    24127    23896    23690 
   23637    23776    24035    24273    24372    24237    23825    23143 
   22292    21440    20673    20046    19646    19428    19314    19294 
   19285    19182    19006    18818    18677    18716    19110    19920 
   21028    22255    23442    24407    24953    25010    24643    23953 
   23069    22113    21162    20305    19555    18841    18161    17550 
   16968    16379    15852    15531    15487    15710    16259    17159 
   18236    19279    20146    20738    21045    21109    20998    20847 
   20775    20824    21026    21398    21812    22040    21960    21610 
   21083    20489    19936    19486    19163    18996    18988    19110 
   19330    19616    19949    20319    20759    21330    22029    22765 
   23459    24079    24583    24932    25083    24988    24673    24148 
   23351    22323    21187    20031    18987    18169    17592    17282 
   17262    17469    17814    18237    18676    19078    19405    19688 
   20005    20335    20580    20714    20703    20431    19828    18962 
   17959    16945    16090    15555    15360    15488    15998    16876 
   18010    19352    20844    22372    23844    25140    26154    26797 
   26954    26628    25977    25139    24162    23114    22166    21440 
   20910    20516    20192    19877    19572    19273    18979    18681 
   18361    18060    17828    17675    17606    17621    17709    17793 
   17783    17676    17499    17295    17135    17064    17119    17358 
   17877    18691    19683    20775    21915    23007    23974    24721 
   25203    25470    25618    25714    25687    25507    25303    25121 
   24892    24529    23946    23110    22070    20969    19880    18787 
   17782    16924    16202    15685    15394    15303    15407    15653 
   16015    16469    17022    17741    18565    19394    20201    20953 
   21604    22095    22432    22676    22832    22923    22975    22962 
   22857    22596    22164    21568    20757    19750    18619    17485 
   16541    15945    15780    16035    16680    17643    18737    19884 
   21058    22103    22966    23707    24335    24867    25319    25657 
   25807    25677    25213    24431    23439    22359    21268    20202 
   19134    18055    16992    15958    15003    14178    13515    13083 
   12943    13175    13839    14930    16440    18285    20285    22272 
   24129    25744    27019    27957    28555    28744    28527    27950 
   27049    25884    24509    22984    21375    19732    18128    16608 
   15238    14124    13323    12885    12864    13246    13966    14927 
   16058    17316    18637    19956    21252    22528    23721    24715 
   25454    25898    26011    25827    25381    24707    23862    22933 
   22027    21246    20662    20238    19950    19867    19954    20103 
   20267    20372    20324    20075    19650    19114    18518    17971 
   17589    17429    17521    17834    18307    18870    19428    19903 
   20243    20438    20494    20433    20338    20263    20246    20353 
   20560    20800    21031    21237    21414    21496    21430    21225 
   20876    20398    19815    19199    18624    18093    17662    17390 
   17261    17320    17642    18268    19158    20225    21415    22623 
