Origin Time       2025/03/29 04:45:00
Lat.              31.090
Long.             131.512
Depth. (km)       33
Mag.              4.6
Station Code      KGS013
Station Lat.      31.5973
Station Long.     130.9938
Station Height(m) 118
Record Time       2025/03/29 04:45:30
Sampling Freq(Hz) 100Hz
Duration Time(s)  66
Dir.              U-D
Scale Factor      3920(gal)/6182761
Max. Acc. (gal)   1.288
Last Correction   2025/03/29 04:45:30
Memo.             
   23276    23279    23273    23271    23275    23274    23273    23276 
   23273    23268    23276    23285    23282    23275    23268    23260 
   23271    23287    23282    23274    23274    23270    23270    23276 
   23282    23277    23269    23273    23279    23278    23274    23267 
   23270    23281    23284    23272    23264    23272    23281    23276 
   23272    23273    23271    23278    23282    23271    23263    23271 
   23281    23283    23273    23267    23276    23281    23272    23267 
   23273    23275    23275    23277    23272    23271    23279    23280 
   23273    23273    23275    23270    23270    23278    23279    23274 
   23274    23271    23269    23276    23278    23271    23276    23281 
   23274    23270    23269    23269    23274    23278    23278    23270 
   23266    23277    23284    23278    23275    23275    23266    23263 
   23272    23278    23279    23281    23274    23265    23269    23276 
   23276    23275    23277    23274    23271    23272    23274    23276 
   23277    23275    23270    23266    23271    23279    23280    23277 
   23280    23278    23264    23263    23278    23279    23273    23276 
   23278    23276    23276    23270    23267    23272    23275    23277 
   23277    23275    23276    23270    23268    23278    23278    23274 
   23277    23276    23270    23271    23274    23274    23278    23281 
   23277    23273    23268    23270    23282    23282    23273    23273 
   23275    23274    23275    23274    23271    23275    23278    23275 
   23279    23282    23274    23266    23269    23278    23283    23277 
   23268    23270    23274    23274    23279    23281    23275    23273 
   23269    23264    23274    23286    23282    23277    23278    23272 
   23266    23270    23272    23275    23282    23281    23274    23272 
   23274    23272    23271    23273    23275    23277    23279    23275 
   23270    23270    23273    23277    23279    23277    23271    23265 
   23268    23280    23287    23277    23268    23269    23271    23277 
   23284    23277    23268    23273    23276    23271    23272    23275 
   23272    23275    23279    23274    23272    23275    23274    23275 
   23277    23275    23272    23271    23273    23274    23272    23272 
   23274    23275    23278    23280    23275    23268    23268    23273 
   23276    23276    23277    23273    23269    23274    23277    23273 
   23273    23276    23278    23272    23269    23274    23275    23272 
   23276    23276    23272    23270    23272    23273    23273    23278 
   23279    23271    23267    23273    23282    23279    23270    23271 
   23276    23277    23274    23272    23275    23281    23281    23269 
   23261    23268    23276    23283    23286    23275    23267    23266 
   23270    23278    23279    23274    23275    23273    23266    23269 
   23274    23273    23281    23285    23270    23261    23268    23274 
   23280    23285    23278    23264    23262    23272    23276    23277 
   23282    23281    23267    23265    23276    23276    23272    23276 
   23271    23269    23282    23282    23262    23257    23278    23288 
   23279    23271    23269    23263    23267    23284    23288    23276 
   23270    23273    23268    23267    23274    23275    23277    23282 
   23276    23268    23269    23270    23270    23277    23280    23275 
   23271    23268    23274    23281    23275    23273    23279    23270 
   23263    23276    23284    23274    23273    23279    23272    23270 
   23274    23267    23266    23281    23289    23281    23272    23268 
   23264    23264    23275    23284    23281    23278    23276    23264 
   23260    23274    23280    23277    23277    23276    23272    23271 
   23273    23276    23277    23273    23275    23279    23274    23268 
   23271    23273    23276    23280    23277    23270    23275    23279 
   23273    23271    23274    23273    23275    23278    23274    23274 
   23279    23272    23262    23274    23288    23281    23270    23269 
   23268    23268    23280    23286    23274    23267    23273    23280 
   23283    23275    23264    23265    23274    23282    23280    23271 
   23272    23278    23270    23262    23269    23280    23285    23282 
   23273    23268    23267    23270    23274    23274    23275    23279 
   23275    23270    23272    23275    23272    23274    23279    23274 
   23269    23276    23276    23268    23272    23282    23277    23266 
   23267    23277    23279    23278    23280    23275    23265    23266 
   23272    23272    23276    23283    23279    23274    23274    23267 
   23263    23277    23288    23281    23274    23271    23265    23270 
   23278    23278    23277    23277    23275    23272    23272    23281 
   23281    23266    23262    23275    23280    23280    23283    23273 
   23262    23272    23280    23271    23272    23281    23277    23273 
   23274    23272    23271    23270    23272    23279    23280    23278 
   23279    23274    23267    23271    23277    23272    23270    23276 
   23281    23281    23274    23267    23271    23274    23275    23277 
   23279    23278    23275    23272    23271    23273    23273    23274 
   23281    23280    23272    23272    23278    23277    23274    23272 
   23270    23274    23281    23277    23269    23274    23280    23275 
   23271    23273    23273    23276    23283    23279    23268    23264 
   23273    23277    23274    23279    23283    23275    23274    23275 
   23267    23268    23283    23282    23270    23270    23276    23276 
   23278    23279    23273    23267    23268    23275    23280    23279 
   23280    23278    23265    23261    23276    23280    23278    23283 
   23278    23268    23273    23275    23268    23273    23280    23274 
   23270    23278    23283    23277    23273    23272    23266    23265 
   23276    23288    23283    23270    23268    23273    23274    23275 
   23277    23277    23277    23274    23270    23275    23280    23275 
   23269    23272    23274    23274    23277    23276    23272    23269 
   23270    23277    23281    23277    23272    23268    23269    23279 
   23280    23277    23278    23273    23266    23274    23281    23279 
   23279    23277    23271    23266    23266    23278    23288    23280 
   23271    23272    23269    23266    23280    23285    23271    23269 
   23276    23268    23266    23278    23278    23270    23274    23280 
   23276    23270    23267    23268    23272    23280    23285    23277 
   23269    23268    23272    23279    23282    23280    23272    23264 
   23270    23280    23276    23276    23280    23272    23266    23271 
   23269    23270    23285    23284    23273    23270    23265    23263 
   23277    23286    23277    23272    23276    23277    23275    23273 
   23274    23275    23271    23276    23282    23275    23268    23272 
   23277    23274    23272    23275    23278    23277    23271    23268 
   23275    23278    23278    23273    23266    23270    23281    23278 
   23272    23275    23276    23276    23279    23273    23264    23271 
   23280    23279    23278    23277    23267    23262    23273    23281 
   23282    23281    23276    23270    23267    23268    23274    23277 
   23278    23280    23274    23264    23271    23280    23274    23271 
   23277    23275    23271    23274    23277    23275    23276    23277 
   23270    23265    23273    23283    23282    23278    23276    23266 
   23259    23275    23289    23283    23275    23272    23267    23269 
   23277    23277    23273    23275    23280    23275    23266    23268 
   23277    23275    23275    23279    23273    23272    23280    23274 
   23268    23276    23277    23270    23273    23279    23276    23272 
   23272    23274    23274    23273    23280    23279    23268    23267 
   23275    23275    23274    23280    23278    23271    23272    23273 
   23268    23275    23281    23277    23276    23274    23268    23269 
   23273    23278    23281    23278    23271    23271    23273    23272 
   23274    23278    23276    23275    23276    23273    23270    23274 
   23280    23283    23277    23268    23269    23274    23273    23273 
   23279    23280    23271    23267    23276    23278    23269    23268 
   23282    23287    23278    23273    23271    23269    23274    23281 
   23277    23273    23276    23276    23277    23280    23274    23269 
   23276    23274    23267    23276    23286    23277    23268    23270 
   23272    23275    23276    23275    23279    23281    23276    23269 
   23264    23267    23279    23286    23280    23272    23272    23274 
   23276    23275    23271    23271    23277    23278    23273    23271 
   23276    23280    23278    23272    23271    23274    23276    23279 
   23281    23273    23265    23268    23271    23270    23277    23285 
   23284    23276    23265    23261    23268    23280    23286    23277 
   23268    23270    23271    23272    23279    23277    23272    23276 
   23279    23273    23269    23269    23271    23276    23281    23276 
   23269    23273    23276    23274    23272    23275    23276    23273 
   23276    23277    23269    23264    23276    23284    23277    23270 
   23271    23268    23271    23280    23280    23274    23273    23272 
   23267    23269    23281    23284    23273    23266    23269    23270 
   23272    23282    23282    23269    23268    23272    23271    23275 
   23278    23276    23276    23275    23274    23274    23270    23272 
   23277    23273    23270    23275    23276    23274    23279    23274 
   23265    23272    23276    23271    23278    23284    23273    23266 
   23269    23271    23277    23284    23279    23271    23272    23277 
   23276    23274    23274    23271    23272    23276    23275    23275 
   23273    23273    23278    23277    23267    23270    23278    23276 
   23276    23277    23268    23267    23276    23277    23275    23277 
   23273    23270    23279    23280    23269    23267    23274    23277 
   23275    23275    23277    23272    23266    23270    23279    23279 
   23273    23272    23274    23271    23276    23285    23274    23265 
   23273    23274    23271    23278    23283    23281    23276    23267 
   23258    23265    23284    23289    23280    23273    23270    23270 
   23274    23273    23273    23280    23279    23271    23273    23279 
   23279    23272    23264    23271    23282    23280    23277    23278 
   23274    23270    23275    23278    23274    23269    23273    23281 
   23278    23274    23275    23273    23272    23274    23276    23277 
   23276    23276    23273    23273    23275    23272    23271    23279 
   23282    23275    23268    23270    23275    23276    23274    23273 
   23271    23269    23274    23280    23277    23272    23272    23276 
   23279    23274    23268    23272    23278    23277    23273    23271 
   23273    23273    23275    23280    23280    23273    23272    23275 
   23272    23271    23276    23275    23270    23275    23277    23274 
   23277    23276    23265    23269    23283    23282    23276    23277 
   23272    23266    23271    23281    23281    23272    23273    23279 
   23274    23271    23275    23271    23267    23276    23279    23275 
   23279    23277    23269    23271    23270    23265    23273    23288 
   23287    23268    23257    23268    23283    23283    23275    23269 
   23266    23269    23282    23284    23273    23271    23271    23264 
   23270    23281    23277    23274    23282    23281    23268    23265 
   23273    23280    23285    23283    23273    23263    23263    23275 
   23287    23283    23276    23274    23268    23266    23277    23281 
   23274    23275    23278    23269    23266    23275    23278    23278 
   23281    23277    23265    23263    23279    23288    23275    23267 
   23273    23271    23273    23282    23277    23264    23270    23282 
   23281    23280    23275    23263    23265    23274    23278    23283 
   23282    23274    23269    23264    23255    23240    23212    23181 
   23162    23155    23179    23257    23365    23454    23507    23505 
   23436    23328    23207    23080    22997    23010    23105    23254 
   23432    23579    23642    23612    23502    23354    23220    23139 
   23116    23122    23108    23060    23002    22978    23031    23177 
   23381    23574    23686    23663    23495    23224    22924    22701 
   22663    22854    23217    23609    23861    23844    23557    23154 
   22826    22694    22804    23096    23415    23612    23654    23597 
   23528    23521    23586    23653    23614    23428    23185    23022 
   23009    23132    23302    23386    23296    23036    22707    22514 
   22607    22924    23288    23565    23686    23623    23423    23212 
   23122    23208    23373    23445    23362    23204    23103    23160 
   23399    23706    23900    23915    23834    23740    23611    23389 
   23097    22818    22649    22648    22779    22954    23107    23233 
   23316    23286    23119    22953    23001    23330    23782    24073 
   23951    23420    22809    22516    22726    23290    23839    24025 
   23710    23116    22745    22891    23332    23644    23656    23472 
   23245    23072    23057    23244    23417    23256    22824    22544 
   22652    22999    23335    23532    23641    23828    24200    24592 
   24586    23873    22640    21547    21243    21867    22959    23822 
   24000    23566    23051    22966    23321    23716    23851    23775 
   23729    23848    24002    23913    23414    22650    22069    22053 
   22554    23180    23566    23670    23686    23728    23723    23572 
   23281    22970    22793    22806    22931    23100    23317    23537 
   23628    23537    23352    23143    22870    22622    22684    23152 
   23732    24025    23924    23662    23498    23454    23409    23263 
   22985    22687    22622    22938    23441    23763    23730    23439 
   23067    22749    22585    22642    22928    23371    23839    24207 
   24354    24205    23820    23339    22831    22331    21984    22029 
   22553    23335    23992    24240    24004    23431    22841    22579 
   22795    23302    23727    23791    23452    23060    23054    23329 
   23520    23537    23324    22939    22711    22862    23369    23918 
   24053    23693    23164    22810    22751    22916    23185    23425 
   23514    23404    23187    23076    23193    23440    23682    23806 
   23623    23042    22363    22136    22626    23527    24263    24449 
   24085    23475    22981    22783    22817    22926    23057    23217 
   23342    23378    23350    23312    23330    23432    23583    23700 
   23642    23359    23025    22866    22944    23157    23381    23549 
   23631    23588    23381    22994    22531    22225    22265    22711 
   23448    24128    24348    24013    23411    22933    22796    22999 
   23393    23742    23834    23661    23382    23089    22804    22610 
   22619    22848    23207    23548    23746    23724    23482    23176 
   23066    23228    23485    23667    23719    23618    23400    23183 
   23068    23058    23063    23051    23105    23240    23313    23225 
   23086    23068    23166    23224    23179    23108    23060    23052 
   23154    23362    23507    23445    23222    23044    23107    23392 
   23721    23952    24018    23919    23752    23604    23446    23275 
   23171    23164    23206    23247    23262    23215    23075    22857 
   22632    22481    22451    22577    22867    23220    23505    23691 
   23804    23854    23802    23610    23321    23053    22920    22968 
   23122    23245    23289    23345    23512    23697    23649    23276 
   22791    22487    22542    22958    23522    23907    23895    23553 
   23176    22990    22956    22949    22976    23107    23346    23633 
   23851    23896    23754    23498    23240    23072    22985    22947 
   22981    23091    23189    23217    23212    23212    23227    23293 
   23431    23581    23631    23551    23436    23379    23366    23342 
   23302    23284    23262    23128    22874    22667    22658    22864 
   23218    23614    23869    23814    23508    23196    23056    23094 
   23238    23427    23565    23556    23432    23344    23375    23457 
   23477    23418    23336    23242    23126    23048    23069    23165 
   23259    23283    23227    23132    23019    22878    22719    22597 
   22587    22752    23084    23457    23700    23734    23613    23438 
   23311    23300    23395    23498    23498    23382    23242    23191 
   23258    23380    23496    23577    23564    23433    23259    23172 
   23267    23507    23733    23784    23584    23187    22780    22601 
   22743    23017    23144    23024    22789    22647    22718    22967 
   23266    23476    23547    23555    23584    23665    23790    23899 
   23931    23860    23697    23488    23289    23126    23019    22986 
   23027    23089    23109    23083    23057    23065    23105    23141 
   23145    23127    23120    23167    23284    23440    23576    23621 
   23552    23425    23314    23247    23226    23232    23247    23272 
   23333    23463    23613    23684    23640    23504    23335    23215 
   23167    23122    23015    22826    22598    22437    22453    22667 
   23006    23363    23634    23752    23716    23615    23561    23596 
   23662    23683    23629    23508    23363    23238    23162    23148 
   23160    23146    23107    23063    23032    23052    23139    23249 
   23300    23243    23112    22976    22887    22877    22953    23072 
   23176    23235    23258    23272    23317    23382    23424    23448 
   23476    23481    23470    23508    23597    23644    23590    23476 
   23376    23332    23336    23363    23377    23326    23199    23044 
   22931    22897    22911    22925    22943    23009    23124    23238 
   23298    23290    23273    23320    23430    23566    23700    23769 
   23706    23494    23185    22889    22716    22717    22885    23173 
   23510    23810    23984    23979    23822    23596    23373    23189 
   23071    23031    23050    23104    23175    23222    23187    23076 
   22943    22842    22840    22984    23236    23464    23533    23407 
   23173    22988    22958    23077    23263    23436    23553    23607 
   23614    23596    23565    23533    23522    23513    23452    23313 
   23127    22985    22963    23053    23179    23272    23319    23335 
   23326    23292    23228    23129    23013    22929    22912    22965 
   23059    23154    23252    23386    23550    23653    23603    23416 
   23213    23104    23123    23220    23283    23253    23213    23274 
   23432    23594    23622    23442    23155    22954    22953    23130 
   23374    23572    23691    23748    23730    23628    23451    23242 
   23067    22956    22918    22959    23028    23039    22980    22917 
   22900    22947    23083    23307    23551    23713    23735    23619 
   23422    23233    23118    23108    23212    23385    23514    23520 
   23426    23304    23216    23188    23196    23192    23174    23181 
   23232    23295    23308    23235    23083    22896    22757    22758 
   22926    23219    23556    23827    23966    23995    23964    23916 
   23878    23829    23721    23534    23291    23025    22759    22517 
   22338    22263    22311    22481    22745    23031    23272    23451 
   23592    23724    23855    23929    23899    23791    23656    23519 
