Origin Time       2025/03/29 04:45:00
Lat.              31.090
Long.             131.512
Depth. (km)       33
Mag.              4.6
Station Code      KGS010
Station Lat.      31.7123
Station Long.     130.2735
Station Height(m) 16
Record Time       2025/03/29 04:45:56
Sampling Freq(Hz) 100Hz
Duration Time(s)  60
Dir.              N-S
Scale Factor      7845(gal)/8223790
Max. Acc. (gal)   1.442
Last Correction   2025/03/29 04:45:56
Memo.             
[...]
   -3429    -3460    -3505    -3565    -3623    -3667    -3689    -3685 
   -3650    -3585    -3505    -3429    -3368    -3327    -3304    -3299 
   -3308    -3335    -3383    -3445    -3497    -3527    -3553    -3586 
   -3612    -3611    -3593    -3576    -3542    -3480    -3406    -3329 
   -3253    -3191    -3157    -3161    -3194    -3250    -3335    -3414 
   -3453    -3462    -3449    -3423    -3407    -3400    -3395    -3391 
   -3388    -3383    -3380    -3389    -3395    -3399    -3423    -3443 
   -3446    -3451    -3468    -3488    -3516    -3549    -3572    -3573 
   -3550    -3528    -3508    -3477    -3469    -3493    -3526    -3557 
   -3559    -3522    -3474    -3411    -3325    -3253    -3207    -3172 
   -3171    -3217    -3271    -3315    -3356    -3383    -3400    -3419 
   -3434    -3454    -3488    -3522    -3551    -3568    -3555    -3531 
   -3512    -3488    -3454    -3418    -3384    -3356    -3338    -3329 
   -3330    -3350    -3395    -3454    -3519    -3572    -3607    -3615 
   -3584    -3530    -3461    -3388    -3337    -3310    -3308    -3339 
   -3387    -3433    -3462    -3480    -3488    -3470    -3447    -3441 
   -3433    -3420    -3411    -3396    -3385    -3372    -3354    -3349 
   -3346    -3323    -3295    -3262    -3231    -3219    -3241    -3299 
   -3381    -3465    -3538    -3592    -3616    -3616    -3605    -3593 
   -3591    -3599    -3604    -3586    -3549    -3504    -3449    -3403 
   -3384    -3381    -3389    -3416    -3442    -3457    -3470    -3474 
   -3466    -3461    -3458    -3438    -3393    -3357    -3335    -3302 
   -3275    -3276    -3277    -3262    -3242    -3225    -3211    -3206 
   -3217    -3258    -3325    -3379    -3424    -3474    -3512    -3527 
   -3530    -3539    -3561    -3578    -3582    -3585    -3580    -3557 
   -3545    -3549    -3551    -3550    -3547    -3543    -3558    -3581 
   -3597    -3623    -3649    -3645    -3615    -3570    -3493    -3392 
   -3294    -3190    -3090    -3017    -2971    -2968    -3001    -3045 
   -3111    -3176    -3229    -3284    -3321    -3339    -3372    -3410 
   -3450    -3496    -3538    -3581    -3615    -3635    -3651    -3651 
   -3640    -3632    -3619    -3611    -3612    -3601    -3589    -3592 
   -3599    -3604    -3605    -3596    -3566    -3524    -3474    -3420 
   -3375    -3341    -3312    -3302    -3298    -3283    -3275    -3273 
   -3261    -3241    -3207    -3171    -3148    -3132    -3127    -3150 
   -3191    -3258    -3353    -3439    -3512    -3580    -3630    -3657 
   -3663    -3654    -3635    -3620    -3601    -3570    -3545    -3527 
   -3510    -3501    -3503    -3493    -3477    -3473    -3476    -3476 
   -3478    -3485    -3489    -3489    -3473    -3438    -3385    -3325 
   -3279    -3264    -3279    -3308    -3339    -3391    -3456    -3505 
   -3534    -3550    -3549    -3530    -3488    -3424    -3372    -3334 
   -3306    -3296    -3285    -3267    -3254    -3242    -3242    -3264 
   -3289    -3326    -3372    -3404    -3416    -3416    -3407    -3396 
   -3387    -3375    -3362    -3352    -3349    -3354    -3364    -3379 
   -3406    -3441    -3476    -3516    -3573    -3619    -3647    -3680 
   -3693    -3674    -3640    -3585    -3512    -3453    -3402    -3368 
   -3375    -3395    -3418    -3447    -3466    -3464    -3456    -3454 
   -3445    -3422    -3408    -3397    -3373    -3346    -3318    -3279 
   -3256    -3258    -3269    -3294    -3334    -3377    -3424    -3478 
   -3519    -3539    -3554    -3569    -3572    -3555    -3531    -3503 
   -3470    -3445    -3438    -3433    -3412    -3397    -3379    -3331 
   -3273    -3226    -3196    -3190    -3198    -3211    -3233    -3261 
   -3292    -3331    -3379    -3419    -3454    -3501    -3555    -3604 
   -3647    -3696    -3753    -3794    -3808    -3807    -3781    -3734 
   -3674    -3599    -3528    -3468    -3404    -3356    -3335    -3322 
   -3308    -3302    -3304    -3304    -3289    -3273    -3260    -3245 
   -3240    -3242    -3241    -3242    -3244    -3245    -3254    -3261 
   -3272    -3295    -3327    -3365    -3403    -3441    -3469    -3487 
   -3510    -3531    -3524    -3512    -3520    -3522    -3510    -3508 
   -3508    -3495    -3484    -3484    -3485    -3484    -3478    -3477 
   -3488    -3497    -3501    -3511    -3526    -3530    -3526    -3512 
   -3488    -3451    -3407    -3365    -3331    -3308    -3310    -3331 
   -3368    -3408    -3442    -3478    -3503    -3514    -3520    -3515 
   -3499    -3474    -3445    -3416    -3392    -3373    -3375    -3389 
   -3397    -3400    -3408    -3410    -3402    -3393    -3384    -3364 
   -3346    -3335    -3323    -3311    -3291    -3265    -3265    -3284 
   -3304    -3335    -3384    -3438    -3470    -3483    -3504    -3512 
   -3499    -3507    -3524    -3519    -3511    -3510    -3504    -3497 
   -3503    -3518    -3534    -3542    -3539    -3528    -3510    -3496 
   -3491    -3487    -3481    -3465    -3442    -3424    -3408    -3391 
   -3368    -3350    -3338    -3321    -3310    -3311    -3308    -3308 
   -3319    -3329    -3337    -3360    -3395    -3430    -3461    -3485 
   -3500    -3510    -3511    -3499    -3470    -3429    -3381    -3348 
   -3342    -3358    -3373    -3396    -3441    -3484    -3523    -3568 
   -3609    -3632    -3636    -3626    -3597    -3547    -3484    -3423 
   -3366    -3327    -3307    -3302    -3321    -3352    -3370    -3380 
   -3392    -3399    -3393    -3389    -3385    -3368    -3357    -3354 
   -3339    -3321    -3304    -3299    -3299    -3296    -3298    -3312 
   -3334    -3362    -3397    -3430    -3445    -3439    -3435    -3434 
   -3416    -3396    -3393    -3407    -3430    -3465    -3508    -3554 
   -3595    -3622    -3639    -3655    -3659    -3658    -3665    -3662 
   -3628    -3573    -3514    -3456    -3391    -3322    -3279    -3244 
   -3206    -3195    -3213    -3229    -3248    -3277    -3311    -3348 
   -3392    -3434    -3480    -3531    -3547    -3535    -3551    -3568 
   -3547    -3535    -3547    -3555    -3549    -3538    -3527    -3503 
   -3461    -3443    -3434    -3397    -3376    -3366    -3331    -3312 
   -3310    -3292    -3284    -3280    -3269    -3273    -3271    -3262 
   -3271    -3275    -3279    -3296    -3319    -3346    -3364    -3373 
   -3391    -3396    -3387    -3379    -3376    -3388    -3396    -3391 
   -3406    -3456    -3514    -3562    -3616    -3667    -3703    -3728 
   -3758    -3780    -3782    -3777    -3767    -3743    -3700    -3657 
   -3630    -3597    -3549    -3503    -3445    -3368    -3299    -3235 
   -3164    -3103    -3067    -3056    -3067    -3087    -3106    -3118 
   -3132    -3141    -3140    -3138    -3157    -3181    -3206    -3264 
   -3323    -3338    -3365    -3420    -3461    -3493    -3539    -3589 
   -3636    -3676    -3715    -3738    -3740    -3743    -3746    -3747 
   -3753    -3736    -3705    -3682    -3640    -3580    -3534    -3496 
   -3460    -3441    -3450    -3457    -3442    -3435    -3427    -3399 
   -3366    -3335    -3306    -3280    -3249    -3227    -3226    -3235 
   -3261    -3310    -3365    -3415    -3450    -3466    -3458    -3420 
   -3354    -3289    -3237    -3175    -3119    -3082    -3055    -3048 
   -3057    -3084    -3138    -3204    -3284    -3384    -3483    -3558 
   -3627    -3693    -3742    -3765    -3773    -3775    -3767    -3746 
   -3726    -3705    -3677    -3645    -3626    -3607    -3576    -3553 
   -3539    -3527    -3514    -3478    -3422    -3369    -3306    -3230 
   -3165    -3107    -3052    -3024    -3021    -3041    -3075    -3113 
   -3157    -3203    -3235    -3269    -3312    -3356    -3408    -3474 
   -3535    -3591    -3654    -3720    -3774    -3804    -3809    -3798 
   -3774    -3735    -3686    -3635    -3576    -3516    -3458    -3400 
   -3343    -3288    -3240    -3215    -3202    -3181    -3171    -3169 
   -3169    -3173    -3186    -3200    -3211    -3234    -3275    -3314 
   -3348    -3377    -3407    -3439    -3470    -3497    -3516    -3531 
   -3558    -3584    -3596    -3601    -3604    -3618    -3636    -3651 
   -3676    -3715    -3755    -3789    -3813    -3829    -3832    -3812 
   -3778    -3728    -3661    -3589    -3516    -3453    -3404    -3350 
   -3296    -3268    -3252    -3221    -3188    -3164    -3145    -3136 
   -3142    -3164    -3191    -3211    -3238    -3283    -3314    -3327 
   -3343    -3349    -3341    -3333    -3322    -3319    -3329    -3337 
   -3341    -3349    -3349    -3338    -3331    -3321    -3295    -3280 
   -3288    -3294    -3299    -3314    -3327    -3342    -3357    -3364 
   -3369    -3362    -3346    -3337    -3325    -3308    -3302    -3310 
   -3339    -3385    -3442    -3522    -3613    -3701    -3789    -3855 
   -3893    -3909    -3896    -3858    -3815    -3763    -3699    -3649 
   -3628    -3608    -3580    -3568    -3568    -3555    -3532    -3511 
   -3493    -3458    -3396    -3350    -3331    -3298    -3257    -3238 
   -3240    -3256    -3280    -3314    -3358    -3404    -3460    -3522 
   -3576    -3626    -3666    -3688    -3689    -3654    -3600    -3542 
   -3460    -3365    -3277    -3179    -3091    -3036    -3002    -2983 
   -2983    -3003    -3042    -3086    -3110    -3130    -3171    -3217 
   -3248    -3287    -3334    -3379    -3431    -3493    -3557    -3624 
   -3700    -3781    -3867    -3943    -3993    -4039    -4082    -4094 
   -4087    -4079    -4050    -4000    -3939    -3863    -3786    -3694 
   -3588    -3493    -3397    -3281    -3163    -3065    -2986    -2913 
   -2851    -2817    -2801    -2801    -2818    -2830    -2833    -2849 
   -2870    -2879    -2880    -2879    -2879    -2887    -2910    -2949 
   -3003    -3082    -3171    -3269    -3389    -3499    -3585    -3670 
   -3734    -3775    -3808    -3827    -3843    -3852    -3846    -3842 
   -3836    -3804    -3755    -3701    -3634    -3546    -3442    -3335 
   -3237    -3122    -2998    -2893    -2810    -2755    -2728    -2729 
   -2762    -2818    -2901    -3014    -3134    -3241    -3358    -3487 
   -3604    -3717    -3843    -3970    -4095    -4225    -4348    -4445 
   -4513    -4554    -4558    -4525    -4450    -4332    -4190    -4040 
   -3882    -3727    -3588    -3461    -3350    -3260    -3186    -3121 
   -3052    -3009    -2998    -2980    -2959    -2951    -2945    -2934 
   -2920    -2910    -2914    -2924    -2948    -2990    -3045    -3114 
   -3184    -3253    -3330    -3384    -3396    -3397    -3391    -3356 
   -3310    -3280    -3256    -3231    -3227    -3250    -3289    -3331 
   -3380    -3439    -3500    -3547    -3592    -3639    -3667    -3681 
   -3696    -3700    -3689    -3672    -3645    -3589    -3505    -3404 
   -3296    -3196    -3126    -3095    -3111    -3186    -3306    -3454 
   -3604    -3735    -3835    -3908    -3944    -3939    -3894    -3827 
   -3753    -3681    -3603    -3522    -3458    -3397    -3331    -3271 
   -3217    -3180    -3179    -3203    -3254    -3341    -3435    -3534 
   -3640    -3735    -3805    -3861    -3906    -3932    -3937    -3924 
   -3890    -3846    -3808    -3767    -3734    -3719    -3711    -3708 
   -3700    -3663    -3600    -3512    -3396    -3254    -3094    -2925 
   -2758    -2597    -2458    -2343    -2232    -2145    -2097    -2083 
   -2096    -2139    -2211    -2309    -2436    -2583    -2745    -2924 
   -3107    -3296    -3501    -3694    -3858    -4014    -4171    -4309 
   -4421    -4519    -4614    -4680    -4720    -4753    -4754    -4707 
   -4627    -4529    -4402    -4255    -4108    -3973    -3850    -3739 
   -3624    -3499    -3383    -3269    -3152    -3053    -2979    -2932 
   -2924    -2957    -3019    -3091    -3180    -3279    -3348    -3385 
   -3402    -3370    -3292    -3199    -3095    -2997    -2920    -2867 
   -2844    -2849    -2880    -2941    -3034    -3156    -3281    -3400 
   -3511    -3596    -3655    -3697    -3708    -3681    -3627    -3565 
   -3503    -3431    -3357    -3308    -3289    -3299    -3352    -3433 
   -3524    -3628    -3713    -3766    -3788    -3763    -3712    -3657 
   -3578    -3493    -3424    -3353    -3281    -3214    -3144    -3071 
   -2999    -2940    -2897    -2856    -2801    -2744    -2693    -2641 
   -2597    -2578    -2585    -2608    -2666    -2768    -2891    -3029 
   -3177    -3315    -3462    -3627    -3771    -3894    -4027    -4153 
   -4244    -4302    -4342    -4367    -4360    -4329    -4282    -4228 
   -4175    -4120    -4079    -4050    -4009    -3971    -3947    -3904 
   -3839    -3753    -3649    -3541    -3422    -3298    -3180    -3060 
   -2948    -2852    -2755    -2662    -2583    -2521    -2488    -2488 
   -2520    -2597    -2720    -2870    -3052    -3261    -3470    -3669 
   -3852    -4010    -4131    -4207    -4251    -4268    -4237    -4170 
   -4097    -4012    -3905    -3807    -3716    -3634    -3565    -3508 
   -3480    -3478    -3473    -3460    -3450    -3438    -3406    -3356 
   -3314    -3276    -3233    -3200    -3171    -3134    -3094    -3059 
   -3037    -3010    -2971    -2928    -2872    -2814    -2754    -2679 
   -2620    -2590    -2578    -2608    -2673    -2755    -2863    -2987 
   -3122    -3272    -3424    -3577    -3723    -3846    -3954    -4027 
   -4055    -4067    -4063    -4047    -4033    -4024    -4045    -4105 
   -4164    -4224    -4297    -4368    -4428    -4473    -4496    -4484 
   -4418    -4297    -4131    -3919    -3658    -3375    -3096    -2826 
   -2567    -2339    -2153    -2014    -1935    -1915    -1935    -2004 
   -2120    -2273    -2463    -2679    -2906    -3141    -3372    -3582 
   -3774    -3936    -4070    -4175    -4237    -4260    -4267    -4264 
   -4267    -4282    -4291    -4295    -4298    -4293    -4264    -4199 
   -4093    -3963    -3813    -3632    -3429    -3221    -3006    -2808 
   -2651    -2523    -2415    -2339    -2303    -2308    -2351    -2428 
   -2538    -2681    -2843    -3021    -3222    -3426    -3618    -3793 
   -3940    -4062    -4149    -4174    -4152    -4091    -3971    -3808 
   -3628    -3447    -3276    -3125    -3007    -2925    -2886    -2910 
   -2978    -3064    -3165    -3265    -3354    -3430    -3488    -3535 
   -3572    -3604    -3647    -3699    -3750    -3790    -3820    -3842 
   -3832    -3775    -3688    -3586    -3468    -3343    -3235    -3159 
   -3114    -3103    -3126    -3175    -3233    -3302    -3395    -3500 
   -3597    -3682    -3755    -3821    -3870    -3875    -3847    -3798 
   -3719    -3634    -3562    -3489    -3422    -3377    -3357    -3362 
   -3368    -3377    -3406    -3418    -3423    -3426    -3396    -3358 
   -3325    -3275    -3242    -3234    -3230    -3256    -3321    -3395 
   -3481    -3584    -3692    -3797    -3889    -3960    -3997    -3996 
   -3970    -3925    -3851    -3748    -3635    -3528    -3423    -3323 
   -3235    -3164    -3106    -3053    -3006    -2972    -2938    -2880 
   -2813    -2741    -2646    -2547    -2482    -2442    -2419    -2421 
   -2462    -2544    -2660    -2809    -2987    -3179    -3383    -3591 
   -3785    -3958    -4093    -4178    -4228    -4239    -4199    -4124 
   -4032    -3927    -3813    -3701    -3605    -3526    -3470    -3460 
   -3481    -3511    -3559    -3631    -3704    -3770    -3815    -3832 
   -3821    -3770    -3681    -3565    -3427    -3269    -3096    -2933 
   -2794    -2666    -2574    -2540    -2540    -2563    -2616    -2704 
   -2821    -2945    -3080    -3233    -3385    -3530    -3672    -3805 
   -3921    -4001    -4051    -4094    -4118    -4105    -4078    -4045 
   -3987    -3917    -3848    -3766    -3676    -3586    -3507    -3437 
   -3370    -3321    -3292    -3283    -3299    -3341    -3400    -3474 
   -3553    -3623    -3682    -3723    -3736    -3744    -3750    -3731 
   -3684    -3627    -3569    -3500    -3430    -3369    -3319    -3285 
   -3265    -3254    -3250    -3237    -3211    -3184    -3133    -3056 
   -2975    -2890    -2806    -2725    -2654    -2625    -2640    -2687 
   -2790    -2941    -3117    -3316    -3527    -3731    -3916    -4062 
   -4174    -4260    -4310    -4318    -4286    -4228    -4141    -4029 
   -3912    -3789    -3654    -3523    -3406    -3303    -3210    -3119 
   -3042    -2982    -2929    -2902    -2894    -2895    -2921    -2982 
   -3056    -3138    -3223    -3312    -3400    -3476    -3537    -3584 
   -3618    -3646    -3665    -3676    -3682    -3672    -3646    -3618 
   -3585    -3537    -3483    -3438    -3407    -3391    -3384    -3389 
   -3411    -3424    -3426    -3424    -3404    -3361    -3315    -3269 
   -3226    -3183    -3154    -3160    -3186    -3223    -3287    -3376 
   -3484    -3597    -3711    -3812    -3892    -3954    -4000    -4014 
   -4006    -3975    -3920    -3856    -3780    -3678    -3580    -3485 
   -3391    -3314    -3261    -3227    -3207    -3217    -3258    -3291 
   -3321    -3373    -3415    -3435    -3449    -3449    -3433    -3404 
   -3362    -3322    -3283    -3226    -3169    -3129    -3078    -3006 
   -2934    -2883    -2848    -2824    -2813    -2830    -2864    -2898 
   -2934    -2982    -3021    -3034    -3048    -3068    -3076    -3080 
   -3094    -3117    -3159    -3218    -3285    -3370    -3476    -3592 
   -3727    -3867    -3991    -4108    -4224    -4322    -4396    -4445 
   -4468    -4456    -4407    -4347    -4271    -4174    -4068    -3958 
   -3842    -3715    -3576    -3451    -3342    -3218    -3095    -2987 
   -2886    -2795    -2710    -2632    -2575    -2536    -2519    -2540 
   -2592    -2655    -2739    -2849    -2978    -3110    -3249    -3395 
   -3535    -3662    -3775    -3883    -3982    -4052    -4102    -4145 
   -4168    -4163    -4144    -4114    -4074    -4024    -3969    -3915 
   -3862    -3811    -3758    -3703    -3640    -3574    -3503    -3426 
   -3331    -3223    -3119    -3025    -2934    -2860    -2821    -2812 
   -2816    -2852    -2929    -3011    -3090    -3173    -3256    -3318 
   -3362    -3396    -3419    -3426    -3423    -3410    -3389    -3358 
   -3311    -3268    -3229    -3172    -3121    -3092    -3072    -3045 
   -3029    -3036    -3053    -3075    -3119    -3183    -3250    -3335 
   -3430    -3526    -3628    -3736    -3854    -3979    -4094    -4194 
   -4272    -4341    -4399    -4421    -4422    -4407    -4351    -4268 
   -4175    -4050    -3896    -3744    -3604    -3465    -3326    -3211 
   -3129    -3065    -3022    -2999    -2988    -2974    -2953    -2940 
   -2922    -2899    -2878    -2863    -2857    -2853    -2845    -2841 
   -2863    -2890    -2899    -2910    -2930    -2945    -2961    -2987 
   -3015    -3042    -3075    -3118    -3176    -3238    -3300    -3373 
   -3464    -3566    -3666    -3773    -3892    -4004    -4110    -4220 
   -4306    -4355    -4387    -4403    -4382    -4324    -4247    -4155 
   -4044    -3928    -3817    -3705    -3593    -3492    -3406    -3329 
   -3264    -3207    -3169    -3160    -3159    -3163    -3183    -3213 
   -3245    -3281    -3310    -3318    -3306    -3287    -3264    -3229 
   -3180    -3133    -3091    -3046    -3002    -2971    -2940    -2907 
   -2895    -2893    -2895    -2917    -2957    -3014    -3102    -3206 
   -3310    -3435    -3574    -3692    -3785    -3863    -3925    -3970 
   -4002    -4025    -4024    -4002    -3971    -3924    -3855    -3771 
