Origin Time       2025/03/29 04:45:00
Lat.              31.090
Long.             131.512
Depth. (km)       33
Mag.              4.6
Station Code      KGS018
Station Lat.      31.3757
Station Long.     130.5449
Station Height(m) 51
Record Time       2025/03/29 04:45:32
Sampling Freq(Hz) 100Hz
Duration Time(s)  76
Dir.              N-S
Scale Factor      3920(gal)/6182761
Max. Acc. (gal)   4.384
Last Correction   2025/03/29 04:45:32
Memo.             
[...]
   -6111    -6610    -7130    -7476    -7663    -7438    -6794    -6296 
   -6249    -6424    -6774    -7295    -7581    -7449    -7215    -6959 
   -6510    -6077    -5987    -6153    -6416    -6812    -7211    -7356 
   -7282    -7153    -6929    -6637    -6516    -6590    -6590    -6472 
   -6457    -6629    -6964    -7447    -7816    -7710    -7212    -6670 
   -6211    -5918    -5929    -6108    -6203    -6226    -6361    -6802 
   -7677    -8762    -9436    -9152    -7854    -6004    -4359    -3587 
   -3966    -5352    -7268    -8957    -9699    -9352    -8334    -7098 
   -5888    -4868    -4226    -4193    -4899    -6189    -7624    -8713 
   -9111    -8720    -7822    -6890    -6166    -5627    -5215    -4971 
   -5096    -5817    -7121    -8631    -9755   -10048    -9411    -8039 
   -6464    -5363    -5011    -5279    -5945    -6580    -6783    -6716 
   -6701    -6696    -6666    -6690    -6590    -6204    -5813    -5772 
   -6025    -6371    -6786    -7243    -7672    -8123    -8551    -8593 
   -8015    -7102    -6274    -5801    -5972    -6801    -7694    -8083 
   -7951    -7400    -6503    -5725    -5535    -5750    -6015    -6265 
   -6375    -6280    -6340    -6760    -7119    -7011    -6573    -6052 
   -5555    -5372    -5797    -6631    -7501    -8300    -8892    -9045 
   -8823    -8400    -7684    -6743    -6038    -5824    -5970    -6419 
   -7090    -7574    -7553    -7184    -6692    -6125    -5638    -5377 
   -5187    -5053    -5336    -6158    -7148    -7968    -8477    -8545 
   -8170    -7539    -6755    -5881    -5293    -5414    -6144    -7082 
   -7965    -8548    -8613    -8244    -7684    -7027    -6390    -6073 
   -6139    -6339    -6567    -6824    -6883    -6596    -6211    -5976 
   -5829    -5710    -5746    -5977    -6367    -6933    -7501    -7761 
   -7725    -7611    -7408    -7109    -7018    -7235    -7419    -7428 
   -7389    -7160    -6629    -6143    -5946    -5852    -5812    -5961 
   -6160    -6297    -6627    -7194    -7630    -7794    -7812    -7544 
   -6894    -6235    -5828    -5563    -5627    -6338    -7346    -8091 
   -8558    -8734    -8261    -7162    -5933    -4901    -4293    -4473 
   -5429    -6651    -7821    -8865    -9382    -9019    -8139    -7235 
   -6346    -5592    -5294    -5439    -5857    -6565    -7359    -7822 
   -7922    -7821    -7389    -6649    -6056    -5809    -5693    -5716 
   -6069    -6668    -7366    -8113    -8558    -8250    -7365    -6447 
   -5657    -5068    -4997    -5482    -6197    -6965    -7708    -8183 
   -8310    -8217    -7785    -6873    -5889    -5404    -5554    -6239 
   -7280    -8161    -8330    -7812    -7003    -6193    -5641    -5569 
   -5820    -6077    -6386    -6859    -7257    -7455    -7613    -7626 
   -7240    -6635    -6203    -6092    -6352    -6918    -7398    -7477 
   -7322    -7199    -7065    -6837    -6627    -6467    -6214    -5862 
   -5623    -5650    -5964    -6519    -7114    -7537    -7806    -7938 
   -7793    -7397    -7017    -6812    -6719    -6664    -6684    -6833 
   -7082    -7326    -7410    -7168    -6655    -6151    -5787    -5561 
   -5642    -6148    -6851    -7448    -7791    -7790    -7435    -6922 
   -6427    -5907    -5403    -5194    -5382    -5812    -6493    -7478 
   -8476    -9150    -9485    -9454    -8888    -7877    -6727    -5640 
   -4872    -4812    -5498    -6487    -7399    -8001    -7922    -7094 
   -6032    -5190    -4680    -4638    -5150    -5932    -6649    -7330 
   -8022    -8502    -8692    -8665    -8292    -7557    -6821    -6361 
   -6198    -6382    -6844    -7228    -7332    -7284    -7122    -6792 
   -6413    -6095    -5761    -5490    -5594    -6080    -6611    -7049 
   -7332    -7211    -6719    -6275    -6084    -6124    -6552    -7356 
   -8057    -8366    -8478    -8426    -8034    -7405    -6717    -5951 
   -5278    -5108    -5548    -6356    -7346    -8274    -8667    -8335 
   -7584    -6656    -5661    -4933    -4696    -4797    -5179    -5930 
   -6817    -7492    -7924    -8097    -7824    -7162    -6481    -6011 
   -5795    -5975    -6599    -7382    -8058    -8558    -8704    -8262 
   -7340    -6278    -5306    -4640    -4567    -5141    -6093    -7124 
   -8039    -8627    -8705    -8317    -7650    -6838    -6069    -5604 
   -5529    -5801    -6442    -7335    -8066    -8336    -8194    -7701 
   -6896    -6060    -5502    -5292    -5423    -5903    -6610    -7336 
   -7985    -8476    -8547    -8043    -7181    -6239    -5409    -5013 
   -5270    -5925    -6585    -7060    -7174    -6865    -6463    -6311 
   -6392    -6631    -7079    -7623    -8004    -8186    -8228    -8023 
   -7598    -7183    -6795    -6359    -6107    -6225    -6472    -6688 
   -6956    -7125    -6970    -6654    -6379    -6088    -5854    -5858 
   -5916    -5807    -5728    -5851    -6032    -6257    -6683    -7188 
   -7544    -7852    -8187    -8288    -8146    -8078    -8030    -7797 
   -7541    -7323    -6974    -6673    -6698    -6842    -6829    -6735 
   -6521    -5914    -5062    -4432    -4102    -4030    -4418    -5193 
   -5959    -6637    -7329    -7827    -7934    -7862    -7809    -7690 
   -7610    -7823    -8182    -8385    -8468    -8442    -8118    -7594 
   -7158    -6773    -6355    -6087    -6040    -6081    -6221    -6577 
   -7054    -7409    -7551    -7435    -6919    -6099    -5304    -4689 
   -4295    -4278    -4674    -5303    -6048    -6876    -7666    -8312 
   -8820    -9176    -9296    -9175    -8878    -8403    -7767    -7078 
   -6487    -6150    -6149    -6409    -6719    -6832    -6622    -6151 
   -5593    -5151    -5016    -5295    -5885    -6550    -7173    -7705 
   -8029    -8137    -8094    -7862    -7438    -6890    -6251    -5638 
   -5289    -5293    -5544    -5988    -6627    -7320    -7877    -8246 
   -8385    -8168    -7655    -7112    -6670    -6336    -6235    -6419 
   -6668    -6822    -6947    -6968    -6764    -6552    -6529    -6522 
   -6462    -6496    -6508    -6331    -6142    -6055    -5892    -5704 
   -5769    -6033    -6268    -6566    -7006    -7335    -7506    -7783 
   -8119    -8256    -8266    -8269    -8097    -7773    -7586    -7482 
   -7236    -7007    -6956    -6835    -6558    -6347    -6171    -5918 
   -5796    -5889    -5948    -5923    -5996    -6069    -5957    -5828 
   -5825    -5797    -5776    -5982    -6359    -6794    -7414    -8134 
   -8581    -8724    -8765    -8592    -8115    -7570    -7131    -6771 
   -6537    -6517    -6635    -6804    -7083    -7369    -7400    -7187 
   -6923    -6593    -6170    -5809    -5534    -5242    -5069    -5227 
   -5648    -6249    -7061    -7870    -8342    -8449    -8299    -7874 
   -7266    -6738    -6427    -6277    -6255    -6370    -6510    -6583 
   -6699    -6876    -6934    -6896    -6922    -6951    -6881    -6811 
   -6801    -6776    -6773    -6905    -7079    -7151    -7210    -7312 
   -7276    -7026    -6713    -6350    -5864    -5427    -5241    -5263 
   -5488    -6024    -6738    -7348    -7773    -8011    -7972    -7683 
   -7400    -7244    -7058    -6861    -6807    -6753    -6584    -6488 
   -6495    -6397    -6178    -6006    -5899    -5866    -6100    -6619 
   -7141    -7603    -8129    -8515    -8519    -8286    -7913    -7259 
   -6453    -5856    -5540    -5449    -5731    -6358    -6976    -7422 
   -7758    -7855    -7650    -7467    -7480    -7493    -7449    -7420 
   -7219    -6728    -6191    -5745    -5300    -5032    -5173    -5506 
   -5788    -6109    -6442    -6574    -6633    -6882    -7202    -7461 
   -7820    -8202    -8291    -8142    -7977    -7669    -7175    -6780 
   -6508    -6188    -5990    -6077    -6223    -6311    -6507    -6756 
   -6844    -6842    -6881    -6774    -6439    -6123    -5901    -5717 
   -5815    -6351    -7039    -7644    -8159    -8409    -8230    -7827 
   -7423    -6999    -6607    -6402    -6345    -6307    -6310    -6400 
   -6475    -6525    -6716    -7026    -7282    -7464    -7582    -7502 
   -7161    -6698    -6212    -5707    -5306    -5153    -5218    -5471 
   -5938    -6526    -7099    -7642    -8169    -8608    -8826    -8769 
   -8504    -8088    -7562    -7048    -6595    -6189    -5946    -5973 
   -6198    -6515    -6886    -7189    -7237    -7031    -6732    -6407 
   -6102    -5968    -6050    -6203    -6331    -6412    -6330    -6024 
   -5689    -5505    -5432    -5497    -5808    -6242    -6642    -7103 
   -7669    -8157    -8498    -8760    -8821    -8585    -8290    -8078 
   -7797    -7508    -7404    -7291    -6978    -6701    -6555    -6316 
   -6082    -6108    -6196    -6121    -6026    -5944    -5720    -5503 
   -5540    -5680    -5722    -5848    -6142    -6394    -6691    -7270 
   -7943    -8489    -9015    -9453    -9486    -9151    -8691    -8048 
   -7220    -6528    -6047    -5626    -5425    -5557    -5704    -5735 
   -5865    -6010    -5955    -5895    -6012    -6108    -6110    -6215 
   -6351    -6319    -6313    -6521    -6697    -6775    -7031    -7390 
   -7553    -7614    -7727    -7749    -7697    -7756    -7792    -7599 
   -7333    -7140    -6881    -6580    -6473    -6484    -6384    -6285 
   -6293    -6244    -6162    -6260    -6423    -6421    -6396    -6501 
   -6588    -6621    -6785    -7031    -7168    -7277    -7455    -7580 
   -7654    -7784    -7860    -7717    -7413    -7092    -6798    -6572 
   -6517    -6604    -6669    -6662    -6620    -6496    -6302    -6162 
   -6127    -6185    -6353    -6601    -6815    -6916    -6942    -6930 
   -6859    -6780    -6768    -6766    -6729    -6745    -6830    -6856 
   -6825    -6870    -6961    -7010    -7091    -7220    -7277    -7272 
   -7306    -7311    -7144    -6858    -6556    -6179    -5814    -5762 
   -6029    -6389    -6818    -7299    -7608    -7688    -7708    -7612 
   -7243    -6797    -6534    -6394    -6368    -6613    -6998    -7267 
   -7474    -7677    -7665    -7386    -7040    -6608    -5972    -5371 
   -5063    -4926    -4922    -5245    -5745    -6113    -6473    -6916 
   -7135    -7089    -7075    -7053    -6854    -6727    -6847    -6979 
   -7052    -7230    -7359    -7200    -6971    -6912    -6893    -6895 
   -7108    -7393    -7456    -7369    -7226    -6898    -6489    -6232 
   -6028    -5740    -5516    -5445    -5408    -5454    -5760    -6237 
   -6698    -7203    -7740    -8095    -8269    -8434    -8518    -8413 
   -8283    -8236    -8154    -8063    -8086    -8079    -7910    -7710 
   -7482    -7110    -6768    -6667    -6680    -6659    -6629    -6510 
   -6177    -5750    -5400    -5124    -4954    -5020    -5286    -5601 
   -5973    -6493    -7104    -7741    -8457    -9167    -9665    -9930 
  -10022    -9911    -9628    -9293    -8941    -8465    -7791    -7016 
   -6223    -5420    -4728    -4304    -4080    -3906    -3797    -3765 
   -3689    -3588    -3604    -3689    -3705    -3692    -3723    -3720 
   -3711    -3940    -4435    -5039    -5823    -6870    -7995    -9070 
  -10169   -11194   -11873   -12177   -12172   -11711   -10818    -9841 
   -8871    -7783    -6769    -6004    -5304    -4665    -4339    -4251 
   -4169    -4203    -4467    -4751    -4991    -5372    -5774    -5962 
   -6086    -6262    -6296    -6273    -6496    -6885    -7243    -7710 
   -8376    -8976    -9430    -9965   -10473   -10698   -10802   -10899 
  -10745   -10279    -9644    -8719    -7395    -5993    -4774    -3621 
   -2593    -1960    -1624    -1392    -1458    -1909    -2517    -3301 
   -4417    -5674    -6886    -8163    -9464   -10547   -11421   -12164 
  -12495   -12201   -11508   -10594    -9457    -8360    -7609    -7146 
   -6890    -6964    -7279    -7577    -7847    -8092    -8011    -7439 
   -6534    -5330    -3809    -2334    -1254     -498      -61     -147 
    -700    -1488    -2527    -3875    -5280    -6509    -7675    -8893 
  -10035   -11016   -11816   -12284   -12394   -12247   -11698   -10644 
   -9360    -8160    -7146    -6332    -5795    -5637    -5812    -6186 
   -6688    -7180    -7428    -7367    -7024    -6395    -5667    -5096 
   -4686    -4379    -4223    -4211    -4291    -4468    -4736    -5040 
   -5426    -6054    -6977    -8041    -9091   -10128   -11077   -11634 
  -11567   -10880    -9657    -8083    -6465    -5016    -3858    -3165 
   -3005    -3208    -3591    -4125    -4759    -5339    -5826    -6278 
   -6645    -6908    -7236    -7722    -8329    -9107   -10044   -10877 
  -11457   -11869   -12009   -11607   -10717    -9631    -8442    -7150 
   -5858    -4552    -3205    -2105    -1468    -1127    -1070    -1599 
   -2686    -3896    -4989    -5904    -6375    -6296    -6004    -5755 
   -5572    -5658    -6174    -6837    -7427    -8102    -8818    -9304 
   -9627    -9948   -10116   -10077   -10026    -9895    -9435    -8783 
   -8179    -7432    -6403    -5369    -4424    -3374    -2341    -1588 
   -1053     -742     -935    -1620    -2464    -3397    -4525    -5697 
   -6747    -7820    -9026   -10209   -11267   -12157   -12709   -12855 
  -12649   -12033   -11071   -10120    -9444    -8973    -8637    -8556 
   -8693    -8802    -8809    -8727    -8426    -7876    -7210    -6467 
   -5639    -4848    -4153    -3436    -2692    -2117    -1801    -1661 
   -1716    -2066    -2698    -3621    -4943    -6566    -8196    -9675 
  -10902   -11659   -11824   -11528   -10903    -9945    -8751    -7511 
   -6320    -5285    -4536    -4075    -3798    -3578    -3351    -3076 
   -2755    -2633    -3038    -4000    -5396    -7157    -9063   -10773 
  -12138   -13142   -13698   -13728   -13285   -12388   -10983    -9267 
   -7660    -6303    -5199    -4586    -4460    -4464    -4567    -4898 
   -5280    -5638    -6130    -6677    -7014    -7113    -7065    -6755 
   -6113    -5369    -4670    -3974    -3465    -3327    -3349    -3449 
   -3887    -4596    -5278    -6078    -7214    -8394    -9279    -9891 
  -10189    -9979    -9356    -8534    -7436    -6160    -5123    -4342 
   -3646    -3311    -3464    -3795    -4269    -5039    -5866    -6570 
   -7386    -8246    -8644    -8549    -8393    -8169    -7660    -7135 
   -6899    -6856    -7047    -7655    -8368    -8785    -8997    -9078 
   -8853    -8388    -7934    -7435    -6752    -6086    -5567    -5049 
   -4670    -4760    -5237    -5902    -6857    -8031    -9078    -9931 
  -10703   -11237   -11351   -11171   -10752    -9943    -8831    -7664 
   -6475    -5312    -4391    -3789    -3398    -3256    -3465    -3858 
   -4202    -4521    -4842    -5076    -5338    -5846    -6561    -7343 
   -8159    -8907    -9434    -9750    -9903    -9800    -9365    -8715 
   -7968    -7055    -5960    -4856    -3824    -2861    -2104    -1739 
   -1834    -2364    -3308    -4593    -6038    -7479    -8835    -9987 
  -10857   -11511   -11965   -12098   -11872   -11416   -10783    -9866 
   -8673    -7337    -5869    -4317    -2922    -1777     -842     -264 
    -170     -453    -1028    -1960    -3193    -4511    -5858    -7268 
   -8608    -9788   -10876   -11777   -12296   -12465   -12389   -11949 
  -11121   -10132    -9041    -7754    -6451    -5387    -4497    -3751 
   -3367    -3318    -3387    -3688    -4333    -5037    -5655    -6316 
   -6934    -7327    -7595    -7877    -8073    -8174    -8356    -8512 
   -8416    -8174    -7878    -7394    -6808    -6372    -6058    -5793 
   -5795    -6110    -6461    -6802    -7215    -7464    -7370    -7125 
   -6825    -6353    -5882    -5719    -5742    -5727    -5801    -6009 
   -6180    -6387    -6804    -7294    -7732    -8291    -8957    -9422 
   -9692    -9961   -10131   -10149   -10252   -10470   -10535   -10388 
  -10138    -9653    -8794    -7771    -6757    -5667    -4571    -3655 
   -2835    -2040    -1463    -1167    -1001     -989    -1254    -1650 
   -2002    -2435    -3023    -3632    -4282    -5088    -5940    -6632 
   -7140    -7517    -7698    -7725    -7830    -8028    -8190    -8438 
   -8876    -9334    -9762   -10291   -10878   -11369   -11729   -11916 
  -11801   -11383   -10872   -10375    -9764    -9014    -8218    -7307 
   -6244    -5258    -4504    -3904    -3501    -3440    -3614    -3843 
   -4116    -4355    -4396    -4327    -4343    -4411    -4466    -4686 
   -5190    -5850    -6611    -7540    -8471    -9164    -9653    -9920 
   -9806    -9435    -9047    -8598    -8048    -7590    -7271    -6887 
   -6458    -6177    -5935    -5615    -5421    -5363    -5218    -5069 
   -5081    -5091    -4986    -4990    -5139    -5200    -5255    -5521 
   -5844    -6120    -6559    -7110    -7479    -7744    -8079    -8295 
   -8321    -8434    -8640    -8690    -8693    -8841    -8904    -8747 
   -8625    -8547    -8287    -7978    -7847    -7707    -7417    -7227 
   -7145    -6899    -6615    -6473    -6203    -5705    -5249    -4854 
   -4375    -3991    -3892    -3902    -3920    -4159    -4614    -5065 
   -5623    -6427    -7258    -7995    -8759    -9495   -10054   -10511 
  -10913   -11056   -10875   -10484    -9798    -8767    -7640    -6587 
   -5582    -4741    -4262    -4092    -4083    -4274    -4657    -5026 
   -5294    -5532    -5686    -5693    -5686    -5772    -5880    -6001 
   -6225    -6501    -6719    -6897    -7038    -7087    -7098    -7125 
   -7118    -7061    -6990    -6901    -6752    -6556    -6370    -6165 
   -5915    -5730    -5693    -5774    -5941    -6235    -6663    -7058 
   -7316    -7506    -7619    -7635    -7685    -7857    -8080    -8292 
   -8552    -8860    -9101    -9296    -9520    -9672    -9674    -9614 
   -9472    -9106    -8559    -7958    -7261    -6476    -5806    -5320 
   -4903    -4634    -4696    -4958    -5234    -5629    -6135    -6498 
   -6701    -6878    -6897    -6679    -6460    -6284    -5934    -5519 
   -5294    -5089    -4759    -4601    -4662    -4639    -4600    -4761 
   -4970    -5126    -5431    -5897    -6289    -6623    -7037    -7378 
   -7561    -7838    -8224    -8479    -8688    -8984    -9134    -9052 
   -8973    -8904    -8712    -8551    -8566    -8617    -8660    -8832 
   -9020    -8985    -8767    -8425    -7777    -6859    -5941    -4989 
   -3913    -2969    -2302    -1765    -1428    -1516    -1935    -2543 
   -3463    -4684    -5936    -7138    -8347    -9405   -10173   -10781 
  -11248   -11376   -11207   -10920   -10398    -9515    -8462    -7386 
   -6249    -5180    -4381    -3765    -3232    -2951    -2956    -3064 
   -3313    -3826    -4459    -5100    -5852    -6705    -7490    -8192 
   -8892    -9461    -9733    -9793    -9733    -9489    -9110    -8758 
   -8431    -8043    -7685    -7461    -7293    -7142    -7087    -7075 
   -6956    -6746    -6527    -6240    -5883    -5604    -5422    -5251 
   -5128    -5123    -5181    -5263    -5488    -5902    -6341    -6773 
   -7310    -7849    -8273    -8658    -8988    -9141    -9142    -9067 
   -8870    -8529    -8194    -7935    -7613    -7251    -7037    -6880 
   -6607    -6341    -6155    -5889    -5553    -5295    -5065    -4818 
   -4717    -4813    -4942    -5106    -5446    -5823    -6052    -6296 
   -6634    -6845    -6979    -7279    -7624    -7823    -8020    -8268 
   -8356    -8292    -8243    -8101    -7761    -7433    -7198    -6869 
   -6535    -6416    -6354    -6183    -6050    -5990    -5837    -5613 
   -5466    -5371    -5293    -5321    -5439    -5544    -5681    -5894 
   -6058    -6132    -6223    -6349    -6470    -6653    -6922    -7167 
