Origin Time       2025/03/29 04:45:00
Lat.              31.090
Long.             131.512
Depth. (km)       33
Mag.              4.6
Station Code      KGS022
Station Lat.      31.2804
Station Long.     131.0504
Station Height(m) 12
Record Time       2025/03/29 04:45:24
Sampling Freq(Hz) 100Hz
Duration Time(s)  65
Dir.              E-W
Scale Factor      7845(gal)/8223790
Max. Acc. (gal)   6.412
Last Correction   2025/03/29 04:45:24
Memo.             
[...]
    -797     -796     -789     -808     -818     -778     -757     -815 
    -865     -792     -722     -791     -858     -815     -769     -784 
    -797     -808     -814     -778     -776     -828     -824     -760 
    -757     -822     -837     -788     -770     -795     -804     -800 
    -793     -781     -795     -828     -800     -754     -799     -827 
    -792     -792     -792     -766     -792     -847     -824     -762 
    -769     -797     -811     -824     -795     -756     -776     -831 
    -834     -783     -781     -793     -777     -808     -822     -777 
    -784     -816     -797     -789     -803     -784     -777     -818 
    -834     -780     -756     -807     -822     -799     -796     -783 
    -789     -811     -795     -784     -796     -807     -811     -796 
    -776     -785     -808     -800     -795     -805     -795     -784 
    -804     -820     -792     -761     -799     -834     -800     -772 
    -780     -810     -826     -793     -778     -803     -800     -795 
    -810     -797     -778     -810     -826     -784     -756     -791 
    -834     -820     -785     -776     -777     -800     -826     -800 
    -778     -803     -803     -774     -791     -818     -800     -796 
    -800     -778     -789     -814     -793     -789     -816     -795 
    -773     -791     -810     -818     -808     -772     -754     -812 
    -857     -801     -746     -778     -835     -815     -776     -785 
    -796     -811     -820     -783     -769     -807     -822     -796 
    -781     -791     -804     -815     -803     -774     -780     -819 
    -823     -784     -769     -795     -816     -807     -793     -793 
    -781     -793     -830     -799     -762     -800     -815     -788 
    -791     -811     -801     -784     -793     -797     -789     -814 
    -816     -778     -780     -799     -805     -812     -795     -784 
    -803     -799     -780     -781     -808     -823     -800     -769 
    -770     -819     -824     -773     -781     -808     -799     -788 
    -787     -810     -818     -791     -770     -776     -816     -820 
    -783     -791     -797     -788     -795     -785     -796     -816 
    -805     -788     -772     -793     -832     -804     -773     -787 
    -799     -807     -800     -787     -789     -805     -812     -785 
    -768     -805     -834     -792     -749     -792     -838     -799 
    -776     -793     -784     -810     -828     -770     -761     -823 
    -814     -776     -807     -819     -781     -781     -796     -803 
    -814     -803     -784     -778     -796     -810     -791     -791 
    -811     -800     -784     -784     -796     -814     -807     -791 
    -785     -781     -805     -831     -796     -761     -788     -819 
    -814     -785     -778     -797     -811     -815     -792     -768 
    -792     -815     -797     -791     -810     -810     -773     -757 
    -827     -849     -766     -760     -808     -818     -818     -778 
    -761     -814     -831     -785     -765     -801     -819     -803 
    -793     -783     -784     -804     -820     -807     -776     -783 
    -803     -814     -804     -785     -793     -789     -799     -805 
    -774     -807     -832     -770     -762     -808     -812     -793 
    -793     -803     -797     -784     -787     -812     -814     -777 
    -785     -816     -799     -783     -788     -804     -820     -791 
    -773     -810     -800     -768     -816     -832     -774     -765 
    -793     -824     -816     -762     -785     -835     -805     -766 
    -772     -807     -826     -801     -784     -796     -801     -784 
    -777     -810     -826     -797     -777     -791     -807     -799 
    -780     -796     -820     -804     -766     -773     -828     -830 
    -766     -765     -810     -814     -807     -787     -778     -807 
    -803     -787     -805     -804     -785     -783     -792     -826 
    -822     -762     -766     -815     -819     -814     -792     -760 
    -785     -828     -822     -772     -764     -827     -841     -772 
    -747     -801     -847     -823     -756     -741     -823     -869 
    -785     -727     -799     -849     -800     -768     -792     -819 
    -810     -766     -776     -838     -819     -761     -781     -831 
    -815     -765     -772     -819     -826     -787     -766     -801 
    -834     -796     -760     -787     -827     -824     -785     -777 
    -787     -795     -831     -820     -768     -768     -796     -823 
    -819     -778     -778     -810     -808     -791     -789     -803 
    -811     -805     -800     -777     -770     -819     -832     -791 
    -774     -783     -801     -815     -801     -796     -792     -781 
    -801     -814     -808     -799     -773     -785     -828     -815 
    -780     -773     -776     -826     -857     -768     -720     -810 
    -853     -801     -769     -774     -800     -828     -800     -761 
    -797     -832     -796     -764     -793     -820     -796     -774 
    -792     -815     -810     -784     -780     -797     -797     -793 
    -818     -808     -760     -776     -828     -816     -783     -785 
    -784     -808     -826     -778     -773     -818     -816     -785 
    -774     -803     -823     -799     -784     -797     -784     -795 
    -827     -788     -768     -807     -801     -692     -463     -207 
     -17       76      -28     -292     -465     -336      105      542 
     527     -144    -1416    -2899    -3920    -4081    -3578    -2924 
   -2448    -2061    -1498     -643      384     1217     1344      461 
   -1026    -2192    -2239     -822     1354     2751     2619     1339 
    -454    -1908    -2231    -1509     -522     -274    -1285    -2442 
   -2187     -928      103      803     1004       72    -1458    -2079 
   -1277     -411    -1080    -2848    -4170    -4796    -4981    -3801 
    -780     2434     4206     4681     4198     2662      422    -2095 
   -4648    -6246    -5509    -2675      221     1556     1455      719 
    -677    -2516    -3318    -2548    -1269      261     2041     2708 
    2025     1358      432    -1563    -3187    -3091    -2474    -2577 
   -2388    -1094     -117     -419     -799     -469     -222     -340 
    -275        6      490     1297     1410     -341    -2890    -3778 
   -2313     -271      483      -35     -843    -1586    -1964    -1629 
   -1262    -1402    -1528    -1300     -874     -290      727     2060 
    2419      783    -1853    -3704    -4195    -3663    -2273     -668 
     -54     -342     -305      425     1233     1467      949      135 
    -496     -873    -1121    -1818    -3311    -4556    -4452    -3512 
   -2619    -1371      781     2794     3207     2114      652     -418 
    -949     -814     -101      346      -54     -858    -1861    -3333 
   -4558    -4198    -2236      225     2520     4033     3655     1308 
   -1401    -2987    -3368    -3007    -2133    -1221     -932    -1194 
   -1540    -1759    -1671    -1255     -949    -1269    -1875    -1579 
     -31     1630     2255     1714      329    -1479    -2813    -2758 
   -1262      783     1971     1534       76    -1486    -2551    -2555 
   -1624     -758     -621     -878    -1035    -1109    -1189    -1178 
    -946     -395      252      383     -423    -1688    -2517    -2617 
   -2034     -831      438     1062      939      326     -538    -1156 
    -972      -85      627      287    -1117    -2840    -3997    -3896 
   -2474     -584      611      693      109     -622    -1146    -1174 
    -695      132     1105     1645     1092     -249    -1525    -2570 
   -3302    -3248    -2349     -957      306      773      456     -294 
   -1237    -1972    -2199    -2016    -1474     -621       51       87 
    -328     -738     -814     -623     -484     -359     -225     -371 
    -683     -854     -896     -884     -900    -1096    -1293    -1035 
    -400      106      263      -95     -962    -1850    -2286    -2039 
   -1274     -656     -688    -1108    -1202     -795     -283      206 
     587      599      290     -303    -1108    -1590    -1385     -781 
    -467     -854    -1733    -2697    -3335    -3264    -2409     -932 
     839     2191     2253      868    -1084    -2482    -2801    -2074 
    -603      922     1556      957     -357    -1541    -1948    -1522 
    -683      -59     -220    -1038    -1830    -2135    -1787     -859 
      45       43     -912    -1787    -1917    -1437     -553      338 
     643      148     -700    -1248    -1394    -1464    -1582    -1584 
   -1294     -793     -400     -279     -279     -245      -64      263 
     405       12     -835    -1667    -2058    -1938    -1382     -662 
    -249     -221     -317     -529     -792     -773     -549     -575 
    -958    -1521    -2087    -2274    -1728     -562      691     1291 
     660    -1008    -2755    -3788    -3812    -2739     -990      621 
    1594     1750     1035     -189    -1108    -1224     -785     -241 
     164      280       36     -459     -981    -1348    -1594    -1806 
   -1786    -1381     -873     -589     -475     -346     -234     -214 
    -519    -1374    -2313    -2578    -2039    -1135     -280      383 
     652      399     -124     -731    -1318    -1579    -1350     -803 
    -276     -125     -583    -1579    -2527    -2650    -1752     -302 
    1017     1572     1121       25    -1116    -1856    -1931    -1441 
    -942     -861    -1210    -1750    -1927    -1297     -140      838 
    1053      222    -1260    -2296    -2147    -1148      -87      454 
     271     -437    -1286    -1929    -2149    -2056    -1873    -1633 
   -1100      -21     1208     1810     1431      210    -1258    -2222 
   -2326    -1640     -569      233      271     -351     -973    -1186 
   -1171    -1163    -1351    -1750    -1938    -1545     -673      369 
    1167     1200      214    -1428    -2930    -3592    -3175    -1923 
    -473      518      918      892      353     -703    -1791    -2285 
   -1873     -764      427     1026      700     -244    -1200    -1788 
   -1906    -1629    -1251    -1105    -1112     -924     -580     -274 
       6       20     -476    -1069    -1250     -961     -430     -102 
    -310     -913    -1545    -1929    -1877    -1343     -540      116 
     369      207     -201     -498     -506     -459     -668    -1231 
   -1921    -2284    -2193    -1988    -1748    -1316     -877     -538 
    -110      284      418      355      139     -234     -591     -853 
   -1101    -1239    -1210    -1233    -1435    -1678    -1753    -1493 
    -861     -166      194      132     -232     -677     -926     -828 
    -484     -182     -151     -356     -657     -976    -1358    -1786 
   -1937    -1617    -1080     -495      167      579      353     -272 
    -808    -1174    -1557    -1929    -2066    -1853    -1366     -926 
    -828     -912     -757     -248      305      454      -24     -797 
   -1298    -1316     -922     -255      440      851      704     -110 
   -1273    -2219    -2808    -3118    -2941    -2158    -1036      -14 
     538      562      234     -306     -884    -1115     -846     -544 
    -522     -508     -441     -579     -869    -1097    -1236    -1290 
   -1134     -769     -508     -480     -456     -386     -438     -766 
   -1381    -1987    -2149    -1620     -538      529      889      256 
    -985    -2134    -2575    -1998     -650      733     1390     1004 
     -81    -1228    -1965    -2087    -1687    -1030     -353       87 
      41     -568    -1262    -1395    -1081     -762     -635     -899 
   -1541    -2096    -2110    -1487     -336     1015     1802     1524 
     577     -340     -880    -1038     -990    -1011    -1335    -1865 
   -2231    -2238    -1921    -1456    -1112    -1147    -1800    -2949 
   -3890    -3912    -2843    -1165      338     1053      819      -51 
   -1088    -1833    -1918    -1163      297     1776     2528     2413 
    1657      688       28      -62      438     1208     1638     1351 
     414     -816    -2029    -3059    -3711    -3950    -3897    -3609 
   -3117    -2462    -1737    -1081     -596     -365     -399     -429 
    -167      222      527      704      553      -28     -843    -1578 
   -1907    -1721    -1289     -954     -676     -195      353      540 
     243     -270     -621     -645     -440     -153      -39     -330 
    -966    -1584    -1783    -1516    -1225    -1397    -2154    -3298 
   -4387    -4804    -4152    -2597     -703      949     2119     2883 
    3203     2967     2165      747    -1084    -2641    -3272    -2833 
   -1626      -60     1370     2018     1642      535     -924    -2378 
   -3596    -4499    -4819    -4217    -2718     -776      869     1620 
    1296      274     -379      156     1737     3636     4915     4885 
    3508     1219    -1332    -3543    -5139    -6149    -6535    -6114 
   -4787    -2772     -834      147      -37    -1011    -2110    -2560 
   -1977     -550     1066     2030     1898      824     -683    -2039 
   -2849    -2949    -2309    -1070      565     2230     3253     3240 
    2311      797     -835    -2164    -2874    -2702    -1780     -581 
     444      780      -85    -2064    -4309    -5749    -5713    -4212 
   -1819      571     2103     2512     2068     1154      241     -276 
    -288      113      554      612      252     -313     -913    -1345 
   -1329     -761       76      739      882      224    -1347    -3526 
   -5688    -7187    -7518    -6430    -4186    -1543      685     1858 
    1760      835     -222     -963    -1081     -383      854     2010 
    2812     3338     3532     3184     2242      838     -876    -2628 
   -3913    -4307    -3786    -2573     -942      841     2477     3516 
    3505     2201     -126    -2628    -4438    -5049    -4414    -3136 
   -2120    -1984    -2845    -4234    -5163    -4807    -3114     -913 
     596      685     -642    -2601    -3823    -3304    -1147     1629 
    3875     4895     4569     3464     2392     1788     1702     1885 
    1908     1507      730     -251    -1391    -2762    -4394    -6096 
   -7264    -7298    -5972    -3441     -344     2392     3963     3990 
    2660      604    -1440    -2820    -3164    -2766    -2320    -2284 
   -2745    -3484    -4018    -3885    -2916    -1375      144     1246 
    1858     2025     2019     2255     2845     3527     3838     3321 
    1867     -106    -1869    -2833    -2818    -1961     -699      342 
     741      480     -149     -872    -1609    -2448    -3406    -4278 
   -4911    -5298    -5363    -4954    -4039    -2821    -1599     -627 
     -36       90     -356    -1170    -1760    -1698     -940      297 
    1638     2637     2897     2295     1132      -81     -741     -396 
     697     1733     1983     1167     -279    -1493    -1838    -1085 
     575     2432     3519     3298     1958       12    -2038    -3696 
   -4576    -4658    -4363    -4243    -4560    -5175    -5682    -5535 
   -4390    -2362       20     1975     2799     2308      892     -750 
   -1960    -2444    -2278    -1703    -1074     -589     -118      507 
    1383     2520     3661     4452     4742     4509     3704     2227 
     152    -2095    -3985    -5030    -4974    -4045    -2803    -1907 
   -1705    -1898    -1848    -1140       21     1067     1669     1713 
    1081     -160    -1796    -3599    -5320    -6658    -7234    -6735 
   -5151    -2799     -240     1848     3002     3204     2727     1891 
    1019      537      627      967     1178      984      234     -950 
   -2253    -3142    -3186    -2497    -1487     -475      298      611 
     498      274       62     -157     -338     -661    -1391    -2506 
   -3738    -4725    -5173    -4908    -3888    -2289     -513      963 
    1790     1902     1564     1201     1181     1786     2905     3825 
    3851     2802      951    -1046    -2478    -3083    -3107    -2972 
   -2956    -3190    -3721    -4328    -4627    -4363    -3412    -1942 
    -390      954     1984     2521     2446     1930     1247      562 
      44     -163     -164     -137     -236     -710    -1606    -2654 
   -3591    -4240    -4429    -4143    -3546    -2776    -1930    -1146 
    -575     -267      -59      149      392      899     1692     2498 
    3125     3388     3076     2157      820     -653    -1892    -2540 
   -2593    -2320    -1973    -1787    -1885    -2231    -2652    -2933 
   -2943    -2540    -1768     -938     -243      244      410      224 
    -282    -1027    -1844    -2419    -2473    -1987    -1140     -355 
     -32     -110     -278     -313      -99      394     1063     1593 
    1695     1370      842      334     -133     -658    -1293    -2000 
   -2627    -2952    -2840    -2369    -1786    -1318    -1119    -1313 
   -1846    -2334    -2357    -1902    -1227     -511       72      338 
     322      164      -56     -265     -437     -540     -499     -353 
    -160       47      178      178       36     -218     -545     -951 
   -1360    -1622    -1644    -1368     -905     -517     -380     -535 
    -946    -1416    -1576    -1296     -835     -430     -265     -544 
   -1206    -1956    -2498    -2656    -2369    -1663     -766       43 
     648      938      934      783      479       86     -182     -302 
    -414     -592     -861    -1254    -1790    -2436    -3080    -3496 
   -3366    -2610    -1451     -109     1059     1553     1158       87 
   -1101    -1807    -1825    -1325     -600       67      534      726 
     596      199     -291     -723    -1113    -1486    -1695    -1603 
   -1244     -792     -409     -225     -406     -870    -1274    -1377 
   -1156     -789     -572     -738    -1194    -1599    -1775    -1715 
   -1494    -1247    -1050     -924     -834     -675     -364      106 
     660     1069     1156      962      567       64     -450     -972 
   -1420    -1771    -2089    -2269    -2228    -2104    -2039    -2079 
   -2212    -2300    -2115    -1547     -662      394     1385     1912 
    1825     1240      280     -710    -1355    -1605    -1552    -1350 
   -1171    -1171    -1374    -1587    -1699    -1729    -1583    -1239 
    -872     -565     -314     -140      -52      -62      -95      -89 
    -112     -199     -325     -541     -876    -1216    -1459    -1630 
   -1680    -1520    -1221     -940     -787     -680     -567     -579 
    -689     -777     -931    -1182    -1282    -1053     -610     -120 
     283      419      279        4     -392     -819    -1075    -1139 
   -1098    -1109    -1274    -1506    -1694    -1804    -1918    -2045 
   -2070    -1949    -1633    -1078     -265      700     1455     1737 
    1532      942      193     -577    -1273    -1784    -2120    -2269 
   -2197    -1849    -1158     -275      484      913     1021      936 
     738      490      261       75     -130     -527    -1136    -1782 
   -2343    -2751    -3028    -3264    -3402    -3384    -3204    -2805 
   -2234    -1588     -900     -294      116      364      523      587 
     518      418      360      218      -82     -433     -731     -893 
    -812     -564     -340     -243     -368     -769    -1287    -1640 
   -1680    -1526    -1317    -1085     -892     -768     -683     -606 
    -519     -476     -544     -610     -475     -128      276      576 
