Origin Time       2025/03/29 04:45:00
Lat.              31.090
Long.             131.512
Depth. (km)       33
Mag.              4.6
Station Code      KGS024
Station Lat.      31.0888
Station Long.     130.6982
Station Height(m) 75
Record Time       2025/03/29 04:45:39
Sampling Freq(Hz) 100Hz
Duration Time(s)  60
Dir.              U-D
Scale Factor      7845(gal)/8223790
Max. Acc. (gal)   2.703
Last Correction   2025/03/29 04:45:39
Memo.             
[...]
   -2076    -2068    -2069    -2077    -2077    -2064    -2065    -2079 
   -2079    -2068    -2073    -2076    -2070    -2070    -2072    -2070 
   -2072    -2070    -2070    -2079    -2080    -2072    -2064    -2065 
   -2076    -2080    -2069    -2061    -2065    -2072    -2077    -2079 
   -2072    -2062    -2065    -2073    -2081    -2083    -2073    -2062 
   -2068    -2077    -2079    -2076    -2072    -2068    -2070    -2072 
   -2072    -2076    -2076    -2070    -2070    -2069    -2066    -2070 
   -2077    -2077    -2074    -2070    -2069    -2073    -2073    -2069 
   -2073    -2074    -2070    -2065    -2066    -2074    -2081    -2074 
   -2068    -2072    -2072    -2065    -2065    -2072    -2072    -2068 
   -2070    -2076    -2074    -2068    -2068    -2074    -2073    -2065 
   -2065    -2072    -2074    -2074    -2077    -2074    -2062    -2061 
   -2074    -2079    -2072    -2070    -2069    -2068    -2070    -2076 
   -2073    -2068    -2073    -2074    -2069    -2069    -2076    -2069 
   -2068    -2079    -2074    -2061    -2069    -2081    -2074    -2064 
   -2068    -2073    -2079    -2079    -2065    -2061    -2074    -2083 
   -2070    -2062    -2073    -2081    -2069    -2061    -2069    -2079 
   -2080    -2073    -2060    -2062    -2080    -2083    -2065    -2060 
   -2072    -2080    -2073    -2069    -2068    -2062    -2068    -2080 
   -2079    -2073    -2066    -2064    -2072    -2077    -2072    -2068 
   -2072    -2074    -2073    -2074    -2077    -2076    -2070    -2073 
   -2077    -2069    -2064    -2073    -2077    -2073    -2070    -2072 
   -2076    -2073    -2068    -2069    -2069    -2068    -2069    -2074 
   -2076    -2068    -2062    -2068    -2074    -2076    -2076    -2072 
   -2068    -2073    -2079    -2073    -2066    -2065    -2070    -2077 
   -2077    -2069    -2062    -2072    -2081    -2073    -2065    -2070 
   -2072    -2069    -2070    -2070    -2072    -2077    -2077    -2072 
   -2066    -2066    -2072    -2074    -2070    -2070    -2077    -2080 
   -2068    -2062    -2072    -2076    -2073    -2074    -2074    -2070 
   -2070    -2069    -2065    -2068    -2077    -2081    -2074    -2066 
   -2068    -2076    -2084    -2093    -2106    -2120    -2142    -2166 
   -2173    -2169    -2173    -2164    -2124    -2073    -2006    -1919 
   -1841    -1809    -1840    -1904    -1957    -1996    -2037    -2087 
   -2173    -2293    -2370    -2347    -2211    -1996    -1818    -1794 
   -1922    -2092    -2188    -2177    -2116    -2083    -2108    -2155 
   -2164    -2130    -2066    -2007    -2035    -2192    -2424    -2597 
   -2547    -2208    -1684    -1225    -1080    -1309    -1782    -2268 
   -2516    -2417    -2122    -1930    -2088    -2582    -3082    -3150 
   -2574    -1597     -789     -615    -1181    -2195    -3057    -3227 
   -2594    -1525     -675     -576    -1248    -2367    -3528    -4280 
   -4228    -3245    -1655     -205      368     -130    -1302    -2519 
   -3294    -3424    -3010    -2336    -1734    -1480    -1694    -2281 
   -2880    -2899    -2196    -1416    -1193    -1593    -2284    -2736 
   -2624    -2096    -1358     -584     -253     -778    -2022    -3423 
   -4245    -4058    -3226    -2365    -1672    -1193     -992    -1070 
   -1475    -2138    -2795    -3256    -3381    -3007    -2155    -1127 
    -413     -441    -1181    -2261    -3257    -3670    -3252    -2335 
   -1426     -861     -832    -1206    -1584    -1732    -1706    -1728 
   -2015    -2631    -3400    -3932    -3883    -3202    -2037     -739 
     113       32     -936    -2262    -3391    -3931    -3732    -3094 
   -2470    -2088    -1975    -1915    -1591     -984     -457     -427 
   -1013    -1976    -2828    -3082    -2681    -2054    -1692    -1775 
   -2052    -2293    -2640    -3010    -2918    -2285    -1566    -1320 
   -1837    -2614    -2747    -2084    -1200     -622     -735    -1595 
   -2705    -3534    -3823    -3387    -2421    -1560    -1173    -1129 
   -1198    -1309    -1621    -2277    -2986    -3235    -2940    -2408 
   -1908    -1629    -1598    -1617    -1638    -1837    -2269    -2829 
   -3215    -3030    -2361    -1763    -1489    -1333    -1129     -901 
    -804    -1092    -1861    -2801    -3431    -3485    -2976    -2174 
   -1561    -1582    -2187    -2805    -2948    -2646    -2165    -1633 
   -1134     -862     -980    -1495    -2203    -2654    -2606    -2315 
   -2142    -2251    -2525    -2601    -2334    -1991    -1757    -1614 
   -1601    -1749    -2029    -2300    -2258    -1952    -1863    -2119 
   -2404    -2463    -2224    -1926    -1950    -2316    -2700    -2782 
   -2362    -1557     -842     -691    -1200    -2043    -2744    -2976 
   -2701    -2189    -1826    -1755    -1833    -1907    -1946    -2014 
   -2134    -2226    -2214    -2122    -2085    -2203    -2308    -2122 
   -1701    -1420    -1594    -2211    -2855    -3083    -2879    -2463 
   -2027    -1771    -1795    -2039    -2317    -2366    -2165    -1964 
   -1818    -1602    -1440    -1555    -1877    -2128    -2137    -1931 
   -1694    -1668    -1983    -2447    -2739    -2749    -2563    -2285 
   -1960    -1574    -1216    -1102    -1417    -2164    -2965    -3258 
   -2882    -2160    -1512    -1215    -1304    -1640    -2158    -2766 
   -3163    -3106    -2668    -2083    -1586    -1344    -1371    -1559 
   -1771    -1864    -1776    -1676    -1864    -2374    -2922    -3176 
   -2983    -2538    -2180    -1973    -1760    -1503    -1389    -1609 
   -2056    -2382    -2389    -2133    -1817    -1684    -1788    -1946 
   -2029    -2066    -2087    -2100    -2138    -2205    -2303    -2417 
   -2523    -2617    -2674    -2596    -2354    -2035    -1740    -1524 
   -1422    -1474    -1637    -1780    -1871    -2002    -2155    -2247 
   -2220    -2015    -1718    -1561    -1625    -1830    -2138    -2484 
   -2714    -2727    -2500    -2126    -1865    -1891    -2084    -2251 
   -2357    -2421    -2420    -2316    -2099    -1827    -1665    -1740 
   -1954    -2087    -2045    -1919    -1867    -1973    -2162    -2281 
   -2268    -2122    -1930    -1873    -2004    -2180    -2228    -2115 
   -1992    -2007    -2097    -2073    -1864    -1606    -1499    -1637 
   -1961    -2331    -2627    -2762    -2670    -2392    -2087    -1892 
   -1818    -1780    -1726    -1695    -1734    -1819    -1922    -2095 
   -2373    -2674    -2844    -2762    -2475    -2192    -2080    -2141 
   -2242    -2246    -2135    -1966    -1741    -1467    -1236    -1204 
   -1501    -2056    -2525    -2620    -2407    -2149    -2010    -1993 
   -2026    -2042    -2043    -2046    -2033    -2003    -2000    -2042 
   -2104    -2177    -2259    -2301    -2214    -1980    -1755    -1748 
   -1983    -2270    -2411    -2361    -2223    -2165    -2239    -2317 
   -2234    -1961    -1661    -1567    -1760    -2111    -2365    -2349 
   -2178    -2083    -2131    -2303    -2546    -2700    -2570    -2104 
   -1453     -891     -634     -730    -1144    -1807    -2505    -2956 
   -3017    -2790    -2548    -2473    -2497    -2492    -2446    -2405 
   -2328    -2097    -1732    -1389    -1209    -1202    -1308    -1497 
   -1748    -1993    -2227    -2493    -2762    -2980    -3123    -3110 
   -2874    -2412    -1761    -1096     -711     -737    -1034    -1413 
   -1815    -2250    -2654    -2871    -2816    -2601    -2403    -2300 
   -2253    -2181    -2062    -1961    -1944    -1987    -2034    -2042 
   -1941    -1710    -1497    -1529    -1891    -2423    -2801    -2774 
   -2388    -1931    -1665    -1680    -1896    -2158    -2355    -2432 
   -2394    -2312    -2201    -1981    -1669    -1451    -1502    -1836 
   -2292    -2587    -2533    -2204    -1804    -1532    -1505    -1710 
   -2056    -2415    -2592    -2493    -2228    -1971    -1840    -1880 
   -2046    -2207    -2209    -1960    -1506    -1124    -1185    -1783 
   -2608    -3180    -3191    -2718    -2133    -1734    -1583    -1663 
   -1954    -2334    -2573    -2486    -2158    -1922    -2012    -2350 
   -2679    -2768    -2532    -2107    -1732    -1572    -1659    -1892 
   -2079    -2061    -1854    -1644    -1618    -1796    -2047    -2214 
   -2212    -2088    -1969    -1937    -2000    -2106    -2212    -2313 
   -2394    -2458    -2539    -2573    -2407    -1945    -1320     -897 
    -980    -1522    -2177    -2573    -2560    -2296    -2077    -2095 
   -2308    -2508    -2479    -2176    -1794    -1615    -1759    -2103 
   -2442    -2594    -2471    -2101    -1621    -1212    -1027    -1161 
   -1624    -2269    -2824    -3078    -3015    -2749    -2407    -2039 
   -1645    -1350    -1362    -1709    -2182    -2525    -2606    -2501 
   -2358    -2247    -2173    -2127    -2080    -1971    -1761    -1521 
   -1401    -1517    -1856    -2265    -2574    -2693    -2585    -2263 
   -1842    -1516    -1456    -1719    -2178    -2585    -2713    -2492 
   -2043    -1629    -1462    -1591    -1942    -2347    -2602    -2640 
   -2536    -2378    -2220    -2056    -1830    -1595    -1482    -1560 
   -1814    -2145    -2385    -2400    -2200    -1941    -1771    -1738 
   -1827    -1975    -2108    -2228    -2373    -2529    -2624    -2586 
   -2393    -2087    -1744    -1455    -1354    -1530    -1899    -2257 
   -2455    -2477    -2417    -2384    -2386    -2347    -2189    -1922 
   -1647    -1521    -1652    -2020    -2458    -2683    -2494    -1944 
   -1356    -1088    -1263    -1756    -2301    -2671    -2794    -2693 
   -2436    -2157    -1945    -1794    -1682    -1624    -1620    -1659 
   -1765    -1971    -2269    -2582    -2798    -2882    -2825    -2560 
   -2096    -1624    -1383    -1455    -1694    -1907    -1996    -1965 
   -1892    -1853    -1852    -1853    -1848    -1854    -1933    -2157 
   -2474    -2724    -2817    -2744    -2509    -2218    -2050    -2065 
   -2142    -2142    -2016    -1860    -1814    -1885    -1972    -2026 
   -2056    -2043    -1971    -1849    -1733    -1726    -1887    -2134 
   -2335    -2432    -2421    -2349    -2315    -2343    -2354    -2290 
   -2178    -2072    -1991    -1906    -1800    -1725    -1736    -1795 
   -1822    -1807    -1806    -1850    -1952    -2123    -2315    -2408 
   -2323    -2072    -1811    -1771    -2016    -2420    -2816    -3002 
   -2856    -2494    -2088    -1740    -1547    -1518    -1568    -1632 
   -1656    -1621    -1610    -1699    -1875    -2068    -2192    -2219 
   -2227    -2281    -2359    -2420    -2443    -2420    -2359    -2280 
   -2200    -2138    -2085    -2007    -1900    -1829    -1853    -1973 
   -2099    -2111    -2027    -1983    -2029    -2089    -2061    -1929 
   -1765    -1638    -1583    -1633    -1803    -2060    -2358    -2667 
   -2921    -3045    -2991    -2700    -2189    -1651    -1306    -1278 
   -1533    -1894    -2147    -2203    -2091    -1912    -1788    -1787 
   -1879    -1987    -2050    -2087    -2182    -2371    -2574    -2652 
   -2531    -2265    -1989    -1813    -1787    -1885    -1989    -2039 
   -2091    -2162    -2191    -2157    -2111    -2091    -2081    -2016 
   -1887    -1806    -1858    -2004    -2158    -2234    -2197    -2103 
   -2033    -2046    -2153    -2296    -2373    -2296    -2087    -1894 
   -1823    -1852    -1912    -1902    -1790    -1723    -1840    -2066 
   -2270    -2381    -2359    -2215    -2025    -1908    -1946    -2106 
   -2266    -2300    -2176    -2046    -2068    -2180    -2239    -2196 
   -2084    -1980    -1933    -1912    -1852    -1756    -1741    -1877 
   -2081    -2209    -2219    -2168    -2119    -2134    -2253    -2393 
   -2434    -2343    -2165    -2026    -2047    -2197    -2347    -2378 
   -2247    -2029    -1827    -1698    -1651    -1696    -1822    -1972 
   -2110    -2219    -2280    -2328    -2411    -2500    -2566    -2602 
   -2563    -2389    -2087    -1799    -1692    -1788    -1968    -2039 
   -1863    -1514    -1220    -1121    -1216    -1445    -1742    -2026 
   -2269    -2498    -2683    -2745    -2682    -2559    -2458    -2462 
   -2560    -2682    -2787    -2862    -2878    -2817    -2682    -2520 
   -2380    -2263    -2174    -2118    -2046    -1903    -1629    -1190 
    -676     -284     -176     -391     -847    -1399    -1915    -2308 
   -2523    -2527    -2324    -1992    -1687    -1543    -1599    -1780 
   -1949    -2058    -2188    -2425    -2763    -3118    -3339    -3210 
   -2679    -1989    -1458    -1291    -1520    -1966    -2384    -2647 
   -2787    -2857    -2822    -2633    -2354    -2081    -1837    -1620 
   -1458    -1320    -1150     -966     -815     -777     -935    -1219 
   -1441    -1513    -1541    -1745    -2193    -2727    -3249    -3780 
   -4205    -4340    -4031    -3227    -2137    -1096     -349      -63 
    -314    -1026    -2006    -2975    -3626    -3804    -3580    -3127 
   -2606    -2116    -1709    -1387    -1116     -905     -831     -907 
   -1036    -1165    -1332    -1537    -1761    -2047    -2425    -2907 
   -3484    -3940    -3932    -3348    -2425    -1543     -990     -862 
   -1104    -1606    -2199    -2673    -2917    -2938    -2816    -2713 
   -2770    -2991    -3235    -3296    -3029    -2452    -1815    -1368 
   -1028     -584      -64      325      342     -129     -946    -1880 
   -2708    -3198    -3298    -3123    -2717    -2070    -1389    -1043 
   -1183    -1656    -2251    -2809    -3208    -3352    -3254    -3056 
   -2826    -2481    -2003    -1702    -1966    -2755    -3593    -3942 
   -3510    -2408    -1062       87      760      762      118     -816 
   -1737    -2497    -2965    -3246    -3503    -3597    -3396    -3017 
   -2651    -2438    -2323    -2151    -1919    -1663    -1267     -688 
    -166       13     -190     -673    -1267    -1719    -1945    -2200 
   -2686    -3213    -3466    -3325    -2864    -2286    -1833    -1710 
   -2047    -2737    -3362    -3665    -3769    -3682    -3276    -2643 
   -1933    -1317    -1047    -1134    -1367    -1632    -1791    -1721 
   -1629    -1803    -2176    -2412    -2281    -1846    -1317     -908 
    -807    -1127    -1873    -2862    -3713    -4094    -3913    -3316 
   -2577    -1981    -1655    -1510    -1486    -1555    -1590    -1491 
   -1240     -820     -384     -234     -426     -765    -1129    -1487 
   -1861    -2382    -3071    -3701    -4060    -4108    -3875    -3395 
   -2768    -2170    -1742    -1532    -1507    -1691    -2053    -2382 
   -2577    -2704    -2794    -2862    -2899    -2816    -2575    -2223 
   -1756    -1200     -734     -572     -679     -842     -994    -1185 
   -1424    -1729    -2103    -2461    -2720    -2882    -2944    -2839 
   -2558    -2201    -1976    -2074    -2452    -2848    -2978    -2664 
   -1975    -1196     -627     -473     -761    -1335    -1975    -2484 
   -2759    -2907    -3107    -3333    -3434    -3397    -3283    -3049 
   -2650    -2127    -1567    -1070     -762     -670     -716     -870 
   -1128    -1456    -1896    -2428    -2886    -3167    -3188    -2857 
   -2262    -1599    -1053     -797     -919    -1297    -1683    -1927 
   -2062    -2219    -2502    -2836    -3049    -3032    -2718    -2176 
   -1651    -1393    -1472    -1761    -2124    -2463    -2600    -2428 
   -2022    -1507    -1090     -978    -1159    -1541    -2046    -2489 
   -2718    -2870    -3142    -3476    -3663    -3603    -3281    -2787 
   -2344    -2083    -1891    -1640    -1313     -949     -706     -814 
   -1254    -1760    -2131    -2323    -2388    -2389    -2307    -2089 
   -1784    -1483    -1274    -1256    -1404    -1566    -1676    -1772 
   -1938    -2272    -2721    -3068    -3152    -3013    -2798    -2648 
   -2625    -2678    -2663    -2442    -1965    -1367     -904     -739 
    -884    -1242    -1647    -1948    -2119    -2185    -2176    -2185 
   -2290    -2455    -2594    -2655    -2690    -2789    -2902    -2913 
   -2799    -2621    -2427    -2259    -2096    -1833    -1509    -1248 
   -1089    -1027    -1028    -1036    -1073    -1167    -1305    -1455 
   -1588    -1694    -1791    -1946    -2204    -2488    -2705    -2891 
   -3053    -3107    -3063    -2994    -2936    -2932    -2951    -2799 
   -2369    -1825    -1389    -1156    -1093    -1108    -1146    -1177 
   -1166    -1189    -1393    -1834    -2381    -2856    -3213    -3451 
   -3516    -3391    -3121    -2775    -2439    -2168    -1989    -1896 
   -1836    -1729    -1548    -1340    -1206    -1237    -1386    -1495 
   -1493    -1439    -1452    -1618    -1888    -2164    -2403    -2513 
   -2396    -2126    -1890    -1821    -1930    -2069    -2131    -2209 
   -2308    -2288    -2193    -2164    -2239    -2396    -2524    -2489 
   -2320    -2157    -2072    -2062    -2145    -2344    -2581    -2733 
   -2793    -2785    -2702    -2543    -2340    -2147    -2016    -1950 
   -1898    -1798    -1648    -1533    -1555    -1722    -1934    -2038 
   -1993    -1896    -1891    -2050    -2231    -2227    -1989    -1597 
   -1163     -816     -633     -673     -999    -1553    -2166    -2695 
   -3065    -3254    -3318    -3314    -3268    -3207    -3133    -2965 
   -2609    -2091    -1547    -1105     -855     -795     -900    -1221 
   -1678    -2057    -2268    -2319    -2250    -2169    -2130    -2127 
   -2160    -2212    -2254    -2272    -2278    -2273    -2238    -2188 
   -2130    -2126    -2261    -2423    -2428    -2282    -2081    -1881 
   -1756    -1767    -1868    -1922    -1848    -1701    -1570    -1524 
   -1591    -1732    -1892    -2093    -2324    -2516    -2660    -2771 
   -2843    -2909    -2951    -2866    -2651    -2380    -2091    -1830 
   -1672    -1598    -1517    -1405    -1281    -1142    -1043    -1094 
   -1347    -1733    -2153    -2586    -3005    -3308    -3396    -3230 
   -2911    -2579    -2259    -1942    -1665    -1444    -1281    -1254 
   -1435    -1738    -1980    -2088    -2108    -2060    -1966    -1858 
   -1748    -1668    -1644    -1674    -1775    -1923    -2061    -2172 
   -2241    -2247    -2245    -2285    -2354    -2396    -2342    -2158 
   -1965    -1927    -2023    -2143    -2236    -2269    -2235    -2222 
   -2272    -2334    -2363    -2320    -2157    -1925    -1772    -1759 
   -1791    -1790    -1815    -1971    -2253    -2512    -2590    -2520 
   -2455    -2470    -2474    -2354    -2146    -1945    -1827    -1840 
   -1910    -1930    -1912    -1923    -1980    -2042    -2039    -1952 
   -1841    -1783    -1831    -1975    -2101    -2108    -2019    -1937 
   -1921    -1957    -2019    -2101    -2195    -2277    -2304    -2280 
   -2277    -2281    -2197    -2025    -1856    -1763    -1695    -1621 
   -1648    -1836    -2107    -2359    -2482    -2439    -2332    -2243 
   -2142    -1984    -1763    -1530    -1437    -1586    -1846    -2002 
   -2029    -2068    -2187    -2315    -2411    -2450    -2380    -2272 
   -2251    -2304    -2369    -2389    -2289    -2112    -1971    -1873 
   -1745    -1591    -1512    -1605    -1896    -2268    -2520    -2597 
   -2566    -2496    -2407    -2265    -2074    -1922    -1877    -1918 
   -1935    -1875    -1782    -1756    -1873    -2114    -2386    -2598 
   -2690    -2662    -2593    -2513    -2378    -2187    -2026    -1977 
   -2012    -2014    -1946    -1864    -1790    -1740    -1753    -1800 
   -1796    -1737    -1709    -1755    -1865    -2014    -2120    -2122 
