Origin Time       2025/03/29 04:45:00
Lat.              31.090
Long.             131.512
Depth. (km)       33
Mag.              4.6
Station Code      KGS008
Station Lat.      31.7638
Station Long.     130.5659
Station Height(m) 11
Record Time       2025/03/29 04:45:51
Sampling Freq(Hz) 100Hz
Duration Time(s)  60
Dir.              N-S
Scale Factor      7845(gal)/8223790
Max. Acc. (gal)   1.739
Last Correction   2025/03/29 04:45:52
Memo.             
[...]
    1837     1868     1907     1945     1973     1979     1966     1948 
    1927     1902     1875     1849     1825     1810     1819     1854 
    1887     1877     1826     1764     1705     1648     1599     1568 
    1566     1591     1637     1691     1752     1818     1881     1931 
    1960     1961     1950     1934     1904     1864     1825     1787 
    1772     1796     1853     1919     1984     2039     2068     2056 
    2002     1918     1837     1780     1737     1699     1676     1668 
    1669     1678     1692     1702     1696     1687     1684     1692 
    1706     1718     1733     1749     1763     1771     1767     1768 
    1791     1826     1852     1861     1865     1869     1879     1902 
    1937     1971     2000     2020     2025     2025     2026     2010 
    1966     1896     1803     1705     1617     1551     1521     1524 
    1539     1571     1633     1702     1757     1800     1826     1834 
    1826     1794     1741     1675     1607     1553     1534     1567 
    1647     1745     1845     1962     2085     2172     2208     2200 
    2161     2100     2020     1941     1888     1864     1861     1877 
    1902     1917     1914     1902     1891     1863     1794     1698 
    1603     1522     1470     1470     1525     1613     1698     1753 
    1784     1796     1790     1773     1746     1710     1683     1687 
    1707     1732     1761     1798     1834     1869     1908     1954 
    1996     2025     2035     2039     2034     2011     1976     1939 
    1906     1887     1883     1885     1873     1838     1795     1755 
    1726     1706     1679     1634     1576     1520     1476     1466 
    1489     1529     1579     1638     1709     1787     1868     1935 
    1973     1980     1971     1960     1945     1934     1935     1948 
    1958     1956     1938     1918     1896     1868     1838     1811 
    1794     1787     1776     1759     1752     1757     1771     1799 
    1840     1876     1891     1880     1842     1786     1717     1641 
    1568     1518     1510     1544     1610     1702     1792     1863 
    1912     1941     1948     1935     1914     1899     1895     1894 
    1911     1953     1998     2027     2030     1998     1935     1857 
    1787     1738     1706     1683     1660     1632     1606     1590 
    1590     1614     1659     1703     1729     1740     1750     1756 
    1746     1728     1715     1698     1675     1676     1711     1775 
    1857     1941     2015     2066     2092     2099     2095     2093 
    2104     2124     2151     2182     2196     2158     2062     1929 
    1784     1652     1560     1518     1514     1534     1566     1584 
    1575     1563     1561     1568     1590     1633     1694     1755 
    1803     1836     1850     1852     1857     1872     1887     1891 
    1883     1858     1821     1792     1788     1803     1841     1896 
    1954     2008     2041     2039     2002     1934     1865     1807 
    1750     1699     1660     1629     1610     1611     1636     1691 
    1771     1846     1912     1977     2029     2050     2054     2057 
    2045     2014     1976     1945     1919     1900     1891     1887 
    1887     1873     1833     1776     1710     1632     1544     1463 
    1397     1356     1350     1368     1406     1447     1478     1502 
    1516     1518     1530     1572     1634     1703     1780     1865 
    1950     2031     2106     2164     2208     2247     2284     2309 
    2324     2331     2320     2285     2236     2193     2169     2143 
    2095     2029     1937     1815     1679     1541     1417     1314 
    1240     1192     1156     1134     1121     1113     1121     1161 
    1233     1348     1516     1709     1877     1999     2079     2126 
    2150     2178     2231     2301     2371     2423     2442     2412 
    2346     2268     2185     2095     2000     1902     1799     1692 
    1568     1433     1317     1251     1246     1283     1352     1452 
    1572     1682     1756     1806     1837     1846     1837     1823 
    1819     1827     1854     1902     1961     2035     2126     2208 
    2246     2236     2195     2126     2035     1941     1854     1788 
    1746     1717     1702     1702     1694     1674     1647     1610 
    1572     1544     1517     1478     1425     1372     1336     1323 
    1339     1408     1544     1713     1869     2000     2115     2212 
    2272     2280     2242     2174     2106     2035     1966     1906 
    1861     1849     1879     1912     1922     1923     1927     1919 
    1884     1834     1780     1728     1682     1636     1584     1534 
    1513     1532     1576     1617     1640     1649     1653     1653 
    1660     1680     1701     1721     1761     1814     1864     1915 
    1977     2047     2107     2142     2155     2160     2172     2195 
    2207     2187     2122     2014     1890     1786     1707     1640 
    1590     1560     1536     1510     1482     1443     1390     1343 
    1337     1382     1460     1561     1674     1772     1854     1929 
    1993     2037     2050     2056     2072     2089     2104     2122 
    2141     2153     2150     2130     2093     2043     1981     1912 
    1836     1757     1702     1682     1674     1660     1630     1587 
    1536     1480     1440     1436     1478     1556     1653     1763 
    1879     1976     2034     2073     2106     2122     2097     2030 
    1933     1841     1783     1768     1784     1813     1833     1852 
    1873     1883     1869     1836     1777     1702     1628     1587 
    1579     1575     1557     1545     1561     1611     1684     1769 
    1867     1957     2012     2027     2026     2027     2019     1991 
    1949     1914     1899     1884     1861     1860     1904     1977 
    2039     2072     2084     2068     2000     1885     1750     1636 
    1557     1509     1489     1499     1518     1534     1537     1526 
    1516     1518     1537     1568     1603     1641     1686     1729 
    1764     1796     1831     1871     1922     1992     2083     2172 
    2235     2261     2257     2239     2215     2187     2154     2110 
    2045     1971     1895     1806     1701     1595     1512     1459 
    1436     1437     1455     1476     1503     1534     1561     1574 
    1582     1591     1603     1622     1634     1641     1659     1690 
    1715     1728     1740     1760     1775     1798     1858     1942 
    2006     2031     2047     2066     2062     2029     1985     1948 
    1922     1904     1894     1900     1923     1937     1919     1881 
    1840     1791     1737     1698     1678     1669     1669     1679 
    1702     1736     1779     1830     1875     1915     1966     2025 
    2062     2065     2038     1998     1953     1892     1811     1741 
    1713     1710     1718     1734     1749     1765     1788     1798 
    1760     1696     1656     1634     1598     1561     1551     1574 
    1617     1660     1694     1715     1736     1775     1826     1861 
    1884     1914     1941     1961     1983     1992     1987     1976 
    1962     1946     1927     1907     1895     1894     1894     1875 
    1815     1726     1648     1587     1543     1518     1499     1497 
    1533     1601     1679     1748     1804     1856     1904     1945 
    1987     2030     2072     2104     2108     2087     2058     2033 
    2006     1977     1945     1906     1867     1834     1803     1771 
    1745     1715     1683     1661     1665     1695     1741     1790 
    1825     1826     1804     1786     1772     1749     1713     1675 
    1641     1620     1624     1656     1701     1759     1834     1915 
    1966     1976     1971     1962     1953     1946     1949     1964 
    1983     1989     1987     1988     1980     1953     1912     1868 
    1818     1756     1684     1622     1568     1524     1499     1498 
    1506     1521     1551     1584     1603     1609     1602     1583 
    1567     1582     1625     1682     1752     1838     1922     1988 
    2029     2047     2065     2092     2126     2147     2160     2172 
    2172     2126     2026     1896     1767     1641     1537     1468 
    1433     1428     1448     1482     1526     1586     1648     1694 
    1715     1728     1748     1794     1856     1911     1965     2027 
    2084     2108     2114     2116     2107     2083     2053     2029 
    2010     1984     1937     1871     1798     1729     1674     1645 
    1644     1647     1634     1621     1621     1621     1605     1582 
    1575     1591     1617     1647     1692     1760     1823     1864 
    1885     1896     1903     1911     1923     1949     1980     1998 
    1989     1977     1975     1956     1911     1873     1853     1845 
    1836     1815     1800     1791     1768     1734     1713     1709 
    1721     1734     1741     1732     1710     1705     1728     1765 
    1804     1840     1871     1899     1912     1911     1911     1912 
    1911     1911     1911     1914     1910     1884     1840     1786 
    1742     1723     1717     1703     1684     1671     1679     1705 
    1734     1777     1830     1869     1898     1907     1865     1792 
    1710     1629     1576     1568     1588     1633     1698     1777 
    1863     1930     1968     1983     1980     1960     1937     1930 
    1925     1923     1942     1968     1988     2006     2031     2056 
    2064     2056     2035     1998     1948     1873     1777     1695 
    1642     1614     1613     1637     1683     1734     1777     1814 
    1846     1881     1911     1923     1930     1942     1942     1926 
    1915     1910     1892     1867     1845     1827     1802     1760 
    1714     1678     1642     1617     1621     1651     1694     1736 
    1788     1861     1939     1996     2023     2015     1969     1899 
    1819     1748     1686     1628     1587     1580     1588     1595 
    1614     1655     1701     1729     1745     1768     1790     1799 
    1822     1850     1857     1858     1858     1844     1802     1733 
    1667     1625     1590     1564     1561     1567     1570     1572 
    1568     1560     1553     1545     1537     1536     1532     1524 
    1526     1532     1545     1588     1645     1715     1803     1888 
    1948     1983     1991     1983     1984     2004     2015     2025 
    2073     2141     2192     2236     2258     2223     2154     2069 
    1975     1887     1810     1750     1710     1678     1636     1590 
    1557     1534     1518     1526     1557     1586     1617     1663 
    1715     1784     1869     1945     2000     2043     2065     2052 
    2006     1954     1923     1911     1908     1919     1944     1979 
    2020     2057     2073     2072     2053     2026     2012     1993 
    1954     1918     1900     1900     1917     1944     1983     2038 
    2100     2150     2174     2162     2108     2015     1894     1768 
    1661     1576     1499     1425     1370     1344     1331     1324 
    1337     1355     1355     1350     1358     1370     1381     1402 
    1436     1470     1503     1541     1584     1622     1647     1660 
    1680     1728     1795     1875     1980     2111     2231     2315 
    2367     2396     2401     2384     2344     2299     2253     2214 
    2176     2130     2065     1975     1879     1798     1728     1679 
    1671     1682     1694     1717     1736     1741     1755     1776 
    1794     1804     1811     1819     1806     1761     1701     1632 
    1563     1485     1393     1306     1236     1186     1159     1151 
    1156     1181     1229     1286     1331     1371     1424     1475 
    1498     1501     1524     1584     1668     1752     1836     1938 
    2058     2182     2315     2463     2614     2756     2895     3019 
    3103     3141     3146     3121     3053     2940     2797     2650 
    2508     2365     2224     2093     1965     1840     1725     1617 
    1486     1333     1174     1016      864      726      621      564 
     572      633      716      803      904     1024     1140     1237 
    1331     1429     1536     1649     1749     1837     1934     2045 
    2161     2286     2420     2531     2597     2629     2647     2636 
    2581     2511     2448     2394     2361     2332     2288     2231 
    2151     2046     1930     1800     1665     1564     1513     1510 
    1547     1602     1667     1726     1764     1780     1786     1784 
    1792     1825     1849     1831     1786     1740     1696     1657 
    1636     1648     1686     1713     1710     1686     1641     1583 
    1530     1493     1472     1466     1470     1476     1474     1467 
    1483     1526     1594     1694     1822     1957     2069     2126 
    2128     2097     2037     1954     1865     1786     1722     1674 
    1647     1652     1692     1772     1884     2010     2135     2245 
    2307     2319     2296     2238     2160     2084     2025     1989 
    1981     1985     1993     1988     1946     1860     1736     1590 
    1433     1266     1100      965      884      855      865      893 
     931      986     1058     1138     1227     1337     1456     1557 
    1645     1732     1809     1876     1953     2057     2192     2353 
    2529     2701     2860     3009     3122     3176     3179     3148 
    3088     3006     2913     2814     2705     2589     2459     2303 
    2114     1899     1667     1408     1125      845      583      356 
     189       79       12      -14        2       52      117      195 
     295      409      527      680      885     1131     1418     1749 
    2089     2408     2695     2932     3102     3204     3242     3241 
    3215     3167     3105     3034     2949     2841     2710     2574 
    2458     2358     2246     2111     1962     1800     1629     1482 
    1368     1300     1269     1263     1278     1310     1347     1390 
    1443     1510     1595     1694     1799     1911     2015     2081 
    2114     2122     2106     2072     2016     1934     1833     1732 
    1636     1547     1470     1414     1378     1352     1351     1391 
    1486     1629     1818     2025     2220     2392     2535     2651 
    2728     2752     2743     2728     2712     2685     2646     2600 
    2551     2493     2408     2300     2173     2029     1858     1656 
    1436     1209      970      735      535      394      321      317 
     368      459      589      765      965     1166     1366     1566 
    1755     1927     2091     2251     2408     2566     2720     2848 
    2932     2967     2951     2882     2760     2593     2396     2199 
    2012     1825     1636     1458     1300     1156     1012      872 
     751      662      603      577      585      639      754      918 
    1109     1332     1580     1834     2081     2311     2508     2666 
    2782     2844     2864     2866     2849     2809     2739     2629 
    2488     2334     2191     2068     1969     1884     1803     1713 
    1597     1458     1304     1140      980      838      720      639 
     603      616      669      753      870     1035     1229     1425 
    1611     1790     1961     2106     2212     2296     2355     2380 
    2388     2396     2407     2423     2440     2462     2492     2509 
    2504     2463     2388     2284     2149     1989     1833     1690 
    1559     1447     1358     1301     1290     1318     1363     1421 
    1486     1556     1638     1726     1810     1885     1931     1941 
    1929     1919     1929     1935     1923     1914     1934     1987 
    2046     2093     2116     2115     2101     2083     2053     2018 
    1988     1953     1918     1902     1908     1926     1942     1946 
    1937     1917     1899     1892     1887     1867     1827     1788 
    1759     1723     1675     1630     1588     1541     1513     1534 
    1593     1656     1702     1729     1752     1800     1884     1977 
    2065     2162     2268     2354     2396     2405     2401     2381 
    2339     2272     2184     2101     2037     1980     1919     1854 
    1796     1741     1683     1625     1575     1536     1503     1475 
    1452     1429     1413     1402     1381     1347     1306     1263 
    1217     1162     1094     1023      951      878      823      807 
     835      907     1012     1135     1269     1409     1552     1692 
    1829     1964     2092     2208     2309     2408     2505     2598 
    2686     2759     2797     2802     2795     2782     2741     2655 
    2533     2400     2266     2145     2026     1899     1768     1634 
    1493     1359     1256     1177     1097     1017      977     1012 
    1104     1210     1317     1424     1536     1655     1771     1869 
    1945     1992     2010     2006     1996     1998     2002     1991 
    1972     1964     1980     2022     2077     2128     2166     2188 
    2187     2177     2162     2127     2080     2038     2007     1988 
    1979     1989     2020     2053     2068     2061     2046     2023 
    1977     1896     1783     1645     1509     1389     1290     1209 
    1143     1089     1046     1004      967      951      966     1003 
    1055     1129     1232     1352     1487     1628     1764     1880 
    1976     2062     2141     2195     2216     2218     2216     2223 
    2236     2245     2245     2246     2261     2292     2332     2365 
    2389     2401     2397     2370     2322     2265     2212     2155 
    2089     2022     1975     1937     1881     1796     1692     1576 
    1451     1328     1215     1109     1012      936      904      915 
     962     1048     1163     1294     1448     1622     1807     1991 
    2161     2308     2432     2529     2586     2605     2592     2551 
    2500     2454     2411     2353     2288     2247     2247     2263 
    2266     2247     2216     2177     2143     2126     2099     2026 
    1917     1813     1736     1675     1621     1574     1529     1480 
    1422     1362     1302     1254     1217     1170     1117     1094 
    1104     1116     1116     1119     1139     1171     1213     1258 
    1296     1337     1409     1514     1637     1755     1848     1925 
    2004     2088     2168     2231     2261     2251     2226     2219 
    2246     2293     2338     2374     2401     2417     2420     2396 
    2332     2246     2142     2030     1929     1861     1838     1850 
    1872     1879     1872     1863     1845     1811     1749     1645 
    1513     1374     1240     1124     1031      961      916      907 
     935      985     1043     1108     1194     1302     1410     1506 
    1586     1647     1703     1764     1817     1864     1918     1985 
    2072     2182     2309     2421     2500     2556     2596     2610 
    2606     2596     2574     2529     2470     2405     2324     2219 
    2088     1930     1777     1640     1505     1382     1274     1183 
    1127     1101     1092     1094     1107     1124     1167     1227 
    1282     1335     1389     1435     1486     1559     1648     1736 
    1810     1875     1948     2031     2119     2207     2296     2384 
    2463     2531     2592     2633     2637     2602     2546     2477 
    2392     2292     2185     2065     1926     1795     1691     1606 
    1548     1529     1530     1524     1506     1502     1525     1563 
