Origin Time       2025/03/29 04:45:00
Lat.              31.090
Long.             131.512
Depth. (km)       33
Mag.              4.6
Station Code      KGS018
Station Lat.      31.3757
Station Long.     130.5449
Station Height(m) 51
Record Time       2025/03/29 04:45:32
Sampling Freq(Hz) 100Hz
Duration Time(s)  76
Dir.              U-D
Scale Factor      3920(gal)/6182761
Max. Acc. (gal)   4.084
Last Correction   2025/03/29 04:45:32
Memo.             
[...]
   34328    34239    34252    34337    34292    34235    34309    34336 
   34242    34240    34326    34292    34234    34302    34329    34251 
   34254    34317    34280    34243    34307    34318    34251    34276 
   34327    34270    34241    34314    34311    34235    34276    34340 
   34270    34239    34323    34305    34222    34281    34338    34249 
   34232    34338    34320    34224    34280    34349    34261    34231 
   34333    34319    34226    34277    34338    34254    34234    34330 
   34306    34228    34301    34347    34247    34243    34341    34298 
   34214    34291    34348    34250    34236    34341    34305    34209 
   34289    34351    34238    34217    34342    34318    34207    34281 
   34362    34254    34217    34339    34327    34215    34270    34348 
   34259    34221    34325    34321    34231    34282    34349    34268 
   34235    34323    34307    34221    34275    34336    34253    34238 
   34335    34302    34222    34301    34352    34243    34231    34337 
   34294    34204    34294    34352    34245    34233    34342    34314 
   34224    34287    34339    34247    34239    34332    34293    34224 
   34304    34339    34249    34263    34347    34285    34219    34304 
   34322    34227    34268    34360    34277    34217    34328    34338 
   34219    34263    34363    34271    34200    34317    34343    34223 
   34254    34365    34286    34203    34308    34342    34229    34248 
   34351    34291    34217    34301    34331    34243    34260    34337 
   34282    34235    34315    34321    34237    34270    34331    34258 
   34225    34318    34314    34231    34280    34339    34260    34242 
   34330    34311    34231    34273    34327    34272    34251    34314 
   34306    34254    34282    34311    34269    34258    34291    34282 
   34272    34299    34286    34256    34290    34308    34263    34272 
   34314    34276    34248    34302    34305    34247    34270    34322 
   34278    34242    34301    34316    34255    34264    34317    34290 
   34257    34293    34303    34271    34281    34295    34271    34275 
   34295    34272    34264    34305    34305    34263    34282    34314 
   34274    34254    34298    34292    34252    34282    34317    34273 
   34258    34306    34297    34253    34283    34309    34267    34265 
   34309    34292    34266    34302    34300    34251    34277    34317 
   34268    34254    34323    34302    34226    34281    34340    34252 
   34220    34323    34313    34218    34283    34367    34269    34223 
   34329    34316    34206    34262    34352    34266    34223    34338 
   34335    34224    34271    34346    34257    34225    34325    34308 
   34224    34288    34343    34249    34239    34344    34303    34209 
   34292    34347    34238    34236    34354    34306    34211    34303 
   34353    34233    34228    34336    34292    34211    34292    34344 
   34250    34246    34338    34296    34224    34294    34325    34246 
   34263    34334    34280    34231    34308    34321    34238    34267 
   34339    34269    34225    34325    34332    34230    34267    34350 
   34271    34221    34322    34328    34220    34256    34354    34286 
   34219    34312    34333    34227    34254    34350    34283    34221 
   34317    34341    34240    34254    34337    34280    34223    34310 
   34327    34232    34262    34345    34276    34228    34325    34329 
   34220    34256    34350    34276    34217    34320    34337    34224 
   34250    34351    34286    34217    34309    34332    34227    34245 
   34339    34288    34226    34309    34338    34243    34249    34329 
   34283    34228    34299    34321    34247    34265    34332    34283 
   34243    34315    34317    34235    34267    34336    34271    34233 
   34317    34323    34238    34269    34336    34273    34236    34318 
   34312    34226    34271    34342    34273    34238    34318    34312 
   34233    34274    34337    34272    34237    34311    34307    34233 
   34275    34328    34260    34247    34328    34308    34245    34299 
   34324    34241    34244    34323    34284    34226    34306    34340 
   34251    34258    34338    34289    34225    34292    34323    34248 
   34255    34329    34293    34238    34296    34320    34254    34254 
   34306    34283    34253    34291    34301    34265    34287    34317 
   34276    34258    34293    34281    34253    34289    34312    34276 
   34276    34312    34288    34257    34290    34297    34259    34273 
   34306    34282    34272    34308    34299    34263    34277    34291 
   34267    34273    34296    34277    34272    34305    34289    34261 
   34300    34309    34250    34258    34319    34285    34237    34303 
   34337    34260    34258    34322    34281    34228    34295    34325 
   34250    34254    34328    34291    34240    34305    34324    34248 
   34257    34318    34273    34236    34307    34312    34246    34289 
   34337    34257    34241    34332    34297    34209    34290    34357 
   34253    34234    34345    34306    34207    34295    34361    34248 
   34232    34341    34302    34216    34301    34348    34240    34240 
   34336    34280    34217    34318    34341    34234    34262    34349 
   34263    34210    34328    34327    34206    34269    34372    34269 
   34216    34348    34339    34192    34247    34361    34254    34200 
   34350    34354    34215    34269    34373    34268    34202    34324 
   34325    34203    34261    34360    34271    34227    34339    34327 
   34216    34275    34352    34251    34220    34338    34312    34207 
   34289    34364    34247    34220    34343    34312    34205    34288 
   34363    34250    34219    34337    34316    34208    34271    34350 
   34261    34229    34330    34318    34229    34277    34336    34265 
   34240    34312    34295    34235    34289    34329    34266    34262 
   34319    34281    34237    34299    34318    34244    34257    34327 
   34281    34234    34312    34335    34246    34244    34318    34286 
   34230    34295    34334    34265    34258    34323    34294    34237 
   34290    34334    34270    34250    34315    34303    34246    34282 
   34316    34264    34262    34322    34299    34244    34287    34313 
   34246    34252    34331    34296    34232    34298    34338    34248 
   34234    34327    34308    34224    34279    34343    34262    34225 
   34312    34314    34238    34274    34332    34271    34235    34301 
   34314    34260    34274    34309    34273    34255    34302    34301 
   34257    34276    34305    34275    34269    34303    34288    34258 
   34287    34303    34261    34264    34311    34289    34251    34290 
   34304    34254    34268    34315    34291    34265    34295    34298 
   34266    34279    34306    34283    34267    34286    34282    34268 
   34290    34300    34274    34282    34307    34275    34259    34307 
   34306    34254    34271    34311    34272    34247    34301    34314 
   34266    34276    34314    34284    34256    34284    34291    34266 
   34280    34302    34283    34276    34296    34284    34269    34290 
   34284    34263    34288    34299    34262    34275    34317    34284 
   34252    34301    34307    34246    34268    34321    34271    34238 
   34306    34311    34244    34277    34331    34270    34246    34318 
   34302    34235    34287    34329    34250    34247    34338    34296 
   34221    34306    34344    34231    34243    34355    34293    34206 
   34306    34345    34219    34235    34369    34306    34198    34303 
   34357    34223    34231    34364    34305    34204    34302    34343 
   34221    34240    34359    34288    34211    34323    34346    34221 
   34253    34354    34267    34212    34331    34329    34214    34277 
   34364    34260    34225    34351    34324    34204    34285    34366 
   34240    34211    34348    34319    34200    34289    34376    34251 
   34221    34353    34307    34191    34294    34357    34224    34230 
   34362    34299    34203    34317    34362    34219    34230    34359 
   34282    34197    34328    34360    34215    34248    34373    34273 
   34186    34326    34359    34211    34243    34373    34285    34199 
   34327    34357    34215    34242    34360    34279    34201    34307 
   34334    34236    34266    34346    34275    34220    34306    34320 
   34237    34267    34332    34276    34243    34311    34309    34240 
   34272    34326    34271    34246    34319    34316    34236    34259 
   34324    34281    34244    34302    34308    34245    34267    34318 
   34279    34253    34303    34307    34257    34266    34305    34284 
   34263    34300    34304    34264    34277    34299    34275    34278 
   34304    34287    34263    34283    34297    34271    34270    34300 
   34281    34247    34286    34319    34276    34257    34301    34297 
   34251    34274    34321    34293    34258    34288    34306    34264 
   34257    34302    34292    34257    34286    34311    34280    34266 
   34293    34295    34271    34276    34294    34275    34265    34292 
   34288    34263    34281    34296    34268    34272    34307    34287 
   34258    34292    34306    34260    34259    34308    34297    34254 
   34280    34316    34281    34260    34300    34297    34252    34270 
   34311    34295    34271    34287    34295    34275    34268    34284 
   34290    34281    34277    34282    34288    34282    34273    34281 
   34295    34281    34265    34282    34291    34271    34277    34299 
   34283    34271    34289    34291    34276    34280    34284    34274 
   34285    34298    34274    34266    34296    34284    34252    34288 
   34316    34274    34266    34316    34299    34239    34272    34320 
   34262    34240    34323    34316    34240    34276    34322    34260 
   34244    34313    34299    34243    34288    34324    34267    34264 
   34318    34282    34242    34302    34310    34240    34269    34332 
   34265    34225    34324    34331    34223    34263    34356    34266 
   34210    34334    34335    34204    34263    34373    34272    34212 
   34338    34335    34206    34261    34352    34255    34217    34336 
   34316    34209    34291    34371    34252    34228    34354    34297 
   34177    34295    34373    34221    34219    34383    34316    34184 
   34309    34377    34213    34217    34379    34298    34170    34310 
   34381    34218    34221    34377    34304    34184    34307    34360 
   34218    34241    34368    34280    34196    34325    34349    34213 
   34255    34367    34263    34200    34342    34343    34196    34256 
   34371    34262    34206    34346    34339    34206    34276    34372 
   34253    34205    34339    34329    34208    34270    34354    34257 
   34225    34334    34309    34217    34288    34340    34247    34248 
   34339    34295    34225    34303    34331    34234    34253    34349 
   34287    34219    34313    34339    34231    34251    34349    34287 
   34217    34306    34334    34235    34250    34339    34291    34235 
   34306    34326    34246    34254    34322    34292    34248    34295 
   34310    34260    34269    34302    34270    34254    34296    34292 
   34258    34279    34302    34276    34271    34300    34298    34269 
   34272    34289    34278    34268    34290    34300    34281    34277 
   34294    34299    34284    34276    34289    34288    34261    34263 
   34300    34295    34267    34286    34313    34287    34261    34287 
   34301    34268    34266    34296    34280    34259    34297    34310 
   34271    34271    34297    34279    34263    34290    34300    34275 
   34275    34291    34281    34278    34295    34284    34264    34283 
   34292    34270    34279    34301    34280    34265    34292    34299 
   34271    34271    34291    34277    34264    34286    34293    34273 
   34273    34288    34279    34262    34268    34277    34262    34263 
   34281    34273    34261    34276    34281    34279    34301    34318 
   34303    34300    34321    34311    34271    34268    34275    34234 
   34215    34271    34311    34301    34325    34369    34344    34290 
   34287    34277    34199    34140    34179    34239    34280    34385 
   34516    34529    34451    34391    34294    34124    34037    34098 
   34160    34181    34257    34342    34345    34372    34454    34415 
   34249    34119    33984    33803    33790    34027    34296    34510 
   34725    34780    34589    34438    34425    34291    34075    34053 
   34127    34119    34221    34462    34543    34531    34699    34833 
   34659    34384    34137    33751    33406    33474    33813    34139 
   34501    34795    34739    34519    34484    34482    34320    34143 
   33876    33345    32943    33095    33603    34286    35147    35735 
   35640    35260    35031    34805    34572    34541    34444    34002 
   33599    33512    33453    33438    33814    34350    34616    34740 
   34817    34638    34501    34853    35262    35117    34617    34063 
   33451    33121    33413    33880    34067    34191    34260    33874 
   33247    32906    32729    32604    33032    34159    35547    37046 
   38403    38676    37454    35565    33759    32184    31149    30858 
   30936    31279    32362    34154    35971    37417    38267    38074 
   36855    35256    33778    32659    32146    32186    32356    32524 
   32981    33751    34601    35517    36226    36026    34784    33132 
   31691    31077    31901    33901    36053    37805    39137    39728 
   39129    37371    34763    31745    29155    27841    28039    29554 
   31977    34607    36810    38271    38771    38304    37268    35997 
   34433    32633    31133    30453    30655    31598    33019    34403 
   35389    36074    36610    36889    36704    35938    34645    33147 
   31999    31732    32546    34116    35709    36688    36897    36496 
   35627    34403    32995    31684    30881    30885    31597    32689 
   33865    34867    35526    35901    36175    36487    36854    37069 
   36708    35517    33807    32191    31061    30557    30746    31610 
   33033    34809    36525    37659    38024    37833    37153    35796 
   33882    32012    30812    30633    31445    32745    34026    35286 
   36541    37278    37052    36033    34561    32882    31449    30726 
   30806    31635    33093    34741    36143    37311    38309    38763 
   38258    36870    34875    32508    30265    28838    28690    29940 
   32233    34715    36643    37834    38304    37962    36864    35385 
   34011    33189    33162    33671    34171    34464    34676    34758 
   34561    34143    33611    33003    32449    32053    31735    31560 
   31944    33099    34636    36005    36960    37483    37650    37585 
   37251    36365    34807    32953    31395    30576    30710    31753 
   33340    34866    35767    35836    35314    34714    34452    34563 
   34803    34966    35017    35057    35139    35121    34766    34069 
   33298    32605    31984    31678    31965    32630    33289    33984 
   34877    35825    36649    37238    37229    36336    34914    33579 
   32635    32266    32606    33347    34022    34602    35181    35543 
   35511    35147    34464    33566    32905    32804    33127    33745 
   34625    35415    35734    35682    35493    35136    34621    34092 
   33491    32829    32511    32724    33133    33567    34149    34729 
   35027    35114    35122    34935    34556    34194    33910    33798 
   34157    34899    35501    35751    35678    35082    34039    33189 
   32896    33011    33532    34401    35055    35109    34789    34305 
   33717    33289    33140    33034    33019    33477    34333    35110 
   35637    35876    35602    34901    34221    33717    33376    33443 
   33935    34396    34642    34904    35154    35265    35388    35484 
   35261    34752    34152    33368    32462    31970    32176    32782 
   33492    34188    34708    35048    35372    35551    35329    34883 
   34543    34303    34118    34115    34249    34239    34001    33704 
   33453    33371    33646    34178    34663    34982    35137    35078 
   34835    34558    34287    33998    33802    33813    33961    34140 
   34306    34380    34290    34060    33797    33632    33619    33705 
   33833    34003    34268    34698    35268    35799    36087    36080 
   35801    35251    34557    33884    33160    32320    31618    31353 
   31618    32447    33833    35488    36948    37967    38412    38069 
   36981    35524    33991    32553    31507    31064    31120    31525 
   32192    32905    33529    34216    35066    35871    36410    36603 
   36370    35726    34863    33841    32727    32006    32121    32907 
   33999    35184    36112    36463    36387    36063    35283    34069 
   32887    31994    31441    31545    32460    33747    34984    36103 
   36854    36927    36489    35756    34656    33429    32563    32086 
   31844    32042    32796    33818    34905    35916    36404    36158 
   35616    35114    34548    34011    33773    33716    33701    33935 
   34351    34531    34466    34403    34200    33718    33236    32923 
   32668    32615    33026    33751    34574    35532    36449    36918 
   36809    36250    35332    34245    33357    32874    32769    32998 
   33405    33708    33854    34033    34307    34611    34973    35375 
   35649    35750    35770    35645    35243    34581    33730    32762 
   31874    31377    31529    32389    33758    35222    36324    36766 
   36509    35733    34660    33426    32217    31411    31350    32083 
   33431    35039    36419    37204    37268    36658    35581    34400 
   33493    33044    33049    33422    34015    34679    35309    35721 
   35711    35271    34518    33570    32655    32040    31770    31826 
   32369    33387    34507    35489    36343    36897    36897    36460 
   35785    34834    33789    33088    32745    32580    32762    33337 
   33933    34329    34669    34934    34958    34905    34905    34728 
   34435    34332    34273    34085    33981    33980    33856    33716 
   33776    33821    33643    33502    33485    33329    33273    33753 
   34499    35200    36007    36713    36754    36112    35218    34248 
   33300    32763    32769    32972    33301    33975    34759    35243 
   35395    35211    34613    33806    33045    32418    32154    32546 
   33445    34412    35287    36035    36432    36448    36258    35717 
   34703    33636    32912    32505    32458    32892    33567    34105 
   34446    34631    34579    34381    34289    34325    34458    34800 
   35283    35703    36047    36295    36205    35671    34876    33936 
   32920    32136    31790    31776    32082    32756    33552    34214 
   34744    35139    35295    35200    34973    34662    34233    33859 
   33781    33905    34012    34053    34043    33981    33880    33848 
   34048    34476    34959    35443    35960    36379    36529    36366 
   35825    34824    33546    32374    31568    31249    31493    32182 
   33044    33983    34990    35853    36407    36678    36545    35880 
   34956    34126    33460    33025    32977    33168    33308    33467 
   33732    33885    33950    34208    34551    34723    34902    35253 
   35477    35348    34985    34412    33667    33128    32996    33033 
   33165    33571    34118    34528    34849    35118    35157    35011 
