Origin Time       2025/03/29 04:45:00
Lat.              31.090
Long.             131.512
Depth. (km)       33
Mag.              4.6
Station Code      KGS013
Station Lat.      31.5973
Station Long.     130.9938
Station Height(m) 118
Record Time       2025/03/29 04:45:30
Sampling Freq(Hz) 100Hz
Duration Time(s)  66
Dir.              N-S
Scale Factor      3920(gal)/6182761
Max. Acc. (gal)   5.606
Last Correction   2025/03/29 04:45:30
Memo.             
[...]
   -4392    -4399    -4396    -4392    -4393    -4389    -4390    -4402 
   -4402    -4387    -4381    -4391    -4392    -4382    -4385    -4393 
   -4397    -4400    -4398    -4389    -4387    -4393    -4393    -4387 
   -4387    -4393    -4395    -4391    -4390    -4390    -4386    -4390 
   -4400    -4400    -4388    -4384    -4387    -4387    -4385    -4387 
   -4392    -4397    -4397    -4395    -4394    -4394    -4388    -4385 
   -4394    -4396    -4388    -4387    -4387    -4384    -4390    -4394 
   -4392    -4394    -4399    -4397    -4392    -4391    -4395    -4393 
   -4385    -4382    -4384    -4391    -4394    -4390    -4389    -4395 
   -4399    -4400    -4400    -4393    -4381    -4385    -4391    -4384 
   -4389    -4399    -4395    -4392    -4396    -4393    -4390    -4393 
   -4396    -4392    -4388    -4389    -4387    -4386    -4397    -4398 
   -4387    -4392    -4404    -4401    -4395    -4389    -4383    -4383 
   -4387    -4389    -4384    -4388    -4401    -4401    -4396    -4400 
   -4394    -4386    -4391    -4392    -4387    -4391    -4396    -4393 
   -4386    -4385    -4390    -4397    -4402    -4401    -4394    -4389 
   -4385    -4385    -4394    -4400    -4393    -4384    -4384    -4390 
   -4395    -4397    -4396    -4398    -4392    -4385    -4392    -4392 
   -4380    -4388    -4401    -4391    -4385    -4396    -4396    -4391 
   -4394    -4397    -4394    -4387    -4390    -4396    -4387    -4381 
   -4394    -4392    -4387    -4399    -4402    -4391    -4390    -4393 
   -4391    -4386    -4385    -4388    -4388    -4389    -4393    -4390 
   -4387    -4400    -4408    -4397    -4388    -4389    -4383    -4379 
   -4389    -4394    -4388    -4390    -4393    -4390    -4395    -4403 
   -4402    -4406    -4419    -4426    -4415    -4393    -4372    -4344 
   -4315    -4311    -4329    -4361    -4420    -4497    -4560    -4579 
   -4543    -4449    -4313    -4184    -4111    -4114    -4198    -4344 
   -4515    -4658    -4734    -4707    -4568    -4367    -4177    -4053 
   -4053    -4189    -4384    -4549    -4632    -4612    -4514    -4415 
   -4366    -4374    -4419    -4439    -4377    -4261    -4161    -4121 
   -4162    -4300    -4525    -4806    -5083    -5208    -5010    -4466 
   -3758    -3186    -3022    -3341    -4020    -4820    -5473    -5782 
   -5697    -5270    -4621    -3939    -3447    -3290    -3478    -3894 
   -4345    -4672    -4835    -4908    -4958    -4953    -4792    -4423 
   -3964    -3657    -3661    -3943    -4328    -4633    -4778    -4805 
   -4805    -4775    -4608    -4283    -3955    -3794    -3850    -4016 
   -4122    -4155    -4285    -4587    -4948    -5216    -5264    -5009 
   -4511    -3994    -3724    -3773    -3988    -4222    -4409    -4526 
   -4625    -4721    -4736    -4602    -4320    -4002    -3892    -4199 
   -4818    -5265    -5040    -4200    -3436    -3413    -4114    -4884 
   -5020    -4384    -3515    -3089    -3368    -4107    -4792    -5118 
   -5263    -5534    -5906    -6052    -5620    -4489    -3015    -1959 
   -1913    -2815    -4054    -5014    -5529    -5836    -6099    -6185 
   -5890    -5125    -3956    -2734    -2039    -2213    -2995    -3839 
   -4449    -4854    -5148    -5291    -5139    -4670    -4144    -3946 
   -4219    -4723    -5073    -5087    -4898    -4722    -4585    -4376 
   -4051    -3713    -3553    -3682    -4060    -4498    -4707    -4577 
   -4376    -4418    -4695    -4966    -5011    -4808    -4529    -4340 
   -4270    -4196    -3946    -3544    -3256    -3330    -3817    -4558 
   -5265    -5686    -5727    -5413    -4826    -4126    -3523    -3188 
   -3253    -3728    -4396    -4972    -5382    -5678    -5755    -5435 
   -4725    -3783    -2831    -2224    -2328    -3184    -4436    -5587 
   -6259    -6338    -5939    -5257    -4493    -3801    -3238    -2841 
   -2743    -3112    -3956    -4949    -5495    -5205    -4353    -3638 
   -3571    -4196    -5064    -5615    -5775    -5795    -5638    -5129 
   -4339    -3467    -2786    -2597    -2857    -3267    -3722    -4318 
   -5102    -5887    -6317    -6193    -5583    -4754    -4086    -3753 
   -3594    -3362    -2957    -2634    -2842    -3640    -4667    -5594 
   -6149    -6153    -5700    -5016    -4375    -3942    -3604    -3324 
   -3286    -3569    -4045    -4469    -4608    -4487    -4374    -4451 
   -4714    -5082    -5367    -5375    -5142    -4830    -4476    -4039 
   -3568    -3248    -3267    -3666    -4299    -4856    -5043    -4849 
   -4530    -4329    -4316    -4395    -4390    -4218    -4019    -4034 
   -4339    -4737    -4921    -4730    -4319    -3992    -3877    -3901 
   -4010    -4200    -4465    -4780    -5088    -5317    -5364    -5098 
   -4559    -4062    -3906    -4068    -4275    -4341    -4303    -4239 
   -4209    -4269    -4307    -4132    -3810    -3615    -3709    -4049 
   -4453    -4788    -5074    -5345    -5547    -5587    -5385    -4897 
   -4162    -3378    -2856    -2776    -3088    -3624    -4167    -4507 
   -4610    -4627    -4697    -4830    -4962    -5081    -5243    -5451 
   -5614    -5568    -5138    -4301    -3320    -2625    -2492    -2828 
   -3316    -3766    -4235    -4841    -5516    -5953    -5861    -5259 
   -4484    -3966    -3899    -4114    -4346    -4538    -4792    -5087 
   -5189    -4894    -4179    -3214    -2387    -2136    -2597    -3507 
   -4487    -5347    -6038    -6472    -6540    -6206    -5531    -4684 
   -3880    -3275    -2944    -2886    -3047    -3349    -3700    -4009 
   -4260    -4530    -4872    -5212    -5462    -5630    -5739    -5726 
   -5533    -5173    -4654    -3990    -3270    -2623    -2193    -2118 
   -2431    -3074    -3969    -4942    -5743    -6233    -6417    -6326 
   -5975    -5425    -4783    -4130    -3535    -3131    -2977    -2992 
   -3123    -3382    -3790    -4352    -4984    -5515    -5778    -5681 
   -5251    -4677    -4197    -3925    -3813    -3743    -3665    -3615 
   -3643    -3774    -4002    -4306    -4627    -4878    -5065    -5261 
   -5433    -5461    -5268    -4871    -4374    -3921    -3638    -3581 
   -3715    -3956    -4232    -4516    -4774    -4871    -4710    -4418 
   -4217    -4220    -4404    -4625    -4712    -4615    -4407    -4162 
   -3904    -3670    -3558    -3684    -4094    -4681    -5204    -5470 
   -5445    -5163    -4718    -4284    -3965    -3756    -3675    -3741 
   -3940    -4260    -4647    -4958    -5062    -4925    -4650    -4425 
   -4374    -4478    -4588    -4530    -4299    -4037    -3839    -3754 
   -3810    -3953    -4099    -4219    -4327    -4448    -4608    -4788 
   -4898    -4893    -4818    -4683    -4475    -4232    -4013    -3870 
   -3824    -3852    -3940    -4105    -4376    -4732    -5071    -5301 
   -5379    -5286    -5031    -4664    -4260    -3911    -3691    -3597 
   -3574    -3595    -3685    -3900    -4271    -4729    -5154    -5426 
   -5447    -5222    -4834    -4348    -3857    -3483    -3322    -3408 
   -3696    -4099    -4507    -4806    -4920    -4850    -4671    -4499 
   -4424    -4451    -4534    -4636    -4716    -4748    -4758    -4772 
   -4741    -4591    -4321    -3992    -3691    -3495    -3439    -3520 
   -3717    -3999    -4328    -4677    -5007    -5207    -5182    -4972 
   -4686    -4414    -4225    -4119    -4072    -4091    -4187    -4387 
   -4678    -4939    -5052    -5021    -4933    -4866    -4813    -4687 
   -4455    -4191    -3978    -3864    -3850    -3868    -3868    -3871 
   -3885    -3908    -3953    -3986    -3986    -4009    -4098    -4266 
   -4547    -4972    -5486    -5907    -6048    -5823    -5234    -4388 
   -3495    -2777    -2423    -2530    -3090    -3993    -4993    -5787 
   -6215    -6252    -5901    -5222    -4391    -3637    -3140    -2995 
   -3178    -3559    -4004    -4422    -4710    -4800    -4727    -4564 
   -4371    -4198    -4092    -4114    -4309    -4637    -4968    -5164 
   -5181    -5096    -4961    -4735    -4400    -4041    -3783    -3687 
   -3733    -3871    -4050    -4250    -4501    -4812    -5099    -5219 
   -5069    -4671    -4186    -3793    -3526    -3332    -3220    -3241 
   -3452    -3865    -4368    -4786    -5024    -5135    -5266    -5496 
   -5744    -5821    -5595    -5106    -4503    -3905    -3366    -2918 
   -2644    -2667    -3040    -3701    -4509    -5293    -5890    -6179 
   -6125    -5789    -5281    -4702    -4133    -3655    -3328    -3161 
   -3145    -3253    -3402    -3562    -3793    -4110    -4484    -4901 
   -5302    -5579    -5682    -5612    -5382    -5046    -4658    -4221 
   -3765    -3370    -3122    -3070    -3253    -3648    -4162    -4725 
   -5271    -5673    -5826    -5723    -5421    -4980    -4440    -3872 
   -3389    -3090    -3033    -3210    -3573    -4055    -4563    -5002 
   -5294    -5399    -5316    -5093    -4827    -4586    -4367    -4156 
   -4000    -3952    -4010    -4121    -4224    -4270    -4229    -4134 
   -4056    -4041    -4104    -4250    -4460    -4696    -4924    -5117 
   -5224    -5169    -4930    -4588    -4253    -4000    -3825    -3644 
   -3442    -3318    -3343    -3516    -3786    -4082    -4392    -4758 
   -5164    -5511    -5716    -5762    -5672    -5458    -5125    -4698 
   -4209    -3692    -3207    -2815    -2579    -2572    -2851    -3404 
   -4143    -4954    -5705    -6279    -6596    -6593    -6243    -5602 
   -4798    -3980    -3289    -2843    -2696    -2808    -3094    -3488 
   -3937    -4416    -4908    -5328    -5574    -5626    -5500    -5230 
   -4890    -4543    -4216    -3917    -3661    -3471    -3363    -3345 
   -3430    -3615    -3860    -4146    -4504    -4931    -5351    -5658 
   -5772    -5674    -5402    -5039    -4664    -4331    -4038    -3764 
   -3560    -3494    -3562    -3685    -3743    -3673    -3569    -3590 
   -3806    -4172    -4569    -4885    -5133    -5393    -5648    -5776 
   -5663    -5278    -4683    -4013    -3414    -2989    -2809    -2902 
   -3230    -3745    -4418    -5138    -5737    -6116    -6234    -6092 
   -5739    -5231    -4614    -3950    -3357    -2993    -2939    -3148 
   -3524    -3985    -4479    -4950    -5315    -5505    -5485    -5277 
   -4964    -4651    -4401    -4166    -3839    -3443    -3116    -2958 
   -3024    -3333    -3816    -4340    -4808    -5176    -5420    -5534 
   -5484    -5226    -4812    -4367    -3997    -3769    -3689    -3707 
   -3787    -3942    -4194    -4536    -4922    -5267    -5478    -5503 
   -5344    -5040    -4635    -4171    -3704    -3323    -3120    -3131 
   -3321    -3625    -3984    -4367    -4763    -5110    -5304    -5278 
   -5017    -4590    -4131    -3706    -3312    -2973    -2763    -2745 
   -2931    -3274    -3680    -4066    -4399    -4688    -4951    -5145 
   -5204    -5128    -4973    -4809    -4664    -4504    -4289    -4037 
   -3783    -3531    -3306    -3200    -3263    -3494    -3900    -4432 
   -4993    -5505    -5873    -5985    -5825    -5503    -5170    -4955 
   -4930    -5056    -5223    -5343    -5361    -5245    -4987    -4584 
   -4057    -3506    -3094    -2965    -3147    -3558    -4094    -4672 
   -5236    -5742    -6091    -6149    -5852    -5281    -4618    -4027 
   -3591    -3354    -3323    -3456    -3702    -4033    -4403    -4756 
   -5062    -5291    -5422    -5497    -5543    -5544    -5486    -5347 
   -5154    -5010    -4981    -5053    -5173    -5245    -5175    -4927 
   -4529    -4069    -3676    -3464    -3504    -3769    -4158    -4580 
   -4939    -5106    -5025    -4704    -4193    -3602    -3041    -2585 
   -2293    -2197    -2318    -2661    -3184    -3816    -4490    -5118 
   -5612    -5919    -6016    -5867    -5464    -4856    -4097    -3265 
   -2472    -1828    -1425    -1344    -1636    -2283    -3191    -4238 
   -5279    -6137    -6688    -6859    -6612    -5988    -5102    -4084 
   -3061    -2168    -1523    -1221    -1330    -1878    -2848    -4111 
   -5443    -6625    -7488    -7929    -7943    -7557    -6776    -5699 
   -4534    -3461    -2587    -1960    -1607    -1576    -1923    -2636 
   -3622    -4739    -5807    -6652    -7179    -7366    -7194    -6641 
   -5752    -4670    -3553    -2560    -1830    -1440    -1461    -1954 
   -2876    -4097    -5453    -6758    -7849    -8586    -8838    -8551 
   -7786    -6679    -5427    -4217    -3163    -2338    -1758    -1382 
   -1215    -1309    -1656    -2201    -2919    -3773    -4659    -5465 
   -6127    -6587    -6808    -6824    -6640    -6225    -5586    -4735 
   -3736    -2799    -2148    -1886    -2025    -2543    -3333    -4223 
   -5071    -5732    -6035    -5896    -5377    -4636    -3877    -3271 
   -2933    -2922    -3233    -3832    -4645    -5522    -6292    -6827 
   -7037    -6902    -6510    -5992    -5394    -4707    -3985    -3314 
   -2715    -2173    -1733    -1502    -1593    -2083    -2961    -4098 
   -5330    -6502    -7429    -7927    -7839    -7097    -5781    -4092 
   -2277     -582      742     1478     1527      918     -259    -1855 
   -3631    -5297    -6655    -7635    -8221    -8429    -8305    -7901 
   -7262    -6449    -5485    -4364    -3163    -2021    -1108     -601 
    -589    -1085    -2061    -3426    -5039    -6719    -8241    -9400 
  -10027   -10036    -9424    -8186    -6416    -4390    -2426     -819 
     175      444      -15    -1167    -2863    -4841    -6830    -8520 
   -9620    -9962    -9445    -8096    -6111    -3707    -1176     1105 
    2851     3842     3917     3068     1365    -1080    -4010    -7041 
   -9805   -11973   -13195   -13233   -12074    -9896    -7070    -4084 
   -1376      710     1937     2244     1715      474    -1286    -3310 
   -5423    -7388    -8886    -9880   -10430   -10417    -9894    -8951 
   -7433    -5470    -3507    -1695      -40     1239     1965     2102 
    1552      298    -1433    -3386    -5385    -7236    -8684    -9510 
   -9692    -9298    -8432    -7330    -6123    -4842    -3621    -2550 
   -1649     -990     -578     -433     -674    -1295    -2136    -3069 
   -4032    -5009    -5948    -6726    -7271    -7602    -7714    -7554 
   -7085    -6270    -5092    -3661    -2229    -1078     -401     -271 
    -699    -1656    -3038    -4652    -6234    -7556    -8439    -8706 
   -8328    -7423    -6102    -4620    -3285    -2188    -1391     -985 
    -963    -1295    -1964    -2863    -3826    -4733    -5501    -6053 
   -6327    -6300    -6023    -5614    -5199    -4911    -4814    -4835 
   -4872    -4898    -4882    -4788    -4614    -4334    -3973    -3638 
   -3442    -3440    -3560    -3702    -3850    -3999    -4181    -4452 
   -4766    -5017    -5118    -5011    -4733    -4407    -4085    -3744 
   -3404    -3099    -2847    -2712    -2773    -3055    -3513    -4055 
   -4575    -5033    -5392    -5583    -5572    -5358    -5014    -4659 
   -4357    -4202    -4259    -4442    -4687    -4990    -5312    -5653 
   -6050    -6472    -6833    -7026    -6942    -6499    -5706    -4667 
   -3527    -2456    -1627    -1176    -1159    -1573    -2403    -3519 
   -4675    -5702    -6470    -6822    -6695    -6106    -5185    -4197 
   -3292    -2557    -2154    -2124    -2391    -2881    -3489    -4136 
   -4783    -5365    -5806    -6027    -5987    -5735    -5332    -4816 
   -4272    -3812    -3525    -3469    -3629    -3882    -4125    -4318 
   -4418    -4389    -4247    -4026    -3765    -3568    -3571    -3807 
   -4186    -4585    -4904    -5082    -5129    -5067    -4890    -4640 
   -4386    -4168    -3995    -3845    -3696    -3536    -3378    -3275 
   -3238    -3276    -3474    -3890    -4485    -5186    -5893    -6459 
   -6780    -6818    -6534    -5902    -5030    -4122    -3344    -2809 
   -2582    -2669    -3037    -3641    -4397    -5174    -5821    -6232 
   -6338    -6123    -5651    -5000    -4243    -3521    -2987    -2728 
   -2780    -3129    -3726    -4491    -5280    -5925    -6282    -6274 
   -5891    -5173    -4226    -3197    -2237    -1531    -1255    -1487 
   -2174    -3164    -4271    -5341    -6239    -6818    -6992    -6783 
   -6265    -5536    -4715    -3906    -3226    -2790    -2656    -2815 
   -3227    -3828    -4536    -5266    -5943    -6485    -6811    -6872 
   -6649    -6153    -5462    -4684    -3907    -3214    -2668    -2286 
   -2074    -2033    -2168    -2455    -2827    -3236    -3650    -4029 
   -4332    -4530    -4613    -4596    -4535    -4505    -4502    -4472 
   -4405    -4289    -4132    -3984    -3889    -3875    -3980    -4219 
   -4555    -4941    -5332    -5664    -5871    -5906    -5761    -5479 
   -5124    -4755    -4451    -4305    -4371    -4655    -5102    -5599 
   -6046    -6365    -6468    -6316    -5942    -5407    -4784    -4147 
   -3588    -3180    -2925    -2798    -2785    -2879    -3084    -3369 
   -3656    -3902    -4104    -4268    -4410    -4525    -4571    -4528 
   -4402    -4172    -3827    -3406    -2962    -2560    -2313    -2308 
   -2568    -3061    -3704    -4403    -5090    -5716    -6228    -6531 
   -6537    -6237    -5674    -4907    -4037    -3223    -2619    -2343 
   -2456    -2938    -3719    -4688    -5694    -6591    -7254    -7597 
   -7611    -7331    -6771    -5956    -4966    -3908    -2915    -2124 
   -1633    -1469    -1607    -1988    -2552    -3241    -3976    -4675 
   -5297    -5825    -6206    -6345    -6180    -5712    -4990    -4115 
   -3243    -2547    -2177    -2195    -2551    -3170    -3994    -4919 
   -5825    -6624    -7234    -7558    -7518    -7095    -6312    -5251 
   -4074    -2964    -2078    -1566    -1500    -1817    -2407    -3152 
   -3944    -4731    -5460    -6030    -6367    -6447    -6263    -5825 
   -5165    -4354    -3515    -2782    -2259    -2019    -2089    -2441 
   -2996    -3661    -4367    -5045    -5631    -6087    -6369    -6427 
   -6262    -5900    -5354    -4688    -4018    -3417    -2929    -2612 
   -2520    -2676    -3077    -3698    -4483    -5338    -6142    -6765 
   -7098    -7092    -6747    -6088    -5188    -4153    -3103    -2171 
   -1490    -1178    -1291    -1814    -2670    -3718    -4783    -5712 
   -6369    -6647    -6511    -6012    -5274    -4455    -3705    -3137 
   -2829    -2815    -3082    -3584    -4223    -4871    -5431    -5830 
   -6037    -6073    -5958    -5706    -5376    -5027    -4686    -4379 
   -4119    -3886    -3664    -3465    -3323    -3268    -3328    -3492 
   -3690    -3857    -4007    -4173    -4327    -4416    -4407    -4290 
   -4106    -3928    -3784    -3659    -3549    -3486    -3517    -3679 
   -3964    -4307    -4627    -4885    -5096    -5272    -5373    -5349 
   -5201    -4982    -4770    -4623    -4526    -4418    -4269    -4104 
   -4004    -4048    -4259    -4616    -5072    -5548    -5968    -6277 
   -6430    -6388    -6125    -5661    -5070    -4425    -3809    -3326 
   -3009    -2850    -2870    -3085    -3471    -3964    -4466    -4881 
   -5161    -5298    -5266    -5049    -4697    -4276    -3844    -3456 
   -3166    -3014    -3013    -3149    -3410    -3778    -4198    -4601 
   -4916    -5093    -5127    -5021    -4785    -4474    -4152    -3860 
   -3628    -3467    -3405    -3496    -3762    -4173    -4669    -5148 
   -5539    -5817    -5944    -5886    -5646    -5224    -4660    -4074 
   -3563    -3178    -2941    -2844    -2894    -3088    -3387    -3755 
   -4144    -4495    -4783    -5001    -5125    -5120    -4960    -4641 
