Origin Time       2025/03/29 04:45:00
Lat.              31.090
Long.             131.512
Depth. (km)       33
Mag.              4.6
Station Code      KGS023
Station Lat.      31.1990
Station Long.     130.8490
Station Height(m) 179
Record Time       2025/03/29 04:45:26
Sampling Freq(Hz) 100Hz
Duration Time(s)  75
Dir.              U-D
Scale Factor      3920(gal)/6182761
Max. Acc. (gal)   12.661
Last Correction   2025/03/29 04:45:26
Memo.             
[...]
  -22282   -22293   -22297   -22292   -22288   -22282   -22282   -22290 
  -22291   -22290   -22294   -22292   -22285   -22279   -22282   -22291 
  -22295   -22292   -22291   -22290   -22289   -22287   -22280   -22280 
  -22292   -22291   -22286   -22290   -22288   -22283   -22288   -22294 
  -22297   -22293   -22280   -22277   -22292   -22301   -22295   -22287 
  -22280   -22275   -22279   -22293   -22297   -22292   -22294   -22292 
  -22282   -22285   -22292   -22289   -22297   -22301   -22284   -22276 
  -22283   -22289   -22297   -22292   -22277   -22279   -22286   -22292 
  -22297   -22290   -22289   -22300   -22295   -22280   -22278   -22289 
  -22297   -22296   -22288   -22283   -22279   -22273   -22279   -22294 
  -22299   -22295   -22294   -22292   -22289   -22288   -22288   -22286 
  -22283   -22287   -22295   -22284   -22269   -22282   -22303   -22308 
  -22297   -22285   -22283   -22282   -22281   -22283   -22283   -22285 
  -22299   -22308   -22297   -22283   -22276   -22279   -22296   -22302 
  -22289   -22278   -22270   -22267   -22282   -22300   -22306   -22308 
  -22300   -22287   -22282   -22279   -22277   -22282   -22290   -22303 
  -22308   -22294   -22274   -22263   -22272   -22295   -22308   -22299 
  -22283   -22284   -22294   -22290   -22281   -22286   -22301   -22306 
  -22297   -22280   -22267   -22267   -22281   -22296   -22303   -22297 
  -22286   -22291   -22303   -22301   -22288   -22273   -22271   -22279 
  -22278   -22276   -22285   -22301   -22312   -22308   -22295   -22288 
  -22287   -22285   -22288   -22291   -22284   -22277   -22276   -22279 
  -22282   -22284   -22295   -22304   -22298   -22287   -22288   -22300 
  -22300   -22288   -22282   -22279   -22272   -22273   -22288   -22304 
  -22300   -22285   -22285   -22286   -22282   -22290   -22300   -22300 
  -22294   -22279   -22269   -22278   -22295   -22301   -22294   -22289 
  -22289   -22281   -22275   -22287   -22301   -22305   -22300   -22285 
  -22276   -22281   -22289   -22294   -22291   -22286   -22283   -22282 
  -22280   -22284   -22294   -22303   -22306   -22304   -22293   -22284 
  -22280   -22282   -22290   -22287   -22275   -22276   -22287   -22289 
  -22286   -22283   -22284   -22295   -22298   -22298   -22306   -22307 
  -22297   -22284   -22273   -22273   -22275   -22278   -22294   -22307 
  -22298   -22282   -22278   -22279   -22282   -22289   -22291   -22290 
  -22291   -22290   -22295   -22304   -22303   -22294   -22284   -22275 
  -22269   -22264   -22273   -22296   -22306   -22299   -22296   -22296 
  -22292   -22284   -22281   -22283   -22285   -22288   -22292   -22290 
  -22292   -22296   -22285   -22275   -22283   -22285   -22278   -22284 
  -22295   -22298   -22294   -22293   -22301   -22306   -22299   -22292 
  -22286   -22278   -22270   -22263   -22268   -22287   -22298   -22295 
  -22299   -22311   -22310   -22296   -22280   -22271   -22273   -22283 
  -22295   -22299   -22293   -22285   -22282   -22282   -22287   -22294 
  -22293   -22289   -22288   -22287   -22287   -22287   -22290   -22296 
  -22295   -22292   -22292   -22286   -22281   -22287   -22293   -22293 
  -22288   -22279   -22277   -22283   -22290   -22299   -22305   -22309 
  -22330   -22387   -22506   -22696   -22908   -23069   -23111   -22982 
  -22669   -22204   -21647   -21092   -20643   -20416   -20555   -21157 
  -22147   -23286   -24236   -24668   -24447   -23701   -22689   -21709 
  -20975   -20490   -20139   -19835   -19673   -20098   -21643   -24295 
  -27240   -29146   -28781   -25752   -20934   -16260   -13812   -14695 
  -18431   -23198   -26856   -28053   -26662   -23763   -21179   -20245 
  -20968   -22406   -23483   -23690   -23237   -22484   -21622   -20825 
  -20252   -20073   -20337   -20755   -21150   -21680   -22503   -23796 
  -25534   -27081   -27580   -26413   -23480   -19674   -16609   -15553 
  -16812   -19716   -22761   -24200   -23336   -21442   -21040   -23787 
  -28610   -32222   -32060   -28028   -21614   -15064   -10982   -10871 
  -14046   -18490   -22445   -25276   -27083   -27785   -27274   -26154 
  -25095   -23898   -22271   -20699   -19614   -18704   -17785   -17488 
  -18798   -22166   -26491   -29409   -29360   -26553   -22314   -18727 
  -17822   -20004   -23608   -25982   -25352   -22250   -18913   -17374 
  -18447   -21542   -24755   -26020   -24654   -21688   -19145   -18659 
  -20273   -22813   -24872   -25368   -24165   -22124   -20252   -19154 
  -19116   -20062   -21539   -23214   -24933   -26173   -26375   -25674 
  -24495   -23015   -21488   -20236   -19239   -18446   -18205   -19068 
  -21317   -24443   -27251   -28729   -28291   -25620   -21266   -16901 
  -14398   -14822   -17845   -21943   -25275   -26559   -25823   -24308 
  -23274   -23135   -23418   -23331   -22472   -21053   -19814   -19493 
  -20223   -21766   -23719   -25368   -26041   -25399   -23537   -21273 
  -19752   -19625   -20759   -22379   -23588   -23869   -23058   -21219 
  -19000   -17749   -18430   -20633   -23057   -24566   -24749   -23957 
  -23024   -22806   -23638   -24885   -25324   -24287   -22188   -20112 
  -19140   -19606   -21018   -22721   -24179   -25013   -25267   -25106 
  -24374   -22986   -21133   -19082   -17536   -17503   -19147   -21456 
  -23187   -23760   -23409   -22849   -22692   -22957   -23278   -23312 
  -22858   -22142   -21719   -21883   -22662   -23827   -24636   -24446 
  -23375   -22046   -21077   -20691   -20742   -21061   -21343   -21208 
  -20814   -20793   -21462   -22616   -23874   -24685   -24334   -22640 
  -20458   -19065   -19116   -20388   -22321   -24312   -25560   -25476 
  -24387   -23200   -22420   -21901   -21379   -20977   -21011   -21301 
  -21403   -21494   -22127   -23358   -24665   -25268   -24552   -22635 
  -20483   -19169   -19068   -19931   -21338   -22852   -24031   -24473 
  -23989   -22860   -21734   -21130   -21058   -21207   -21371   -21514 
  -21708   -22094   -22739   -23578   -24426   -25022   -25150   -24695 
  -23676   -22266   -20842   -20008   -20108   -20795   -21552   -22274 
  -23000   -23423   -23040   -21899   -20868   -20794   -21660   -22802 
  -23557   -23509   -22556   -21114   -20026   -19905   -20647   -21685 
  -22521   -22905   -22833   -22643   -22909   -23862   -24995   -25481 
  -24865   -23409   -21857   -20778   -20248   -20131   -20302   -20650 
  -21209   -22165   -23610   -25263   -26319   -25893   -23846   -20892 
  -18027   -16132   -15769   -16998   -19355   -22145   -24822   -26960 
  -28080   -27873   -26560   -24796   -23223   -22166   -21627   -21425 
  -21286   -20957   -20459   -20137   -20341   -21172   -22423   -23594 
  -24078   -23593   -22423   -21129   -20136   -19631   -19612   -19957 
  -20571   -21436   -22494   -23532   -24210   -24287   -23854   -23328 
  -23195   -23643   -24331   -24535   -23731   -22163   -20755   -20370 
  -21198   -22731   -24204   -25036   -25011   -24252   -23105   -21880 
  -20657   -19362   -18066   -17199   -17270   -18362   -20080   -21882 
  -23332   -24197   -24502   -24559   -24677   -24806   -24668   -24164 
  -23433   -22671   -22106   -21922   -22079   -22342   -22498   -22490 
  -22473   -22605   -22702   -22427   -21830   -21360   -21328   -21633 
  -22012   -22243   -22148   -21701   -21121   -20733   -20732   -21021 
  -21368   -21704   -22108   -22627   -23268   -23955   -24545   -24922 
  -24979   -24646   -23967   -23098   -22210   -21381   -20698   -20339 
  -20383   -20736   -21287   -21917   -22443   -22724   -22792   -22828 
  -22920   -22875   -22381   -21339   -20042   -19054   -18862   -19598 
  -20993   -22591   -24061   -25223   -25937   -26188   -26088   -25601 
  -24560   -23021   -21418   -20268   -19811   -19983   -20579   -21336 
  -22037   -22561   -22904   -23164   -23352   -23273   -22724   -21726 
  -20592   -19758   -19457   -19610   -19951   -20261   -20591   -21216 
  -22389   -24024   -25597   -26501   -26398   -25313   -23607   -21805 
  -20373   -19574   -19469   -20039   -21176   -22671   -24307   -25801 
  -26761   -26842   -25934   -24325   -22593   -21175   -20151   -19402 
  -18779   -18258   -18007   -18301   -19370   -21183   -23335   -25210 
  -26264   -26221   -25129   -23320   -21297   -19645   -18868   -19117 
  -20102   -21345   -22516   -23538   -24460   -25352   -26188   -26669 
  -26364   -25137   -23285   -21282   -19537   -18313   -17733   -17726 
  -18048   -18644   -19848   -21885   -24355   -26370   -27187   -26677 
  -25207   -23314   -21539   -20227   -19407   -19018   -19176   -20078 
  -21668   -23558   -25299   -26549   -27049   -26694   -25623   -24118 
  -22471   -20956   -19782   -19055   -18808   -19063   -19734   -20542 
  -21213   -21721   -22233   -22896   -23634   -24082   -23879   -23021 
  -21916   -21124   -20894   -20996   -21113   -21171   -21320   -21794 
  -22724   -23941   -25042   -25609   -25441   -24720   -23846   -22997 
  -22131   -21288   -20525   -19802   -19222   -19116   -19687   -20759 
  -21980   -23133   -24175   -25085   -25735   -25863   -25195   -23714 
  -21771   -19927   -18757   -18645   -19544   -20991   -22433   -23505 
  -24049   -24083   -23790   -23404   -23087   -22872   -22653   -22281 
  -21728   -21118   -20651   -20477   -20643   -21149   -21881   -22566 
  -22999   -23180   -23177   -23046   -22876   -22781   -22812   -22868 
  -22768   -22425   -21880   -21260   -20762   -20563   -20715   -21178 
  -21911   -22775   -23482   -23838   -23893   -23787   -23604   -23359 
  -23053   -22757   -22530   -22302   -21999   -21672   -21439   -21418 
  -21685   -22199   -22764   -23109   -23092   -22782   -22333   -21864 
  -21440   -21081   -20786   -20577   -20545   -20779   -21258   -21842 
  -22333   -22596   -22627   -22531   -22502   -22715   -23169   -23659 
  -23933   -23877   -23522   -23009   -22598   -22513   -22766   -23144 
  -23353   -23254   -22898   -22392   -21900   -21606   -21501   -21383 
  -21137   -20849   -20680   -20747   -21053   -21448   -21729   -21798 
  -21752   -21816   -22137   -22663   -23204   -23562   -23645   -23480 
  -23207   -23013   -22971   -22949   -22752   -22296   -21666   -21098 
  -20836   -20920   -21174   -21421   -21608   -21810   -22163   -22739 
  -23442   -24060   -24372   -24244   -23712   -22961   -22168   -21471 
  -21022   -20944   -21213   -21663   -22108   -22461   -22783   -23154 
  -23503   -23671   -23517   -22968   -22083   -21025   -20076   -19581 
  -19702   -20332   -21195   -22039   -22776   -23350   -23667   -23729 
  -23629   -23451   -23225   -23006   -22854   -22749   -22657   -22559 
  -22389   -22143   -21910   -21718   -21552   -21433   -21393   -21451 
  -21622   -21902   -22246   -22552   -22641   -22404   -21999   -21737 
  -21812   -22217   -22761   -23186   -23349   -23249   -22943   -22540 
  -22208   -22099   -22254   -22577   -22866   -22889   -22550   -21972 
  -21389   -21061   -21154   -21582   -22097   -22499   -22703   -22719 
  -22624   -22539   -22593   -22781   -22899   -22763   -22391   -21935 
  -21546   -21287   -21148   -21136   -21319   -21763   -22408   -23021 
  -23409   -23542   -23426   -23125   -22826   -22673   -22630   -22504 
  -22125   -21488   -20755   -20228   -20249   -20977   -22283   -23762 
  -24913   -25436   -25306   -24631   -23646   -22674   -21946   -21540 
  -21450   -21617   -21902   -22093   -22054   -21818   -21528   -21378 
  -21503   -21849   -22234   -22505   -22611   -22592   -22555   -22583 
  -22688   -22842   -22901   -22680   -22234   -21735   -21216   -20728 
  -20392   -20233   -20318   -20855   -21902   -23206   -24394   -25149 
  -25238   -24570   -23240   -21496   -19777   -18572   -18104   -18296 
  -18938   -19786   -20665   -21553   -22514   -23560   -24535   -25136 
  -25163   -24707   -23989   -23160   -22430   -22143   -22519   -23463 
  -24834   -26642   -28713   -30488   -31401   -31085   -29268   -25969 
  -21702   -17233   -13233   -10086    -7950    -7061    -7675    -9774 
  -13135   -17491   -22400   -27121   -30836   -33056   -33682   -32775 
  -30516   -27349   -23891   -20637   -17970   -16358   -16263   -17922 
  -21095   -24878   -28133   -30108   -30523   -29449   -27158   -23918 
  -19987   -15771   -11934    -9246    -8401    -9973   -14074   -20036 
  -26623   -32480   -36526   -38144   -37178   -33890   -28969   -23512 
  -18677   -15145   -13036   -12394   -13382   -15902   -19461   -23498 
  -27351   -30075   -30858   -29525   -26505   -22473   -18045   -13823 
  -10579    -9053    -9576   -11948   -15558   -19640   -23493   -26602 
  -28711   -29822   -30022   -29349   -27996   -26399   -24915   -23729 
  -23086   -23274   -24378   -26176   -28134   -29443   -29330   -27575 
  -24604   -21055   -17476   -14350   -12133   -11164   -11468   -12698 
  -14399   -16224   -18064   -20069   -22381   -24888   -27302   -29289 
  -30546   -30957   -30621   -29738   -28618   -27551   -26566   -25545 
  -24404   -23041   -21325   -19295   -17337   -16008   -15555   -15729 
  -16033   -16080   -15862   -15750   -16340   -18174   -21158   -24432 
  -27149   -29042   -30146   -30503   -30243   -29620   -28861   -27982 
  -26817   -25319   -23656   -21989   -20442   -19272   -18766   -18914 
  -19351   -19584   -19144   -17743   -15656   -13656   -12432   -12351 
  -13491   -15731   -18991   -23101   -27497   -31449   -34417   -35997 
  -35890   -34120   -31159   -27805   -24847   -22684   -21292   -20413 
  -19818   -19570   -19777   -20123   -20058   -19319   -17958   -16132 
  -14080   -12166   -10881   -10595   -11291   -12838   -15286   -18634 
  -22778   -27611   -32743   -37403   -40787   -42258   -41432   -38364 
  -33534   -27643   -21527   -15956   -11471    -8617    -7962    -9729 
  -13596   -18750   -24032   -28298   -30841   -31368   -29924   -27021 
  -23388   -19748   -16776   -14775   -13755   -13775   -14811   -16672 
  -19053   -21511   -23588   -24922   -25397   -25193   -24562   -23757 
  -23071   -22603   -22191   -21737   -21470   -21788   -22799   -24232 
  -25738   -26835   -26999   -26163   -24807   -23533   -22617   -22067 
  -21837   -21644   -21236   -20912   -21000   -21384   -21892   -22360 
  -22528   -22414   -22303   -22264   -22115   -21703   -21016   -20162 
  -19288   -18639   -18517   -18953   -19667   -20398   -20982   -21351 
  -21696   -22344   -23350   -24584   -26000   -27444   -28613   -29293 
  -29262   -28291   -26542   -24464   -22250   -19953   -17885   -16487 
  -16058   -16629   -17990   -19807   -21632   -22972   -23498   -23183 
  -22300   -21237   -20281   -19693   -19699   -20256   -21148   -22247 
  -23457   -24614   -25552   -26152   -26377   -26205   -25652   -24939 
  -24342   -23930   -23642   -23417   -23175   -22768   -22087   -21219 
  -20420   -19920   -19744   -19840   -20212   -20786   -21360   -21751 
  -21868   -21650   -21121   -20484   -19985   -19816   -20139   -20917 
  -21984   -23144   -24065   -24481   -24386   -23850   -22891   -21561 
  -20072   -18781   -18053   -18124   -19064   -20793   -23031   -25384 
  -27501   -29103   -29995   -30072   -29342   -27871   -25852   -23689 
  -21721   -20159   -19195   -18782   -18729   -18904   -19151   -19341 
  -19436   -19538   -19787   -20144   -20572   -21082   -21582   -22043 
  -22585   -23218   -23763   -24068   -24105   -23929   -23651   -23309 
  -22812   -22092   -21213   -20335   -19652   -19323   -19438   -19998 
  -20879   -21919   -23106   -24487   -25914   -27100   -27771   -27710 
  -26864   -25387   -23547   -21626   -19917   -18712   -18149   -18169 
  -18655   -19456   -20385   -21311   -22167   -22891   -23427   -23734 
  -23766   -23525   -23112   -22624   -22072   -21457   -20846   -20388 
  -20253   -20560   -21317   -22362   -23423   -24243   -24738   -24988 
  -25095   -25115   -24996   -24609   -23920   -22997   -21939   -20871 
  -19972   -19446   -19360   -19651   -20305   -21297   -22419   -23342 
  -23791   -23696   -23173   -22418   -21662   -21097   -20880   -21124 
  -21800   -22789   -23960   -25069   -25785   -25864   -25233   -23998 
  -22344   -20414   -18375   -16506   -15109   -14402   -14539   -15598 
  -17545   -20214   -23280   -26383   -29205   -31349   -32458   -32415 
  -31279   -29268   -26774   -24216   -21961   -20259   -19184   -18687 
  -18670   -18976   -19392   -19754   -19998   -20043   -19850   -19498 
  -19077   -18705   -18529   -18612   -18995   -19687   -20605   -21630 
  -22613   -23452   -24190   -24881   -25528   -26113   -26539   -26712 
  -26625   -26335   -25969   -25605   -25239   -24900   -24547   -24044 
  -23335   -22431   -21382   -20354   -19487   -18795   -18263   -17876 
  -17614   -17470   -17500   -17851   -18646   -19868   -21378   -22929 
  -24244   -25120   -25450   -25265   -24765   -24175   -23658   -23333 
  -23172   -23001   -22697   -22252   -21704   -21186   -20937   -21116 
  -21689   -22493   -23333   -24078   -24663   -25026   -25132   -25010 
  -24664   -24068   -23271   -22417   -21655   -21081   -20742   -20664 
  -20832   -21084   -21170   -20983   -20604   -20170   -19785   -19524 
  -19493   -19764   -20273   -20928   -21675   -22441   -23169   -23836 
  -24383   -24732   -24859   -24833   -24751   -24648   -24489   -24192 
  -23720   -23131   -22512   -21934   -21449   -21083   -20864   -20802 
  -20871   -21002   -21055   -20910   -20606   -20283   -20063   -20028 
  -20228   -20630   -21112   -21599   -22108   -22596   -23042   -23530 
  -24087   -24655   -25166   -25529   -25658   -25515   -25146   -24666 
  -24162   -23647   -23125   -22616   -22110   -21575   -21040   -20610 
  -20413   -20505   -20801   -21170   -21527   -21822   -22027   -22129 
  -22159   -22153   -22073   -21900   -21680   -21456   -21265   -21131 
  -21022   -20921   -20838   -20803   -20850   -21032   -21432   -22044 
  -22710   -23306   -23782   -24102   -24256   -24249   -24076   -23766 
  -23355   -22907   -22501   -22184   -21977   -21877   -21885   -22049 
  -22351   -22678   -22943   -23074   -22997   -22718   -22340   -21989 
  -21779   -21797   -22024   -22362   -22724   -23013   -23135   -23069 
  -22826   -22420   -21904   -21363   -20835   -20339   -19961   -19786 
  -19848   -20201   -20823   -21565   -22319   -23023   -23572   -23876 
  -23933   -23821   -23620   -23357   -23087   -22900   -22836   -22846 
  -22880   -22977   -23177   -23469   -23826   -24156   -24341   -24319 
  -24082   -23648   -23025   -22212   -21225   -20095   -18930   -17906 
  -17190   -16938   -17232   -18006   -19125   -20433   -21746   -22928 
  -23932   -24754   -25339   -25600   -25492   -25017   -24235   -23311 
  -22496   -22007   -21929   -22219   -22749   -23359   -23905   -24249 
  -24313   -24118   -23733   -23234   -22692   -22124   -21506   -20871 
  -20301   -19865   -19657   -19743   -20058   -20499   -21007   -21536 
  -22038   -22511   -22947   -23279   -23433   -23397   -23207   -22901 
  -22517   -22108   -21714   -21369   -21131   -21090   -21306   -21759 
  -22380   -23063   -23677   -24105   -24290   -24254   -24066   -23772 
  -23391   -22961   -22520   -22099   -21776   -21645   -21730   -21987 
  -22322   -22605   -22736   -22677   -22447   -22148   -21877   -21642 
  -21389   -21107   -20862   -20697   -20643   -20768   -21061   -21439 
  -21862   -22322   -22809   -23296   -23741   -24069   -24172   -23982 
  -23531   -22878   -22111   -21383   -20818   -20470   -20385   -20593 
  -21032   -21600   -22214   -22792   -23252   -23581   -23792   -23875 
