Origin Time       2025/03/29 04:45:00
Lat.              31.090
Long.             131.512
Depth. (km)       33
Mag.              4.6
Station Code      KGS022
Station Lat.      31.2804
Station Long.     131.0504
Station Height(m) 12
Record Time       2025/03/29 04:45:24
Sampling Freq(Hz) 100Hz
Duration Time(s)  65
Dir.              U-D
Scale Factor      7845(gal)/8223790
Max. Acc. (gal)   4.353
Last Correction   2025/03/29 04:45:24
Memo.             
[...]
    5611     5629     5628     5630     5634     5616     5602     5628 
    5641     5622     5622     5618     5611     5637     5648     5614 
    5597     5626     5647     5625     5614     5622     5607     5621 
    5671     5638     5568     5610     5663     5630     5616     5629 
    5611     5613     5643     5640     5602     5603     5641     5640 
    5622     5621     5616     5629     5634     5607     5622     5649 
    5618     5603     5622     5622     5633     5641     5614     5610 
    5632     5638     5630     5614     5617     5632     5624     5620 
    5630     5628     5609     5609     5634     5636     5621     5626 
    5610     5601     5653     5661     5594     5584     5636     5651 
    5634     5622     5595     5601     5660     5649     5594     5609 
    5636     5637     5634     5610     5607     5640     5638     5613 
    5618     5634     5621     5621     5637     5618     5611     5637 
    5633     5620     5624     5620     5618     5633     5636     5618 
    5609     5621     5636     5638     5628     5601     5609     5653 
    5634     5603     5640     5625     5591     5645     5647     5594 
    5625     5645     5607     5621     5637     5611     5634     5648 
    5603     5601     5638     5643     5626     5620     5620     5616 
    5626     5644     5618     5605     5634     5632     5622     5622 
    5611     5634     5637     5606     5629     5633     5605     5632 
    5638     5617     5625     5624     5616     5625     5636     5628 
    5610     5613     5634     5644     5617     5607     5633     5628 
    5628     5634     5597     5614     5659     5624     5609     5628 
    5620     5628     5636     5617     5609     5628     5641     5625 
    5614     5620     5626     5636     5624     5616     5636     5629 
    5614     5625     5630     5629     5625     5616     5625     5634 
    5624     5624     5629     5622     5616     5621     5643     5633 
    5599     5618     5644     5628     5621     5622     5617     5618 
    5626     5640     5628     5609     5622     5634     5628     5622 
    5616     5620     5634     5633     5621     5613     5621     5630 
    5626     5636     5622     5595     5629     5657     5617     5601 
    5629     5633     5622     5633     5626     5606     5626     5644 
    5617     5607     5629     5630     5624     5625     5620     5621 
    5630     5628     5624     5625     5614     5624     5638     5618 
    5613     5632     5630     5616     5614     5636     5633     5610 
    5634     5636     5603     5626     5649     5611     5610     5634 
    5622     5632     5632     5599     5625     5645     5611     5626 
    5640     5598     5620     5661     5614     5598     5644     5630 
    5617     5628     5606     5630     5655     5613     5610     5626 
    5621     5637     5628     5603     5628     5641     5620     5620 
    5621     5618     5643     5628     5602     5629     5636     5621 
    5626     5621     5618     5628     5625     5636     5632     5599 
    5617     5645     5625     5614     5626     5624     5617     5626 
    5634     5628     5618     5621     5626     5633     5636     5610 
    5606     5638     5638     5630     5620     5597     5630     5661 
    5622     5598     5611     5640     5651     5625     5595     5607 
    5651     5652     5613     5605     5624     5637     5645     5621 
    5595     5632     5648     5611     5614     5636     5630     5636 
    5620     5595     5632     5656     5622     5601     5621     5636 
    5622     5629     5634     5607     5624     5651     5611     5601 
    5651     5640     5603     5622     5628     5614     5637     5644 
    5611     5607     5630     5632     5632     5628     5610     5621 
    5632     5629     5641     5621     5594     5633     5652     5610 
    5616     5638     5617     5625     5638     5613     5614     5637 
    5632     5618     5613     5626     5645     5618     5606     5640 
    5629     5609     5633     5630     5616     5633     5630     5603 
    5620     5659     5634     5589     5613     5645     5638     5621 
    5607     5616     5633     5640     5638     5614     5591     5626 
    5661     5630     5597     5610     5629     5641     5634     5613 
    5617     5625     5628     5634     5616     5611     5638     5634 
    5617     5618     5609     5625     5659     5625     5593     5625 
    5634     5624     5637     5620     5597     5626     5645     5626 
    5618     5617     5624     5641     5629     5606     5613     5638 
    5643     5610     5614     5630     5611     5634     5664     5614 
    5582     5626     5652     5628     5614     5622     5617     5613 
    5644     5647     5595     5599     5649     5649     5611     5603 
    5634     5648     5622     5609     5620     5632     5637     5628 
    5614     5613     5632     5638     5624     5605     5616     5648 
    5632     5590     5620     5653     5624     5606     5629     5630 
    5625     5626     5614     5618     5637     5626     5614     5624 
    5626     5628     5630     5622     5620     5626     5628     5626 
    5624     5620     5633     5638     5611     5610     5630     5622 
    5632     5644     5605     5603     5641     5638     5626     5620 
    5614     5629     5633     5629     5629     5607     5621     5653 
    5620     5599     5637     5633     5614     5634     5622     5598 
    5632     5648     5618     5613     5622     5620     5626     5638 
    5625     5602     5618     5644     5625     5611     5624     5625 
    5626     5630     5621     5617     5618     5622     5641     5632 
    5597     5621     5651     5622     5617     5630     5616     5621 
    5647     5636     5598     5602     5653     5651     5602     5605 
    5636     5632     5629     5629     5605     5611     5648     5634 
    5609     5620     5632     5632     5624     5618     5620     5617 
    5630     5648     5613     5595     5641     5644     5606     5611 
    5641     5643     5609     5610     5638     5620     5620     5648 
    5614     5594     5638     5651     5625     5616     5609     5618 
    5640     5634     5626     5607     5595     5644     5653     5601 
    5607     5636     5624     5633     5636     5605     5609     5649 
    5652     5605     5595     5630     5648     5638     5611     5602 
    5628     5637     5625     5628     5614     5595     5638     5659 
    5602     5599     5644     5633     5617     5628     5625     5609 
    5622     5648     5630     5617     5620     5611     5634     5643 
    5614     5617     5625     5620     5632     5634     5621     5613 
    5621     5632     5629     5625     5625     5614     5618     5640 
    5638     5611     5605     5629     5644     5629     5617     5620 
    5617     5630     5644     5617     5602     5632     5647     5617 
    5606     5628     5640     5626     5607     5621     5630     5621 
    5641     5625     5591     5628     5655     5622     5598     5614 
    5643     5634     5614     5611     5614     5641     5655     5616 
    5598     5618     5629     5643     5647     5606     5587     5636 
    5653     5614     5611     5626     5613     5626     5651     5611 
    5591     5637     5648     5622     5613     5609     5629     5649 
    5624     5598     5618     5643     5634     5617     5598     5620 
    5659     5633     5601     5613     5630     5640     5630     5617 
    5618     5620     5633     5637     5618     5610     5622     5636 
    5636     5617     5609     5624     5633     5637     5628     5602 
    5620     5648     5628     5618     5620     5607     5626     5652 
    5622     5602     5629     5640     5624     5607     5611     5645 
    5647     5601     5603     5645     5633     5618     5629     5610 
    5614     5644     5633     5609     5613     5636     5633     5611 
    5621     5632     5625     5626     5620     5610     5628     5651 
    5626     5591     5624     5655     5618     5603     5636     5638 
    5607     5621     5641     5603     5609     5659     5632     5583 
    5616     5655     5624     5613     5634     5607     5614     5657 
    5629     5599     5624     5628     5629     5647     5618     5589 
    5620     5653     5640     5606     5616     5626     5610     5640 
    5653     5598     5598     5645     5640     5616     5617     5625 
    5622     5626     5633     5621     5607     5625     5645     5629 
    5601     5613     5644     5634     5611     5626     5622     5603 
    5643     5653     5591     5602     5659     5634     5603     5621 
    5628     5624     5638     5629     5602     5624     5640     5621 
    5630     5618     5594     5644     5652     5593     5606     5644 
    5640     5626     5606     5610     5630     5633     5638     5622 
    5587     5614     5657     5634     5609     5617     5620     5633 
    5644     5611     5609     5636     5624     5621     5638     5616 
    5607     5634     5625     5624     5641     5599     5595     5665 
    5647     5583     5609     5638     5630     5629     5617     5611 
    5628     5628     5633     5628     5593     5621     5668     5620 
    5584     5626     5638     5626     5624     5614     5617     5630 
    5638     5620     5594     5624     5652     5634     5618     5605 
    5606     5641     5651     5616     5601     5626     5640     5624 
    5622     5628     5621     5626     5630     5617     5617     5636 
    5636     5611     5606     5634     5637     5622     5626     5617 
    5613     5640     5640     5609     5617     5636     5621     5610 
    5626     5637     5621     5609     5632     5636     5613     5620 
    5633     5617     5616     5634     5625     5611     5628     5636 
    5616     5610     5632     5636     5614     5618     5633     5617 
    5621     5626     5605     5633     5655     5609     5597     5634 
    5643     5625     5621     5625     5618     5621     5634     5625 
    5607     5626     5644     5614     5603     5638     5638     5609 
    5621     5630     5611     5633     5644     5602     5607     5643 
    5629     5613     5630     5629     5609     5624     5637     5624 
    5622     5621     5611     5624     5634     5629     5621     5617 
    5620     5628     5630     5624     5624     5630     5621     5616 
    5624     5628     5629     5629     5617     5611     5630     5638 
    5626     5614     5606     5633     5653     5614     5607     5626 
    5611     5629     5643     5609     5618     5633     5613     5629 
    5643     5621     5609     5616     5633     5641     5622     5606 
    5616     5630     5637     5625     5606     5632     5636     5611 
    5633     5621     5605     5656     5641     5595     5622     5630 
    5621     5637     5629     5607     5617     5636     5636     5628 
    5610     5614     5643     5624     5602     5638     5643     5607 
    5624     5640     5606     5617     5647     5624     5618     5624 
    5613     5632     5636     5614     5618     5632     5626     5618 
    5624     5621     5616     5630     5637     5621     5605     5618 
    5647     5636     5616     5610     5618     5643     5632     5610 
    5624     5624     5624     5641     5620     5599     5632     5641 
    5624     5624     5613     5609     5637     5645     5616     5611 
    5626     5625     5632     5634     5606     5617     5656     5626 
    5598     5628     5630     5625     5643     5613     5590     5640 
    5653     5613     5611     5629     5622     5620     5629     5634 
    5621     5606     5621     5640     5628     5616     5624     5616 
    5610     5656     5652     5576     5599     5670     5640     5601 
    5620     5632     5624     5629     5628     5606     5625     5657 
    5617     5591     5634     5648     5620     5614     5629     5617 
    5617     5649     5626     5598     5624     5629     5626     5632 
    5614     5616     5629     5630     5633     5614     5603     5643 
    5648     5606     5609     5634     5626     5632     5626     5594 
    5620     5657     5640     5611     5594     5624     5657     5629 
    5617     5617     5601     5638     5657     5609     5610     5632 
    5620     5641     5638     5590     5614     5657     5626     5602 
    5624     5626     5617     5636     5638     5603     5605     5633 
    5637     5630     5624     5610     5610     5633     5641     5625 
    5613     5613     5626     5643     5637     5609     5599     5640 
    5656     5614     5598     5620     5636     5644     5624     5598 
    5621     5643     5624     5622     5629     5616     5625     5636 
    5617     5616     5638     5634     5607     5611     5636     5640 
    5629     5614     5602     5628     5656     5628     5602     5624 
    5621     5620     5653     5626     5590     5633     5648     5606 
    5614     5645     5630     5614     5625     5622     5595     5543 
    5424     5179     4924     4881     5080     5405     5746     5818 
    5351     4608     4299     4804     5958     7317     8104     7669 
    6293     5057     4993     6162     7368     7254     5706     3987 
    3626     5043     7140     8405     7935     5663     3017     2133 
    3570     6249     8203     7398     4571     2810     3133     4368 
    5701     6837     7433     6667     4727     3894     4864     5602 
    5547     5972     6763     6405     5221     5621     7832     9321 
    8788     7063     5135     3300     1721     1062     2309     5483 
    8372     8496     6714     6218     7439     7192     4469     2771 
    4202     6361     6945     6434     5755     5211     4889     4334 
    3638     4340     7061     9472     9018     6605     4838     3958 
    3168     3319     4723     6168     7038     7041     6261     5690 
    5475     5196     4972     4810     4787     5142     5625     5611 
    5116     5096     5611     5853     5818     5779     6031     6390 
    5915     5003     4695     5235     6729     7962     7295     5440 
    3993     3493     3728     4521     6170     8052     8370     6625 
    4441     3589     4214     5440     6764     7591     7156     5931 
    5040     4657     4409     4406     5003     5755     5929     6038 
    6709     7033     6399     5709     5359     4977     5000     5809 
    6469     6131     5373     5001     4977     5127     5451     5601 
    5329     5221     5841     6485     6102     4963     4294     4672 
    5597     6430     6833     6442     5386     4401     4114     4811 
    6069     6999     7094     6361     5389     4885     4888     5297 
    6220     7137     7071     5883     4652     4652     5745     6300 
    5543     4590     4469     5159     6146     6663     6301     5474 
    4988     5177     5614     5965     6169     6070     5732     5395 
    5098     4808     4986     5825     6164     5390     4772     5321 
    6519     7133     6562     5525     4872     4591     4568     4905 
    5524     6141     6389     6118     5617     5289     5258     5374 
    5493     5632     5863     6088     6149     6092     5911     5657 
    5665     5790     5563     5112     4702     4502     4742     5282 
    5931     6466     6369     5849     5564     5409     5258     5366 
    5815     6492     6782     6231     5540     5368     5545     5825 
    6039     6197     6367     6218     5699     5260     5050     5011 
    5105     5279     5548     5918     6226     6092     5547     5086 
    4791     4631     4745     4965     5217     5590     5945     6184 
    6257     6162     5958     5707     5574     5557     5553     5701 
    6025     6238     6162     5864     5460     5066     4851     5012 
    5481     5964     6220     5987     5296     4765     4810     5209 
    5709     6183     6378     6181     5755     5362     5270     5595 
    6052     6050     5495     5005     4928     5194     5710     6139 
    6269     6135     5644     5097     5055     5443     5790     5802 
    5621     5719     6027     5950     5583     5535     5732     5670 
    5378     5243     5424     5740     5918     5884     5683     5398 
    5308     5557     5823     5726     5377     5278     5732     6351 
    6569     6281     5675     5073     4754     4761     5163     5790 
    6016     5537     4896     4881     5640     6509     6745     6335 
    5814     5445     5147     4911     4804     4888     5312     6080 
    6652     6412     5653     5256     5387     5668     6007     6307 
    6251     5775     5316     5401     5890     6195     6065     5495 
    4783     4506     4716     5166     5753     6066     5776     5297 
    5163     5482     5958     6095     5886     5729     5651     5643 
    5846     6048     5888     5371     5005     5212     5719     6011 
    5845     5328     4923     5000     5467     5922     6018     5890 
    5929     6183     6394     6257     5643     4862     4450     4772 
    5676     6427     6469     5875     5080     4777     5382     6328 
    6590     5954     5256     5105     5290     5482     5495     5378 
    5436     5633     5752     5872     5958     5795     5417     5076 
    4966     5224     5796     6257     6261     6007     5811     5713 
    5721     5859     5910     5717     5537     5580     5598     5431 
    5360     5479     5512     5389     5296     5296     5472     5865 
    6073     5764     5192     4799     4824     5169     5651     6139 
    6385     6269     6018     5840     5744     5675     5557     5308 
    5065     5236     5913     6512     6485     5954     5425     5247 
    5436     5794     5994     5776     5317     5022     5086     5421 
    5668     5570     5308     5130     5163     5472     5958     6381 
    6431     6011     5447     5200     5390     5737     6049     6235 
    6016     5474     5082     4989     5152     5563     5992     6111 
    5823     5424     5298     5429     5594     5726     5741     5522 
    5236     5219     5560     6015     6214     5949     5433     5188 
    5508     6056     6282     6115     5806     5541     5387     5412 
    5717     6097     6114     5719     5267     5104     5267     5503 
    5647     5697     5691     5667     5594     5443     5323     5351 
    5537     5779     5844     5626     5363     5298     5400     5452 
    5341     5275     5506     5861     5985     5877     5752     5648 
    5560     5563     5703     5907     5948     5746     5556     5556 
    5659     5682     5522     5340     5397     5705     6085     6203 
    5859     5414     5274     5440     5761     5918     5765     5537 
    5320     5205     5364     5603     5644     5483     5333     5570 
    6170     6498     6212     5690     5359     5277     5265     5192 
    5125     5117     5108     5219     5671     6374     6894     6794 
    6096     5360     5116     5410     5892     6192     6192     5958 
    5643     5375     5155     4977     4946     5130     5340     5356 
    5317     5460     5686     5736     5632     5563     5532     5470 
    5404     5435     5607     5788     5865     5827     5668     5559 
    5730     6104     6428     6513     6273     5856     5543     5440 
    5440     5397     5267     5167     5267     5594     5911     5998 
    5965     5950     5922     5833     5613     5296     5047     4934 
