Origin Time       2025/03/29 04:45:00
Lat.              31.090
Long.             131.512
Depth. (km)       33
Mag.              4.6
Station Code      KGS019
Station Lat.      31.2776
Station Long.     130.3008
Station Height(m) 10
Record Time       2025/03/29 04:45:50
Sampling Freq(Hz) 100Hz
Duration Time(s)  60
Dir.              E-W
Scale Factor      3920(gal)/6182761
Max. Acc. (gal)   1.153
Last Correction   2025/03/29 04:45:50
Memo.             
[...]
    8992     8968     8811     8617     8497     8492     8548     8600 
    8644     8723     8865     9015     9056     8908     8612     8345 
    8311     8562     8946     9227     9245     9010     8685     8436 
    8325     8338     8433     8567     8717     8865     8969     8971 
    8840     8624     8455     8440     8562     8729     8849     8872 
    8814     8744     8715     8736     8787     8811     8763     8692 
    8680     8736     8801     8822     8784     8719     8680     8688 
    8746     8853     8960     8985     8910     8807     8739     8698 
    8635     8526     8422     8413     8530     8681     8758     8734 
    8644     8582     8633     8744     8792     8752     8708     8741 
    8857     8979     9027     8989     8895     8760     8625     8559 
    8592     8688     8766     8767     8695     8630     8644     8699 
    8698     8621     8542     8542     8653     8838     8987     9012 
    8914     8741     8543     8407     8421     8560     8699     8742 
    8672     8553     8514     8625     8794     8897     8913     8883 
    8859     8884     8932     8925     8836     8711     8607     8583 
    8671     8807     8870     8823     8729     8661     8652     8673 
    8642     8511     8357     8321     8464     8725     8967     9050 
    8951     8788     8696     8730     8863     8996     9016     8900 
    8732     8613     8572     8580     8603     8631     8679     8745 
    8806     8844     8844     8816     8806     8843     8890     8876 
    8753     8548     8397     8430     8625     8868     9067     9134 
    9024     8798     8537     8306     8184     8219     8385     8621 
    8854     9005     9029     8947     8812     8683     8623     8655 
    8740     8813     8853     8872     8877     8869     8832     8725 
    8551     8399     8371     8488     8692     8878     8944     8876 
    8754     8675     8676     8734     8796     8803     8739     8649 
    8583     8551     8562     8612     8671     8725     8785     8859 
    8952     9008     8918     8675     8402     8241     8292     8562 
    8934     9236     9335     9207     8933     8636     8450     8445 
    8596     8801     8940     8949     8862     8755     8658     8548 
    8432     8358     8370     8479     8652     8846     9006     9077 
    9032     8892     8721     8600     8550     8542     8544     8559 
    8624     8757     8910     8993     8952     8811     8651     8568 
    8612     8746     8880     8928     8860     8715     8583     8544 
    8605     8704     8773     8792     8797     8836     8902     8929 
    8865     8731     8601     8548     8588     8648     8648     8592 
    8536     8532     8600     8706     8770     8742     8675     8660 
    8726     8824     8884     8867     8785     8701     8667     8673 
    8688     8701     8715     8740     8793     8859     8905     8923 
    8908     8848     8756     8666     8605     8577     8561     8546 
    8534     8550     8624     8728     8800     8805     8755     8690 
    8659     8671     8690     8697     8707     8735     8774     8820 
    8865     8881     8834     8716     8580     8504     8544     8692 
    8883     9024     9066     9020     8929     8833     8743     8644 
    8541     8474     8473     8518     8552     8547     8545     8605 
    8732     8872     8960     8966     8917     8851     8785     8721 
    8648     8569     8526     8548     8626     8727     8801     8813 
    8782     8761     8787     8860     8940     8962     8900     8790 
    8696     8657     8661     8662     8624     8543     8463     8446 
    8530     8703     8885     8979     8951     8857     8785     8750 
    8696     8600     8512     8515     8635     8811     8932     8929 
    8813     8651     8526     8494     8551     8672     8836     9001 
    9094     9066     8933     8768     8638     8572     8561     8578 
    8617     8691     8781     8822     8772     8643     8509     8471 
    8566     8739     8904     9011     9041     8995     8892     8766 
    8663     8619     8648     8739     8844     8892     8836     8677 
    8478     8343     8356     8521     8746     8918     8982     8961 
    8918     8891     8857     8786     8700     8650     8645     8649 
    8623     8565     8514     8517     8591     8712     8815     8847 
    8809     8718     8598     8496     8466     8529     8666     8823 
    8953     9032     9059     9014     8868     8641     8440     8374 
    8459     8609     8715     8735     8705     8690     8719     8779 
    8830     8854     8864     8877     8881     8843     8751     8649 
    8589     8589     8637     8714     8803     8891     8935     8889 
    8775     8668     8634     8668     8700     8679     8620     8565 
    8558     8645     8802     8944     8999     8922     8730     8521 
    8389     8370     8447     8560     8662     8762     8877     8986 
    9040     9007     8897     8758     8644     8578     8563     8595 
    8676     8788     8878     8904     8844     8712     8588     8552 
    8605     8693     8742     8705     8600     8488     8441     8507 
    8658     8810     8906     8945     8958     8957     8923     8846 
    8753     8670     8623     8620     8632     8618     8590     8607 
    8719     8894     9023     9005     8827     8580     8394     8335 
    8390     8515     8669     8820     8943     9026     9044     8969 
    8819     8666     8582     8582     8628     8666     8672     8663 
    8669     8689     8714     8742     8766     8790     8840     8928 
    9018     9053     8993     8840     8655     8534     8531     8622 
    8737     8815     8832     8796     8732     8658     8577     8494 
    8434     8430     8500     8613     8717     8779     8811     8837 
    8858     8852     8815     8763     8728     8734     8757     8748 
    8700     8643     8619     8655     8738     8827     8893     8915 
    8884     8814     8745     8708     8686     8652     8598     8533 
    8511     8586     8730     8862     8912     8847     8705     8572 
    8511     8533     8605     8686     8751     8794     8827     8859 
    8873     8850     8799     8756     8755     8792     8833     8838 
    8783     8694     8630     8633     8706     8805     8867     8868 
    8829     8762     8684     8616     8569     8558     8598     8695 
    8830     8939     8959     8858     8656     8431     8285     8276 
    8397     8606     8837     9029     9140     9146     9057     8910 
    8747     8612     8553     8585     8681     8782     8820     8767 
    8668     8587     8562     8585     8624     8648     8649     8639 
    8635     8646     8680     8739     8818     8885     8906     8881 
    8834     8789     8771     8774     8775     8758     8743     8745 
    8744     8704     8625     8548     8514     8534     8593     8690 
    8818     8945     9037     9060     9000     8887     8767     8672 
    8617     8578     8535     8503     8513     8571     8658     8742 
    8799     8818     8790     8717     8630     8558     8527     8547 
    8596     8648     8708     8792     8880     8927     8896     8794 
    8676     8607     8597     8617     8646     8687     8751     8838 
    8918     8938     8877     8774     8689     8657     8684     8757 
    8856     8944     8972     8892     8711     8502     8359     8336 
    8427     8592     8788     8965     9069     9070     8983     8846 
    8697     8566     8467     8406     8390     8422     8503     8623 
    8761     8886     8969     9007     9011     8991     8940     8842 
    8706     8571     8477     8435     8447     8517     8629     8763 
    8888     8963     8968     8922     8854     8794     8759     8743 
    8753     8799     8850     8863     8809     8685     8541     8459 
    8481     8578     8677     8713     8671     8588     8531     8540 
    8605     8694     8780     8854     8924     8990     9047     9074 
    9051     8987     8883     8739     8587     8470     8410     8409 
    8460     8543     8643     8750     8843     8888     8870     8818 
    8780     8789     8819     8819     8768     8691     8630     8615 
    8636     8649     8616     8540     8471     8467     8561     8732 
    8902     8998     8998     8927     8840     8794     8799     8824 
    8830     8794     8723     8637     8554     8489     8444     8432 
    8478     8589     8739     8868     8907     8844     8739     8681 
    8717     8816     8903     8923     8868     8789     8749     8754 
    8760     8723     8640     8552     8511     8543     8623     8693 
    8712     8683     8639     8621     8641     8692     8764     8854 
    8948     9008     8992     8898     8762     8633     8560     8572 
    8642     8715     8749     8726     8667     8618     8611     8648 
    8712     8773     8806     8805     8794     8792     8789     8769 
    8732     8688     8641     8597     8564     8555     8577     8633 
    8715     8810     8904     8971     8990     8950     8874     8803 
    8761     8752     8776     8802     8788     8728     8652     8595 
    8580     8600     8641     8697     8761     8815     8834     8804 
    8729     8640     8591     8622     8706     8783     8809     8778 
    8709     8636     8592     8594     8630     8672     8702     8703 
    8672     8633     8613     8620     8651     8696     8752     8827 
    8900     8944     8941     8889     8812     8738     8687     8665 
    8656     8652     8655     8664     8689     8737     8783     8811 
    8808     8781     8766     8785     8810     8799     8730     8626 
    8546     8543     8627     8754     8858     8896     8865     8788 
    8707     8650     8601     8552     8531     8567     8658     8778 
    8883     8933     8918     8861     8795     8737     8690     8646 
    8609     8594     8624     8694     8767     8810     8813     8787 
    8746     8691     8648     8659     8730     8823     8884     8874 
    8795     8694     8615     8582     8591     8618     8645     8666 
    8685     8706     8729     8751     8780     8821     8861     8872 
    8833     8756     8688     8663     8674     8691     8702     8724 
    8756     8780     8779     8739     8674     8612     8568     8546 
    8544     8563     8616     8712     8836     8943     8984     8949 
    8875     8809     8764     8719     8655     8587     8542     8544 
    8598     8684     8774     8841     8877     8879     8848     8802 
    8767     8751     8743     8724     8696     8679     8681     8696 
    8718     8731     8732     8752     8795     8834     8849     8833 
    8797     8768     8753     8732     8692     8635     8583     8547 
    8523     8521     8558     8626     8719     8829     8919     8944 
    8908     8843     8766     8697     8655     8635     8618     8596 
    8579     8593     8645     8718     8783     8823     8841     8852 
    8872     8898     8897     8838     8728     8614     8547     8530 
    8535     8532     8518     8516     8547     8613     8702     8791 
    8865     8912     8926     8899     8828     8740     8670     8638 
    8646     8687     8734     8749     8719     8669     8642     8671 
    8744     8814     8851     8848     8828     8828     8851     8866 
    8851     8812     8777     8761     8752     8721     8654     8575 
    8516     8504     8542     8605     8669     8731     8791     8849 
    8894     8894     8840     8772     8749     8779     8814     8798 
    8713     8592     8486     8445     8490     8607     8752     8873 
    8944     8970     8954     8902     8834     8768     8715     8681 
    8676     8705     8755     8803     8841     8855     8837     8791 
    8723     8637     8553     8498     8500     8577     8702     8823 
    8896     8900     8844     8768     8700     8629     8537     8428 
    8343     8327     8394     8523     8675     8806     8878     8879 
    8832     8779     8744     8734     8739     8748     8752     8749 
    8747     8738     8706     8649     8586     8540     8526     8541 
    8576     8634     8707     8788     8873     8953     9015     9037 
    9006     8929     8825     8719     8637     8597     8608     8662 
    8725     8751     8742     8736     8750     8781     8799     8763 
    8684     8597     8527     8484     8464     8454     8465     8518 
    8614     8737     8852     8932     8969     8979     8979     8973 
    8962     8944     8907     8840     8741     8626     8530     8483 
    8479     8501     8535     8581     8655     8756     8843     8885 
    8879     8845     8810     8781     8752     8719     8693     8693 
    8716     8740     8760     8789     8840     8920     8996     9046 
    9085     9114     9115     9079     9004     8877     8700     8485 
    8263     8082     7990     8005     8101     8227     8348     8473 
    8638     8850     9069     9248     9345     9346     9278     9169 
    9025     8850     8662     8487     8341     8248     8229     8274 
    8359     8472     8592     8695     8783     8866     8928     8966 
    8989     9010     9051     9118     9167     9157     9063     8897 
    8717     8580     8514     8517     8568     8647     8738     8815 
    8857     8860     8836     8789     8714     8618     8521     8442 
    8388     8347     8293     8203     8083     7969     7900     7885 
    7911     7985     8139     8407     8805     9298     9790    10193 
   10459    10544    10425    10126     9687     9185     8710     8310 
    8014     7839     7763     7757     7792     7843     7901     7968 
    8050     8170     8360     8624     8929     9212     9425     9561 
    9608     9539     9354     9087     8789     8543     8431     8467 
    8598     8773     8942     9048     9069     9014     8878     8649 
    8354     8043     7774     7617     7622     7785     8060     8379 
    8685     8953     9175     9342     9444     9487     9493     9473 
    9419     9333     9238     9159     9105     9057     8985     8863 
    8680     8455     8235     8079     8019     8049     8130     8235 
    8358     8488     8603     8680     8700     8678     8673     8740 
    8888     9069     9215     9274     9231     9111     8959     8811 
    8674     8525     8360     8233     8215     8344     8588     8850 
    9034     9104     9064     8946     8779     8570     8345     8156 
    8098     8257     8607     9022     9366     9557     9564     9416 
    9177     8913     8691     8570     8551     8586     8623     8629 
    8587     8519     8454     8406     8399     8478     8666     8931 
    9200     9381     9397     9235     8956     8652     8408     8279 
    8268     8340     8452     8565     8647     8688     8691     8670 
    8647     8648     8703     8803     8888     8895     8799     8632 
    8478     8406     8434     8548     8707     8875     9032     9160 
    9235     9244     9200     9131     9058     8983     8897     8782 
    8620     8426     8223     8033     7882     7795     7795     7898 
    8092     8318     8503     8612     8662     8695     8776     8947 
    9191     9441     9626     9709     9696     9605     9437     9192 
    8896     8597     8354     8206     8158     8194     8279     8368 
    8431     8472     8526     8610     8703     8778     8827     8853 
    8870     8886     8896     8907     8928     8956     8978     8969 
    8912     8828     8764     8779     8889     9063     9234     9333 
    9332     9250     9104     8899     8654     8403     8189     8060 
    8040     8107     8220     8337     8430     8487     8512     8515 
    8497     8472     8466     8485     8519     8571     8645     8735 
    8842     8957     9054     9114     9121     9060     8927     8737 
    8526     8346     8250     8272     8392     8550     8695     8799 
    8843     8833     8789     8742     8709     8687     8674     8685 
    8732     8798     8849     8858     8830     8790     8753     8720 
    8675     8615     8550     8507     8522     8611     8757     8934 
    9102     9226     9284     9260     9141     8943     8703     8471 
    8299     8218     8232     8308     8414     8529     8652     8792 
    8956     9125     9260     9333     9336     9246     9060     8811 
    8559     8398     8382     8491     8672     8860     9009     9109 
    9157     9136     9045     8895     8719     8567     8463     8399 
    8352     8311     8282     8268     8259     8260     8291     8367 
    8477     8593     8678     8708     8700     8687     8695     8744 
    8823     8904     8976     9034     9082     9140     9202     9227 
    9193     9115     9029     8962     8913     8867     8811     8720 
    8592     8442     8276     8121     8012     7961     7993     8129 
    8350     8608     8835     8956     8953     8864     8741     8618 
    8515     8449     8438     8493     8623     8815     9029     9215 
    9340     9391     9377     9323     9242     9130     8997     8854 
    8712     8586     8496     8443     8410     8390     8374     8377 
    8445     8589     8776     8955     9080     9132     9125     9082 
    9016     8922     8803     8673     8532     8395     8277     8183 
    8134     8153     8236     8368     8537     8719     8886     9010 
    9081     9096     9060     8998     8945     8916     8904     8906 
    8907     8870     8760     8586     8406     8294     8298     8424 
    8631     8852     9031     9145     9196     9186     9110     8970 
    8789     8606     8457     8353     8293     8273     8291     8347 
    8441     8558     8682     8804     8919     9019     9093     9125 
    9099     9014     8886     8739     8601     8489     8402     8346 
    8313     8290     8279     8271     8284     8341     8447     8598 
    8765     8910     9018     9092     9149     9208     9267     9318 
    9338     9305     9222     9104     8951     8769     8581     8421 
    8317     8270     8267     8298     8370     8486     8635     8773 
    8864     8905     8906     8882     8865     8868     8862     8817 
    8724     8600     8487     8433     8452     8534     8653     8757 
    8813     8829     8816     8773     8698     8589     8453     8310 
    8196     8142     8163     8255     8407     8599     8800     8973 
    9095     9153     9159     9141     9125     9132     9167     9197 
    9192     9147     9062     8945     8825     8717     8616     8522 
    8448     8414     8434     8499     8581     8646     8688     8721 
    8745     8766     8795     8816     8817     8813     8817     8833 
    8843     8827     8785     8733     8693     8669     8642     8593 
    8526     8462     8426     8429     8478     8569     8670     8762 
    8845     8911     8950     8961     8943     8908     8869     8836 
    8816     8802     8777     8744     8722     8719     8724     8715 
    8674     8620     8591     8609     8670     8744     8796     8819 
    8831     8828     8805     8768     8720     8664     8608     8547 
    8489     8456     8469     8526     8606     8684     8744     8782 
    8799     8796     8778     8750     8721     8697     8678     8668 
    8672     8693     8734     8792     8861     8930     8984     9021 
    9043     9040     8996     8908     8798     8690     8610     8578 
