Origin Time       2025/03/29 04:45:00
Lat.              31.090
Long.             131.512
Depth. (km)       33
Mag.              4.6
Station Code      KGS014
Station Lat.      31.4963
Station Long.     130.6994
Station Height(m) 4
Record Time       2025/03/29 04:45:32
Sampling Freq(Hz) 100Hz
Duration Time(s)  73
Dir.              E-W
Scale Factor      7845(gal)/8223790
Max. Acc. (gal)   4.685
Last Correction   2025/03/29 04:45:32
Memo.             
[...]
   -2868    -2872    -2870    -2879    -2874    -2867    -2889    -2868 
   -2840    -2874    -2875    -2849    -2859    -2847    -2833    -2855 
   -2851    -2857    -2884    -2856    -2848    -2879    -2864    -2860 
   -2911    -2924    -2910    -2932    -2938    -2913    -2886    -2859 
   -2848    -2845    -2843    -2870    -2911    -2920    -2902    -2895 
   -2878    -2849    -2848    -2849    -2845    -2868    -2882    -2864 
   -2856    -2839    -2794    -2785    -2830    -2894    -2959    -2994 
   -2994    -2963    -2875    -2778    -2748    -2752    -2745    -2760 
   -2793    -2793    -2770    -2783    -2809    -2829    -2911    -3019 
   -3069    -3087    -3068    -3006    -2936    -2870    -2835    -2828 
   -2816    -2828    -2845    -2851    -2893    -2960    -3003    -3015 
   -2998    -2980    -2945    -2847    -2710    -2579    -2538    -2631 
   -2791    -2971    -3086    -3055    -2945    -2806    -2648    -2586 
   -2659    -2789    -2928    -3038    -3106    -3161    -3157    -2992 
   -2722    -2488    -2359    -2388    -2569    -2847    -3157    -3372 
   -3426    -3372    -3231    -3060    -2948    -2894    -2857    -2829 
   -2817    -2805    -2758    -2675    -2593    -2520    -2485    -2559 
   -2720    -2874    -3003    -3092    -3078    -2970    -2884    -2920 
   -3013    -3025    -2901    -2689    -2506    -2454    -2533    -2755 
   -3161    -3630    -3940    -3936    -3576    -3042    -2533    -2126 
   -1925    -1903    -1912    -1950    -2074    -2334    -2766    -3296 
   -3770    -4039    -4031    -3832    -3576    -3322    -3096    -2862 
   -2601    -2484    -2610    -2844    -3030    -3092    -2992    -2781 
   -2544    -2384    -2384    -2535    -2728    -2856    -2872    -2814 
   -2764    -2737    -2687    -2597    -2497    -2444    -2416    -2408 
   -2517    -2763    -3086    -3414    -3634    -3677    -3561    -3346 
   -3113    -2938    -2878    -2955    -3100    -3221    -3273    -3227 
   -3103    -2972    -2853    -2709    -2565    -2494    -2533    -2644 
   -2786    -2947    -3051    -3052    -2953    -2727    -2425    -2168 
   -1965    -1798    -1705    -1795    -2118    -2558    -2964    -3277 
   -3514    -3690    -3739    -3600    -3357    -3173    -3141    -3256 
   -3466    -3730    -4000    -4168    -4067    -3680    -3187    -2766 
   -2528    -2517    -2593    -2494    -2178    -1854    -1672    -1678 
   -1804    -1930    -2061    -2215    -2335    -2455    -2613    -2755 
   -2844    -2867    -2822    -2758    -2798    -3045    -3392    -3672 
   -3873    -4033    -4175    -4268    -4225    -4027    -3699    -3271 
   -2818    -2489    -2397    -2452    -2497    -2509    -2505    -2448 
   -2339    -2220    -2104    -1989    -1904    -1884    -1944    -2107 
   -2393    -2755    -3072    -3287    -3429    -3489    -3453    -3362 
   -3264    -3199    -3183    -3211    -3261    -3265    -3172    -3040 
   -2945    -2897    -2911    -2999    -3083    -3083    -2984    -2830 
   -2689    -2612    -2631    -2748    -2918    -3051    -3028    -2802 
   -2493    -2232    -2072    -2065    -2227    -2469    -2694    -2859 
   -2955    -2994    -2986    -2945    -2890    -2856    -2903    -3036 
   -3242    -3530    -3852    -4116    -4240    -4149    -3840    -3418 
   -3028    -2749    -2598    -2555    -2543    -2516    -2494    -2461 
   -2366    -2197    -1950    -1668    -1466    -1459    -1710    -2133 
   -2578    -2982    -3256    -3330    -3285    -3199    -3098    -3080 
   -3161    -3261    -3389    -3576    -3774    -3929    -3966    -3842 
   -3623    -3366    -3111    -2934    -2847    -2762    -2625    -2474 
   -2343    -2223    -2165    -2215    -2265    -2272    -2300    -2323 
   -2317    -2353    -2440    -2558    -2698    -2830    -2928    -2992 
   -3042    -3045    -2975    -2926    -3018    -3226    -3447    -3647 
   -3796    -3861    -3824    -3677    -3416    -3072    -2717    -2459 
   -2346    -2340    -2421    -2554    -2617    -2579    -2544    -2533 
   -2566    -2708    -2906    -3065    -3175    -3231    -3199    -3076 
   -2893    -2664    -2386    -2124    -1956    -1887    -1957    -2184 
   -2497    -2833    -3144    -3388    -3539    -3543    -3480    -3457 
   -3451    -3488    -3574    -3603    -3528    -3373    -3157    -2944 
   -2793    -2739    -2770    -2813    -2868    -2911    -2860    -2724 
   -2508    -2197    -1919    -1759    -1687    -1706    -1825    -2019 
   -2262    -2605    -3061    -3480    -3732    -3804    -3682    -3422 
   -3179    -3011    -2906    -2926    -3042    -3145    -3225    -3273 
   -3285    -3318    -3346    -3350    -3368    -3366    -3304    -3175 
   -2961    -2743    -2593    -2448    -2342    -2344    -2392    -2488 
   -2616    -2652    -2643    -2682    -2695    -2663    -2656    -2613 
   -2463    -2313    -2272    -2320    -2428    -2583    -2797    -3099 
   -3439    -3678    -3761    -3734    -3611    -3400    -3159    -2965 
   -2907    -2974    -3109    -3267    -3383    -3404    -3325    -3164 
   -2960    -2740    -2567    -2497    -2469    -2405    -2273    -2068 
   -1861    -1694    -1561    -1534    -1651    -1844    -2103    -2477 
   -2902    -3288    -3604    -3817    -3933    -3987    -3991    -3966 
   -3943    -3936    -3933    -3863    -3690    -3470    -3237    -2994 
   -2832    -2821    -2867    -2857    -2770    -2594    -2331    -2057 
   -1840    -1683    -1599    -1591    -1640    -1783    -2053    -2388 
   -2735    -3042    -3246    -3360    -3419    -3427    -3391    -3327 
   -3269    -3250    -3281    -3362    -3485    -3600    -3649    -3615 
   -3503    -3337    -3161    -3019    -2938    -2891    -2890    -2893 
   -2795    -2639    -2478    -2290    -2145    -2088    -2097    -2201 
   -2413    -2655    -2836    -2944    -2961    -2884    -2805    -2767 
   -2713    -2666    -2693    -2775    -2852    -2899    -2907    -2883 
   -2828    -2763    -2748    -2802    -2905    -3045    -3204    -3329 
   -3377    -3364    -3308    -3214    -3080    -2940    -2830    -2752 
   -2713    -2705    -2667    -2586    -2498    -2438    -2428    -2457 
   -2498    -2565    -2650    -2748    -2855    -2933    -2980    -3029 
   -3114    -3254    -3427    -3566    -3638    -3638    -3541    -3338 
   -3076    -2828    -2656    -2542    -2465    -2455    -2486    -2509 
   -2528    -2524    -2459    -2374    -2380    -2533    -2745    -2947 
   -3114    -3172    -3133    -3075    -2991    -2902    -2837    -2763 
   -2710    -2751    -2876    -3057    -3276    -3473    -3570    -3542 
   -3415    -3199    -2902    -2612    -2421    -2366    -2434    -2556 
   -2659    -2732    -2752    -2687    -2614    -2606    -2652    -2749 
   -2875    -2998    -3107    -3159    -3154    -3149    -3148    -3138 
   -3118    -3073    -3038    -3006    -2914    -2789    -2697    -2636 
   -2619    -2668    -2756    -2844    -2924    -2980    -2990    -2952 
   -2870    -2744    -2632    -2616    -2693    -2806    -2944    -3102 
   -3214    -3250    -3260    -3246    -3206    -3179    -3149    -3060 
   -2945    -2878    -2841    -2825    -2852    -2907    -2932    -2891 
   -2847    -2812    -2740    -2670    -2608    -2548    -2563    -2651 
   -2749    -2856    -2965    -3028    -3033    -3041    -3051    -2997 
   -2906    -2816    -2673    -2506    -2403    -2336    -2270    -2238 
   -2242    -2268    -2319    -2407    -2542    -2713    -2901    -3106 
   -3304    -3465    -3586    -3640    -3619    -3528    -3356    -3163 
   -2982    -2812    -2713    -2670    -2632    -2623    -2628    -2614 
   -2616    -2656    -2709    -2764    -2841    -2930    -2987    -3019 
   -3065    -3113    -3165    -3237    -3272    -3256    -3210    -3103 
   -2968    -2843    -2718    -2621    -2509    -2371    -2315    -2315 
   -2308    -2358    -2477    -2593    -2695    -2806    -2925    -3022 
   -3080    -3133    -3196    -3242    -3265    -3287    -3298    -3277 
   -3208    -3100    -3014    -2936    -2855    -2817    -2799    -2791 
   -2830    -2868    -2864    -2825    -2762    -2697    -2627    -2552 
   -2538    -2586    -2656    -2745    -2841    -2936    -3015    -3044 
   -3057    -3091    -3106    -3126    -3191    -3249    -3257    -3211 
   -3095    -2928    -2758    -2621    -2508    -2409    -2354    -2353 
   -2363    -2380    -2443    -2535    -2610    -2721    -2866    -2974 
   -3051    -3099    -3087    -3036    -2999    -2994    -3014    -3048 
   -3082    -3095    -3094    -3111    -3150    -3171    -3187    -3226 
   -3246    -3238    -3218    -3165    -3059    -2907    -2744    -2562 
   -2362    -2232    -2199    -2208    -2278    -2411    -2554    -2701 
   -2855    -2980    -3086    -3186    -3245    -3242    -3217    -3195 
   -3179    -3194    -3240    -3269    -3249    -3168    -3060    -2961 
   -2841    -2701    -2600    -2531    -2475    -2466    -2501    -2560 
   -2636    -2701    -2762    -2826    -2863    -2898    -2941    -2925 
   -2894    -2921    -2956    -2979    -3014    -3040    -3032    -2990 
   -2955    -2934    -2891    -2853    -2829    -2768    -2718    -2710 
   -2677    -2613    -2573    -2540    -2479    -2425    -2440    -2528 
   -2667    -2847    -3063    -3295    -3487    -3615    -3680    -3653 
   -3554    -3441    -3307    -3164    -3064    -3006    -2941    -2855 
   -2768    -2679    -2597    -2566    -2598    -2682    -2782    -2859 
   -2895    -2868    -2783    -2693    -2632    -2598    -2596    -2617 
   -2640    -2667    -2706    -2733    -2741    -2774    -2826    -2849 
   -2878    -2933    -2970    -2990    -2967    -2903    -2859    -2805 
   -2756    -2776    -2790    -2791    -2848    -2925    -3002    -3076 
   -3105    -3064    -2945    -2766    -2559    -2362    -2250    -2250 
   -2324    -2488    -2735    -2994    -3204    -3346    -3404    -3393 
   -3331    -3257    -3210    -3168    -3098    -3029    -2960    -2883 
   -2832    -2794    -2739    -2668    -2605    -2575    -2581    -2621 
   -2701    -2790    -2857    -2906    -2910    -2857    -2778    -2691 
   -2628    -2604    -2612    -2693    -2835    -2994    -3152    -3238 
   -3238    -3190    -3076    -2920    -2779    -2678    -2627    -2623 
   -2656    -2710    -2776    -2867    -2956    -3001    -2998    -2953 
   -2899    -2887    -2887    -2883    -2910    -2938    -2936    -2911 
   -2860    -2787    -2708    -2648    -2605    -2555    -2551    -2621 
   -2712    -2805    -2898    -2951    -2943    -2880    -2790    -2691 
   -2613    -2581    -2565    -2565    -2609    -2683    -2802    -2976 
   -3138    -3265    -3353    -3369    -3354    -3349    -3314    -3238 
   -3164    -3098    -3021    -2941    -2897    -2889    -2879    -2844 
   -2813    -2810    -2789    -2748    -2744    -2747    -2732    -2768 
   -2870    -2951    -2991    -3014    -2990    -2922    -2887    -2906 
   -2984    -3138    -3354    -3558    -3666    -3689    -3640    -3519 
   -3441    -3457    -3499    -3586    -3700    -3705    -3615    -3480 
   -3287    -3087    -2959    -2924    -2970    -3068    -3211    -3339 
   -3376    -3314    -3153    -2886    -2533    -2149    -1823    -1618 
   -1528    -1566    -1701    -1842    -1937    -1950    -1888    -1803 
   -1726    -1719    -1884    -2201    -2593    -3044    -3493    -3840 
   -4041    -4071    -3940    -3704    -3404    -3100    -2856    -2705 
   -2639    -2616    -2570    -2454    -2258    -2004    -1756    -1611 
   -1591    -1684    -1904    -2191    -2469    -2720    -2910    -3024 
   -3102    -3175    -3277    -3427    -3613    -3813    -3958    -3997 
   -3947    -3805    -3572    -3304    -3034    -2779    -2600    -2523 
   -2508    -2551    -2652    -2764    -2890    -3051    -3219    -3415 
   -3657    -3906    -4132    -4301    -4351    -4203    -3843    -3321 
   -2689    -2031    -1479    -1098     -896     -896    -1089    -1417 
   -1768    -2041    -2165    -2096    -1875    -1597    -1335    -1170 
   -1142    -1190    -1279    -1428    -1618    -1864    -2241    -2774 
   -3427    -4151    -4903    -5645    -6323    -6885    -7284    -7426 
   -7221    -6690    -5902    -4920    -3874    -2875    -1968    -1179 
    -507       22      348      465      352      -52     -684    -1401 
   -2119    -2760    -3237    -3531    -3693    -3785    -3871    -3994 
   -4155    -4307    -4391    -4368    -4205    -3870    -3383    -2772 
   -2101    -1464     -943     -630     -616     -889    -1399    -2103 
   -2898    -3667    -4297    -4711    -4939    -5026    -4997    -4911 
   -4797    -4617    -4334    -3912    -3364    -2744    -2058    -1370 
    -791     -398     -261     -384     -699    -1159    -1672    -2142 
   -2531    -2778    -2830    -2752    -2660    -2641    -2725    -2913 
   -3187    -3460    -3721    -4041    -4351    -4546    -4635    -4637 
   -4584    -4529    -4490    -4480    -4461    -4329    -4013    -3496 
   -2812    -2065    -1368     -793     -373     -126      -31      -33 
    -124     -282     -457     -697    -1054    -1498    -2034    -2677 
   -3350    -3966    -4465    -4784    -4912    -4865    -4652    -4334 
   -3944    -3485    -3009    -2571    -2180    -1860    -1694    -1729 
   -1944    -2343    -2872    -3395    -3855    -4247    -4521    -4661 
   -4672    -4552    -4315    -4023    -3748    -3526    -3341    -3199 
   -3048    -2787    -2421    -1993    -1502    -1032     -677     -452 
    -360     -399     -556     -810    -1119    -1428    -1714    -2000 
   -2339    -2793    -3406    -4175    -5057    -5949    -6754    -7384 
   -7736    -7784    -7547    -7018    -6272    -5432    -4561    -3766 
   -3148    -2667    -2259    -1895    -1513    -1053     -515       22 
     507      903     1120     1111      923      621      260      -93 
    -434     -793    -1198    -1709    -2347    -3088    -3874    -4618 
   -5290    -5869    -6312    -6628    -6841    -6943    -6928    -6799 
   -6519    -6068    -5464    -4719    -3896    -3079    -2300    -1591 
   -1007     -581     -310     -184     -207     -336     -503     -697 
    -911    -1140    -1409    -1726    -2083    -2455    -2763    -2934 
   -2963    -2857    -2647    -2411    -2230    -2149    -2160    -2207 
   -2263    -2285    -2245    -2216    -2227    -2280    -2431    -2656 
   -2859    -3026    -3176    -3284    -3389    -3572    -3821    -4114 
   -4460    -4811    -5078    -5200    -5150    -4923    -4552    -4087 
   -3566    -3028    -2509    -2057    -1740    -1579    -1548    -1620 
   -1730    -1811    -1844    -1810    -1738    -1721    -1823    -2045 
   -2357    -2745    -3153    -3478    -3700    -3836    -3855    -3751 
   -3580    -3404    -3246    -3156    -3202    -3369    -3597    -3850 
   -4089    -4268    -4375    -4395    -4311    -4155    -3960    -3746 
   -3554    -3410    -3268    -3096    -2886    -2590    -2191    -1710 
   -1174     -657     -221       97      220      102     -237     -780 
   -1449    -2154    -2841    -3461    -3954    -4317    -4590    -4795 
   -4934    -5017    -5078    -5069    -4914    -4621    -4217    -3677 
   -3037    -2378    -1746    -1216     -849     -657     -648     -780 
    -972    -1177    -1374    -1539    -1672    -1811    -1976    -2176 
   -2424    -2702    -2995    -3275    -3495    -3653    -3763    -3827 
   -3834    -3789    -3727    -3627    -3458    -3245    -3014    -2741 
   -2452    -2230    -2068    -1965    -1966    -2056    -2174    -2292 
   -2420    -2562    -2716    -2916    -3149    -3396    -3670    -3951 
   -4206    -4398    -4486    -4469    -4334    -4078    -3786    -3510 
   -3245    -3015    -2821    -2667    -2542    -2409    -2297    -2226 
   -2192    -2265    -2455    -2725    -3086    -3493    -3855    -4148 
   -4353    -4449    -4475    -4492    -4527    -4584    -4673    -4754 
   -4753    -4661    -4491    -4202    -3807    -3365    -2909    -2475 
   -2116    -1846    -1695    -1651    -1661    -1714    -1780    -1836 
   -1871    -1827    -1687    -1487    -1237     -951     -676     -454 
    -288     -160     -108     -160     -314     -569     -896    -1269 
   -1680    -2116    -2582    -3073    -3561    -4040    -4473    -4796 
   -5012    -5140    -5152    -5058    -4876    -4615    -4317    -3994 
   -3649    -3318    -2991    -2678    -2413    -2177    -1987    -1871 
   -1804    -1827    -1953    -2137    -2376    -2647    -2921    -3188 
   -3372    -3468    -3523    -3476    -3322    -3154    -2984    -2833 
   -2724    -2635    -2582    -2559    -2550    -2585    -2655    -2772 
   -2970    -3208    -3469    -3723    -3896    -3978    -3981    -3898 
   -3755    -3592    -3437    -3289    -3137    -2988    -2840    -2678 
   -2538    -2430    -2330    -2250    -2207    -2197    -2232    -2344 
   -2528    -2710    -2845    -2951    -2990    -2945    -2864    -2748 
   -2610    -2490    -2392    -2319    -2313    -2380    -2505    -2690 
   -2902    -3083    -3199    -3246    -3250    -3199    -3059    -2890 
   -2743    -2569    -2373    -2199    -2037    -1879    -1757    -1680 
   -1663    -1761    -1984    -2313    -2760    -3285    -3811    -4306 
   -4761    -5143    -5447    -5711    -5942    -6110    -6197    -6203 
   -6111    -5886    -5514    -5024    -4409    -3636    -2787    -1985 
   -1274     -704     -338     -149      -99     -160     -286     -476 
    -702     -918    -1159    -1417    -1624    -1776    -1885    -1922 
   -1884    -1794    -1663    -1514    -1368    -1259    -1235    -1312 
   -1498    -1786    -2134    -2536    -2972    -3402    -3802    -4148 
   -4399    -4549    -4630    -4664    -4637    -4564    -4450    -4288 
   -4097    -3886    -3673    -3484    -3322    -3190    -3105    -3041 
   -2975    -2921    -2872    -2795    -2695    -2610    -2563    -2540 
   -2562    -2659    -2814    -3007    -3229    -3450    -3672    -3879 
   -4035    -4151    -4212    -4187    -4105    -3975    -3797    -3593 
   -3364    -3122    -2898    -2681    -2451    -2232    -2066    -1953 
   -1857    -1800    -1791    -1755    -1710    -1694    -1653    -1584 
   -1536    -1499    -1468    -1456    -1472    -1539    -1655    -1821 
   -2043    -2301    -2589    -2918    -3231    -3483    -3676    -3781 
   -3771    -3659    -3487    -3280    -3022    -2749    -2527    -2343 
   -2204    -2153    -2176    -2263    -2407    -2577    -2772    -2998 
   -3250    -3526    -3805    -4071    -4297    -4459    -4573    -4638 
   -4642    -4621    -4591    -4537    -4469    -4414    -4372    -4297 
   -4167    -4002    -3784    -3514    -3226    -2913    -2594    -2305 
   -2034    -1807    -1634    -1472    -1340    -1255    -1194    -1162 
   -1167    -1212    -1314    -1482    -1706    -1987    -2303    -2620 
   -2906    -3114    -3248    -3312    -3275    -3154    -2997    -2790 
   -2562    -2362    -2212    -2100    -1999    -1925    -1906    -1907 
   -1933    -2047    -2257    -2538    -2890    -3298    -3716    -4104 
   -4436    -4692    -4826    -4841    -4770    -4608    -4392    -4185 
   -3973    -3771    -3619    -3501    -3392    -3283    -3150    -2978 
   -2771    -2531    -2273    -2020    -1769    -1548    -1378    -1243 
   -1159    -1136    -1158    -1235    -1375    -1594    -1885    -2214 
   -2565    -2887    -3122    -3306    -3442    -3472    -3424    -3361 
   -3273    -3165    -3079    -3049    -3082    -3167    -3316    -3511 
   -3699    -3898    -4106    -4251    -4338    -4391    -4364    -4259 
