Origin Time       2025/03/29 04:45:00
Lat.              31.090
Long.             131.512
Depth. (km)       33
Mag.              4.6
Station Code      KGS017
Station Lat.      31.3954
Station Long.     130.8702
Station Height(m) 64
Record Time       2025/03/29 04:45:36
Sampling Freq(Hz) 100Hz
Duration Time(s)  60
Dir.              U-D
Scale Factor      3920(gal)/6182761
Max. Acc. (gal)   8.363
Last Correction   2025/03/29 04:45:36
Memo.             
[...]
  -16571   -16551   -16537   -16579   -16590   -16553   -16552   -16554 
  -16529   -16551   -16593   -16578   -16553   -16563   -16562   -16549 
  -16564   -16573   -16541   -16530   -16557   -16560   -16558   -16575 
  -16565   -16555   -16570   -16570   -16551   -16549   -16562   -16568 
  -16566   -16565   -16560   -16552   -16552   -16559   -16561   -16560 
  -16566   -16573   -16570   -16560   -16558   -16555   -16539   -16532 
  -16554   -16591   -16591   -16558   -16547   -16554   -16547   -16543 
  -16556   -16567   -16574   -16572   -16558   -16561   -16572   -16556 
  -16543   -16555   -16559   -16556   -16565   -16566   -16559   -16560 
  -16557   -16544   -16548   -16574   -16584   -16571   -16563   -16561 
  -16544   -16529   -16538   -16557   -16575   -16579   -16563   -16562 
  -16569   -16558   -16543   -16533   -16538   -16573   -16594   -16576 
  -16566   -16567   -16552   -16536   -16535   -16556   -16587   -16587 
  -16555   -16546   -16558   -16550   -16541   -16553   -16562   -16568 
  -16575   -16575   -16574   -16562   -16544   -16542   -16548   -16555 
  -16567   -16574   -16575   -16568   -16549   -16538   -16547   -16551 
  -16553   -16572   -16588   -16578   -16553   -16545   -16563   -16568 
  -16548   -16543   -16553   -16554   -16567   -16584   -16567   -16548 
  -16557   -16556   -16553   -16574   -16574   -16543   -16545   -16567 
  -16564   -16565   -16567   -16555   -16565   -16578   -16561   -16552 
  -16557   -16560   -16556   -16550   -16568   -16586   -16561   -16549 
  -16566   -16549   -16535   -16558   -16562   -16556   -16580   -16592 
  -16569   -16552   -16556   -16551   -16541   -16556   -16576   -16560 
  -16543   -16561   -16572   -16561   -16560   -16558   -16549   -16558 
  -16574   -16564   -16554   -16565   -16561   -16543   -16550   -16568 
  -16567   -16563   -16569   -16573   -16566   -16555   -16539   -16531 
  -16550   -16570   -16570   -16568   -16566   -16565   -16564   -16556 
  -16555   -16560   -16548   -16550   -16584   -16586   -16554   -16549 
  -16548   -16536   -16551   -16564   -16557   -16568   -16585   -16572 
  -16559   -16562   -16552   -16536   -16552   -16580   -16576   -16560 
  -16562   -16558   -16544   -16551   -16559   -16553   -16564   -16574 
  -16561   -16560   -16567   -16548   -16531   -16545   -16559   -16557 
  -16570   -16586   -16572   -16555   -16551   -16557   -16565   -16556 
  -16554   -16581   -16639   -16784   -17057   -17428   -17779   -17878 
  -17539   -16813   -15935   -15191   -14808   -14845   -15168   -15548 
  -15833   -16063   -16319   -16563   -16791   -17102   -17459   -17626 
  -17446   -17023   -16618   -16470   -16556   -16530   -16251   -16050 
  -16134   -16389   -16653   -16628   -16142   -15585   -15590   -16581 
  -18475   -20479   -21615   -21428   -19913   -17492   -15143   -13611 
  -12581   -11412   -10422   -10658   -12382   -14734   -17078   -19366 
  -21170   -21888   -21490   -20152   -17950   -15117   -12369   -11025 
  -12000   -14678   -17343   -18518   -18145   -17488   -17480   -17892 
  -18235   -18411   -18557   -18643   -18289   -17324   -16332   -15943 
  -15631   -14238   -12252   -12047   -14590   -17862   -19586   -19794 
  -19731   -19101   -16617   -13214   -11273   -11200   -11834   -13029 
  -15875   -20389   -24010   -24278   -22074   -19917   -18520   -16517 
  -13218   -10661   -10904   -12922   -14815   -16261   -17601   -18938 
  -19894   -19900   -19112   -18211   -17575   -17091   -16383   -15475 
  -14825   -14546   -14388   -13886   -12725   -11739   -11892   -12921 
  -14576   -17044   -19801   -21786   -22316   -21905   -21771   -21802 
  -20670   -17841   -14269   -11940   -11966   -13201   -14217   -14964 
  -15932   -17272   -18473   -19002   -19108   -19114   -18706   -17478 
  -15681   -14136   -13190   -12564   -12512   -13676   -15737   -17284 
  -17242   -16288   -16097   -17234   -18784   -19617   -19343   -18318 
  -16963   -15504   -14487   -14516   -15373   -16263   -16660   -16774 
  -17435   -18960   -20476   -20986   -20071   -17655   -14454   -11968 
  -11136   -11724   -13056   -14724   -16700   -18937   -20913   -21766 
  -20990   -18942   -16473   -14131   -12164   -10928   -10915   -12502 
  -15492   -19083   -22239   -23718   -22509   -18914   -14741   -11965 
  -11259   -12048   -13686   -15952   -18569   -20761   -21595   -20768 
  -18813   -16576   -14759   -14104   -15308   -17810   -19577   -19142 
  -17045   -15115   -14588   -14858   -14515   -13346   -12395   -12409 
  -13353   -15202   -17976   -21027   -23000   -22722   -20323   -17223 
  -14781   -13376   -12853   -13252   -14701   -16761   -18362   -18645 
  -17796   -16823   -16332   -16007   -15549   -15378   -16019   -17246 
  -18308   -18799   -18754   -18231   -17156   -15435   -13533   -12548 
  -12911   -13937   -15056   -16397   -18129   -19924   -21036   -20894 
  -19569   -17429   -14861   -12568   -11502   -12274   -14545   -17177 
  -19307   -20789   -21542   -21254   -19778   -17398   -14752   -12547 
  -11316   -11392   -12873   -15399   -18087   -19855   -20016   -18695 
  -16607   -14689   -13948   -14815   -16566   -18094   -18821   -18589 
  -17529   -16158   -15073   -14668   -15055   -15971   -17058   -18049 
  -18653   -18716   -18389   -17923   -17375   -16643   -15739   -14711 
  -13577   -12688   -12668   -13688   -15326   -17131   -18827   -20095 
  -20582   -20157   -19041   -17659   -16427   -15657   -15471   -15665 
  -15869   -15874   -15669   -15395   -15331   -15582   -15902   -16075 
  -16232   -16714   -17718   -19032   -20122   -20320   -19139   -16749 
  -13936   -11526   -10129   -10157   -11669   -14237   -17111   -19641 
  -21430   -22217   -21990   -21041   -19673   -18048   -16250   -14428 
  -13021   -12624   -13338   -14666   -16083   -17280   -18042   -18181 
  -17588   -16545   -15819   -15893   -16356   -16595   -16503   -16260 
  -16108   -16242   -16623   -17111   -17583   -17795   -17539   -16912 
  -16171   -15496   -15052   -15074   -15653   -16516   -17268   -17624 
  -17381   -16663   -16016   -15873   -16281   -17118   -18072   -18604 
  -18313   -17186   -15580   -14100   -13305   -13465   -14519   -16168 
  -17957   -19297   -19740   -19327   -18463   -17533   -16665   -15846 
  -15249   -15092   -15346   -15827   -16332   -16694   -16779   -16457 
  -15836   -15380   -15508   -16228   -17205   -17956   -18089   -17577 
  -16685   -15713   -15033   -14993   -15596   -16567   -17479   -17922 
  -17875   -17594   -17217   -16891   -16814   -16951   -17064   -16965 
  -16651   -16362   -16358   -16528   -16443   -15925   -15379   -15261 
  -15530   -15953   -16413   -16732   -16711   -16364   -15973   -15879 
  -16190   -16691   -17106   -17362   -17437   -17237   -16797   -16283 
  -15881   -15815   -16124   -16612   -17136   -17572   -17656   -17252 
  -16629   -16207   -16126   -16312   -16754   -17355   -17850   -18038 
  -17783   -17065   -16133   -15237   -14530   -14133   -13983   -14002 
  -14333   -15080   -16061   -16966   -17669   -18230   -18627   -18757 
  -18631   -18348   -18028   -17710   -17302   -16746   -16090   -15347 
  -14630   -14347   -14819   -15899   -17146   -18117   -18543   -18417 
  -17808   -16725   -15370   -14288   -13946   -14406   -15433   -16601 
  -17455   -17830   -17847   -17661   -17381   -17138   -17047   -17045 
  -16914   -16552   -16067   -15543   -15005   -14633   -14720   -15374 
  -16376   -17275   -17776   -17982   -18075   -18026   -17713   -17179 
  -16713   -16508   -16425   -16335   -16300   -16255   -16021   -15665 
  -15452   -15572   -16037   -16655   -17287   -17973   -18568   -18729 
  -18337   -17502   -16409   -15380   -14664   -14331   -14508   -15179 
  -15964   -16528   -16827   -16893   -16768   -16565   -16400   -16283 
  -16191   -16117   -16038   -16043   -16365   -17126   -18165   -19130 
  -19621   -19373   -18385   -16930   -15460   -14448   -14184   -14569 
  -15208   -15792   -16204   -16385   -16353   -16254   -16274   -16466 
  -16709   -16871   -16977   -17192   -17628   -18151   -18470   -18349 
  -17730   -16725   -15565   -14510   -13760   -13467   -13787   -14813 
  -16379   -17982   -19055   -19306   -18763   -17768   -16848   -16259 
  -15939   -15850   -15980   -16266   -16659   -17034   -17184   -16976 
  -16479   -15941   -15586   -15515   -15766   -16187   -16529   -16708 
  -16643   -16243   -15756   -15586   -15926   -16787   -17979   -19040 
  -19460   -18994   -17758   -16127   -14603   -13678   -13644   -14459 
  -15831   -17323   -18434   -18863   -18634   -17930   -17027   -16247 
  -15760   -15586   -15722   -16079   -16433   -16575   -16501   -16347 
  -16212   -16144   -16194   -16344   -16526   -16686   -16778   -16752 
  -16640   -16570   -16618   -16752   -16950   -17184   -17283   -17107 
  -16769   -16470   -16282   -16114   -15795   -15294   -14805   -14525 
  -14520   -14861   -15660   -16846   -18089   -19012   -19397   -19286 
  -18845   -18208   -17479   -16750   -16128   -15723   -15564   -15653 
  -15952   -16228   -16208   -15905   -15596   -15516   -15762   -16288 
  -16903   -17438   -17804   -17861   -17551   -17041   -16518   -16034 
  -15620   -15354   -15235   -15110   -14903   -14763   -14878   -15366 
  -16287   -17564   -18914   -19966   -20387   -20006   -18940   -17558 
  -16215   -15107   -14344   -14051   -14243   -14691   -15122   -15432 
  -15626   -15816   -16164   -16681   -17239   -17694   -17920   -17877 
  -17630   -17252   -16816   -16434   -16229   -16308   -16725   -17399 
  -18060   -18318   -17928   -17015   -15935   -15110   -14923   -15410 
  -16261   -17144   -17747   -17903   -17752   -17484   -17168   -16901 
  -16742   -16576   -16249   -15706   -15011   -14390   -14108   -14214 
  -14599   -15176   -15837   -16478   -17028   -17400   -17597   -17668 
  -17576   -17393   -17371   -17616   -17998   -18326   -18369   -17953 
  -17174   -16217   -15218   -14451   -14170   -14359   -14852   -15474 
  -16068   -16548   -16937   -17281   -17574   -17803   -17890   -17680 
  -17219   -16781   -16496   -16308   -16221   -16285   -16460   -16678 
  -16922   -17131   -17171   -16995   -16674   -16361   -16262   -16410 
  -16613   -16741   -16743   -16483   -15943   -15376   -15021   -14940 
  -15117   -15484   -15917   -16322   -16635   -16794   -16873   -16977 
  -17041   -17013   -16962   -16927   -16927   -16954   -16957   -17021 
  -17295   -17725   -18092   -18259   -18187   -17861   -17374   -16903 
  -16540   -16313   -16192   -16000   -15613   -15135   -14725   -14512 
  -14640   -15172   -16013   -16956   -17821   -18450   -18634   -18347 
  -17780   -17094   -16448   -15980   -15677   -15520   -15566   -15853 
  -16396   -17198   -18169   -19024   -19382   -18994   -17852   -16227 
  -14560   -13208   -12374   -12179   -12566   -13317   -14283   -15379 
  -16436   -17251   -17707   -17861   -17929   -18088   -18354   -18607 
  -18678   -18485   -18088   -17609   -17153   -16850   -16735   -16656 
  -16529   -16371   -16178   -16072   -16200   -16472   -16687   -16710 
  -16452   -15913   -15235   -14641   -14419   -14849   -15972   -17541 
  -19184   -20448   -20908   -20353   -18852   -16729   -14467   -12580 
  -11517   -11523   -12525   -14177   -16066   -17902   -19431   -20355 
  -20512   -20007   -19061   -17882   -16645   -15471   -14517   -13970 
  -13922   -14409   -15438   -16751   -17799   -18211   -18084   -17685 
  -17242   -16966   -16873   -16763   -16498   -15968   -15060   -13895 
  -12729   -11806   -11455   -11863   -12882   -14323   -16063   -17819 
  -19161   -19837   -19978   -19883   -19708   -19454   -19045   -18441 
  -17754   -17126   -16740   -16805   -17318   -18135   -19064   -19670 
  -19484   -18414   -16747   -14946   -13546   -13032   -13537   -14676 
  -15882   -16817   -17417   -17690   -17657   -17433   -17109   -16563 
  -15594   -14231   -12833   -11781   -11246   -11290   -11964   -13347 
  -15483   -18127   -20769   -22889   -23967   -23560   -21760   -19333 
  -17173   -15783   -15219   -15189   -15221   -15060   -14837   -14795 
  -15150   -16107   -17732   -19609   -20926   -21270   -20799   -19583 
  -17572   -15007   -12316   -10017    -8772    -8940   -10253   -12173 
  -14277   -16238   -17706   -18589   -19378   -20523   -21662   -22190 
  -21972   -20932   -18940   -16303   -13619   -11430   -10170    -9900 
  -10321   -11271   -12830   -15001   -17604   -20448   -23279   -25577 
  -26915   -27079   -25856   -23499   -20710   -17947   -15540   -13847 
  -12885   -12448   -12366   -12336   -11976   -11156   -10119    -9261 
   -8925    -9395   -10673   -12365   -14015   -15369   -16490   -17686 
  -19161   -20842   -22447   -23620   -24117   -23831   -22789   -21164 
  -19191   -17153   -15511   -14680   -14568   -14849   -15445   -16209 
  -16824   -17303   -17767   -17838   -17074   -15581   -13692   -11848 
  -10838   -11219   -12911   -15612   -18805   -21716   -23891   -25284 
  -25735   -25026   -23232   -20592   -17308   -13642   -10040    -7146 
   -5605    -5719    -7356   -10003   -12983   -15822   -18273   -20148 
  -21448   -22298   -22664   -22399   -21378   -19556   -17096   -14409 
  -11970   -10209    -9463    -9842   -11257   -13517   -16285   -19069 
  -21277   -22432   -22433   -21513   -19939   -17984   -16124   -14700 
  -13475   -12177   -11275   -11403   -12545   -14393   -16523   -18315 
  -19470   -19970   -19706   -18834   -17870   -17187   -16953   -17240 
  -17976   -19093   -20589   -22259   -23528   -23854   -23075   -21222 
  -18312   -14454   -10167    -6404    -4001    -3369    -4638    -7579 
  -11506   -15559   -19071   -21746   -23415   -23883   -23262   -21939 
  -20258   -18542   -17036   -15842   -15008   -14611   -14769   -15484 
  -16467   -17370   -18101   -18618   -18775   -18515   -17826   -16727 
  -15457   -14368   -13731   -13545   -13593   -13919   -14765   -16025 
  -17327   -18481   -19413   -19919   -19824   -19178   -18177   -17079 
  -16056   -15186   -14677   -14744   -15240   -15756   -15960   -15738 
  -15142   -14345   -13622   -13296   -13642   -14691   -16230   -18050 
  -20026   -21901   -23295   -23914   -23562   -22223   -20134   -17627 
  -15040   -12799   -11300   -10727   -11083   -12118   -13411   -14728 
  -16021   -17144   -17839   -17985   -17648   -16837   -15614   -14276 
  -13160   -12449   -12105   -12021   -12269   -13074   -14527   -16458 
  -18591   -20572   -21942   -22426   -22073   -21029   -19542   -18014 
  -16778   -16012   -15793   -16113   -16868   -17783   -18612   -19289 
  -19690   -19655   -19208   -18384   -17193   -15851   -14679   -13826 
  -13341   -13288   -13643   -14236   -14886   -15452   -15842   -16160 
  -16521   -16749   -16610   -16118   -15502   -14988   -14667   -14541 
  -14599   -14942   -15705   -16757   -17845   -18859   -19621   -19868 
  -19619   -19091   -18358   -17497   -16749   -16311   -16202   -16367 
  -16788   -17412   -18054   -18474   -18520   -18250   -17883   -17578 
  -17273   -16855   -16374   -15811   -15046   -14240   -13669   -13473 
  -13778   -14484   -15221   -15775   -16033   -15809   -15109   -14227 
  -13523   -13224   -13358   -13862   -14678   -15708   -16806   -17840 
  -18756   -19619   -20474   -21163   -21480   -21377   -20821   -19759 
  -18345   -16855   -15479   -14375   -13711   -13555   -13879   -14577 
  -15436   -16248   -16899   -17340   -17555   -17504   -17152   -16551 
  -15806   -15102   -14667   -14634   -15027   -15782   -16748   -17726 
  -18515   -19020   -19250   -19191   -18889   -18551   -18314   -18131 
  -17904   -17536   -16969   -16233   -15382   -14534   -13903   -13653 
  -13781   -14173   -14742   -15396   -15936   -16180   -16125   -15938 
  -15813   -15900   -16245   -16780   -17402   -17997   -18423   -18586 
  -18517   -18286   -17881   -17306   -16689   -16153   -15727   -15375 
  -15040   -14753   -14676   -14919   -15416   -16059   -16761   -17330 
  -17583   -17533   -17330   -17220   -17438   -17981   -18639   -19226 
  -19619   -19604   -18963   -17717   -16080   -14383   -12995   -12115 
  -11804   -12067   -12810   -13878   -15128   -16421   -17647   -18738 
  -19594   -20077   -20117   -19746   -19079   -18248   -17309   -16365 
  -15664   -15323   -15200   -15133   -15055   -14954   -14865   -14827 
  -14836   -14848   -14903   -15136   -15522   -15942   -16403   -16887 
  -17327   -17662   -17809   -17817   -17800   -17782   -17765   -17740 
  -17709   -17699   -17650   -17478   -17224   -17046   -17074   -17345 
  -17799   -18257   -18502   -18352   -17675   -16537   -15245   -14138 
  -13465   -13399   -13993   -15077   -16327   -17473   -18314   -18664 
  -18450   -17761   -16763   -15660   -14650   -13832   -13269   -13121 
  -13513   -14337   -15385   -16435   -17251   -17806   -18190   -18329 
  -18161   -17773   -17259   -16712   -16274   -16060   -16094   -16328 
  -16663   -16997   -17256   -17381   -17394   -17338   -17222   -17083 
  -16983   -17004   -17217   -17585   -18002   -18309   -18345   -18123 
  -17768   -17419   -17187   -17074   -17019   -16923   -16673   -16252 
  -15673   -14906   -14009   -13133   -12420   -12012   -12017   -12424 
  -13132   -14056   -15123   -16265   -17376   -18285   -18894   -19204 
  -19206   -18957   -18659   -18482   -18420   -18435   -18532   -18633 
  -18614   -18416   -18024   -17483   -16860   -16201   -15606   -15272 
  -15340   -15748   -16253   -16617   -16734   -16567   -16115   -15508 
  -14933   -14514   -14305   -14310   -14534   -14965   -15542   -16215 
  -16910   -17509   -17954   -18279   -18439   -18267   -17734   -17002 
  -16228   -15601   -15327   -15458   -15945   -16724   -17631   -18446 
  -19007   -19214   -18990   -18343   -17377   -16232   -15157   -14370 
  -13876   -13705   -13963   -14538   -15188   -15803   -16367   -16875 
  -17351   -17762   -17998   -18036   -17918   -17634   -17178   -16630 
  -16096   -15660   -15415   -15429   -15674   -16095   -16649   -17199 
  -17605   -17879   -17995   -17870   -17569   -17172   -16682   -16188 
  -15840   -15639   -15516   -15519   -15683   -15932   -16249   -16676 
  -17159   -17634   -18020   -18175   -18054   -17698   -17142   -16484 
  -15865   -15410   -15165   -15123   -15326   -15733   -16157   -16470 
  -16631   -16633   -16536   -16370   -16115   -15825   -15605   -15539 
  -15657   -15909   -16274   -16760   -17281   -17725   -18027   -18118 
  -17955   -17589   -17144   -16705   -16274   -15843   -15434   -15104 
  -14972   -15112   -15422   -15766   -16102   -16395   -16623   -16793 
  -16870   -16860   -16903   -17066   -17272   -17507   -17813   -18099 
  -18274   -18424   -18565   -18569   -18424   -18136   -17621   -16956 
  -16329   -15811   -15406   -15122   -14958   -14895   -14866   -14817 
  -14761   -14699   -14630   -14623   -14772   -15099   -15544   -16024 
  -16518   -17038   -17528   -17919   -18253   -18582   -18819   -18852 
  -18660   -18232   -17610   -16917   -16231   -15610   -15113   -14759 
  -14607   -14736   -15144   -15827   -16728   -17656   -18455   -19084 
  -19493   -19616   -19431   -18955   -18264   -17472   -16638   -15791 
  -15036   -14477   -14160   -14092   -14242   -14553   -14900   -15138 
  -15237   -15193   -15037   -14916   -14899   -14966   -15187   -15596 
  -16116   -16686   -17271   -17850   -18392   -18790   -18929   -18794 
  -18482   -18062   -17508   -16914   -16480   -16259   -16226   -16412 
