Origin Time       2025/03/29 04:45:00
Lat.              31.090
Long.             131.512
Depth. (km)       33
Mag.              4.6
Station Code      KGS014
Station Lat.      31.4963
Station Long.     130.6994
Station Height(m) 4
Record Time       2025/03/29 04:45:32
Sampling Freq(Hz) 100Hz
Duration Time(s)  73
Dir.              N-S
Scale Factor      7845(gal)/8223790
Max. Acc. (gal)   3.557
Last Correction   2025/03/29 04:45:32
Memo.             
[...]
    1358     1379     1398     1394     1377     1368     1385     1383 
    1363     1374     1420     1432     1397     1387     1405     1387 
    1362     1363     1374     1394     1401     1362     1341     1370 
    1359     1302     1286     1327     1350     1329     1348     1393 
    1363     1297     1290     1316     1333     1348     1382     1432 
    1437     1409     1397     1391     1399     1429     1456     1486 
    1498     1467     1435     1412     1372     1348     1371     1410 
    1439     1464     1471     1439     1387     1325     1282     1279 
    1269     1258     1279     1264     1198     1173     1221     1293 
    1352     1397     1398     1332     1227     1167     1204     1286 
    1379     1474     1530     1567     1613     1615     1587     1575 
    1553     1512     1509     1553     1584     1575     1526     1414 
    1252     1123     1074     1082     1135     1202     1224     1228 
    1246     1269     1313     1347     1316     1242     1196     1243 
    1362     1447     1451     1448     1485     1540     1625     1718 
    1742     1667     1537     1391     1274     1277     1436     1652 
    1769     1691     1476     1262     1085      954      935     1000 
    1055     1086     1131     1240     1431     1605     1665     1572 
    1305      969      764      770      930     1167     1397     1551 
    1637     1728     1872     2000     2039     2006     1869     1633 
    1453     1432     1493     1539     1518     1431     1333     1290 
    1274     1213     1113     1001      864      714      649      749 
    1003     1262     1364     1328     1259     1202     1219     1324 
    1444     1561     1740     1975     2170     2245     2200     2047 
    1769     1424     1143     1003     1034     1209     1417     1572 
    1647     1628     1490     1264     1048      834      594      469 
     556      762     1013     1293     1549     1723     1780     1715 
    1525     1290     1202     1344     1579     1787     1912     1860 
    1656     1512     1537     1591     1497     1324     1224     1165 
    1138     1287     1583     1745     1607     1306     1057      896 
     766      756      918     1119     1308     1536     1752     1877 
    1926     1960     1908     1634     1291     1129     1073      970 
     857      785      777      886     1116     1344     1475     1570 
    1750     2033     2289     2412     2339     2041     1620     1205 
     858      615      464      405      492      706      996     1331 
    1618     1769     1737     1567     1379     1229     1148     1194 
    1340     1487     1607     1771     2004     2209     2281     2242 
    2118     1867     1556     1325     1158      994      900      915 
     935      884      795      679      513      353      333      521 
     857     1252     1625     1899     2076     2170     2127     1961 
    1787     1640     1505     1451     1537     1699     1860     1954 
    1906     1738     1551     1372     1217     1119     1042      936 
     870      926     1065     1201     1283     1308     1296     1247 
    1200     1220     1298     1391     1476     1532     1564     1561 
    1502     1412     1314     1239     1239     1312     1390     1444 
    1458     1401     1283     1120      962      907      942     1015 
    1131     1301     1503     1680     1790     1837     1840     1827 
    1856     1922     1946     1892     1782     1626     1458     1318 
    1188     1055      963      907      865      849      881      992 
    1151     1323     1510     1649     1676     1647     1591     1505 
    1420     1350     1285     1220     1121     1034     1046     1150 
    1305     1451     1507     1495     1433     1294     1154     1115 
    1186     1345     1561     1757     1857     1856     1822     1819 
    1819     1814     1830     1802     1718     1642     1529     1360 
    1205     1051      861      693      583      499      453      496 
     596      722      949     1296     1640     1875     1957     1877 
    1686     1475     1290     1177     1197     1321     1534     1850 
    2130     2245     2222     2114     1964     1800     1644     1498 
    1354     1231     1108      935      741      591      533      564 
     688      934     1209     1393     1464     1447     1428     1428 
    1351     1243     1220     1262     1312     1402     1528     1633 
    1725     1853     2007     2101     2076     1950     1757     1510 
    1240      962      693      560      664      916     1188     1397 
    1464     1435     1428     1439     1408     1375     1375     1399 
    1459     1553     1620     1574     1418     1247     1128     1096 
    1144     1236     1362     1516     1678     1796     1803     1711 
    1548     1301     1034      851      811      924     1142     1421 
    1715     1904     1912     1794     1630     1444     1232     1078 
    1019      978      955     1007     1125     1240     1320     1404 
    1498     1584     1683     1746     1740     1760     1852     1927 
    1952     1942     1857     1649     1368     1093      857      723 
     742      889     1105     1305     1428     1463     1429     1347 
    1251     1178     1123     1061     1008      988      993     1013 
    1062     1136     1243     1447     1728     1950     2100     2196 
    2149     1925     1599     1278     1012      819      762      846 
     996     1181     1404     1625     1718     1637     1545     1525 
    1513     1495     1498     1501     1479     1471     1521     1555 
    1483     1391     1387     1413     1370     1270     1177     1098 
    1013      961      924      851      793      818      930     1123 
    1360     1610     1841     1958     1941     1854     1713     1536 
    1409     1368     1364     1333     1313     1344     1391     1439 
    1476     1460     1412     1402     1426     1425     1386     1337 
    1279     1208     1185     1255     1367     1460     1534     1598 
    1636     1625     1561     1453     1345     1279     1201     1105 
    1088     1134     1204     1331     1458     1528     1572     1574 
    1493     1367     1252     1174     1144     1174     1247     1294 
    1277     1236     1185     1096     1035     1057     1088     1136 
    1256     1366     1399     1412     1467     1580     1695     1767 
    1829     1840     1753     1674     1680     1736     1809     1892 
    1960     1962     1883     1722     1506     1345     1300     1267 
    1151     1013      927      838      718      662      718      789 
     791      788      846      893      891      928     1046     1179 
    1293     1404     1545     1702     1782     1802     1837     1872 
    1933     2027     2087     2147     2222     2223     2127     1984 
    1836     1695     1544     1358     1131      932      803      706 
     684      791      940     1032     1047     1001      888      720 
     604      626      747      919     1135     1374     1598     1745 
    1786     1790     1788     1794     1876     2020     2146     2228 
    2236     2143     1964     1734     1513     1310     1113      977 
     909      864      895     1015     1096     1084     1042     1004 
     972      969     1026     1131     1237     1345     1439     1467 
    1440     1393     1348     1364     1441     1537     1682     1844 
    1929     1937     1879     1752     1591     1414     1260     1162 
    1092     1084     1175     1301     1391     1429     1426     1378 
    1232     1024      885      819      784      874     1104     1348 
    1574     1794     1945     1989     1965     1915     1825     1683 
    1512     1339     1202     1111     1032      977      955      932 
     924      985     1073     1138     1215     1309     1426     1586 
    1779     1962     2054     2045     1962     1776     1539     1355 
    1212     1089     1038     1043     1039      992      901      791 
     692      622      611      711      900     1148     1474     1821 
    2080     2236     2296     2253     2150     2038     1931     1837 
    1745     1660     1584     1433     1221     1058      915      746 
     650      675      743      834      962     1093     1209     1290 
    1306     1270     1236     1239     1267     1316     1416     1566 
    1705     1780     1813     1810     1734     1637     1610     1626 
    1667     1745     1806     1834     1848     1790     1663     1574 
    1545     1525     1483     1375     1196      999      839      746 
     714      769      912     1055     1143     1192     1185     1138 
    1086     1035     1021     1071     1166     1304     1464     1618 
    1757     1848     1865     1848     1807     1719     1630     1603 
    1605     1593     1582     1593     1613     1622     1641     1659 
    1645     1603     1529     1385     1201     1058      958      889 
     853      811      768      733      660      579      580      654 
     784     1012     1325     1667     1985     2270     2523     2685 
    2722     2678     2571     2412     2209     1998     1813     1637 
    1435     1236     1065      847      553      294      136       43 
      20       93      245      437      622      822     1035     1188 
    1270     1351     1474     1618     1769     1964     2195     2376 
    2484     2547     2523     2370     2145     1919     1672     1420 
    1259     1181     1098     1028     1004      935      797      675 
     577      475      429      488      595      695      827     1005 
    1189     1359     1553     1776     1954     2034     2065     2056 
    1958     1834     1736     1641     1628     1745     1883     1971 
    2042     2083     2041     1929     1790     1641     1491     1359 
    1248     1156     1069      958      846      737      584      423 
     325      267      234      279      413      589      778      980 
    1175     1325     1414     1499     1630     1771     1917     2114 
    2309     2435     2504     2527     2502     2428     2316     2201 
    2108     2023     1908     1798     1726     1667     1613     1548 
    1437     1318     1221     1131     1078     1069     1090     1144 
    1193     1216     1262     1323     1350     1329     1260     1148 
    1038      961      908      913      984     1026      990      927 
     862      791      712      666      706      796      895     1040 
    1219     1335     1352     1300     1219     1100      953      862 
     853      865      872      891      889      814      716      646 
     554      472      491      606      745      923     1181     1441 
    1642     1809     1923     1949     1918     1872     1867     1956 
    2111     2284     2473     2691     2930     3137     3272     3361 
    3376     3260     3059     2830     2566     2289     2041     1814 
    1588     1387     1232     1138     1116     1179     1308     1467 
    1634     1807     1935     1972     1948     1910     1858     1795 
    1707     1593     1471     1297     1053      799      545      282 
      43     -160     -351     -542     -692     -760     -796     -819 
    -762     -621     -436     -214       47      338      625      861 
    1043     1181     1266     1341     1456     1570     1659     1763 
    1873     1945     1944     1863     1750     1598     1406     1286 
    1266     1306     1468     1764     2135     2548     2926     3176 
    3294     3280     3127     2860     2525     2184     1844     1464 
    1089      799      602      503      506      575      692      839 
     962     1061     1189     1395     1692     2041     2385     2662 
    2821     2878     2868     2798     2679     2520     2301     2019 
    1699     1381     1123      961      869      808      772      745 
     691      612      530      394      166      -78     -228     -272 
    -211      -20      244      491      708      899     1028     1097 
    1152     1258     1390     1520     1680     1864     1981     1975 
    1880     1737     1517     1262     1109     1125     1278     1574 
    1991     2412     2754     2971     3048     3061     3076     3105 
    3165     3206     3136     2913     2513     1948     1294      657 
     109     -353     -746    -1026    -1163    -1181    -1094     -918 
    -668     -361      -35      274      595      978     1391     1788 
    2193     2596     2909     3082     3125     3067     2898     2598 
    2232     1867     1516     1209      935      645      346       56 
    -225     -463     -567     -475     -240       51      398      811 
    1225     1580     1857     2023     2050     1973     1852     1730 
    1645     1630     1691     1800     1896     1917     1854     1775 
    1715     1671     1641     1617     1595     1630     1729     1821 
    1868     1921     1989     2034     2095     2216     2378     2543 
    2670     2737     2683     2440     2054     1602     1140      754 
     511      417      413      449      540      648      669      592 
     492      405      346      406      627      992     1463     1991 
    2515     2970     3298     3519     3630     3588     3446     3279 
    3065     2767     2416     2045     1593     1016      369     -288 
    -873    -1260    -1363    -1186     -815     -341      136      487 
     672      747      720      592      457      388      415      525 
     665      810      931      981      977      976      999     1108 
    1397     1876     2524     3307     4086     4698     5055     5103 
    4839     4328     3697     3098     2574     2124     1771     1509 
    1297     1101      900      646      345       58     -233     -546 
    -796     -951    -1023     -959     -735     -383       13      341 
     562      661      583      363       97     -178     -410     -495 
    -364      -18      483     1078     1709     2263     2647     2879 
    3040     3160     3269     3456     3762     4099     4387     4621 
    4729     4588     4222     3720     3068     2284     1525      850 
     198     -369     -772    -1048    -1246    -1316    -1179     -843 
    -367      268     1017     1702     2241     2628     2810     2787 
    2608     2304     1911     1487     1065      660      313       25 
    -237     -484     -673     -715     -585     -361      -58      315 
     703     1090     1480     1836     2120     2346     2540     2670 
    2702     2689     2650     2520     2263     1922     1541     1147 
     792      540      415      452      648      935     1256     1576 
    1865     2124     2327     2425     2448     2457     2473     2511 
    2567     2633     2695     2701     2610     2408     2089     1694 
    1262      820      446      183        8      -79      -70       12 
     125      244      367      453      491      538      585      604 
     661      783      905      993     1075     1162     1209     1237 
    1314     1424     1526     1667     1884     2145     2412     2701 
    3024     3288     3400     3411     3360     3219     3034     2844 
    2629     2357     1998     1575     1142      749      463      319 
     353      527      733      913     1094     1283     1425     1499 
    1571     1624     1590     1513     1425     1274     1047      795 
     542      268       12     -135     -184     -155       27      344 
     683     1027     1386     1680     1884     2057     2207     2322 
    2413     2489     2558     2635     2689     2677     2593     2436 
    2199     1894     1553     1201      853      565      410      351 
     351      433      540      581      556      459      288      132 
      68       79      170      364      616      884     1161     1405 
    1602     1755     1854     1922     1952     1927     1926     2015 
    2139     2223     2262     2274     2216     2043     1798     1526 
    1231      972      814      745      768      886     1040     1197 
    1340     1466     1559     1568     1530     1497     1443     1379 
    1370     1416     1456     1435     1383     1341     1274     1192 
    1134     1102     1112     1146     1209     1324     1460     1578 
    1690     1791     1845     1845     1792     1702     1588     1449 
    1297     1150     1004      866      770      739      774      874 
    1026     1208     1409     1583     1694     1764     1814     1837 
    1834     1821     1809     1799     1802     1814     1804     1771 
    1722     1609     1441     1312     1220     1113     1042     1051 
    1098     1138     1161     1177     1181     1121     1012      918 
     818      716      669      680      727      792      861      945 
    1020     1032     1023     1075     1161     1247     1397     1621 
    1827     1972     2084     2154     2128     2007     1850     1692 
    1545     1431     1362     1356     1420     1529     1657     1814 
    1985     2122     2222     2311     2384     2446     2511     2570 
    2610     2602     2523     2370     2124     1798     1466     1185 
     951      778      718      781      926     1115     1317     1476 
    1555     1563     1528     1429     1270     1136     1063     1019 
    1001     1020     1074     1129     1129     1086     1042      966 
     838      747      753      777      787      828      909      962 
     938      872      783      634      423      198       -1     -170 
    -322     -423     -417     -306     -122      144      481      818 
    1131     1436     1710     1927     2099     2251     2385     2452 
    2443     2403     2326     2170     1998     1894     1849     1846 
    1929     2103     2334     2589     2837     3022     3113     3114 
    3017     2817     2562     2322     2080     1806     1532     1279 
    1027      746      429      155      -41     -230     -368     -372 
    -299     -211      -54      197      473      741     1016     1266 
    1451     1609     1796     1983     2130     2312     2544     2697 
    2736     2729     2627     2349     1962     1590     1229      847 
     521      322      205      152      189      280      422      635 
     926     1271     1615     1981     2415     2840     3194     3487 
    3713     3829     3796     3643     3400     3049     2620     2181 
    1755     1350      994      693      438      240      110       22 
     -32      -32        6       52       83      102       98       31 
     -85     -182     -251     -280     -249     -166        1      272 
     603      985     1417     1825     2158     2442     2682     2843 
    2903     2870     2758     2573     2326     2056     1782     1512 
    1290     1121      984      899      876      915      966     1007 
    1097     1219     1312     1431     1595     1729     1807     1873 
    1917     1892     1817     1715     1572     1391     1210     1054 
     920      804      722      696      733      828      986     1205 
    1428     1607     1753     1877     1949     1956     1918     1848 
    1749     1628     1502     1413     1354     1314     1328     1394 
    1456     1495     1553     1638     1707     1761     1815     1850 
    1865     1860     1825     1780     1717     1613     1482     1333 
    1179     1050      934      839      797      780      757      761 
     800      859      939     1040     1146     1240     1318     1383 
