Origin Time       2025/03/29 04:45:00
Lat.              31.090
Long.             131.512
Depth. (km)       33
Mag.              4.6
Station Code      KGS008
Station Lat.      31.7638
Station Long.     130.5659
Station Height(m) 11
Record Time       2025/03/29 04:45:51
Sampling Freq(Hz) 100Hz
Duration Time(s)  60
Dir.              U-D
Scale Factor      7845(gal)/8223790
Max. Acc. (gal)   0.664
Last Correction   2025/03/29 04:45:52
Memo.             
[...]
    8212     8185     8144     8093     8040     8005     8005     8028 
    8052     8062     8058     8035     7994     7956     7938     7928 
    7913     7898     7882     7867     7869     7884     7881     7852 
    7811     7777     7781     7842     7936     8019     8066     8091 
    8121     8167     8213     8225     8203     8182     8178     8190 
    8199     8198     8195     8205     8224     8237     8235     8221 
    8217     8244     8293     8328     8330     8294     8229     8159 
    8104     8081     8094     8117     8139     8152     8162     8176 
    8195     8209     8205     8179     8148     8143     8170     8203 
    8214     8190     8145     8112     8094     8078     8056     8036 
    8027     8027     8029     8027     8028     8043     8077     8122 
    8155     8154     8124     8091     8083     8105     8136     8160 
    8181     8209     8243     8271     8282     8266     8218     8156 
    8091     8029     7969     7913     7884     7889     7916     7947 
    7971     7989     8019     8060     8106     8147     8166     8160 
    8163     8186     8213     8229     8230     8222     8218     8209 
    8195     8199     8202     8172     8114     8063     8041     8058 
    8100     8135     8144     8120     8071     8021     7997     7994 
    7986     7958     7925     7912     7921     7944     7975     8002 
    8025     8066     8141     8243     8336     8379     8370     8338 
    8322     8328     8328     8303     8253     8190     8143     8118 
    8109     8106     8109     8110     8108     8098     8094     8101 
    8109     8117     8118     8120     8127     8131     8125     8117 
    8117     8132     8152     8175     8193     8187     8160     8128 
    8104     8087     8071     8046     8017     8000     7996     7997 
    8001     8002     7996     7989     7987     7993     8012     8040 
    8070     8089     8110     8136     8151     8147     8136     8129 
    8135     8147     8164     8186     8199     8195     8176     8149 
    8122     8106     8095     8090     8089     8097     8116     8140 
    8164     8191     8217     8233     8232     8213     8182     8148 
    8128     8110     8082     8047     8036     8060     8100     8127 
    8133     8124     8113     8112     8120     8122     8109     8086 
    8066     8056     8067     8108     8162     8201     8216     8218 
    8218     8221     8225     8222     8208     8179     8149     8135 
    8148     8176     8195     8187     8162     8141     8135     8133 
    8135     8135     8128     8118     8118     8127     8133     8131 
    8112     8078     8037     8000     7977     7963     7940     7905 
    7873     7861     7867     7874     7874     7871     7882     7924 
    7990     8067     8139     8187     8208     8216     8229     8255 
    8297     8345     8384     8406     8414     8417     8406     8378 
    8330     8266     8203     8156     8122     8094     8046     7969 
    7882     7812     7778     7774     7792     7823     7867     7933 
    8014     8100     8168     8202     8201     8186     8181     8191 
    8218     8247     8260     8253     8247     8247     8244     8229 
    8206     8182     8166     8166     8174     8183     8195     8203 
    8202     8187     8162     8143     8128     8112     8102     8104 
    8106     8110     8113     8118     8136     8162     8185     8197 
    8195     8178     8148     8116     8090     8083     8089     8085 
    8055     8002     7954     7935     7942     7956     7960     7962 
    7990     8048     8121     8187     8221     8220     8208     8202 
    8201     8191     8175     8158     8140     8125     8105     8082 
    8068     8078     8105     8131     8140     8145     8154     8162 
    8154     8116     8054     8002     7992     8016     8055     8093 
    8122     8148     8170     8176     8163     8137     8112     8094 
    8093     8098     8110     8127     8131     8122     8110     8110 
    8135     8171     8205     8237     8270     8293     8294     8279 
    8262     8247     8230     8202     8156     8101     8051     8013 
    7989     7973     7958     7939     7929     7933     7948     7979 
    8028     8081     8127     8149     8148     8136     8131     8135 
    8147     8159     8166     8163     8149     8116     8074     8043 
    8024     8014     8016     8027     8048     8081     8124     8166 
    8191     8209     8222     8233     8240     8237     8224     8202 
    8171     8133     8097     8073     8067     8079     8095     8104 
    8104     8104     8104     8109     8124     8140     8137     8118 
    8094     8067     8040     8025     8027     8037     8055     8081 
    8106     8125     8149     8182     8210     8229     8233     8220 
    8202     8185     8162     8127     8075     8012     7940     7878 
    7854     7866     7898     7958     8044     8128     8179     8209 
    8228     8233     8230     8230     8217     8195     8187     8182 
    8166     8152     8159     8176     8189     8189     8181     8163 
    8140     8124     8109     8100     8108     8139     8171     8186 
    8182     8159     8125     8095     8082     8079     8074     8064 
    8050     8040     8039     8037     8024     8000     7967     7942 
    7939     7960     7992     8021     8055     8093     8135     8181 
    8229     8268     8291     8303     8310     8314     8305     8275 
    8229     8168     8100     8051     8037     8039     8046     8060 
    8079     8094     8105     8112     8106     8090     8081     8082 
    8094     8125     8168     8214     8260     8286     8278     8253 
    8233     8218     8205     8190     8175     8167     8164     8156 
    8151     8159     8172     8191     8203     8205     8201     8201 
    8203     8197     8163     8117     8077     8046     8028     8012 
    7989     7967     7950     7931     7913     7909     7924     7955 
    7989     8021     8058     8091     8118     8139     8160     8185 
    8206     8220     8230     8245     8257     8259     8249     8226 
    8194     8156     8114     8066     8013     7963     7944     7970 
    8008     8041     8077     8118     8170     8228     8276     8309 
    8320     8306     8272     8217     8144     8059     7973     7896 
    7859     7870     7912     7970     8029     8077     8116     8152 
    8179     8194     8203     8193     8156     8105     8051     8010 
    7992     7983     7974     7966     7969     7981     8001     8039 
    8090     8133     8162     8175     8174     8160     8144     8127 
    8114     8118     8135     8152     8174     8203     8233     8268 
    8316     8360     8391     8410     8406     8384     8371     8367 
    8359     8340     8303     8257     8209     8156     8108     8060 
    8001     7940     7901     7879     7879     7900     7927     7947 
    7960     7975     8000     8024     8054     8077     8081     8089 
    8112     8127     8128     8122     8112     8098     8090     8095 
    8108     8120     8135     8155     8167     8172     8181     8186 
    8175     8154     8127     8090     8047     8024     8031     8062 
    8110     8152     8179     8195     8221     8267     8314     8332 
    8317     8290     8255     8221     8202     8193     8166     8116 
    8063     8027     8013     8012     8001     7978     7948     7919 
    7911     7925     7952     7987     8028     8077     8129     8171 
    8197     8222     8249     8264     8266     8255     8241     8226 
    8213     8209     8199     8167     8127     8083     8029     7985 
    7970     7977     7987     8013     8064     8128     8193     8251 
    8279     8267     8224     8168     8105     8032     7969     7928 
    7908     7901     7904     7911     7927     7967     8021     8064 
    8082     8071     8047     8013     7975     7950     7940     7942 
    7959     7993     8035     8074     8102     8110     8105     8100 
    8089     8070     8055     8036     8004     7950     7879     7825 
    7801     7797     7808     7832     7869     7929     8019     8122 
    8221     8302     8374     8449     8515     8556     8573     8571 
    8557     8548     8538     8509     8461     8403     8329     8236 
    8140     8056     7983     7925     7904     7921     7969     8040 
    8129     8214     8284     8345     8395     8421     8422     8414 
    8401     8387     8380     8382     8376     8345     8290     8224 
    8167     8127     8093     8063     8048     8043     8037     8031 
    8027     8031     8046     8058     8060     8055     8055     8066 
    8081     8081     8063     8043     8023     8002     7985     7967 
    7952     7947     7959     7990     8035     8089     8147     8197 
    8230     8248     8255     8253     8253     8251     8239     8218 
    8193     8162     8129     8095     8066     8041     8013     7982 
    7948     7911     7878     7857     7842     7830     7828     7842 
    7866     7898     7933     7966     7997     8027     8052     8068 
    8075     8073     8075     8093     8129     8178     8235     8289 
    8324     8334     8337     8333     8318     8301     8284     8263 
    8236     8209     8176     8135     8089     8032     7969     7923 
    7908     7925     7965     8016     8074     8125     8164     8193 
    8216     8221     8202     8170     8129     8090     8058     8028 
    8006     8005     8024     8052     8091     8141     8199     8251 
    8291     8332     8378     8414     8419     8399     8370     8332 
    8283     8230     8181     8136     8104     8082     8063     8043 
    8021     8000     7978     7962     7960     7969     7982     8001 
    8028     8070     8129     8195     8259     8311     8353     8382 
    8391     8380     8364     8348     8324     8289     8239     8162 
    8071     7996     7955     7938     7927     7929     7956     7997 
    8040     8081     8117     8144     8155     8144     8120     8091 
    8058     8025     8000     7978     7959     7955     7965     7977 
    7983     7986     7981     7971     7967     7967     7966     7979 
    8009     8047     8079     8105     8140     8185     8228     8267 
    8305     8330     8340     8326     8282     8206     8112     8023 
    7946     7878     7813     7771     7759     7769     7796     7838 
    7884     7933     7989     8040     8078     8116     8156     8202 
    8257     8311     8353     8386     8410     8432     8453     8465 
    8465     8451     8421     8387     8344     8297     8244     8174 
    8089     8016     7969     7950     7959     7989     8031     8073 
    8102     8128     8160     8190     8202     8209     8210     8205 
    8205     8222     8243     8256     8260     8253     8235     8201 
    8156     8105     8043     7979     7929     7898     7885     7892 
    7919     7960     8006     8040     8064     8079     8071     8046 
    8031     8031     8032     8025     8006     7985     7978     7989 
    8013     8047     8090     8136     8185     8230     8275     8332 
    8398     8465     8525     8554     8545     8505     8453     8415 
    8384     8347     8307     8283     8272     8262     8245     8228 
    8205     8170     8131     8098     8067     8040     8025     8017 
    8013     8023     8043     8058     8051     8004     7923     7830 
    7735     7645     7572     7527     7515     7535     7582     7650 
    7732     7811     7874     7935     8001     8068     8133     8186 
    8226     8262     8293     8317     8328     8329     8326     8317 
    8303     8287     8262     8233     8213     8195     8178     8168 
    8168     8178     8199     8226     8252     8287     8325     8338 
    8320     8286     8256     8230     8205     8171     8124     8068 
    8019     7978     7946     7915     7890     7879     7885     7908 
    7940     7956     7956     7955     7967     7997     8029     8040 
    8024     7996     7985     8002     8035     8058     8059     8050 
    8044     8055     8091     8152     8210     8237     8240     8237 
    8252     8297     8353     8391     8397     8378     8351     8330 
    8321     8316     8309     8302     8303     8317     8326     8325 
    8313     8301     8293     8291     8290     8284     8274     8263 
    8256     8249     8228     8189     8133     8074     8028     7997 
    7966     7932     7906     7893     7888     7894     7919     7940 
    7946     7943     7955     7978     8000     8013     8019     8013 
    7997     7979     7978     7987     7994     7990     7981     7981 
    7990     8004     8021     8046     8083     8132     8174     8208 
    8243     8272     8280     8270     8245     8214     8171     8127 
    8087     8058     8044     8052     8062     8062     8063     8068 
    8083     8110     8140     8166     8189     8212     8239     8274 
    8316     8355     8383     8391     8375     8340     8293     8241 
    8186     8112     8014     7928     7878     7855     7850     7871 
    7908     7943     7983     8047     8121     8172     8181     8155 
    8114     8070     8029     7987     7947     7916     7893     7870 
    7855     7858     7873     7877     7875     7889     7923     7970 
    8029     8100     8171     8230     8282     8330     8357     8352 
    8328     8298     8275     8268     8256     8218     8176     8160 
    8175     8210     8253     8287     8306     8326     8378     8456 
    8544     8622     8694     8753     8793     8815     8814     8779 
    8715     8619     8487     8330     8171     8025     7904     7805 
    7713     7639     7596     7592     7619     7665     7717     7770 
    7811     7840     7858     7859     7846     7830     7813     7792 
    7765     7738     7717     7704     7695     7690     7697     7720 
    7755     7807     7882     7979     8087     8202     8318     8430 
    8537     8622     8679     8714     8730     8718     8667     8581 
    8478     8367     8260     8160     8071     8013     7987     7978 
    7974     7975     7985     8005     8029     8040     8025     7992 
    7965     7958     7965     7969     7969     7970     7975     7997 
    8040     8086     8117     8144     8178     8199     8212     8222 
    8228     8225     8216     8203     8189     8174     8156     8141 
    8127     8109     8087     8074     8078     8087     8097     8106 
    8106     8100     8101     8112     8118     8118     8122     8129 
    8137     8160     8210     8262     8290     8301     8303     8290 
    8270     8255     8239     8205     8155     8110     8087     8082 
    8083     8098     8117     8127     8139     8167     8195     8212 
    8217     8218     8212     8189     8160     8145     8143     8139 
    8121     8093     8074     8070     8074     8083     8086     8075 
    8066     8071     8078     8077     8068     8059     8056     8047 
    8016     7978     7956     7950     7944     7942     7944     7956 
    7979     7997     8001     8012     8027     8029     8021     8016 
    8020     8041     8078     8110     8127     8141     8170     8206 
    8249     8287     8298     8297     8306     8317     8314     8302 
    8274     8233     8194     8143     8067     7982     7927     7923 
    7955     7993     8001     7975     7955     7975     8021     8055 
    8063     8055     8046     8050     8068     8094     8112     8117 
    8118     8122     8141     8163     8163     8147     8148     8182 
    8216     8220     8208     8191     8172     8159     8158     8148 
    8110     8054     8017     8033     8075     8090     8085     8097 
    8136     8185     8226     8251     8264     8264     8243     8217 
    8203     8194     8156     8087     8021     7992     7998     8014 
    8023     8020     8021     8060     8141     8229     8283     8290 
    8272     8259     8267     8278     8262     8209     8148     8104 
    8078     8056     8020     7990     7996     8021     8035     8033 
    8031     8048     8089     8127     8140     8152     8186     8224 
    8247     8259     8268     8282     8305     8333     8353     8363 
    8370     8363     8336     8303     8279     8257     8224     8178 
    8136     8097     8059     8023     7993     7966     7939     7925 
    7929     7932     7927     7920     7917     7925     7939     7954 
    7962     7954     7940     7933     7916     7897     7901     7919 
    7927     7923     7921     7935     7977     8035     8085     8112 
    8124     8135     8148     8156     8166     8182     8191     8186 
    8181     8202     8255     8324     8392     8444     8468     8484 
    8522     8588     8642     8641     8580     8488     8401     8340 
    8298     8244     8152     8032     7924     7861     7846     7848 
    7831     7796     7769     7774     7815     7867     7904     7929 
    7956     7987     8024     8052     8055     8028     8002     8001 
    8028     8058     8050     7996     7946     7943     7983     8017 
    8012     7983     7963     7970     8005     8054     8086     8087 
    8078     8101     8168     8236     8241     8190     8156     8197 
    8280     8321     8280     8217     8194     8229     8286     8305 
    8260     8190     8155     8171     8186     8155     8082     8009 
    7986     8027     8090     8120     8091     8048     8067     8163 
    8275     8330     8287     8175     8095     8116     8189     8217 
    8148     8028     7960     8000     8105     8199     8226     8198 
    8186     8232     8316     8380     8394     8378     8365     8355 
    8340     8329     8329     8329     8311     8270     8214     8175 
    8167     8170     8167     8158     8141     8117     8079     8047 
    8041     8055     8060     8039     7989     7929     7879     7843 
    7809     7755     7688     7646     7655     7689     7711     7712 
    7715     7753     7828     7917     8010     8095     8149     8163 
    8170     8216     8307     8409     8465     8448     8380     8314 
    8297     8317     8329     8309     8272     8244     8229     8224 
    8241     8267     8268     8253     8233     8197     8135     8058 
    7993     7955     7928     7894     7859     7824     7798     7807 
    7848     7894     7917     7925     7944     7990     8050     8098 
    8122     8121     8102     8097     8108     8112     8098     8087 
    8090     8105     8131     8170     8210     8243     8256     8256 
    8257     8278     8301     8291     8249     8212     8210     8236 
    8262     8274     8278     8284     8289     8275     8251     8243 
    8253     8259     8245     8233     8243     8251     8230     8190 
    8160     8133     8101     8064     8037     8013     7974     7917 
    7861     7821     7809     7813     7815     7820     7839     7867 
    7911     7982     8056     8109     8155     8213     8274     8317 
    8338     8359     8388     8419     8438     8438     8428     8421 
    8429     8438     8415     8363     8309     8263     8230     8208 
    8167     8101     8029     7979     7962     7959     7935     7882 
    7843     7854     7894     7924     7923     7894     7877     7917 
    8005     8081     8102     8086     8067     8073     8094     8110 
    8108     8087     8056     8025     8009     8013     8037     8058 
