Origin Time       2025/03/29 04:45:00
Lat.              31.090
Long.             131.512
Depth. (km)       33
Mag.              4.6
Station Code      KGS019
Station Lat.      31.2776
Station Long.     130.3008
Station Height(m) 10
Record Time       2025/03/29 04:45:50
Sampling Freq(Hz) 100Hz
Duration Time(s)  60
Dir.              U-D
Scale Factor      3920(gal)/6182761
Max. Acc. (gal)   0.310
Last Correction   2025/03/29 04:45:50
Memo.             
     866      930     1052     1080      967      834      827      947 
    1070     1082      980      868      875     1041     1235     1253 
    1043      748      565      600      809     1016     1043      899 
     766      808     1017     1232     1295     1179      986      847 
     823      884      949      937      841      766      833     1022 
    1182     1211     1134     1033      966      960     1013     1062 
    1020      863      664      555      615      792      951     1004 
     973      933      927      940      904      802      718      733 
     847     1005     1102     1066      956      905      979     1114 
    1192     1163     1081     1024     1018     1052     1094     1074 
     918      674      531      626      895     1131     1176     1048 
     879      781      816      964     1093     1080      945      814 
     780      845      963     1053     1028      893      764      753 
     892     1101     1213     1132      950      836      872     1020 
    1172     1213     1113      963      869      865      942     1039 
    1042      937      866      917     1004     1019      937      804 
     720      779      949     1083     1063      884      662      576 
     726     1001     1181     1169     1007      786      663      765 
    1026     1229     1235     1088      937      886      933     1001 
    1010      929      800      706      727      869     1046     1156 
    1157     1074      954      843      788      806      844      851 
     831      820      835      878      929      947      918      869 
     835      863      984     1132     1187     1120     1000      888 
     833      891     1025     1120     1122     1057      962      902 
     941     1025     1039      974      897      842      823      870 
     975     1052     1018      906      841      898     1036     1132 
    1096      957      811      728      740      834      939      979 
     957      928      928      979     1070     1135     1104      973 
     818      735      773      907     1052     1107     1028      883 
     793      822      939     1079     1173     1152     1018      874 
     822      868      937      952      885      776      707      728 
     834      977     1079     1096     1046      989      984     1027 
    1061     1020      893      771      766      892     1044     1105 
    1045      934      864      894     1025     1171     1208     1077 
     838      634      592      727      928     1048     1031      940 
     873      884      964     1038     1014      877      732      710 
     820      954     1007      943      831      792      886     1055 
    1169     1144     1012      899      913     1035     1156     1190 
    1136     1064     1042     1074     1107     1079      977      828 
     679      598      638      764      887      947      943      926 
     953     1019     1072     1079     1029      942      868      855 
     883      886      850      831      873      962     1059     1136 
    1159     1097      978      892      899      969     1026     1017 
     950      878      858      902      958      966      912      837 
     813      872      963     1014      996      931      875      878 
     937     1008     1040     1002      921      856      847      884 
     936      980      994      960      898      854      866      943 
    1053     1123     1105     1006      865      758      762      871 
     988     1020      966      892      861      887      936      964 
     935      838      728      712      847     1059     1197     1191 
    1101     1031     1033     1078     1103     1062      963      873 
     875      968     1054     1049      963      868      827      858 
     918      939      896      824      773      774      827      909 
     973      983      948      902      880      903      960     1007 
    1006      963      914      906      967     1072     1156     1159 
    1090     1009      938      853      748      647      580      576 
     634      710      779      864      992     1155     1318     1432 
    1412     1223      968      785      719      734      767      776 
     756      747      812      962     1126     1220     1207     1110 
    1002      954      980     1034     1056     1032      974      913 
     884      892      918      937      944      956      979      994 
     993      985      983      995      998      963      899      836 
     800      808      873      967     1019      993      943      930 
     955     1001     1053     1067     1018      944      895      873 
     863      856      852      858      877      896      904      909 
     939      991     1013      963      872      816      849      947 
    1026     1018      925      824      807      897     1016     1071 
    1054     1019     1001     1010     1049     1101     1110     1041 
     916      798      757      798      860      903      922      913 
     899      908      940      996     1064     1095     1050      942 
     843      833      939     1081     1142     1096     1002      930 
     932     1018     1111     1087      926      747      670      710 
     807      884      905      907      945     1036     1145     1202 
    1158     1022      874      804      825      863      853      816 
     810      862      955     1035     1053     1027     1016     1046 
    1084     1071      983      853      748      743      842      944 
     955      889      829      836      898      970     1011     1004 
     957      900      882      924      968      955      913      901 
     929      965      975      960      939      936      960      984 
     975      927      871      863      933     1041     1107     1080 
    1000      944      949      978      983      944      874      809 
     803      878      992     1072     1072     1013      965      971 
    1009     1015      953      851      779      785      870      975 
    1014      961      886      861      903     1004     1117     1151 
    1076      947      836      809      879      974     1025     1026 
    1003      965      922      890      876      857      825      816 
     843      880      906      920      912      880      846      852 
     909      979     1018     1022     1018     1020     1002      958 
     925      911      910      933      972      992      978      954 
     943      955      984     1011     1015      981      922      875 
     870      905      938      945      940      954      992     1037 
    1065     1070     1045      997      963      975     1008     1008 
     962      889      809      754      769      837      889      887 
     857      850      883      934      963      963      945      921 
     908      914      923      918      900      897      925      967 
     994      990      981      993      996      960      913      889 
     893      922      984     1051     1068     1016      943      911 
     956     1048     1109     1097     1037      990      990     1022 
    1056     1059     1010      928      868      867      899      906 
     863      801      777      821      906      974      977      920 
     867      863      899      946      977      968      926      894 
     912      963     1003     1017     1012      997      988      978 
     964      956      951      934      911      897      900      912 
     921      927      935      940      940      942      948      956 
     975     1004     1026     1029     1012      987      969      967 
     987     1012     1005      966      934      925      926      917 
     887      859      854      854      835      811      794      780 
     771      777      816      887      962     1020     1057     1071 
    1060     1029      993      974      976      981      967      944 
     939      961      999     1030     1034     1015      981      935 
     888      869      888      918      932      930      915      906 
     925      969      995      979      942      916      905      910 
     931      956      977     1010     1059     1084     1046      959 
     870      811      801      840      887      897      871      850 
     860      894      933      947      917      874      873      929 
    1009     1064     1065     1027      994     1007     1051     1086 
    1075     1000      892      821      832      891      920      891 
     849      842      888      971     1041     1051      998      925 
     888      915      988     1056     1067     1023      989      992 
     998      998      982      935      887      876      900      931 
     948      948      940      946      972      989      985      976 
     969      961      949      936      916      888      882      928 
     995     1039     1051     1037      993      925      864      830 
     813      798      780      765      777      832      900      952 
     987     1009     1015     1004      994      993      986      968 
     944      931      941      956      955      952      968      977 
     942      885      857      851      832      812      827      876 
     922      952      961      947      940      980     1046     1083 
    1079     1054     1021      996     1003     1041     1077     1073 
    1027      978      966      986     1008     1014     1001      964 
     909      870      879      915      921      879      834      813 
     815      852      909      928      888      837      834      884 
     953      998      995      949      908      918      964     1008 
    1023      996      938      887      877      923      983      994 
     955      914      897      913      958      997      998      976 
     970      990     1008     1005      984      952      930      942 
     974      981      953      913      878      856      873      922 
     956      952      930      905      883      889      939     1008 
    1040     1026      999      978      961      956      960      953 
     934      918      920      939      956      964      971      982 
     992      997      993      976      947      923      910      897 
     874      849      837      833      824      831      874      935 
     978      996     1003     1001      986      982     1008     1033 
    1028     1001      964      931      922      945      969      958 
     935      928      923      913      904      890      869      849 
     836      839      866      910      948      967      970      964 
     960      956      950      943      932      921      917      921 
     928      934      940      959      993     1012     1007     1007 
    1025     1044     1049     1028      977      918      869      841 
     845      868      881      883      900      957     1038     1083 
    1069     1032     1007     1012     1045     1073     1052      969 
     874      834      862      916      945      930      893      874 
     904      958      981      949      887      838      836      884 
     939      949      913      886      901      951     1005     1030 
    1012      973      947      941      938      931      920      906 
     906      937      982     1000      976      931      901      899 
     914      939      954      935      905      908      943      961 
     937      906      913      956     1001     1012      982      944 
     939      978     1028     1055     1046     1002      951      937 
     967      991      967      913      863      839      858      905 
     932      922      892      863      873      936      989      966 
     900      861      857      857      860      868      854      823 
     834      912     1006     1058     1047     1000      967      977 
    1009     1019      987      931      890      884      922     1002 
    1071     1086     1061     1028     1001      985      971      945 
     900      858      832      820      830      872      916      930 
     930      936      940      933      922      904      878      855 
     837      822      831      872      927      972     1003     1016 
     999      970      968      997     1010      973      906      847 
     826      856      912      940      920      889      899      962 
    1037     1073     1049      991      948      953      993     1022 
    1006      951      895      879      906      939      952      939 
     911      887      890      914      937      948      950      953 
     970     1003     1031     1036     1013      977      951      940 
     931      914      907      939      998     1050     1072     1071 
    1061     1053     1049     1047     1034     1001      955      925 
     937      978     1002      985      950      930      943      971 
     979      949      890      833      813      822      844      851 
     816      766      748      788      870      946      981      975 
     959      971     1013     1054     1063     1043     1017      998 
    1000     1023     1038     1019      977      941      929      938 
     952      946      909      852      796      769      784      823 
     852      850      820      800      813      851      894      919 
     919      914      916      927      960     1019     1081     1124 
    1144     1144     1137     1132     1107     1052      996      961 
     948      962      995     1018     1011      998     1002     1018 
    1032     1045     1066     1093     1113     1123     1121     1121 
    1135     1143     1124     1078     1014      935      854      786 
     743      720      698      680      691      747      837      919 
     970      987      979      956      927      902      870      807 
     741      730      771      819      857      888      902      908 
     948     1031     1106     1135     1125     1101     1069     1024 
     977      934      883      834      805      805      830      861 
     883      923      999     1069     1095     1084     1057     1035 
    1021     1007      994      981      960      938      933      942 
     945      922      867      803      767      772      799      830 
     864      898      923      943      967      984      971      922 
     868      850      882      935      955      933      907      910 
     946      992     1024     1033     1036     1050     1074     1095 
    1107     1096     1045      971      904      846      787      732 
     707      726      771      826      885      937      973      987 
     974      949      931      923      936      979     1023     1032 
    1003      960      929      908      881      856      841      845 
     889      965     1036     1073     1072     1058     1065     1103 
    1158     1196     1189     1142     1077     1037     1042     1061 
    1050      998      923      849      799      772      756      736 
     712      699      713      752      801      854      906      935 
     942      946      946      939      943      959      954      905 
     833      773      740      741      770      799      822      850 
     886      940     1018     1089     1109     1076     1033     1020 
    1050     1102     1148     1163     1154     1142     1145     1151 
    1130     1063      976      901      854      845      860      875 
     893      923      961      995     1009      986      937      879 
     813      741      686      664      681      730      805      905 
    1004     1066     1080     1060     1038     1033     1032     1018 
     998      988      983      974      955      925      893      876 
     884      902      901      868      809      750      729      752 
     780      792      809      840      877      920      959      982 
     981      953      915      891      886      898      939      993 
    1033     1050     1060     1077     1097     1100     1082     1057 
    1041     1038     1047     1064     1087     1106     1112     1112 
    1098     1054     1000      963      945      930      897      855 
     827      817      827      856      895      927      935      944 
     973     1002     1013      995      934      850      796      797 
     846      915      972      999      996      987      990      997 
     992      967      920      871      852      860      857      826 
     784      761      768      812      902     1015     1106     1161 
    1181     1172     1149     1120     1081     1030      959      866 
     782      751      781      830      859      860      847      847 
     888      964     1036     1059     1024      962      927      945 
     989     1017     1022     1023     1032     1058     1089     1096 
    1065     1010      960      933      922      930      949      951 
     925      899      917      977     1025     1027     1003      979 
     969      980      992      968      905      829      768      749 
     775      817      838      832      820      841      906     1001 
    1087     1130     1124     1089     1051     1038     1045     1033 
     996      951      912      900      925      973     1008      999 
     956      905      853      811      787      765      726      684 
     665      680      718      760      797      828      853      876 
     906      959     1035     1103     1146     1170     1188     1204 
    1215     1214     1199     1176     1141     1090     1035      987 
     938      885      833      791      756      729      730      770 
     828      871      888      888      886      902      934      959 
     970      974      972      955      933      933      965     1015 
    1061     1094     1098     1068     1018      973      947      935 
     909      862      818      799      807      837      862      863 
     845      826      825      846      877      905      922      929 
     928      926      931      947      970      985      979      965 
     961      965      974      976      954      913      883      885 
     913      958     1008     1040     1034     1001      968      953 
     962      992     1017     1019     1003      976      947      927 
     919      913      902      892      899      925      963     1002 
    1032     1047     1060     1073     1072     1054     1022      977 
     920      868      845      855      875      894      921      962 
    1014     1064     1093     1096     1072     1036     1008      997 
     999     1003      987      948      917      909      897      862 
     827      812      815      835      876      923      951      962 
     970      977      976      961      935      911      901      908 
     929      955      981     1009     1031     1043     1051     1054 
    1046     1013      968      936      918      904      892      879 
     873      892      925      945      949      942      930      922 
     922      929      942      951      947      946      948      934 
     908      882      864      864      875      883      892      903 
     908      909      907      901      897      901      911      924 
     941      962      979      990     1007     1031     1040     1023 
     990      965      965      985     1000      991      956      911 
     875      861      863      874      887      891      887      899 
