Origin Time       2025/03/29 04:45:00
Lat.              31.090
Long.             131.512
Depth. (km)       33
Mag.              4.6
Station Code      KGS013
Station Lat.      31.5973
Station Long.     130.9938
Station Height(m) 118
Record Time       2025/03/29 04:45:30
Sampling Freq(Hz) 100Hz
Duration Time(s)  66
Dir.              E-W
Scale Factor      3920(gal)/6182761
Max. Acc. (gal)   3.273
Last Correction   2025/03/29 04:45:30
Memo.             
[...]
    3425     3420     3419     3419     3418     3418     3420     3424 
    3423     3419     3420     3423     3425     3430     3426     3418 
    3420     3421     3417     3420     3424     3418     3416     3429 
    3436     3430     3426     3420     3410     3407     3417     3426 
    3429     3428     3420     3414     3420     3427     3427     3424 
    3421     3421     3415     3413     3425     3432     3422     3413 
    3413     3421     3432     3435     3427     3417     3414     3417 
    3416     3416     3421     3423     3423     3424     3424     3423 
    3422     3423     3425     3424     3420     3417     3413     3416 
    3422     3421     3423     3430     3424     3416     3421     3424 
    3422     3422     3419     3415     3415     3420     3428     3427 
    3426     3440     3457     3462     3457     3443     3423     3401 
    3372     3331     3291     3285     3324     3402     3514     3627 
    3690     3676     3594     3459     3311     3201     3150     3160 
    3232     3354     3493     3598     3632     3602     3524     3440 
    3408     3450     3526     3562     3498     3337     3135     2984 
    2968     3109     3374     3684     3917     3990     3872     3590 
    3239     2958     2872     3057     3481     3963     4233     4100 
    3596     2967     2530     2485     2825     3366     3852     4093 
    4029     3719     3327     3083     3141     3482     3917     4202 
    4176     3799     3196     2664     2462     2614     2915     3118 
    3157     3191     3391     3752     4100     4262     4210     4031 
    3779     3474     3163     2905     2759     2796     3009     3241 
    3356     3399     3471     3593     3725     3794     3771     3703 
    3610     3498     3433     3442     3446     3305     2975     2654 
    2611     2891     3305     3595     3616     3442     3326     3538 
    4103     4623     4541     3744     2744     2275     2707     3748 
    4602     4569     3681     2658     2154     2230     2512     2725 
    3002     3580     4398     5124     5404     5021     4003     2729 
    1800     1588     1922     2324     2534     2758     3323     4243 
    5191     5716     5511     4635     3511     2658     2335     2386 
    2477     2465     2506     2778     3218     3598     3758     3798 
    3897     4079     4299     4522     4630     4450     3892     3086 
    2373     2051     2130     2411     2688     2879     3008     3076 
    3058     3057     3314     3962     4841     5563     5813     5548 
    4844     3770     2479     1256      432      186      533     1450 
    2831     4387     5686     6341     6275     5716     4958     4220 
    3609     3120     2709     2352     2060     1900     1914     2075 
    2306     2487     2564     2682     3097     3941     5077     6126 
    6672     6472     5571     4255     2848     1602      722      348 
     515     1169     2170     3448     4854     5718     5497     4704 
    4112     3930     4073     4306     4354     4010     3262     2389 
    1637     1233     1424     2107     2948     3675     4128     4402 
    4670     4853     4749     4269     3495     2706     2221     2219 
    2724     3471     4003     4099     3839     3438     3148     3034 
    3017     3043     3009     2887     2862     3169     3878     4760 
    5426     5566     5017     3818     2267      920      347      764 
    2010     3632     5002     5671     5560     4849     3894     3102 
    2630     2403     2411     2709     3206     3649     3810     3686 
    3513     3500     3625     3748     3760     3577     3184     2751 
    2563     2784     3312     3824     4064     4054     3912     3653 
    3328     3127     3189     3480     3864     4163     4159     3708 
    2905     2113     1791     2157     3005     3847     4268     4202 
    3887     3608     3515     3571     3670     3789     3923     3979 
    3870     3590     3213     2862     2600     2397     2257     2256 
    2445     2815     3375     4095     4832     5403     5660     5498 
    4904     4005     3021     2143     1471     1043      927     1216 
    1948     3006     4082     4807     5027     4918     4783     4791 
    4844     4731     4367     3848     3334     2857     2259     1465 
     738      539     1083     2187     3484     4631     5426     5824 
    5841     5501     4858     4029     3200     2605     2402     2522 
    2742     2887     2897     2778     2600     2472     2465     2608 
    2900     3311     3837     4484     5215     5885     6205     5866 
    4789     3242     1693      572       74      168      781     1845 
    3198     4588     5712     6325     6376     6012     5432     4760 
    4032     3266     2482     1730     1108      742      722     1053 
    1718     2692     3883     5108     6102     6596     6477     5795 
    4691     3428     2331     1599     1256     1254     1519     1961 
    2492     3028     3503     3891     4170     4308     4317     4299 
    4396     4652     4946     5034     4675     3820     2696     1650 
     927      601      695     1249     2200     3366     4536     5500 
    6094     6264     6028     5438     4574     3532     2414     1388 
     696      544      950     1739     2679     3605     4424     5053 
    5403     5439     5250     5008     4790     4520     4079     3410 
    2566     1688      986      713     1029     1880     3012     4092 
    4894     5358     5479     5281     4842     4237     3523     2819 
    2290     2053     2088     2257     2435     2593     2750     2949 
    3231     3610     4062     4498     4809     4950     4914     4650 
    4138     3447     2720     2139     1838     1838     2085     2503 
    3041     3673     4328     4858     5081     4888     4311     3495 
    2639     1938     1555     1590     2043     2819     3734     4538 
    5016     5076     4769     4250     3684     3175     2785     2524 
    2372     2357     2547     2977     3571     4128     4467     4537 
    4387     4112     3827     3621     3495     3363     3146     2879 
    2670     2582     2598     2671     2786     2960     3190     3427 
    3618     3760     3882     3996     4098     4175     4185     4108 
    3956     3763     3573     3410     3269     3107     2871     2588 
    2363     2289     2429     2798     3344     3972     4532     4863 
    4910     4725     4371     3900     3400     2982     2680     2441 
    2209     1990     1866     1957     2311     2880     3541     4173 
    4739     5202     5476     5454     5075     4418     3659     2943 
    2351     1950     1789     1863     2115     2477     2889     3294 
    3642     3921     4153     4365     4547     4653     4644     4493 
    4187     3749     3215     2628     2066     1634     1427     1512 
    1896     2502     3209     3902     4549     5168     5669     5898 
    5783     5319     4556     3602     2606     1756     1202      983 
    1076     1450     2058     2793     3526     4185     4748     5182 
    5382     5240     4763     4074     3391     2911     2649     2487 
    2299     2048     1826     1781     2022     2563     3314     4144 
    4915     5476     5726     5633     5201     4530     3812     3196 
    2725     2358     2044     1831     1833     2103     2601     3219 
    3816     4300     4646     4813     4746     4436     3914     3263 
    2625     2137     1933     2097     2561     3134     3606     3848 
    3874     3779     3642     3513     3423     3408     3503     3696 
    3914     4045     4013     3839     3609     3373     3155     3000 
    2934     2942     3007     3132     3307     3486     3608     3634 
    3584     3523     3489     3507     3610     3766     3910     3993 
    3945     3756     3482     3169     2897     2781     2844     3009 
    3175     3271     3280     3246     3252     3344     3509     3699 
    3842     3884     3835     3731     3546     3242     2861     2493 
    2239     2175     2326     2665     3150     3723     4309     4793 
    5076     5118     4923     4545     4063     3545     3057     2639 
    2317     2135     2147     2376     2775     3222     3599     3871 
    4058     4179     4228     4177     4031     3847     3703     3623 
    3564     3483     3368     3193     2945     2641     2331     2097 
    2016     2111     2391     2881     3567     4357     5112     5675 
    5901     5713     5127     4232     3192     2198     1389      877 
     747      995     1544     2308     3210     4163     5051     5725 
    6060     6000     5576     4867     3975     3049     2241     1614 
    1198     1008     1025     1264     1771     2544     3525     4584 
    5520     6142     6336     6092     5502     4686     3746     2792 
    1964     1412     1232     1400     1812     2368     2989     3640 
    4314     4921     5287     5293     4950     4399     3841     3356 
    2909     2514     2231     2100     2146     2383     2780     3273 
    3791     4248     4520     4519     4265     3878     3499     3226 
    3099     3108     3184     3226     3174     3064     2984     2977 
    3011     3068     3154     3264     3358     3413     3470     3597 
    3798     4029     4232     4349     4335     4156     3842     3516 
    3288     3174     3099     2963     2725     2444     2237     2215 
    2407     2768     3246     3787     4323     4778     5069     5124 
    4888     4362     3644     2887     2227     1771     1555     1573 
    1817     2229     2691     3102     3424     3694     3964     4232 
    4461     4600     4572     4326     3897     3373     2834     2315 
    1860     1572     1561     1858     2401     3080     3805     4498 
    5039     5314     5298     5055     4679     4268     3937     3746 
    3648     3570     3470     3352     3275     3307     3479     3823 
    4350     4975     5513     5797     5767     5456     4929     4278 
    3625     3081     2701     2480     2369     2340     2441     2703 
    3069     3432     3673     3703     3507     3133     2677     2243 
    1928     1804     1883     2123     2450     2752     2911     2853 
    2607     2297     2034     1853     1732     1671     1758     2059 
    2531     3105     3734     4323     4755     4954     4894     4610 
    4199     3762     3390     3171     3153     3285     3479     3707 
    3996     4383     4868     5402     5877     6148     6108     5733 
    5090     4320     3573     2937     2441     2086     1842     1660 
    1524     1461     1489     1612     1840     2172     2600     3092 
    3569     3930     4109     4092     3888     3524     3051     2516 
    1996     1612     1448     1525     1824     2301     2916     3606 
    4276     4855     5285     5496     5476     5282     4976     4601 
    4167     3679     3183     2750     2415     2175     2046     2098 
    2364     2785     3258     3727     4187     4632     5046     5395 
    5620     5638     5351     4739     3877     2867     1810      830 
      78     -295     -220      284     1148     2280     3558     4821 
    5877     6568     6828     6676     6181     5436     4517     3480 
    2434     1534      885      541      552      954     1732     2802 
    4013     5187     6149     6724     6825     6470     5707     4626 
    3371     2125     1108      496      320      505      949     1601 
    2438     3417     4498     5638     6750     7699     8332     8499 
    8109     7184     5828     4200     2497      947     -225     -859 
    -870     -196     1132     2913     4839     6585     7862     8498 
    8458     7789     6584     5017     3304     1641      210     -839 
   -1438    -1594    -1339     -717      226     1419     2729     3984 
    5045     5831     6255     6205     5600     4473     3015     1495 
     182     -705    -1052     -823      -53     1102     2430     3761 
    4943     5830     6355     6524     6374     5954     5313     4533 
    3717     2924     2191     1599     1274     1302     1679     2358 
    3281     4373     5512     6507     7186     7462     7313     6737 
    5759     4484     3083     1749      669        8     -115      325 
    1233     2401     3572     4537     5189     5473     5347     4823 
    4033     3141     2226     1379      723      366      421      922 
    1799     2939     4148     5232     6053     6516     6597     6303 
    5656     4769     3788     2823     1989     1415     1173     1265 
    1649     2271     3077     3968     4794     5410     5692     5570 
    5154     4618     3994     3320     2719     2214     1822     1641 
    1742     2142     2781     3553     4345     5046     5482     5452 
    5120     4867     4485     3644     2724     2001     1321      737 
     443      538      933     1512     2294     3090     3734     4283 
    4609     4616     4439     4082     3548     2991     2501     2185 
    2192     2544     3209     4105     5068     5932     6483     6549 
    6184     5526     4696     3886     3297     3043     3162     3546 
    4018     4472     4761     4742     4432     3862     3092     2334 
    1771     1476     1463     1660     2020     2546     3130     3626 
    3955     4063     3976     3722     3271     2675     2036     1427 
     956      732      811     1221     1905     2725     3575     4362 
    4934     5209     5209     4960     4542     4033     3451     2845 
    2266     1720     1209      773      572      816     1579     2791 
    4310     5874     7216     8182     8584     8247     7199     5608 
    3741     1920      423     -493     -625       30     1311     2981 
    4716     6203     7178     7423     6935     5906     4543     3095 
    1788      736       67      -93      249     1049     2215     3534 
    4786     5828     6525     6755     6517     5894     4982     3916 
    2853     1933     1289     1013     1101     1461     1987     2602 
    3225     3747     4089     4217     4135     3912     3657     3455 
    3358     3389     3530     3721     3878     3944     3934     3860 
    3681     3371     2957     2498     2078     1794     1732     1965 
    2524     3353     4341     5350     6222     6819     6990     6623 
    5748     4448     2885     1356      127     -603     -678     -101 
    1010     2498     4121     5618     6797     7507     7637     7183 
    6280     5122     3873     2648     1551      698      199      116 
     427     1037     1837     2735     3625     4359     4832     5021 
    4942     4604     4012     3197     2235     1261      446      -68 
    -178      169      922     1961     3139     4285     5254     5947 
    6278     6225     5819     5116     4237     3368     2706     2410 
    2524     2976     3629     4327     4938     5353     5494     5339 
    4920     4335     3696     3094     2588     2235     2099     2197 
    2511     3014     3631     4279     4903     5415     5716     5718 
    5328     4525     3413     2165      992      121     -280     -153 
     450     1395     2507     3609     4564     5272     5659     5700 
    5444     4979     4385     3709     2995     2328     1799     1451 
    1285     1303     1528     1995     2708     3605     4573     5484 
    6196     6572     6525     6038     5170     4052     2851     1746 
     921      519      602     1130     1983     2989     3986     4860 
    5515     5884     5950     5690     5117     4310     3364     2407 
    1581      998      783     1043     1750     2741     3813     4786 
    5528     5946     5989     5665     5035     4222     3367     2580 
    1968     1633     1620     1913     2450     3127     3818     4385 
    4704     4729     4509     4135     3695     3261     2909     2691 
    2608     2615     2624     2564     2437     2272     2089     1902 
    1759     1731     1873     2204     2703     3312     3932     4454 
    4799     4949     4910     4678     4267     3722     3123     2577 
    2161     1922     1903     2130     2614     3330     4175     5011 
    5714     6182     6342     6171     5705     5025     4214     3345 
    2530     1898     1533     1477     1741     2280     2994     3759 
    4469     5032     5370     5413     5138     4595     3877     3089 
    2345     1729     1291     1056     1049     1319     1865     2603 
    3417     4177     4763     5101     5152     4920     4480     3929 
    3355     2864     2546     2436     2505     2711     3025     3396 
    3765     4105     4368     4491     4469     4318     4052     3724 
    3390     3081     2876     2857     3004     3252     3556     3867 
    4139     4342     4459     4466     4328     4031     3611     3145 
    2716     2377     2149     2049     2106     2317     2618     2905 
    3076     3067     2884     2600     2307     2095     2035     2163 
    2460     2869     3318     3739     4077     4315     4452     4476 
    4406     4281     4117     3948     3835     3808     3863     4003 
    4205     4435     4646     4774     4792     4689     4436     4056 
    3611     3159     2781     2536     2410     2385     2475     2658 
    2875     3065     3179     3182     3072     2878     2645     2442 
    2346     2393     2596     2947     3395     3852     4244     4529 
    4678     4672     4516     4218     3797     3278     2712     2186 
    1791     1575     1544     1693     2038     2595     3299     4018 
    4626     5039     5210     5125     4808     4325     3743     3145 
    2639     2300     2161     2207     2389     2693     3145     3734 
    4369     4908     5221     5250     5009     4557     3964     3306 
    2651     2077     1685     1551     1708     2115     2656     3211 
    3717     4126     4415     4593     4657     4595     4434     4233 
    4038     3884     3802     3788     3813     3843     3852     3843 
    3838     3870     3960     4107     4288     4466     4583     4582 
    4431     4159     3821     3478     3175     2897     2624     2375 
    2166     2021     1985     2076     2283     2593     2963     3317 
    3595     3765     3791     3637     3333     2958     2580     2261 
    2042     1933     1938     2059     2294     2642     3071     3498 
    3840     4060     4179     4208     4114     3866     3495     3087 
    2724     2448     2281     2229     2297     2506     2852     3278 
    3714     4092     4377     4585     4747     4863     4914     4895 
    4804     4639     4422     4182     3929     3653     3361     3075 
    2828     2672     2670     2864     3254     3776     4323     4776 
    5042     5083     4864     4371     3681     2903     2157     1573 
    1251     1254     1608     2267     3148     4115     4975     5565 
    5784     5597     5042     4203     3188     2143     1208      496 
     123      167      625     1437     2497     3645     4717     5594 
    6171     6359     6156     5628     4840     3888     2907     2033 
    1401     1094     1124     1464     2032     2719     3423     4029 
    4448     4665     4678     4493     4160     3727     3234     2742 
    2320     2037     1928     1973     2171     2542     3062     3686 
    4327     4859     5216     5392     5379     5172     4807     4342 
    3845     3386     3016     2755     2627     2660     2851     3176 
    3585     3976     4242     4337     4268     4062     3771     3459 
