Origin Time       2025/03/29 04:45:00
Lat.              31.090
Long.             131.512
Depth. (km)       33
Mag.              4.6
Station Code      KGS017
Station Lat.      31.3954
Station Long.     130.8702
Station Height(m) 64
Record Time       2025/03/29 04:45:36
Sampling Freq(Hz) 100Hz
Duration Time(s)  60
Dir.              E-W
Scale Factor      3920(gal)/6182761
Max. Acc. (gal)   19.857
Last Correction   2025/03/29 04:45:36
Memo.             
[...]
  -29319   -29315   -29310   -29313   -29320   -29323   -29320   -29323 
  -29326   -29311   -29289   -29307   -29348   -29339   -29307   -29313 
  -29330   -29321   -29311   -29327   -29337   -29316   -29312   -29323 
  -29324   -29323   -29316   -29309   -29312   -29324   -29339   -29330 
  -29303   -29313   -29334   -29305   -29293   -29333   -29333   -29309 
  -29320   -29326   -29319   -29336   -29353   -29326   -29300   -29329 
  -29330   -29279   -29293   -29337   -29326   -29320   -29328   -29315 
  -29306   -29316   -29335   -29314   -29299   -29348   -29345   -29286 
  -29311   -29357   -29326   -29308   -29326   -29309   -29312   -29338 
  -29330   -29314   -29308   -29313   -29319   -29324   -29324   -29317 
  -29335   -29350   -29336   -29330   -29308   -29281   -29321   -29346 
  -29299   -29309   -29347   -29320   -29316   -29330   -29310   -29324 
  -29350   -29321   -29295   -29308   -29316   -29306   -29300   -29324 
  -29351   -29346   -29325   -29303   -29308   -29329   -29326   -29321 
  -29318   -29316   -29324   -29314   -29311   -29330   -29334   -29328 
  -29332   -29325   -29314   -29325   -29324   -29307   -29322   -29339 
  -29305   -29295   -29343   -29349   -29313   -29310   -29317   -29301 
  -29304   -29330   -29335   -29340   -29341   -29300   -29284   -29315 
  -29331   -29322   -29300   -29316   -29358   -29339   -29310   -29327 
  -29329   -29316   -29313   -29310   -29309   -29325   -29346   -29317 
  -29281   -29308   -29338   -29326   -29325   -29337   -29322   -29316 
  -29333   -29331   -29317   -29311   -29305   -29309   -29305   -29301 
  -29325   -29337   -29328   -29324   -29317   -29320   -29313   -29299 
  -29325   -29350   -29325   -29303   -29328   -29337   -29316   -29326 
  -29326   -29285   -29296   -29352   -29344   -29307   -29317   -29317 
  -29290   -29309   -29349   -29346   -29327   -29327   -29329   -29303 
  -29279   -29290   -29309   -29340   -29370   -29341   -29295   -29304 
  -29323   -29310   -29307   -29323   -29322   -29325   -29336   -29332 
  -29321   -29318   -29326   -29331   -29311   -29302   -29326   -29319 
  -29304   -29328   -29324   -29304   -29323   -29335   -29318   -29297 
  -29295   -29326   -29363   -29359   -29319   -29295   -29308   -29312 
  -29301   -29311   -29326   -29323   -29325   -29334   -29323   -29313 
  -29313   -29311   -29332   -29346   -29331   -29324   -29313   -29302 
  -29316   -29326   -29307   -29299   -29327   -29326   -29313   -29331 
  -29325   -29308   -29326   -29338   -29324   -29316   -29315   -29304 
  -29309   -29332   -29330   -29312   -29322   -29344   -29324   -29300 
  -29316   -29313   -29300   -29336   -29352   -29315   -29314   -29344 
  -29314   -29278   -29315   -29342   -29325   -29328   -29331   -29304 
  -29301   -29329   -29320   -29303   -29326   -29338   -29323   -29320 
  -29332   -29321   -29295   -29322   -29354   -29323   -29304   -29321 
  -29319   -29321   -29346   -29339   -29298   -29269   -29260   -29244 
  -29186   -29152   -29197   -29231   -29245   -29296   -29333   -29377 
  -29546   -29770   -29859   -29766   -29519   -29177   -28889   -28805 
  -28937   -29192   -29446   -29507   -29292   -28967   -28717   -28690 
  -29026   -29566   -29971   -30111   -29956   -29585   -29258   -29082 
  -28986   -28931   -28925   -28994   -29076   -29073   -28992   -28825 
  -28566   -28514   -29094   -30251   -31360   -31790   -31328   -30262 
  -29185   -28540   -28410   -28572   -28690   -28754   -29020   -29363 
  -29336   -28958   -28770   -29011   -29496   -30163   -30801   -30778 
  -29783   -28328   -27338   -27439   -28567   -29916   -30252   -29022 
  -27175   -26184   -26728   -28707   -31364   -33307   -33551   -32375 
  -30607   -28807   -27470   -27010   -27313   -28013   -29156   -30671 
  -31579   -31247   -30579   -30491   -30582   -30159   -29289   -28515 
  -28062   -27653   -27411   -27928   -29130   -30224   -30186   -28578 
  -26967   -27504   -29671   -31081   -31103   -30794   -30201   -28735 
  -26793   -25356   -25267   -26681   -28738   -30544   -32157   -33745 
  -34560   -33836   -31999   -30095   -28364   -26521   -25204   -25383 
  -26825   -28581   -29841   -30122   -30019   -30548   -31188   -30839 
  -30006   -29851   -30286   -30239   -28879   -26717   -25740   -27037 
  -29003   -29787   -29723   -29868   -30357   -30855   -30981   -30426 
  -29508   -28921   -28693   -28410   -28147   -28155   -28524   -29322 
  -30353   -31274   -31823   -31537   -29909   -27416   -25701   -25930 
  -27653   -29764   -31567   -32609   -32223   -29940   -26716   -24819 
  -25493   -27807   -30118   -31602   -32340   -32367   -31427   -29874 
  -28603   -28123   -28449   -29173   -29506   -29241   -29244   -30244 
  -31756   -32526   -31649   -29180   -26224   -24444   -24707   -26652 
  -29356   -31350   -31616   -30971   -30631   -30473   -29792   -28311 
  -26539   -25761   -26767   -28800   -30572   -31651   -32264   -32291 
  -31160   -28606   -25481   -23697   -24615   -27874   -32021   -35387 
  -36800   -35803   -32388   -27794   -24552   -24116   -25624   -27548 
  -29058   -29796   -29755   -29431   -29447   -30020   -30868   -31432 
  -31224   -30344   -29389   -28545   -27468   -26273   -25848   -26908 
  -28909   -30275   -30157   -29393   -29311   -30165   -30952   -30806 
  -30062   -29427   -28882   -28045   -27244   -27420   -28965   -31190 
  -32793   -32917   -31775   -30045   -28270   -27087   -27317   -29187 
  -31509   -32355   -30989   -28567   -26787   -26311   -26595   -27100 
  -28069   -29624   -31088   -31816   -31818   -31468   -31054   -30354 
  -28972   -27162   -25726   -25416   -26588   -28856   -31221   -32778 
  -33053   -31832   -29377   -26786   -25469   -26079   -28176   -30749 
  -32845   -33843   -33497   -31937   -29492   -26678   -24298   -23176 
  -23761   -25890   -28805   -31540   -33394   -34036   -33552   -32539 
  -31450   -30152   -28552   -26984   -25908   -25670   -26374   -27633 
  -28846   -29753   -30244   -30209   -29881   -29667   -29835   -30461 
  -31242   -31670   -31504   -30754   -29490   -27895   -26359   -25454 
  -25736   -27135   -28759   -29914   -30616   -30894   -30760   -30488 
  -30221   -29940   -29691   -29514   -29450   -29509   -29635   -29720 
  -29557   -29113   -28812   -29008   -29521   -29926   -29929   -29635 
  -29463   -29497   -29434   -29228   -29185   -29515   -29967   -29999 
  -29372   -28341   -27437   -26979   -26815   -26848   -27291   -28305 
  -29809   -31416   -32505   -32688   -32006   -30716   -29199   -27905 
  -27271   -27581   -28697   -30174   -31622   -32646   -32777   -31816 
  -29862   -27379   -25369   -24638   -25300   -27158   -29699   -32103 
  -33665   -33947   -32785   -30410   -27517   -24993   -23597   -23825 
  -25506   -27772   -29804   -31214   -31900   -31882   -31363   -30744 
  -30244   -29864   -29581   -29312   -29090   -29015   -29020   -29042 
  -29145   -29244   -29130   -28847   -28644   -28790   -29375   -30063 
  -30472   -30620   -30633   -30479   -30039   -29382   -28979   -29219 
  -29897   -30507   -30615   -29945   -28598   -27030   -25704   -25025 
  -25262   -26262   -27527   -28684   -29733   -30751   -31638   -32270 
  -32519   -32250   -31470   -30384   -29347   -28700   -28547   -28776 
  -29206   -29635   -29978   -30250   -30329   -30218   -30255   -30486 
  -30482   -29923   -28779   -27365   -26385   -26355   -27153   -28346 
  -29493   -30124   -29976   -29291   -28475   -27789   -27517   -27831 
  -28503   -29214   -29852   -30375   -30759   -31018   -31128   -30997 
  -30482   -29564   -28549   -27871   -27762   -28232   -29147   -30285 
  -31416   -32190   -32234   -31524   -30329   -28971   -27804   -27161 
  -27156   -27532   -27861   -27930   -27943   -28284   -29113   -30348 
  -31663   -32529   -32567   -31760   -30394   -28783   -27236   -26206 
  -26003   -26586   -27679   -28928   -30055   -30858   -31159   -30877 
  -30041   -28809   -27528   -26552   -26093   -26313   -27236   -28526 
  -29750   -30772   -31548   -31985   -32140   -32036   -31583   -30957 
  -30494   -30263   -30121   -29961   -29668   -29150   -28507   -28005 
  -27834   -27943   -28188   -28617   -29367   -30245   -30767   -30646 
  -30107   -29603   -29320   -29051   -28495   -27658   -26878   -26507 
  -26754   -27686   -29112   -30474   -31161   -30968   -30181   -29334 
  -28769   -28546   -28728   -29317   -30080   -30587   -30409   -29562 
  -28656   -28411   -29098   -30329   -31405   -31857   -31621   -30948 
  -30224   -29661   -29220   -28699   -27844   -26645   -25421   -24693 
  -24959   -26343   -28523   -30944   -32972   -34122   -34250   -33483 
  -32084   -30430   -28854   -27522   -26600   -26239   -26411   -26948 
  -27579   -28125   -28622   -29078   -29403   -29540   -29563   -29593 
  -29648   -29791   -30095   -30432   -30718   -30957   -30964   -30627 
  -30059   -29265   -28242   -27197   -26419   -26228   -26843   -28180 
  -29979   -31874   -33377   -34087   -33830   -32584   -30615   -28517 
  -26848   -25953   -25911   -26462   -27307   -28357   -29508   -30511 
  -31172   -31484   -31484   -31168   -30694   -30248   -29775   -29156 
  -28407   -27673   -27134   -26979   -27283   -27843   -28454   -29056 
  -29532   -29767   -29789   -29720   -29571   -29233   -28802   -28573 
  -28674   -29036   -29507   -29885   -30108   -30211   -30189   -30127 
  -30155   -30315   -30531   -30657   -30660   -30537   -30173   -29574 
  -28960   -28555   -28439   -28506   -28529   -28390   -28231   -28195 
  -28255   -28309   -28286   -28250   -28287   -28335   -28391   -28602 
  -29033   -29512   -29756   -29690   -29491   -29299   -29146   -29080 
  -29232   -29703   -30351   -30938   -31375   -31638   -31724   -31632 
  -31287   -30644   -29825   -28996   -28259   -27765   -27614   -27653 
  -27642   -27566   -27590   -27789   -28208   -28877   -29596   -30181 
  -30592   -30763   -30738   -30603   -30351   -30031   -29696   -29393 
  -29147   -28809   -28350   -27952   -27698   -27712   -28151   -28970 
  -30022   -31054   -31707   -31822   -31499   -30842   -29913   -28839 
  -27827   -27154   -27053   -27513   -28223   -28881   -29481   -30031 
  -30387   -30495   -30376   -30007   -29407   -28684   -28026   -27603 
  -27585   -28154   -29186   -30360   -31509   -32359   -32509   -31829 
  -30518   -28866   -27212   -25975   -25428   -25615   -26458   -27714 
  -28985   -30032   -30867   -31405   -31543   -31366   -30990   -30476 
  -29830   -29094   -28409   -27978   -27997   -28427   -28993   -29493 
  -29898   -30228   -30456   -30484   -30196   -29586   -28788   -28033 
  -27601   -27580   -27856   -28422   -29310   -30367   -31274   -31672 
  -31369   -30445   -29234   -28164   -27455   -27097   -27046   -27253 
  -27722   -28551   -29755   -31135   -32321   -32945   -32775   -31795 
  -30357   -29024   -28092   -27635   -27701   -28178   -28835   -29500 
  -30080   -30562   -30945   -31129   -30950   -30424   -29730   -28986 
  -28268   -27626   -27082   -26814   -26917   -27169   -27406   -27678 
  -27988   -28304   -28646   -29058   -29560   -30113   -30566   -30715 
  -30549   -30269   -29955   -29550   -29138   -28896   -28890   -29057 
  -29255   -29394   -29615   -30145   -30950   -31721   -32085   -31827 
  -30925   -29434   -27640   -26045   -25054   -24908   -25662   -27197 
  -29337   -31765   -33958   -35354   -35629   -34883   -33483   -31847 
  -30291   -28944   -27868   -27095   -26585   -26242   -25992   -25874 
  -25905   -26031   -26150   -26065   -25605   -24831   -23999   -23402 
  -23251   -23656   -24604   -26026   -27866   -30074   -32631   -35370 
  -37893   -39839   -40997   -41330   -41014   -40175   -38824   -37030 
  -34847   -32294   -29476   -26712   -24466   -23006   -22353   -22478 
  -23341   -24846   -26797   -28777   -30361   -31445   -32109   -32420 
  -32459   -32155   -31324   -30027   -28522   -26977   -25521   -24325 
  -23420   -22717   -22267   -22256   -22835   -24102   -25959   -28000 
  -29792   -31043   -31657   -31793   -31679   -31434   -31070   -30599 
  -30066   -29497   -28967   -28465   -28003   -27985   -28869   -30651 
  -32986   -35446   -37536   -38791   -38965   -37951   -35809   -32802 
  -29253   -25742   -22908   -20945   -19882   -19674   -19959   -20421 
  -20933   -21404   -21750   -21870   -21983   -22634   -24227   -27032 
  -31104   -35834   -40192   -43394   -44830   -44091   -41414   -37375 
  -32588   -28019   -24610   -22713   -22420   -23804   -26602   -30269 
  -34280   -38080   -40929   -42085   -41130   -38122   -33604   -28391 
  -23248   -18745   -15242   -13019   -12274   -13039   -15244   -18624 
  -22603   -26683   -30890   -35291   -39303   -42336   -44329   -45021 
  -43990   -41565   -38634   -35662   -32512   -29326   -26934   -26049 
  -26765   -28813   -31753   -35014   -37841   -39176   -38041   -34170 
  -27892   -19995   -11764    -4791     -644      -36    -2526    -7230 
  -13250   -19764   -26326   -32709   -38452   -43083   -46375   -48268 
  -48853   -48241   -46735   -44856   -42652   -39757   -36155   -32278 
  -28520   -24875   -21199   -17684   -14826   -13165   -13147   -15127 
  -19223   -24975   -31331   -37044   -41044   -42812   -42468   -40346 
  -36841   -32576   -28220   -24397   -21640   -19957   -18796   -17857 
  -17649   -18817   -21365   -24935   -29170   -33537   -37300   -39775 
  -40484   -39401   -37139   -34511   -32256   -31166   -31670   -33705 
  -37071   -41078   -44563   -46667   -47133   -45959   -42887   -37740 
  -30996   -23450   -15861    -8872    -3014      921     1998     -150 
   -5293   -12716   -21160   -29211   -35452   -38894   -39676   -38759 
  -37143   -35338   -33329   -30979   -28211   -25343   -23283   -22709 
  -23555   -25460   -28142   -31574   -35757   -40096   -43693   -46031 
  -46778   -45648   -42747   -38362   -32649   -26187   -20208   -15775 
  -13105   -11957   -12322   -14087   -16806   -20241   -24209   -28306 
  -32099   -35120   -37034   -37864   -37772   -36957   -35741   -34401 
  -32981   -31328   -29530   -28019   -26898   -25928   -25303   -25414 
  -26320   -28006   -30303   -32696   -34651   -35908   -36698   -37411 
  -37853   -37455   -35940   -33617   -31178   -29093   -27572   -26973 
  -27585   -29261   -31545   -33779   -35248   -35654   -35117   -33665 
  -31307   -28280   -24790   -21070   -17658   -15219   -14425   -15647 
  -18504   -22179   -25840   -28935   -31385   -33177   -34161   -34378 
  -34024   -33295   -32421   -31646   -31162   -30921   -30531   -29619 
  -28108   -26174   -24161   -22471   -21508   -21562   -22653   -24693 
  -27582   -31097   -34957   -38797   -42034   -43975   -44051   -42094 
  -38398   -33444   -27881   -22541   -18183   -15370   -14275   -14640 
  -16207   -18895   -22564   -26742   -30697   -33848   -35979   -37153 
  -37368   -36500   -34722   -32473   -30173   -28249   -26887   -26122 
  -26177   -27077   -28525   -30296   -32157   -33716   -34602   -34530 
  -33341   -31152   -28327   -25393   -22957   -21512   -21432   -22877 
  -25540   -28838   -32160   -34986   -37130   -38686   -39671   -40054 
  -39884   -39146   -37693   -35501   -32846   -30129   -27759   -25964 
  -24695   -23888   -23488   -23384   -23466   -23535   -23503   -23613 
  -24054   -24755   -25698   -26917   -28336   -29895   -31470   -32875 
  -33992   -34640   -34710   -34184   -33009   -31403   -29807   -28548 
  -27769   -27485   -27590   -27860   -28137   -28265   -27906   -26823 
  -25026   -22651   -19920   -17191   -15001   -13823   -13901   -15348 
  -18064   -21859   -26600   -31881   -37119   -41911   -45914   -48769 
  -50166   -49889   -48012   -45066   -41711   -38267   -34833   -31536 
  -28343   -25072   -21734   -18590   -16126   -14955   -15337   -17125 
  -20005   -23460   -26907   -30004   -32544   -34264   -35044   -34998 
  -34246   -32934   -31273   -29464   -27889   -27043   -27160   -28086 
  -29493   -31072   -32607   -34031   -35235   -36056   -36434   -36235 
  -35338   -33828   -31958   -30142   -28786   -28143   -28235   -28853 
  -29724   -30517   -30868   -30614   -29835   -28640   -27176   -25676 
  -24192   -22712   -21364   -20213   -19363   -19041   -19473   -20821 
  -22939   -25392   -27800   -29921   -31581   -32783   -33653   -34244 
  -34521   -34479   -34167   -33713   -33323   -33107   -32993   -32835 
  -32632   -32497   -32386   -32264   -32239   -32233   -32091   -31890 
  -31589   -30834   -29330   -27090   -24284   -21157   -18174   -15943 
  -14912   -15251   -16905   -19598   -22871   -26306   -29635   -32624 
  -35075   -36910   -38077   -38610   -38736   -38602   -38144   -37348 
  -36315   -35145   -33887   -32552   -31188   -29917   -28919   -28274 
  -27805   -27357   -26961   -26590   -26107   -25354   -24264   -22953 
  -21695   -20825   -20595   -21092   -22429   -24616   -27339   -30360 
  -33563   -36642   -39246   -41049   -41784   -41340   -39803   -37489 
  -34820   -32234   -30199   -29004   -28615   -28850   -29368   -29765 
  -29834   -29555   -29051   -28484   -27959   -27586   -27436   -27506 
  -27739   -28013   -28122   -27902   -27234   -26094   -24733   -23414 
  -22302   -21664   -21749   -22524   -23791   -25369   -27049   -28689 
  -30216   -31494   -32418   -32925   -33069   -33021   -32861   -32666 
  -32484   -32215   -31809   -31282   -30635   -29892   -29123   -28464 
  -28006   -27740   -27671   -27811   -28060   -28224   -28223   -28091 
  -27906   -27819   -27887   -28072   -28379   -28749   -29084   -29276 
  -29209   -28846   -28155   -27271   -26577   -26345   -26724   -27740 
  -29164   -30766   -32440   -34112   -35761   -37253   -38264   -38544 
  -38068   -36897   -35170   -33190   -31236   -29511   -28206   -27309 
  -26673   -26157   -25598   -24959   -24238   -23383   -22518   -21926 
  -21747   -21872   -22253   -22893   -23709   -24725   -25957   -27309 
  -28680   -29910   -30873   -31627   -32351   -33154   -34106   -35308 
  -36673   -38006   -39167   -39905   -40036   -39543   -38332   -36422 
  -34126   -31798   -29805   -28467   -27810   -27691   -27891   -28108 
  -28140   -27841   -27110   -26047   -24823   -23598   -22577   -21763 
  -21086   -20684   -20594   -20846   -21604   -22841   -24412   -26151 
  -27809   -29216   -30323   -31129   -31670   -32036   -32287   -32313 
  -32002   -31422   -30768   -30250   -29971   -30039   -30502   -31105 
  -31596   -31871   -31781   -31258   -30397   -29466   -28772   -28470 
  -28587   -28952   -29312   -29576   -29773   -29920   -29941   -29800 
  -29565   -29311   -29190   -29266   -29485   -29951   -30727   -31722 
  -32890   -34068   -34968   -35424   -35313   -34544   -33248   -31676 
  -30068   -28631   -27494   -26764   -26412   -26229   -26194   -26377 
  -26681   -26983   -27131   -26992   -26603   -26073   -25497   -24907 
  -24304   -23804   -23514   -23487   -23898   -24859   -26218   -27766 
  -29377   -30861   -32050   -32957   -33519   -33690   -33658   -33564 
  -33480   -33470   -33533   -33626   -33635   -33509   -33230   -32653 
  -31736   -30536   -29079   -27556   -26205   -25151   -24511   -24344 
  -24579   -25066   -25618   -26106   -26503   -26814   -27128   -27571 
  -28150   -28874   -29737   -30624   -31439   -32137   -32685   -33059 
  -33281   -33409   -33367   -33059   -32511   -31675   -30529   -29272 
  -28151   -27292   -26771   -26671   -27022   -27713   -28608   -29682 
