Origin Time       2025/03/29 04:45:00
Lat.              31.090
Long.             131.512
Depth. (km)       33
Mag.              4.6
Station Code      KGS008
Station Lat.      31.7638
Station Long.     130.5659
Station Height(m) 11
Record Time       2025/03/29 04:45:51
Sampling Freq(Hz) 100Hz
Duration Time(s)  60
Dir.              E-W
Scale Factor      7845(gal)/8223790
Max. Acc. (gal)   1.185
Last Correction   2025/03/29 04:45:52
Memo.             
[...]
    -103      -91     -163     -286     -406     -471     -469     -430 
    -375     -322     -282     -243     -193     -137      -93      -79 
     -87      -95      -81      -54      -37      -40      -62     -105 
    -172     -261     -367     -463     -527     -550     -525     -452 
    -367     -292     -244     -238     -276     -330     -375     -399 
    -394     -364     -321     -271     -234     -222     -226     -234 
    -229     -205     -178     -166     -179     -217     -253     -276 
    -292     -299     -295     -279     -244     -189     -148     -152 
    -206     -297     -383     -434     -448     -421     -367     -322 
    -313     -338     -371     -372     -341     -307     -294     -294 
    -294     -299     -328     -378     -432     -457     -423     -337 
    -230     -121      -21       48       70       43      -14      -78 
    -133     -179     -229     -299     -383     -468     -540     -579 
    -585     -561     -502     -432     -394     -394     -413     -444 
    -475     -491     -486     -444     -363     -251     -120       -9 
      48       44      -13      -94     -164     -213     -245     -248 
    -218     -170     -126     -106     -118     -160     -220     -279 
    -318     -332     -336     -349     -382     -438     -514     -575 
    -589     -556     -483     -388     -294     -213     -164     -156 
    -174     -193     -199     -195     -189     -183     -176     -175 
    -187     -202     -202     -190     -189     -217     -268     -317 
    -334     -321     -301     -288     -282     -279     -292     -324 
    -349     -353     -344     -315     -274     -248     -253     -284 
    -332     -395     -459     -491     -473     -402     -284     -147 
     -24       47       41      -33     -144     -245     -314     -340 
    -324     -298     -297     -325     -369     -407     -425     -422 
    -403     -372     -330     -280     -236     -226     -264     -340 
    -427     -491     -500     -450     -357     -237     -118      -43 
     -37      -94     -190     -301     -392     -444     -445     -382 
    -270     -149      -49       -2      -29     -106     -195     -274 
    -321     -330     -302     -251     -203     -180     -187     -222 
    -276     -351     -442     -529     -584     -602     -580     -523 
    -440     -341     -237     -129      -32       31       43        5 
     -78     -183     -271     -318     -307     -256     -201     -178 
    -199     -252     -314     -357     -368     -342     -288     -228 
    -179     -156     -175     -240     -329     -410     -456     -465 
    -448     -400     -341     -302     -302     -341     -402     -459 
    -499     -510     -476     -407     -324     -248     -199     -170 
    -157     -176     -221     -271     -301     -299     -278     -244 
    -201     -160     -133     -122     -120     -110      -95      -89 
     -93     -102     -108     -110     -128     -171     -220     -252 
    -265     -267     -270     -282     -303     -322     -334     -340 
    -357     -400     -460     -530     -599     -650     -673     -660 
    -595     -490     -375     -267     -180     -128     -109     -124 
    -152     -172     -191     -206     -202     -195     -195     -194 
    -193     -193     -195     -206     -232     -268     -305     -324 
    -324     -318     -310     -295     -280     -271     -268     -270 
    -265     -253     -244     -244     -244     -244     -263     -314 
    -376     -422     -444     -436     -402     -364     -329     -294 
    -264     -251     -252     -260     -256     -226     -186     -159 
    -153     -183     -253     -338     -410     -446     -444     -418 
    -382     -334     -288     -264     -268     -284     -307     -333 
    -348     -357     -376     -396     -390     -346     -284     -228 
    -180     -157     -166     -191     -224     -274     -321     -338 
    -303     -220     -114      -10       58       59        6      -72 
    -167     -257     -332     -383     -419     -452     -484     -515 
    -546     -557     -527     -468     -410     -372     -351     -345 
    -341     -322     -274     -184      -67       37       93       83 
      17      -86     -197     -292     -359     -390     -380     -340 
    -283     -217     -144      -72       -8       27       22      -10 
     -72     -143     -207     -265     -311     -338     -352     -368 
    -398     -446     -503     -553     -589     -606     -606     -589 
    -560     -537     -531     -531     -535     -534     -513     -467 
    -390     -283     -168      -75      -17        2       -8      -33 
     -62      -87      -94      -76      -51      -37      -41      -74 
    -143     -233     -322     -403     -465     -498     -496     -456 
    -410     -395     -414     -454     -506     -545     -554     -540 
    -499     -436     -355     -260     -168     -103      -70      -60 
     -76     -116     -151     -163     -151     -118      -75      -37 
      -6       18       24        8      -29      -93     -164     -240 
    -330     -418     -494     -561     -606     -622     -614     -579 
    -514     -427     -332     -248     -194     -155     -124     -105 
     -95     -112     -153     -176     -170     -156     -155     -175 
    -205     -236     -286     -356     -411     -419     -367     -275 
    -205     -193     -226     -276     -317     -349     -379     -395 
    -400     -380     -322     -256     -216     -211     -229     -260 
    -325     -421     -504     -556     -581     -585     -554     -479 
    -375     -257     -148      -82      -63      -76     -118     -187 
    -278     -365     -413     -415     -395     -378     -371     -361 
    -334     -291     -247     -211     -191     -180     -175     -183 
    -207     -232     -244     -253     -270     -278     -255     -207 
    -164     -132     -113     -109     -118     -149     -206     -276 
    -346     -400     -423     -414     -383     -349     -326     -303 
    -268     -236     -224     -233     -260     -295     -322     -344 
    -372     -394     -399     -403     -405     -402     -394     -368 
    -325     -283     -257     -244     -226     -195     -159     -130 
    -112      -83      -33       18       52       45        0      -66 
    -147     -245     -357     -457     -514     -518     -500     -475 
    -434     -387     -348     -321     -317     -337     -368     -390 
    -387     -359     -317     -283     -268     -259     -261     -279 
    -290     -290     -301     -315     -319     -314     -307     -305 
    -302     -283     -255     -221     -175     -129     -106     -113 
    -149     -206     -265     -334     -396     -434     -456     -459 
    -427     -375     -315     -248     -190     -152     -137     -149 
    -164     -167     -176     -201     -234     -268     -303     -341 
    -378     -409     -432     -448     -453     -448     -429     -399 
    -363     -325     -286     -257     -251     -255     -251     -233 
    -220     -214     -222     -240     -257     -272     -291     -317 
    -336     -342     -329     -292     -240     -195     -176     -187 
    -225     -275     -330     -380     -406     -406     -387     -348 
    -305     -270     -236     -217     -210     -201     -191     -186 
    -179     -179     -203     -257     -319     -365     -384     -400 
    -421     -425     -395     -332     -263     -218     -205     -216 
    -244     -279     -315     -340     -351     -360     -367     -367 
    -368     -371     -363     -336     -294     -245     -191     -135 
     -71       -1       58       93       99       86       74       64 
      52       45       51       40        1      -52     -116     -189 
    -268     -349     -426     -491     -538     -557     -542     -511 
    -477     -433     -371     -321     -305     -314     -337     -379 
    -453     -560     -680     -788     -851     -859     -812     -699 
    -533     -360     -211     -102      -33        5       17        2 
     -25      -55      -75      -71      -52      -36      -28      -31 
     -48      -70     -101     -144     -197     -256     -336     -432 
    -521     -595     -653     -677     -654     -608     -573     -558 
    -548     -538     -541     -549     -550     -533     -486     -417 
    -346     -291     -253     -222     -167      -85       10      103 
     180      228      234      197      124       29      -63     -135 
    -187     -230     -255     -253     -245     -240     -251     -294 
    -351     -396     -430     -454     -465     -468     -468     -459 
    -448     -445     -430     -384     -317     -243     -163      -86 
     -33      -13      -14      -24      -24      -12       -8      -10 
     -25      -66     -133     -213     -294     -355     -382     -378 
    -357     -332     -301     -276     -267     -278     -306     -355 
    -419     -483     -535     -584     -631     -661     -670     -676 
    -679     -672     -657     -637     -595     -507     -387     -252 
    -116        4      105      180      209      190      151      109 
      85       70       24      -55     -136     -205     -275     -360 
    -445     -487     -484     -473     -465     -460     -463     -472 
    -494     -534     -581     -611     -616     -599     -564     -507 
    -430     -328     -209      -99       -8       70      126      156 
     145       90       10      -68     -140     -198     -238     -259 
    -259     -259     -268     -298     -353     -418     -487     -554 
    -603     -623     -622     -596     -549     -491     -438     -395 
    -349     -306     -279     -267     -276     -318     -371     -400 
    -395     -371     -326     -245     -147      -71      -33      -18 
     -21      -49      -87     -112     -130     -152     -178     -210 
    -232     -224     -203     -182     -163     -166     -191     -232 
    -301     -375     -421     -425     -396     -360     -344     -365 
    -418     -486     -546     -573     -550     -477     -357     -218 
     -98      -10       36       32       -6      -70     -143     -195 
    -225     -234     -221     -207     -220     -244     -271     -290 
    -286     -271     -256     -241     -244     -272     -311     -359 
    -425     -496     -540     -535     -506     -460     -391     -299 
    -195      -82       37      148      233      295      322      292 
     203       72      -81     -237     -373     -473     -534     -565 
    -579     -577     -562     -531     -503     -490     -484     -480 
    -472     -459     -450     -442     -429     -421     -409     -367 
    -313     -261     -193     -103      -16       43       56       39 
       8      -37      -90     -135     -178     -229     -282     -319 
    -318     -286     -249     -216     -193     -193     -206     -229 
    -275     -352     -437     -511     -577     -629     -666     -702 
    -733     -754     -781     -795     -765     -712     -656     -585 
    -514     -449     -376     -307     -263     -233     -190     -139 
     -95      -52      -10       16       27       33       24       -4 
     -37      -87     -152     -206     -247     -299     -348     -382 
    -417     -454     -480     -506     -535     -558     -569     -562 
    -523     -444     -329     -202      -95      -32        2       24 
       2      -67     -144     -213     -272     -307     -326     -351 
    -386     -423     -461     -514     -583     -642     -675     -683 
    -650     -568     -463     -363     -286     -251     -249     -260 
    -274     -278     -263     -228     -167      -93      -25       21 
      54       90      126      147      157      171      172      139 
      67      -25     -106     -163     -207     -257     -319     -391 
    -454     -494     -513     -499     -440     -345     -220      -74 
      66      174      224      211      153       63      -52     -186 
    -322     -430     -498     -540     -557     -549     -531     -496 
    -454     -425     -414     -411     -427     -468     -521     -558 
    -568     -545     -487     -407     -315     -216     -122      -54 
     -12        8       12       24       54       76       85      105 
     117       91       47       -9      -78     -132     -189     -278 
    -380     -484     -580     -652     -711     -751     -751     -722 
    -672     -599     -537     -492     -444     -391     -334     -261 
    -183     -114      -43       25       79      129      184      238 
     287      314      298      247      176       95       16      -55 
    -124     -184     -233     -286     -367     -477     -606     -731 
    -832     -897     -926     -920     -891     -841     -785     -745 
    -714     -672     -612     -542     -461     -388     -353     -364 
    -396     -427     -437     -399     -315     -194      -68       22 
      60       37      -33     -121     -214     -303     -360     -390 
    -411     -419     -410     -391     -383     -384     -388     -407 
    -442     -477     -510     -544     -583     -631     -672     -673 
    -607     -472     -292      -87      135      340      486      565 
     587      542      427      261       68     -141     -357     -562 
    -733     -853     -932     -986    -1016    -1012     -962     -888 
    -828     -783     -726     -662     -606     -553     -491     -399 
    -292     -203     -149     -118      -83      -20       71      184 
     326      483      638      784      901      962      951      872 
     733      541      313       94      -79     -210     -297     -352 
    -400     -449     -498     -548     -607     -679     -756     -819 
    -855     -858     -824     -764     -700     -652     -608     -564 
    -523     -483     -432     -367     -295     -240     -220     -226 
    -243     -272     -332     -409     -465     -473     -429     -341 
    -228     -114      -36      -17      -64     -179     -345     -542 
    -747     -916    -1009    -1021     -954     -824     -662     -495 
    -337     -209     -120      -55       -5       25       51       72 
      85       89       90       93       99      101       89       68 
      47       17       -9        1       66      174      294      388 
     425      386      263       78     -133     -338     -510     -634 
    -692     -688     -648     -588     -537     -525     -553     -619 
    -724     -850     -972    -1078    -1156    -1194    -1185    -1112 
    -967     -774     -556     -325     -110       71      222      329 
     387      400      373      324      275      249      247      249 
     255      260      256      253      241      203      139       39 
     -85     -216     -359     -529     -733     -954    -1162    -1317 
   -1385    -1344    -1198     -966     -688     -415     -190      -32 
      48       56       -9     -126     -255     -375     -484     -573 
    -637     -680     -676     -612     -506     -373     -230     -103 
      -6       60       98       87       37      -10      -33      -44 
     -48      -48      -49      -55      -72      -98     -125     -152 
    -168     -176     -195     -233     -280     -333     -388     -432 
    -457     -480     -515     -579     -672     -784     -907    -1020 
   -1097    -1116    -1067     -949     -783     -596     -413     -252 
    -120      -12       72      133      174      193      201      197 
     180      157      120       66       14      -12      -14       -4 
      12       35       48       27      -18      -59      -90     -118 
    -149     -195     -272     -388     -533     -693     -861    -1008 
   -1100    -1116    -1055     -920     -737     -533     -334     -160 
     -33       32       55       62       59       58       66       91 
     143      210      291      380      463      530      580      600 
     571      492      372      213       29     -148     -291     -394 
    -479     -557     -630     -708     -799     -907    -1024    -1120 
   -1159    -1121    -1009     -835     -618     -395     -222     -110 
     -41      -10       -4       -4        0       32      101      180 
     252      302      307      252      139      -21     -205     -395 
    -568     -707     -808     -873     -900     -904     -913     -957 
   -1034    -1125    -1215    -1267    -1251    -1162    -1012     -803 
    -549     -292      -71       93      193      213      159       66 
     -44     -157     -251     -297     -283     -230     -155      -59 
      41      129      190      195      137       32      -95     -222 
    -336     -426     -486     -515     -533     -557     -584     -603 
    -619     -627     -600     -545     -483     -407     -328     -287 
    -283     -294     -319     -333     -317     -279     -229     -179 
    -132      -79      -37      -27      -52      -98     -139     -155 
    -136      -82      -10       60      126      197      259      302 
     319      291      210       90      -58     -218     -364     -483 
    -571     -616     -625     -611     -588     -562     -526     -473 
    -405     -332     -271     -213     -157     -113      -81      -62 
     -62      -89     -143     -224     -318     -406     -468     -504 
    -518     -503     -464     -418     -373     -338     -321     -332 
    -373     -434     -498     -546     -567     -550     -488     -375 
    -229      -70       75      182      238      247      205      114 
     -17     -180     -341     -467     -553     -606     -622     -596 
    -538     -460     -376     -305     -261     -247     -249     -264 
    -287     -313     -346     -378     -394     -406     -423     -437 
    -433     -415     -400     -384     -368     -361     -359     -349 
    -333     -317     -288     -240     -178     -113      -49       10 
      56       70       36      -43     -149     -257     -353     -446 
    -540     -621     -669     -669     -637     -607     -587     -575 
    -568     -556     -531     -503     -477     -460     -453     -461 
    -490     -521     -544     -562     -569     -550     -498     -394 
    -232      -44      132      290      433      549      631      677 
     685      654      579      477      386      302      210      121 
      52       12       -2       -8      -28      -72     -129     -191 
    -261     -340     -425     -513     -599     -664     -697     -718 
    -729     -708     -658     -606     -572     -558     -552     -553 
    -562     -575     -573     -562     -544     -506     -446     -373 
    -299     -221     -125      -20       72      139      182      210 
     234      252      256      241      211      175      136       99 
      55      -16     -120     -237     -345     -453     -584     -715 
    -815     -892     -963    -1012    -1013     -976     -922     -855 
    -784     -712     -638     -561     -488     -430     -398     -388 
    -384     -367     -338     -328     -319     -275     -205     -133 
     -68       -8       54      118      174      206      214      180 
     103       17      -43      -89     -153     -234     -311     -386 
    -471     -571     -673     -764     -849     -942    -1017    -1039 
   -1008     -953     -896     -828     -743     -653     -561     -454 
    -334     -216      -86       51      159      221      229      172 
