Origin Time       2025/03/29 04:45:00
Lat.              31.090
Long.             131.512
Depth. (km)       33
Mag.              4.6
Station Code      KGS021
Station Lat.      31.2535
Station Long.     130.6324
Station Height(m) 8
Record Time       2025/03/29 04:45:43
Sampling Freq(Hz) 100Hz
Duration Time(s)  60
Dir.              N-S
Scale Factor      3920(gal)/6182761
Max. Acc. (gal)   3.689
Last Correction   2025/03/29 04:45:43
Memo.             
[...]
  -16401   -17477   -18586   -19483   -19987   -20075   -19863   -19506 
  -19127   -18815   -18563   -18273   -17878   -17395   -16898   -16487 
  -16272   -16261   -16353   -16500   -16705   -16905   -17034   -17090 
  -17111   -17107   -17048   -16859   -16469   -15958   -15528   -15332 
  -15435   -15843   -16480   -17189   -17819   -18319   -18681   -18933 
  -19129   -19202   -19042   -18681   -18207   -17665   -17117   -16642 
  -16348   -16311   -16455   -16601   -16633   -16590   -16591   -16692 
  -16832   -16928   -16926   -16763   -16429   -16046   -15757   -15623 
  -15650   -15861   -16268   -16826   -17462   -18110   -18720   -19244 
  -19514   -19324   -18709   -17923   -17149   -16457   -15936   -15694 
  -15762   -16058   -16467   -16954   -17510   -18032   -18438   -18716 
  -18868   -18872   -18633   -18130   -17540   -17020   -16607   -16274 
  -16001   -15845   -15897   -16165   -16570   -16961   -17158   -17057 
  -16724   -16342   -16065   -15949   -15975   -16079   -16220   -16447 
  -16850   -17472   -18256   -19023   -19532   -19596   -19219   -18600 
  -17981   -17508   -17179   -16905   -16643   -16385   -16140   -15963 
  -15950   -16187   -16655   -17199   -17653   -17917   -17977   -17855 
  -17551   -17093   -16577   -16170   -16027   -16177   -16525   -16881 
  -17060   -17091   -17139   -17271   -17411   -17451   -17394   -17354 
  -17405   -17567   -17834   -18087   -18140   -17928   -17526   -17078 
  -16727   -16526   -16393   -16218   -15979   -15721   -15534   -15560 
  -15869   -16417   -17120   -17832   -18402   -18748   -18838   -18694 
  -18409   -18089   -17791   -17552   -17395   -17287   -17197   -17113 
  -17035   -16988   -16976   -16982   -16972   -16864   -16625   -16292 
  -15937   -15688   -15642   -15798   -16100   -16490   -16931   -17395 
  -17835   -18201   -18434   -18468   -18306   -18030   -17726   -17439 
  -17216   -17061   -16933   -16809   -16711   -16683   -16791   -17076 
  -17457   -17758   -17864   -17748   -17458   -17103   -16786   -16570 
  -16484   -16509   -16588   -16690   -16829   -16974   -17089   -17216 
  -17344   -17400   -17368   -17249   -17029   -16733   -16470   -16402 
  -16604   -16984   -17384   -17741   -18089   -18418   -18631   -18660 
  -18511   -18214   -17805   -17309   -16731   -16127   -15601   -15227 
  -15040   -15077   -15349   -15794   -16314   -16883   -17510   -18110 
  -18580   -18884   -18944   -18731   -18393   -18079   -17822   -17626 
  -17452   -17229   -16971   -16773   -16677   -16638   -16587   -16494 
  -16324   -16081   -15889   -15862   -16014   -16303   -16638   -16920 
  -17119   -17314   -17543   -17741   -17862   -17872   -17722   -17462 
  -17187   -16933   -16740   -16671   -16738   -16876   -17028   -17205 
  -17424   -17666   -17899   -18101   -18267   -18367   -18396   -18401 
  -18385   -18308   -18150   -17903   -17608   -17308   -16966   -16561 
  -16154   -15814   -15573   -15457   -15483   -15611   -15791   -16039 
  -16353   -16691   -17015   -17277   -17458   -17604   -17753   -17896 
  -18020   -18102   -18104   -18008   -17814   -17534   -17212   -16915 
  -16717   -16655   -16715   -16875   -17081   -17236   -17264   -17156 
  -16992   -16868   -16824   -16845   -16863   -16812   -16713   -16642 
  -16655   -16746   -16867   -16991   -17145   -17332   -17494   -17579 
  -17605   -17607   -17591   -17544   -17413   -17167   -16889   -16737 
  -16793   -17031   -17365   -17655   -17773   -17709   -17572   -17463 
  -17413   -17401   -17352   -17211   -17010   -16828   -16764   -16897 
  -17214   -17605   -17935   -18131   -18197   -18143   -17972   -17716 
  -17391   -16960   -16424   -15859   -15356   -15018   -14908   -15010 
  -15278   -15634   -16005   -16368   -16707   -16995   -17201   -17312 
  -17377   -17480   -17660   -17927   -18291   -18715   -19124   -19428 
  -19562   -19539   -19382   -19080   -18663   -18162   -17577   -16951 
  -16364   -15861   -15462   -15188   -15035   -14970   -14965   -15061 
  -15316   -15688   -16112   -16549   -16905   -17110   -17212   -17283 
  -17355   -17466   -17631   -17827   -18069   -18340   -18553   -18664 
  -18715   -18703   -18576   -18357   -18126   -17869   -17566   -17279 
  -17028   -16754   -16413   -16000   -15558   -15174   -14941   -14882 
  -14969   -15245   -15714   -16299   -16952   -17637   -18283   -18808 
  -19149   -19264   -19132   -18799   -18402   -18042   -17708   -17366 
  -16983   -16533   -16113   -15861   -15810   -15949   -16251   -16641 
  -17017   -17318   -17546   -17710   -17800   -17769   -17527   -17085 
  -16564   -16042   -15567   -15195   -14923   -14730   -14668   -14809 
  -15147   -15644   -16251   -16889   -17487   -18017   -18459   -18796 
  -19050   -19275   -19484   -19613   -19584   -19422   -19238   -19091 
  -18940   -18718   -18406   -18042   -17688   -17409   -17240   -17180 
  -17203   -17234   -17209   -17145   -17081   -17047   -17053   -17055 
  -17008   -16931   -16861   -16788   -16714   -16642   -16524   -16342 
  -16135   -15944   -15823   -15816   -15928   -16130   -16352   -16536 
  -16663   -16715   -16721   -16751   -16831   -16921   -16940   -16829 
  -16595   -16282   -15986   -15821   -15866   -16166   -16701   -17386 
  -18121   -18811   -19377   -19788   -20018   -19949   -19511   -18833 
  -18080   -17361   -16799   -16403   -16024   -15555   -15028   -14542 
  -14186   -14011   -14033   -14254   -14666   -15199   -15723   -16181 
  -16598   -17018   -17555   -18344   -19310   -20224   -20926   -21302 
  -21303   -21034   -20616   -20104   -19553   -19017   -18523   -18137 
  -17941   -17912   -17926   -17860   -17635   -17239   -16757   -16340 
  -16098   -16023   -16015   -15946   -15737   -15396   -15027   -14804 
  -14848   -15161   -15743   -16540   -17389   -18132   -18654   -18917 
  -19023   -19103   -19187   -19285   -19424   -19508   -19460   -19376 
  -19228   -18912   -18463   -17853   -17034   -16070   -15045   -14052 
  -13137   -12358   -11834   -11540   -11395   -11420   -11620   -11987 
  -12595   -13455   -14499   -15663   -16774   -17657   -18313   -18773 
  -19072   -19287   -19415   -19466   -19508   -19522   -19496   -19463 
  -19457   -19554   -19742   -19903   -19982   -19998   -19966   -19874 
  -19720   -19497   -19125   -18515   -17630   -16451   -15069   -13722 
  -12656   -12011   -11835   -12176   -13034   -14302   -15835   -17476 
  -19104   -20594   -21741   -22440   -22732   -22665   -22275   -21618 
  -20830   -20019   -19141   -18191   -17253   -16362   -15657   -15250 
  -15006   -14786   -14515   -14145   -13741   -13417   -13217   -13116 
  -13107   -13261   -13654   -14279   -15146   -16336   -17742   -19071 
  -20069   -20568   -20563   -20178   -19519   -18734   -17982   -17348 
  -16869   -16521   -16265   -16096   -15935   -15706   -15498   -15419 
  -15527   -15845   -16259   -16655   -17002   -17333   -17747   -18291 
  -18880   -19393   -19755   -19857   -19588   -19016   -18258   -17331 
  -16321   -15401   -14663   -14099   -13642   -13235   -12922   -12836 
  -13096   -13758   -14789   -16080   -17507   -18927   -20149   -21065 
  -21724   -22175   -22339   -22153   -21655   -20849   -19805   -18690 
  -17626   -16726   -16126   -15888   -15938   -16131   -16333   -16412 
  -16338   -16211   -16139   -16211   -16426   -16677   -16880   -17001 
  -17044   -17010   -16911   -16840   -16864   -16956   -17081   -17205 
  -17291   -17355   -17416   -17386   -17177   -16850   -16559   -16408 
  -16385   -16413   -16429   -16438   -16497   -16607   -16720   -16806 
  -16777   -16523   -16065   -15527   -15048   -14738   -14672   -14843 
  -15155   -15528   -15980   -16533   -17144   -17778   -18379   -18836 
  -19068   -19035   -18778   -18434   -18160   -18078   -18234   -18566 
  -18950   -19289   -19567   -19822   -20090   -20354   -20509   -20421 
  -20051   -19436   -18655   -17810   -16940   -16069   -15289   -14749 
  -14602   -14867   -15418   -16119   -16823   -17358   -17653   -17775 
  -17793   -17703   -17523   -17309   -17059   -16776   -16570   -16538 
  -16696   -16999   -17316   -17482   -17395   -17013   -16338   -15476 
  -14622   -13916   -13444   -13295   -13477   -13976   -14790   -15810 
  -16871   -17856   -18696   -19364   -19879   -20263   -20492   -20553 
  -20454   -20124   -19537   -18808   -18039   -17301   -16678   -16210 
  -15914   -15749   -15659   -15665   -15722   -15731   -15726   -15734 
  -15635   -15381   -15096   -14903   -14879   -15075   -15490   -16076 
  -16763   -17496   -18214   -18824   -19261   -19482   -19437   -19128 
  -18637   -18093   -17692   -17566   -17694   -18041   -18505   -18910 
  -19187   -19298   -19197   -18895   -18405   -17754   -17027   -16313 
  -15665   -15129   -14772   -14591   -14472   -14321   -14172   -14123 
  -14265   -14664   -15305   -16147   -17178   -18277   -19209   -19920 
  -20528   -21011   -21327   -21499   -21428   -21080   -20556   -19802 
  -18782   -17645   -16511   -15490   -14705   -14251   -14123   -14177 
  -14342   -14600   -14843   -15022   -15189   -15379   -15617   -15940 
  -16327   -16679   -16941   -17129   -17261   -17331   -17283   -17143 
  -17021   -16928   -16883   -16966   -17202   -17577   -18043   -18485 
  -18796   -18930   -18932   -18849   -18645   -18319   -17964   -17694 
  -17588   -17634   -17743   -17830   -17838   -17707   -17358   -16773 
  -16088   -15459   -14904   -14460   -14280   -14405   -14763   -15318 
  -15966   -16563   -17074   -17474   -17713   -17796   -17747   -17566 
  -17289   -17008   -16756   -16511   -16338   -16355   -16575   -16941 
  -17389   -17803   -18082   -18238   -18353   -18474   -18611   -18793 
  -19002   -19181   -19358   -19570   -19770   -19886   -19867   -19646 
  -19154   -18432   -17585   -16645   -15688   -14855   -14191   -13716 
  -13413   -13243   -13288   -13586   -14077   -14689   -15314   -15894 
  -16424   -16952   -17592   -18310   -18944   -19393   -19590   -19504 
  -19158   -18597   -17909   -17196   -16517   -15919   -15447   -15162 
  -15119   -15290   -15666   -16295   -17150   -18150   -19169   -20002 
  -20489   -20568   -20227   -19522   -18532   -17404   -16379   -15615 
  -15148   -14995   -15152   -15581   -16193   -16848   -17396   -17741 
  -17874   -17808   -17557   -17216   -16892   -16628   -16491   -16518 
  -16667   -16899   -17158   -17374   -17567   -17802   -18085   -18410 
  -18745   -18989   -19106   -19128   -19018   -18756   -18427   -18106 
  -17821   -17578   -17344   -17096   -16847   -16573   -16222   -15780 
  -15287   -14850   -14552   -14395   -14390   -14584   -14986   -15556 
  -16241   -16960   -17561   -17926   -18046   -17944   -17635   -17170 
  -16662   -16224   -15943   -15900   -16087   -16413   -16868   -17447 
  -17997   -18419   -18739   -18914   -18873   -18621   -18171   -17613 
  -17116   -16792   -16678   -16750   -16967   -17259   -17549   -17859 
  -18176   -18431   -18627   -18740   -18741   -18664   -18497   -18230 
  -17932   -17639   -17329   -16954   -16523   -16113   -15782   -15566 
  -15460   -15412   -15363   -15281   -15162   -15000   -14789   -14600 
  -14458   -14335   -14325   -14546   -14999   -15685   -16639   -17757 
  -18874   -19948   -20937   -21693   -22108   -22157   -21822   -21160 
  -20333   -19444   -18521   -17616   -16783   -16059   -15496   -15120 
  -14920   -14882   -14925   -14978   -15072   -15200   -15366   -15619 
  -15900   -16163   -16447   -16738   -17008   -17270   -17564   -17923 
  -18292   -18583   -18729   -18662   -18380   -18018   -17699   -17468 
  -17340   -17292   -17300   -17349   -17436   -17564   -17681   -17749 
  -17794   -17791   -17720   -17608   -17415   -17102   -16688   -16203 
  -15709   -15285   -15010   -14925   -15036   -15378   -15975   -16778 
  -17718   -18674   -19476   -20017   -20229   -20084   -19674   -19030 
  -18140   -17176   -16302   -15532   -14915   -14535   -14409   -14496 
  -14714   -14962   -15218   -15487   -15743   -16008   -16335   -16753 
  -17269   -17869   -18533   -19155   -19615   -19891   -19963   -19777 
  -19316   -18640   -17860   -17061   -16337   -15794   -15469   -15334 
  -15362   -15513   -15712   -15886   -16023   -16134   -16196   -16202 
  -16183   -16155   -16133   -16131   -16146   -16218   -16407   -16710 
  -17139   -17701   -18352   -19075   -19854   -20607   -21233   -21675 
  -21942   -22027   -21863   -21434   -20829   -20095   -19245   -18365 
  -17489   -16588   -15731   -15009   -14441   -14041   -13813   -13720 
  -13725   -13805   -13928   -14109   -14379   -14706   -15080   -15509 
  -15966   -16404   -16750   -16990   -17154   -17234   -17293   -17399 
  -17530   -17669   -17813   -17940   -18049   -18180   -18336   -18460 
  -18539   -18574   -18518   -18369   -18172   -17954   -17723   -17473 
  -17181   -16870   -16557   -16227   -15880   -15532   -15241   -15076 
  -15003   -15015   -15165   -15412   -15714   -16104   -16552   -16970 
  -17302   -17577   -17826   -18032   -18198   -18325   -18434   -18549 
  -18683   -18855   -19015   -19105   -19173   -19262   -19350   -19397 
  -19369   -19298   -19187   -18955   -18588   -18145   -17655   -17161 
  -16725   -16401   -16214   -16137   -16153   -16264   -16454   -16710 
  -17002   -17290   -17558   -17761   -17806   -17651   -17351   -16958 
  -16465   -15886   -15256   -14603   -13988   -13473   -13075   -12815 
  -12710   -12730   -12867   -13174   -13664   -14255   -14898   -15637 
  -16504   -17479   -18520   -19563   -20538   -21397   -22091   -22578 
  -22866   -22959   -22814   -22397   -21730   -20851   -19772   -18501 
  -17134   -15805   -14591   -13576   -12836   -12343   -12070   -12059 
  -12316   -12780   -13377   -14060   -14795   -15538   -16265   -16981 
  -17665   -18283   -18819   -19270   -19673   -20080   -20502   -20929 
  -21298   -21514   -21546   -21415   -21160   -20795   -20289   -19669 
  -18984   -18232   -17420   -16570   -15664   -14707   -13775   -12953 
  -12320   -11925   -11764   -11815   -12032   -12387   -12922   -13650 
  -14501   -15444   -16464   -17457   -18339   -19096   -19687   -20091 
  -20360   -20526   -20596   -20604   -20592   -20553   -20461   -20311 
  -20068   -19704   -19255   -18742   -18155   -17528   -16911   -16327 
  -15805   -15395   -15098   -14891   -14794   -14813   -14901   -15058 
  -15286   -15538   -15797   -16064   -16308   -16507   -16679   -16828 
  -16930   -16996   -17056   -17116   -17178   -17248   -17340   -17435 
  -17491   -17514   -17512   -17496   -17519   -17582   -17644   -17743 
  -17918   -18095   -18215   -18289   -18308   -18261   -18169   -18040 
  -17856   -17662   -17509   -17384   -17290   -17246   -17204   -17107 
  -16973   -16821   -16648   -16481   -16351   -16270   -16234   -16218 
  -16212   -16222   -16234   -16248   -16279   -16329   -16410   -16535 
  -16678   -16846   -17053   -17256   -17445   -17636   -17811   -17955 
  -18055   -18101   -18114   -18097   -18029   -17898   -17728   -17557 
  -17378   -17181   -17002   -16848   -16705   -16579   -16471   -16379 
  -16293   -16207   -16140   -16130   -16203   -16369   -16596   -16850 
  -17132   -17448   -17804   -18193   -18573   -18903   -19167   -19323 
  -19319   -19167   -18899   -18505   -18025   -17522   -16988   -16440 
  -15917   -15421   -14980   -14635   -14404   -14280   -14243   -14297 
  -14466   -14752   -15149   -15654   -16261   -16914   -17571   -18243 
  -18880   -19407   -19826   -20129   -20279   -20293   -20178   -19919 
  -19559   -19122   -18580   -17978   -17389   -16811   -16269   -15831 
  -15495   -15254   -15158   -15183   -15260   -15423   -15705   -16059 
  -16442   -16822   -17170   -17475   -17726   -17913   -18030   -18059 
  -18006   -17891   -17695   -17405   -17047   -16658   -16266   -15875 
  -15511   -15224   -15034   -14971   -15069   -15337   -15771   -16332 
  -16947   -17557   -18120   -18612   -19011   -19303   -19476   -19508 
  -19407   -19223   -18998   -18738   -18466   -18236   -18055   -17915 
  -17810   -17712   -17619   -17563   -17539   -17492   -17434   -17411 
  -17385   -17324   -17244   -17161   -17092   -17017   -16910   -16796 
  -16682   -16564   -16459   -16348   -16197   -16007   -15794   -15566 
  -15332   -15104   -14904   -14764   -14694   -14701   -14802   -14977 
  -15182   -15410   -15680   -15983   -16291   -16606   -16930   -17239 
  -17504   -17756   -18025   -18285   -18533   -18783   -19027   -19275 
  -19498   -19666   -19806   -19919   -19992   -20030   -20039   -20029 
  -19958   -19770   -19484   -19098   -18566   -17931   -17297   -16673 
  -16059   -15519   -15081   -14736   -14504   -14386   -14355   -14424 
  -14573   -14763   -15023   -15338   -15664   -16014   -16363   -16669 
  -16924   -17124   -17276   -17380   -17450   -17524   -17606   -17677 
  -17737   -17790   -17827   -17830   -17793   -17711   -17579   -17422 
  -17277   -17134   -16975   -16830   -16729   -16684   -16729   -16846 
  -16988   -17169   -17389   -17584   -17745   -17902   -18021   -18069 
  -18051   -17962   -17797   -17573   -17326   -17078   -16839   -16639 
  -16486   -16364   -16281   -16230   -16190   -16173   -16173   -16164 
  -16172   -16259   -16435   -16664   -16943   -17279   -17647   -18030 
  -18432   -18835   -19209   -19525   -19744   -19854   -19847   -19701 
  -19425   -19056   -18607   -18060   -17417   -16718   -16004   -15335 
  -14783   -14368   -14066   -13865   -13782   -13827   -14004   -14290 
  -14632   -15006   -15408   -15813   -16195   -16525   -16813   -17094 
  -17345   -17538   -17687   -17807   -17892   -17952   -18029   -18132 
  -18231   -18332   -18448   -18557   -18656   -18751   -18815   -18845 
  -18845   -18787   -18688   -18571   -18413   -18229   -18019   -17761 
  -17493   -17264   -17062   -16878   -16768   -16745   -16775   -16853 
  -16979   -17133   -17295   -17472   -17633   -17733   -17797   -17833 
  -17815   -17748   -17643   -17503   -17313   -17076   -16803   -16477 
  -16117   -15755   -15421   -15161   -14968   -14842   -14827   -14920 
  -15114   -15411   -15782   -16201   -16633   -17064   -17510   -17947 
  -18325   -18642   -18930   -19156   -19278   -19319   -19275   -19139 
  -18958   -18748   -18492   -18227   -17979   -17740   -17541   -17368 
  -17178   -16987   -16772   -16522   -16256   -15958   -15651   -15371 
  -15110   -14884   -14714   -14608   -14573   -14621   -14748   -14932 
  -15184   -15506   -15870   -16261   -16675   -17108   -17542   -17938 
  -18292   -18619   -18900   -19108   -19251   -19332   -19355   -19326 
  -19250   -19114   -18904   -18650   -18347   -17983   -17617   -17260 
  -16898   -16586   -16333   -16122   -15973   -15906   -15916   -15962 
  -16033   -16157   -16303   -16462   -16665   -16874   -17056   -17240 
  -17448   -17657   -17854   -18051   -18231   -18341   -18390   -18394 
  -18339   -18240   -18121   -17977   -17811   -17647   -17474   -17239 
  -16937   -16595   -16202   -15780   -15373   -14971   -14618   -14370 
  -14200   -14106   -14139   -14308   -14593   -14993   -15507   -16078 
  -16655   -17253   -17872   -18451   -18955   -19386   -19725   -19967 
  -20136   -20228   -20232   -20159   -20023   -19827   -19580   -19310 
  -19028   -18736   -18426   -18078   -17715   -17361   -17005   -16650 
  -16313   -16002   -15716   -15488   -15345   -15259   -15233   -15296 
  -15419   -15559   -15712   -15872   -16015   -16145   -16273   -16383 
