Origin Time       2025/03/29 04:45:00
Lat.              31.090
Long.             131.512
Depth. (km)       33
Mag.              4.6
Station Code      KGS015
Station Lat.      31.4308
Station Long.     131.0109
Station Height(m) 34
Record Time       2025/03/29 04:45:26
Sampling Freq(Hz) 100Hz
Duration Time(s)  72
Dir.              E-W
Scale Factor      7845(gal)/8223790
Max. Acc. (gal)   8.255
Last Correction   2025/03/29 04:45:26
Memo.             
[...]
     144      168      171      179      198      191      162      145 
     132      121      133      143      148      175      189      187 
     199      198      164      140      148      149      125      120 
     148      172      182      189      187      168      148      141 
     132      140      166      166      149      167      194      180 
     163      172      160      125      108      121      160      197 
     197      187      201      189      126       87      113      166 
     186      183      182      168      152      147      152      171 
     174      153      141      137      144      167      170      170 
     197      205      178      140      120      135      159      167 
     163      162      163      162      164      170      171      166 
     153      141      128      133      166      191      186      176 
     182      170      139      124      128      157      203      205 
     170      132      120      152      183      175      155      148 
     153      152      144      152      175      191      186      168 
     162      141      117      129      162      194      198      171 
     149      141      132      130      159      198      213      194 
     153      130      136      139      147      162      168      176 
     178      168      155      136      135      160      175      171 
     156      145      159      172      174      163      151      162 
     163      144      148      160      159      167      175      171 
     172      171      151      135      137      151      157      157 
     164      174      187      193      167      130      137      168 
     167      152      151      151      156      155      148      162 
     175      186      195      179      153      139      125      121 
     132      156      195      217      202      172      152      139 
     147      163      149      135      141      156      172      170 
     160      171      186      187      171      141      125      147 
     180      183      171      168      167      152      136      129 
     140      164      191      210      206      174      135      108 
      91      109      163      202      216      220      197      155 
     130      126      130      140      152      171      186      178 
     166      171      178      176      157      136      148      162 
     151      147      151      175      203      176      137      128 
     129      137      148      171      197      206      211      190 
     145      116      105      116      147      184      207      205 
     201      184      136       97      103      133      159      189 
     203      184      163      147      136      151      183      189 
     170      160      149      133      139      159      175      179 
     168      144      139      163      167      153      162      175 
     178      171      155      152      171      174      156      137 
     124      128      149      172      194      201      184      166 
     152      139      137      151      163      163      160      164 
     174      174      155      139      152      183      186      160 
     143      151      170      168      145      140      155      168 
     170      170      182      190      174      136      106      128 
     172      171      144      144      176      197      184      162 
     162      175      162      129      117      136      168      194 
     202      184      156      136      117      124      162      202 
     217      210      193      136       74       75      120      174 
     224      240      217      187      159      116      102      149 
     176      148      129      140      152      175      201      195 
     178      159      122       99      133      195      233      245 
     225      157       79       31       48      137      240      292 
     282      211      117       63       55       76      139      198 
     225      245      228      160      128      155      167      141 
     114       91       82      135      222      271      279      248 
     159       60       16       43      109      194      280      313 
     276      217      128        1      -85      -43      141      403 
     584      562      360       75     -187     -338     -310     -122 
     101      278      419      526      608      643      498      117 
    -307     -491     -364      -75      244      495      562      399 
     121      -12      180      533      654      348     -241     -687 
    -481      382     1271     1564     1074      -20    -1135    -1556 
   -1179     -367      511      912      715      585      787      909 
     773      407     -183     -751     -969     -785     -225      581 
    1046      743       95     -286     -166      572     1610     2004 
    1227     -172    -1286    -1514     -805      213      896     1170 
     946      109     -832    -1339    -1397    -1054     -411      222 
     853     1547     1868     1621     1175      750      398       81 
    -383     -957    -1422    -1714    -1737    -1093      469     2366 
    3527     3302     1853      135     -835    -1019    -1107    -1444 
   -1803    -1698     -766      658     1699     1717      723     -589 
   -1287     -926      230     1548     2280     1941      923      162 
     -81     -122     -152     -376     -810    -1215    -1520    -1441 
    -504      924     1649     1212      514      538     1323     2010 
    1688      496     -672    -1321    -1356     -847     -309     -301 
    -812    -1362    -1354     -442     1089     2606     3599     3654 
    2683     1219     -114    -1071    -1706    -2231    -2714    -2845 
   -2374    -1443     -282      911     1756     2020     2106     2377 
    2516     2209     1536      508     -758    -1795    -2241    -2058 
   -1406     -697     -186      376     1028     1405     1451     1235 
     619      -35     -149      155      565      986     1152      977 
     654       44     -888    -1552    -1626    -1289     -606      130 
     444      499      648      772      820      878      729      203 
    -469     -897     -791     -184      480      793      754      537 
     125     -413     -650     -206      689     1354     1374     1039 
     889      947      727       76     -577     -896     -911     -781 
    -661     -571     -355        8      341      515      454      151 
    -176     -288     -230     -112       97      430      837     1174 
    1421     1664     1736     1451      932      261     -557    -1406 
   -2126    -2277    -1466     -220      488      480      267      251 
     521      928     1236     1401     1459     1254      660     -130 
    -873    -1390    -1343     -569      573     1551     1944     1512 
     452     -683    -1485    -1719    -1275     -426      365      832 
     835      461      153      287      716      969      703       54 
    -472     -602     -498     -429     -475     -441     -129      400 
    1061     1763     2231     2188     1620      761      -41     -538 
    -753     -911    -1139    -1364    -1447    -1258     -726       71 
     893     1478     1613     1213      494     -145     -529     -633 
    -378      183      814     1289     1391      940       79     -710 
   -1071    -1021     -716     -341       54      680     1471     1887 
    1648      994      218     -418     -692     -610     -299       55 
     143     -129     -421     -494     -494     -527     -545     -503 
    -288       93      411      670     1113     1582     1657     1312 
     793      263     -101     -222     -368     -733    -1177    -1452 
   -1278     -600      211      814     1225     1552     1749     1701 
    1344      781      205     -298     -687     -830     -726     -568 
    -379       -9      495      947     1120      846      294     -221 
    -554     -650     -550     -372     -157       47      170      206 
     201      175      117      -37     -325     -496     -198      618 
    1647     2389     2401     1595      357     -737    -1316    -1336 
   -1051     -853     -869     -846     -537       75      922     1772 
    2292     2342     1896      982     -101     -969    -1483    -1680 
   -1602    -1313     -857     -183      689     1534     2057     2049 
    1549      880      338      -44     -311     -368     -228     -108 
    -117     -248     -433     -572     -726    -1016    -1372    -1479 
    -949      303     1921     3250     3751     3435     2716     1865 
     850     -360    -1588    -2640    -3368    -3539    -2999    -1821 
    -265     1197     2187     2651     2623     2150     1413      638 
      12     -434     -804    -1159    -1489    -1690    -1593    -1123 
    -322      684     1684     2436     2728     2430     1591      487 
    -561    -1399    -1864    -1741     -999      205     1478     2215 
    2097     1262       67     -996    -1501    -1337     -670      159 
     785     1009      861      498      109     -163     -329     -481 
    -598     -527     -155      479     1120     1406     1115      372 
    -427     -945    -1058     -831     -360      286     1031     1744 
    2195     2161     1560      487     -720    -1614    -1912    -1606 
    -888      -22      745     1178     1169      827      315     -193 
    -515     -653     -723     -734     -608     -234      430     1169 
    1624     1626     1289      872      504      156     -163     -425 
    -652     -889    -1081    -1044     -680      -60      634     1237 
    1711     2058     2160     1871     1202      333     -541    -1273 
   -1756    -1935    -1818    -1455     -934     -351      270      949 
    1543     1796     1663     1294      874      507      225       76 
      28      -44     -191     -403     -675     -966    -1212    -1325 
   -1185     -765     -180      427      966     1375     1656     1868 
    2018     1972     1602      897        8     -842    -1451    -1665 
   -1476    -1066     -623     -178      352      985     1545     1733 
    1448      877      249     -286     -676     -955    -1143    -1235 
   -1208    -1004     -602      -29      619     1206     1638     1887 
    1944     1815     1539     1120      529     -168     -838    -1297 
   -1398    -1171     -733     -160      483     1135     1661     1846 
    1576      970      279     -359     -903    -1293    -1501    -1544 
   -1424    -1093     -490      344     1155     1642     1732     1549 
    1278     1036      785      407     -137     -785    -1381    -1699 
   -1587    -1058     -249      598     1287     1777     2073     2155 
    1965     1462      747        4     -661    -1193    -1607    -1919 
   -2011    -1753    -1148     -315      560     1331     1914     2228 
    2214     1831     1174      434     -294    -1000    -1582    -1867 
   -1763    -1273     -471      510     1483     2203     2474     2269 
    1695      945      236     -276     -530     -530     -410     -386 
    -508     -654     -676     -448      -10      375      491      349 
     129      -27      -87      -49       43       98       39     -198 
    -541     -754     -665     -302      206      737     1190     1505 
    1672     1722     1702     1590     1293      830      341     -105 
    -584    -1186    -1834    -2278    -2278    -1764     -897       75 
     950     1553     1796     1674     1270      773      290     -182 
    -672    -1140    -1429    -1359     -870      -49      888     1745 
    2382     2640     2427     1799      872     -218    -1302    -2218 
   -2759    -2745    -2184    -1237     -153      783     1382     1588 
    1456     1132      724      288     -106     -442     -658     -639 
    -417      -94      274      583      676      486      105     -257 
    -378     -130      432     1112     1667     1923     1868     1576 
    1116      571        4     -537     -951    -1147    -1080     -676 
      14      770     1410     1867     2120     2139     1887     1431 
     953      600      376      224      137       91       -5     -243 
    -626    -1075    -1470    -1728    -1879    -1975    -2011    -1984 
   -1857    -1575    -1134     -562       90      727     1216     1495 
    1582     1517     1354     1108      805      510      216     -105 
    -436     -723     -810     -477      307     1359     2448     3316 
    3655     3318     2440     1252      -18    -1165    -2108    -2828 
   -3206    -3132    -2654    -1903     -984      -39      792     1452 
    1872     2041     2033     1852     1466      950      433      -21 
    -392     -714    -1069    -1404    -1588    -1551    -1251     -720 
     -94      492      928     1167     1221     1138      973      765 
     548      330      116      -83     -292     -527     -769    -1019 
   -1236    -1363    -1339    -1131     -815     -491     -216       63 
     477      981     1395     1586     1474     1113      692      324 
      27     -206     -467     -795    -1070    -1201    -1155     -872 
    -324      419     1216     1953     2542     2872     2878     2516 
    1818      928        2     -814    -1379    -1671    -1798    -1830 
   -1728    -1443     -940     -245      504     1151     1657     2045 
    2272     2288     2084     1692     1166      522     -171     -735 
    -997     -854     -314      449     1155     1529     1429      882 
       2    -1047    -2131    -3187    -4039    -4394    -4016    -2799 
    -838     1617     4256     6642     8271     8814     8185     6498 
    4060     1262    -1497    -3825    -5474    -6296    -6235    -5512 
   -4434    -3195    -1981     -872      207     1309     2443     3534 
    4430     4988     5121     4897     4432     3715     2704     1385 
    -207    -1910    -3438    -4503    -4891    -4563    -3651    -2369 
    -981      220     1013     1304     1090      491     -243     -889 
   -1348    -1582    -1622    -1544    -1313     -885     -299      456 
    1435     2509     3447     4093     4328     4095     3491     2658 
    1701      643     -513    -1738    -2972    -4066    -4760    -4893 
   -4495    -3634    -2428    -1093      247     1544     2674     3465 
    3820     3728     3261     2519     1567      460     -702    -1825 
   -2801    -3485    -3805    -3731    -3288    -2613    -1848    -1117 
    -603     -421     -445     -380       64     1070     2639     4503 
    6241     7508     8051     7743     6671     4990     2837      427 
   -1946    -4021    -5580    -6442    -6546    -5915    -4602    -2843 
   -1020      513     1426     1599     1264      743      348      383 
    1009     2135     3416     4423     4841     4525     3596     2263 
     638    -1067    -2660    -4117    -5286    -5919    -5914    -5275 
   -4091    -2462     -426     1796     3798     5269     6030     6033 
    5435     4464     3200     1688      109    -1304    -2401    -3157 
   -3573    -3619    -3264    -2411    -1067      454     1856     2941 
    3476     3316     2508     1250     -216    -1683    -2886    -3530 
   -3450    -2647    -1275      338     1954     3488     4788     5678 
    5987     5514     4199     2191     -216    -2708    -4914    -6372 
   -6856    -6401    -5115    -3245    -1136      936     2718     3977 
    4602     4634     4163     3244     2030      787     -233     -851 
   -1066    -1024     -865     -675     -533     -488     -572     -726 
    -832     -912    -1061    -1247    -1421    -1582    -1688    -1721 
   -1694    -1529    -1148     -599      120     1046     2010     2683 
    2886     2682     2104     1158       21    -1124    -2096    -2616 
   -2540    -1872     -665      885     2585     4240     5574     6372 
    6453     5759     4386     2435      178    -1965    -3697    -4811 
   -5239    -5061    -4405    -3441    -2304    -1096       49     1000 
    1660     2070     2371     2644     2929     3234     3445     3430 
    3113     2377     1223     -240    -1902    -3523    -4858    -5772 
   -6166    -6079    -5637    -4887    -3794    -2357     -729      839 
    2189     3229     3873     4120     4056     3773     3372     2940 
    2484     1998     1474      943      473       79     -184     -280 
    -267     -166       -6      172      399      692     1007     1252 
    1302     1098      753      422      203       95       79      225 
     527      858     1101     1171     1003      557     -144     -934 
   -1605    -2128    -2516    -2681    -2600    -2276    -1733    -1101 
    -421      303      958     1424     1587     1391      908      282 
    -315     -754     -942     -772     -180      768     1849     2790 
    3377     3372     2610     1179     -724    -2741    -4348    -5240 
   -5327    -4552    -3046    -1105      974     2887     4402     5400 
    5810     5622     4949     3981     2832     1540      162    -1166 
   -2308    -3180    -3717    -3877    -3558    -2675    -1340      214 
    1688     2810     3450     3532     3048     2107      931     -168 
    -881    -1026     -652       37      858     1651     2281     2631 
    2533     1823      454    -1467    -3704    -5846    -7406    -8062 
   -7676    -6192    -3744     -669     2556     5352     7227     7967 
    7601     6336     4453     2301      247    -1479    -2775    -3584 
   -3875    -3628    -2880    -1798     -626      391     1131     1517 
    1448     1000      399     -195     -676     -978    -1081     -938 
    -554        6      727     1568     2431     3172     3672     3878 
    3774     3354     2652     1776      849      -81    -1020    -1953 
   -2793    -3472    -3996    -4252    -4016    -3250    -2108     -747 
     641     1818     2583     2841     2601     1961     1147      410 
    -105     -332     -295     -164      -78      -76     -220     -506 
    -861    -1258    -1674    -2016    -2158    -1999    -1467     -571 
     483     1487     2389     3086     3483     3640     3636     3480 
    3187     2791     2276     1624      874       70     -761    -1572 
   -2339    -3059    -3631    -3932    -3933    -3551    -2762    -1694 
    -490      668     1642     2392     2814     2848     2548     1999 
    1250      334     -668    -1622    -2315    -2496    -2069    -1136 
     166     1707     3264     4545     5301     5394     4819     3688 
    2222      661     -843    -2158    -3110    -3636    -3767    -3491 
   -2813    -1873     -835      174      999     1540     1806     1732 
    1301      733      291      105      167      453      953     1564 
    2114     2442     2386     1842      839     -496    -1933    -3153 
   -3870    -3955    -3442    -2497    -1336      -95     1108     2114 
    2802     3045     2768     2097     1209      247     -585    -1080 
   -1200    -1057     -697     -205      207      423      430      271 
      89      -17      -18      112      322      519      612      508 
     184     -301     -864    -1424    -1883    -2127    -2115    -1826 
   -1221     -336      683     1703     2643     3350     3703     3651 
    3184     2374     1298       83    -1117    -2232    -3180    -3838 
   -4122    -4002    -3456    -2485    -1128      500     2181     3665 
    4727     5142     4833     3946     2666     1139     -442    -1844 
   -2843    -3300    -3184    -2562    -1588     -475      599     1487 
