Origin Time       2025/03/29 04:45:00
Lat.              31.090
Long.             131.512
Depth. (km)       33
Mag.              4.6
Station Code      KGS015
Station Lat.      31.4308
Station Long.     131.0109
Station Height(m) 34
Record Time       2025/03/29 04:45:26
Sampling Freq(Hz) 100Hz
Duration Time(s)  72
Dir.              U-D
Scale Factor      7845(gal)/8223790
Max. Acc. (gal)   5.265
Last Correction   2025/03/29 04:45:26
Memo.             
[...]
    -927     -931     -939     -943     -939     -938     -939     -935 
    -932     -930     -922     -927     -946     -951     -943     -936 
    -936     -936     -924     -915     -919     -928     -936     -939 
    -949     -957     -949     -942     -928     -920     -927     -930 
    -938     -947     -942     -939     -938     -930     -924     -931 
    -935     -939     -947     -940     -936     -935     -923     -920 
    -927     -928     -936     -947     -949     -940     -939     -935 
    -920     -918     -931     -939     -945     -949     -943     -932 
    -919     -918     -924     -934     -949     -950     -946     -949 
    -938     -923     -924     -930     -932     -932     -934     -936 
    -936     -939     -936     -926     -926     -935     -950     -955 
    -946     -943     -938     -923     -926     -926     -915     -934 
    -959     -949     -928     -928     -938     -940     -928     -919 
    -934     -942     -932     -931     -932     -932     -942     -949 
    -942     -928     -926     -939     -943     -943     -946     -936 
    -927     -924     -913     -913     -932     -949     -954     -951 
    -949     -943     -930     -913     -913     -934     -946     -950 
    -953     -942     -922     -915     -919     -926     -943     -961 
    -961     -949     -938     -931     -924     -920     -913     -918 
    -939     -946     -950     -958     -947     -936     -931     -920 
    -927     -934     -926     -928     -940     -946     -940     -935 
    -939     -939     -930     -923     -923     -930     -942     -949 
    -950     -943     -930     -932     -931     -915     -923     -936 
    -935     -945     -953     -940     -934     -939     -938     -931 
    -922     -912     -928     -943     -935     -942     -953     -953 
    -947     -936     -924     -911     -915     -931     -938     -950 
    -954     -936     -938     -936     -909     -912     -945     -947 
    -935     -942     -942     -936     -932     -923     -926     -939 
    -936     -924     -934     -950     -947     -953     -953     -932 
    -928     -934     -926     -923     -924     -930     -945     -957 
    -946     -926     -930     -935     -926     -934     -940     -930 
    -936     -939     -930     -932     -927     -928     -943     -938 
    -935     -949     -950     -939     -924     -928     -938     -938 
    -939     -934     -924     -923     -918     -926     -957     -962 
    -953     -954     -934     -913     -911     -908     -916     -936 
    -953     -963     -957     -932     -916     -926     -939     -940 
    -951     -951     -923     -919     -927     -915     -927     -942 
    -938     -955     -965     -943     -926     -923     -915     -912 
    -936     -950     -943     -946     -935     -913     -915     -926 
    -940     -958     -951     -938     -936     -934     -922     -922 
    -942     -950     -947     -942     -931     -923     -932     -943 
    -947     -954     -951     -939     -934     -919     -908     -920 
    -935     -946     -954     -953     -951     -940     -923     -909 
    -908     -931     -961     -967     -958     -943     -930     -915 
    -908     -926     -950     -957     -955     -947     -927     -908 
    -908     -931     -961     -972     -961     -938     -916     -907 
    -913     -931     -949     -951     -946     -940     -931     -930 
    -940     -945     -935     -935     -947     -943     -930     -924 
    -915     -923     -943     -953     -962     -959     -936     -912 
    -899     -911     -935     -945     -942     -938     -940     -945 
    -936     -930     -927     -932     -955     -970     -958     -942 
    -930     -919     -908     -909     -920     -928     -942     -951 
    -951     -954     -951     -942     -931     -908     -897     -926 
    -951     -947     -935     -931     -939     -946     -938     -927 
    -926     -932     -953     -962     -942     -928     -922     -909 
    -912     -930     -954     -973     -970     -961     -936     -893 
    -880     -901     -922     -947     -972     -973     -962     -934 
    -901     -895     -907     -924     -947     -967     -970     -950 
    -923     -907     -904     -928     -972     -990     -963     -918 
    -885     -884     -905     -924     -947     -978     -989     -970 
    -946     -931     -927     -922     -907     -886     -884     -907 
    -939     -980    -1000     -981     -966     -954     -919     -884 
    -884     -922     -942     -915     -908     -939     -969     -989 
    -992     -972     -940     -909     -884     -866     -884     -936 
    -980     -980     -950     -932     -932     -927     -913     -919 
    -963     -992     -949     -882     -870     -912     -949     -947 
    -946     -966     -976     -967     -966     -959     -932     -911 
    -895     -866     -841     -874     -974    -1035    -1017     -989 
    -963     -918     -876     -868     -892     -924     -938     -938 
    -940     -945     -958     -988    -1004     -982     -936     -905 
    -888     -853     -830     -876     -958    -1007    -1017    -1028 
   -1039     -997     -881     -781     -793     -874     -931     -961 
   -1015    -1069    -1051     -955     -847     -799     -835     -922 
    -996     -999     -959     -962     -977     -931     -868     -864 
    -916     -965     -972     -961     -962     -965     -953     -932 
    -905     -873     -882     -932     -961     -958     -951     -953 
    -959     -949     -913     -900     -915     -935     -951     -940 
    -924     -945     -963     -947     -927     -930     -943     -945 
    -920     -886     -893     -931     -966     -988     -982     -954 
    -934     -915     -888     -874     -891     -928     -962     -982 
    -996     -992     -957     -918     -891     -862     -861     -899 
    -939     -984    -1017    -1004     -967     -919     -876     -880 
    -904     -912     -938     -988    -1004     -976     -940     -899 
    -870     -892     -923     -943     -974     -989     -974     -949 
    -908     -868     -872     -920     -974     -992     -976     -954 
    -927     -904     -899     -901     -913     -947     -986     -992 
    -958     -924     -895     -889     -942     -984     -976     -954 
    -927     -911     -911     -911     -918     -938     -958     -966 
    -950     -922     -924     -951     -947     -912     -900     -920 
    -940     -946     -950     -958     -953     -935     -923     -916 
    -922     -939     -939     -945     -967     -961     -918     -896 
    -913     -927     -930     -947     -969     -977     -959     -926 
    -909     -922     -926     -900     -885     -918     -977    -1011 
    -984     -936     -924     -928     -913     -881     -882     -928 
    -967     -984     -981     -967     -951     -913     -884     -893 
    -905     -918     -953     -982     -974     -942     -915     -920 
    -939     -939     -922     -916     -942     -951     -926     -912 
    -936     -977     -988     -953     -905     -896     -920     -928 
    -924     -934     -945     -947     -947     -939     -936     -943 
    -935     -915     -908     -915     -930     -947     -951     -938 
    -932     -950     -949     -932     -927     -918     -922     -943 
    -955     -949     -931     -922     -923     -935     -949     -951 
    -951     -935     -908     -918     -934     -930     -940     -945 
    -935     -953     -962     -938     -907     -903     -924     -936 
    -935     -936     -938     -936     -943     -957     -955     -935 
    -923     -919     -909     -909     -928     -951     -963     -959 
    -947     -939     -939     -936     -920     -908     -915     -923 
    -930     -950     -954     -950     -965     -965     -940     -916 
    -888     -880     -915     -953     -963     -966     -962     -955 
    -949     -932     -907     -899     -913     -928     -945     -962 
    -973     -965     -928     -903     -918     -943     -936     -912 
    -912     -927     -947     -969     -959     -946     -942     -924 
    -909     -918     -932     -938     -936     -946     -961     -942 
    -905     -899     -922     -947     -962     -962     -950     -935 
    -920     -911     -913     -926     -932     -934     -949     -953 
    -950     -957     -940     -919     -918     -923     -928     -915 
    -919     -954     -959     -945     -936     -945     -957     -938 
    -915     -911     -920     -936     -946     -949     -942     -934 
    -946     -947     -930     -931     -932     -923     -920     -920 
    -928     -945     -951     -951     -947     -943     -931     -919 
    -922     -930     -936     -940     -940     -942     -943     -946 
    -946     -935     -928     -927     -920     -919     -931     -942 
    -942     -939     -934     -935     -949     -947     -931     -919 
    -915     -920     -938     -950     -942     -939     -949     -950 
    -945     -923     -907     -916     -927     -938     -949     -939 
    -939     -954     -953     -934     -922     -936     -950     -934 
    -907     -895     -913     -951     -972     -966     -953     -939 
    -920     -903     -903     -916     -943     -965     -963     -947 
    -931     -926     -928     -928     -934     -938     -939     -942 
    -936     -932     -936     -940     -946     -932     -911     -916 
    -934     -936     -935     -939     -945     -940     -930     -931 
    -935     -931     -926     -932     -935     -926     -935     -947 
    -938     -939     -953     -945     -926     -912     -912     -934 
    -947     -940     -946     -953     -939     -922     -915     -930 
    -950     -945     -926     -920     -924     -926     -936     -949 
    -955     -957     -943     -918     -900     -915     -935     -936 
    -951     -963     -953     -932     -911     -915     -934     -932 
    -932     -943     -950     -951     -943     -939     -935     -919 
    -913     -926     -939     -958     -954     -932     -926     -928 
    -934     -935     -935     -945     -951     -936     -916     -920 
    -926     -923     -946     -965     -958     -951     -934     -913 
    -912     -908     -918     -946     -958     -966     -967     -940 
    -919     -916     -916     -913     -915     -935     -955     -957 
    -945     -935     -939     -943     -934     -920     -915     -924 
    -947     -954     -939     -935     -947     -953     -939     -919 
    -912     -919     -935     -951     -945     -931     -947     -970 
    -955     -912     -891     -911     -930     -934     -943     -955 
    -969     -967     -940     -913     -905     -915     -920     -918 
    -928     -955     -978     -978     -949     -915     -909     -924 
    -927     -916     -924     -942     -955     -963     -946     -916 
    -908     -926     -949     -950     -942     -946     -945     -932 
    -915     -908     -926     -949     -961     -946     -919     -918 
    -938     -959     -958     -932     -923     -926     -920     -913 
    -909     -928     -967     -988     -972     -938     -912     -908 
    -912     -908     -923     -957     -957     -939     -938     -936 
    -942     -951     -935     -915     -912     -913     -915     -931 
    -959     -966     -951     -945     -940     -930     -918     -916 
    -922     -934     -943     -942     -945     -946     -939     -945 
    -942     -916     -903     -916     -939     -950     -954     -961 
    -958     -940     -916     -892     -889     -915     -949     -972 
    -972     -955     -947     -931     -907     -900     -907     -934 
    -959     -955     -946     -943     -938     -930     -919     -912 
    -923     -942     -950     -947     -945     -943     -939     -932 
    -926     -922     -927     -940     -938     -928     -930     -938 
    -942     -938     -936     -939     -935     -926     -924     -927 
    -932     -946     -954     -940     -924     -926     -940     -959 
    -954     -920     -904     -928     -962     -972     -947     -916 
    -908     -905     -904     -928     -957     -963     -962     -955 
    -931     -919     -924     -926     -915     -922     -954     -969 
    -962     -940     -913     -907     -923     -947     -961     -962 
    -954     -943     -938     -927     -911     -896     -896     -928 
    -965     -972     -957     -945     -945     -940     -938     -938 
    -923     -911     -908     -908     -926     -949     -950     -947 
    -958     -961     -951     -943     -939     -907     -878     -913 
    -961     -962     -945     -919     -922     -992    -1115    -1301 
   -1539    -1694    -1583    -1177     -616      -60      348      467 
     228     -353    -1132    -1837    -2274    -2400    -2146    -1506 
    -684       27      379      252     -263     -927    -1487    -1765 
   -1723    -1377     -792     -248     -102     -414     -945    -1497 
   -2037    -2558    -2921    -2884    -2197     -746     1107     2604 
    3168     2708     1455     -299    -2209    -3798    -4638    -4526 
   -3562    -2103     -562      649     1158      895      317     -157 
    -639    -1192    -1462    -1231     -703     -309     -392     -953 
   -1792    -2625    -2979    -2559    -1645     -805     -351     -222 
    -365     -792    -1082     -491     1070     2717     3277     2204 
     -25    -2475    -4475    -5701    -6056    -5518    -4117    -2104 
      93     2142     3765     4584     4261     2694      198    -2455 
   -4442    -5269    -4793    -3326    -1645     -592     -436     -730 
    -889     -756     -598     -684     -966    -1105     -762       37 
     872     1204      734     -315    -1431    -2303    -2988    -3564 
   -3678    -2868    -1286      352     1391     1572     1077      386 
     -55     -178     -338     -841    -1437    -1752    -1999    -2583 
   -3130    -2720    -1355     -373     -722    -1683    -1912     -976 
     359     1143     1190      849      421      -48     -774    -1948 
   -3372    -4436    -4468    -3316    -1551       -1      877     1135 
     978      587      203       14      -72     -309     -891    -1740 
   -2396    -2520    -2261    -1763    -1097     -507      -28      541 
    1108     1185      423     -805    -1834    -2505    -2899    -2824 
   -2187    -1305     -649     -446     -542     -700     -842    -1053 
   -1506    -2128    -2398    -1869     -679      648     1587     1701 
     953     -149    -1156    -2052    -2906    -3435    -3211    -2216 
    -897      201      830     1054      924      372     -598    -1815 
   -2932    -3532    -3294    -2126     -496      716     1084      911 
     436     -490    -1823    -2917    -2906    -1659     -143      604 
     476      -49     -684    -1336    -1904    -2243    -2143    -1483 
    -453      418      625      157     -531    -1090    -1526    -1980 
   -2350    -2222    -1344      -71      897     1132      625     -448 
   -1802    -3029    -3697    -3558    -2648    -1183      433     1642 
    1966     1242     -124    -1401    -2284    -2967    -3434    -3288 
   -2373    -1061      170     1061     1456     1216      410     -660 
   -1628    -2201    -2220    -1625     -596      345      621      -20 
   -1263    -2432    -2990    -2832    -2187    -1318     -403      405 
    1001     1287     1096      349     -757    -1892    -2837    -3422 
   -3422    -2741    -1605     -457      333      629      480       18 
    -697    -1529    -2077    -2045    -1544     -869     -233      259 
     519      413     -133     -988    -1800    -2231    -2145    -1638 
   -1000     -540     -367     -461     -754    -1000     -951     -635 
    -218       24     -233     -943    -1679    -2141    -2381    -2612 
   -2813    -2643    -1841     -569      703     1485     1532      940 
      18     -912    -1632    -2008    -2011    -1744    -1366     -990 
    -714     -595     -540     -436     -353     -414     -661    -1080 
   -1493    -1603    -1309     -805     -351      -63      -58     -465 
   -1165    -1829    -2301    -2546    -2412    -1890    -1269     -812 
    -561     -438     -344     -276     -380     -656     -816     -653 
    -326     -193     -406     -773    -1107    -1359    -1395    -1189 
    -954     -803     -745     -841    -1042    -1165    -1090     -895 
    -762     -762     -773     -707     -622     -568     -648    -1028 
   -1718    -2562    -3233    -3264    -2488    -1209      106     1127 
    1694     1688     1048      -45    -1235    -2184    -2698    -2728 
   -2340    -1719    -1067     -441      101      387      329       -8 
    -486     -958    -1347    -1657    -1863    -1858    -1595    -1200 
    -861     -618     -415     -325     -487     -903    -1472    -1992 
   -2195    -1973    -1422     -780     -329      -97       76      256 
     359      211     -283    -1026    -1803    -2331    -2381    -1954 
   -1215     -434      128      386      278     -203     -830    -1283 
   -1437    -1458    -1517    -1551    -1509    -1445    -1286     -943 
    -535     -302     -421     -851    -1260    -1341    -1124     -800 
    -502     -359     -550    -1119    -1817    -2278    -2317    -2002 
   -1486     -893     -294      292      783      970      691       13 
    -792    -1453    -1836    -1930    -1811    -1598    -1420    -1385 
   -1476    -1512    -1382    -1181     -969     -654     -157      384 
     693      579       67     -660    -1466    -2282    -2944    -3237 
   -3064    -2421    -1444     -483      159      405      313       60 
    -160     -260     -274     -321     -502     -828    -1221    -1560 
   -1786    -1887    -1880    -1849    -1769    -1441     -762       71 
     683      785      344     -378    -1013    -1351    -1443    -1471 
   -1486    -1372    -1075     -722     -535     -653    -1001    -1382 
   -1664    -1775    -1624    -1239     -714     -130      307      413 
     176     -315     -935    -1533    -1927    -1972    -1734    -1448 
   -1316    -1339    -1314    -1070     -675     -295      -20      130 
     140      -29     -387     -889    -1494    -2118    -2594    -2722 
   -2386    -1678     -839     -118      321      427      232     -183 
    -699    -1242    -1711    -1922    -1755    -1281     -745     -368 
    -164      -94     -163     -375     -715    -1055    -1237    -1264 
   -1216    -1135    -1073    -1070    -1098    -1142    -1227    -1302 
   -1242    -1008     -780     -791    -1061    -1367    -1480    -1421 
   -1337    -1274    -1151     -919     -680     -580     -633     -777 
    -919     -982     -920     -681     -342      -82        8     -122 
    -473     -882    -1188    -1389    -1499    -1534    -1570    -1610 
   -1576    -1447    -1271    -1081     -891     -719     -507     -213 
      44       93     -118     -514    -1011    -1545    -1988    -2176 
   -2066    -1734    -1231     -610      -54      222      124     -294 
    -826    -1216    -1340    -1236    -1003     -745     -585     -616 
    -814    -1036    -1136    -1088    -1008    -1035    -1163    -1302 
   -1355    -1247    -1050     -901     -785     -626     -456     -407 
    -595     -949    -1244    -1345    -1313    -1271    -1263    -1240 
   -1173    -1119    -1156    -1255    -1274    -1170    -1032     -943 
