Origin Time       2025/03/29 04:45:00
Lat.              31.090
Long.             131.512
Depth. (km)       33
Mag.              4.6
Station Code      KGS010
Station Lat.      31.7123
Station Long.     130.2735
Station Height(m) 16
Record Time       2025/03/29 04:45:56
Sampling Freq(Hz) 100Hz
Duration Time(s)  60
Dir.              U-D
Scale Factor      7845(gal)/8223790
Max. Acc. (gal)   0.606
Last Correction   2025/03/29 04:45:56
Memo.             
[...]
    8237     8222     8203     8193     8193     8190     8182     8168 
    8159     8160     8174     8210     8256     8287     8306     8317 
    8316     8313     8301     8272     8241     8218     8189     8152 
    8121     8102     8097     8104     8117     8124     8127     8124 
    8109     8089     8067     8051     8050     8067     8095     8124 
    8154     8186     8216     8228     8225     8216     8206     8197 
    8181     8160     8137     8109     8081     8056     8037     8033 
    8058     8104     8162     8213     8243     8260     8274     8279 
    8266     8241     8224     8213     8203     8198     8197     8201 
    8214     8245     8278     8298     8309     8316     8322     8317 
    8290     8251     8209     8171     8135     8097     8066     8051 
    8048     8058     8081     8108     8133     8152     8160     8152 
    8132     8116     8114     8128     8148     8168     8182     8186 
    8185     8171     8147     8124     8117     8133     8160     8187 
    8214     8239     8257     8271     8278     8274     8263     8255 
    8245     8230     8212     8191     8175     8176     8186     8191 
    8206     8236     8266     8289     8305     8310     8302     8293 
    8280     8256     8222     8189     8159     8136     8121     8108 
    8093     8089     8095     8108     8117     8125     8129     8133 
    8139     8148     8167     8193     8216     8226     8224     8212 
    8193     8178     8171     8174     8174     8174     8183     8195 
    8199     8199     8190     8167     8147     8132     8109     8082 
    8058     8037     8027     8027     8027     8031     8050     8077 
    8097     8109     8121     8143     8183     8241     8310     8368 
    8415     8445     8441     8424     8401     8365     8330     8306 
    8274     8224     8174     8148     8131     8118     8127     8141 
    8152     8170     8182     8186     8190     8189     8185     8181 
    8170     8155     8140     8127     8105     8078     8062     8054 
    8055     8062     8070     8071     8068     8070     8074     8075 
    8081     8097     8118     8147     8185     8218     8247     8268 
    8283     8289     8286     8278     8272     8271     8270     8262 
    8251     8252     8266     8272     8275     8290     8301     8295 
    8279     8256     8233     8228     8237     8241     8241     8240 
    8228     8208     8190     8163     8135     8116     8093     8070 
    8054     8041     8025     8010     8010     8013     8012     8027 
    8058     8087     8124     8168     8206     8235     8256     8264 
    8255     8232     8206     8185     8164     8145     8129     8122 
    8127     8137     8143     8151     8162     8167     8170     8179 
    8195     8217     8244     8271     8298     8316     8314     8302 
    8284     8259     8230     8210     8195     8185     8181     8185 
    8191     8197     8203     8220     8236     8253     8268     8279 
    8294     8305     8306     8302     8293     8276     8251     8217 
    8174     8121     8070     8029     7996     7966     7944     7938 
    7944     7963     7993     8029     8070     8113     8151     8175 
    8198     8226     8247     8253     8251     8249     8249     8251 
    8262     8271     8274     8274     8260     8235     8212     8187 
    8160     8145     8143     8136     8125     8135     8166     8209 
    8251     8284     8311     8332     8338     8334     8324     8307 
    8282     8249     8214     8174     8131     8097     8067     8028 
    7992     7965     7952     7960     7973     7983     7994     8002 
    8010     8027     8039     8046     8055     8063     8071     8082 
    8101     8122     8144     8175     8218     8248     8260     8279 
    8306     8328     8341     8348     8352     8355     8356     8351 
    8334     8318     8291     8251     8217     8193     8176     8170 
    8176     8191     8202     8214     8225     8222     8217     8212 
    8201     8194     8191     8183     8172     8162     8159     8163 
    8178     8197     8203     8203     8208     8208     8205     8205 
    8199     8199     8203     8199     8189     8172     8158     8149 
    8143     8135     8135     8141     8152     8166     8176     8174 
    8160     8151     8149     8151     8159     8171     8186     8202 
    8216     8226     8237     8245     8244     8235     8216     8186 
    8143     8102     8085     8077     8063     8056     8062     8067 
    8062     8044     8035     8059     8108     8148     8185     8225 
    8263     8302     8325     8330     8337     8347     8349     8356 
    8355     8344     8336     8333     8336     8338     8329     8310 
    8286     8249     8210     8168     8132     8106     8073     8040 
    8024     8019     8020     8029     8046     8052     8047     8046 
    8052     8058     8064     8070     8081     8100     8117     8139 
    8170     8198     8222     8252     8287     8326     8364     8402 
    8442     8472     8479     8471     8452     8429     8405     8376 
    8345     8303     8247     8189     8128     8075     8039     8017 
    8009     8019     8040     8051     8058     8068     8074     8082 
    8094     8112     8140     8176     8212     8237     8266     8298 
    8329     8359     8391     8419     8437     8445     8446     8437 
    8419     8398     8370     8336     8295     8251     8209     8168 
    8117     8056     8000     7946     7894     7858     7838     7831 
    7846     7874     7909     7955     8002     8039     8062     8074 
    8075     8071     8064     8063     8066     8068     8077     8095 
    8122     8151     8171     8176     8172     8174     8179     8187 
    8205     8222     8230     8245     8270     8283     8286     8294 
    8305     8302     8283     8259     8239     8229     8226     8222 
    8213     8197     8174     8145     8117     8104     8101     8102 
    8109     8120     8121     8121     8135     8156     8185     8213 
    8230     8235     8222     8190     8145     8100     8059     8024 
    8002     7987     7973     7952     7928     7905     7890     7881 
    7885     7901     7927     7958     7986     8014     8046     8077 
    8116     8158     8190     8224     8267     8307     8347     8388 
    8418     8438     8457     8479     8494     8499     8511     8525 
    8529     8523     8513     8502     8483     8453     8415     8365 
    8309     8253     8205     8163     8122     8083     8060     8056 
    8054     8047     8046     8048     8047     8044     8040     8029 
    8027     8033     8039     8047     8073     8118     8175     8236 
    8294     8338     8370     8384     8383     8368     8343     8313 
    8283     8257     8237     8221     8209     8209     8214     8221 
    8233     8241     8247     8248     8244     8237     8224     8216 
    8225     8241     8266     8295     8311     8318     8311     8287 
    8257     8233     8212     8187     8158     8122     8082     8036 
    7994     7967     7948     7939     7955     7990     8047     8127 
    8210     8302     8391     8452     8479     8490     8484     8459 
    8426     8391     8344     8284     8212     8127     8039     7954 
    7878     7823     7786     7766     7759     7766     7788     7824 
    7870     7925     7987     8054     8113     8148     8160     8155 
    8136     8108     8070     8036     8014     8005     8020     8063 
    8128     8201     8270     8332     8379     8402     8401     8379 
    8337     8282     8226     8187     8167     8154     8155     8186 
    8229     8274     8324     8372     8413     8436     8436     8419 
    8398     8374     8341     8306     8275     8245     8214     8190 
    8176     8175     8183     8203     8233     8259     8282     8299 
    8309     8307     8291     8259     8225     8195     8167     8139 
    8118     8108     8104     8105     8113     8112     8101     8090 
    8083     8083     8090     8094     8098     8112     8127     8129 
    8116     8094     8067     8037     8021     8025     8060     8121 
    8193     8267     8344     8421     8484     8522     8540     8530 
    8482     8409     8325     8230     8125     8020     7929     7858 
    7815     7800     7807     7832     7881     7935     7979     8016 
    8040     8047     8048     8041     8025     8006     7990     7978 
    7975     7994     8041     8116     8216     8329     8437     8537 
    8626     8689     8719     8725     8711     8687     8665     8640 
    8610     8573     8515     8434     8348     8259     8170     8085 
    8006     7939     7886     7847     7824     7808     7792     7788 
    7794     7811     7839     7870     7902     7940     7970     7993 
    8025     8054     8060     8056     8051     8039     8019     7998 
    7979     7967     7967     7979     8014     8067     8127     8187 
    8247     8303     8351     8383     8401     8405     8388     8361 
    8344     8344     8352     8365     8382     8387     8386     8388 
    8386     8382     8387     8388     8388     8401     8424     8437 
    8444     8455     8467     8471     8463     8444     8418     8388 
    8355     8316     8271     8226     8182     8131     8078     8025 
    7965     7904     7855     7820     7796     7782     7785     7807 
    7839     7874     7912     7956     8014     8083     8147     8197 
    8233     8260     8286     8314     8326     8318     8287     8240 
    8186     8121     8050     7983     7928     7893     7881     7892 
    7939     8016     8110     8224     8343     8451     8550     8627 
    8676     8694     8680     8638     8577     8499     8407     8303 
    8198     8105     8024     7954     7905     7874     7858     7855 
    7863     7877     7893     7905     7915     7927     7942     7965 
    8001     8046     8098     8159     8236     8334     8446     8545 
    8627     8695     8734     8742     8721     8660     8572     8476 
    8368     8262     8162     8064     7975     7902     7842     7793 
    7766     7758     7765     7794     7836     7894     7973     8060 
    8145     8217     8279     8336     8372     8387     8386     8370 
    8345     8310     8272     8243     8221     8199     8186     8191 
    8206     8224     8251     8290     8329     8355     8368     8363 
    8332     8284     8222     8147     8077     8014     7962     7928 
    7911     7904     7905     7920     7952     7989     8019     8055 
    8095     8136     8179     8225     8275     8329     8375     8406 
    8429     8445     8449     8437     8411     8379     8333     8283 
    8245     8220     8208     8205     8202     8212     8232     8249 
    8262     8270     8271     8264     8247     8224     8195     8167 
    8145     8125     8093     8046     7996     7954     7921     7893 
    7870     7862     7870     7886     7902     7931     7965     7992 
    8020     8050     8079     8108     8139     8163     8179     8195 
    8213     8226     8233     8239     8233     8217     8197     8176 
    8154     8133     8122     8120     8133     8163     8206     8257 
    8316     8375     8432     8488     8533     8559     8577     8596 
    8596     8575     8548     8515     8482     8445     8392     8328 
    8264     8203     8145     8093     8039     7982     7923     7870 
    7831     7796     7769     7757     7757     7770     7790     7809 
    7835     7867     7897     7923     7954     7994     8041     8087 
    8124     8154     8182     8213     8251     8291     8324     8356 
    8399     8446     8490     8527     8567     8608     8646     8671 
    8677     8668     8646     8608     8553     8491     8417     8330 
    8244     8159     8083     8024     7977     7943     7931     7928 
    7923     7924     7938     7954     7971     7996     8029     8064 
    8104     8149     8195     8228     8243     8252     8257     8241 
    8209     8168     8125     8074     8017     7966     7927     7890 
    7871     7877     7897     7933     7983     8043     8109     8179 
    8249     8306     8352     8399     8438     8465     8486     8488 
    8483     8473     8452     8424     8395     8361     8326     8289 
    8247     8199     8145     8093     8054     8017     7982     7952 
    7931     7917     7911     7916     7933     7954     7977     8013 
    8058     8110     8176     8251     8325     8395     8448     8487 
    8513     8518     8496     8457     8414     8367     8302     8228 
    8162     8102     8055     8023     8002     7997     8010     8032 
    8066     8110     8159     8208     8256     8297     8321     8330 
    8329     8314     8280     8224     8155     8089     8027     7962 
    7900     7851     7816     7798     7798     7809     7830     7862 
    7909     7960     8012     8062     8106     8152     8205     8255 
    8297     8337     8379     8409     8428     8442     8442     8432 
    8421     8406     8375     8337     8301     8259     8218     8183 
    8147     8114     8093     8075     8064     8062     8062     8066 
    8074     8091     8116     8139     8171     8220     8264     8305 
    8351     8394     8432     8455     8460     8457     8445     8426 
    8411     8392     8367     8344     8324     8307     8298     8286 
    8276     8272     8267     8266     8279     8297     8311     8329 
    8345     8352     8345     8321     8282     8224     8140     8041 
    7944     7847     7750     7666     7604     7564     7546     7555 
    7592     7647     7715     7796     7890     7985     8073     8155 
    8228     8298     8359     8403     8437     8463     8476     8480 
    8476     8472     8457     8418     8374     8336     8294     8249 
    8218     8193     8170     8148     8122     8101     8098     8104 
    8110     8118     8131     8154     8178     8197     8208     8220 
    8229     8233     8229     8218     8199     8176     8155     8129 
    8093     8051     8020     7998     7985     7977     7981     7998 
    8024     8054     8083     8122     8171     8220     8263     8301 
    8333     8353     8368     8386     8401     8405     8403     8410 
    8411     8406     8395     8372     8341     8306     8253     8195 
    8141     8083     8029     7983     7939     7906     7889     7874 
    7866     7869     7885     7913     7950     7990     8031     8067 
    8106     8152     8199     8244     8290     8330     8365     8399 
    8426     8437     8438     8437     8425     8407     8383     8348 
    8314     8283     8245     8198     8154     8116     8079     8048 
    8024     8010     8017     8043     8077     8109     8141     8172 
    8208     8248     8279     8305     8321     8326     8329     8324 
    8305     8289     8275     8257     8244     8235     8235     8237 
    8236     8236     8240     8239     8229     8217     8195     8166 
    8128     8086     8046     8013     7986     7966     7951     7950 
    7963     7974     7986     8008     8033     8062     8093     8124 
    8156     8187     8216     8240     8253     8264     8284     8302 
    8303     8299     8291     8289     8286     8272     8253     8239 
    8224     8212     8205     8199     8190     8179     8175     8175 
    8175     8172     8171     8174     8182     8198     8213     8221 
    8237     8248     8245     8252     8253     8243     8239     8232 
    8216     8201     8175     8144     8122     8105     8082     8059 
    8044     8036     8029     8020     8012     8010     8023     8037 
    8051     8068     8097     8124     8154     8197     8241     8279 
    8314     8352     8384     8403     8413     8428     8437     8437 
    8436     8426     8411     8395     8370     8329     8286     8240 
    8194     8155     8116     8077     8047     8020     8001     7990 
    7986     7989     7993     7998     8009     8017     8021     8033 
    8056     8082     8102     8121     8143     8167     8194     8212 
    8214     8217     8222     8216     8205     8198     8191     8198 
    8212     8217     8217     8214     8206     8193     8183     8175 
    8164     8152     8143     8140     8136     8125     8117     8117 
    8121     8125     8132     8147     8172     8199     8218     8239 
    8260     8279     8293     8303     8309     8301     8283     8266 
    8244     8216     8185     8151     8120     8091     8063     8028 
    7997     7974     7959     7958     7965     7978     8005     8039 
    8073     8114     8155     8197     8235     8262     8287     8310 
    8328     8345     8353     8351     8344     8334     8314     8287 
    8259     8232     8199     8171     8149     8131     8120     8122 
    8120     8120     8133     8147     8166     8194     8216     8235 
    8255     8274     8298     8316     8317     8317     8314     8311 
    8305     8290     8275     8256     8233     8225     8233     8228 
    8213     8202     8191     8183     8181     8172     8158     8145 
    8133     8112     8089     8074     8055     8036     8029     8027 
    8019     8023     8040     8054     8067     8089     8110     8137 
    8172     8206     8236     8264     8286     8305     8326     8336 
    8333     8333     8330     8324     8314     8305     8293     8280 
    8266     8247     8228     8210     8202     8197     8178     8154 
    8133     8117     8094     8058     8019     7987     7955     7929 
    7909     7892     7882     7893     7919     7948     7977     8009 
    8050     8095     8140     8185     8224     8260     8290     8317 
    8337     8343     8345     8353     8352     8344     8336     8320 
    8305     8303     8307     8307     8303     8299     8303     8313 
    8314     8316     8320     8326     8328     8320     8311     8310 
    8309     8297     8284     8266     8235     8199     8163     8122 
    8082     8040     7998     7956     7920     7890     7877     7877 
    7878     7888     7916     7955     8004     8059     8110     8158 
    8203     8243     8275     8301     8322     8329     8322     8314 
    8303     8282     8251     8221     8195     8175     8155     8136 
    8124     8116     8108     8101     8100     8108     8114     8121 
    8132     8143     8155     8175     8197     8209     8220     8229 
    8240     8253     8270     8284     8301     8314     8321     8328 
    8333     8333     8325     8307     8291     8282     8262     8232 
    8212     8198     8176     8151     8129     8117     8112     8106 
    8098     8093     8089     8091     8098     8106     8114     8125 
    8143     8159     8168     8172     8172     8167     8164     8168 
    8168     8160     8159     8164     8166     8170     8176     8172 
    8170     8168     8164     8159     8147     8128     8116     8105 
    8085     8067     8062     8066     8073     8073     8075     8089 
    8110     8137     8163     8186     8212     8235     8255     8276 
    8287     8291     8301     8314     8316     8309     8298     8283 
    8272     8256     8232     8220     8216     8208     8197     8186 
    8179     8181     8176     8174     8179     8182     8181     8186 
    8198     8209     8214     8225     8236     8247     8256     8260 
    8262     8264     8266     8263     8256     8251     8248     8244 
