Origin Time       2025/03/29 04:45:00
Lat.              31.090
Long.             131.512
Depth. (km)       33
Mag.              4.6
Station Code      KGS015
Station Lat.      31.4308
Station Long.     131.0109
Station Height(m) 34
Record Time       2025/03/29 04:45:26
Sampling Freq(Hz) 100Hz
Duration Time(s)  72
Dir.              N-S
Scale Factor      7845(gal)/8223790
Max. Acc. (gal)   7.919
Last Correction   2025/03/29 04:45:26
Memo.             
[...]
    6259     6247     6249     6261     6255     6223     6176     6156 
    6168     6178     6191     6231     6284     6299     6269     6224 
    6187     6169     6177     6191     6200     6215     6237     6250 
    6242     6230     6245     6245     6210     6184     6176     6177 
    6210     6255     6272     6270     6259     6227     6191     6162 
    6153     6174     6223     6266     6270     6251     6241     6224 
    6200     6170     6150     6169     6219     6261     6277     6268 
    6247     6245     6232     6192     6154     6138     6161     6227 
    6264     6266     6269     6249     6226     6215     6172     6143 
    6174     6212     6237     6262     6278     6261     6230     6203 
    6165     6153     6183     6201     6210     6237     6269     6277 
    6255     6227     6200     6160     6142     6172     6228     6286 
    6301     6264     6228     6210     6170     6129     6127     6172 
    6234     6274     6273     6259     6249     6230     6191     6157 
    6161     6181     6185     6192     6237     6281     6273     6257 
    6253     6218     6181     6168     6161     6197     6273     6305 
    6270     6215     6176     6156     6158     6180     6226     6262 
    6246     6224     6230     6212     6204     6231     6224     6199 
    6188     6160     6151     6199     6257     6296     6309     6278 
    6216     6160     6112     6124     6199     6249     6286     6311 
    6254     6177     6165     6196     6232     6258     6249     6193 
    6122     6089     6133     6242     6340     6330     6219     6131 
    6139     6226     6355     6439     6396     6230     5991     5817 
    5856     6095     6400     6613     6669     6606     6444     6196 
    5913     5670     5584     5718     6015     6392     6754     6970 
    6918     6554     6003     5568     5510     5871     6403     6666 
    6467     6035     5699     5703     6042     6349     6323     6085 
    5879     5879     6331     7198     7932     8024     7346     6143 
    4995     4371     4311     4683     5341     6014     6435     6735 
    7215     7715     7892     7649     6925     5880     5043     4818 
    5240     5934     6174     5633     4807     4307     4390     5175 
    6655     8471     9933    10341     9502     7938     6421     5248 
    4384     3969     3975     4166     4514     5005     5459     5791 
    6156     6687     7250     7655     7869     8002     8091     7919 
    7434     6772     5772     4367     2998     2421     3133     4846 
    6716     7875     7971     7423     6999     7190     7828     8294 
    8206     7626     6763     5891     5258     4812     4337     3834 
    3434     3411     4179     5634     7153     8394     9200     9196 
    8432     7597     7122     6778     6123     5140     4406     4411 
    4846     5108     5240     5614     6131     6459     6578     6710 
    6976     7245     7249     6940     6565     6278     6065     5877 
    5637     5359     5196     5336     5923     6737     7263     7281 
    6928     6382     5918     5886     6291     6610     6365     5759 
    5422     5647     6238     6826     7134     7095     6667     5918 
    5281     5074     5157     5286     5468     5964     6902     7894 
    8275     7797     6844     5830     5003     4576     4486     4537 
    4839     5530     6397     7125     7508     7458     7249     7264 
    7425     7492     7362     6966     6353     5672     4966     4298 
    3952     4209     5008     6037     7038     7840     8291     8382 
    8141     7408     6127     4707     3777     3611     3893     4216 
    4676     5620     6990     8270     8905     8758     8118     7319 
    6521     5802     5252     5100     5540     6255     6598     6323 
    5753     5429     5643     6223     6741     6852     6594     6180 
    5633     5158     5185     5768     6458     6682     6369     6139 
    6466     7060     7368     7219     6775     6245     5798     5508 
    5449     5687     6038     6253     6320     6268     5969     5440 
    4988     4907     5242     5702     6045     6481     7222     8016 
    8459     8321     7641     6766     6037     5514     5134     4936 
    5086     5579     6129     6465     6473     6245     6061     6157 
    6532     6991     7345     7550     7526     7136     6405     5454 
    4406     3557     3280     3727     4737     5914     6949     7788 
    8314     8236     7526     6594     5942     5765     5937     6246 
    6573     6871     7069     7101     6826     6130     5196     4378 
    3944     4031     4565     5441     6554     7601     8249     8414 
    8220     7921     7728     7441     6631     5308     4004     3244 
    3252     3935     4938     5881     6585     6984     7129     7268 
    7601     8019     8320     8384     8104     7511     6764     5868 
    4891     4172     3851     3798     3991     4425     4995     5649 
    6380     7075     7658     8151     8451     8434     8185     7746 
    6994     5952     4861     4018     3674     3919     4668     5744 
    6856     7657     7948     7816     7460     6953     6335     5782 
    5439     5240     5016     4714     4490     4576     5103     5886 
    6548     6901     7052     7291     7738     8109     8105     7684 
    6987     6285     5807     5671     5895     6269     6415     6169 
    5752     5522     5607     5769     5709     5371     5000     4946 
    5383     6173     6926     7366     7547     7574     7453     7153 
    6671     6147     5746     5474     5202     4882     4684     4838 
    5381     6157     6957     7620     7974     7933     7620     7195 
    6708     6054     5140     4167     3541     3630     4538     5958 
    7395     8457     8876     8640     8031     7311     6662     6212 
    5822     5251     4598     4221     4321     4730     5184     5611 
    6130     6791     7423     7850     8071     8062     7634     6651 
    5339     4224     3765     4124     5108     6318     7312     7816 
    7919     7831     7609     7213     6592     5798     4968     4207 
    3670     3613     4226     5464     7011     8387     9186     9269 
    8754     7917     6983     6033     5166     4542     4245     4201 
    4261     4426     4796     5346     5919     6427     6937     7503 
    8010     8203     7909     7218     6448     5871     5517     5321 
    5184     5000     4861     4943     5304     5887     6556     7134 
    7469     7518     7339     7049     6806     6714     6750     6771 
    6577     6119     5591     5202     5040     5113     5367     5678 
    5941     6115     6205     6301     6463     6670     6883     7041 
    7071     6922     6633     6326     6058     5834     5629     5443 
    5350     5355     5381     5429     5551     5775     6100     6486 
    6910     7383     7862     8255     8388     8078     7393     6569 
    5725     4955     4364     4021     3948     4147     4595     5256 
    6079     6921     7623     8129     8411     8405     8035     7308 
    6405     5572     4972     4654     4604     4769     5098     5505 
    5841     6025     6092     6184     6442     6844     7272     7585 
    7663     7508     7156     6658     6191     5914     5838     5865 
    5952     6087     6187     6196     6064     5764     5406     5148 
    5155     5472     5967     6493     6928     7237     7492     7596 
    7311     6575     5625     4815     4413     4534     5182     6199 
    7182     7699     7596     7051     6442     6016     5786     5738 
    5853     6046     6193     6184     6027     5850     5769     5794 
    5879     6060     6327     6555     6617     6407     5964     5536 
    5374     5586     6076     6627     7047     7238     7171     6895 
    6546     6266     6228     6497     6886     7121     7038     6659 
    6134     5643     5368     5346     5417     5449     5427     5387 
    5413     5583     5895     6282     6652     6907     7028     7038 
    6909     6596     6138     5586     5030     4645     4514     4607 
    4918     5445     6184     7111     8068     8816     9175     9080 
    8583     7766     6736     5695     4814     4143     3746     3721 
    4094     4807     5742     6710     7519     8060     8252     8032 
    7449     6610     5648     4788     4271     4203     4564     5206 
    5922     6585     7091     7346     7346     7236     7219     7306 
    7314     7106     6686     6211     5876     5710     5641     5643 
    5668     5660     5648     5695     5771     5764     5597     5309 
    5089     5190     5706     6493     7352     8050     8337     8171 
    7665     6961     6245     5574     4916     4344     3964     3929 
    4387     5302     6440     7519     8271     8494     8155     7418 
    6509     5688     5178     4982     5035     5304     5664     6056 
    6511     6947     7213     7194     6882     6477     6216     6135 
    6184     6293     6385     6428     6413     6353     6336     6447 
    6574     6547     6405     6296     6307     6426     6524     6461 
    6185     5752     5313     5005     4968     5319     5954     6585 
    6941     6926     6686     6455     6385     6511     6798     7156 
    7399     7376     7074     6596     6081     5610     5204     4930 
    4912     5202     5757     6489     7184     7584     7607     7319 
    6883     6494     6188     5894     5586     5293     5043     4806 
    4571     4482     4791     5617     6798     8062     9148     9771 
    9776     9238     8293     7064     5736     4509     3518     2886 
    2690     2926     3572     4531     5601     6562     7253     7628 
    7743     7631     7287     6768     6211     5742     5443     5394 
    5629     6025     6431     6733     6852     6817     6704     6508 
    6191     5736     5152     4509     3970     3684     3750     4236 
    5034     5922     6721     7302     7604     7618     7388     7006 
    6583     6258     6099     6107     6257     6447     6605     6768 
    6925     7010     7026     6979     6901     6897     6930     6856 
    6643     6354     6052     5756     5402     4949     4434     3969 
    3761     4014     4830     6141     7663     9028     9906    10061 
    9537     8621     7607     6681     5898     5246     4706     4257 
    3924     3790     3933     4336     4888     5458     6008     6596 
    7211     7712     7981     7992     7753     7344     6847     6195 
    5312     4256     3186     2334     1917     2084     2930     4419 
    6308     8186     9682    10592    10858    10484     9545     8229 
    6786     5470     4468     3883     3805     4279     5206     6386 
    7535     8321     8554     8276     7651     6882     6192     5799 
    5757     5902     6010     5898     5530     5026     4521     4178 
    4209     4770     5822     7060     8094     8645     8587     7981 
    6980     5810     4819     4260     4216     4689     5601     6817 
    8148     9351    10184    10525    10376     9728     8618     7194 
    5713     4429     3450     2808     2589     2887     3658     4742 
    5922     6929     7589     7820     7611     7145     6616     6116 
    5647     5059     4334     3657     3226     3240     3821     4943 
    6384     7742     8644     8878     8437     7584     6616     5763 
    5312     5416     5960     6775     7711     8548     9012     8884 
    8046     6627     5039     3669     2751     2428     2818     3948 
    5609     7433     9053    10211    10793    10728    10091     9053 
    7730     6320     5024     3931     3144     2682     2504     2606 
    2910     3316     3784     4315     5009     5898     6878     7884 
    8808     9435     9572     9092     7993     6484     4888     3484 
    2479     2043     2158     2704     3658     4904     6246     7589 
    8758     9529     9846     9796     9524     9143     8621     7836 
    6739     5382     3878     2469     1513     1246     1737     2925 
    4490     6046     7326     8124     8375     8158     7742     7519 
    7645     8044     8563     8887     8819     8425     7825     7245 
    6894     6704     6500     6150     5483     4510     3522     2866 
    2817     3431     4483     5755     7063     8155     8865     9189 
    9229     9111     8905     8586     8082     7454     6760     5930 
    4961     3919     2906     2104     1651     1647     2170     3219 
    4641     6131     7438     8353     8710     8581     8064     7172 
    6080     5030     4233     3889     4066     4672     5513     6412 
    7267     8048     8749     9316     9715     9965     9995     9706 
    9099     8244     7233     6177     5236     4523     4047     3831 
    3909     4168     4456     4739     5019     5366     5852     6351 
    6740     6995     7040     6822     6405     5975     5805     6054 
    6689     7597     8494     8966     8858     8235     7217     6045 
    4931     3985     3287     2934     3045     3581     4340     5136 
    5800     6223     6386     6266     5853     5251     4627     4216 
    4189     4527     5255     6373     7655     8896     9964    10693 
   10971    10705     9809     8356     6535     4530     2674     1323 
     625      747     1736     3257     5030     6889     8514     9614 
   10149    10145     9605     8657     7479     6222     5131     4432 
    4205     4438     5109     6193     7609     9148    10543    11595 
   12150    12098    11443    10250     8633     6740     4742     2832 
    1120     -346    -1475    -2084    -1958     -973      854     3292 
    5906     8298    10168    11342    11797    11497    10482     8937 
    7048     5074     3426     2454     2269     2839     4024     5520 
    6955     8048     8554     8316     7520     6573     5744     5198 
    5057     5309     5814     6358     6717     6809     6723     6547 
    6338     6083     5730     5310     4889     4565     4461     4626 
    5085     5883     6999     8334     9718    10905    11697    12029 
   11866    11188    10085     8621     6794     4792     2898     1335 
     309      -39      334     1389     2943     4731     6546     8248 
    9582    10246    10129     9261     7755     5900     4029     2411 
    1259      711      807     1571     3002     4949     7076     8992 
   10327    10844    10535     9525     8093     6606     5290     4313 
    3854     3925     4407     5151     6035     7006     7962     8735 
    9171     9178     8824     8198     7317     6264     5211     4367 
    3901     3873     4287     5039     5984     6975     7831     8452 
    8781     8761     8453     7939     7227     6359     5454     4634 
    4010     3699     3731     4062     4766     5949     7443     8981 
   10334    11223    11456    10926     9630     7774     5603     3358 
    1372      -98     -885     -843      -27     1417     3339     5458 
    7493     9277    10596    11279    11298    10679     9535     8078 
    6490     4949     3680     2826     2501     2822     3719     4968 
    6334     7570     8503     9107     9347     9138     8515     7597 
    6486     5435     4660     4113     3728     3510     3450     3613 
    4028     4621     5302     6016     6733     7407     7971     8314 
    8356     8144     7707     7123     6590     6177     5918     5898 
    6087     6426     6902     7419     7809     7954     7798     7306 
    6538     5656     4777     4025     3537     3366     3547     4063 
    4830     5761     6735     7607     8303     8760     8920     8833 
    8568     8125     7501     6713     5761     4710     3685     2855 
    2394     2389     2852     3738     4897     6218     7595     8853 
    9872    10582    10879    10683    10027     8951     7581     6245 
    5174     4419     4048     4094     4460     5071     5896     6793 
    7545     7973     7989     7628     6948     6019     5011     4133 
    3551     3365     3553     4072     4864     5764     6590     7194 
    7483     7495     7291     6917     6489     6089     5756     5544 
    5470     5535     5718     5935     6096     6133     6023     5830 
    5601     5351     5111     4936     4884     4943     5024     5093 
    5240     5499     5823     6238     6713     7161     7535     7789 
    7916     7951     7820     7433     6848     6156     5410     4735 
    4179     3739     3505     3516     3699     4000     4430     4996 
    5618     6201     6687     7101     7537     8023     8549     9103 
    9625    10046    10272    10196     9756     8923     7794     6552 
    5314     4168     3200     2482     2099     2076     2339     2847 
    3570     4432     5355     6269     7150     8005     8727     9231 
    9556     9733     9767     9705     9551     9255     8823     8334 
    7850     7372     6897     6432     5983     5552     5147     4812 
    4599     4517     4571     4773     5097     5499     5929     6272 
    6466     6513     6417     6269     6130     5973     5837     5788 
    5854     6021     6231     6440     6617     6705     6685     6579 
    6412     6180     5872     5530     5229     4997     4858     4862 
    4999     5215     5474     5742     5996     6224     6434     6647 
    6856     7076     7326     7533     7597     7408     6949     6335 
    5647     5030     4603     4326     4209     4311     4594     4965 
    5363     5761     6095     6328     6497     6629     6736     6813 
    6864     6932     7020     7110     7175     7128     6951     6673 
    6280     5829     5416     5105     4981     5061     5300     5688 
    6172     6597     6833     6836     6598     6157     5648     5213 
    4912     4830     5046     5494     6019     6502     6886     7148 
    7276     7245     7045     6733     6397     6072     5782     5629 
    5668     5860     6164     6531     6929     7371     7836     8263 
    8580     8753     8810     8731     8484     8102     7589     6987 
    6386     5825     5336     4950     4668     4540     4560     4669 
    4870     5148     5466     5813     6153     6427     6598     6621 
    6444     6114     5717     5279     4833     4452     4183     4056 
    4086     4256     4530     4862     5221     5559     5833     6048 
    6195     6268     6326     6474     6768     7206     7762     8398 
    9012     9472     9687     9567     9105     8411     7528     6520 
    5545     4672     3921     3396     3133     3102     3345     3881 
    4606     5412     6210     6871     7281     7438     7364     7057 
    6581     6041     5536     5173     5026     5080     5270     5580 
    6023     6569     7171     7798     8390     8833     9055     9057 
    8845     8460     7974     7454     6960     6498     6025     5532 
    5050     4606     4260     4071     4077     4286     4642     5105 
    5638     6162     6601     6883     6979     6870     6571     6158 
    5718     5371     5165     5101     5233     5551     6033     6687 
    7435     8191     8910     9509     9880     9941     9663     9039 
    8077     6866     5590     4422     3505     2938     2728     2918 
    3534     4441     5513     6675     7753     8521     8880     8822 
    8321     7458     6421     5367     4491     3946     3732     3863 
    4306     4889     5482     6048     6539     6876     7007     6898 
    6561     6100     5622     5178     4853     4714     4711     4807 
