Origin Time       2025/03/29 04:45:00
Lat.              31.090
Long.             131.512
Depth. (km)       33
Mag.              4.6
Station Code      KGS018
Station Lat.      31.3757
Station Long.     130.5449
Station Height(m) 51
Record Time       2025/03/29 04:45:32
Sampling Freq(Hz) 100Hz
Duration Time(s)  76
Dir.              E-W
Scale Factor      3920(gal)/6182761
Max. Acc. (gal)   7.639
Last Correction   2025/03/29 04:45:32
Memo.             
[...]
   10585    10525    10440    10329    10221    10219    10358    10533 
   10677    10770    10748    10605    10447    10314    10194    10177 
   10282    10385    10451    10517    10556    10577    10654    10746 
   10726    10617    10497    10315    10105    10062    10223    10463 
   10730    10945    10933    10700    10472    10367    10332    10373 
   10456    10402    10187    10028    10042    10228    10596    10991 
   11146    10998    10668    10268     9973     9986    10247    10487 
   10569    10510    10317    10136    10252    10639    10988    11153 
   11099    10780    10394    10288    10453    10611    10684    10650 
   10328     9771     9396     9440     9846    10544    11284    11615 
   11414    10954    10406     9870     9612     9773    10228    10875 
   11549    11805    11430    10786    10162     9523     9042     8949 
    9091     9336     9850    10640    11460    12175    12710    12801 
   12207    11055     9723     8589     8055     8333     9102     9941 
   10778    11521    11930    12013    11904    11502    10755     9916 
    9240     8864     8974     9619    10565    11529    12206    12248 
   11629    10733     9891     9202     8785     8710     8857     9224 
    9968    11026    12126    12977    13253    12771    11718    10436 
    9202     8300     7953     8194     8955    10046    11065    11664 
   11784    11484    10880    10279    10008    10103    10362    10617 
   10823    10962    10946    10713    10361    10051     9948    10196 
   10732    11242    11418    11142    10543     9895     9443     9336 
    9588    10036    10427    10611    10594    10462    10401    10584 
   10901    11034    10817    10366     9858     9425     9280     9591 
   10217    10931    11651    12239    12490    12384    11999    11306 
   10392     9607     9222     9217     9407     9571     9642     9869 
   10459    11153    11545    11524    11087    10243     9278     8611 
    8434     8814     9725    10780    11526    11991    12329    12376 
   12037    11522    10950    10288     9705     9467     9590     9908 
   10222    10351    10340    10523    11093    11700    11821    11372 
   10669    10060     9737     9626     9516     9395     9309     9139 
    8978     9226     9969    10832    11444    11607    11281    10760 
   10551    10859    11449    12002    12318    12272    11851    11210 
   10519     9844     9234     8748     8445     8399     8613     9029 
    9678    10578    11495    12053    12074    11650    10973    10239 
    9629     9337     9568    10333    11295    12011    12221    11867 
   11037     9907     8719     7870     7773     8508     9757    11125 
   12368    13276    13597    13219    12252    10912     9523     8522 
    8172     8401     8999     9739    10387    10819    11023    10954 
   10607    10193     9983    10023    10205    10504    10902    11289 
   11593    11733    11534    11007    10458    10121     9988    10004 
   10118    10246    10396    10562    10589    10453    10331    10237 
   10056     9893     9999    10393    10941    11562    12064    12178 
   11855    11225    10381     9490     8808     8383     8134     8213 
    8744     9511    10313    11094    11676    11905    11891    11765 
   11554    11342    11128    10764    10333    10183    10382    10630 
   10739    10692    10380     9775     9129     8741     8750     9233 
   10132    11134    11958    12526    12674    12237    11422    10597 
    9899     9404     9176     9046     8863     8763     8873     9115 
    9441     9874    10398    11037    11810    12540    12983    13084 
   12823    12033    10743     9372     8345     7885     8132     8979 
    9943    10640    11143    11588    11913    12077    12053    11775 
   11327    10852    10383     9985     9745     9608     9465     9306 
    9225     9322     9649    10180    10724    11063    11168    11098 
   10880    10631    10487    10393    10282    10250    10385    10679 
   11085    11454    11603    11493    11186    10726    10228     9902 
    9845     9951    10071    10113    10033     9869     9776     9829 
    9934    10048    10193    10294    10326    10407    10592    10809 
   11048    11283    11383    11366    11363    11311    11119    10898 
   10765    10668    10494    10193     9778     9348     9117     9248 
    9720    10430    11195    11730    11873    11652    11069    10167 
    9240     8576     8201     8147     8547     9338    10318    11370 
   12264    12664    12576    12236    11710    11104    10696    10566 
   10553    10580    10651    10651    10493    10250     9972     9680 
    9545     9690     9984    10318    10722    11069    11136    10916 
   10478     9830     9153     8732     8625     8766     9208     9908 
   10609    11172    11646    11946    12003    11983    11980    11847 
   11543    11214    10945    10755    10684    10660    10539    10339 
   10139     9916     9707     9656     9807    10061    10320    10517 
   10595    10618    10701    10792    10741    10512    10143     9666 
    9166     8784     8581     8619     9021     9757    10623    11451 
   12135    12549    12610    12346    11845    11278    10853    10623 
   10493    10403    10379    10405    10359    10164     9856     9500 
    9221     9162     9335     9709    10246    10773    11048    11017 
   10789    10434    10043     9818     9858    10087    10369    10602 
   10820    11090    11330    11418    11356    11222    11079    10963 
   10893    10864    10818    10724    10556    10226     9816     9606 
    9673     9876    10186    10595    10910    10936    10623    10013 
    9291     8763     8588     8714     9117     9738    10367    10897 
   11353    11641    11602    11310    10994    10760    10680    10906 
   11370    11767    11977    12026    11778    11157    10416     9784 
    9294     9060     9186     9554    10047    10656    11211    11441 
   11329    11026    10553     9941     9362     8939     8794     9116 
    9854    10650    11265    11705    11944    11945    11816    11607 
   11260    10873    10543    10167     9726     9396     9226     9137 
    9159     9326     9595     9981    10524    11139    11671    12034 
   12169    11979    11459    10775    10087     9506     9202     9233 
    9442     9744    10130    10481    10770    11105    11437    11601 
   11545    11275    10812    10275     9825     9524     9370     9407 
    9623     9841     9915     9855     9726     9611     9603     9751 
   10088    10637    11340    12040    12593    12918    12916    12514 
   11741    10663     9424     8328     7674     7530     7883     8734 
    9912    11142    12265    13139    13566    13482    12995    12194 
   11186    10238     9510     8954     8597     8486     8506     8602 
    8866     9290     9779    10341    10944    11426    11750    11975 
   12005    11781    11453    11125    10791    10511    10346    10223 
   10087    10054    10141    10157    10072    10022     9980     9894 
    9865     9888     9835     9766     9820     9946    10082    10305 
   10581    10818    11095    11426    11612    11589    11477    11261 
   10873    10469    10247    10237    10438    10814    11134    11230 
   11209    11115    10815    10337     9833     9309     8786     8461 
    8426     8620     9132    10008    10912    11505    11757    11666 
   11230    10652    10162     9816     9683     9895    10400    10978 
   11498    11870    11948    11752    11464    11098    10620    10217 
   10043    10004    10028    10163    10363    10559    10776    10925 
   10840    10588    10345    10109     9807     9494     9250     9085 
    9035     9174     9487     9904    10395    10900    11314    11663 
   12006    12250    12368    12425    12342    12022    11497    10786 
    9947     9163     8596     8347     8476     8935     9563    10165 
   10610    10882    11015    11039    11009    10944    10858    10824 
   10852    10897    10969    11026    10985    10836    10579    10175 
    9683     9264     9013     8961     9155     9541     9963    10360 
   10744    11029    11105    11034    10939    10838    10784    10862 
   10985    11033    11023    10919    10646    10305    10065     9962 
   10012    10241    10562    10868    11156    11374    11383    11158 
   10854    10574    10345    10275    10400    10534    10541    10448 
   10173     9612     8985     8579     8415     8500     8849     9264 
    9570     9851    10190    10530    10915    11453    12051    12568 
   12989    13212    13093    12685    12106    11370    10571     9904 
    9387     8943     8701     8792     9120     9613    10289    10965 
   11365    11490    11419    11080    10533     9994     9536     9176 
    9036     9113     9232     9344     9539     9832    10208    10703 
   11266    11776    12157    12316    12167    11783    11336    10906 
   10484    10139     9936     9795     9670     9602     9559     9494 
    9437     9382     9297     9258     9375     9633     9997    10432 
   10860    11262    11659    12017    12280    12377    12227    11804 
   11224    10701    10364    10270    10507    11033    11595    11985 
   12145    12005    11536    10889    10200     9489     8851     8415 
    8165     8080     8219     8548     8972     9504    10114    10641 
   10971    11097    11036    10821    10550    10305    10116    10104 
   10399    10912    11517    12211    12848    13146    13015    12537 
   11768    10845     9986     9255     8673     8409     8534     8898 
    9386     9952    10419    10586    10475    10202     9786     9332 
    9058     8946     8870     8964     9294     9691    10173    10804 
   11364    11747    12110    12418    12513    12485    12422    12168 
   11678    11164    10742    10393    10179    10144    10126     9983 
    9811     9693     9587     9568     9714     9918    10127    10399 
   10667    10856    11055    11288    11433    11468    11464    11382 
   11216    11092    11034    10924    10783    10670    10446    10049 
    9676     9463     9373     9445     9764    10189    10507    10707 
   10766    10574    10196     9774     9357     9072     9082     9355 
    9781    10322    10859    11197    11283    11177    10904    10540 
   10290    10269    10430    10794    11354    11896    12211    12255 
   12036    11573    10962    10352     9829     9448     9293     9355 
    9515     9681     9792     9801     9743     9691     9711     9861 
   10117    10394    10628    10762    10736    10583    10420    10307 
   10206    10113    10101    10190    10330    10528    10790    11000 
   11057    10961    10724    10425    10223    10178    10208    10278 
   10407    10522    10618    10806    11059    11230    11298    11291 
   11145    10879    10647    10497    10391    10409    10608    10835 
   10988    11110    11127    10953    10692    10375     9916     9414 
    9031     8766     8638     8763     9188     9832    10600    11407 
   12079    12484    12666    12641    12352    11905    11468    11037 
   10614    10310    10092     9871     9764     9858    10008    10182 
   10490    10852    11115    11324    11506    11545    11464    11386 
   11212    10853    10494    10254    10038     9846     9747     9648 
    9468     9294     9142     8933     8781     8885     9220     9667 
   10142    10457    10441    10171     9778     9267     8691     8200 
    7850     7634     7648     7995     8600     9344    10197    11065 
   11798    12359    12786    13111    13382    13611    13687    13489 
   13023    12345    11506    10624     9834     9200     8794     8689 
    8853     9188     9625    10070    10421    10609    10575    10292 
    9827     9285     8732     8190     7703     7339     7137     7123 
    7286     7574     7998     8655     9601    10832    12325    13965 
   15523    16810    17700    18032    17760    17050    16033    14766 
   13397    12118    11005    10062     9272     8537     7720     6851 
    6061     5389     4886     4661     4672     4878     5410     6313 
    7456     8759    10210    11693    13070    14324    15416    16295 
   17109    17976    18709    19102    19133    18695    17573    15804 
   13620    11138     8516     6112     4184     2807     2121     2172 
    2747     3664     4862     6166     7360     8400     9234     9710 
    9844     9795     9612     9391     9433     9926    10710    11587 
   12576    13702    14826    15780    16409    16590    16433    16109 
   15535    14641    13560    12320    10884     9423     8124     7039 
    6290     6059     6335     6922     7686     8523     9172     9399 
    9185     8595     7818     7225     7088     7445     8317     9687 
   11358    13150    14969    16540    17465    17577    16857    15223 
   12833    10133     7484     5222     3722     3115     3277     4068 
    5354     6917     8530    10058    11434    12571    13374    13851 
   14056    14005    13753    13407    13093    12936    12909    12834 
   12595    12182    11594    10888    10172     9385     8389     7300 
    6393     5736     5292     5194     5518     6190     7158     8299 
    9434    10542    11591    12354    12635    12441    11832    10918 
   10006     9353     8995     8987     9397    10054    10734    11423 
   12176    12970    13757    14498    15107    15528    15846    16109 
   16202    16086    15826    15320    14384    12976    11077     8664 
    5943     3297      993     -740    -1575    -1333      -55     2183 
    5150     8339    11366    14179    16692    18746    20301    21228 
   21339    20688    19414    17573    15341    12963    10523     8057 
    5756     3872     2506     1702     1671     2471     3762     5237 
    6798     8364     9929    11547    13147    14533    15571    16209 
   16306    15788    14787    13352    11458     9315     7219     5342 
    3954     3454     3987     5415     7571    10120    12485    14273 
   15379    15701    15251    14296    13079    11735    10463     9493 
    8927     8789     9119     9806    10602    11382    12064    12488 
   12661    12775    12905    12986    13063    13206    13306    13313 
   13321    13271    13037    12569    11670    10148     8155     6015 
    3959     2156      860      344      679     1825     3707     6060 
    8590    11171    13666    15806    17339    18176    18274    17591 
   16312    14711    12936    11231     9796     8538     7455     6708 
    6310     6261     6652     7415     8304     9105     9717    10115 
   10335    10479    10716    11197    11960    12902    13877    14721 
   15302    15692    16034    16238    16126    15711    15107    14339 
   13388    12283    11013     9484     7745     6014     4441     3097 
    2134     1690     1697     2043     2770     3946     5541     7455 
    9489    11384    13066    14584    15843    16718    17206    17310 
   17034    16504    15861    15075    14160    13273    12365    11258 
    9994     8641     7116     5474     3990     2860     2154     2075 
    2825     4281     6220     8509    10835    12816    14353    15452 
   16037    16191    16122    15871    15391    14767    14034    13053 
   11844    10671     9704     8983     8583     8504     8584     8723 
    8893     8929     8707     8358     8018     7722     7641     7954 
    8600     9488    10612    11802    12768    13363    13536    13198 
   12415    11436    10417     9488     8840     8547     8552     8807 
    9300     9997    10845    11806    12795    13694    14395    14767 
   14686    14132    13208    12067    10840     9657     8605     7701 
    6967     6461     6198     6180     6395     6743     7134     7588 
    8171     8915     9817    10847    11925    12958    13868    14554 
   14931    15042    14951    14581    13857    12851    11651    10323 
    9061     8050     7325     6945     6990     7365     7940     8715 
    9662    10637    11571    12461    13220    13796    14189    14315 
   14116    13650    12931    11935    10739     9456     8138     6878 
    5916     5424     5387     5817     6731     7938     9196    10434 
   11545    12316    12741    12904    12740    12300    11811    11337 
   10816    10369    10177    10173    10283    10629    11179    11685 
   11963    11879    11337    10399     9250     7991     6660     5517 
    4886     4804     5301     6482     8107     9817    11551    13201 
   14492    15352    15837    15885    15502    14862    14093    13247 
   12455    11842    11336    10794    10265     9860     9563     9410 
    9512     9829    10246    10729    11150    11352    11397    11374 
   11236    11006    10747    10415     9961     9407     8756     8011 
    7303     6788     6452     6241     6219     6398     6670     7019 
    7489     8038     8626     9292    10072    10930    11870    12948 
   14124    15290    16414    17457    18274    18711    18649    18004 
   16793    15082    12946    10565     8239     6271     4849     4080 
    4019     4567     5554     6823     8172     9422    10501    11380 
   11994    12244    12108    11640    10891     9979     9074     8289 
    7696     7311     7101     7077     7254     7609     8151     8877 
    9683    10465    11231    11964    12541    12940    13232    13341 
   13168    12799    12303    11650    10920    10242     9617     9023 
    8541     8239     8148     8358     8908     9665    10536    11522 
   12510    13327    13967    14476    14782    14867    14791    14513 
   13982    13303    12555    11684    10745     9934     9324     8886 
    8675     8705     8843     9002     9193     9322     9288     9159 
    8988     8761     8560     8458     8361     8191     8029     7923 
    7833     7844     8050     8357     8707     9163     9682    10200 
   10813    11557    12291    12953    13601    14174    14534    14688 
   14684    14438    13882    13086    12105    10962     9816     8828 
    7997     7345     6976     6887     7025     7422     8056     8804 
    9592    10349    10925    11280    11509    11612    11537    11349 
   11134    10895    10667    10509    10414    10342    10299    10305 
   10317    10304    10315    10361    10382    10397    10457    10530 
   10600    10701    10819    10913    10963    10947    10870    10749 
   10557    10291    10007     9718     9400     9081     8807     8561 
    8322     8154     8134     8280     8615     9173     9919    10810 
   11846    12955    14030    15023    15867    16477    16835    16946 
   16769    16291    15595    14719    13625    12382    11099     9813 
    8617     7679     7035     6608     6399     6411     6534     6698 
    6937     7194     7386     7576     7800     7979     8114     8289 
    8482     8637     8813     9028     9190     9316     9488     9667 
    9840    10110    10466    10791    11113    11509    11897    12211 
   12529    12852    13089    13274    13450    13477    13309    13108 
   12893    12546    12141    11788    11408    10993    10678    10449 
   10202    10006     9893     9709     9393     9004     8504     7879 
    7280     6827     6538     6468     6685     7135     7729     8492 
    9395    10275    11126    12008    12770    13286    13628    13799 
   13727    13492    13187    12749    12149    11469    10753    10011 
