Origin Time       2025/03/29 04:45:00
Lat.              31.090
Long.             131.512
Depth. (km)       33
Mag.              4.6
Station Code      KGS009
Station Lat.      31.7368
Station Long.     130.7613
Station Height(m) 4
Record Time       2025/03/29 04:45:45
Sampling Freq(Hz) 100Hz
Duration Time(s)  64
Dir.              U-D
Scale Factor      3920(gal)/6182761
Max. Acc. (gal)   0.985
Last Correction   2025/03/29 04:45:45
Memo.             
[...]
  -13906   -13980   -14108   -14256   -14463   -14723   -14925   -14920 
  -14719   -14539   -14490   -14427   -14209   -13895   -13635   -13527 
  -13595   -13765   -13903   -13971   -14031   -14070   -13985   -13733 
  -13418   -13250   -13377   -13765   -14187   -14388   -14360   -14281 
  -14240   -14206   -14153   -14102   -14099   -14188   -14373   -14563 
  -14633   -14547   -14315   -14004   -13765   -13693   -13723   -13773 
  -13818   -13829   -13819   -13927   -14267   -14684   -14881   -14794 
  -14605   -14489   -14500   -14562   -14523   -14311   -14019   -13779 
  -13609   -13449   -13319   -13305   -13405   -13538   -13663   -13766 
  -13812   -13802   -13745   -13680   -13715   -13869   -14024   -14101 
  -14123   -14123   -14094   -14050   -14070   -14203   -14389   -14543 
  -14673   -14823   -14969   -15046   -14988   -14757   -14428   -14134 
  -13889   -13608   -13274   -12979   -12868   -13010   -13290   -13548 
  -13736   -13913   -14148   -14462   -14788   -14976   -14933   -14738 
  -14562   -14498   -14516   -14532   -14483   -14339   -14107   -13855 
  -13674   -13595   -13599   -13655   -13697   -13685   -13671   -13714 
  -13794   -13863   -13926   -14024   -14143   -14230   -14282   -14325 
  -14374   -14431   -14449   -14362   -14212   -14118   -14109   -14079 
  -13960   -13857   -13917   -14103   -14249   -14290   -14278   -14265 
  -14251   -14160   -13942   -13665   -13469   -13445   -13609   -13919 
  -14244   -14468   -14598   -14664   -14645   -14559   -14458   -14355 
  -14248   -14159   -14112   -14094   -14045   -13919   -13746   -13569 
  -13388   -13226   -13154   -13211   -13367   -13541   -13687   -13843 
  -14036   -14221   -14387   -14573   -14753   -14869   -14895   -14812 
  -14633   -14443   -14315   -14255   -14240   -14234   -14202   -14132 
  -14047   -13975   -13915   -13834   -13768   -13817   -14004   -14239 
  -14410   -14424   -14227   -13880   -13528   -13281   -13148   -13098 
  -13164   -13408   -13795   -14207   -14554   -14789   -14879   -14848 
  -14741   -14563   -14327   -14066   -13840   -13750   -13800   -13891 
  -13980   -14076   -14158   -14203   -14213   -14223   -14291   -14421 
  -14526   -14517   -14389   -14195   -13983   -13791   -13659   -13612 
  -13629   -13675   -13761   -13902   -14047   -14165   -14303   -14490 
  -14677   -14768   -14704   -14526   -14313   -14094   -13864   -13657 
  -13548   -13583   -13736   -13912   -14001   -13973   -13915   -13926 
  -14000   -14077   -14144   -14227   -14298   -14284   -14167   -13997 
  -13847   -13796   -13842   -13907   -13959   -13967   -13873   -13725 
  -13645   -13678   -13805   -14022   -14291   -14548   -14785   -14972 
  -14999   -14806   -14456   -14070   -13746   -13512   -13363   -13317 
  -13390   -13575   -13854   -14182   -14478   -14667   -14733   -14699 
  -14604   -14498   -14401   -14315   -14246   -14157   -14009   -13833 
  -13685   -13595   -13571   -13616   -13724   -13851   -13940   -13993 
  -14049   -14096   -14075   -13962   -13785   -13613   -13526   -13564 
  -13722   -13964   -14230   -14454   -14588   -14628   -14612   -14593 
  -14584   -14547   -14451   -14307   -14154   -14017   -13915   -13868 
  -13864   -13880   -13908   -13927   -13923   -13923   -13976   -14084 
  -14227   -14407   -14572   -14643   -14617   -14517   -14364   -14194 
  -14023   -13846   -13680   -13557   -13482   -13434   -13383   -13339 
  -13347   -13423   -13548   -13749   -14050   -14384   -14659   -14847 
  -14958   -15009   -14996   -14877   -14646   -14383   -14164   -14009 
  -13936   -13950   -14034   -14173   -14305   -14341   -14260   -14092 
  -13873   -13670   -13538   -13487   -13524   -13627   -13735   -13800 
  -13827   -13844   -13854   -13846   -13849   -13894   -13990   -14141 
  -14327   -14490   -14571   -14568   -14534   -14508   -14464   -14368 
  -14246   -14141   -14039   -13898   -13739   -13597   -13467   -13372 
  -13352   -13418   -13586   -13851   -14158   -14462   -14712   -14825 
  -14795   -14697   -14570   -14433   -14337   -14315   -14337   -14326 
  -14231   -14089   -13943   -13792   -13651   -13557   -13531   -13579 
  -13679   -13807   -13939   -14038   -14078   -14064   -14021   -13987 
  -13996   -14067   -14186   -14312   -14395   -14406   -14364   -14297 
  -14195   -14076   -14006   -14014   -14095   -14236   -14383   -14468 
  -14461   -14378   -14268   -14168   -14072   -13963   -13856   -13787 
  -13778   -13843   -13972   -14114   -14220   -14283   -14336   -14405 
  -14447   -14402   -14258   -14053   -13846   -13689   -13608   -13585 
  -13590   -13605   -13622   -13653   -13721   -13842   -14024   -14230 
  -14380   -14424   -14374   -14279   -14163   -14025   -13860   -13672 
  -13484   -13365   -13384   -13541   -13803   -14139   -14496   -14793 
  -14947   -14920   -14735   -14462   -14192   -14003   -13922   -13935 
  -14007   -14091   -14152   -14181   -14182   -14144   -14084   -14041 
  -14017   -13982   -13938   -13910   -13900   -13894   -13886   -13877 
  -13868   -13864   -13873   -13898   -13958   -14044   -14114   -14156 
  -14188   -14204   -14197   -14203   -14268   -14374   -14470   -14532 
  -14565   -14566   -14504   -14377   -14224   -14056   -13860   -13661 
  -13513   -13433   -13412   -13472   -13657   -13958   -14297   -14589 
  -14784   -14855   -14776   -14569   -14319   -14093   -13908   -13785 
  -13746   -13778   -13875   -14020   -14155   -14245   -14293   -14281 
  -14184   -13994   -13751   -13531   -13404   -13416   -13580   -13863 
  -14172   -14434   -14629   -14741   -14753   -14669   -14516   -14343 
  -14190   -14074   -14017   -14026   -14091   -14199   -14281   -14263 
  -14165   -14032   -13875   -13726   -13611   -13532   -13512   -13568 
  -13663   -13765   -13888   -14026   -14142   -14213   -14220   -14175 
  -14111   -14031   -13944   -13891   -13889   -13934   -14035   -14186 
  -14334   -14441   -14500   -14493   -14414   -14290   -14142   -13975 
  -13829   -13748   -13726   -13748   -13812   -13886   -13935   -13966 
  -14013   -14097   -14192   -14262   -14274   -14214   -14119   -14025 
  -13938   -13885   -13886   -13906   -13924   -13959   -14018   -14085 
  -14135   -14130   -14091   -14079   -14110   -14184   -14293   -14398 
  -14480   -14546   -14586   -14599   -14586   -14537   -14453   -14341 
  -14202   -14060   -13939   -13835   -13753   -13715   -13724   -13773 
  -13852   -13928   -13958   -13930   -13859   -13777   -13723   -13713 
  -13758   -13869   -14034   -14219   -14407   -14588   -14735   -14799 
  -14759   -14642   -14474   -14279   -14104   -13987   -13933   -13919 
  -13921   -13919   -13906   -13872   -13812   -13751   -13724   -13729 
  -13738   -13747   -13773   -13810   -13848   -13914   -14022   -14156 
  -14290   -14384   -14436   -14472   -14481   -14459   -14445   -14436 
  -14392   -14313   -14189   -14004   -13789   -13606   -13490   -13448 
  -13468   -13544   -13673   -13816   -13936   -14039   -14147   -14256 
  -14344   -14386   -14387   -14376   -14348   -14298   -14239   -14179 
  -14122   -14090   -14079   -14053   -13982   -13863   -13744   -13703 
  -13757   -13862   -13996   -14146   -14296   -14431   -14539   -14608 
  -14614   -14553   -14450   -14318   -14162   -13992   -13813   -13640 
  -13526   -13518   -13600   -13736   -13895   -14011   -14053   -14091 
  -14161   -14208   -14201   -14182   -14183   -14210   -14262   -14294 
  -14249   -14153   -14081   -14059   -14070   -14084   -14100   -14167 
  -14308   -14492   -14688   -14823   -14809   -14658   -14424   -14131 
  -13822   -13572   -13409   -13322   -13299   -13321   -13388   -13546 
  -13790   -14026   -14176   -14247   -14273   -14259   -14225   -14206 
  -14194   -14162   -14120   -14084   -14049   -14019   -14004   -13983 
  -13933   -13898   -13927   -14008   -14112   -14222   -14294   -14300 
  -14254   -14191   -14134   -14055   -13919   -13776   -13707   -13720 
  -13783   -13887   -13988   -14037   -14046   -14049   -14059   -14095 
  -14172   -14269   -14347   -14399   -14436   -14474   -14515   -14513 
  -14419   -14236   -14031   -13873   -13757   -13652   -13576   -13565 
  -13637   -13791   -13981   -14157   -14285   -14327   -14283   -14205 
  -14140   -14105   -14118   -14188   -14278   -14340   -14354   -14316 
  -14232   -14124   -14025   -13952   -13911   -13920   -13983   -14081 
  -14183   -14245   -14242   -14200   -14171   -14150   -14106   -14037 
  -13964   -13898   -13852   -13839   -13850   -13874   -13958   -14102 
  -14247   -14366   -14459   -14510   -14496   -14413   -14298   -14197 
  -14134   -14101   -14065   -14037   -14044   -14063   -14060   -14030 
  -13980   -13929   -13888   -13844   -13812   -13824   -13884   -13968 
  -14062   -14145   -14174   -14128   -14019   -13874   -13724   -13605 
  -13541   -13548   -13629   -13758   -13910   -14055   -14150   -14192 
  -14230   -14302   -14375   -14399   -14377   -14324   -14263   -14228 
  -14222   -14232   -14279   -14350   -14395   -14394   -14350   -14298 
  -14251   -14178   -14090   -14013   -13916   -13791   -13674   -13567 
  -13496   -13503   -13558   -13623   -13729   -13860   -13957   -14030 
  -14117   -14216   -14321   -14427   -14524   -14613   -14693   -14724 
  -14683   -14581   -14414   -14212   -14037   -13899   -13789   -13736 
  -13750   -13810   -13895   -13991   -14075   -14139   -14190   -14231 
  -14245   -14214   -14163   -14147   -14180   -14232   -14287   -14326 
  -14335   -14331   -14320   -14273   -14177   -14041   -13914   -13858 
  -13869   -13902   -13938   -13962   -13954   -13909   -13861   -13832 
  -13806   -13770   -13737   -13740   -13788   -13839   -13877   -13938 
  -14020   -14062   -14045   -14036   -14090   -14193   -14317   -14450 
  -14574   -14661   -14699   -14698   -14667   -14607   -14502   -14360 
  -14230   -14132   -14041   -13944   -13848   -13758   -13674   -13596 
  -13531   -13503   -13524   -13587   -13693   -13823   -13926   -14001 
  -14087   -14142   -14116   -14072   -14075   -14099   -14124   -14146 
  -14150   -14136   -14104   -14055   -14006   -13959   -13911   -13880 
  -13865   -13857   -13868   -13915   -13985   -14068   -14160   -14232 
  -14263   -14255   -14206   -14125   -14070   -14084   -14133   -14177 
  -14215   -14247   -14281   -14301   -14276   -14202   -14110   -14015 
  -13919   -13863   -13888   -13963   -14039   -14105   -14170   -14254 
  -14369   -14477   -14533   -14530   -14486   -14409   -14302   -14164 
  -13999   -13827   -13693   -13631   -13635   -13690   -13787   -13904 
  -14016   -14103   -14155   -14179   -14180   -14151   -14097   -14037 
  -13977   -13927   -13911   -13943   -14005   -14077   -14144   -14206 
  -14277   -14359   -14449   -14535   -14597   -14624   -14609   -14548 
  -14442   -14305   -14163   -14050   -13976   -13918   -13871   -13862 
  -13902   -13963   -14006   -14020   -14036   -14060   -14045   -13975 
  -13891   -13817   -13762   -13756   -13792   -13824   -13830   -13809 
  -13763   -13700   -13637   -13589   -13581   -13635   -13727   -13810 
  -13882   -13955   -14008   -14028   -14053   -14110   -14196   -14294 
  -14398   -14508   -14598   -14661   -14719   -14767   -14782   -14752 
  -14681   -14606   -14570   -14540   -14457   -14314   -14123   -13887 
  -13630   -13374   -13126   -12919   -12807   -12824   -12966   -13195 
  -13475   -13787   -14109   -14408   -14650   -14826   -14926   -14923 
  -14818   -14669   -14511   -14326   -14110   -13924   -13815   -13769 
  -13757   -13782   -13837   -13909   -13990   -14067   -14119   -14151 
  -14171   -14147   -14076   -14006   -13959   -13919   -13867   -13813 
  -13793   -13816   -13879   -14019   -14219   -14404   -14555   -14683 
  -14750   -14740   -14675   -14551   -14335   -14044   -13762   -13577 
  -13522   -13566   -13663   -13778   -13912   -14079   -14250   -14384 
  -14481   -14548   -14584   -14597   -14590   -14566   -14536   -14481 
  -14384   -14296   -14250   -14202   -14129   -14033   -13921   -13827 
  -13786   -13808   -13890   -14002   -14107   -14190   -14232   -14219 
  -14172   -14104   -14002   -13864   -13722   -13623   -13590   -13599 
  -13627   -13687   -13776   -13870   -13966   -14061   -14138   -14168 
  -14135   -14040   -13947   -13923   -13953   -14022   -14127   -14255 
  -14407   -14536   -14576   -14527   -14400   -14208   -13997   -13811 
  -13663   -13569   -13560   -13614   -13677   -13754   -13866   -13990 
  -14089   -14125   -14089   -14017   -13916   -13784   -13655   -13560 
  -13525   -13579   -13716   -13885   -14008   -14049   -14046   -14046 
  -14053   -14047   -14044   -14096   -14210   -14356   -14515   -14683 
  -14840   -14942   -14952   -14887   -14782   -14654   -14527   -14428 
  -14363   -14326   -14318   -14326   -14311   -14260   -14201   -14121 
  -13986   -13818   -13638   -13455   -13316   -13255   -13272   -13357 
  -13488   -13647   -13819   -13954   -14028   -14087   -14144   -14165 
  -14139   -14088   -14043   -14024   -14017   -14007   -14007   -14040 
  -14096   -14132   -14155   -14207   -14274   -14334   -14421   -14555 
  -14711   -14843   -14911   -14915   -14893   -14860   -14797   -14700 
  -14607   -14533   -14452   -14346   -14216   -14064   -13899   -13717 
  -13520   -13342   -13208   -13131   -13113   -13124   -13150   -13213 
  -13342   -13541   -13792   -14081   -14381   -14642   -14822   -14898 
  -14873   -14747   -14512   -14187   -13834   -13510   -13238   -13034 
  -12916   -12878   -12912   -13015   -13183   -13423   -13727   -14061 
  -14410   -14766   -15103   -15390   -15586   -15632   -15493   -15196 
  -14812   -14404   -13993   -13584   -13198   -12895   -12729   -12723 
  -12872   -13125   -13416   -13713   -13981   -14168   -14271   -14315 
  -14308   -14252   -14173   -14098   -14042   -14012   -14013   -14067 
  -14190   -14363   -14548   -14719   -14872   -15010   -15091   -15068 
  -14966   -14838   -14697   -14532   -14379   -14272   -14202   -14196 
  -14275   -14330   -14313   -14274   -14191   -14062   -13918   -13756 
  -13600   -13497   -13472   -13519   -13606   -13689   -13758   -13818 
  -13863   -13892   -13910   -13940   -14017   -14150   -14335   -14551 
  -14755   -14931   -15064   -15108   -15065   -14945   -14732   -14465 
  -14200   -13953   -13728   -13544   -13431   -13395   -13411   -13462 
  -13528   -13594   -13650   -13696   -13744   -13770   -13755   -13723 
  -13687   -13645   -13612   -13571   -13495   -13411   -13357   -13332 
  -13352   -13441   -13575   -13723   -13879   -14039   -14194   -14341 
  -14485   -14625   -14752   -14854   -14905   -14873   -14755   -14576 
  -14351   -14081   -13781   -13509   -13312   -13190   -13130   -13138 
  -13222   -13387   -13619   -13868   -14102   -14311   -14485   -14640 
  -14762   -14824   -14848   -14849   -14809   -14732   -14638   -14551 
  -14511   -14542   -14606   -14648   -14656   -14640   -14604   -14539 
  -14427   -14261   -14071   -13909   -13796   -13713   -13661   -13657 
  -13696   -13765   -13853   -13942   -14031   -14137   -14246   -14322 
  -14366   -14391   -14385   -14339   -14280   -14231   -14186   -14119 
  -14015   -13895   -13785   -13701   -13651   -13637   -13667   -13745 
  -13845   -13944   -14044   -14128   -14156   -14121   -14055   -13986 
  -13935   -13906   -13885   -13895   -13967   -14048   -14118   -14215 
  -14307   -14356   -14382   -14363   -14290   -14202   -14089   -13919 
  -13716   -13528   -13384   -13308   -13336   -13452   -13604   -13788 
  -13994   -14179   -14311   -14376   -14361   -14271   -14137   -14012 
  -13937   -13896   -13878   -13890   -13914   -13931   -13930   -13888 
  -13816   -13758   -13714   -13668   -13638   -13646   -13706   -13818 
  -13960   -14110   -14268   -14436   -14601   -14736   -14829   -14902 
  -14962   -14996   -14994   -14938   -14848   -14741   -14589   -14395 
  -14196   -14001   -13821   -13685   -13601   -13569   -13585   -13631 
  -13680   -13716   -13754   -13815   -13887   -13958   -14028   -14094 
  -14154   -14215   -14255   -14259   -14241   -14222   -14193   -14141 
  -14068   -13978   -13861   -13748   -13690   -13692   -13743   -13844 
  -13982   -14131   -14278   -14409   -14494   -14508   -14462   -14391 
  -14314   -14235   -14167   -14115   -14075   -14053   -14043   -14046 
  -14074   -14106   -14119   -14121   -14119   -14115   -14109   -14115 
  -14164   -14253   -14337   -14402   -14463   -14510   -14530   -14526 
  -14496   -14446   -14400   -14365   -14348   -14344   -14339   -14338 
  -14346   -14331   -14270   -14168   -14014   -13822   -13657   -13540 
  -13462   -13431   -13449   -13502   -13589   -13706   -13832   -13930 
  -13980   -13990   -13966   -13923   -13882   -13853   -13841   -13853 
  -13889   -13948   -14008   -14030   -14016   -13988   -13958   -13923 
  -13883   -13854   -13853   -13867   -13889   -13932   -13982   -14016 
  -14052   -14101   -14135   -14151   -14170   -14192   -14204   -14202 
  -14194   -14202   -14236   -14302   -14397   -14509   -14635   -14761 
  -14848   -14866   -14830   -14767   -14673   -14547   -14398   -14227 
  -14047   -13863   -13679   -13540   -13466   -13409   -13368   -13381 
  -13431   -13496   -13574   -13647   -13707   -13764   -13813   -13841 
  -13846   -13838   -13830   -13840   -13868   -13904   -13934   -13969 
  -14025   -14074   -14073   -14020   -13937   -13851   -13772   -13705 
  -13669   -13680   -13760   -13910   -14095   -14292   -14496   -14692 
  -14869   -15025   -15153   -15233   -15250   -15198   -15073   -14889 
  -14675   -14444   -14193   -13922   -13641   -13404   -13259   -13182 
  -13130   -13112   -13140   -13199   -13287   -13405   -13539   -13671 
  -13790   -13897   -13997   -14087   -14166   -14237   -14298   -14354 
  -14430   -14522   -14590   -14616   -14608   -14560   -14456   -14319 
  -14187   -14062   -13941   -13852   -13818   -13834   -13884   -13942 
  -13988   -14029   -14081   -14143   -14191   -14216   -14216   -14194 
  -14144   -14068   -13989   -13904   -13806   -13718   -13658   -13634 
  -13668   -13781   -13964   -14188   -14424   -14650   -14849   -15000 
  -15084   -15109   -15089   -15021   -14904   -14756   -14598   -14444 
  -14298   -14165   -14044   -13928   -13830   -13751   -13680   -13613 
  -13539   -13458   -13394   -13358   -13352   -13378   -13444   -13562 
  -13732   -13941   -14185   -14445   -14688   -14895   -15051   -15141 
  -15161   -15116   -15029   -14920   -14794   -14647   -14486   -14328 
  -14191   -14078   -13997   -13948   -13912   -13882   -13857   -13838 
  -13829   -13804   -13740   -13646   -13536   -13414   -13303   -13213 
  -13146   -13118   -13131   -13159   -13212   -13316   -13456   -13598 
  -13731   -13847   -13962   -14094   -14235   -14371   -14482   -14549 
  -14571   -14559   -14522   -14475   -14428   -14384   -14339   -14295 
  -14261   -14250   -14242   -14207   -14139   -14060   -13992   -13941 
  -13900   -13866   -13849   -13852   -13867   -13907   -13971   -14042 
  -14112   -14181   -14255   -14316   -14331   -14303   -14254   -14182 
  -14070   -13936   -13815   -13707   -13622   -13572   -13573   -13643 
  -13771   -13928   -14095   -14244   -14358   -14424   -14448   -14427 
  -14347   -14229   -14101   -13964   -13841   -13756   -13706   -13701 
  -13747   -13823   -13917   -14016   -14102   -14174   -14243   -14291 
  -14315   -14324   -14317   -14303   -14307   -14316   -14312   -14311 
