Origin Time       2025/03/29 04:45:00
Lat.              31.090
Long.             131.512
Depth. (km)       33
Mag.              4.6
Station Code      KGS024
Station Lat.      31.0888
Station Long.     130.6982
Station Height(m) 75
Record Time       2025/03/29 04:45:39
Sampling Freq(Hz) 100Hz
Duration Time(s)  60
Dir.              N-S
Scale Factor      7845(gal)/8223790
Max. Acc. (gal)   9.160
Last Correction   2025/03/29 04:45:39
Memo.             
[...]
    3879     3874     3871     3877     3888     3889     3877     3869 
    3870     3873     3878     3886     3881     3874     3875     3873 
    3873     3885     3893     3885     3877     3879     3883     3879 
    3870     3869     3875     3881     3885     3881     3874     3873 
    3878     3886     3889     3875     3867     3874     3878     3881 
    3883     3877     3871     3875     3883     3878     3869     3878 
    3888     3885     3879     3870     3867     3879     3883     3877 
    3883     3889     3875     3877     3881     3869     3863     3877 
    3886     3882     3875     3875     3878     3882     3881     3875 
    3875     3878     3879     3879     3882     3879     3875     3879 
    3881     3877     3877     3877     3878     3883     3879     3871 
    3877     3885     3877     3869     3877     3881     3877     3874 
    3870     3879     3885     3877     3878     3885     3883     3881 
    3878     3878     3879     3878     3877     3878     3875     3873 
    3875     3885     3889     3882     3875     3874     3875     3877 
    3882     3889     3888     3877     3867     3875     3883     3879 
    3877     3871     3870     3881     3889     3882     3870     3867 
    3878     3888     3882     3874     3870     3873     3885     3889 
    3873     3862     3873     3882     3875     3878     3890     3882 
    3871     3874     3874     3875     3878     3875     3875     3874 
    3870     3885     3894     3882     3874     3878     3877     3874 
    3877     3882     3885     3881     3877     3877     3869     3873 
    3881     3867     3861     3878     3890     3885     3875     3873 
    3875     3878     3878     3883     3885     3874     3873     3878 
    3870     3866     3871     3871     3871     3882     3896     3901 
    3904     3916     3928     3925     3916     3901     3873     3835 
    3816     3816     3816     3825     3835     3843     3878     3923 
    3956     3974     3956     3904     3840     3788     3758     3750 
    3771     3828     3898     3946     3963     3958     3929     3878 
    3815     3778     3801     3882     4024     4205     4345     4380 
    4268     3998     3630     3299     3180     3339     3642     3894 
    4014     4013     3942     3856     3817     3844     3888     3873 
    3785     3689     3697     3877     4160     4360     4318     4070 
    3807     3649     3558     3553     3774     4234     4702     4900 
    4761     4363     3759     3056     2502     2324     2571     3163 
    3964     4793     5309     5169     4445     3576     2871     2479 
    2617     3410     4568     5471     5722     5391     4660     3591 
    2475     1927     2263     3156     4095     4884     5520     5825 
    5425     4264     2860     1935     1837     2305     2918     3577 
    4361     5157     5625     5437     4577     3468     2689     2544 
    2922     3607     4540     5522     6010     5571     4337     2868 
    1841     1694     2316     3225     4071     4801     5335     5374 
    4772     3854     3198     3032     3037     2956     2967     3256 
    3717     4091     4194     4152     4255     4558     4935     5232 
    5360     5282     4924     4306     3585     2870     2259     1965 
    2168     2794     3538     4085     4239     3962     3519     3384 
    3705     4162     4410     4364     4159     4028     4074     4185 
    4140     3785     3235     2809     2928     3901     5390     6485 
    6608     5921     4815     3557     2575     2355     2776     3227 
    3384     3289     3022     2766     2790     3078     3350     3456 
    3487     3628     4008     4553     5001     5098     4795     4280 
    3834     3624     3708     4071     4617     5073     5111     4741 
    4379     4287     4253     3974     3470     3056     2894     2798 
    2563     2255     2080     2219     2716     3406     4090     4654 
    5015     5151     5139     5065     4915     4648     4355     4139 
    4016     3967     3959     3905     3708     3415     3287     3557 
    4098     4576     4779     4546     3809     2857     2164     1958 
    2166     2502     2782     3177     3879     4696     5282     5494 
    5459     5371     5217     4922     4604     4356     4045     3561 
    2984     2532     2369     2581     3160     3875     4411     4653 
    4665     4536     4315     4000     3549     2991     2505     2369 
    2713     3362     4059     4642     5001     5146     5161     4997 
    4567     3967     3492     3412     3705     4029     4004     3596 
    3183     3091     3267     3539     3823     4010     4048     4101 
    4386     4838     5062     4746     4025     3227     2555     2207 
    2351     2853     3392     3813     4122     4351     4529     4702 
    4850     4826     4518     4068     3773     3796     4039     4290 
    4396     4236     3765     3229     2980     3086     3366     3666 
    3912     4050     3971     3705     3523     3573     3705     3777 
    3758     3701     3715     3862     4160     4500     4673     4596 
    4367     4124     3978     3975     4081     4126     3935     3570 
    3241     3030     2933     3003     3277     3689     4135     4544 
    4838     4943     4866     4700     4473     4071     3418     2675 
    2205     2268     2785     3443     3956     4232     4432     4706 
    4951     5059     5084     5008     4699     4153     3595     3225 
    3022     2841     2667     2631     2814     3206     3775     4418 
    4862     4897     4568     4068     3626     3403     3377     3426 
    3510     3686     3974     4293     4600     4935     5212     5194 
    4770     4149     3642     3321     3090     2921     2798     2658 
    2539     2627     3005     3500     3908     4166     4284     4329 
    4395     4521     4684     4860     4990     4995     4845     4584 
    4272     3946     3615     3307     3119     3146     3334     3527 
    3615     3599     3539     3450     3342     3289     3365     3578 
    3875     4139     4252     4210     4079     3886     3688     3686 
    4044     4603     5008     5046     4766     4317     3834     3414 
    3144     3144     3473     3924     4109     3828     3280     2874 
    2898     3316     3890     4436     4872     5089     4922     4380 
    3796     3526     3573     3659     3592     3458     3437     3547 
    3723     3929     4139     4290     4297     4159     4017     3993 
    4035     3981     3778     3553     3411     3304     3157     3022 
    3067     3415     3967     4449     4622     4442     4108     3915 
    4018     4357     4753     4961     4772     4174     3445     3010 
    3069     3469     3937     4311     4469     4257     3692     3083 
    2806     3019     3565     4099     4360     4298     4023     3670 
    3339     3121     3196     3721     4519     5109     5109     4556 
    3828     3294     3057     3040     3159     3383     3717     4147 
    4584     4896     4984     4837     4525     4164     3898     3802 
    3820     3829     3769     3705     3712     3712     3593     3385 
    3215     3165     3179     3194     3307     3565     3777     3762 
    3634     3651     3916     4297     4541     4529     4433     4492 
    4679     4737     4503     4054     3607     3375     3437     3730 
    4152     4544     4668     4414     3927     3473     3199     3075 
    3056     3117     3198     3238     3262     3350     3515     3694 
    3836     3977     4190     4475     4764     4985     5036     4841 
    4463     4051     3744     3653     3808     4094     4311     4288 
    3996     3546     3102     2771     2620     2693     2975     3339 
    3631     3758     3739     3708     3847     4209     4656     4992 
    5073     4858     4464     4131     4050     4218     4472     4565 
    4302     3750     3234     3007     3071     3310     3612     3855 
    3935     3855     3721     3626     3586     3585     3597     3588 
    3561     3597     3709     3798     3832     3896     4089     4375 
    4576     4568     4379     4091     3808     3631     3593     3659 
    3730     3736     3770     3947     4207     4369     4302     4025 
    3688     3466     3465     3681     3990     4234     4325     4183 
    3742     3130     2687     2691     3132     3758     4326     4730 
    4938     4928     4707     4321     3892     3599     3564     3767 
    4059     4261     4271     4071     3746     3451     3287     3260 
    3315     3406     3551     3773     4016     4171     4143     3913 
    3580     3339     3337     3620     4153     4756     5157     5206 
    4922     4419     3871     3433     3129     2889     2705     2712 
    3015     3518     4009     4348     4450     4276     3939     3653 
    3550     3608     3703     3744     3792     3985     4388     4868 
    5162     5084     4662     4131     3740     3581     3591     3628 
    3554     3341     3091     2960     3049     3341     3735     4099 
    4361     4525     4600     4554     4332     3939     3493     3176 
    3115     3316     3667     3982     4120     4047     3867     3802 
    3998     4369     4687     4704     4318     3686     3127     2921 
    3159     3696     4280     4695     4850     4780     4550     4226 
    3882     3551     3217     2937     2820     2895     3123     3456 
    3781     3942     3915     3859     3902     4001     4063     4075 
    4067     4014     3870     3686     3584     3619     3765     3970 
    4203     4494     4858     5216     5456     5478     5166     4522 
    3750     3102     2732     2655     2770     2906     2965     2961 
    2947     2994     3127     3260     3288     3238     3279     3589 
    4183     4872     5408     5636     5530     5155     4689     4392 
    4396     4619     4858     4923     4687     4155     3435     2668 
    2050     1803     2019     2563     3148     3522     3573     3338 
    3051     3046     3468     4170     4885     5397     5590     5443 
    4996     4387     3828     3500     3456     3609     3815     3974 
    4028     3929     3694     3404     3159     3102     3319     3734 
    4167     4465     4540     4407     4202     4063     4021     4037 
    4082     4113     4125     4193     4326     4413     4294     3871 
    3196     2490     2015     1922     2212     2797     3526     4205 
    4644     4784     4719     4614     4649     4889     5174     5251 
    4981     4417     3727     3146     2894     2999     3254     3422 
    3423     3352     3354     3495     3690     3794     3753     3655 
    3599     3631     3807     4125     4490     4812     5074     5204 
    5121     4872     4580     4321     4090     3878     3661     3372 
    2956     2488     2103     1927     2047     2439     2956     3434 
    3808     4106     4341     4479     4503     4495     4575     4793 
    5096     5321     5333     5174     4958     4733     4513     4293 
    4023     3699     3416     3273     3271     3304     3211     2910 
    2533     2312     2353     2600     2947     3318     3685     4021 
    4214     4189     4017     3854     3794     3854     3998     4179 
    4348     4455     4464     4363     4166     3888     3534     3145 
    2803     2583     2508     2567     2752     3063     3484     4005 
    4594     5139     5479     5524     5320     5057     4943     5092 
    5503     6075     6632     6975     6949     6548     5926     5313 
    4911     4764     4722     4533     3954     2862     1390     -130 
   -1366    -2101    -2285    -1980    -1297     -380      622     1590 
    2461     3222     3885     4500     5139     5888     6802     7778 
    8638     9266     9580     9512     9046     8235     7141     5852 
    4523     3360     2474     1822     1298      869      599      526 
     616      842     1175     1591     2143     2879     3682     4329 
    4654     4587     4222     3844     3712     3932     4469     5101 
    5509     5566     5395     5173     4939     4661     4355     4067 
    3856     3819     3978     4197     4236     3928     3307     2585 
    2026     1796     1880     2085     2199     2249     2462     2975 
    3694     4444     5144     5686     5890     5756     5422     4972 
    4448     3888     3391     3103     3114     3480     4240     5260 
    6168     6625     6521     5894     4963     4016     3114     2187 
    1256      480       67       55      319      787     1428     2245 
    3350     4854     6639     8320     9447     9710     9096     7874 
    6327     4691     3196     1927      849      -10     -460     -267 
     560     1736     2932     4071     5223     6292     7060     7435 
    7423     7013     6207     5117     3861     2481     1102        4 
    -423      -12      739     1246     1634     2215     2925     3673 
    4429     5017     5184     4958     4750     5030     6180     8217 
   10462    11885    11750    10147     7820     5363     3065     1340 
     606      706      934      729      -35    -1302    -2847    -4182 
   -4795    -4305    -2546      168     3191     6107     8791    10922 
   12091    12278    11681    10550     9336     8307     7218     5759 
    3929     1888      -35    -1363    -1821    -1489     -769     -213 
      86      607     1659     3064     4461     5360     5266     4257 
    3140     2760     3399     4901     7021     9340    11313    12482 
   12555    11587     9958     7819     5049     1809    -1467    -4175 
   -5651    -5724    -4801    -3532    -2481    -1695     -864      194 
    1518     2971     4291     5559     6978     8314     9184     9408 
    8901     7850     6777     6075     5782     5682     5539     5356 
    5333     5695     6602     7816     8704     8775     7913     6300 
    4360     2577     1179       43    -1015    -1915    -2477    -2639 
   -2334    -1518     -361      897     2161     3411     4677     5895 
    6767     7017     6642     5850     5004     4421     4203     4302 
    4618     5061     5541     6062     6633     7044     6993     6385 
    5321     4045     2933     2247     1930     1709     1391     1019 
     776      878     1372     2039     2600     2887     2868     2704 
    2686     3030     3690     4353     4765     5012     5379     6026 
    7036     8448     9919    10793    10681     9641     7836     5408 
    2741      444    -1090    -1875    -2219    -2407    -2447    -2250 
   -1737     -800      619     2376     4126     5567     6650     7501 
    8105     8291     8043     7542     7057     6706     6378     5977 
    5410     4531     3456     2463     1730     1418     1682     2417 
    3257     3792     3788     3284     2587     2057     1888     2101 
    2558     3007     3253     3217     2961     2768     2972     3639 
    4639     5857     7153     8284     8943     8845     7861     6210 
    4413     2943     2002     1651     1884     2432     2855     2979 
    2880     2659     2428     2327     2373     2474     2609     2708 
    2589     2262     1988     2023     2477     3349     4565     5915 
    7129     8004     8414     8343     7894     7230     6559     5971 
    5266     4301     3204     2165     1379     1070     1229     1637 
    2124     2586     2836     2775     2496     2079     1648     1437 
    1568     1933     2284     2454     2515     2701     3260     4255 
    5491     6664     7539     8068     8398     8650     8776     8633 
    8040     6941     5478     3883     2392     1147      171     -583 
   -1136    -1426    -1431    -1198     -746      -37      962     2181 
    3466     4703     5807     6766     7627     8365     8868     9051 
    8966     8665     8129     7431     6700     6035     5490     4977 
    4345     3558     2633     1555      341     -940    -2101    -2837 
   -2943    -2431    -1507     -479      391     1061     1729     2601 
    3738     5088     6497     7761     8707     9298     9599     9682 
    9637     9533     9267     8661     7666     6385     5016     3731 
    2527     1341      209     -735    -1262    -1183     -514      583 
    1845     2971     3812     4372     4666     4704     4511     4194 
    3851     3480     3146     2976     3044     3368     3879     4460 
    5003     5444     5787     5992     5967     5692     5206     4560 
    3861     3237     2779     2570     2600     2658     2497     2014 
    1306      656      275      280      778     1707     2847     4000 
    5069     6029     6849     7539     8154     8672     9030     9201 
    9130     8750     8106     7268     6297     5279     4244     3164 
    2073     1094      259     -549    -1371    -2139    -2729    -2968 
   -2797    -2253    -1327        2     1652     3429     5142     6667 
    7850     8554     8899     9163     9463     9703     9774     9599 
    9136     8410     7479     6350     5005     3491     1929      448 
    -850    -1879    -2662    -3267    -3603    -3537    -3080    -2273 
   -1078      511     2367     4274     6043     7565     8795     9714 
   10343    10731    10871    10735    10316     9640     8781     7757 
    6484     4984     3427     1987      777     -143     -753    -1086 
   -1225    -1237    -1111     -753     -114      706     1547     2339 
    3129     3920     4608     5134     5532     5825     6014     6137 
    6313     6633     7025     7372     7564     7489     7132     6540 
    5773     4847     3773     2660     1607      660      -79     -483 
    -491     -183      321      954     1648     2367     3132     3896 
    4529     4976     5298     5594     5940     6303     6565     6687 
    6712     6667     6551     6351     6097     5834     5543     5143 
    4529     3720     2922     2305     1844     1462     1139      854 
     580      346      186      149      332      758     1340     1996 
    2698     3473     4418     5594     6910     8139     9066     9609 
    9755     9499     8870     7936     6836     5719     4657     3674 
    2762     1861      963      176     -384     -703     -818     -741 
    -473      -66      475     1167     1973     2837     3705     4537 
    5359     6172     6895     7430     7695     7723     7653     7534 
    7268     6829     6301     5744     5158     4513     3813     3145 
    2562     2050     1622     1340     1229     1239     1297     1399 
    1566     1773     1977     2111     2220     2475     2938     3516 
    4149     4807     5414     5931     6350     6590     6633     6598 
    6546     6382     6000     5371     4538     3643     2882     2331 
    1985     1857     1921     2087     2284     2494     2722     2999 
    3362     3788     4203     4548     4772     4864     4897     4981 
    5127     5244     5262     5162     4945     4594     4116     3611 
    3211     2947     2754     2569     2367     2215     2204     2394 
    2797     3339     3854     4221     4429     4511     4473     4337 
    4193     4125     4101     4074     4048     4014     3970     3932 
    3927     3987     4106     4221     4268     4197     4014     3809 
    3670     3643     3711     3817     3936     4055     4148     4212 
    4278     4390     4550     4718     4830     4816     4629     4297 
    3923     3595     3345     3172     3038     2889     2713     2554 
    2458     2465     2587     2794     3015     3208     3383     3580 
