Origin Time       2025/03/29 04:45:00
Lat.              31.090
Long.             131.512
Depth. (km)       33
Mag.              4.6
Station Code      MYZ015
Station Lat.      31.7182
Station Long.     131.0624
Station Height(m) 146
Record Time       2025/03/29 04:45:43
Sampling Freq(Hz) 100Hz
Duration Time(s)  60
Dir.              E-W
Scale Factor      7845(gal)/8223790
Max. Acc. (gal)   3.750
Last Correction   2025/03/29 04:45:43
Memo.             
[...]
   -3079    -3073    -3088    -3095    -3076    -3055    -3049    -3061 
   -3084    -3098    -3100    -3102    -3092    -3072    -3052    -3063 
   -3111    -3132    -3090    -3037    -3030    -3072    -3113    -3107 
   -3079    -3072    -3088    -3107    -3095    -3032    -2998    -3049 
   -3113    -3121    -3095    -3075    -3071    -3075    -3076    -3080 
   -3091    -3094    -3088    -3091    -3100    -3102    -3109    -3107 
   -3073    -3053    -3064    -3068    -3072    -3079    -3075    -3075 
   -3079    -3078    -3088    -3102    -3092    -3071    -3036    -3009 
   -3021    -3052    -3076    -3111    -3130    -3117    -3115    -3100 
   -3055    -3055    -3117    -3177    -3192    -3138    -3067    -3042 
   -3030    -3006    -2983    -2960    -2980    -3046    -3091    -3114 
   -3165    -3221    -3208    -3118    -3051    -3063    -3103    -3113 
   -3083    -3052    -3021    -2967    -2951    -3022    -3122    -3165 
   -3140    -3075    -3006    -2978    -3018    -3082    -3117    -3118 
   -3133    -3187    -3235    -3233    -3171    -3059    -2940    -2899 
   -2959    -3045    -3090    -3084    -3037    -2999    -3041    -3117 
   -3115    -3037    -2971    -2986    -3117    -3303    -3395    -3310 
   -3095    -2878    -2799    -2889    -3021    -3028    -2875    -2745 
   -2847    -3173    -3530    -3716    -3632    -3348    -3033    -2795 
   -2695    -2768    -2924    -3060    -3181    -3300    -3388    -3372 
   -3230    -3015    -2767    -2571    -2528    -2625    -2828    -3136 
   -3487    -3774    -3889    -3711    -3240    -2674    -2303    -2296 
   -2609    -3060    -3434    -3576    -3485    -3331    -3246    -3190 
   -3045    -2790    -2525    -2421    -2616    -3103    -3657    -3946 
   -3816    -3406    -2949    -2605    -2462    -2543    -2783    -3059 
   -3316    -3577    -3778    -3782    -3524    -3065    -2542    -2154 
   -2110    -2435    -2944    -3407    -3663    -3708    -3612    -3362 
   -2975    -2646    -2565    -2732    -3059    -3439    -3677    -3620 
   -3304    -2878    -2555    -2498    -2693    -3019    -3307    -3402 
   -3368    -3385    -3434    -3350    -3122    -2867    -2670    -2589 
   -2664    -2857    -3076    -3258    -3337    -3262    -3100    -2975 
   -2928    -2922    -2955    -3063    -3229    -3391    -3496    -3481 
   -3299    -3013    -2787    -2698    -2689    -2716    -2826    -3053 
   -3326    -3549    -3643    -3516    -3186    -2848    -2687    -2705 
   -2857    -3126    -3395    -3534    -3500    -3289    -2983    -2716 
   -2571    -2570    -2677    -2821    -2947    -3045    -3152    -3254 
   -3284    -3240    -3183    -3175    -3260    -3426    -3584    -3604 
   -3403    -3053    -2728    -2532    -2475    -2509    -2612    -2787 
   -3007    -3242    -3450    -3531    -3447    -3249    -3059    -3009 
   -3105    -3262    -3434    -3526    -3418    -3122    -2737    -2396 
   -2231    -2254    -2421    -2745    -3204    -3676    -4002    -4070 
   -3871    -3504    -3102    -2749    -2505    -2459    -2633    -2947 
   -3307    -3612    -3761    -3681    -3365    -2891    -2424    -2139 
   -2147    -2430    -2853    -3284    -3657    -3912    -3959    -3763 
   -3397    -2992    -2646    -2425    -2397    -2610    -3006    -3383 
   -3559    -3472    -3132    -2682    -2317    -2139    -2211    -2571 
   -3146    -3723    -4070    -4114    -3923    -3588    -3223    -2944 
   -2809    -2794    -2828    -2849    -2835    -2826    -2879    -2976 
   -3076    -3187    -3306    -3411    -3503    -3565    -3570    -3500 
   -3322    -3044    -2749    -2556    -2521    -2627    -2816    -3019 
   -3172    -3240    -3219    -3133    -3009    -2870    -2759    -2710 
   -2755    -2921    -3173    -3438    -3650    -3708    -3535    -3169 
   -2752    -2459    -2376    -2498    -2837    -3327    -3774    -4020 
   -3990    -3643    -3059    -2438    -1989    -1876    -2137    -2660 
   -3281    -3854    -4247    -4356    -4168    -3781    -3315    -2845 
   -2427    -2162    -2149    -2373    -2722    -3091    -3384    -3496 
   -3420    -3264    -3114    -3007    -2917    -2848    -2886    -3084 
   -3377    -3619    -3676    -3501    -3165    -2786    -2474    -2301 
   -2269    -2350    -2528    -2790    -3091    -3370    -3586    -3730 
   -3785    -3720    -3557    -3342    -3059    -2702    -2365    -2172 
   -2181    -2381    -2714    -3111    -3484    -3731    -3801    -3730 
   -3569    -3376    -3218    -3146    -3165    -3225    -3279    -3299 
   -3252    -3129    -2994    -2916    -2889    -2879    -2880    -2864 
   -2794    -2705    -2667    -2702    -2818    -3026    -3264    -3453 
   -3592    -3688    -3716    -3666    -3532    -3323    -3057    -2752 
   -2447    -2219    -2141    -2219    -2393    -2623    -2884    -3110 
   -3248    -3302    -3316    -3338    -3387    -3464    -3553    -3608 
   -3599    -3541    -3443    -3265    -2986    -2700    -2550    -2600 
   -2798    -3057    -3325    -3537    -3588    -3447    -3183    -2899 
   -2713    -2668    -2754    -2941    -3167    -3333    -3357    -3221 
   -3015    -2862    -2820    -2893    -3024    -3123    -3130    -3060 
   -2974    -2910    -2868    -2841    -2835    -2852    -2925    -3094 
   -3331    -3538    -3630    -3596    -3497    -3411    -3357    -3276 
   -3129    -2930    -2713    -2550    -2501    -2531    -2594    -2689 
   -2822    -3003    -3206    -3384    -3515    -3599    -3623    -3570 
   -3460    -3321    -3165    -3009    -2872    -2782    -2772    -2837 
   -2944    -3069    -3163    -3175    -3138    -3115    -3117    -3096 
   -3033    -2965    -2943    -2980    -3056    -3138    -3204    -3226 
   -3184    -3107    -3037    -2992    -2986    -3013    -3057    -3109 
   -3145    -3144    -3086    -2970    -2820    -2685    -2610    -2614 
   -2698    -2863    -3087    -3327    -3527    -3635    -3649    -3592 
   -3464    -3257    -2994    -2748    -2604    -2585    -2651    -2763 
   -2899    -3048    -3204    -3364    -3510    -3608    -3626    -3581 
   -3511    -3434    -3345    -3210    -3015    -2786    -2573    -2431 
   -2366    -2349    -2392    -2532    -2760    -3030    -3288    -3472 
   -3528    -3472    -3361    -3233    -3115    -3041    -3015    -3030 
   -3079    -3149    -3222    -3262    -3254    -3211    -3156    -3107 
   -3073    -3024    -2955    -2932    -2999    -3115    -3231    -3319 
   -3353    -3303    -3173    -3026    -2938    -2943    -3011    -3113 
   -3222    -3284    -3261    -3165    -3033    -2891    -2774    -2705 
   -2716    -2809    -2938    -3067    -3163    -3202    -3188    -3167 
   -3180    -3229    -3280    -3312    -3318    -3273    -3156    -2987 
   -2822    -2732    -2747    -2841    -2968    -3075    -3110    -3072 
   -2997    -2922    -2880    -2886    -2957    -3103    -3288    -3468 
   -3596    -3630    -3535    -3333    -3079    -2833    -2658    -2593 
   -2627    -2714    -2821    -2938    -3067    -3204    -3348    -3462 
   -3488    -3408    -3253    -3057    -2875    -2756    -2748    -2866 
   -3072    -3288    -3400    -3356    -3211    -3057    -2952    -2928 
   -2964    -3011    -3056    -3109    -3173    -3234    -3260    -3230 
   -3159    -3068    -2987    -2961    -3013    -3122    -3262    -3416 
   -3549    -3600    -3526    -3330    -3056    -2760    -2500    -2324 
   -2265    -2326    -2497    -2751    -3052    -3329    -3511    -3584 
   -3551    -3424    -3261    -3115    -3029    -3019    -3041    -3051 
   -3053    -3055    -3079    -3138    -3192    -3199    -3146    -3053 
   -2948    -2866    -2830    -2814    -2774    -2712    -2666    -2677 
   -2755    -2887    -3045    -3191    -3306    -3408    -3512    -3582 
   -3570    -3466    -3310    -3175    -3110    -3117    -3156    -3188 
   -3206    -3206    -3192    -3173    -3142    -3090    -3015    -2929 
   -2836    -2749    -2694    -2687    -2731    -2844    -3037    -3260 
   -3461    -3601    -3653    -3613    -3497    -3327    -3137    -2947 
   -2781    -2677    -2648    -2674    -2743    -2830    -2893    -2930 
   -2968    -3003    -3032    -3052    -3057    -3064    -3092    -3134 
   -3171    -3198    -3214    -3211    -3187    -3140    -3072    -3007 
   -2956    -2951    -3029    -3171    -3312    -3411    -3438    -3399 
   -3319    -3225    -3126    -3034    -2957    -2886    -2820    -2763 
   -2729    -2729    -2756    -2821    -2937    -3080    -3202    -3277 
   -3314    -3330    -3329    -3316    -3294    -3227    -3114    -3005 
   -2948    -2938    -2928    -2879    -2802    -2743    -2748    -2821 
   -2933    -3044    -3127    -3191    -3260    -3331    -3393    -3430 
   -3433    -3427    -3424    -3408    -3391    -3365    -3289    -3164 
   -3011    -2844    -2685    -2570    -2512    -2531    -2641    -2825 
   -3051    -3283    -3460    -3531    -3493    -3377    -3225    -3079 
   -2991    -2975    -3018    -3100    -3190    -3246    -3235    -3152 
   -3061    -3013    -2998    -3029    -3118    -3218    -3284    -3271 
   -3163    -2998    -2816    -2674    -2605    -2578    -2567    -2596 
   -2678    -2794    -2897    -2978    -3060    -3161    -3289    -3422 
   -3538    -3638    -3707    -3711    -3635    -3461    -3191    -2876 
   -2598    -2420    -2370    -2432    -2566    -2725    -2901    -3083 
   -3226    -3281    -3264    -3215    -3176    -3175    -3226    -3327 
   -3461    -3589    -3665    -3642    -3505    -3280    -3037    -2855 
   -2752    -2697    -2677    -2673    -2660    -2636    -2609    -2616 
   -2689    -2785    -2866    -2955    -3067    -3194    -3358    -3557 
   -3730    -3831    -3832    -3727    -3562    -3408    -3295    -3225 
   -3187    -3159    -3113    -3036    -2925    -2793    -2664    -2552 
   -2475    -2454    -2504    -2619    -2774    -2940    -3092    -3202 
   -3265    -3316    -3385    -3487    -3600    -3682    -3701    -3638 
   -3483    -3288    -3118    -2986    -2872    -2751    -2635    -2562 
   -2555    -2609    -2717    -2872    -3049    -3206    -3321    -3385 
   -3377    -3283    -3117    -2917    -2722    -2579    -2516    -2517 
   -2562    -2629    -2706    -2789    -2876    -2968    -3073    -3183 
   -3273    -3307    -3261    -3134    -2940    -2716    -2513    -2388 
   -2378    -2471    -2635    -2814    -2960    -3071    -3163    -3253 
   -3356    -3468    -3574    -3654    -3677    -3631    -3512    -3352 
   -3200    -3088    -3048    -3091    -3200    -3357    -3516    -3659 
   -3781    -3855    -3889    -3904    -3901    -3865    -3782    -3673 
   -3549    -3393    -3191    -2944    -2690    -2493    -2393    -2405 
   -2497    -2619    -2763    -2941    -3138    -3335    -3510    -3616 
   -3654    -3669    -3684    -3704    -3730    -3744    -3734    -3661 
   -3485    -3210    -2880    -2554    -2299    -2177    -2197    -2315 
   -2481    -2652    -2791    -2871    -2889    -2871    -2837    -2799 
   -2798    -2871    -3013    -3183    -3342    -3462    -3530    -3543 
   -3510    -3446    -3365    -3254    -3114    -2971    -2874    -2868 
   -2961    -3103    -3250    -3379    -3451    -3442    -3335    -3133 
   -2886    -2627    -2382    -2204    -2108    -2085    -2164    -2331 
   -2528    -2733    -2932    -3102    -3234    -3316    -3334    -3304 
   -3241    -3129    -2963    -2772    -2620    -2555    -2573    -2641 
   -2739    -2857    -2988    -3141    -3352    -3620    -3896    -4144 
   -4349    -4499    -4565    -4504    -4293    -3936    -3451    -2880 
   -2297    -1790    -1424    -1224    -1200    -1362    -1680    -2084 
   -2523    -2975    -3389    -3713    -3973    -4203    -4403    -4548 
   -4596    -4499    -4232    -3809    -3296    -2789    -2361    -2041 
   -1823    -1691    -1644    -1667    -1734    -1850    -2053    -2346 
   -2675    -2978    -3229    -3430    -3580    -3700    -3796    -3861 
   -3889    -3871    -3813    -3735    -3634    -3476    -3249    -2959 
   -2624    -2278    -1976    -1786    -1768    -1962    -2369    -2936 
   -3562    -4116    -4500    -4685    -4669    -4444    -4044    -3562 
   -3096    -2710    -2421    -2238    -2161    -2173    -2261    -2424 
   -2651    -2920    -3211    -3499    -3766    -4001    -4189    -4337 
   -4446    -4476    -4398    -4222    -3974    -3650    -3258    -2835 
   -2431    -2103    -1869    -1736    -1721    -1807    -1949    -2135 
   -2367    -2620    -2862    -3086    -3291    -3478    -3666    -3856 
   -4025    -4153    -4210    -4137    -3879    -3423    -2832    -2216 
   -1664    -1244    -1011     -981    -1123    -1399    -1788    -2261 
   -2770    -3294    -3819    -4302    -4695    -4963    -5074    -5020 
   -4834    -4554    -4220    -3881    -3592    -3415    -3364    -3370 
   -3365    -3319    -3191    -2976    -2697    -2369    -2039    -1737 
   -1475    -1310    -1286    -1410    -1699    -2135    -2655    -3207 
   -3731    -4180    -4572    -4897    -5123    -5231    -5174    -4912 
   -4452    -3813    -3049    -2255    -1518     -905     -481     -297 
    -365     -637    -1061    -1636    -2331    -3071    -3801    -4476 
   -5031    -5381    -5502    -5454    -5281    -5008    -4676    -4341 
   -4029    -3743    -3454    -3144    -2813    -2478    -2173    -1923 
   -1729    -1620    -1645    -1792    -2034    -2361    -2736    -3122 
   -3470    -3738    -3897    -3940    -3898    -3834    -3738    -3566 
   -3298    -2943    -2496    -1977    -1433     -920     -515     -261 
    -184     -334     -708    -1271    -2025    -2955    -3983    -4976 
   -5818    -6466    -6880    -7011    -6858    -6444    -5798    -4958 
   -4012    -3084    -2265    -1586    -1090     -814     -750     -851 
   -1039    -1259    -1503    -1780    -2092    -2438    -2806    -3161 
   -3489    -3805    -4098    -4352    -4560    -4714    -4807    -4816 
   -4735    -4572    -4325    -4025    -3701    -3346    -2961    -2570 
   -2204    -1915    -1746    -1692    -1736    -1895    -2174    -2533 
   -2928    -3315    -3649    -3889    -4010    -4004    -3875    -3657 
   -3389    -3111    -2856    -2644    -2465    -2316    -2226    -2220 
   -2307    -2479    -2736    -3057    -3411    -3762    -4056    -4236 
   -4278    -4195    -4031    -3802    -3518    -3211    -2882    -2509 
   -2115    -1753    -1485    -1366    -1401    -1570    -1880    -2300 
   -2729    -3096    -3388    -3577    -3650    -3603    -3434    -3190 
   -2937    -2717    -2536    -2416    -2380    -2409    -2473    -2579 
   -2735    -2905    -3067    -3213    -3358    -3527    -3699    -3850 
   -3993    -4126    -4232    -4305    -4344    -4334    -4248    -4066 
   -3815    -3550    -3298    -3072    -2895    -2747    -2598    -2450 
   -2290    -2115    -1941    -1791    -1688    -1655    -1691    -1811 
   -2020    -2303    -2632    -2964    -3272    -3569    -3874    -4186 
   -4477    -4714    -4870    -4934    -4878    -4695    -4401    -4020 
   -3582    -3152    -2783    -2484    -2245    -2060    -1914    -1795 
   -1701    -1647    -1665    -1788    -2033    -2380    -2789    -3218 
   -3622    -3956    -4187    -4276    -4221    -4095    -3971    -3867 
   -3792    -3754    -3743    -3747    -3740    -3719    -3708    -3696 
   -3684    -3720    -3794    -3862    -3901    -3897    -3836    -3707 
   -3491    -3191    -2808    -2355    -1875    -1418    -1032     -749 
    -600     -626     -812    -1116    -1491    -1883    -2257    -2598 
   -2883    -3113    -3283    -3372    -3380    -3343    -3294    -3203 
   -3061    -2940    -2879    -2876    -2922    -2999    -3113    -3260 
   -3435    -3645    -3870    -4098    -4333    -4558    -4753    -4887 
   -4927    -4864    -4691    -4392    -3977    -3493    -3025    -2619 
   -2276    -2020    -1869    -1803    -1841    -2004    -2268    -2598 
   -2947    -3258    -3496    -3640    -3693    -3666    -3572    -3414 
   -3208    -2994    -2813    -2673    -2548    -2411    -2247    -2064 
   -1872    -1714    -1622    -1588    -1614    -1706    -1860    -2076 
   -2330    -2586    -2841    -3110    -3387    -3645    -3869    -4071 
   -4239    -4341    -4367    -4329    -4283    -4288    -4352    -4448 
   -4553    -4642    -4671    -4630    -4523    -4341    -4081    -3788 
   -3519    -3283    -3059    -2829    -2567    -2289    -2037    -1823 
   -1684    -1659    -1775    -2052    -2452    -2906    -3348    -3700 
   -3901    -3920    -3774    -3503    -3123    -2654    -2149    -1665 
   -1256     -966     -830     -868    -1050    -1358    -1788    -2305 
   -2874    -3462    -4008    -4475    -4876    -5190    -5370    -5401 
   -5316    -5151    -4927    -4656    -4348    -4016    -3642    -3215 
   -2756    -2300    -1885    -1571    -1410    -1417    -1568    -1829 
   -2165    -2548    -2926    -3250    -3501    -3665    -3728    -3694 
   -3561    -3329    -3026    -2697    -2376    -2095    -1876    -1733 
   -1674    -1714    -1849    -2043    -2272    -2525    -2817    -3145 
   -3491    -3839    -4155    -4405    -4581    -4691    -4706    -4611 
   -4426    -4164    -3823    -3415    -2957    -2478    -2007    -1557 
   -1171     -913     -824     -889    -1077    -1372    -1741    -2137 
   -2536    -2933    -3345    -3780    -4198    -4567    -4878    -5131 
   -5324    -5429    -5413    -5273    -4999    -4607    -4166    -3726 
   -3292    -2848    -2392    -1944    -1539    -1227    -1042     -985 
   -1065    -1279    -1601    -2023    -2531    -3059    -3561    -4006 
   -4357    -4611    -4783    -4874    -4927    -4959    -4942    -4872 
   -4754    -4573    -4325    -4039    -3726    -3376    -3010    -2667 
   -2377    -2145    -1960    -1836    -1811    -1863    -1948    -2076 
   -2251    -2461    -2694    -2928    -3161    -3385    -3551    -3645 
   -3667    -3593    -3399    -3094    -2721    -2330    -1949    -1594 
   -1317    -1189    -1220    -1401    -1723    -2160    -2694    -3306 
   -3909    -4434    -4853    -5128    -5235    -5139    -4846    -4426 
   -3931    -3396    -2890    -2473    -2184    -2052    -2057    -2173 
   -2394    -2698    -3029    -3361    -3673    -3932    -4112    -4174 
   -4108    -3942    -3688    -3350    -2956    -2525    -2107    -1767 
   -1530    -1428    -1487    -1710    -2074    -2565    -3132    -3699 
   -4205    -4596    -4827    -4893    -4811    -4599    -4279    -3863 
   -3380    -2887    -2427    -2030    -1726    -1520    -1399    -1363 
   -1398    -1482    -1624    -1825    -2043    -2255    -2465    -2678 
   -2911    -3152    -3377    -3588    -3767    -3889    -3956    -3998 
   -4025    -4021    -3985    -3920    -3832    -3739    -3636    -3526 
   -3415    -3295    -3169    -3045    -2913    -2801    -2744    -2764 
   -2851    -2960    -3041    -3053    -2990    -2863    -2701    -2558 
   -2479    -2488    -2597    -2783    -3006    -3235    -3441    -3603 
   -3696    -3701    -3628    -3484    -3276    -3046    -2822    -2605 
   -2419    -2285    -2209    -2220    -2340    -2556    -2839    -3150 
   -3472    -3782    -4056    -4278    -4444    -4530    -4533    -4469 
   -4334    -4133    -3893    -3626    -3353    -3095    -2855    -2658 
   -2515    -2404    -2320    -2258    -2209    -2191    -2208    -2272 
   -2389    -2536    -2698    -2886    -3083    -3252    -3368    -3419 
   -3416    -3369    -3281    -3175    -3067    -2953    -2851    -2774 
   -2732    -2745    -2802    -2882    -2957    -3010    -3044    -3061 
