Origin Time       2025/03/29 04:45:00
Lat.              31.090
Long.             131.512
Depth. (km)       33
Mag.              4.6
Station Code      MYZ016
Station Lat.      31.6131
Station Long.     131.3745
Station Height(m) 9
Record Time       2025/03/29 04:45:27
Sampling Freq(Hz) 100Hz
Duration Time(s)  70
Dir.              N-S
Scale Factor      7845(gal)/8223790
Max. Acc. (gal)   3.424
Last Correction   2025/03/29 04:45:26
Memo.             
[...]
   -4899    -4899    -4897    -4896    -4896    -4896    -4896    -4896 
   -4901    -4904    -4904    -4904    -4901    -4900    -4901    -4900 
   -4900    -4901    -4899    -4897    -4899    -4897    -4896    -4899 
   -4899    -4896    -4895    -4897    -4899    -4897    -4893    -4891 
   -4893    -4896    -4896    -4896    -4899    -4899    -4895    -4899 
   -4903    -4901    -4900    -4900    -4900    -4899    -4901    -4903 
   -4903    -4903    -4897    -4892    -4895    -4899    -4895    -4895 
   -4899    -4899    -4896    -4893    -4895    -4897    -4896    -4896 
   -4897    -4893    -4893    -4896    -4896    -4897    -4897    -4899 
   -4903    -4901    -4897    -4900    -4900    -4896    -4895    -4897 
   -4897    -4896    -4901    -4903    -4900    -4900    -4899    -4900 
   -4903    -4899    -4896    -4896    -4893    -4895    -4896    -4895 
   -4899    -4901    -4899    -4896    -4900    -4901    -4896    -4893 
   -4896    -4900    -4899    -4899    -4900    -4900    -4899    -4896 
   -4896    -4900    -4901    -4900    -4892    -4887    -4889    -4892 
   -4896    -4901    -4900    -4900    -4901    -4899    -4892    -4892 
   -4896    -4897    -4897    -4900    -4901    -4899    -4895    -4893 
   -4896    -4896    -4892    -4896    -4900    -4893    -4892    -4892 
   -4889    -4889    -4891    -4892    -4892    -4891    -4895    -4897 
   -4896    -4896    -4896    -4895    -4893    -4891    -4889    -4892 
   -4900    -4901    -4901    -4905    -4904    -4900    -4897    -4895 
   -4892    -4896    -4900    -4900    -4900    -4900    -4899    -4896 
   -4891    -4889    -4893    -4895    -4897    -4897    -4893    -4891 
   -4891    -4895    -4895    -4889    -4888    -4892    -4895    -4896 
   -4899    -4899    -4896    -4893    -4895    -4900    -4900    -4899 
   -4899    -4901    -4900    -4896    -4896    -4896    -4897    -4900 
   -4899    -4896    -4895    -4892    -4891    -4892    -4892    -4889 
   -4889    -4891    -4892    -4892    -4893    -4897    -4899    -4897 
   -4897    -4897    -4895    -4895    -4897    -4897    -4897    -4903 
   -4909    -4908    -4904    -4900    -4899    -4895    -4888    -4891 
   -4896    -4897    -4897    -4896    -4893    -4896    -4897    -4893 
   -4889    -4888    -4888    -4888    -4891    -4891    -4896    -4903 
   -4904    -4900    -4896    -4895    -4897    -4899    -4900    -4903 
   -4900    -4900    -4901    -4900    -4899    -4897    -4899    -4900 
   -4899    -4897    -4895    -4889    -4887    -4887    -4884    -4887 
   -4892    -4891    -4889    -4891    -4891    -4888    -4885    -4889 
   -4892    -4891    -4896    -4903    -4900    -4900    -4903    -4903 
   -4905    -4905    -4907    -4909    -4912    -4912    -4908    -4903 
   -4901    -4896    -4889    -4884    -4880    -4878    -4885    -4899 
   -4915    -4935    -4958    -4972    -4970    -4958    -4936    -4909 
   -4885    -4855    -4824    -4812    -4814    -4824    -4855    -4901 
   -4957    -5019    -5069    -5097    -5100    -5054    -4968    -4862 
   -4747    -4644    -4568    -4534    -4571    -4683    -4828    -4973 
   -5086    -5144    -5132    -5044    -4920    -4816    -4753    -4729 
   -4733    -4769    -4820    -4855    -4850    -4806    -4781    -4831 
   -4928    -5022    -5094    -5159    -5209    -5220    -5167    -5066 
   -4963    -4888    -4831    -4766    -4699    -4680    -4739    -4850 
   -4968    -5070    -5162    -5229    -5238    -5192    -5120    -5043 
   -4963    -4857    -4706    -4514    -4318    -4203    -4237    -4426 
   -4735    -5094    -5412    -5614    -5636    -5437    -5054    -4611 
   -4267    -4085    -4044    -4118    -4313    -4626    -4993    -5286 
   -5418    -5402    -5283    -5103    -4908    -4762    -4722    -4797 
   -4931    -5017    -4997    -4909    -4830    -4808    -4845    -4892 
   -4920    -4939    -4961    -4981    -4999    -5065    -5246    -5486 
   -5614    -5502    -5189    -4833    -4544    -4299    -4081    -3978 
   -4131    -4561    -5121    -5616    -5929    -6029    -5914    -5556 
   -4965    -4293    -3771    -3559    -3693    -4095    -4638    -5197 
   -5664    -5953    -5976    -5695    -5202    -4708    -4395    -4317 
   -4414    -4590    -4756    -4841    -4815    -4696    -4548    -4455 
   -4483    -4669    -5007    -5413    -5737    -5856    -5745    -5416 
   -4897    -4313    -3854    -3688    -3873    -4328    -4862    -5313 
   -5591    -5657    -5551    -5363    -5148    -4904    -4648    -4455 
   -4421    -4564    -4784    -4922    -4908    -4830    -4837    -4984 
   -5177    -5292    -5281    -5159    -4977    -4801    -4656    -4518 
   -4394    -4330    -4376    -4572    -4914    -5292    -5576    -5686 
   -5587    -5314    -4981    -4704    -4519    -4399    -4349    -4417 
   -4595    -4816    -5012    -5135    -5167    -5111    -4990    -4869 
   -4792    -4780    -4862    -5004    -5111    -5135    -5105    -5073 
   -5069    -5078    -5067    -5036    -5015    -4984    -4891    -4707 
   -4459    -4253    -4199    -4314    -4565    -4905    -5259    -5541 
   -5710    -5745    -5626    -5335    -4880    -4356    -3927    -3719 
   -3781    -4091    -4568    -5088    -5521    -5760    -5748    -5503 
   -5140    -4799    -4560    -4445    -4448    -4525    -4639    -4779 
   -4951    -5150    -5294    -5298    -5175    -5011    -4899    -4885 
   -4949    -5040    -5116    -5154    -5128    -5015    -4831    -4641 
   -4529    -4531    -4631    -4780    -4915    -4988    -5017    -5040 
   -5054    -5043    -5003    -4934    -4831    -4700    -4558    -4450 
   -4426    -4504    -4676    -4920    -5192    -5418    -5516    -5454 
   -5278    -5058    -4846    -4684    -4592    -4568    -4598    -4679 
   -4803    -4942    -5057    -5109    -5084    -5011    -4926    -4857 
   -4807    -4760    -4695    -4617    -4569    -4611    -4764    -4977 
   -5173    -5297    -5327    -5260    -5116    -4915    -4692    -4519 
   -4456    -4509    -4668    -4896    -5140    -5332    -5385    -5282 
   -5093    -4878    -4669    -4509    -4444    -4499    -4672    -4911 
   -5143    -5305    -5350    -5269    -5076    -4828    -4600    -4476 
   -4545    -4819    -5197    -5528    -5671    -5560    -5238    -4804 
   -4375    -4060    -3936    -4025    -4301    -4708    -5167    -5568 
   -5818    -5864    -5699    -5381    -5011    -4679    -4441    -4330 
   -4359    -4517    -4750    -4978    -5132    -5174    -5104    -4950 
   -4747    -4564    -4498    -4610    -4860    -5130    -5301    -5308 
   -5161    -4931    -4692    -4495    -4386    -4430    -4635    -4908 
   -5119    -5201    -5162    -5032    -4858    -4695    -4608    -4649 
   -4803    -4969    -5050    -5034    -4978    -4953    -4959    -4970 
   -4950    -4896    -4838    -4819    -4870    -5004    -5181    -5317 
   -5320    -5158    -4881    -4568    -4311    -4197    -4270    -4533 
   -4916    -5285    -5518    -5560    -5418    -5148    -4846    -4602 
   -4464    -4446    -4534    -4698    -4909    -5144    -5346    -5432 
   -5371    -5190    -4936    -4650    -4390    -4224    -4228    -4430 
   -4785    -5170    -5456    -5557    -5458    -5209    -4909    -4677 
   -4594    -4638    -4734    -4824    -4896    -4945    -4963    -4950 
   -4916    -4904    -4958    -5076    -5225    -5360    -5416    -5337 
   -5111    -4783    -4421    -4110    -3933    -3937    -4120    -4423 
   -4772    -5088    -5297    -5383    -5377    -5314    -5233    -5144 
   -5039    -4930    -4851    -4804    -4783    -4822    -4942    -5105 
   -5255    -5325    -5267    -5103    -4892    -4693    -4556    -4494 
   -4491    -4527    -4590    -4676    -4793    -4926    -5027    -5073 
   -5073    -5053    -5032    -5008    -4963    -4884    -4792    -4720 
   -4696    -4733    -4804    -4876    -4934    -4961    -4949    -4923 
   -4931    -5000    -5111    -5198    -5194    -5088    -4924    -4781 
   -4731    -4799    -4951    -5108    -5186    -5136    -4959    -4718 
   -4502    -4375    -4361    -4449    -4588    -4750    -4943    -5163 
   -5374    -5520    -5549    -5454    -5278    -5096    -4947    -4837 
   -4754    -4702    -4688    -4704    -4737    -4766    -4784    -4779 
   -4747    -4704    -4652    -4596    -4549    -4518    -4521    -4567 
   -4648    -4758    -4904    -5070    -5220    -5324    -5377    -5362 
   -5273    -5123    -4938    -4768    -4649    -4596    -4635    -4760 
   -4938    -5128    -5273    -5324    -5275    -5148    -4978    -4797 
   -4646    -4560    -4554    -4630    -4760    -4900    -5020    -5103 
   -5125    -5081    -5001    -4928    -4887    -4860    -4828    -4801 
   -4792    -4814    -4877    -4968    -5051    -5105    -5112    -5065 
   -4965    -4837    -4707    -4602    -4533    -4506    -4517    -4556 
   -4610    -4660    -4692    -4719    -4765    -4826    -4893    -4969 
   -5038    -5094    -5148    -5200    -5251    -5305    -5336    -5312 
   -5236    -5119    -4982    -4876    -4845    -4901    -5020    -5152 
   -5259    -5320    -5316    -5238    -5093    -4892    -4671    -4469 
   -4310    -4221    -4234    -4356    -4565    -4801    -4993    -5100 
   -5116    -5070    -5000    -4920    -4828    -4716    -4587    -4468 
   -4399    -4406    -4503    -4668    -4866    -5066    -5248    -5394 
   -5482    -5489    -5410    -5262    -5076    -4896    -4754    -4671 
   -4661    -4708    -4768    -4820    -4869    -4909    -4943    -4969 
   -4980    -4968    -4930    -4869    -4788    -4693    -4615    -4572 
   -4561    -4598    -4684    -4826    -5032    -5267    -5486    -5656 
   -5733    -5684    -5501    -5201    -4845    -4507    -4252    -4143 
   -4201    -4394    -4661    -4905    -5047    -5073    -5017    -4939 
   -4901    -4919    -4982    -5074    -5138    -5125    -5034    -4903 
   -4791    -4730    -4716    -4731    -4747    -4752    -4737    -4700 
   -4661    -4644    -4668    -4738    -4833    -4930    -5009    -5059 
   -5084    -5092    -5089    -5096    -5111    -5124    -5135    -5132 
   -5100    -5032    -4935    -4833    -4739    -4658    -4619    -4645 
   -4726    -4828    -4912    -4953    -4950    -4923    -4869    -4780 
   -4675    -4580    -4514    -4504    -4564    -4680    -4828    -4966 
   -5050    -5055    -4996    -4919    -4873    -4880    -4928    -5003 
   -5080    -5131    -5130    -5073    -4958    -4814    -4684    -4592 
   -4542    -4533    -4550    -4568    -4568    -4554    -4540    -4530 
   -4544    -4587    -4665    -4788    -4955    -5144    -5329    -5468 
   -5528    -5493    -5382    -5252    -5161    -5115    -5098    -5088 
   -5058    -4999    -4900    -4768    -4637    -4537    -4473    -4442 
   -4459    -4542    -4702    -4928    -5181    -5402    -5571    -5672 
   -5684    -5607    -5460    -5270    -5092    -4969    -4918    -4931 
   -4981    -5055    -5140    -5208    -5238    -5232    -5212    -5201 
   -5215    -5238    -5239    -5170    -5008    -4756    -4442    -4131 
   -3908    -3862    -4031    -4399    -4905    -5431    -5852    -6083 
   -6080    -5869    -5535    -5166    -4857    -4660    -4579    -4599 
   -4683    -4766    -4807    -4784    -4702    -4595    -4488    -4402 
   -4368    -4390    -4459    -4564    -4681    -4789    -4872    -4918 
   -4920    -4889    -4858    -4864    -4911    -4997    -5109    -5201 
   -5220    -5132    -4942    -4700    -4487    -4376    -4396    -4523 
   -4718    -4907    -5013    -4984    -4818    -4576    -4337    -4179 
   -4152    -4248    -4418    -4606    -4752    -4820    -4816    -4764 
   -4699    -4664    -4684    -4756    -4850    -4934    -4990    -4990 
   -4951    -4939    -4995    -5109    -5274    -5431    -5524    -5540 
   -5467    -5309    -5100    -4882    -4715    -4650    -4695    -4833 
   -5046    -5297    -5537    -5732    -5845    -5852    -5746    -5551 
   -5306    -5078    -4938    -4904    -4958    -5071    -5204    -5304 
   -5320    -5221    -5015    -4749    -4490    -4288    -4174    -4156 
   -4214    -4325    -4457    -4553    -4572    -4517    -4402    -4252 
   -4094    -3946    -3819    -3742    -3750    -3854    -4039    -4284 
   -4553    -4781    -4924    -4974    -4958    -4943    -4985    -5092 
   -5263    -5482    -5688    -5822    -5853    -5783    -5637    -5448 
   -5269    -5139    -5078    -5089    -5154    -5239    -5309    -5331 
   -5297    -5220    -5127    -5040    -4972    -4941    -4961    -5022 
   -5096    -5154    -5175    -5150    -5061    -4908    -4707    -4491 
   -4306    -4186    -4132    -4129    -4168    -4234    -4309    -4376 
   -4441    -4519    -4623    -4746    -4877    -5000    -5092    -5123 
   -5077    -4949    -4749    -4519    -4315    -4183    -4170    -4318 
   -4633    -5074    -5579    -6058    -6435    -6663    -6727    -6648 
   -6471    -6239    -5994    -5746    -5483    -5211    -4949    -4706 
   -4491    -4337    -4284    -4348    -4494    -4657    -4772    -4787 
   -4672    -4425    -4067    -3699    -3441    -3368    -3503    -3851 
   -4365    -4950    -5502    -5919    -6131    -6147    -5998    -5725 
   -5406    -5127    -4930    -4819    -4796    -4827    -4870    -4919 
   -4972    -5013    -5057    -5107    -5150    -5181    -5193    -5154 
   -5042    -4864    -4623    -4359    -4133    -3981    -3912    -3901 
   -3889    -3836    -3726    -3557    -3361    -3186    -3090    -3118 
   -3265    -3489    -3735    -3950    -4124    -4276    -4438    -4646 
   -4950    -5382    -5934    -6573    -7227    -7804    -8230    -8463 
   -8487    -8343    -8077    -7753    -7438    -7165    -6933    -6725 
   -6521    -6312    -6091    -5861    -5625    -5364    -5057    -4687 
   -4239    -3715    -3140    -2562    -2042    -1651    -1443    -1429 
   -1587    -1868    -2231    -2629    -3007    -3333    -3568    -3689 
   -3723    -3727    -3754    -3842    -4009    -4263    -4577    -4920 
   -5286    -5660    -6004    -6311    -6571    -6766    -6878    -6890 
   -6795    -6615    -6376    -6106    -5853    -5679    -5625    -5690 
   -5840    -6025    -6193    -6289    -6255    -6046    -5657    -5157 
   -4634    -4171    -3838    -3662    -3636    -3731    -3879    -4004 
   -4078    -4099    -4068    -4013    -3975    -3985    -4060    -4202 
   -4401    -4641    -4891    -5117    -5294    -5416    -5479    -5506 
   -5528    -5552    -5575    -5598    -5595    -5521    -5375    -5189 
   -4995    -4851    -4806    -4853    -4969    -5111    -5211    -5220 
   -5098    -4815    -4394    -3906    -3431    -3064    -2895    -2948 
   -3175    -3499    -3817    -4039    -4140    -4156    -4152    -4203 
   -4357    -4611    -4926    -5255    -5552    -5779    -5945    -6080 
   -6184    -6250    -6274    -6243    -6146    -6000    -5830    -5680 
   -5589    -5567    -5617    -5733    -5913    -6150    -6401    -6609 
   -6744    -6795    -6729    -6521    -6195    -5795    -5370    -4976 
   -4634    -4321    -4001    -3663    -3319    -2997    -2739    -2605 
   -2636    -2845    -3191    -3576    -3897    -4077    -4078    -3913 
   -3643    -3356    -3145    -3075    -3175    -3427    -3796    -4239 
   -4706    -5154    -5555    -5894    -6164    -6355    -6462    -6497 
   -6466    -6370    -6227    -6048    -5846    -5661    -5551    -5552 
   -5674    -5892    -6164    -6412    -6562    -6555    -6372    -6033 
   -5578    -5061    -4545    -4078    -3696    -3400    -3187    -3073 
   -3061    -3152    -3362    -3676    -4037    -4378    -4635    -4773 
   -4758    -4603    -4371    -4126    -3946    -3916    -4090    -4459 
   -4981    -5601    -6208    -6667    -6895    -6882    -6648    -6250 
   -5790    -5370    -5061    -4907    -4903    -5015    -5192    -5360 
   -5458    -5455    -5332    -5094    -4793    -4480    -4197    -3977 
   -3835    -3766    -3743    -3730    -3707    -3685    -3677    -3694 
   -3754    -3848    -3966    -4101    -4239    -4371    -4510    -4664 
   -4833    -5020    -5227    -5427    -5584    -5682    -5719    -5711 
   -5688    -5678    -5691    -5725    -5763    -5782    -5775    -5737 
   -5664    -5563    -5439    -5298    -5147    -4981    -4806    -4630 
   -4473    -4367    -4329    -4363    -4476    -4650    -4839    -5004 
   -5121    -5166    -5127    -5007    -4804    -4540    -4245    -3975 
   -3812    -3798    -3947    -4263    -4703    -5192    -5651    -5999 
   -6180    -6197    -6099    -5940    -5776    -5655    -5587    -5566 
   -5557    -5524    -5431    -5277    -5084    -4877    -4680    -4515 
   -4391    -4299    -4220    -4137    -4032    -3902    -3774    -3665 
   -3588    -3568    -3626    -3744    -3906    -4102    -4297    -4460 
   -4592    -4688    -4762    -4868    -5030    -5258    -5559    -5910 
   -6257    -6543    -6705    -6693    -6500    -6160    -5734    -5305 
   -4947    -4699    -4568    -4540    -4577    -4638    -4692    -4722 
   -4720    -4693    -4662    -4648    -4658    -4698    -4766    -4865 
   -4978    -5097    -5216    -5323    -5394    -5428    -5421    -5368 
   -5279    -5166    -5024    -4858    -4691    -4552    -4455    -4407 
   -4417    -4469    -4553    -4631    -4665    -4626    -4492    -4280 
   -4039    -3805    -3616    -3514    -3507    -3585    -3738    -3925 
   -4109    -4279    -4422    -4533    -4646    -4795    -4990    -5235 
   -5512    -5783    -6021    -6207    -6330    -6393    -6420    -6426 
   -6427    -6443    -6475    -6517    -6538    -6511    -6416    -6238 
   -5965    -5603    -5184    -4739    -4317    -3960    -3677    -3466 
   -3331    -3257    -3237    -3272    -3356    -3493    -3676    -3885 
   -4109    -4325    -4517    -4658    -4733    -4753    -4739    -4710 
   -4689    -4711    -4796    -4953    -5170    -5425    -5682    -5891 
   -6015    -6027    -5917    -5695    -5387    -5035    -4684    -4383 
   -4178    -4087    -4106    -4226    -4419    -4639    -4838    -4974 
   -5012    -4936    -4783    -4600    -4445    -4383    -4463    -4685 
   -5012    -5389    -5760    -6075    -6288    -6382    -6365    -6249 
   -6054    -5799    -5502    -5198    -4918    -4669    -4477    -4363 
   -4315    -4326    -4383    -4473    -4577    -4672    -4746    -4800 
   -4816    -4789    -4730    -4644    -4549    -4469    -4407    -4374 
   -4391    -4463    -4584    -4750    -4939    -5140    -5335    -5493 
   -5590    -5617    -5580    -5490    -5358    -5209    -5055    -4915 
   -4803    -4725    -4673    -4633    -4577    -4510    -4436    -4365 
   -4325    -4325    -4363    -4432    -4514    -4596    -4669    -4731 
   -4781    -4837    -4901    -4957    -5003    -5042    -5065    -5081 
   -5109    -5146    -5185    -5228    -5275    -5321    -5362    -5375 
   -5350    -5298    -5227    -5136    -5049    -4980    -4938    -4936 
   -4981    -5054    -5124    -5161    -5159    -5109    -5000    -4847 
   -4671    -4491    -4341    -4232    -4149    -4090    -4058    -4048 
   -4047    -4050    -4051    -4051    -4064    -4104    -4163    -4243 
   -4345    -4476    -4627    -4791    -4962    -5123    -5262    -5385 
   -5510    -5647    -5795    -5942    -6072    -6168    -6196    -6141 
   -6021    -5872    -5719    -5584    -5490    -5441    -5428    -5431 
   -5429    -5395    -5306    -5148    -4941    -4702    -4449    -4203 
   -3986    -3813    -3703    -3655    -3672    -3736    -3824    -3925 
   -4044    -4186    -4338    -4482    -4595    -4669    -4695    -4673 
