Origin Time       2025/03/29 04:45:00
Lat.              31.090
Long.             131.512
Depth. (km)       33
Mag.              4.6
Station Code      MYZ015
Station Lat.      31.7182
Station Long.     131.0624
Station Height(m) 146
Record Time       2025/03/29 04:45:43
Sampling Freq(Hz) 100Hz
Duration Time(s)  60
Dir.              N-S
Scale Factor      7845(gal)/8223790
Max. Acc. (gal)   2.474
Last Correction   2025/03/29 04:45:43
Memo.             
[...]
   -5782    -5931    -5983    -5863    -5686    -5603    -5688    -5921 
   -6187    -6346    -6289    -5980    -5529    -5182    -5132    -5352 
   -5692    -6030    -6257    -6301    -6224    -6123    -6010    -5871 
   -5699    -5530    -5464    -5543    -5722    -5933    -6043    -5940 
   -5697    -5528    -5541    -5676    -5869    -6064    -6150    -6103 
   -5969    -5769    -5629    -5691    -5871    -5981    -5950    -5798 
   -5629    -5594    -5778    -6127    -6453    -6555    -6336    -5876 
   -5386    -5055    -4978    -5162    -5460    -5690    -5856    -6052 
   -6280    -6459    -6497    -6362    -6099    -5780    -5544    -5468 
   -5494    -5587    -5740    -5888    -5969    -5933    -5767    -5572 
   -5491    -5626    -5960    -6334    -6577    -6615    -6404    -5952 
   -5408    -5028    -4959    -5123    -5366    -5602    -5815    -6031 
   -6246    -6394    -6428    -6358    -6218    -6053    -5904    -5760 
   -5593    -5439    -5366    -5404    -5529    -5684    -5838    -5968 
   -6049    -6076    -6050    -5981    -5888    -5799    -5787    -5884 
   -5972    -5918    -5764    -5626    -5566    -5601    -5702    -5829 
   -5988    -6166    -6304    -6331    -6204    -5969    -5751    -5632 
   -5559    -5421    -5244    -5170    -5260    -5474    -5779    -6106 
   -6340    -6438    -6431    -6318    -6112    -5852    -5547    -5258 
   -5125    -5213    -5447    -5715    -5945    -6097    -6166    -6145 
   -6065    -6023    -6069    -6176    -6273    -6243    -6004    -5644 
   -5335    -5209    -5329    -5621    -5886    -6012    -6039    -6046 
   -6091    -6120    -6012    -5783    -5516    -5252    -5092    -5128 
   -5323    -5575    -5809    -6019    -6218    -6366    -6463    -6508 
   -6443    -6266    -6035    -5813    -5661    -5609    -5649    -5745 
   -5844    -5921    -5925    -5796    -5609    -5448    -5336    -5317 
   -5440    -5665    -5917    -6119    -6237    -6245    -6114    -5884 
   -5656    -5489    -5416    -5459    -5630    -5930    -6265    -6489 
   -6521    -6357    -6054    -5692    -5347    -5143    -5175    -5431 
   -5815    -6200    -6531    -6779    -6820    -6617    -6264    -5819 
   -5373    -5077    -4995    -5084    -5256    -5468    -5730    -5956 
   -6006    -5872    -5665    -5537    -5584    -5775    -6031    -6297 
   -6490    -6540    -6442    -6255    -6014    -5711    -5416    -5225 
   -5170    -5235    -5378    -5544    -5701    -5795    -5798    -5767 
   -5773    -5852    -6025    -6276    -6552    -6777    -6844    -6705 
   -6415    -6077    -5756    -5456    -5179    -4978    -4877    -4897 
   -5097    -5460    -5879    -6264    -6552    -6701    -6675    -6436 
   -6025    -5599    -5302    -5182    -5239    -5440    -5701    -5927 
   -6043    -6019    -5895    -5746    -5632    -5572    -5590    -5690 
   -5823    -5927    -6038    -6187    -6286    -6286    -6219    -6079 
   -5849    -5571    -5304    -5108    -5054    -5182    -5456    -5767 
   -5996    -6083    -6015    -5832    -5649    -5601    -5745    -6025 
   -6324    -6540    -6596    -6471    -6223    -5948    -5721    -5590 
   -5552    -5568    -5618    -5698    -5794    -5873    -5879    -5805 
   -5718    -5678    -5698    -5765    -5842    -5881    -5863    -5833 
   -5854    -5921    -5969    -5950    -5872    -5786    -5713    -5656 
   -5624    -5593    -5576    -5626    -5740    -5864    -5967    -6030 
   -6043    -6021    -5981    -5949    -5942    -5940    -5915    -5900 
   -5925    -5968    -5988    -5973    -5930    -5857    -5765    -5663 
   -5548    -5466    -5464    -5526    -5617    -5732    -5880    -6039 
   -6166    -6215    -6147    -5975    -5767    -5614    -5586    -5674 
   -5815    -5971    -6116    -6219    -6266    -6242    -6133    -5937 
   -5702    -5528    -5485    -5540    -5622    -5697    -5769    -5844 
   -5872    -5819    -5709    -5580    -5474    -5429    -5468    -5606 
   -5837    -6095    -6293    -6397    -6389    -6273    -6096    -5929 
   -5814    -5752    -5698    -5624    -5552    -5510    -5513    -5570 
   -5659    -5740    -5792    -5841    -5914    -6022    -6146    -6239 
   -6259    -6226    -6174    -6108    -5998    -5832    -5643    -5467 
   -5333    -5297    -5375    -5525    -5710    -5910    -6110    -6273 
   -6338    -6266    -6068    -5778    -5474    -5215    -5032    -4985 
   -5109    -5374    -5713    -6025    -6262    -6448    -6577    -6640 
   -6625    -6507    -6303    -6065    -5845    -5663    -5479    -5274 
   -5098    -5001    -5027    -5227    -5566    -5917    -6181    -6324 
   -6336    -6235    -6083    -5941    -5837    -5776    -5769    -5829 
   -5969    -6151    -6289    -6331    -6264    -6092    -5863    -5636 
   -5437    -5247    -5040    -4864    -4811    -4927    -5196    -5563 
   -5933    -6226    -6411    -6504    -6540    -6548    -6532    -6486 
   -6390    -6242    -6065    -5894    -5740    -5607    -5493    -5402 
   -5354    -5371    -5464    -5593    -5698    -5783    -5873    -5962 
   -6006    -5985    -5921    -5832    -5760    -5764    -5864    -6033 
   -6226    -6392    -6488    -6471    -6308    -6019    -5680    -5383 
   -5208    -5184    -5289    -5494    -5751    -5984    -6129    -6134 
   -5992    -5765    -5555    -5440    -5440    -5524    -5626    -5703 
   -5772    -5863    -5965    -6089    -6223    -6304    -6307    -6269 
   -6201    -6085    -5921    -5726    -5513    -5312    -5188    -5194 
   -5300    -5443    -5576    -5671    -5748    -5859    -6025    -6227 
   -6386    -6423    -6327    -6137    -5926    -5744    -5571    -5408 
   -5314    -5343    -5508    -5752    -5995    -6172    -6230    -6164 
   -6029    -5896    -5819    -5796    -5788    -5757    -5698    -5633 
   -5582    -5553    -5566    -5620    -5686    -5755    -5830    -5914 
   -6014    -6131    -6247    -6336    -6373    -6349    -6262    -6112 
   -5929    -5769    -5672    -5638    -5652    -5661    -5636    -5583 
   -5520    -5466    -5458    -5510    -5605    -5707    -5805    -5907 
   -6031    -6176    -6309    -6393    -6399    -6291    -6060    -5769 
   -5508    -5323    -5240    -5266    -5375    -5532    -5709    -5883 
   -6023    -6106    -6120    -6081    -6003    -5911    -5850    -5849 
   -5879    -5908    -5910    -5863    -5798    -5755    -5757    -5822 
   -5896    -5907    -5852    -5778    -5732    -5722    -5724    -5721 
   -5717    -5729    -5761    -5798    -5834    -5876    -5900    -5918 
   -5958    -6003    -6023    -6021    -5996    -5931    -5842    -5773 
   -5753    -5798    -5891    -5984    -6029    -6004    -5907    -5761 
   -5618    -5517    -5454    -5429    -5452    -5520    -5605    -5665 
   -5692    -5706    -5713    -5733    -5788    -5872    -5973    -6072 
   -6145    -6216    -6291    -6336    -6330    -6258    -6138    -6004 
   -5896    -5863    -5891    -5913    -5908    -5888    -5834    -5760 
   -5678    -5576    -5475    -5414    -5424    -5518    -5684    -5898 
   -6119    -6278    -6334    -6269    -6091    -5865    -5664    -5521 
   -5454    -5458    -5487    -5506    -5518    -5549    -5587    -5605 
   -5621    -5653    -5703    -5796    -5922    -6058    -6197    -6299 
   -6324    -6272    -6127    -5908    -5672    -5464    -5335    -5302 
   -5366    -5540    -5800    -6075    -6297    -6416    -6416    -6322 
   -6185    -6064    -5977    -5921    -5871    -5783    -5645    -5493 
   -5368    -5333    -5432    -5648    -5925    -6185    -6363    -6423 
   -6349    -6174    -5973    -5807    -5709    -5667    -5625    -5548 
   -5441    -5350    -5335    -5412    -5566    -5775    -5968    -6089 
   -6150    -6184    -6211    -6215    -6166    -6050    -5854    -5610 
   -5401    -5278    -5254    -5320    -5445    -5598    -5732    -5832 
   -5938    -6083    -6245    -6412    -6575    -6704    -6752    -6687 
   -6511    -6251    -5921    -5533    -5162    -4903    -4811    -4869 
   -5034    -5266    -5525    -5782    -6025    -6266    -6515    -6729 
   -6828    -6759    -6517    -6137    -5674    -5206    -4827    -4621 
   -4623    -4823    -5163    -5572    -5971    -6280    -6461    -6501 
   -6426    -6281    -6115    -5958    -5829    -5738    -5680    -5625 
   -5574    -5564    -5613    -5705    -5805    -5873    -5888    -5840 
   -5737    -5638    -5601    -5644    -5753    -5887    -5988    -6021 
   -5981    -5888    -5771    -5672    -5628    -5645    -5705    -5756 
   -5745    -5656    -5505    -5344    -5232    -5206    -5286    -5470 
   -5706    -5941    -6134    -6226    -6174    -5994    -5745    -5490 
   -5278    -5155    -5139    -5197    -5294    -5397    -5482    -5582 
   -5730    -5921    -6151    -6408    -6658    -6864    -6986    -7022 
   -7006    -6941    -6839    -6697    -6486    -6210    -5895    -5590 
   -5362    -5252    -5262    -5383    -5591    -5837    -6076    -6274 
   -6444    -6609    -6756    -6860    -6893    -6812    -6612    -6336 
   -6014    -5683    -5412    -5220    -5103    -5084    -5175    -5341 
   -5532    -5699    -5814    -5872    -5908    -5964    -6038    -6106 
   -6147    -6153    -6133    -6084    -5996    -5884    -5760    -5625 
   -5503    -5414    -5390    -5451    -5562    -5684    -5796    -5854 
   -5856    -5818    -5741    -5655    -5597    -5563    -5564    -5626 
   -5742    -5877    -5989    -6062    -6083    -6016    -5902    -5811 
   -5779    -5822    -5911    -6006    -6106    -6192    -6212    -6165 
   -6077    -5960    -5822    -5686    -5583    -5529    -5497    -5491 
   -5517    -5545    -5541    -5508    -5475    -5474    -5525    -5640 
   -5795    -5960    -6124    -6277    -6394    -6439    -6373    -6181 
   -5894    -5576    -5296    -5077    -4912    -4796    -4735    -4708 
   -4681    -4671    -4708    -4807    -4996    -5282    -5629    -5994 
   -6328    -6597    -6777    -6836    -6751    -6535    -6250    -5958 
   -5683    -5460    -5340    -5329    -5404    -5529    -5688    -5900 
   -6164    -6427    -6654    -6814    -6867    -6802    -6652    -6459 
   -6250    -6029    -5798    -5576    -5368    -5185    -5030    -4918 
   -4872    -4892    -4977    -5140    -5359    -5593    -5819    -6041 
   -6253    -6436    -6579    -6704    -6829    -6939    -6976    -6917 
   -6797    -6648    -6465    -6249    -6006    -5719    -5401    -5093 
   -4846    -4702    -4668    -4753    -4959    -5240    -5541    -5830 
   -6068    -6220    -6266    -6197    -6045    -5854    -5653    -5447 
   -5248    -5085    -4970    -4923    -4988    -5189    -5516    -5945 
   -6421    -6879    -7257    -7506    -7597    -7531    -7298    -6903 
   -6403    -5880    -5427    -5131    -5058    -5190    -5448    -5755 
   -6072    -6373    -6632    -6814    -6875    -6778    -6515    -6116 
   -5632    -5125    -4677    -4349    -4171    -4158    -4305    -4579 
   -4927    -5297    -5636    -5892    -6049    -6114    -6116    -6124 
   -6204    -6365    -6589    -6858    -7133    -7368    -7514    -7520 
   -7376    -7111    -6752    -6334    -5927    -5555    -5220    -4955 
   -4797    -4766    -4885    -5167    -5591    -6060    -6446    -6673 
   -6678    -6442    -6007    -5432    -4810    -4256    -3842    -3620 
   -3612    -3774    -4087    -4537    -5049    -5559    -6043    -6485 
   -6862    -7141    -7299    -7346    -7295    -7145    -6897    -6535 
   -6079    -5584    -5105    -4680    -4344    -4147    -4133    -4302 
   -4608    -5004    -5436    -5852    -6224    -6531    -6779    -6974 
   -7069    -7041    -6930    -6775    -6601    -6432    -6261    -6088 
   -5946    -5849    -5799    -5795    -5833    -5883    -5906    -5877 
   -5819    -5773    -5759    -5759    -5745    -5705    -5655    -5618 
   -5611    -5667    -5799    -5984    -6180    -6340    -6444    -6494 
   -6478    -6405    -6282    -6089    -5846    -5605    -5401    -5270 
   -5200    -5161    -5130    -5076    -4981    -4888    -4860    -4920 
   -5057    -5294    -5643    -6031    -6382    -6639    -6745    -6655 
   -6385    -5984    -5556    -5238    -5107    -5157    -5370    -5694 
   -6014    -6253    -6386    -6389    -6250    -6014    -5756    -5552 
   -5466    -5526    -5715    -6003    -6315    -6550    -6667    -6682 
   -6623    -6515    -6385    -6250    -6115    -5989    -5899    -5821 
   -5711    -5570    -5425    -5305    -5235    -5223    -5273    -5381 
   -5537    -5728    -5921    -6079    -6197    -6253    -6207    -6077 
   -5888    -5629    -5312    -4989    -4711    -4519    -4459    -4563 
   -4830    -5247    -5751    -6231    -6615    -6898    -7074    -7121 
   -7025    -6768    -6377    -5915    -5445    -5040    -4780    -4711 
   -4854    -5167    -5576    -6019    -6432    -6756    -6945    -6979 
   -6887    -6723    -6525    -6336    -6173    -6039    -5934    -5815 
   -5668    -5530    -5412    -5331    -5339    -5449    -5628    -5822 
   -5992    -6122    -6189    -6184    -6135    -6048    -5942    -5860 
   -5792    -5724    -5652    -5553    -5436    -5355    -5354    -5481 
   -5756    -6135    -6539    -6878    -7092    -7129    -6944    -6567 
   -6087    -5557    -5031    -4557    -4147    -3834    -3663    -3653 
   -3788    -4058    -4455    -4957    -5505    -6053    -6582    -7045 
   -7387    -7597    -7692    -7678    -7562    -7334    -6983    -6525 
   -6023    -5556    -5157    -4831    -4599    -4471    -4442    -4503 
   -4646    -4839    -5043    -5240    -5437    -5679    -6008    -6411 
   -6835    -7227    -7527    -7705    -7759    -7682    -7481    -7160 
   -6698    -6107    -5431    -4733    -4089    -3586    -3302    -3241 
   -3392    -3758    -4320    -5001    -5726    -6419    -7006    -7431 
   -7685    -7780    -7723    -7530    -7217    -6789    -6289    -5778 
   -5292    -4891    -4639    -4552    -4614    -4820    -5139    -5497 
   -5856    -6188    -6443    -6597    -6643    -6565    -6377    -6153 
   -5940    -5791    -5769    -5865    -6037    -6261    -6489    -6662 
   -6736    -6681    -6523    -6311    -6045    -5763    -5517    -5319 
   -5192    -5142    -5125    -5144    -5242    -5416    -5647    -5919 
   -6207    -6477    -6683    -6801    -6840    -6804    -6694    -6534 
   -6331    -6065    -5732    -5346    -4949    -4576    -4251    -4009 
   -3890    -3929    -4122    -4419    -4783    -5194    -5594    -5938 
   -6226    -6436    -6547    -6559    -6485    -6351    -6188    -6041 
   -5964    -5972    -6089    -6319    -6602    -6872    -7056    -7076 
   -6926    -6625    -6218    -5779    -5359    -5007    -4766    -4618 
   -4550    -4567    -4660    -4849    -5142    -5506    -5913    -6313 
   -6642    -6849    -6930    -6914    -6812    -6644    -6469    -6315 
   -6208    -6177    -6181    -6141    -6033    -5894    -5771    -5680 
   -5622    -5599    -5606    -5624    -5632    -5597    -5499    -5366 
   -5225    -5094    -4996    -4936    -4922    -4965    -5069    -5231 
   -5440    -5672    -5917    -6158    -6366    -6512    -6562    -6509 
   -6385    -6216    -6014    -5809    -5637    -5510    -5436    -5420 
   -5435    -5472    -5529    -5580    -5616    -5640    -5660    -5668 
   -5657    -5656    -5702    -5803    -5979    -6235    -6516    -6758 
   -6936    -7037    -7051    -6978    -6809    -6558    -6276    -5980 
   -5665    -5374    -5147    -4993    -4946    -5030    -5190    -5366 
   -5547    -5728    -5892    -6037    -6157    -6262    -6354    -6421 
   -6478    -6520    -6500    -6394    -6205    -5927    -5591    -5247 
   -4934    -4706    -4603    -4576    -4565    -4583    -4635    -4698 
   -4750    -4810    -4900    -5034    -5213    -5421    -5643    -5891 
   -6150    -6386    -6590    -6756    -6880    -6972    -7029    -7055 
   -7068    -7075    -7079    -7102    -7137    -7157    -7149    -7092 
   -6982    -6821    -6616    -6380    -6130    -5869    -5630    -5433 
   -5275    -5167    -5090    -5015    -4954    -4885    -4766    -4619 
   -4468    -4349    -4318    -4386    -4553    -4835    -5198    -5589 
   -5977    -6328    -6573    -6686    -6701    -6647    -6547    -6435 
   -6328    -6231    -6174    -6168    -6192    -6224    -6234    -6184 
   -6066    -5918    -5786    -5680    -5609    -5568    -5541    -5530 
   -5552    -5599    -5629    -5647    -5688    -5755    -5840    -5933 
   -6007    -6072    -6143    -6181    -6169    -6129    -6089    -6069 
   -6048    -5996    -5927    -5845    -5742    -5641    -5549    -5467 
   -5409    -5366    -5323    -5301    -5304    -5321    -5373    -5454 
   -5544    -5640    -5729    -5779    -5796    -5807    -5817    -5827 
   -5854    -5896    -5944    -5971    -5968    -5957    -5944    -5952 
   -6012    -6123    -6295    -6536    -6809    -7075    -7280    -7361 
   -7314    -7153    -6891    -6559    -6177    -5767    -5373    -5012 
   -4668    -4355    -4122    -3990    -3947    -4008    -4171    -4413 
   -4703    -5009    -5297    -5520    -5645    -5670    -5613    -5505 
   -5389    -5298    -5258    -5287    -5383    -5547    -5787    -6072 
   -6358    -6644    -6916    -7152    -7356    -7493    -7533    -7485 
   -7365    -7190    -6993    -6790    -6574    -6365    -6178    -6027 
   -5919    -5836    -5751    -5644    -5509    -5364    -5240    -5148 
   -5089    -5078    -5134    -5236    -5395    -5633    -5923    -6222 
   -6500    -6723    -6847    -6859    -6787    -6669    -6507    -6323 
   -6146    -5964    -5752    -5518    -5281    -5059    -4872    -4726 
   -4621    -4550    -4537    -4598    -4716    -4860    -5015    -5157 
   -5248    -5273    -5233    -5174    -5140    -5144    -5205    -5321 
   -5468    -5647    -5860    -6107    -6382    -6674    -6953    -7200 
   -7415    -7580    -7662    -7646    -7518    -7269    -6930    -6544 
   -6138    -5759    -5451    -5204    -4990    -4823    -4727    -4708 
   -4746    -4835    -4997    -5224    -5458    -5664    -5845    -5987 
   -6083    -6160    -6212    -6246    -6284    -6311    -6304    -6259 
   -6174    -6066    -5952    -5842    -5749    -5678    -5630    -5624 
   -5647    -5686    -5742    -5788    -5819    -5850    -5867    -5868 
   -5875    -5877    -5859    -5815    -5752    -5676    -5599    -5529 
   -5479    -5449    -5433    -5437    -5455    -5464    -5467    -5472 
   -5479    -5494    -5532    -5591    -5670    -5757    -5842    -5911 
   -5957    -5984    -5992    -5985    -5969    -5946    -5925    -5931 
   -5983    -6076    -6199    -6338    -6486    -6628    -6739    -6798 
   -6801    -6752    -6666    -6556    -6451    -6365    -6284    -6201 
   -6123    -6038    -5950    -5886    -5844    -5819    -5798    -5773 
   -5759    -5746    -5722    -5675    -5597    -5497    -5363    -5185 
   -5011    -4885    -4812    -4807    -4873    -4992    -5154    -5351 
   -5571    -5798    -6018    -6200    -6326    -6393    -6411    -6396 
   -6362    -6296    -6204    -6103    -5995    -5899    -5818    -5751 
   -5713    -5694    -5680    -5688    -5714    -5741    -5767    -5786 
   -5811    -5856    -5902    -5941    -5965    -5965    -5956    -5942 
   -5934    -5927    -5913    -5894    -5867    -5815    -5751    -5683 
   -5620    -5575    -5532    -5475    -5436    -5439    -5467    -5485 
   -5482    -5475    -5462    -5443    -5432    -5432    -5443    -5470 
   -5503    -5552    -5634    -5745    -5872    -6006    -6116    -6173 
   -6178    -6153    -6104    -6049    -6000    -5961    -5941    -5934 
