Origin Time       2025/03/29 04:45:00
Lat.              31.090
Long.             131.512
Depth. (km)       33
Mag.              4.6
Station Code      MYZ016
Station Lat.      31.6131
Station Long.     131.3745
Station Height(m) 9
Record Time       2025/03/29 04:45:27
Sampling Freq(Hz) 100Hz
Duration Time(s)  70
Dir.              E-W
Scale Factor      7845(gal)/8223790
Max. Acc. (gal)   3.194
Last Correction   2025/03/29 04:45:26
Memo.             
[...]
   -2203    -2205    -2203    -2197    -2199    -2197    -2196    -2201 
   -2200    -2196    -2199    -2203    -2201    -2201    -2201    -2199 
   -2195    -2197    -2201    -2200    -2199    -2200    -2197    -2196 
   -2199    -2200    -2201    -2199    -2197    -2200    -2200    -2201 
   -2203    -2203    -2203    -2201    -2199    -2199    -2200    -2200 
   -2203    -2205    -2205    -2203    -2199    -2196    -2199    -2205 
   -2207    -2203    -2201    -2200    -2200    -2200    -2200    -2197 
   -2195    -2196    -2199    -2197    -2200    -2201    -2200    -2199 
   -2200    -2199    -2193    -2192    -2193    -2195    -2197    -2203 
   -2208    -2208    -2207    -2208    -2205    -2200    -2200    -2200 
   -2199    -2203    -2208    -2207    -2205    -2207    -2204    -2201 
   -2201    -2200    -2193    -2191    -2192    -2195    -2192    -2195 
   -2200    -2199    -2197    -2199    -2197    -2195    -2195    -2197 
   -2200    -2201    -2204    -2208    -2205    -2203    -2201    -2197 
   -2196    -2199    -2201    -2204    -2209    -2208    -2203    -2199 
   -2200    -2203    -2203    -2203    -2203    -2203    -2203    -2200 
   -2197    -2192    -2189    -2192    -2191    -2191    -2193    -2192 
   -2191    -2196    -2200    -2199    -2196    -2199    -2201    -2203 
   -2203    -2203    -2208    -2209    -2207    -2208    -2209    -2204 
   -2200    -2203    -2201    -2196    -2193    -2191    -2195    -2201 
   -2201    -2207    -2207    -2199    -2195    -2195    -2192    -2189 
   -2192    -2203    -2207    -2208    -2212    -2208    -2199    -2196 
   -2191    -2187    -2192    -2196    -2201    -2209    -2208    -2204 
   -2203    -2200    -2201    -2201    -2201    -2201    -2200    -2200 
   -2201    -2201    -2196    -2196    -2201    -2201    -2199    -2199 
   -2193    -2189    -2196    -2199    -2197    -2201    -2204    -2199 
   -2199    -2201    -2197    -2196    -2201    -2204    -2203    -2200 
   -2200    -2199    -2195    -2197    -2201    -2199    -2201    -2207 
   -2211    -2214    -2215    -2209    -2195    -2181    -2166    -2151 
   -2146    -2147    -2154    -2173    -2193    -2218    -2254    -2285 
   -2290    -2276    -2254    -2224    -2192    -2158    -2123    -2096 
   -2088    -2099    -2138    -2195    -2255    -2317    -2376    -2416 
   -2421    -2366    -2254    -2131    -2037    -1993    -2027    -2120 
   -2224    -2299    -2326    -2297    -2232    -2165    -2108    -2077 
   -2093    -2146    -2209    -2253    -2249    -2215    -2193    -2192 
   -2197    -2199    -2188    -2154    -2111    -2092    -2127    -2212 
   -2313    -2382    -2389    -2343    -2269    -2189    -2126    -2088 
   -2062    -2030    -1988    -1945    -1933    -1993    -2139    -2343 
   -2567    -2758    -2840    -2731    -2415    -1979    -1575    -1358 
   -1414    -1713    -2134    -2536    -2805    -2902    -2863    -2712 
   -2444    -2119    -1857    -1764    -1864    -2096    -2350    -2524 
   -2565    -2474    -2263    -1954    -1649    -1502    -1605    -1927 
   -2336    -2689    -2898    -2941    -2835    -2609    -2297    -1956 
   -1645    -1408    -1279    -1298    -1501    -1880    -2354    -2759 
   -2948    -2903    -2706    -2448    -2195    -1980    -1815    -1745 
   -1792    -1912    -2062    -2247    -2459    -2633    -2693    -2613 
   -2448    -2257    -2062    -1923    -1904    -2002    -2147    -2262 
   -2308    -2319    -2330    -2344    -2365    -2396    -2431    -2475 
   -2524    -2524    -2415    -2177    -1877    -1636    -1559    -1656 
   -1830    -2003    -2169    -2347    -2523    -2632    -2625    -2493 
   -2259    -2003    -1823    -1776    -1863    -2057    -2277    -2405 
   -2355    -2160    -1930    -1791    -1786    -1883    -2031    -2201 
   -2408    -2633    -2801    -2837    -2698    -2393    -2029    -1744 
   -1630    -1715    -1939    -2212    -2462    -2616    -2635    -2546 
   -2416    -2301    -2242    -2251    -2311    -2355    -2330    -2238 
   -2138    -2076    -2084    -2130    -2142    -2115    -2107    -2128 
   -2160    -2174    -2164    -2181    -2259    -2346    -2354    -2228 
   -2018    -1850    -1795    -1848    -1972    -2115    -2230    -2297 
   -2316    -2328    -2382    -2447    -2457    -2390    -2290    -2195 
   -2114    -2045    -1988    -1923    -1841    -1773    -1769    -1860 
   -2054    -2340    -2644    -2847    -2864    -2704    -2451    -2212 
   -2041    -1937    -1898    -1942    -2080    -2266    -2400    -2394 
   -2259    -2079    -1946    -1926    -2012    -2162    -2349    -2556 
   -2739    -2828    -2772    -2552    -2215    -1867    -1606    -1487 
   -1537    -1765    -2114    -2473    -2745    -2867    -2795    -2566 
   -2281    -2038    -1890    -1830    -1826    -1857    -1923    -2046 
   -2222    -2393    -2488    -2482    -2400    -2299    -2232    -2207 
   -2165    -2076    -1973    -1902    -1881    -1908    -1948    -1984 
   -2025    -2085    -2165    -2251    -2344    -2447    -2535    -2578 
   -2569    -2511    -2397    -2238    -2069    -1922    -1823    -1777 
   -1773    -1788    -1810    -1879    -2049    -2330    -2658    -2925 
   -3034    -2957    -2749    -2509    -2293    -2112    -1958    -1849 
   -1840    -1975    -2227    -2481    -2617    -2587    -2411    -2143 
   -1864    -1636    -1505    -1518    -1705    -2047    -2471    -2878 
   -3152    -3198    -2974    -2527    -2016    -1636    -1475    -1530 
   -1717    -1923    -2084    -2185    -2258    -2332    -2376    -2365 
   -2315    -2223    -2096    -1956    -1845    -1809    -1838    -1883 
   -1926    -1987    -2072    -2178    -2285    -2342    -2336    -2319 
   -2367    -2512    -2694    -2798    -2735    -2506    -2197    -1923 
   -1787    -1830    -2014    -2246    -2435    -2532    -2542    -2498 
   -2439    -2381    -2342    -2323    -2324    -2349    -2377    -2361 
   -2251    -2058    -1826    -1617    -1470    -1406    -1462    -1660 
   -1972    -2323    -2629    -2806    -2794    -2596    -2311    -2070 
   -1958    -1999    -2151    -2330    -2439    -2419    -2282    -2095 
   -1917    -1803    -1782    -1869    -2072    -2344    -2628    -2874 
   -3029    -3057    -2960    -2758    -2475    -2162    -1875    -1661 
   -1539    -1489    -1490    -1539    -1660    -1853    -2088    -2338 
   -2558    -2679    -2647    -2469    -2212    -1968    -1807    -1775 
   -1857    -2014    -2188    -2303    -2313    -2258    -2236    -2312 
   -2478    -2656    -2739    -2664    -2439    -2124    -1821    -1653 
   -1682    -1864    -2116    -2346    -2500    -2578    -2592    -2555 
   -2481    -2359    -2207    -2072    -2000    -2006    -2049    -2070 
   -2060    -2053    -2097    -2214    -2382    -2554    -2663    -2659 
   -2535    -2323    -2073    -1861    -1746    -1744    -1825    -1933 
   -2016    -2060    -2066    -2054    -2046    -2074    -2145    -2222 
   -2270    -2288    -2289    -2293    -2308    -2328    -2336    -2340 
   -2366    -2398    -2398    -2343    -2232    -2092    -1975    -1919 
   -1941    -2029    -2162    -2324    -2479    -2594    -2625    -2550 
   -2385    -2181    -1989    -1845    -1749    -1683    -1634    -1617 
   -1675    -1846    -2119    -2448    -2774    -3018    -3106    -3002 
   -2741    -2403    -2074    -1842    -1755    -1803    -1957    -2165 
   -2369    -2523    -2587    -2550    -2431    -2272    -2137    -2065 
   -2043    -2029    -2007    -1981    -1965    -1983    -2050    -2155 
   -2274    -2367    -2407    -2381    -2289    -2146    -1976    -1821 
   -1729    -1728    -1829    -2029    -2277    -2500    -2644    -2674 
   -2577    -2385    -2166    -1981    -1872    -1857    -1933    -2080 
   -2262    -2434    -2554    -2612    -2617    -2566    -2439    -2245 
   -2019    -1809    -1664    -1628    -1722    -1939    -2241    -2558 
   -2808    -2905    -2809    -2565    -2261    -1987    -1804    -1738 
   -1780    -1902    -2062    -2226    -2367    -2463    -2505    -2506 
   -2494    -2481    -2462    -2427    -2361    -2261    -2150    -2062 
   -2007    -1979    -1985    -2015    -2043    -2053    -2038    -2006 
   -1971    -1946    -1954    -2004    -2084    -2160    -2182    -2128 
   -2004    -1849    -1729    -1702    -1800    -1988    -2196    -2367 
   -2478    -2521    -2532    -2540    -2544    -2555    -2570    -2562 
   -2525    -2463    -2381    -2305    -2261    -2259    -2289    -2328 
   -2361    -2370    -2343    -2296    -2249    -2204    -2178    -2187 
   -2220    -2269    -2303    -2296    -2236    -2122    -1976    -1830 
   -1717    -1676    -1728    -1865    -2070    -2289    -2467    -2565 
   -2556    -2455    -2301    -2135    -1992    -1888    -1815    -1787 
   -1817    -1926    -2126    -2389    -2655    -2847    -2879    -2725 
   -2428    -2065    -1732    -1509    -1429    -1491    -1660    -1873 
   -2085    -2270    -2415    -2527    -2594    -2600    -2539    -2423 
   -2280    -2158    -2077    -2056    -2112    -2230    -2363    -2470 
   -2527    -2535    -2511    -2465    -2407    -2339    -2276    -2235 
   -2226    -2253    -2308    -2378    -2427    -2409    -2322    -2200 
   -2080    -2000    -1987    -2019    -2066    -2099    -2093    -2060 
   -2016    -1981    -1971    -1987    -2023    -2056    -2064    -2057 
   -2060    -2088    -2143    -2223    -2299    -2338    -2322    -2254 
   -2158    -2072    -2035    -2077    -2178    -2289    -2365    -2382 
   -2347    -2292    -2266    -2293    -2361    -2442    -2493    -2479 
   -2409    -2309    -2201    -2104    -2025    -1961    -1925    -1923 
   -1950    -1999    -2053    -2089    -2093    -2076    -2056    -2045 
   -2049    -2068    -2093    -2118    -2126    -2108    -2054    -1973 
   -1884    -1782    -1696    -1657    -1669    -1737    -1867    -2049 
   -2266    -2489    -2695    -2847    -2898    -2836    -2675    -2458 
   -2238    -2054    -1933    -1896    -1942    -2052    -2193    -2331 
   -2447    -2519    -2543    -2543    -2538    -2540    -2536    -2496 
   -2415    -2297    -2157    -2029    -1931    -1884    -1890    -1935 
   -2006    -2076    -2126    -2150    -2154    -2151    -2158    -2180 
   -2212    -2253    -2304    -2366    -2430    -2492    -2554    -2600 
   -2623    -2621    -2589    -2525    -2440    -2344    -2257    -2204 
   -2207    -2261    -2349    -2444    -2515    -2543    -2536    -2513 
   -2486    -2461    -2430    -2385    -2323    -2251    -2196    -2182 
   -2226    -2311    -2405    -2478    -2498    -2446    -2331    -2157 
   -1952    -1790    -1710    -1707    -1753    -1796    -1779    -1678 
   -1510    -1335    -1205    -1166    -1252    -1466    -1772    -2116 
   -2415    -2579    -2569    -2397    -2112    -1782    -1489    -1317 
   -1301    -1435    -1682    -1991    -2299    -2558    -2735    -2810 
   -2782    -2670    -2496    -2296    -2135    -2062    -2085    -2204 
   -2407    -2664    -2945    -3200    -3376    -3435    -3380    -3234 
   -3029    -2803    -2586    -2401    -2259    -2176    -2164    -2224 
   -2346    -2500    -2633    -2702    -2691    -2605    -2463    -2308 
   -2172    -2068    -2007    -1962    -1895    -1792    -1675    -1571 
   -1516    -1533    -1611    -1709    -1771    -1757    -1665    -1521 
   -1374    -1270    -1240    -1310    -1480    -1707    -1945    -2145 
   -2274    -2323    -2300    -2231    -2153    -2084    -2038    -2018 
   -2012    -2022    -2056    -2116    -2214    -2351    -2527    -2739 
   -2968    -3192    -3383    -3500    -3523    -3454    -3312    -3130 
   -2928    -2714    -2505    -2307    -2126    -1973    -1861    -1794 
   -1780    -1825    -1911    -2015    -2114    -2184    -2214    -2199 
   -2131    -2010    -1834    -1626    -1431    -1291    -1244    -1318 
   -1510    -1763    -1992    -2127    -2127    -1976    -1705    -1386 
   -1121    -1003    -1096    -1412    -1883    -2404    -2862    -3172 
   -3284    -3194    -2956    -2654    -2370    -2173    -2099    -2137 
   -2254    -2415    -2577    -2725    -2853    -2933    -2953    -2907 
   -2798    -2648    -2498    -2398    -2370    -2392    -2444    -2488 
   -2471    -2381    -2227    -2003    -1730    -1441    -1150     -873 
    -649     -504     -463     -556     -780    -1093    -1448    -1806 
   -2149    -2450    -2671    -2793    -2808    -2720    -2575    -2438 
   -2343    -2320    -2393    -2554    -2759    -2956    -3132    -3294 
   -3437    -3562    -3658    -3697    -3677    -3591    -3424    -3194 
   -2924    -2651    -2419    -2247    -2150    -2130    -2155    -2200 
   -2222    -2181    -2076    -1902    -1664    -1417    -1190     -989 
    -830     -675     -484     -282      -99       20       16     -141 
    -430     -791    -1158    -1479    -1729    -1908    -2029    -2114 
   -2208    -2339    -2521    -2762    -3045    -3354    -3663    -3939 
   -4151    -4275    -4303    -4263    -4190    -4117    -4056    -4005 
   -3959    -3901    -3804    -3657    -3461    -3211    -2910    -2571 
   -2228    -1914    -1674    -1574    -1626    -1771    -1938    -2057 
   -2056    -1912    -1645    -1304     -963     -688     -521     -477 
    -538     -692     -958    -1339    -1814    -2336    -2826    -3198 
   -3400    -3427    -3291    -3030    -2700    -2336    -1979    -1661 
   -1391    -1179    -1048    -1016    -1070    -1167    -1270    -1358 
   -1409    -1417    -1391    -1355    -1332    -1313    -1270    -1185 
   -1055     -895     -738     -629     -621     -770    -1097    -1582 
   -2201    -2911    -3643    -4318    -4876    -5278    -5499    -5548 
   -5464    -5293    -5067    -4804    -4510    -4202    -3898    -3620 
   -3372    -3133    -2882    -2596    -2242    -1827    -1387     -969 
    -611     -333     -136      -14       67      145      229      295 
     313      252       86     -193     -537     -897    -1225    -1475 
   -1641    -1732    -1763    -1786    -1853    -1992    -2224    -2558 
   -2974    -3429    -3877    -4271    -4583    -4807    -4943    -4995 
   -4959    -4828    -4602    -4297    -3940    -3549    -3159    -2812 
   -2523    -2316    -2209    -2188    -2231    -2322    -2423    -2490 
   -2469    -2327    -2062    -1692    -1250     -784     -352       -6 
     210      280      197      -22     -360     -780    -1235    -1682 
   -2065    -2331    -2447    -2397    -2195    -1899    -1584    -1336 
   -1250    -1382    -1733    -2249    -2814    -3302    -3603    -3655 
   -3446    -3028    -2512    -2015    -1647    -1479    -1525    -1741 
   -2050    -2358    -2592    -2718    -2731    -2644    -2520    -2431 
   -2423    -2512    -2704    -2978    -3264    -3503    -3663    -3730 
   -3704    -3615    -3497    -3358    -3190    -2986    -2736    -2430 
   -2089    -1752    -1453    -1220    -1082    -1051    -1097    -1193 
   -1325    -1453    -1529    -1525    -1421    -1206     -897     -548 
    -230      -27       12     -118     -399     -789    -1216    -1617 
   -1961    -2232    -2438    -2604    -2740    -2852    -2943    -3024 
   -3109    -3215    -3364    -3569    -3813    -4063    -4279    -4419 
   -4450    -4365    -4180    -3919    -3600    -3260    -2929    -2613 
   -2319    -2046    -1786    -1539    -1312    -1102     -922     -780 
    -668     -576     -499     -442     -413     -429     -538     -770 
   -1107    -1509    -1941    -2347    -2683    -2934    -3083    -3117 
   -3060    -2947    -2805    -2664    -2552    -2500    -2529    -2647 
   -2845    -3092    -3343    -3554    -3669    -3655    -3505    -3233 
   -2872    -2482    -2104    -1780    -1551    -1437    -1426    -1505 
   -1645    -1807    -1966    -2097    -2155    -2124    -2010    -1822 
   -1606    -1406    -1255    -1197    -1240    -1379    -1609    -1906 
   -2224    -2529    -2783    -2945    -2998    -2947    -2795    -2567 
   -2301    -2038    -1813    -1660    -1583    -1560    -1587    -1655 
   -1741    -1841    -1938    -1996    -2003    -1958    -1868    -1760 
   -1672    -1629    -1648    -1732    -1865    -2031    -2214    -2400 
   -2586    -2778    -2984    -3210    -3426    -3607    -3739    -3808 
   -3809    -3762    -3680    -3565    -3420    -3250    -3041    -2775 
   -2457    -2100    -1728    -1368    -1065     -831     -670     -581 
    -545     -549     -575     -615     -668     -731     -801     -878 
    -955    -1032    -1109    -1192    -1294    -1451    -1686    -2014 
   -2438    -2936    -3461    -3951    -4356    -4631    -4750    -4712 
   -4534    -4237    -3863    -3465    -3095    -2793    -2577    -2446 
   -2390    -2398    -2442    -2489    -2520    -2517    -2457    -2330 
   -2146    -1908    -1618    -1301     -997     -746     -583     -527 
    -598     -785    -1050    -1348    -1636    -1858    -1988    -2029 
   -1995    -1921    -1849    -1817    -1849    -1956    -2137    -2381 
   -2650    -2897    -3069    -3141    -3099    -2947    -2717    -2447 
   -2162    -1914    -1748    -1686    -1742    -1912    -2170    -2481 
   -2779    -3003    -3122    -3114    -2986    -2762    -2489    -2228 
   -2029    -1910    -1881    -1933    -2029    -2137    -2231    -2288 
   -2277    -2199    -2070    -1895    -1684    -1462    -1237    -1034 
    -868     -756     -712     -754     -889    -1116    -1425    -1790 
   -2173    -2524    -2802    -2978    -3041    -3014    -2925    -2810 
   -2714    -2664    -2670    -2727    -2810    -2890    -2944    -2947 
   -2898    -2803    -2675    -2548    -2452    -2394    -2384    -2415 
   -2474    -2538    -2577    -2586    -2573    -2540    -2493    -2431 
   -2357    -2296    -2273    -2292    -2362    -2475    -2604    -2721 
   -2808    -2853    -2864    -2847    -2812    -2772    -2733    -2695 
   -2648    -2585    -2492    -2358    -2176    -1950    -1694    -1421 
   -1140     -859     -604     -402     -255     -176     -186     -272 
    -422     -633     -891    -1181    -1489    -1800    -2114    -2408 
   -2663    -2871    -3021    -3117    -3164    -3171    -3150    -3123 
   -3103    -3098    -3122    -3176    -3241    -3299    -3318    -3264 
   -3137    -2938    -2685    -2401    -2111    -1844    -1609    -1402 
   -1250    -1163    -1135    -1175    -1277    -1406    -1528    -1618 
   -1661    -1636    -1541    -1390    -1210    -1042     -918     -864 
    -909    -1065    -1327    -1668    -2054    -2446    -2825    -3177 
   -3487    -3748    -3955    -4095    -4171    -4171    -4090    -3946 
   -3759    -3546    -3335    -3149    -2990    -2845    -2701    -2548 
   -2393    -2231    -2064    -1903    -1755    -1611    -1489    -1398 
   -1343    -1340    -1394    -1505    -1665    -1860    -2064    -2253 
   -2404    -2509    -2573    -2601    -2601    -2578    -2538    -2475 
   -2392    -2285    -2162    -2035    -1923    -1845    -1815    -1838 
   -1900    -1979    -2049    -2083    -2069    -2004    -1892    -1756 
   -1621    -1502    -1410    -1345    -1298    -1259    -1229    -1202 
   -1190    -1205    -1258    -1345    -1460    -1595    -1740    -1876 
   -2000    -2110    -2205    -2297    -2394    -2497    -2609    -2729 
   -2835    -2918    -2982    -3021    -3036    -3022    -2986    -2937 
   -2882    -2826    -2789    -2774    -2778    -2790    -2805    -2812 
   -2787    -2733    -2660    -2578    -2497    -2434    -2394    -2380 
   -2373    -2365    -2335    -2269    -2168    -2041    -1908    -1803 
