Origin Time       2025/03/29 04:45:00
Lat.              31.090
Long.             131.512
Depth. (km)       33
Mag.              4.6
Station Code      MYZ017
Station Lat.      31.4639
Station Long.     131.2281
Station Height(m) 9
Record Time       2025/03/29 04:45:24
Sampling Freq(Hz) 100Hz
Duration Time(s)  70
Dir.              U-D
Scale Factor      7845(gal)/8223790
Max. Acc. (gal)   5.944
Last Correction   2025/03/29 04:45:24
Memo.             
[...]
   30828    30834    30831    30827    30829    30846    30844    30825 
   30820    30825    30829    30835    30831    30832    30840    30828 
   30817    30831    30839    30832    30831    30834    30829    30831 
   30836    30828    30821    30827    30831    30829    30832    30839 
   30839    30838    30832    30823    30821    30829    30832    30834 
   30839    30839    30831    30824    30831    30831    30823    30827 
   30827    30824    30832    30836    30840    30839    30825    30823 
   30824    30820    30831    30847    30848    30836    30825    30821 
   30824    30831    30829    30821    30828    30836    30831    30829 
   30831    30829    30825    30821    30827    30825    30829    30844 
   30843    30832    30825    30817    30815    30820    30839    30859 
   30851    30829    30817    30811    30816    30831    30843    30848 
   30835    30819    30820    30825    30831    30836    30834    30831 
   30835    30834    30829    30834    30838    30838    30840    30829 
   30805    30805    30828    30842    30839    30823    30816    30825 
   30835    30843    30846    30835    30823    30823    30832    30836 
   30838    30838    30829    30819    30819    30831    30836    30827 
   30829    30834    30817    30819    30835    30838    30839    30835 
   30836    30842    30832    30819    30820    30832    30832    30824 
   30831    30829    30832    30852    30854    30838    30817    30800 
   30811    30829    30838    30839    30831    30829    30840    30835 
   30824    30824    30824    30825    30829    30834    30839    30852 
   30858    30834    30802    30796    30813    30834    30846    30852 
   30840    30817    30821    30831    30823    30827    30835    30832 
   30831    30825    30824    30834    30842    30839    30832    30831 
   30838    30827    30811    30819    30836    30834    30829    30842 
   30844    30827    30811    30816    30832    30843    30842    30831 
   30829    30838    30835    30827    30824    30829    30834    30828 
   30823    30834    30846    30842    30828    30812    30809    30820 
   30824    30838    30848    30834    30831    30840    30832    30817 
   30809    30815    30835    30850    30846    30838    30840    30834 
   30816    30812    30820    30827    30835    30839    30834    30823 
   30817    30827    30840    30840    30827    30821    30838    30851 
   30842    30831    30828    30827    30825    30820    30816    30819 
   30835    30854    30847    30829    30831    30831    30817    30811 
   30829    30843    30839    30840    30840    30824    30821    30828 
   30825    30835    30844    30827    30813    30829    30840    30831 
   30838    30842    30825    30824    30839    30840    30832    30828 
   30825    30823    30825    30829    30829    30829    30832    30838 
   30846    30843    30832    30820    30815    30828    30840    30842 
   30840    30831    30821    30827    30827    30823    30828    30836 
   30840    30835    30828    30838    30842    30829    30820    30816 
   30816    30829    30840    30844    30848    30847    30835    30827 
   30825    30815    30808    30819    30834    30840    30840    30843 
   30838    30817    30811    30824    30829    30831    30842    30850 
   30838    30823    30831    30839    30825    30823    30834    30834 
   30825    30828    30831    30832    30838    30839    30829    30817 
   30819    30831    30839    30840    30832    30828    30838    30835 
   30823    30827    30834    30829    30832    30839    30839    30836 
   30828    30820    30817    30828    30840    30836    30829    30825 
   30815    30817    30828    30835    30847    30850    30836    30831 
   30828    30825    30829    30829    30824    30831    30832    30828 
   30834    30838    30829    30824    30817    30813    30827    30840 
   30848    30854    30844    30824    30811    30813    30824    30835 
   30838    30835    30828    30831    30834    30832    30829    30823 
   30813    30813    30828    30840    30842    30844    30842    30832 
   30835    30825    30807    30824    30850    30846    30834    30823 
   30821    30825    30821    30827    30829    30823    30827    30832 
   30832    30840    30847    30838    30817    30815    30827    30836 
   30842    30842    30842    30839    30827    30816    30815    30825 
   30834    30820    30819    30834    30827    30827    30843    30838 
   30828    30828    30825    30823    30827    30844    30850    30836 
   30829    30824    30820    30829    30834    30836    30838    30825 
   30813    30821    30836    30839    30832    30829    30838    30840 
   30828    30821    30827    30828    30828    30831    30827    30835 
   30847    30843    30834    30823    30813    30815    30824    30834 
   30839    30843    30840    30825    30824    30835    30832    30827 
   30828    30829    30832    30831    30832    30835    30832    30825 
   30823    30831    30838    30834    30829    30828    30827    30827 
   30831    30838    30842    30839    30832    30820    30816    30825 
   30832    30838    30842    30836    30834    30838    30829    30819 
   30817    30827    30829    30836    30843    30828    30813    30823 
   30831    30832    30835    30839    30842    30844    30840    30829 
   30819    30816    30820    30836    30846    30828    30817    30820 
   30823    30836    30842    30832    30819    30808    30816    30828 
   30827    30839    30858    30850    30828    30817    30827    30847 
   30851    30834    30815    30807    30811    30828    30843    30840 
   30840    30839    30819    30805    30820    30831    30824    30827 
   30844    30859    30859    30839    30823    30832    30838    30819 
   30801    30813    30848    30869    30858    30825    30788    30774 
   30805    30847    30869    30863    30846    30829    30802    30794 
   30828    30861    30859    30832    30805    30808    30832    30855 
   30856    30838    30820    30809    30807    30829    30856    30865 
   30851    30811    30774    30796    30846    30850    30829    30829 
   30835    30834    30844    30850    30838    30820    30802    30811 
   30843    30866    30867    30847    30813    30792    30794    30815 
   30832    30843    30855    30854    30840    30823    30807    30813 
   30828    30834    30838    30836    30828    30834    30846    30850 
   30831    30794    30790    30828    30863    30867    30846    30816 
   30802    30816    30836    30844    30835    30821    30838    30861 
   30850    30828    30815    30798    30798    30820    30843    30851 
   30839    30828    30828    30825    30823    30824    30827    30839 
   30856    30855    30838    30821    30812    30819    30828    30825 
   30831    30850    30847    30835    30828    30811    30798    30812 
   30832    30847    30856    30847    30825    30821    30827    30820 
   30820    30825    30828    30834    30842    30844    30832    30817 
   30824    30835    30827    30821    30828    30843    30847    30839 
   30829    30816    30811    30821    30829    30836    30838    30832 
   30836    30842    30839    30838    30824    30813    30821    30824 
   30827    30829    30820    30820    30836    30842    30840    30840 
   30834    30828    30839    30843    30825    30816    30815    30821 
   30843    30848    30840    30828    30815    30815    30821    30825 
   30825    30827    30836    30840    30825    30815    30820    30834 
   30842    30851    30862    30850    30829    30823    30819    30823 
   30828    30819    30817    30827    30828    30827    30831    30831 
   30823    30825    30842    30842    30832    30831    30829    30834 
   30842    30838    30824    30815    30813    30824    30843    30850 
   30842    30829    30820    30812    30811    30825    30838    30832 
   30832    30842    30839    30835    30840    30835    30832    30839 
   30829    30812    30812    30817    30831    30846    30840    30824 
   30820    30827    30834    30834    30836    30840    30838    30829 
   30824    30835    30840    30821    30808    30816    30828    30835 
   30844    30852    30840    30824    30819    30811    30807    30817 
   30832    30848    30854    30848    30843    30824    30805    30812 
   30825    30834    30834    30832    30836    30843    30840    30828 
   30821    30823    30823    30829    30840    30840    30836    30836 
   30831    30812    30807    30820    30823    30821    30835    30855 
   30862    30847    30825    30819    30823    30831    30828    30819 
   30829    30835    30831    30836    30832    30819    30828    30838 
   30832    30829    30829    30825    30821    30829    30836    30831 
   30821    30824    30829    30829    30834    30843    30836    30825 
   30828    30825    30831    30843    30827    30813    30820    30821 
   30827    30836    30842    30843    30835    30829    30828    30828 
   30827    30823    30825    30827    30828    30842    30844    30832 
   30827    30820    30813    30820    30829    30836    30842    30844 
   30836    30828    30823    30816    30819    30821    30828    30842 
   30840    30832    30832    30827    30821    30823    30823    30823 
   30831    30838    30838    30834    30835    30836    30825    30812 
   30819    30835    30838    30834    30835    30835    30827    30820 
   30819    30827    30840    30836    30825    30821    30829    30838 
   30831    30827    30829    30827    30829    30831    30829    30834 
   30831    30819    30821    30836    30835    30823    30827    30836 
   30831    30825    30827    30832    30836    30835    30832    30827 
   30831    30835    30824    30821    30825    30823    30828    30838 
   30835    30831    30834    30834    30824    30821    30828    30831 
   30831    30828    30828    30834    30832    30832    30836    30827 
   30821    30831    30832    30834    30839    30832    30827    30821 
   30819    30825    30829    30829    30829    30828    30834    30836 
   30829    30823    30828    30829    30819    30825    30848    30847 
   30832    30827    30831    30832    30824    30820    30825    30827 
   30827    30828    30829    30835    30840    30832    30821    30821 
   30824    30831    30840    30834    30827    30838    30836    30820 
   30824    30835    30838    30831    30820    30823    30834    30838 
   30834    30829    30824    30825    30829    30829    30831    30835 
   30834    30829    30828    30825    30825    30836    30835    30820 
   30825    30834    30825    30828    30840    30842    30832    30823 
   30820    30823    30827    30829    30832    30832    30829    30829 
   30835    30834    30829    30835    30835    30829    30839    30840 
   30823    30816    30819    30821    30829    30835    30832    30831 
   30834    30838    30829    30820    30827    30827    30824    30839 
   30850    30832    30815    30825    30838    30831    30828    30835 
   30829    30828    30836    30838    30827    30819    30823    30827 
   30836    30840    30827    30821    30835    30842    30839    30834 
   30824    30817    30825    30838    30834    30827    30834    30831 
   30825    30835    30840    30831    30824    30829    30836    30834 
   30824    30819    30823    30829    30827    30832    30843    30839 
   30831    30827    30824    30828    30824    30831    30846    30835 
   30827    30832    30831    30824    30819    30824    30838    30840 
   30839    30832    30821    30824    30835    30838    30831    30829 
   30832    30827    30821    30820    30824    30832    30838    30838 
   30842    30843    30834    30815    30809    30827    30839    30839 
   30834    30831    30828    30821    30821    30835    30834    30828 
   30835    30834    30823    30828    30839    30832    30821    30827 
   30834    30831    30834    30840    30836    30832    30834    30829 
   30823    30816    30824    30834    30831    30829    30835    30838 
   30827    30813    30820    30834    30839    30840    30840    30838 
   30831    30820    30817    30825    30832    30834    30838    30839 
   30831    30827    30823    30815    30819    30835    30846    30847 
   30842    30831    30825    30823    30816    30819    30835    30840 
   30834    30829    30823    30817    30823    30832    30838    30836 
   30829    30832    30842    30840    30838    30834    30824    30821 
   30827    30832    30831    30821    30817    30829    30836    30835 
   30835    30827    30821    30828    30829    30832    30839    30821 
   30781    30717    30601    30404    30163    29938    29740    29575 
   29569    29940    30785    31869    32695    32994    33034    33131 
   33120    32611    31498    30032    28551    27319    26663    27045 
   28742    31378    33920    35352    35252    33818    31712    29775 
   28540    28159    28640    29686    30735    31498    32057    32386 
   32104    30935    29330    28174    27940    28555    29814    31415 
   32798    33412    33192    32541    31797    31112    30766    30990 
   31499    31703    31321    30553    29747    29157    28884    28854 
   28873    28880    29209    30218    31725    33234    34412    35090 
   35141    34393    32659    30098    27461    25743    25602    27095 
   29536    31791    33018    33065    32305    31465    31224    31575 
   31893    31712    31018    30083    29425    29516    30460    31912 
   33068    33145    32093    30643    29714    29566    29570    29007 
   27904    26985    27027    28397    30905    33790    36093    37062 
   36270    33775    30316    27247    25901    26644    28703    30856 
   32204    32579    32282    31626    30889    30295    29857    29370 
   28636    27932    28053    29556    32061    34496    35911    35854 
   34298    31645    28876    27167    27078    28348    30192    31618 
   32066    31841    31606    31652    31676    31248    30395    29520 
   28980    29123    30203    31935    33524    34203    33708    32305 
   30628    29407    28925    28972    29308    29721    30149    30746 
   31367    31569    31163    30419    29883    29891    30345    31018 
   31634    31915    31774    31307    30767    30380    30134    29906 
   29675    29635    30053    30939    31874    32387    32452    32325 
   32146    32069    32278    32589    32552    31881    30550    28786 
   27121    26211    26449    27814    29890    31922    33157    33377 
   32952    32255    31329    30362    29822    29906    30457    31256 
   32027    32478    32444    31943    31159    30294    29579    29273 
   29409    29729    30080    30605    31245    31502    31017    30048 
   29220    29043    29681    30952    32358    33339    33658    33459 
   32980    32335    31553    30643    29629    28645    28046    28287 
   29403    30763    31642    31738    31152    30146    29118    28570 
   28838    29911    31522    33243    34519    34871    34230    32926 
   31401    30107    29416    29388    29677    29732    29317    28663 
   28155    28210    29103    30618    32135    33053    33076    32319 
   31248    30595    30881    31896    32950    33397    32887    31618 
   30215    29199    28764    28871    29303    29787    30140    30346 
   30534    30796    31000    30975    30794    30573    30404    30597 
   31317    32179    32651    32528    31973    31320    30797    30484 
   30356    30264    30009    29512    28985    28848    29353    30397 
   31575    32408    32675    32383    31680    30958    30618    30662 
   30769    30682    30422    30223    30360    30896    31577    32019 
   31982    31513    30904    30504    30454    30612    30630    30242 
   29606    29151    29234    30011    31320    32618    33237    32822 
   31604    30163    29106    28877    29525    30692    31766    32184 
   31882    31306    30874    30674    30570    30354    29920    29442 
   29299    29736    30666    31646    32116    31874    31207    30631 
   30577    31125    31962    32664    32871    32347    31122    29617 
   28495    28228    28752    29708    30744    31509    31788    31696 
   31518    31422    31355    31160    30777    30319    30018    30087 
   30573    31268    31789    31808    31260    30422    29822    29874 
   30558    31498    32215    32373    31946    31155    30323    29705 
   29397    29424    29768    30338    30950    31378    31526    31510 
   31429    31197    30712    30086    29629    29639    30195    31105 
   31984    32490    32489    31959    30964    29798    28981    28921 
   29605    30653    31594    32080    32019    31580    31047    30596 
   30273    30149    30291    30696    31293    31880    32239    32274 
   31918    31185    30235    29304    28732    28840    29574    30530 
   31286    31580    31352    30801    30296    30199    30686    31576 
   32398    32728    32391    31560    30662    30034    29766    29818 
   30037    30261    30470    30685    30879    31063    31268    31419 
   31317    30879    30323    29984    30063    30508    31095    31554 
   31687    31449    30991    30599    30453    30464    30445    30370 
   30316    30335    30472    30781    31205    31542    31654    31571 
   31367    31112    30859    30608    30400    30396    30715    31282 
   31804    31920    31514    30820    30181    29825    29789    29986 
   30303    30662    31002    31241    31348    31355    31267    31087 
   30812    30470    30181    30057    30145    30393    30700    31024 
   31276    31299    31117    30975    31056    31275    31361    31118 
   30576    29945    29533    29567    30088    30960    31864    32445 
   32545    32221    31693    31202    30835    30559    30311    30017 
   29693    29500    29608    30014    30526    30888    30909    30585 
   30152    29933    30154    30839    31733    32427    32649    32404 
   31880    31305    30882    30753    30879    31055    31087    30935 
   30678    30418    30234    30167    30141    30063    29901    29740 
   29768    30073    30578    31137    31567    31726    31608    31338 
   31135    31174    31425    31646    31549    31058    30387    29862 
   29693    29889    30338    30892    31394    31729    31820    31681 
   31399    31036    30650    30318    30044    29812    29713    29926 
   30553    31434    32194    32499    32239    31531    30628    29863 
   29552    29781    30325    30869    31222    31338    31251    31033 
   30766    30500    30296    30218    30269    30470    30883    31464 
   31986    32215    32063    31606    30989    30366    29878    29627 
   29658    29940    30357    30778    31099    31276    31344    31317 
   31151    30831    30412    29997    29736    29828    30384    31251 
   32082    32602    32667    32267    31526    30662    29930    29471 
   29263    29296    29547    29911    30276    30555    30705    30761 
   30828    30971    31155    31375    31704    32140    32502    32566 
   32240    31623    30927    30312    29824    29482    29334    29381 
   29602    29986    30488    31008    31438    31669    31657    31477 
   31245    31078    31010    30979    30896    30721    30510    30339 
   30237    30206    30223    30230    30214    30196    30207    30258 
   30380    30643    31054    31527    31981    32367    32653    32763 
   32593    32136    31434    30578    29849    29554    29813    30528 
