Origin Time       2025/03/29 04:45:00
Lat.              31.090
Long.             131.512
Depth. (km)       33
Mag.              4.6
Station Code      MYZ017
Station Lat.      31.4639
Station Long.     131.2281
Station Height(m) 9
Record Time       2025/03/29 04:45:24
Sampling Freq(Hz) 100Hz
Duration Time(s)  70
Dir.              N-S
Scale Factor      7845(gal)/8223790
Max. Acc. (gal)   6.589
Last Correction   2025/03/29 04:45:24
Memo.             
[...]
    2224     2235     2246     2228     2214     2223     2222     2208 
    2218     2234     2234     2230     2223     2224     2231     2219 
    2220     2226     2223     2223     2218     2231     2245     2220 
    2212     2226     2219     2220     2230     2227     2227     2235 
    2236     2224     2219     2216     2218     2239     2242     2226 
    2236     2228     2204     2219     2235     2226     2223     2223 
    2226     2234     2230     2216     2220     2223     2216     2230 
    2239     2223     2224     2228     2223     2239     2239     2218 
    2218     2218     2218     2234     2246     2230     2216     2234 
    2238     2219     2216     2220     2222     2220     2224     2238 
    2231     2216     2228     2230     2222     2222     2222     2226 
    2230     2223     2231     2242     2231     2209     2208     2224 
    2222     2223     2239     2239     2224     2215     2223     2230 
    2214     2216     2234     2231     2236     2238     2228     2236 
    2220     2208     2232     2232     2219     2218     2226     2230 
    2214     2226     2238     2208     2212     2236     2232     2231 
    2224     2223     2235     2228     2219     2223     2227     2232 
    2226     2218     2227     2220     2214     2242     2251     2231 
    2223     2222     2219     2226     2230     2231     2224     2215 
    2226     2228     2218     2222     2220     2223     2238     2226 
    2222     2236     2223     2211     2227     2234     2224     2224 
    2238     2241     2223     2220     2223     2224     2228     2215 
    2226     2247     2224     2218     2230     2226     2228     2220 
    2215     2231     2224     2219     2231     2231     2223     2223 
    2226     2222     2220     2232     2234     2222     2220     2231 
    2230     2218     2222     2231     2231     2232     2226     2218 
    2222     2224     2220     2226     2236     2227     2219     2236 
    2230     2204     2224     2239     2219     2219     2224     2223 
    2228     2227     2224     2232     2228     2214     2219     2236 
    2232     2222     2231     2226     2218     2227     2230     2226 
    2223     2227     2234     2222     2220     2231     2224     2226 
    2223     2224     2242     2228     2212     2220     2230     2234 
    2223     2222     2234     2218     2212     2231     2232     2227 
    2228     2231     2228     2220     2220     2222     2224     2226 
    2219     2232     2238     2214     2218     2238     2235     2227 
    2222     2227     2232     2224     2231     2235     2227     2222 
    2218     2228     2223     2215     2235     2228     2209     2228 
    2236     2231     2228     2226     2232     2232     2218     2216 
    2228     2235     2226     2216     2231     2231     2220     2236 
    2231     2215     2231     2228     2223     2238     2220     2208 
    2235     2232     2223     2235     2230     2222     2227     2220 
    2224     2227     2220     2232     2227     2211     2227     2226 
    2223     2232     2220     2223     2234     2220     2226     2231 
    2220     2211     2214     2235     2234     2222     2230     2227 
    2224     2227     2230     2238     2227     2220     2230     2222 
    2216     2224     2224     2223     2226     2227     2232     2242 
    2230     2209     2223     2241     2226     2218     2227     2226 
    2214     2223     2238     2227     2222     2222     2218     2224 
    2227     2230     2239     2227     2214     2216     2227     2234 
    2216     2215     2236     2227     2222     2239     2231     2219 
    2216     2224     2239     2220     2216     2234     2226     2223 
    2226     2220     2226     2224     2226     2230     2222     2226 
    2226     2228     2236     2223     2220     2228     2219     2223 
    2234     2230     2215     2209     2228     2230     2220     2234 
    2231     2230     2232     2216     2223     2238     2230     2224 
    2223     2228     2222     2211     2223     2227     2224     2236 
    2232     2223     2220     2218     2228     2231     2218     2222 
    2224     2220     2234     2239     2223     2215     2212     2222 
    2231     2222     2227     2241     2224     2219     2228     2220 
    2230     2227     2214     2236     2239     2223     2234     2226 
    2203     2209     2224     2236     2231     2219     2223     2223 
    2219     2218     2220     2232     2235     2224     2231     2239 
    2227     2216     2224     2228     2218     2219     2232     2227 
    2222     2236     2241     2224     2218     2226     2236     2230 
    2224     2230     2228     2219     2212     2216     2228     2227 
    2226     2235     2234     2201     2165     2153     2151     2161 
    2189     2215     2246     2319     2436     2513     2417     2161 
    1912     1786     1800     1838     1688     1360     1148     1278 
    1734     2374     3055     3547     3565     3118     2558     2281 
    2481     2910     3034     2720     2276     1958     1849     1854 
    1786     1709     1779     1938     2079     2177     2353     2663 
    2924     3032     3034     2848     2455     1956     1405     1050 
    1177     1630     1976     1969     1684     1381     1282     1397 
    1609     2026     2793     3661     4190     4095     3404     2516 
    1919     1879     2284     2722     2843     2558     1989     1306 
     730      506      587      800     1300     2326     3801     5252 
    5992     5653     4423     2712     1035       56      186     1123 
    2092     2536     2313     1507      498      -79      159     1012 
    2035     2891     3381     3530     3547     3562     3480     3129 
    2660     2384     2201     1846     1329      916     1043     1875 
    2971     3690     3530     2299      499     -859    -1013      253 
    2531     4816     6216     6399     5490     4006     2520     1216 
      86     -626     -614       31      927     1767     2322     2301 
    1655      770      172      410     1779     3811     5607     6455 
    6072     4623     2614      757     -357     -375      880     3029 
    4988     5595     4415     1867    -1030    -2793    -2461     -533 
    1987     4388     5869     6070     5448     4444     3404     2654 
    2231     2016     1698     1097      517      253      541     1382 
    2189     2425     1983     1209      869     1355     2374     3365 
    3786     3508     2883     2289     1884     1746     1885     2081 
    2049     1753     1333     1011     1144     1949     3137     4063 
    4216     3570     2628     2069     2312     3296     4388     4734 
    4044     2625      919     -506    -1059     -616      355     1300 
    2016     2457     2550     2446     2303     2097     1923     1918 
    2122     2486     2898     3288     3572     3588     3233     2519 
    1741     1352     1512     1968     2313     2249     1788     1237 
     966     1198     1902     2916     4000     4727     4876     4603 
    3970     2972     1825      780       72        4      634     1578 
    2350     2717     2621     2092     1362      762      479      507 
     746     1105     1615     2320     3100     3721     3974     3886 
    3628     3249     2771     2311     2062     2191     2573     2841 
    2663     2091     1557     1313     1374     1719     2128     2394 
    2602     2934     3462     4068     4429     4249     3491     2362 
    1255      508      190      244      589     1090     1555     1761 
    1638     1359     1242     1610     2470     3342     3690     3281 
    2199      970      309      480     1264     2289     3204     3701 
    3627     3214     2878     2728     2604     2475     2423     2373 
    2312     2425     2779     3248     3674     3894     3723     3083 
    2134     1229      662      492      681     1119     1606     2006 
    2180     2062     1875     1884     2147     2555     2965     3291 
    3358     2948     2174     1421      897      665      726      972 
    1378     1987     2629     3114     3441     3593     3504     3171 
    2637     1981     1371     1007      939     1181     1682     2143 
    2342     2317     2270     2473     2921     3360     3622     3550 
    3173     2749     2412     2223     2295     2631     3018     3141 
    2806     1957      850       78      -51      365     1155     2019 
    2713     3206     3507     3600     3399     2903     2268     1626 
    1210     1227     1621     2272     2953     3373     3429     3094 
    2374     1506      858      700     1071     1738     2317     2566 
    2470     2146     1815     1688     1854     2253     2702     3056 
    3150     2883     2471     2130     1848     1651     1563     1544 
    1652     1930     2396     3057     3680     3940     3732     3086 
    2173     1340      897      990     1530     2231     2803     2995 
    2712     2079     1273      531      125      280     1058     2208 
    3323     4033     4131     3707     2983     2193     1607     1406 
    1709     2511     3430     3987     3985     3445     2592     1710 
     999      633      729     1273     2081     2798     3171     3122 
    2643     1944     1459     1495     2015     2795     3553     3973 
    3807     2955     1552       43    -1001    -1148     -310     1213 
    2863     4090     4554     4201     3249     2133     1285      955 
    1227     1971     2797     3267     3221     2837     2385     2031 
    1800     1597     1362     1198     1269     1671     2359     3109 
    3615     3613     3051     2201     1506     1333     1831     2781 
    3653     4028     3867     3329     2635     2056     1740     1664 
    1744     1823     1790     1648     1507     1489     1603     1786 
    1914     1903     1759     1539     1390     1433     1621     1881 
    2130     2249     2309     2501     2879     3300     3527     3454 
    3111     2575     2054     1725     1620     1749     2029     2255 
    2338     2365     2435     2560     2736     2913     2902     2504 
    1787     1109      812      980     1529     2251     2837     3125 
    3121     2898     2660     2575     2644     2836     3028     3019 
    2749     2258     1632     1100      855      899     1121     1310 
    1290     1109      973     1089     1529     2241     3129     3985 
    4577     4769     4449     3692     2799     2023     1463     1132 
    1008     1059     1244     1514     1860     2265     2617     2802 
    2772     2547     2270     2116     2173     2417     2646     2658 
    2427     2038     1684     1595     1864     2365     2803     2941 
    2740     2327     1879     1583     1540     1721     2050     2398 
    2620     2656     2531     2299     2050     1883     1829     1873 
    2053     2385     2762     3040     3078     2798     2295     1804 
    1570     1668     1989     2316     2404     2211     1869     1489 
    1235     1229     1443     1844     2347     2805     3160     3384 
    3474     3501     3462     3362     3284     3226     3156     3044 
    2799     2440     2043     1649     1359     1219     1196     1293 
    1501     1811     2185     2528     2825     3125     3402     3588 
    3649     3568     3333     2987     2644     2370     2133     1892 
    1613     1317     1075      886      780      807      972     1275 
    1614     1858     1975     1927     1795     1734     1768     1906 
    2131     2296     2332     2251     2074     1884     1722     1626 
    1656     1748     1845     2041     2393     2872     3388     3770 
    3923     3819     3406     2785     2145     1543     1088      930 
    1012     1170     1271     1159      787      236     -368     -857 
   -1082    -1020     -629      159     1279     2565     3820     4819 
    5370     5337     4712     3658     2420     1256      456      228 
     537     1161     1892     2613     3223     3672     4023     4368 
    4750     5192     5651     5972     6042     5809     5204     4291 
    3261     2204     1151      139     -841    -1688    -2170    -2077 
   -1309       67     1864     3812     5539     6677     7053     6724 
    5900     4854     3812     2925     2234     1709     1371     1215 
    1132     1066      992      819      503       83     -369     -750 
    -950     -918     -616      -32      792     1809     2920     3894 
    4507     4623     4098     2905     1313     -243    -1368    -1814 
   -1514     -606      706     2219     3596     4536     5038     5290 
    5471     5660     5860     5973     5860     5544     5113     4546 
    3896     3314     2857     2440     2015     1648     1429     1428 
    1656     2081     2558     2744     2381     1441      101    -1263 
   -2272    -2754    -2741    -2278    -1370      -86     1413     2905 
    4217     5198     5620     5413     4641     3426     2069      849 
     -12     -297      -12      715     1782     3024     4271     5355 
    6116     6438     6184     5324     4059     2677     1528      950 
     923     1197     1606     1917     1900     1641     1325     1036 
     845      746      710      796     1012     1377     1983     2732 
    3385     3781     3825     3468     2682     1560      463     -307 
    -683     -653     -291      238      820     1398     2011     2713 
    3511     4436     5508     6628     7674     8533     9049     9070 
    8509     7406     5883     4054     2084      198    -1472    -2855 
   -3847    -4449    -4681    -4483    -3875    -2976    -1915     -845 
      75      646      727      376     -189     -702     -900     -614 
     152     1247     2490     3674     4617     5267     5647     5778 
    5756     5709     5741     6012     6570     7272     8000     8627 
    8945     8877     8452     7663     6561     5215     3740     2290 
     963     -159    -1119    -1956    -2509    -2729    -2740    -2567 
   -2265    -1956    -1656    -1340    -1043     -784     -542     -309 
     -99       10      -41     -297     -760    -1262    -1568    -1521 
    -930      299     1971     3829     5636     7083     7996     8314 
    8025     7350     6536     5744     5228     5112     5259     5499 
    5647     5533     5101     4328     3258     2066      989      203 
    -218     -283      -37      438     1008     1545     1973     2192 
    2166     2000     1804     1613     1428     1275     1151      977 
     757      521      241      -14     -109        2      326      870 
    1537     2177     2714     3060     3099     2891     2583     2299 
    2195     2297     2490     2710     2937     3122     3233     3322 
    3431     3546     3650     3669     3577     3472     3346     3091 
    2695     2161     1471      778      325      202      317      595 
    1131     1949     2897     3881     4787     5441     5809     5894 
    5653     5113     4365     3553     2820     2147     1429      584 
    -457    -1610    -2682    -3558    -4060    -4117    -3828    -3100 
   -1854     -257     1522     3377     5233     6897     8054     8583 
    8455     7641     6274     4533     2667     1094       39     -535 
    -654     -305      454     1495     2633     3676     4460     4895 
    4904     4415     3545     2551     1544      584     -141     -531 
    -612     -415        9      634     1431     2303     3168     3943 
    4519     4839     4896     4785     4658     4521     4261     3817 
    3141     2251     1227      148     -768    -1323    -1505    -1287 
    -643      319     1462     2654     3809     4845     5663     6181 
    6299     5987     5293     4255     3021     1777      618     -338 
    -974    -1287    -1289    -1035     -604      -14      700     1525 
    2451     3407     4341     5158     5655     5717     5256     4187 
    2637      841    -1001    -2593    -3663    -4086    -3793    -2824 
   -1298      660     2787     4735     6301     7399     7978     8062 
    7711     7030     6154     5198     4279     3429     2648     2033 
    1629     1348     1135      977      822      618      378      164 
       8      -70       22      338      764     1161     1495     1783 
    2016     2212     2390     2494     2444     2245     1927     1566 
    1255     1073     1077     1301     1752     2358     3076     3921 
    4762     5445     5906     6029     5779     5267     4564     3651 
    2597     1539      556     -280     -893    -1192    -1092     -711 
    -256      275      973     1745     2423     2948     3281     3392 
    3300     3018     2636     2281     2038     1966     2103     2444 
    2866     3196     3402     3505     3514     3504     3469     3213 
    2770     2343     1903     1440     1067      842      830      985 
    1116     1202     1317     1422     1518     1656     1782     1860 
    1930     1998     2038     2076     2154     2247     2349     2512 
    2702     2833     2924     2991     3060     3204     3445     3724 
    3927     3990     3904     3636     3237     2763     2181     1534 
     903      321      -76     -137      124      641     1333     2095 
    2849     3481     3913     4199     4348     4320     4158     3879 
    3446     2862     2111     1248      469     -184     -734    -1040 
   -1085     -922     -490      203     1094     2091     3006     3699 
    4097     4170     4004     3684     3199     2583     1894     1192 
     626      303      288      692     1498     2601     3904     5158 
    6085     6629     6785     6523     5903     5089     4297     3630 
    3102     2710     2358     1984     1575     1035      363     -302 
    -832    -1166    -1286    -1194     -909     -483       14      529 
    1038     1493     1865     2193     2473     2623     2593     2378 
    1969     1421      842      334       25       29      390     1066 
    1985     3109     4321     5404     6246     6879     7264     7279 
    6952     6386     5563     4492     3349     2335     1579     1178 
    1142     1345     1659     1992     2250     2386     2436     2389 
    2204     1927     1575     1109      567      -27     -625    -1075 
   -1316    -1404    -1362    -1233    -1043     -738     -373       17 
     511     1043     1601     2259     2936     3564     4162     4729 
    5266     5765     6228     6593     6766     6756     6575     6251 
    5872     5386     4722     3971     3186     2381     1645      988 
     330     -349    -1021    -1645    -2151    -2469    -2539    -2290 
   -1682     -810      133     1000     1732     2272     2567     2698 
    2768     2778     2771     2817     2902     3014     3180     3416 
    3717     4051     4374     4622     4726     4669     4500     4288 
    4060     3781     3472     3188     2911     2646     2411     2155 
    1840     1495     1155      827      548      357      287      376 
     614      951     1325     1629     1825     1933     1939     1826 
    1618     1344     1038      785      677      758     1008     1359 
    1823     2393     2971     3528     4032     4423     4700     4831 
    4795     4561     4077     3397     2609     1761      953      251 
    -243     -418     -310       16      522     1112     1671     2130 
    2500     2785     2964     3107     3273     3441     3626     3808 
    3919     3969     3971     3933     3879     3765     3569     3342 
