Origin Time       2025/03/29 04:45:00
Lat.              31.090
Long.             131.512
Depth. (km)       33
Mag.              4.6
Station Code      MYZ017
Station Lat.      31.4639
Station Long.     131.2281
Station Height(m) 9
Record Time       2025/03/29 04:45:24
Sampling Freq(Hz) 100Hz
Duration Time(s)  70
Dir.              E-W
Scale Factor      7845(gal)/8223790
Max. Acc. (gal)   6.625
Last Correction   2025/03/29 04:45:24
Memo.             
[...]
    4147     4158     4148     4145     4159     4156     4155     4160 
    4158     4156     4155     4158     4166     4159     4160     4174 
    4167     4159     4158     4159     4170     4164     4153     4155 
    4158     4162     4163     4166     4156     4145     4159     4170 
    4155     4152     4176     4170     4143     4163     4171     4149 
    4160     4162     4151     4167     4164     4162     4174     4159 
    4145     4153     4163     4167     4163     4148     4141     4156 
    4167     4162     4167     4162     4159     4174     4159     4137 
    4152     4158     4172     4180     4149     4152     4175     4163 
    4158     4162     4153     4156     4163     4160     4160     4168 
    4160     4149     4156     4153     4155     4163     4152     4156 
    4171     4172     4175     4159     4139     4158     4167     4149 
    4166     4176     4151     4144     4153     4158     4159     4156 
    4166     4171     4162     4159     4155     4152     4162     4159 
    4156     4168     4163     4149     4167     4171     4159     4167 
    4164     4149     4152     4149     4156     4160     4153     4164 
    4158     4144     4163     4166     4140     4149     4176     4167 
    4158     4168     4152     4152     4176     4160     4156     4178 
    4160     4145     4166     4167     4152     4152     4158     4159 
    4156     4151     4153     4164     4166     4160     4160     4164 
    4171     4163     4144     4159     4168     4143     4155     4176 
    4152     4158     4175     4155     4153     4170     4162     4145 
    4152     4162     4162     4163     4163     4159     4159     4160 
    4156     4155     4164     4168     4158     4155     4166     4167 
    4156     4156     4160     4162     4162     4152     4156     4162 
    4155     4159     4160     4155     4159     4162     4163     4162 
    4155     4159     4172     4156     4148     4171     4168     4149 
    4156     4166     4155     4152     4172     4162     4147     4168 
    4164     4149     4171     4175     4155     4155     4160     4152 
    4158     4168     4162     4145     4149     4156     4151     4158 
    4168     4162     4156     4158     4158     4160     4162     4163 
    4153     4156     4167     4151     4155     4174     4163     4162 
    4166     4153     4149     4160     4171     4163     4153     4153 
    4149     4156     4168     4164     4160     4156     4149     4160 
    4171     4162     4158     4158     4156     4159     4159     4160 
    4159     4145     4149     4170     4167     4159     4164     4162 
    4158     4159     4160     4164     4162     4152     4155     4162 
    4166     4164     4158     4158     4163     4155     4158     4170 
    4153     4147     4160     4163     4160     4159     4162     4160 
    4151     4155     4168     4175     4164     4158     4163     4155 
    4155     4167     4162     4158     4155     4149     4158     4159 
    4155     4159     4164     4164     4159     4156     4160     4160 
    4166     4171     4159     4151     4152     4149     4159     4170 
    4164     4156     4156     4160     4159     4164     4166     4147 
    4151     4171     4167     4159     4162     4153     4145     4155 
    4171     4168     4158     4159     4160     4162     4167     4160 
    4151     4166     4166     4143     4152     4164     4148     4153 
    4178     4171     4147     4153     4164     4156     4156     4163 
    4164     4159     4152     4158     4153     4148     4159     4164 
    4166     4166     4163     4172     4179     4156     4133     4158 
    4176     4149     4158     4183     4149     4139     4171     4162 
    4147     4155     4152     4155     4168     4163     4163     4171 
    4162     4153     4160     4164     4159     4149     4153     4168 
    4163     4158     4175     4172     4149     4147     4155     4158 
    4158     4162     4164     4167     4168     4155     4151     4156 
    4148     4160     4175     4159     4160     4175     4166     4149 
    4152     4162     4153     4149     4158     4162     4166     4160 
    4163     4172     4160     4160     4167     4153     4175     4214 
    4237     4268     4266     4259     4320     4365     4315     4133 
    3902     3874     4090     4321     4287     3924     3619     3780 
    4297     4742     4837     4648     4392     4229     4278     4442 
    4421     4203     4033     3893     3703     3470     3011     2377 
    2150     2668     3651     4729     5589     5961     5937     5772 
    5529     5162     4671     4187     3819     3483     3165     3015 
    3041     3171     3515     4139     4807     5213     5151     4719 
    4347     4247     4360     4627     4828     4780     4604     4441 
    4189     3699     3015     2230     1512     1228     1632     2724 
    4194     5340     5724     5526     5128     5008     5482     6224 
    6655     6563     6038     5097     3854     2737     1979     1502 
    1323     1506     2122     3105     4012     4533     5000     5749 
    6632     7410     7839     7441     6023     4176     2570     1347 
     504      218      718     1964     3442     4502     4924     4911 
    4669     4399     4356     4592     5030     5763     6825     7754 
    7854     6787     4762     2380      479      -58      932     2701 
    4336     4993     4421     3465     2941     3005     3726     5036 
    6497     7492     7618     6852     5449     3925     2879     2517 
    2636     3092     3715     4017     3747     3196     2686     2420 
    2593     3033     3484     4190     5247     6226     6828     6763 
    5714     4114     2894     2435     2579     3253     4185     4796 
    4935     4797     4453     4039     3673     3327     3159     3326 
    3770     4441     5247     5965     6438     6588     6291     5499 
    4321     2951     1713     1042     1263     2301     3618     4680 
    5292     5331     4811     3991     2975     2002     1834     2856 
    4503     5956     6751     6775     6151     5232     4261     3318 
    2694     2569     2662     2766     3033     3566     4168     4599 
    5015     5757     6710     7419     7557     6879     5395     3730 
    2617     2131     1945     1949     2154     2446     2658     2771 
    2916     3076     3241     3647     4310     4897     5236     5310 
    5174     5063     5131     5282     5425     5529     5444     4995 
    4270     3553     2986     2641     2604     2790     3107     3557 
    4078     4527     4838     5128     5501     5814     5914     5792 
    5444     4953     4483     4097     3716     3200     2567     2065 
    1899     2118     2623     3181     3649     4000     4237     4479 
    4815     5115     5328     5497     5540     5498     5509     5467 
    5165     4579     3847     3130     2566     2273     2319     2739 
    3522     4429     5123     5498     5530     5115     4310     3419 
    2836     2786     3235     4110     5250     6204     6540     6156 
    5217     4014     2868     2088     1891     2207     2771     3396 
    3896     4151     4336     4662     5001     5132     5063     4830 
    4422     3946     3574     3391     3333     3362     3569     3944 
    4326     4572     4618     4540     4467     4426     4349     4124 
    3740     3491     3674     4199     4841     5482     5934     6033 
    5802     5327     4687     4090     3761     3739     3877     3921 
    3770     3483     3103     2805     2828     3211     3809     4332 
    4506     4351     4071     3773     3549     3593     3928     4347 
    4693     4896     4919     4833     4684     4490     4291     4045 
    3721     3429     3353     3615     4081     4425     4455     4191 
    3813     3581     3666     4091     4766     5431     5740     5540 
    4974     4245     3538     3061     2872     2844     2921     3213 
    3805     4577     5323     5864     6016     5692     4999     4207 
    3705     3721     4064     4305     4194     3753     3138     2583 
    2320     2467     2990     3765     4615     5292     5563     5337 
    4692     3877     3264     3164     3573     4195     4795     5305 
    5656     5688     5374     4857     4149     3267     2513     2266 
    2635     3392     4193     4823     5177     5202     5026     4828 
    4637     4417     4201     4072     4044     4052     4024     3854 
    3558     3326     3326     3573     3920     4206     4406     4548 
    4630     4673     4685     4587     4364     4197     4224     4330 
    4351     4197     3798     3256     2843     2702     2880     3404 
    4164     4911     5444     5691     5606     5273     4935     4729 
    4645     4584     4386     4029     3643     3306     3029     2918 
    3060     3296     3449     3588     3867     4299     4764     5147 
    5410     5459     5166     4565     3836     3184     2871     2965 
    3226     3442     3576     3677     3855     4136     4459     4820 
    5223     5593     5854     5927     5740     5367     4892     4334 
    3732     3165     2772     2610     2666     2984     3508     4045 
    4429     4490     4170     3665     3279     3168     3392     3912 
    4503     4942     5101     4930     4534     4114     3863     3858 
    4013     4251     4523     4774     4984     5090     5009     4764 
    4423     4112     3987     4067     4228     4303     4162     3852 
    3527     3235     3030     3061     3430     4089     4870     5540 
    5872     5741     5184     4392     3672     3264     3175     3242 
    3365     3566     3850     4167     4430     4472     4222     3790 
    3377     3264     3535     4035     4618     5093     5244     5053 
    4563     3842     3132     2705     2644     2898     3376     4001 
    4695     5370     5980     6493     6768     6619     6019     5135 
    4167     3314     2714     2430     2511     2894     3346     3661 
    3775     3773     3767     3761     3796     3951     4117     4212 
    4279     4302     4257     4174     4055     3898     3704     3532 
    3512     3686     3973     4345     4789     5169     5409     5566 
    5621     5490     5213     4877     4472     4041     3704     3562 
    3655     3882     4129     4303     4244     3925     3522     3200 
    3021     3026     3238     3535     3785     3967     4149     4436 
    4808     5159     5439     5584     5485     5076     4395     3591 
    2875     2401     2214     2351     2774     3229     3537     3723 
    3825     3928     4152     4488     4857     5184     5354     5269 
    4976     4676     4523     4515     4598     4711     4777     4718 
    4488     4132     3742     3384     3194     3304     3681     4263 
    5013     5799     6459     6890     7074     7033     6786     6373 
    5833     5151     4315     3408     2600     2022     1771     1863 
    2181     2577     2947     3262     3514     3705     3944     4270 
    4575     4808     4943     4918     4725     4351     3805     3198 
    2641     2208     1948     1871     1958     2178     2520     2990 
    3558     4121     4563     4793     4792     4692     4653     4750 
    5005     5390     5791     6077     6147     5872     5227     4390 
    3473     2484     1587     1008      801      959     1502     2380 
    3500     4762     6003     7045     7728     7925     7609     6816 
    5660     4413     3429     2882     2743     2967     3433     3964 
    4503     5036     5530     6025     6540     7026     7491     7948 
    8239     8149     7615     6681     5405     3873     2228      722 
    -364     -908     -922     -436      383     1278     2085     2674 
    2925     2886     2668     2285     1799     1421     1363     1740 
    2604     3878     5305     6570     7474     7928     7877     7379 
    6602     5702     4766     3928     3368     3105     3144     3561 
    4191     4780     5206     5444     5483     5242     4770     4305 
    3993     3875     3954     4117     4141     3919     3547     3111 
    2722     2550     2664     3044     3628     4328     5057     5724 
    6172     6295     6131     5707     5070     4383     3780     3294 
    2916     2620     2374     2135     1954     1929     2046     2245 
    2516     2876     3318     3798     4261     4714     5240     5930 
    6762     7561     8121     8341     8132     7416     6259     4908 
    3655     2664     2023     1804     1977     2454     3163     4024 
    4946     5837     6529     6767     6444     5691     4698     3642 
    2660     1869     1460     1428     1536     1709     1954     2147 
    2228     2234     2219     2273     2434     2745     3316     4147 
    5105     6043     6808     7249     7308     7025     6475     5813 
    5193     4723     4502     4521     4661     4869     5063     5107 
    4950     4572     3993     3415     3003     2791     2832     3105 
    3435     3717     3977     4141     4124     4031     3959     3869 
    3765     3688     3666     3743     3958     4328     4833     5364 
    5806     6106     6157     5899     5417     4718     3839     3038 
    2558     2462     2766     3433     4274     5028     5533     5678 
    5397     4741     3870     3022     2376     1977     1864     2023 
    2407     2986     3704     4571     5605     6632     7414     7838 
    7811     7250     6259     5044     3736     2447     1359      581 
      44     -333     -506     -402       41      861     2064     3619 
    5394     7260     9031    10378    11080    11105    10492     9366 
    7832     5999     4139     2457     1086      243      -43      145 
     708     1426     2146     2772     3207     3503     3769     4054 
    4379     4712     5020     5259     5317     5071     4506     3775 
    3100     2600     2359     2439     2767     3211     3681     4068 
    4288     4410     4588     4873     5204     5564     5942     6259 
    6393     6219     5699     4861     3811     2839     2212     2041 
    2405     3287     4498     5792     6940     7758     8058     7645 
    6463     4733     2829     1011     -584    -1726    -2118    -1717 
    -757      608     2290     4000     5429     6547     7422     7924 
    7936     7666     7296     6786     6153     5539     4973     4386 
    3882     3657     3666     3811     4063     4322     4500     4588 
    4583     4446     4078     3418     2506     1447      471     -166 
    -341        2      870     2195     3821     5440     6793     7780 
    8280     8236     7798     7169     6567     6224     6131     6111 
    6076     5969     5687     5215     4645     4017     3350     2722 
    2189     1815     1671     1703     1868     2189     2628     3094 
    3483     3701     3775     3775     3674     3462     3304     3350 
    3578     3927     4394     4958     5495     5887     6135     6242 
    6143     5813     5325     4824     4363     3892     3465     3169 
    2964     2818     2801     2917     3096     3296     3501     3662 
    3696     3650     3634     3562     3373     3230     3192     3204 
    3289     3469     3704     4014     4453     4970     5495     6019 
    6501     6862     7045     7033     6853     6550     6161     5697 
    5151     4644     4315     4116     4004     4059     4225     4371 
    4484     4573     4572     4419     4125     3677     3080     2417 
    1699      936      264     -176     -337     -257       44      630 
    1474     2447     3403     4175     4642     4791     4693     4492 
    4391     4592     5166     5995     6885     7669     8232     8517 
    8534     8348     8023     7641     7263     6821     6212     5444 
    4567     3647     2826     2227     1871     1759     1948     2436 
    3072     3711     4216     4461     4504     4405     4101     3603 
    2999     2335     1664     1113      789      742     1008     1603 
    2479     3484     4504     5556     6527     7240     7658     7816 
    7666     7167     6440     5570     4546     3526     2640     1876 
    1271      899      739      789     1147     1861     2836     3955 
    5109     6172     7013     7533     7680     7477     6980     6223 
    5289     4320     3461     2837     2490     2446     2690     3088 
    3510     3901     4222     4448     4630     4884     5198     5432 
    5468     5289     4887     4268     3595     3146     3086     3376 
    3850     4340     4769     5111     5279     5178     4823     4287 
    3635     2960     2381     2000     1868     1995     2336     2821 
    3416     4039     4596     5134     5630     5973     6211     6380 
    6328     6006     5472     4747     3919     3137     2565     2343 
    2524     3049     3740     4444     5070     5464     5475     5085 
    4369     3457     2524     1798     1428     1383     1591     2057 
    2770     3619     4480     5243     5775     5998     5896     5460 
    4811     4136     3514     3018     2736     2670     2836     3203 
    3635     4054     4430     4783     5177     5637     6185     6818 
    7484     8110     8583     8845     8841     8475     7762     6752 
    5478     4062     2636     1339      378     -135     -209      116 
     648     1112     1431     1620     1638     1525     1408     1312 
    1267     1404     1709     2114     2658     3288     3954     4707 
    5478     6129     6633     7024     7321     7584     7862     8087 
    8179     8163     8054     7784     7344     6817     6322     5965 
    5767     5651     5532     5329     4992     4522     3913     3153 
    2269     1354      529     -236     -926    -1321    -1371    -1197 
    -800     -183      581     1447     2407     3411     4357     5196 
    5899     6369     6519     6312     5802     5136     4506     4048 
    3865     4050     4606     5431     6419     7434     8347     9094 
    9563     9632     9328     8679     7657     6324     4793     3207 
    1718      413     -616    -1270    -1491    -1231     -530      477 
    1664     2880     3998     4922     5530     5783     5761     5525 
    5084     4492     3858     3256     2745     2409     2274     2320 
    2533     2875     3322     3878     4502     5170     5852     6478 
    6959     7192     7153     6930     6627     6261     5823     5348 
    4865     4368     3923     3623     3462     3420     3520     3721 
    3894     3940     3852     3676     3441     3159     2878     2675 
    2589     2623     2756     2897     2995     3111     3244     3346 
    3461     3600     3746     3955     4232     4526     4847     5223 
    5629     6015     6322     6517     6606     6640     6588     6330 
    5894     5408     4888     4310     3704     3098     2501     1927 
    1416     1024      799      784     1001     1420     2002     2694 
    3403     4044     4579     5008     5321     5501     5606     5701 
    5800     5923     6026     6091     6130     6065     5872     5609 
    5314     5062     4889     4747     4615     4495     4349     4158 
    3901     3554     3153     2737     2303     1929     1741     1709 
    1767     1900     2049     2247     2578     2998     3484     4083 
    4746     5370     5888     6299     6605     6778     6794     6629 
    6312     5938     5575     5250     4969     4743     4610     4534 
    4459     4399     4320     4116     3759     3289     2776     2296 
