Origin Time       2025/03/29 04:45:00
Lat.              31.090
Long.             131.512
Depth. (km)       33
Mag.              4.6
Station Code      MYZ015
Station Lat.      31.7182
Station Long.     131.0624
Station Height(m) 146
Record Time       2025/03/29 04:45:43
Sampling Freq(Hz) 100Hz
Duration Time(s)  60
Dir.              U-D
Scale Factor      7845(gal)/8223790
Max. Acc. (gal)   1.819
Last Correction   2025/03/29 04:45:43
Memo.             
    5722     5719     5699     5694     5705     5709     5698     5686 
    5694     5717     5718     5692     5674     5676     5692     5709 
    5709     5703     5698     5694     5697     5706     5713     5709 
    5699     5692     5683     5676     5692     5710     5710     5709 
    5706     5691     5688     5702     5709     5698     5688     5699 
    5706     5694     5684     5691     5706     5707     5686     5676 
    5701     5721     5715     5699     5684     5678     5683     5697 
    5709     5713     5713     5705     5686     5676     5687     5698 
    5707     5721     5724     5713     5695     5682     5674     5670 
    5672     5695     5725     5725     5698     5682     5690     5705 
    5707     5701     5695     5692     5698     5702     5698     5698 
    5707     5710     5697     5683     5680     5694     5709     5702 
    5686     5690     5710     5721     5709     5690     5686     5691 
    5691     5690     5688     5694     5711     5719     5695     5670 
    5684     5719     5724     5694     5678     5690     5710     5715 
    5701     5683     5679     5688     5705     5717     5713     5695 
    5684     5686     5690     5698     5703     5695     5687     5695 
    5707     5715     5710     5686     5653     5644     5660     5680 
    5703     5726     5725     5705     5694     5701     5711     5729 
    5741     5741     5734     5715     5702     5721     5749     5767 
    5782     5802     5814     5798     5742     5671     5617     5611 
    5636     5633     5598     5566     5549     5560     5590     5605 
    5613     5636     5674     5714     5757     5814     5881     5919 
    5868     5702     5479     5304     5258     5373     5618     5913 
    6129     6172     6023     5756     5510     5395     5429     5559 
    5705     5813     5880     5914     5914     5898     5881     5842 
    5719     5505     5278     5147     5204     5463     5826     6146 
    6270     6112     5736     5320     5043     5039     5314     5738 
    6133     6384     6451     6323     6021     5618     5194     4838 
    4680     4838     5339     6081     6809     7209     7103     6550 
    5773     5023     4494     4329     4587     5163     5852     6451 
    6808     6828     6502     5907     5185     4545     4248     4479 
    5220     6224     7060     7335     6937     6053     5080     4434 
    4318     4630     5127     5629     6084     6538     6978     7190 
    6910     6118     5057     4143     3817     4294     5422     6736 
    7604     7576     6671     5359     4290     3950     4418     5409 
    6451     7075     7010     6349     5468     4772     4500     4685 
    5170     5733     6192     6430     6442     6278     5967     5607 
    5350     5251     5294     5416     5559     5726     5941     6188 
    6377     6389     6174     5759     5227     4796     4734     5101 
    5686     6197     6446     6365     6052     5656     5246     4912 
    4811     4957     5266     5695     6162     6507     6608     6421 
    6008     5495     5004     4680     4676     5032     5647     6372 
    7013     7296     7060     6377     5470     4666     4310     4502 
    5050     5665     6115     6264     6114     5834     5670     5698 
    5815     5915     5946     5881     5778     5701     5617     5467 
    5259     5043     4891     4930     5243     5733     6178     6385 
    6291     6004     5683     5459     5463     5724     6107     6420 
    6463     6112     5485     4893     4633     4860     5475     6147 
    6575     6681     6521     6177     5746     5350     5070     4969 
    5063     5270     5503     5757     6031     6266     6359     6238 
    5925     5516     5147     4935     4904     5008     5220     5537 
    5899     6201     6340     6273     6053     5795     5567     5433 
    5456     5620     5852     6083     6223     6184     5917     5495 
    5127     5012     5219     5621     5976     6115     6043     5864 
    5690     5578     5526     5540     5589     5621     5621     5609 
    5598     5601     5599     5570     5547     5610     5795     6041 
    6243     6289     6127     5861     5665     5624     5701     5773 
    5734     5599     5466     5414     5466     5580     5728     5871 
    5929     5838     5621     5344     5105     5044     5254     5659 
    6069     6307     6268     5979     5560     5128     4811     4733 
    4950     5449     6120     6740     7075     6991     6505     5826 
    5233     4911     4916     5216     5683     6114     6320     6226 
    5880     5425     5043     4881     4999     5355     5803     6184 
    6407     6427     6223     5840     5389     5039     4954     5181 
    5632     6162     6601     6767     6562     6054     5439     4892 
    4530     4486     4827     5436     6069     6502     6623     6427 
    6007     5518     5142     5015     5166     5516     5898     6154 
    6222     6099     5821     5474     5159     4957     4946     5159 
    5522     5906     6183     6266     6165     5945     5709     5599 
    5702     5961     6218     6311     6203     5964     5697     5502 
    5421     5429     5464     5497     5539     5587     5629     5671 
    5713     5759     5806     5791     5679     5510     5333     5212 
    5215     5358     5583     5795     5917     5954     5946     5883 
    5755     5594     5476     5471     5578     5751     5929     6050 
    6079     6048     5992     5911     5790     5629     5466     5381 
    5418     5539     5671     5776     5844     5875     5864     5813 
    5736     5661     5614     5610     5638     5664     5664     5644 
    5607     5559     5499     5440     5414     5468     5611     5800 
    5972     6077     6097     6045     5922     5744     5564     5440 
    5433     5583     5844     6093     6195     6080     5823     5563 
    5416     5422     5547     5710     5815     5761     5541     5275 
    5109     5130     5352     5711     6070     6295     6312     6131 
    5836     5533     5313     5227     5265     5379     5521     5652 
    5772     5879     5964     6018     6003     5911     5788     5664 
    5567     5555     5648     5795     5919     5948     5842     5637 
    5418     5263     5239     5389     5692     6054     6347     6443 
    6289     5961     5611     5362     5246     5225     5256     5317 
    5404     5508     5614     5707     5783     5842     5880     5886 
    5833     5733     5636     5582     5574     5613     5706     5842 
    5973     6057     6066     6003     5894     5769     5656     5589 
    5562     5551     5544     5539     5529     5516     5498     5506 
    5553     5616     5661     5667     5630     5593     5605     5697 
    5848     6011     6119     6108     5985     5807     5625     5494 
    5464     5557     5736     5902     5964     5886     5692     5475 
    5324     5292     5371     5512     5661     5806     5944     6045 
    6061     5992     5879     5748     5611     5502     5451     5479 
    5572     5691     5805     5892     5923     5881     5786     5661 
    5520     5374     5251     5185     5211     5359     5606     5859 
    6031     6092     6053     5976     5925     5907     5915     5938 
    5968     5979     5933     5818     5647     5463     5364     5420 
    5580     5738     5811     5756     5582     5352     5173     5124 
    5228     5459     5749     6021     6195     6220     6097     5868 
    5603     5389     5277     5294     5433     5632     5803     5875 
    5840     5752     5684     5670     5684     5705     5722     5725 
    5706     5672     5626     5571     5541     5568     5651     5753 
    5826     5842     5827     5811     5802     5811     5849     5907 
    5953     5944     5849     5699     5548     5444     5406     5425 
    5467     5529     5618     5736     5869     6003     6102     6139 
    6097     5962     5744     5501     5335     5325     5454     5628 
    5741     5737     5649     5541     5472     5486     5589     5749 
    5914     6023     6022     5895     5690     5505     5425     5451 
    5520     5564     5570     5557     5552     5574     5618     5665 
    5709     5748     5790     5837     5892     5953     6015     6072 
    6116     6120     6061     5953     5840     5763     5724     5699 
    5683     5679     5672     5633     5540     5402     5286     5255 
    5320     5448     5602     5732     5784     5752     5688     5644 
    5625     5618     5613     5583     5503     5386     5289     5269 
    5341     5475     5626     5780     5935     6092     6222     6280 
    6234     6087     5873     5655     5494     5427     5448     5524 
    5607     5661     5690     5721     5778     5861     5935     5940 
    5848     5686     5506     5375     5344     5417     5549     5680 
    5748     5719     5624     5526     5503     5611     5830     6077 
    6270     6339     6266     6102     5917     5773     5706     5697 
    5709     5699     5648     5563     5466     5391     5368     5408 
    5505     5644     5787     5913     5998     6015     5953     5822 
    5655     5493     5355     5255     5223     5285     5447     5683 
    5938     6133     6193     6108     5923     5703     5526     5443 
    5449     5517     5624     5725     5786     5791     5741     5670 
    5609     5567     5549     5586     5680     5800     5900     5922 
    5814     5605     5387     5251     5260     5429     5706     5999 
    6204     6234     6072     5772     5436     5192     5138     5265 
    5494     5730     5890     5931     5869     5759     5657     5622 
    5679     5798     5931     6037     6092     6096     6056     5968 
    5836     5674     5522     5420     5386     5413     5464     5502 
    5497     5432     5319     5206     5165     5233     5404     5625 
    5834     5973     6019     5983     5879     5734     5599     5533 
    5576     5749     6011     6269     6438     6453     6292     6010 
    5709     5494     5436     5528     5705     5876     5969     5952 
    5830     5664     5517     5418     5393     5467     5628     5818 
    5973     6052     6037     5940     5780     5593     5413     5274 
    5197     5189     5243     5337     5454     5583     5725     5880 
    6037     6147     6154     6043     5856     5652     5491     5405 
    5398     5444     5499     5555     5621     5702     5782     5848 
    5886     5852     5729     5574     5454     5421     5509     5687 
    5886     6039     6084     5992     5806     5595     5414     5302 
    5273     5333     5466     5629     5782     5891     5935     5914 
    5857     5813     5825     5898     5984     6016     5977     5891 
    5791     5715     5686     5690     5686     5632     5517     5394 
    5320     5309     5363     5487     5668     5846     5957     5962 
    5854     5663     5440     5240     5128     5158     5340     5634 
    5950     6191     6289     6238     6091     5941     5872     5887 
    5923     5919     5857     5742     5601     5481     5413     5414 
    5487     5598     5682     5698     5633     5503     5368     5290 
    5289     5366     5497     5641     5765     5842     5863     5833 
    5779     5729     5678     5613     5548     5517     5544     5626 
    5745     5868     5980     6081     6139     6133     6084     6033 
    5998     5971     5938     5906     5875     5849     5836     5818 
    5761     5661     5545     5466     5464     5529     5617     5682 
    5682     5594     5439     5283     5208     5258     5414     5607 
    5765     5837     5800     5674     5508     5366     5286     5277 
    5310     5367     5432     5489     5526     5547     5559     5593 
    5661     5755     5844     5917     5958     5964     5949     5931 
    5915     5903     5903     5910     5911     5884     5827     5760 
    5698     5647     5613     5603     5624     5683     5784     5902 
    5983     5994     5927     5815     5703     5633     5628     5674 
    5715     5709     5648     5566     5505     5482     5502     5555 
    5624     5687     5736     5780     5850     5950     6030     6042 
    5995     5917     5836     5787     5784     5796     5799     5768 
    5697     5626     5591     5599     5648     5726     5809     5852 
    5832     5786     5759     5763     5792     5834     5864     5872 
    5860     5838     5818     5792     5740     5664     5606     5589 
    5584     5563     5535     5532     5572     5655     5751     5818 
    5826     5772     5683     5591     5536     5532     5579     5651 
    5684     5644     5563     5499     5509     5613     5787     5961 
    6064     6072     6004     5896     5780     5686     5618     5562 
    5487     5383     5259     5147     5100     5154     5297     5505 
    5741     5949     6076     6095     6019     5886     5742     5645 
    5626     5690     5800     5891     5918     5859     5703     5485 
    5262     5090     5009     5026     5113     5233     5347     5427 
    5470     5497     5530     5595     5718     5896     6099     6269 
    6349     6313     6166     5934     5678     5471     5379     5427 
    5580     5772     5942     6046     6065     6010     5921     5857 
    5883     6022     6239     6440     6515     6401     6111     5714 
    5305     4974     4765     4676     4695     4796     4946     5113 
    5294     5489     5684     5848     5972     6084     6187     6259 
    6277     6232     6149     6056     5964     5873     5783     5686 
    5572     5441     5328     5256     5224     5240     5300     5379 
    5458     5520     5572     5648     5783     5981     6207     6405 
    6534     6559     6477     6328     6142     5918     5671     5451 
    5310     5247     5228     5223     5220     5219     5223     5233 
    5254     5289     5343     5417     5513     5633     5759     5859 
    5907     5888     5806     5706     5638     5628     5710     5884 
    6084     6239     6301     6258     6141     5999     5864     5756 
    5690     5665     5671     5680     5678     5660     5633     5611 
    5611     5628     5634     5617     5579     5535     5506     5528 
    5586     5649     5711     5748     5713     5632     5582     5606 
    5697     5817     5907     5929     5883     5799     5733     5733 
    5799     5914     6066     6215     6295     6270     6142     5942 
    5725     5530     5368     5239     5150     5121     5163     5260 
    5362     5432     5474     5509     5566     5636     5703     5771 
    5850     5944     6043     6134     6174     6146     6057     5911 
    5724     5521     5324     5152     5038     5003     5038     5120 
    5221     5314     5379     5405     5412     5441     5535     5719 
    5989     6295     6565     6728     6739     6617     6415     6169 
    5923     5711     5529     5366     5228     5125     5074     5080 
    5116     5165     5228     5309     5428     5607     5803     5938 
    5977     5934     5850     5780     5773     5844     5957     6075 
    6154     6156     6076     5934     5769     5636     5553     5510 
    5491     5467     5424     5377     5333     5308     5319     5368 
    5451     5555     5660     5753     5819     5840     5813     5755 
    5682     5605     5545     5524     5552     5637     5775     5940 
    6092     6214     6289     6316     6311     6278     6203     6092 
    5954     5800     5651     5530     5459     5439     5458     5517 
    5606     5683     5709     5690     5653     5629     5634     5684 
    5773     5875     5954     5981     5941     5837     5688     5537 
    5420     5363     5367     5417     5497     5576     5621     5617 
    5576     5521     5493     5529     5637     5784     5915     5977 
    5929     5759     5509     5259     5080     5004     5042     5165 
    5336     5521     5670     5757     5806     5841     5868     5887 
    5907     5929     5941     5933     5917     5930     5975     6029 
    6083     6122     6120     6070     5987     5892     5805     5725 
    5644     5567     5518     5516     5552     5591     5605     5587 
    5544     5493     5455     5441     5456     5494     5545     5613 
    5687     5753     5795     5792     5749     5697     5648     5616 
    5621     5670     5737     5788     5807     5803     5780     5744 
    5722     5740     5787     5830     5854     5871     5898     5952 
    6016     6058     6065     6023     5931     5833     5764     5744 
    5755     5757     5725     5644     5508     5332     5161     5038 
    4976     4970     5020     5128     5273     5421     5556     5675 
    5782     5888     6003     6131     6261     6365     6401     6343 
    6197     6015     5846     5714     5616     5548     5510     5483 
    5448     5408     5382     5373     5364     5360     5389     5471 
    5618     5800     5969     6070     6085     6031     5938     5844 
    5772     5715     5675     5659     5655     5649     5626     5590 
    5562     5543     5526     5532     5567     5618     5687     5778 
    5860     5921     5965     5995     5998     5981     5958     5930 
    5892     5837     5746     5622     5495     5393     5340     5340 
    5377     5431     5481     5514     5533     5539     5521     5490 
    5478     5495     5526     5547     5547     5541     5570     5661 
    5811     5994     6158     6262     6309     6303     6235     6108 
    5922     5690     5467     5321     5287     5329     5393     5441 
    5436     5374     5274     5162     5092     5119     5259     5491 
    5767     6010     6161     6205     6173     6106     6038     5973 
    5908     5845     5778     5691     5597     5528     5499     5512 
    5572     5687     5834     5977     6099     6183     6200     6142 
    6030     5898     5780     5691     5632     5599     5590     5593 
    5591     5560     5509     5456     5402     5347     5314     5323 
    5371     5451     5547     5636     5705     5763     5796     5799 
    5792     5784     5767     5746     5721     5682     5637     5610 
    5609     5634     5684     5756     5856     5988     6134     6242 
    6281     6268     6214     6131     6039     5960     5898     5837 
    5748     5634     5522     5429     5381     5373     5374     5373 
    5378     5404     5475     5587     5698     5771     5800     5792 
    5765     5751     5765     5807     5859     5892     5887     5826 
    5722     5609     5518     5451     5394     5343     5300     5270 
    5263     5289     5344     5416     5499     5598     5692     5757 
    5769     5738     5697     5667     5661     5698     5771     5852 
    5914     5935     5911     5859     5795     5734     5686     5664 
    5672     5701     5741     5788     5829     5849     5829     5761 
    5668     5578     5494     5408     5314     5227     5169     5178 
    5263     5395     5539     5670     5786     5895     5994     6069 
    6112     6127     6119     6096     6058     6006     5946     5887 
    5825     5763     5719     5694     5672     5656     5641     5626 
    5633     5676     5752     5853     5958     6029     6030     5958 
    5834     5703     5603     5547     5535     5552     5564     5551 
    5517     5487     5474     5476     5494     5540     5616     5692 
