Origin Time       2025/03/29 04:45:00
Lat.              31.090
Long.             131.512
Depth. (km)       33
Mag.              4.6
Station Code      MYZ016
Station Lat.      31.6131
Station Long.     131.3745
Station Height(m) 9
Record Time       2025/03/29 04:45:27
Sampling Freq(Hz) 100Hz
Duration Time(s)  70
Dir.              U-D
Scale Factor      7845(gal)/8223790
Max. Acc. (gal)   1.785
Last Correction   2025/03/29 04:45:26
Memo.             
[...]
   15404    15407    15403    15403    15403    15398    15396    15400 
   15403    15402    15398    15395    15394    15395    15398    15398 
   15398    15400    15403    15402    15402    15402    15399    15399 
   15399    15400    15406    15404    15403    15404    15402    15403 
   15406    15402    15402    15404    15403    15399    15399    15399 
   15398    15398    15398    15392    15391    15398    15400    15399 
   15406    15407    15398    15396    15402    15402    15403    15406 
   15402    15395    15399    15408    15411    15404    15400    15404 
   15398    15396    15404    15403    15399    15400    15402    15400 
   15398    15395    15396    15399    15403    15404    15400    15398 
   15395    15396    15400    15402    15402    15403    15402    15400 
   15402    15403    15402    15399    15400    15403    15403    15403 
   15403    15402    15398    15398    15402    15400    15398    15396 
   15395    15395    15392    15394    15400    15400    15400    15402 
   15403    15406    15403    15398    15398    15395    15398    15404 
   15402    15398    15394    15391    15403    15410    15398    15394 
   15402    15403    15403    15403    15399    15398    15399    15402 
   15404    15400    15392    15396    15403    15402    15402    15403 
   15398    15398    15399    15396    15399    15400    15398    15400 
   15404    15403    15400    15403    15406    15403    15400    15399 
   15398    15399    15399    15395    15399    15404    15403    15404 
   15404    15400    15403    15406    15400    15394    15399    15403 
   15398    15394    15392    15398    15400    15395    15398    15399 
   15395    15396    15398    15398    15403    15404    15407    15408 
   15404    15403    15402    15399    15400    15402    15402    15403 
   15402    15402    15402    15402    15402    15399    15398    15399 
   15400    15402    15402    15398    15400    15400    15395    15396 
   15400    15399    15399    15396    15392    15395    15403    15404 
   15402    15408    15410    15404    15404    15404    15398    15398 
   15402    15400    15400    15402    15398    15399    15400    15395 
   15395    15402    15403    15398    15396    15396    15398    15400 
   15403    15404    15402    15402    15406    15402    15399    15402 
   15406    15404    15400    15399    15402    15402    15404    15407 
   15399    15392    15395    15399    15402    15402    15398    15398 
   15400    15396    15399    15406    15403    15398    15402    15406 
   15400    15396    15396    15396    15400    15406    15406    15406 
   15404    15399    15398    15398    15396    15400    15403    15404 
   15404    15396    15392    15399    15404    15400    15400    15400 
   15395    15394    15399    15402    15400    15399    15399    15403 
   15408    15408    15399    15396    15398    15399    15399    15396 
   15398    15400    15398    15400    15402    15399    15400    15402 
   15399    15402    15404    15403    15399    15396    15396    15398 
   15400    15403    15403    15403    15404    15400    15402    15404 
   15399    15398    15400    15398    15396    15402    15399    15398 
   15403    15399    15392    15394    15399    15399    15395    15400 
   15403    15399    15402    15406    15403    15402    15403    15404 
   15403    15399    15398    15398    15399    15400    15402    15400 
   15400    15399    15395    15398    15398    15394    15396    15399 
   15396    15398    15406    15404    15399    15407    15408    15399 
   15399    15399    15398    15402    15403    15403    15404    15402 
   15402    15404    15403    15400    15396    15399    15400    15400 
   15403    15399    15392    15396    15403    15400    15399    15404 
   15404    15399    15400    15402    15399    15396    15402    15406 
   15400    15399    15403    15399    15398    15400    15396    15400 
   15406    15403    15402    15400    15399    15400    15400    15403 
   15404    15400    15399    15402    15400    15396    15398    15400 
   15399    15399    15403    15402    15398    15400    15403    15400 
   15400    15402    15400    15399    15400    15399    15399    15400 
   15402    15406    15408    15404    15400    15399    15396    15396 
   15398    15400    15402    15400    15400    15399    15395    15396 
   15400    15399    15398    15400    15399    15395    15396    15398 
   15399    15404    15406    15402    15396    15395    15398    15404 
   15408    15406    15403    15399    15395    15395    15399    15400 
   15402    15402    15400    15399    15398    15395    15394    15391 
   15394    15399    15400    15398    15399    15396    15394    15402 
   15407    15404    15404    15403    15400    15400    15403    15410 
   15407    15402    15403    15402    15399    15398    15395    15392 
   15392    15398    15403    15399    15394    15394    15395    15395 
   15402    15403    15402    15402    15399    15402    15404    15403 
   15404    15408    15410    15407    15400    15399    15400    15400 
   15403    15404    15400    15395    15391    15391    15391    15395 
   15396    15399    15399    15394    15395    15399    15395    15399 
   15406    15399    15399    15408    15406    15404    15404    15400 
   15403    15404    15399    15398    15399    15403    15400    15396 
   15398    15395    15395    15402    15402    15395    15395    15396 
   15396    15400    15400    15398    15396    15394    15398    15403 
   15403    15404    15404    15400    15400    15400    15399    15400 
   15400    15402    15404    15400    15396    15398    15399    15398 
   15398    15400    15398    15398    15403    15400    15395    15395 
   15398    15398    15396    15400    15403    15399    15399    15404 
   15407    15406    15402    15400    15404    15404    15399    15398 
   15399    15398    15398    15398    15398    15400    15400    15398 
   15398    15396    15396    15400    15396    15395    15403    15403 
   15395    15399    15404    15402    15399    15400    15400    15400 
   15403    15402    15400    15403    15402    15399    15399    15403 
   15406    15403    15399    15400    15399    15394    15395    15399 
   15398    15398    15396    15398    15399    15394    15396    15400 
   15396    15400    15403    15400    15402    15400    15399    15402 
   15403    15399    15398    15403    15403    15400    15402    15402 
   15396    15395    15396    15398    15400    15402    15399    15392 
   15392    15398    15402    15402    15400    15404    15404    15398 
   15403    15408    15404    15402    15400    15400    15400    15398 
   15400    15404    15400    15394    15394    15395    15398    15396 
   15396    15398    15398    15396    15399    15400    15398    15402 
   15406    15404    15400    15400    15404    15403    15406    15406 
   15399    15402    15403    15396    15396    15399    15399    15399 
   15399    15399    15398    15395    15400    15402    15396    15396 
   15398    15400    15402    15399    15400    15402    15400    15404 
   15404    15399    15400    15402    15399    15402    15403    15398 
   15399    15403    15402    15398    15398    15396    15395    15400 
   15402    15398    15398    15398    15396    15402    15402    15396 
   15399    15403    15403    15402    15398    15398    15403    15400 
   15398    15403    15404    15398    15396    15400    15400    15398 
   15398    15398    15396    15396    15399    15399    15399    15399 
   15399    15402    15402    15396    15396    15400    15402    15399 
   15398    15399    15399    15395    15396    15400    15402    15402 
   15400    15398    15400    15402    15402    15400    15403    15403 
   15399    15399    15402    15403    15402    15400    15398    15396 
   15400    15400    15398    15400    15400    15398    15398    15398 
   15400    15402    15399    15400    15402    15399    15400    15403 
   15402    15403    15402    15396    15399    15404    15399    15399 
   15403    15399    15400    15402    15398    15395    15398    15399 
   15399    15398    15398    15398    15398    15399    15402    15399 
   15396    15403    15407    15403    15402    15402    15400    15398 
   15400    15402    15400    15402    15400    15396    15396    15398 
   15400    15402    15400    15396    15395    15398    15400    15398 
   15396    15404    15404    15402    15400    15395    15394    15398 
   15403    15402    15395    15396    15403    15403    15400    15399 
   15402    15402    15400    15404    15406    15400    15404    15410 
   15404    15402    15404    15400    15402    15403    15399    15399 
   15402    15403    15398    15392    15395    15396    15396    15398 
   15396    15396    15400    15399    15395    15400    15406    15403 
   15403    15403    15399    15400    15404    15406    15403    15402 
   15402    15400    15402    15399    15395    15398    15402    15402 
   15395    15392    15398    15398    15395    15398    15400    15403 
   15400    15399    15403    15402    15402    15406    15404    15400 
   15403    15404    15400    15400    15400    15400    15402    15399 
   15399    15402    15400    15395    15396    15400    15400    15398 
   15400    15402    15395    15395    15404    15403    15400    15404 
   15400    15396    15402    15403    15403    15406    15403    15399 
   15402    15404    15402    15400    15399    15398    15400    15400 
   15399    15400    15400    15400    15407    15404    15396    15399 
   15402    15398    15399    15400    15399    15399    15399    15398 
   15398    15398    15400    15403    15399    15398    15402    15402 
   15399    15400    15404    15402    15399    15403    15402    15398 
   15399    15400    15399    15400    15399    15394    15396    15400 
   15398    15398    15402    15399    15398    15398    15394    15399 
   15403    15399    15399    15404    15403    15396    15399    15406 
   15403    15399    15402    15402    15399    15400    15402    15399 
   15400    15402    15400    15398    15395    15396    15398    15398 
   15399    15399    15402    15399    15395    15396    15398    15399 
   15399    15399    15400    15403    15398    15396    15400    15402 
   15402    15406    15403    15398    15398    15400    15399    15396 
   15402    15404    15402    15400    15399    15396    15400    15403 
   15400    15400    15398    15395    15399    15400    15399    15399 
   15396    15399    15404    15403    15402    15402    15396    15395 
   15403    15404    15396    15399    15404    15402    15399    15403 
   15403    15398    15399    15400    15399    15399    15399    15404 
   15403    15396    15399    15400    15395    15396    15400    15399 
   15402    15403    15399    15400    15403    15400    15400    15404 
   15404    15400    15402    15404    15400    15400    15402    15399 
   15402    15402    15395    15398    15402    15399    15395    15396 
   15400    15399    15395    15398    15400    15399    15402    15404 
   15399    15396    15403    15406    15399    15396    15399    15399 
   15399    15403    15400    15396    15400    15398    15395    15396 
   15399    15400    15396    15395    15400    15402    15399    15400 
   15400    15398    15396    15403    15403    15395    15399    15403 
   15399    15399    15399    15398    15398    15396    15395    15399 
   15402    15399    15402    15403    15399    15395    15398    15399 
   15402    15404    15400    15398    15402    15400    15396    15402 
   15403    15399    15400    15399    15398    15400    15400    15396 
   15398    15399    15398    15402    15403    15400    15402    15402 
   15400    15399    15398    15398    15399    15399    15402    15404 
   15399    15394    15399    15404    15400    15396    15398    15399 
   15396    15394    15396    15398    15399    15403    15404    15402 
   15402    15403    15403    15399    15399    15404    15404    15404 
   15406    15402    15398    15398    15400    15400    15399    15396 
   15395    15394    15394    15399    15400    15398    15399    15402 
   15400    15400    15402    15399    15398    15400    15400    15399 
   15400    15403    15403    15402    15399    15398    15400    15400 
   15399    15399    15399    15400    15398    15399    15400    15398 
   15400    15403    15399    15399    15404    15406    15399    15396 
   15402    15398    15392    15398    15399    15398    15404    15404 
   15395    15392    15396    15398    15400    15402    15402    15402 
   15402    15403    15402    15400    15404    15406    15406    15408 
   15402    15398    15402    15403    15400    15399    15396    15396 
   15399    15399    15399    15395    15391    15395    15400    15399 
   15396    15399    15398    15399    15403    15402    15399    15403 
   15406    15400    15399    15408    15411    15402    15391    15377 
   15348    15300    15252    15217    15203    15229    15296    15391 
   15492    15588    15666    15705    15693    15630    15507    15337 
   15160    15034    14999    15044    15133    15244    15375    15525 
   15681    15834    15970    16065    16093    16031    15867    15596 
   15241    14879    14627    14582    14766    15076    15375    15587 
   15662    15592    15430    15253    15156    15196    15323    15475 
   15651    15809    15830    15615    15221    14824    14551    14400 
   14346    14488    14953    15704    16510    17088    17271    17042 
   16426    15495    14470    13721    13556    14000    14766    15500 
   16055    16422    16532    16308    15839    15360    15053    14949 
   14990    15101    15234    15399    15614    15832    15957    15892 
   15645    15357    15190    15172    15214    15252    15313    15419 
   15500    15453    15300    15221    15338    15519    15515    15259 
   14935    14767    14854    15187    15668    16105    16321    16245 
   15919    15469    15093    14917    14866    14764    14588    14496 
   14636    14982    15388    15720    15915    16004    16075    16131 
   16071    15865    15574    15242    14854    14490    14381    14693 
   15298    15853    16132    16179    16144    16089    15907    15475 
   14913    14512    14416    14577    14906    15327    15732    16004 
   16098    16078    16019    15921    15763    15560    15313    14998 
   14690    14569    14752    15121    15368    15287    15007    14885 
   15169    15789    16391    16644    16491    16106    15677    15287 
   14952    14673    14476    14413    14528    14845    15334    15889 
   16318    16433    16205    15773    15307    14971    14874    14979 
   15125    15179    15191    15325    15631    15948    16028    15789 
   15434    15256    15368    15626    15784    15691    15358    14972 
   14756    14817    15105    15439    15603    15504    15290    15198 
   15334    15593    15778    15750    15514    15215    15025    15052 
   15264    15488    15556    15469    15356    15252    15103    14952 
   14943    15140    15423    15579    15547    15512    15638    15851 
   15989    15982    15874    15739    15595    15410    15186    14980 
   14868    14909    15067    15213    15269    15267    15273    15356 
   15526    15731    15892    15921    15796    15566    15302    15090 
   15044    15179    15364    15454    15392    15240    15161    15276 
   15541    15797    15881    15746    15496    15283    15209    15303 
   15480    15561    15419    15136    14924    14881    14958    15086 
   15228    15364    15457    15491    15518    15589    15699    15784 
   15773    15657    15502    15385    15358    15406    15442    15369 
   15178    14975    14905    15029    15260    15471    15606    15682 
   15746    15807    15823    15776    15689    15545    15325    15080 
   14895    14814    14855    15016    15256    15507    15720    15873 
   15958    15973    15889    15695    15434    15184    15039    15007 
   14991    14926    14891    14999    15261    15566    15758    15770 
   15677    15546    15410    15341    15402    15556    15654    15579 
   15363    15163    15134    15306    15543    15681    15649    15483 
   15282    15093    14944    14929    15102    15369    15583    15672 
   15673    15639    15596    15565    15538    15492    15444    15414 
   15384    15304    15156    14997    14910    14933    15057    15241 
   15437    15631    15800    15893    15878    15738    15514    15322 
   15260    15317    15415    15480    15476    15402    15292    15183 
   15103    15084    15136    15221    15310    15419    15556    15660 
   15662    15579    15487    15419    15350    15284    15283    15394 
   15566    15672    15645    15556    15527    15591    15646    15564 
   15331    15082    14970    15026    15155    15300    15479    15631 
   15645    15487    15249    15059    14968    14968    15037    15167 
   15341    15531    15704    15828    15877    15838    15708    15510 
   15333    15269    15331    15444    15493    15453    15371    15311 
   15321    15403    15506    15556    15512    15429    15403    15454 
   15484    15376    15122    14858    14739    14816    15047    15360 
   15665    15869    15907    15811    15703    15672    15682    15615 
   15398    15113    14937    14974    15179    15418    15568    15570 
   15461    15338    15272    15284    15344    15377    15364    15344 
   15367    15442    15543    15635    15673    15612    15471    15327 
   15230    15192    15207    15250    15306    15368    15417    15427 
   15402    15383    15411    15488    15593    15670    15645    15507 
   15315    15163    15121    15187    15310    15437    15542    15612 
   15619    15552    15454    15392    15357    15300    15202    15091 
   15034    15076    15209    15399    15587    15704    15734    15707 
   15661    15616    15570    15507    15406    15276    15160    15097 
   15103    15178    15298    15421    15489    15468    15381    15319 
   15329    15365    15348    15260    15182    15192    15295    15438 
   15565    15643    15674    15677    15661    15628    15574    15473 
   15337    15226    15165    15136    15141    15195    15303    15449 
   15569    15624    15646    15653    15635    15573    15453    15313 
   15229    15234    15309    15408    15475    15492    15495    15507 
   15508    15476    15406    15313    15214    15137    15125    15201 
   15342    15495    15593    15593    15499    15372    15288    15263 
   15259    15257    15268    15310    15383    15466    15539    15587 
   15604    15583    15512    15414    15325    15240    15176    15184 
   15263    15365    15445    15464    15422    15373    15364    15363 
   15333    15303    15329    15423    15526    15561    15516    15434 
   15354    15303    15294    15340    15433    15526    15583    15588 
   15545    15472    15425    15425    15448    15464    15460    15430 
   15400    15400    15425    15446    15444    15408    15361    15323 
   15295    15280    15265    15230    15187    15148    15128    15157 
   15226    15313    15426    15573    15718    15800    15784    15678 
   15543    15445    15403    15391    15383    15365    15350    15345 
   15348    15371    15422    15475    15498    15472    15400    15344 
