Origin Time       2024/04/02 04:24:00
Lat.              40.133
Long.             141.712
Depth. (km)       71
Mag.              6.0
Station Code      AKT005
Station Lat.      40.2020
Station Long.     140.0286
Station Height(m) 17
Record Time       2024/04/02 04:25:03
Sampling Freq(Hz) 100Hz
Duration Time(s)  90
Dir.              N-S
Scale Factor      7845(gal)/8223790
Max. Acc. (gal)   4.390
Last Correction   2024/04/02 04:25:03
Memo.             
[...]
   -6461    -5945    -5474    -5163    -5101    -5327    -5783    -6316 
   -6783    -7121    -7372    -7622    -7912    -8187    -8330    -8306 
   -8198    -8136    -8190    -8305    -8357    -8249    -8002    -7766 
   -7639    -7631    -7704    -7789    -7843    -7879    -7979    -8212 
   -8556    -8903    -9111    -9066    -8712    -8140    -7568    -7168 
   -6986    -6970    -7025    -7099    -7168    -7210    -7223    -7188 
   -7069    -6880    -6682    -6544    -6508    -6581    -6764    -7068 
   -7460    -7870    -8220    -8382    -8253    -7885    -7443    -7078 
   -6822    -6664    -6590    -6578    -6629    -6729    -6848    -6983 
   -7126    -7288    -7489    -7684    -7805    -7819    -7724    -7582 
   -7503    -7574    -7832    -8216    -8642    -9069    -9424    -9614 
   -9580    -9296    -8804    -8181    -7514    -6961    -6619    -6454 
   -6426    -6482    -6569    -6650    -6725    -6809    -6874    -6893 
   -6862    -6835    -6913    -7182    -7680    -8324    -8918    -9344 
   -9593    -9682    -9641    -9454    -9104    -8642    -8132    -7609 
   -7076    -6590    -6274    -6181    -6299    -6594    -6997    -7393 
   -7681    -7816    -7811    -7703    -7534    -7398    -7398    -7554 
   -7790    -7974    -7998    -7878    -7711    -7558    -7454    -7430 
   -7462    -7476    -7391    -7172    -6880    -6610    -6419    -6365 
   -6515    -6876    -7362    -7825    -8156    -8301    -8205    -7840 
   -7295    -6745    -6328    -6085    -6002    -6062    -6288    -6677 
   -7156    -7603    -7920    -8064    -8044    -7947    -7911    -8020 
   -8240    -8507    -8788    -9032    -9161    -9134    -8927    -8584 
   -8208    -7865    -7605    -7508    -7566    -7713    -7878    -7932 
   -7751    -7327    -6744    -6147    -5701    -5526    -5661    -6066 
   -6647    -7261    -7774    -8108    -8239    -8185    -7978    -7692 
   -7430    -7285    -7299    -7429    -7568    -7616    -7518    -7302 
   -7038    -6794    -6620    -6563    -6662    -6924    -7296    -7693 
   -8009    -8151    -8091    -7873    -7609    -7430    -7388    -7491 
   -7715    -8000    -8257    -8405    -8413    -8353    -8266    -8124 
   -7942    -7774    -7661    -7638    -7732    -7889    -8001    -7996 
   -7900    -7793    -7735    -7750    -7820    -7955    -8168    -8379 
   -8488    -8453    -8284    -8013    -7653    -7244    -6886    -6648 
   -6508    -6453    -6497    -6616    -6745    -6809    -6747    -6567 
   -6403    -6393    -6538    -6771    -7057    -7341    -7587    -7808 
   -8005    -8147    -8201    -8172    -8112    -8047    -7979    -7871 
   -7659    -7366    -7083    -6871    -6790    -6898    -7173    -7491 
   -7681    -7641    -7393    -7059    -6790    -6716    -6856    -7155 
   -7551    -8017    -8532    -9034    -9390    -9463    -9204    -8699 
   -8137    -7711    -7524    -7561    -7697    -7812    -7842    -7784 
   -7669    -7519    -7372    -7330    -7434    -7607    -7773    -7919 
   -8035    -8091    -8041    -7828    -7458    -7034    -6681    -6493 
   -6516    -6702    -6929    -7106    -7206    -7254    -7306    -7391 
   -7487    -7566    -7630    -7673    -7701    -7727    -7771    -7847 
   -7932    -7993    -8017    -7992    -7877    -7663    -7387    -7067 
   -6721    -6421    -6281    -6347    -6552    -6785    -6994    -7200 
   -7410    -7609    -7794    -7932    -7970    -7924    -7869    -7824 
   -7788    -7781    -7792    -7785    -7766    -7766    -7792    -7805 
   -7757    -7639    -7469    -7279    -7144    -7134    -7231    -7337 
   -7339    -7210    -7011    -6829    -6755    -6866    -7133    -7453 
   -7712    -7839    -7839    -7754    -7599    -7372    -7146    -7009 
   -6975    -7038    -7219    -7519    -7881    -8218    -8428    -8453 
   -8341    -8209    -8155    -8213    -8347    -8506    -8684    -8862 
   -8966    -8962    -8864    -8680    -8472    -8289    -8110    -7925 
   -7742    -7562    -7385    -7195    -6993    -6790    -6559    -6319 
   -6177    -6231    -6496    -6930    -7479    -8052    -8532    -8807 
   -8877    -8814    -8646    -8353    -7940    -7457    -6939    -6412 
   -5922    -5526    -5293    -5260    -5370    -5518    -5660    -5829 
   -6068    -6367    -6689    -7032    -7399    -7767    -8143    -8549 
   -8949    -9275    -9482    -9547    -9506    -9383    -9150    -8776 
   -8280    -7723    -7191    -6781    -6544    -6475    -6540    -6714 
   -6971    -7244    -7468    -7649    -7808    -7950    -8112    -8317 
   -8526    -8658    -8677    -8586    -8379    -8095    -7832    -7689 
   -7697    -7808    -7929    -7963    -7858    -7623    -7325    -7024 
   -6752    -6559    -6498    -6569    -6725    -6937    -7164    -7350 
   -7503    -7668    -7834    -7938    -7920    -7780    -7578    -7377 
   -7204    -7098    -7137    -7323    -7514    -7569    -7473    -7283 
   -7048    -6848    -6778    -6868    -7096    -7422    -7801    -8190 
   -8513    -8679    -8626    -8355    -7965    -7591    -7334    -7210 
   -7148    -7117    -7169    -7326    -7515    -7645    -7689    -7665 
   -7576    -7460    -7375    -7333    -7333    -7362    -7410    -7522 
   -7703    -7869    -7981    -8029    -7986    -7844    -7662    -7539 
   -7489    -7445    -7412    -7442    -7549    -7699    -7823    -7879 
   -7870    -7781    -7564    -7214    -6818    -6466    -6226    -6187 
   -6394    -6785    -7230    -7611    -7855    -7959    -7932    -7781 
   -7584    -7415    -7299    -7257    -7283    -7368    -7514    -7674 
   -7766    -7747    -7622    -7416    -7165    -6893    -6627    -6416 
   -6347    -6480    -6785    -7180    -7588    -7944    -8174    -8235 
   -8163    -8016    -7817    -7635    -7551    -7561    -7615    -7680 
   -7736    -7785    -7808    -7797    -7796    -7870    -8031    -8203 
   -8259    -8122    -7850    -7566    -7384    -7334    -7380    -7503 
   -7690    -7879    -8032    -8159    -8262    -8320    -8326    -8272 
   -8156    -8035    -7956    -7917    -7917    -7947    -7983    -8009 
   -7985    -7878    -7700    -7491    -7283    -7114    -7014    -6953 
   -6893    -6845    -6851    -6930    -7078    -7260    -7439    -7611 
   -7786    -8005    -8316    -8696    -9028    -9211    -9197    -8964 
   -8546    -8056    -7622    -7354    -7273    -7281    -7283    -7257 
   -7223    -7190    -7118    -7007    -6903    -6853    -6876    -6972 
   -7160    -7431    -7712    -7936    -8037    -8001    -7890    -7786 
   -7738    -7762    -7800    -7735    -7531    -7261    -6999    -6790 
   -6639    -6524    -6434    -6367    -6345    -6412    -6596    -6876 
   -7176    -7426    -7603    -7713    -7784    -7819    -7807    -7730 
   -7511    -7122    -6682    -6328    -6097    -5975    -5958    -6057 
   -6238    -6463    -6724    -7020    -7317    -7589    -7846    -8109 
   -8352    -8521    -8619    -8688    -8726    -8738    -8723    -8631 
   -8413    -8066    -7643    -7213    -6794    -6423    -6196    -6189 
   -6397    -6737    -7096    -7423    -7751    -8086    -8399    -8675 
   -8893    -8977    -8888    -8714    -8579    -8572    -8699    -8864 
   -8965    -8996    -8972    -8872    -8703    -8499    -8239    -7900 
   -7541    -7254    -7092    -7020    -6959    -6863    -6755    -6689 
   -6686    -6755    -6902    -7132    -7430    -7736    -7996    -8216 
   -8403    -8529    -8559    -8460    -8232    -7912    -7564    -7256 
   -7021    -6864    -6790    -6805    -6920    -7134    -7423    -7726 
   -7939    -7987    -7878    -7673    -7412    -7107    -6766    -6428 
   -6191    -6139    -6245    -6404    -6534    -6592    -6612    -6666 
   -6754    -6822    -6863    -6891    -6912    -6928    -6939    -6940 
   -6943    -6970    -7030    -7138    -7303    -7531    -7793    -8013 
   -8140    -8164    -8090    -7958    -7820    -7685    -7557    -7473 
   -7469    -7522    -7582    -7657    -7807    -8054    -8349    -8630 
   -8847    -8966    -8950    -8815    -8673    -8641    -8719    -8849 
   -8973    -9020    -8950    -8787    -8573    -8345    -8106    -7863 
   -7661    -7551    -7542    -7595    -7666    -7751    -7862    -7966 
   -8055    -8164    -8287    -8363    -8375    -8334    -8214    -8009 
   -7739    -7427    -7110    -6822    -6601    -6461    -6349    -6230 
   -6112    -5968    -5778    -5560    -5356    -5205    -5157    -5255 
   -5464    -5725    -6045    -6421    -6804    -7153    -7434    -7604 
   -7611    -7458    -7269    -7169    -7133    -7044    -6859    -6643 
   -6471    -6404    -6448    -6570    -6733    -6902    -7048    -7165 
   -7284    -7441    -7647    -7908    -8216    -8503    -8681    -8711 
   -8623    -8465    -8295    -8176    -8136    -8133    -8133    -8182 
   -8348    -8604    -8896    -9202    -9459    -9605    -9661    -9679 
   -9710    -9772    -9803    -9722    -9506    -9209    -8899    -8599 
   -8309    -8017    -7742    -7512    -7346    -7267    -7285    -7361 
   -7442    -7499    -7550    -7646    -7751    -7754    -7616    -7411 
   -7210    -7010    -6785    -6542    -6336    -6251    -6332    -6554 
   -6836    -7105    -7323    -7489    -7615    -7703    -7734    -7697 
   -7601    -7453    -7242    -6970    -6633    -6218    -5730    -5236 
   -4835    -4619    -4600    -4696    -4845    -5055    -5341    -5680 
   -6070    -6504    -6897    -7194    -7460    -7762    -8093    -8365 
   -8472    -8375    -8118    -7788    -7438    -7094    -6799    -6585 
   -6461    -6480    -6702    -7106    -7626    -8230    -8866    -9425 
   -9810    -9980    -9957    -9788    -9516    -9193    -8842    -8467 
   -8093    -7750    -7449    -7211    -7063    -7072    -7277    -7603 
   -7913    -8135    -8275    -8372    -8437    -8436    -8347    -8203 
   -8074    -7994    -7933    -7852    -7766    -7699    -7647    -7584 
   -7472    -7284    -7025    -6744    -6527    -6443    -6524    -6706 
   -6866    -6959    -7038    -7159    -7327    -7503    -7646    -7750 
   -7807    -7821    -7827    -7854    -7900    -7928    -7942    -7952 
   -7947    -7917    -7862    -7757    -7568    -7298    -7025    -6835 
   -6725    -6643    -6574    -6529    -6534    -6590    -6640    -6621 
   -6543    -6465    -6419    -6390    -6382    -6438    -6570    -6777 
   -7024    -7217    -7307    -7342    -7356    -7350    -7318    -7260 
   -7180    -7092    -7007    -6943    -6944    -7053    -7246    -7468 
   -7672    -7869    -8124    -8479    -8935    -9431    -9869   -10208 
  -10411   -10409   -10170    -9730    -9170    -8564    -7963    -7379 
   -6808    -6313    -5972    -5791    -5741    -5814    -6029    -6378 
   -6805    -7241    -7626    -7943    -8218    -8448    -8619    -8762 
   -8888    -8986    -9077    -9117    -9024    -8791    -8442    -8037 
   -7681    -7439    -7318    -7285    -7287    -7315    -7410    -7561 
   -7716    -7840    -7921    -7989    -8091    -8263    -8538    -8896 
   -9239    -9479    -9580    -9532    -9327    -8972    -8502    -7950 
   -7353    -6766    -6230    -5782    -5460    -5265    -5171    -5185 
   -5341    -5657    -6108    -6646    -7213    -7735    -8151    -8410 
   -8509    -8498    -8422    -8279    -8060    -7812    -7609    -7470 
   -7357    -7237    -7129    -7048    -6993    -6951    -6907    -6895 
   -6939    -7009    -7087    -7161    -7200    -7215    -7257    -7369 
   -7588    -7881    -8140    -8276    -8263    -8108    -7843    -7508 
   -7145    -6812    -6612    -6633    -6855    -7187    -7574    -7981 
   -8347    -8621    -8800    -8922    -8995    -9020    -9028    -9045 
   -9081    -9132    -9143    -9054    -8829    -8414    -7790    -6997 
   -6137    -5346    -4719    -4271    -4014    -3986    -4166    -4473 
   -4882    -5405    -6018    -6673    -7294    -7821    -8232    -8511 
   -8633    -8580    -8374    -8071    -7742    -7450    -7199    -6932 
   -6640    -6396    -6255    -6235    -6311    -6459    -6696    -7009 
   -7319    -7566    -7720    -7794    -7878    -8063    -8382    -8797 
   -9220    -9585    -9869   -10069   -10183   -10183   -10062    -9876 
   -9667    -9440    -9193    -8943    -8729    -8557    -8397    -8249 
   -8155    -8128    -8147    -8205    -8345    -8567    -8802    -9026 
   -9286    -9628   -10041   -10453   -10778   -10953   -10943   -10752 
  -10432   -10015    -9478    -8812    -8016    -7106    -6207    -5462 
   -4958    -4745    -4788    -4970    -5196    -5435    -5701    -5995 
   -6273    -6480    -6612    -6705    -6797    -6905    -7030    -7159 
   -7246    -7231    -7057    -6720    -6276    -5818    -5421    -5123 
   -4934    -4855    -4842    -4830    -4793    -4761    -4769    -4831 
   -4934    -5074    -5256    -5485    -5773    -6149    -6600    -7038 
   -7322    -7379    -7211    -6872    -6448    -6018    -5641    -5391 
   -5327    -5471    -5830    -6390    -7086    -7789    -8380    -8789 
   -9007    -9086    -9104    -9123    -9181    -9301    -9479    -9680 
   -9864   -10000   -10054    -9988    -9815    -9595    -9342    -9062 
   -8814    -8654    -8626    -8772    -9103    -9585   -10154   -10713 
  -11129   -11291   -11169   -10812   -10296    -9725    -9207    -8806 
   -8548    -8440    -8456    -8563    -8703    -8787    -8741    -8521 
   -8127    -7604    -7013    -6448    -5999    -5667    -5443    -5337 
   -5355    -5493    -5737    -6050    -6388    -6693    -6882    -6920 
   -6847    -6740    -6671    -6674    -6754    -6901    -7084    -7210 
   -7184    -6963    -6513    -5861    -5098    -4311    -3623    -3150 
   -2944    -3069    -3589    -4456    -5556    -6748    -7900    -8928 
   -9784   -10438   -10890   -11156   -11259   -11213   -11036   -10731 
  -10253    -9590    -8795    -7917    -7041    -6328    -5890    -5752 
   -5890    -6242    -6717    -7213    -7665    -8070    -8395    -8572 
   -8586    -8492    -8330    -8091    -7786    -7465    -7157    -6867 
   -6597    -6343    -6099    -5854    -5633    -5497    -5462    -5493 
   -5579    -5718    -5898    -6111    -6340    -6577    -6836    -7122 
   -7433    -7736    -7993    -8181    -8275    -8247    -8110    -7886 
   -7574    -7182    -6766    -6428    -6254    -6270    -6415    -6578 
   -6673    -6667    -6550    -6349    -6162    -6092    -6168    -6324 
   -6496    -6697    -6974    -7360    -7855    -8363    -8746    -8946 
   -8973    -8881    -8730    -8587    -8506    -8464    -8411    -8324 
   -8175    -7939    -7612    -7214    -6801    -6465    -6307    -6372 
   -6619    -6995    -7447    -7935    -8401    -8760    -8939    -8900 
   -8623    -8149    -7581    -7040    -6616    -6367    -6324    -6478 
   -6786    -7179    -7574    -7866    -7956    -7844    -7658    -7533 
   -7527    -7649    -7851    -8059    -8253    -8479    -8779    -9174 
   -9621   -10014   -10260   -10288   -10087    -9732    -9304    -8860 
   -8457    -8145    -7909    -7695    -7462    -7171    -6795    -6382 
   -6014    -5775    -5705    -5775    -5960    -6273    -6702    -7210 
   -7758    -8276    -8669    -8877    -8897    -8772    -8577    -8378 
   -8181    -7983    -7774    -7561    -7407    -7368    -7431    -7568 
   -7746    -7917    -8020    -7994    -7851    -7668    -7516    -7447 
   -7495    -7626    -7766    -7874    -7942    -7955    -7892    -7723 
   -7453    -7152    -6902    -6739    -6687    -6758    -6920    -7199 
   -7641    -8221    -8860    -9433    -9828    -9984    -9877    -9537 
   -9026    -8414    -7844    -7452    -7213    -7009    -6760    -6455 
   -6135    -5886    -5779    -5868    -6195    -6733    -7369    -7958 
   -8386    -8590    -8518    -8156    -7618    -7068    -6594    -6222 
   -5954    -5786    -5722    -5791    -5962    -6161    -6315    -6385 
   -6382    -6403    -6540    -6806    -7169    -7593    -8027    -8422 
   -8748    -8968    -9050    -8981    -8802    -8579    -8351    -8145 
   -8019    -8008    -8093    -8181    -8171    -8024    -7743    -7371 
   -7005    -6785    -6816    -7087    -7495    -7917    -8264    -8510 
   -8656    -8716    -8700    -8599    -8424    -8187    -7889    -7569 
   -7314    -7202    -7264    -7484    -7812    -8185    -8536    -8781 
   -8837    -8669    -8347    -8027    -7852    -7848    -7948    -8070 
   -8132    -8101    -7969    -7724    -7389    -7052    -6799    -6633 
   -6489    -6312    -6124    -5981    -5929    -6011    -6266    -6674 
   -7150    -7596    -7935    -8167    -8344    -8482    -8532    -8444 
   -8240    -8012    -7838    -7755    -7830    -8095    -8478    -8819 
   -8977    -8912    -8673    -8303    -7847    -7402    -7056    -6812 
   -6616    -6426    -6224    -6014    -5798    -5616    -5555    -5675 
   -5965    -6370    -6851    -7388    -7906    -8309    -8505    -8456 
   -8226    -7888    -7464    -6980    -6475    -6015    -5660    -5448 
   -5444    -5661    -5988    -6241    -6286    -6123    -5875    -5694 
   -5678    -5876    -6272    -6758    -7237    -7670    -8031    -8283 
   -8403    -8395    -8316    -8224    -8137    -8070    -8020    -7969 
   -7916    -7875    -7884    -7978    -8159    -8406    -8703    -8980 
   -9146    -9171    -9108    -9057    -9113    -9273    -9441    -9518 
   -9470    -9339    -9189    -9084    -9077    -9185    -9387    -9640 
   -9871   -10029   -10075    -9969    -9660    -9121    -8403    -7622 
   -6856    -6143    -5512    -4996    -4618    -4378    -4280    -4367 
   -4689    -5285    -6133    -7129    -8135    -9047    -9809   -10376 
  -10732   -10906   -10921   -10798   -10582   -10293    -9896    -9381 
   -8753    -8033    -7308    -6644    -6060    -5593    -5278    -5136 
   -5167    -5358    -5706    -6184    -6732    -7298    -7842    -8336 
   -8765    -9138    -9445    -9597    -9517    -9223    -8761    -8197 
   -7609    -7063    -6601    -6228    -5957    -5815    -5738    -5643 
   -5489    -5262    -5005    -4784    -4629    -4584    -4668    -4857 
   -5115    -5397    -5680    -5965    -6216    -6369    -6408    -6370 
   -6268    -6084    -5846    -5643    -5566    -5668    -5938    -6303 
   -6646    -6909    -7094    -7195    -7199    -7105    -6943    -6821 
   -6836    -6983    -7194    -7388    -7550    -7713    -7852    -7920 
   -7913    -7825    -7699    -7588    -7488    -7416    -7435    -7557 
   -7763    -8050    -8384    -8694    -8843    -8749    -8492    -8202 
   -7924    -7705    -7626    -7692    -7840    -8002    -8160    -8330 
   -8507    -8654    -8708    -8613    -8356    -7981    -7601    -7353 
   -7311    -7466    -7713    -7906    -7973    -7896    -7666    -7338 
   -6980    -6620    -6297    -6050    -5908    -5900    -6019    -6254 
   -6577    -6895    -7107    -7160    -7059    -6860    -6670    -6593 
   -6679    -6899    -7195    -7492    -7709    -7793    -7746    -7636 
   -7553    -7566    -7692    -7897    -8143    -8405    -8662    -8870 
   -8970    -9000    -9080    -9285    -9602    -9946   -10233   -10426 
  -10505   -10461   -10309   -10030    -9585    -9043    -8526    -8105 
   -7771    -7495    -7291    -7179    -7111    -7060    -7051    -7079 
   -7083    -7013    -6886    -6751    -6659    -6691    -6906    -7258 
   -7649    -7969    -8144    -8183    -8139    -8067    -7978    -7840 
   -7673    -7554    -7533    -7604    -7707    -7736    -7669    -7555 
   -7400    -7175    -6905    -6660    -6509    -6477    -6536    -6639 
   -6685    -6613    -6488    -6369    -6272    -6238    -6273    -6350 
