Origin Time       2024/04/02 04:24:00
Lat.              40.133
Long.             141.712
Depth. (km)       71
Mag.              6.0
Station Code      AKT005
Station Lat.      40.2020
Station Long.     140.0286
Station Height(m) 17
Record Time       2024/04/02 04:25:03
Sampling Freq(Hz) 100Hz
Duration Time(s)  90
Dir.              U-D
Scale Factor      7845(gal)/8223790
Max. Acc. (gal)   2.111
Last Correction   2024/04/02 04:25:03
Memo.             
[...]
  -36239   -36238   -36229   -36236   -36243   -36242   -36240   -36236 
  -36231   -36232   -36239   -36244   -36243   -36244   -36246   -36238 
  -36235   -36227   -36215   -36227   -36243   -36242   -36243   -36242 
  -36231   -36232   -36238   -36229   -36219   -36227   -36239   -36246 
  -36247   -36242   -36232   -36235   -36240   -36240   -36238   -36234 
  -36228   -36228   -36240   -36246   -36236   -36231   -36231   -36229 
  -36235   -36242   -36243   -36243   -36240   -36238   -36240   -36243 
  -36242   -36239   -36240   -36242   -36236   -36228   -36234   -36242 
  -36235   -36228   -36234   -36242   -36242   -36240   -36240   -36238 
  -36238   -36240   -36248   -36252   -36243   -36240   -36244   -36240 
  -36236   -36239   -36242   -36240   -36231   -36232   -36246   -36242 
  -36234   -36242   -36246   -36229   -36232   -36248   -36242   -36234 
  -36238   -36232   -36231   -36238   -36234   -36234   -36236   -36228 
  -36229   -36246   -36243   -36229   -36234   -36238   -36228   -36225 
  -36228   -36228   -36234   -36243   -36240   -36238   -36239   -36235 
  -36235   -36236   -36238   -36239   -36235   -36238   -36247   -36250 
  -36244   -36232   -36231   -36244   -36254   -36251   -36243   -36243 
  -36252   -36248   -36244   -36255   -36256   -36250   -36244   -36242 
  -36248   -36247   -36239   -36248   -36251   -36236   -36238   -36248 
  -36246   -36242   -36247   -36247   -36239   -36238   -36240   -36243 
  -36247   -36251   -36251   -36240   -36234   -36239   -36239   -36234 
  -36232   -36229   -36234   -36244   -36244   -36239   -36239   -36242 
  -36246   -36242   -36236   -36244   -36248   -36236   -36234   -36248 
  -36254   -36248   -36240   -36235   -36234   -36238   -36242   -36244 
  -36242   -36238   -36236   -36235   -36235   -36239   -36243   -36243 
  -36239   -36239   -36246   -36242   -36235   -36238   -36240   -36236 
  -36234   -36234   -36236   -36236   -36234   -36232   -36238   -36239 
  -36235   -36236   -36235   -36228   -36232   -36232   -36227   -36236 
  -36243   -36238   -36240   -36243   -36239   -36231   -36227   -36235 
  -36240   -36235   -36232   -36234   -36235   -36234   -36229   -36231 
  -36235   -36225   -36223   -36239   -36243   -36235   -36236   -36239 
  -36240   -36240   -36234   -36231   -36236   -36240   -36238   -36235 
  -36231   -36227   -36231   -36234   -36234   -36236   -36236   -36235 
  -36231   -36224   -36223   -36223   -36228   -36239   -36239   -36229 
  -36227   -36231   -36231   -36228   -36229   -36228   -36224   -36232 
  -36242   -36238   -36232   -36234   -36231   -36229   -36236   -36239 
  -36236   -36238   -36244   -36242   -36234   -36236   -36244   -36239 
  -36229   -36227   -36229   -36235   -36240   -36234   -36229   -36235 
  -36232   -36227   -36234   -36236   -36232   -36231   -36229   -36231 
  -36231   -36235   -36240   -36232   -36227   -36235   -36240   -36242 
  -36246   -36238   -36232   -36240   -36247   -36250   -36251   -36247 
  -36239   -36235   -36242   -36246   -36238   -36238   -36248   -36250 
  -36243   -36242   -36248   -36250   -36240   -36239   -36251   -36256 
  -36244   -36238   -36244   -36242   -36235   -36238   -36243   -36244 
  -36243   -36239   -36242   -36251   -36246   -36232   -36238   -36247 
  -36248   -36251   -36254   -36248   -36240   -36242   -36243   -36242 
  -36246   -36243   -36239   -36244   -36247   -36247   -36247   -36243 
  -36238   -36239   -36243   -36243   -36242   -36244   -36252   -36256 
  -36250   -36236   -36238   -36243   -36239   -36236   -36238   -36236 
  -36236   -36235   -36234   -36239   -36243   -36235   -36229   -36236 
  -36236   -36229   -36238   -36248   -36246   -36242   -36232   -36229 
  -36240   -36243   -36234   -36231   -36236   -36236   -36238   -36240 
  -36235   -36234   -36240   -36242   -36235   -36232   -36235   -36235 
  -36236   -36235   -36236   -36243   -36239   -36229   -36239   -36250 
  -36247   -36238   -36234   -36240   -36248   -36246   -36238   -36238 
  -36246   -36244   -36235   -36236   -36247   -36246   -36235   -36232 
  -36243   -36247   -36234   -36225   -36236   -36247   -36244   -36242 
  -36244   -36238   -36236   -36243   -36240   -36231   -36232   -36236 
  -36231   -36232   -36238   -36240   -36242   -36239   -36235   -36236 
  -36235   -36232   -36229   -36229   -36238   -36238   -36228   -36228 
  -36236   -36239   -36238   -36235   -36232   -36232   -36234   -36236 
  -36242   -36240   -36236   -36234   -36231   -36231   -36228   -36232 
  -36238   -36232   -36225   -36229   -36238   -36231   -36224   -36239 
  -36248   -36238   -36228   -36228   -36231   -36232   -36229   -36229 
  -36239   -36238   -36231   -36229   -36221   -36224   -36234   -36236 
  -36240   -36243   -36242   -36242   -36240   -36242   -36243   -36239 
  -36232   -36234   -36242   -36242   -36236   -36240   -36243   -36239 
  -36238   -36236   -36238   -36242   -36243   -36246   -36244   -36239 
  -36242   -36250   -36247   -36236   -36229   -36229   -36236   -36239 
  -36235   -36236   -36238   -36234   -36239   -36240   -36232   -36240 
  -36250   -36246   -36247   -36246   -36239   -36246   -36250   -36242 
  -36244   -36250   -36243   -36239   -36240   -36243   -36250   -36254 
  -36247   -36244   -36248   -36247   -36247   -36247   -36246   -36252 
  -36254   -36242   -36238   -36240   -36239   -36238   -36240   -36239 
  -36232   -36224   -36229   -36239   -36242   -36239   -36236   -36236 
  -36239   -36238   -36235   -36238   -36239   -36234   -36227   -36225 
  -36235   -36243   -36240   -36229   -36231   -36235   -36234   -36231 
  -36236   -36242   -36235   -36229   -36231   -36229   -36232   -36239 
  -36238   -36236   -36234   -36231   -36234   -36236   -36238   -36238 
  -36229   -36228   -36232   -36235   -36232   -36231   -36232   -36238 
  -36240   -36229   -36220   -36229   -36239   -36234   -36227   -36231 
  -36240   -36243   -36238   -36239   -36243   -36238   -36236   -36243 
  -36243   -36235   -36229   -36232   -36243   -36243   -36231   -36227 
  -36234   -36234   -36228   -36229   -36235   -36239   -36235   -36238 
  -36239   -36236   -36235   -36236   -36236   -36231   -36225   -36236 
  -36246   -36242   -36238   -36232   -36229   -36235   -36244   -36247 
  -36243   -36243   -36248   -36248   -36247   -36248   -36247   -36247 
  -36246   -36244   -36246   -36240   -36238   -36242   -36243   -36242 
  -36239   -36236   -36231   -36229   -36232   -36232   -36232   -36240 
  -36244   -36235   -36225   -36235   -36243   -36235   -36229   -36235 
  -36235   -36232   -36246   -36250   -36236   -36232   -36234   -36238 
  -36246   -36248   -36250   -36247   -36235   -36238   -36248   -36243 
  -36242   -36243   -36235   -36236   -36251   -36255   -36243   -36238 
  -36239   -36238   -36234   -36240   -36248   -36244   -36234   -36234 
  -36240   -36240   -36238   -36234   -36228   -36231   -36238   -36235 
  -36231   -36231   -36231   -36229   -36232   -36235   -36235   -36239 
  -36242   -36235   -36229   -36234   -36236   -36232   -36235   -36239 
  -36238   -36238   -36240   -36240   -36238   -36234   -36231   -36234 
  -36242   -36240   -36229   -36231   -36240   -36236   -36234   -36240 
  -36236   -36229   -36238   -36243   -36238   -36235   -36238   -36236 
  -36236   -36242   -36243   -36240   -36240   -36243   -36246   -36246 
  -36244   -36246   -36248   -36246   -36247   -36251   -36250   -36243 
  -36242   -36244   -36246   -36244   -36240   -36240   -36250   -36255 
  -36246   -36242   -36242   -36236   -36234   -36227   -36225   -36242 
  -36248   -36238   -36234   -36232   -36227   -36234   -36243   -36240 
  -36240   -36243   -36240   -36238   -36243   -36248   -36244   -36236 
  -36240   -36244   -36238   -36239   -36250   -36252   -36247   -36240 
  -36234   -36240   -36248   -36244   -36240   -36244   -36244   -36236 
  -36229   -36229   -36234   -36234   -36228   -36231   -36236   -36236 
  -36232   -36231   -36235   -36234   -36225   -36224   -36229   -36235 
  -36236   -36234   -36232   -36232   -36231   -36229   -36228   -36235 
  -36238   -36232   -36227   -36225   -36234   -36236   -36232   -36229 
  -36224   -36225   -36240   -36243   -36234   -36234   -36234   -36228 
  -36225   -36229   -36238   -36239   -36229   -36229   -36236   -36232 
  -36229   -36238   -36239   -36229   -36225   -36234   -36239   -36240 
  -36242   -36238   -36234   -36232   -36231   -36236   -36240   -36234 
  -36232   -36242   -36244   -36243   -36244   -36242   -36240   -36247 
  -36244   -36235   -36239   -36238   -36234   -36244   -36247   -36236 
  -36235   -36242   -36239   -36235   -36238   -36240   -36239   -36238 
  -36236   -36235   -36238   -36234   -36227   -36228   -36234   -36238 
  -36243   -36239   -36231   -36232   -36242   -36244   -36239   -36236 
  -36243   -36243   -36235   -36236   -36243   -36244   -36244   -36243 
  -36243   -36247   -36251   -36247   -36234   -36225   -36235   -36244 
  -36243   -36242   -36242   -36240   -36239   -36238   -36236   -36242 
  -36246   -36239   -36234   -36234   -36235   -36238   -36239   -36238 
  -36236   -36239   -36240   -36240   -36240   -36242   -36243   -36243 
  -36240   -36242   -36244   -36239   -36232   -36228   -36229   -36240 
  -36248   -36243   -36238   -36235   -36232   -36235   -36236   -36238 
  -36240   -36243   -36243   -36238   -36238   -36246   -36243   -36234 
  -36231   -36234   -36240   -36238   -36235   -36239   -36239   -36243 
  -36247   -36240   -36236   -36235   -36231   -36234   -36243   -36246 
  -36240   -36238   -36242   -36243   -36239   -36238   -36240   -36238 
  -36235   -36236   -36239   -36236   -36238   -36243   -36242   -36242 
  -36242   -36243   -36246   -36243   -36235   -36231   -36234   -36236 
  -36234   -36228   -36229   -36231   -36224   -36215   -36208   -36196 
  -36185   -36178   -36165   -36150   -36136   -36113   -36089   -36081 
  -36086   -36097   -36116   -36151   -36186   -36215   -36234   -36236 
  -36213   -36161   -36089   -36034   -36003   -35991   -35989   -35982 
  -35965   -35941   -35911   -35885   -35873   -35870   -35870   -35854 
  -35820   -35784   -35748   -35708   -35671   -35642   -35642   -35708 
  -35868   -36099   -36346   -36563   -36710   -36767   -36737   -36639 
  -36504   -36382   -36312   -36313   -36408   -36574   -36748   -36869 
  -36900   -36826   -36702   -36617   -36598   -36603   -36579   -36475 
  -36289   -36036   -35734   -35453   -35302   -35340   -35591   -36005 
  -36427   -36663   -36637   -36406   -36073   -35757   -35592   -35627 
  -35781   -35918   -35918   -35780   -35618   -35552   -35653   -35928 
  -36337   -36857   -37376   -37650   -37539   -37139   -36672   -36394 
  -36486   -36886   -37359   -37651   -37584   -37203   -36751   -36441 
  -36374   -36586   -37006   -37458   -37752   -37736   -37324   -36640 
  -36023   -35773   -35993   -36575   -37195   -37465   -37237   -36674 
  -36078   -35756   -35914   -36517   -37247   -37692   -37573   -36898 
  -35982   -35270   -35079   -35436   -36105   -36811   -37296   -37278 
  -36747   -36040   -35413   -34925   -34735   -34950   -35413   -35846 
  -35961   -35592   -34990   -34638   -34786   -35398   -36294   -37173 
  -37679   -37531   -36690   -35526   -34673   -34574   -35193   -36148 
  -37000   -37412   -37274   -36792   -36269   -35802   -35429   -35372 
  -35862   -36790   -37696   -38126   -37849   -36871   -35575   -34577 
  -34246   -34545   -35203   -35880   -36300   -36389   -36239   -35988 
  -35784   -35780   -35972   -36180   -36231   -35970   -35384   -34857 
  -34773   -35059   -35376   -35491   -35476   -35583   -35865   -36113 
  -36159   -36142   -36398   -36918   -37304   -37386   -37284   -37010 
  -36659   -36518   -36686   -37050   -37471   -37666   -37338   -36593 
  -35868   -35480   -35457   -35653   -35891   -36062   -36127   -36066 
  -35939   -35931   -36139   -36494   -36837   -36953   -36836   -36826 
  -37076   -37278   -37212   -37004   -36832   -36726   -36602   -36377 
  -36058   -35710   -35399   -35208   -35091   -34900   -34684   -34676 
  -34974   -35490   -36045   -36486   -36760   -36806   -36603   -36286 
  -35996   -35816   -35803   -35876   -35947   -36042   -36093   -36077 
  -36175   -36425   -36697   -36981   -37265   -37389   -37238   -36871 
  -36506   -36367   -36428   -36454   -36319   -36151   -36157   -36402 
  -36771   -37080   -37228   -37215   -37046   -36682   -36101   -35464 
  -35010   -34905   -35253   -36013   -36842   -37331   -37355   -37029 
  -36510   -35993   -35637   -35483   -35529   -35748   -36055   -36329 
  -36439   -36328   -36090   -35853   -35640   -35483   -35469   -35631 
  -35903   -36158   -36298   -36255   -35968   -35523   -35229   -35349 
  -35753   -36039   -36054   -36019   -36132   -36391   -36701   -36985 
  -37243   -37489   -37648   -37608   -37397   -37152   -36944   -36760 
  -36543   -36289   -36103   -35996   -35873   -35727   -35603   -35542 
  -35675   -36088   -36666   -37192   -37496   -37489   -37196   -36661 
  -35974   -35407   -35170   -35171   -35245   -35341   -35434   -35473 
  -35437   -35446   -35617   -35826   -35907   -35860   -35783   -35716 
  -35646   -35573   -35552   -35695   -36132   -36853   -37633   -38153 
  -38245   -37999   -37540   -36977   -36524   -36320   -36273   -36175 
  -35858   -35329   -34858   -34719   -34904   -35309   -35878   -36440 
  -36787   -36853   -36602   -36092   -35598   -35409   -35669   -36360 
  -37245   -37926   -38101   -37743   -37079   -36385   -35897   -35768 
  -35978   -36283   -36324   -35912   -35201   -34515   -34101   -34025 
  -34227   -34627   -35198   -35935   -36741   -37423   -37787   -37779 
  -37584   -37459   -37432   -37282   -36837   -36189   -35614   -35398 
  -35683   -36332   -36999   -37347   -37261   -36910   -36518   -36116 
  -35656   -35230   -35050   -35233   -35714   -36247   -36544   -36482 
  -36190   -35885   -35765   -35978   -36544   -37254   -37740   -37739 
  -37253   -36521   -35895   -35590   -35540   -35590   -35641   -35658 
  -35656   -35591   -35457   -35465   -35800   -36348   -36821   -37004 
  -36815   -36333   -35808   -35523   -35642   -36104   -36682   -37172 
  -37481   -37562   -37434   -37243   -37141   -37089   -37011   -36961 
  -36973   -36922   -36648   -36093   -35419   -34971   -34905   -35064 
  -35293   -35538   -35765   -35985   -36185   -36294   -36344   -36406 
  -36443   -36321   -35914   -35268   -34692   -34562   -35039   -35932 
  -36817   -37303   -37257   -36819   -36247   -35812   -35702   -35888 
  -36188   -36418   -36509   -36524   -36521   -36468   -36379   -36335 
  -36386   -36548   -36828   -37106   -37193   -37076   -36890   -36691 
  -36491   -36366   -36383   -36597   -36946   -37111   -36790   -36135 
  -35584   -35469   -35887   -36598   -37185   -37438   -37322   -36825 
  -36134   -35557   -35212   -35098   -35213   -35437   -35613   -35667 
  -35621   -35595   -35694   -35905   -36192   -36487   -36626   -36458 
  -35954   -35237   -34569   -34276   -34585   -35442   -36501   -37345 
  -37710   -37569   -37095   -36585   -36310   -36333   -36486   -36610 
  -36602   -36396   -36067   -35772   -35613   -35660   -35910   -36313 
  -36852   -37369   -37596   -37450   -37031   -36486   -36042   -35893 
  -35985   -36153   -36296   -36304   -36144   -35974   -35943   -36058 
  -36255   -36447   -36582   -36686   -36728   -36583   -36227   -35799 
  -35467   -35307   -35307   -35465   -35795   -36224   -36563   -36614 
  -36355   -35972   -35741   -35816   -36100   -36369   -36431   -36169 
  -35662   -35208   -35058   -35248   -35637   -36061   -36460   -36840 
  -37165   -37341   -37238   -36853   -36420   -36131   -35957   -35876 
  -35939   -36120   -36301   -36366   -36302   -36224   -36238   -36313 
  -36378   -36401   -36358   -36229   -36015   -35789   -35656   -35591 
  -35554   -35615   -35762   -35907   -36065   -36258   -36382   -36347 
  -36224   -36157   -36175   -36200   -36198   -36200   -36220   -36251 
  -36213   -36007   -35676   -35440   -35500   -35878   -36405   -36803 
  -36844   -36579   -36296   -36254   -36540   -37056   -37567   -37824 
  -37673   -37191   -36639   -36217   -35934   -35727   -35611   -35642 
  -35800   -35989   -36143   -36229   -36251   -36231   -36167   -36061 
  -35934   -35820   -35787   -35858   -35972   -36100   -36269   -36435 
  -36497   -36445   -36333   -36224   -36208   -36332   -36548   -36836 
  -37180   -37400   -37330   -37022   -36610   -36197   -35889   -35716 
  -35654   -35725   -35895   -35992   -35899   -35711   -35603   -35691 
  -35988   -36371   -36674   -36825   -36849   -36833   -36852   -36892 
  -36904   -36828   -36617   -36340   -36111   -35981   -35928   -35834 
  -35611   -35386   -35311   -35386   -35565   -35784   -35962   -36093 
  -36228   -36404   -36613   -36780   -36899   -37066   -37274   -37403 
  -37420   -37363   -37215   -36926   -36498   -36001   -35577   -35352 
  -35367   -35611   -36018   -36441   -36724   -36752   -36547   -36269 
  -36047   -35862   -35662   -35448   -35299   -35361   -35676   -36140 
  -36625   -36973   -37072   -37002   -36853   -36589   -36221   -35849 
  -35575   -35484   -35554   -35684   -35807   -35872   -35849   -35757 
  -35694   -35785   -36072   -36448   -36740   -36796   -36634   -36432 
  -36352   -36402   -36510   -36636   -36783   -36953   -37098   -37138 
  -37056   -36882   -36675   -36495   -36358   -36254   -36219   -36282 
  -36406   -36544   -36649   -36702   -36695   -36606   -36472   -36378 
  -36324   -36254   -36120   -35896   -35572   -35213   -34935   -34835 
  -34987   -35394   -35927   -36441   -36803   -36898   -36718   -36385 
  -36065   -35888   -35849   -35876   -35937   -35989   -35978   -35877 
  -35704   -35559   -35491   -35448   -35415   -35441   -35540   -35765 
  -36124   -36452   -36620   -36633   -36543   -36458   -36427   -36420 
  -36524   -36822   -37179   -37434   -37513   -37346   -36956   -36463 
  -35968   -35608   -35491   -35572   -35783   -36009   -36104   -36088 
  -36051   -35977   -35910   -36007   -36248   -36490   -36672   -36737 
  -36613   -36346   -36035   -35730   -35453   -35230   -35127   -35190 
  -35365   -35554   -35683   -35688   -35618   -35577   -35631   -35819 
  -36124   -36458   -36724   -36876   -36867   -36657   -36293   -35928 
  -35722   -35699   -35835   -36078   -36266   -36275   -36155   -35999 
  -35869   -35823   -35899   -36130   -36518   -36964   -37282   -37319 
  -37087   -36764   -36526   -36456   -36580   -36819   -37033   -37160 
  -37200   -37181   -37168   -37231   -37420   -37667   -37801   -37732 
  -37462   -37002   -36466   -36074   -35908   -35835   -35714   -35541 
  -35395   -35370   -35514   -35795   -36130   -36463   -36740   -36875 
  -36833   -36629   -36313   -36012   -35838   -35783   -35772   -35734 
  -35638   -35511   -35401   -35352   -35426   -35633   -35932   -36292 
  -36617   -36775   -36722   -36487   -36146   -35830   -35634   -35580 
  -35629   -35704   -35772   -35826   -35854   -35866   -35883   -35968 
  -36189   -36475   -36675   -36726   -36668   -36589   -36583   -36678 
  -36798   -36883   -36938   -36957   -36891   -36713   -36458   -36196 
  -35985   -35839   -35752   -35718   -35719   -35722   -35727   -35788 
  -35927   -36092   -36215   -36196   -36011   -35819   -35738   -35715 
  -35708   -35731   -35806   -35964   -36167   -36362   -36543   -36657 
