Origin Time       2024/04/02 04:24:00
Lat.              40.133
Long.             141.712
Depth. (km)       71
Mag.              6.0
Station Code      AKT003
Station Lat.      40.2784
Station Long.     140.2631
Station Height(m) 35
Record Time       2024/04/02 04:24:58
Sampling Freq(Hz) 100Hz
Duration Time(s)  101
Dir.              N-S
Scale Factor      7845(gal)/8223790
Max. Acc. (gal)   5.646
Last Correction   2024/04/02 04:24:58
Memo.             
[...]
  -19237   -19368   -19653   -19800   -19676   -19337   -18848   -18222 
  -17599   -17329   -17628   -18353   -19125   -19597   -19719   -19678 
  -19565   -19303   -18833   -18245   -17775   -17651   -17898   -18323 
  -18684   -18827   -18746   -18549   -18431   -18636   -19218   -19936 
  -20490   -20702   -20559   -20152   -19634   -19137   -18773   -18665 
  -18824   -18997   -18974   -18851   -18769   -18744   -18804   -18905 
  -18870   -18582   -18145   -17829   -17874   -18241   -18735   -19215 
  -19545   -19643   -19599   -19588   -19700   -19874   -20054   -20266 
  -20475   -20569   -20482   -20289   -20120   -19963   -19641   -19026 
  -18253   -17637   -17428   -17618   -18045   -18620   -19298   -19926 
  -20278   -20135   -19489   -18648   -17965   -17632   -17707   -18126 
  -18779   -19503   -19973   -19896   -19348   -18724   -18345   -18250 
  -18339   -18585   -18993   -19475   -19865   -20009   -19890   -19643 
  -19402   -19192   -19024   -18985   -19195   -19620   -20050   -20232 
  -20059   -19687   -19332   -18967   -18450   -17836   -17379   -17285 
  -17531   -17938   -18312   -18559   -18728   -18889   -19022   -19084 
  -19089   -19049   -18968   -18935   -19025   -19137   -19113   -18997 
  -19014   -19322   -19851   -20364   -20623   -20565   -20287   -19930 
  -19689   -19741   -20065   -20452   -20641   -20451   -19905   -19249 
  -18678   -18141   -17552   -16980   -16578   -16501   -16858   -17563 
  -18308   -18825   -19060   -19101   -19125   -19310   -19674   -20054 
  -20198   -19971   -19537   -19203   -19170   -19467   -19943   -20250 
  -20206   -20004   -19858   -19835   -19838   -19626   -19066   -18245 
  -17433   -16933   -16814   -16995   -17344   -17767   -18307   -18927 
  -19426   -19656   -19622   -19535   -19630   -19884   -20085   -20133 
  -20154   -20241   -20302   -20121   -19556   -18775   -18106   -17757 
  -17829   -18188   -18642   -19137   -19581   -19901   -20085   -20117 
  -20063   -19966   -19884   -19866   -19820   -19674   -19317   -18609 
  -17734   -17066   -16815   -16956   -17304   -17780   -18436   -19191 
  -19818   -20128   -20142   -20051   -20034   -20155   -20308   -20277 
  -19985   -19510   -19051   -18864   -19035   -19434   -19784   -19824 
  -19642   -19526   -19546   -19584   -19570   -19503   -19327   -18952 
  -18404   -17863   -17537   -17528   -17720   -17903   -17956   -17922 
  -17941   -18049   -18225   -18488   -18856   -19326   -19823   -20227 
  -20459   -20494   -20368   -20129   -19819   -19492   -19203   -19025 
  -18940   -18794   -18480   -18026   -17537   -17159   -17081   -17431 
  -18169   -19117   -19951   -20364   -20363   -20231   -20254   -20466 
  -20614   -20456   -19982   -19341   -18711   -18234   -17952   -17818 
  -17818   -17929   -18077   -18219   -18392   -18611   -18743   -18684 
  -18596   -18758   -19219   -19782   -20218   -20456   -20506   -20375 
  -20140   -19947   -19880   -19834   -19583   -19029   -18364   -17903 
  -17799   -17938   -18127   -18252   -18279   -18150   -17833   -17478 
  -17321   -17550   -18188   -19030   -19838   -20464   -20800   -20795 
  -20506   -20110   -19816   -19711   -19737   -19791   -19853   -19934 
  -19947   -19784   -19435   -18960   -18392   -17786   -17271   -17007 
  -17134   -17674   -18387   -18921   -19094   -18993   -18875   -18956 
  -19292   -19773   -20205   -20472   -20594   -20655   -20733   -20812 
  -20765   -20480   -20032   -19592   -19191   -18789   -18469   -18331 
  -18368   -18476   -18574   -18717   -18986   -19290   -19402   -19199 
  -18762   -18281   -17983   -18038   -18414   -18901   -19306   -19449 
  -19218   -18733   -18261   -18033   -18144   -18528   -19091   -19691 
  -20034   -19840   -19105   -18177   -17551   -17506   -17972   -18632 
  -19225   -19693   -20044   -20209   -20065   -19614   -19059   -18677 
  -18686   -19118   -19749   -20264   -20429   -20121   -19425   -18739 
  -18512   -18801   -19260   -19573   -19661   -19526   -19156   -18685 
  -18378   -18374   -18644   -19083   -19458   -19585   -19494   -19326 
  -19190   -19126   -19163   -19313   -19496   -19597   -19649   -19782 
  -20023   -20214   -20205   -19990   -19654   -19268   -18846   -18374 
  -17934   -17693   -17739   -18040   -18458   -18781   -18874   -18773 
  -18580   -18362   -18172   -18126   -18388   -19001   -19746   -20251 
  -20233   -19657   -18814   -18142   -17886   -18098   -18663   -19234 
  -19450   -19222   -18763   -18430   -18465   -18867   -19461   -20028 
  -20398   -20420   -19998   -19224   -18405   -17911   -17905   -18256 
  -18727   -19145   -19402   -19426   -19263   -19095   -19117   -19350 
  -19658   -19963   -20256   -20412   -20259   -19809   -19295   -18989 
  -19006   -19276   -19570   -19708   -19720   -19670   -19526   -19318 
  -19141   -19037   -19037   -19179   -19437   -19714   -19884   -19839 
  -19542   -19068   -18625   -18403   -18399   -18472   -18497   -18414 
  -18265   -18150   -18073   -18022   -18037   -18063   -17918   -17574 
  -17234   -17116   -17312   -17753   -18272   -18752   -19171   -19526 
  -19831   -20105   -20326   -20413   -20299   -20027   -19705   -19437 
  -19271   -19224   -19287   -19388   -19386   -19121   -18562   -17880 
  -17363   -17223   -17454   -17869   -18287   -18640   -19010   -19441 
  -19813   -19980   -19957   -19870   -19780   -19673   -19552   -19429 
  -19319   -19198   -19039   -18908   -18917   -19072   -19261   -19392 
  -19476   -19511   -19433   -19236   -18987   -18739   -18504   -18297 
  -18130   -18015   -18022   -18247   -18657   -19124   -19596   -20069 
  -20447   -20598   -20480   -20155   -19753   -19384   -19062   -18798 
  -18677   -18767   -19045   -19367   -19543   -19477   -19229   -18975 
  -18894   -19016   -19253   -19523   -19747   -19885   -19986   -20024 
  -19904   -19597   -19137   -18663   -18412   -18532   -18945   -19410 
  -19711   -19745   -19510   -19117   -18755   -18540   -18416   -18285 
  -18157   -18134   -18296   -18593   -18908   -19206   -19527   -19901 
  -20372   -20888   -21205   -21082   -20486   -19600   -18679   -17946 
  -17560   -17558   -17855   -18280   -18661   -18933   -19132   -19263 
  -19273   -19165   -19041   -19033   -19242   -19629   -19967   -20055 
  -19840   -19388   -18787   -18165   -17703   -17572   -17834   -18400 
  -19035   -19425   -19365   -18897   -18283   -17848   -17795   -18057 
  -18369   -18527   -18582   -18724   -19012   -19342   -19603   -19739 
  -19734   -19673   -19691   -19766   -19741   -19592   -19456   -19422 
  -19503   -19662   -19789   -19782   -19700   -19629   -19498   -19201 
  -18762   -18291   -17925   -17740   -17712   -17791   -17972   -18323 
  -18881   -19535   -20097   -20432   -20515   -20391   -20187   -20061 
  -20052   -20129   -20289   -20491   -20605   -20463   -19993   -19313 
  -18638   -18160   -17953   -17946   -17982   -17982   -17971   -17975 
  -18004   -18092   -18262   -18546   -18947   -19406   -19836   -20102 
  -20062   -19726   -19353   -19273   -19554   -19975   -20289   -20317 
  -19915   -19068   -18046   -17293   -17058   -17236   -17566   -17875 
  -18153   -18451   -18713   -18733   -18426   -17977   -17728   -17933 
  -18551   -19253   -19746   -19993   -20092   -20116   -20120   -20171 
  -20328   -20572   -20750   -20727   -20557   -20374   -20206   -19970 
  -19623   -19244   -18952   -18802   -18756   -18732   -18739   -18917 
  -19350   -19874   -20178   -20116   -19831   -19534   -19283   -19039 
  -18809   -18658   -18643   -18783   -19006   -19156   -19137   -18959 
  -18674   -18376   -18200   -18241   -18419   -18534   -18509   -18438 
  -18335   -18154   -17979   -17923   -18000   -18184   -18397   -18463 
  -18223   -17749   -17302   -17066   -17064   -17219   -17447   -17701 
  -17972   -18274   -18654   -19144   -19720   -20310   -20790   -21069 
  -21222   -21393   -21595   -21666   -21413   -20825   -20151   -19743 
  -19710   -19816   -19743   -19363   -18796   -18283   -18022   -18015 
  -18087   -18038   -17824   -17571   -17417   -17356   -17263   -17024 
  -16664   -16337   -16222   -16430   -16933   -17535   -17960   -18029 
  -17820   -17582   -17540   -17778   -18220   -18747   -19300   -19851 
  -20317   -20592   -20652   -20542   -20290   -19975   -19811   -19943 
  -20251   -20491   -20521   -20314   -19985   -19795   -19932   -20308 
  -20718   -21066   -21293   -21309   -21085   -20734   -20430   -20285 
  -20281   -20281   -20136   -19801   -19299   -18732   -18303   -18164 
  -18257   -18342   -18238   -18058   -18084   -18397   -18762   -18909 
  -18847   -18792   -18922   -19249   -19643   -19959   -20152   -20250 
  -20256   -20136   -19912   -19692   -19566   -19533   -19568   -19674 
  -19776   -19727   -19467   -19086   -18716   -18403   -18075   -17718 
  -17454   -17397   -17525   -17724   -17905   -18027   -18122   -18261 
  -18513   -18939   -19516   -20079   -20440   -20561   -20495   -20278 
  -20001   -19823   -19838   -20013   -20212   -20282   -20212   -20125 
  -20132   -20260   -20486   -20733   -20884   -20844   -20644   -20407 
  -20197   -19989   -19768   -19498   -19129   -18712   -18387   -18239 
  -18276   -18434   -18523   -18334   -17911   -17575   -17581   -17865 
  -18177   -18369   -18524   -18773   -19109   -19448   -19738   -19962 
  -20100   -20139   -20104   -20020   -19853   -19543   -19156   -18878 
  -18846   -19026   -19256   -19354   -19259   -19052   -18862   -18746 
  -18644   -18434   -18100   -17748   -17469   -17315   -17292   -17292 
  -17158   -16910   -16760   -16870   -17231   -17721   -18172   -18459 
  -18621   -18771   -18941   -19110   -19282   -19440   -19496   -19384 
  -19130   -18792   -18422   -18102   -17953   -18021   -18258   -18603 
  -18972   -19237   -19306   -19213   -19062   -18912   -18782   -18716 
  -18712   -18719   -18693   -18596   -18388   -18056   -17678   -17425 
  -17400   -17520   -17622   -17608   -17497   -17454   -17658   -18107 
  -18669   -19248   -19791   -20201   -20356   -20245   -20015   -19862 
  -19942   -20237   -20578   -20838   -20983   -20942   -20646   -20142 
  -19629   -19350   -19434   -19819   -20304   -20665   -20794   -20703 
  -20464   -20191   -19986   -19890   -19935   -20133   -20391   -20533 
  -20413   -20021   -19469   -18900   -18446   -18234   -18292   -18517 
  -18812   -19149   -19448   -19523   -19255   -18720   -18161   -17818 
  -17706   -17685   -17713   -17834   -17988   -18092   -18218   -18503 
  -18906   -19242   -19395   -19383   -19265   -19106   -18916   -18647 
  -18289   -17913   -17658   -17698   -18092   -18677   -19194   -19491 
  -19568   -19522   -19442   -19390   -19384   -19396   -19407   -19404 
  -19318   -19090   -18804   -18706   -19005   -19618   -20252   -20740 
  -21109   -21381   -21429   -21118   -20461   -19631   -18829   -18210 
  -17801   -17482   -17119   -16679   -16229   -15877   -15716   -15828 
  -16237   -16868   -17612   -18343   -18890   -19155   -19215   -19240 
  -19408   -19861   -20586   -21423   -22194   -22758   -23040   -23009 
  -22612   -21816   -20727   -19634   -18878   -18673   -18948   -19406 
  -19781   -20029   -20267   -20583   -20995   -21440   -21797   -21956 
  -21860   -21504   -20957   -20332   -19747   -19353   -19287   -19566 
  -20083   -20684   -21149   -21247   -20927   -20308   -19522   -18665 
  -17842   -17188   -16848   -16937   -17475   -18326   -19244   -20007 
  -20451   -20443   -19938   -19033   -17998   -17236   -17054   -17510 
  -18477   -19688   -20848   -21780   -22400   -22648   -22512   -22019 
  -21240   -20318   -19422   -18652   -18075   -17770   -17757   -17905 
  -17980   -17833   -17540   -17308   -17230   -17212   -17136   -17019 
  -16987   -17163   -17583   -18162   -18705   -19002   -18947   -18550 
  -17923   -17208   -16522   -15977   -15741   -15993   -16718   -17610 
  -18349   -18832   -19138   -19381   -19649   -19913   -19982   -19602 
  -18655   -17323   -16110   -15547   -15813   -16692   -17740   -18543 
  -18985   -19215   -19384   -19494   -19445   -19109   -18350   -17250 
  -16256   -15858   -16174   -16919   -17674   -18192   -18449   -18490 
  -18378   -18207   -18076   -18061   -18237   -18675   -19357   -20042 
  -20321   -19974   -19226   -18540   -18258   -18450   -19010   -19820 
  -20771   -21648   -22138   -21963   -21095   -19843   -18642   -17753 
  -17207   -16969   -17051   -17498   -18333   -19448   -20592   -21444 
  -21628   -20965   -19766   -18667   -18139   -18162   -18393   -18558 
  -18654   -18894   -19425   -20113   -20688   -21004   -21120   -21195 
  -21286   -21294   -21139   -20869   -20569   -20310   -20102   -19819 
  -19292   -18536   -17809   -17459   -17724   -18576   -19704   -20641 
  -21018   -20825   -20351   -19900   -19576   -19248   -18750   -18069 
  -17374   -16957   -17061   -17660   -18446   -18962   -18863   -18141 
  -17149   -16394   -16210   -16622   -17498   -18716   -20112   -21389 
  -22264   -22620   -22438   -21745   -20671   -19426   -18300   -17564 
  -17334   -17578   -18180   -18920   -19457   -19500   -19062   -18551 
  -18489   -19001   -19678   -19963   -19514   -18414   -17124   -16191 
  -15982   -16559   -17678   -19006   -20286   -21347   -22084   -22442 
  -22401   -22087   -21802   -21760   -21871   -21799   -21219   -20106 
  -18854   -18053   -18121   -19006   -20244   -21204   -21336   -20420 
  -18709   -16783   -15230   -14472   -14636   -15441   -16386   -17097 
  -17413   -17305   -16906   -16506   -16405   -16781   -17689   -19074 
  -20788   -22604   -24163   -25002   -24787   -23668   -22281   -21285 
  -20956   -21217   -21755   -22098   -21817   -20790   -19294   -17833 
  -16858   -16582   -16934   -17671   -18551   -19390   -19923   -19911 
  -19332   -18345   -17270   -16470   -16141   -16272   -16679   -17119 
  -17475   -17744   -17922   -18029   -18145   -18353   -18692   -19182 
  -19769   -20360   -20889   -21166   -20980   -20356   -19575   -19076 
  -19157   -19687   -20274   -20521   -20198   -19440   -18600   -17938 
  -17555   -17506   -17783   -18245   -18733   -19094   -19098   -18608 
  -17776   -16997   -16691   -17049   -17914   -18883   -19624   -19993 
  -19973   -19716   -19448   -19303   -19419   -19916   -20730   -21655 
  -22410   -22732   -22619   -22194   -21502   -20632   -19727   -18986 
  -18684   -18901   -19452   -20021   -20131   -19384   -17973   -16557 
  -15645   -15365   -15549   -15877   -16090   -16090   -16065   -16367 
  -17039   -17818   -18416   -18733   -19048   -19696   -20695   -21662 
  -21995   -21458   -20356   -19206   -18478   -18381   -18852   -19641 
  -20374   -20710   -20479   -19761   -18806   -17960   -17547   -17558 
  -17930   -18786   -19988   -21224   -22200   -22604   -22432   -21914 
  -21288   -20761   -20337   -19896   -19325   -18588   -17826   -17259 
  -17039   -17054   -17072   -16970   -16779   -16772   -17145   -17745 
  -18334   -18620   -18489   -18179   -17999   -18195   -18767   -19483 
  -20193   -20723   -20900   -20818   -20721   -20783   -21022   -21238 
  -21212   -20984   -20713   -20429   -20129   -19768   -19232   -18585 
  -18019   -17705   -17798   -18207   -18627   -18844   -18804   -18665 
  -18665   -18881   -19256   -19616   -19741   -19522   -18978   -18172 
  -17258   -16494   -16083   -16047   -16258   -16648   -17235   -17915 
  -18449   -18628   -18490   -18342   -18532   -19213   -20210   -21141 
  -21548   -21145   -20128   -18997   -18273   -18245   -18643   -19016 
  -19093   -18825   -18436   -18102   -17780   -17386   -16889   -16391 
  -16089   -16146   -16602   -17413   -18488   -19622   -20540   -21026 
  -21046   -20768   -20353   -19899   -19545   -19354   -19282   -19252 
  -19202   -19170   -19159   -19051   -18792   -18416   -18094   -18069 
  -18374   -18874   -19433   -19905   -20146   -20190   -20179   -20089 
  -19854   -19450   -18914   -18428   -18119   -18021   -18110   -18235 
  -18315   -18411   -18523   -18550   -18469   -18388   -18414   -18597 
  -18908   -19290   -19777   -20367   -20933   -21220   -21045   -20563 
  -20094   -19905   -20097   -20433   -20547   -20228   -19538   -18778 
  -18206   -17949   -18079   -18523   -19122   -19826   -20587   -21185 
  -21359   -20965   -20046   -18966   -18189   -17933   -18242   -18958 
  -19714   -20254   -20497   -20444   -20187   -19809   -19383   -19013 
  -18833   -18948   -19327   -19781   -20075   -20143   -20020   -19793 
  -19585   -19426   -19384   -19608   -20088   -20657   -21046   -21011 
  -20592   -20100   -19807   -19708   -19623   -19392   -18990   -18544 
  -18146   -17844   -17685   -17637   -17701   -17851   -18022   -18234 
  -18486   -18814   -19238   -19589   -19807   -19970   -20063   -20108 
  -20143   -20123   -20036   -19923   -19849   -19846   -19900   -19996 
  -20062   -19967   -19664   -19245   -18851   -18615   -18657   -18943 
  -19322   -19696   -20004   -20254   -20502   -20750   -20908   -20772 
  -20182   -19211   -18135   -17274   -16827   -16833   -17157   -17587 
  -17909   -17936   -17712   -17404   -17155   -17292   -17975   -18804 
  -19508   -20116   -20310   -19942   -19342   -18669   -18106   -17941 
  -18052   -18268   -18563   -18704   -18488   -18091   -17678   -17213 
  -16911   -17022   -17354   -17818   -18478   -19014   -19206   -19122 
  -18747   -18293   -18135   -18311   -18650   -19072   -19417   -19477 
  -19361   -19264   -19199   -19245   -19453   -19718   -20011   -20360 
  -20714   -20992   -21093   -20887   -20339   -19749   -19471   -19515 
  -19712   -19881   -19867   -19734   -19641   -19665   -19886   -20260 
  -20524   -20529   -20347   -20040   -19720   -19468   -19184   -18827 
  -18547   -18505   -18742   -19111   -19356   -19317   -18999   -18493 
  -17944   -17583   -17554   -17761   -18017   -18165   -18127   -17886 
  -17450   -16891   -16343   -15943   -15769   -15878   -16297   -16891 
  -17470   -17957   -18304   -18473   -18481   -18403   -18365   -18461 
  -18711   -19032   -19334   -19600   -19731   -19579   -19153   -18689 
  -18522   -18762   -19214   -19642   -19917   -20008   -19955   -19738 
  -19272   -18612   -17955   -17490   -17361   -17551   -17887   -18183 
  -18315   -18306   -18269   -18245   -18237   -18257   -18358   -18608 
  -18943   -19222   -19350   -19259   -18947   -18565   -18360   -18495 
  -18879   -19206   -19222   -18885   -18300   -17689   -17278   -17165 
  -17361   -17838   -18495   -19236   -19975   -20575   -20960   -21128 
  -21039   -20680   -20202   -19858   -19823   -20105   -20471   -20615 
  -20417   -19926   -19272   -18625   -18157   -17979   -18067   -18295 
  -18500   -18570   -18517   -18411   -18380   -18536   -18875   -19400 
  -20074   -20713   -21107   -21139   -20839   -20376   -19928   -19523 
  -19133   -18870   -18839   -18979   -19179   -19356   -19535   -19828 
  -20281   -20756   -21000   -20911   -20636   -20393   -20353   -20532 
  -20780   -20911   -20796   -20426   -19900   -19361   -18939   -18675 
  -18573   -18615   -18758   -18990   -19276   -19488   -19494   -19278 
  -18967   -18686   -18530   -18607   -18904   -19234   -19388   -19333 
  -19271   -19458   -19903   -20320   -20483   -20429   -20286   -20160 
  -20144   -20245   -20340   -20268   -19950   -19399   -18739   -18145 
  -17730   -17545   -17593   -17813   -18098   -18323   -18435   -18493 
  -18603   -18809   -19048   -19249   -19407   -19595   -19901   -20218 
