Origin Time       2024/04/02 04:24:00
Lat.              40.133
Long.             141.712
Depth. (km)       71
Mag.              6.0
Station Code      AKT001
Station Lat.      40.3280
Station Long.     140.7429
Station Height(m) 166
Record Time       2024/04/02 04:24:53
Sampling Freq(Hz) 100Hz
Duration Time(s)  102
Dir.              E-W
Scale Factor      7845(gal)/8223790
Max. Acc. (gal)   30.952
Last Correction   2024/04/02 04:24:53
Memo.             
[...]
    2498     2494     2489     2484     2484     2488     2486     2486 
    2490     2492     2489     2488     2485     2479     2471     2454 
    2416     2359     2274     2158     2022     1879     1755     1686 
    1699     1806     2007     2276     2586     2928     3260     3507 
    3592     3473     3204     2901     2629     2359     2041     1705 
    1448     1333     1332     1368     1412     1458     1476     1506 
    1649     1888     2015     1854     1501     1289     1485     2065 
    2841     3643     4291     4615     4571     4198     3626     3114 
    2826     2747     2794     2833     2817     2890     3071     3134 
    2930     2475     1957     1660     1529     1208      657       78 
    -390     -495      -49      945     2447     3892     4487     4291 
    3766     3105     2563     2273     2172     2344     2550     2326 
    1941     1917     2272     2833     3140     2674     1894     1597 
    1705     1642      978       63      306     2408     5100     6708 
    6706     5784     5139     5155     4927     3676     1917      591 
     -54     -226       91     1150     2759     4144     4793     4963 
    5028     5031     5057     5104     4846     4347     3937     3287 
    2245     1579     1771     2292     2007      575     -529      -51 
    1193     1810     1192     -214     -734      692     2880     4311 
    4945     5297     5401     5098     4544     4163     4109     3979 
    3470     2862     2677     3281     4511     5610     6014     5914 
    5567     4650     2839      569     -907     -521     1001     1479 
     484      175     1336     1857      387    -1703    -2324     -699 
    2289     5088     6394     5632     4016     3815     5306     6687 
    6447     3839     -325    -3041    -2571     -830     -184     -504 
    -783     -935     -577     1217     3943     5537     4801     3522 
    4271     6099     6178     4228     1777     -361    -1467     -481 
    2143     4831     6517     6413     4590     2064     -272    -1104 
     384     2563     3285     2162       25    -1858    -2392    -1003 
    2623     7307     9783     8492     5683     3145     -105    -4054 
   -5621    -2820     1633     3640     2667     1050      487     1104 
    2367     4218     6856     8869     7817     3071    -3173    -7614 
   -8120    -4368     1590     6277     8306     8118     5926     2990 
    1510     2647     6288    10370    11402     8303     2778    -3007 
   -6466    -6289    -3824     -637     2451     4500     4958     3817 
    1972     1919     4518     6644     6146     4969     4915     4734 
    2560    -1012    -3231    -2389      122     1910     2853     4444 
    6624     7425     5286      492    -4807    -7179    -4168     3167 
   10836    14764    13624     9189     3699     -824    -1347     3184 
    9209    12128     9998     4357     -766    -3254    -4602    -5603 
   -5166    -3184     -826      853     2473     6131    10822    11925 
    8228     3268     -201     -889     2191     6974     9302     7827 
    4344     1185     -715    -2180    -3214    -2436     -342      864 
     720      -14     -927     -630     1672     4271     5821     6755 
    7842     9300     9661     6481      373    -4023    -3680     -955 
     371      144      965     3002     3252     1543     1552     4036 
    5088     2609     -232      -25     2224     3118     1108    -1795 
   -2867    -1980     -216     1771     2689     1325     -364     2182 
    9806    17046    18430    14122     8203     3117    -1718    -5846 
   -7001    -5061    -2814    -2489    -3813    -5371    -6357    -6242 
   -3705     1694     7294     9865     9648     8954     8607     7990 
    6906     6158     6268     6525     6061     4720     2570     -631 
   -4494    -6812    -5630    -2142      537     1021      874     2004 
    4086     5614     6258     6808     7426     7361     6277     4538 
    2401      708     1109     3042     3658     1881    -1021    -2934 
   -1869     1279     3492     4189     4342     3223      877     -519 
     -52     1688     4067     5964     6832     6810     5328     2683 
     712      255      776     1907     3307     4450     5182     5258 
    4399     3289     2477     1695     1237     1487     2108     3010 
    4144     4664     3786     1867      382      884     3076     4970 
    5533     5159     4054     2521     1594     1598     1723     1911 
    2848     4166     5078     5576     5305     3528     1031     -310 
    -237     -403    -1286    -1278      334     2062     1948     -261 
   -2655    -3523    -2478      494     4229     6849     8100     8781 
    8869     7636     5109     2452      481     -864    -1772    -2133 
   -1499     -471     -558    -1748    -3006    -3608    -2359     1051 
    4866     7569     8775     8527     7705     6751     4808     2296 
    1162     1799     2528     1910      673      720     2020     2575 
    1459     -267    -1181     -507     1559     4247     6926     8428 
    7678     5454     2867      117    -1904    -1918     -318     1489 
    2967     4035     4395     4029     3165     2207     2091     3334 
    4658     4540     3354     2095      901      -37     -151      919 
    2909     4818     5891     6238     6066     5464     4656     3753 
    2832     1894      843       32     -230     -413     -488      333 
    1769     2801     3487     4153     4098     2806     1158      337 
     614     1659     2736     3030     2651     2060     1275      635 
     932     2432     4207     5007     4739     3964     2679     1065 
     194      777     2290     3638     3696     2074       95     -572 
     264     1869     3231     3515     3225     3717     5402     7447 
    8729     8306     6116     3769     2897     3018     2870     2255 
    1563      967      282     -495     -494      610     1530     1819 
    3022     5582     7462     7098     5246     3477     2597     2493 
    2921     3906     4900     4680     2795      -41    -2828    -4699 
   -5217    -4476    -2722     -423     1722     3109     3546     3561 
    3724     3989     4110     3807     2914     2099     2303     3217 
    3700     3210     2018      943      442      284      814     2605 
    4904     6237     5746     3694     1590      841     1146     1549 
    1790     1979     2515     3565     4487     4969     5427     5667 
    5216     4629     4469     4268     3184      832    -1726    -2805 
   -2436    -1528      159     2731     4932     6052     6660     6551 
    5020     2982     2068     2724     4036     4342     3045     1610 
    1368     2026     2654     2644     2226     1614        0    -2590 
   -4081    -2883      162     3098     4725     5213     5209     4824 
    4455     4730     4864     3824     2574     2763     4332     5647 
    5405     3823     1845       91     -859     -704     -349     -710 
   -1132     -665      541     1665     1966     1749     2278     3817 
    5347     6246     6492     5969     4731     3414     2898     3370 
    3834     3117     1323     -546    -1875    -2230    -1132      805 
    1844      784    -1699    -3489    -3034     -756     2242     5636 
    8656     9589     8186     6116     4680     3981     3605     3518 
    3931     3943     2528      696     -122     -314     -546     -168 
    1220     2562     2998     3122     3715     4380     4106     2783 
    1490     1032     1143     1557     2635     4384     5918     6299 
    5456     4233     3535     3177     2446     1564      927      291 
     -71      503     1741     2636     2560     1817     1254     1537 
    2654     3964     4858     4795     3488     1957     1341     1405 
    2110     3640     4799     4563     3666     3029     2498     1869 
    1811     2906     4270     4340     3115     1931     1231      812 
    1142     2207     2887     2478     1170     -309     -864      -72 
    1426     3017     4306     4784     4183     2735     1243      776 
    1507     2442     2608     1900     1015      676     1005     2033 
    3685     5171     5598     4698     3181     2351     2513     2963 
    3372     3547     2921     1566      386     -118      -14      484 
    1156     2154     3350     3831     3458     3233     3379     3211 
    2762     2978     4199     5007     4102     2596     1780     1081 
     164      -98      785     2207     2941     2493     1769     1601 
    1827     2396     3514     4827     5522     4946     3354     1981 
    1606     1840     2181     2685     3303     3248     1845     -167 
   -1183     -384     1663     3727     4893     4764     3385     1665 
    1094     2215     3975     4995     4693     3265     1475      271 
     114      814     1957     2917     3067     2863     3246     4037 
    4747     5354     5304     3817     1223     -901    -1125       47 
    1013     1387     1605     1555     1271     1420     2199     2982 
    3334     3495     3767     4027     3983     3588     3234     3254 
    3187     2724     2389     2250     1825     1412     1723     2381 
    2332     1692     1674     2436     2659     2007     1876     2822 
    3743     3904     3697     3686     3834     3551     2978     2891 
    2812     2060     1487     1610     1887     1944     1459      749 
     876     1783     2709     3523     3936     3673     2961     1938 
     982      425      276      918     1912     2042     1740     2295 
    3570     4711     5292     5142     4224     2636     1000      508 
    1252     1748     1034     -189     -336     1298     3353     4094 
    3562     2785     2323     2322     2752     3391     4016     4514 
    4644     3817     1818     -249    -1082     -449     1537     4639 
    7830     9468     8483     5516     2299     -137    -1568    -1597 
    -338      884     1386     1744     2045     2025     1857     1672 
    1898     2880     3877     4207     4149     4109     3966     3296 
    2338     1688     1111      633     1314     3118     4610     5359 
    5795     5552     4009     1567      -28      899     3539     5339 
    5238     3835     1617     -745    -1845     -596     2286     4464 
    4540     3438     2311     1189      394      750     1998     2929 
    3107     3195     3435     3211     2689     2798     3491     3905 
    3561     2581     1578     1410     2187     2848     2463     1163 
     -78      -37     1275     2629     3558     4342     4928     4997 
    4386     3568     3207     3249     3330     3396     3280     2596 
    1571      859      673      988     1714     2693     3446     2991 
    1659     1177     1715     1946     1401      695      627     1224 
    1687     2052     3300     4984     5246     3640     1583      463 
     629     1462     2289     3126     3720     3217     1796      819 
     835     1196     1528     1979     2354     2173     1414      876 
    1312     2139     2425     2787     4387     6458     6882     5317 
    3790     3582     3511     2556     1884     2367     3018     2974 
    2490     2230     2482     2767     2898     3464     4145     3954 
    3427     3595     3912     3562     2756     2058     1799     1548 
     855      450     1134     2802     4660     5805     6079     5401 
    3441      800    -1201    -1551     -513      355      386      243 
      32     -117      595     1809     2191     1590     1143     1864 
    3235     3696     3179     2933     2893     2527     2575     3199 
    3483     3554     4081     4583     4290     3379     2509     2281 
    2948     4124     5340     6120     5733     4561     4110     4804 
    5768     6300     6334     6035     5202     3767     2462     1534 
     440     -457     -256      796     1671     2010     2311     2810 
    3044     2650     2022     1787     1825     1937     2493     3497 
    4622     5487     5433     4453     3265     2351     2106     2938 
    4148     3909     1629    -1225    -2976    -2879    -1723    -1327 
   -2008    -2496    -2069     -800      905     2436     3715     5049 
    6199     6913     7348     7319     6520     5096     3611     2502 
    1229     -626    -2026    -2153    -1710    -1686    -2401    -3708 
   -4904    -4950    -3438     -816     2031     4275     6003     7650 
    8559     8074     6924     6114     5872     5474     3659       22 
   -4475    -7987    -8421    -5034      733     7040    12850    16787 
   17400    15070    11716     8974     6925     3774    -2172   -10089 
  -17489   -22150   -22497   -18415   -11514    -3774     3318     9074 
   13228    15739    17436    18921    19242    17118    12656     7371 
    2791     -403    -1944    -1799     -988    -1429    -3820    -6709 
   -8352    -8141    -6399    -3694     -554     2359     4309     5134 
    5705     6906     8748    11156    13529    13698    10004     3620 
   -2899    -7943   -10712   -10575    -7226    -1267     4931     8456 
    8463     5994     2226    -1418    -3153    -2431     -488     1291 
    2624     4218     6386     7963     8133     7842     7674     6774 
    4857     3024     2124     2035     2837     4972     7821     9701 
    9553     7921     5972     3788      621    -2840    -4480    -3366 
    -247     3493     6106     6096     3267     -697    -3024    -2439 
    -166     2708     6558    10971    14187    15221    14235    11265 
    5941    -1756   -10444   -17724   -21936   -22199   -17471    -7622 
    4561    14168    18424    18671    17309    15520    14158    13910 
   13873    11578     5435    -3495   -12926   -21485   -27934   -29956 
  -26005   -17172    -6232     4622    14638    22829    27359    27560 
   24364    19017    13180     8938     7342     7381     7117     5679 
    2972    -1803    -9147   -17184   -22534   -22905   -17614    -7091 
    6508    19329    27233    27905    22750    15666     9639     5891 
    4743     4772     2668    -3403   -10994   -15672   -15547   -11669 
   -5451     1679     7908    11867    13328    12768     9833     3843 
   -4229   -12079   -17078   -16866   -10816     -611    10902    20231 
   23984    21621    15677     8997     4041     2893     5217     8054 
    9211     9024     8097     5656      754    -6212   -13590   -19530 
  -22686   -22296   -17979   -10147    -1077     6318    11271    14987 
   18266    21035    23116    23739    21533    15680     6351    -5020 
  -15250   -20190   -17482    -8899     1119     8734    12321    12313 
   10238     8172     7624     8046     7792     5987     2423    -2945 
   -8868   -12530   -12140    -8552    -4337    -1918    -1610    -2174 
   -2728    -2754    -1991     -734     1008     4132     9239    15255 
   19834    21111    19286    15959    11607     5815     -222    -4342 
   -5711    -5009    -3180     -935       52    -2043    -5854    -7755 
   -6241    -3088     -908      -27     1271     3368     4966     6138 
    8302    11138    12880    13355    13730    13482    10230     3769 
   -2710    -6991    -9289    -9202    -5725      449     7049    11803 
   13784    13630    11839     8271     3754     -507    -4051    -6289 
   -6785    -5528    -2760      186     1864     2465     2674     2274 
    1586     2083     4141     6710     8864     9822     9090     6631 
    2374    -2932    -7446   -10065   -10732    -9174    -5513    -1077 
    3118     7242    11172    14071    15145    13459     8932     3489 
    -831    -3470    -4298    -3113     -853      521      568     1221 
    3906     7277     8719     7348     4577     1895     -348    -1404 
      27     3202     5590     5988     4666     2039     -708    -1961 
   -1597     -419     1410     3387     4637     5544     6586     7257 
    7456     7141     5447     2145    -1910    -5664    -7720    -6953 
   -3731      534     4623     7870     9850    10813    11948    13934 
   15624    15059    11362     4954    -3261   -11734   -18185   -20800 
  -19271   -14274    -6413     3514    13288    19595    20316    16116 
    9686     3832      510      587     2953     5109     6053     6427 
    5800     2932    -1291    -3873    -3267     -814     1548     2913 
    3059     1692    -1453    -5312    -7674    -7377    -4761     -791 
    3164     6002     7715     8868     9526     9324     8105     6102 
    4117     3179     3416     4280     5217     5125     2808    -1258 
   -5050    -7157    -7496    -5904    -1777     4086     9301    12301 
   13182    12607    10777     7551     3595       29    -2542    -3912 
   -4141    -3545    -2381     -685     1173     2266     2087      584 
   -1713    -2683     -753     2991     6945    10242    12135    12582 
   12117    10791     7950     3067    -3157    -8919   -12240   -11944 
   -8148    -1945     4500     8784    10314     9779     7970     6118 
    5170     5269     6154     7044     7060     5811     3181     -405 
   -3501    -4881    -4918    -4521    -3663    -1783     1000     3662 
    5162     5032     3453     1082    -1050    -1324     1023     4525 
    7472     9491    10354     9229     6116     3199     2411     3076 
    4109     5227     5848     5439     3960     1653     -905    -2829 
   -3250    -1844      930     3766     4993     4087     2182      579 
    -175     -109      243      430      445      665     2128     4804 
    6349     5142     2128    -1061    -3276    -3576    -1517     2035 
    5410     7472     7902     7142     5861     4214     2662     2062 
    2305     2670     2700     1929      392     -909     -846     1036 
    3909     5998     6276     5444     4854     4607     3985     3400 
    3508     3721     3200     1795       20    -1448    -1993     -656 
    2690     6444     8918     9462     8009     4737      549    -2727 
   -3815    -3034    -1459      -76      546      488      207      427 
    1709     3493     4950     6004     6451     6107     5637     5406 
    4658     2920      849     -940    -2280    -2679    -1867     -564 
     252      298       10      -98      247     1613     4433     7528 
    8810     7758     5508     3065      866     -650     -947       90 
    1779     3350     4550     5057     4437     2902     1348      805 
    1759     3522     4984     6181     7368     7393     5783     4062 
    3277     3142     3187     2934     2123      712    -1350    -3292 
   -3500    -1753       72      626      730     1516     2752     3969 
    5351     6708     7071     5935     3932     2212     1707     2585 
    4212     5448     4830     1764    -2097    -4031    -2982     -228 
    2405     4031     4653     4546     4027     3678     4014     4741 
    5131     4769     3304      699    -2002    -3469    -3227    -1624 
     329     1470     1501     1262     1791     3138     4595     5796 
    6669     6600     4966     2801     2033     2751     3628     4241 
    4749     4819     4058     2613     1092      -28     -687     -778 
      -8     1331     2297     2581     2606     2571     2604     2643 
    2278     1761     1782     2276     3075     4355     5598     5818 
    4517     2104       70     -166     1273     3187     4494     4706 
    3811     2242     1140     1529     3055     4766     6250     6770 
    5270     2208     -706    -2223    -1741      384     2582     3654 
    3761     3492     3190     2698     1394     -436    -1139      -36 
    1582     2855     4185     5425     5800     5166     3966     2574 
