Origin Time       2024/04/02 04:24:00
Lat.              40.133
Long.             141.712
Depth. (km)       71
Mag.              6.0
Station Code      AKT015
Station Lat.      39.3844
Station Long.     140.0519
Station Height(m) 5
Record Time       2024/04/02 04:25:25
Sampling Freq(Hz) 100Hz
Duration Time(s)  81
Dir.              N-S
Scale Factor      7845(gal)/8223790
Max. Acc. (gal)   4.125
Last Correction   2024/04/02 04:25:26
Memo.             
[...]
  -17914   -17784   -17648   -17572   -17583   -17662   -17774   -17860 
  -17871   -17826   -17775   -17729   -17680   -17648   -17635   -17618 
  -17618   -17667   -17749   -17847   -17942   -18011   -18030   -18007 
  -17995   -18045   -18138   -18191   -18129   -17960   -17759   -17608 
  -17525   -17491   -17481   -17497   -17562   -17662   -17736   -17730 
  -17628   -17489   -17405   -17424   -17537   -17725   -17959   -18184 
  -18339   -18415   -18469   -18538   -18598   -18617   -18589   -18574 
  -18632   -18736   -18796   -18770   -18674   -18527   -18365   -18266 
  -18274   -18310   -18210   -17875   -17382   -16954   -16769   -16830 
  -17024   -17215   -17288   -17193   -16997   -16842   -16808   -16885 
  -17023   -17172   -17328   -17547   -17832   -18100   -18289   -18395 
  -18455   -18532   -18670   -18858   -19006   -19006   -18805   -18453 
  -18045   -17652   -17320   -17097   -16992   -16966   -17023   -17203 
  -17493   -17815   -18064   -18139   -18065   -17983   -17992   -18092 
  -18246   -18404   -18509   -18538   -18500   -18416   -18307   -18204 
  -18108   -17990   -17853   -17749   -17755   -17894   -18112   -18307 
  -18385   -18320   -18145   -17896   -17640   -17473   -17427   -17451 
  -17471   -17450   -17393   -17351   -17409   -17577   -17737   -17776 
  -17691   -17586   -17560   -17610   -17645   -17633   -17613   -17626 
  -17697   -17826   -17955   -18002   -17938   -17798   -17644   -17545 
  -17531   -17570   -17632   -17740   -17911   -18111   -18315   -18538 
  -18777   -18997   -19148   -19198   -19172   -19137   -19090   -18974 
  -18771   -18527   -18279   -18026   -17760   -17486   -17223   -17012 
  -16900   -16883   -16937   -17064   -17244   -17429   -17609   -17807 
  -18003   -18127   -18135   -18057   -17980   -17988   -18114   -18328 
  -18547   -18677   -18658   -18499   -18299   -18202   -18258   -18366 
  -18392   -18296   -18125   -17937   -17780   -17674   -17591   -17482 
  -17347   -17244   -17244   -17352   -17482   -17566   -17631   -17713 
  -17829   -17990   -18173   -18331   -18458   -18577   -18689   -18778 
  -18841   -18889   -18901   -18821   -18601   -18253   -17884   -17622 
  -17470   -17346   -17197   -17001   -16754   -16519   -16398   -16449 
  -16630   -16837   -16993   -17086   -17132   -17184   -17338   -17643 
  -18049   -18449   -18719   -18808   -18783   -18750   -18727   -18701 
  -18686   -18689   -18670   -18585   -18430   -18258   -18175   -18196 
  -18184   -18036   -17795   -17537   -17304   -17162   -17181   -17329 
  -17478   -17502   -17361   -17131   -16966   -16976   -17165   -17428 
  -17608   -17649   -17679   -17814   -18031   -18227   -18318   -18288 
  -18202   -18126   -18061   -17999   -17973   -18002   -18058   -18117 
  -18153   -18168   -18193   -18238   -18268   -18281   -18341   -18469 
  -18601   -18651   -18593   -18496   -18454   -18476   -18484   -18418 
  -18262   -18050   -17822   -17551   -17219   -16906   -16707   -16652 
  -16723   -16879   -17069   -17243   -17355   -17443   -17616   -17892 
  -18168   -18362   -18481   -18554   -18615   -18684   -18763   -18837 
  -18854   -18759   -18585   -18395   -18216   -18104   -18125   -18268 
  -18434   -18507   -18399   -18126   -17815   -17585   -17466   -17437 
  -17454   -17456   -17400   -17278   -17153   -17111   -17197   -17329 
  -17346   -17184   -16934   -16722   -16623   -16664   -16831   -17085 
  -17377   -17686   -18006   -18301   -18569   -18843   -19110   -19296 
  -19349   -19286   -19147   -18995   -18897   -18844   -18767   -18615 
  -18392   -18141   -17890   -17649   -17435   -17244   -17073   -16945 
  -16881   -16911   -17055   -17269   -17477   -17683   -17937   -18238 
  -18509   -18665   -18692   -18625   -18470   -18204   -17841   -17447 
  -17126   -16941   -16869   -16868   -16930   -17046   -17161   -17212 
  -17238   -17296   -17352   -17400   -17510   -17716   -18013   -18388 
  -18762   -19024   -19147   -19170   -19144   -19111   -19033   -18835 
  -18536   -18249   -18075   -17998   -17922   -17826   -17756   -17744 
  -17813   -17937   -18019   -17946   -17682   -17356   -17147   -17113 
  -17240   -17506   -17855   -18195   -18463   -18651   -18787   -18875 
  -18891   -18824   -18682   -18492   -18293   -18112   -17983   -17949 
  -17995   -18038   -18007   -17888   -17712   -17512   -17321   -17150 
  -16999   -16933   -16993   -17119   -17262   -17459   -17705   -17944 
  -18127   -18210   -18184   -18106   -18003   -17849   -17717   -17753 
  -17952   -18135   -18169   -18044   -17828   -17668   -17685   -17805 
  -17845   -17710   -17450   -17238   -17231   -17432   -17718   -17955 
  -18053   -18030   -18003   -18061   -18177   -18268   -18242   -18061 
  -17809   -17640   -17663   -17857   -18111   -18316   -18447   -18544 
  -18648   -18769   -18885   -18924   -18805   -18557   -18292   -18100 
  -18011   -18002   -18030   -18050   -18009   -17848   -17541   -17122 
  -16733   -16548   -16614   -16838   -17061   -17185   -17257   -17382 
  -17604   -17932   -18347   -18736   -18963   -19009   -18963   -18898 
  -18823   -18702   -18517   -18310   -18169   -18134   -18137   -18071 
  -17909   -17712   -17537   -17383   -17226   -17082   -17034   -17166 
  -17464   -17780   -17940   -17905   -17772   -17658   -17631   -17743 
  -17987   -18229   -18299   -18187   -18003   -17845   -17757   -17756 
  -17813   -17832   -17745   -17591   -17483   -17548   -17802   -18063 
  -18127   -17994   -17798   -17660   -17678   -17872   -18146   -18400 
  -18608   -18716   -18632   -18364   -18054   -17848   -17790   -17845 
  -17917   -17922   -17882   -17830   -17764   -17702   -17689   -17702 
  -17716   -17747   -17799   -17826   -17815   -17847   -17982   -18145 
  -18230   -18249   -18250   -18223   -18161   -18099   -18068   -18021 
  -17882   -17686   -17597   -17713   -17928   -18064   -18075   -18023 
  -17918   -17774   -17663   -17587   -17478   -17346   -17263   -17244 
  -17259   -17281   -17292   -17300   -17332   -17367   -17338   -17209 
  -17059   -16995   -17068   -17246   -17440   -17594   -17775   -18049 
  -18349   -18571   -18704   -18805   -18913   -19024   -19091   -19032 
  -18836   -18603   -18404   -18218   -18056   -17984   -17983   -17952 
  -17855   -17733   -17639   -17599   -17601   -17575   -17473   -17340 
  -17267   -17308   -17491   -17798   -18110   -18320   -18436   -18516 
  -18608   -18715   -18806   -18829   -18715   -18478   -18222   -17996 
  -17820   -17734   -17739   -17745   -17694   -17620   -17581   -17572 
  -17595   -17653   -17710   -17694   -17578   -17419   -17324   -17358 
  -17487   -17631   -17702   -17629   -17435   -17230   -17112   -17113 
  -17185   -17261   -17332   -17462   -17705   -18033   -18341   -18542 
  -18635   -18639   -18534   -18314   -18054   -17825   -17616   -17390 
  -17173   -17022   -16941   -16876   -16777   -16641   -16502   -16403 
  -16352   -16332   -16379   -16517   -16713   -16956   -17255   -17550 
  -17741   -17798   -17782   -17775   -17807   -17868   -17963   -18091 
  -18185   -18135   -17915   -17635   -17444   -17416   -17477   -17466 
  -17281   -16968   -16691   -16663   -16960   -17440   -17886   -18146 
  -18219   -18250   -18370   -18569   -18769   -18891   -18910   -18890 
  -18878   -18829   -18739   -18688   -18693   -18711   -18739   -18804 
  -18887   -18924   -18851   -18692   -18557   -18559   -18701   -18897 
  -19091   -19255   -19373   -19458   -19515   -19526   -19469   -19322 
  -19087   -18835   -18652   -18536   -18422   -18295   -18160   -17999 
  -17874   -17864   -17968   -18117   -18266   -18392   -18470   -18499 
  -18486   -18469   -18481   -18523   -18561   -18544   -18443   -18270 
  -18092   -17992   -17987   -18007   -17963   -17795   -17513   -17227 
  -17077   -17123   -17319   -17548   -17732   -17919   -18158   -18395 
  -18555   -18623   -18609   -18567   -18576   -18678   -18839   -18989 
  -19089   -19141   -19163   -19176   -19182   -19141   -19020   -18812 
  -18555   -18288   -18037   -17825   -17656   -17504   -17362   -17284 
  -17332   -17525   -17783   -18006   -18196   -18407   -18604   -18709 
  -18736   -18762   -18821   -18916   -19056   -19241   -19450   -19650 
  -19789   -19828   -19793   -19705   -19531   -19241   -18890   -18574 
  -18326   -18111   -17887   -17636   -17344   -16996   -16599   -16175 
  -15753   -15372   -15076   -14883   -14767   -14675   -14575   -14481 
  -14469   -14611   -14894   -15277   -15715   -16139   -16494   -16749 
  -16931   -17113   -17348   -17651   -18022   -18395   -18650   -18721 
  -18648   -18528   -18428   -18355   -18256   -18052   -17725   -17374 
  -17143   -17070   -17073   -17105   -17180   -17317   -17564   -17932 
  -18335   -18661   -18855   -18931   -18928   -18889   -18879   -18966 
  -19151   -19388   -19627   -19807   -19886   -19888   -19849   -19789 
  -19718   -19641   -19538   -19346   -19003   -18562   -18146   -17818 
  -17556   -17301   -17018   -16702   -16359   -16024   -15749   -15596 
  -15635   -15888   -16286   -16754   -17208   -17548   -17720   -17751 
  -17702   -17614   -17512   -17412   -17354   -17370   -17429   -17433 
  -17319   -17131   -16966   -16861   -16749   -16559   -16295   -16020 
  -15766   -15519   -15294   -15182   -15255   -15469   -15741   -16052 
  -16421   -16810   -17188   -17555   -17882   -18168   -18470   -18789 
  -19032   -19144   -19163   -19202   -19329   -19475   -19527   -19434 
  -19217   -18940   -18627   -18252   -17828   -17448   -17196   -17082 
  -17053   -17054   -17041   -16976   -16875   -16819   -16903   -17147 
  -17450   -17679   -17824   -17979   -18235   -18601   -19012   -19373 
  -19587   -19593   -19421   -19167   -18954   -18851   -18844   -18827 
  -18669   -18350   -17949   -17514   -17081   -16731   -16575   -16634 
  -16814   -16987   -17124   -17257   -17385   -17494   -17597   -17726 
  -17894   -18053   -18162   -18200   -18172   -18131   -18126   -18168 
  -18226   -18246   -18195   -18069   -17902   -17743   -17624   -17524 
  -17385   -17167   -16920   -16764   -16803   -17062   -17485   -17991 
  -18515   -18997   -19349   -19525   -19577   -19592   -19603   -19616 
  -19620   -19602   -19561   -19503   -19444   -19446   -19568   -19769 
  -19967   -20131   -20241   -20252   -20136   -19930   -19695   -19449 
  -19175   -18844   -18459   -18079   -17747   -17446   -17107   -16710 
  -16372   -16241   -16336   -16576   -16902   -17278   -17683   -18067 
  -18360   -18524   -18613   -18702   -18813   -18900   -18893   -18747 
  -18493   -18225   -17999   -17780   -17504   -17176   -16877   -16677 
  -16599   -16603   -16610   -16580   -16507   -16389   -16276   -16244 
  -16287   -16379   -16533   -16752   -16987   -17185   -17329   -17443 
  -17570   -17725   -17872   -18000   -18135   -18276   -18426   -18638 
  -18894   -19098   -19215   -19296   -19367   -19392   -19321   -19160 
  -18986   -18879   -18875   -18962   -19120   -19352   -19599   -19747 
  -19719   -19491   -19106   -18675   -18327   -18111   -18002   -17960 
  -17944   -17909   -17845   -17748   -17593   -17423   -17319   -17301 
  -17332   -17351   -17348   -17375   -17435   -17471   -17439   -17325 
  -17149   -16943   -16785   -16760   -16870   -17030   -17134   -17130 
  -17038   -16961   -17019   -17223   -17467   -17644   -17722   -17726 
  -17685   -17604   -17498   -17442   -17524   -17774   -18123   -18454 
  -18678   -18766   -18736   -18604   -18380   -18107   -17837   -17612 
  -17486   -17508   -17653   -17864   -18090   -18281   -18381   -18369 
  -18307   -18289   -18330   -18354   -18257   -17992   -17608   -17145 
  -16654   -16232   -15908   -15645   -15423   -15234   -15083   -15010 
  -15029   -15115   -15267   -15445   -15564   -15584   -15573   -15641 
  -15815   -16046   -16289   -16492   -16594   -16588   -16586   -16749 
  -17173   -17795   -18442   -18991   -19445   -19840   -20223   -20596 
  -20868   -20922   -20737   -20382   -19986   -19687   -19554   -19552 
  -19581   -19587   -19588   -19646   -19766   -19847   -19749   -19457 
  -19083   -18723   -18415   -18152   -17872   -17554   -17227   -16924 
  -16694   -16614   -16730   -16991   -17273   -17505   -17729   -18002 
  -18308   -18555   -18631   -18504   -18242   -17911   -17514   -17053 
  -16565   -16127   -15781   -15484   -15191   -14940   -14836   -14983 
  -15395   -16009   -16758   -17594   -18451   -19192   -19656   -19820 
  -19788   -19615   -19309   -18905   -18451   -17977   -17505   -17084 
  -16775   -16586   -16461   -16372   -16344   -16393   -16511   -16721 
  -17038   -17429   -17855   -18301   -18748   -19192   -19651   -20115 
  -20530   -20854   -21073   -21196   -21234   -21205   -21122   -20962 
  -20684   -20262   -19734   -19219   -18823   -18543   -18377   -18315 
  -18300   -18273   -18227   -18180   -18131   -18110   -18139   -18165 
  -18114   -18018   -17963   -18000   -18157   -18458   -18890   -19377 
  -19838   -20224   -20536   -20767   -20861   -20765   -20511   -20229 
  -20070   -20088   -20185   -20204   -20024   -19630   -19140   -18736 
  -18524   -18484   -18507   -18462   -18284   -18003   -17699   -17419 
  -17161   -16920   -16707   -16553   -16474   -16444   -16464   -16576 
  -16776   -16976   -17050   -16910   -16610   -16339   -16252   -16374 
  -16611   -16856   -17076   -17280   -17432   -17501   -17528   -17595 
  -17734   -17921   -18126   -18351   -18585   -18767   -18848   -18840 
  -18740   -18503   -18099   -17545   -16927   -16330   -15765   -15195 
  -14632   -14129   -13760   -13589   -13653   -13937   -14335   -14696 
  -14947   -15083   -15130   -15156   -15237   -15445   -15816   -16293 
  -16789   -17257   -17639   -17930   -18183   -18420   -18565   -18485 
  -18153   -17675   -17189   -16785   -16503   -16330   -16247   -16244 
  -16310   -16465   -16740   -17101   -17443   -17663   -17728   -17659 
  -17478   -17224   -16970   -16827   -16904   -17228   -17736   -18306 
  -18793   -19125   -19333   -19487   -19631   -19737   -19731   -19599 
  -19384   -19113   -18766   -18338   -17872   -17446   -17143   -17026 
  -17099   -17316   -17622   -17956   -18227   -18374   -18384   -18280 
  -18131   -18063   -18148   -18342   -18531   -18627   -18624   -18577 
  -18527   -18470   -18400   -18346   -18355   -18495   -18817   -19307 
  -19863   -20345   -20682   -20920   -21154   -21404   -21590   -21629 
  -21551   -21459   -21413   -21428   -21477   -21483   -21386   -21228 
  -21095   -20993   -20819   -20456   -19926   -19319   -18652   -17894 
  -17089   -16368   -15849   -15576   -15560   -15781   -16181   -16669 
  -17126   -17424   -17500   -17375   -17147   -16906   -16668   -16389 
  -16039   -15670   -15390   -15317   -15484   -15803   -16178   -16598 
  -17051   -17475   -17786   -17964   -18068   -18171   -18319   -18530 
  -18816   -19151   -19422   -19492   -19310   -18927   -18409   -17833 
  -17297   -16883   -16563   -16206   -15750   -15294   -14994   -14970 
  -15275   -15869   -16613   -17292   -17713   -17822   -17726   -17608 
  -17614   -17757   -17925   -17971   -17818   -17558   -17355   -17290 
  -17355   -17501   -17694   -17955   -18307   -18681   -18974   -19170 
  -19292   -19353   -19359   -19295   -19148   -18927   -18671   -18443 
  -18262   -18068   -17787   -17439   -17120   -16908   -16800   -16750 
  -16727   -16733   -16789   -16924   -17119   -17301   -17427   -17535 
  -17671   -17817   -17918   -17955   -17963   -17965   -17938   -17849 
  -17709   -17585   -17583   -17768   -18088   -18418   -18621   -18609 
  -18393   -18069   -17740   -17486   -17354   -17301   -17219   -17026 
  -16733   -16445   -16260   -16239   -16399   -16714   -17092   -17405 
  -17570   -17640   -17722   -17833   -17872   -17745   -17483   -17213 
  -17042   -17023   -17143   -17311   -17450   -17582   -17771   -18069 
  -18513   -19103   -19786   -20447   -20961   -21273   -21384   -21304 
  -21049   -20653   -20151   -19575   -18991   -18517   -18234   -18063 
  -17902   -17809   -17906   -18238   -18708   -19079   -19153   -18882 
  -18327   -17636   -17057   -16781   -16769   -16827   -16872   -16988 
  -17266   -17668   -18048   -18270   -18303   -18207   -18103   -18087 
  -18175   -18312   -18418   -18455   -18474   -18477   -18409   -18272 
  -18121   -18049   -18127   -18281   -18337   -18203   -17879   -17400 
  -16857   -16394   -16097   -15952   -15911   -15925   -15973   -16042 
  -16121   -16170   -16164   -16146   -16194   -16383   -16775   -17352 
  -18022   -18674   -19232   -19637   -19874   -20005   -20074   -20050 
  -19911   -19722   -19577   -19542   -19624   -19789   -19963   -20106 
  -20221   -20247   -20025   -19487   -18773   -18142   -17767   -17620 
  -17498   -17199   -16722   -16274   -16055   -16097   -16291   -16511 
  -16665   -16738   -16761   -16768   -16771   -16738   -16664   -16633 
  -16776   -17134   -17579   -17876   -17907   -17795   -17733   -17788 
  -17915   -18060   -18175   -18216   -18145   -17960   -17737   -17585 
  -17589   -17784   -18139   -18549   -18858   -18952   -18887   -18806 
  -18732   -18593   -18376   -18122   -17869   -17653   -17521   -17485 
  -17516   -17539   -17466   -17301   -17190   -17293   -17618   -18057 
  -18477   -18766   -18864   -18792   -18584   -18291   -18046   -18034 
  -18320   -18793   -19269   -19600   -19722   -19669   -19533   -19400 
  -19302   -19175   -18920   -18522   -18046   -17536   -17014   -16548 
  -16220   -16039   -15958   -15948   -15982   -16012   -16009   -16001 
  -16071   -16276   -16610   -17047   -17570   -18119   -18581   -18854 
  -18951   -19030   -19265   -19658   -20042   -20224   -20112   -19769 
  -19376   -19095   -18945   -18827   -18628   -18319   -17926   -17462 
  -16958   -16511   -16190   -15985   -15839   -15705   -15565   -15427 
  -15298   -15180   -15134   -15245   -15507   -15835   -16170   -16497 
  -16839   -17242   -17726   -18292   -18918   -19530   -20001   -20228 
  -20213   -20073   -19959   -19957   -20011   -20012   -19905   -19697 
  -19449   -19251   -19152   -19049   -18778   -18272   -17590   -16853 
  -16195   -15720   -15454   -15353   -15331   -15342   -15419   -15618 
  -15940   -16339   -16731   -17046   -17236   -17255   -17095   -16819 
  -16546   -16389   -16375   -16443   -16510   -16552   -16587   -16626 
  -16663   -16707   -16845   -17158   -17647   -18215   -18738   -19111 
  -19305   -19381   -19465   -19630   -19832   -19973   -19992   -19859 
  -19573   -19184   -18773   -18387   -18044   -17744   -17471   -17207 
  -16993   -16919   -17043   -17351   -17743   -18072   -18266   -18389 
  -18566   -18833   -19114   -19307   -19364   -19299   -19153   -18952 
  -18694   -18373   -18025   -17759   -17709   -17936   -18361   -18798 
  -19097   -19206   -19149   -19067   -19155   -19429   -19727   -19904 
  -19936   -19917   -19939   -20011   -20082   -20061   -19835   -19387 
  -18825   -18273   -17798   -17410   -17092   -16812   -16582   -16433 
  -16380   -16406   -16453   -16479   -16483   -16505   -16563   -16636 
  -16696   -16760   -16858   -16993   -17130   -17269   -17435   -17593 
  -17670   -17662   -17658   -17725   -17851   -17984   -18090   -18129 
  -18083   -17979   -17867   -17810   -17855   -17941   -17952   -17863 
  -17720   -17498   -17130   -16611   -16032   -15534   -15218   -15126 
  -15284   -15712   -16352   -17055   -17635   -17961   -18044   -18009 
