Origin Time       2024/04/02 04:24:00
Lat.              40.133
Long.             141.712
Depth. (km)       71
Mag.              6.0
Station Code      AKT005
Station Lat.      40.2020
Station Long.     140.0286
Station Height(m) 17
Record Time       2024/04/02 04:25:03
Sampling Freq(Hz) 100Hz
Duration Time(s)  90
Dir.              E-W
Scale Factor      7845(gal)/8223790
Max. Acc. (gal)   3.563
Last Correction   2024/04/02 04:25:03
Memo.             
[...]
  -10512   -10424   -10312   -10272   -10345   -10473   -10539   -10474 
  -10324   -10260   -10453   -10891   -11408   -11885   -12262   -12447 
  -12378   -12087   -11664   -11219   -10860   -10624   -10490   -10403 
  -10311   -10243   -10295   -10540   -10948   -11411   -11780   -11928 
  -11799   -11419   -10913   -10408    -9946    -9543    -9281    -9231 
   -9409    -9756   -10125   -10369   -10444   -10358   -10111    -9706 
   -9196    -8712    -8405    -8361    -8563    -8885    -9215    -9514 
   -9790   -10073   -10384   -10708   -11048   -11441   -11886   -12262 
  -12352   -12051   -11476   -10833   -10307   -10003    -9927   -10072 
  -10451   -10979   -11483   -11797   -11812   -11511   -11011   -10503 
  -10183   -10180   -10470   -10886   -11242   -11441   -11480   -11453 
  -11433   -11396   -11326   -11213   -11052   -10868   -10679   -10467 
  -10247   -10075   -10003   -10038   -10131   -10219   -10287   -10365 
  -10497   -10698   -10926   -11091   -11132   -11091   -11059   -11074 
  -11110   -11079   -10894   -10609   -10363   -10245   -10255   -10309 
  -10339   -10380   -10500   -10671   -10785   -10737   -10520   -10233 
  -10019    -9979   -10143   -10478   -10930   -11466   -12020   -12455 
  -12640   -12541   -12228   -11807   -11414   -11192   -11199   -11385 
  -11657   -11915   -12091   -12164   -12125   -11969   -11745   -11530 
  -11335   -11065   -10609    -9994    -9385    -8928    -8679    -8630 
   -8753    -9012    -9378    -9803   -10235   -10619   -10899   -11057 
  -11099   -11040   -10885   -10660   -10432   -10274   -10184   -10095 
   -9957    -9757    -9535    -9359    -9292    -9387    -9684   -10153 
  -10727   -11269   -11601   -11627   -11391   -11053   -10805   -10781 
  -10999   -11350   -11674   -11853   -11789   -11472   -11006   -10512 
  -10081    -9811    -9767    -9971   -10408   -10964   -11425   -11616 
  -11520   -11221   -10854   -10552   -10365   -10260   -10174   -10039 
   -9907    -9918   -10103   -10365   -10566   -10619   -10547   -10412 
  -10257   -10129   -10095   -10203   -10461   -10832   -11230   -11576 
  -11808   -11881   -11789   -11584   -11362   -11218   -11192   -11313 
  -11597   -12002   -12376   -12540   -12441   -12179   -11855   -11508 
  -11145   -10773   -10440   -10212   -10108   -10114   -10246   -10507 
  -10836   -11134   -11287   -11198   -10874   -10440   -10066    -9875 
   -9909   -10135   -10446   -10712   -10845   -10833   -10748   -10686 
  -10673   -10697   -10756   -10854   -10994   -11141   -11205   -11095 
  -10770   -10227    -9541    -8891    -8496    -8496    -8896    -9568 
  -10314   -10930   -11277   -11296   -11030   -10623   -10241    -9994 
   -9931   -10084   -10396   -10702   -10867   -10885   -10822   -10750 
  -10685   -10625   -10604   -10666   -10836   -11107   -11408   -11576 
  -11487   -11191   -10839   -10551   -10359   -10206   -10057    -9969 
   -9979   -10066   -10199   -10342   -10420   -10365   -10170    -9884 
   -9594    -9400    -9378    -9578   -10002   -10573   -11151   -11612 
  -11920   -12114   -12235   -12301   -12329   -12341   -12341   -12285 
  -12151   -11973   -11781   -11547   -11227   -10843   -10481   -10201 
  -10023    -9963   -10041   -10251   -10527   -10789   -10984   -11101 
  -11152   -11165   -11149   -11097   -10989   -10816   -10602   -10408 
  -10292   -10300   -10480   -10810   -11179   -11462   -11576   -11476 
  -11175   -10740   -10308   -10007    -9898    -9961   -10141   -10397 
  -10693   -10914   -10970   -10862   -10636   -10385   -10200   -10142 
  -10250   -10509   -10818   -11082   -11250   -11308   -11246   -11055 
  -10756   -10438   -10216   -10166   -10292   -10486   -10612   -10608 
  -10461   -10197    -9904    -9706    -9686    -9819   -10034   -10296 
  -10578   -10822   -10957   -10932   -10759   -10501   -10253   -10080 
   -9980    -9942   -10018   -10241   -10551   -10839   -11013   -11033 
  -10928   -10790   -10721   -10756   -10832   -10875   -10887   -10872 
  -10793   -10635   -10419   -10176    -9998    -9977   -10129   -10415 
  -10762   -11082   -11313   -11404   -11306   -10998   -10531   -10046 
   -9705    -9607    -9761   -10095   -10500   -10864   -11109   -11245 
  -11341   -11438   -11538   -11619   -11685   -11747   -11788   -11782 
  -11704   -11511   -11199   -10844   -10554   -10415   -10457   -10628 
  -10837   -10997   -11043   -10957   -10806   -10678   -10602   -10574 
  -10596   -10663   -10763   -10867   -10937   -10963   -10952   -10916 
  -10878   -10860   -10859   -10886   -10989   -11191   -11416   -11510 
  -11383   -11114   -10849   -10648   -10496   -10361   -10227   -10106 
  -10050   -10123   -10324   -10573   -10777   -10913   -10987   -10998 
  -10971   -10976   -11070   -11241   -11441   -11601   -11685   -11723 
  -11749   -11728   -11603   -11352   -11030   -10706   -10417   -10162 
   -9927    -9695    -9470    -9316    -9301    -9414    -9612    -9880 
  -10219   -10620   -11032   -11348   -11472   -11391   -11161   -10843 
  -10480   -10079    -9651    -9271    -9019    -8905    -8927    -9089 
   -9358    -9660    -9913   -10093   -10288   -10536   -10801   -11020 
  -11122   -11125   -11079   -10993   -10870   -10768   -10750   -10821 
  -10944   -11068   -11133   -11110   -11021   -10909   -10831   -10802 
  -10801   -10832   -10910   -11006   -11067   -11049   -10978   -10952 
  -11037   -11191   -11322   -11375   -11334   -11219   -11074   -10939 
  -10839   -10759   -10678   -10632   -10670   -10782   -10894   -10887 
  -10708   -10397   -10046    -9749    -9555    -9444    -9408    -9474 
   -9663    -9964   -10363   -10840   -11307   -11623   -11708   -11566 
  -11279   -10991   -10801   -10683   -10534   -10289    -9990    -9755 
   -9701    -9872   -10204   -10575   -10905   -11184   -11437   -11677 
  -11894   -12047   -12101   -12086   -12056   -12023   -11950   -11799 
  -11537   -11195   -10862   -10604   -10438   -10334   -10238   -10137 
  -10080   -10110   -10201   -10301   -10397   -10513   -10647   -10768 
  -10859   -10901   -10891   -10898   -10982   -11109   -11194   -11164 
  -11021   -10839   -10686   -10557   -10431   -10343   -10345   -10449 
  -10632   -10872   -11146   -11414   -11622   -11719   -11682   -11534 
  -11314   -11057   -10795   -10563   -10396   -10316   -10347   -10504 
  -10727   -10929   -11056   -11118   -11179   -11283   -11384   -11425 
  -11383   -11268   -11128   -11005   -10897   -10801   -10725   -10660 
  -10629   -10675   -10777   -10863   -10848   -10665   -10353   -10033 
   -9780    -9570    -9369    -9231    -9252    -9477    -9842   -10242 
  -10600   -10878   -11074   -11213   -11294   -11307   -11260   -11171 
  -11102   -11125   -11230   -11321   -11281   -11098   -10841   -10601 
  -10424   -10288   -10152   -10004    -9849    -9713    -9690    -9846 
  -10145   -10534   -10990   -11457   -11835   -12002   -11898   -11595 
  -11194   -10750   -10342   -10071    -9964    -9975   -10041   -10110 
  -10172   -10258   -10439   -10794   -11330   -11902   -12309   -12438 
  -12326   -12086   -11803   -11502   -11223   -11030   -10947   -10930 
  -10910   -10843   -10721   -10539   -10274    -9941    -9590    -9270 
   -9040    -8984    -9104    -9327    -9580    -9786    -9875    -9879 
   -9887    -9944   -10012   -10007    -9894    -9725    -9563    -9474 
   -9533    -9738    -9988   -10183   -10262   -10197   -10023    -9822 
   -9682    -9684    -9842   -10081   -10308   -10457   -10515   -10525 
  -10562   -10638   -10666   -10620   -10596   -10685   -10910   -11203 
  -11427   -11489   -11403   -11241   -11084   -11018   -11092   -11257 
  -11431   -11568   -11684   -11785   -11827   -11797   -11755   -11739 
  -11724   -11670   -11551   -11372   -11133   -10859   -10627   -10509 
  -10513   -10640   -10890   -11176   -11354   -11329   -11097   -10746 
  -10396   -10110    -9900    -9780    -9776    -9895   -10107   -10343 
  -10525   -10617   -10628   -10579   -10496   -10377   -10231   -10088 
   -9976    -9888    -9809    -9786    -9896   -10138   -10454   -10782 
  -11037   -11157   -11144   -11037   -10905   -10822   -10794   -10751 
  -10654   -10492   -10262   -10002    -9764    -9572    -9433    -9359 
   -9396    -9528    -9640    -9657    -9618    -9595    -9653    -9798 
   -9998   -10223   -10434   -10574   -10579   -10390   -10026    -9551 
   -9088    -8819    -8845    -9081    -9369    -9612    -9737    -9684 
   -9493    -9271    -9151    -9220    -9458    -9786   -10129   -10435 
  -10689   -10895   -11045   -11124   -11152   -11196   -11317   -11479 
  -11601   -11650   -11638   -11607   -11577   -11523   -11425   -11299 
  -11182   -11115   -11086   -11056   -11010   -10930   -10829   -10762 
  -10748   -10747   -10704   -10623   -10581   -10659   -10898   -11232 
  -11523   -11695   -11740   -11704   -11681   -11672   -11585   -11396 
  -11151   -10889   -10654   -10478   -10328   -10166   -10029    -9973 
  -10037   -10208   -10422   -10631   -10814   -10959   -11087   -11225 
  -11331   -11348   -11253   -11107   -11036   -11138   -11388   -11681 
  -11934   -12094   -12174   -12217   -12252   -12290   -12310   -12245 
  -12108   -12020   -12050   -12170   -12343   -12495   -12569   -12587 
  -12602   -12679   -12880   -13201   -13555   -13844   -14048   -14175 
  -14224   -14207   -14131   -13996   -13791   -13559   -13378   -13289 
  -13274   -13293   -13269   -13161   -13035   -12951   -12899   -12883 
  -12916   -12985   -13093   -13251   -13425   -13581   -13679   -13676 
  -13574   -13396   -13171   -12949   -12734   -12487   -12181   -11821 
  -11427   -11020   -10642   -10328   -10083    -9953    -9975   -10057 
  -10102   -10057    -9922    -9788    -9757    -9822    -9887    -9871 
   -9787    -9694    -9620    -9568    -9501    -9371    -9200    -9027 
   -8907    -8893    -8953    -8973    -8864    -8625    -8333    -8081 
   -7925    -7866    -7858    -7832    -7743    -7611    -7476    -7358 
   -7276    -7246    -7294    -7437    -7665    -7952    -8282    -8588 
   -8803    -8966    -9143    -9312    -9458    -9606    -9710    -9729 
   -9683    -9613    -9593    -9683    -9859   -10037   -10154   -10233 
  -10354   -10557   -10801   -10999   -11075   -10998   -10836   -10705 
  -10659   -10671   -10719   -10768   -10785   -10801   -10872   -10968 
  -11007   -10937   -10787   -10640   -10543   -10442   -10292   -10127 
   -9980    -9863    -9799    -9794    -9795    -9749    -9661    -9594 
   -9602    -9666    -9747    -9855   -10018   -10230   -10436   -10561 
  -10596   -10612   -10644   -10665   -10639   -10558   -10417   -10207 
   -9946    -9676    -9448    -9292    -9186    -9111    -9090    -9130 
   -9194    -9256    -9297    -9346    -9460    -9629    -9792    -9883 
   -9832    -9637    -9381    -9167    -9065    -9073    -9155    -9308 
   -9551    -9860   -10176   -10459   -10686   -10840   -10951   -11061 
  -11210   -11395   -11572   -11704   -11793   -11858   -11886   -11836 
  -11699   -11497   -11244   -10937   -10619   -10366   -10235   -10224 
  -10351   -10648   -11036   -11407   -11705   -11896   -11969   -11965 
  -11950   -12002   -12187   -12495   -12856   -13201   -13504   -13745 
  -13915   -13991   -13961   -13888   -13848   -13856   -13879   -13876 
  -13774   -13535   -13236   -12962   -12738   -12571   -12421   -12244 
  -12077   -11998   -12031   -12164   -12399   -12721   -13084   -13402 
  -13576   -13575   -13413   -13103   -12661   -12133   -11565   -11001 
  -10484   -10052    -9752    -9633    -9683    -9805    -9883    -9877 
   -9814    -9763    -9752    -9693    -9471    -9092    -8702    -8476 
   -8484    -8635    -8781    -8804    -8699    -8529    -8357    -8230 
   -8152    -8122    -8167    -8290    -8465    -8677    -8910    -9116 
   -9238    -9259    -9234    -9207    -9224    -9320    -9471    -9637 
   -9772    -9809    -9711    -9532    -9374    -9320    -9413    -9649 
   -9971   -10276   -10480   -10594   -10665   -10670   -10581   -10420 
  -10212    -9990    -9819    -9764    -9864   -10108   -10430   -10743 
  -10998   -11222   -11492   -11839   -12195   -12447   -12517   -12397 
  -12172   -11958   -11809   -11731   -11688   -11607   -11437   -11199 
  -10935   -10669   -10420   -10166    -9855    -9497    -9188    -9018 
   -9005    -9100    -9235    -9379    -9556    -9799   -10083   -10334 
  -10489   -10498   -10386   -10211    -9998    -9774    -9575    -9427 
   -9359    -9397    -9556    -9829   -10168   -10524   -10843   -11074 
  -11213   -11256   -11200   -11055   -10813   -10505   -10195    -9933 
   -9787    -9794    -9882    -9972   -10045   -10100   -10166   -10266 
  -10396   -10569   -10801   -11111   -11522   -12002   -12465   -12822 
  -13015   -13004   -12793   -12455   -12108   -11862   -11776   -11846 
  -12032   -12260   -12460   -12592   -12656   -12663   -12641   -12595 
  -12505   -12394   -12282   -12147   -11996   -11838   -11647   -11415 
  -11165   -10936   -10778   -10720   -10760   -10881   -11029   -11138 
  -11196   -11211   -11187   -11126   -11029   -10908   -10778   -10646 
  -10497   -10346   -10199   -10038    -9861    -9693    -9568    -9522 
   -9582    -9724    -9888   -10012   -10068   -10083   -10092   -10080 
  -10008    -9891    -9795    -9763    -9769    -9783    -9792    -9791 
   -9767    -9710    -9607    -9445    -9236    -9061    -8996    -9062 
   -9255    -9529    -9801   -10012   -10135   -10180   -10211   -10285 
  -10451   -10735   -11099   -11511   -11942   -12352   -12725   -13069 
  -13408   -13755   -14087   -14341   -14447   -14358   -14068   -13614 
  -13066   -12486   -11905   -11371   -10951   -10706   -10658   -10777 
  -10956   -11083   -11128   -11101   -11040   -11022   -11091   -11205 
  -11317   -11394   -11422   -11438   -11483   -11577   -11697   -11781 
  -11792   -11728   -11593   -11404   -11172   -10903   -10654   -10500 
  -10500   -10655   -10913   -11209   -11508   -11809   -12109   -12349 
  -12464   -12429   -12235   -11869   -11360   -10752   -10110    -9545 
   -9154    -8938    -8881    -9003    -9301    -9718   -10165   -10542 
  -10736   -10721   -10586   -10430   -10293   -10131    -9864    -9463 
   -8962    -8445    -8028    -7835    -7935    -8278    -8714    -9104 
   -9410    -9668    -9877   -10008   -10018    -9876    -9625    -9355 
   -9166    -9136    -9278    -9509    -9715    -9842    -9898    -9900 
   -9867    -9813    -9778    -9791    -9848    -9936   -10075   -10304 
  -10629   -11001   -11371   -11722   -12047   -12314   -12451   -12403 
  -12194   -11893   -11530   -11091   -10570   -10019    -9521    -9119 
   -8824    -8657    -8619    -8708    -8947    -9360    -9926   -10566 
  -11153   -11534   -11647   -11568   -11437   -11375   -11406   -11481 
  -11549   -11593   -11587   -11466   -11244   -10990   -10767   -10642 
  -10700   -10971   -11387   -11820   -12129   -12222   -12128   -11948 
  -11778   -11677   -11646   -11655   -11674   -11696   -11727   -11749 
  -11716   -11626   -11484   -11284   -11047   -10822   -10638   -10484 
  -10377   -10368   -10521   -10863   -11314   -11750   -12048   -12155 
  -12144   -12102   -12062   -12024   -11985   -11969   -12012   -12133 
  -12302   -12424   -12422   -12295   -12109   -11966   -11934   -12006 
  -12160   -12341   -12467   -12468   -12330   -12100   -11839   -11601 
  -11419   -11321   -11311   -11353   -11385   -11354   -11233   -11043 
  -10820   -10602   -10439   -10350   -10314   -10307   -10268   -10107 
   -9836    -9547    -9336    -9279    -9382    -9566    -9717    -9736 
   -9556    -9192    -8738    -8290    -7911    -7677    -7655    -7852 
   -8199    -8565    -8815    -8893    -8851    -8780    -8721    -8626 
   -8457    -8253    -8068    -7942    -7908    -7962    -8033    -8086 
   -8167    -8349    -8661    -9109    -9693   -10392   -11164   -11924 
  -12549   -12914   -12946   -12663   -12143   -11546   -11075   -10863 
  -10898   -11063   -11210   -11236   -11155   -11071   -11034   -10968 
  -10762   -10403    -9976    -9620    -9459    -9528    -9718    -9864 
   -9868    -9720    -9475    -9243    -9104    -9045    -9022    -9011 
   -9001    -9015    -9063    -9109    -9097    -9040    -9051    -9265 
   -9726   -10374   -11086   -11680   -12015   -12083   -11950   -11665 
  -11256   -10762   -10242    -9768    -9432    -9308    -9402    -9656 
   -9983   -10316   -10609   -10847   -11040   -11183   -11249   -11240 
  -11209   -11234   -11358   -11535   -11684   -11747   -11705   -11573 
  -11353   -11045   -10673   -10309   -10069   -10014   -10106   -10322 
  -10679   -11148   -11676   -12240   -12779   -13170   -13336   -13309 
  -13161   -12964   -12766   -12545   -12213   -11755   -11241   -10732 
  -10307   -10046    -9950    -9898    -9751    -9477    -9188    -9045 
   -9119    -9352    -9655    -9961   -10235   -10473   -10696   -10895 
  -11001   -10962   -10840   -10766   -10852   -11107   -11433   -11716 
  -11932   -12097   -12236   -12391   -12561   -12675   -12690   -12669 
  -12722   -12884   -13062   -13066   -12771   -12224   -11577   -10980 
  -10503   -10110    -9740    -9393    -9147    -9086    -9234    -9528 
   -9913   -10372   -10860   -11348   -11815   -12228   -12522   -12636 
  -12576   -12437   -12274   -12051   -11726   -11319   -10930   -10658 
  -10521   -10494   -10551   -10674   -10917   -11356   -11967   -12606 
  -13059   -13181   -12958   -12501   -12001   -11622   -11394   -11272 
  -11199   -11117   -11014   -10935   -10928   -10998   -11101   -11156 
  -11117   -11037   -10987   -10966   -10960   -10964   -10967   -11041 
  -11296   -11715   -12140   -12384   -12347   -12079   -11722   -11352 
  -10980   -10623   -10274    -9944    -9687    -9526    -9444    -9414 
   -9393    -9390    -9470    -9660    -9944   -10250   -10494   -10659 
  -10777   -10890   -11059   -11294   -11550   -11765   -11877   -11851 
  -11740   -11639   -11588   -11556   -11514   -11468   -11410   -11296 
  -11087   -10816   -10552   -10331   -10156   -10046   -10017   -10054 
  -10129   -10218   -10303   -10334   -10258   -10042    -9718    -9401 
   -9202    -9162    -9274    -9487    -9742    -9995   -10193   -10301 
  -10326   -10330   -10374   -10455   -10543   -10608   -10612   -10523 
  -10334   -10080    -9817    -9601    -9497    -9549    -9749   -10034 
  -10300   -10440   -10384   -10092    -9576    -8922    -8272    -7749 
   -7400    -7225    -7183    -7180    -7140    -7080    -7065    -7183 
   -7535    -8149    -8919    -9703   -10388   -10897   -11240   -11477 
  -11620   -11658   -11637   -11657   -11774   -11966   -12148   -12278 
  -12384   -12510   -12663   -12808   -12869   -12796   -12600   -12337 
  -12073   -11843   -11637   -11454   -11358   -11410   -11589   -11767 
  -11772   -11518   -11084   -10643   -10339   -10241   -10318   -10486 
  -10692   -10932   -11214   -11493   -11673   -11736   -11792   -11961 
  -12263   -12634   -12974   -13186   -13250   -13221   -13146   -13024 
  -12873   -12692   -12467   -12202   -11882   -11464   -10941   -10353 
   -9794    -9367    -9101    -8982    -9011    -9173    -9404    -9603 
   -9668    -9551    -9308    -9034    -8808    -8726    -8847    -9147 
   -9560   -10017   -10423   -10694   -10762   -10609   -10292    -9898 
   -9532    -9292    -9221    -9310    -9479    -9579    -9490    -9215 
   -8868    -8604    -8523    -8607    -8781    -8977    -9146    -9266 
