Origin Time       2024/04/02 04:24:00
Lat.              40.133
Long.             141.712
Depth. (km)       71
Mag.              6.0
Station Code      AKT013
Station Lat.      39.6071
Station Long.     140.3209
Station Height(m) 39
Record Time       2024/04/02 04:24:59
Sampling Freq(Hz) 100Hz
Duration Time(s)  109
Dir.              N-S
Scale Factor      7845(gal)/8223790
Max. Acc. (gal)   5.219
Last Correction   2024/04/02 04:24:59
Memo.             
[...]
   10629    10054     9007     8024     7446     7222     7048     6750 
    6444     6292     6339     6474     6457     6216     6018     6178 
    6673     7119     7213     6945     6451     5929     5622     5628 
    5811     5965     6046     6143     6265     6366     6531     6928 
    7609     8394     8927     8976     8684     8438     8533     8937 
    9248     9115     8604     7993     7489     7261     7366     7601 
    7535     6864     5780     4793     4248     4206     4498     4779 
    4774     4500     4268     4499     5333     6466     7396     7809 
    7811     7740     7786     7944     8168     8413     8685     8980 
    9119     8903     8421     8005     7821     7717     7555     7366 
    7182     6976     6787     6687     6594     6276     5576     4557 
    3592     3149     3388     4114     4984     5724     6274     6629 
    6740     6735     6868     7307     8059     8883     9367     9293 
    8849     8467     8414     8573     8645     8482     8124     7697 
    7442     7582     7971     8167     7870     7152     6349     5752 
    5448     5443     5724     6156     6453     6389     6057     5744 
    5541     5343     5085     4888     4954     5359     6030     6894 
    7844     8679     9220     9466     9560     9597     9494     9159 
    8575     7755     6835     6131     5962     6297     6764     7068 
    7188     7142     6880     6471     6116     5919     5860     5877 
    5940     6111     6490     7020     7473     7688     7696     7623 
    7584     7578     7447     7078     6540     6004     5567     5292 
    5312     5707     6388     7134     7692     7994     8181     8336 
    8411     8336     8113     7871     7668     7339     6729     5904 
    5157     4776     4804     5143     5749     6475     7026     7218 
    7087     6879     6895     7230     7719     8139     8390     8486 
    8413     8143     7746     7335     6998     6766     6554     6300 
    6102     6079     6212     6400     6573     6786     7082     7283 
    7200     6940     6714     6551     6376     6232     6215     6334 
    6583     6909     7141     7130     6967     6922     7069     7223 
    7335     7608     8062     8318     8082     7595     7281     7244 
    7337     7453     7604     7857     8164     8305     8121     7716 
    7348     7175     7091     6862     6399     5818     5298     4903 
    4642     4656     5054     5634     6097     6359     6467     6466 
    6489     6718     7109     7371     7345     7210     7195     7319 
    7480     7615     7649     7524     7368     7379     7526     7560 
    7356     7087     6940     6933     7014     7125     7196     7146 
    6912     6517     6015     5447     5003     4955     5312     5746 
    5945     5944     6008     6308     6858     7551     8158     8465 
    8496     8457     8496     8565     8506     8229     7863     7593 
    7406     7177     6878     6542     6253     6127     6237     6459 
    6544     6403     6174     6029     6049     6197     6388     6639 
    6970     7231     7199     6837     6350     6027     6095     6569 
    7260     7955     8475     8719     8773     8827     8930     8911 
    8598     8093     7653     7427     7407     7454     7368     7049 
    6629     6311     6147     6088     6146     6308     6417     6326 
    6049     5728     5502     5412     5404     5444     5548     5698 
    5899     6235     6717     7203     7568     7827     8073     8305 
    8417     8301     7983     7653     7479     7426     7323     7136 
    7017     7061     7129     6986     6585     6129     5894     5989 
    6255     6475     6664     6970     7314     7360     6943     6308 
    5860     5807     6075     6484     6966     7499     7911     8048 
    8046     8158     8430     8676     8658     8301     7730     7187 
    6858     6747     6733     6728     6732     6740     6662     6471 
    6305     6316     6493     6710     6851     6880     6847     6794 
    6747     6782     6933     7069     7087     7083     7168     7276 
    7294     7249     7214     7204     7281     7514     7857     8237 
    8591     8727     8488     7985     7439     6979     6602     6238 
    5868     5575     5452     5463     5395     5120     4787     4688 
    4965     5389     5522     5262     4955     4939     5235     5683 
    6203     6771     7267     7580     7807     8135     8565     8904 
    8957     8698     8317     8052     7997     8010     7847     7518 
    7322     7402     7507     7360     7020     6671     6316     5927 
    5621     5498     5533     5633     5701     5711     5751     5935 
    6335     6907     7510     7974     8194     8166     8000     7901 
    8063     8434     8708     8645     8372     8183     8145     8137 
    8056     7801     7329     6793     6431     6338     6396     6381 
    6199     5940     5724     5617     5595     5556     5472     5471 
    5698     6129     6556     6856     7150     7557     7967     8212 
    8224     8040     7757     7450     7146     6921     6879     7014 
    7226     7435     7655     7946     8253     8399     8263     7881 
    7358     6793     6223     5671     5198     4878     4737     4774 
    4996     5348     5674     5884     6115     6519     7055     7570 
    7986     8303     8546     8710     8734     8567     8253     7997 
    8006     8217     8293     7997     7450     6936     6613     6490 
    6532     6644     6647     6440     6232     6326     6643     6751 
    6454     6060     5929     6049     6215     6358     6519     6691 
    6870     7087     7265     7295     7234     7190     7144     7061 
    6994     6974     6945     6885     6882     7034     7265     7379 
    7292     7105     6963     6937     6991     7042     7038     6918 
    6682     6501     6535     6648     6597     6362     6115     5961 
    5883     5895     5968     5996     6023     6189     6497     6902 
    7385     7821     8019     7923     7703     7566     7600     7777 
    7943     7912     7712     7570     7638     7865     8050     7965 
    7589     7125     6714     6300     5863     5568     5559     5775 
    6054     6253     6307     6268     6308     6569     6970     7290 
    7388     7308     7275     7520     7992     8321     8194     7626 
    6921     6490     6517     6806     7060     7132     7014     6804 
    6679     6758     6994     7268     7487     7607     7608     7496 
    7342     7225     7153     7113     7132     7175     7094     6835 
    6544     6434     6555     6750     6825     6766     6731     6887 
    7194     7391     7302     7014     6727     6539     6405     6265 
    6153     6145     6245     6407     6633     6886     7041     7065 
    7017     6906     6729     6559     6500     6608     6868     7225 
    7595     7896     8040     8009     7909     7832     7736     7547 
    7334     7256     7315     7314     7121     6824     6594     6521 
    6552     6536     6389     6170     5972     5877     5950     6168 
    6444     6674     6794     6859     6997     7206     7299     7157 
    6955     7007     7388     7808     7986     7904     7689     7480 
    7364     7302     7198     6998     6679     6299     5985     5802 
    5741     5827     6068     6340     6494     6493     6440     6435 
    6524     6729     6980     7102     6986     6759     6623     6652 
    6829     7099     7369     7553     7622     7593     7547     7534 
    7492     7398     7372     7484     7641     7722     7673     7484 
    7171     6795     6465     6250     6123     6027     5946     5915 
    6018     6328     6759     7132     7392     7603     7782     7900 
    7963     8012     8004     7846     7503     7078     6858     6997 
    7245     7258     7021     6762     6650     6678     6697     6562 
    6285     5985     5779     5799     6110     6605     7053     7206 
    6983     6608     6420     6558     6875     7161     7371     7573 
    7751     7736     7523     7366     7412     7520     7500     7310 
    7006     6736     6687     6878     7130     7226     7026     6651 
    6390     6396     6550     6569     6286     5865     5640     5814 
    6316     6852     7194     7372     7507     7651     7835     8083 
    8356     8513     8406     8078     7750     7609     7615     7614 
    7528     7310     6959     6578     6220     5906     5736     5829 
    6138     6388     6409     6404     6579     6818     6905     6822 
    6770     6918     7207     7454     7541     7488     7403     7338 
    7291     7296     7342     7315     7200     7090     6984     6843 
    6694     6594     6582     6708     6970     7191     7168     6941 
    6701     6573     6563     6566     6535     6588     6762     6866 
    6743     6502     6381     6477     6687     6845     6864     6762 
    6669     6743     7005     7314     7503     7539     7551     7636 
    7723     7699     7511     7187     6833     6562     6397     6315 
    6304     6354     6415     6448     6497     6598     6658     6633 
    6654     6832     7111     7298     7186     6829     6556     6624 
    6929     7136     7092     6983     6967     7005     7045     7055 
    6944     6741     6612     6656     6817     6924     6912     6899 
    7001     7161     7196     6971     6573     6197     6016     6146 
    6512     6816     6845     6705     6642     6793     7109     7427 
    7600     7597     7550     7628     7789     7797     7578     7319 
    7218     7303     7408     7360     7182     7034     7038     7227 
    7495     7635     7564     7422     7389     7431     7323     6968 
    6485     6065     5875     5968     6204     6380     6386     6264 
    6142     6157     6401     6778     7024     7048     7049     7188 
    7376     7469     7514     7665     7933     8109     8036     7870 
    7874     8070     8197     8051     7711     7395     7213     7106 
    6957     6768     6612     6489     6338     6177     6123     6282 
    6606     6875     6906     6732     6523     6392     6334     6316 
    6385     6606     6853     6890     6733     6651     6813     7138 
    7391     7447     7393     7358     7380     7379     7276     7180 
    7280     7553     7763     7724     7473     7172     6943     6832 
    6828     6890     6984     7033     6941     6670     6228     5746 
    5447     5400     5525     5818     6277     6770     7150     7399 
    7588     7728     7732     7566     7273     6951     6724     6623 
    6575     6554     6574     6642     6743     6763     6586     6311 
    6116     6052     6066     6138     6349     6702     7014     7200 
    7365     7535     7628     7661     7754     7951     8152     8212 
    8085     7870     7695     7626     7654     7709     7670     7479 
    7292     7279     7315     7163     6821     6531     6443     6494 
    6600     6713     6739     6681     6690     6840     7048     7184 
    7236     7314     7442     7503     7449     7416     7623     8082 
    8525     8671     8506     8236     8068     8050     8024     7840 
    7592     7439     7418     7461     7499     7537     7605     7665 
    7628     7415     7051     6750     6729     7001     7415     7794 
    7936     7750     7442     7322     7429     7607     7742     7778 
    7704     7616     7612     7609     7464     7163     6833     6619 
    6523     6438     6288     6083     5877     5734     5634     5517 
    5363     5209     5154     5294     5562     5713     5597     5309 
    5036     4920     5007     5202     5367     5517     5798     6216 
    6592     6821     6976     7126     7290     7497     7735     7908 
    7905     7716     7528     7611     7978     8355     8486     8310 
    7871     7284     6724     6313     6029     5749     5429     5238 
    5312     5539     5784     6045     6259     6362     6404     6413 
    6331     6110     5768     5459     5404     5651     5992     6079 
    5734     5167     4756     4750     5117     5525     5649     5479 
    5236     5144     5274     5455     5448     5219     4955     4896 
    5152     5594     5961     6137     6246     6478     6870     7281 
    7519     7492     7345     7349     7603     7892     7874     7457 
    6916     6590     6610     6856     7083     7196     7326     7555 
    7803     7992     8110     8120     8013     7940     8085     8418 
    8716     8775     8561     8230     8019     7977     7893     7612 
    7273     7098     7106     7118     6999     6799     6704     6813 
    6988     7088     7175     7322     7457     7537     7636     7825 
    8051     8185     8158     8064     8064     8198     8336     8326 
    8179     8009     7963     8082     8235     8270     8117     7798 
    7369     6893     6454     6156     6041     6042     6019     5854 
    5556     5298     5244     5325     5393     5479     5694     6073 
    6593     7152     7551     7688     7638     7523     7454     7543 
    7789     8055     8197     8210     8222     8367     8680     9051 
    9297     9350     9321     9297     9177     8827     8272     7636 
    7069     6647     6288     5880     5481     5258     5256     5363 
    5440     5364     5124     4949     5100     5555     6049     6369 
    6566     6889     7470     8193     8810     9126     9140     9057 
    9113     9416     9829    10068     9987     9645     9155     8599 
    7946     7057     5918     4791     4064     3909     4052     3978 
    3408     2560     1844     1485     1483     1692     1980     2305 
    2660     3061     3588     4329     5285     6313     7256     8020 
    8621     9169     9736    10253    10624    10809    10789    10656 
   10574    10589    10593    10444    10110     9653     9154     8684 
    8210     7614     6933     6358     5988     5737     5414     4895 
    4240     3673     3391     3385     3508     3649     3786     3971 
    4324     4907     5584     6161     6648     7226     8041     8993 
    9733    10039    10058    10130    10474    10968    11246    11079 
   10592    10041     9483     8800     7921     6866     5718     4634 
    3753     3140     2775     2612     2608     2694     2833     3099 
    3566     4233     5063     5979     6841     7557     8100     8526 
    8972     9513    10084    10531    10727    10717    10692    10763 
   10913    11068    11084    10783    10092     9040     7739     6411 
    5321     4687     4592     4847     5076     5076     4997     5086 
    5360     5678     6015     6536     7318     8191     8937     9499 
    9930    10134     9919     9363     8807     8552     8654     8877 
    8922     8711     8391     8075     7686     7101     6346     5575 
    4904     4386     4048     3909     4000     4287     4629     4857 
    4823     4502     4108     3927     4048     4367     4716     5030 
    5325     5602     5832     5988     6058     6103     6268     6706 
    7457     8341     9055     9459     9602     9509     9184     8710 
    8232     7923     7900     8093     8264     8209     7894     7460 
    7090     6843     6642     6399     6058     5580     5019     4635 
    4712     5236     5834     6093     5937     5683     5699     6087 
    6648     7165     7581     7865     7923     7781     7634     7736 
    8297     9261    10241    10836    10906    10589    10116     9524 
    8664     7534     6386     5487     4865     4448     4283     4390 
    4569     4552     4244     3747     3237     2821     2562     2609 
    3150     4187     5433     6615     7700     8748     9732    10551 
   11084    11261    11141    10887    10593    10260     9921     9639 
    9435     9278     9080     8734     8259     7749     7165     6320 
    5177     4018     3149     2639     2474     2695     3294     4108 
    4939     5660     6226     6648     6937     7110     7268     7516 
    7886     8332     8756     9011     8993     8760     8499     8325 
    8208     8067     7746     7051     6014     4951     4213     3981 
    4143     4364     4446     4502     4696     5001     5282     5499 
    5706     5922     6158     6458     6845     7294     7720     8013 
    8199     8488     8966     9506    10000    10390    10567    10377 
    9733     8777     7831     7192     6956     6928     6833     6623 
    6457     6466     6563     6525     6312     6097     5979     5933 
    5946     6076     6412     6898     7263     7342     7369     7738 
    8496     9251     9585     9412     8880     8189     7533     7103 
    6933     6833     6651     6451     6361     6424     6586     6655 
    6419     5895     5375     5148     5266     5559     5873     6211 
    6627     7063     7385     7523     7533     7561     7690     7842 
    7890     7780     7537     7272     7137     7242     7484     7566 
    7322     6855     6459     6426     6755     7098     7128     6853 
    6550     6421     6408     6304     6002     5621     5401     5516 
    5954     6494     6886     7177     7659     8430     9194     9636 
    9748     9633     9285     8721     8083     7587     7388     7470 
    7686     7869     7898     7765     7473     7015     6490     6089 
    5921     5886     5755     5444     5140     5054     5205     5471 
    5699     5826     5926     6108     6372     6650     6890     7091 
    7271     7346     7200     6901     6654     6555     6497     6376 
    6253     6270     6421     6528     6498     6394     6266     6157 
    6188     6439     6825     7164     7403     7684     8135     8710 
    9190     9293     8883     8120     7356     6821     6444     6089 
    5819     5763     5894     6045     6068     5996     5944     5850 
    5560     5147     4934     5179     5803     6494     6999     7242 
    7244     7087     6959     7041     7276     7389     7261     7096 
    7196     7662     8266     8611     8519     8189     7942     7938 
    8113     8302     8351     8214     7966     7723     7530     7346 
    7153     6968     6851     6940     7338     7977     8603     8922 
    8748     8085     7206     6565     6413     6601     6824     6945 
    6979     6928     6762     6519     6307     6249     6442     6863 
    7295     7410     7034     6353     5767     5530     5563     5598 
    5456     5117     4785     4891     5644     6700     7501     7823 
    7857     7850     7854     7807     7686     7572     7562     7663 
    7767     7730     7497     7094     6544     5891     5212     4614 
    4239     4186     4372     4536     4433     4067     3719     3697 
    4048     4506     4787     4895     5096     5613     6388     7164 
    7639     7645     7369     7195     7231     7265     7140     6964 
    6897     6897     6905     7025     7315     7607     7645     7392 
    7045     6809     6797     6975     7118     6975     6538     6045 
    5719     5516     5356     5440     5931     6583     7011     7149 
    7254     7600     8264     9107     9872    10350    10453    10228 
    9817     9377     9062     8932     8946     9066     9236     9337 
    9273     8985     8478     7878     7477     7539     7983     8419 
    8554     8414     8178     7975     7727     7273     6700     6300 
    6195     6235     6278     6370     6628     6960     7138     7107 
    6999     6978     7230     7808     8537     9252     9904    10381 
