Origin Time       2024/04/02 04:24:00
Lat.              40.133
Long.             141.712
Depth. (km)       71
Mag.              6.0
Station Code      AKT014
Station Lat.      39.5950
Station Long.     140.5573
Station Height(m) 56
Record Time       2024/04/02 04:24:58
Sampling Freq(Hz) 100Hz
Duration Time(s)  99
Dir.              E-W
Scale Factor      7845(gal)/8223790
Max. Acc. (gal)   19.896
Last Correction   2024/04/02 04:24:58
Memo.             
[...]
   -4816    -3213    -2381    -2829    -2667    -1625    -1163    -1382 
   -1404    -1287    -1557    -1885    -1983    -2656    -3881    -4371 
   -3888    -3107    -2501    -2300    -2350    -2494    -2813    -3250 
   -3581    -3531    -3088    -2236    -1007     -174       14      569 
    1409     1048     -653    -2254    -3142    -3875    -4488    -4569 
   -4533    -5034    -5421    -4490    -2809    -2182    -2710    -3001 
   -2606    -1981    -1300     -741     -909    -1912    -2706    -2690 
   -2502    -2386    -2142    -2072    -2146    -1777    -1177    -1321 
   -2007    -2209    -2463    -3429    -3901    -3323    -2771    -2457 
   -1804    -1443    -2215    -3408    -3929    -3680    -3153    -2955 
   -3006    -2485    -1580    -1533    -2478    -3466    -4179    -4608 
   -4152    -2776    -1594    -1024     -437       48     -139     -839 
   -1586    -2015    -2158    -2324    -2505    -2674    -2859    -2790 
   -2297    -1755    -1740    -2238    -2760    -3163    -3441    -3461 
   -3300    -3202    -3364    -3755    -3971    -3650    -2913    -2074 
   -1509    -1490    -1489    -1009     -905    -1841    -2751    -2828 
   -2913    -3271    -2948    -2443    -2971    -3784    -3811    -3311 
   -2409    -1224     -745    -1344    -2089    -2282    -2070    -1975 
   -2454    -3258    -3572    -3213    -2756    -2384    -1782    -1113 
    -723     -621    -1165    -2485    -3586    -3892    -3889    -3628 
   -2830    -1912    -1533    -1738    -2030    -2227    -2656    -3285 
   -3604    -3399    -3175    -3426    -3727    -3638    -3526    -3419 
   -2820    -1949    -1529    -1551    -1317     -761     -610     -977 
   -1220    -1258    -1493    -1755    -1877    -2413    -3231    -3229 
   -2538    -2338    -2565    -2673    -3030    -3433    -3045    -2359 
   -2439    -2990    -3060    -2594    -2164    -2054    -2350    -2974 
   -3572    -3900    -3854    -3566    -3424    -3203    -2357    -1239 
    -486     -190     -487    -1489    -2683    -3406    -3392    -2733 
   -1790    -1125    -1111    -1525    -2134    -2875    -3242    -3145 
   -3211    -3438    -3504    -3449    -3141    -2679    -2474    -2446 
   -2529    -2964    -3300    -2822    -1910    -1503    -1741    -2053 
   -2245    -2589    -3072    -3607    -4135    -4132    -3373    -2471 
   -1795    -1059     -376     -481    -1252    -1482    -1039    -1071 
   -1655    -1818    -1671    -2135    -3002    -3423    -3618    -3960 
   -4050    -3856    -3635    -3186    -2562    -2215    -2313    -2660 
   -3041    -3296    -3167    -2558    -1745     -911     -261     -315 
   -1023    -1603    -1872    -2408    -3288    -4012    -4456    -4600 
   -4124    -3184    -2511    -2330    -2077    -1471    -1123    -1355 
   -1783    -2266    -2679    -2668    -2195    -1524    -1209    -1580 
   -2166    -2388    -2220    -2254    -2830    -3180    -2898    -2735 
   -3028    -3296    -3115    -2559    -2054    -1825    -1996    -2562 
   -2994    -3072    -3096    -3136    -3219    -3318    -3121    -2648 
   -2397    -2566    -2641    -2253    -1831    -1779    -2016    -2385 
   -2646    -2517    -2054    -1590    -1398    -1675    -2216    -2241 
   -1618    -1310    -1690    -2164    -2597    -3190    -3532    -3350 
   -3177    -3325    -3335    -2925    -2442    -2263    -2323    -2366 
   -2385    -2334    -1964    -1579    -1659    -1818    -1688    -1686 
   -1899    -1861    -1610    -1838    -2770    -3491    -3403    -3084 
   -2754    -2417    -2567    -2897    -2844    -2668    -2554    -2513 
   -2658    -2886    -3029    -3145    -3416    -3472    -2717    -1545 
    -696     -515    -1086    -1796    -2031    -2084    -2238    -2385 
   -2519    -2525    -2118    -1518    -1503    -2172    -2781    -3046 
   -3242    -3497    -3667    -3396    -2677    -2126    -1984    -1759 
   -1474    -1567    -1660    -1466    -1668    -2481    -3188    -3454 
   -3443    -3208    -2893    -2835    -3095    -3349    -3277    -2735 
   -1984    -1763    -2127    -2319    -2434    -2932    -3179    -2722 
   -2118    -1804    -1817    -2074    -2529    -3207    -3805    -3960 
   -3731    -3168    -2273    -1433    -1237    -1817    -2488    -2712 
   -2808    -2890    -2613    -2208    -2145    -2317    -2511    -2659 
   -2587    -2461    -2733    -3250    -3557    -3642    -3491    -2889 
   -2030    -1549    -1680    -1884    -1804    -1729    -1873    -2258 
   -2884    -3565    -4056    -4125    -3774    -3410    -3065    -2336 
   -1429     -980    -1140    -1601    -1988    -2101    -1939    -1674 
   -1684    -2107    -2546    -2776    -2941    -3111    -3125    -2667 
   -1962    -1696    -1771    -1733    -1726    -1896    -2236    -2739 
   -3067    -3153    -3310    -3238    -2628    -2042    -1877    -1803 
   -1713    -1930    -2316    -2342    -2188    -2373    -2608    -2423 
   -2107    -2041    -2137    -2338    -2872    -3632    -3997    -3731 
   -3335    -3202    -3091    -2687    -2146    -1790    -1722    -1962 
   -2436    -2625    -2203    -1895    -2181    -2293    -1764    -1217 
   -1251    -1674    -2062    -2374    -2585    -2698    -2963    -3114 
   -2829    -2710    -3049    -3229    -3125    -3036    -2736    -2112 
   -1625    -1598    -1810    -1876    -1811    -1934    -2200    -2278 
   -2149    -2068    -2057    -1887    -1710    -2008    -2675    -3165 
   -3248    -2883    -2230    -1777    -1818    -2043    -2012    -1949 
   -2262    -2525    -2357    -2282    -2652    -3121    -3472    -3915 
   -4315    -3908    -2689    -1852    -1921    -2176    -2068    -1706 
   -1350    -1255    -1674    -2546    -3449    -3912    -3763    -3322 
   -2822    -2112    -1391    -1151    -1333    -1626    -2212    -3207 
   -4037    -4433    -4611    -4189    -3025    -2068    -1772    -1526 
   -1071     -911    -1355    -2126    -2824    -3204    -3234    -2933 
   -2238    -1413     -970    -1008    -1306    -1726    -2195    -2546 
   -2793    -3229    -3769    -4078    -4151    -3996    -3657    -3294 
   -2829    -2228    -1696    -1426    -1475    -1763    -2127    -2458 
   -2695    -2764    -2824    -3134    -3416    -3308    -2986    -2708 
   -2592    -2640    -2722    -2778    -2641    -2249    -2092    -2513 
   -3045    -3046    -2443    -1698    -1291    -1336    -1696    -2218 
   -2606    -2619    -2532    -2654    -2814    -2864    -2835    -2756 
   -2717    -2678    -2496    -2265    -2091    -1795    -1309    -1008 
   -1131    -1291    -1256    -1436    -2045    -2758    -3267    -3484 
   -3446    -3321    -3208    -2965    -2501    -2114    -2018    -1973 
   -1872    -1911    -2185    -2608    -2860    -2602    -1925    -1308 
   -1174    -1422    -1742    -2261    -3082    -3797    -3937    -3430 
   -2655    -1976    -1529    -1601    -2191    -2678    -2722    -2656 
   -2767    -2934    -2952    -2920    -2928    -2581    -1782    -1269 
   -1433    -1711    -1625    -1584    -2261    -3261    -3676    -3689 
   -3784    -3661    -3156    -2627    -2274    -1856    -1406    -1568 
   -2254    -2639    -2737    -2984    -3258    -3138    -2413    -1629 
   -1591    -2311    -3198    -3703    -3777    -3724    -3414    -2678 
   -1998    -1647    -1468    -1618    -2058    -2207    -1975    -1966 
   -2343    -2656    -2894    -3265    -3257    -2619    -2026    -1755 
   -1561    -1864    -2963    -3838    -3586    -2833    -2471    -2485 
   -2583    -2725    -2725    -2405    -2176    -2435    -2744    -2490 
   -1919    -1587    -1467    -1443    -1717    -2182    -2543    -2856 
   -3113    -3184    -3202    -3001    -2297    -1736    -1925    -2234 
   -2081    -1884    -1980    -2249    -2743    -3577    -4452    -4845 
   -4509    -3639    -2652    -1972    -1763    -1760    -1864    -2195 
   -2303    -1846    -1354    -1128    -1100    -1549    -2358    -2817 
   -2600    -2037    -1863    -2326    -2646    -2335    -1846    -1575 
   -1597    -1971    -2560    -2967    -3060    -3159    -3237    -2901 
   -2343    -1992    -1834    -1790    -1750    -1740    -2128    -2735 
   -2763    -2209    -1825    -1744    -1533    -1329    -1722    -2597 
   -3302    -3670    -3699    -3194    -2353    -1911    -2296    -2725 
   -2380    -1831    -1857    -2305    -2681    -2749    -2610    -2478 
   -2566    -2751    -2570    -2199    -2209    -2421    -2408    -2276 
   -2362    -2825    -3487    -3915    -3620    -2500    -1345    -1270 
   -2226    -3140    -3454    -3252    -2625    -1782     -893     -198 
    -345    -1530    -2976    -3963    -4459    -4687    -4684    -4256 
   -3445    -2532    -1563     -758     -658    -1278    -2088    -2488 
   -2262    -1962    -2080    -2504    -3013    -3291    -3161    -3009 
   -3161    -3322    -3057    -2520    -2181    -2080    -2095    -2378 
   -2921    -3373    -3445    -3181    -2826    -2565    -2473    -2521 
   -2477    -2142    -1826    -2039    -2659    -3126    -3292    -3399 
   -3412    -3014    -2266    -1634    -1428    -1696    -2262    -2651 
   -2620    -2563    -2894    -3294    -3186    -2551    -1644     -810 
    -716    -1429    -2187    -2662    -2944    -3075    -3080    -2752 
   -2170    -1784    -1522    -1259    -1328    -1686    -1908    -2070 
   -2515    -3053    -3443    -3847    -3897    -3129    -2313    -2299 
   -2776    -3271    -3674    -3693    -3140    -2525    -2265    -2004 
   -1605    -1443    -1451    -1325    -1208    -1310    -1637    -2073 
   -2255    -1902    -1350    -1171    -1293    -1246    -1321    -1856 
   -2182    -2235    -2659    -3022    -2849    -2551    -2170    -1485 
    -864     -834    -1464    -2419    -3338    -4059    -4496    -4602 
   -4415    -3947    -3339    -2909    -2593    -2181    -1898    -1949 
   -2284    -2880    -3501    -3655    -3218    -2563    -1934    -1266 
    -824     -963    -1339    -1512    -1813    -2651    -3541    -3743 
   -3461    -3145    -2552    -1764    -1431    -1620    -1995    -2528 
   -3202    -3681    -3646    -3335    -3213    -3183    -2964    -2656 
   -2525    -2671    -2992    -3364    -3599    -3532    -3396    -3308 
   -2997    -2566    -2196    -1810    -1753    -2165    -2419    -2245 
   -2026    -2146    -2604    -2902    -2833    -2855    -3029    -2862 
   -2420    -2201    -2128    -1887    -1790    -2172    -2539    -2450 
   -2390    -2752    -3094    -2955    -2461    -2101    -2172    -2444 
   -2614    -2479    -1765     -731     -170     -195     -367     -785 
   -1606    -2351    -2636    -2532    -2182    -1980    -2353    -2975 
   -3207    -3052    -2905    -2795    -2574    -2421    -2386    -2155 
   -1779    -1483    -1208    -1121    -1514    -2191    -2758    -3102 
   -3454    -3925    -4105    -3897    -3670    -3218    -2361    -1660 
   -1409    -1456    -1795    -2315    -2793    -3084    -3040    -2744 
   -2654    -3154    -3859    -3993    -3757    -3720    -3508    -3087 
   -3208    -3747    -4159    -4498    -4499    -3763    -2887    -2664 
   -2782    -2484    -1831    -1182     -460      198      395      174 
    -139     -438     -907    -1668    -2324    -2340    -1962    -1726 
   -1436     -807     -211      163      503      515      -81     -739 
   -1139    -1790    -2687    -3210    -3416    -3716    -4056    -4218 
   -3985    -3190    -2085    -1406    -1568    -1915    -1768    -1567 
   -1807    -2106    -2020    -1722    -1507    -1193     -718     -544 
    -665     -670     -781    -1433    -2370    -2898    -2906    -3134 
   -4052    -5301    -6439    -7420    -8341    -8877    -8496    -7592 
   -6883    -6139    -5244    -4617    -3923    -2679    -1340     -565 
    -380     -355     -351     -457     -367       54      336      194 
    -137     -406     -905    -2103    -3561    -4372    -4476    -4455 
   -4677    -5062    -5378    -5637    -5788    -5466    -4824    -4540 
   -4538    -4263    -3924    -4048    -4423    -4456    -4145    -3824 
   -3221    -2145    -1202     -622       68     1034     2127     3156 
    3848     4113     4039     3801     3628     3586     3534     3314 
    3071     2979     2565     1254     -830    -3439    -6458    -9456 
  -11884   -13436   -14110   -13900   -12829   -11672   -11426   -11846 
  -11954   -11299    -9887    -7877    -5671    -3898    -2813    -1787 
    -283     1436     3298     5539     7717     9120     9752     9940 
    9747     9300     8943     8519     7219     4495      526    -4093 
   -8571   -12239   -14750   -15722   -14812   -12360    -9351    -6559 
   -4104    -1915       22     1750     2716     2241     1069      598 
    1036     1429      687    -1416    -3962    -5798    -6524    -6727 
   -7115    -7385    -6512    -4266    -1718       81     1367     2868 
    4384     5216     5232     4446     2758      812     -625    -1977 
   -3821    -5528    -6281    -6343    -6428    -6943    -8127    -9462 
   -9590    -7790    -4720    -2002    -1156    -2513    -5352    -8356 
  -10138   -10297    -9151    -6713    -3163      429     2890     3789 
    3148     1621      866     1911     3855     5209     5242     3805 
    1237    -1080    -1343      670     3253     4866     5109     3514 
    -515    -6176   -11234   -13636   -12518    -8631    -4557    -3145 
   -4730    -7060    -7751    -5734    -1638     2494     4710     4085 
     675    -4035    -7281    -7203    -4661    -2182    -1594    -3113 
   -5703    -7441    -6223    -1232     5981    12258    15098    14006 
    9934     4747      723    -1055    -1417    -1931    -3835    -7427 
  -12001   -16606   -20393   -22682   -23306   -22185   -18927   -13797 
   -8419    -4587    -2789    -2408    -2282     -780     3057     8025 
   11707    12658    10667     6232     1162    -2020    -2370    -1007 
     441      571    -1325    -4506    -7379    -8626    -7620    -4785 
   -1406     1290     2728     3084     2562      608    -3175    -7780 
  -11214   -12163   -11137    -9562    -7955    -5938    -3477     -811 
    2181     5275     7346     7488     5784     2732     -816    -3470 
   -3986    -2104      784     2025      218    -3163    -5582    -5945 
   -4827    -3028     -633     2193     4091     3335     -217    -4762 
   -7987    -8735    -7847    -7415    -8688   -10827   -12121   -11890 
  -10547    -8623    -6484    -4425    -2516     -788      506     1464 
    2810     5046     7591     8938     8016     5390     2577      535 
    -642     -977     -706     -939    -2667    -5576    -8461   -10093 
   -9915    -8128    -5166    -1840      594     1453     1174      491 
    -341    -1314    -2110    -2312    -1985    -1503    -1224    -1858 
   -4040    -6949    -8834    -9046    -8113    -6625    -5162    -4318 
   -4185    -4288    -4120    -3527    -2658    -1517       36     1676 
    2647     2648     2126     1443      612      -35     -160      -43 
    -128     -787    -2407    -4761    -7038    -8541    -8716    -7511 
   -5908    -5054    -5108    -5305    -4550    -2161     1213     3828 
    4538     3485     1318    -1321    -3790    -5355    -5521    -4423 
   -2427     -345      507       17     -587     -518      184     1012 
    1237      598     -719    -2511    -4591    -6585    -7816    -8039 
   -7831    -7454    -6546    -5151    -3694    -2428    -1447     -577 
     295     1065     1777     2208     1849      841     -144     -627 
    -677     -854    -1339    -1719    -1861    -1954    -2126    -2473 
   -2903    -3233    -3585    -4278    -5537    -7122    -8059    -7480 
   -5482    -3042    -1547    -1443    -1679    -1605    -1848    -2743 
   -3869    -4878    -5524    -5682    -5644    -5621    -5343    -4487 
   -3153    -1922    -1337    -1383    -1813    -2648    -3838    -4993 
   -5687    -5645    -5078    -4698    -4714    -4421    -3226    -1412 
     386     1815     2637     2579     1786      683     -677    -2346 
   -3870    -4657    -4564    -3831    -2771    -1692     -814      -44 
     812     1421     1127      -97    -1559    -2632    -3153    -3202 
   -3033    -3261    -4275    -5390    -5455    -4014    -1671      260 
     907      639      230      282     1378     3144     4232     4008 
    2722      526    -2328    -4853    -5968    -5652    -4660    -3966 
   -4635    -6633    -8584    -9563    -9576    -8488    -6378    -4361 
   -3462    -3466    -3678    -3746    -3593    -3345    -3414    -4050 
   -4839    -5219    -4847    -3653    -2301    -1594    -1364    -1138 
   -1143    -1472    -1402     -706      -87      -48     -680    -1831 
   -2835    -2959    -2253    -1208       45     1325     1931     1530 
     498     -892    -2509    -3901    -4729    -5069    -4903    -4160 
   -2960    -1264      797     2479     3284     3385     2999     2299 
    1524      780       86     -629    -1445    -1993    -1775    -1058 
    -525     -537    -1134    -1984    -2524    -2373    -1566     -476 
     425      541     -558    -2614    -4887    -6586    -7335    -7403 
   -7067    -6332    -5418    -4893    -5109    -5729    -6243    -6656 
   -7128    -7480    -7537    -7308    -6748    -5915    -5109    -4575 
   -4365    -4236    -3707    -2573    -1051      460     1620     2274 
    2336     1815      949      -33    -1038    -1880    -2346    -2465 
   -2451    -2567    -2949    -3514    -4306    -5586    -7192    -8422 
   -8752    -8363    -7874    -7654    -7473    -6812    -5267    -3001 
    -928       74       14     -473     -653     -166      529      768 
     650      550      352      -82     -552     -882    -1097    -1174 
    -878      -43     1097     2141     2871     3159     2693     1252 
    -765    -2631    -4016    -4774    -4596    -3846    -3609    -4128 
   -4716    -4993    -4887    -4361    -3744    -3338    -2835    -1854 
    -765     -179     -126     -334     -693     -980     -864     -494 
    -217      193      919     1302      751     -367    -1310    -1860 
   -2272    -2702    -3441    -5061    -7361    -9069    -9259    -8179 
   -6589    -5059    -3896    -3221    -3029    -3214    -3572    -3920 
   -4018    -3503    -2384    -1132       36     1152     1912     1935 
    1431     1001      814      619      378      -75    -1105    -2444 
   -3458    -3986    -4213    -4282    -4198    -3970    -3680    -3215 
   -2451    -1686    -1215    -1028    -1138    -1522    -2158    -2840 
   -3037    -2745    -2442    -2289    -2525    -3314    -4121    -4379 
   -4064    -3483    -2937    -2558    -2458    -2585    -2485    -2095 
   -2006    -2174    -2020    -1738    -1933    -2762    -3933    -5027 
   -5827    -6141    -5872    -5449    -5282    -5277    -5350    -5557 
   -5725    -5548    -4962    -4147    -3400    -3002    -3030    -3350 
   -3576    -3283    -2552    -1777    -1125     -778    -1161    -2326 
   -3565    -4120    -3878    -3200    -2505    -1950    -1513    -1347 
   -1424    -1186     -363      580     1317     1919     2033     1059 
    -807    -2477    -2994    -2440    -1611    -1233    -1665    -2652 
   -3424    -3372    -2586    -1846    -1818    -2265    -2592    -2662 
   -2608    -2560    -2542    -2447    -2551    -3211    -3951    -4055 
   -3518    -2520    -1162     -133     -216    -1036    -1420     -926 
    -233       35     -125     -670    -1471    -1985    -1796     -994 
     122     1139     1435      677     -587    -1486    -1768    -1566 
   -1034     -608     -842    -1772    -2718    -3244    -3847    -4830 
