Origin Time       2024/04/02 04:24:00
Lat.              40.133
Long.             141.712
Depth. (km)       71
Mag.              6.0
Station Code      AKT021
Station Lat.      39.9940
Station Long.     140.4035
Station Height(m) 119
Record Time       2024/04/02 04:24:56
Sampling Freq(Hz) 100Hz
Duration Time(s)  84
Dir.              U-D
Scale Factor      7845(gal)/8223790
Max. Acc. (gal)   3.029
Last Correction   2024/04/02 04:24:57
Memo.             
[...]
   15255    15255    15255    15256    15253    15252    15255    15253 
   15250    15253    15253    15253    15255    15253    15253    15253 
   15253    15255    15255    15255    15255    15253    15253    15256 
   15256    15253    15252    15253    15253    15252    15252    15253 
   15255    15255    15253    15252    15253    15255    15253    15255 
   15255    15250    15249    15255    15256    15253    15253    15253 
   15253    15255    15255    15253    15253    15255    15255    15255 
   15253    15255    15256    15255    15253    15252    15252    15255 
   15255    15253    15252    15253    15255    15253    15252    15253 
   15256    15256    15253    15255    15255    15253    15253    15253 
   15252    15253    15253    15253    15253    15255    15253    15253 
   15255    15255    15253    15252    15253    15255    15255    15255 
   15256    15253    15253    15256    15255    15255    15255    15253 
   15253    15255    15255    15255    15256    15255    15252    15252 
   15255    15255    15252    15252    15255    15256    15256    15255 
   15253    15256    15255    15250    15252    15255    15255    15255 
   15255    15255    15255    15253    15255    15255    15253    15255 
   15256    15255    15255    15256    15257    15255    15255    15256 
   15256    15255    15253    15255    15255    15252    15253    15252 
   15250    15253    15256    15253    15250    15253    15255    15255 
   15255    15255    15256    15256    15253    15253    15255    15255 
   15255    15253    15252    15255    15256    15255    15255    15253 
   15253    15256    15256    15252    15252    15252    15253    15255 
   15255    15253    15253    15256    15255    15255    15256    15255 
   15255    15256    15256    15253    15250    15255    15255    15252 
   15255    15257    15253    15252    15253    15253    15253    15253 
   15253    15256    15256    15255    15252    15252    15253    15257 
   15256    15252    15253    15255    15255    15255    15253    15252 
   15252    15253    15253    15252    15253    15253    15252    15252 
   15253    15253    15253    15256    15256    15253    15252    15255 
   15256    15252    15252    15256    15256    15252    15253    15256 
   15256    15256    15256    15256    15256    15256    15252    15250 
   15250    15252    15253    15255    15253    15253    15253    15253 
   15255    15253    15253    15256    15256    15253    15255    15255 
   15255    15256    15255    15250    15255    15259    15255    15253 
   15256    15256    15255    15256    15255    15253    15253    15257 
   15256    15253    15253    15253    15253    15256    15253    15252 
   15256    15255    15252    15255    15255    15252    15252    15253 
   15255    15255    15250    15252    15256    15255    15252    15255 
   15256    15252    15250    15253    15255    15253    15255    15253 
   15253    15255    15253    15253    15252    15253    15256    15256 
   15255    15253    15252    15252    15253    15255    15255    15253 
   15255    15255    15253    15255    15256    15253    15253    15256 
   15253    15252    15256    15257    15255    15255    15255    15253 
   15253    15253    15252    15252    15256    15256    15253    15252 
   15253    15252    15252    15253    15253    15253    15253    15256 
   15256    15252    15250    15252    15255    15253    15252    15252 
   15255    15253    15252    15255    15256    15253    15253    15256 
   15256    15256    15255    15250    15252    15253    15255    15256 
   15253    15250    15252    15253    15252    15252    15253    15250 
   15250    15253    15255    15255    15255    15256    15253    15250 
   15252    15253    15253    15255    15255    15252    15252    15252 
   15252    15256    15253    15250    15253    15256    15255    15253 
   15252    15253    15255    15252    15252    15253    15255    15252 
   15255    15257    15256    15256    15256    15255    15253    15253 
   15255    15255    15256    15256    15256    15253    15252    15252 
   15250    15253    15253    15252    15253    15255    15253    15252 
   15253    15252    15252    15253    15255    15255    15255    15252 
   15249    15252    15253    15252    15250    15253    15255    15255 
   15255    15253    15253    15253    15253    15255    15253    15255 
   15256    15252    15253    15256    15255    15252    15253    15255 
   15252    15252    15255    15256    15252    15253    15256    15253 
   15252    15255    15255    15256    15255    15253    15253    15253 
   15253    15255    15256    15256    15255    15255    15255    15255 
   15253    15253    15252    15250    15252    15253    15252    15252 
   15255    15255    15253    15253    15255    15255    15255    15253 
   15252    15250    15252    15256    15256    15255    15253    15253 
   15255    15255    15252    15252    15255    15255    15253    15255 
   15255    15253    15253    15255    15252    15250    15252    15252 
   15255    15253    15252    15253    15255    15255    15253    15250 
   15252    15255    15252    15252    15253    15250    15252    15256 
   15252    15250    15253    15255    15252    15253    15255    15250 
   15250    15255    15253    15250    15252    15253    15253    15255 
   15255    15253    15253    15252    15253    15256    15256    15252 
   15253    15256    15255    15255    15256    15256    15252    15250 
   15253    15255    15253    15253    15255    15256    15252    15250 
   15255    15255    15252    15252    15253    15255    15255    15253 
   15253    15252    15250    15253    15253    15253    15255    15253 
   15252    15253    15255    15256    15253    15252    15252    15253 
   15255    15253    15252    15252    15252    15255    15255    15252 
   15253    15255    15252    15252    15255    15253    15253    15253 
   15252    15252    15252    15252    15252    15253    15253    15253 
   15255    15256    15256    15255    15250    15252    15252    15252 
   15253    15253    15255    15256    15255    15255    15255    15255 
   15255    15253    15250    15252    15255    15255    15253    15252 
   15255    15256    15253    15253    15252    15250    15253    15256 
   15253    15255    15255    15253    15253    15256    15255    15252 
   15252    15252    15252    15252    15250    15252    15255    15253 
   15255    15253    15252    15252    15252    15253    15253    15250 
   15252    15255    15253    15252    15252    15250    15252    15253 
   15252    15252    15255    15253    15253    15253    15253    15253 
   15253    15253    15256    15259    15255    15255    15255    15252 
   15250    15253    15253    15252    15253    15253    15253    15255 
   15256    15253    15253    15255    15255    15252    15253    15256 
   15255    15253    15253    15255    15255    15253    15252    15252 
   15253    15253    15253    15255    15256    15256    15255    15252 
   15253    15253    15253    15255    15255    15252    15250    15253 
   15255    15253    15253    15252    15255    15257    15255    15252 
   15255    15252    15252    15255    15253    15253    15255    15255 
   15255    15255    15255    15255    15253    15253    15255    15253 
   15256    15256    15252    15252    15253    15253    15253    15253 
   15255    15255    15255    15253    15253    15255    15253    15253 
   15252    15252    15255    15253    15253    15255    15253    15252 
   15255    15255    15253    15253    15253    15253    15252    15253 
   15253    15253    15253    15253    15252    15252    15255    15255 
   15252    15252    15253    15253    15253    15253    15253    15252 
   15253    15253    15253    15252    15253    15256    15255    15252 
   15253    15256    15255    15253    15253    15256    15255    15253 
   15253    15252    15252    15255    15255    15252    15252    15255 
   15253    15252    15252    15253    15253    15252    15252    15255 
   15255    15252    15250    15252    15252    15255    15255    15253 
   15255    15253    15252    15253    15253    15252    15252    15253 
   15253    15252    15253    15253    15255    15253    15253    15255 
   15255    15252    15253    15255    15255    15256    15253    15250 
   15252    15252    15250    15255    15256    15255    15255    15255 
   15253    15253    15255    15256    15253    15252    15253    15255 
   15252    15252    15255    15256    15255    15255    15252    15255 
   15257    15255    15252    15253    15253    15253    15255    15252 
   15252    15255    15253    15252    15253    15255    15255    15253 
   15253    15255    15253    15252    15253    15255    15253    15253 
   15253    15253    15255    15256    15255    15253    15253    15253 
   15252    15253    15255    15253    15252    15253    15255    15255 
   15252    15250    15252    15252    15252    15253    15252    15253 
   15256    15256    15253    15253    15253    15252    15252    15252 
   15253    15256    15255    15252    15255    15255    15253    15255 
   15255    15253    15253    15255    15256    15255    15253    15255 
   15253    15253    15256    15256    15255    15255    15255    15253 
   15255    15255    15252    15253    15256    15255    15253    15255 
   15255    15255    15255    15255    15255    15255    15253    15250 
   15250    15255    15256    15256    15255    15255    15255    15255 
   15252    15253    15256    15255    15252    15255    15255    15252 
   15253    15255    15252    15250    15253    15256    15256    15255 
   15252    15252    15255    15253    15252    15253    15255    15253 
   15250    15253    15253    15252    15255    15256    15252    15252 
   15255    15253    15252    15255    15256    15253    15252    15255 
   15255    15255    15255    15253    15252    15252    15252    15252 
   15253    15252    15253    15255    15250    15252    15255    15253 
   15252    15256    15257    15253    15253    15255    15253    15255 
   15255    15255    15253    15253    15250    15252    15253    15255 
   15252    15253    15253    15255    15252    15252    15253    15252 
   15250    15250    15253    15256    15256    15253    15252    15255 
   15253    15253    15255    15255    15253    15255    15255    15255 
   15255    15255    15253    15253    15253    15255    15255    15253 
   15255    15252    15249    15252    15255    15253    15253    15253 
   15252    15252    15255    15252    15248    15250    15255    15253 
   15252    15253    15255    15253    15252    15253    15256    15255 
   15252    15252    15253    15253    15252    15253    15255    15252 
   15250    15255    15256    15255    15253    15253    15253    15253 
   15252    15250    15253    15253    15253    15255    15253    15250 
   15252    15253    15252    15252    15253    15255    15253    15253 
   15253    15253    15252    15250    15250    15253    15253    15252 
   15252    15252    15252    15252    15252    15253    15255    15253 
   15253    15255    15255    15253    15255    15255    15253    15252 
   15250    15252    15255    15253    15252    15255    15253    15252 
   15253    15253    15252    15253    15250    15250    15256    15256 
   15252    15252    15253    15253    15253    15253    15253    15253 
   15252    15253    15253    15252    15252    15253    15257    15255 
   15252    15253    15253    15250    15253    15253    15253    15253 
   15255    15255    15255    15252    15252    15253    15255    15256 
   15256    15253    15253    15253    15255    15255    15255    15255 
   15253    15255    15255    15252    15252    15255    15255    15253 
   15255    15253    15253    15256    15255    15253    15255    15253 
   15252    15256    15255    15250    15252    15253    15250    15250 
   15255    15253    15252    15253    15252    15253    15256    15255 
   15252    15253    15256    15255    15253    15255    15253    15252 
   15253    15255    15253    15252    15253    15256    15256    15252 
   15252    15253    15252    15252    15253    15253    15255    15256 
   15256    15255    15255    15252    15252    15252    15252    15253 
   15253    15252    15250    15253    15253    15250    15252    15256 
   15252    15250    15256    15255    15250    15253    15255    15253 
   15255    15255    15252    15249    15252    15253    15250    15250 
   15252    15252    15253    15253    15250    15252    15253    15253 
   15252    15250    15250    15255    15255    15250    15252    15256 
   15257    15260    15265    15277    15292    15309    15334    15364 
   15396    15434    15473    15511    15549    15574    15585    15579 
   15554    15514    15457    15391    15321    15256    15209    15184 
   15187    15217    15269    15341    15421    15477    15500    15514 
   15547    15641    15780    15896    15940    15919    15862    15805 
   15781    15789    15822    15857    15858    15807    15691    15484 
   15205    14905    14621    14380    14207    14125    14129    14188 
   14227    14207    14176    14219    14381    14635    14890    15024 
   14975    14840    14794    14922    15186    15472    15669    15750 
   15785    15870    16086    16416    16723    16906    16993    17043 
   17023    16839    16465    16001    15588    15321    15241    15357 
   15619    15894    16009    15858    15483    15022    14584    14176 
   13799    13490    13246    12995    12712    12471    12305    12175 
   12078    12100    12348    12852    13536    14277    14913    15288 
   15357    15196    14951    14690    14404    14211    14326    14775 
   15375    15974    16509    16872    16945    16668    16137    15614 
   15368    15475    15803    16224    16671    17004    17126    17078 
   16923    16760    16664    16541    16317    16059    15828    15619 
   15338    14955    14608    14467    14581    14796    14910    14881 
   14775    14679    14592    14443    14260    14099    13892    13599 
   13450    13675    14091    14401    14627    14967    15547    16247 
   16699    16699    16389    15985    15657    15547    15696    15928 
   15981    15843    15785    15962    16293    16571    16679    16687 
   16644    16486    16221    15934    15569    15188    15163    15557 
   15952    16065    15849    15462    15221    15115    14882    14526 
   14324    14520    15044    15492    15552    15263    14931    14806 
   14808    14743    14554    14200    13725    13320    13099    13090 
   13367    13910    14532    15017    15290    15430    15515    15623 
   15769    15839    15944    16333    16823    17007    16748    16164 
   15530    15048    14769    14782    15078    15426    15601    15479 
   15094    14735    14806    15310    15784    15965    15930    15904 
   16141    16483    16580    16445    16306    16278    16077    15412 
   14646    14121    13786    13834    14447    15234    15628    15502 
   15022    14180    13147    12530    12563    13089    13926    14644 
   15155    15738    16217    16340    16135    15666    15151    14713 
   14293    14092    14258    14652    15255    16028    16785    17346 
   17518    17231    16596    15988    15893    16317    16839    17163 
   17120    16703    15993    14982    13910    13290    13451    14284 
   15232    15735    15799    15660    15282    14821    14561    14327 
   14053    13987    14172    14501    14737    14631    14454    14636 
   15180    15677    15483    14557    13599    12985    12738    13108 
   14208    15568    16686    17340    17273    16754    16503    16376 
   15977    15560    15309    15136    15052    15201    15452    15338 
   14962    14743    14609    14725    15319    15720    15790    16116 
   16364    16425    16654    16632    16362    16187    15834    15549 
   15682    15607    15009    14512    14532    14758    14755    14454 
   13922    13558    13915    14620    14887    14709    14520    14597 
   15001    15678    16286    16372    16133    15946    15726    15438 
   15203    15246    15688    15950    15581    14975    14535    14589 
   15259    15750    15523    15169    15106    15084    14913    14702 
   14604    14546    14554    14986    15696    15849    15400    15063 
   14872    14787    15273    16054    16426    16623    16891    16580 
   15630    14976    14936    15084    15259    15372    15263    15190 
   15319    15300    15117    14820    14268    14073    14638    15245 
   15496    15615    15465    14995    14739    14854    15088    15318 
   15142    14627    14490    14639    14755    15071    15309    15209 
   15222    15358    15458    15654    15718    15537    15307    15310 
   15727    16117    16113    15892    15601    15358    15203    15087 
   14998    14993    15151    15341    15375    15318    15430    15650 
   15417    14747    14675    15411    15822    15622    15302    14779 
   14326    14278    14384    14605    14862    15029    15190    15133 
   14843    14634    14594    14731    14949    15306    15908    16183 
   15861    15511    15418    15503    15534    15245    14874    14866 
   15124    15215    15075    15014    15291    15813    16287    16534 
   16302    15564    14912    14747    14967    15348    15608    15707 
   15672    15462    15377    15579    15858    16109    16117    15813 
   15471    15076    14679    14463    14386    14477    14644    14887 
   15151    15079    14882    14797    14728    14836    15014    15037 
   15047    15140    15218    15265    15430    15661    15839    15873 
   15714    15639    15546    15175    14863    14671    14673    14971 
   14958    14655    14690    14925    15018    14935    14924    15330 
   15842    15736    15188    14939    14871    14673    14731    15099 
   15321    15375    15543    15824    15966    15847    15650    15579 
   15496    15253    15107    15120    15041    15029    15202    15267 
   15232    15330    15426    15373    15284    15013    14720    14994 
   15419    15469    15716    16033    15726    15299    15341    15512 
   15430    15190    15291    15768    16040    16043    15962    15866 
   15905    15826    15635    15738    15789    15461    15178    15210 
   15248    14994    14732    14696    14729    14858    15010    15005 
   14910    14831    14909    15087    15202    15261    15037    14639 
   14609    14887    15098    15105    15047    15225    15560    15757 
   15731    15368    14771    14350    14169    14283    14863    15352 
   15453    15596    15720    15754    15714    15395    15117    15041 
   14933    14867    14833    14747    14721    14797    14933    15088 
   15307    15720    16038    15913    15785    15959    16120    16174 
   16166    16164    16255    16240    16087    15917    15607    15309 
   15306    15290    15098    15124    15225    14949    14539    14376 
   14370    14432    14631    14794    14804    14808    14808    14968 
   15329    15358    15171    15210    15006    14553    14548    14864 
   15129    15396    15591    15569    15445    15352    15325    15379 
   15363    15284    15333    15361    15404    15568    15573    15487 
   15469    15421    15333    15094    14809    14789    14916    15047 
   15222    15404    15576    15585    15404    15290    15111    14796 
   14724    14912    15184    15546    15835    15965    15881    15465 
