Origin Time       2024/04/02 04:24:00
Lat.              40.133
Long.             141.712
Depth. (km)       71
Mag.              6.0
Station Code      AKT023
Station Lat.      39.1464
Station Long.     140.7161
Station Height(m) 277
Record Time       2024/04/02 04:25:00
Sampling Freq(Hz) 100Hz
Duration Time(s)  97
Dir.              N-S
Scale Factor      7845(gal)/8223790
Max. Acc. (gal)   8.705
Last Correction   2024/04/02 04:25:00
Memo.             
[...]
   15527    15487    15573    15604    15541    15526    15614    15743 
   15835    15890    15961    15994    15843    15468    15026    14700 
   14527    14530    14797    15310    15876    16266    16411    16448 
   16478    16474    16502    16625    16726    16730    16607    16228 
   15630    15113    14831    14642    14490    14562    14897    15210 
   15284    15209    15107    14993    14948    15067    15313    15589 
   15735    15664    15615    15882    16278    16375    16186    16069 
   16090    16079    16059    16082    16021    15820    15666    15722 
   15830    15803    15793    15994    16221    16166    15844    15566 
   15554    15703    15800    15827    15871    15962    16058    16060 
   15965    15915    15890    15739    15550    15492    15495    15412 
   15264    15198    15299    15553    15935    16306    16475    16568 
   16792    16960    16756    16227    15693    15315    15003    14763 
   14763    14952    15103    15157    15202    15342    15645    16069 
   16515    16891    17115    17105    16791    16260    15758    15438 
   15346    15485    15734    15932    15985    15855    15628    15499 
   15599    15862    16089    16182    16231    16301    16341    16314 
   16244    16175    16163    16221    16305    16332    16195    15849 
   15388    15032    14983    15229    15488    15457    15168    14943 
   14875    14814    14881    15302    15957    16534    16860    16857 
   16540    16132    15873    15731    15603    15499    15391    15287 
   15322    15473    15523    15464    15461    15491    15462    15461 
   15531    15553    15434    15241    15142    15221    15336    15319 
   15217    15167    15194    15209    15110    14932    14852    14947 
   15084    15217    15453    15736    15885    15931    16020    16123 
   16156    16160    16135    16065    16075    16200    16272    16175 
   16005    15923    15907    15805    15620    15518    15603    15828 
   16006    15955    15673    15292    14982    14917    15097    15349 
   15607    15838    15905    15834    15795    15788    15736    15700 
   15747    15839    15917    15946    15943    16038    16279    16461 
   16438    16356    16359    16399    16410    16401    16379    16313 
   16190    16032    15898    15886    16043    16278    16424    16393 
   16255    16098    15915    15674    15410    15267    15337    15520 
   15705    15840    15815    15616    15423    15341    15323    15346 
   15445    15547    15523    15446    15506    15637    15630    15500 
   15373    15294    15304    15421    15526    15553    15608    15695 
   15678    15703    15966    16272    16406    16456    16510    16603 
   16764    16877    16807    16555    16181    15743    15309    14995 
   14974    15280    15688    15839    15607    15264    15109    15118 
   15164    15272    15404    15371    15121    14848    14752    14858 
   15084    15403    15789    16139    16343    16411    16465    16526 
   16468    16329    16335    16488    16576    16573    16594    16636 
   16634    16510    16146    15622    15269    15196    15142    14890 
   14546    14411    14620    14978    15241    15390    15584    15903 
   16135    16101    16023    16177    16457    16614    16553    16302 
   15948    15616    15375    15236    15229    15392    15646    15826 
   15894    15912    15919    16023    16256    16432    16452    16403 
   16249    15982    15855    15952    15931    15537    14939    14446 
   14274    14496    14931    15296    15468    15410    15184    15064 
   15213    15464    15642    15780    15924    16058    16217    16379 
   16303    15907    15573    15673    16071    16347    16252    15885 
   15504    15215    15010    14966    15084    15287    15599    15940 
   16124    16224    16403    16576    16603    16514    16413    16289 
   16056    15763    15545    15414    15249    14970    14689    14590 
   14721    15021    15348    15522    15545    15492    15418    15444 
   15577    15653    15615    15596    15724    15908    16017    16168 
   16459    16713    16812    16839    16788    16546    16096    15581 
   15275    15384    15724    15936    15969    15958    15927    15886 
   15839    15778    15750    15759    15730    15597    15396    15276 
   15295    15344    15460    15739    15996    16038    15971    15871 
   15704    15589    15681    15938    16202    16368    16432    16409 
   16272    16073    15974    16040    16162    16281    16421    16465 
   16231    15785    15433    15407    15673    15969    16016    15826 
   15692    15699    15634    15466    15391    15404    15284    15022 
   14848    14800    14778    14825    14940    15032    15180    15448 
   15720    15986    16279    16461    16486    16486    16457    16309 
   16082    15815    15515    15240    14958    14666    14557    14740 
   15061    15373    15707    16042    16224    16218    16167    16221 
   16386    16492    16426    16291    16240    16271    16286    16236 
   16139    15985    15732    15462    15356    15431    15561    15641 
   15556    15313    15145    15145    15187    15287    15558    15923 
   16204    16282    16092    15678    15282    15168    15368    15647 
   15839    16020    16221    16340    16398    16451    16448    16438 
   16459    16298    15815    15232    14895    14948    15303    15790 
   16200    16359    16232    15934    15705    15730    15889    15905 
   15681    15377    15187    15121    15122    15201    15345    15506 
   15610    15593    15489    15373    15246    15124    15078    15151 
   15369    15682    15962    16201    16457    16717    16941    17073 
   17016    16785    16552    16390    16154    15768    15410    15234 
   15129    14995    14953    15043    15137    15147    15076    15009 
   15063    15244    15427    15564    15745    15996    16179    16182 
   16009    15739    15489    15300    15178    15222    15461    15730 
   15957    16189    16353    16355    16276    16204    16043    15782 
   15615    15653    15866    16166    16340    16317    16281    16245 
   16098    15970    15955    15898    15708    15542    15564    15724 
   15851    15849    15704    15464    15221    15045    14956    14967 
   15060    15250    15591    15925    16035    16051    16229    16514 
   16718    16796    16748    16560    16281    15943    15568    15249 
   14993    14693    14435    14436    14656    14877    15030    15153 
   15287    15550    16013    16524    16873    17011    17019    17022 
   17099    17095    16750    16125    15508    15003    14647    14628 
   14982    15365    15369    14978    14604    14656    15175    15915 
   16533    16737    16497    16074    15718    15419    15124    15055 
   15361    15699    15738    15639    15657    15820    16038    16113 
   15880    15430    14991    14727    14723    14994    15464    15934 
   16228    16413    16663    16911    17000    17004    16985    16788 
   16380    15966    15607    15187    14841    14891    15319    15789 
   16120    16322    16406    16341    16148    15961    15869    15811 
   15758    15812    16048    16343    16479    16438    16341    16108 
   15595    15037    14845    14999    15169    15236    15306    15457 
   15661    15834    15917    15950    16017    16110    16140    16144 
   16240    16380    16447    16429    16393    16357    16268    16048 
   15711    15395    15230    15186    15183    15269    15423    15457 
   15310    15157    15198    15442    15707    15820    15826    15880 
   15974    15940    15742    15566    15556    15597    15533    15427 
   15434    15533    15622    15715    15885    16087    16132    15878 
   15449    15084    14894    14895    15083    15376    15622    15745 
   15804    15853    15861    15808    15687    15485    15325    15412 
   15745    16083    16278    16364    16390    16360    16290    16185 
   16055    15963    15894    15739    15508    15385    15456    15574 
   15633    15664    15666    15653    15703    15755    15646    15400 
   15226    15272    15477    15664    15772    15853    15925    16031 
   16255    16528    16615    16382    15927    15435    15094    15091 
   15437    15881    16164    16187    16032    15897    15877    15885 
   15869    15890    16047    16344    16559    16474    16229    16106 
   16019    15780    15587    15608    15588    15331    15028    14933 
   15053    15184    15201    15134    15010    14872    14814    14832 
   14874    15016    15395    15930    16272    16285    16266    16409 
   16483    16348    16181    16101    15965    15682    15460    15462 
   15561    15624    15661    15577    15350    15296    15612    15996 
   16190    16339    16533    16583    16330    15920    15627    15527 
   15519    15568    15707    15932    16125    16063    15704    15302 
   15056    15005    15202    15628    16108    16460    16648    16750 
   16756    16517    16033    15498    15063    14777    14650    14701 
   14908    15163    15404    15653    15830    15807    15709    15784 
   15915    15800    15450    15090    14852    14733    14724    14875 
   15136    15298    15267    15233    15427    15828    16218    16398 
   16245    15819    15414    15290    15437    15708    15924    15886 
   15542    15107    14879    14925    15101    15356    15778    16267 
   16568    16675    16812    17065    17274    17288    17086    16722 
   16216    15579    15007    14798    14966    15295    15712    16249 
   16749    17049    17317    17756    18226    18511    18597    18553 
   18457    18354    18126    17632    16991    16495    16363    16681 
   17359    17994    18184    17963    17622    17377    17355    17583 
   17902    18079    17998    17729    17371    16941    16438    15994 
   15797    15757    15550    15168    14914    14852    14759    14589 
   14494    14486    14403    14123    13612    12910    12163    11510 
   10986    10589    10293    10022     9679     9243     8839     8635 
    8627     8745     9039     9431     9618     9547     9470     9509 
    9589     9720     9969    10349    10849    11549    12519    13616 
   14548    15194    15623    15917    16195    16661    17415    18341 
   19279    20104    20700    21060    21271    21413    21556    21740 
   21945    22200    22601    23114    23531    23718    23730    23625 
   23360    22981    22627    22341    22068    21795    21504    21096 
   20495    19807    19255    18883    18538    18204    17959    17624 
   16923    15835    14593    13521    12831    12501    12501    12908 
   13622    14281    14530    14281    13744    13186    12771    12675 
   13001    13460    13498    12906    12102    11603    11510    11722 
   12064    12213    11974    11626    11620    12062    12630    12939 
   12864    12638    12603    12838    13225    13783    14548    15276 
   15579    15213    14256    13258    12857    13134    13743    14488 
   15414    16460    17343    17934    18463    19060    19445    19410 
   19072    18576    18081    17875    18091    18688    19560    20455 
   21010    20929    20092    18723    17489    17132    17797    18909 
   19861    20228    19565    17817    15661    13906    12981    13061 
   13968    15005    15377    14848    13837    13019    12823    13221 
   14072    15426    17258    19188    20642    21145    20583    19228 
   17475    15600    13810    12440    11739    11595    11834    12464 
   13259    13666    13494    13140    12978    13130    13794    14966 
   16136    16818    16906    16438    15556    14520    13585    12933 
   12546    12121    11443    10716    10342    10563    11438    12896 
   14634    16317    17918    19535    21050    22207    22896    23145 
   23006    22677    22360    21824    20713    19076    16993    14374 
   11603     9486     8384     8019     8035     8303     8916    10102 
   11908    13888    15345    15927    15793    15309    14798    14439 
   14237    14204    14373    14652    15057    15904    17347    19016 
   20466    21643    22476    22636    22026    20900    19530    18111 
   16735    15488    14728    14727    14967    14619    13676    12852 
   12613    13053    14168    15641    16829    17305    17146    16804 
   16737    16942    17059    16812    16038    14729    13292    12255 
   11794    11894    12746    14517    16906    19145    20486    20761 
   20403    19753    18715    17340    16089    15186    14547    14365 
   14801    15307    15145    14241    12950    11442     9756     8160 
    7152     7075     7750     8633     9377    10022    10724    11601 
   12795    14413    16401    18515    20424    21932    23087    23961 
   24478    24505    23971    23016    22065    21560    21521    21608 
   21609    21536    21292    20680    19700    18654    17998    17929 
   18121    18026    17304    16027    14729    14102    14322    14732 
   14501    13512    12295    11290    10648    10565    11195    12289 
   13230    13537    13243    12756    12418    12313    12268    11954 
   11190    10282     9882    10327    11340    12541    13840    14994 
   15483    15210    14824    14947    15462    15967    16522    17531 
   19101    20846    22266    23160    23595    23593    23024    21983 
   21019    20530    20236    19642    18681    17778    17425    17659 
   18179    18877    19727    20453    20781    20779    20610    20170 
   19260    17990    16762    15861    15117    14071    12510    10685 
    8923     7454     6629     6729     7470     8305     9080     9923 
   10805    11639    12368    12700    12355    11635    11194    11291 
   11650    11956    12160    12276    12264    12155    12070    12125 
   12432    13027    13807    14655    15608    16717    17771    18354 
   18257    17643    16906    16464    16538    17072    17865    18563 
   18742    18357    17720    17132    16956    17450    18393    19481 
   20703    21983    22994    23434    23242    22473    21136    19421 
   17790    16606    15866    15391    15130    15245    15761    16376 
   16830    17174    17466    17444    16848    15904    15155    14851 
   14987    15512    16119    16298    15954    15360    14559    13536 
   12692    12441    12640    12972    13373    13699    13729    13626 
   13782    14234    14723    15151    15579    16027    16509    17011 
   17467    17833    18038    17945    17478    16721    15888    15137 
   14490    14075    14099    14395    14507    14331    14230    14431 
   14724    14725    14197    13296    12494    11979    11504    10994 
   10633    10457    10417    10619    11070    11591    12019    12202 
   12100    12143    13019    14885    17219    19403    21126    22215 
   22477    22014    21386    20992    20605    19882    18943    18160 
   17712    17543    17602    17944    18559    19149    19279    18773 
   17745    16494    15495    15088    15237    15778    16444    16846 
   16918    16926    16903    16583    15927    15304    15097    15357 
   15931    16583    16902    16530    15662    14847    14272    13695 
   13085    12820    13165    13933    14689    15151    15408    15735 
   16249    16889    17551    18052    18135    17635    16659    15665 
   15194    15396    15957    16438    16490    15973    15179    14740 
   15137    16275    17590    18503    18673    18072    17043    16071 
   15307    14571    13892    13540    13485    13412    13192    12953 
   12910    13178    13554    13683    13570    13485    13431    13158 
   12596    12017    11855    12313    13158    13999    14559    14797 
   14924    15128    15430    15884    16452    16889    17049    16966 
   16686    16352    16162    16105    16006    15827    15695    15716 
   15882    16070    16155    16178    16340    16807    17436    17824 
   17658    16889    15703    14534    13849    13792    14234    14976 
   15799    16622    17501    18361    18951    19079    18837    18593 
   18603    18786    19009    19202    19148    18571    17510    16376 
   15608    15327    15299    15303    15379    15545    15630    15554 
   15534    15728    15886    15762    15523    15326    15105    14952 
   15098    15492    15781    15731    15515    15400    15408    15380 
   15207    14967    14921    15256    15836    16332    16517    16436 
   16401    16619    16841    16735    16360    15969    15701    15623 
   15728    15940    16332    17064    17826    18041    17685    17080 
   16194    14987    13981    13767    14283    15057    15746    16170 
   16359    16560    16881    17143    17028    16312    15280    14609 
   14534    14704    14790    14616    14160    13733    13660    13954 
   14597    15573    16487    16819    16582    16177    15788    15391 
   15086    15003    15082    15049    14647    13980    13512    13520 
   13923    14604    15367    15857    16065    16343    16746    17023 
   17053    16798    16216    15425    14662    14160    14087    14349 
   14554    14469    14395    14769    15569    16418    16972    17050 
   16680    16159    15811    15661    15552    15408    15228    15055 
   15129    15669    16417    16804    16648    16340    16204    16082 
   15732    15188    14632    14285    14278    14430    14428    14180 
   13879    13810    14068    14586    15249    15855    16255    16559 
   16964    17595    18472    19326    19734    19502    18721    17666 
   16761    16368    16420    16376    15796    14958    14531    14661 
   14894    14928    14944    15164    15456    15627    15769    15970 
   16058    15890    15669    15676    15836    15817    15477    14968 
   14539    14328    14257    14273    14499    14890    15232    15506 
   15777    15975    16054    16035    15950    15936    16117    16407 
   16646    16719    16510    15974    15303    14859    14823    14951 
   14848    14467    14102    13927    13973    14369    15137    15908 
   16275    16330    16452    16777    17190    17518    17666    17695 
   17728    17732    17483    16856    16104    15610    15453    15526 
   15773    16113    16416    16580    16623    16690    16794    16794 
   16744    16796    16842    16637    16012    15012    14023    13525 
   13687    14334    15176    15981    16606    17070    17497    17907 
   18238    18416    18270    17691    16841    15963    15160    14527 
   14269    14527    15217    15865    15877    15327    14916    14994 
   15404    15913    16181    15934    15357    14866    14701    14829 
   14967    14793    14176    13313    12672    12544    12744    12974 
   13197    13495    13911    14516    15307    16005    16316    16316 
   16222    16168    16330    16757    17143    17248    17194    17112 
   16947    16731    16615    16679    16883    17089    17196    17317 
   17621    17946    17956    17589    17016    16409    15970    15865 
   15959    15950    15826    15820    15936    15981    15930    15919 
   15985    16032    16032    15979    15762    15341    14881    14567 
   14547    14935    15564    16016    16160    16179    16078    15745 
   15421    15461    15728    15681    15094    14370    14045    14256 
   14836    15588    16329    16858    17004    16762    16376    16075 
   15893    15874    16035    16174    16140    16067    16131    16322 
   16540    16702    16710    16510    16227    16040    15939    15703 
