Origin Time       2024/04/02 04:24:00
Lat.              40.133
Long.             141.712
Depth. (km)       71
Mag.              6.0
Station Code      AKT018
Station Lat.      39.1937
Station Long.     140.1899
Station Height(m) 114
Record Time       2024/04/02 04:25:04
Sampling Freq(Hz) 100Hz
Duration Time(s)  96
Dir.              N-S
Scale Factor      7845(gal)/8223790
Max. Acc. (gal)   9.742
Last Correction   2024/04/02 04:25:04
Memo.             
[...]
  -11790   -11632   -11250   -10987   -11061   -11346   -11641   -11943 
  -12245   -12361   -12152   -11692   -11191   -10925   -11091   -11492 
  -11665   -11591   -11585   -11550   -11211   -10763   -10530   -10565 
  -10858   -11338   -11705   -11686   -11371   -11087   -11105   -11408 
  -11678   -11696   -11580   -11411   -11176   -11133   -11504   -11940 
  -11915   -11511   -11259   -11352   -11516   -11466   -11149   -10813 
  -10793   -11092   -11480   -11807   -11896   -11627   -11232   -11061 
  -11149   -11290   -11326   -11226   -11049   -11001   -11238   -11531 
  -11565   -11437   -11348   -11408   -11736   -12154   -12352   -12336 
  -12123   -11681   -11202   -10889   -10860   -11172   -11522   -11497 
  -11232   -11161   -11360   -11479   -11240   -10752   -10362   -10349 
  -10797   -11479   -11885   -11749   -11438   -11476   -11936   -12413 
  -12371   -11770   -11130   -10808   -10843   -11159   -11369   -11157 
  -10824   -10782   -11020   -11407   -11827   -12074   -12106   -11978 
  -11581   -10993   -10651   -10814   -11308   -11754   -11830   -11538 
  -11198   -11129   -11443   -11877   -11982   -11758   -11538   -11461 
  -11538   -11661   -11530   -11115   -10801   -10910   -11388   -11835 
  -11938   -11762   -11541   -11462   -11554   -11632   -11545   -11357 
  -11176   -11086   -11230   -11538   -11597   -11229   -10774   -10584 
  -10739   -11168   -11614   -11759   -11626   -11427   -11241   -11163 
  -11294   -11450   -11414   -11230   -11102   -11194   -11453   -11664 
  -11738   -11697   -11574   -11515   -11615   -11772   -11873   -11897 
  -11812   -11610   -11364   -11101   -10890   -10979   -11434   -11880 
  -11947   -11610   -11148   -11013   -11317   -11618   -11573   -11296 
  -11013   -10870   -10951   -11145   -11240   -11213   -11152   -11095 
  -11142   -11311   -11473   -11603   -11681   -11619   -11492   -11466 
  -11537   -11630   -11711   -11634   -11264   -10786   -10592   -10852 
  -11360   -11735   -11724   -11445   -11303   -11394   -11427   -11404 
  -11507   -11630   -11672   -11587   -11227   -10781   -10667   -10886 
  -11211   -11534   -11724   -11745   -11662   -11435   -11105   -10986 
  -11244   -11678   -12023   -12079   -11781   -11313   -10952   -10872 
  -11102   -11504   -11794   -11761   -11466   -11179   -11059   -11119 
  -11364   -11647   -11730   -11643   -11556   -11518   -11650   -11909 
  -11900   -11514   -11141   -11024   -11083   -11215   -11303   -11280 
  -11229   -11215   -11226   -11277   -11335   -11333   -11360   -11581 
  -11931   -12127   -11996   -11608   -11209   -11071   -11196   -11408 
  -11630   -11765   -11689   -11479   -11222   -10891   -10590   -10523 
  -10820   -11443   -12077   -12303   -12024   -11524   -11180   -11164 
  -11303   -11281   -11110   -11107   -11406   -11834   -12125   -12140 
  -12010   -11912   -11746   -11377   -10956   -10766   -10868   -11142 
  -11460   -11618   -11502   -11304   -11219   -11172   -11022   -10763 
  -10613   -10808   -11191   -11387   -11317   -11128   -11005   -11191 
  -11619   -11858   -11728   -11492   -11421   -11527   -11699   -11862 
  -11982   -12005   -11911   -11712   -11422   -11086   -10790   -10690 
  -10943   -11469   -11830   -11572   -10824   -10200   -10169   -10721 
  -11433   -11819   -11755   -11384   -10944   -10816   -11151   -11605 
  -11819   -11789   -11718   -11709   -11654   -11487   -11384   -11542 
  -11997   -12575   -12847   -12499   -11692   -10957   -10802   -11205 
  -11581   -11550   -11349   -11287   -11313   -11223   -11036   -11038 
  -11302   -11524   -11531   -11354   -11025   -10697   -10563   -10662 
  -10997   -11472   -11826   -11919   -11805   -11557   -11269   -11065 
  -11040   -11248   -11565   -11732   -11678   -11535   -11372   -11234 
  -11207   -11236   -11226   -11267   -11400   -11443   -11319   -11230 
  -11303   -11443   -11645   -11888   -11947   -11765   -11585   -11535 
  -11554   -11554   -11402   -11079   -10848   -10930   -11214   -11461 
  -11497   -11281   -11129   -11383   -11781   -11877   -11772   -11740 
  -11784   -11847   -11848   -11697   -11425   -11125   -10952   -11070 
  -11396   -11597   -11530   -11460   -11566   -11616   -11485   -11338 
  -11168   -10905   -10779   -11017   -11456   -11701   -11493   -11028 
  -10835   -11149   -11678   -12010   -11940   -11530   -11144   -11172 
  -11520   -11728   -11668   -11597   -11581   -11430   -11115   -10829 
  -10766   -11003   -11402   -11689   -11712   -11485   -11163   -10970 
  -11051   -11350   -11664   -11793   -11724   -11604   -11502   -11381 
  -11318   -11445   -11691   -11805   -11639   -11219   -10683   -10327 
  -10443   -11048   -11824   -12291   -12204   -11780   -11394   -11265 
  -11429   -11682   -11751   -11589   -11307   -11088   -11198   -11524 
  -11562   -11191   -10762   -10557   -10747   -11313   -11834   -11912 
  -11550   -10994   -10600   -10692   -11227   -11827   -12150   -12033 
  -11537   -11003   -10868   -11241   -11753   -11996   -11947   -11778 
  -11558   -11284   -11007   -10874   -11061   -11476   -11674   -11491 
  -11307   -11375   -11510   -11470   -11206   -10959   -11034   -11330 
  -11531   -11550   -11519   -11603   -11830   -11990   -11851   -11395 
  -10901   -10754   -11026   -11479   -11873   -11989   -11701   -11234 
  -11028   -11286   -11684   -11688   -11236   -10768   -10717   -11115 
  -11574   -11700   -11496   -11219   -11138   -11338   -11496   -11338 
  -11119   -11118   -11254   -11425   -11554   -11577   -11560   -11506 
  -11307   -10982   -10739   -10852   -11371   -12016   -12453   -12499 
  -12217   -11881   -11669   -11558   -11526   -11580   -11605   -11437 
  -11129   -10909   -10862   -10918   -11091   -11372   -11596   -11583 
  -11323   -11006   -10917   -11180   -11566   -11693   -11485   -11138 
  -10774   -10542   -10690   -11153   -11530   -11599   -11469   -11344 
  -11330   -11394   -11457   -11527   -11628   -11678   -11556   -11277 
  -11056   -11087   -11346   -11646   -11732   -11516   -11300   -11333 
  -11416   -11356   -11254   -11287   -11515   -11812   -12005   -11951 
  -11438   -10613   -10131   -10380   -11192   -12101   -12498   -12159 
  -11456   -10867   -10763   -11221   -11751   -11861   -11684   -11655 
  -11917   -12221   -12283   -12156   -12024   -11877   -11592   -11168 
  -10827   -10785   -10986   -11165   -11159   -11080   -11090   -11049 
  -10872   -10871   -11279   -11857   -12150   -11884   -11246   -10752 
  -10728   -11092   -11464   -11520   -11402   -11367   -11354   -11367 
  -11520   -11659   -11678   -11688   -11578   -11269   -11063   -11114 
  -11217   -11250   -11276   -11362   -11580   -11826   -11794   -11448 
  -11134   -11028   -10978   -10995   -11253   -11657   -11924   -11894 
  -11619   -11353   -11315   -11466   -11635   -11707   -11643   -11441 
  -11218   -11253   -11619   -11907   -11718   -11205   -10806   -10768 
  -11133   -11649   -11828   -11642   -11572   -11746   -11843   -11612 
  -11076   -10552   -10443   -10791   -11215   -11412   -11497   -11600 
  -11589   -11499   -11529   -11619   -11619   -11533   -11335   -11091 
  -11117   -11546   -12024   -12158   -12008   -11839   -11754   -11726 
  -11670   -11568   -11496   -11430   -11286   -11153   -11124   -11140 
  -11156   -11122   -11018   -11011   -11198   -11403   -11485   -11533 
  -11696   -11921   -11920   -11581   -11140   -10808   -10698   -10871 
  -11103   -11165   -11250   -11549   -11858   -11936   -11693   -11171 
  -10740   -10791   -11219   -11654   -11873   -11761   -11396   -11111 
  -11099   -11269   -11503   -11670   -11658   -11481   -11222   -11063 
  -11121   -11210   -11126   -10928   -10790   -10874   -11103   -11223 
  -11287   -11506   -11776   -11878   -11796   -11662   -11610   -11595 
  -11464   -11198   -10912   -10802   -11041   -11495   -11766   -11680 
  -11389   -11037   -10692   -10490   -10516   -10728   -11122   -11616 
  -11983   -12056   -11817   -11372   -11011   -10978   -11211   -11604 
  -12055   -12249   -12031   -11693   -11503   -11466   -11541   -11557 
  -11372   -11155   -11092   -11122   -11242   -11526   -11767   -11639 
  -11272   -11126   -11259   -11448   -11704   -11951   -11920   -11637 
  -11342   -11213   -11313   -11483   -11511   -11464   -11480   -11504 
  -11426   -11245   -11044   -10921   -10966   -11199   -11493   -11635 
  -11569   -11466   -11514   -11628   -11587   -11491   -11570   -11668 
  -11551   -11329   -11144   -11053   -11101   -11260   -11511   -11838 
  -12071   -12028   -11723   -11311   -11076   -11257   -11665   -11846 
  -11646   -11302   -11063   -11034   -11253   -11622   -11866   -11777 
  -11395   -10984   -10883   -11182   -11564   -11678   -11533   -11372 
  -11318   -11242   -11016   -10752   -10748   -11214   -11944   -12370 
  -12170   -11556   -10956   -10733   -10994   -11449   -11684   -11576 
  -11290   -11071   -11078   -11260   -11450   -11550   -11600   -11705 
  -11797   -11697   -11503   -11475   -11576   -11639   -11655   -11626 
  -11568   -11503   -11379   -11292   -11416   -11561   -11392   -11006 
  -10758   -10789   -11041   -11296   -11288   -11176   -11286   -11516 
  -11708   -11866   -11870   -11763   -11805   -11877   -11703   -11465 
  -11396   -11396   -11496   -11789   -12001   -11855   -11426   -10921 
  -10567   -10508   -10647   -10840   -10975   -10971   -10887   -10813 
  -10762   -10782   -10893   -11047   -11198   -11333   -11507   -11769 
  -12058   -12175   -11965   -11643   -11569   -11653   -11511   -11087 
  -10727   -10752   -11128   -11435   -11338   -11060   -11037   -11241 
  -11375   -11360   -11259   -11202   -11361   -11708   -11952   -11794 
  -11307   -10948   -10976   -11191   -11350   -11402   -11357   -11213 
  -11018   -10951   -11203   -11689   -12017   -11962   -11794   -11862 
  -12082   -12166   -12085   -12040   -12143   -12363   -12472   -12110 
  -11326   -10682   -10516   -10620   -10709   -10706   -10659   -10639 
  -10589   -10451   -10486   -10881   -11322   -11541   -11620   -11568 
  -11369   -11229   -11207   -11163   -11130   -11196   -11259   -11315 
  -11491   -11643   -11504   -11138   -10835   -10739   -10906   -11294 
  -11574   -11460   -11121   -10940   -11183   -11820   -12340   -12266 
  -11828   -11574   -11692   -12020   -12274   -12258   -12000   -11695 
  -11564   -11655   -11765   -11699   -11510   -11314   -11134   -11030 
  -11126   -11429   -11834   -12194   -12248   -11843   -11280   -10964 
  -10949   -11030   -11011   -10901   -10843   -10844   -10789   -10654 
  -10505   -10314   -10058    -9846    -9742    -9771   -10045   -10480 
  -10727   -10729   -10814   -11146   -11485   -11554   -11454   -11480 
  -11716   -11978   -12020   -11844   -11645   -11489   -11380   -11350 
  -11283   -11114   -10979   -10882   -10702   -10548   -10697   -11240 
  -11781   -11811   -11523   -11527   -11925   -12463   -12891   -12869 
  -12330   -11745   -11619   -12019   -12542   -12758   -12688   -12641 
  -12741   -12860   -12918   -13014   -13123   -13012   -12648   -12322 
  -12267   -12430   -12648   -12785   -12772   -12690   -12665   -12667 
  -12615   -12453   -12032   -11469   -11246   -11529   -11997   -12352 
  -12401   -12077   -11622   -11318   -11232   -11367   -11630   -11839 
  -11932   -11888   -11727   -11584   -11437   -11159   -10847   -10623 
  -10404   -10157    -9919    -9656    -9508    -9668    -9952   -10139 
  -10316   -10434   -10388   -10314   -10293   -10372   -10701   -11195 
  -11596   -11889   -12155   -12309   -12244   -11952   -11589   -11356 
  -11256   -11176   -11144   -11219   -11325   -11284   -10928   -10380 
  -10102   -10369   -10962   -11426   -11434   -11049   -10647   -10569 
  -10890   -11337   -11549   -11495   -11303   -10990   -10708   -10739 
  -11074   -11371   -11321   -10910   -10409   -10176   -10331   -10644 
  -10883   -10971   -10908   -10928   -11290   -11846   -12266   -12326 
  -11921   -11265   -10839   -10905   -11389   -12017   -12341   -12143 
  -11680   -11245   -11001   -11060   -11276   -11375   -11346   -11314 
  -11342   -11460   -11618   -11715   -11705   -11620   -11530   -11470 
  -11407   -11408   -11696   -12247   -12634   -12592   -12383   -12352 
  -12582   -12911   -12982   -12648   -12231   -12002   -11912   -11867 
  -11801   -11688   -11615   -11619   -11546   -11202   -10585    -9965 
   -9655    -9767   -10189   -10687   -10968   -10871   -10512   -10145 
   -9919    -9734    -9479    -9370    -9630   -10091   -10461   -10582 
  -10397   -10064    -9875    -9972   -10342   -10783   -11047   -11141 
  -11221   -11313   -11415   -11523   -11512   -11306   -11034   -10827 
  -10667   -10550   -10496   -10566   -10817   -11084   -11140   -11083 
  -11171   -11492   -11896   -12027   -11732   -11327   -11327   -11889 
  -12507   -12598   -12195   -11808   -11871   -12388   -12923   -13065 
  -12818   -12426   -12096   -11885   -11740   -11526   -11172   -10841 
  -10694   -10690   -10762   -10843   -10840   -10737   -10585   -10436 
  -10278   -10006    -9664    -9586    -9985   -10673   -11302   -11701 
  -11915   -12079   -12317   -12602   -12785   -12869   -13057   -13455 
  -13883   -14017   -13819   -13720   -14061   -14735   -15430   -15857 
  -15923   -15859   -15897   -16067   -16274   -16318   -16029   -15465 
  -14905   -14693   -14910   -15233   -15280   -14855   -14135   -13707 
  -13894   -14326   -14508   -14366   -14108   -13872   -13525   -12816 
  -11782   -10740    -9849    -8986    -8075    -7221    -6473    -5660 
   -4602    -3338    -2122    -1324    -1185    -1545    -2008    -2338 
   -2613    -3105    -3902    -4764    -5487    -6174    -7067    -8297 
   -9801   -11391   -12889   -14195   -15353   -16533   -17710   -18585 
  -18991   -19017   -18759   -18351   -17946   -17458   -16764   -15958 
  -14993   -13641   -11981   -10372    -8981    -7813    -6963    -6447 
   -6057    -5630    -5200    -4876    -4835    -5143    -5557    -5890 
   -6282    -6879    -7636    -8494    -9390   -10374   -11723   -13470 
  -15113   -16144   -16487   -16356   -16109   -16044   -16113   -15973 
  -15364   -14320   -13101   -12054   -11476   -11368   -11387   -11157 
  -10593    -9950    -9547    -9437    -9397    -9151    -8645    -8079 
   -7705    -7690    -8164    -9228   -10764   -12263   -13211   -13682 
  -14196   -15068   -16175   -17007   -16991   -16198   -15317   -14901 
  -15037   -15458   -15646   -15213   -14370   -13670   -13297   -12938 
  -12086   -10350    -7932    -5724    -4644    -5030    -6575    -8496 
   -9999   -10849   -11273   -11450   -11512   -11591   -11570   -11271 
  -10806   -10459   -10393   -10667   -11306   -12253   -13298   -14053 
  -14197   -13749   -13066   -12695   -13011   -13717   -13977   -13278 
  -11961   -10883   -10721   -11456   -12384   -12752   -12317   -11329 
  -10347    -9888    -9828    -9683    -9371    -9074    -8824    -8629 
   -8580    -8595    -8514    -8514    -8959   -10085   -11749   -13174 
  -13635   -13162   -12098   -10659    -9107    -7809    -7206    -7514 
   -8216    -8510    -8303    -8179    -8672    -9840   -11159   -11894 
  -11773   -11119   -10466   -10316   -11088   -12904   -15291   -17421 
  -18688   -18944   -18357   -17186   -15692   -14121   -12744   -11812 
  -11345   -11214   -11464   -12060   -12517   -12353   -11681   -11070 
  -11017   -11445   -11808   -11808   -11600   -11473   -11670   -12228 
  -12835   -13072   -12806   -12241   -11765   -11831   -12569   -13428 
  -13497   -12282   -10362    -9031    -9030    -9968   -10966   -11353 
  -10986   -10336   -10065   -10365   -10920   -11263   -11217   -11122 
  -11496   -12353   -13109   -13212   -12478   -11016    -9490    -8885 
   -9543   -10930   -12222   -12780   -12352   -11026    -9128    -7153 
   -5502    -4423    -4283    -5316    -7171    -9215   -10929   -11940 
  -12344   -12634   -12879   -12677   -11846   -10604    -9344    -8451 
   -8229    -8780    -9780   -10640   -10968   -10875   -10818   -11068 
  -11404   -11484   -11221   -10794   -10592   -10867   -11368   -11562 
  -11146   -10297    -9639    -9795   -10762   -11897   -12572   -12603 
  -12226   -11796   -11327   -10542    -9572    -9262   -10426   -12911 
  -15538   -17030   -17038   -16267   -15635   -15458   -15473   -15350 
  -15039   -14797   -14926   -15512   -16281   -16653   -16181   -14891 
  -13117   -11380   -10409   -10593   -11426   -12047   -12035   -11470 
  -10546    -9366    -8154    -7230    -6673    -6423    -6593    -7335 
   -8629   -10125   -11196   -11450   -11087   -10567   -10261   -10390 
  -10932   -11562   -11853   -11623   -11071   -10536   -10262   -10276 
  -10304   -10145    -9915    -9691    -9526    -9710   -10382   -11210 
  -11634   -11395   -10932   -10998   -11859   -13109   -13995   -13953 
  -13150   -12253   -11605   -11001   -10266    -9751   -10052   -11264 
  -12704   -13566   -13694   -13513   -13417   -13594   -14041   -14358 
  -14019   -13061   -12066   -11581   -11701   -12042   -12170   -11958 
  -11481   -10960   -10787   -11227   -12114   -12946   -13180   -12463 
  -10879    -9124    -8214    -8719   -10299   -11951   -12685   -12266 
  -11419   -11126   -11736   -12741   -13204   -12631   -11456   -10515 
  -10270   -10593   -11018   -11214   -11299   -11626   -12272   -12870 
  -12899   -12181   -11087   -10328   -10536   -11750   -13120   -13552 
  -12734   -11308   -10161    -9698    -9883   -10551   -11404   -12117 
  -12451   -12321   -11981   -11715   -11442   -11083   -10768   -10697 
  -11153   -12170   -13200   -13660   -13483   -13001   -12657   -12695 
  -12904   -12822   -12278   -11580   -11115   -10995   -11129   -11365 
  -11488   -11225   -10486    -9649    -9270    -9564   -10430   -11547 
  -12326   -12374   -11975   -11589   -11183   -10659   -10362   -10611 
  -11145   -11450   -11242   -10659   -10154    -9999   -10006    -9960 
   -9938   -10187   -10746   -11232   -11202   -10682   -10134    -9865 
   -9688    -9444    -9413    -9877   -10714   -11412   -11369   -10531 
   -9641    -9551   -10436   -11689   -12452   -12306   -11475   -10471 
   -9736    -9472    -9639    -9996   -10235   -10150    -9740    -9173 
   -8762    -8802    -9262    -9822   -10270   -10709   -11209   -11650 
  -12028   -12345   -12334   -11911   -11546   -11720   -12529   -13765 
  -14854   -15157   -14736   -14381   -14740   -15581   -16029   -15529 
  -14346   -13220   -12681   -12573   -12326   -11755   -11215   -11107 
  -11549   -12235   -12529   -12012   -10922    -9909    -9437    -9526 
   -9856    -9940    -9472    -8818    -8753    -9531   -10735   -11862 
  -12514   -12426   -11738   -10945   -10565   -10773   -11361   -12016 
  -12468   -12546   -12413   -12452   -12673   -12681   -12283   -11688 
  -11188   -10959   -11037   -11408   -12036   -12645   -12714   -11854 
  -10135    -8328    -7576    -8330    -9803   -10786   -10775   -10172 
   -9747    -9979   -10620   -10935   -10623   -10162   -10050   -10268 
  -10561   -10770   -10891   -10889   -10605   -10100    -9616    -9162 
   -8702    -8410    -8422    -8818    -9643   -10552   -10979   -10882 
  -10771   -10976   -11350   -11692   -11977   -12182   -12285   -12361 
  -12432   -12413   -12333   -12388   -12696   -13119   -13317   -13108 
  -12727   -12545   -12687   -13072   -13545   -13836   -13710   -13262 
  -12949   -13144   -13684   -13964   -13510   -12484   -11557   -11329 
