Origin Time       2024/04/02 04:24:00
Lat.              40.133
Long.             141.712
Depth. (km)       71
Mag.              6.0
Station Code      AKT009
Station Lat.      39.8869
Station Long.     139.8467
Station Height(m) 16
Record Time       2024/04/02 04:25:03
Sampling Freq(Hz) 100Hz
Duration Time(s)  104
Dir.              U-D
Scale Factor      7845(gal)/8223790
Max. Acc. (gal)   2.351
Last Correction   2024/04/02 04:25:03
Memo.             
[...]
  -28262   -28264   -28260   -28259   -28260   -28260   -28260   -28260 
  -28260   -28262   -28260   -28259   -28260   -28260   -28259   -28259 
  -28259   -28260   -28262   -28260   -28259   -28259   -28263   -28264 
  -28262   -28260   -28263   -28263   -28260   -28262   -28262   -28259 
  -28260   -28262   -28263   -28262   -28260   -28260   -28259   -28259 
  -28260   -28260   -28260   -28262   -28262   -28260   -28259   -28262 
  -28264   -28263   -28260   -28262   -28262   -28262   -28264   -28264 
  -28262   -28259   -28258   -28259   -28263   -28262   -28259   -28259 
  -28260   -28260   -28262   -28263   -28260   -28259   -28259   -28259 
  -28259   -28263   -28263   -28262   -28262   -28262   -28259   -28260 
  -28263   -28260   -28260   -28262   -28259   -28262   -28264   -28262 
  -28259   -28259   -28260   -28259   -28258   -28259   -28260   -28258 
  -28258   -28260   -28260   -28258   -28259   -28260   -28260   -28260 
  -28260   -28259   -28258   -28259   -28260   -28260   -28259   -28259 
  -28259   -28259   -28259   -28259   -28259   -28259   -28259   -28260 
  -28259   -28260   -28263   -28262   -28260   -28260   -28260   -28263 
  -28262   -28259   -28260   -28262   -28260   -28260   -28262   -28262 
  -28262   -28260   -28258   -28259   -28260   -28258   -28259   -28262 
  -28258   -28258   -28260   -28260   -28259   -28258   -28259   -28260 
  -28262   -28262   -28260   -28262   -28260   -28260   -28262   -28260 
  -28260   -28262   -28260   -28260   -28262   -28262   -28260   -28260 
  -28259   -28259   -28260   -28260   -28263   -28263   -28259   -28262 
  -28262   -28259   -28260   -28262   -28260   -28259   -28258   -28259 
  -28262   -28262   -28262   -28260   -28260   -28263   -28262   -28262 
  -28262   -28260   -28260   -28260   -28262   -28262   -28263   -28263 
  -28264   -28262   -28259   -28262   -28264   -28260   -28260   -28260 
  -28258   -28259   -28263   -28263   -28262   -28263   -28264   -28263 
  -28260   -28262   -28264   -28263   -28262   -28263   -28263   -28260 
  -28260   -28262   -28263   -28263   -28262   -28262   -28263   -28262 
  -28259   -28260   -28263   -28263   -28263   -28263   -28259   -28259 
  -28260   -28262   -28260   -28260   -28260   -28262   -28262   -28260 
  -28258   -28259   -28262   -28263   -28262   -28259   -28260   -28262 
  -28259   -28258   -28262   -28262   -28260   -28259   -28260   -28260 
  -28260   -28260   -28259   -28259   -28260   -28260   -28260   -28258 
  -28258   -28260   -28259   -28259   -28259   -28258   -28259   -28260 
  -28259   -28260   -28259   -28259   -28262   -28259   -28256   -28263 
  -28264   -28258   -28256   -28258   -28260   -28263   -28260   -28258 
  -28262   -28263   -28258   -28259   -28260   -28256   -28260   -28264 
  -28260   -28259   -28262   -28259   -28258   -28260   -28259   -28259 
  -28260   -28259   -28259   -28260   -28259   -28259   -28259   -28258 
  -28260   -28260   -28260   -28260   -28260   -28262   -28260   -28259 
  -28259   -28259   -28259   -28260   -28262   -28260   -28258   -28258 
  -28259   -28260   -28259   -28258   -28259   -28260   -28259   -28260 
  -28263   -28262   -28259   -28262   -28262   -28260   -28262   -28262 
  -28260   -28262   -28262   -28260   -28258   -28259   -28262   -28262 
  -28262   -28262   -28260   -28260   -28262   -28262   -28259   -28259 
  -28260   -28262   -28260   -28259   -28260   -28263   -28263   -28260 
  -28263   -28263   -28259   -28262   -28263   -28258   -28259   -28263 
  -28263   -28262   -28260   -28262   -28262   -28259   -28259   -28259 
  -28259   -28259   -28260   -28260   -28260   -28262   -28262   -28262 
  -28260   -28262   -28262   -28262   -28262   -28259   -28258   -28259 
  -28260   -28260   -28259   -28260   -28260   -28259   -28260   -28259 
  -28256   -28260   -28263   -28260   -28260   -28260   -28259   -28260 
  -28262   -28260   -28262   -28262   -28260   -28260   -28260   -28260 
  -28263   -28264   -28262   -28260   -28262   -28262   -28263   -28263 
  -28262   -28259   -28260   -28264   -28262   -28260   -28264   -28266 
  -28264   -28264   -28262   -28260   -28260   -28262   -28262   -28260 
  -28262   -28262   -28260   -28263   -28263   -28260   -28260   -28262 
  -28263   -28264   -28262   -28262   -28262   -28260   -28262   -28260 
  -28258   -28259   -28263   -28263   -28260   -28263   -28264   -28262 
  -28259   -28263   -28263   -28262   -28262   -28263   -28262   -28263 
  -28263   -28262   -28260   -28262   -28262   -28262   -28262   -28260 
  -28260   -28262   -28260   -28260   -28260   -28259   -28260   -28262 
  -28260   -28260   -28260   -28260   -28260   -28260   -28259   -28260 
  -28262   -28260   -28260   -28262   -28259   -28259   -28260   -28260 
  -28259   -28260   -28260   -28258   -28256   -28258   -28259   -28258 
  -28258   -28259   -28259   -28259   -28260   -28260   -28262   -28260 
  -28259   -28259   -28260   -28262   -28260   -28258   -28258   -28259 
  -28258   -28259   -28260   -28262   -28262   -28260   -28256   -28258 
  -28259   -28259   -28259   -28259   -28260   -28262   -28260   -28259 
  -28262   -28262   -28260   -28258   -28256   -28258   -28259   -28256 
  -28258   -28262   -28260   -28256   -28256   -28260   -28263   -28260 
  -28256   -28259   -28259   -28258   -28259   -28262   -28262   -28260 
  -28260   -28260   -28259   -28259   -28258   -28259   -28259   -28259 
  -28259   -28260   -28262   -28262   -28262   -28260   -28259   -28262 
  -28260   -28260   -28262   -28260   -28258   -28259   -28259   -28259 
  -28260   -28260   -28259   -28260   -28259   -28259   -28260   -28259 
  -28260   -28262   -28262   -28260   -28260   -28262   -28260   -28260 
  -28260   -28259   -28260   -28260   -28260   -28263   -28260   -28258 
  -28259   -28260   -28259   -28259   -28260   -28260   -28260   -28262 
  -28262   -28260   -28258   -28260   -28260   -28260   -28263   -28262 
  -28260   -28262   -28262   -28260   -28260   -28260   -28260   -28260 
  -28262   -28260   -28260   -28260   -28259   -28260   -28263   -28263 
  -28263   -28262   -28260   -28260   -28263   -28264   -28263   -28262 
  -28262   -28262   -28262   -28263   -28262   -28262   -28260   -28263 
  -28264   -28262   -28259   -28263   -28263   -28259   -28260   -28264 
  -28264   -28262   -28260   -28260   -28262   -28260   -28260   -28260 
  -28260   -28262   -28262   -28260   -28260   -28262   -28260   -28262 
  -28263   -28263   -28262   -28262   -28262   -28260   -28259   -28260 
  -28262   -28260   -28259   -28262   -28262   -28263   -28262   -28256 
  -28258   -28263   -28260   -28259   -28262   -28260   -28259   -28260 
  -28259   -28259   -28260   -28259   -28258   -28260   -28260   -28260 
  -28262   -28262   -28262   -28262   -28259   -28258   -28260   -28260 
  -28258   -28258   -28259   -28258   -28258   -28260   -28260   -28258 
  -28260   -28260   -28262   -28263   -28260   -28259   -28260   -28260 
  -28260   -28262   -28262   -28259   -28259   -28262   -28263   -28262 
  -28262   -28262   -28259   -28259   -28260   -28260   -28260   -28260 
  -28259   -28259   -28262   -28260   -28259   -28260   -28260   -28260 
  -28262   -28262   -28263   -28262   -28259   -28260   -28260   -28258 
  -28258   -28262   -28260   -28259   -28260   -28260   -28260   -28262 
  -28262   -28259   -28262   -28262   -28259   -28262   -28260   -28259 
  -28262   -28263   -28262   -28262   -28260   -28263   -28263   -28260 
  -28260   -28260   -28260   -28263   -28263   -28262   -28262   -28263 
  -28260   -28262   -28264   -28262   -28260   -28263   -28262   -28259 
  -28262   -28262   -28260   -28262   -28263   -28263   -28263   -28263 
  -28263   -28262   -28262   -28262   -28262   -28262   -28262   -28259 
  -28258   -28258   -28259   -28262   -28262   -28260   -28259   -28259 
  -28260   -28262   -28263   -28260   -28258   -28262   -28262   -28260 
  -28259   -28259   -28258   -28260   -28259   -28256   -28258   -28262 
  -28259   -28259   -28260   -28258   -28255   -28259   -28262   -28258 
  -28256   -28259   -28260   -28259   -28259   -28256   -28258   -28259 
  -28259   -28260   -28262   -28260   -28259   -28260   -28260   -28259 
  -28258   -28259   -28259   -28258   -28256   -28260   -28262   -28259 
  -28258   -28260   -28262   -28259   -28258   -28260   -28260   -28260 
  -28259   -28258   -28258   -28259   -28260   -28262   -28260   -28259 
  -28259   -28260   -28259   -28256   -28259   -28262   -28262   -28260 
  -28259   -28259   -28259   -28259   -28259   -28259   -28259   -28260 
  -28258   -28258   -28260   -28260   -28260   -28259   -28255   -28258 
  -28262   -28262   -28259   -28259   -28258   -28260   -28260   -28258 
  -28260   -28260   -28259   -28259   -28260   -28259   -28260   -28262 
  -28260   -28260   -28263   -28260   -28259   -28260   -28262   -28260 
  -28259   -28259   -28259   -28258   -28260   -28262   -28260   -28259 
  -28260   -28260   -28262   -28260   -28259   -28262   -28263   -28260 
  -28263   -28264   -28259   -28256   -28260   -28263   -28262   -28262 
  -28263   -28263   -28263   -28260   -28258   -28260   -28264   -28262 
  -28260   -28262   -28264   -28264   -28260   -28259   -28260   -28263 
  -28263   -28263   -28262   -28262   -28260   -28262   -28260   -28259 
  -28262   -28266   -28263   -28262   -28263   -28262   -28260   -28260 
  -28260   -28262   -28262   -28260   -28259   -28259   -28262   -28262 
  -28259   -28259   -28260   -28262   -28260   -28259   -28260   -28262 
  -28260   -28262   -28263   -28260   -28260   -28260   -28260   -28262 
  -28260   -28259   -28258   -28258   -28259   -28259   -28259   -28260 
  -28259   -28259   -28260   -28258   -28259   -28262   -28262   -28260 
  -28260   -28260   -28260   -28259   -28260   -28262   -28260   -28259 
  -28263   -28264   -28260   -28259   -28260   -28263   -28264   -28266 
  -28267   -28270   -28278   -28285   -28293   -28305   -28318   -28329 
  -28341   -28355   -28364   -28374   -28381   -28385   -28387   -28386 
  -28374   -28350   -28305   -28243   -28163   -28069   -27967   -27865 
  -27768   -27681   -27611   -27552   -27506   -27471   -27442   -27433 
  -27453   -27504   -27581   -27681   -27791   -27889   -27967   -28023 
  -28048   -28050   -28038   -28026   -28019   -28020   -28030   -28038 
  -28026   -27993   -27954   -27934   -27954   -28023   -28136   -28282 
  -28441   -28609   -28782   -28957   -29134   -29296   -29439   -29571 
  -29700   -29808   -29868   -29845   -29727   -29540   -29323   -29110 
  -28929   -28786   -28667   -28570   -28499   -28443   -28364   -28220 
  -27992   -27704   -27391   -27099   -26866   -26703   -26608   -26589 
  -26646   -26789   -27047   -27452   -27982   -28567   -29124   -29602 
  -29982   -30227   -30304   -30207   -29984   -29704   -29436   -29214 
  -29041   -28914   -28838   -28841   -28939   -29114   -29319   -29511 
  -29647   -29673   -29540   -29235   -28796   -28290   -27760   -27241 
  -26813   -26526   -26373   -26319   -26325   -26372   -26503   -26777 
  -27232   -27841   -28468   -28946   -29205   -29307   -29369   -29467 
  -29583   -29660   -29663   -29566   -29347   -29008   -28547   -27974 
  -27373   -26875   -26561   -26406   -26320   -26233   -26133   -26022 
  -25917   -25878   -25979   -26245   -26640   -27116   -27594   -27986 
  -28302   -28632   -29003   -29350   -29604   -29755   -29820   -29801 
  -29722   -29623   -29528   -29435   -29319   -29178   -29049   -28968 
  -28941   -28925   -28815   -28544   -28167   -27826   -27603   -27491 
  -27449   -27427   -27375   -27286   -27171   -27031   -26897   -26829 
  -26866   -27006   -27226   -27530   -27920   -28355   -28757   -29046 
  -29199   -29276   -29366   -29470   -29512   -29455   -29328   -29195 
  -29119   -29101   -29043   -28850   -28517   -28128   -27773   -27496 
  -27330   -27301   -27379   -27494   -27569   -27591   -27612   -27702 
  -27876   -28093   -28285   -28426   -28568   -28729   -28826   -28750 
  -28521   -28283   -28144   -28090   -28081   -28121   -28244   -28462 
  -28711   -28883   -28922   -28887   -28881   -28937   -28975   -28902 
  -28722   -28493   -28227   -27904   -27525   -27139   -26805   -26545 
  -26365   -26276   -26303   -26466   -26738   -27041   -27314   -27533 
  -27716   -27891   -28061   -28227   -28393   -28545   -28692   -28864 
  -29064   -29247   -29392   -29527   -29666   -29767   -29791   -29732 
  -29573   -29326   -29050   -28784   -28525   -28273   -28046   -27827 
  -27561   -27228   -26920   -26758   -26754   -26851   -27008   -27206 
  -27434   -27697   -27982   -28232   -28412   -28526   -28618   -28749 
  -28938   -29151   -29386   -29654   -29917   -30110   -30213   -30238 
  -30186   -30041   -29816   -29520   -29145   -28683   -28188   -27756 
  -27448   -27297   -27349   -27646   -28148   -28715   -29178   -29401 
  -29312   -28949   -28437   -27897   -27386   -26935   -26561   -26302 
  -26233   -26397   -26781   -27321   -27934   -28553   -29115   -29539 
  -29781   -29851   -29767   -29535   -29177   -28736   -28267   -27846 
  -27529   -27307   -27136   -26979   -26833   -26719   -26666   -26704 
  -26838   -27054   -27349   -27738   -28206   -28679   -29053   -29289 
  -29416   -29489   -29547   -29583   -29555   -29423   -29197   -28952 
  -28780   -28723   -28737   -28771   -28800   -28804   -28765   -28690 
  -28576   -28391   -28101   -27730   -27341   -27004   -26746   -26562 
  -26449   -26406   -26415   -26457   -26514   -26562   -26590   -26617 
  -26684   -26812   -27028   -27357   -27804   -28317   -28807   -29226 
  -29570   -29872   -30153   -30391   -30562   -30673   -30726   -30690 
  -30535   -30268   -29918   -29535   -29187   -28918   -28733   -28622 
  -28549   -28441   -28231   -27923   -27600   -27352   -27207   -27187 
  -27297   -27486   -27700   -27932   -28163   -28351   -28474   -28532 
  -28532   -28501   -28487   -28525   -28624   -28759   -28873   -28938 
  -28957   -28925   -28813   -28591   -28279   -27946   -27641   -27340 
  -27005   -26646   -26315   -26096   -26059   -26207   -26491   -26844 
  -27232   -27642   -28073   -28493   -28876   -29224   -29532   -29781 
  -29968   -30092   -30146   -30114   -29970   -29732   -29454   -29139 
  -28790   -28451   -28181   -28015   -27958   -27984   -28038   -28058 
  -28013   -27897   -27729   -27560   -27425   -27317   -27226   -27145 
  -27066   -27032   -27087   -27197   -27292   -27351   -27388   -27425 
  -27479   -27569   -27693   -27822   -27930   -27999   -28027   -28017 
  -27974   -27927   -27934   -28031   -28200   -28394   -28575   -28711 
  -28787   -28809   -28802   -28777   -28729   -28640   -28520   -28399 
  -28306   -28255   -28229   -28194   -28154   -28143   -28204   -28350 
  -28553   -28765   -28957   -29118   -29228   -29303   -29369   -29425 
  -29443   -29384   -29234   -29029   -28822   -28626   -28429   -28231 
  -28051   -27935   -27912   -27966   -28047   -28096   -28089   -28051 
  -28003   -27931   -27837   -27750   -27676   -27595   -27498   -27400 
  -27361   -27430   -27598   -27810   -28020   -28217   -28389   -28510 
  -28561   -28544   -28491   -28468   -28534   -28696   -28908   -29137 
  -29374   -29606   -29798   -29903   -29884   -29756   -29569   -29380 
  -29222   -29077   -28917   -28718   -28463   -28163   -27851   -27565 
  -27355   -27232   -27172   -27163   -27206   -27268   -27302   -27286 
  -27238   -27191   -27172   -27205   -27305   -27460   -27622   -27745 
  -27810   -27803   -27726   -27614   -27535   -27548   -27665   -27857 
  -28066   -28250   -28366   -28391   -28336   -28239   -28124   -28011 
  -27922   -27881   -27909   -28009   -28143   -28279   -28416   -28544 
  -28649   -28733   -28815   -28890   -28923   -28910   -28869   -28819 
  -28782   -28775   -28802   -28842   -28879   -28911   -28962   -29027 
  -29064   -29046   -28980   -28876   -28749   -28597   -28401   -28163 
  -27922   -27696   -27467   -27230   -27041   -26950   -26967   -27066 
  -27199   -27337   -27469   -27607   -27754   -27895   -28003   -28069 
  -28109   -28146   -28197   -28275   -28367   -28455   -28534   -28638 
  -28790   -28954   -29074   -29128   -29128   -29100   -29079   -29095 
  -29137   -29172   -29196   -29236   -29304   -29357   -29347   -29281 
  -29197   -29111   -29011   -28899   -28795   -28707   -28603   -28467 
  -28328   -28210   -28102   -27982   -27845   -27681   -27514   -27409 
  -27409   -27499   -27662   -27878   -28109   -28309   -28447   -28512 
  -28501   -28421   -28294   -28129   -27912   -27664   -27438   -27240 
  -27060   -26935   -26893   -26925   -27010   -27137   -27306   -27514 
  -27749   -27980   -28179   -28343   -28462   -28532   -28564   -28579 
  -28584   -28574   -28539   -28476   -28397   -28317   -28260   -28229 
  -28206   -28205   -28251   -28331   -28406   -28459   -28499   -28553 
  -28632   -28722   -28795   -28819   -28786   -28709   -28610   -28502 
  -28375   -28233   -28102   -28003   -27922   -27854   -27801   -27756 
  -27706   -27654   -27608   -27584   -27600   -27661   -27750   -27838 
  -27920   -28015   -28116   -28202   -28267   -28313   -28339   -28348 
  -28344   -28341   -28364   -28439   -28557   -28687   -28777   -28803 
  -28777   -28734   -28678   -28586   -28468   -28362   -28278   -28202 
  -28127   -28053   -27996   -27976   -27985   -28007   -28042   -28113 
  -28237   -28391   -28534   -28633   -28692   -28749   -28829   -28906 
  -28962   -29014   -29065   -29100   -29122   -29137   -29133   -29114 
  -29079   -29011   -28915   -28821   -28741   -28657   -28549   -28420 
  -28287   -28165   -28055   -27935   -27792   -27657   -27585   -27583 
  -27619   -27684   -27777   -27897   -28020   -28119   -28194   -28254 
  -28290   -28300   -28302   -28316   -28347   -28399   -28472   -28532 
  -28557   -28553   -28529   -28479   -28405   -28318   -28244   -28183 
  -28116   -28020   -27888   -27739   -27604   -27477   -27351   -27252 
  -27205   -27195   -27199   -27226   -27297   -27410   -27562   -27753 
  -27951   -28115   -28225   -28308   -28404   -28539   -28701   -28858 
  -28987   -29064   -29091   -29093   -29066   -28991   -28863   -28696 
  -28518   -28366   -28267   -28216   -28171   -28107   -28024   -27940 
  -27862   -27801   -27773   -27750   -27715   -27710   -27762   -27830 
  -27861   -27855   -27855   -27901   -27986   -28081   -28182   -28293 
  -28391   -28460   -28494   -28502   -28509   -28526   -28553   -28588 
  -28622   -28637   -28638   -28640   -28630   -28587   -28498   -28377 
  -28244   -28127   -28028   -27954   -27918   -27913   -27936   -27990 
  -28063   -28128   -28170   -28192   -28208   -28217   -28217   -28225 
  -28263   -28341   -28445   -28549   -28638   -28718   -28799   -28872 
  -28921   -28957   -28991   -29007   -28988   -28942   -28888   -28821 
  -28709   -28555   -28386   -28213   -28044   -27909   -27820   -27776 
  -27778   -27816   -27872   -27938   -28004   -28043   -28046   -28020 
  -28001   -28013   -28055   -28116   -28178   -28240   -28313   -28395 
  -28483   -28580   -28655   -28679   -28672   -28659   -28626   -28580 
  -28540   -28517   -28506   -28495   -28463   -28417   -28385   -28366 
  -28328   -28255   -28174   -28112   -28065   -28013   -27950   -27884 
  -27846   -27851   -27886   -27922   -27932   -27908   -27862   -27804 
  -27758   -27754   -27787   -27831   -27880   -27918   -27940   -27962 
  -27984   -27990   -27976   -27946   -27923   -27930   -27974   -28054 
