Origin Time       2024/04/02 04:24:00
Lat.              40.133
Long.             141.712
Depth. (km)       71
Mag.              6.0
Station Code      AKT010
Station Lat.      39.7223
Station Long.     140.0998
Station Height(m) 6
Record Time       2024/04/02 04:25:01
Sampling Freq(Hz) 100Hz
Duration Time(s)  104
Dir.              U-D
Scale Factor      7845(gal)/8223790
Max. Acc. (gal)   3.843
Last Correction   2024/04/02 04:25:01
Memo.             
[...]
  -23743   -23743   -23749   -23746   -23746   -23751   -23749   -23741 
  -23739   -23746   -23750   -23745   -23743   -23749   -23749   -23745 
  -23742   -23741   -23742   -23743   -23742   -23742   -23745   -23745 
  -23742   -23743   -23746   -23743   -23741   -23746   -23745   -23741 
  -23747   -23750   -23739   -23739   -23746   -23743   -23739   -23745 
  -23750   -23750   -23745   -23741   -23745   -23749   -23747   -23746 
  -23745   -23741   -23741   -23743   -23746   -23746   -23749   -23750 
  -23742   -23738   -23743   -23749   -23750   -23745   -23741   -23746 
  -23751   -23749   -23745   -23743   -23745   -23742   -23741   -23746 
  -23749   -23745   -23745   -23745   -23743   -23746   -23750   -23746 
  -23739   -23742   -23746   -23746   -23742   -23741   -23742   -23742 
  -23742   -23742   -23743   -23747   -23743   -23738   -23741   -23743 
  -23745   -23741   -23738   -23742   -23746   -23741   -23738   -23745 
  -23747   -23741   -23741   -23743   -23742   -23741   -23742   -23741 
  -23739   -23739   -23742   -23743   -23741   -23738   -23742   -23746 
  -23739   -23738   -23746   -23747   -23741   -23739   -23739   -23738 
  -23739   -23742   -23742   -23743   -23746   -23742   -23741   -23743 
  -23742   -23739   -23739   -23741   -23739   -23739   -23742   -23741 
  -23742   -23746   -23743   -23739   -23738   -23739   -23742   -23745 
  -23746   -23747   -23743   -23742   -23742   -23742   -23742   -23743 
  -23746   -23743   -23738   -23739   -23746   -23750   -23745   -23741 
  -23743   -23745   -23742   -23745   -23746   -23745   -23743   -23743 
  -23743   -23743   -23745   -23749   -23746   -23739   -23743   -23749 
  -23743   -23741   -23742   -23746   -23746   -23745   -23745   -23750 
  -23753   -23745   -23741   -23747   -23751   -23747   -23743   -23742 
  -23747   -23750   -23746   -23743   -23745   -23747   -23743   -23741 
  -23747   -23751   -23743   -23742   -23749   -23747   -23743   -23745 
  -23746   -23747   -23747   -23745   -23747   -23749   -23739   -23737 
  -23745   -23750   -23751   -23747   -23743   -23743   -23745   -23745 
  -23742   -23743   -23745   -23745   -23743   -23746   -23750   -23747 
  -23743   -23743   -23750   -23749   -23741   -23742   -23746   -23745 
  -23742   -23746   -23753   -23749   -23738   -23737   -23745   -23746 
  -23742   -23742   -23745   -23745   -23745   -23747   -23746   -23745 
  -23743   -23742   -23742   -23745   -23746   -23745   -23743   -23743 
  -23749   -23753   -23749   -23742   -23745   -23747   -23742   -23739 
  -23745   -23751   -23750   -23746   -23747   -23749   -23743   -23743 
  -23749   -23749   -23746   -23746   -23747   -23746   -23743   -23743 
  -23747   -23749   -23747   -23746   -23749   -23749   -23747   -23746 
  -23747   -23750   -23749   -23747   -23746   -23743   -23743   -23746 
  -23747   -23745   -23743   -23743   -23746   -23747   -23745   -23745 
  -23746   -23746   -23747   -23747   -23750   -23753   -23754   -23747 
  -23741   -23742   -23743   -23746   -23749   -23745   -23743   -23747 
  -23749   -23746   -23743   -23746   -23746   -23742   -23742   -23747 
  -23746   -23739   -23742   -23746   -23747   -23745   -23742   -23742 
  -23742   -23743   -23739   -23742   -23749   -23743   -23737   -23745 
  -23747   -23742   -23742   -23742   -23742   -23746   -23745   -23741 
  -23742   -23742   -23741   -23742   -23745   -23746   -23741   -23738 
  -23743   -23747   -23746   -23745   -23743   -23741   -23741   -23742 
  -23745   -23747   -23746   -23742   -23741   -23742   -23742   -23745 
  -23743   -23742   -23739   -23741   -23746   -23746   -23739   -23739 
  -23747   -23747   -23739   -23739   -23745   -23742   -23738   -23741 
  -23742   -23745   -23746   -23746   -23746   -23746   -23743   -23739 
  -23745   -23747   -23743   -23742   -23739   -23739   -23742   -23745 
  -23742   -23739   -23742   -23745   -23742   -23739   -23742   -23746 
  -23745   -23741   -23741   -23745   -23741   -23739   -23745   -23746 
  -23747   -23749   -23745   -23743   -23746   -23739   -23741   -23749 
  -23746   -23739   -23737   -23742   -23749   -23747   -23742   -23741 
  -23747   -23747   -23741   -23743   -23746   -23739   -23739   -23749 
  -23751   -23745   -23742   -23745   -23743   -23746   -23751   -23749 
  -23739   -23741   -23746   -23742   -23739   -23746   -23749   -23742 
  -23741   -23749   -23751   -23746   -23743   -23743   -23743   -23746 
  -23743   -23741   -23743   -23746   -23746   -23745   -23742   -23743 
  -23746   -23746   -23746   -23747   -23746   -23743   -23743   -23749 
  -23750   -23742   -23743   -23746   -23739   -23737   -23747   -23751 
  -23746   -23742   -23743   -23745   -23745   -23743   -23745   -23745 
  -23743   -23743   -23746   -23747   -23742   -23741   -23747   -23750 
  -23746   -23746   -23745   -23741   -23743   -23747   -23750   -23747 
  -23742   -23741   -23745   -23747   -23747   -23746   -23746   -23746 
  -23745   -23742   -23742   -23745   -23746   -23743   -23745   -23751 
  -23749   -23742   -23739   -23742   -23749   -23749   -23743   -23743 
  -23745   -23743   -23746   -23753   -23747   -23738   -23743   -23749 
  -23742   -23739   -23746   -23750   -23746   -23745   -23747   -23743 
  -23742   -23745   -23745   -23745   -23747   -23750   -23749   -23743 
  -23742   -23745   -23746   -23746   -23743   -23743   -23746   -23745 
  -23743   -23745   -23741   -23741   -23747   -23746   -23742   -23743 
  -23742   -23743   -23749   -23747   -23745   -23746   -23743   -23739 
  -23743   -23745   -23742   -23743   -23743   -23739   -23741   -23743 
  -23745   -23745   -23741   -23739   -23742   -23745   -23743   -23745 
  -23743   -23739   -23742   -23746   -23746   -23745   -23738   -23737 
  -23745   -23747   -23739   -23741   -23747   -23749   -23742   -23737 
  -23737   -23742   -23745   -23741   -23745   -23750   -23745   -23735 
  -23735   -23741   -23743   -23747   -23747   -23746   -23746   -23742 
  -23741   -23745   -23742   -23739   -23743   -23746   -23742   -23739 
  -23741   -23742   -23745   -23749   -23749   -23746   -23742   -23743 
  -23747   -23746   -23745   -23746   -23747   -23745   -23742   -23749 
  -23754   -23746   -23739   -23742   -23745   -23743   -23747   -23753 
  -23751   -23746   -23742   -23745   -23749   -23742   -23741   -23751 
  -23753   -23746   -23747   -23754   -23750   -23742   -23745   -23755 
  -23753   -23742   -23747   -23753   -23745   -23741   -23743   -23743 
  -23745   -23746   -23749   -23747   -23747   -23747   -23745   -23741 
  -23743   -23750   -23751   -23746   -23743   -23747   -23749   -23743 
  -23742   -23745   -23746   -23743   -23742   -23747   -23750   -23741 
  -23742   -23749   -23743   -23741   -23743   -23745   -23743   -23741 
  -23739   -23745   -23746   -23742   -23741   -23743   -23745   -23743 
  -23743   -23743   -23743   -23746   -23749   -23746   -23741   -23742 
  -23741   -23741   -23745   -23743   -23745   -23746   -23742   -23743 
  -23746   -23745   -23745   -23746   -23746   -23745   -23738   -23737 
  -23743   -23746   -23742   -23745   -23746   -23742   -23742   -23746 
  -23746   -23745   -23745   -23742   -23742   -23745   -23746   -23750 
  -23749   -23742   -23743   -23743   -23739   -23745   -23747   -23745 
  -23746   -23747   -23742   -23741   -23747   -23751   -23745   -23739 
  -23738   -23742   -23746   -23746   -23741   -23741   -23749   -23747 
  -23738   -23738   -23745   -23743   -23743   -23746   -23746   -23743 
  -23741   -23741   -23745   -23749   -23747   -23742   -23742   -23745 
  -23745   -23738   -23739   -23746   -23741   -23739   -23743   -23741 
  -23737   -23742   -23745   -23738   -23741   -23749   -23747   -23743 
  -23742   -23745   -23749   -23745   -23739   -23742   -23742   -23739 
  -23745   -23749   -23747   -23746   -23747   -23743   -23739   -23742 
  -23742   -23742   -23743   -23742   -23743   -23750   -23751   -23747 
  -23749   -23749   -23746   -23749   -23750   -23745   -23745   -23751 
  -23747   -23743   -23747   -23749   -23745   -23742   -23749   -23753 
  -23743   -23741   -23747   -23746   -23741   -23745   -23747   -23745 
  -23747   -23750   -23746   -23742   -23742   -23743   -23746   -23747 
  -23745   -23745   -23745   -23742   -23745   -23747   -23746   -23741 
  -23739   -23742   -23739   -23735   -23743   -23750   -23743   -23741 
  -23745   -23743   -23735   -23735   -23739   -23745   -23747   -23745 
  -23738   -23735   -23739   -23745   -23743   -23739   -23741   -23742 
  -23742   -23741   -23742   -23746   -23746   -23742   -23739   -23742 
  -23746   -23743   -23741   -23743   -23746   -23746   -23746   -23743 
  -23739   -23742   -23750   -23749   -23747   -23749   -23741   -23737 
  -23745   -23750   -23749   -23745   -23742   -23741   -23742   -23743 
  -23743   -23743   -23746   -23742   -23735   -23739   -23746   -23745 
  -23741   -23742   -23747   -23746   -23739   -23741   -23747   -23747 
  -23745   -23742   -23739   -23743   -23746   -23742   -23743   -23749 
  -23747   -23743   -23746   -23747   -23743   -23742   -23745   -23749 
  -23747   -23743   -23745   -23745   -23743   -23747   -23749   -23747 
  -23749   -23743   -23742   -23749   -23749   -23747   -23750   -23749 
  -23745   -23745   -23749   -23749   -23747   -23751   -23750   -23747 
  -23753   -23755   -23749   -23747   -23751   -23750   -23750   -23751 
  -23751   -23749   -23746   -23749   -23751   -23754   -23751   -23743 
  -23745   -23751   -23747   -23745   -23753   -23749   -23739   -23746 
  -23750   -23746   -23747   -23750   -23745   -23741   -23742   -23743 
  -23743   -23747   -23750   -23749   -23747   -23746   -23741   -23735 
  -23737   -23745   -23749   -23749   -23745   -23742   -23743   -23742 
  -23741   -23745   -23746   -23742   -23742   -23743   -23739   -23741 
  -23745   -23741   -23741   -23747   -23745   -23739   -23741   -23746 
  -23745   -23739   -23742   -23745   -23737   -23737   -23745   -23745 
  -23743   -23743   -23745   -23743   -23739   -23743   -23750   -23747 
  -23742   -23742   -23743   -23741   -23742   -23746   -23743   -23738 
  -23741   -23742   -23742   -23743   -23741   -23739   -23743   -23742 
  -23735   -23741   -23746   -23742   -23739   -23745   -23743   -23738 
  -23741   -23743   -23743   -23745   -23743   -23738   -23737   -23739 
  -23742   -23745   -23745   -23742   -23738   -23741   -23741   -23737 
  -23741   -23749   -23743   -23738   -23743   -23743   -23742   -23742 
  -23741   -23742   -23745   -23745   -23742   -23742   -23741   -23741 
  -23743   -23746   -23746   -23742   -23743   -23745   -23739   -23739 
  -23743   -23743   -23745   -23747   -23745   -23738   -23739   -23743 
  -23745   -23746   -23750   -23745   -23739   -23741   -23746   -23747 
  -23746   -23747   -23746   -23746   -23749   -23746   -23743   -23745 
  -23742   -23741   -23745   -23742   -23745   -23750   -23742   -23738 
  -23747   -23747   -23741   -23741   -23743   -23745   -23746   -23745 
  -23743   -23750   -23747   -23739   -23742   -23749   -23750   -23747 
  -23743   -23743   -23745   -23747   -23746   -23746   -23749   -23749 
  -23747   -23749   -23746   -23745   -23750   -23753   -23745   -23739 
  -23745   -23753   -23750   -23743   -23746   -23751   -23746   -23741 
  -23749   -23751   -23747   -23743   -23745   -23751   -23749   -23741 
  -23739   -23746   -23751   -23749   -23742   -23742   -23743   -23741 
  -23743   -23746   -23747   -23747   -23742   -23743   -23746   -23742 
  -23741   -23750   -23747   -23738   -23742   -23749   -23745   -23739 
  -23742   -23745   -23745   -23746   -23743   -23738   -23738   -23741 
  -23745   -23746   -23743   -23739   -23735   -23735   -23741   -23747 
  -23747   -23739   -23738   -23739   -23741   -23745   -23742   -23741 
  -23745   -23743   -23741   -23746   -23747   -23742   -23739   -23745 
  -23751   -23750   -23743   -23742   -23749   -23746   -23745   -23747 
  -23743   -23738   -23742   -23747   -23747   -23749   -23750   -23749 
  -23745   -23742   -23745   -23747   -23745   -23749   -23753   -23749 
  -23743   -23743   -23743   -23745   -23746   -23749   -23751   -23750 
  -23743   -23741   -23745   -23745   -23745   -23749   -23746   -23741 
  -23746   -23751   -23746   -23743   -23746   -23747   -23745   -23743 
  -23743   -23747   -23747   -23745   -23746   -23746   -23741   -23739 
  -23743   -23746   -23745   -23746   -23747   -23742   -23738   -23745 
  -23750   -23743   -23741   -23746   -23745   -23739   -23741   -23745 
  -23749   -23746   -23742   -23745   -23746   -23742   -23743   -23749 
  -23746   -23743   -23745   -23741   -23739   -23745   -23747   -23746 
  -23747   -23743   -23739   -23739   -23741   -23745   -23745   -23741 
  -23743   -23747   -23743   -23741   -23747   -23751   -23755   -23764 
  -23768   -23768   -23760   -23745   -23731   -23718   -23693   -23672 
  -23662   -23657   -23654   -23660   -23658   -23647   -23633   -23620 
  -23615   -23615   -23606   -23583   -23541   -23464   -23348   -23188 
  -23001   -22833   -22744   -22751   -22831   -22937   -23013   -23036 
  -23024   -23006   -22998   -23006   -23033   -23093   -23187   -23301 
  -23448   -23654   -23911   -24198   -24507   -24818   -25093   -25288 
  -25361   -25262   -24961   -24490   -23953   -23481   -23180   -23101 
  -23232   -23499   -23815   -24113   -24364   -24557   -24675   -24684 
  -24543   -24205   -23665   -22974   -22235   -21581   -21089   -20777 
  -20692   -20915   -21462   -22219   -23035   -23831   -24651   -25523 
  -26358   -27031   -27483   -27722   -27772   -27650   -27372   -26958 
  -26476   -26011   -25589   -25181   -24767   -24340   -23934   -23579 
  -23290   -23075   -22958   -22990   -23186   -23467   -23683   -23711 
  -23550   -23337   -23197   -23121   -22997   -22771   -22534   -22393 
  -22395   -22522   -22720   -22956   -23232   -23527   -23796   -24086 
  -24487   -24937   -25197   -25042   -24480   -23774   -23230   -22972 
  -22894   -22840   -22859   -23102   -23544   -23965   -24241   -24433 
  -24618   -24790   -24846   -24745   -24617   -24489   -24055   -23045 
  -21689   -20621   -20394   -21042   -22137   -23261   -24227   -24923 
  -25266   -25266   -25062   -24849   -24715   -24580   -24364   -24127 
  -23946   -23816   -23658   -23360   -22893   -22399   -22076   -22022 
  -22200   -22497   -22812   -23136   -23553   -24120   -24749   -25230 
  -25367   -25154   -24752   -24314   -23947   -23701   -23535   -23340 
  -23024   -22590   -22134   -21790   -21628   -21660   -21964   -22677 
  -23751   -24865   -25648   -25913   -25681   -25168   -24672   -24349 
  -24147   -23946   -23677   -23359   -23112   -23113   -23437   -23950 
  -24401   -24618   -24601   -24472   -24371   -24325   -24273   -24175 
  -24075   -24019   -23994   -23928   -23730   -23375   -23018   -22948 
  -23220   -23552   -23728   -23772   -23726   -23566   -23269   -22916 
  -22689   -22654   -22696   -22663   -22520   -22377   -22376   -22519 
  -22755   -23090   -23503   -23889   -24148   -24237   -24139   -23865 
  -23549   -23444   -23774   -24545   -25450   -26029   -25978   -25389 
  -24614   -23893   -23291   -22824   -22513   -22414   -22593   -22971 
  -23244   -23172   -22871   -22646   -22661   -22887   -23255   -23672 
  -24001   -24105   -23893   -23472   -23141   -23086   -23187   -23229 
  -23134   -23001   -23006   -23264   -23761   -24339   -24776   -24964 
  -24960   -24857   -24745   -24691   -24642   -24472   -24152   -23812 
  -23656   -23807   -24148   -24374   -24301   -24007   -23653   -23332 
  -23024   -22663   -22293   -22072   -22096   -22356   -22835   -23495 
  -24240   -24915   -25346   -25481   -25451   -25456   -25597   -25786 
  -25876   -25775   -25459   -24948   -24282   -23535   -22859   -22441 
  -22358   -22572   -23018   -23633   -24304   -24834   -24976   -24684 
  -24227   -23876   -23688   -23596   -23557   -23587   -23674   -23724 
  -23623   -23364   -23106   -23044   -23234   -23607   -24058   -24440 
  -24590   -24447   -24152   -23926   -23878   -24011   -24255   -24475 
  -24520   -24305   -23814   -23136   -22509   -22208   -22279   -22507 
  -22692   -22783   -22815   -22824   -22779   -22655   -22617   -22897 
  -23488   -24147   -24619   -24768   -24637   -24391   -24109   -23770 
  -23382   -22995   -22692   -22586   -22752   -23161   -23711   -24255 
  -24637   -24773   -24676   -24405   -23998   -23485   -22971   -22605 
  -22465   -22500   -22551   -22534   -22538   -22685   -23026   -23546 
  -24159   -24742   -25189   -25440   -25448   -25213   -24829   -24421 
  -24071   -23789   -23560   -23433   -23487   -23693   -23872   -23865 
  -23726   -23653   -23770   -23967   -24007   -23838   -23645   -23584 
  -23646   -23774   -23955   -24170   -24328   -24320   -24127   -23850 
  -23610   -23450   -23376   -23417   -23558   -23737   -23934   -24186 
  -24494   -24823   -25074   -25135   -24972   -24645   -24279   -24027 
  -23971   -24066   -24156   -24119   -23949   -23718   -23512   -23375 
  -23284   -23221   -23207   -23296   -23485   -23716   -23951   -24138 
  -24197   -24125   -23990   -23857   -23747   -23616   -23413   -23163 
  -22967   -22894   -22913   -22924   -22871   -22808   -22812   -22883 
  -22990   -23120   -23296   -23552   -23850   -24065   -24089   -23967 
  -23800   -23625   -23430   -23228   -23080   -23039   -23068   -23141 
  -23283   -23479   -23654   -23782   -23928   -24112   -24239   -24209 
  -24048   -23889   -23800   -23695   -23468   -23143   -22871   -22793 
  -22894   -23055   -23202   -23369   -23608   -23882   -24138   -24382 
  -24614   -24741   -24653   -24397   -24139   -23974   -23895   -23847 
  -23819   -23857   -23962   -24019   -23924   -23714   -23530   -23491 
  -23583   -23703   -23780   -23815   -23841   -23895   -23966   -24013 
  -24003   -23932   -23846   -23776   -23701   -23646   -23650   -23735 
  -23892   -24092   -24273   -24358   -24313   -24167   -23996   -23885 
  -23888   -23996   -24123   -24173   -24132   -24054   -23962   -23831 
  -23643   -23456   -23383   -23477   -23662   -23795   -23815   -23770 
  -23701   -23595   -23461   -23365   -23355   -23398   -23402   -23302 
  -23140   -23040   -23068   -23166   -23249   -23305   -23406   -23634 
  -23969   -24291   -24499   -24564   -24491   -24318   -24143   -24032 
  -23969   -23908   -23812   -23699   -23637   -23681   -23796   -23892 
  -23905   -23839   -23755   -23680   -23577   -23456   -23387   -23355 
  -23283   -23214   -23263   -23465   -23735   -23924   -23953   -23882 
  -23820   -23747   -23566   -23279   -23010   -22921   -23052   -23290 
  -23529   -23764   -24005   -24179   -24208   -24094   -23885   -23665 
  -23564   -23650   -23868   -24081   -24178   -24125   -23970   -23803 
  -23685   -23620   -23577   -23515   -23425   -23319   -23252   -23287 
  -23425   -23620   -23834   -24040   -24210   -24317   -24378   -24433 
  -24483   -24468   -24345   -24178   -24086   -24101   -24150   -24160 
  -24133   -24088   -24019   -23928   -23841   -23764   -23706   -23661 
  -23602   -23515   -23456   -23490   -23612   -23755   -23872   -23951 
  -23996   -24019   -23998   -23865   -23638   -23454   -23403   -23423 
  -23413   -23356   -23313   -23301   -23314   -23361   -23457   -23606 
  -23785   -23919   -23927   -23849   -23807   -23845   -23904   -23939 
  -23966   -23996   -23993   -23936   -23839   -23755   -23773   -23890 
