Origin Time       2024/04/02 04:24:00
Lat.              40.133
Long.             141.712
Depth. (km)       71
Mag.              6.0
Station Code      AKT010
Station Lat.      39.7223
Station Long.     140.0998
Station Height(m) 6
Record Time       2024/04/02 04:25:01
Sampling Freq(Hz) 100Hz
Duration Time(s)  104
Dir.              N-S
Scale Factor      7845(gal)/8223790
Max. Acc. (gal)   2.207
Last Correction   2024/04/02 04:25:01
Memo.             
[...]
   12117    12152    12224    12318    12372    12345    12279    12204 
   12114    11998    11811    11534    11221    10967    10828    10751 
   10678    10635    10651    10724    10864    11061    11263    11418 
   11516    11583    11638    11707    11816    11919    11988    12087 
   12248    12483    12775    13005    13103    13124    13154    13200 
   13238    13220    13078    12807    12469    12144    11909    11790 
   11765    11789    11793    11719    11583    11416    11215    10955 
   10659    10386    10191    10114    10162    10274    10392    10520 
   10683    10866    11041    11207    11357    11491    11612    11685 
   11689    11642    11573    11500    11411    11295    11156    11011 
   10874    10736    10613    10531    10516    10586    10701    10787 
   10843    10870    10851    10797    10763    10789    10864    10964 
   11072    11165    11206    11180    11137    11125    11148    11209 
   11302    11392    11433    11427    11404    11421    11503    11614 
   11732    11867    12020    12159    12244    12263    12206    12089 
   11946    11817    11766    11809    11898    11977    12006    11955 
   11813    11615    11372    11102    10863    10694    10628    10679 
   10814    10976    11125    11245    11315    11348    11385    11434 
   11497    11576    11638    11685    11738    11816    11942    12105 
   12258    12347    12343    12228    12046    11866    11704    11556 
   11402    11250    11155    11111    11091    11101    11140    11202 
   11256    11271    11250    11173    11029    10872    10735    10598 
   10471    10382    10347    10342    10347    10390    10517    10705 
   10885    11036    11183    11341    11502    11622    11696    11759 
   11819    11877    11925    11951    11931    11834    11659    11411 
   11105    10786    10501    10293    10149    10033     9961     9984 
   10127    10332    10511    10598    10585    10512    10413    10303 
   10207    10149    10158    10250    10404    10566    10671    10733 
   10813    10925    11036    11117    11168    11196    11215    11233 
   11263    11338    11462    11587    11655    11653    11601    11523 
   11448    11402    11384    11368    11340    11323    11338    11352 
   11298    11155    10975    10825    10729    10698    10719    10777 
   10852    10929    11041    11190    11329    11446    11561    11704 
   11886    12067    12224    12340    12361    12270    12123    11996 
   11917    11854    11793    11750    11705    11616    11450    11246 
   11055    10885    10766    10716    10732    10814    10920    10986 
   11017    11056    11106    11168    11268    11392    11530    11688 
   11865    12048    12221    12386    12546    12700    12843    12931 
   12924    12843    12698    12506    12295    12083    11904    11773 
   11681    11599    11493    11352    11184    11009    10836    10681 
   10552    10451    10407    10415    10424    10442    10503    10646 
   10871    11113    11325    11533    11769    12006    12172    12236 
   12245    12247    12240    12205    12113    11947    11723    11487 
   11290    11138    11047    11018    10970    10845    10697    10544 
   10369    10187    10026     9898     9778     9634     9466     9304 
    9182     9139     9225     9459     9790    10134    10430    10642 
   10746    10746    10638    10443    10234    10044     9884     9792 
    9778     9846     9981    10134    10276    10397    10454    10369 
   10150     9892     9667     9508     9425     9420     9499     9647 
    9818    10004    10219    10439    10617    10741    10812    10852 
   10886    10914    10972    11065    11152    11211    11273    11379 
   11507    11604    11673    11754    11853    11943    11998    12021 
   12028    12024    12020    12059    12113    12129    12128    12140 
   12159    12150    12073    11928    11722    11421    11049    10696 
   10440    10330    10373    10516    10671    10794    10891    10987 
   11102    11248    11427    11632    11831    11965    12006    11997 
   11983    11956    11916    11905    11970    12116    12313    12502 
   12618    12664    12656    12571    12426    12275    12139    12008 
   11855    11692    11565    11515    11551    11661    11817    11963 
   12056    12109    12168    12241    12267    12231    12194    12164 
   12113    12083    12168    12407    12715    12943    12996    12908 
   12775    12650    12528    12386    12209    12002    11809    11678 
   11593    11504    11385    11252    11095    10902    10721    10620 
   10613    10673    10732    10744    10720    10689    10670    10682 
   10728    10795    10890    11068    11371    11755    12137    12441 
   12607    12607    12448    12191    11936    11730    11578    11479 
   11392    11292    11161    11002    10866    10777    10714    10656 
   10604    10586    10624    10682    10687    10600    10449    10285 
   10154    10095    10129    10247    10405    10569    10705    10779 
   10801    10787    10733    10627    10486    10382    10369    10467 
   10646    10831    10971    11057    11105    11129    11124    11072 
   10956    10802    10675    10617    10656    10797    10998    11188 
   11302    11314    11229    11082    10929    10800    10705    10658 
   10666    10716    10789    10883    10944    10893    10755    10604 
   10489    10434    10431    10476    10550    10621    10667    10683 
   10706    10791    10960    11186    11415    11595    11691    11696 
   11639    11547    11448    11367    11291    11217    11205    11277 
   11407    11561    11691    11759    11757    11716    11688    11659 
   11568    11380    11141    10951    10894    11016    11288    11649 
   12040    12375    12577    12668    12671    12587    12451    12313 
   12199    12150    12206    12351    12533    12679    12711    12637 
   12529    12415    12307    12195    12056    11908    11785    11677 
   11561    11431    11310    11221    11152    11076    11005    10979 
   10999    11040    11105    11205    11349    11519    11658    11745 
   11796    11838    11885    11913    11900    11873    11885    11954 
   12033    12086    12117    12131    12137    12150    12139    12058 
   11886    11657    11427    11252    11122    10939    10624    10219 
    9811     9472     9281     9282     9454     9717     9990    10220 
   10405    10561    10693    10821    10963    11103    11232    11337 
   11422    11516    11635    11754    11838    11894    11942    11985 
   12019    12039    12063    12101    12109    12042    11892    11703 
   11512    11333    11168    11010    10874    10778    10712    10660 
   10638    10655    10697    10714    10663    10550    10449    10419 
   10435    10440    10400    10326    10250    10180    10129    10149 
   10295    10598    11001    11334    11483    11426    11196    10940 
   10801    10794    10868    10979    11109    11215    11260    11233 
   11117    10968    10886    10887    10972    11140    11299    11346 
   11259    11075    10862    10674    10542    10470    10447    10455 
   10486    10550    10650    10773    10905    11037    11159    11244 
   11259    11198    11055    10831    10540    10234    10008     9922 
    9981    10154    10377    10625    10906    11184    11360    11341 
   11142    10867    10606    10416    10334    10374    10500    10651 
   10770    10845    10912    10993    11130    11391    11751    12101 
   12316    12301    12101    11867    11723    11713    11808    11929 
   12005    11952    11734    11375    10945    10546    10270    10141 
   10089    10039     9972     9849     9649     9463     9417     9570 
    9869    10201    10474    10702    10948    11202    11408    11538 
   11570    11518    11441    11427    11518    11693    11908    12079 
   12127    12063    11920    11719    11489    11246    11020    10864 
   10836    10951    11157    11400    11638    11776    11784    11715 
   11637    11618    11651    11712    11808    11896    11869    11699 
   11484    11325    11232    11218    11253    11242    11129    10944 
   10773    10704    10764    10957    11221    11453    11604    11684 
   11704    11658    11580    11576    11716    11979    12266    12478 
   12572    12544    12413    12221    12009    11815    11695    11711 
   11877    12140    12413    12637    12780    12787    12623    12313 
   11915    11541    11292    11218    11330    11574    11885    12224 
   12518    12711    12771    12687    12513    12326    12164    12032 
   11940    11882    11834    11807    11826    11905    12069    12291 
   12486    12571    12529    12413    12337    12375    12468    12511 
   12459    12316    12083    11778    11472    11222    11032    10924 
   10903    10945    11041    11149    11175    11040    10771    10513 
   10378    10347    10355    10377    10403    10428    10461    10523 
   10633    10773    10913    11061    11238    11421    11533    11551 
   11533    11520    11499    11421    11254    11024    10837    10787 
   10864    10998    11102    11084    10913    10655    10411    10250 
   10195    10226    10303    10384    10473    10600    10775    11005 
   11287    11568    11793    11936    12004    11997    11912    11758 
   11556    11349    11221    11165    11095    10920    10638    10362 
   10215    10220    10301    10347    10332    10295    10251    10206 
   10153    10111    10172    10400    10758    11136    11423    11568 
   11565    11468    11357    11279    11254    11298    11372    11419 
   11427    11425    11396    11306    11138    10912    10696    10562 
   10567    10741    11029    11317    11496    11531    11458    11311 
   11128    10948    10777    10617    10484    10359    10243    10172 
   10158    10184    10223    10257    10331    10527    10862    11257 
   11610    11859    11989    12019    11994    11942    11867    11766 
   11631    11468    11290    11128    10993    10868    10787    10778 
   10795    10783    10717    10597    10465    10395    10442    10616 
   10905    11261    11593    11840    11981    12001    11892    11662 
   11327    10903    10466    10123     9934     9913    10044    10316 
   10721    11195    11614    11863    11886    11711    11433    11167 
   10982    10875    10816    10814    10849    10868    10856    10790 
   10640    10422    10184     9975     9801     9648     9547     9551 
    9651     9779     9909    10056    10237    10440    10635    10805 
   10964    11149    11392    11680    11970    12228    12434    12561 
   12549    12401    12202    12021    11880    11763    11659    11597 
   11603    11645    11712    11835    11986    12093    12112    12017 
   11817    11570    11345    11180    11075    10991    10894    10795 
   10779    10899    11119    11358    11537    11605    11588    11541 
   11480    11389    11313    11333    11470    11692    11923    12055 
   12033    11886    11678    11491    11396    11406    11450    11465 
   11461    11485    11577    11769    12063    12391    12646    12791 
   12866    12941    13039    13139    13205    13221    13181    13078 
   12907    12684    12465    12255    12021    11790    11601    11477 
   11434    11453    11488    11515    11495    11344    11045    10708 
   10466    10389    10463    10624    10787    10887    10937    11014 
   11153    11306    11399    11398    11344    11333    11437    11637 
   11827    11902    11842    11707    11589    11596    11777    12043 
   12248    12283    12136    11907    11720    11670    11794    12044 
   12290    12433    12448    12356    12195    12040    11956    11934 
   11894    11799    11685    11591    11464    11236    10928    10640 
   10492    10534    10732    10987    11190    11292    11314    11265 
   11118    10849    10505    10187     9977     9919    10030    10304 
   10682    11037    11252    11340    11381    11427    11512    11658 
   11850    12042    12155    12159    12093    12001    11882    11724 
   11546    11385    11275    11229    11218    11172    11013    10737 
   10434    10196    10091    10134    10277    10436    10527    10515 
   10423    10291    10174    10123    10139    10235    10405    10581 
   10689    10694    10623    10551    10532    10567    10638    10736 
   10886    11070    11214    11286    11280    11187    11045    10879 
   10651    10405    10260    10266    10378    10512    10611    10704 
   10849    11029    11195    11338    11456    11526    11522    11412 
   11175    10820    10386     9963     9645     9486     9535     9823 
   10311    10866    11315    11524    11502    11349    11118    10820 
   10478    10173    10033    10089    10269    10531    10885    11327 
   11809    12221    12440    12411    12177    11815    11388    10959 
   10594    10353    10277    10341    10476    10689    11007    11369 
   11639    11728    11676    11584    11508    11410    11257    11111 
   11025    10990    10971    10924    10867    10878    10966    11057 
   11078    10964    10735    10466    10254    10216    10399    10721 
   11084    11414    11641    11699    11572    11311    10982    10623 
   10309    10123    10071    10104    10157    10160    10110    10029 
    9927     9846     9846     9992    10309    10756    11248    11681 
   11997    12216    12398    12591    12810    13038    13239    13365 
   13360    13205    12966    12756    12656    12671    12768    12941 
   13178    13414    13562    13539    13319    12930    12441    11955 
   11595    11423    11418    11504    11614    11708    11767    11781 
   11734    11619    11416    11128    10817    10571    10422    10341 
   10293    10287    10354    10481    10640    10849    11126    11465 
   11815    12075    12162    12082    11936    11800    11682    11584 
   11499    11408    11306    11188    11067    10948    10844    10816 
   10916    11115    11317    11419    11425    11406    11379    11283 
   11049    10705    10345    10049     9880     9891    10093    10455 
   10887    11290    11584    11754    11838    11865    11855    11827 
   11781    11739    11726    11699    11641    11599    11611    11666 
   11711    11703    11657    11596    11526    11438    11340    11280 
   11308    11380    11400    11348    11294    11287    11292    11219 
   11021    10731    10449    10254    10184    10233    10357    10523 
   10728    10953    11200    11479    11740    11920    11966    11881 
   11753    11651    11587    11562    11574    11592    11597    11615 
   11674    11786    11917    12010    12066    12089    12066    11962 
   11762    11504    11241    11043    10948    10935    10993    11107 
   11205    11214    11152    11086    11061    11094    11182    11292 
   11408    11531    11669    11794    11821    11672    11364    11020 
   10781    10716    10814    10990    11094    11040    10868    10712 
   10693    10843    11072    11261    11358    11379    11353    11317 
   11296    11294    11318    11400    11520    11630    11695    11688 
   11623    11561    11519    11480    11433    11394    11377    11353 
   11260    11049    10739    10440    10257    10214    10292    10432 
   10562    10616    10566    10434    10280    10111     9915     9737 
    9634     9656     9818    10071    10345    10609    10851    11080 
   11304    11511    11695    11871    12033    12152    12212    12197 
   12069    11831    11558    11365    11327    11400    11504    11601 
   11658    11674    11668    11649    11626    11618    11645    11693 
   11697    11615    11460    11246    11016    10844    10789    10883 
   11118    11416    11681    11832    11796    11558    11202    10868 
   10696    10733    10933    11188    11389    11477    11465    11416 
   11399    11437    11500    11584    11703    11854    12039    12235 
   12366    12364    12232    12035    11859    11745    11650    11499 
   11253    10960    10702    10558    10557    10687    10945    11276 
   11520    11554    11398    11187    11086    11129    11200    11217 
   11191    11160    11152    11165    11176    11186    11211    11260 
   11329    11423    11516    11550    11480    11314    11132    11013 
   10959    10933    10905    10874    10874    10916    10976    11041 
   11101    11168    11245    11288    11260    11157    10998    10786 
   10523    10245    10006     9826     9713     9687     9737     9840 
   10006    10212    10427    10647    10839    10955    11011    11072 
   11199    11387    11553    11628    11595    11476    11313    11179 
   11152    11222    11326    11419    11469    11454    11402    11372 
   11385    11426    11462    11475    11464    11410    11323    11272 
   11291    11379    11502    11597    11634    11628    11608    11570 
   11473    11295    11068    10835    10639    10524    10531    10671 
   10913    11196    11462    11650    11722    11703    11630    11496 
   11330    11230    11264    11384    11533    11684    11808    11885 
   11900    11840    11720    11557    11364    11156    10978    10897 
   10930    11048    11198    11346    11483    11610    11728    11801 
   11777    11641    11415    11182    11052    11068    11191    11352 
   11468    11488    11402    11241    11095    11059    11149    11342 
   11554    11676    11670    11545    11313    11007    10714    10555 
   10620    10908    11331    11762    12091    12251    12220    12009 
   11661    11253    10918    10754    10744    10809    10890    10974 
   11071    11175    11250    11281    11294    11288    11241    11146 
   11029    10945    10939    10979    11025    11092    11203    11308 
   11300    11155    10991    10947    11038    11190    11286    11264 
   11157    11034    10930    10855    10832    10862    10898    10895 
   10845    10787    10778    10870    11056    11259    11411    11491 
   11468    11314    11053    10737    10415    10135     9941     9855 
    9879    10004    10227    10519    10805    11005    11063    11006 
   10922    10867    10837    10806    10756    10717    10728    10789 
   10908    11075    11234    11356    11427    11434    11411    11406 
   11449    11520    11578    11618    11650    11677    11711    11797 
   11974    12209    12422    12577    12658    12642    12509    12266 
   11978    11750    11659    11718    11902    12178    12514    12862 
   13143    13274    13244    13123    12978    12838    12711    12588 
   12459    12341    12221    12073    11924    11808    11732    11743 
   11890    12167    12509    12802    12933    12865    12652    12388 
   12139    11919    11724    11534    11346    11188    11090    11033 
   10983    10933    10901    10894    10893    10862    10797    10751 
   10758    10775    10778    10782    10814    10894    10995    11043 
   10980    10841    10698    10604    10575    10584    10601    10616 
   10616    10629    10717    10905    11168    11406    11491    11375 
   11110    10795    10530    10373    10347    10449    10647    10909 
   11178    11404    11576    11651    11581    11396    11176    10991 
   10852    10735    10655    10654    10710    10793    10895    10971 
   10953    10843    10683    10519    10399    10363    10423    10547 
   10681    10741    10683    10552    10478    10570    10827    11155 
