Origin Time       2024/04/02 04:24:00
Lat.              40.133
Long.             141.712
Depth. (km)       71
Mag.              6.0
Station Code      AOM012
Station Lat.      40.5127
Station Long.     141.4880
Station Height(m) 12
Record Time       2024/04/02 04:24:49
Sampling Freq(Hz) 100Hz
Duration Time(s)  138
Dir.              E-W
Scale Factor      7845(gal)/8223790
Max. Acc. (gal)   242.403
Last Correction   2024/04/02 04:24:49
Memo.             
[...]
  -20682   -20683   -20690   -20707   -20723   -20709   -20684   -20686 
  -20686   -20679   -20686   -20703   -20717   -20710   -20688   -20679 
  -20682   -20683   -20679   -20676   -20688   -20707   -20704   -20682 
  -20671   -20686   -20696   -20679   -20669   -20691   -20714   -20707 
  -20688   -20692   -20709   -20699   -20673   -20680   -20707   -20714 
  -20702   -20690   -20684   -20688   -20694   -20695   -20694   -20694 
  -20687   -20677   -20680   -20691   -20686   -20672   -20668   -20682 
  -20703   -20700   -20682   -20684   -20700   -20698   -20680   -20683 
  -20704   -20711   -20699   -20688   -20698   -20717   -20703   -20680 
  -20683   -20688   -20684   -20691   -20703   -20709   -20699   -20686 
  -20688   -20696   -20683   -20660   -20664   -20690   -20699   -20686 
  -20683   -20695   -20700   -20692   -20682   -20675   -20676   -20687 
  -20696   -20698   -20699   -20707   -20706   -20691   -20679   -20687 
  -20698   -20687   -20686   -20710   -20714   -20687   -20673   -20692 
  -20709   -20692   -20676   -20692   -20703   -20679   -20665   -20679 
  -20690   -20694   -20692   -20688   -20687   -20683   -20683   -20691 
  -20698   -20696   -20688   -20684   -20691   -20702   -20704   -20696 
  -20694   -20698   -20694   -20682   -20679   -20698   -20717   -20707 
  -20687   -20682   -20691   -20696   -20682   -20668   -20692   -20721 
  -20702   -20669   -20676   -20694   -20683   -20672   -20686   -20703 
  -20699   -20684   -20686   -20702   -20702   -20687   -20679   -20687 
  -20694   -20687   -20680   -20692   -20709   -20707   -20687   -20675 
  -20684   -20698   -20692   -20675   -20676   -20709   -20722   -20690 
  -20665   -20679   -20688   -20677   -20676   -20698   -20711   -20691 
  -20679   -20696   -20704   -20690   -20675   -20682   -20700   -20696 
  -20683   -20692   -20707   -20703   -20686   -20675   -20686   -20703 
  -20706   -20694   -20684   -20691   -20703   -20695   -20669   -20661 
  -20688   -20706   -20687   -20683   -20711   -20715   -20686   -20669 
  -20680   -20694   -20684   -20676   -20699   -20718   -20704   -20686 
  -20688   -20700   -20690   -20668   -20675   -20703   -20717   -20709 
  -20688   -20676   -20684   -20694   -20684   -20679   -20692   -20703 
  -20695   -20680   -20680   -20683   -20682   -20688   -20709   -20713 
  -20684   -20661   -20680   -20719   -20719   -20677   -20668   -20702 
  -20710   -20679   -20665   -20692   -20714   -20698   -20673   -20676 
  -20692   -20692   -20680   -20680   -20696   -20702   -20687   -20680 
  -20691   -20696   -20687   -20680   -20687   -20696   -20692   -20679 
  -20683   -20709   -20711   -20684   -20673   -20695   -20713   -20695 
  -20664   -20672   -20710   -20717   -20687   -20676   -20691   -20695 
  -20686   -20690   -20704   -20706   -20690   -20679   -20684   -20690 
  -20680   -20677   -20699   -20714   -20703   -20682   -20668   -20679 
  -20696   -20694   -20684   -20690   -20694   -20692   -20688   -20688 
  -20695   -20700   -20692   -20687   -20694   -20690   -20673   -20672 
  -20692   -20711   -20704   -20687   -20686   -20692   -20687   -20675 
  -20675   -20690   -20702   -20696   -20686   -20688   -20695   -20682 
  -20668   -20684   -20706   -20706   -20694   -20686   -20677   -20679 
  -20692   -20702   -20702   -20695   -20684   -20687   -20698   -20699 
  -20684   -20672   -20680   -20702   -20709   -20687   -20676   -20703 
  -20721   -20698   -20669   -20665   -20676   -20680   -20684   -20702 
  -20715   -20713   -20702   -20686   -20673   -20677   -20692   -20723 
  -20768   -20800   -20819   -20841   -20861   -20849   -20781   -20757 
  -20937   -21228   -21289   -20997   -20621   -20297   -19847   -19572 
  -20268   -21687   -22090   -20270   -17641   -17216   -19823   -22823 
  -23438   -21914   -20804   -21278   -22145   -22698   -23195   -23581 
  -23260   -21978   -20572   -19616   -19295   -19140   -17782   -16106 
  -16478   -18265   -18507   -17339   -18115   -21126   -23557   -23449 
  -21429   -20282   -20671   -21277   -22658   -26284   -29787   -27750 
  -21286   -18427   -22262   -26246   -23075   -15836   -14347   -19280 
  -21177   -16117   -10728   -12926   -19290   -19664   -16582   -17331 
  -20046   -21146   -20102   -21959   -27207   -25870   -17860   -12749 
  -14910   -25259   -39680   -45409   -33544   -16337   -11565   -15225 
  -16314   -13984   -12675   -19930   -31660   -34121   -30858   -30920 
  -24106    -3233    10297    -1235   -18859   -21733   -17120   -19786 
  -32039   -40444   -35581   -25456   -14473     -781     8723     4299 
  -12471   -27955   -36009   -43960   -51210   -44806   -25304   -14967 
  -19928   -19427   -10713   -11823   -22125   -24374   -15550   -13497 
  -25587   -31449   -22937   -17982   -18250    -7303    12334    15252 
   -6295   -25713   -27600   -27557   -40381   -54642   -46446   -22099 
   -6724    -2633    -3931   -13288   -29089   -40365   -36918   -27167 
  -24694   -18090     4503    22917    10264   -29430   -58310   -51341 
  -33542   -32373   -38271   -38855   -33926   -20945     4554    34534 
   42568    17049   -23517   -55367   -66336   -66483   -62818   -41702 
  -10609     9343    19494    22320    14131    -5975   -36684   -62137 
  -69198   -63383   -49635   -29895    -7897     9666    17460    18631 
   13055     -529   -20170   -42824   -53370   -47325   -42371   -41455 
  -34851   -23113   -11071    -4210    -2889    -1815    -1543     -739 
    3306     3890    -9081   -38259   -60841   -54422   -36817   -28039 
  -32020   -47528   -51804   -34778   -12937     8278    23211    21604 
    7168   -11913   -34948   -62104   -73141   -50534   -14143    13402 
   19226    -2702   -23082   -21784   -20293   -26604   -34535   -46583 
  -54792   -48791   -31027   -12240     2906    23022    43993    47999 
   26871   -15687   -55444   -65742   -53882   -42930   -38037   -31287 
  -20749   -11083    -7160   -12876   -29490   -48486   -49600   -29033 
   -6378     6849    11056    10381     5104   -14226   -45528   -70166 
  -74166   -56982   -30615   -10486    -2974    -6056   -13810   -19566 
  -23490   -32003   -44124   -45257   -23191     8552    23934    20295 
    7843   -11130   -31326   -44527   -46449   -43661   -50345   -60941 
  -55746   -32119    -3978    15141    23415    24262    12807    -9634 
  -26883   -34080   -39599   -41146   -33805   -25789   -26050   -27357 
  -15850     5146    18856    13865    -4942   -22191   -36375   -47985 
  -40801   -15876     1831     1786    -9387   -26103   -39361   -38134 
  -24286   -10987   -13589   -34453   -52743   -51248   -34186   -11642 
    7661    17234    13063    -5571   -29650   -44470   -39638   -19853 
   -4117     -738    -4322   -14054   -28479   -44535   -60864   -67599 
  -57009   -36892   -20582   -11727    -3905      248    -6759   -19395 
  -27804   -24277   -11593    -5371   -10627   -21689   -33413   -40817 
  -44901   -44670   -36373   -24070    -8829     8883    17462    11014 
   -2596   -19128   -37273   -48335   -45732   -31712   -11780     6492 
   11557     1391    -8656   -15218   -30473   -47771   -50450   -36282 
  -15334    -7096   -18634   -28390   -23877   -18095   -16406   -14647 
  -12883    -9285    -5895   -10083   -18279   -19803   -16281   -15469 
  -19322   -30944   -45549   -47842   -37318   -24422   -11229     1301 
    6920       28   -17853   -36100   -43641   -40289   -35680   -33775 
  -30609   -27128   -22523   -12680    -2658      639    -4437   -14648 
  -24799   -36718   -49638   -52829   -41758   -26140   -18445   -18227 
  -16440    -9274      913     5121    -1825   -11321   -17409   -22470 
  -26114   -26365   -22580   -15934   -11267   -10741   -11703   -13045 
  -14569   -18512   -29497   -43731   -49681   -40211   -21533    -8766 
   -6149    -5181    -2693    -5250   -16907   -28742   -32599   -34528 
  -39764   -45216   -45519   -35810   -18162    -1696     6251     3149 
  -10030   -25061   -31569   -30480   -26752   -18931    -8970    -4725 
   -7851   -12962   -16623   -19322   -22572   -24968   -26372   -33016 
  -41872   -40014   -28394   -18893   -16019   -16502   -17590   -19226 
  -19172   -15520   -12467   -13589   -15977   -18328   -25348   -34557 
  -33131   -17990    -2180      861   -11770   -30156   -38770   -33482 
  -21327    -7221     2012    -1088   -11230   -18227   -20650   -23827 
  -30148   -35750   -39368   -41729   -42394   -42820   -39600   -29080 
  -14663      -66     8538     4527   -11419   -30549   -41000   -41553 
  -38145   -31869   -23120   -12116    -1719     1221    -1368    -1441 
    2025     3562    -3364   -20016   -38994   -50359   -48166   -33673 
  -14705    -1773    -2041    -9601   -13694   -16918   -24943   -33697 
  -38051   -37656   -35371   -31985   -26131   -20603   -17860   -17743 
  -21046   -26052   -28404   -22146    -6577     5213     3651    -4873 
  -14253   -25224   -35683   -39297   -35249   -30478   -27954   -23452 
  -15336    -6700     -901     -372    -3870    -9540   -22083   -43202 
  -62947   -71105   -63960   -41408   -12765     5124     6779     -903 
   -9805   -11673   -10312   -17147   -25586   -26612   -25070   -22423 
  -18588   -15457   -10470    -4453    -2209    -6076   -13529   -18613 
  -21204   -26158   -34928   -46380   -55321   -50989   -31059   -10060 
   -2033    -7391   -18769   -26569   -23913   -13868    -8568   -14137 
  -23253   -27896   -25369   -17073    -9533    -9244   -15585   -18505 
  -11619    -4869    -8073   -16283   -22322   -26249   -30748   -37149 
  -41501   -36196   -24165   -17088   -16424   -17253   -17682   -15022 
  -12168   -16580   -27641   -39559   -45851   -43038   -36327   -27896 
  -14886    -3761    -1044    -1815    -1710    -5840   -18227   -29038 
  -28003   -21498   -19982   -23399   -26134   -27589   -28567   -24916 
  -17963   -14868   -17215   -21068   -22098   -21439   -24538   -30904 
  -32879   -26960   -18981   -14827   -13007    -8769    -3921    -7183 
  -19858   -33019   -39807   -39503   -32179   -18621    -5355     2344 
    3437    -4459   -17617   -29523   -38550   -40497   -32975   -21914 
  -13647    -7573      700     8679     6054   -11452   -32746   -43958 
  -43939   -38923   -33562   -28741   -23565   -16997    -8532    -4477 
   -8845   -15458   -19421   -17768   -13657   -16721   -24970   -30215 
  -31001   -28247   -24834   -22715   -19314   -14605   -11267    -8691 
   -8349   -16596   -32412   -43707   -40608   -26030   -13811   -14103 
  -21847   -26434   -26234   -26211   -27785   -27730   -25446   -24626 
  -26659   -30700   -34149   -27949    -9660     4602     1332   -12648 
  -23152   -24518   -21570   -21618   -24285   -22715   -16112   -12533 
  -16842   -26503   -36116   -35529   -21771   -11514   -15268   -23234 
  -24482   -15993    -6820    -9004   -18323   -22711   -20571   -19296 
  -20985   -22644   -25928   -27653   -22368   -18863   -21597   -18366 
   -6386     1154    -3959   -16163   -24842   -24722   -19588   -17203 
  -17999   -17076   -14725   -12193   -11489   -19313   -34874   -49954 
  -59005   -57250   -44797   -26589    -6633     7300     7068    -7777 
  -29282   -43665   -39434   -17297     5549     9413    -6733   -26352 
  -35168   -34657   -34191   -37305   -37381   -26489    -9849     2650 
    6689    -1291   -16079   -27091   -33893   -38713   -38745   -32618 
  -23692   -15314    -8480    -5474    -9131   -19481   -31163   -36161 
  -33137   -26414   -20067   -19051   -24289   -28194   -24663   -15665 
   -6316     -456     1908     2668     -409   -12820   -32942   -49905 
  -55572   -47331   -27850   -10566    -7510   -14270   -18418   -15932 
  -14077   -19859   -29068   -30503   -21211    -8768    -1051     -954 
   -3653    -4417    -8424   -20463   -35630   -44371   -41546   -32873 
  -26698   -22680   -16974   -10507    -7064    -9753   -18631   -25779 
  -22700   -16548   -19357   -29035   -37585   -39129   -32583   -26307 
  -25483   -24783   -20351   -16379   -17462   -20279   -22414   -27406 
  -34680   -40969   -42688   -36979   -28548   -21038   -12733    -3576 
    8212    22293    28435    14041   -22030   -64638   -94725  -102794 
  -91342   -69936   -44483   -16098     9958    24787    24216    12706 
   -2671   -20071   -39032   -54711   -62730   -59710   -37866     2439 
   40385    54981    43791    18014    -4638   -14878   -19674   -25706 
  -31293   -33949   -37249   -44209   -43961   -27576    -1892    29639 
   67590    96326    89216    35282   -45943  -111358  -123435   -83008 
  -23261    24260    44523    34373    10589     -835    -3370   -13871 
  -29906   -46284   -62351   -74331   -79756   -79062   -71436   -59884 
  -61979   -85037   -99702   -81450   -45212   -15480    -5792   -25555 
  -69685  -111840  -129354  -110650   -47740    40092   106944   122407 
   87212    20648   -42268   -62252   -31675    24768    74310    83020 
   44350   -19670   -89293  -133254  -124386   -72264     6860    95214 
  153284   143141    57898   -68505  -177007  -218008  -183755  -108561 
  -18380    72203   122947   114435    69703     -886   -88111  -148108 
 -135535   -53631    37423    79936    76893    56905    31259     4874 
   -9493    14909    81446   144709   170082   149812    74792   -38344 
 -151063  -222026  -203669  -106174    -1668    66195    76588    21444 
  -49890   -85025   -84712   -60613   -28146   -24187   -73368  -157438 
 -217503  -219512  -197117  -173080  -126542   -41813    60450   119747 
  111819    69468    -6948  -116860  -194935  -187278   -97328    41339 
  170611   233417   222480   178343   120156    22712  -106043  -203756 
 -224137  -174984  -104279   -49917   -14532     8526    36531    77290 
   96804    61701   -18119   -94027  -127394  -129458  -121336  -107356 
  -78556   -10062    83880   140383   126125    50707   -56832  -145039 
 -171784  -143668   -91650   -24576    64644   153137   186547   135140 
   15129  -119747  -189835  -159426   -80654   -17651    26941    70195 
   99566   108913   101372    54526   -30877  -100730  -115993   -88915 
  -54841   -35715   -12938    38091    95476   123288   114690    76759 
   17512   -47987   -96627  -112455   -97438   -57863     1324    62148 
   88877    51875   -28038   -90682  -124791  -156635  -166986  -136286 
  -79678   -12718    42168    63526    34348   -44143  -122003  -153376 
 -138570   -93089   -32768    27873    75628    92103    77220    46792 
   -9983   -93637  -159533  -181911  -172134  -138672   -83151   -13728 
   49851    89780    99042    72890    18270   -42610   -92786  -126357 
 -141555  -131981   -85337    -9312    62081   102447   107237    80195 
   31075   -20794   -59713   -77723   -69610   -43434   -11434    22368 
   49362    60609    51466    20406    -8883    -5566    20098    38217 
   40721    34800    26558    12750   -11730   -40212   -61009   -65726 
  -48749   -15507    17062    41717    58618    53821    16502   -37133 
  -85722  -124634  -147351  -142148  -112638   -67809   -14350    32717 
   60913    67900    55148    28047   -10786   -59665  -102767  -121933 
 -115365   -92097   -65072   -42005   -15846    19651    53920    70791 
   59674    17169   -44157   -98784  -128430  -127708   -99327   -57248 
  -22250    -6463    -8587   -17772   -24472   -33012   -45530   -52107 
  -50301   -39883   -14435    19047    40027    40035    27338     8704 
  -11736   -26796   -30792   -20613    -1252    16468    27180    25482 
    7067   -18017   -36640   -47942   -52065   -46152   -34626   -23368 
  -15504   -15317   -17487   -10741     -313     1142    -8054   -26762 
  -52942   -78432   -94672   -95905   -81306   -53077   -14054    23391 
   44095    44617    28378     2201   -24950   -45887   -52105   -38562 
  -12247    15178    37524    54205    64886    63675    47733    26631 
    7148   -13524   -34392   -50746   -61209   -64246   -56315   -37947 
  -15569     2972    13068    15670    12024    -2114   -30426   -66430 
  -97883  -116190  -116633   -98996   -66598   -26137     8991    27004 
   24628     4310   -28070   -63967   -91841  -104256  -101385   -83940 
  -53462   -15844    19326    44640    58623    58999    44875    23110 
    -136   -24287   -47613   -63929   -65304   -50417   -31486   -22470 
  -23642   -26121   -24741   -23144   -28341   -44255   -68210   -88199 
  -93781   -84645   -61588   -29951    -1879    18372    28833    23757 
    6740   -11985   -19024    -1297    31783    56019    61993    52610 
   35056    20021     9925      454    -7368    -7523     4861    22455 
   29999    23765     8122   -13838   -38167   -60554   -74274   -73530 
  -61481   -45330   -31557   -25134   -23008   -19099   -14856   -12993 
  -14920   -25146   -42219   -55887   -58837   -50174   -31293    -7246 
   11753    18064    13311     1371   -15053   -26694   -28337   -31855 
  -47274   -68389   -81623   -76013   -54207   -31052   -16630   -12657 
  -19568   -34958   -51071   -59956   -58406   -48043   -34352   -25431 
  -27734   -39534   -48035   -40306   -19410      473    10273    10206 
    4347    -4864   -13687   -19727   -28815   -41675   -48166   -44062 
  -34453   -24106   -15483    -9926    -7892    -9448   -13317   -17019 
  -17012   -10867    -2926     -170    -2592    -3337     3503    14662 
   21105    21289    18885    10393    -8031   -29274   -43633   -48157 
  -44005   -34333   -22214    -8035     6921    20193    30184    33069 
   23484       79   -28578   -47602   -50876   -43560   -33492   -29074 
  -31676   -31129   -21047    -7001     1563    -2242   -16893   -32645 
  -40238   -36759   -27866   -21991   -22250   -27216   -32289   -32325 
  -26487   -19153   -17527   -24197   -36032   -50572   -63545   -68135 
  -61743   -47569   -32123   -20885   -14600    -9775    -4668    -4288 
   -9779   -13960   -17136   -23886   -30437   -33405   -33459   -31244 
  -28462   -25957   -23996   -24258   -30397   -45320   -64719   -78649 
  -76557   -54683   -25030    -3049     9053    14204    11695     3732 
   -5412   -15005   -19768   -13413    -5247    -6301   -11365   -12379 
   -5104    12216    30068    35552    26833    10447    -5524   -18647 
  -32313   -44423   -46306   -33353   -11237     8826    21095    25925 
   22419     9225   -11938   -36092   -55532   -62170   -52448   -32859 
  -15118    -5105    -2833    -5694    -8877    -9409    -9009   -10451 
  -13350   -17286   -23615   -31463   -39283   -45852   -48118   -45732 
  -42190   -39430   -37810   -38686   -42596   -47218   -49843   -48514 
  -41895   -31903   -22067   -14844   -13768   -21716   -36666   -52668 
  -63705   -65348   -55030   -35183   -13628     2296     7616      615 
  -12811   -25245   -34959   -40891   -41121   -36180   -27878   -17320 
   -5706     4167     9593    10011     7570     4225    -1217    -7142 
   -9522   -10492   -12974   -15583   -17514   -17188   -13575    -9714 
   -7345    -7037   -10273   -15205   -18476   -18806   -17280   -16992 
  -19595   -22878   -22769   -18048   -11164    -3873     3601    11354 
   18227    19391    10592    -5320   -21375   -33589   -42309   -49270 
  -53055   -50017   -40435   -26485   -10589     1219     3896    -3311 
  -20139   -44982   -71136   -87837   -88484   -73904   -48833   -20879 
    -803     2836    -7036   -18789   -24318   -23314   -20385   -19749 
  -21814   -24131   -22576   -14966    -4734     2737     4406    -1651 
  -16498   -36327   -52983   -61002   -57807   -43344   -25193   -11711 
