Origin Time       2024/04/02 04:24:00
Lat.              40.133
Long.             141.712
Depth. (km)       71
Mag.              6.0
Station Code      AOM026
Station Lat.      41.1280
Station Long.     140.3107
Station Height(m) 12
Record Time       2024/04/02 04:25:03
Sampling Freq(Hz) 100Hz
Duration Time(s)  109
Dir.              N-S
Scale Factor      7845(gal)/8223790
Max. Acc. (gal)   6.998
Last Correction   2024/04/02 04:25:03
Memo.             
[...]
    3038     3222     3522     3951     4394     4741     5023     5228 
    5233     5062     4872     4758     4723     4750     4758     4621 
    4360     4110     3892     3677     3454     3256     3134     3057 
    2983     2984     3082     3157     3149     3117     3063     2956 
    2878     2965     3281     3781     4303     4668     4818     4787 
    4622     4433     4278     4087     3912     3916     4095     4328 
    4526     4657     4743     4865     5059     5213     5107     4679 
    4143     3754     3564     3435     3260     3114     3130     3276 
    3408     3435     3406     3453     3585     3743     3924     4041 
    4016     3932     3935     4066     4274     4494     4648     4662 
    4584     4480     4378     4359     4434     4491     4521     4614 
    4745     4826     4843     4791     4650     4361     3859     3345 
    3065     2928     2874     3030     3245     3330     3387     3497 
    3717     4023     4141     4110     4176     4203     4102     4025 
    3885     3643     3599     3780     3866     3838     3863     3836 
    3686     3555     3447     3396     3537     3728     3963     4434 
    4862     4895     4708     4545     4314     4005     3807     3689 
    3569     3595     3703     3717     3704     3542     3087     2744 
    2745     2778     2875     3165     3307     3253     3308     3406 
    3500     3742     4027     4272     4513     4544     4280     4031 
    4028     4113     4136     4232     4382     4364     4293     4386 
    4557     4801     5197     5474     5420     5212     4922     4495 
    4082     3805     3603     3495     3511     3461     3264     3122 
    3127     3210     3325     3422     3442     3361     3142     2801 
    2496     2344     2323     2496     2895     3303     3538     3708 
    3923     4114     4267     4479     4726     4934     5090     5096 
    4981     4972     4977     4754     4491     4428     4448     4492 
    4556     4391     3996     3777     3820     3851     3782     3697 
    3666     3724     3782     3694     3500     3403     3530     3767 
    3932     4075     4236     4229     4072     3927     3712     3492 
    3495     3582     3635     3792     3910     3836     3816     3947 
    3983     3920     4017     4237     4367     4498     4764     4943 
    4833     4545     4251     4024     3854     3672     3572     3657 
    3763     3771     3769     3796     3797     3759     3715     3616 
    3429     3288     3365     3732     4248     4583     4648     4714 
    4887     5005     5084     5282     5508     5525     5333     5089 
    4773     4342     3954     3775     3780     3790     3689     3458 
    3127     2795     2574     2512     2601     2743     2844     2911 
    3015     3215     3426     3447     3257     3069     3059     3206 
    3472     3916     4442     4814     5001     5088     5082     4988 
    4781     4463     4099     3748     3439     3229     3208     3377 
    3580     3739     3936     4104     4050     3809     3613     3543 
    3538     3568     3618     3697     3867     4077     4210     4267 
    4236     4109     4078     4324     4679     4923     5136     5393 
    5543     5479     5242     4935     4657     4380     4023     3661 
    3404     3250     3184     3206     3249     3191     3049     2992 
    3028     3037     3025     3037     3100     3210     3341     3447 
    3507     3580     3659     3639     3572     3597     3750     4014 
    4365     4714     4955     5053     5020     4860     4591     4351 
    4245     4133     3847     3416     2944     2523     2272     2261 
    2493     2882     3261     3526     3692     3850     3989     3967 
    3831     3777     3819     3909     4045     4128     4117     4145 
    4287     4515     4804     5108     5347     5412     5251     4977 
    4738     4553     4382     4229     4081     3892     3676     3531 
    3549     3672     3724     3631     3528     3578     3750     3951 
    4137     4234     4241     4226     4178     4060     3871     3649 
    3508     3546     3763     4052     4252     4270     4113     3851 
    3569     3372     3325     3322     3264     3256     3395     3639 
    3838     3846     3747     3736     3825     3973     4182     4317 
    4178     3862     3626     3500     3483     3703     4124     4518 
    4804     5028     5138     5108     5084     5147     5243     5304 
    5262     5038     4650     4210     3804     3435     3133     2949 
    2837     2751     2710     2686     2667     2782     3150     3732 
    4351     4827     5101     5177     5011     4604     4129     3762 
    3532     3461     3535     3613     3636     3700     3856     4059 
    4264     4387     4290     3974     3642     3469     3449     3501 
    3592     3709     3811     3892     4009     4110     4056     3889 
    3840     4020     4259     4388     4386     4290     4251     4311 
    4201     3821     3443     3160     2933     2964     3291     3554 
    3630     3773     4040     4247     4423     4693     4941     5074 
    5175     5260     5344     5416     5289     4988     4797     4700 
    4484     4189     3906     3628     3416     3276     3099     2934 
    2845     2663     2452     2512     2725     2821     2882     3001 
    3110     3219     3350     3458     3499     3338     2984     2756 
    2751     2731     2743     2964     3240     3435     3689     4054 
    4477     4903     5155     5151     5084     5050     4920     4774 
    4727     4546     4163     3855     3638     3441     3501     3763 
    3883     3952     4058     4020     3989     4135     4257     4274 
    4336     4407     4426     4518     4661     4772     4969     5143 
    5013     4707     4449     4159     3828     3553     3267     2940 
    2798     3007     3442     3929     4301     4403     4411     4500 
    4445     4148     3871     3661     3427     3366     3493     3539 
    3469     3393     3288     3192     3284     3526     3723     3855 
    3883     3751     3672     3832     4090     4322     4567     4796 
    4924     4882     4645     4330     4155     4168     4185     4064 
    3921     3908     3931     3873     3834     3855     3844     3842 
    3856     3723     3501     3472     3592     3692     3856     4118 
    4338     4456     4494     4518     4571     4569     4440     4267 
    4152     4060     3924     3800     3778     3778     3689     3630 
    3681     3730     3775     3875     3875     3704     3528     3381 
    3181     3006     2902     2847     2976     3299     3553     3670 
    3797     3863     3742     3586     3600     3743     3912     4139 
    4461     4710     4710     4544     4338     4114     3982     4056 
    4266     4457     4548     4600     4734     4999     5277     5335 
    5185     5059     4969     4793     4531     4230     3964     3848 
    3847     3793     3623     3358     3029     2779     2781     2953 
    3138     3323     3446     3422     3399     3484     3547     3542 
    3507     3447     3334     3137     2910     2732     2682     2833 
    3087     3262     3337     3395     3474     3593     3802     3973 
    3888     3684     3620     3666     3743     3879     4067     4185 
    4120     3952     3840     3797     3820     4021     4403     4773 
    5026     5215     5331     5313     5182     5001     4810     4587 
    4290     4050     4021     4062     3958     3767     3643     3592 
    3600     3720     3958     4162     4137     3948     3928     4180 
    4417     4444     4361     4297     4249     4125     3901     3753 
    3775     3813     3828     3867     3800     3622     3585     3782 
    4075     4330     4477     4471     4314     4013     3659     3481 
    3507     3507     3478     3677     4067     4302     4311     4314 
    4415     4621     4847     4891     4676     4320     3931     3626 
    3535     3589     3592     3601     3812     4078     4099     3929 
    3865     3974     4118     4243     4357     4436     4432     4305 
    4118     4068     4216     4328     4212     3978     3798     3620 
    3349     3107     3025     3014     3030     3141     3249     3229 
    3133     3067     3061     3044     2983     2988     3149     3442 
    3753     3942     3947     3815     3677     3689     3896     4153 
    4306     4391     4580     4923     5292     5580     5771     5790 
    5625     5360     4996     4522     4082     3755     3489     3342 
    3372     3450     3443     3318     3109     2936     2921     3040 
    3208     3422     3682     3881     3991     4191     4459     4502 
    4295     4089     4028     4090     4159     4079     3874     3727 
    3697     3690     3650     3589     3528     3469     3410     3343 
    3311     3376     3496     3565     3578     3632     3740     3828 
    3910     4072     4249     4253     4101     4021     4122     4298 
    4441     4552     4677     4812     4945     5074     5155     5058 
    4689     4163     3703     3356     3045     2828     2759     2736 
    2682     2604     2556     2644     2882     3171     3464     3739 
    3915     3981     4036     4118     4159     4151     4176     4217 
    4241     4347     4565     4799     4978     5121     5283     5468 
    5647     5791     5822     5692     5424     5017     4498     3978 
    3566     3260     3033     2921     2872     2764     2543     2180 
    1709     1274     1009     1019     1254     1494     1736     2133 
    2666     3219     3658     3867     3940     4086     4356     4648 
    4862     4973     5057     5179     5277     5287     5227     5105 
    4943     4750     4513     4247     3942     3551     3099     2667 
    2369     2257     2262     2290     2280     2249     2301     2446 
    2656     2999     3456     3928     4342     4657     4911     5159 
    5335     5339     5204     5040     4900     4753     4545     4256 
    3975     3798     3676     3530     3408     3403     3530     3699 
    3796     3769     3699     3744     3948     4206     4430     4594 
    4747     4932     5073     5111     5076     4999     4882     4756 
    4650     4596     4638     4776     4896     4904     4808     4612 
    4367     4230     4271     4386     4469     4537     4644     4746 
    4765     4715     4583     4266     3794     3381     3169     3156 
    3312     3613     4009     4453     4908     5341     5660     5799 
    5853     5937     6077     6262     6394     6361     6173     5923 
    5709     5653     5796     5981     6018     5899     5726     5553 
    5424     5306     5062     4629     4097     3599     3225     3010 
    2943     2948     2922     2812     2679     2631     2667     2677 
    2559     2305     2023     1853     1829     1896     2016     2111 
    2123     2112     2135     2203     2384     2722     3137     3530 
    3920     4372     4781     4912     4733     4396     4017     3605 
    3195     2911     2864     2986     3119     3199     3260     3342 
    3411     3404     3288     3063     2803     2656     2724     2955 
    3204     3435     3753     4207     4691     5053     5213     5208 
    5147     5065     4962     4912     4874     4687     4380     4124 
    3958     3855     3829     3823     3707     3458     3223     3132 
    3142     3160     3118     3018     2979     3061     3150     3231 
    3422     3666     3817     3917     4013     3973     3759     3581 
    3659     3955     4244     4426     4480     4272     3771     3215 
    2825     2617     2482     2334     2218     2219     2355     2602 
    2874     3034     3026     2832     2474     2077     1776     1686 
    1873     2235     2631     3057     3534     4023     4432     4606 
    4546     4494     4615     4874     5178     5490     5790     6031 
    6222     6399     6466     6262     5832     5363     4877     4344 
    3937     3782     3812     3948     4121     4241     4307     4413 
    4596     4774     4893     4988     5104     5273     5506     5767 
    5972     6081     6145     6192     6174     6170     6291     6392 
    6308     6165     6170     6245     6072     5575     4884     3985 
    2925     2030     1559     1501     1721     2050     2300     2351 
    2250     2169     2246     2479     2752     2961     3176     3532 
    3956     4282     4568     4973     5502     6057     6602     7129 
    7491     7503     7099     6303     5233     4012     2678     1378 
     325     -494    -1182    -1714    -2015    -2112    -2153    -2197 
   -2173    -2027    -1761    -1329     -638      337     1545     2960 
    4434     5699     6675     7396     7917     8332     8644     8796 
    8797     8707     8563     8302     7835     7153     6299     5367 
    4438     3470     2489     1698     1212      897      610      364 
     222      126        4     -118     -166      -55      286      930 
    1918     3119     4380     5706     7060     8298     9300    10029 
   10424    10335     9671     8579     7335     6146     5057     4006 
    2975     2002     1092      286     -333     -785    -1139    -1347 
   -1341    -1179    -1003     -858     -633     -191      540     1601 
    2940     4430     5921     7219     8195     8869     9315     9549 
    9614     9558     9255     8581     7661     6659     5605     4502 
    3434     2531     1771      969       33     -977    -1910    -2484 
   -2412    -1532      116     2243     4455     6444     8024     9124 
    9887    10508    10972    11214    11273    11087    10525     9655 
    8606     7356     5863     4275     2907     1971     1412     1053 
     747      473      349      436      656     1008     1421     1611 
    1440     1097      835      849     1246     1926     2616     3037 
    3069     2847     2589     2448     2533     2965     3801     4876 
    5875     6590     7028     7303     7480     7526     7365     6930 
    6242     5443     4734     4243     3909     3611     3345     3154 
    3017     2820     2457     2050     1857     1973     2351     2937 
    3721     4692     5736     6627     7176     7302     7044     6586 
    6091     5552     4934     4247     3501     2775     2172     1775 
    1675     1899     2350     2930     3690     4715     5929     7171 
    8338     9310     9857     9764     9074     8077     7009     5934 
    4873     3973     3473     3429     3743     4368     5121     5641 
    5668     5107     3954     2409      873     -322    -1017    -1155 
    -803      -72     1005     2319     3528     4357     4791     4903 
    4666     4055     3154     2052      855     -144     -670     -796 
    -743     -572     -280      128      733     1501     2192     2640 
    2866     2905     2795     2671     2594     2404     1998     1621 
    1593     1998     2814     3981     5240     6259     6967     7487 
    7846     7965     7796     7418     7015     6724     6574     6570 
    6697     6843     6878     6863     6948     7090     7047     6654 
    5961     5088     4051     2899     1888     1305     1262     1667 
    2320     3006     3522     3790     3994     4260     4457     4511 
    4434     4252     4156     4309     4575     4685     4482     4050 
    3593     3229     3033     3088     3276     3338     3138     2666 
    2012     1460     1286     1424     1579     1609     1493     1192 
     770      363        8     -225     -201       70      434      761 
    1035     1347     1829     2520     3272     3808     3983     3917 
    3753     3514     3267     3152     3206     3346     3578     4014 
    4666     5386     5968     6297     6482     6636     6718     6652 
    6390     6014     5763     5755     5952     6334     6930     7704 
    8411     8788     8849     8711     8413     8055     7773     7587 
    7422     7163     6718     6158     5607     5077     4572     4201 
    4062     4147     4344     4475     4455     4340     4237     4197 
    4099     3734     3061     2219     1318      475     -102     -224 
     141      904     1879     2872     3829     4773     5597     6119 
    6327     6358     6292     6091     5746     5325     4849     4244 
    3520     2752     1921      982       -1     -984    -1941    -2733 
   -3122    -2909    -2002     -510     1231     2883     4276     5297 
    5856     6027     6052     6104     6204     6411     6855     7514 
    8171     8633     8826     8711     8264     7609     6887     5980 
    4741     3349     2218     1663     1717     2230     3068     4090 
    5020     5597     5745     5501     4977     4363     3782     3349 
    3163     3149     3204     3349     3555     3761     4029     4444 
    4936     5331     5474     5377     5128     4725     4159     3499 
    2803     2072     1233      252     -703    -1409    -1821    -1985 
   -1989    -1960    -1898    -1715    -1375     -828      -40      846 
    1649     2370     3019     3495     3859     4353     5069     5929 
    6778     7360     7511     7356     7113     6816     6346     5732 
    5131     4531     3897     3387     3134     3138     3341     3672 
    4116     4646     5132     5476     5683     5714     5607     5602 
    5865     6363     6999     7631     8117     8457     8737     9000 
    9296     9587     9634     9259     8592     7778     6755     5543 
    4359     3397     2685     2089     1548     1163      927      747 
     687      837     1088     1216     1119      899      742      823 
    1250     1919     2598     3169     3600     3811     3719     3383 
    3052     2951     3059     3240     3430     3626     3840     4039 
    4071     3781     3163     2313     1354      530      184      429 
    1113     2120     3281     4280     4962     5410     5674     5764 
    5755     5688     5633     5730     6050     6590     7381     8252 
    8819     8896     8513     7670     6515     5358     4364     3577 
    3046     2743     2542     2301     1996     1795     1825     2025 
    2232     2311     2255     2138     1975     1788     1714     1864 
    2120     2276     2359     2525     2731     2906     3090     3218 
    3227     3233     3322     3443     3508     3465     3338     3213 
    3192     3289     3411     3555     3807     4133     4461     4812 
    5173     5398     5432     5355     5201     4996     4911     5039 
    5231     5359     5436     5436     5270     4957     4634     4450 
    4448     4575     4726     4718     4398     3793     3037     2259 
    1629     1282     1202     1335     1655     2107     2600     3069 
    3499     3855     4067     4171     4271     4453     4810     5310 
    5715     5848     5738     5495     5189     4887     4692     4689 
    4873     5113     5208     5067     4789     4511     4257     4023 
    3878     3890     4031     4256     4552     4873     5150     5350 
    5454     5441     5335     5194     5067     4919     4672     4365 
    4075     3727     3288     2913     2678     2511     2398     2384 
    2458     2617     2893     3271     3728     4224     4626     4783 
    4665     4418     4228     4133     4079     4032     3962     3893 
    3888     3917     3888     3688     3242     2652     2122     1726 
    1417     1254     1371     1748     2301     2965     3577     4023 
    4291     4392     4476     4681     4970     5282     5564     5752 
