Origin Time       2024/04/02 04:24:00
Lat.              40.133
Long.             141.712
Depth. (km)       71
Mag.              6.0
Station Code      AOM025
Station Lat.      41.1797
Station Long.     140.4805
Station Height(m) 8
Record Time       2024/04/02 04:25:02
Sampling Freq(Hz) 100Hz
Duration Time(s)  111
Dir.              N-S
Scale Factor      7845(gal)/8223790
Max. Acc. (gal)   15.952
Last Correction   2024/04/02 04:25:02
Memo.             
[...]
     322     -434    -1764    -3056    -3780    -3835    -3388    -2674 
   -2161    -2353    -3176    -3920    -3939    -3281    -2521    -2054 
   -1931    -2158    -2631    -3014    -3063    -2945    -2982    -3191 
   -3306    -3141    -2862    -2857    -3276    -3835    -4102    -3886 
   -3354    -2812    -2390    -1981    -1574    -1368    -1435    -1551 
   -1485    -1290    -1209    -1337    -1656    -2185    -2936    -3844 
   -4752    -5441    -5741    -5617    -5146    -4417    -3541    -2710 
   -2052    -1494     -997     -727     -824    -1179    -1552    -1817 
   -2064    -2470    -3063    -3646    -3977    -3977    -3719    -3319 
   -2928    -2775    -3079    -3782    -4457    -4679    -4396    -3842 
   -3307    -3041    -3223    -3831    -4504    -4811    -4668    -4261 
   -3777    -3391    -3192    -3069    -2851    -2535    -2276    -2103 
   -1831    -1360     -857     -546     -518     -816    -1540    -2644 
   -3827    -4712    -5019    -4792    -4433    -4302    -4465    -4734 
   -4779    -4378    -3599    -2764    -2245    -2203    -2533    -2991 
   -3271    -3176    -2690    -1949    -1273     -969    -1051    -1296 
   -1501    -1632    -1707    -1752    -1894    -2219    -2608    -2960 
   -3357    -3827    -4248    -4496    -4561    -4477    -4263    -4035 
   -3958    -3962    -3759    -3254    -2717    -2471    -2531    -2737 
   -2967    -3159    -3375    -3595    -3591    -3268    -2781    -2295 
   -1891    -1528    -1088     -533       20      345      180     -669 
   -2069    -3474    -4422    -4806    -4685    -4249    -3711    -3233 
   -2971    -2874    -2687    -2328    -1993    -1902    -2058    -2374 
   -2764    -3119    -3238    -2875    -2157    -1661    -1692    -1944 
   -2045    -2035    -2038    -1942    -1732    -1711    -2200    -3099 
   -3904    -4197    -3979    -3599    -3366    -3267    -3218    -3302 
   -3553    -3839    -4064    -4230    -4263    -4071    -3780    -3634 
   -3636    -3496    -3017    -2359    -1850    -1686    -1858    -2266 
   -2763    -3132    -3210    -2934    -2327    -1641    -1269    -1305 
   -1501    -1576    -1553    -1821    -2601    -3511    -3975    -3866 
   -3518    -3230    -3042    -2983    -3169    -3511    -3726    -3703 
   -3528    -3303    -3109    -3046    -3171    -3445    -3761    -3948 
   -3863    -3522    -3127    -2863    -2745    -2735    -2901    -3322 
   -3836    -4132    -4082    -3798    -3370    -2772    -2099    -1698 
   -1752    -1969    -2050    -2131    -2504    -3146    -3666    -3742 
   -3403    -2812    -2128    -1534    -1152    -1032    -1208    -1593 
   -2004    -2382    -2829    -3391    -4000    -4540    -4849    -4810 
   -4461    -3919    -3326    -2871    -2648    -2581    -2582    -2681 
   -2882    -2964    -2671    -2160    -1906    -2085    -2384    -2465 
   -2369    -2332    -2436    -2612    -2857    -3237    -3627    -3730 
   -3511    -3311    -3380    -3676    -4070    -4472    -4780    -4758 
   -4224    -3345    -2463    -1753    -1278     -984     -703     -454 
    -522    -1055    -1823    -2493    -2994    -3426    -3789    -4027 
   -4159    -4249    -4309    -4229    -3897    -3368    -2844    -2496 
   -2357    -2293    -2070    -1591    -1001     -557     -444     -680 
   -1136    -1593    -1895    -2097    -2342    -2733    -3221    -3559 
   -3574    -3391    -3269    -3377    -3667    -3859    -3767    -3595 
   -3585    -3707    -3855    -4028    -4193    -4205    -3954    -3488 
   -2910    -2289    -1752    -1501    -1560    -1676    -1601    -1453 
   -1625    -2284    -3192    -4000    -4461    -4486    -4232    -3966 
   -3703    -3237    -2600    -2079    -1868    -1929    -2204    -2755 
   -3516    -4058    -3932    -3133    -2053    -1204     -931    -1205 
   -1748    -2323    -2758    -2928    -2852    -2700    -2644    -2756 
   -2984    -3217    -3460    -3866    -4414    -4827    -4865    -4506 
   -3966    -3561    -3446    -3561    -3727    -3708    -3445    -3134 
   -2983    -3013    -3064    -2930    -2585    -2232    -2080    -2164 
   -2444    -2824    -3073    -3064    -2976    -3046    -3267    -3483 
   -3618    -3666    -3538    -3127    -2586    -2284    -2367    -2606 
   -2740    -2718    -2627    -2473    -2255    -2184    -2434    -2778 
   -2856    -2594    -2164    -1755    -1451    -1263    -1243    -1444 
   -1809    -2141    -2226    -2050    -1829    -1783    -1985    -2355 
   -2720    -2987    -3245    -3653    -4191    -4592    -4600    -4270 
   -3875    -3651    -3628    -3665    -3676    -3676    -3609    -3516 
   -3596    -3856    -4005    -3798    -3339    -2971    -2951    -3268 
   -3635    -3681    -3284    -2560    -1645     -758     -179      -63 
    -418    -1093    -1798    -2353    -2802    -3242    -3591    -3703 
   -3651    -3630    -3672    -3699    -3692    -3663    -3627    -3601 
   -3520    -3288    -2970    -2704    -2479    -2222    -2015    -2037 
   -2273    -2450    -2355    -2116    -2008    -2157    -2551    -3073 
   -3484    -3624    -3638    -3815    -4162    -4369    -4268    -3994 
   -3663    -3265    -2863    -2604    -2492    -2423    -2301    -2025 
   -1536     -923     -481     -591    -1312    -2191    -2641    -2500 
   -2079    -1822    -2039    -2714    -3462    -3877    -3942    -3910 
   -3886    -3767    -3511    -3221    -3017    -2943    -3009    -3199 
   -3403    -3460    -3291    -2945    -2592    -2408    -2452    -2617 
   -2694    -2544    -2235    -2006    -2022    -2182    -2320    -2452 
   -2598    -2648    -2647    -2876    -3380    -3774    -3793    -3654 
   -3686    -3852    -3850    -3551    -3129    -2890    -3002    -3337 
   -3708    -4068    -4266    -4078    -3609    -3253    -3233    -3361 
   -3285    -2894    -2347    -1844    -1525    -1449    -1518    -1580 
   -1580    -1545    -1570    -1794    -2227    -2682    -2991    -3171 
   -3298    -3458    -3732    -4132    -4588    -4923    -4968    -4657 
   -3998    -3179    -2451    -1883    -1453    -1193    -1159    -1394 
   -1867    -2444    -2965    -3384    -3688    -3813    -3781    -3659 
   -3412    -2999    -2529    -2192    -2035    -1908    -1759    -1829 
   -2344    -3094    -3607    -3734    -3715    -3709    -3600    -3253 
   -2754    -2286    -1952    -1730    -1609    -1638    -1857    -2238 
   -2706    -3148    -3461    -3692    -3978    -4321    -4552    -4518 
   -4159    -3526    -2855    -2425    -2361    -2592    -2903    -3092 
   -3098    -2926    -2635    -2358    -2251    -2292    -2249    -2041 
   -1868    -1860    -1946    -2145    -2655    -3473    -4209    -4569 
   -4634    -4527    -4230    -3694    -2992    -2324    -1830    -1553 
   -1506    -1621    -1755    -1881    -2116    -2500    -2924    -3230 
   -3296    -3080    -2641    -2120    -1756    -1713    -1888    -2142 
   -2492    -2891    -3138    -3149    -3069    -3083    -3164    -3145 
   -2983    -2782    -2700    -2879    -3283    -3705    -3933    -3905 
   -3717    -3532    -3496    -3635    -3835    -3921    -3784    -3515 
   -3269    -3048    -2829    -2608    -2343    -2119    -2066    -2168 
   -2315    -2444    -2575    -2686    -2659    -2505    -2357    -2234 
   -2119    -2089    -2274    -2727    -3268    -3620    -3731    -3805 
   -3993    -4126    -3967    -3537    -3025    -2625    -2443    -2436 
   -2504    -2565    -2520    -2362    -2257    -2393    -2797    -3281 
   -3553    -3510    -3379    -3457    -3786    -4166    -4453    -4590 
   -4445    -4002    -3437    -2894    -2470    -2234    -2149    -2100 
   -2079    -2203    -2527    -2913    -3191    -3298    -3229    -2963 
   -2600    -2342    -2199    -2081    -2061    -2235    -2560    -2937 
   -3292    -3569    -3618    -3315    -2806    -2353    -2069    -1922 
   -1825    -1772    -1864    -2114    -2388    -2586    -2667    -2587 
   -2385    -2253    -2438    -2938    -3361    -3303    -2783    -2201 
   -1915    -1944    -2184    -2605    -3079    -3346    -3269    -3032 
   -2944    -3092    -3288    -3350    -3315    -3308    -3370    -3474 
   -3566    -3605    -3591    -3416    -3049    -2758    -2806    -3078 
   -3202    -2963    -2471    -1946    -1466    -1009     -610     -360 
    -394     -784    -1387    -2003    -2528    -2802    -2704    -2431 
   -2319    -2496    -2829    -3121    -3238    -3130    -2880    -2701 
   -2741    -2886    -2887    -2722    -2567    -2525    -2551    -2544 
   -2551    -2801    -3387    -4056    -4461    -4506    -4317    -4052 
   -3834    -3688    -3535    -3341    -3115    -2899    -2805    -2878 
   -3048    -3291    -3568    -3777    -3873    -3856    -3754    -3596 
   -3396    -3148    -2829    -2552    -2594    -3084    -3790    -4309 
   -4387    -4097    -3654    -3176    -2763    -2592    -2718    -2910 
   -2732    -2064    -1341     -997    -1089    -1513    -2173    -2968 
   -3700    -4101    -4083    -3816    -3501    -3235    -3010    -2810 
   -2735    -2870    -3137    -3407    -3620    -3682    -3468    -2965 
   -2362    -1946    -1895    -2141    -2451    -2636    -2721    -2844 
   -3056    -3308    -3489    -3450    -3204    -2997    -3055    -3357 
   -3684    -3863    -3855    -3754    -3761    -3955    -4183    -4245 
   -4014    -3396    -2411    -1424     -946    -1101    -1572    -1969 
   -2068    -1869    -1609    -1609    -2073    -2941    -3894    -4526 
   -4575    -4114    -3541    -3164    -2957    -2825    -2740    -2685 
   -2660    -2659    -2686    -2764    -2863    -2936    -2976    -3073 
   -3303    -3491    -3385    -3001    -2477    -1896    -1391    -1112 
   -1131    -1435    -1923    -2421    -2820    -3079    -3150    -3034 
   -2882    -2926    -3203    -3447    -3442    -3269    -3113    -3034 
   -3006    -3059    -3219    -3319    -3168    -2786    -2342    -1973 
   -1659    -1327    -1129    -1310    -1827    -2413    -2872    -3176 
   -3294    -3183    -2984    -2963    -3184    -3435    -3547    -3559 
   -3447    -3121    -2640    -2215    -2064    -2219    -2448    -2439 
   -2084    -1702    -1757    -2304    -2936    -3318    -3462    -3470 
   -3383    -3242    -3092    -3001    -2998    -3006    -2917    -2714 
   -2529    -2562    -2828    -3119    -3265    -3227    -3053    -2805 
   -2462    -2041    -1768    -1906    -2484    -3242    -3765    -3848 
   -3676    -3468    -3248    -3005    -2803    -2682    -2633    -2648 
   -2670    -2617    -2569    -2671    -2835    -2829    -2631    -2355 
   -2061    -1779    -1609    -1668    -1960    -2342    -2646    -2791 
   -2818    -2852    -2974    -3060    -2984    -2843    -2745    -2706 
   -2729    -2805    -2941    -3140    -3302    -3287    -3065    -2799 
   -2718    -2936    -3399    -3855    -3973    -3666    -3175    -2839 
   -2853    -3119    -3383    -3456    -3289    -3052    -3048    -3395 
   -3835    -3977    -3689    -3121    -2501    -2073    -2014    -2332 
   -2891    -3435    -3713    -3638    -3261    -2725    -2282    -2135 
   -2235    -2300    -2104    -1788    -1710    -1977    -2376    -2732 
   -3094    -3547    -4001    -4245    -4183    -3883    -3504    -3246 
   -3169    -3115    -2984    -2895    -2990    -3223    -3460    -3682 
   -3850    -3705    -3122    -2366    -1777    -1455    -1379    -1543 
   -1888    -2331    -2770    -3056    -3179    -3306    -3497    -3673 
   -3747    -3643    -3375    -3111    -3011    -3069    -3144    -3142 
   -3146    -3308    -3678    -4128    -4463    -4511    -4198    -3669 
   -3160    -2740    -2438    -2373    -2613    -3167    -3943    -4661 
   -5017    -4938    -4526    -3978    -3516    -3311    -3414    -3686 
   -3844    -3661    -3229    -2909    -2938    -3181    -3268    -3018 
   -2616    -2286    -2043    -1811    -1525    -1124     -623     -244 
    -252     -646    -1193    -1684    -2039    -2254    -2338    -2385 
   -2540    -2802    -3011    -3046    -2983    -3032    -3276    -3640 
   -4081    -4587    -5001    -5093    -4834    -4429    -4052    -3653 
   -3148    -2702    -2542    -2610    -2636    -2515    -2452    -2671 
   -3203    -3963    -4780    -5386    -5506    -5135    -4634    -4348 
   -4270    -4162    -3825    -3329    -2901    -2655    -2605    -2803 
   -3227    -3676    -3871    -3740    -3415    -2995    -2570    -2328 
   -2393    -2690    -3006    -3099    -2836    -2285    -1653    -1148 
    -838     -703     -739     -915    -1066     -958     -639     -533 
    -904    -1529    -1995    -2104    -1980    -1773    -1528    -1352 
   -1356    -1464    -1522    -1459    -1401    -1560    -1966    -2467 
   -2948    -3341    -3604    -3785    -3894    -3792    -3429    -3015 
   -2799    -2864    -3148    -3450    -3515    -3310    -3055    -2872 
   -2685    -2450    -2301    -2322    -2339    -2180    -1972    -1966 
   -2176    -2373    -2305    -1922    -1480    -1210    -1078    -1055 
   -1247    -1695    -2326    -2991    -3508    -3734    -3631    -3288 
   -2871    -2624    -2700    -3002    -3307    -3445    -3372    -3065 
   -2479    -1663     -718      265     1183     1921     2307     2192 
    1617      758     -236    -1255    -2166    -2878    -3410    -3823 
   -4125    -4344    -4579    -4849    -5054    -5265    -5752    -6566 
   -7377    -7749    -7438    -6505    -5134    -3462    -1668        8 
    1278     1784     1254     -252    -2401    -4922    -7646   -10301 
  -12565   -14256   -15319   -15757   -15549   -14565   -12762   -10451 
   -7885    -4992    -1759     1615     4942     8067    10783    12787 
   13792    13851    13312    12252    10517     8370     6349     4552 
    2610      247    -2504    -5306    -7603    -9157   -10114   -10430 
  -10081    -9148    -7415    -4862    -1854     1339     4406     6940 
    8730     9626     9541     8703     7381     5640     3433      685 
   -2494    -5738    -8688   -11057   -12630   -13311   -13074   -12183 
  -11232   -10555   -10006    -9309    -8302    -7121    -6130    -5536 
   -5387    -5701    -6320    -7111    -8240    -9879   -11766   -13359 
  -14257   -14239   -13292   -11693    -9783    -7755    -5713    -3690 
   -1795     -311      446      445      122      -17       66      229 
     449      719      940      812     -103    -2047    -4770    -7619 
   -9976   -11495   -11979   -11449   -10112    -8087    -5421    -2286 
     942     3713     5661     6898     7699     8171     8460     8726 
    8895     8710     7904     6377     4279     1763    -1013    -3685 
   -6019    -8321   -11007   -13911   -16274   -17464   -17444   -16461 
  -14763   -12492    -9643    -6318    -2736      990     4621     7460 
    8712     8286     6841     4950     2798      537    -1591    -3419 
   -5003    -6439    -7715    -8970   -10350   -11603   -12320   -12310 
  -11665   -10655    -9386    -7700    -5478    -2856     -144     2254 
    3874     4569     4781     5032     5282     5001     3781     1686 
    -810    -3094    -4683    -5398    -5356    -4695    -3493    -1988 
    -558      386      641      502      537     1093     2123     3196 
    3871     4089     4126     4275     4548     4625     4028     2475 
     129    -2631    -5490    -8108   -10189   -11666   -12483   -12529 
  -11963   -11191   -10447    -9713    -8968    -8164    -7264    -6409 
   -5661    -4720    -3249    -1228     1144     3477     5161     5741 
    5252     4040     2393      463    -1517    -3221    -4457    -5255 
   -5640    -5563    -5131    -4648    -4401    -4496    -4850    -5277 
   -5544    -5308    -4280    -2693    -1200     -202      229       51 
    -535     -978     -842     -147      773     1524     1675      916 
    -621    -2440    -4013    -5030    -5587    -5987    -6296    -6350 
   -6052    -5343    -4101    -2547    -1336     -843     -868    -1101 
   -1436    -2006    -2971    -4140    -5142    -5794    -6004    -5724 
   -5013    -4099    -3426    -3426    -4212    -5528    -6924    -7993 
   -8465    -8284    -7649    -6766    -5647    -4189    -2358     -413 
    1150     1857     1472      155    -1555    -3064    -4108    -4780 
   -5356    -6043    -6735    -7169    -7223    -6855    -6042    -4931 
   -3761    -2670    -1761    -1129     -791     -793    -1179    -1871 
   -2843    -4039    -5024    -5298    -4815    -3935    -3022    -2100 
    -953      432     1786     2997     4099     4839     4955     4558 
    3807     2718     1296     -346    -1931    -3207    -4113    -4631 
   -4727    -4560    -4552    -5090    -6130    -7240    -8054    -8515 
   -8688    -8653    -8542    -8411    -8164    -7730    -7137    -6417 
   -5602    -4806    -4101    -3354    -2443    -1493     -837     -892 
   -1973    -3975    -6289    -8139    -9151    -9566    -9775    -9844 
   -9547    -8721    -7472    -6065    -4725    -3549    -2610    -1975 
   -1543    -1054     -334      573     1509     2362     3188     4106 
    5085     5906     6295     6008     4895     3096     1057     -811 
   -2335    -3574    -4704    -5755    -6440    -6305    -5057    -2852 
    -324     1917     3690     5088     6154     6825     7001     6750 
    6301     5840     5389     4777     3816     2569     1204     -257 
   -1873    -3545    -4885    -5498    -5389    -4899    -4347    -3804 
   -3207    -2691    -2497    -2620    -2843    -3037    -3273    -3574 
   -3848    -4059    -4160    -4074    -3890    -3855    -4190    -4955 
   -5927    -6822    -7618    -8283    -8618    -8608    -8478    -8402 
   -8371    -8251    -8001    -7674    -7269    -6648    -5680    -4487 
   -3364    -2479    -1894    -1703    -1818    -1966    -2106    -2359 
   -2736    -3198    -3690    -4052    -4178    -4175    -4295    -4585 
   -4661    -4050    -2706     -977      842     2614     4085     4995 
    5323     5193     4889     4660     4365     3697     2508      911 
    -774    -2272    -3384    -3816    -3289    -1879      -93     1389 
    2074     1825      781     -673    -2065    -3200    -4236    -5301 
   -6377    -7400    -8217    -8737    -9058    -9261    -9458    -9849 
  -10392   -10854   -11097   -11021   -10646   -10188    -9846    -9637 
   -9391    -8869    -7967    -6782    -5501    -4303    -3361    -2845 
   -2736    -2872    -3227    -3744    -4260    -4695    -4901    -4769 
   -4376    -3667    -2640    -1661    -1080     -947    -1032     -953 
    -619     -321     -284     -437     -503     -238      295      791 
    1055     1165     1281     1559     2089     2748     3156     2870 
    1798      476     -364     -562     -514     -641    -1113    -1725 
   -2018    -1729    -1050     -483     -459     -988    -1738    -2420 
   -3028    -3696    -4361    -4738    -4672    -4298    -3913    -3792 
   -4045    -4584    -5111    -5343    -5314    -5269    -5432    -5865 
   -6339    -6515    -6223    -5486    -4422    -3233    -2173    -1480 
   -1227    -1374    -2025    -3248    -4707    -5854    -6382    -6351 
   -5965    -5429    -4941    -4654    -4680    -5058    -5674    -6340 
   -6872    -7037    -6716    -6031    -5281    -4796    -4672    -4669 
   -4453    -3781    -2641    -1271       41     1115     1900     2558 
    3288     4091     4696     4726     4078     2945     1588      349 
    -525    -1151    -1829    -2783    -3994    -5103    -5709    -5688 
   -5179    -4444    -3740    -3122    -2423    -1570     -845     -683 
   -1221    -2061    -2579    -2511    -2002    -1188     -211      523 
