Origin Time       2024/04/02 04:24:00
Lat.              40.133
Long.             141.712
Depth. (km)       71
Mag.              6.0
Station Code      AOM005
Station Lat.      41.2949
Station Long.     141.1972
Station Height(m) 10
Record Time       2024/04/02 04:25:07
Sampling Freq(Hz) 100Hz
Duration Time(s)  89
Dir.              N-S
Scale Factor      7845(gal)/8223790
Max. Acc. (gal)   23.945
Last Correction   2024/04/02 04:25:07
Memo.             
[...]
   -1256      213     3215     6466     9069     9558     8021     6953 
    7550     7990     6639     3634     -245    -3100    -2563      743 
    2701     1923     2922     7647    10917     9113     4985     2419 
    2802     5017     6409     5799     4845     5432     7215     7897 
    5999     3024     1526     2114     3657     4702     4510     4072 
    4465     4726     3726     2216     1696     2589     4291     5934 
    5845     3308     1090     1746     3743     4864     5549     6497 
    6770     5946     5188     5065     4741     4390     5282     6241 
    4661     1485     -112      972     3952     6559     6242     4430 
    4525     5733     5402     3847     2889     3245     4267     5271 
    5799     4911     3036     2149     2471     2637     2947     4874 
    7385     7533     5410     3206     1309      795     2799     4260 
    2748      988     1918     5418    10106    13676    12793     7279 
    2709     3053     4824     4160     2771     2756     3159     3456 
    3802     3312     2660     3726     5166     4083     1512     1028 
    2963     4734     4949     3693     2043     1690     2947     4885 
    6581     7167     6498     5624     5520     6038     6841     7673 
    7420     5255     2249      845     2629     5886     6948     4930 
    2839     3134     4396     4159     2778     1935     1378      409 
     762     3586     6686     8013     7381     5683     4965     5744 
    6022     4727     3207     3069     3612     3719     4702     6498 
    6000     2855      621     1543     4104     5250     4279     3470 
    4631     6876     7794     6662     5660     6123     6038     3676 
    1233     1977     4645     4889     1958     -468      243     2408 
    3647     4757     6114     5613     3700     3495     5204     6435 
    6277     5410     5105     6388     7749     6971     5555     6103 
    7534     7218     4799     2290     1875     3091     3075      500 
   -2143    -1358     2855     6802     7136     4213     2272     4791 
    8800     8698     5066     2818     3387     4465     4398     3944 
    4342     5232     5863     5891     4723     2825     2339     4036 
    5395     4490     3223     3493     4106     3805     3611     4650 
    6285     7554     7947     6700     3690      436    -1000       47 
    2350     3770     2968     1780     3341     6567     7398     5545 
    4461     4766     4035     2347     1659     2662     5368     8617 
    9497     7011     4521     4635     5293     4606     4040     5078 
    6628     6771     5601     4185     2764     1879     2052     2659 
    3657     5248     5583     3559     1264      808     2454     5255 
    7425     7609     6336     5548     6292     7268     6712     5377 
    5015     4625     3152     2781     4168     4615     3145     1444 
    1047     2166     3669     3823     2251     1391     2948     4548 
    4218     3257     2876     3308     4928     6542     5694     3447 
    3349     4891     4780     2817     1779     2964     4352     4297 
    4078     5312     7808     9162     7171     3983     2785     2764 
    2705     3203     4044     4904     6309     7793     7676     5755 
    4476     5213     6200     6309     6174     5356     3568     2614 
    3565     4984     5566     5598     5339     4622     3689     2462 
     868      -95      237     1917     4949     7782     8394     7241 
    5914     4575     3391     4207     7736    10972    10428     6760 
    3411     1752      580     -882    -1864    -1401       70     1560 
    3053     4442     4807     3951     2847     2577     3843     5971 
    6944     6072     4523     3997     5400     7026     7146     7136 
    8087     8545     7298     5331     4217     3670     2357      -13 
   -2056    -1078     3462     7555     7402     3991      931      546 
    2423     4274     4341     3705     4631     6471     7333     7357 
    6569     4784     3501     3387     3491     3748     4444     5076 
    5259     5066     5061     5541     5274     3431     1750     1960 
    3439     5151     6723     7526     7383     6733     5761     4785 
    4120     3465     2631     2315     2937     3357     2897     2845 
    3854     4383     3015      903      612     2708     5591     8002 
    9166     8480     6706     5225     4201     3311     2980     3739 
    5300     6581     6924     6484     5144     3267     2228     2162 
    1877     1440     2226     4390     6196     6318     5458     5032 
    5050     4270     1887     -880    -1047     1945     5059     6142 
    4980     2354      630     1706     4490     6372     6899     8187 
   10762    11809     9250     5165     3087     2926     2007       82 
   -1059     -105     3052     5837     5794     4579     4201     3825 
    3396     4638     7180     8730     8992     8974     8276     6775 
    5740     5088     3431     1144      -54       76      577     1864 
    4905     8047     8332     5836     3256     1769      961     1336 
    3383     5911     7204     6841     5454     3291      989       67 
     564     1155     1622     2614     4461     6712     7844     6871 
    5096     4214     3924     3663     3915     4243     4033     4225 
    5042     5324     5293     6045     6729     5645     3807     3863 
    5556     6228     5158     4062     4180     5551     8070    10204 
    9294     5409     1838     1212     2502     2864     1428     -213 
     432     3639     6089     5738     4784     5196     5368     3565 
    1210      430     1903     5148     7839     7892     6714     6554 
    6828     5725     3021      345     -382     1409     4452     6355 
    5698     3346     1343     1239     2655     3824     4202     4797 
    6438     8506     9000     7150     5055     4680     5325     5668 
    6061     7267     8402     7773     5112     1680     -931    -1320 
     299     1476      943      191      452     1429     2621     4106 
    6193     8664    10864    11816    10837     8498     5815     3645 
    2411     1591     1237     2219     3805     4158     2976     1699 
    1787     3246     4390     3669     1953     1690     3407     5062 
    5634     6265     7184     7215     6565     6396     6095     4614 
    2763     1566      895      534     1142     3288     5676     6309 
    4939     3330     3705     5961     7361     6232     3670     1899 
    2435     4513     5778     5564     5262     5383     5360     5198 
    5088     5196     5435     4482     1844     -454     -642     1055 
    3187     4255     4430     5157     6833     8409     8675     7415 
    5751     4963     4887     4634     4241     3991     3720     3700 
    4410     5428     5787     5181     4178     3370     2932     2899 
    3045     3377     4714     6841     7858     6967     5155     3518 
    2909     3040     2327     1027     1255     2974     4249     4734 
    5104     4847     3874     3731     4846     6065     6914     7198 
    6192     4050     2520     3059     4970     6716     7535     7285 
    6377     5283     4104     3329     3275     2601      406    -1000 
     584     3277     4367     4384     4923     5767     6471     7273 
    7522     6955     7045     7962     7704     5659     3510     2420 
    1971     1863     2282     3063     3805     3723     2366      896 
     679     1792     3680     5748     7645     8889     8590     6492 
    3528     1428     1008     1105     1098     2085     4355     6540 
    7688     8248     8378     7290     4835     2195      912     1308 
    2307     2839     2776     3265     4947     5933     4698     2835 
    2488     3770     5250     5529     4710     4329     4882     5043 
    4465     4081     3963     4071     4704     5352     5213     4517 
    4649     5977     6440     5005     3889     4735     6075     6022 
    4726     3754     4422     6282     7218     6475     5807     5674 
    4440     2084        4    -1266    -1506     -325     1804     3503 
    4401     5520     6848     6984     5387     3102     1651     1912 
    3450     4838     5317     5906     7453     8484     7441     5089 
    3229     3021     4109     4974     5144     5314     4996     3105 
     734       99     1189     2296     2871     3370     3850     4163 
    4094     3477     2999     4313     7506     9285     7678     5367 
    4857     5170     4311     2563     2330     4480     7329     8621 
    7196     4550     3045     2571     2019     1944     3554     6762 
    9724    10053     7294     3373      179    -1100      392     3581 
    5792     5927     5378     5557     5887     5336     4623     4700 
    4904     4274     2952     1966     2388     4085     5196     4274 
    2763     2871     3847     3163      714     -706      388     2567 
    4410     5614     6195     6359     5975     4776     3514     3330 
    3816     3712     3520     4831     7373     8901     7966     5803 
    4957     5894     6199     4660     3566     4492     5449     4445 
    2647     2181     2980     3603     3569     3672     4947     7358 
    9181     8676     6654     5520     5637     5043     2760      531 
     491     1833     2220     1707     2177     4118     5906     5656 
    3667     2450     3538     5566     6416     6087     5985     6102 
    5383     4502     4931     5678     5174     4658     5202     5417 
    4614     3569     2563     1804     2089     3061     3173     2717 
    3244     4066     3578     2475     2667     4468     6372     7200 
    7408     7888     8345     7722     6007     4483     3740     2776 
    1285      656     1209     2281     4190     6346     6885     5834 
    5328     6176     6554     5343     4318     4904     5714     5339 
    4428     3805     3447     3072     2235     1053      621     1837 
    4001     5216     5270     6014     7784     8752     7481     4644 
    2619     2444     2592     1877     1467     2936     5152     5175 
    2450      -51      553     3262     4850     4449     3701     4014 
    5305     6292     6111     5449     5034     4178     2748     2496 
    4221     6193     6674     6100     5779     5382     4025     2567 
    1934     1426      548      260     1602     4186     6369     7115 
    7317     8029     8467     7461     5563     4158     3609     3627 
    4359     5579     6134     5763     5609     5868     5460     4599 
    4357     4436     4109     3017     1174      328     2074     4995 
    6885     7368     6980     5896     4511     3939     4259     4002 
    2778     1884     2069     2920     3920     4704     4896     4506 
    3811     2741     1694     1721     2461     2446     1989     2670 
    4537     6444     7919     8664     8083     6917     6744     7199 
    6636     4916     3172     2097     1584     1071      175     -746 
    -526     1760     4903     6515     5984     4820     4604     5128 
    5358     5368     5697     6473     7083     6486     4996     4070 
    4332     4808     4205     3140     3140     4052     4772     4850 
    4839     5539     6562     6717     5331     3168     2357     3738 
    5813     7361     8253     8314     7453     6042     4374     2525 
    1059      581      876     1703     2948     3739     3327     2393 
    2647     4735     6583     6173     5116     5756     6822     6019 
    4334     3712     3518     2770     2632     4112     6070     7543 
    8660     8105     4746     1100       45      776     1237     1104 
     962     1405     2447     2735     1544      311       91      248 
     390      923     2103     3778     4904     4345     3040     3177 
    5204     7333     8044     7647     6999     6712     7086     7223 
    6065     4469     4315     5807     7107     7128     7021     7927 
    8897     7959     4961     2249     1453     1448     1124     1629 
    3518     5050     5281     4607     2820      873     1208     4041 
    7130     9151    10150     9676     7555     5343     4163     3156 
    1854     1618     3289     5606     7067     7028     5499     3619 
    2490     2394     3873     6957     9823    10436     9343     8479 
    7754     6176     4091     1899     -391    -2617    -5250    -8560 
  -10837   -10064    -7030    -4684    -4410    -4536    -2862      573 
    3628     4604     4043     3489     3728     4706     5967     6983 
    7645     8471     9522     9417     7395     4985     3723     3478 
    3466     3505     4679     7866    11790    14210    14003    12001 
   10312     9902    10397    11898    13759    14343    13817    13635 
   14007    14088    13401    12204    10809     9217     7379     5582 
    4391     4045     4349     4738     4307     2655      643     -155 
     691     1306     -260    -2866    -3277     -139     4714     8598 
   10519    11229    10748     7582     1657    -4444    -8054    -8835 
   -8500    -8050    -6667    -4170    -1733     -464    -1219    -4117 
   -7593    -9046    -6423      629    10628    20086    24564    23109 
   19701    17973    17925    18141    17240    13967     8730     3553 
    -541    -3963    -6710    -8347    -9433   -10856   -11542    -9617 
   -6100    -4264    -5130    -6112    -4320      421     6624    13263 
   18898    21143    19152    15244    12394    11199    11610    14571 
   18694    20282    18812    16567    13684     8851     2269    -4170 
   -7188    -4348     2083     6043     4488      550    -1795    -1244 
    2436     7261     9593     8989     6673     1436    -6841   -14607 
  -19159   -20744   -18900   -12580    -3856     4477    11799    17053 
   18196    14177     6565      297     -247     4214     9439    12059 
   11655     9771     8357     9352    12730    14844    12764     8356 
    4664     2200      540     -120      -45     -604    -1958    -2504 
   -1984      -63     5782    14731    20953    20236    12893     2204 
   -6426    -8117    -2859     4671    10728    15209    17601    15816 
   10157     2139    -7564   -15556   -16802   -11873    -6721    -4147 
   -1583     2292     5131     5067     3334     2943     5748    10909 
   15916    18678    18025    12904     4029    -5202   -11502   -12683 
   -7730     1476    10978    16021    12114      333   -10682   -12336 
   -4561     5306    12499    17915    21313    21288    19693    18015 
   14470     8340     1104    -5543    -8059    -3811     2296     2386 
   -3778    -9883   -11446    -7975    -1736     3316     5927     8125 
   10018    10264    10168    12625    18519    25114    27903    24163 
   14681     3453    -4629    -7915    -8746    -8903    -8019    -7238 
   -8527   -10249    -8949    -4500      868     7217    15464    21663 
   19674    10654     2894     2027     6411    10608    11454    11128 
   12761    14920    13722     8510     2880     1198     3786     5300 
    1854    -2455    -2293      627     1294    -1316    -4013    -3554 
     172     3276     2224     -336      546     4297     6102     3415 
   -1749    -5699    -5952    -1417     6354    12904    15471    14754 
   11638     7218     3528      895     -599     1046     5352     8734 
    9958    10466    10755     9751     7017     3709     1062      -76 
     -62    -1239    -4210    -6239    -5522    -3318    -1788    -1310 
    -675      862     3673     7362     9913    10426    10277     9622 
    6588     2108     1557     7213    14129    17181    15591    10548 
    4945     2362     2180      553    -2312    -2670      -18     3881 
    9020    14943    19462    20896    18787    13736     7484     3954 
    7464    15785    20776    18531    11870     4581    -1584    -6932 
  -11738   -14350   -13320    -9309    -4041      542     2764     2662 
    3090     6223     8463     4815    -2689    -7877    -8842    -8241 
   -7811    -6673    -4610    -2363     1260     7491    14392    19570 
   22736    23188    19691    13826     8935     7334     9672    13547 
   14956    13142    10750     9194     7329     4463      951    -3879 
  -10451   -15932   -16125    -9952      179     9911    14627    13979 
   12279    12020    11943    11129    10037     8247     4895     1271 
     -36     1849     5104     6169     2982    -2182    -4743    -2830 
    1282     4905     6829     5860     2172     -947     -672     2327 
    6320     9379     8569     4145      697      333      432     -934 
   -2465    -1946     1671     7547    12850    14457    11912     7376 
    2992      303      793     5186    11951    16787    16285    12460 
    9053     4845    -2513    -9620   -11596    -8700    -3272     4014 
   10806    12970    10721     8164     6945     6258     6035     6340 
    6119     3994      140    -2980    -3341    -2236    -2222    -3501 
   -4371    -3356     -276     3703     7312     9732     9784     6539 
    1536    -1320      387     5202    10272    14199    16830    17925 
   16475    11418     4217     -762    -1008     1179     2362     2181 
    2559     3885     3608     -167    -4387    -3565     2901     9499 
   10781     6687     1899      137      788     1829     2578     2883 
    2832     3262     4472     5547     6301     7897    10147    10750 
    8415     4199     -228    -3812    -6428    -7901    -6659    -1599 
    5636    12582    18338    22431    23760    22084    17836    10864 
    2987    -1880    -2840    -2243    -1246     1027     4954     8334 
    7875     3335    -1391    -2605    -1300    -1206    -3149    -3946 
   -1102     2836     3253     -522    -5375    -7474    -4446     2332 
    9120    13527    14825    12795     9035     7250     8722    10941 
   12953    15839    17994    16344    11276     6697     5117     4561 
    1669    -3707    -8110    -8313    -5498    -3843    -4463    -3812 
     931     7682    12545    14322    13601    11061     8237     7109 
    8320    10056    10311     9859     9516     7874     4862     2562 
    1738     1283      595     -163    -1638    -3829    -5317    -6606 
   -9140   -11307   -10462    -5670     3172    14385    23383    26820 
   25783    22017    15927     9429     5350     4603     6016     7511 
    8010     8383     9181     8649     5370      773    -3424    -6409 
   -6928    -5517    -5047    -6214    -6394    -3658      820     4881 
    8224    11383    13389    12658     9308     5427     3292     3655 
    5247     5695     3736      715     -560     1161     3724     3751 
     422    -3982    -6304    -4963    -1023     3820     9196    14420 
   16837    14361     8899     3747     -707    -4183    -4402    -1583 
    1186     2666     3707     4772     5902     6809     6193     3468 
    1059     1572     3491     4140     4097     4149     3330     2968 
    5872    10473    12630    12035    10706     9057     7230     5219 
    2124    -1375    -3303    -3460    -3376    -3561    -2165     2362 
    8387    12545    13396    13211    15390    19938    23788    24564 
   22014    17865    14089    10137     4434    -2258    -7692   -10427 
  -10323    -8793    -8256    -9813   -12071   -12961   -11680    -8880 
   -6322    -5193    -4083    -1220     2413     5094     7265    10257 
   13694    15604    14754    12249    10463    10822    12544    12804 
    9543     4648     1969     2511     4239     5398     6093     7751 
   10690    12638    11881     9626     7807     7414     8166     8160 
    6116     4232     5796     9688    11117     8359     3950     -376 
