Origin Time       2024/04/02 04:24:00
Lat.              40.133
Long.             141.712
Depth. (km)       71
Mag.              6.0
Station Code      AOM027
Station Lat.      41.1457
Station Long.     140.8219
Station Height(m) 16
Record Time       2024/04/02 04:24:59
Sampling Freq(Hz) 100Hz
Duration Time(s)  116
Dir.              E-W
Scale Factor      7845(gal)/8223790
Max. Acc. (gal)   49.302
Last Correction   2024/04/02 04:24:59
Memo.             
[...]
    4595     5374     6943     7747     6394     3217      375     -172 
     888     1192       22    -1493    -2513    -2832    -2359    -1285 
      49     1220     1225     -502    -2736    -4114    -5022    -6085 
   -6322    -4584    -1660      699     1836     2322     2952     3842 
    4396     4176     3408     2943     3480     4446     5125     5552 
    4968     2979     1378     1699     3403     4442     2403    -2500 
   -6615    -6826    -3608     -517    -1263    -5647    -8958    -7126 
   -1444     3041     3267     1065     -140      689     2454     3356 
    2434     1312     2124     4122     5000     3824     1709      768 
    1632     3137     4753     5935     4815     1306    -1613    -2087 
   -1048      236      238    -2475    -5744    -5238     -776     3599 
    4822     2563    -1084    -2381     -187     2334     2462      481 
   -2072    -3445    -2849    -1255      530     2855     5243     5879 
    4272     2446     2386     4005     5556     5162     2856      421 
   -1350    -2847    -3642    -3226    -2459    -2096    -1551      -27 
    2103     3252     2223     -421    -3011    -4151    -3721    -2971 
   -3045    -3507    -2826     -310     2733     4546     5385     6458 
    7447     7588     6939     5688     4159     2304     -118    -1707 
   -1286     -454     -448     -415     -271     -456     -496     -669 
   -1891    -3514    -4058    -3199    -1479       75       75    -1117 
   -1254      549     2883     4131     3966     3345     3038     2849 
    2440     1244    -1030    -2840    -2752    -1939    -1929    -2242 
   -1894     -764      954     2910     4363     4580     3763     3372 
    4032     4101     2477      430     -683     -499      969     2625 
    2918     1825      479     -209     -145     -213    -1162    -2479 
   -3418    -3728    -2722     -415     1227     1352     1510     2567 
    3811     4009     2328       86     -275     1516     3900     5343 
    4522     1642     -730     -858     -149     -488    -1848    -3393 
   -4332    -3804    -2100    -1026    -1070     -425     1266     1968 
    1227      812     1425     2157     2293     1775     1254     1765 
    2976     3203     2187     1536     1849     1902      847     -697 
   -1881    -2754    -3769    -4672    -4615    -3006      -78     2801 
    4021     3400     2269     1621     1251     1158     1723     2490 
    3145     4480     6523     7457     5956     3094      599    -1165 
   -2377    -3217    -4391    -5594    -5008    -2371      198     1073 
     303    -1200    -2038    -1281      382     1520     1441      591 
     205     1421     3831     5400     4968     3453     1884      916 
    1521     3119     3400     1915      525      442     1476     2451 
    1838     -329    -2211    -2432    -1352     -310     -290     -988 
   -1210     -400      743     1404     1431      819     -398    -1647 
   -2205    -2091    -1653     -776      730     2744     4518     4490 
    2454      765     1102     2461     3267     2787      962     -912 
    -996      513     2030     3048     3554     3283     2474     1491 
     522     -118     -460     -918    -1561    -1858    -1645    -1574 
   -1803    -1906    -2014    -2141    -1696     -858     -342     -228 
    -417     -599     -135      841     1669     2242     2728     3223 
    3732     3935     3429     2295     1371     1653     2771     3019 
    1714       70     -602     -205      573      876      280     -533 
    -585       62      808     1393     1584     1021     -337    -1694 
   -1910     -949       64      233     -365     -907     -724      -51 
     517      750      673      637     1237     2290     2679     1838 
     672      610     1632     2177     1609      811      407      591 
    1642     3003     3442     2837     2161     1752      984     -403 
   -1678    -2326    -2705    -3051    -3361    -3767    -3663    -2014 
     499     1802     1559     1381     2014     2911     3607     3792 
    3379     2925     3029     3630     4174     3970     2871     1860 
    1796     1867      750    -1418    -3006    -2554     -946     -421 
   -1210    -2251    -3176    -3179    -1873     -865    -1073    -1533 
   -1706    -1656     -970      498     2007     2924     3505     3989 
    4055     3985     4351     4506     3708     2516     1609     1314 
    2092     3676     4653     3522      148    -3491    -5116    -4734 
   -3900    -3453    -3510    -3929    -3773    -2126      291     1814 
    1927     1498     1352     1669     2299     2956     3674     4735 
    5647     5540     4446     2894     1432      982     2016     3257 
    2706      309    -2218    -3790    -4033    -2768    -1194    -1129 
   -2385    -2982    -1614     1111     3152     2776      531    -1021 
    -276     1493     2123     1090     -538    -1301     -514     1063 
    2103     2340     2420     2513     2451     2083     1085     -125 
    -567     -359     -302     -394     -137      781     2169     2863 
    1837       -6     -818     -237      689     1273     1370      895 
     247      -91     -507    -1102     -965      -54      627      919 
    1113     1075     1192     2012     3044     3677     3731     2755 
    1086      156      313      702     1059     1578     1977     1753 
     816     -514    -2026    -3334    -3434    -1979       17     1668 
    2439     1647      -51     -804     -426     -303     -715     -859 
    -423      518     1761     2698     2945     2664     2066     1386 
     916      901     1579     2655     3190     2683     1425      132 
    -175      751     1667     1456      356    -1001    -2300    -3103 
   -2736    -1139      637     1464     1205      337     -295      407 
    2064     2409      525    -1784    -2686    -1768      531     2610 
    2644     1032     -290     -263      985     2458     2755     1714 
     567      268     1051     2678     3951     3593     2182     1435 
    1783     2139     1386     -386    -1798    -1833     -969     -346 
    -723    -1768    -2241    -1621     -954    -1264    -2056    -2101 
   -1074      426     1949     3042     2898     1709      927     1356 
    2361     2770     2074     1051      823     1408     2170     2781 
    2874     2270     1601     1435     1540     1584     1460      916 
    -209    -1520    -2170    -1682     -687     -206     -372     -784 
   -1117     -808      198      869      716      425      406      533 
     832     1190     1335     1540     2207     3006     3273     2759 
    1764      770     -109     -938    -1297     -899     -441     -604 
    -943     -565      704     2169     3001     2955     2481     2076 
    1561      930      827     1231     1393      957     -106    -1235 
   -1374     -903    -1169    -1864    -1807     -957       39      517 
     207     -234     -259     -159      122     1202     2778     3735 
    3738     3451     3635     4348     4536     3157      908     -533 
    -702     -233      534     1244      990     -390    -1838    -2613 
   -2775    -2400    -1694    -1197     -927     -194      908     1186 
     294     -723     -854      143     1675     2744     3005     2876 
    2671     2394     2037     1413      529      168     1016     2610 
    3686     3180     1534      508      942     2041     2570     1744 
     -39    -1316    -1202     -247      495      249    -1240    -3141 
   -3785    -2565    -1077    -1156    -2137    -1910     -135     1822 
    2895     2814     2141     1881     2255     2798     3388     3963 
    3997     3303     2585     2312     1972     1142      113     -753 
   -1175    -1005     -764    -1246    -2401    -2991    -2108     -835 
    -390      -55      403     -369    -1935    -2157     -978      197 
    1174     2415     3829     5062     5817     5540     3825     1713 
     838      895      584      205      324      340      400     1181 
    1733     1093      118     -592    -1441    -1921    -1335     -441 
     -40      155      243      -98     -531     -423       74      291 
      55     -311     -699     -777      303     2470     4255     4563 
    3681     2332      953      180      438      924      795      379 
     124       93      638     1876     2916     2874     2161     1628 
    1044      -76    -1062    -1198    -1062    -1181    -1132    -1028 
   -1512    -1938    -1387     -413      475     1401     1665      996 
     846     1881     2929     3222     2718     1375       70      -17 
     766     1493     2151     2617     2249     1255      452     -117 
    -811    -1537    -1915    -1533     -576      -59     -170      189 
    1262     2350     3171     3256     2344     1499     1420     1564 
    1810     2134     1634      122    -1433    -2560    -3300    -3420 
   -2848    -1858     -473     1343     2667     2184      380     -683 
    -137     1320     2910     3477     2133      307      243     1904 
    3424     3461     2420     1598     1382     1178      487     -665 
   -1505    -1050      373     1119      248    -1333    -1941     -720 
    1544     2798     1636     -764    -2047    -1452      488     2751 
    3431     1729     -469    -1360    -1120     -133     1530     2997 
    3302     2512     1489     1356     2385     3300     2897     1718 
    1140     1404     1282      -90    -1950    -2936    -2450    -1252 
    -789    -1243    -1367     -535      461      608     -162     -985 
   -1128     -710     -201      396     1595     3435     4868     4924 
    3894     2544     1444     1204     1841     2290     1696      465 
    -573    -1212    -1530    -1649    -1773    -1597     -595      834 
    1630     1451     1097     1266     1521     1161      334     -156 
      70      426      298      -55       22      826     1950     2493 
    1956      754     -375     -816     -190      737      480     -595 
    -773       40     1024     1787     1192     -922    -1858     -112 
    2176     3105     3078     2628     1790     1026      395     -718 
   -1768    -1194      847     2440     2648     2110     1575     1267 
    1053      926     1030     1155     1107      950      508     -103 
       0     1026     1830     1571      400    -1193    -2204    -1668 
    -302      359      179      -29        1       51      -20       62 
     734     1737     2091     1544     1185     1686     2196     1960 
    1503     1474     1578     1170      280     -600    -1131    -1019 
    -560     -834    -1780    -1903     -940     -197      -72      314 
    1300     2166     2459     2539     2832     3655     4795     4831 
    2964      688     -162      568     1540     1291       52     -544 
     332     2165     3339     1977    -1163    -3115    -3114    -2494 
   -1603     -650     -548     -951     -818     -553     -815     -978 
    -486      288     1100     1927     2317     2243     2511     3226 
    3578     3420     3284     3010     1933       79    -1487    -1422 
     168     1453     1282      187    -1012    -1539     -788      571 
    1553     2280     2589     1811      685      394      390     -211 
    -608      255     1691     2307     1771      517    -1120    -2415 
   -2469    -1887    -1966    -2324    -2245    -2349    -2430    -1256 
     642     1613     1344      707      787     2311     4833     7020 
    7771     6577     3875     1267      103      283     1127     2191 
    3022     3262     2911     2177      922    -1228    -3350    -3784 
   -2852    -2141    -2031    -2230    -2342    -1539      -91      311 
    -722    -1686    -1390       37     1518     1833     1067      729 
    1586     2641     2856     2373     2025     2551     3607     3839 
    2717     1528     1644     2381     2249     1347      228    -1186 
   -2343    -2813    -2866    -2112     -642      283      503      621 
     306     -535    -1282    -1633    -1516    -1031     -727     -745 
    -210     1588     3561     3717     2204     1233     1942     3731 
    5335     5400     3959     2400     1271      333     -481    -1242 
   -1433     -619       39     -596    -1709    -1821     -723      387 
     234    -1204    -2620    -2475     -641     1109      873    -1221 
   -2887    -2161      130     1969     3134     4294     5140     5363 
    5243     4671     3519     2478     2161     2261     2052     1216 
     166     -810    -2182    -4016    -5238    -4950    -3657    -2751 
   -2965    -3696    -4045    -4014    -4244    -4806    -4854    -3707 
   -1482     1092     3076     4575     6669     9223    11041    11908 
   12096    11333     9629     7487     5402     4091     3981     4093 
    2925      606    -1418    -2438    -2686    -2393    -1926    -1795 
   -1954    -2124    -2397    -2662    -2535    -2124    -1804    -1750 
   -1984    -1767       32     2961     5397     6700     7074     6658 
    5702     4741     4572     5709     7153     7140     5576     3693 
    1956      271    -1345    -3341    -5891    -7427    -6218    -3204 
    -931     -737    -2600    -5726    -8846   -11141   -12160   -11169 
   -7805    -2740     2311     5157     5036     3520     2312     1463 
     306    -1593    -4394    -7435    -9196    -9043    -8210    -8009 
   -8356    -8816    -9593   -10590   -10864    -9868    -7782    -4261 
    1220     8068    14759    19889    23099    25192    27263    30225 
   34402    38996    42989    46357    49003    49316    46063    40375 
   33555    25895    18476    12197     6394      549    -5525   -12862 
  -21853   -31241   -39575   -45806   -49432   -50998   -51025   -49092 
  -45415   -41621   -39201   -38646   -39096   -37979   -33183   -25224 
  -15957    -6720     1736     8961    14939    19970    23855    25847 
   25834    24780    24210    25450    28389    30925    30449    25670 
   16784     5621    -4486   -11518   -16240   -19302   -20048   -19236 
  -19498   -22419   -27098   -30963   -31536   -28312   -22731   -16706 
  -11310    -5873      936     8995    16710    22489    25423    25529 
   24772    26620    32078    37991    41161    41192    39162    35904 
   30888    22790    11890      378    -9045   -13913   -14307   -13671 
  -14126   -14119   -12144    -8934    -6183    -5435    -7111    -9861 
  -11785   -12031   -10608    -7381    -1993     5449    14017    21506 
   24398    20779    13301     6817     3570     1900     -988    -5840 
  -11325   -16110   -19730   -22586   -25618   -28275   -27847   -23021 
  -16025    -9186    -2362     4514     9406    10397     8769     7909 
    9363    12590    16941    20745    21478    19236    16605    14686 
   12679    10486     8823     7516     5647     2655    -1786    -7781 
  -14500   -20487   -25123   -28429   -29155   -25515   -17825    -8478 
    -225     5054     7476     8432     8642     8829    10143    12204 
   13779    14870    15581    15218    13513    11238     9595     9092 
    9562    10732    11277     9450     5579     1198    -3392    -8618 
  -14073   -18639   -21578   -22142   -19109   -13142    -7326    -3186 
     772     5366     9189    10952    10523     8968     8565    10470 
   12702    12526    10328     8627     7484     4611       86    -3418 
   -4450    -3338    -1498    -1857    -6660   -14481   -21165   -23558 
  -21512   -16858   -11877    -7874    -4735    -2501    -1136      666 
    3445     6072     8082    10038    12328    14781    16290    15646 
   12665     7915     2830     -756    -2463    -3289    -3700    -3601 
   -3184    -2538    -1725     -876      263     1773     2862     1907 
   -1879    -6261    -7846    -5605     -554     5185     8301     7157 
    4309     3067     4099     6629     8830     8087     4087      -87 
   -1065     1235     4190     6293     7415     6930     4860     2207 
    -580    -3153    -4889    -5572    -5076    -3723    -2766    -2771 
   -3184    -4430    -7726   -12372   -15607   -15269   -11291    -5175 
     695     3963     3867     1966      614     1100     3306     6322 
    9382    12322    15205    18087    20779    21924    19916    15736 
   11599     7537     3003    -1235    -4498    -6326    -6347    -5572 
   -5611    -6565    -7576    -8270    -8387    -7861    -7342    -7136 
   -7117    -7878    -9081    -8495    -5251     -970     2774     5140 
    5663     5555     7052     9747    10331     7273     2722     -849 
   -2542    -1845     1034     4473     6723     7111     6052     4710 
    4544     5786     6723     5819     3362      761     -684     -992 
   -1491    -3325    -6604   -10388   -13273   -14717   -15028   -14192 
  -11985    -8433    -4379    -2061    -2685    -4221    -4035    -1464 
    2930     8247    13464    18095    21938    24264    24752    24074 
   22334    18960    14389     9616     4922      522    -2947    -5277 
   -6829    -7983    -8997   -10027   -11475   -13844   -16150   -15888 
  -12204    -7519    -4738    -4401    -5067    -4865    -3028    -1109 
    -864    -1058      338     2581     4126     5242     6293     6729 
    6558     5960     4344     2247     2026     4413     7047     7955 
    7587     6512     4047       36    -4190    -7338    -8888    -8220 
   -5393    -2330     -901    -1224    -2775    -4982    -6921    -7582 
   -6415    -3856     -584     3092     6280     7960     7927     5688 
     927    -4432    -7557    -7631    -5549    -2590     -378      290 
     571     1574     2581     2126     -400    -3640    -4838    -2879 
     691     4453     8210    11140    12152    11861    11333    10685 
   10453    10968    10710     8347     4329     -665    -5985   -10201 
  -12091   -12039   -11588   -11415   -10891    -9533    -7252    -4222 
   -1233      997     2281     2802     3250     4095     5221     6845 
    9251    11515    12206    11237     9825     8915     8542     8317 
    7744     6188     3354       25    -2806    -5278    -7588    -8905 
   -9090    -9351   -10149   -10856   -10974    -9559    -5637     -292 
    4403     7614     8785     7310     4347     2076     1001      133 
    -984    -1900    -1791       71     3003     5038     5574     5630 
    5398     4276     2471      884      549     2319     5530     7743 
    7576     6741     7129     7719     6760     4086      326    -3002 
   -4085    -3304    -2686    -3522    -5880    -8344    -8746    -6601 
   -3481    -1193     -429     -317      599     2575     4579     5786 
    6161     5814     4958     4332     4452     4587     3545     1197 
   -1601    -3770    -4521    -3929    -2718    -1502     -453      511 
     985       90    -2154    -4495    -5962    -6698    -7047    -6914 
   -6156    -4715    -2587      -76     2617     5566     8190     9522 
    9344     7978     5930     4357     4272     5038     5231     4533 
    3410     2200     1331      872      298      -67      648     1718 
    1714      776     -137     -527     -256       93     -707    -2592 
   -3584    -2563     -683      889     2038     2501     1744     -275 
   -2820    -4558    -4484    -2712      -54     2398     3480     3172 
    2601     2293     2357     3127     3901     3369     1971     1377 
    2135     3496     4405     4000     2182     -143    -1923    -3071 
   -4176    -5143    -5277    -4320    -2301      333     2065     1478 
   -1267    -4920    -7875    -8753    -7403    -4707    -1615      831 
    1881     1996     2219     2656     2436     1198     -229     -795 
