Origin Time       2024/04/02 04:24:00
Lat.              40.133
Long.             141.712
Depth. (km)       71
Mag.              6.0
Station Code      AOM020
Station Lat.      40.8194
Station Long.     140.7498
Station Height(m) 3
Record Time       2024/04/02 04:24:56
Sampling Freq(Hz) 100Hz
Duration Time(s)  158
Dir.              U-D
Scale Factor      7845(gal)/8223790
Max. Acc. (gal)   6.650
Last Correction   2024/04/02 04:24:56
Memo.             
[...]
   37131    38493    39468    39873    39691    39002    38479    39152 
   40277    39816    38202    37357    37048    36883    37658    38265 
   37296    36035    35861    36667    38060    39263    39610    39224 
   38134    36524    35526    35583    35743    35860    36485    36810 
   35675    33817    33104    34003    35627    37177    37917    37863 
   37947    38437    38897    38610    37357    36285    35699    34781 
   34272    35075    36200    36717    36549    35514    34365    34866 
   36984    38527    38272    37481    37728    38348    37997    37277 
   37048    36740    36181    36038    36197    36200    36445    37079 
   37223    36599    36147    36539    37324    38033    38946    39856 
   39847    38915    38030    37926    38727    39889    40370    39618 
   38426    37859    37561    37031    37257    38547    39538    39344 
   38018    36263    35266    35002    34790    35068    35820    36171 
   36551    37501    38130    38076    37953    38036    38215    37793 
   36481    35804    36447    36957    36984    37230    37338    37323 
   37692    38011    38161    38403    38318    37859    37223    36270 
   35552    35640    36177    36753    37137    37358    37740    37669 
   36406    35291    35884    37336    38129    38137    37929    37782 
   37588    37245    36934    36748    36543    36367    36371    36547 
   37103    38065    38655    38600    38705    39262    39773    39796 
   39050    38063    37967    38399    38056    37258    36776    36180 
   35529    35525    36072    36679    37158    37812    38805    39245 
   38632    37882    37471    37061    36833    37115    37632    38078 
   38404    38341    37800    37427    37493    37423    37075    36724 
   36603    36790    36595    35665    35050    35371    36062    36865 
   37914    38961    39665    39725    38696    36938    35499    34510 
   33750    33655    34191    34920    36058    37476    38310    38352 
   38057    37882    38078    38345    38408    38142    37104    35748 
   35397    36111    36942    37442    37617    37962    38862    39357 
   38599    37193    35761    34649    34411    35002    35927    36809 
   37247    37331    37636    37967    37781    37520    37481    37080 
   36336    35835    35823    36312    36890    36930    36248    35305 
   34917    35218    35684    36128    36427    36570    36922    37420 
   37783    37895    37558    36945    36543    36468    36614    36949 
   37303    37362    37243    37477    38148    38823    39114    39019 
   38843    38718    38402    37720    37037    36859    37014    37116 
   37095    36737    36134    35816    35783    35857    36124    36402 
   36778    37500    37993    37928    38040    38577    38925    38979 
   38932    38465    37644    37411    37999    38254    37710    37314 
   37431    37662    37914    37955    37638    37384    37223    37012 
   36987    36823    36151    35665    35841    36207    36436    36612 
   36875    37346    37879    38051    37679    37292    37567    38348 
   38786    38449    37864    37827    38395    38986    39087    38767 
   38686    39204    39622    39096    38118    37848    38095    37945 
   37442    36950    36595    36711    37347    37939    37970    37361 
   36563    36235    36435    36717    36855    36875    36907    37269 
   38172    39013    38888    38029    37231    36613    36165    36094 
   36431    36782    36663    36494    37118    38183    38749    38961 
   39275    39274    38692    37754    36522    35661    35997    36887 
   37060    36323    35445    35253    35880    36752    37435    37844 
   37584    36610    35982    36173    36396    36337    36090    35544 
   35149    35334    35791    36360    36925    36864    36342    36339 
   36553    36151    35688    35545    35298    35147    35337    35753 
   36512    37459    38063    38261    38427    38410    37729    36798 
   36570    37227    38024    38188    37579    36579    35857    36067 
   37061    37665    37031    36065    36375    37854    38735    38098 
   36944    36514    36871    37611    38160    37705    36711    36487 
   36896    37226    37489    37602    37693    38076    38202    37833 
   37693    37797    37578    37041    36363    35716    35374    35390 
   35835    36544    36876    37085    37917    38619    38416    37901 
   37277    36707    37035    37886    38206    38175    38279    38458 
   38892    39629    39982    39658    39075    38610    38529    38344 
   37323    36198    35807    35733    35864    36574    37434    37696 
   37287    36489    35710    35577    36300    37365    38014    37902 
   37523    37388    37376    37478    37797    38202    38789    39287 
   38877    37763    37096    37358    38048    38345    38165    38168 
   38236    37952    37771    37804    37817    38151    38508    38002 
   36795    35795    35452    35476    35376    35055    34770    34892 
   35687    36938    37855    37951    37698    37485    37075    36418 
   35719    35409    35912    36742    37201    37428    37585    37369 
   36965    36911    36875    36456    36266    36678    37285    37662 
   37561    37007    36323    35982    36348    37370    38650    39236 
   38356    36931    36432    36890    37581    38032    37848    37224 
   37110    37600    37741    37281    36576    36004    36147    36868 
   37430    37750    38043    38468    39052    39221    38677    38064 
   37740    37399    37119    37135    37210    37369    37746    37925 
   37851    37858    37864    37747    37513    37231    37280    37586 
   37212    36042    35186    35074    35587    36856    38063    38264 
   37995    37660    36964    36436    36468    36197    35473    35210 
   35583    36549    38107    39160    38913    37945    36780    35910 
   36103    37039    37764    38176    38323    38007    37643    37771 
   38323    38781    38668    38107    37505    37245    37768    38496 
   38122    37034    36549    36634    36971    37625    38091    38018 
   37527    36730    36190    36197    36220    36227    36475    36620 
   36701    36911    36748    36292    36040    35826    35946    36855 
   38020    38965    39357    38850    37971    37161    36161    35356 
   35147    35005    34873    35050    35208    35511    36408    37397 
   38138    38774    38962    38759    38592    37912    36756    36529 
   37243    37621    37457    37133    36942    37235    37793    38160 
   38371    38479    38261    37693    36886    36027    35723    36050 
   36115    35950    36401    37021    37092    36965    36853    36844 
   37200    37485    37403    37303    37168    37096    37339    37588 
   37804    38006    37844    37775    38152    38126    37619    37509 
   37747    37828    37789    37744    37683    37552    37145    36437 
   35901    35918    36185    36332    36420    36505    36778    37551 
   38384    38493    38078    37935    38213    38450    38321    37808 
   37135    36725    36821    37077    36973    36794    37211    38036 
   38597    38597    37956    36900    36165    36202    36539    36698 
   36749    36699    36683    37087    37899    38553    38281    37084 
   36134    36115    36548    37146    37573    37153    36367    36188 
   36688    37808    38773    38157    36652    36132    36471    37061 
   38159    38916    38593    38311    38329    37616    36533    36034 
   36161    36672    37075    37019    37066    37616    38271    38639 
   38539    38261    38479    39001    38839    37713    36408    35611 
   35317    35467    35993    36595    37125    37304    37044    36903 
   37000    37052    37096    36776    36099    36146    36845    36987 
   36855    37260    37930    38624    38884    38172    37272    36698 
   36097    36019    36632    36730    36282    36517    37296    37824 
   38492    39357    39587    39131    38515    38292    38707    38929 
   38406    37690    37014    36570    36784    36960    36364    35796 
   35862    36140    36559    37346    38275    38858    38661    37825 
   37327    37606    37767    37281    36751    36513    36605    37280 
   38213    38869    39568    40478    40589    38970    36408    34685 
   34315    34647    35491    36475    36794    36825    37210    37423 
   37544    38137    38326    37585    36860    36531    36493    36860 
   37034    36555    36023    35812    35781    35957    36391    37118 
   37789    37752    37301    37176    37341    37648    37960    37824 
   37412    37076    36301    35048    34159    33793    34006    35232 
   36699    37311    37559    38375    39613    40138    39085    37388 
   36517    36564    37196    37855    37470    36518    36458    36926 
   36954    36612    36112    36036    37027    38138    37930    36756 
   36034    36281    37201    38190    38223    37273    36828    37713 
   39023    39276    38126    36801    36221    35937    35592    35625 
   36263    37168    37944    38330    38322    38202    38184    38473 
   39015    39010    38080    37031    36521    36586    37145    37469 
   36846    36061    36128    36771    37380    37585    37050    36013 
   35132    34884    35455    36317    36722    36954    37505    37975 
   38241    38925    39854    39976    39226    38516    38095    38028 
   38936    40481    41331    40971    39815    38651    38099    37947 
   37779    37392    36471    35267    34692    35186    36202    36925 
   37301    37754    38207    38508    38747    38943    39085    38689 
   37563    37153    38275    39467    39887    40198    40513    40717 
   40915    40377    38558    36274    34542    33822    33945    34300 
   34704    35131    35280    35445    36073    36479    35943    35245 
   35506    36753    38153    38489    37235    35425    34522    34854 
   35557    35787    35683    35700    35510    34668    33957    34225 
   34780    34740    34025    32964    32530    33219    34192    34932 
   35503    35746    36062    36963    37818    38091    38156    38065 
   37605    37195    37405    38164    38800    38668    37876    37207 
   37069    37262    37623    37748    36994    35931    36040    37289 
   38265    38295    37565    36813    37247    38630    39421    39515 
   39557    39274    38638    37978    37134    36177    35604    35638 
   36018    36362    36553    36784    37469    38546    39282    39607 
   39881    39841    39730    40219    40809    40481    38946    36852 
   35472    35159    34836    34290    34692    35927    36510    36412 
   36774    37520    37543    36391    34728    33573    33411    33818 
   34223    34728    35247    35471    36167    37829    39395    40028 
   39681    38874    38707    39021    38452    36886    35401    34900 
   35583    36699    37513    38429    39924    41277    41474    40510 
   39158    37978    36895    35811    35203    35687    37372    39707 
   41543    41936    41129    40038    39031    37960    36882    36236 
   36263    36333    35687    34834    34911    35884    36984    37866 
   38167    37944    38107    39046    40186    40721    40309    39379 
   38086    36298    34807    34560    35715    38086    40555    41111 
   39618    38468    38785    39067    38402    37565    37038    36822 
   37103    37592    37605    36913    35854    35048    34817    35139 
   35922    36369    35773    34759    33751    32782    33057    35028 
   37068    38435    39933    41015    40387    38929    38234    37858 
   37035    36337    35891    35148    34439    34384    34874    35348 
   35559    35977    36425    36143    36336    38178    39607    39008 
   37671    36261    34214    32163    31482    32520    34048    34955 
   36258    38712    40479    40448    39939    39603    38785    37644 
   37195    37354    36630    34985    34279    34896    36024    37555 
   39082    40344    41378    41365    40502    39835    38797    37312 
   36682    36728    36693    36906    37162    36960    36595    35995 
   34923    33864    33185    33482    35579    38452    39910    39472 
   38394    37760    37894    38889    40429    41381    41210    40944 
   40791    39461    37384    36028    34782    33254    32744    33099 
   33057    32788    33346    35056    36886    37694    37551    36949 
   36258    35533    34734    34518    35020    35260    34977    34894 
   35644    37322    39330    40824    41490    41400    40302    38464 
   37238    36992    36705    36382    36657    36617    35672    35536 
   37156    39371    40981    40263    36813    34281    34905    35883 
   35216    34653    35926    38317    39903    40077    39927    40248 
   41003    42153    42969    42219    40336    38965    38450    38014 
   37380    36747    36186    36097    37011    38396    39221    39078 
   38036    36876    36474    36416    36180    36416    37270    37656 
   37585    38222    39070    38805    37997    37759    37666    36879 
   35815    35484    36043    37068    38002    38055    37377    37467 
   39101    40963    41107    39467    37651    36504    36163    36776 
   37574    38110    39033    39752    39086    37679    36621    35854 
   35168    34916    35398    36283    37258    38290    38739    38151 
   37265    36811    36899    37192    37006    36640    37201    38573 
   39690    39761    38616    37308    36884    36957    37345    38172 
   38317    37303    36289    35988    36483    37629    38735    39255 
   39496    40443    42106    42669    41431    39915    38403    35608 
   32131    30253    30727    32447    34684    37235    38935    39028 
   38716    38257    36174    33265    31904    31955    32360    33255 
   34408    35849    38313    40883    42144    42110    40572    37735 
   35484    34622    34425    34881    35757    36065    35739    35199 
   34399    33589    33524    34672    36275    36641    35455    34442 
   34635    35478    36738    38368    39636    39918    38623    35607 
   32803    32135    32458    32587    33696    35623    36832    37960 
   39993    41755    41845    40535    38758    36610    34631    34265 
   35013    34788    33453    32733    33250    34117    35041    36364 
   37797    38688    38469    37440    36832    36990    37382    37793 
   37735    36597    35353    36011    38291    39835    40031    39352 
   37416    35251    34655    35100    35534    36433    37590    37735 
   37129    37100    37617    38021    38421    38928    39210    39167 
   39295    40174    41280    41324    40392    39482    38599    37759 
   37531    37750    38074    38365    38182    37575    36907    35791 
   34013    32458    31999    32873    35214    38379    40539    40630 
   39706    39348    39957    41145    42458    43210    42772    41277 
   39896    39826    40298    39457    37454    35851    35179    35002 
   34761    34549    35338    37181    38708    39290    39345    39043 
   38531    38133    37940    38086    38758    39745    40491    40358 
   39028    37131    35866    36038    37754    40269    42261    42778 
   41777    40119    38766    37625    35989    34353    34327    36007 
   37503    37654    36987    36385    36363    36913    37509    37771 
   37840    37847    37674    37079    35677    33751    32667    33390 
   35044    36063    36663    37929    38952    38360    37029    36342 
   36148    35947    36004    36545    37021    36751    36005    35847 
   36138    35399    33903    33372    33675    33609    33041    32308 
   31804    31799    31851    31864    32397    33064    33478    34608 
   36294    36875    36548    36822    37423    37396    36977    36414 
   35756    35564    35931    36652    37623    37893    36913    35868 
   35623    35932    37227    39708    41667    41719    40641    39660 
   39295    39528    39561    38553    37122    36648    37250    38331 
   39506    39907    39307    38616    37917    37206    37350    38207 
   38912    39217    38757    37504    36756    37366    38303    38561 
   38695    39255    39733    39714    39318    38709    38249    38311 
   38448    37829    36771    36493    37359    38272    37967    36825 
   36603    37762    38614    38361    38354    39043    39170    38153 
   36286    34275    33486    34538    36432    37744    37725    36903 
   36505    36963    38021    39278    39553    37939    35843    35382 
   36192    36745    36994    37282    37563    38178    38878    39050 
   39383    40329    40620    39575    38178    37280    37031    36960 
   36065    34429    33546    34507    36946    39194    39883    39429 
   38939    38728    38538    38263    38048    37953    37986    37967 
   37639    37453    37983    38885    39564    39719    39093    37829 
   36795    36626    36873    37188    37984    38913    39233    39429 
   39776    39483    38755    38452    38269    37902    37466    36269 
   34052    31903    30875    31433    33103    34587    35494    36467 
   37400    37471    36759    36049    35565    35193    34797    34306 
   34177    34641    35449    36575    37300    36518    34882    34246 
   35056    35989    36281    36487    36626    36254    35773    35472 
   35105    34495    33266    31781    31442    32541    34300    36405 
   38156    38691    38580    38583    38392    38176    38547    38946 
   38446    37219    35996    35448    35865    36718    37338    37563 
   37501    37696    38632    39914    40940    41264    40413    38753 
   37584    37674    38383    38562    38036    37443    36806    35837 
   35212    35687    36918    38115    38739    38774    38821    39268 
   39712    39455    38379    37250    36952    37864    39372    39873 
   38958    38442    39542    40994    41110    40001    38637    37166 
   35807    35320    35263    34696    34288    34711    35206    35573 
   36458    37470    37897    38051    38303    38495    38460    38115 
   37791    38036    38712    39120    38893    38431    38087    37362 
   36057    34919    34326    34028    33947    34125    34499    34861 
   35052    35523    36728    37866    37945    37280    36373    35303 
   34704    34998    35653    36514    37644    38376    38622    38983 
   38961    37728    35876    34570    34360    34989    35716    36049 
   35904    35665    35919    36255    36049    35993    36510    36890 
   37072    37635    38632    39793    40703    40856    40389    39966 
   39935    40328    40934    41359    41724    42300    42599    42169 
   41316    40416    39746    39542    39472    39010    38395    38319 
   38967    39684    39607    38819    38070    37728    37940    38466 
   38745    38966    39264    38817    37377    35819    35253    36247 
   37983    38927    38686    37998    37465    37027    36331    35397 
   34550    33794    32964    32343    32640    34059    35745    36960 
   37795    38075    37382    36154    35032    33898    32682    31914 
   31897    32350    33030    33948    34896    35679    36595    37386 
   36915    35182    33701    33338    33729    34348    34661    34520 
   34893    36529    38622    39949    39826    38307    36423    35013 
   34200    34183    34711    35124    35596    36455    37195    37566 
   38048    38654    38815    38562    38345    38256    38412    38778 
   38904    38826    38875    39010    39487    40640    41746    41702 
   40639    39735    39529    39357    38803    38380    38364    38094 
