Origin Time       2024/04/02 04:24:00
Lat.              40.133
Long.             141.712
Depth. (km)       71
Mag.              6.0
Station Code      AOM023
Station Lat.      40.9664
Station Long.     140.4317
Station Height(m) 6
Record Time       2024/04/02 04:25:00
Sampling Freq(Hz) 100Hz
Duration Time(s)  126
Dir.              E-W
Scale Factor      7845(gal)/8223790
Max. Acc. (gal)   11.155
Last Correction   2024/04/02 04:25:00
Memo.             
[...]
  -11169   -10793    -9950    -8818    -7749    -7015    -6716    -6839 
   -7188    -7391    -7400    -7608    -8309    -9344   -10362   -11168 
  -11630   -11614   -11141   -10435    -9796    -9362    -9035    -8725 
   -8560    -8704    -9065    -9400    -9617    -9776    -9710    -9174 
   -8397    -7790    -7581    -7894    -8603    -9406   -10069   -10390 
  -10315    -9945    -9383    -8726    -8060    -7534    -7360    -7537 
   -7897    -8417    -9001    -9356    -9462    -9526    -9544    -9443 
   -9188    -8769    -8429    -8365    -8453    -8652    -8980    -9224 
   -9162    -8738    -8070    -7516    -7402    -7676    -8067    -8386 
   -8540    -8526    -8537    -8775    -9092    -9177    -8965    -8681 
   -8646    -9066    -9909   -10963   -11785   -11836   -11129   -10299 
   -9940   -10141   -10474   -10408    -9763    -8800    -7947    -7342 
   -6856    -6473    -6183    -5961    -6116    -6968    -8275    -9497 
  -10320   -10709   -10656   -10272    -9946    -9888    -9832    -9626 
   -9598   -10030   -10721   -11296   -11664   -11907   -11896   -11422 
  -10592    -9744    -8999    -8239    -7545    -7241    -7275    -7146 
   -6741    -6376    -6312    -6706    -7430    -8194    -8949    -9609 
   -9842    -9486    -8797    -8245    -8097    -8171    -8158    -8047 
   -8082    -8419    -9005    -9694   -10336   -10737   -10851   -10898 
  -11047   -11271   -11450   -11425   -11165   -10800   -10544   -10509 
  -10490   -10224    -9648    -8866    -8118    -7574    -7252    -7196 
   -7446    -7911    -8451    -8992    -9468    -9806    -9957    -9961 
   -9956   -10025   -10037    -9837    -9424    -8862    -8264    -7823 
   -7673    -7819    -8116    -8395    -8610    -8812    -9080    -9404 
   -9676    -9806    -9752    -9568    -9412    -9343    -9297    -9283 
   -9308    -9209    -8932    -8725    -8769    -8889    -8874    -8737 
   -8583    -8564    -8775    -9066    -9224    -9247    -9336    -9666 
  -10206   -10756   -11021   -10798   -10233    -9707    -9494    -9547 
   -9610    -9508    -9173    -8679    -8297    -8185    -8276    -8523 
   -8814    -9024    -9262    -9597    -9899   -10010    -9763    -9162 
   -8446    -7863    -7504    -7372    -7497    -7790    -8040    -8186 
   -8267    -8272    -8190    -8120    -8202    -8371    -8591    -9039 
   -9663   -10174   -10393   -10257    -9802    -9169    -8563    -8105 
   -7807    -7712    -7859    -8214    -8793    -9601   -10431   -11010 
  -11310   -11434   -11483   -11520   -11453   -11271   -11157   -11057 
  -10775   -10315    -9769    -9180    -8615    -8166    -7858    -7693 
   -7614    -7545    -7500    -7477    -7510    -7632    -7720    -7673 
   -7542    -7489    -7682    -8179    -8946    -9792   -10395   -10577 
  -10455   -10287   -10183   -10029    -9729    -9427    -9279    -9293 
   -9509    -9890   -10181   -10276   -10299   -10354   -10428   -10343 
  -10018    -9599    -9157    -8607    -8019    -7678    -7730    -7973 
   -8171    -8280    -8267    -8078    -7874    -7896    -8148    -8467 
   -8695    -8779    -8876    -9134    -9474    -9830   -10254   -10673 
  -10983   -11167   -11263   -11361   -11406   -11254   -11020   -10779 
  -10378    -9741    -8988    -8294    -7738    -7250    -6671    -5877 
   -5035    -4518    -4495    -4904    -5532    -6022    -6288    -6535 
   -6856    -7360    -8160    -9099    -9887   -10250   -10191   -10160 
  -10530   -11233   -12040   -12714   -12995   -12738   -12066   -11361 
  -10987   -10930   -10889   -10713   -10531   -10482   -10589   -10719 
  -10563    -9873    -8658    -7240    -6183    -5880    -6261    -6941 
   -7609    -8181    -8580    -8699    -8529    -8206    -7897    -7690 
   -7711    -8043    -8553    -9030    -9429    -9807   -10053    -9996 
   -9678    -9238    -8881    -8866    -9279    -9941   -10466   -10520 
  -10166    -9764    -9601    -9768   -10141   -10466   -10596   -10612 
  -10678   -10748   -10659   -10374    -9938    -9335    -8514    -7582 
   -6848    -6475    -6411    -6579    -6845    -7165    -7647    -8144 
   -8451    -8723    -9146    -9698   -10372   -11053   -11561   -11912 
  -12048   -11832   -11411   -10957   -10443    -9906    -9528    -9352 
   -9096    -8567    -8021    -7693    -7479    -7362    -7473    -7603 
   -7464    -7163    -6825    -6498    -6447    -6833    -7477    -8114 
   -8494    -8537    -8548    -8839    -9304    -9768   -10266   -10736 
  -11034   -11159   -11163   -11171   -11294   -11362   -11159   -10797 
  -10532   -10438   -10409   -10334   -10239   -10277   -10538   -10876 
  -11033   -10882   -10444    -9834    -9221    -8746    -8415    -8095 
   -7684    -7315    -7211    -7356    -7537    -7591    -7492    -7283 
   -6983    -6631    -6358    -6305    -6450    -6733    -7244    -8024 
   -8838    -9381    -9652    -9921   -10342   -10899   -11556   -12195 
  -12614   -12650   -12276   -11735   -11365   -11182   -10972   -10609 
  -10045    -9305    -8518    -7871    -7427    -7126    -6949    -6826 
   -6635    -6400    -6234    -6164    -6201    -6339    -6439    -6474 
   -6713    -7395    -8459    -9667   -10773   -11583   -11978   -11994 
  -11762   -11387   -11074   -11002   -11063   -11134   -11242   -11325 
  -11321   -11229   -10831    -9894    -8627    -7489    -6681    -6083 
   -5549    -4996    -4430    -4066    -4033    -4276    -4745    -5356 
   -6006    -6662    -7225    -7662    -8274    -9285   -10467   -11507 
  -12276   -12729   -12897   -12950   -13130   -13498   -13795   -13824 
  -13620   -13211   -12622   -11990   -11422   -10848   -10166    -9416 
   -8679    -8051    -7670    -7512    -7457    -7484    -7584    -7657 
   -7615    -7528    -7503    -7539    -7696    -8040    -8523    -9109 
   -9721   -10218   -10616   -11033   -11473   -11745   -11634   -11152 
  -10444    -9709    -9126    -8676    -8301    -7981    -7645    -7312 
   -7126    -7230    -7641    -8125    -8365    -8328    -8298    -8383 
   -8394    -8248    -7966    -7619    -7312    -7055    -6872    -6825 
   -6886    -7055    -7294    -7431    -7380    -7323    -7636    -8476 
   -9563   -10444   -10806   -10675   -10428   -10444   -10766   -11160 
  -11425   -11437   -11230   -11025   -10901   -10740   -10474   -10084 
   -9618    -9150    -8808    -8820    -9189    -9603    -9813    -9811 
   -9641    -9335    -8957    -8492    -7959    -7605    -7692    -8232 
   -9034    -9865   -10469   -10690   -10687   -10685   -10740   -10848 
  -10867   -10615   -10208    -9860    -9575    -9340    -9246    -9283 
   -9350    -9428    -9467    -9387    -9242    -9019    -8661    -8275 
   -7970    -7767    -7604    -7402    -7334    -7685    -8360    -9011 
   -9472    -9693    -9647    -9462    -9331    -9379    -9609    -9864 
   -9960    -9872    -9759    -9813   -10111   -10611   -11095   -11344 
  -11383   -11321   -11102   -10574    -9756    -8876    -8113    -7511 
   -7144    -7001    -6885    -6694    -6523    -6458    -6562    -6863 
   -7318    -7840    -8326    -8669    -8837    -8900    -9003    -9248 
   -9539    -9749    -9979   -10235   -10254    -9880    -9332    -8941 
   -8824    -8888    -8916    -8734    -8395    -8133    -8127    -8326 
   -8560    -8664    -8565    -8415    -8433    -8721    -9290   -10021 
  -10642   -10859   -10548    -9879    -9205    -8830    -8784    -8796 
   -8629    -8222    -7759    -7647    -8013    -8549    -8949    -9036 
   -8861    -8676    -8590    -8669    -9093    -9792   -10396   -10613 
  -10542   -10509   -10687   -11045   -11400   -11524   -11403   -11200 
  -11057   -10951   -10771   -10504   -10122    -9536    -8754    -7905 
   -7167    -6640    -6304    -6085    -5979    -6102    -6529    -7192 
   -7873    -8299    -8437    -8537    -8873    -9556   -10361   -10844 
  -10828   -10489   -10085    -9784    -9595    -9532    -9580    -9477 
   -9043    -8507    -8081    -7801    -7715    -7738    -7717    -7680 
   -7735    -7919    -8171    -8452    -8833    -9283    -9598    -9644 
   -9460    -9221    -9100    -9059    -8988    -8795    -8432    -8145 
   -8266    -8743    -9420   -10254   -11101   -11792   -12344   -12802 
  -13054   -12976   -12664   -12272   -11770   -11018   -10011    -9039 
   -8372    -7932    -7501    -7014    -6671    -6666    -6847    -6960 
   -6903    -6660    -6376    -6274    -6431    -6797    -7261    -7661 
   -7866    -7943    -8102    -8411    -8827    -9386   -10004   -10513 
  -11011   -11599   -12100   -12349   -12320   -11979   -11433   -11014 
  -10893   -10944   -11091   -11361   -11655   -11643   -11107   -10249 
   -9432    -8945    -8843    -8845    -8689    -8357    -7971    -7761 
   -7850    -8143    -8473    -8657    -8537    -8222    -8091    -8374 
   -8870    -9217    -9312    -9339    -9462    -9653    -9796    -9826 
   -9788    -9717    -9570    -9364    -9184    -9054    -8969    -8908 
   -8888    -8989    -9132    -9173    -9153    -9167    -9157    -8957 
   -8637    -8523    -8754    -9153    -9462    -9526    -9369    -9111 
   -8876    -8661    -8290    -7707    -7128    -6794    -6839    -7245 
   -7816    -8348    -8737    -8941    -9016    -9132    -9373    -9529 
   -9431    -9234    -9142    -9144    -9119    -8991    -8723    -8318 
   -7893    -7566    -7404    -7435    -7491    -7414    -7329    -7306 
   -7103    -6507    -5676    -5026    -4745    -4702    -4824    -5256 
   -6096    -7123    -8047    -8870    -9668   -10467   -11376   -12343 
  -13154   -13759   -14204   -14566   -14940   -15275   -15415   -15283 
  -14851   -14164   -13397   -12631   -11730   -10659    -9593    -8588 
   -7597    -6759    -6366    -6443    -6687    -6879    -6999    -7219 
   -7758    -8421    -8792    -8856    -8850    -8934    -9109    -9216 
   -9146    -9008    -8914    -8716    -8139    -7175    -6174    -5526 
   -5374    -5594    -5890    -5975    -5740    -5212    -4592    -4247 
   -4352    -4784    -5340    -5806    -6134    -6435    -6675    -6882 
   -7281    -7875    -8392    -8710    -8908    -9101    -9404    -9865 
  -10308   -10535   -10581   -10508   -10300   -10092   -10138   -10455 
  -10795   -11125   -11658   -12417   -13213   -13825   -14154   -14287 
  -14258   -14071   -13937   -14075   -14493   -15048   -15488   -15607 
  -15507   -15476   -15541   -15519   -15267   -14716   -13932   -12988 
  -11869   -10631    -9437    -8436    -7628    -6898    -6234    -5697 
   -5364    -5347    -5694    -6358    -7102    -7562    -7663    -7638 
   -7678    -7770    -7923    -8274    -8791    -9371   -10077   -10878 
  -11569   -12051   -12386   -12638   -12731   -12560   -12155   -11564 
  -10709    -9634    -8641    -7904    -7357    -6951    -6542    -6004 
   -5501    -5255    -5317    -5614    -5994    -6351    -6678    -7014 
   -7503    -8290    -9275   -10147   -10725   -11195   -11792   -12428 
  -12947   -13412   -13863   -14152   -14142   -13853   -13355   -12708 
  -11994   -11223   -10196    -8667    -6756    -4903    -3443    -2431 
   -1725    -1174     -670     -139      355      621      495       18 
    -575    -1112    -1617    -2312    -3462    -5059    -6939    -8941 
  -10800   -12286   -13304   -13792   -13848   -13682   -13366   -12922 
  -12409   -11890   -11514   -11452   -11686   -12064   -12445   -12672 
  -12664   -12453   -12069   -11620   -11264   -10987   -10696   -10293 
   -9760    -9236    -8865    -8667    -8564    -8519    -8629    -8950 
   -9448   -10093   -10712   -11053   -11172   -11338   -11746   -12553 
  -13694   -14771   -15471   -15776   -15809   -15716   -15492   -14925 
  -13884   -12456   -10814    -9100    -7493    -6183    -5171    -4361 
   -3723    -3207    -2743    -2349    -2153    -2303    -2855    -3700 
   -4553    -5223    -5911    -6871    -7985    -9012    -9724    -9915 
   -9664    -9212    -8718    -8372    -8314    -8479    -8699    -8833 
   -8837    -8761    -8568    -8141    -7564    -7049    -6636    -6231 
   -5908    -5872    -6154    -6554    -6820    -6766    -6351    -5787 
   -5242    -4590    -3680    -2543    -1405     -619     -457    -1071 
   -2532    -4633    -6934    -9162   -11183   -12722   -13536   -13709 
  -13390   -12590   -11464   -10453    -9954   -10052   -10673   -11654 
  -12598   -13153   -13300   -13136   -12776   -12325   -11835   -11360 
  -10939   -10638   -10639   -11025   -11635   -12291   -12961   -13581 
  -13915   -13764   -13205   -12480   -11749   -11106   -10694   -10686 
  -11149   -11942   -12785   -13425   -13741   -13744   -13471   -13062 
  -12788   -12752   -12864   -13238   -13992   -14773   -15148   -15021 
  -14280   -12773   -10589    -8055    -5637    -3697    -2420    -1868 
   -1884    -2115    -2196    -1960    -1462     -797     -110      328 
     349        8     -637    -1603    -2868    -4402    -6258    -8397 
  -10467   -12005   -12874   -13320   -13616   -14040   -14800   -15680 
  -16239   -16290   -15928   -15456   -15180   -15076   -14850   -14293 
  -13358   -12199   -11113   -10127    -8977    -7520    -5886    -4212 
   -2596    -1312     -700     -919    -1900    -3350    -4977    -6639 
   -8172    -9432   -10457   -11169   -11334   -11034   -10563    -9921 
   -9070    -8391    -8410    -9196   -10326   -11302   -11853   -11979 
  -11797   -11392   -10785    -9933    -8838    -7608    -6392    -5359 
   -4627    -4129    -3673    -3087    -2339    -1607    -1146    -1198 
   -2003    -3519    -5402    -7445    -9570   -11510   -13053   -14165 
  -14906   -15475   -16002   -16561   -17369   -18543   -19804   -20664 
  -20821   -20225   -18955   -17139   -14949   -12568   -10150    -7861 
   -5834    -4193    -3175    -2956    -3470    -4499    -5737    -6855 
   -7654    -8194    -8635    -9050    -9420    -9628    -9630    -9593 
   -9647    -9825   -10038   -10068    -9769    -9130    -8301    -7569 
   -7144    -7094    -7423    -8077    -8946    -9960   -11061   -12006 
  -12445   -12249   -11612   -10825   -10119    -9693    -9531    -9369 
   -9078    -8667    -8046    -7125    -5888    -4380    -2708    -1058 
     267     1028     1124      626     -229    -1310    -2702    -4490 
   -6583    -8766   -10686   -11884   -12152   -11794   -11381   -11337 
  -11639   -12094   -12717   -13517   -14412   -15522   -16991   -18598 
  -19878   -20488   -20347   -19533   -18122   -16182   -13833   -11173 
   -8267    -5567    -3928    -3701    -4464    -5624    -6504    -6513 
   -5629    -4226    -2694    -1429     -715     -569     -954    -1864 
   -3172    -4781    -6760    -9012   -11178   -12993   -14388   -15255 
  -15480   -15106   -14332   -13533   -13099   -13157   -13522   -13782 
  -13549   -12744   -11654   -10678    -9886    -9190    -8617    -7965 
   -6993    -5856    -4773    -3904    -3609    -4141    -5181    -6170 
   -6851    -7291    -7666    -8178    -8923    -9923   -11221   -12673 
  -13848   -14435   -14476   -14068   -13220   -11929   -10250    -8360 
   -6565    -5124    -4151    -3807    -4271    -5429    -6983    -8536 
   -9651   -10282   -10643   -10737   -10565   -10218    -9598    -8758 
   -8081    -7765    -7817    -8208    -8699    -9120    -9501    -9734 
   -9680    -9342    -8722    -7917    -7249    -7006    -7157    -7699 
   -8803   -10223   -11533   -12700   -13656   -14085   -13856   -13072 
  -11865   -10597    -9805    -9509    -9412    -9517    -9732    -9733 
   -9447    -9007    -8577    -8345    -8361    -8526    -8776    -9057 
   -9212    -9270    -9416    -9505    -9197    -8367    -7095    -5536 
   -3797    -2143     -988     -460     -564    -1418    -3061    -5278 
   -7630    -9747   -11362   -12222   -12334   -12071   -11907   -12091 
  -12534   -13053   -13589   -14042   -14169   -13802   -12987   -11935 
  -10814    -9571    -8198    -6867    -5668    -4720    -4272    -4330 
   -4714    -5420    -6340    -7014    -7137    -6959    -6898    -7098 
   -7492    -7938    -8245    -8390    -8533    -8806    -9289   -10007 
  -10971   -12233   -13624   -14836   -15697   -15917   -15132   -13439 
  -11457    -9936    -9271    -9265    -9479    -9580    -9408    -9063 
   -8781    -8588    -8280    -7707    -6886    -5985    -5270    -4872 
   -4837    -5189    -5836    -6787    -8168    -9799   -11236   -12276 
  -13142   -14058   -15130   -16483   -17810   -18345   -17720   -16164 
  -14130   -12139   -10633    -9670    -9009    -8382    -7492    -6285 
   -5053    -4014    -3165    -2371    -1525     -643      195      874 
    1189      800     -549    -2772    -5481    -8176   -10453   -12198 
  -13531   -14574   -15430   -16104   -16394   -16100   -15273   -14192 
  -13151   -12302   -11643   -11072   -10550   -10191   -10042    -9957 
   -9721    -9166    -8337    -7543    -7129    -7250    -7832    -8702 
   -9729   -10781   -11622   -11952   -11556   -10493    -9223    -8275 
   -7858    -7861    -8067    -8407    -8964    -9706   -10393   -10755 
  -10642   -10076    -9313    -8702    -8503    -8799    -9441   -10126 
  -10584   -10671   -10269    -9358    -8305    -7600    -7385    -7461 
   -7524    -7321    -6733    -5952    -5418    -5429    -6102    -7447 
   -9163   -10782   -12020   -12677   -12649   -12110   -11279   -10276 
   -9283    -8518    -8152    -8388    -9374   -10930   -12622   -14148 
  -15234   -15466   -14688   -13207   -11418    -9539    -7747    -6226 
   -5074    -4475    -4642    -5393    -6153    -6450    -6231    -5676 
   -4934    -4261    -3985    -4121    -4395    -4542    -4622    -5013 
   -5972    -7481    -9478   -11766   -13836   -15160   -15650   -15709 
  -15840   -16127   -16151   -15434   -13837   -11608    -9289    -7485 
   -6578    -6551    -6914    -7007    -6535    -5632    -4611    -3746 
   -3091    -2663    -2552    -2728    -3142    -3823    -4718    -5799 
   -7099    -8617   -10207   -11510   -12275   -12675   -12924   -13123 
  -13468   -14058   -14628   -14831   -14503   -13647   -12425   -11241 
  -10449   -10026    -9860    -9837    -9578    -8876    -8116    -7593 
   -7086    -6394    -5545    -4653    -4016    -3917    -4355    -5188 
   -6316    -7651    -9085   -10504   -11788   -12861   -13602   -13786 
  -13294   -12222   -10897    -9875    -9537    -9792   -10347   -10974 
  -11561   -12048   -12334   -12355   -12000   -11090    -9667    -8044 
   -6600    -5518    -4722    -4095    -3589    -3303    -3465    -4021 
   -4536    -4680    -4529    -4403    -4657    -5476    -6778    -8341 
   -9840   -10929   -11726   -12677   -13952   -15404   -16667   -17217 
  -16794   -15531   -13770   -11901   -10127    -8414    -6798    -5556 
   -4909    -4731    -4746    -4675    -4245    -3580    -3111    -2971 
   -3048    -3396    -4198    -5560    -7362    -9301   -11124   -12661 
  -13734   -14258   -14461   -14708   -15025   -15272   -15385   -15228 
  -14878   -14701   -14809   -14943   -14850   -14532   -13980   -13055 
  -11682    -9852    -7699    -5653    -4183    -3546    -3785    -4679 
   -5730    -6399    -6412    -5948    -5505    -5514    -6025    -6762 
   -7368    -7647    -7724    -7947    -8645    -9952   -11508   -12634 
  -13030   -12889   -12563   -12366   -12317   -12244   -11946   -11110 
   -9771    -8483    -7703    -7543    -7865    -8313    -8634    -8804 
   -8864    -8858    -8704    -8280    -7807    -7499    -7222    -6972 
   -6841    -6693    -6485    -6370    -6451    -6743    -7142    -7560 
   -7967    -8407    -9036    -9815   -10466   -10812   -10771   -10376 
