Origin Time       2024/04/02 04:24:00
Lat.              40.133
Long.             141.712
Depth. (km)       71
Mag.              6.0
Station Code      AOM026
Station Lat.      41.1280
Station Long.     140.3107
Station Height(m) 12
Record Time       2024/04/02 04:25:03
Sampling Freq(Hz) 100Hz
Duration Time(s)  109
Dir.              E-W
Scale Factor      7845(gal)/8223790
Max. Acc. (gal)   5.515
Last Correction   2024/04/02 04:25:03
Memo.             
[...]
    9740     9880     9749     9427     8957     8365     7890     7713 
    7796     8046     8364     8661     8973     9432    10023    10535 
   10860    11110    11325    11380    11199    10895    10593    10281 
    9980     9714     9364     8908     8556     8418     8334     8129 
    7815     7600     7676     7912     7996     7933     8016     8334 
    8699     8931     9157     9618    10180    10504    10577    10534 
   10409    10297    10343    10513    10596    10436    10041     9537 
    9138     8897     8660     8388     8209     8168     8183     8143 
    8073     8143     8429     8785     9046     9202     9369     9649 
   10010    10309    10488    10601    10687    10692    10539    10262 
    9972     9676     9319     8965     8642     8330     8212     8444 
    8862     9256     9613     9942    10166    10285    10347    10303 
   10141     9996     9944     9914     9887     9892     9873     9805 
    9706     9539     9360     9308     9320     9292     9325     9510 
    9697     9693     9460     9074     8681     8455     8441     8553 
    8662     8691     8685     8672     8568     8387     8228     8156 
    8216     8347     8491     8650     8785     8923     9150     9405 
    9555     9572     9522     9501     9570     9703     9811     9891 
   10038    10237    10351    10292    10106     9931     9825     9705 
    9601     9649     9771     9737     9491     9184     9001     8964 
    8895     8700     8568     8698     8947     9020     8893     8806 
    8905     9073     9112     9050     9004     8911     8756     8679 
    8658     8608     8595     8635     8756     9089     9532     9807 
    9961    10068     9868     9373     8932     8683     8679     8935 
    9219     9379     9486     9547     9589     9621     9559     9539 
    9652     9625     9390     9150     8883     8617     8545     8607 
    8761     9108     9386     9437     9558     9660     9555     9508 
    9450     9119     8878     8915     8815     8626     8664     8668 
    8538     8579     8668     8780     9243     9741     9855    10015 
   10417    10569    10431    10262     9975     9690     9618     9501 
    9255     9227     9319     9254     9302     9591     9742     9622 
    9366     9009     8653     8472     8405     8361     8580     9124 
    9587     9779     9863     9942    10089    10250    10208    10053 
    9990     9799     9355     9063     9086     9139     9169     9162 
    8911     8648     8725     8866     8850     8918     9066     9081 
    9046     8989     8766     8530     8542     8684     8785     8950 
    9147     9242     9346     9462     9421     9220     8978     8814 
    8820     8964     9096     9194     9347     9501     9510     9393 
    9354     9535     9787     9910     9937     9996    10104    10188 
   10210    10230    10258    10172     9913     9606     9429     9400 
    9431     9520     9568     9400     9184     9089     8968     8806 
    8699     8526     8291     8235     8322     8406     8544     8719 
    8849     9061     9483     9913    10115    10274    10555    10682 
   10482    10119     9798     9687     9703     9545     9267     9138 
    9028     8741     8533     8606     8676     8588     8598     8807 
    9040     9166     9201     9285     9505     9738     9864     9919 
    9859     9590     9231     8927     8680     8464     8260     8112 
    8137     8230     8193     8172     8372     8716     9101     9478 
    9745     9833     9740     9540     9385     9385     9506     9620 
    9713     9876    10106    10349    10571    10712    10764    10708 
   10467    10114     9747     9348     8962     8714     8658     8707 
    8629     8382     8241     8291     8311     8241     8229     8349 
    8529     8758     9142     9693    10218    10494    10544    10509 
   10351    10035     9738     9594     9522     9383     9173     8968 
    8753     8499     8314     8347     8571     8784     8864     8849 
    8842     8896     8897     8733     8509     8360     8309     8433 
    8781     9139     9248     9221     9317     9531     9798    10084 
   10192    10038     9853     9759     9643     9487     9356     9213 
    8981     8680     8457     8532     8978     9644    10314    10770 
   10894    10782    10575    10384    10301    10335    10412    10503 
   10575    10531    10370    10142     9813     9505     9337     9108 
    8711     8411     8334     8357     8405     8392     8307     8329 
    8459     8483     8422     8502     8703     8846     8919     8970 
    9013     9104     9229     9283     9297     9410     9595     9745 
    9887    10071    10223    10247    10146     9961     9691     9391 
    9166     9015     8834     8576     8336     8237     8248     8240 
    8197     8160     8172     8317     8596     8869     8991     8970 
    8954     9046     9217     9369     9486     9628     9779     9848 
    9822     9802     9856     9958    10081    10187    10260    10354 
   10403    10254     9977     9749     9539     9266     9035     8966 
    8992     9004     9057     9213     9347     9350     9305     9306 
    9325     9324     9321     9346     9393     9447     9441     9313 
    9113     8966     8973     9109     9217     9208     9132     9001 
    8806     8704     8788     8934     9062     9146     9097     9030 
    9193     9502     9703     9833     9953     9944     9829     9687 
    9436     9119     8908     8784     8649     8571     8565     8545 
    8540     8615     8735     8845     8939     9038     9104     9065 
    8922     8729     8542     8464     8664     9171     9679     9911 
    9980    10044    10060    10027    10038    10096    10123    10107 
   10065    10012     9960     9864     9668     9499     9487     9435 
    9174     8932     8981     9225     9348     9193     8980     8996 
    9171     9269     9331     9420     9324     9043     8914     8980 
    9004     8945     8912     9012     9325     9698     9864     9841 
    9767     9613     9401     9208     9001     8914     9085     9309 
    9433     9455     9247     8932     8849     8864     8733     8684 
    8868     9046     9170     9389     9605     9639     9502     9221 
    8923     8889     9067     9185     9312     9525     9666     9769 
    9934     9971     9751     9391     8926     8452     8301     8432 
    8503     8654     9157     9779    10258    10500    10322     9845 
    9516     9358     9151     9096     9321     9522     9639     9747 
    9656     9421     9315     9251     9113     9034     8959     8768 
    8598     8506     8511     8793     9217     9445     9633     9990 
   10162     9948     9621     9286     8912     8654     8587     8641 
    8842     9124     9293     9387     9499     9429     9073     8684 
    8367     8064     7977     8187     8552     9069     9606     9933 
   10127    10268    10278    10226    10215    10177    10102    10071 
   10015     9876     9728     9571     9379     9225     9124     9022 
    8920     8862     8843     8742     8521     8365     8344     8399 
    8509     8637     8804     8978     9101     9325     9686     9879 
    9841     9801     9782     9772     9867     9918     9811     9767 
    9780     9563     9224     9094     9115     9066     8947     8862 
    8914     9123     9282     9298     9364     9454     9366     9158 
    8966     8888     9001     9167     9246     9321     9360     9267 
    9227     9428     9784    10103    10297    10322    10129     9850 
    9661     9568     9537     9521     9432     9347     9328     9271 
    9231     9313     9429     9481     9463     9374     9258     9221 
    9261     9331     9478     9632     9617     9483     9401     9342 
    9193     9030     8955     8881     8758     8779     9012     9188 
    9153     9061     9045     9101     9140     9089     9012     9000 
    9036     9089     9116     9065     8986     8976     9016     9111 
    9336     9551     9540     9444     9470     9563     9609     9508 
    9247     9116     9273     9424     9385     9250     9192     9316 
    9391     9228     9092     9150     9158     9028     8964     8980 
    8969     8985     9092     9219     9267     9204     9103     9093 
    9229     9433     9559     9547     9416     9250     9228     9370 
    9456     9371     9208     9084     9000     8889     8781     8749 
    8694     8534     8436     8502     8590     8583     8577     8743 
    9069     9339     9513     9805    10276    10704    10894    10893 
   10795    10542    10138     9772     9536     9369     9238     9192 
    9297     9418     9267     8851     8494     8302     8163     8120 
    8283     8602     8903     9011     8950     8946     9073     9212 
    9319     9448     9624     9817    10011    10226    10328    10131 
    9791     9607     9540     9340     9013     8870     9055     9305 
    9429     9482     9451     9331     9208     9121     9084     9113 
    9085     8928     8922     9247     9582     9613     9506     9541 
    9661     9643     9494     9421     9475     9482     9294     9053 
    8992     8995     8827     8561     8357     8283     8347     8433 
    8442     8486     8650     8814     8904     9030     9247     9516 
    9775     9911     9845     9709     9647     9659     9801    10065 
   10233    10277    10381    10427    10228     9886     9490     9113 
    8920     8853     8754     8687     8716     8775     8770     8630 
    8425     8359     8486     8644     8718     8787     8989     9293 
    9535     9659     9679     9595     9466     9444     9616     9840 
    9921     9894     9857     9794     9684     9498     9215     8957 
    8866     8969     9155     9211     9094     9036     9173     9348 
    9408     9479     9736    10048    10224    10324    10455    10544 
   10463    10238    10039     9964     9898     9718     9547     9583 
    9786     9923     9937     9979    10080    10085     9892     9567 
    9269     9084     8928     8788     8739     8731     8734     8872 
    9094     9263     9425     9572     9589     9509     9405     9247 
    9022     8727     8367     8064     7951     8013     8128     8210 
    8302     8488     8739     8939     9088     9275     9455     9528 
    9567     9666     9703     9590     9431     9298     9212     9202 
    9180     9080     9028     9067     9094     9151     9346     9647 
    9977    10314    10652    10951    11129    11164    11090    10925 
   10741    10648    10670    10733    10785    10829    10845    10716 
   10381     9904     9351     8858     8595     8514     8519     8635 
    8783     8799     8704     8584     8432     8298     8303     8472 
    8711     8905     9042     9190     9313     9300     9174     9128 
    9324     9637     9807     9747     9508     9150     8758     8340 
    7920     7651     7551     7492     7500     7662     7906     8068 
    8050     7915     7777     7681     7624     7573     7511     7496 
    7526     7520     7543     7780     8244     8665     8839     8958 
    9263     9616     9823     9937    10053    10160    10134     9825 
    9281     8745     8333     7960     7634     7514     7631     7781 
    7807     7773     7765     7755     7739     7832     8113     8518 
    8980     9485     9960    10358    10675    10848    10910    10983 
   11041    11051    11068    11071    11005    10890    10713    10401 
    9952     9431     8888     8355     7865     7462     7155     6955 
    6914     7036     7241     7450     7716     8174     8820     9443 
    9867    10160    10405    10513    10382    10053     9684     9493 
    9589     9865    10166    10480    10817    11082    11200    11164 
   10974    10654    10320    10087     9961     9980    10216    10611 
   10935    11037    11017    10991    10863    10523    10060     9630 
    9265     8911     8602     8465     8559     8766     8945     9045 
    9097     9117     9128     9242     9545     9946    10297    10565 
   10756    10841    10870    10910    10824    10440     9868     9294 
    8680     7992     7445     7194     7134     7128     7157     7321 
    7639     7870     7944     8220     8796     9325     9630     9883 
   10273    10741    10964    10740    10276     9829     9344     8692 
    8075     7781     7704     7608     7605     7855     8233     8553 
    8788     9034     9417     9937    10405    10733    11097    11650 
   12291    12803    13051    13005    12706    12229    11583    10825 
   10134     9529     8897     8359     8063     7921     7970     8394 
    9138     9996    10882    11703    12314    12665    12777    12715 
   12568    12386    12118    11661    10993    10250     9563     8928 
    8330     7811     7329     6786     6249     5868     5679     5663 
    5791     6058     6581     7402     8330     9173     9856    10315 
   10555    10666    10705    10743    10770    10636    10407    10300 
   10214     9887     9428     9054     8676     8217     7889     7816 
    7881     7997     8156     8318     8383     8189     7743     7338 
    7182     7142     7048     6924     6871     6943     7111     7338 
    7638     7954     8152     8259     8478     8924     9518    10184 
   10879    11500    11921    12070    11959    11637    11076    10274 
    9355     8482     7735     7136     6658     6203     5755     5466 
    5433     5660     6180     6951     7812     8710     9718    10760 
   11666    12465    13284    14108    14787    15068    14827    14260 
   13610    12912    12118    11288    10498     9657     8721     7862 
    7118     6291     5425     4837     4657     4752     4907     5011 
    5175     5539     6030     6532     7092     7770     8465     9121 
    9738    10170    10261     9987     9416     8691     7967     7383 
    7117     7268     7713     8302     9051     9976    10929    11749 
   12398    12854    13050    13003    12819    12542    12181    11797 
   11469    11195    10882    10454    10010     9682     9462     9271 
    9100     8977     8896     8896     9026     9157     9166     9208 
    9463     9884    10415    11136    12052    12982    13683    13921 
   13536    12523    10976     9138     7383     5994     5116     4826 
    5073     5653     6318     6906     7461     8159     9090    10081 
   10899    11551    12093    12407    12507    12564    12541    12166 
   11284    10004     8567     7144     5834     4796     4229     4213 
    4702     5591     6637     7472     7898     8014     7996     8020 
    8306     8935     9796    10768    11677    12303    12603    12610 
   12240    11439    10339     9090     7767     6547     5683     5339 
    5576     6299     7273     8367     9479    10399    11022    11437 
   11659    11691    11641    11538    11263    10800    10270     9737 
    9115     8230     7060     5868     4986     4498     4264     4210 
    4390     4841     5599     6733     8214     9840    11306    12436 
   13277    13857    14057    13880    13562    13274    12978    12588 
   12096    11572    11099    10708    10332     9894     9347     8622 
    7755     7051     6725     6683     6864     7354     8074     8742 
    9107     9104     8870     8492     7947     7375     7068     7153 
    7588     8320     9232    10139    10856    11245    11303    11178 
   11064    11121    11406    11853    12321    12699    12912    12953 
   12888    12694    12275    11688    11105    10600    10134     9705 
    9362     9090     8803     8401     7834     7196     6655     6293 
    6165     6320     6663     6987     7206     7369     7500     7545 
    7447     7202     6895     6683     6706     6956     7285     7658 
    8104     8500     8706     8791     8941     9278     9837    10578 
   11404    12193    12783    12977    12667    12008    11330    10836 
   10532    10361    10245    10149    10104    10058     9904     9678 
    9475     9358     9413     9736    10370    11198    11873    12100 
   11855    11269    10512     9693     8784     7825     6991     6443 
    6234     6285     6519     6876     7236     7570     8024     8603 
    9058     9117     8715     8095     7578     7233     6997     6940 
    7172     7704     8441     9292    10224    11109    11726    12009 
   12120    12222    12270    12139    11889    11642    11345    10897 
   10315     9645     8869     7994     7188     6637     6405     6511 
    6949     7670     8610     9659    10651    11334    11550    11473 
   11365    11183    10822    10405    10033     9640     9159     8602 
    8113     7832     7661     7387     7017     6708     6498     6351 
    6269     6384     6864     7592     8193     8429     8383     8415 
    8800     9413     9972    10393    10678    10791    10777    10692 
   10497    10188     9853     9536     9126     8471     7564     6574 
    5733     5244     5263     5778     6605     7573     8561     9401 
   10014    10543    11072    11465    11669    11769    11684    11222 
   10422     9566     8970     8768     8866     9219     9850    10558 
   11020    11169    11142    11024    10831    10565    10351    10469 
   10966    11580    12143    12491    12298    11454    10196     8803 
    7489     6482     5950     5850     5988     6219     6586     7180 
    7932     8783     9829    11022    12024    12594    12787    12744 
   12514    12062    11419    10833    10525    10392    10200     9895 
    9559     9212     8758     8147     7474     6875     6417     6099 
    5931     6023     6446     7020     7469     7700     7765     7723 
    7650     7611     7657     7807     7986     8122     8276     8482 
    8629     8600     8463     8426     8588     8819     9022     9275 
    9684    10262    10980    11700    12225    12575    12873    13039 
   12966    12752    12491    12144    11677    11151    10655    10295 
   10177    10354    10683    10836    10594     9988     9124     8175 
    7427     7052     6974     7040     7236     7646     8248     8904 
    9499     9999    10400    10608    10484    10112     9787     9629 
    9516     9435     9559     9965    10525    11049    11442    11740 
   11963    12046    11954    11693    11365    11141    10986    10632 
    9994     9293     8622     7755     6632     5533     4668     4060 
    3759     3797     4199     5036     6107     7001     7623     8159 
    8648     8991     9163     9246     9332     9425     9435     9358 
    9305     9323     9282     9088     8811     8584     8455     8353 
    8248     8256     8397     8472     8387     8298     8405     8783 
    9350     9961    10579    11118    11325    11122    10659     9972 
    9077     8225     7713     7620     7881     8402     9081     9818 
   10428    10736    10748    10520    10066     9607     9416     9531 
    9859    10254    10602    10929    11211    11392    11583    11815 
   11927    11892    11858    11869    11793    11553    11187    10752 
   10278     9846     9512     9256     9074     9003     9043     9157 
    9256     9252     9103     8799     8356     7761     7030     6369 
    6007     5961     6173     6658     7384     8259     9165     9976 
   10620    11030    11167    11122    11001    10843    10698    10552 
   10324    10035     9822     9711     9539     9252     8966     8598 
