Origin Time       2024/04/02 04:24:00
Lat.              40.133
Long.             141.712
Depth. (km)       71
Mag.              6.0
Station Code      AOM014
Station Lat.      40.4472
Station Long.     140.9403
Station Height(m) 432
Record Time       2024/04/02 04:24:52
Sampling Freq(Hz) 100Hz
Duration Time(s)  144
Dir.              N-S
Scale Factor      7845(gal)/8223790
Max. Acc. (gal)   55.738
Last Correction   2024/04/02 04:24:52
Memo.             
[...]
   -3048    -3061    -3051    -3041    -3057    -3057    -3042    -3051 
   -3063    -3051    -3044    -3055    -3053    -3044    -3049    -3056 
   -3052    -3051    -3052    -3048    -3051    -3051    -3040    -3040 
   -3038    -3006    -2970    -2943    -2886    -2809    -2760    -2725 
   -2660    -2596    -2570    -2566    -2583    -2652    -2785    -2998 
   -3308    -3642    -3901    -4082    -4216    -4309    -4356    -4301 
   -4109    -3856    -3574    -3150    -2575    -2046    -1675    -1356 
    -992     -602     -244      -89     -405    -1275    -2386    -3326 
   -4185    -5139    -5880    -6359    -6585    -5887    -4059    -2246 
   -1688    -2097    -2610    -4122    -7546   -10488   -10365    -8220 
   -4962      -31     4155     5063     5208     5892     3411    -1927 
   -5246    -7048    -9774    -9964    -4878     2365     7886    10458 
   10975     9416     3912    -5470   -15203   -20197   -18670   -14573 
   -9769    -2469     3491     3894     1800    -1451    -6110    -9495 
  -12619   -14818    -9790      214     6953    10270    12911    14049 
   11242     4009    -3334    -6686    -5850    -5243    -8221    -7805 
   -2127    -2277    -9583   -16798   -21604   -20700   -15596   -11773 
   -4495     6135     8438     1210    -6515   -10409   -10724    -7900 
   -1973     8253    19807    22067    12415      731    -7858   -13416 
  -15314   -14721    -8803     2289     6501     1798    -1266    -2211 
   -3195    -2060     -957      884     4455     3357    -2851    -7735 
  -10004   -11557   -11340    -4621     8064    14172     7862     -661 
   -8846   -20937   -27122   -19849    -8047     3329    15456    16850 
   -1232   -21015   -23303   -13281    -2392     6986    13470    12766 
    5212    -5171   -17211   -25547   -23491   -14346    -4841    -1701 
   -5593    -5420      186     1517     -981    -7499   -24147   -38206 
  -29309    -6336    10397    21186    28556    24239     9688     -245 
   -1647    -4819    -9364    -6327     2214     7164     2926    -7773 
  -14202    -9451     1548     9612     8147    -2111   -11048   -13250 
  -11356    -6459    -2139    -3049    -9877   -18743   -19753    -9872 
    1877    10669    16713    14260     3753     -850     2876     2813 
   -3181    -8214    -9915    -9410    -6091    -3142    -7296   -14052 
  -13598    -6920    -1784     -943      128     1656     1023     2824 
    7639    10065    11186    11593     7858     4135     2355    -5543 
  -16301   -17756   -10328     -797     6199     6095    -1507   -11263 
  -17648   -18647   -17165   -18823   -20684   -14929    -5628      383 
    3827     5702     9389    18207    26088    25933    20594    14481 
    6176     -792       44     2673    -1765   -10432   -17761   -20756 
  -16182    -7854    -4739    -8160   -12436   -11496    -4220      720 
   -4260   -12827   -15866   -13541    -9431    -6149    -5143    -4041 
     784     8137    12502    10854     5718     2203     2220     1039 
   -2471    -2101     1135     3527     6547     4812    -6130   -18612 
  -27864   -34110   -31490   -19265    -8865    -6747    -9362   -11632 
  -11232   -10088    -8696    -6550    -4932     -114    10760    21061 
   22789    15769     8438     8101    12075    13833    11213     5691 
    -807    -4835    -3888    -2497    -5575   -10989   -14823   -16047 
  -16923   -19901   -23696   -25752   -24309   -16919    -5659     1385 
     440    -5931   -12205   -11227    -3480     2513     2300     -103 
    3242    11917    15593    12328     7861     2687       10     5219 
   11512     8509      534    -2416    -2899    -5128    -5086    -6316 
  -15650   -24530   -22415   -14000    -7398    -3705    -3127    -6312 
   -9306    -7241    -3775    -6588   -11832    -8391     2029     7244 
    3229    -4287    -8735    -6574      621     7508     9601     6983 
    4071     2755      407    -3241    -6601   -10120   -11809    -9364 
   -5563    -2006      556      711     2794     8742    12874    11427 
    3643    -7560   -13343    -8621      290     3694      378    -3500 
   -3699      -62     6619    14025    17821    15959    10593     4557 
   -1578    -7962   -13205   -16347   -16719   -13508   -10782   -13117 
  -16911   -17609   -15439   -11133    -7123    -5773    -5771    -7294 
  -10319   -11059    -9491    -6961     -399     6160     3226    -5333 
   -8826    -6394    -1094     5649     9603     8067     4853     2616 
   -1340    -7334   -11836   -12594    -9946    -6964    -7136   -11450 
  -17204   -20055   -18959   -13980    -5059     3418     6542     4710 
    1471     -463     -206     2118     4934     5803     5532     9705 
   19749    26986    25753    20737    15417     9409     4885     3253 
    1476    -1705    -2829    -1830    -4276   -11549   -18431   -20447 
  -17559   -13819   -13408   -16436   -20191   -21276   -19515   -18551 
  -17714   -13988   -10220    -9414    -9752    -9201    -6690    -1397 
    4268     5952     3699      265    -2751    -4187    -5548    -8210 
   -9887    -8722    -5881    -4270    -3786    -3076    -4951    -9771 
  -12596   -10270    -3689     4051     9782    10463     6384     3910 
    5987     8451     9900    12376    14540    14153    13185    13257 
   11479     6922     3450     2794     2722     1340    -1379    -4961 
   -9234   -13655   -16887   -17442   -15809   -14994   -17022   -19144 
  -16825   -11222    -7572    -8483   -12351   -14669   -12681    -8264 
   -4742    -3771    -4953    -6913    -7377    -4405     -234      525 
   -1602    -1744      558     1123    -2855    -8761    -9266    -2648 
    4109     5674     3379     2420     5773    10120    10736     7387 
    2805     -778    -1544     1057     4136     4383     1490    -1610 
   -1404     1381     4274     5281      540    -7955   -10590    -5695 
   -1844    -2879    -5679    -8784   -11329   -11897   -13054   -16047 
  -17308   -16313   -14532   -11527   -10087   -13292   -17763   -17706 
  -10879    -2154      588    -2779    -6147    -7080    -7595    -8243 
   -7407    -3766     2621     7325     6196     2272     -276     -452 
    1205     2168     1285      434     -480    -2682    -2535     3260 
    9292     9632     7133     6824     8418     8144     4436     -184 
   -2097        4     3422     4868     3811     1389      133     1047 
    1524      229    -1008     -643      264     -162    -1217    -1260 
   -2007    -5783   -10311   -12388   -11361    -6952    -1331     1458 
     861    -2095    -7172   -11781   -13235   -12384    -9456    -4243 
    -738    -2208    -6785   -10305    -9787    -7092    -5337    -4256 
   -4122    -5713    -7803    -8920    -8453    -6535    -3712    -2272 
   -4183    -6513    -6454    -6400    -7624    -6813    -3588    -2062 
   -3007    -4495    -5467    -4600    -3191    -4380    -6340    -4943 
   -1543      425      962      561     -936    -2347    -2724    -2628 
   -1745      333     1086     -905    -2898    -2883    -1663     -577 
    -826    -2381    -3840    -5269    -6531    -5266    -2188     -531 
    -540    -1950    -4631    -6103    -6138    -7132    -7985    -6870 
   -5312    -4270    -4059    -5381    -5386    -2636    -1061     -838 
    -610    -3142    -6081    -4621     -992     1988     3967     3075 
      86     -776     1431     3921     3977     1688     -373     -940 
    -334      792      876     -261      -67      962     -804    -3748 
   -4602    -5730    -8657   -10435    -9763    -8637    -8603    -8370 
   -6060    -3042    -2562    -4247    -4126    -1277     1452     1776 
    -515    -2496    -2681    -4801    -8621    -8908    -7248    -8105 
   -8928    -6763    -3680    -1610     -999    -3657   -10233   -16047 
  -16178   -12324    -8764    -6525    -4320     -602     4122     6218 
    3973      714      719     4610     7591     5753     2281      336 
   -1011    -1093     1613     4889     4714      448    -4465    -6718 
   -6085    -4623    -4282    -4114    -1398     2049     1102    -3592 
   -5891    -3268     -259     -423    -1503    -1961    -2128    -1046 
    1563     4851     6420     3443    -2350    -6778    -7780    -5040 
    -834     1132      318     -572     -788    -2506    -4945    -5773 
   -5736    -4963    -3763    -4560    -7102    -9378    -9734    -6990 
   -5059    -8468   -13086   -13780   -12287   -10361    -8260    -7470 
   -7387    -6570    -5281    -3923    -2820    -1991    -1525    -2428 
   -4536    -4450       93     4776     4864     2551     1890     3109 
    3581     1229    -3337    -8641   -12368   -11253    -6413    -2840 
    -611     3319     5850     3816      607    -2172    -4536    -4212 
   -2166     -845     -400     -689     -764     -274     -546    -1304 
   -2612    -6465   -10309    -8633    -2550     2565     4271     2068 
   -2974    -7587   -10261   -10542    -7271    -4328    -7173   -13251 
  -16669   -14939    -9693    -5933    -4891    -3545    -3032    -5652 
   -8684    -8941    -7871    -7645    -5827     -473     4054     4109 
    2849     2890     2643     1536     -399    -2708    -2971    -1579 
    -897     -481     -391    -1698    -3105    -3200    -2289    -1637 
   -2307    -2783    -1159     1009     2529     4572     6157     5316 
    2029    -1923    -2774      367     3248     3380     2374     2220 
    3121     3115     1066    -1786    -4945    -8283    -9887    -8201 
   -4870    -4266    -8310   -13544   -15705   -13848   -10760   -10160 
  -11175   -10427    -8333    -6632    -6072    -7416    -8252    -5721 
   -2342    -1583    -3075    -4500    -4182    -2700    -1073     1057 
    2104     -380    -4764    -7311    -5964    -2134      199     -163 
   -1729    -4320    -7211    -8533    -7423    -3793     -427     -657 
   -1414      -75     -500    -3414    -4955    -3271      832     3524 
    1714    -1894    -3708    -3846    -3123    -1320     2061     5921 
    6137      851    -6247   -11516   -13753   -12499    -9094    -5599 
   -1926     1958     3936     2867      232    -1471    -1094     -117 
     885     2975     4247     2606      282     -332      648     2635 
    4110     2913       36    -1008     -210     -403     -272     2695 
    4911     2863      -98     -390      472     -664    -4774    -9509 
  -11377   -10916   -11934   -14685   -16722   -18017   -18790   -17274 
  -13001    -8602    -6727    -7192    -7777    -6667    -4282    -2463 
   -2255    -2704    -1665     1016     3179     3187      797    -2189 
   -3007    -2404    -3180    -4766    -5597    -5896    -5248    -4229 
   -5111    -7732    -9936   -10488    -9150    -6239    -3203    -2196 
   -3520    -5471    -6114    -3469     2447     8235    10123     7911 
    4968     2910      947     -329     -703     -558     1433     4893 
    6311     4193      760     -643     1435     4072     3199    -1844 
   -9109   -15529   -17918   -16819   -16402   -16556   -13128    -7493 
   -5001    -6385    -7998    -7704    -6583    -5440    -3639    -1652 
   -1605    -3955    -6448    -7727    -7649    -7171    -8591   -11643 
  -13953   -13780   -11191    -8770    -7240    -5263    -3662    -3423 
   -4386    -6145    -7958    -8810    -6199     1842    12263    20210 
   25451    29651    32402    33324    31425    26161    20868    17320 
   14445    14384    16864    15604     8981     1312    -5436   -10875 
  -14351   -17621   -22621   -28533   -33501   -36255   -37443   -39741 
  -43819   -46907   -47709   -46461   -40768   -30476   -20059   -11233 
   -4094     -649      360     2673     6751    10291    12815    16858 
   22434    26271    26528    22370    14449     6701     2793     2859 
    5174     7425     6465     1189    -5822   -10197    -9302    -6284 
   -5406    -4766    -1032     5343    11871    16626    21377    28873 
   36981    41332    40401    35754    30743    28166    27913    25262 
   13560    -4280   -16025   -15822    -7263     1865     2478    -7657 
  -20430   -25351   -19541   -11020    -8725   -11796   -14459   -13316 
   -7816    -1476     -460    -6574   -14050   -16985   -17437   -20614 
  -27032   -35278   -44830   -52847   -54965   -51152   -44577   -34650 
  -21533    -9877    -2035      541    -3531   -11053   -17672   -19982 
  -15877    -7932      631     7034     6199    -1179    -7345    -6006 
    2212     9286     9817     6254      845    -5563    -8025    -3805 
     687      -72    -3141    -2045     6759    16953    18693    15772 
   17139    20341    21116    19441    16359    16891    22708    24862 
   15171    -1944   -15921   -20937   -16006    -4388     5522     6475 
   -2748   -18752   -35094   -45056   -45551   -38493   -28071   -19958 
  -18306   -19039   -17161   -15427   -16382   -18364   -21907   -27792 
  -31692   -28664   -18312    -3512    12420    27556    39197    40135 
   27589    11358     2311     2538     7204     9795     6362    -3839 
  -19059   -34911   -45058   -47089   -42036   -28722    -7958    14229 
   30762    36840    31163    19391    11419    10876    15327    20668 
   23851    27409    30689    29230    26372    24412    21103    16934 
   10422    -1566   -16074   -22238   -13578    -1097    -1210   -12924 
  -20668   -17174    -9879    -6906    -7322    -6952    -4780     -595 
    4230     6266     8048    13734    15996     9042      677    -1961 
    -287     -842    -5894    -8577    -4320     3496     9657    12576 
   13212    11803     7319    -3295   -21467   -40205   -47803   -41790 
  -32620   -32134   -41856   -52369   -52764   -40171   -22303    -9221 
   -4191    -3022     3597    21524    42963    55381    55312    46280 
   36867    35949    42468    47378    42110    27503    13556     6542 
    3990      -82    -7076   -11034    -8244    -2926    -2308    -8415 
  -15515   -19705   -21482   -19869   -14705    -7762    -3219    -9518 
  -28078   -47580   -56658   -51374   -36080   -20067   -11925   -16634 
  -28128   -32246   -21708    -3045    10084    10000     -999   -13691 
  -18625   -14812    -7604    -2443    -5476   -19857   -38626   -52574 
  -57304   -49819   -33401   -18154   -12093   -17420   -28637   -35270 
  -33037   -25978   -16568    -6170     2184     8716    11052     6093 
     815     3450    14500    26372    30053    24309    13937     6278 
    3280     1628        1    -1007     1378     4367     2003    -4247 
   -8977    -7180     2243    16245    29343    36803    39012    37426 
   31415    23383    19421    19298    19662    20385    18661    17275 
   21613    26238    25953    21348    14165     8457     7904    10851 
   13165    12062     4788    -6786   -16306   -20467   -20557   -19053 
  -17065   -16035   -16993   -20085   -24529   -26426   -22014   -13221 
   -4954     1232     3470     -360    -5553    -5447     1313    10496 
   14602    10989     5547     3862     6534    10762    11371     6582 
     756    -1730     -904     -841    -4853   -10135   -13050   -15439 
  -19340   -22750   -22843   -19151   -14002    -9165    -2938     4201 
    6357     1750    -3662    -5456    -4920    -5471    -7950    -9670 
   -9439    -7971    -6724    -9396   -15211   -17928   -15992   -12699 
  -11140   -14543   -22319   -26987   -23645   -17092   -15669   -20829 
  -25760   -25667   -22531   -21070   -24156   -28468   -26767   -16561 
   -3484     5043     7263     6899     6652     6998     8627    11772 
   16332    18900    15255     8162     3294     3487     8226    12609 
   12162     9651     8910     9166    10405    11809    10338     7480 
    7485    10359    13736    15174    12008     7426     7272     9246 
    8139     4602     1919      257    -3686   -10887   -17712   -20709 
  -19242   -16070   -14925   -15873   -17259   -19604   -23966   -27757 
  -26264   -19514   -12361    -9051   -10701   -14593   -16524   -15564 
  -13807   -12737   -11936   -10315    -8144    -5436    -1653      695 
    -580    -3996    -7314    -9059    -8788    -6042     -754     4191 
    5332     3134     1711     3573     5965     4639     -600    -6386 
   -9288    -6732      994     8506    10786     7669     2130     -963 
    1070     5794     8984     9047     6968     3982     2313     2570 
    3156     3854     3331     -345    -5872    -9759    -9296    -5116 
    -976      -71     -943      125     3727     8139     9865     5706 
   -1351    -5957    -7734    -8957    -8856    -5208     -139     2475 
    1267    -1674     -989     4334     8865     9042     7965    11747 
   20263    24779    18763     7778     1749     2474     5305     5023 
    -189    -5643    -5481     -913     2180      681    -3773    -7766 
  -10227   -12509   -15106   -16907   -17493   -17529   -16830   -14810 
  -13063   -14141   -17184   -18678   -16029    -9369    -2825    -1089 
   -3838    -7061    -7553    -4445     -467      726       97    -1053 
   -4618    -9023    -9374    -5015     -765      217     -669    -3115 
   -6107    -5942    -3477    -4164    -9602   -14976   -16463   -14972 
  -11967    -9128    -7777    -6835    -6068    -6543    -6812    -3750 
    2934     9404    11294     7911     2349     -696     2020     8910 
   15090    16198     9965    -1776   -13057   -18586   -17583   -14319 
  -15434   -20672   -22414   -18719   -14835   -14544   -17227   -18046 
  -13138    -6177    -2875    -3474    -6307   -10273   -12232   -10120 
   -6659    -5483    -8152   -13369   -16656   -15441   -11268    -5964 
    -808     1783     -197    -4847    -6758    -3434      -99    -1518 
   -4347    -4043     -781     2268     3581     4668     6756    10011 
   12312    11296     9512    10326    12858    14450    12598     6373 
   -1588    -7079    -7422    -3682     -615    -1879    -6319    -9491 
   -8009    -2373     3396     4557      265    -5142    -7353    -5614 
    -599     5575     9562    10025     7534     3429     -473    -2031 
     568     6300    11182    12086     9381     4749      -49    -2047 
    -380     1925     2265       75    -3146    -3649     -419     2396 
    1102    -3611    -8365   -10382    -9355    -6724    -5101    -6906 
  -10870   -13393   -12183    -7379    -2268      259      870      523 
    -920    -2990    -5697    -9258   -11129    -9413    -6926    -5518 
   -3098      716     2739     1179     -523     1441     4899     5537 
    2798     -572    -1776     -967     -290       -4     1124     1649 
    -869    -3921    -2978     1302     3894     1220    -4245    -5971 
   -2392      687    -1181    -6303   -11068   -13879   -15264   -15925 
  -15391   -13424   -10727    -7967    -5760    -4452    -4112    -5007 
   -6439    -5946    -2608      299     -567    -4519    -9108   -12792 
  -13941   -11427    -6879    -3105    -1759    -3350    -6203    -7622 
   -8529   -10743   -12487   -12791   -12960   -13177   -12541   -10725 
   -9103    -8919    -9283    -8683    -6700    -4931    -5435    -7584 
   -8723    -7422    -4932    -3153    -2161    -1254     -414      202 
     645     1906     5049     8665    10932    11861    11855    11010 
    9158     7210     6729     7276     7300     5621     2457      571 
    1910     4364     4320      554    -4803    -8591    -9356    -8235 
   -7919    -9474   -10903   -10458    -9616    -9628    -9428   -10103 
  -11959   -10289    -3609     2643     4020     1105    -2893    -4380 
   -2390     -612    -2270    -5204    -5448    -2690     -213     -423 
   -1853    -2066    -1749    -2652    -4683    -7126    -9229    -9614 
