Origin Time       2024/04/02 04:24:00
Lat.              40.133
Long.             141.712
Depth. (km)       71
Mag.              6.0
Station Code      AOM005
Station Lat.      41.2949
Station Long.     141.1972
Station Height(m) 10
Record Time       2024/04/02 04:25:07
Sampling Freq(Hz) 100Hz
Duration Time(s)  89
Dir.              E-W
Scale Factor      7845(gal)/8223790
Max. Acc. (gal)   23.174
Last Correction   2024/04/02 04:25:07
Memo.             
[...]
   -9487   -12553   -11886    -7703    -6212    -9315   -13398   -14376 
  -11989   -10462   -12657   -15310   -14515   -12410   -12987   -14824 
  -14268   -11874   -10041    -9842   -11115   -11433    -9522    -8276 
   -9940   -13092   -14762   -13163    -9872    -8515   -10810   -14254 
  -14138   -10193    -8418   -12217   -16676   -15624   -10087    -6610 
   -9288   -15282   -18254   -15739   -11016    -8178    -8534   -10719 
  -12411   -12239   -10675   -10030   -11441   -11927    -9324    -7404 
  -10154   -15403   -18218   -16561   -12247    -8854    -8379    -9724 
  -11229   -12364   -12938   -12897   -12602   -12394   -11169    -8214 
   -6821    -9760   -14337   -16482   -14508   -10513    -8606    -8256 
   -7013    -7607   -11911   -15781   -15927   -13953   -12603   -12690 
  -12942   -11495    -9144    -8595   -10200   -13138   -16109   -16374 
  -14326   -12703   -11178    -9445    -9594   -11362   -11696   -10386 
   -9763    -9688    -9819   -11341   -13240   -14337   -15020   -13990 
  -10474    -7348    -7890   -11619   -14737   -15048   -13878   -13030 
  -13104   -13587   -12943   -10493    -8891   -10579   -12806   -12268 
  -10257    -9162    -9425   -10617   -12372   -13710   -13470   -12559 
  -12644   -13521   -14253   -14372   -13694   -12433   -11051    -9526 
   -7674    -6524    -7469   -10327   -13243   -13937   -12576   -11435 
  -10848   -10409   -11144   -12609   -13134   -12600   -11446   -10034 
   -9693   -11475   -14030   -14206   -11195    -9051   -11061   -14073 
  -13842   -11600   -10620   -11387   -12496   -12721   -11979   -10947 
  -10145    -9952   -10056   -10501   -12328   -14266   -14044   -12345 
  -11009   -10989   -11411   -10573    -9902   -11940   -15291   -16541 
  -15067   -12621   -10631   -10332   -11595   -12145   -11169    -9720 
   -8299    -7796    -9202   -11624   -13350   -13289   -11967   -11808 
  -13633   -15268   -15080   -13509   -11431    -9130    -7678    -8748 
  -11357   -12540   -11072    -8958    -9467   -12021   -12625   -10543 
   -9408   -12075   -16086   -16087   -12087    -9401    -9999   -11060 
  -10887   -10673   -11573   -13062   -13691   -13078   -12761   -13832 
  -14972   -14338   -12117   -10470   -10806   -11276    -9321    -6575 
   -6562    -8451    -9417   -10312   -12951   -16533   -19016   -18416 
  -15076   -12086   -10471    -8309    -5622    -5782   -10326   -15407 
  -16362   -13077    -9262    -8213   -10072   -13344   -16322   -17363 
  -16839   -15985   -13860   -10239    -7954    -8307    -9406    -9787 
   -9776   -10258   -10466    -8905    -7277    -8649   -12696   -15780 
  -15288   -13018   -12244   -13562   -14879   -13527   -10650   -10611 
  -12992   -13250   -10417    -7227    -6559    -9111   -12459   -13664 
  -12268   -10658   -10994   -11807   -10994   -10276   -11962   -14925 
  -16621   -15533   -12456   -10168    -9902   -10651   -11537   -12059 
  -12430   -13481   -14623   -14681   -13876   -12791   -12002   -11761 
  -10683    -8336    -6837    -7258    -8715   -10500   -12114   -13456 
  -15003   -16453   -16794   -15566   -13490   -12224   -12426   -12610 
  -11564   -10536   -10964   -11557   -10612    -9198    -9134   -10162 
  -10855   -10442    -9466    -9358   -10673   -12150   -12341   -11056 
   -9718   -10480   -13072   -14269   -12301    -9499    -9188   -12074 
  -16394   -18558   -15873   -11163    -9109    -9775   -10538    -9616 
   -7570    -7335   -10026   -12827   -12892   -10890    -9591   -10454 
  -12820   -14778   -14713   -13043   -11040    -9459    -9288   -10659 
  -11826   -11724   -11718   -13103   -14532   -13927   -11425    -9315 
  -10184   -13878   -17226   -18145   -16880   -14562   -12649   -11300 
   -9300    -6772    -6021    -8428   -11773   -13090   -12093    -9977 
   -8414    -9089   -11381   -12812   -12278   -10531    -8822    -8421 
   -9737   -11481   -12237   -12730   -14050   -14459   -12328   -10129 
  -10328   -11402   -11784   -12108   -12625   -13073   -13313   -12646 
  -10967    -9779   -10347   -12332   -14485   -15132   -13981   -13143 
  -13329   -12789   -11497   -11222   -12032   -12739   -12968   -11688 
   -8043    -5131    -5632    -7059    -7500    -8178    -9707   -11889 
  -14280   -15724   -15240   -13608   -13069   -14554   -16860   -17832 
  -16224   -13536   -11793   -11232   -11098   -10565    -9821    -9946 
  -11830   -14656   -15091   -11410    -6724    -5301    -7921   -11546 
  -12577   -10581    -8939    -9848   -10832    -9934    -8897    -9320 
  -11219   -13821   -15770   -16287   -15060   -12216   -10006   -11172 
  -14631   -16501   -15442   -13497   -12598   -12559   -11425    -8606 
   -7107    -9803   -14409   -15187   -11678    -9985   -12183   -14274 
  -13817   -11688   -10307   -11079   -11927   -10543    -8298    -8082 
  -10048   -11767   -11908   -11213   -10986   -11838   -12671   -12437 
  -12214   -12703   -12636   -11712   -11828   -13791   -15353   -14639 
  -12934   -12561   -13949   -15012   -13564   -10613    -9151    -9606 
   -9481    -8197    -8486   -11221   -13350   -12862   -11311   -10725 
  -11119   -11169   -10322    -9315    -9084   -10219   -11996   -12421 
  -10876    -9486   -10557   -13023   -14269   -14134   -13240   -11985 
  -11736   -12599   -13400   -13698   -13397   -12777   -12071   -11399 
  -11638   -12744   -13302   -13045   -12768   -12172   -10322    -7796 
   -6338    -6779    -8549   -10666   -12695   -14409   -14890   -13397 
  -11140   -10848   -13446   -16357   -16542   -13888   -11026    -9868 
   -9498    -8876    -9059   -11391   -15164   -17721   -16794   -12684 
   -8529    -7500    -9223   -10597    -9849    -8927   -10609   -13616 
  -14652   -13319   -11479   -10378    -9589    -8286    -6856    -6490 
   -7742    -9505   -10882   -12552   -14057   -14320   -14045   -13918 
  -14013   -14517   -14828   -13676   -11103    -9238    -9270   -10154 
  -11335   -12444   -12556   -11956   -11538   -11553   -11585   -11188 
  -11040   -11765   -12636   -12807   -12341   -11965   -11807   -11187 
  -10596   -11280   -12687   -13248   -12931   -12575   -11844   -10037 
   -7709    -5819    -5181    -6959   -10990   -15253   -18056   -18229 
  -15805   -13244   -12324   -12108   -11391   -10440   -10033   -10083 
  -10538   -11557   -11923   -11072   -10697   -11626   -13077   -14521 
  -15624   -16020   -15446   -13738   -11227    -8932    -8248    -9389 
  -10569   -10781   -11169   -11859   -11142    -9036    -7904    -9158 
  -11793   -13980   -14636   -13995   -13732   -14989   -16143   -15333 
  -13755   -13289   -12760   -10196    -6970    -5810    -7322   -10288 
  -12452   -12513   -12085   -13026   -14404   -14156   -12511   -11657 
  -11869   -11421   -10362   -10208   -10970   -11664   -12401   -13455 
  -13740   -12765   -11551   -10655   -10199   -10239   -10233    -9823 
   -9427    -9437    -9556    -9757   -10570   -11738   -12650   -13009 
  -12879   -13373   -15045   -16114   -14943   -12394   -10164    -9128 
   -9624   -10774   -11222   -11515   -12264   -12194   -10963   -10153 
  -10471   -10989   -10966   -10709   -11082   -12633   -14215   -14050 
  -12852   -12276   -11844   -10844   -10029    -9929   -10382   -11574 
  -13297   -14315   -14426   -14339   -13683   -12474   -11642   -11449 
  -11720   -11850   -11261   -10390   -10143   -11028   -12100   -12085 
  -11294   -10841   -11905   -14208   -15233   -13657   -11155    -9844 
   -9663    -9351    -9154    -9603    -9821    -9737   -10305   -10670 
   -9701    -9504   -11885   -14254   -14361   -13242   -11283    -8617 
   -7449    -8808   -11157   -13155   -14472   -15323   -15847   -15313 
  -13651   -12330   -12255   -13061   -13878   -13760   -12854   -12162 
  -11979   -12087   -12371   -12596   -12303   -11383   -10623   -10458 
  -10143    -9228    -8178    -8270   -10768   -14092   -14921   -13315 
  -12336   -12904   -12861   -11404   -10343   -10260   -10068    -9306 
   -8700   -10041   -13477   -16015   -15552   -13049   -10581    -9872 
  -10949   -11894   -11642   -11506   -12202   -12434   -11614   -10249 
   -8748    -8043    -8552    -9529   -10966   -13038   -14408   -14328 
  -13895   -13404   -12526   -11781   -11379   -11446   -12004   -12271 
  -11954   -11659   -11898   -12285   -12182   -11580   -10767   -10584 
  -11387   -12202   -12154   -11087   -10508   -12106   -13899   -13315 
  -11790   -11832   -13239   -13733   -12108   -10207   -10311   -11763 
  -12280   -11545   -11137   -11387   -11516   -11446   -11168   -10629 
  -10011    -9289    -8947    -9852   -11686   -13427   -14910   -16175 
  -16623   -16016   -14677   -12826   -10793    -9235    -8627    -8954 
  -10003   -10825    -9892    -7555    -6232    -7577   -10767   -13460 
  -14436   -13994   -12776   -11901   -11758   -11449   -11028   -11299 
  -11754   -12015   -13155   -14953   -15001   -12626   -10754   -11483 
  -12703   -12405   -11759   -11859   -12735   -13986   -13996   -12056 
   -9860    -9144   -10010   -11132   -11125   -10218    -9377    -8757 
   -9119   -11184   -12459   -10875    -9288   -10116   -11649   -12893 
  -14469   -14975   -13144   -11287   -11705   -12613   -11281    -8592 
   -7851   -10234   -13467   -15082   -14565   -13101   -12787   -13590 
  -12841    -9768    -7007    -7287   -10280   -12857   -12947   -12123 
  -12920   -14742   -15303   -14172   -12021   -10184   -10372   -11730 
  -11952   -11156   -11149   -12337   -13042   -11955   -10523   -10974 
  -12650   -13579   -13556   -12835   -11757   -11475   -12077   -12401 
  -11589    -9837    -8951   -10220   -12349   -13527   -13155   -11982 
  -11466   -11897   -12991   -14663   -15465   -14658   -13965   -13979 
  -13456   -12357   -11037    -8897    -6874    -6863    -8120    -9073 
   -9941   -11215   -12779   -13965   -14203   -13585   -11727    -8876 
   -7157    -7561    -9080   -10858   -12144   -12788   -13649   -14681 
  -15017   -14280   -12850   -11917   -12156   -13309   -14700   -14532 
  -11788    -8583    -7465    -8523   -10424   -12082   -13535   -15300 
  -15835   -13393   -10304    -9275    -9278    -9212    -9706   -10806 
  -11645   -11539   -10440    -9003    -8776   -10511   -12559   -13458 
  -13699   -14193   -14982   -15095   -14075   -12332   -10226    -8935 
   -9910   -12406   -13463   -11735   -10206   -11489   -13803   -14732 
  -14207   -13883   -15495   -17710   -16970   -13215   -10287    -9849 
   -9705    -7982    -5597    -4823    -5886    -6378    -5258    -4245 
   -5204    -8278   -11607   -13367   -13872   -14404   -15449   -16413 
  -16479   -15871   -15963   -17153   -17076   -14008   -10099    -8406 
   -9571   -11238   -10843    -9506    -9640   -10864   -11237    -9999 
   -8943   -10420   -13459   -15187   -14924   -13397   -11259    -9737 
   -9207    -8785    -8406    -8664   -10142   -13190   -16667   -18098 
  -16159   -12579    -9976    -8856    -8831    -9894   -11566   -13096 
  -14274   -14843   -13759   -11310    -9788    -9890   -10782   -12123 
  -12707   -11784   -10845   -10856   -10978   -10450    -9884   -10446 
  -12123   -13994   -14806   -13473   -11249   -10266   -10307   -10670 
  -11314   -11585   -11551   -12123   -13196   -13960   -13740   -12735 
  -12573   -13954   -14521   -12680   -10953   -11399   -12522   -12938 
  -12784   -12232   -11913   -12756   -14017   -13861   -12028    -9857 
   -8797    -9454   -10628   -10497    -9123    -8075    -8303    -9132 
   -8816    -7437    -7365    -9134   -11007   -12271   -13891   -16313 
  -17327   -15704   -14671   -15788   -16085   -14234   -12208   -11857 
  -12897   -12641    -8819    -3900    -3067    -6156    -7511    -5111 
   -3102    -5456   -10775   -14067   -13784   -13807   -17224   -21763 
  -23442   -22096   -19697   -16964   -13944   -10585    -8267    -9204 
  -11827   -12302   -10241    -8577    -9896   -13946   -17548   -17998 
  -16349   -14783   -13194   -11340   -10241   -10446   -12017   -14997 
  -18289   -19241   -16271   -10984    -5886    -2408    -1333    -2725 
   -6081    -9948   -11029    -7049     -974     1842      402    -2559 
   -5775    -9653   -14268   -18669   -20308   -17728   -14027   -14075 
  -18698   -23271   -22561   -16852   -11342    -9216    -8225    -5575 
   -3071    -4206    -8457   -11858   -11743    -8657    -4978    -2990 
   -3356    -5113    -7549   -10933   -14920   -17972   -19201   -19928 
  -21609   -22432   -19626   -14565   -11151   -10692   -11885   -12962 
  -12492   -11259   -10968   -10760    -9810    -9369    -9957   -10952 
  -11797   -12981   -15599   -18716   -20098   -19145   -17257   -17108 
  -20245   -24192   -25080   -22414   -18037   -13487    -9728    -6462 
   -3200    -1098    -1182    -2317    -2670    -2281    -2367    -2991 
   -4207    -6519    -9105   -11816   -15561   -18712   -19097   -17807 
  -16209   -13755   -10797    -8237    -5537    -2704     -490      939 
    -163    -5759   -13154   -17527   -17749   -16056   -15086   -15843 
  -16588   -15329   -12675   -10285    -8861    -7780    -5520    -1857 
    1732     4303     5362     4183      211    -6976   -15434   -20979 
  -22312   -21701   -22104   -24587   -25709   -22111   -16735   -14272 
  -14702   -15853   -17740   -20819   -23333   -23238   -20479   -16330 
  -11604    -6428    -1543     1844     2394     -832    -6176   -10810 
  -13548   -13360   -10266    -7593    -8407   -12530   -17621   -21249 
  -23635   -26156   -27476   -25708   -20884   -13801    -7087    -4318 
   -5977   -10338   -15700   -19506   -19683   -16742   -11276    -2619 
    7145    12567    10307     1819    -8858   -17455   -22216   -25351 
  -27695   -25602   -17902    -8598    -1914    -1287    -8163   -17749 
  -21641   -16671    -7946    -2385    -1621    -1690      587     2299 
   -1597   -11704   -23801   -32017   -32233   -24684   -14793    -9639 
  -10716   -13736   -15390   -14744   -12108   -10037   -10539   -12025 
  -11967    -9578    -5242      207     5513     8577     6956     1061 
   -4945    -8511   -11632   -16432   -22094   -27014   -29817   -28561 
  -23114   -16695   -12306    -9833    -7618    -5906    -6481    -8769 
  -10709   -12438   -15946   -21305   -23580   -18346    -9620    -4743 
   -5989   -10893   -15076   -16117   -16345   -18501   -19990   -16345 
   -9892    -7773   -11371   -14744   -12461    -4873     2959     5211 
     315    -6921   -11875   -14696   -15812   -15421   -15419   -15352 
  -11970    -5481    -1279    -3873   -12028   -20613   -24769   -23986 
  -23045   -25589   -28636   -26343   -17135    -6554    -2529    -7138 
  -14804   -17726   -12491    -2652     5489     9108    10462    12118 
   12170     7477     -874    -8251   -11149   -11281   -13393   -18505 
  -23422   -24966   -22179   -19041   -21344   -27184   -29184   -24152 
  -14839    -8032    -9070   -14829   -17266   -12968    -6091    -2921 
   -5279    -9805   -11577    -9765    -9540   -14108   -19728   -21425 
  -17778   -11809    -8028    -6890    -7117    -9315   -11186    -7813 
    -220     4938     4891     2137    -1945    -8004   -16416   -25843 
  -30616   -24370    -9728     1755     1914    -6663   -16877   -24048 
  -26743   -27595   -29552   -29169   -22212   -13077    -9814   -14520 
  -22343   -26050   -21887   -12433    -3704      342      571     -378 
   -1150     -789      463     1026     1621     3318     3160    -1351 
   -8568   -15657   -19151   -17140   -14362   -17869   -27237   -34388 
  -33388   -27191   -22910   -23171   -24232   -20937   -12737    -4905 
   -2493    -3551    -2648      279     1058    -2228    -7990   -12656 
  -14040   -14111   -15611   -17487   -16869   -14280   -13235   -14266 
  -13086    -6497     1483     2770    -4784   -15055   -20463   -18243 
  -12479    -8048    -4413     -874     -723    -6162   -14701   -20830 
  -20800   -16016   -10365    -5999    -3322    -3364    -7032   -12592 
  -16816   -17220   -13455    -8253    -4908    -4183    -5124    -8109 
  -14925   -23379   -27135   -24410   -19369   -16301   -17251   -19853 
  -19276   -15485   -12577   -11884   -10497    -6628    -3014    -2415 
   -4822    -9548   -14256   -16048   -15369   -14067   -12295    -9466 
   -5940    -3704    -4679    -8357   -12495   -15326   -16482   -16700 
  -17790   -21262   -24950   -24929   -21231   -16544   -12506    -9877 
   -6870     -172     7832    10574     7736     5741     7599     8753 
    4324    -4428   -12877   -18071   -20093   -21560   -25251   -29374 
  -28001   -19477   -10048    -7106   -11365   -15542   -11990    -1572 
    7612     8448      448   -10303   -16001   -14419   -11434   -12243 
  -13791   -11688    -7298    -4706    -7256   -14878   -22711   -26550 
  -26604   -24467   -21466   -18682   -16717   -16564   -18013   -18068 
  -14739    -9801    -6162    -4999    -5282    -6002    -8141   -11257 
  -12155   -11013   -11686   -15329   -20048   -23141   -21990   -18809 
  -20268   -26661   -30372   -27704   -21944   -16447   -12140    -8926 
   -6439    -3979    -1449    -1063    -4213    -7739    -7495    -2921 
    2550     4017      479    -3168    -2396     1929     5413     3059 
   -6515   -17946   -24800   -26596   -26519   -25226   -21119   -15017 
  -10122    -8271    -8276    -8010    -7708    -8780   -11130   -14212 
  -17208   -17766   -13976    -7457    -1822     1057      486    -3049 
   -6282    -7770   -10625   -16807   -23688   -27297   -27152   -26582 
  -27155   -26411   -22403   -16850   -12892   -11241   -10953   -12637 
  -16259   -18472   -16540   -11943    -8166    -7049    -7982   -10342 
  -14557   -19155   -20509   -17539   -12546    -7296    -2276     2039 
    5336     7094     6466     2420    -5498   -14295   -19084   -19110 
  -17514   -16255   -14470   -11554    -9984   -11731   -14501   -15090 
  -12568    -8272    -5341    -5738    -7731    -8996   -10542   -14357 
  -18534   -18779   -14377    -9211    -7284    -9625   -14523   -18289 
  -17585   -13555   -10238    -8702    -7195    -4422    -1036     -164 
   -3628    -9070   -14099   -18107   -19939   -19456   -18534   -17583 
  -14818   -10083    -6177    -5486    -7871   -11913   -15079   -14754 
  -12233   -11468   -13410   -16858   -20467   -20854   -16422   -11052 
   -8403    -7859    -6770    -4025    -1864    -2330    -3578    -2614 
      14      314    -3986   -10854   -17428   -22250   -24721   -25290 
  -24736   -23121   -20322   -16902   -14203   -12654   -10721    -7258 
   -3839    -3395    -5907    -7813    -7485    -7069    -8760   -12708 
  -16738   -18261   -17293   -15569   -14534   -15168   -18122   -23310 
  -28109   -28306   -22824   -14590    -6925    -1316     1846     2097 
      97    -1948    -3123    -3750    -3307    -2400    -3306    -6955 
  -11967   -16147   -18991   -21105   -21567   -20402   -20289   -22837 
  -26800   -29273   -27704   -22216   -15569    -9801    -4043     2315 
    6701     6459     2370    -2808    -7416   -11026   -13535   -15512 
  -17008   -17158   -17130   -18366   -18812   -16586   -13167   -10474 
   -8808    -7759    -7379    -7813    -8694    -9587    -9715    -8270 
   -5818    -3751    -2874    -3064    -3501    -4255    -6770   -10863 
  -13863   -14785   -16079   -19670   -24102   -26731   -26759   -24960 
  -21483   -16137   -10434    -6466    -3863     -851     2138     3470 
    3314     2089     -614    -4116    -7657   -11637   -15735   -18505 
  -19476   -19785   -20124   -19997   -19502   -19321   -19542   -20102 
