Origin Time       2024/04/02 04:24:00
Lat.              40.133
Long.             141.712
Depth. (km)       71
Mag.              6.0
Station Code      AOM007
Station Lat.      41.1689
Station Long.     141.3845
Station Height(m) 17
Record Time       2024/04/02 04:24:57
Sampling Freq(Hz) 100Hz
Duration Time(s)  109
Dir.              E-W
Scale Factor      7845(gal)/8223790
Max. Acc. (gal)   84.507
Last Correction   2024/04/02 04:24:57
Memo.             
[...]
     299     1242       71     -183      859     1651     2193     2003 
     390     -926     -715     -261     -828    -1769    -1058      974 
    1672      862      -10     -326     -152     -427     -634      953 
    3127     3582     2509      702    -1934    -4756    -5670    -3391 
     297     2334     1780      189     -375     1109     3473     4070 
    2837     1656      206    -1580    -2362    -2262    -2000    -1903 
   -1378      795     3196     2752     -688    -3109     -954     3366 
    5439     4024     -259    -4496    -5012    -2606    -1391    -2303 
   -1885     1375     4554     5208     3740     2355     2331     1290 
   -2265    -5017    -4082     -689     1890     1204    -1244    -1232 
    1692     3816     2689     -926    -3790    -2918      949     3940 
    3518     1063     -718     -228     1744      764    -5105    -9822 
   -7659     -784     5482     7609     5258     2365     2053     2656 
    2577     1200    -2548    -6502    -6637    -2871      750      788 
   -1490    -1782     1170     4210     5096     5464     6210     4240 
   -1250    -5362    -5499    -4409    -3838    -3117    -1170     1755 
    3229     3469     4538     4244     1071    -1710    -1597     -387 
   -1953    -4935    -3762      611     3773     5163     4471     1783 
    -724    -1992    -2150    -2010    -2388    -1568     1297     3443 
    3439     2131      604      692     1491     -518    -4187    -5000 
   -2451      174      440    -1175    -2297     -804     2655     4594 
    3537     1695     1098     2261     3163       18    -5433    -6790 
   -3188      984     2413       49    -3310    -2444     2764     6613 
    6215     3574     -136    -3581    -3858    -2247    -2049    -2226 
   -1571    -1221      -22     3566     6712     5957     2332     -884 
   -2766    -4627    -6223    -5489    -1792     3519     7715     8017 
    5085     2139     -170    -3338    -6169    -6832    -6493    -4503 
    1167     7007     8968     8968     7881     2474    -5312    -8742 
   -7431    -5643    -3451      396     3403     3141     1264     1750 
    5220     6336     1999    -3041    -4124    -2200     -112      811 
     461    -1378    -3306    -2941    -1632    -1098      113     2114 
    4222     6551     7480     5829     2099    -3572    -8715    -9165 
   -5663    -2578    -1085     1734     6943    10120     7539     1653 
   -1950    -1247     -870    -4459    -7566    -5298     -139     3492 
    4897     4398     1827    -1329    -2791    -2351    -1283      -25 
    1197     1890     1996     1215       82      171      -95    -3240 
   -5498    -2137     3549     5925     4698     2474      202    -2898 
   -5505    -4862    -1726      409      244     1404     6174     8710 
    4672    -1363    -4747    -5498    -4669    -3360    -3028    -3119 
    -990     3824     8568     9643     5614      436    -1177     -896 
   -1788    -2808    -3508    -4784    -4780    -1925     1561     3253 
    3751     4449     4799     3964     2366      129    -2488    -4090 
   -4360    -4264    -3512    -1146     1503     1595      116      629 
    2362     2897     2235      637     -380      410      692     -982 
   -2810    -3388    -2789    -1138     1528     4010     4722     4202 
    2758     -699    -3892    -4066    -3262    -3381    -2571      903 
    5023     6372     4860     2223     -434    -1642    -1262    -1135 
   -2141    -3699    -4268    -2020     2270     5385     5475     3277 
     737     -992    -2301    -3446    -4469    -5071    -2940     2579 
    6612     5520     2679     1906     3118     4491     2720    -2980 
   -7928    -8148    -4572     -704     1093     2041     4139     5813 
    5065     2868      180    -2593    -4666    -5341    -3807    -1305 
    -425     -958     -622     1953     5688     7426     5765     2790 
     334    -1579    -3075    -4590    -5995    -5182    -1444     2212 
    3516     3554     3294     2380     1217       56    -1908    -3923 
   -4109    -2326      467     2596     2596     1738     2106     3667 
    4710     3433      -66    -3726    -5651    -5471    -3931    -1695 
     521     1588     2053     3240     3456     1560      122     -228 
   -1412    -2964    -3611    -3253     -909     3537     7099     7707 
    6153     2944    -1541    -5503    -7411    -7264    -5753    -2708 
    1678     4581     4688     4639     5150     4245     2002     -661 
   -3534    -5340    -5337    -4232    -1972     1047     3280     4113 
    3580     2231     1655     1815      648    -1090     -924     -406 
   -1256    -1516     -850    -1092    -1746    -1039      487      997 
     554      607     1586     2006      700     -564      -95      882 
    1161      934      261     -859    -1799    -1846    -1541    -1952 
   -1725      999     4164     4645     2270     -918    -2511    -2168 
   -1494    -1374    -1580    -1399     -568      796     3034     4714 
    3402      440    -1152    -1291    -1502    -2668    -3746    -2087 
    2609     6723     6901     3705     -189    -2875    -3917    -4217 
   -3854    -1470     2377     4411     2817      422      552     1393 
     459     -583    -1228    -2485    -2365     -627     -202     -855 
    -109     2709     6200     7422     4629     -106    -3414    -4197 
   -3141    -1732    -1811    -3287    -3785    -1151     3601     6421 
    5003     1048    -1726    -1487    -1274    -3384    -4311    -1814 
    1337     3510     5011     4855     2764       25    -2721    -5124 
   -5606    -2817      928     2355     2747     3697     3269     1105 
   -1385    -3460    -3380    -1161      599     1482     2023     2035 
    2542     2764      364    -2681    -3025    -1929    -1792    -1960 
    -815     1290     2772     3388     3896     3480      704    -2505 
   -3086    -2262    -2255    -2386    -1694       -2     1992     3052 
    3148     2631     1854     1580      985     -706    -1728    -1341 
    -826     -718    -1189    -1714    -1061      625     2409     3605 
    3561     2292      870      124    -1059    -3974    -6696    -6016 
   -2214     1755     4334     5576     5385     3979     2277      546 
   -1544    -3751    -5497    -5849    -3859     -359     2500     4036 
    5209     5865     4811     2079    -1946    -6177    -7388    -4572 
   -1003      760     1340     2716     5327     6625     4355     -114 
   -3609    -4996    -4968    -3298     -633      827     1273     1756 
    1926     2308     2403      448    -1737    -1275      283      429 
    -116     -272     -351     -225      168     -198    -1482    -1761 
      44     2182     2772     2182     1771     1868     1593      585 
    -472    -1838    -3619    -3514     -622     1753     1109     -276 
     433     1856     1521      -45    -1260    -1819    -1826    -1135 
      74     1082     1420     1594     1822     1559      966      313 
    -490     -919     -329     1290     3075     3267      916    -2097 
   -3615    -4005    -3642    -2085      409     3056     4221     3491 
    2710     1294    -1926    -3397    -1514     -361     -954     -576 
     388      423      492      896      176     -864      341     2848 
    3577     2416      427    -2220    -4081    -4240    -3897    -3265 
   -1597     1125     4172     5759     5080     3543     1977      596 
     -85    -1206    -3662    -5710    -5628    -3578     -950     1818 
    4945     6346     4869     2945     1653     -222    -2670    -4210 
   -3673    -1674       36      658      627      641     1136     1802 
    1794     1190      706       71     -785     -679      403      873 
     535      244       66      288      823       86    -2196    -3890 
   -3962    -2951     -633     2319     3703     3354     2917     2411 
     835    -1371    -3028    -3237    -1744      365     2069     3059 
    2619     1035      533     1821     2367      823     -953    -1767 
   -1957    -1412     -457       17      265      680      449     -804 
   -1664     -722     1075     2130     2435     1803     -218    -1991 
   -1796     -932     -859     -699        9     1150     2814     3373 
    1898      -27    -1387    -2079    -2007    -1140      488     1949 
    2452     1660     -722    -2781    -2508     -855      928     1813 
     889     -395    -1113    -1984    -1312     1890     4449     4592 
    3738     2651      696    -2268    -4409    -4315    -3127    -1433 
    1088     2876     2590     1201     -467    -2093    -2243     -495 
    1331     1746      857     -207     -248      712      704    -2068 
   -5026    -3762     1019     4918     5895     4874     2743      159 
   -1401    -1792    -2589    -3981    -4432    -2567     1502     5526 
    7067     5902     3021      -70    -2182    -4216    -6151    -5447 
   -1860     1868     4033     4494     3905     3249     1911    -1161 
   -4122    -4225    -2327    -1305    -1161     -224     1242     2405 
    2933     2122      630      380     1067      799     -541    -1772 
   -1853     -430     1236     1440       83    -1440    -1475      423 
    2798     3322      702    -3200    -4579    -2824    -1399    -2196 
   -2636     -440     2714     4623     5061     4226     2639     1296 
     194    -1402    -3256    -4500    -4537    -2739      114     1765 
    2164     2812     3326     2853     1063    -1609    -2486     -714 
    1090     2477     4207     4533     2471     -615    -3620    -5710 
   -5860    -4290    -2138     -112     1398     2246     2484     2265 
    2022     1607      565     -295     -375     -191      396     1343 
    1530     1113     1421     1744      162    -2637    -4163    -3485 
   -1458     1009     3372     4592     3735     1367    -1220    -3277 
   -4477    -5344    -6156    -4615       60     3626     3732     3051 
    3163     3071     2137     1085     1136     1854     1263    -1101 
   -3496    -3971    -2145      -64      611     1269     2687     3427 
    3191     2097     -542    -3322    -4001    -3329    -2708    -1860 
    -792      561     2763     4554     4445     3622     2728      383 
   -2301    -2890    -2058    -1289     -703     -270      249      722 
     415      176     1679     3785     3971     2313      449     -881 
   -1732    -2440    -3279    -3554    -1864     1316     3574     4149 
    3751     2247     -121    -2187    -3569    -4414    -3778    -1227 
     901     1166     1243     1672     1861     2165     1900      661 
       4      376      675      419     -522    -1903    -2405    -1582 
    -722     -240      557     1092     1053     1995     3215     1850 
    -957    -1938    -1355     -864     -730    -1170    -1991    -1408 
    1036     2662     1732     -580    -2543    -2182     1372     5163 
    5875     4307     2677     1425     -295    -3310    -6531    -7368 
   -5004    -1472     1154     3045     5035     6727     6754     4179 
      22    -3747    -5742    -4753    -1449      753       52    -1128 
     108     2828     4054     2721     -491    -3512    -3719    -1792 
    -571     -452     -253      665     2216     2898     1441     -627 
    -870      580     1587     1378      795        2    -1019    -1903 
   -2845    -3126    -1359     1437     3322     3820     2547     -155 
   -2443    -3809    -5171    -5368    -2284     2330     5152     6998 
    8800     7527     2679    -2376    -6237    -8445    -8241    -6201 
   -2506     2396     6627     9312     9618     6234      704    -3906 
   -6527    -7607    -7562    -5792    -1524     3985     7655     8075 
    7051     5409     1860    -2520    -5034    -5259    -4513    -3557 
   -1397     2095     3573     1714      207     1028     2250     2469 
    2141     2280     2744     2390     1472      627     -734    -2401 
   -3132    -3055    -3693    -5055    -4887    -2234      909     2574 
    2917     3168     3889     4801     5109     3218     -977    -4437 
   -5078    -3690    -1490      -20     -184    -1098    -1989    -1957 
    -542      654     1223     2701     5011     6264     4703      677 
   -3242    -5589    -6423    -5085    -1537     3030     7657    10304 
    8888     4884      523    -4388    -9088   -11651   -12510   -12862 
  -12406   -10825    -8476    -5652    -2307     2253     8522    15593 
   22216    27022    27167    20799    10829     1775    -5640   -12216 
  -15834   -13409    -5263     3732     7746     5225    -1061    -7805 
  -12771   -15126   -15469   -15026   -14891   -14814   -12710    -7450 
   -1003     5360    12804    20877    27333    30844    30194    23654 
   12483     2867     -275     1132     3217     5518     8051     7977 
    1803   -11161   -27938   -43181   -51711   -51251   -42569   -27156 
   -7624    11043    25300    34319    37166    34357    27214    16335 
    4687    -5458   -13761   -15546    -6508     9624    25998    38279 
   44092    40531    25027      299   -26501   -50125   -67419   -75293 
  -72762   -59593   -35969    -6107    24624    49885    60895    56014 
   41851    24081     7491    -2809    -5923    -6820    -7940    -5109 
     575     3029     2308     2577     6602    10654     8213     -446 
  -13293   -27793   -36294   -35118   -27776   -16171     -172    16657 
   27047    27490    22268    15049     5609    -2146    -2193     7144 
   23398    39783    48643    45499    29265     3550   -24079   -46992 
  -61944   -62977   -43127    -9340    20903    37686    40635    31396 
   12222   -12384   -37343   -59024   -71655   -67076   -42353    -2571 
   41330    75070    88722    85495    74420    52185    15732   -20636 
  -49211   -68546   -66474   -43652   -14068    14220    33991    40203 
   33408    17771     -410   -15087   -19980   -16124   -11543   -10501 
  -13990   -19699   -24903   -28929   -26690   -16723    -5468     5861 
   19822    32923    38354    32672    19292     5902    -2594    -4637 
     -91     9158    19637    24575    17984     2118   -16567   -32884 
  -42654   -42850   -31905   -13097     3480    10628    10768     7592 
    2961     1915     7119    14251    19087    20696    18747    12127 
    1294    -7773    -9755    -7065    -2897     2654     7096     7353 
    4783     1186    -5559   -16160   -25987   -29816   -25335   -14324 
   -2363     6237    10075     7866      611    -5861    -6158      211 
    9907    17028    17983    15368    13815    15813    19171    16920 
    5390    -9340   -17764   -17428   -14457   -13733   -11487    -3308 
    7615    14067    12097     5004    -2652    -8613    -8349    -1814 
    2543      758    -3060    -5463    -4536      372     5856     9405 
   12198    14308    14777    14038    11403     4864    -3423    -9949 
  -16767   -23985   -25666   -20798   -13339    -3711     7662    15592 
   16910    15750    14319     7935    -3532   -14068   -21265   -24857 
  -22692   -13829     -479    13390    24761    33046    37608    35688 
   25737    10601    -6157   -23076   -36382   -41161   -37636   -27783 
  -13188     1425    13244    23091    27773    23453    13317     1587 
  -10790   -20170   -21293   -15638    -9335    -3581     4206    12444 
   16981    17265    15353    12614     9632     7415     6933     6035 
    2539     -461    -1107    -2273    -4333    -5809    -7885   -10413 
  -10697    -9108    -8195    -7277    -4459     -405     3522     6535 
    7555     6250     4128     2492      936      757     3689     5827 
    3566      -44    -3265    -6912    -7720    -3893      434     3181 
    6249     8459     6578     2231    -1080    -4244    -8473   -11858 
  -13182   -12066    -8463    -4446        2     6300     9267     5070 
    1150     2852     4673     2200    -2401    -5956    -7138    -6689 
   -5757    -4063     -457     5216     9891    10505     9298     9418 
    9439     7365     4013      707    -1624    -3048    -5130    -7064 
   -5790    -1895     1370     3176     3735     2431       74    -1219 
   -1570    -2965    -4006    -1556     2740     6022     8189     7685 
    3100    -2937    -7269    -8067    -4461     1320     5902     8407 
    8572     5621      558    -4657    -8779    -9863    -6839    -2673 
    -330     1254     3288     4045     2174     -508    -2425    -4234 
   -5738    -6181    -5761    -4139    -1070     2270     4488     5188 
    5142     6192     9439    12503    11912     7489      608    -7287 
  -13181   -15561   -16424   -15982   -11080    -1597     7916    13180 
   12672     7913     1726    -4658    -9262    -8448    -2660     3496 
    7655     9956     9494     6131     2511      -78    -2681    -3580 
    -517     3736     5591     5051     3176      756    -1279    -3152 
   -5833    -8191    -7862    -5641    -4252    -3244     -441     3750 
    6858     6714     3088    -1917    -5371    -5314    -1818     3435 
    7888     8723     5422      486    -3838    -7344    -9724    -8683 
   -2378     7333    15219    16330    10952     3183    -5169   -12997 
  -17091   -16071   -10959    -3015     4968    10624    14839    17544 
   15526     8395      175    -6388   -11082   -13247   -11867    -7375 
   -1474     4538     9458    10806     7443     2353    -1113    -3476 
   -6651    -9409    -8156    -2536     3970     9594    13915    13693 
    6520    -3198    -8719    -9483    -8856    -7257    -3630      232 
    2259     3338     3900     2874     1313     1418     3136     4477 
    4388     4405     5953     6349     1506    -7244   -14327   -16602 
  -14682    -9784    -2141     6991    14087    15923    12178     5231 
   -2431    -9020   -12226   -11132    -7271    -1433     5694    10997 
   12496    10939     6806     1863     -715     -803       -4     1428 
    2909     3812     4248     3341      240    -4194    -8021    -9477 
   -8160    -4710       12     4576     7190     6885     4104      600 
   -2288    -5957   -11647   -16596   -16891   -11153     -988     9678 
   16285    16294    11383     5499      781    -2058    -2038     -152 
    1004     1474     1841      303    -3532    -8121   -12217   -13274 
   -8718     -201     7746    12145    12830    10760     5562    -2949 
  -11321   -15319   -14246    -9667    -2805     5753    14426    19207 
   16374     7434    -1927    -7753    -9208    -7129    -3958    -1239 
    2276     6350     7425     4584     1055    -1582    -3558    -3923 
   -3348    -3492    -2577      371     2658     3994     5832     6421 
    4036      513    -1791    -3480    -5773    -7611    -8091    -7013 
   -3052     3150     7655     8575     7944     7192     5165      714 
   -5009    -9336   -10516    -8862    -6058    -3028      801     4965 
    7442     7250     4793     1301    -1547    -3828    -6463    -7681 
   -5641    -2169      706     2783     3033     1146     -244      864 
    2733     2457      295    -1266    -1489     -896       -1      -12 
   -1328    -2326    -1584      432     3082     6224     7935     6023 
    1552    -3462    -7881    -8978    -5395     -607     2911     6301 
    9679    11843    11858     8862     3466    -1571    -4434    -6064 
   -6852    -5664    -3219    -1661    -1182     -496     1000     3705 
    6574     6126     1540    -3904    -7627    -8711    -6751    -2331 
    2995     6995     8001     6894     5539     3450     -280    -3500 
   -3229     -365     1144      345     -714    -1993    -3898    -4985 
   -4731    -3414     -376     3763     6022     4495      997    -1467 
