Origin Time       2024/04/02 04:24:00
Lat.              40.133
Long.             141.712
Depth. (km)       71
Mag.              6.0
Station Code      AOM025
Station Lat.      41.1797
Station Long.     140.4805
Station Height(m) 8
Record Time       2024/04/02 04:25:02
Sampling Freq(Hz) 100Hz
Duration Time(s)  111
Dir.              U-D
Scale Factor      7845(gal)/8223790
Max. Acc. (gal)   4.679
Last Correction   2024/04/02 04:25:02
Memo.             
[...]
    7726     7593     7539     7636     8082     8623     8766     8627 
    8467     8147     7686     7396     7462     7771     8141     8503 
    8737     8672     8316     7905     7722     7769     7827     7879 
    8073     8345     8487     8546     8768     9054     9031     8648 
    8222     8002     7973     8086     8284     8355     8186     7975 
    7904     7929     7994     8135     8286     8306     8216     8197 
    8426     8797     8887     8637     8446     8429     8473     8618 
    8808     8868     8694     8359     8105     8051     7989     7805 
    7678     7587     7334     7042     7055     7547     8388     9188 
    9578     9455     8891     8081     7387     7047     7014     7203 
    7499     7717     7762     7659     7550     7553     7696     7951 
    8152     8147     8032     7996     8085     8241     8442     8687 
    8905     8945     8752     8540     8425     8256     8102     8140 
    8274     8391     8456     8418     8314     8257     8295     8313 
    8101     7685     7423     7578     7931     8108     8125     8156 
    8168     8054     7893     7904     8039     8027     7807     7430 
    6922     6413     6118     6215     6698     7373     8029     8457 
    8544     8290     7831     7553     7699     8058     8421     8743 
    8883     8788     8576     8290     8079     8229     8621     8830 
    8750     8519     8236     8059     8089     8164     8047     7701 
    7345     7307     7627     7954     8091     8225     8395     8406 
    8256     8066     7885     7838     7948     8023     7998     7955 
    7962     8110     8394     8579     8417     8010     7690     7561 
    7577     7770     8098     8413     8591     8565     8417     8334 
    8415     8637     8816     8695     8272     7800     7425     7207 
    7275     7576     7870     8004     7936     7731     7605     7686 
    7886     8152     8473     8677     8586     8222     7734     7385 
    7464     7881     8283     8590     8861     8903     8637     8386 
    8391     8517     8575     8530     8397     8229     8090     7950 
    7798     7682     7744     8093     8480     8611     8537     8359 
    8124     7975     8010     8133     8137     7947     7699     7547 
    7487     7461     7627     8064     8455     8494     8267     8031 
    7928     7942     8014     8125     8237     8311     8379     8490 
    8637     8775     8857     8853     8708     8486     8410     8479 
    8418     8182     7909     7638     7484     7619     7986     8403 
    8793     9105     9236     9120     8822     8455     8029     7587 
    7267     7109     7034     7028     7125     7306     7480     7578 
    7630     7688     7732     7759     7807     7780     7619     7553 
    7850     8429     8903     9022     8892     8676     8441     8376 
    8629     9020     9293     9277     8920     8428     8037     7786 
    7655     7674     7825     7967     7986     7925     7844     7815 
    7938     8133     8228     8181     8055     8002     8105     8202 
    8109     7927     7913     8070     8178     8232     8306     8349 
    8407     8482     8406     8245     8155     8082     8052     8141 
    8252     8305     8298     8194     8006     7824     7678     7501 
    7317     7253     7330     7442     7527     7562     7557     7506 
    7376     7240     7187     7227     7334     7398     7460     7704 
    8036     8221     8280     8370     8537     8715     8919     9157 
    9256     9185     9067     8833     8411     7967     7727     7754 
    7885     7974     8001     7956     7920     8031     8322     8635 
    8681     8357     7844     7298     6829     6679     6922     7319 
    7747     8260     8784     9138     9132     8806     8550     8575 
    8660     8696     8727     8672     8527     8391     8218     7978 
    7766     7627     7560     7574     7599     7576     7581     7622 
    7589     7566     7750     8105     8428     8577     8581     8550 
    8517     8476     8455     8432     8406     8430     8409     8186 
    7909     7877     8093     8293     8299     8154     7938     7742 
    7677     7711     7732     7798     7952     8056     8108     8309 
    8691     8993     9005     8769     8438     8131     7885     7723 
    7697     7852     8100     8233     8232     8309     8517     8681 
    8611     8193     7589     7159     7024     7096     7396     7844 
    8154     8311     8563     8824     8877     8777     8603     8334 
    8097     8068     8208     8343     8409     8413     8374     8356 
    8349     8295     8283     8363     8460     8586     8757     8830 
    8660     8267     7763     7303     7099     7225     7499     7751 
    7908     7909     7778     7646     7657     7857     8141     8382 
    8495     8455     8340     8245     8140     7967     7808     7803 
    7923     8006     8010     7997     7979     7927     7861     7825 
    7770     7643     7480     7291     7119     7065     7136     7246 
    7411     7686     7906     7901     7861     7954     8075     8168 
    8283     8376     8434     8592     8842     8910     8761     8680 
    8684     8588     8478     8506     8683     8829     8649     8168 
    7735     7515     7449     7433     7411     7447     7541     7603 
    7628     7614     7595     7703     7913     8031     7986     7877 
    7834     7879     7947     8043     8233     8432     8422     8171 
    7909     7811     7805     7867     8102     8436     8646     8654 
    8506     8310     8241     8322     8472     8667     8802     8753 
    8621     8614     8769     8954     9112     9279     9401     9327 
    9061     8793     8623     8536     8548     8662     8784     8745 
    8437     7967     7603     7558     7801     8163     8449     8428 
    8056     7569     7179     6934     6851     6957     7163     7261 
    7268     7348     7452     7496     7553     7676     7801     7838 
    7790     7723     7713     7788     7850     7981     8380     8843 
    9062     9096     9040     8861     8599     8279     7900     7581 
    7420     7321     7180     7064     7009     7018     7199     7549 
    7890     8151     8343     8430     8440     8436     8467     8533 
    8590     8621     8618     8575     8594     8807     9134     9293 
    9138     8738     8190     7663     7354     7291     7435     7650 
    7669     7491     7369     7381     7464     7582     7641     7626 
    7717     7993     8337     8556     8613     8762     9108     9374 
    9344     9043     8525     7904     7493     7503     7801     8185 
    8503     8627     8525     8224     7820     7465     7311     7462 
    7809     8083     8156     8056     7859     7705     7700     7762 
    7777     7781     7747     7549     7281     7133     7136     7319 
    7696     8122     8419     8509     8424     8306     8280     8322 
    8380     8434     8429     8325     8172     8058     8039     8095 
    8149     8178     8186     8124     7979     7896     8051     8405 
    8716     8792     8579     8195     7932     7966     8182     8402 
    8592     8829     9034     8976     8703     8510     8507     8592 
    8633     8673     8826     8959     8866     8610     8411     8337 
    8318     8329     8338     8272     8085     7824     7666     7753 
    7974     8141     8222     8210     8095     8019     8073     8083 
    7942     7781     7668     7526     7380     7331     7414     7568 
    7735     7850     7800     7674     7750     8016     8262     8398 
    8367     8121     7773     7519     7499     7728     8100     8475 
    8752     8811     8668     8433     8118     7796     7631     7615 
    7626     7611     7627     7742     7952     8247     8581     8843 
    8924     8764     8453     8174     8001     7967     8094     8280 
    8359     8276     8089     7884     7766     7771     7824     7863 
    7871     7803     7659     7585     7650     7813     8051     8210 
    8135     7931     7705     7510     7538     7848     8247     8530 
    8594     8479     8345     8309     8361     8387     8297     8060 
    7807     7761     7857     7958     8210     8502     8444     8033 
    7576     7209     6987     7111     7589     8031     8129     7952 
    7708     7570     7655     8001     8475     8862     9058     9018 
    8737     8322     7919     7655     7597     7709     7946     8197 
    8307     8357     8529     8715     8698     8482     8189     7900 
    7666     7507     7445     7547     7763     7889     7921     8043 
    8232     8289     8166     8028     8047     8172     8244     8270 
    8343     8506     8795     9067     9069     8893     8815     8749 
    8505     8230     8214     8472     8772     8899     8792     8591 
    8496     8541     8619     8668     8631     8390     7956     7541 
    7288     7281     7604     8151     8633     8758     8471     7987 
    7491     7061     6831     6875     7119     7465     7780     7915 
    7923     7963     7977     7886     7843     7898     7920     7936 
    8106     8453     8784     8930     8928     8738     8291     7854 
    7731     7885     8108     8245     8226     7979     7557     7254 
    7234     7348     7465     7591     7677     7680     7645     7623 
    7735     8114     8653     9069     9184     9081     8961     8834 
    8594     8359     8329     8453     8603     8715     8685     8606 
    8603     8488     8241     8151     8190     8144     8056     8008 
    7970     8004     8185     8523     8932     9151     9015     8650 
    8239     7873     7623     7547     7635     7732     7700     7573 
    7461     7499     7785     8168     8432     8564     8614     8573 
    8406     8112     7848     7800     7896     7944     7917     7867 
    7805     7790     7811     7754     7709     7871     8136     8267 
    8255     8260     8379     8571     8688     8572     8325     8225 
    8235     8109     7886     7750     7699     7695     7751     7866 
    8051     8251     8348     8360     8326     8171     7952     7858 
    7858     7861     7959     8122     8174     8172     8232     8240 
    8091     7827     7493     7207     7134     7334     7744     8201 
    8468     8429     8214     7987     7838     7820     7776     7537 
    7318     7364     7618     7974     8363     8681     8880     8955 
    8868     8571     8109     7614     7223     6994     6932     7068 
    7406     7912     8545     9223     9749     9814     9355     8694 
    8172     7943     7902     7865     7933     8268     8669     8851 
    8814     8694     8642     8761     8986     9197     9289     9107 
    8711     8406     8213     8000     7969     8222     8519     8830 
    9196     9378     9297     9154     8934     8502     8052     7839 
    7835     8016     8314     8442     8333     8247     8326     8441 
    8378     8139     7919     7715     7410     7125     7017     6987 
    6967     7106     7477     7962     8328     8364     8179     7983 
    7723     7431     7302     7307     7420     7622     7659     7483 
    7337     7337     7522     7867     8176     8348     8456     8561 
    8556     8295     7886     7479     7033     6658     6574     6762 
    7110     7554     7909     8020     7967     7874     7719     7508 
    7373     7338     7344     7368     7325     7200     7180     7388 
    7749     8104     8325     8378     8314     8237     8216     8148 
    7932     7663     7456     7298     7200     7249     7408     7572 
    7751     7898     7811     7534     7362     7415     7642     7951 
    8210     8379     8546     8685     8642     8483     8372     8252 
    8144     8213     8357     8409     8438     8532     8638     8706 
    8727     8689     8530     8276     8125     8193     8347     8424 
    8498     8662     8746     8642     8549     8573     8587     8557 
    8559     8594     8619     8596     8567     8627     8634     8398 
    8068     7838     7623     7322     7038     6940     7011     7130 
    7268     7479     7767     8055     8264     8388     8448     8451 
    8428     8397     8284     8032     7677     7380     7229     7060 
    6843     6752     6752     6697     6629     6651     6809     7109 
    7443     7689     7835     8000     8249     8491     8699     8953 
    9208     9437     9724    10062    10458    10874    11079    10963 
   10612     9971     8984     7912     7149     6909     7109     7499 
    7882     8151     8245     8228     8233     8345     8565     8838 
    9211     9761    10268    10420    10269     9987     9556     8984 
    8448     8019     7566     7186     7132     7357     7638     7857 
    7973     8024     8012     7819     7473     7137     6841     6592 
    6458     6512     6756     7075     7395     7728     8002     8147 
    8264     8394     8395     8203     7946     7834     7970     8260 
    8592     8934     9281     9620     9840     9853     9748     9551 
    9181     8684     8166     7628     7082     6632     6358     6173 
    5969     5915     6250     6782     7252     7784     8441     9126 
    9780    10268    10557    10740    10752    10597    10422    10145 
    9582     8815     7917     6886     5979     5394     5024     4834 
    4912     5174     5393     5449     5329     5150     5275     5892 
    6816     7959     9190    10164    10806    11223    11452    11510 
   11200    10350     9099     7678     6242     4912     3867     3308 
    3194     3242     3388     3839     4637     5571     6489     7356 
    8163     8864     9331     9585     9810    10131    10629    11249 
   11755    11965    11874    11616    11207    10573     9823     9101 
    8515     8214     8141     8183     8425     8789     9035     9111 
    9027     8834     8730     8743     8722     8718     8827     8932 
    8854     8440     7651     6801     6335     6299     6465     6771 
    7141     7356     7345     7226     7040     6806     6743     6928 
    7074     7057     6976     6894     6914     6930     6736     6511 
    6459     6478     6473     6480     6517     6544     6609     6723 
    6721     6650     6750     7144     7944     9132    10438    11556 
   12248    12461    12280    11766    11136    10763    10778    10989 
   11128    11047    10768    10320     9634     8775     7928     7128 
    6392     5787     5300     4981     4970     5356     6043     6791 
    7599     8569     9521    10215    10566    10574    10354     9988 
    9408     8622     7793     7048     6484     6195     6222     6504 
    6864     7090     7122     6975     6624     6218     5998     5989 
    6169     6636     7358     8095     8738     9424    10200    10844 
   11074    10871    10458     9945     9306     8648     8160     7882 
    7819     7990     8255     8500     8800     9175     9470     9467 
    9167     8806     8392     7803     7268     7141     7452     7979 
    8469     8792     8961     8920     8584     8087     7695     7524 
    7526     7693     8073     8459     8622     8687     8849     9151 
    9487     9618     9545     9466     9352     9005     8384     7754 
    7311     6936     6556     6322     6335     6490     6575     6583 
    6698     6870     6725     6003     4927     4008     3510     3460 
    3913     4820     5938     6982     7685     7967     8077     8390 
    9082     9915    10496    10729    10669    10428    10368    10705 
   11210    11595    11669    11288    10577     9882     9375     8970 
    8579     8248     8014     7794     7491     7160     6997     7117 
    7466     7955     8482     8922     9288     9656     9971    10145 
   10111     9778     9254     8749     8237     7709     7445     7557 
    7771     7909     8067     8226     8226     8128     8095     8070 
    7936     7719     7387     6929     6512     6282     6254     6439 
    6813     7285     7722     7935     7753     7223     6605     6133 
    5971     6168     6548     6856     7021     7200     7588     8259 
    9175    10154    10929    11319    11253    10804    10193     9576 
    8976     8461     8147     8016     7975     7996     8067     8176 
    8198     7973     7630     7434     7487     7835     8433     9070 
    9533     9678     9394     8719     7894     7167     6644     6413 
    6494     6775     7080     7214     7044     6662     6293     6030 
    5834     5678     5582     5594     5667     5694     5740     5991 
    6488     7204     8135     9066     9752    10219    10513    10561 
   10411    10133     9724     9174     8514     7971     7798     7983 
    8336     8677     8903     8954     8868     8820     8947     9239 
    9576     9802     9826     9674     9375     8937     8488     8201 
    8006     7749     7445     7155     6906     6855     7053     7373 
    7857     8569     9332     9992    10531    10866    10901    10712 
   10508    10400    10343    10260    10084     9840     9589     9175 
    8397     7429     6675     6312     6270     6403     6543     6532 
    6289     5923     5638     5455     5238     4928     4625     4537 
    4726     4919     4896     4773     4737     4758     4696     4592 
    4619     4806     5127     5589     6138     6714     7221     7520 
    7670     7832     7987     8002     7935     8009     8310     8660 
    8850     8776     8367     7819     7545     7616     7788     7917 
    7908     7784     7803     8079     8514     9140    10037    10940 
   11435    11433    11184    10951    10779    10651    10581    10492 
   10247     9846     9429     9121     8922     8761     8490     8027 
    7518     7111     6813     6639     6598     6682     6867     7132 
    7491     7850     8097     8320     8577     8796     8985     9188 
    9294     9151     8741     8172     7593     7191     7149     7442 
    7805     8023     8037     7927     7867     7913     7992     8063 
    8040     7815     7493     7411     7823     8625     9478    10133 
   10478    10525    10463    10535    10793    11074    11335    11689 
   12013    12094    11963    11701    11362    11086    10971    10943 
   10872    10735    10582    10489    10511    10594    10544    10161 
    9464     8638     7830     7126     6582     6315     6376     6624 
    6972     7357     7588     7676     7838     8070     8210     8239 
    8154     7858     7389     6964     6670     6443     6249     5984 
    5576     5157     4811     4521     4361     4365     4415     4387 
    4261     4114     4063     4301     4970     5876     6654     7202 
    7632     8025     8376     8650     8900     9080     8991     8677 
    8363     8148     8070     8023     7857     7597     7283     6997 
    6984     7285     7692     8141     8606     8981     9269     9460 
    9486     9425     9398     9414     9509     9701     9852     9842 
    9709     9549     9485     9576     9682     9535     9031     8305 
    7566     6936     6426     6111     6070     6195     6304     6305 
    6168     5881     5548     5381     5479     5773     6081     6172 
    6011     5857     5911     6204     6736     7372     7896     8233 
    8434     8540     8596     8603     8479     8259     8098     7998 
    7908     7901     8012     8191     8413     8689     8986     9099 
    8907     8580     8214     7767     7337     7065     7064     7441 
