Origin Time       2024/04/02 04:24:00
Lat.              40.133
Long.             141.712
Depth. (km)       71
Mag.              6.0
Station Code      AOM028
Station Lat.      40.7004
Station Long.     140.9190
Station Height(m) 568
Record Time       2024/04/02 04:24:54
Sampling Freq(Hz) 100Hz
Duration Time(s)  114
Dir.              N-S
Scale Factor      7845(gal)/8223790
Max. Acc. (gal)   25.675
Last Correction   2024/04/02 04:24:54
Memo.             
[...]
   13566    13783    13643    13311    12953    12510    12105    12247 
   13096    13976    14173    13664    12865    12399    12753    13572 
   14045    13954    13645    13373    13189    13278    13942    14778 
   14771    13964    13294    12799    12178    11940    12226    12483 
   12664    12922    12891    12413    12071    12413    13252    14231 
   15206    15666    15226    14573    14509    14891    15095    14681 
   13846    13122    12476    11728    11240    11118    10831    10180 
    9514     9136     9158     9324     9174     8837     8910     9621 
   10690    11545    11858    12218    13576    15727    17128    17042 
   16741    17115    17215    16619    15992    15133    13815    12904 
   12687    12561    12509    12731    12638    12091    12402    13842 
   14219    12451    10478     9791     9884    10233    10579    10767 
   11504    13200    14968    16222    17028    17062    16410    15757 
   15191    14723    14673    14717    14689    15195    15368    13497 
   11047    10594    11254    11408    11254    10419     8781     7925 
    8145     7983     7115     6070     5341     6219     8961    11439 
   12515    13335    14490    15624    16332    15723    13668    11595 
   10605    10845    12212    14457    17054    18603    17628    14602 
   11362     9223     8695     9872    12453    15130    15704    13139 
    9088     6642     6975     8286     9485    11422    13884    15959 
   17454    17640    16289    15017    14864    14997    14381    13004 
   11993    12615    14609    16552    17564    17464    16011    13589 
   12237    13443    15646    16675    16379    15161    13092    11043 
   10106    10345    11900    14998    17559    17147    15356    14693 
   13841    11254     8822     8664    10208    11558    11950    11919 
   11938    12525    14021    15280    15593    16541    18617    19818 
   19187    17377    15168    14096    15259    16973    16758    15205 
   14715    15260    15545    15836    15746    13721    10212     7431 
    6631     7007     7195     7614     9194    11013    11800    11491 
   10605     9822     9153     8280     7965     8124     7435     7094 
    9099    12295    14978    16545    16193    14617    13753    13512 
   12749    11993    12202    12873    13034    12690    12199    11655 
   11669    12652    13922    15095    16012    16006    15493    15669 
   16282    16291    15944    16452    17475    16819    14301    12646 
   13207    14744    15606    14844    13617    13949    14786    14088 
   13242    13826    14154    13095    12270    12862    14359    15932 
   16945    17298    17324    17127    16648    15014    11371     8129 
    8446    10728    11502    10461     8951     7497     6501     6772 
    8280     9875    11115    12438    13185    12596    12043    12556 
   12534    11257    10370    10277    10381    11507    13740    15778 
   16869    16140    13995    13358    14566    14266    11736     9981 
   10937    13304    14743    14868    14750    14648    14223    13463 
   12806    12900    13312    12965    12636    13144    12880    11237 
    9852     9454    10724    14459    18185    18750    16904    15006 
   14131    14257    14651    14785    14656    14405    14071    13375 
   12753    13073    13419    12530    11512    11462    11549    11380 
   11106    10179     9020     8538     8017     7156     7535     9598 
   11936    13792    14731    14592    14886    15913    15502    13738 
   13298    14165    13572    11415    10493    11346    12170    12086 
   10670     8110     6458     7110     8964    10258    10449    10521 
   11090    11071    10145     9726    10512    11916    13205    14108 
   15026    16218    17015    16417    14705    13359    12550    11503 
   11246    13099    15466    15816    14288    12538    11530    12087 
   14229    16305    17282    17601    17575    17271    17169    17728 
   18121    17073    15624    15255    14455    12414    11886    13926 
   15774    15921    15203    13900    12351    12027    13408    14789 
   14597    13452    12915    13362    13900    13909    14011    14507 
   14334    13687    14277    15745    16082    14727    12510    10752 
   10716    12137    13220    12953    12145    11527    10998    11169 
   12505    13617    13302    12155    11296    11691    13176    13973 
   13551    13409    13979    14472    14762    14908    14835    14767 
   14625    14293    14328    14963    15368    14709    13594    13595 
   14557    14832    14485    14365    14017    13632    13934    14137 
   13902    13792    13050    11669    11164    10944     9938     9593 
   10088     9409     7844     7287     7834     8738     9753    10860 
   11896    11956    10692     9539     9559    10280    10914    11088 
   11206    11388    10808     9745     9555    10343    11205    11736 
   12216    12757    12907    12745    12704    12175    11057    10778 
   11754    13015    13636    13080    12217    12600    14026    15363 
   16015    15442    14193    13914    14385    14146    13578    13652 
   13940    13873    13528    13333    13848    14304    13176    11317 
   11140    12592    13389    13046    13008    12974    11890    11153 
   11747    12294    12650    13722    14623    14651    14833    15507 
   15707    15079    14312    13771    13135    12645    12992    13934 
   14621    14615    14038    13579    13784    14181    14251    14339 
   14499    14439    14698    15360    15426    15078    15296    15390 
   14397    13491    13954    14557    13698    12318    11866    11607 
   10870    10957    12371    13716    14026    13281    12078    11588 
   12120    12706    12522    11654    10714    10085     9909    10480 
   11684    12580    12490    11772    10798     9371     8081     8399 
   10318    11843    11824    11434    11921    12858    13405    13564 
   13594    13261    12455    12112    12995    13937    13744    13468 
   14080    14511    14035    13563    13521    13192    12906    13860 
   15341    15909    16119    16571    16710    16937    17736    18022 
   17068    15677    14864    14895    15157    14966    14527    14196 
   13659    12904    12723    13373    14131    14713    15515    16136 
   15564    14123    13180    12939    12904    13417    14341    14581 
   14160    13829    13439    12877    12676    12826    12684    12151 
   11676    11384    11109    10678     9861     8883     8684     9711 
   10997    11502    11341    11072    11130    11986    13552    14566 
   13841    12140    11149    10909    10543    10557    11492    12334 
   12900    14370    16075    15992    14501    13689    13662    13277 
   12927    13081    12582    11227    10598    11070    11701    12387 
   13333    13973    13759    13012    12669    13119    13205    11942 
   11010    12137    13572    13594    13455    13585    12893    12145 
   12399    12681    12312    12147    12812    13799    14184    13902 
   13589    12984    11597    10300     9844     9873    10503    12059 
   13444    13109    11275     9751     9378     9429     9964    11407 
   12283    11595    10741    10403     9971     9896    10829    12114 
   12897    13325    13629    13271    12407    12382    13581    14656 
   14531    13747    13412    13671    13811    13601    13389    13127 
   13072    13922    14739    14127    13240    13463    13794    13572 
   13549    13755    13722    13108    11708    10594    11138    13016 
   14851    15336    14150    12864    13177    14565    15876    17405 
   19018    19245    18188    17676    17793    17186    16098    15195 
   13834    12258    11956    13041    14099    14062    13176    12402 
   11861    11291    11508    12708    13198    12244    11410    11677 
   12306    13015    13915    13969    12839    12093    12492    13490 
   14825    15570    14617    13119    12730    12700    11803    10940 
   11422    12623    13385    14034    14686    13842    11574    10797 
   12549    14260    14175    13062    11731    10600    10405    10945 
   11381    12417    14740    16276    15141    13069    12483    13308 
   14400    15134    15079    13825    11746    10338    10531    11632 
   13192    15296    16476    15349    13626    13354    13535    12827 
   12401    13433    14562    14311    13667    13911    14524    14808 
   14625    13776    13220    14079    14454    12406    10492    11365 
   12938    12680    11557    11520    13069    14964    15444    14318 
   12522    10998    10833    11777    12174    11792    11507    11173 
   10238     8795     7990     9447    12590    14802    15326    15479 
   15309    13884    12006    11284    11562    11890    12363    12775 
   11828     9710     8490     8768     9243     9720    10871    11997 
   12465    13375    14991    15547    14215    12218    11138    11605 
   12630    13127    13687    14289    13413    11491    10660    11164 
   11767    12113    12727    13618    13645    12218    10527     9667 
    9558    10289    12036    13737    14287    14419    15095    15684 
   15704    15665    15168    13659    12549    13159    14442    14955 
   14800    14910    15761    16725    16502    14790    13205    13057 
   13301    12644    11481    10778    11250    12857    13963    13088 
   11531    11624    12949    13591    13632    14062    14470    14123 
   13315    12864    13348    14493    14998    13744    11549    10573 
   11184    11681    11473    11406    11709    11993    12008    11994 
   12465    13059    13173    13104    12664    11745    12078    14183 
   15697    15471    14774    14307    13969    14359    15530    16033 
   15580    15774    16324    15392    14137    14747    15719    14844 
   13340    12649    11943    10972    10462    10342    10642    11456 
   12141    12434    12345    11724    11392    12013    12540    12550 
   13198    14150    13801    12700    12486    12704    12286    11916 
   12106    11727    10434     9747    10505    11564    11911    11857 
   12056    13117    14609    14427    12043    10392    11321    12681 
   12808    13127    14261    14831    14497    14100    13900    13738 
   13624    13945    15172    16729    17350    17016    16760    16897 
   16807    16085    15267    15017    15510    16760    17713    16663 
   14062    11759    10006     8406     7639     8492    10662    12492 
   12425    11200    10501    10316    10127    10328    11098    11977 
   12652    13084    13082    12490    11738    11573    12033    12151 
   11569    11645    12901    13767    13722    13682    13439    12675 
   11975    11500    11445    12384    13811    14145    12653    10903 
   11151    13023    14365    14581    14239    13603    13490    14598 
   15600    15091    14170    14226    14733    14602    13333    11367 
   10123    10536    12127    13520    13367    12330    12262    12383 
   11202    10023     9621     9062     8800     9471    10415    11333 
   12428    13842    15520    16538    16005    14527    13041    11772 
   10956    10652    10613    10935    11273    10631     9213     8274 
    8432     9575    10616    10669    10786    10941     9283     6921 
    6547     7821     9799    12773    15931    18198    19824    20745 
   20251    18752    17301    15971    14678    13996    13686    12719 
   11279    10366     9659     7892     5336     4037     4843     6127 
    6651     7377     9040    10710    12078    13977    16011    17313 
   18658    20267    20934    21030    21649    21879    20964    19668 
   18188    16752    16525    17377    17752    16872    15137    13379 
   11981    10660     9737    10087    11133    11566    11823    12631 
   13185    13311    14026    15017    15067    14242    13085    11811 
   11229    11585    11682    11045    10469    10571    11368    12478 
   13671    15128    16884    18770    20247    20206    18416    16209 
   14584    13189    11587    10006     8662     7519     7025     7663 
    8791     9832    11646    14345    16046    16220    16846    19044 
   21849    23899    24730    25112    25910    26669    26266    24607 
   22743    21560    20947    19962    17583    13810     9782     6354 
    3805     3156     4888     7600    10901    15577    20012    22046 
   22288    21232    17988    13525     9876     7585     7069     8868 
   11928    14662    16780    18612    19874    20113    19346    17628 
   14928    11573     8436     6887     7835    10269    12048    12478 
   12474    12600    12503    11654    10239     9243     9169     9135 
    8182     6747     5397     3511      922    -1217    -2357    -2971 
   -2700     -602     2608     5535     8685    12367    14517    14291 
   13440    12610    11182     9509     7870     6169     5319     5765 
    5746     3882     2222     3601     7095     9595    10777    13062 
   17572    22862    27244    30107    30693    28101    23461    18935 
   14632    10782    10646    15614    21173    22874    21460    18999 
   16004    13387    11431     7969     2305    -1767    -1406      951 
    3273     7303    12870    17286    20293    22013    20507    16664 
   14316    13473    11429     8646     6408     3770     1406     2331 
    7160    13787    20406    25131    26528    25944    24484    20638 
   15666    14152    16460    18972    20113    20020    19438    20425 
   22901    24256    24532    24852    23070    17979    12754    10876 
   12302    13440    11483     8683     8252     9224     9612     8459 
    4050    -3055    -8955   -12183   -13910   -13691   -11415    -8769 
   -5940    -1849     3581    10099    16792    22088    26021    29197 
   30252    27873    23661    20297    18463    17620    17575    18180 
   19629    21583    21625    18563    14436     9722     3354    -2286 
   -4325    -3458    -1077     1443     1741     -121    -1152      186 
    3389     8306    14046    18049    19481    20374    21887    22863 
   22381    20865    19148    18624    20343    22438    21899    18867 
   15849    14534    14932    15557    15034    14145    14081    13517 
   10532     6268     3484     2721     2378     2110     3520     6567 
    9331    12321    16826    20605    21604    21012    19661    18058 
   17973    18700    17085    12768     7925     4027     2218     3026 
    5306     8087    10793    12380    13771    16575    19098    20020 
   21505    24279    26997    29382    30003    26844    21636    17598 
   15817    16573    19588    23190    25917    27422    27392    25448 
   22889    22349    23668    24025    23321    22819    21073    17961 
   16580    17952    19948    20931    21209    21514    21034    19070 
   17336    16846    16356    15658    14810    12406     8977     7059 
    6841     7236     9085    12307    13837    11897     8280     5077 
    2241     -238     -529     1869     4807     7398    10376    12920 
   13662    12853    11267     9406     7870     6658     5748     6129 
    7302     6582     4039     2867     3304     3046     2354     2324 
    1977     1528     3321     6535     6848     3827     2026     3307 
    4936     5373     5652     6250     7447     9911    12275    12799 
   13120    14877    16144    15942    16204    17396    18998    21895 
   24679    24167    21852    21440    22184    22179    22896    25239 
   26535    24634    21533    19734    17868    14658    12309    11435 
    9709     6930     4769     3487     2937     3856     6693    10758 
   14778    17689    18731    17767    15936    15066    15807    16734 
   16089    13952    11527     9229     6470     3065       89    -1250 
    -515     2235     6586    11376    14121    12784     8881     5701 
    3682     1192     -959     -179     3183     6613     9580    12526 
   15014    16981    17836    16108    12752    10102     8112     6366 
    5853     6643     7992     9526    10805    12569    16502    21587 
   25074    26732    27280    26150    24020    22189    19808    16780 
   14845    13203    10312     8324     8537     8503     7920     9297 
   12371    14993    16772    17887    18337    19068    20615    22168 
   23446    24918    25836    24592    21054    17035    14652    14337 
   14854    15364    15453    14250    11989    10104     8787     7155 
    4985     2567      687      778     3113     6211     9031    11666 
   13709    13900    12302    11252    12544    15361    17632    17786 
   16000    13959    12831    12906    14303    16156    16938    16536 
   15786    14535    12803    12167    13192    13829    13088    13379 
   16393    20175    22603    24117    25348    25216    23286    21163 
   19711    18308    17281    17329    17763    17181    14790    11678 
    9845     8862     7030     5140     4587     4712     5192     6928 
    9876    13190    16244    18338    19240    19299    18563    17383 
   16359    14482    10662     7353     7924    11291    14512    17535 
   20375    20629    17328    12544     7975     4224     2930     4514 
    5633     4329     2879     2478     2975     6092    11354    15125 
   16312    15970    14377    12634    12086    12314    12479    12172 
   11387    11365    12982    15037    16518    17918    19225    19566 
   18740    17307    16204    16437    17790    18570    17589    15591 
   14227    14018    13830    12777    11738    11449    10683     8769 
    7537     8468    10272    11203    11651    12276    12550    12993 
   14669    16428    16310    14382    12453    11657    10949     9278 
    7776     7654     8183     8112     7707     8387     9990    10945 
   11361    11785    11511    11338    12761    14683    15799    16750 
   17733    17648    15822    13255    11969    12185    11951    10658 
    9296     7651     5402     3942     4338     5904     7726     9640 
   11615    13359    14542    15039    14712    13516    12544    12818 
   13042    11901    11051    12742    16626    20763    23541    23718 
   21317    18230    15576    13065    11211    10071     8214     6093 
    5566     5645     4780     4765     6983     9431    10971    12887 
   15215    16291    15194    12298     8861     6532     6642     9377 
   13100    15462    15778    15395    15626    16173    16421    17018 
   17990    17699    16085    14852    13799    12132    11043    11248 
   11993    13041    14480    15785    15962    14412    12411    11862 
   11840    10701    10585    13585    16783    17103    15754    14912 
   15363    16837    18067    18966    21022    23666    24673    23495 
   20503    16452    13417    12364    12291    13130    15160    16794 
   16734    15850    14868    13213    11242    10473    10956    11465 
   11747    12097    12078    11292    10350    10345    11365    12351 
   12941    13505    13282    11550     9405     7788     6721     7203 
    9625    12062    13321    13950    13937    13078    12013    11541 
   12060    12931    13063    12764    12501    11376     9956    10450 
   12185    12557    11994    12553    13954    14748    14678    13755 
   11592     9132     8247     8765     9594    11362    13686    14323 
   13861    14631    15816    16002    16505    17930    18696    18538 
   18567    18346    17041    15422    14146    12914    11731    10617 
    9297     8347     8734     9914    10489    10481    10561    10230 
    9277     8592     8224     7654     7639     9040    10858    11772 
