Origin Time       2024/04/02 04:24:00
Lat.              40.133
Long.             141.712
Depth. (km)       71
Mag.              6.0
Station Code      AOM024
Station Lat.      41.0473
Station Long.     140.6399
Station Height(m) 2
Record Time       2024/04/02 04:25:00
Sampling Freq(Hz) 100Hz
Duration Time(s)  110
Dir.              E-W
Scale Factor      7845(gal)/8223790
Max. Acc. (gal)   24.724
Last Correction   2024/04/02 04:25:00
Memo.             
[...]
    4297     3901     4413     5557     6388     6102     4881     3586 
    2957     3198     3960     4730     5098     4720     3537     2050 
    1170     1599     3196     5184     6758     7452     7268     6501 
    5714     5529     5730     5502     4642     3634     3064     3242 
    3977     4754     5054     4625     3651     2562     1854     1880 
    2712     4171     5702     6689     6939     6486     5463     4147 
    2851     2062     2363     3839     5830     7356     7712     6721 
    4629     2085      -36    -1020     -552     1013     2901     4631 
    6031     7138     8361     9882    10935    10385     7852     4043 
     253    -2330    -3168    -2492     -927     1054     3226     5331 
    6909     7570     7508     7418     7767     8486     9186     9562 
    9555     9134     8271     7101     5675     3890     1879      156 
    -741     -843     -614     -229      425     1324     2158     2400 
    1912     1339     1232     1568     2266     3273     4469     5772 
    6921     7418     7014     5968     4703     3483     2397     1525 
    1042     1189     2049     3360     4731     5898     6674     6864 
    6463     5953     5891     6211     6604     6991     7242     7260 
    6994     6278     5379     4951     5163     5535     5413     4641 
    3828     3631     4043     4646     5184     5651     5836     5139 
    3334     1134     -571    -1336    -1070      -85     1341     3353 
    5846     8299    10276    11419    11360     9969     7570     4796 
    2317      685        9      -98      -52       71      545     1625 
    3150     4720     5922     6292     5613     4314     3221     2870 
    3133     3626     4212     4811     5238     5386     5131     4293 
    3001     1749     1105     1428     2633     4261     5879     7388 
    8652     9054     8085     5942     3269      822     -697     -970 
    -201     1243     3180     5574     8164    10058    10289     8784 
    6170     3126      245    -1895    -2803    -2327     -749     1486 
    4097     6895     9348    10710    10779     9956     8715     7364 
    6054     4936     4104     3327     2519     2079     2255     2809 
    3487     4301     5239     6003     6253     5919     5150     4294 
    3835     4023     4830     6038     7099     7493     7034     5691 
    3789     2045     1067     1194     2398     4148     5840     7109 
    7705     7527     6443     4239     1040    -2457    -5232    -6413 
   -5638    -3149      282     3761     6627     8580     9508     9401 
    8608     7499     6008     4129     2241      795      168      654 
    2296     4594     6660     7808     7815     6876     5405     3807 
    2400     1406      986     1244     2180     3584     5166     6897 
    8873    10783    12029    12258    11445     9794     7503     4679 
    1680     -889    -2619    -3229    -2443     -390     2249     4851 
    7045     8448     8973     8845     8199     7215     6031     4484 
    2542      577     -905    -1441     -719     1135     3672     6265 
    8093     8626     8033     6953     6010     5310     4573     3640 
    2496     1236      155     -405     -175     1001     3164     6029 
    8754    10405    10677     9753     7905     5584     3335     1513 
     162     -889    -1674    -1872    -1042      928     3572     6118 
    7898     8671     8623     7966     6867     5622     4456     3468 
    2841     2717     2964     3397     3991     4599     4888     4648 
    3823     2693     1879     1819     2501     3574     4538     5042 
    5142     5097     4988     4677     4190     3875     4024     4635 
    5656     6964     8274     9274     9694     9354     8059     5649 
    2385     -969    -3435    -4274    -3449    -1555      799     3356 
    5875     7924     9174     9420     8672     7375     5995     4796 
    4060     3966     4426     5219     6046     6598     6628     6097 
    5227     4283     3426     2736     2128     1513     1090     1216 
    2019     3159     4129     4734     5005     4970     4650     4079 
    3385     2798     2481     2308     2015     1752     2046     3157 
    4866     6632     7754     7786     6797     5239     3792     2922 
    2548     2451     2614     3105     3894     4698     5146     5215 
    5219     5416     5675     5595     4969     3987     3032     2546 
    2818     3653     4471     4835     4804     4789     5098     5682 
    6363     7074     7693     7967     7726     7079     6316     5667 
    5116     4402     3326     2114     1266     1027     1266     1880 
    2848     3900     4614     4818     4615     4230     3784     3181 
    2389     1707     1722     2794     4572     6307     7415     7661 
    7119     6138     5155     4475     4168     4089     3981     3715 
    3476     3520     3757     3893     3831     3627     3299     2906 
    2652     2799     3481     4545     5584     6149     6048     5486 
    4762     4059     3558     3285     3110     3063     3244     3744 
    4587     5425     5836     5724     5131     4218     3338     2808 
    2705     2893     3214     3584     3931     4295     4837     5517 
    6023     6022     5363     4194     2849     1701     1111     1286 
    2124     3211     4074     4579     4847     4938     4893     4888 
    5136     5617     5995     5995     5697     5406     5379     5645 
    5999     6116     5830     5324     4949     4868     4901     4731 
    4198     3431     2779     2575     2987     4075     5595     6941 
    7524     7063     5821     4514     3703     3528     3844     4160 
    3893     2995     2037     1549     1725     2563     3747     4638 
    4779     4159     2979     1606      546       85      220      874 
    1942     3233     4515     5701     6795     7695     8183     7966 
    6862     5130     3422     2386     2110     2089     1968     1761 
    1522     1323     1278     1520     2277     3630     5158     6282 
    6863     7117     7180     7033     6648     6068     5431     4955 
    4849     5073     5346     5574     5886     6259     6575     6659 
    6313     5591     4720     3998     3600     3258     2722     2200 
    2010     2335     3105     3933     4545     5023     5521     6057 
    6527     6876     7140     7153     6671     5809     4780     3557 
    2100      571     -702    -1485    -1823    -1730    -1116      -64 
    1318     3056     5139     7383     9294    10220     9927     8839 
    7501     6189     5177     4688     4641     4738     4638     4185 
    3495     2716     1945     1273      797      668      954     1625 
    2601     3812     5277     6906     8262     8873     8685     7975 
    7068     6269     5759     5435     5043     4523     4113     3987 
    4108     4418     4762     4823     4444     3770     3021     2323 
    1756     1318      926      765     1425     3268     5929     8545 
   10196    10466     9740     8741     7774     6590     4923     2862 
     734    -1047    -2110    -2254    -1505      -94     1570     3092 
    4324     5344     6243     6841     6841     6201     5081     3721 
    2496     1732     1556     1819     2228     2759     3596     4660 
    5688     6535     7122     7416     7457     7190     6477     5371 
    4109     2882     1823     1077      808     1267     2574     4414 
    6250     7711     8623     8880     8399     7169     5324     3161 
    1035     -599    -1247     -675      882     2767     4359     5521 
    6367     6939     7187     7017     6527     6016     5529     4901 
    4213     3739     3510     3280     2937     2592     2428     2644 
    3238     4060     5049     6061     6797     6990     6462     5259 
    3792     2633     2245     2752     3927     5386     6774     7840 
    8410     8280     7306     5568     3364     1194     -365    -1057 
    -966     -303      733     1984     3188     3955     4029     3499 
    2644     1667      756      306      708     2033     4148     6847 
    9732    12135    13308    12972    11560     9582     7223     4677 
    2382      859      355      657     1459     2559     3658     4479 
    4936     4935     4488     3855     3319     3087     3341     4109 
    5150     6033     6436     6345     5933     5281     4303     3098 
    2139     1904     2438     3472     4730     5931     6718     6739 
    5778     3875     1416     -865    -2199    -2270    -1196      816 
    3562     6816    10120    12679    13720    12953    10670     7576 
    4422     1814      232     -195      221     1112     2276     3574 
    4800     5690     6122     6196     6007     5449     4386     3002 
    1791     1151     1003      899      645      479      608     1085 
    1981     3292     4784     6142     7206     7948     8324     8178 
    7434     6276     4927     3595     2579     2080     2192     2937 
    3959     4743     5071     5039     4968     5067     5066     4649 
    3983     3493     3484     3998     4924     6185     7578     8660 
    9051     8629     7499     5989     4594     3680     3122     2586 
    2127     2042     2517     3449     4380     4876     4837     4386 
    3708     2948     2177     1533     1173     1185     1559     2056 
    2466     2839     3167     3318     3315     3330     3477     3693 
    3715     3426     3122     3046     3145     3341     3547     3686 
    3878     4234     4739     5337     5969     6658     7346     7739 
    7722     7465     7013     6218     4981     3522     2461     2366 
    3260     4750     6431     8001     9094     9333     8702     7501 
    6056     4739     3858     3379     3126     3083     3319     3758 
    4213     4542     4538     4032     3276     2843     3055     3686 
    4214     4392     4517     4884     5258     5136     4332     3072 
    1611      102    -1136    -1715    -1429     -190     1773     3761 
    5130     5629     5382     4700     3661     2245      716     -544 
   -1101     -514     1204     3589     6043     7848     8495     8058 
    6934     5616     4584     4164     4564     5864     7700     9358 
   10308    10440     9981     9196     8079     6497     4465     2258 
     379     -689     -753       55     1432     3037     4533     5721 
    6540     6926     6848     6443     5913     5404     5098     5162 
    5688     6689     7734     8147     7676     6559     5211     4044 
    3289     2916     2739     2585     2384     2282     2407     2524 
    2288     1557      527     -314     -552      -12     1178     2527 
    3557     4268     4846     5202     5142     4718     4216     3920 
    3840     3684     3200     2512     2046     2157     2828     3755 
    4652     5356     5845     6153     6261     6210     6080     5841 
    5552     5413     5518     5904     6570     7300     7859     8190 
    8252     7985     7414     6628     5684     4509     3110     1887 
    1277     1217     1337     1421     1513     1944     2987     4349 
    5555     6386     6606     5983     4540     2550      522     -953 
   -1513     -986      573     2689     4768     6428     7538     8071 
    7878     7030     5890     4536     2903     1239      -16     -395 
     274     1690     3418     5155     6593     7423     7587     7219 
    6469     5533     4652     4068     3989     4340     4824     5227 
    5459     5493     5269     4784     4199     3631     3140     2844 
    2830     3192     4036     5229     6394     7211     7550     7369 
    6701     5864     5202     4645     4014     3412     3080     3095 
    3156     3001     2867     3122     3740     4286     4361     4059 
    3703     3353     2870     2304     1938     2018     2624     3588 
    4531     5216     5651     5786     5452     4627     3532     2400 
    1401      765      696     1240     2278     3531     4688     5467 
    5686     5455     5090     4887     4988     5263     5421     5258 
    4749     4016     3133     2150     1293      838      808      922 
     928      946     1286     2118     3505     5427     7600     9556 
   10943    11664    11719    11013     9487     7407     5277     3480 
    2145     1269      989     1603     3098     4897     6170     6361 
    5470     3796     1709     -175    -1193     -908      754     3343 
    6138     8640    10612    11912    12499    12430    11693    10322 
    8553     6681     5009     3915     3580     3855     4438     4946 
    4997     4436     3414     2343     1642     1351     1206     1066 
    1105     1621     2783     4445     6048     7025     7269     6948 
    6168     5069     3955     3106     2629     2404     2170     1794 
    1159       70    -1517    -3447    -5363    -6785    -7399    -7003 
   -5360    -2392     1638     6147    10485    14172    16826    18138 
   17965    16339    13652    10748     8521     7411     7396     8278 
    9740    11302    12394    12530    11611     9958     7894     5509 
    2907      399    -1512    -2412    -2347    -1575     -140     2110 
    5312     9197    13061    16220    18198    18767    17880    15527 
   11924     7569     2955    -1547    -5610    -8870   -10885   -11395 
  -10633    -9085    -7087    -4846    -2760    -1221     -141      712 
    1386     2141     3412     5393     7959    10705    13186    15228 
   16788    17550    16892    14392    10180     4677    -1618    -7898 
  -13208   -16883   -18531   -18138   -16160   -13216    -9979    -6841 
   -3653     -456     2308     4463     5991     6918     7722     9142 
   11765    15687    20308    24614    27808    29682    30200    29173 
   26476    21844    15075     6712    -2239   -10605   -16981   -20348 
  -20468   -17739   -13250    -8409    -4044     -417     2301     4168 
    5385     5980     6108     6250     6740     7518     8429     9066 
    8600     6760     4017      769    -2498    -5108    -6671    -6972 
   -5848    -3605    -1102      859     2079     2697     2856     2721 
    2273     1347      156     -695     -680      221     1418     2241 
    2328     1414     -661    -3527    -6250    -7878    -7812    -5806 
   -2095     2736     8014    13003    17170    20235    21979    22526 
   21932    19691    15593    10195     4480     -211    -2936    -3654 
   -2756    -1015      746     2290     3604     4540     5027     5108 
    5016     5290     6554     9170    12951    17271    21524    25181 
   27842    29381    29762    28930    26990    24054    20205    16017 
   12576    10631     9961     9447     7916     4943      607    -4662 
   -9992   -14585   -17845   -19364   -19238   -17608   -14200    -8903 
   -2214     4903    11090    15024    16256    15219    12887    10372 
    8132     6089     3996     1444    -1512    -4402    -6677    -7628 
   -7182    -5902    -4083    -2181     -846     -221     -307    -1217 
   -2829    -4621    -5904    -6133    -4934    -2546      264     2979 
    5104     6303     7030     7808     8878    10446    12263    13860 
   14960    15358    15330    15441    15840    16425    17005    17319 
   17224    16680    15832    14921    13987    12793    10881     8020 
    4730     1968      506      594     1698     2855     3538     3645 
    3001     1399    -1297    -4982    -8941   -12075   -13471   -12488 
   -8838    -3098     3376     9221    13333    14989    14227    11709 
    8054     3597    -1262    -6006   -10116   -12912   -13568   -11323 
   -5917     1914    10521    17826    22103    22621    19561    13848 
    7009      558    -4500    -7485    -8024    -6220    -2440     2523 
    7312    10687    12206    12360    11971    11476    10926    10062 
    8229     5027      992    -2883    -5942    -8041    -9443   -10390 
  -10516    -9107    -5710     -190     6921    14273    20397    24125 
   24798    22580    18360    13286     8569     5360     4272     5186 
    7780    11758    16275    19669    20364    17748    12483     6227 
     405    -4491    -8406   -11377   -13288   -13828   -12788   -10169 
   -6405    -2523      376     1566      815    -1437    -4294    -6801 
   -8060    -7503    -5161    -1556     2562     6558    10220    13614 
   16559    18361    18320    16515    13786    10864     8068     5647 
    3670     1912      268    -1212    -2416    -3021    -2925    -2523 
   -2124    -1721    -1205     -446      519     1429     2166     2658 
    2500     1429      -47     -718      662     4530    10203    16303 
   21244    23650    22881    19403    14509     9409     4765     1162 
    -877    -1170      338     3389     7159    10806    13775    15464 
   15434    13891    11522     9138     7539     6929     6644     6004 
    5004     3989     3122     2142      622    -1649    -4534    -7616 
  -10409   -12349   -12970   -12422   -11173    -9495    -7747    -6277 
   -4997    -3680    -2099      -82     2065     3836     5208     6575 
    8365    10976    14607    18968    23371    27051    29332    29697 
   27943    24310    19337    13730     8168     2951    -1871    -6107 
   -9491   -11716   -12383   -11384    -9080    -5867    -2218     1015 
    3175     4320     4924     5275     5119     4029     2019     -195 
   -1505    -1255      413     3069     6293     9675    12903    15631 
   17305    17224    14913    10605     5310      365    -3260    -5270 
   -5896    -5678    -5159    -4592    -3851    -2532     -357     2370 
    4766     5834     5092     2897      245    -1757    -2678    -2856 
   -2589    -2047    -1717    -1850    -2003    -1790    -1327     -696 
     513     2998     6787    10731    13408    14208    13551    12352 
   11291    10719    11111    12860    15633    18445    20295    20896 
   20765    20537    20304    19569    17867    15137    11630     8162 
    5860     5190     5987     7923    10237    11730    11580     9833 
    7098     4035      994    -1989    -4797    -7040    -8268    -8226 
   -7065    -5363    -3912    -3441    -4221    -5761    -7125    -7657 
   -7245    -6027    -4189    -2091     -307      572      298     -946 
   -2674    -4210    -5140    -5447    -5062    -3931    -2178       72 
    2533     4881     7164     9418    11342    12653    13275    13231 
   12444    10609     7662     4225      970    -1759    -3493    -3781 
   -2582     -211     2887     6347     9769    12526    14100    14454 
   13736    12213    10353     8475     6872     5980     6166     7635 
   10297    13803    17674    21370    24355    26025    26019    24362 
   21118    16355    10419     4106    -1636    -6318    -9733   -11468 
  -11236    -9169    -5765    -2041      820     2018     1308     -805 
   -3518    -6367    -9103   -11543   -13400   -14022   -12970   -10503 
   -7130    -3227      679     3716     5166     5023     3865     2498 
    1688     1607     1880     2320     2913     3446     3773     3842 
    3522     2891     2320     2015     1863     1647     1125      326 
     -95      830     3877     9148    15589    21478    25404    26719 
   25758    23518    20996    18948    17570    16465    15557    15372 
   16164    17525    18735    19029    18054    15952    12723     8401 
    3686     -513    -3697    -5761    -7013    -7811    -7948    -6817 
   -4210     -818     2155     3893     4340     3778     2344       76 
   -2693    -5432    -7785    -9555   -10594   -10871   -10355    -8941 
   -6739    -4248    -2085     -749     -367     -521     -738     -859 
