Origin Time       2024/04/02 04:24:00
Lat.              40.133
Long.             141.712
Depth. (km)       71
Mag.              6.0
Station Code      AOM020
Station Lat.      40.8194
Station Long.     140.7498
Station Height(m) 3
Record Time       2024/04/02 04:24:56
Sampling Freq(Hz) 100Hz
Duration Time(s)  158
Dir.              E-W
Scale Factor      7845(gal)/8223790
Max. Acc. (gal)   12.522
Last Correction   2024/04/02 04:24:56
Memo.             
[...]
    5417     5598     5778     6388     7383     8205     8560     8506 
    7809     6376     5104     4870     5368     5818     5850     5563 
    5225     5077     5101     4769     3793     2732     2018     1710 
    2143     3383     4627     5028     4529     3736     3312     3743 
    5020     6164     6197     5385     4460     3793     3600     3747 
    4004     4610     5576     6461     7105     7288     6833     6239 
    5799     5312     4974     4942     4876     4563     4029     3501 
    3399     3763     4274     4857     5456     5898     6327     6789 
    6868     6504     6237     6420     6812     6913     6529     5888 
    5323     4945     4660     4538     4959     6050     7119     7373 
    7040     6851     6920     6863     6480     5954     5405     4565 
    3225     1757      868      896     1678     2755     3634     4317 
    5043     5498     5205     4182     2763     1458      642      141 
     -83      491     1914     3523     4927     5946     6274     6107 
    6007     6154     6357     6297     5676     4498     3325     2960 
    3537     4414     5136     5728     6355     7222     8073     7886 
    6145     4162     3716     4765     5942     6417     6079     5131 
    4267     4271     5158     6143     6593     6613     6434     5892 
    4903     3751     2955     2918     3416     3717     3458     3025 
    3100     3959     5259     6382     6744     6385     6038     6038 
    6097     6168     6505     7090     7404     7128     6755     6698 
    6523     5787     4671     3642     3063     2797     2539     2643 
    3370     3989     3889     3402     3160     3546     4403     5211 
    5845     6515     6925     6691     6254     6069     5945     5883 
    6018     6006     5614     5204     5248     5787     6432     6891 
    7175     7454     7925     8505     8796     8557     7900     7163 
    6702     6725     7169     7624     7746     7589     7217     6542 
    5687     5078     4938     5105     5429     5663     5445     5101 
    5383     6111     6450     6216     5649     4793     3931     3492 
    3430     3588     3877     3910     3703     3835     4270     4452 
    4252     3785     3337     3469     4131     4553     4614     4766 
    4803     4317     3653     3242     3113     3426     4143     4560 
    4380     4222     4577     5356     6160     6481     6264     6000 
    5877     5692     5490     5294     4779     4112     4122     4953 
    5917     6770     7569     7813     7227     6446     6033     5853 
    5643     5359     4851     3929     3036     2887     3388     3933 
    4483     5165     5491     5107     4401     3763     3287     3042 
    2907     2758     2754     2922     3179     3713     4681     5919 
    7152     8091     8268     7460     6255     5337     4757     4436 
    4407     4530     4573     4392     4085     4035     4405     4814 
    4818     4518     4457     4864     5290     5256     4888     4436 
    3804     3111     2793     2975     3613     4677     5648     5711 
    4846     4162     4522     5416     5969     6048     5684     4718 
    3609     3480     4531     5688     6249     6424     6496     6620 
    6835     6879     6471     5679     4783     4109     4009     4395 
    4668     4644     4490     4149     3942     4608     5996     6949 
    6839     6145     5525     5152     4959     5042     5506     5975 
    5879     5227     4618     4664     5524     6642     7155     7009 
    6866     6809     6551     6289     6231     6249     6232     6085 
    5632     4820     3913     3273     3024     3268     3963     4446 
    4128     3240     2180     1206      818     1182     1675     1861 
    2053     2571     3262     3888     4445     4772     4703     4791 
    5421     5903     5759     5374     4988     4712     4958     5607 
    5980     6058     6303     6729     7148     7399     7299     7021 
    6864     6681     6230     5683     5385     5425     5501     5252 
    4653     3966     3682     4236     5341     6099     6112     5850 
    5802     6052     6454     6705     6647     6511     6520     6563 
    6554     6539     6347     5837     5374     5462     6120     6866 
    7067     6502     5660     5058     4522     3832     3338     3171 
    3092     3142     3449     3915     4325     4495     4390     4237 
    4496     5274     6106     6604     6671     6392     6157     6172 
    6180     6089     6123     6295     6312     6196     6396     7041 
    7773     8144     7830     6949     6061     5599     5501     5381 
    4953     4214     3591     3736     4627     5440     5638     5385 
    4953     4496     4186     4126     4344     4818     5196     4973 
    4170     3408     3354     4191     5424     6201     6142     5729 
    5570     5740     5972     5958     5624     5157     4668     4183 
    3724     3289     3086     3231     3322     3106     2934     3082 
    3546     4294     4909     4855     4341     3861     3441     3103 
    3122     3608     4359     5148     5877     6462     6706     6508 
    6264     6349     6467     6327     6061     5728     5331     5024 
    4932     5220     6025     7045     7716     7751     7269     6609 
    6199     6180     6084     5545     4866     4411     4348     4876 
    5768     6312     6218     5683     4907     4252     4087     4249 
    4303     4202     4151     4005     3615     3439     3719     3994 
    4072     4132     4156     4153     4278     4414     4199     3721 
    3677     4240     4695     4691     4522     4045     3009     2172 
    2365     3161     3655     3443     2632     1903     2007     2764 
    3470     3994     4604     5255     5652     5734     5764     5965 
    6424     7194     8086     8719     8945     8733     7927     6613 
    5320     4665     4957     5751     6129     5942     5786     5833 
    6019     6349     6435     6075     5576     5090     4801     5053 
    5520     5552     5254     5182     5505     5933     5962     5544 
    5395     5818     6241     6439     6629     6660     6328     5713 
    5015     4564     4526     4691     4730     4518     4342     4665 
    5324     5501     4953     4428     4556     5266     6035     6100 
    5258     4337     4121     4527     5077     5440     5580     5670 
    5771     5751     5629     5582     5606     5668     5827     5956 
    5941     5903     5810     5475     5071     5034     5401     5683 
    5598     5460     5543     5629     5574     5641     5898     6027 
    5813     5279     4546     3900     3707     3836     3811     3661 
    3809     4369     5070     5444     5042     3933     2943     2902 
    3578     4054     4008     3738     3596     3875     4369     4716 
    5147     5736     6008     5900     5713     5439     5081     4806 
    4517     4203     4252     4661     5061     5375     5491     5232 
    4930     4919     4912     4621     4461     4816     5028     4455 
    3825     3956     4421     4569     4563     4922     5695     6394 
    6601     6261     5840     5867     6048     5910     5649     5363 
    4774     3950     3308     3113     3264     3419     3438     3628 
    4193     4897     5358     5196     4399     3555     3233     3454 
    3906     4321     4596     4785     5027     5236     5341     5794 
    6866     7892     7940     6920     5771     5238     5151     5331 
    5795     6488     7543     8652     8849     8056     7245     6705 
    5919     4922     4379     4587     5023     4931     4056     2956 
    2601     3225     4168     5096     6073     6810     6976     6462 
    5354     4353     4248     4723     4901     4945     5474     5894 
    5390     4487     3867     3570     3883     4715     5101     4860 
    4571     4152     3572     3515     4287     5355     6085     6299 
    6168     5904     5755     5799     5605     4897     4386     4909 
    6193     7171     7038     5908     4630     3765     3298     3470 
    4573     5929     6419     5775     4677     4158     4795     5872 
    6100     5304     4387     3855     3356     2902     3312     4824 
    6818     8754     9899     9513     8336     7786     7758     7437 
    6897     6420     6096     6334     7133     7542     7092     6500 
    6253     6146     6062     5819     5174     4533     4311     4116 
    3630     3311     3531     4014     4444     4803     5086     5140 
    4865     4383     3950     3746     3642     3256     2666     2617 
    3484     4599     5038     4590     3928     3762     3856     3564 
    2924     2338     1962     1931     2165     2123     1695     1653 
    2513     3831     4818     5128     5013     4999     5394     6122 
    6855     7249     7238     7099     7078     7034     6646     5833 
    4811     4059     4205     5273     6278     6343     5823     5628 
    5918     6215     6412     6706     6728     6027     5100     4756 
    4955     5173     5351     5778     6532     7361     7776     7623 
    7271     6759     5875     4993     4426     3767     2940     2533 
    2739     3316     4241     5297     5904     5948     5954     6312 
    6860     7256     7357     7272     7252     7523     8004     8455 
    8851     9055     8775     8318     8320     8743     8947     8399 
    7219     6029     5124     4171     3099     2520     2601     2671 
    2471     2317     2203     2137     2412     2809     2793     2479 
    2380     2594     2820     2732     2324     2007     2173     2748 
    3504     4434     5475     6385     7072     7562     7851     7823 
    7395     6879     6679     6691     6733     6979     7545     8371 
    9275     9761     9602     9248     8761     7614     5973     4617 
    3819     3619     4205     5308     6270     6845     7306     7927 
    8723     9648    10517    10864    10438     9602     8973     8637 
    8020     6945     5983     5373     4965     5050     5711     6212 
    5964     5016     3697     2450     1398      321     -568    -1105 
   -1837    -2944    -3678    -3520    -3030    -3003    -3273    -3056 
   -2191    -1533    -1953    -3071    -3715    -3481    -3055    -3354 
   -4529    -5607    -5427    -3754    -1398      596     1591     1290 
     -43    -1331    -1676    -1355    -1181    -1244     -882      101 
     963     1138      932      931     1533     2852     4303     4847 
    4379     3817     3588     3559     4025     5405     7624     9990 
   11394    11275    10324     9652     9555     9632     9593     9556 
    9836    10469    11159    11619    11439    10347     9128     9097 
   10705    13413    16173    17721    17378    15662    13686    12401 
   12270    12857    13049    12290    11016     9667     8384     7774 
    8472     9945    10952    10882     9807     7993     6192     5290 
    5077     4912     5320     6948     9050    10359    10228     8745 
    6812     5657     5676     6065     5904     5146     4294     3808 
    4098     5297     6821     7684     7335     6232     5351     5096 
    5173     5100     4525     3446     1907      -82    -1873    -2787 
   -3130    -3110    -2295    -1040     -460     -962    -2193    -3557 
   -4268    -3832    -2330      -39     2636     5032     6735     8105 
    9271     9342     8064     6814     6737     7773     9255    10130 
    9776     8533     6759     4966     4344     5417     7207     8289 
    8068     7172     6374     5780     5783     6960     8418     8540 
    7372     6268     5894     6226     7258     8479     8735     7546 
    5526     3241     1119       43      438     1503     2054     1387 
    -145     -981      -37     2042     4342     6594     8290     8800 
    8324     7522     6521     4872     2461       89     -895      473 
    3785     7534    10319    11052     9343     6407     4009     2655 
    1856     1703     2797     4673     5773     5258     4137     4037 
    4930     5765     6551     7452     7716     7149     6448     5776 
    5036     4774     5263     6277     7925     9822    10594     9477 
    7110     4758     3665     4571     6939     8968     9186     8019 
    7014     6702     6336     5432     4077     2259      372     -558 
     -85     1173     2509     3481     3589     3082     3094     4037 
    5305     6106     5651     3804     1642      670     1570     3865 
    6482     7811     6458     3268     1121     2079     5535     8914 
    9852     8252     6409     6386     7515     7824     7209     7107 
    7632     7368     5908     4464     3944     3847     3006     1096 
    -652     -662     1139     3483     5699     7866     9132     8382 
    6257     4355     3446     3607     4153     3654     2164     2035 
    4882     9553    13662    15499    14936    13203    11041     8149 
    4916     2598     1216     -949    -4625    -7688    -7719    -4936 
   -1356     1327     2732     3890     5710     7518     8098     6786 
    3618      -82    -2180    -1744      379     2998     5683     8343 
   10118     9915     8371     7553     8221     8818     7793     5830 
    4633     4695     5293     5501     5040     4691     5178     6216 
    7248     7850     7528     6473     5931     6382     6276     4430 
    2245     1733     2936     4468     5400     5930     6929     8619 
    9547     8191     5038     1713     -233      437     3215     5724 
    6879     7986     9636    10612    10513    10253    10098     9632 
    8615     6764     4055     1227    -1073    -3046    -5220    -7310 
   -8012    -6586    -3748     -607     2110     3991     4611     3527 
    1432      311     1190     3010     4799     7121    10031    11907 
   11556     9630     7915     7800     9123    10667    11472    11439 
   11026    10732    10895    11288    10837     8768     5810     3434 
    2376     2405     2945     3785     5159     6974     8777    10512 
   11961    12286    11520    11043    11799    13400    15017    15619 
   13671     8919     4047     2332     3855     5800     6142     5144 
    3709     2274     1302     1709     3964     6760     7836     6498 
    4260     2884     2498     2072     1134       70     -199     1364 
    4234     6076     5471     3478     1972     1449      974      -94 
   -1269    -1873    -1860    -1660    -1638    -1540     -490     1903 
    4423     5312     4781     5032     7173     9726    10660     9518 
    7165     4232      903    -1858    -2809    -2189    -1175      353 
    3303     6758     8804     9526    10133    10247     8575     5204 
    2037     1162     2435     3522     3412     3620     4922     6002 
    5880     5150     4475     3630     2339      922      -67      -71 
    1318     3588     5134     5026     4606     5844     8438     9923 
    8449     4808     1439      -74      259     1771     3943     6436 
    8274     7928     5382     2606     1098      399     -495    -1822 
   -3187    -3499    -1645     1935     5767     8500     8876     6766 
    4283     3994     6412     9834    12127    12428    11334     9828 
    8478     7765     8278     9957    12015    13865    15178    15715 
   15520    14607    13084    11643    11045    11315    11794    11735 
   10759     9050     7202     5849     5401     5768     6382     6678 
    6041     3680     -195    -3553    -4421    -3173    -1323      556 
    2114     2916     3377     3896     4387     5208     6361     6621 
    4999     2307      776     2145     5945     9837    11769    11502 
    9972     7990     6073     4480     2887     1174      139      238 
     963     1941     2998     3896     4899     6262     7144     6570 
    5165     4307     4087     3516     2111      689      862     3418 
    7453    11107    12749    12091    10517     9765    10295    11245 
   11655    11288    10426     9359     8715     9575    11979    14177 
   14778    14208    13027    11101     8715     6282     3807     1877 
    1490     2301     2845     2617     2342     2373     2230     1537 
     598     -260    -1109    -1927    -2569    -2874    -2550    -1640 
    -517      648     1858     3208     4807     6434     7612     8125 
    8158     7939     7510     6876     6197     5814     6079     6930 
    7582     6980     5242     4032     4411     5437     5989     6100 
    5795     4730     3238     2157     1792     1885     2096     2131 
    1979     2234     3241     4074     3843     3187     2897     2544 
    1726     1237     2085     4139     6420     8048     8480     7655 
    5984     4170     3114     3206     3923     4712     5455     5849 
    5454     4444     3501     2995     2835     2678     2116     1020 
    -236     -839     -149     1512     3161     4002     3748     2785 
    2173     2940     4891     6477     6505     5543     4992     5192 
    5152     3951     1850      184      145     1875     4770     7809 
    9714     9964     9229     8113     6507     4734     3542     2817 
    1987     1262     1301     2281     3935     5711     7025     7982 
    8962     9657     9767     9564     9150     8529     8202     8557 
    9363    10446    11794    12892    13347    13525    13401    12371 
   10760     9756     9699     9787     9386     8557     7342     5701 
    4126     3080     2477     2381     2764     3026     2789     2108 
    1159      487      762     2037     3744     5084     5395     4702 
    3627     2724     2049     1449     1139     1516     2768     4961 
    7523     8931     8333     6914     6588     7794     9258     9680 
    8977     7707     6093     4016     1620     -257     -603      787 
    2995     4406     4075     2918     2398     2720     3334     3755 
    3609     2963     2350     2066     1684      614     -913    -1822 
   -1015     1561     4552     6444     7065     7268     7420     7024 
    5921     4797     4099     3441     2280      660     -764    -1375 
   -1053      103     2065     4500     6278     6288     5069     4176 
    4020     4168     4672     5568     6349     6606     6365     5813 
    5085     4218     3466     3283     3546     3654     3403     3075 
    3122     3765     4581     4995     4974     5015     5624     6459 
    6539     5859     5452     5798     6583     7676     9132    10473 
   10847     9981     8517     7434     7118     7003     6401     5335 
    4244     3426     3225     4110     5861     7500     8550     9342 
   10107    10721    10986    10621     9549     8324     7439     6847 
    6736     7450     8521     9121     9085     8768     8468     8230 
    7793     6995     6320     6223     6386     6397     6288     6272 
    6404     6370     5850     5155     5020     5617     5971     5186 
    3811     2851     2635     3154     3987     4340     3964     3385 
    3191     3299     3053     2285     1701     1948     3026     4436 
    5355     5034     3477     1578      126     -931    -1790    -2119 
   -1678     -850     -234       13      429     1694     3697     5537 
    6242     5312     3346     1911     1910     2822     3780     4371 
    4534     4460     4615     5405     6635     7627     8090     8428 
    8978     9331     8703     6762     4045     1794     1232     2733 
    5422     7931     9756    11060    11668    11646    11726    12295 
   13126    13698    13301    11813    10166     9373     9594    10218 
   10636    10989    11842    13023    13336    11975     9888     8509 
