Origin Time       2024/04/02 04:24:00
Lat.              40.133
Long.             141.712
Depth. (km)       71
Mag.              6.0
Station Code      AOM017
Station Lat.      40.6388
Station Long.     139.9295
Station Height(m) 24
Record Time       2024/04/02 04:25:03
Sampling Freq(Hz) 100Hz
Duration Time(s)  70
Dir.              E-W
Scale Factor      7845(gal)/8223790
Max. Acc. (gal)   2.212
Last Correction   2024/04/02 04:25:03
Memo.             
[...]
     789      784      785      791      787      784      789      789 
     783      781      787      788      785      785      785      785 
     785      787      789      787      784      789      788      780 
     785      785      783      792      787      780      791      788 
     780      784      788      787      783      783      785      783 
     784      788      784      780      784      788      789      785 
     783      787      788      785      787      787      785      787 
     788      788      787      784      784      788      785      784 
     785      787      785      783      781      785      789      785 
     783      788      791      787      788      787      780      780 
     785      787      780      778      787      787      785      791 
     789      783      784      788      785      784      789      787 
     780      783      787      787      784      781      785      787 
     783      784      785      785      788      784      784      788 
     784      780      783      784      784      787      785      785 
     785      783      785      788      784      785      785      784 
     787      785      784      787      787      784      785      788 
     787      784      784      788      788      781      781      785 
     788      787      785      784      785      784      784      787 
     785      785      785      787      789      787      785      787 
     785      788      791      785      784      789      787      781 
     785      785      784      789      787      783      788      788 
     787      788      787      789      785      784      789      785 
     781      791      792      784      785      788      787      788 
     789      787      787      788      784      783      785      787 
     785      787      785      784      787      787      784      785 
     788      787      784      781      784      787      787      785 
     787      788      785      784      785      787      788      784 
     785      787      780      783      788      781      780      787 
     785      783      787      784      780      784      789      787 
     784      783      787      788      784      784      787      788 
     785      780      780      783      785      789      787      781 
     785      785      781      785      791      785      781      783 
     783      785      785      783      785      787      785      785 
     788      783      780      785      787      781      787      788 
     784      787      785      781      785      784      784      788 
     783      784      788      785      784      785      783      783 
     785      787      784      781      783      787      787      785 
     787      785      787      783      780      784      785      783 
     784      787      787      783      781      787      788      784 
     783      780      783      788      785      781      785      788 
     784      781      783      784      787      783      781      785 
     787      788      785      781      784      787      785      785 
     785      787      788      785      780      785      788      784 
     788      788      778      785      791      783      783      785 
     783      785      788      787      784      785      785      785 
     788      783      780      789      788      785      785      783 
     787      785      783      788      785      781      787      784 
     781      787      788      785      783      783      788      785 
     780      785      787      787      788      781      783      787 
     781      785      787      781      787      788      783      783 
     783      787      793      788      780      783      785      785 
     789      785      778      783      787      785      784      787 
     789      785      781      788      784      784      791      784 
     781      788      785      785      789      785      783      785 
     784      787      787      783      783      785      785      784 
     785      785      787      787      784      783      785      787 
     781      784      788      784      787      788      784      787 
     785      783      789      787      781      788      789      787 
     789      788      787      787      784      787      789      783 
     781      785      783      783      785      785      785      785 
     785      789      787      784      785      784      787      785 
     780      784      788      784      784      785      784      785 
     787      785      784      785      787      784      781      784 
     784      784      783      784      788      784      781      784 
     785      787      787      783      783      789      788      783 
     787      787      781      783      788      787      784      783 
     784      785      784      787      788      783      783      785 
     785      784      785      785      785      783      784      787 
     787      784      785      785      784      785      785      783 
     787      785      781      784      787      785      784      787 
     785      785      787      787      788      788      784      784 
     784      784      787      785      783      784      784      785 
     787      787      788      783      783      791      785      783 
     788      784      781      785      785      783      784      787 
     788      783      781      788      788      784      785      787 
     785      787      784      784      785      785      788      784 
     781      788      789      784      783      783      784      787 
     785      783      787      787      783      785      784      783 
     785      785      784      787      784      783      785      785 
     784      783      787      784      781      784      783      781 
     783      784      784      783      781      784      788      785 
     783      785      787      785      785      784      781      784 
     788      789      785      781      784      785      784      784 
     784      783      785      787      783      781      785      785 
     783      784      785      787      784      783      784      783 
     783      784      784      787      787      784      787      784 
     783      789      791      781      783      788      785      784 
     784      784      789      788      783      788      787      780 
     783      785      783      785      785      781      785      789 
     784      783      785      787      787      784      781      785 
     788      785      787      787      785      785      785      787 
     787      784      787      788      783      787      789      783 
     781      787      787      784      784      785      787      784 
     781      787      788      787      787      788      787      785 
     787      785      784      787      787      783      783      785 
     787      787      784      783      787      792      789      787 
     787      784      783      785      785      783      785      789 
     789      785      783      784      785      785      783      783 
     785      784      784      785      783      784      785      783 
     785      789      785      780      783      785      783      784 
     788      784      780      784      787      785      784      785 
     783      784      785      785      787      788      788      785 
     784      784      784      785      787      785      785      784 
     783      787      787      783      785      784      781      785 
     784      777      783      788      784      783      783      783 
     781      780      785      787      780      780      787      784 
     784      785      784      785      787      783      784      785 
     787      787      785      788      787      784      783      785 
     788      785      783      785      784      784      787      787 
     787      785      784      787      787      784      784      785 
     785      784      785      787      784      781      784      788 
     784      781      784      784      783      784      785      785 
     784      783      784      787      784      784      785      781 
     780      785      785      783      784      783      784      787 
     784      787      787      783      784      785      783      784 
     783      783      783      784      787      787      783      783 
     787      785      781      783      788      789      785      783 
     787      788      784      784      787      787      785      783 
     785      785      784      784      784      784      787      784 
     784      785      787      785      783      787      789      785 
     785      787      787      784      785      789      785      783 
     787      788      784      784      784      784      788      788 
     785      787      785      784      784      785      785      784 
     783      785      784      783      787      787      784      783 
     785      785      784      784      784      784      784      788 
     788      784      787      791      784      784      791      787 
     781      784      788      788      784      780      787      789 
     784      785      787      783      783      788      785      784 
     788      787      784      785      784      784      787      787 
     785      787      785      784      787      784      783      787 
     785      783      785      787      787      787      785      788 
     785      783      787      785      784      788      785      785 
     788      784      784      789      784      784      787      780 
     780      785      785      785      785      784      783      785 
     784      784      787      785      787      787      783      785 
     788      784      787      792      785      780      785      788 
     785      784      785      787      787      787      785      787 
     784      784      787      784      784      787      785      784 
     788      784      781      784      784      783      784      784 
     784      789      788      783      784      785      781      784 
     788      781      781      785      781      783      785      783 
     787      788      787      787      783      783      787      784 
     783      787      785      783      784      784      784      784 
     781      784      787      785      784      784      784      784 
     785      785      783      783      783      783      783      784 
     785      784      778      780      787      788      783      781 
     783      783      785      785      781      783      787      784 
     784      785      781      783      788      784      785      788 
     784      784      784      784      785      783      783      787 
     787      785      784      784      783      785      787      787 
     787      784      781      784      785      787      785      783 
     785      784      785      787      787      788      784      783 
     789      789      784      785      785      784      787      785 
     783      787      789      787      784      783      787      787 
     784      785      784      780      784      787      785      787 
     784      784      788      784      783      785      784      784 
     787      784      784      785      781      787      791      785 
     784      785      785      787      784      784      787      784 
     784      785      784      788      787      783      785      787 
     785      787      788      789      788      785      787      788 
     787      785      785      784      785      785      784      787 
     788      784      787      788      784      787      788      784 
     787      789      785      783      783      785      787      784 
     783      781      776      770      766      757      756      762 
     762      761      762      761      756      749      741      735 
     741      746      747      749      747      746      746      738 
     737      739      735      726      712      695      680      668 
     654      649      652      657      669      692      719      756 
     803      858      912      953      966      939      876      797 
     739      716      708      707      706      692      693      731 
     800      888      969     1007      994      939      853      745 
     622      500      409      342      290      256      243      251 
     291      368      490      658      837      976     1057     1098 
    1146     1223     1333     1459     1541     1536     1466     1363 
    1256     1167     1075      949      777      588      432      344 
     307      280      233      182      180      264      417      596 
     731      789      810      841      899      986     1105     1256 
    1413     1521     1537     1459     1333     1229     1181     1174 
    1162     1104      988      816      587      329      133       87 
     206      430      633      729      742      743      780      901 
    1109     1347     1548     1644     1591     1425     1213     1001 
     801      622      469      334      179       -2     -162     -221 
    -145       29      229      387      511      657      891     1252 
    1703     2145     2498     2727     2797     2686     2424     2079 
    1686     1246      758      260     -189     -587     -969    -1316 
   -1534    -1502    -1170     -661     -135      341      750     1108 
    1459     1829     2178     2417     2478     2347     2045     1603 
    1057      437     -178     -654     -869     -805     -553     -228 
      82      318      433      419      355      367      577      967 
    1375     1638     1715     1674     1544     1286      911      480 
      89     -128     -108       51      213      291      256      151 
      79      139      387      795     1259     1706     2093     2347 
    2396     2281     2138     2041     1930     1726     1408     1001 
     579      259      128      170      309      456      508      378 
      82     -249     -496     -595     -495     -195      201      564 
     837     1009     1077     1086     1124     1213     1305     1370 
    1389     1327     1196     1054      942      858      791      789 
     932     1189     1429     1518     1412     1202      997      792 
     537      270      125      195      386      530      558      521 
     498      552      764     1135     1532     1786     1800     1620 
    1362     1092      841      684      660      706      729      729 
     743      738      643      494      418      477      588      634 
     607      576      577      602      614      560      453      376 
     371      434      548      643      669      635      538      367 
     183       82      125      333      633      912     1105     1196 
    1220     1212     1179     1163     1224     1379     1587     1753 
    1787     1644     1329      886      452      195      144      186 
     259      388      577      760      849      837      811      839 
     893      918      874      774      702      703      762      850 
     942      996      973      849      635      369      112      -51 
     -81      -22       83      257      527      846     1108     1209 
    1127      946      822      874     1093     1335     1441     1340 
    1089      828      653      548      481      464      511      625 
     758      824      810      787      814      901     1061     1289 
    1516     1636     1607     1451     1202      912      641      432 
     301      241      278      440      673      854      907      839 
     692      502      333      282      415      695     1026     1310 
    1485     1530     1453     1247      901      492      163       13 
      51      193      333      429      514      623      756      888 
    1020     1188     1372     1485     1451     1277     1046      865 
     795      843      957     1008      911      711      472      251 
     152      236      490      886     1358     1771     1999     1983 
    1755     1417     1092      888      888     1088     1354     1507 
    1471     1273      959      576      252      132      230      436 
     619      684      568      278      -79     -324     -315      -63 
     355      850     1267     1455     1390     1147      842      585 
     421      380      475      641      795      905      978     1040 
    1096     1131     1170     1247     1325     1314     1167      919 
     660      453      311      259      328      465      518      409 
     195      -20     -143      -97       89      321      537      703 
     778      749      664      612      681      877     1097     1221 
    1231     1208     1225     1279     1327     1310     1173      927 
     668      450      260      147      175      286      410      550 
     670      706      638      484      333      274      292      364 
     463      535      583      658      796     1000     1250     1506 
    1738     1892     1892     1741     1483     1127      707      336 
     105       44      118      230      276      238      197      243 
     390      550      616      592      576      619      643      540 
     313       64      -95     -116        4      240      572      981 
    1405     1764     2020     2153     2143     2029     1898     1854 
    1910     1992     2025     1948     1736     1417     1069      811 
     714      747      830      888      912      923      870      683 
     386       59     -221     -363     -336     -180       43      236 
     315      306      265      274      398      602      801      951 
    1063     1200     1377     1498     1478     1336     1174     1102 
    1112     1100     1008      850      668      542      487      460 
     490      611      758      823      774      688      638      606 
     560      538      583      719      967     1278     1458     1354 
    1044      741      599      646      797      909      908      832 
     742      646      527      407      348      395      544      756 
     922      947      874      837      927     1147     1401     1553 
    1559     1435     1196      891      625      495      533      649 
     707      670      612      637      774      912      915      774 
     585      475      549      796     1075     1254     1270     1166 
    1024      837      604      425      400      560      842     1100 
    1205     1134      974      864      839      807      680      453 
     197       20        4      172      475      788      997     1051 
     976      874      837      885     1023     1178     1225     1131 
     923      639      363      160       39       22      160      454 
     812     1075     1142     1034      828      604      454      396 
     405      472      554      589      607      634      639      631 
     661      749      859      915      866      761      637      503 
     398      359      417      600      872     1161     1404     1529 
    1545     1512     1458     1381     1248     1067      957      954 
     970      970      963      949      942      935      903      842 
     758      641      477      280       93      -21      -18       63 
