Origin Time       2024/04/02 04:24:00
Lat.              40.133
Long.             141.712
Depth. (km)       71
Mag.              6.0
Station Code      AOM015
Station Lat.      40.4791
Station Long.     140.6268
Station Height(m) 137
Record Time       2024/04/02 04:24:55
Sampling Freq(Hz) 100Hz
Duration Time(s)  113
Dir.              U-D
Scale Factor      7845(gal)/8223790
Max. Acc. (gal)   7.045
Last Correction   2024/04/02 04:24:55
Memo.             
[...]
    7160     7183     7642     7915     7426     5790     3693     2033 
    1310     2142     4315     6613     7747     7495     7310     7804 
    8014     8040     8561     9154     9189     9197     9745     9201 
    6308     3746     3666     3960     3199     2469     2400     3198 
    3800     2752     2007     3437     5104     5216     4039     2787 
    2851     3850     4619     4795     3829     2748     3141     3813 
    4434     5791     6127     5120     4644     3866     1895      720 
     768      591      658     1624     2633     3528     5221     7726 
    9340     9050     8293     8476     8884     8634     8807    10395 
   11924    11551     9425     7184     6049     5436     4533     4010 
    4291     4360     3589     2737     2590     2864     3034     3342 
    3901     4494     5626     7021     7103     6180     5814     5683 
    5235     4972     4587     3526     2496     2268     2473     2431 
    2038     1837     1900     1189       16      221     1877     3894 
    5957     7466     7655     6934     6129     5621     5896     6779 
    7214     6928     6085     4938     4510     4712     4441     4332 
    5252     6380     6990     7145     6978     6718     6617     6775 
    6876     6307     5541     5767     6656     7123     7366     8149 
    9247     9840     9756     9177     7913     6174     4792     3865 
    2940     2282     2226     2230     1578      697      733     1426 
    1606     1541     2142     2839     2559     1942     2296     3056 
    3218     3576     4692     5468     5360     5173     5547     6457 
    7565     8469     8869     8743     8545     8085     6610     5159 
    5065     5204     4567     4094     4538     5278     5131     4082 
    3526     3761     3693     3136     2716     2829     3674     4972 
    5772     5417     4699     5235     7001     8302     8775     9278 
    9606     9211     8245     6866     5147     3595     2609     1682 
     471     -102      596     1472     1518     1937     3759     5208 
    5013     4645     5017     5304     5221     5498     6176     6505 
    6619     6914     6718     6178     6610     7476     7284     6640 
    6409     6081     5562     5400     5767     6399     6824     6724 
    6145     5645     5686     5800     5817     6076     6049     5433 
    4639     3646     2689     2528     3453     4688     5266     5319 
    4935     4116     4081     5027     5420     5000     4656     4419 
    4029     3545     2916     2411     2403     2651     3136     3716 
    3550     2991     3049     3276     3397     4237     5602     6508 
    6957     7130     6805     6386     6471     7190     8212     8815 
    8807     8904     9440     9560     9066     9082     9373     8552 
    7132     6502     6089     4803     3611     3662     3981     3636 
    3449     3538     2918     2177     2272     2343     1917     2161 
    3354     4237     4652     5347     5595     4730     3778     3445 
    3314     3041     2556     2011     1845     2053     2339     2951 
    3663     3576     3045     3233     4072     4819     5193     5209 
    5302     5981     6532     6057     5305     5212     5524     5956 
    6509     6876     6893     6801     6621     6394     6284     6274 
    6520     6682     6075     4989     3985     3403     3370     3395 
    3412     3871     4700     5410     5651     5660     5806     6160 
    6467     6120     5381     5090     4961     4378     3777     3966 
    4669     5013     5067     5034     4735     4510     4517     4658 
    5287     6133     6416     6273     6162     5875     5188     4703 
    4627     4353     4225     4646     4772     4317     4064     4436 
    5112     5647     6053     6498     6709     6782     7437     8209 
    8104     8016     8625     8619     7909     7782     8155     8492 
    8689     8411     7774     7150     6431     5582     4603     3384 
    2178     1182      221     -680    -1167     -980     -380      213 
     945     1864     2709     3647     4513     4850     4914     4989 
    5238     5701     5860     5736     6003     6581     6829     6498 
    6018     6057     6548     6932     6871     6126     5057     4638 
    4946     5105     4853     4646     4630     4684     4757     4912 
    5359     5834     5923     5833     5629     5231     4904     4841 
    5258     5806     5416     4518     4236     3990     3527     3524 
    3570     3669     4375     4633     3869     3512     4124     4617 
    4591     4850     5589     5748     4945     4486     5084     5705 
    5670     5297     4693     4014     3813     4145     4569     4743 
    4630     4629     4849     5109     5822     6945     7685     7943 
    7858     7145     6021     5169     4893     5119     5433     5329 
    4876     4423     4149     3966     3682     3474     3503     3643 
    3877     4268     4924     5532     5757     6002     6049     5518 
    5409     5998     6034     5404     5127     5023     4511     4317 
    4905     5387     5103     4434     4199     4760     5580     6203 
    6766     7105     6894     6473     6424     6724     6882     6782 
    6740     6791     6544     6069     5923     5861     5431     5049 
    5066     5219     5204     5147     5321     5540     5576     5606 
    5482     4861     4236     3958     3530     3181     3473     3902 
    3986     3858     3739     3730     3639     3377     3040     2616 
    2388     2793     3470     3829     4045     4079     3727     3596 
    3673     3368     3330     3898     4149     4131     4348     4392 
    4423     4957     5478     5827     6490     6941     6654     6264 
    6164     6254     6702     7406     7766     7426     6852     6875 
    7204     6872     6277     6293     6539     6458     6149     5667 
    4942     4118     3742     4328     5354     5703     5256     5020 
    5597     6108     5684     4981     4758     4833     4685     4137 
    3987     4758     5389     5097     4483     3886     3179     2794 
    2880     2891     2731     2596     2479     2714     3649     4988 
    6203     6939     7091     6860     6259     5447     5223     5699 
    6035     5919     5757     5822     6021     6237     6181     5674 
    5290     5274     4847     3978     3697     3882     3697     3769 
    4546     4880     4680     5076     5606     5371     5067     5319 
    5721     5845     5605     5186     5051     5371     5524     5248 
    5223     5481     5400     4977     4557     4375     4725     5611 
    6131     5624     5027     5185     5310     4491     3314     2849 
    2960     3184     3628     4083     4402     4662     4695     4812 
    5150     5444     6057     6974     7765     8235     8155     8095 
    8452     8147     6934     6103     6075     6185     6154     6151 
    6122     5751     5131     4935     5146     4698     3703     3622 
    4378     4515     3915     3443     3175     2816     2803     3468 
    3927     3520     2922     2833     3483     4587     5217     5321 
    5414     4974     4135     3958     4428     5086     5478     5194 
    4888     5009     5042     5076     5331     5219     4815     4839 
    5008     4943     4985     5151     5498     6151     6550     6450 
    6247     6286     6866     7523     7176     6107     5690     5964 
    5871     5255     4835     4939     5059     4851     4585     4468 
    4552     4545     4228     4001     3983     4000     3856     3438 
    3404     3924     4035     3624     3470     3678     3966     4224 
    4320     4315     4395     4572     4689     4340     3429     2677 
    2895     4000     5077     5678     6030     6259     6602     7009 
    7006     7213     8513     9907     9880     8788     7947     7408 
    6682     6262     6480     6578     5940     5142     5023     5117 
    4819     4754     5022     4888     4530     4704     5235     5128 
    4310     3680     3539     3898     4630     4903     4480     4376 
    4865     4494     2976     2367     3142     3626     3566     3813 
    4268     4376     4193     4239     4598     5098     5427     4766 
    3530     3250     3662     3808     4194     4892     5011     4834 
    5104     5259     5051     5323     5984     6193     6096     6318 
    6400     5711     5576     6870     7584     7095     7396     8352 
    8348     7784     7635     7693     7597     7271     6589     5829 
    5516     5319     4702     4487     4957     4603     3449     3068 
    3372     3460     3244     2851     2304     1960     2216     2579 
    2716     3227     3962     4322     4725     5200     4995     4515 
    4422     4114     3605     3661     4106     4369     4337     4425 
    4800     5003     5026     4784     4009     3643     4222     4849 
    5283     5946     6813     7720     8152     7657     7142     7476 
    7777     7518     7558     8060     8472     8608     8266     7435 
    6747     6745     7011     6747     6299     6376     6313     5616 
    5309     5663     5610     5057     4729     4961     5594     5587 
    4689     4328     4405     3657     3021     3474     3912     4024 
    4164     4012     4264     5165     5468     5049     4537     4212 
    4270     4376     4307     4322     4325     4120     3947     4001 
    3985     3879     4170     4406     3778     2998     3046     3462 
    3618     3755     4001     4041     3770     3599     3879     4256 
    4603     5200     5572     5674     6178     6480     6112     6308 
    7253     7487     7030     7231     7472     6710     6257     6351 
    5482     4372     4212     4122     3661     3503     3792     4247 
    4406     3773     2995     2994     3183     3082     3315     3690 
    3639     3642     4055     4413     4266     3996     4479     5436 
    5705     5386     5439     5676     5512     5410     5733     5782 
    5178     4500     4355     4981     5940     6567     6970     7115 
    6968     7172     7457     7206     6897     6797     6604     6149 
    5566     5130     4838     4557     4116     3603     3415     3441 
    3393     3265     2990     2898     3376     3775     3682     4077 
    5047     5089     4089     3586     4112     4928     5549     5992 
    5948     5061     4301     4367     4082     3264     2874     2516 
    1966     1892     2347     3302     4391     4545     4099     4116 
    4136     3825     3716     3620     3400     3472     3852     4945 
    6885     7812     6822     5873     5860     5485     4471     3948 
    4117     3881     2968     2601     3084     3342     3456     4180 
    5050     5610     5930     5752     5285     5262     5665     6072 
    6635     7449     8014     8326     8939     9424     8905     8041 
    7804     7846     7803     7554     6840     5967     5109     4110 
    3352     3064     3036     3327     4024     4610     4483     3940 
    3503     2901     2361     2860     4071     5063     5742     5501 
    4191     3511     4068     4677     5030     5359     5458     5501 
    5672     5792     5996     6284     6334     6569     7627     8788 
    9355    10331    11797    11827    10262     8684     6802     4279 
    2797     2798     3046     3144     3113     2886     2698     2662 
    2604     2459     2636     3391     4329     4981     5163     5044 
    4988     4889     4244     3588     4120     5363     6393     8085 
   10561    11642    10149     7450     5520     5184     5576     5719 
    6054     6829     6983     6138     5568     6137     6990     6940 
    5593     3531     2150     1950     1848     1179      737     1209 
    1576      953      926     2583     4473     5435     5447     4797 
    4156     3886     3732     3288     2363     1394     1108     1597 
    2442     3692     5413     6562     6486     6126     6208     6682 
    7526     8375     8434     7204     5400     4546     4824     4984 
    5024     6011     7749     9455    10702    11044    10836    10656 
    9877     8124     6181     4248     1979      178      264     2133 
    3736     3832     3441     3179     2527     1938     1999     2045 
    2050     2691     3173     2857     2759     2918     2633     2952 
    4504     5958     6539     6764     7645     9397    10674    10914 
   10948    10787    10130     9346     8483     7947     8958    10821 
   11396    10527     9080     7272     5058     2257     -274    -1466 
   -1923    -2054    -1641    -1121     -661     -280     -148      175 
    1246     2905     4023     4109     4876     7090     8784     9197 
    9198     8557     7979     9148    10759    10606     9375     8239 
    7175     6655     6863     6686     5674     4303     2320       35 
    -714      379     1495     1833     2089     2737     3802     4888 
    4787     3109     1313      549      541      795     1512     2984 
    4401     5251     6598     8764    10554    11511    11836    10947 
    8712     6531     5532     5475     5624     5563     5382     5256 
    5321     5751     6104     5832     5416     5196     4569     3585 
    2963     2895     3015     2208      -33    -1406      101     2689 
    4295     5373     6127     5868     5007     4645     5167     5967 
    5967     5217     5205     6253     6825     6339     5771     5263 
    4287     3522     3375     3021     2569     2760     3173     3284 
    3758     4986     5772     5143     3882     3221     3416     4037 
    4627     5044     5821     7047     7906     8500     9655    11168 
   12127    12418    12447    12087    11299     9909     7619     5633 
    5193     5482     5355     4777     4099     3483     3173     3559 
    4213     4383     4530     5104     5437     5186     4727     4541 
    4838     4957     4399     4020     4234     4144     3694     3572 
    3850     4839     6293     6616     5703     5221     5270     4369 
    2598     1787     2305     2616     2241     2039     2158     1879 
     838     -394     -845       -4     1468     2663     3604     3981 
    3276     2292     2154     3156     4627     5714     6457     6843 
    6655     6602     7438     8872     9960    10181    10021     9836 
    9332     8841     9023     9428     9067     7929     7192     7450 
    7827     7863     7688     6717     4703     2446      816      174 
     423      989     1421     2003     2818     3576     4247     4711 
    4888     4769     4063     3010     2558     3172     4432     5657 
    6681     7438     7184     5783     4253     3092     2359     2416 
    3157     4114     5017     5598     5753     5479     4974     4739 
    4320     3352     3137     4035     4619     4573     4761     5346 
    5868     6062     6309     7187     8418     9292     9502     9105 
    8788     9286    10085     9900     8314     6660     6187     5969 
    5229     4603     3871     3042     2976     2979     2475     2906 
    5121     7865     9016     8104     7113     7122     6984     6331 
    5776     5127     4418     4106     3730     3134     2824     2095 
     643       59      688     1254     1667     1850      922     -214 
    -198      178      167      280      427      211      195      672 
    1001     1439     2731     4201     5406     7215     9238    10064 
    9994    10341    11304    11875    11059     9406     8291     7877 
    7878     7933     7311     6642     6579     5987     5047     5242 
    5856     5692     5452     5794     6242     6102     5382     5182 
    5883     6203     5692     5159     4607     3817     3273     3661 
    5058     6038     5815     6042     7381     8451     8596     8020 
    7245     7003     7091     6930     6566     6016     5202     4094 
    2767     2107     2297     1944     1480     2614     4002     3738 
    2911     2681     2778     3383     4579     5687     6313     6085 
    4804     3893     4576     5652     5786     5378     5248     5212 
    4600     3775     3055     1848      747      862     1686     2304 
    2602     2774     2818     2559     2119     1732     1451     1615 
    2673     4201     5246     5968     7234     8530     8939     9238 
   10060    10667    11056    11487    10948     9204     7600     7053 
    7414     7948     7894     7256     6608     6258     6250     6494 
    6516     5958     4774     3140     2405     3607     5240     5584 
    4880     3844     3059     3379     4650     5260     4671     4379 
    4606     3859     2660     2555     2941     3026     3342     3624 
    3115     2609     2786     2928     3119     3960     4868     5283 
    5239     4843     4583     4784     4941     4426     3667     3778 
    4641     5077     4878     4656     4617     4530     4491     5055 
    5811     5898     5906     6350     6670     6813     7001     7334 
    7755     7317     5914     5362     6139     6825     7215     7601 
    7550     7356     7249     7007     6797     6172     5197     5204 
    5792     5584     5431     6042     6197     5825     5965     6316 
    6327     6156     5683     4737     3645     3213     3797     4299 
    3792     3061     3098     3562     3534     3192     3312     3564 
    3618     3955     4070     3173     2265     2301     2586     2695 
    2916     3042     3075     3334     3643     3816     3859     3898 
    4383     5256     5468     4639     3969     3944     3584     2924 
    3036     3904     4473     4244     3842     3823     3881     3808 
    4006     4557     5008     5211     5420     5729     5652     4680 
    3653     3909     4851     5324     5953     6887     6848     5961 
    5508     6048     7561     9250    10075    10072     9873     9659 
    9104     8550     8556     8464     8021     7932     7877     7159 
    6359     6034     5421     4365     3902     3970     3662     3145 
    3096     3357     3673     4271     4784     5084     5799     6385 
    6150     5813     5626     5163     4633     4139     3353     2866 
    3569     4590     4511     3680     3487     4133     4163     3457 
    3630     4302     4193     3897     3829     3534     3411     3940 
    4708     5205     5509     5921     6138     6008     6396     7306 
    7403     6646     6328     6578     6259     5152     4360     4419 
    5100     5872     5823     5316     5512     6061     6385     6917 
    7704     7986     7264     6215     5899     6084     5809     4849 
    3973     3792     3796     3852     4477     4959     4384     3584 
    3740     4490     4851     4534     3867     3690     4094     3908 
    3223     3338     3601     3001     2952     3959     4257     3969 
    4777     6305     7187     7258     6639     5667     5659     6646 
    7024     6637     6270     5890     5579     5482     5352     5112 
    4752     4452     4526     4626     4452     4249     3878     3306 
    3408     4480     5336     5370     5298     5220     4750     4185 
    3971     4255     4648     4563     4137     3863     3744     3447 
    3137     3474     4117     4333     4525     4702     4318     4318 
    5310     5578     4332     3299     3476     4212     4787     5039 
    5404     5868     5692     5050     4754     4569     3960     3503 
    3801     4261     4185     3836     3736     3763     3915     4773 
    6147     7107     7172     6554     6169     6380     6520     6428 
    6161     5520     4945     5011     5617     6274     6281     5408 
