Origin Time       2024/04/02 04:24:00
Lat.              40.133
Long.             141.712
Depth. (km)       71
Mag.              6.0
Station Code      AOM011
Station Lat.      40.6803
Station Long.     141.3669
Station Height(m) 43
Record Time       2024/04/02 04:24:52
Sampling Freq(Hz) 100Hz
Duration Time(s)  149
Dir.              E-W
Scale Factor      7845(gal)/8223790
Max. Acc. (gal)   216.350
Last Correction   2024/04/02 04:24:52
Memo.             
[...]
    1116     1121     1112     1108     1115     1113     1116     1127 
    1125     1113     1116     1124     1120     1116     1116     1121 
    1125     1121     1115     1108     1104     1109     1116     1112 
    1105     1109     1121     1125     1127     1127     1123     1119 
    1119     1115     1111     1115     1117     1116     1115     1117 
    1128     1129     1113     1104     1109     1115     1116     1119 
    1121     1116     1098     1098     1123     1131     1120     1117 
    1120     1121     1121     1119     1123     1125     1108     1051 
     939      764      558      384      298      341      541      895 
    1343     1807     2250     2662     2995     3190     3208     3010 
    2536     1699      481     -932    -2259    -3219    -3604    -3325 
   -2282     -581     1202     2479     3196     3654     4001     4297 
    4722     5362     6073     6358     5463     3383      990    -1409 
   -4036    -6567    -8056    -7179    -3842     -403      923      444 
    -186      604     3528     7534    10573    11206     9173     5206 
     560    -3065    -4315    -3376    -1264     1242     3684     5323 
    5127     3134       16    -3431    -5460    -6119    -8083   -11410 
  -12235    -7538      988     8864    14617    18358    17702    12814 
    7805     4626     2046    -1896    -7041   -10409   -10428    -8276 
   -4947     -292     4757     7904    10413    14914    16339     8664 
   -3395   -11718   -15210   -16938   -16833   -11230     -118    10759 
   17243    19433    17478    11662     5348     2532     3811     6698 
    7447     3222    -5119   -14273   -22248   -25902   -20223    -8386 
     182     5518    11368    12096     4943      -83     5942    18929 
   28190    28883    22921    12282    -1468   -14530   -22480   -23082 
  -17030    -7944    -1737    -2493    -7341   -11300   -13753   -14149 
  -11423    -6210     1918    12110    21718    30245    36342    36717 
   31310    23063    13524     2685    -7183   -13073   -17574   -24078 
  -29786   -32664   -34172   -33130   -27252   -16888    -4191     8163 
   19030    28941    36545    40462    43114    44624    40367    29111 
   14617     -160   -14111   -24983   -30304   -31691   -33920   -36953 
  -34230   -22898    -8684     2235     9763    16370    21633    22546 
   17402     9238     3842     2737     2141      726     3462    12253 
   18185    13625     3770    -4415   -12866   -24100   -32289   -30932 
  -22848   -11353     5941    24726    35484    36670    30438    17814 
    4696     -334     3052     4569    -3021   -13456   -18319   -17257 
  -13338    -9848    -6295     -903      974     -814     2832     9737 
   10727    10408    17791    25868    22239    10095     -294    -6485 
   -9400    -9506    -9049    -7774    -2517     4175     6852     7056 
   10068    16938    22114    18786     8683    -1879   -12105   -20221 
  -21189   -17880   -16147   -14025    -8931    -4124    -2274    -2486 
   -4330    -6698    -4962     4475    17622    25481    26015    24428 
   21111    13857     5209    -2097    -8154   -13030   -14384   -11438 
  -10184   -12991   -12232    -4834     3194     7719     8972     6293 
   -1340    -7963    -4572     8356    26133    45431    55726    47011 
   23136    -5460   -30597   -46881   -51814   -45647   -32856   -20854 
  -12117    -4463     1175     3883     7241    13252    19087    23333 
   28171    31444    27467    16077     2505    -5047    -1775     6766 
   12370     9286    -5479   -25519   -39997   -44686   -40856   -29883 
  -10825    14427    36273    46774    45747    33860    12166   -11553 
  -25501   -25280   -17219    -9466    -5097    -1792     3474     9173 
   13730    18960    21674    15638     3387    -8945   -18833   -21678 
  -14152     -999    10700    16295    15503    12914    11009     8392 
    5532     3738      702    -6199   -13308   -14003    -7271     1856 
    7057     5188     -356    -1710     3709     8263     6407     2810 
    1467     -191    -4600    -9663   -12312   -13683   -15017   -13251 
   -7626    -1715     4218    13709    26053    35275    37663    32618 
   18301    -2897   -20367   -27052   -26676   -24553   -21624   -17321 
  -10345     -375     9598    17555    23683    25633    19003     3276 
  -13779   -20474   -13603    -1173     9863    17797    19797    15084 
    8530     4654     3777     2450    -2695   -10260   -17112   -22331 
  -23485   -16092    -2097     8734    11965    12460    11106     5003 
    -102     2674     9325    13215    15088    18366    20660    18064 
   11963     3100    -9386   -21284   -27176   -25807   -18593    -9589 
   -2639     2385     4854     2922      614     4818    14338    19828 
   16291     7233    -4012   -15631   -21979   -17772    -5204     9336 
   21336    28201    27635    19538     9166     1711    -4824   -13101 
  -20634   -25124   -26121   -22725   -14146    -1290    11569    20304 
   25026    25814    21344    13518     6257     1858       71    -1780 
   -5003    -7816    -9532   -10069    -8325    -6905   -10062   -16114 
  -20455   -21196   -16970    -5668    10800    25469    33605    35802 
   33330    26574    16825     6457    -2016    -7202    -9383    -9333 
   -8158    -8633   -11846   -14851   -17100   -20653   -21833   -14756 
   -1290    12162    22709    29124    28908    22815    14655     5368 
   -3496    -6547    -3138     1186     3680     4390     1706    -4175 
   -9440   -11489   -11055   -10295   -10315    -9651    -5807     1459 
    9323    14955    17066    15052    11592    10949    11412     9319 
    7103     6928     4658    -2695   -10821   -13744   -11076    -6412 
   -2335     1416     6246    10710    12397    12939    13516    11541 
    6231     -781    -7666   -11834   -12714   -13100   -14998   -16957 
  -16386   -11943    -3310     6906    13738    16679    19182    21226 
   19980    15106     9463     5925     4344     3048      166    -6656 
  -15934   -22623   -24455   -21768   -15055    -5632     3283     6643 
    2639    -3403    -5852    -4102     1636    10733    19284    22883 
   20093    14011     9720     8097     6407     3184    -1183    -5463 
   -7815    -7059    -4768    -3672    -4056    -5719    -8861   -11236 
  -11620   -11094    -7781      253    10854    21126    28914    31803 
   27241    16004     5182     1050     1032    -1858    -8716   -14100 
  -16082   -17826   -19430   -18345   -14656    -9047     -966     7354 
   11965    13485    14758    14720    11238     6289     3493     2955 
    2528     1559       94    -1764    -3422    -5324    -7927    -9471 
   -7608    -2609     2484     5732     7947     9352     9193     8291 
    7635     7198     6768     5312     2539       56    -1972    -5850 
  -12343   -18158   -19422   -15927    -9919    -2779     5387    13625 
   19658    21961    20763    17474    13356     9074     5661     3181 
     421    -2565    -5852   -10801   -15977   -16619   -10860    -2467 
    4797    10498    13562    11975     7030     2227     -892    -2720 
   -2789      414     5773     8577     5962      367    -4399    -7804 
  -10667   -11060    -7497    -2851      214     2521     4444     3805 
      99    -2832    -2080      519     2799     4710     5915     6142 
    6957     9045    10138     9563     9281     9278     8037     5107 
    1039    -3087    -6490    -8756    -9566    -8449    -5135    -1383 
     876     2698     5174     6956     6750     4720     2006     -182 
   -1802    -3353    -4374    -3631     -743     3384     7943    11940 
   13678    11892     6139    -1520    -6373    -6863    -5316    -2434 
     411     -657    -6166   -12696   -16741   -16402   -12378    -6631 
    -384     4726     7080     7647     7561     6581     6593     9189 
   11203     9722     6025     1263    -4610    -9936   -12006    -9282 
   -2220     6799    14646    19184    19808    16730    11030     4866 
      33    -3342    -5147    -4819    -3473    -2451    -1813    -2119 
   -3790    -6080    -7348    -5358     -831     1829      737    -2570 
   -7296   -10710    -8005      225     8965    15049    16858    14025 
    9386     6654     6180     5566     3175    -1229    -6540    -9536 
   -8260    -5132    -2930    -1285     1236     5012     8876    10964 
   10760     8903     5649     1174    -3716    -7531    -8606    -6407 
   -2952    -1048     -166     1641     3461     4145     4043     2783 
     511    -1053    -1140     -962    -1719    -2191      812     7399 
   12501    12576     9402     5193      168    -5024    -8070    -7018 
   -2261     4504     9660     8263      935    -5853    -8815    -8641 
   -4985      865     4359     3712     2209     2717     4592     6697 
    8942    11155    12993    13176     9645     2500    -5382   -11754 
  -16695   -19064   -15186    -4849     5718    10030     8343     5637 
    3699      538    -3025    -3326    -1232     -585       54     3273 
    6970     9360    10800    10914     8607     4163      368    -1756 
   -4509    -7458    -7920    -6138    -4067    -3123    -2978    -1526 
    1642     5389     9402    12783    13976    12326     8478     4627 
    1802    -1606    -5522    -7659    -7838    -7902    -8920   -10199 
  -10007    -7473    -3024     2188     6122     8398    10994    13605 
   14382    13278    10474     7283     5489     2799    -2643    -7431 
   -9853   -11905   -13086   -11295    -6924    -2430      803     3856 
    7408    10350    10951     8491     5293     4158     4905     6208 
    7264     6831     3755     -465    -3271    -5267    -7105    -6875 
   -4718    -2234     -114     -116    -2833    -5980    -7350    -5580 
   -1043     3226     4626     3630     3223     5868     9802    11433 
   11037     9779     5436    -2111    -8453   -11007   -10524    -7096 
   -1239     3450     4862     6208    10449    15554    17085    12233 
    3469    -3258    -5769    -5409    -3090     -550      399     -499 
   -2573    -4261    -6072   -10195   -14801   -16664   -15549   -10566 
   -1035     9265    16228    19423    20152    20097    19641    17531 
   14003    10068     5240     -889    -6558    -7641    -2929     1722 
     734    -4353    -9248   -11946   -12344   -11790   -12985   -17050 
  -21649   -23962   -21438   -11057     5155    20082    29914    34495 
   34523    33430    33249    29853    20094     8545      699    -5032 
  -13701   -25438   -32914   -30703   -24012   -18023   -10648    -2905 
    2085     5837     8537     8270     5671     2108        4     3169 
    9985    14266    15897    18318    17967     9591    -4409   -17343 
  -23102   -19828   -13525   -10678    -9925    -7446    -2918     2566 
    7881    12070    15997    21131    26639    28786    24640    17447 
   12843    10733     8027     5304     4438     2590    -5125   -17790 
  -28235   -30913   -29339   -29508   -30361   -29120   -21007     -589 
   23630    38515    42514    36559    21834     5599    -6214   -13423 
  -16821   -15384    -9672    -3133     2702     5054    -1026   -12880 
  -24610   -35179   -42186   -41384   -32194   -16521     3974    28125 
   51860    68183    75095    75319    68162    51525    28580     6367 
  -12151   -30311   -49951   -68305   -82228   -91239   -97839  -103561 
 -106312  -103335   -92689   -71501   -38109     3950    49921    97483 
  140333   170791   191181   204616   204084   186796   160494   129620 
   94802    63558    38318     7338   -27583   -54049   -78559  -103704 
 -120258  -132362  -143599  -149847  -149454  -138990  -118342   -92168 
  -65982   -46153   -32767   -22879   -17348   -15668   -16587   -20621 
  -22788   -13818     6562    32497    62607    90267   105536   116629 
  131664   136355   126339   109129    78430    39719     7738   -17115 
  -30703   -37038   -45581   -37764   -10500      174   -17863   -44652 
  -71707   -97441  -113782  -115618   -99301   -66862   -32070    -6029 
    7037     7375     5036    11527    29161    51232    69903    83619 
   87185    74105    51394    28451    12052    10817    21031    29987 
   36867    48409    66683    93349   126873   154267   162148   151941 
  130207    92070    35586   -25428   -76816  -112345  -136302  -158909 
 -180050  -193671  -196298  -186128  -166002  -136467   -97066   -55494 
  -19087    10682    38130    68905   100488   123817   126881   109476 
   92338    84168    65661    25173   -21772   -57770   -80214   -85372 
  -68408   -34376    10752    49755    57439    36994     7627   -19896 
  -36077   -36599   -27611   -16726      356    28695    58731    83771 
  101332   102836    82942    41359   -12987   -56133   -74332   -83502 
  -99978  -116118  -117663   -99881   -67805   -35000   -12579     2751 
   20517    44064    70090    91281   100126    95126    82034    64624 
   42855    23859    13497     5297    -2646    -7029   -19256   -46511 
  -68585   -69271   -55671   -35136   -11124    11619    30780    44358 
   49350    41413    20163    -8750   -36571   -48720   -41786   -33259 
  -31230   -27989   -22565   -16204    -6377     7931    27724    45759 
   50746    45603    36705    24680    16536    16443    16372    13649 
   11524     4800   -10692   -26175   -32938   -33237   -25220     -290 
   34387    60381    68590    56868    29371    -2922   -36090   -71932 
 -104490  -124102  -127009  -117144  -101945   -83926   -63373   -40385 
   -6934    42506    98219   145168   177372   200723   217263   216265 
  189155   139780    79533    17444   -42830   -99513  -153038  -199625 
 -225680  -222218  -198888  -168771  -128083   -75655   -26485    13412 
   48632    83682   126397   170287   189895   177692   150944   112876 
   57071     1942   -35136   -66792   -96788  -107748  -104608   -96217 
  -69017   -34672   -14921    -1242     6828     4356     6033    20120 
   35862    39818    35117    36131    47660    57771    52425    38317 
   25552    10971    -3156   -11707   -12598    -4885     3235     4770 
     899    -9570   -25720   -37990   -39341   -34156   -29215   -26076 
  -26333   -30532   -34732   -33153   -20818     -579    19715    35916 
   42419    37185    30762    32405    41546    51895    52924    41814 
   27522    14222     -697   -15160   -25848   -36170   -48213   -57230 
  -62152   -65403   -65254   -59197   -44857   -21595     5135    29658 
   49497    60976    62174    58396    56242    56047    56155    57071 
   56714    49786    32634     5914   -24736   -51625   -69935   -80353 
  -86641   -90576   -91493   -86432   -71694   -47241   -13999    26239 
   65083    92955   106735   107898   100259    87651    71394    53516 
   36282    15801   -10457   -35691   -57480   -78078   -90058   -87706 
  -76751   -62176   -44120   -23496    -3707    11348    18652    20228 
   24399    33524    42392    50782    58383    56176    38202    12432 
  -11423   -33026   -49531   -55004   -51760   -42742   -27195    -8887 
    4189     9880    13541    15850    14744    13788    13405    11169 
   11407    18246    29546    43093    54171    54661    45773    35646 
   26532    18558    13632     9344     1161   -10917   -24676   -38002 
  -47669   -51625   -50193   -43461   -31392   -16517    -3048     6671 
   13286    17496    17864    14862    12719    13150    13344    11510 
    8021     2209    -7281   -18582   -26262   -27081   -22392   -14654 
   -6346     -360     2118     1593    -2589   -10446   -17784   -20316 
  -18110   -11375     2340    23008    44957    61304    68266    63690 
   46911    21942    -5312   -30145   -47401   -55364   -57793   -57088 
  -53352   -48493   -43158   -35721   -26892   -16853    -2003    19707 
   45466    70164    89608   102332   107352   101808    86112    63737 
   34350     -105   -30289   -50095   -61302   -64829   -60627   -56178 
  -57820   -60376   -58579   -52991   -43051   -27777    -9238     9277 
   25834    38479    44841    45504    42072    35145    27175    20020 
   13780     9193     5228      691    -3431    -6939    -9863   -11520 
  -11450    -9583    -8129   -10833   -17626   -22948   -20443    -8641 
    8105    23934    35379    41543    42543    39638    35139    29740 
   22134    12312     1890    -8833   -20096   -30547   -37403   -37112 
  -29717   -22239   -20655   -22145   -21612   -17466    -9663     -427 
    7211    13473    20205    27575    33758    37855    40798    41933 
   39849    34349    24509    11168    -1698   -12201   -21550   -32200 
  -45708   -59165   -67780   -68743   -59977   -40568   -12615    18357 
   43791    55887    53338    42093    28665    14364     -415    -9748 
   -8471    -3655    -6323   -14974   -24983   -37567   -46988   -45612 
  -34960   -16744     7520    34190    61109    83056    95023    96948 
   89453    76495    62851    46427    24948     2596   -15766   -29727 
  -41569   -53007   -63209   -69228   -68953   -62908   -53113   -40917 
  -27438   -14013     -449    12606    22458    28412    31957    35271 
   39626    42723    42606    40271    34291    21865     5321    -9410 
  -19032   -24065   -24861   -21601   -16564   -11198    -5876    -2270 
   -1215    -2154    -4018    -4021     -118     5833    11543    17131 
   20811    18577    11164     2262    -7651   -17392   -24671   -31756 
  -41526   -52529   -61165   -63460   -57076   -43139   -24035    -2513 
   17358    31986    39424    39652    36243    35544    40830    49275 
   56907    61570    62411    60338    54529    41980    22860      166 
  -22258   -39922   -51223   -57082   -57180   -50761   -39231   -26403 
  -15628    -8225    -5265    -6403    -7195    -5063    -3816    -4284 
   -2913    -1478    -2569    -2787      807     6247    11655    20358 
   34291    47232    53542    53966    50672    44919    37147    27797 
   16958     3096   -13799   -31553   -48743   -63089   -70586   -68809 
  -58699   -42330   -21529     -179    17629    30312    36374    35683 
   30719    23743    17678    14003    10260     6635     5154     3744 
    2043     2565     3385     1170    -1791    -1548      475     1528 
    3030     5166     4608      723    -3798    -6948    -8446    -9154 
   -9644   -10195   -12510   -17385   -22188   -23753   -20383   -12139 
   -1551     9031    19548    29430    35897    36485    30920    21096 
    9990     -537    -9333   -14715   -15948   -13439    -7570      579 
    8669    14242    16418    15746    12383     7041     2378      452 
     888     2297     3396     3472     2241    -1842    -9418   -16513 
  -19160   -17474   -11421    -1270     8041    12260    12906    11408 
    6507     -615    -6116    -8217    -7948    -6268    -3913    -2816 
   -2902     -544     5177    10269    11893    11164    10316    10092 
    9990     9764     9166     6945     1952    -5652   -14933   -23857 
  -28144   -24586   -15986    -7616     -994     4044     7763    12884 
   20513    26952    29014    26501    19816     9323    -3667   -15761 
  -22894   -23936   -20866   -16308   -12378    -9769    -8063    -7626 
   -8506    -8149    -3364     5495    15147    23934    31689    37125 
   38136    33247    24066    14566     6594      278    -3942    -6924 
  -10003   -13020   -15585   -17644   -18257   -16686   -14461   -13315 
  -13505   -15849   -20502   -24875   -26115   -22881   -14998    -4276 
    6412    15948    24698    32490    38055    39696    37477    33394 
   28297    21367    12738     4472    -1462    -5039    -7597   -10420 
