Origin Time       2024/04/02 04:24:00
Lat.              40.133
Long.             141.712
Depth. (km)       71
Mag.              6.0
Station Code      CHB004
Station Lat.      35.8889
Station Long.     140.4903
Station Height(m) 36
Record Time       2024/04/02 04:26:32
Sampling Freq(Hz) 100Hz
Duration Time(s)  60
Dir.              E-W
Scale Factor      7845(gal)/8223790
Max. Acc. (gal)   1.721
Last Correction   2024/04/02 04:26:32
Memo.             
[...]
   -2112    -2073    -2031    -2096    -2187    -2236    -2303    -2363 
   -2319    -2153    -1961    -1827    -1752    -1714    -1767    -1946 
   -2146    -2235    -2228    -2189    -2127    -2035    -1971    -2004 
   -2088    -2104    -2053    -2018    -2039    -2127    -2230    -2208 
   -2084    -1969    -1853    -1796    -1923    -2123    -2245    -2361 
   -2508    -2533    -2381    -2164    -2003    -1968    -1992    -1965 
   -1945    -2016    -2111    -2134    -2119    -2143    -2173    -2153 
   -2103    -2034    -1987    -2023    -2106    -2173    -2214    -2215 
   -2189    -2161    -2120    -2062    -2008    -2029    -2120    -2150 
   -2106    -2081    -2088    -2107    -2120    -2079    -2025    -2068 
   -2154    -2169    -2137    -2108    -2091    -2076    -2026    -1975 
   -1995    -2038    -2019    -2002    -2080    -2185    -2176    -2072 
   -1991    -1985    -1998    -1980    -2010    -2092    -2096    -2016 
   -1956    -1964    -2011    -2002    -1945    -1945    -1956    -1918 
   -1899    -1953    -2073    -2205    -2324    -2446    -2525    -2504 
   -2382    -2203    -2069    -1992    -1890    -1818    -1911    -2108 
   -2232    -2246    -2207    -2122    -2002    -1907    -1899    -1981 
   -2068    -2076    -2049    -2074    -2137    -2189    -2215    -2170 
   -2081    -2041    -2080    -2176    -2274    -2293    -2228    -2178 
   -2180    -2178    -2176    -2174    -2114    -2033    -2029    -2097 
   -2192    -2228    -2203    -2246    -2311    -2224    -2054    -1965 
   -1980    -2039    -2101    -2166    -2278    -2400    -2390    -2281 
   -2195    -2091    -1961    -1888    -1831    -1768    -1742    -1759 
   -1845    -1976    -2070    -2139    -2172    -2099    -1972    -1899 
   -1879    -1899    -1993    -2115    -2189    -2241    -2254    -2170 
   -2031    -1919    -1860    -1857    -1934    -2097    -2255    -2307 
   -2261    -2177    -2088    -2011    -1971    -1957    -1934    -1948 
   -1995    -2014    -2077    -2212    -2272    -2177    -2006    -1868 
   -1860    -1985    -2176    -2350    -2439    -2439    -2357    -2214 
   -2083    -2003    -1960    -1988    -2097    -2196    -2207    -2146 
   -2072    -2035    -2049    -2085    -2097    -2095    -2101    -2088 
   -2058    -2087    -2178    -2223    -2150    -2025    -1949    -1969 
   -2045    -2064    -2015    -2022    -2122    -2218    -2261    -2266 
   -2197    -2053    -1993    -2112    -2263    -2311    -2273    -2226 
   -2223    -2231    -2166    -2058    -1987    -1921    -1830    -1809 
   -1925    -2084    -2126    -2046    -1980    -2002    -2029    -1983 
   -1944    -1968    -1971    -1952    -1998    -2079    -2115    -2077 
   -2027    -2061    -2126    -2101    -1993    -1834    -1695    -1729 
   -1968    -2274    -2470    -2481    -2412    -2374    -2339    -2276 
   -2205    -2153    -2103    -2019    -1938    -1927    -1962    -1937 
   -1840    -1822    -1929    -2043    -2128    -2212    -2276    -2330 
   -2390    -2416    -2363    -2211    -2012    -1908    -1930    -1984 
   -2026    -2065    -2095    -2106    -2106    -2130    -2178    -2187 
   -2135    -2107    -2145    -2197    -2246    -2290    -2309    -2301 
   -2290    -2299    -2295    -2185    -1965    -1809    -1804    -1857 
   -1896    -1912    -1908    -1935    -1988    -2033    -2103    -2201 
   -2254    -2277    -2344    -2396    -2323    -2191    -2060    -1899 
   -1764    -1703    -1630    -1552    -1597    -1769    -1976    -2150 
   -2253    -2290    -2222    -2052    -1960    -1993    -2019    -2004 
   -2000    -2045    -2124    -2120    -1996    -1891    -1875    -1888 
   -1898    -1890    -1852    -1826    -1867    -1975    -2180    -2455 
   -2613    -2586    -2497    -2367    -2199    -2135    -2201    -2281 
   -2343    -2390    -2424    -2484    -2505    -2397    -2245    -2124 
   -2010    -1922    -1935    -2074    -2262    -2347    -2266    -2101 
   -1914    -1752    -1709    -1798    -1945    -2081    -2151    -2173 
   -2220    -2284    -2281    -2227    -2158    -2047    -1922    -1845 
   -1850    -1953    -2099    -2178    -2182    -2147    -2069    -1966 
   -1890    -1903    -2022    -2112    -2089    -2066    -2112    -2165 
   -2196    -2227    -2228    -2197    -2200    -2250    -2304    -2286 
   -2143    -1992    -1938    -1927    -1954    -2089    -2269    -2339 
   -2297    -2226    -2169    -2176    -2224    -2258    -2259    -2185 
   -2057    -1977    -1954    -1981    -2064    -2074    -1965    -1864 
   -1803    -1759    -1815    -1984    -2200    -2427    -2535    -2400 
   -2153    -1977    -1922    -1993    -2115    -2168    -2116    -1946 
   -1722    -1607    -1640    -1773    -1960    -2120    -2223    -2245 
   -2169    -2093    -2122    -2232    -2353    -2454    -2484    -2408 
   -2334    -2327    -2307    -2235    -2178    -2123    -2029    -1952 
   -1910    -1875    -1903    -2041    -2219    -2339    -2335    -2223 
   -2091    -2003    -1987    -2035    -2099    -2174    -2289    -2378 
   -2385    -2344    -2274    -2209    -2193    -2209    -2226    -2212 
   -2158    -2118    -2114    -2056    -1954    -1935    -1929    -1821 
   -1757    -1861    -2077    -2357    -2608    -2693    -2582    -2358 
   -2101    -1895    -1775    -1675    -1594    -1629    -1791    -1960 
   -2068    -2176    -2263    -2178    -1973    -1848    -1825    -1826 
   -1880    -2076    -2339    -2469    -2461    -2411    -2262    -2042 
   -1903    -1861    -1898    -2041    -2187    -2230    -2214    -2145 
   -1998    -1863    -1796    -1749    -1736    -1813    -1948    -2128 
   -2350    -2485    -2439    -2288    -2107    -1929    -1764    -1582 
   -1462    -1541    -1794    -2123    -2458    -2656    -2664    -2521 
   -2224    -1880    -1660    -1613    -1744    -1976    -2153    -2223 
   -2266    -2342    -2419    -2409    -2303    -2164    -2002    -1869 
   -1896    -2073    -2273    -2389    -2349    -2204    -2095    -2073 
   -2058    -1979    -1915    -1948    -2022    -2133    -2328    -2538 
   -2633    -2592    -2457    -2289    -2172    -2142    -2133    -2120 
   -2146    -2204    -2257    -2250    -2106    -1908    -1867    -1995 
   -2157    -2315    -2431    -2446    -2353    -2187    -2065    -2095 
   -2192    -2235    -2203    -2084    -1976    -2035    -2242    -2439 
   -2496    -2351    -2037    -1690    -1494    -1518    -1668    -1926 
   -2285    -2469    -2322    -2079    -1911    -1753    -1617    -1647 
   -1857    -2079    -2211    -2324    -2404    -2380    -2300    -2168 
   -1931    -1647    -1449    -1485    -1750    -1983    -2000    -1953 
   -2031    -2204    -2342    -2331    -2135    -1860    -1605    -1436 
   -1463    -1634    -1777    -1890    -2015    -2084    -2101    -2247 
   -2567    -2853    -2867    -2600    -2254    -1958    -1692    -1525 
   -1576    -1791    -1969    -2026    -2050    -2096    -2162    -2295 
   -2473    -2571    -2548    -2481    -2394    -2172    -1772    -1406 
   -1236    -1202    -1228    -1256    -1337    -1640    -2003    -2174 
   -2290    -2451    -2529    -2492    -2326    -2043    -1783    -1653 
   -1648    -1755    -1894    -1875    -1703    -1630    -1761    -2007 
   -2304    -2560    -2671    -2681    -2571    -2193    -1684    -1422 
   -1532    -1899    -2316    -2571    -2640    -2482    -2066    -1718 
   -1787    -2177    -2612    -2893    -2930    -2778    -2531    -2253 
   -2014    -1894    -1898    -1952    -2069    -2344    -2702    -2899 
   -2847    -2720    -2613    -2488    -2389    -2307    -2209    -2224 
   -2312    -2292    -2239    -2274    -2377    -2544    -2741    -2805 
   -2571    -1999    -1259     -693     -567     -900    -1570    -2347 
   -2914    -3086    -2933    -2575    -2049    -1464    -1047     -935 
   -1057    -1262    -1494    -1734    -1927    -2106    -2336    -2528 
   -2581    -2550    -2475    -2286    -1966    -1645    -1544    -1782 
   -2168    -2436    -2533    -2497    -2307    -1935    -1459    -1136 
   -1228    -1711    -2346    -2874    -3099    -2994    -2598    -1971 
   -1391    -1204    -1483    -2062    -2635    -2924    -2852    -2520 
   -2127    -1929    -2108    -2515    -2731    -2569    -2164    -1640 
   -1152     -950    -1138    -1657    -2296    -2706    -2751    -2538 
   -2104    -1618    -1522    -1945    -2492    -2821    -2849    -2559 
   -2033    -1437    -1013    -1024    -1385    -1786    -2196    -2598 
   -2736    -2556    -2366    -2385    -2502    -2508    -2354    -2154 
   -2019    -1942    -2020    -2420    -2971    -3327    -3288    -2712 
   -1745     -909     -534     -707    -1344    -2027    -2401    -2490 
   -2382    -2151    -1941    -1900    -2064    -2293    -2430    -2448 
   -2385    -2295    -2245    -2281    -2417    -2567    -2629    -2589 
   -2377    -2004    -1701    -1580    -1568    -1620    -1759    -1981 
   -2134    -2029    -1763    -1587    -1651    -1971    -2370    -2602 
   -2569    -2228    -1683    -1296    -1310    -1671    -2247    -2793 
   -3045    -3005    -2774    -2393    -2016    -1857    -1863    -1796 
   -1659    -1633    -1730    -1852    -1948    -2035    -2100    -2079 
   -2031    -2045    -1993    -1880    -1890    -2002    -2065    -1993 
   -1777    -1505    -1267    -1163    -1350    -1837    -2400    -2802 
   -2940    -2798    -2389    -1884    -1543    -1440    -1491    -1665 
   -1961    -2257    -2344    -2199    -2073    -2176    -2378    -2405 
   -2176    -1817    -1530    -1471    -1617    -1948    -2463    -2991 
   -3380    -3522    -3242    -2685    -2218    -1931    -1760    -1759 
   -1938    -2139    -2119    -1804    -1474    -1428    -1651    -1989 
   -2361    -2694    -2897    -2886    -2741    -2705    -2794    -2833 
   -2790    -2635    -2326    -2018    -1799    -1633    -1578    -1644 
   -1714    -1769    -1877    -2022    -2178    -2328    -2357    -2236 
   -2089    -1914    -1638    -1398    -1433    -1723    -2043    -2316 
   -2519    -2488    -2211    -1980    -1984    -2056    -1964    -1737 
   -1482    -1259    -1146    -1162    -1385    -1864    -2297    -2482 
   -2677    -2887    -2786    -2474    -2249    -2097    -1922    -1760 
   -1806    -2118    -2442    -2617    -2639    -2420    -2007    -1632 
   -1475    -1540    -1638    -1657    -1675    -1765    -1950    -2185 
   -2413    -2677    -2971    -3138    -3075    -2860    -2529    -2052 
   -1664    -1576    -1609    -1651    -1788    -1915    -1890    -1775 
   -1734    -1911    -2184    -2313    -2417    -2625    -2709    -2586 
   -2424    -2241    -2010    -1858    -1869    -2002    -2120    -2089 
   -1919    -1709    -1522    -1452    -1548    -1718    -1898    -2131 
   -2377    -2475    -2328    -2122    -2176    -2481    -2722    -2756 
   -2683    -2565    -2336    -2006    -1732    -1672    -1858    -2170 
   -2427    -2554    -2513    -2269    -1937    -1710    -1710    -1919 
   -2146    -2281    -2398    -2452    -2358    -2182    -2026    -1977 
   -2003    -1935    -1818    -1849    -2031    -2274    -2628    -3030 
   -3208    -3033    -2629    -2188    -1817    -1532    -1404    -1464 
   -1594    -1750    -2026    -2367    -2581    -2562    -2312    -1921 
   -1583    -1460    -1599    -2004    -2484    -2674    -2492    -2130 
   -1803    -1709    -1807    -1946    -2147    -2297    -2165    -1836 
   -1545    -1391    -1382    -1501    -1779    -2255    -2828    -3241 
   -3283    -2992    -2509    -1961    -1584    -1475    -1533    -1775 
   -2130    -2320    -2290    -2199    -2134    -2110    -2097    -2143 
   -2327    -2501    -2424    -2062    -1599    -1317    -1385    -1761 
   -2315    -2845    -3156    -3211    -2991    -2512    -2087    -1960 
   -1935    -1769    -1463    -1188    -1102    -1179    -1424    -1976 
   -2691    -3133    -3080    -2635    -1979    -1390    -1085    -1038 
   -1250    -1702    -2134    -2369    -2381    -2120    -1796    -1703 
   -1799    -1871    -1833    -1804    -1900    -2015    -2023    -2057 
   -2265    -2554    -2771    -2853    -2754    -2533    -2336    -2209 
   -2116    -2039    -1995    -2016    -2095    -2173    -2220    -2236 
   -2188    -2012    -1753    -1597    -1617    -1710    -1842    -1988 
   -2014    -1891    -1736    -1638    -1651    -1814    -2081    -2338 
   -2496    -2481    -2270    -2007    -1873    -1844    -1840    -1962 
   -2257    -2484    -2446    -2274    -2154    -2023    -1787    -1553 
   -1456    -1475    -1563    -1672    -1787    -1996    -2340    -2758 
   -3129    -3264    -3083    -2724    -2308    -1942    -1768    -1782 
   -1892    -2112    -2425    -2713    -2848    -2756    -2523    -2263 
   -1937    -1672    -1726    -1935    -2087    -2272    -2484    -2652 
   -2727    -2525    -2124    -1813    -1603    -1397    -1282    -1377 
   -1684    -2115    -2524    -2844    -3051    -2948    -2409    -1734 
   -1320    -1312    -1647    -2080    -2398    -2559    -2496    -2193 
   -1850    -1645    -1599    -1696    -1892    -2088    -2172    -2019 
   -1692    -1480    -1544    -1804    -2123    -2369    -2474    -2497 
   -2565    -2693    -2770    -2666    -2396    -2085    -1726    -1328 
   -1129    -1285    -1709    -2214    -2505    -2415    -2097    -1740 
   -1453    -1418    -1715    -2232    -2731    -2936    -2851    -2756 
   -2758    -2737    -2646    -2471    -2208    -1891    -1602    -1487 
   -1605    -1800    -1918    -1906    -1667    -1220     -896     -974 
   -1343    -1810    -2409    -3105    -3524    -3427    -3119    -2948 
   -2821    -2563    -2195    -1729    -1171     -642     -291     -294 
    -722    -1354    -1948    -2430    -2659    -2554    -2311    -2087 
   -1908    -1902    -2147    -2502    -2774    -2820    -2563    -2108 
   -1651    -1291    -1100    -1202    -1579    -1935    -1989    -1815 
   -1638    -1567    -1728    -2181    -2735    -3148    -3194    -2803 
   -2353    -2201    -2263    -2396    -2586    -2751    -2766    -2566 
   -2231    -1976    -1900    -1937    -2070    -2303    -2505    -2498 
   -2257    -1938    -1709    -1710    -2033    -2554    -3084    -3505 
   -3632    -3391    -2938    -2378    -1800    -1409    -1283    -1370 
   -1586    -1795    -1930    -2031    -2114    -2204    -2307    -2363 
   -2286    -2018    -1672    -1422    -1282    -1235    -1279    -1341 
   -1378    -1441    -1594    -1799    -1933    -2039    -2262    -2496 
   -2586    -2590    -2482    -2207    -1883    -1615    -1517    -1680 
   -1996    -2319    -2562    -2586    -2382    -2157    -2037    -1979 
   -1952    -1962    -1981    -1953    -1904    -1939    -2076    -2251 
   -2419    -2500    -2452    -2312    -2103    -1885    -1776    -1772 
   -1791    -1863    -1976    -2006    -1984    -2052    -2168    -2162 
   -1972    -1740    -1694    -1937    -2382    -2916    -3424    -3685 
   -3470    -2833    -2091    -1493    -1090     -911    -1026    -1406 
   -1854    -2161    -2295    -2342    -2380    -2485    -2671    -2852 
   -2921    -2814    -2563    -2266    -1939    -1607    -1368    -1279 
   -1328    -1462    -1648    -1914    -2138    -2151    -2099    -2128 
   -2193    -2300    -2385    -2330    -2234    -2196    -2205    -2334 
   -2517    -2531    -2435    -2509    -2762    -2955    -2937    -2702 
   -2297    -1736    -1081     -658     -766    -1263    -1856    -2393 
   -2779    -2943    -2851    -2616    -2492    -2563    -2714    -2852 
   -2872    -2698    -2389    -2052    -1818    -1791    -1891    -2041 
   -2293    -2562    -2585    -2250    -1757    -1449    -1476    -1738 
   -2141    -2560    -2743    -2582    -2324    -2251    -2366    -2524 
   -2613    -2536    -2245    -1800    -1351    -1104    -1162    -1463 
   -1880    -2241    -2421    -2451    -2390    -2293    -2215    -2189 
   -2239    -2284    -2147    -1872    -1709    -1734    -1821    -1902 
   -1993    -2065    -2076    -2018    -1879    -1701    -1545    -1417 
   -1355    -1408    -1541    -1701    -1787    -1768    -1803    -1983 
   -2189    -2304    -2340    -2398    -2542    -2660    -2605    -2381 
   -2091    -1771    -1441    -1233    -1287    -1576    -1908    -2111 
   -2145    -2025    -1811    -1694    -1809    -2083    -2350    -2478 
   -2430    -2236    -1954    -1711    -1703    -1962    -2311    -2539 
   -2547    -2349    -2052    -1795    -1686    -1777    -2045    -2386 
   -2621    -2577    -2311    -1972    -1595    -1321    -1336    -1644 
   -2128    -2637    -3033    -3181    -2995    -2639    -2369    -2209 
   -2060    -1895    -1794    -1849    -1999    -2092    -2101    -2057 
   -1938    -1807    -1761    -1800    -1962    -2269    -2527    -2563 
   -2477    -2408    -2380    -2347    -2155    -1742    -1300    -1016 
    -957    -1163    -1628    -2255    -2829    -3076    -2907    -2533 
   -2207    -2014    -1950    -2020    -2214    -2424    -2467    -2354 
   -2266    -2203    -2070    -1933    -1837    -1780    -1813    -1956 
   -2208    -2500    -2629    -2551    -2438    -2330    -2170    -2027 
   -1985    -1953    -1787    -1570    -1458    -1466    -1614    -1884 
   -2115    -2188    -2072    -1849    -1730    -1831    -2079    -2365 
   -2668    -2956    -3052    -2806    -2355    -1968    -1750    -1599 
   -1433    -1381    -1525    -1717    -1822    -1902    -2061    -2272 
   -2411    -2425    -2300    -2018    -1656    -1368    -1246    -1289 
   -1502    -1865    -2242    -2450    -2424    -2235    -2020    -1902 
   -1927    -2057    -2235    -2394    -2403    -2200    -1927    -1783 
   -1830    -1960    -2026    -1966    -1818    -1655    -1567    -1676 
   -2029    -2465    -2749    -2770    -2542    -2185    -1841    -1656 
   -1752    -2072    -2451    -2762    -2906    -2853    -2650    -2339 
   -1989    -1733    -1638    -1645    -1719    -1914    -2157    -2299 
   -2319    -2289    -2251    -2222    -2189    -2166    -2226    -2371 
   -2458    -2403    -2309    -2285    -2276    -2254    -2330    -2527 
   -2691    -2701    -2581    -2413    -2238    -2031    -1802    -1657 
   -1647    -1701    -1792    -1930    -2025    -2000    -1933    -1960 
   -2039    -2034    -1972    -1956    -1906    -1769    -1707    -1829 
   -2047    -2290    -2566    -2810    -2890    -2774    -2565    -2384 
   -2268    -2177    -2124    -2114    -2023    -1838    -1702    -1659 
   -1686    -1792    -1925    -2018    -2070    -2138    -2273    -2367 
   -2338    -2292    -2231    -2053    -1871    -1794    -1792    -1894 
   -2060    -2135    -2134    -2160    -2223    -2301    -2354    -2359 
   -2384    -2454    -2466    -2367    -2242    -2146    -2084    -2092 
   -2118    -2089    -2065    -2115    -2211    -2308    -2384    -2427 
   -2442    -2436    -2427    -2411    -2396    -2401    -2363    -2222 
   -2039    -1883    -1737    -1611    -1566    -1647    -1822    -1975 
   -2079    -2243    -2498    -2759    -2959    -3002    -2797    -2416 
   -2023    -1686    -1412    -1310    -1514    -1912    -2189    -2192 
   -2008    -1734    -1486    -1460    -1715    -2118    -2516    -2781 
   -2847    -2749    -2500    -2146    -1845    -1675    -1605    -1598 
   -1571    -1505    -1452    -1439    -1501    -1674    -1917    -2158 
   -2319    -2351    -2247    -2016    -1733    -1521    -1482    -1606 
   -1773    -1880    -1863    -1696    -1549    -1657    -1960    -2212 
   -2392    -2573    -2694    -2710    -2705    -2737    -2720    -2529 
