Origin Time       2024/04/02 04:24:00
Lat.              40.133
Long.             141.712
Depth. (km)       71
Mag.              6.0
Station Code      FKS019
Station Lat.      37.6031
Station Long.     140.4381
Station Height(m) 224
Record Time       2024/04/02 04:25:44
Sampling Freq(Hz) 100Hz
Duration Time(s)  93
Dir.              N-S
Scale Factor      7845(gal)/8223790
Max. Acc. (gal)   4.282
Last Correction   2024/04/02 04:25:43
Memo.             
[...]
   12154    11731    11117    10951    10925    10970    11265    11306 
   10943    10774    11084    11614    11851    11672    11529    11464 
   11294    11365    11691    11919    12191    12384    11917    11223 
   11265    11637    11554    11353    11292    11114    10972    11067 
   11184    11211    11145    10909    10835    11065    11105    11137 
   11612    11948    11902    12081    12272    11956    11604    11574 
   11553    11529    11605    11749    11919    11612    10979    11084 
   11476    11014    10376    10574    11250    11746    11776    11206 
   10655    10901    11603    12108    12204    11958    11750    11857 
   12006    11886    11627    11443    11472    11545    11230    10762 
   10662    10802    10999    11267    11261    11095    11493    12029 
   11817    11450    11533    11450    11236    11623    12185    12309 
   12405    12469    12020    11295    10836    10828    11144    11438 
   11450    11288    11175    11178    11346    11696    12090    12148 
   11549    10903    10797    10675    10617    11179    11608    11604 
   11820    11790    11218    11277    12025    12097    11489    11254 
   11565    11919    12033    12048    12139    11961    11314    10847 
   10829    10675    10542    11071    11570    11070    10538    11128 
   11816    11704    11599    11616    11179    11110    11799    11898 
   11477    11740    12048    11705    11423    11400    11310    11213 
   11117    11080    11314    11477    11091    10616    10741    11076 
   11092    11106    11149    10971    10827    11003    11499    11807 
   11551    11423    11558    11142    10797    11479    12120    11871 
   11543    11549    11572    11510    11537    11854    12087    11801 
   11464    11485    11530    11527    11743    11808    11300    10874 
   11218    11715    11596    11418    11693    11761    11572    11686 
   11620    11236    11237    11365    11188    11056    10989    10960 
   11287    11585    11441    11416    11789    12096    12079    11936 
   11936    11889    11665    11793    12059    11630    11130    11308 
   11387    11169    11326    11456    11038    10767    11118    11319 
   11067    11322    12195    12499    12035    11593    11264    10809 
   10463    10673    11317    11553    11421    11711    12047    11905 
   11782    11913    11983    11803    11442    11298    11495    11674 
   11835    11827    11215    10836    11344    11639    11477    11477 
   11314    10976    10867    10960    11159    11111    10744    10602 
   10750    10920    11182    11547    11763    11693    11658    11880 
   11978    11915    12058    12044    11497    11232    11665    11759 
   11259    11002    10937    10851    11206    11578    11254    10999 
   11403    11672    11533    11560    11782    11828    11665    11437 
   11307    11460    11654    11519    11326    11496    11773    11758 
   11643    11626    11638    11881    12226    12051    11550    11371 
   11290    11074    11045    11172    11327    11530    11581    11508 
   11561    11646    11587    11597    11704    11650    11751    11981 
   11673    11261    11422    11557    11394    11416    11333    10979 
   10990    11206    11083    10991    11237    11391    11200    11056 
   11159    11271    11500    11830    11844    11713    11824    12039 
   12006    11592    11223    11213    11165    11053    11367    11842 
   11863    11757    11888    11753    11539    11812    11812    11080 
   10578    10746    10947    10885    10939    11146    11014    10740 
   11048    11535    11607    11696    11839    11722    11758    12131 
   12318    12152    11925    11664    11581    11969    12031    11269 
   10868    11169    10948    10251    10154    10552    10763    10831 
   11183    11684    11774    11593    11665    11753    11588    11592 
   11965    12291    12213    11979    11871    11742    11635    11682 
   11610    11302    11007    10860    10781    10663    10566    10647 
   10953    11469    12000    12170    12054    12006    11767    11350 
   11511    11892    11784    11776    11917    11677    11508    11589 
   11531    11445    11129    10492    10397    10878    11236    11443 
   11272    10787    10959    11754    12112    11919    11867    11884 
   11570    11427    11620    11511    11357    11541    11681    11759 
   11680    11364    11331    11225    10575    10355    10912    11248 
   11207    11288    11468    11693    11901    11888    11700    11553 
   11569    11677    11704    11549    11277    11175    11356    11464 
   11340    11280    11249    11233    11430    11475    11360    11616 
   11894    11653    11178    10968    11071    11236    11464    11593 
   11431    11535    11830    11551    11341    11924    12451    12378 
   12097    11738    11373    11291    11480    11426    11049    11115 
   11543    11545    11242    11034    11052    11414    11703    11674 
   11861    12132    11911    11584    11452    11195    10978    11041 
   10979    10654    10575    10832    11200    11769    12113    11847 
   11827    12334    12264    11596    11319    11249    10984    11025 
   11435    11708    11701    11529    11356    11294    11209    11172 
   11396    11535    11419    11601    12043    12039    11472    11005 
   11194    11541    11399    11257    11561    11732    11457    11078 
   10670    10520    10974    11286    11165    11277    11377    11246 
   11460    11894    12164    12375    12344    11988    11886    12177 
   12267    11939    11327    10544    10075    10206    10474    10658 
   10809    10655    10419    10636    11084    11337    11591    12143 
   12478    12271    12251    12483    12401    12355    12572    12357 
   11745    11597    11830    11766    11449    11125    10590     9953 
    9771     9894    10019    10446    10949    11236    11580    11835 
   11811    11946    12487    12791    12579    12664    12893    12448 
   11951    11859    11435    10867    10918    11063    10793    10744 
   11056    11148    11152    11321    11194    10932    11164    11685 
   12113    12251    12051    11882    11746    11427    11296    11524 
   11686    11566    11402    11441    11585    11705    11826    11881 
   11831    11673    11458    11234    11002    10935    11005    10855 
   10629    10805    11114    11132    11171    11299    11267    11294 
   11605    11912    11824    11681    12127    12798    12757    12090 
   11697    11470    10863    10520    10890    11155    10751    10349 
   10629    11036    11088    11350    11727    11449    11145    11713 
   12168    11929    11943    12009    11612    11476    11649    11622 
   11584    11504    11136    10816    10789    10912    11280    11653 
   11399    11043    11322    11618    11414    10997    10824    11138 
   11398    11360    11659    12164    12208    12012    11998    12029 
   12004    11898    11630    11437    11416    11227    10864    10729 
   10692    10405    10455    11052    11240    11227    11803    12164 
   11789    11601    11954    12086    11862    12029    12414    12140 
   11611    11642    11751    11492    11381    11348    10874    10561 
   10885    10964    10686    10906    11295    11391    11651    11961 
   12070    12259    12306    11880    11454    11514    11608    11361 
   11171    11207    11391    11488    11017    10530    10868    11250 
   11128    11306    11383    10901    11229    12240    12224    11437 
   11209    11553    11641    11403    11387    11465    11506    11831 
   11981    11477    11156    11435    11569    11477    11593    11546 
   11149    11291    11928    11794    11200    11249    11421    10940 
   10447    10640    11032    11300    11643    11589    11121    11264 
   11904    11956    11735    11946    11994    11699    11821    12121 
   11975    11927    11988    11365    10800    11145    11535    11387 
   11026    10831    10999    11052    10733    10687    11083    11441 
   11672    11978    12313    12502    12607    12596    12063    11202 
   10852    11006    10882    10511    10608    11128    11523    11713 
   11659    11488    11803    12334    12123    11419    11092    11090 
   11048    11134    11304    11178    11086    11352    11329    11005 
   11242    11788    11855    11618    11477    11484    11727    12334 
   12691    11843    10841    11213    11437    10509    10644    11751 
   11468    10687    10929    11121    10912    11103    11334    11281 
   11618    12225    12366    12201    11965    11634    11659    11973 
   11916    11560    11315    11129    10953    11078    11565    11801 
   11446    11021    10994    11296    11547    11570    11562    11466 
   11113    10902    11334    11894    11919    11917    11931    11340 
   11059    11731    11983    11584    11547    11269    10590    10797 
   11530    11601    11452    11709    11835    11688    11854    12133 
   12112    11785    11109    10659    10943    11365    11523    11462 
   11257    11310    11527    11628    11859    11916    11557    11423 
   11746    12059    11993    11680    11558    11527    11302    11168 
   11099    10783    10617    11006    11507    11588    11406    11379 
   11453    11388    11469    11765    11700    11431    11388    11280 
   11168    11399    11643    11460    11071    10867    10901    10966 
   10908    11188    11742    11673    11507    11886    11898    11634 
   11793    11543    10821    10786    11070    11161    11662    12090 
   11874    11981    12457    12100    11318    11223    11263    10894 
   10778    11138    11511    11713    11600    11067    10897    11333 
   11264    10841    11009    11145    11016    11703    12750    12727 
   12143    11996    11880    11522    11283    11249    11353    11481 
   11507    11535    11422    11097    11161    11360    10875    10484 
   10813    11013    11025    11264    11310    11306    11766    12232 
   12352    12395    12363    12172    11905    11604    11340    11302 
   11526    11600    11268    10991    11167    11488    11574    11450 
   11173    10825    10723    10920    10983    10848    10995    11430 
   11628    11515    11695    12409    12777    12293    11979    12349 
   12334    11778    11578    11155    10149    10102    10833    10601 
   10184    10916    11632    11530    11715    12291    12172    11603 
   11485    11574    11315    11003    11192    11537    11499    11522 
   11713    11358    10879    11040    11233    11026    10901    11168 
   11603    11651    11535    12071    12862    12933    12433    12037 
   11830    11631    11410    11286    11379    11422    11114    10670 
   10338    10204    10351    10485    10368    10405    10836    11461 
   12096    12463    12542    12754    13053    12843    12294    12093 
   11988    11692    11580    11180    10374    10347    10782    10656 
   10557    10701    10724    10910    11030    10889    11259    11966 
   12052    11830    12042    12378    12371    12370    12289    11581 
   11188    11817    12112    11611    11384    11422    11221    11122 
   11296    11264    10864    10733    11014    11122    11163    11307 
   11233    11005    10855    10984    11307    11323    11213    11556 
   12033    12013    11821    12048    12283    11900    11261    11121 
   11353    11165    10579    10346    10497    10489    10511    11136 
   11763    11695    11641    11632    10887    10403    10883    10980 
   10875    11719    12348    11986    11893    12132    11794    11458 
   11570    11398    11115    11245    11271    11209    11408    11260 
   10818    10872    11130    11253    11497    11750    12110    12638 
   12733    12509    12521    12279    11693    11701    12064    11826 
   11329    11202    11364    11620    11718    11584    11383    11106 
   11088    11423    11398    11169    11225    11105    11102    11747 
   12159    12050    12233    12514    12267    11867    11839    11858 
   11416    10924    11003    11272    11250    11279    11565    11707 
   11631    11838    12189    12020    11766    12013    12248    12182 
   11985    11653    11333    11146    11180    11550    11782    11439 
   11006    10925    10944    10836    10666    10480    10249    10111 
   10210    10389    10579    10809    11097    11466    11497    11215 
   11338    11793    11956    11843    11863    11853    11477    11259 
   11637    11892    11442    11080    11257    10998    10434    10872 
   11577    11348    11279    11777    11604    11234    11785    12366 
   12020    11319    10917    10732    10508    10323    10397    10608 
   10740    10901    11047    11071    11506    12455    12930    12804 
   12731    12546    12193    12098    12193    12275    12409    12507 
   12177    11249    10381    10218    10444    10565    10481    10335 
   10697    11700    12312    12195    12258    12387    12013    12020 
   12850    13292    12985    12818    12826    12347    11750    11857 
   11873    10952    10278    10118     9277     8405     8563     9054 
    9460    10287    11323    12086    12704    13204    13429    13267 
   12676    12182    12031    11605    11044    11084    11357    11281 
   11146    10974    10809    11414    12496    12668    12051    11944 
   12133    11657    10994    10636    10000     9412     9765    10207 
    9848     9911    10987    11844    12225    12688    12978    12868 
   12641    12729    13185    13194    12515    12147    12378    12594 
   12502    11974    10947     9489     7885     6963     7200     7989 
    8665     9198     9883    11090    12567    13606    14327    14752 
   14141    13223    13473    14143    14137    14075    13736    12190 
   10388     9429     8904     8506     8380     8413     8796     9666 
   10349    10647    11051    11518    12043    12839    13482    13878 
   14647    15466    15418    14415    12725    10831     9660     9629 
   10123    10326    10145     9856     9699    10038    10689    11102 
   11481    11612    10782    10050    10570    11727    13136    14215 
   13937    13115    12804    12391    11651    11164    10659     9634 
    8557     8341     9267    10650    11703    12287    12312    11620 
   10847    10739    11296    12047    12145    11781    12101    12712 
   12962    13382    13763    13485    12820    12128    11250    10299 
   10072    10489    10482    10254    10431    10269     9647     9556 
    9817    10000    10480    11028    11227    11190    11423    12333 
   13246    13745    14436    15110    14910    14075    13533    13293 
   12731    11875    10787     9182     7738     7411     7670     7881 
    8386     8964     9212     9587    10153    10511    10955    11811 
   12831    13914    14824    15098    14962    14600    13907    13466 
   13424    13041    12241    11423    10566     9764     9007     8133 
    7658     7807     8127     8526     8900     9220    10172    11974 
   13721    14567    14530    14100    13736    13423    12684    11637 
   11310    11888    12144    11619    11365    11790    12051    11415 
    9787     8005     7284     8131     9890    10955    11082    11657 
   12636    12981    12907    13027    13158    13109    12961    12426 
   11815    12155    12930    12739    12044    11765    11267    10493 
   10513    10852    10353     9644     9545     9718    10104    11080 
   12384    13285    13536    13327    12614    11998    12486    13244 
   12953    12598    13221    13369    12131    11253    11350    10821 
    9817     9653     9826     9647     9720    10392    10809    10270 
    9775    10216    10648    10395    10226    10683    11286    11458 
   11437    11711    12194    12723    13224    13363    13200    13105 
   12960    12698    12572    12224    11195     9949     8968     8349 
    8631     9718    10639    11452    12132    11801    11361    11819 
   11778    11024    10940    11184    11465    12542    13593    13645 
   13390    13193    12864    12568    12307    11904    11307    10733 
   10423    10336    10366    10413    10338     9992     9832    10326 
   10682    10513    10706    11078    10683    10422    11587    12881 
   12710    12294    12773    12919    12577    12719    12359    11406 
   11457    11789    11233    10573    10289    10574    11708    12397 
   11588    10955    11538    11747    11259    11400    11954    12120 
   12191    12139    11508    10928    11087    11412    11318    10987 
   10642    10204     9756     9585     9656     9919    10758    12147 
   13108    13111    12841    12955    13394    13590    13081    12141 
   11188    10501    10381    10746    11534    12359    12058    10957 
   10552    10454    10037    10000     9915     9359     9568    10305 
   10365    10843    12366    13389    13392    13051    12669    12407 
   12220    11896    11765    12275    12897    12726    11848    11088 
   10998    11443    11518    10806    10332    10255     9583     9180 
   10336    11884    12661    13176    13197    12244    11327    11183 
   11562    12019    11979    11585    11330    11437    12098    12548 
   12137    11622    10893     9517     8984     9853    10524    10956 
   12185    13057    12425    11688    12021    12529    12490    12217 
   11433     9902     9023     9556    10465    11476    12654    12972 
   12213    11820    12463    12864    12388    12226    12565    12025 
   10824    10442    10638    10647    10677    10617    10517    10964 
   11581    11466    10694     9923     9568     9691     9906    10069 
   10775    12056    13289    14350    14814    14202    13262    12467 
   11392    10451    10245    10107     9833    10181    10773    11163 
   11884    12509    12317    11723    11217    10827    10712    11260 
   12160    12553    12684    13382    14119    13883    13019    12314 
   11881    11755    11704    11261    10446     9520     9135     9745 
   10494    10644    10404     9775     9065     9402    10647    11466 
   11919    12696    13521    13736    13381    13490    13940    13371 
   12163    11196    10007     9173     9761    10466    10469    11173 
   11959    11433    11203    11807    11479    10790    11009    11168 
   10790    10594    10656    11101    12170    12804    12015    10785 
   10260    10156    10345    11186    11951    11749    11257    11407 
   11635    11345    11568    12611    12873    12252    12140    12255 
   11757    11145    11071    11144    10701    10046    10015    10604 
   10883    10743    11450    13039    13767    13009    11759    10759 
   10015     9378     9099     9713    10766    11203    11531    12768 
   14108    14195    13230    12270    11418    10446     9975    10449 
   11406    12069    12185    12190    12202    12028    11727    11118 
   10355    10260    10588    10469    10447    11321    12260    12430 
   12719    13242    12394    10534     9639     9634     9844    10863 
   11958    11693    11184    11635    11826    11168    10798    10864 
   10787    11111    12046    12484    12268    12390    12521    11950 
   11615    11836    11680    11677    12204    11712    10508    10547 
   11205    11310    11504    11813    11819    12054    12345    12083 
   12069    12634    12339    10860     9903     9976    10119    10716 
   11777    11828    11560    12394    13066    12718    12700    13015 
