Origin Time       2024/04/02 04:24:00
Lat.              40.133
Long.             141.712
Depth. (km)       71
Mag.              6.0
Station Code      FKS009
Station Lat.      37.2796
Station Long.     140.6344
Station Height(m) 430
Record Time       2024/04/02 04:25:57
Sampling Freq(Hz) 100Hz
Duration Time(s)  68
Dir.              E-W
Scale Factor      7845(gal)/8223790
Max. Acc. (gal)   5.059
Last Correction   2024/04/02 04:25:57
Memo.             
[...]
    6143     6010     6351     6354     6717     7568     7171     6405 
    6870     6978     6251     6551     7439     7481     7090     6616 
    6320     6709     7034     6952     7152     7398     7250     6867 
    6346     6085     6339     6528     6567     6991     7423     7281 
    7067     7175     7237     7341     7366     6671     6123     6490 
    6465     5996     6497     7292     7485     7655     7441     6593 
    6336     6779     6697     6382     6705     6716     6201     6331 
    6891     7314     7697     7713     7107     6520     6481     6484 
    6057     5861     6420     6482     5744     6053     6980     7210 
    7792     8203     7221     6496     6613     6435     6401     6829 
    7045     6708     6277     6802     7608     7393     7076     7163 
    6789     6320     6693     7314     7075     6493     6602     7053 
    6853     5975     5764     6494     6829     6920     7175     6847 
    6342     6477     7078     7358     7157     7441     7597     6717 
    6519     7368     7364     6708     6540     6570     6682     6708 
    6232     6311     7032     6864     6508     6787     6602     6513 
    7129     7138     6805     6907     6783     6457     6313     6411 
    6704     6760     6890     7290     7110     6585     6733     7265 
    7352     7082     6853     6795     6863     6913     7110     7319 
    7134     6975     7047     6743     6220     6172     6313     6149 
    6138     6417     6539     6984     7573     7177     6636     6656 
    6531     6805     7302     7045     6852     6783     6405     6705 
    7198     7025     7134     7252     6860     6851     6901     6585 
    6625     6913     7072     7144     6801     6405     6713     6998 
    6874     7204     7284     6389     6120     6655     6589     6670 
    7223     6929     6238     6268     6708     6933     7036     7198 
    7006     6737     6790     6477     6165     6677     7225     7345 
    7412     7241     7071     7240     7136     6974     7196     7173 
    7105     6971     6210     5922     6133     5872     6099     6579 
    6258     6129     6671     7254     7520     7300     6945     6916 
    7029     6909     6917     7149     7102     7064     6849     6180 
    6195     6893     7061     6893     7075     7198     6860     6474 
    6525     6847     6625     6165     6354     6577     6754     7337 
    7331     6812     6979     7161     6762     6774     7014     6748 
    6543     6552     6748     7480     7674     6787     6475     6871 
    6716     6642     7015     6999     6968     7083     6632     6234 
    6432     6500     6555     6902     6944     6766     6608     6540 
    7117     7560     6895     6350     6481     6534     6660     6878 
    7130     7496     7430     7102     6817     6370     6289     6826 
    7258     7029     6559     6609     6893     6835     6527     6299 
    6547     6826     6436     6068     5886     5682     6620     7954 
    7840     7280     7198     7086     6934     6791     6944     7252 
    6994     6882     7159     6813     6596     6894     6696     6720 
    7057     6708     6508     6517     6153     6571     7443     7227 
    6640     6755     7134     7198     7049     7128     7155     6909 
    6863     6498     5641     5695     6579     7132     7480     7449 
    7013     6880     6525     6158     6694     6918     6620     7252 
    8027     7726     7051     6631     6519     6516     6134     6123 
    6813     6671     6334     7113     7342     6685     6550     6613 
    6747     6990     6558     6243     6771     6959     6451     5946 
    6085     6986     7539     7510     7607     7487     7284     7258 
    6750     6359     6685     6739     6508     6721     7026     6872 
    6367     6145     6542     7014     7078     6921     6876     6967 
    6831     6442     6339     6381     6451     7246     8170     8090 
    7520     6979     6558     6605     6743     6733     6731     6466 
    6311     6620     6852     6835     6793     6964     7357     7245 
    6632     6578     6728     6408     6420     6535     6173     6293 
    6812     6945     7145     7496     7184     6335     6228     6744 
    7002     7547     7870     7327     7211     7156     6374     6246 
    6751     6752     6655     6771     6747     6756     6876     6694 
    6481     6705     6750     6554     6813     6897     6426     6307 
    6370     6257     6728     7304     7192     7315     7547     7052 
    6689     6458     5865     6207     7281     7423     7144     7300 
    7171     6712     6952     7345     6791     6234     6363     6685 
    7015     7183     7299     7240     6741     6330     6092     6097 
    6484     6508     6471     6944     6951     6604     6841     7327 
    7681     7454     6763     6805     7241     7132     6943     6635 
    6110     6301     6839     6836     6876     7041     6816     6511 
    6322     6187     6266     6519     6698     6921     7441     7604 
    6902     6520     7098     7612     7570     7203     6724     6427 
    6435     6519     6396     6226     6407     6957     7366     7288 
    7126     6797     6313     6664     7144     6666     6435     6809 
    6818     6799     7090     7125     6924     6905     6907     6535 
    6332     6891     6976     6278     6413     6627     5879     5852 
    6655     6891     6867     7037     7200     7341     7500     7500 
    7117     6849     6968     6754     6303     6362     6797     7263 
    7634     7557     6944     6336     6308     6704     6870     6705 
    6431     6119     6156     6736     7074     6652     6642     7649 
    8178     7654     6934     6407     6405     6825     7098     7155 
    6817     6381     6620     6976     6772     6474     6451     6853 
    7396     7442     7176     6880     6602     6698     6864     6654 
    6631     6802     6682     6790     6988     6458     5784     5724 
    6060     6435     6832     7308     7565     7578     7263     6407 
    6130     6837     7146     7163     7549     7221     6080     5776 
    6359     6758     7161     7530     7272     6917     7064     7137 
    6362     5482     5844     6444     6215     6571     7385     7196 
    6972     7392     7546     7456     7218     6551     6242     6725 
    7029     6833     6837     7165     7304     6951     6586     6716 
    6605     6012     5992     6172     6207     7145     7684     6779 
    6718     7709     7766     7275     7138     6863     6623     6791 
    6786     6701     6863     6829     6646     6573     6583     6632 
    6501     6528     7045     7415     7146     6724     6912     7236 
    6930     6628     6477     6093     6316     7173     7352     7001 
    7017     6960     6419     5904     5674     5776     6480     7260 
    7395     7268     7114     7010     7408     7828     7493     6804 
    6484     6524     6436     6170     6331     6930     7333     7406 
    7128     6667     6513     6459     6304     6721     7495     7191 
    6272     6357     6843     6754     6662     6817     6764     6631 
    6782     6903     7038     7578     7435     6323     6076     6513 
    6424     6736     7481     7813     7969     7352     6394     6574 
    6446     5690     6323     7056     6586     6516     6883     6966 
    7172     7244     6912     6473     6145     6351     6817     6767 
    6763     6991     6666     6471     6918     7265     7375     7331 
    7114     6889     6751     6542     6470     6959     7130     6666 
    6643     6727     6477     6651     6944     6839     6810     6837 
    6766     6778     6994     7487     7446     6632     6286     6424 
    6400     6471     6463     6270     6454     6956     7443     7773 
    7769     7501     7078     6597     6370     6512     6725     6845 
    7094     7496     7821     7653     7088     6889     6648     6223 
    6640     6971     6480     6573     6836     6367     6166     6327 
    6484     7005     7507     7821     8077     7335     6027     6022 
    6825     6957     6978     7520     7712     7245     6903     6724 
    6590     6728     6648     6282     6226     6381     6484     6624 
    6713     6606     6625     6644     6247     6405     7155     7003 
    6602     6937     7106     6964     7133     7376     7339     7357 
    7407     6760     5914     5813     6025     6291     6677     6728 
    6705     6959     6772     6050     5914     6751     7497     7294 
    6890     6925     6871     7086     7780     7662     6976     7032 
    7271     7053     6902     6933     6656     6087     6053     6355 
    6019     5929     6679     7006     7114     7566     7258     6372 
    6401     7236     7377     6817     7037     7450     6772     6365 
    7079     7612     7670     7501     6642     5459     4679     4310 
    4360     4939     5680     6195     6825     7659     8055     8251 
    8615     8519     8098     7805     7182     6299     5778     5694 
    5888     6431     6984     6818     6150     5854     6197     6650 
    6706     6415     5946     5787     6399     7280     7705     7867 
    8318     8644     8459     8151     7314     5854     4777     4136 
    4098     5555     7682     9050     9661     9684     8931     7537 
    6137     5521     5198     4841     5796     7144     7373     8135 
    8955     8114     7226     6925     6322     5991     6052     5922 
    5686     5657     5969     6629     7538     7812     7319     7720 
    8444     7815     7269     7389     6912     6470     6347     5541 
    4668     4860     5688     6547     7797     9003     8995     8174 
    7373     6640     6238     5749     4653     4306     5599     7115 
    7800     7901     7759     7763     7813     7105     5606     4770 
    5256     5788     6342     7686     8397     7882     7412     6829 
    5853     5499     6018     6795     7492     8055     8808     9961 
   10386     9086     6824     4248     1995     1593     3049     4661 
    5752     7164     9004    10161    10291     9598     7977     6116 
    5494     6270     6913     6401     5502     5778     7253     8240 
    8239     7905     7369     7261     7857     7834     6656     5063 
    3415     2542     3441     4934     5836     6821     7623     8257 
    9706    11007    11384    10666     8190     5462     4191     3812 
    3680     3823     4376     5572     7599     9876    11022    10426 
    8729     7106     5998     4490     2835     2781     4051     5175 
    6266     7418     8268     9297     9902     9277     8974     8916 
    7360     5707     4849     3503     2586     3370     5509     8167 
    9587     8722     6737     5535     6219     7701     8295     8289 
    7446     5528     5059     6149     5725     4484     5239     6976 
    7361     7221     7823     8506     9417    10311     9356     7175 
    5742     4723     3384     3010     4904     7213     7975     8808 
   10496    10836     9252     7484     6095     4784     4325     5000 
    6110     7407     8353     8750     8954     8239     7375     8201 
    9236     8702     7385     5630     3684     3113     4537     6687 
    7997     8047     7469     6786     6436     6600     6813     7443 
    8356     8089     7354     6716     4749     3241     4390     6066 
    6856     7824     8519     7978     7369     7842     8525     8128 
    6619     4985     4132     4448     6107     8282     9350     9513 
    9455     8047     6015     5282     5009     4514     4067     3547 
    4081     5891     7542     8853     9792     9572     8491     7379 
    6370     5772     6138     7125     7538     6829     5969     5787 
    5913     6234     7074     7794     7441     6635     6349     5814 
    4699     4460     5595     7433     9310     9505     8172     8006 
    8297     7534     7292     7179     5821     4804     4712     4425 
    4773     5433     4695     4421     5798     6922     7958     9207 
    9171     7996     6945     6230     5393     5077     6832     9572 
   10527     9888     8662     6817     5869     5948     5404     5204 
    5883     6038     5566     5067     5364     6597     7391     7591 
    7933     8010     8097     8991     9710     9359     8607     7060 
    4365     2998     3865     4896     6301     8482     9285     8961 
    8726     7369     5877     5983     6139     5647     5308     4926 
    4903     6130     8108    10102    11511    10666     8051     6269 
    4545     2238     1975     3727     5744     7877     8935     8953 
    9860     9990     7623     5521     4785     4176     4780     6319 
    6637     6837     7605     7155     6474     6736     6605     6934 
    8472     8779     7677     6880     6003     5282     5869     7231 
    8052     7638     6745     6389     6193     6123     6458     6721 
    6795     6415     5503     5063     5555     6987     8989    10076 
    9701     8615     7434     6727     6401     5903     5211     4521 
    4893     6639     7851     8448     9077     8104     6277     5902 
    6299     6805     7210     6525     5830     5744     5410     6018 
    7352     7645     7470     7059     6419     6554     6389     5309 
    5386     6421     6994     8505    10419    10154     9096     8532 
    6390     3473     2758     3422     3724     5125     8321    10508 
   10273     9576     8355     5886     4928     5204     4191     4526 
    6975     8041     8127     9012     9802     9958     9594     8442 
    6840     4911     2613     1509     2546     4973     7565     8515 
    8253     8306     7923     7419     7190     5861     4725     5283 
    5853     5809     6008     6245     6760     8197     9193     8914 
    8499     7595     6670     7431     7908     7078     6789     5597 
    3267     3395     5024     5216     5729     7299     8364     9333 
    9045     6519     5165     5548     5355     5443     6292     7878 
   10139    10485     8838     7518     6259     5039     4591     4264 
    4681     6636     8418     9278     9826     9774     8614     5967 
    4070     5819     7933     6901     5656     5373     4349     5157 
    8478     9636     8604     8667     8418     6513     4789     3681 
    3114     4313     7098     9713    10752     9915     8248     7593 
    8661     9576     8395     5914     3885     3179     3929     5194 
    6258     7510     8214     7877     7848     7913     7091     6169 
    5649     5186     5046     5838     7130     7608     6623     5663 
    6637     7681     7063     6713     6151     4669     5389     7476 
    7183     6258     7146     8070     8525     9275     8262     5524 
    4388     4734     4862     5366     6801     8610     9468     8802 
    7819     7140     6116     4904     4124     4036     4877     6334 
    8002     9182     8924     8392     8889     9051     7759     5964 
    4889     4912     6151     8143     8719     7036     5379     5445 
    6893     7916     7329     6531     6527     7476     8816     8098 
    5687     4376     4417     5497     7280     8175     7848     7464 
    7570     7526     7072     7096     7366     7099     6588     5778 
    5356     6671     8375     8140     6608     6064     6708     6872 
    6176     6107     7194     7950     7804     7121     5745     4648 
    4769     6004     7800     8332     7186     5973     5329     5300 
    5653     5780     6281     8272    10366    10152     8414     6621 
    5497     6197     6102     4216     5470     8486     8473     8064 
    8968     9101     8275     6590     4884     4365     4108     3893 
    4653     6178     7306     7065     6852     8284     9585     9381 
    8657     7570     6687     6682     5751     4187     5209     8066 
    9132     8409     8036     7823     7191     7006     6960     6188 
    5661     6215     6399     5309     4928     6312     7404     7060 
    6646     6843     6772     6794     7843     8253     6740     5198 
    4930     5391     6430     7662     7943     7696     7924     7632 
    6411     5238     4351     4288     5706     7605     8108     7079 
    7184     9209     9890     8534     7407     6612     5911     5192 
    3962     3973     6015     7244     6724     6867     6997     6014 
    6920     8529     7443     6331     6373     5609     5471     6713 
    7192     6870     7400     8560     9158     9202     8934     7865 
    6505     5807     4650     2706     2729     5223     7249     7998 
    8091     7335     7236     8467     8594     7425     7473     8333 
    7643     6170     5744     5377     4847     5540     6477     6988 
    7699     7257     6320     7123     7426     5810     5032     6538 
    9386    10615     8334     5552     5175     6118     7030     7931 
    7890     6934     7103     7836     7252     6385     6802     7688 
    7083     5454     5134     5557     5517     6424     7673     6972 
    5686     6210     7106     6758     7036     8334     8950     8897 
    7712     5498     4144     3850     4795     6872     7973     8059 
    7911     7060     6625     6858     6284     5402     5285     5441 
    5961     7685     9101     8734     8364     8703     8322     6901 
    5455     5422     6606     7380     6783     5246     4627     5026 
    5309     5960     6390     6579     7805     8500     7792     7476 
    7614     7380     7152     7285     7661     7504     6794     7180 
    8020     7233     6401     6789     6743     6872     8217     8445 
    6677     5590     5949     5286     3723     4927     8407     9738 
    9215     8691     7115     6165     7126     6879     5152     4256 
    3835     3572     4992     7776     9020     8472     8779     9779 
    9030     6534     4822     4461     3975     4239     5877     6917 
    7803    10130    10898     8141     5840     5263     4604     5389 
    7562     9043    10077    10188     8046     4378     1825     2047 
    2930     3638     6197     8541     8355     7847     7848     7479 
    7441     8197     8866     8606     7327     5973     6076     7543 
    8930     9281     7585     5082     5082     6307     5687     5034 
    5871     6459     6274     6027     6080     6465     6952     7499 
    7998     8113     7314     6164     6184     6956     7753     8432 
    7786     6546     6239     5854     5167     5152     5462     5945 
    7284     8791     9008     8685     8772     8185     7155     6787 
    6620     6500     6320     5656     5539     6177     6255     6409 
    7202     7017     6403     7037     7389     6301     5100     4538 
    4853     6238     8402    10111     9479     7524     6670     6509 
    6380     6361     6106     6328     7568     8321     7176     5429 
    4990     5373     5872     6602     6797     6619     6710     6193 
    5919     7311     8546     8145     7186     7549     8823     7511 
    4828     5626     7755     7730     7728     7844     6492     6054 
    6859     6185     5262     5805     6143     6089     6397     6345 
    6162     5949     5755     6982     8735     9413     9823     9612 
    8453     8012     7304     5089     3897     4365     5076     6048 
    6602     7156     8191     7645     6606     7549     8182     6489 
    4774     5044     5958     6399     7281     8151     7956     8113 
    9293     8804     6076     4621     4758     4540     5845     8750 
