Origin Time       2024/04/02 04:24:00
Lat.              40.133
Long.             141.712
Depth. (km)       71
Mag.              6.0
Station Code      FKS018
Station Lat.      37.3959
Station Long.     140.3619
Station Height(m) 245
Record Time       2024/04/02 04:25:59
Sampling Freq(Hz) 100Hz
Duration Time(s)  67
Dir.              E-W
Scale Factor      7845(gal)/8223790
Max. Acc. (gal)   2.659
Last Correction   2024/04/02 04:25:59
Memo.             
[...]
    5408     5559     5659     5572     5475     5486     5459     5417 
    5489     5520     5425     5294     5077     4835     4676     4477 
    4320     4357     4479     4661     4980     5335     5632     5769 
    5641     5394     5221     5100     5016     4992     4990     5028 
    5130     5197     5154     5059     5058     5131     5097     5008 
    5047     5128     5121     5131     5251     5382     5432     5459 
    5502     5545     5605     5614     5491     5335     5263     5270 
    5329     5409     5436     5364     5254     5193     5157     5111 
    5107     5173     5310     5553     5836     5965     5891     5788 
    5772     5791     5765     5692     5626     5629     5726     5841 
    5877     5829     5773     5710     5512     5242     5120     5121 
    5148     5212     5259     5312     5476     5622     5533     5351 
    5306     5285     5151     5031     5015     5028     5015     4953 
    4857     4807     4824     4858     4873     4843     4828     4966 
    5151     5161     5055     4916     4688     4446     4276     4171 
    4199     4440     4818     5162     5336     5362     5391     5467 
    5471     5329     5177     5197     5358     5551     5775     5957 
    5933     5748     5602     5476     5250     4958     4707     4554 
    4477     4438     4452     4492     4546     4666     4784     4823 
    4870     4999     5170     5314     5368     5332     5231     5127 
    5090     5088     5121     5248     5363     5402     5459     5552 
    5591     5548     5530     5560     5517     5443     5401     5270 
    5135     5228     5436     5541     5598     5678     5668     5526 
    5401     5354     5292     5233     5281     5398     5562     5829 
    6025     5927     5734     5679     5603     5408     5243     5131 
    5000     4930     4980     5020     4963     4934     5001     5057 
    5078     5124     5193     5266     5339     5397     5448     5497 
    5529     5530     5478     5363     5266     5293     5433     5611 
    5721     5665     5474     5223     4950     4749     4699     4760 
    4888     5046     5130     5112     5135     5271     5354     5240 
    5019     4814     4710     4768     4943     5128     5281     5448 
    5606     5651     5595     5513     5394     5266     5200     5219 
    5273     5337     5505     5744     5846     5778     5644     5420 
    5119     4882     4702     4507     4357     4302     4320     4421 
    4585     4702     4753     4828     4866     4822     4845     4914 
    4885     4896     5059     5252     5401     5454     5397     5367 
    5406     5449     5493     5489     5439     5456     5543     5680 
    5842     5898     5876     5867     5814     5725     5674     5624 
    5525     5387     5251     5159     5116     5089     5098     5138 
    5159     5177     5225     5270     5308     5394     5535     5691 
    5796     5771     5656     5539     5408     5229     5019     4846 
    4780     4820     4954     5155     5366     5584     5782     5872 
    5827     5729     5649     5567     5516     5544     5571     5472 
    5248     5005     4816     4650     4502     4413     4399     4455 
    4545     4608     4614     4630     4716     4822     4896     4972 
    5050     5074     5062     5077     5105     5081     5031     5085 
    5225     5312     5308     5248     5184     5196     5255     5323 
    5448     5562     5584     5593     5599     5595     5621     5640 
    5644     5703     5782     5765     5679     5616     5533     5391 
    5242     5103     4961     4806     4652     4617     4729     4830 
    4911     5123     5421     5566     5487     5362     5333     5364 
    5337     5240     5165     5088     4965     4915     5009     5127 
    5220     5321     5350     5337     5390     5422     5381     5335 
    5250     5097     5001     5005     4995     4984     5063     5157 
    5175     5161     5135     5120     5158     5238     5321     5397 
    5470     5589     5748     5845     5838     5726     5536     5397 
    5319     5170     4992     4920     4935     4939     4916     4870 
    4784     4699     4680     4726     4819     4977     5152     5267 
    5379     5530     5589     5520     5464     5428     5302     5165 
    5147     5171     5173     5271     5443     5495     5472     5536 
    5599     5547     5489     5513     5549     5602     5698     5756 
    5703     5584     5518     5517     5443     5287     5201     5201 
    5216     5275     5340     5296     5181     5107     5066     5028 
    5028     5061     5082     5113     5171     5188     5103     4988 
    4939     4927     4892     4795     4658     4602     4646     4654 
    4588     4534     4538     4615     4770     4973     5178     5343 
    5476     5609     5746     5867     5926     5945     5949     5841 
    5637     5499     5435     5346     5238     5130     5009     4938 
    4932     4966     5085     5243     5282     5161     5005     4959 
    4992     5009     5090     5269     5413     5482     5528     5549 
    5508     5373     5198     5094     5076     5093     5105     5050 
    4949     4911     4920     4874     4814     4895     5054     5107 
    5128     5263     5421     5532     5630     5670     5664     5707 
    5694     5532     5343     5188     5100     5162     5301     5448 
    5620     5759     5833     5818     5613     5287     5093     5161 
    5374     5549     5663     5826     6026     6143     6138     6022 
    5763     5339     4895     4637     4546     4523     4548     4585 
    4650     4718     4637     4449     4384     4456     4588     4788 
    4989     5081     5054     4966     4887     4880     4968     5046 
    5067     5150     5321     5499     5668     5782     5823     5887 
    5900     5734     5512     5340     5221     5239     5367     5487 
    5571     5571     5512     5521     5512     5323     5047     4860 
    4831     4927     5049     5198     5375     5449     5393     5286 
    5159     5058     5008     4999     5011     4916     4691     4552 
    4569     4633     4777     5008     5188     5269     5306     5371 
    5474     5535     5513     5454     5443     5508     5579     5670 
    5798     5840     5791     5745     5645     5543     5559     5571 
    5512     5444     5379     5390     5410     5281     5121     5013 
    4873     4796     4833     4846     4865     4981     5101     5134 
    5130     5128     5094     5022     4916     4841     4938     5189 
    5409     5475     5382     5270     5285     5370     5479     5641 
    5733     5678     5606     5572     5482     5367     5332     5352 
    5389     5427     5352     5154     4988     4888     4789     4704 
    4700     4766     4838     4888     4885     4851     4900     5016 
    5065     5054     5085     5240     5463     5544     5448     5358 
    5328     5336     5371     5368     5333     5312     5332     5432 
    5520     5547     5652     5780     5737     5597     5498     5420 
    5391     5443     5490     5521     5547     5490     5333     5138 
    4974     4959     5085     5151     5100     5098     5247     5445 
    5601     5703     5755     5772     5772     5737     5701     5667 
    5555     5418     5440     5544     5570     5582     5593     5459 
    5209     4993     4843     4822     4968     5101     5115     5152 
    5296     5440     5526     5598     5659     5683     5683     5621 
    5420     5173     5103     5239     5387     5512     5751     6068 
    6250     6193     5911     5455     5049     4943     5011     5024 
    5103     5310     5443     5394     5236     5017     4726     4399 
    4164     4032     3925     3875     3873     3835     3788     3735 
    3616     3473     3433     3558     3770     3947     4060     4132 
    4175     4207     4233     4260     4351     4495     4626     4757 
    4808     4653     4402     4216     4106     4078     4151     4333 
    4600     4822     4970     5157     5327     5428     5548     5584 
    5447     5368     5441     5512     5613     5763     5826     5915 
    6200     6548     6777     6859     6820     6778     6871     6978 
    6903     6671     6392     6161     6064     6123     6293     6458 
    6521     6546     6589     6569     6465     6309     6075     5842 
    5730     5647     5518     5456     5464     5471     5517     5545 
    5395     5121     4895     4756     4708     4758     4845     4965 
    5152     5343     5436     5441     5437     5410     5363     5370 
    5362     5260     5178     5181     5262     5468     5732     5910 
    5948     5802     5516     5248     5011     4680     4357     4240 
    4252     4317     4531     4826     5101     5382     5540     5472 
    5293     5086     4926     4926     5085     5296     5456     5520 
    5509     5435     5169     4666     4122     3708     3480     3483 
    3705     4095     4554     4876     4950     4905     4874     4862 
    4835     4735     4541     4413     4442     4503     4598     4803 
    4988     5080     5167     5275     5336     5216     4909     4626 
    4506     4591     4884     5186     5343     5413     5422     5354 
    5320     5328     5223     5000     4752     4507     4356     4421 
    4719     5116     5487     5930     6512     6987     7203     7276 
    7273     7227     7210     7172     7028     6822     6669     6624 
    6679     6737     6631     6340     6016     5722     5489     5393 
    5370     5309     5216     5098     4958     4835     4787     4816 
    4888     5076     5437     5753     5856     5814     5557     5019 
    4482     4139     3867     3663     3609     3628     3667     3748 
    3890     4090     4274     4429     4649     4881     4965     4858 
    4615     4472     4707     5254     5803     6095     6026     5703 
    5313     5046     4922     4707     4405     4303     4395     4464 
    4525     4654     4774     4930     5262     5670     5946     6070 
    6115     6064     5859     5528     5255     5235     5414     5603 
    5740     5794     5674     5412     5108     4741     4330     4032 
    3905     3856     3879     4085     4473     4838     4974     4864 
    4653     4603     4846     5215     5522     5765     6007     6316 
    6667     6895     6924     6837     6729     6646     6575     6508 
    6490     6525     6633     6922     7314     7577     7630     7512 
    7338     7234     7160     7002     6717     6277     5765     5368 
    5082     4870     4884     5097     5321     5528     5668     5621 
    5358     4927     4369     3773     3289     3018     2920     2876 
    2937     3215     3622     4027     4367     4530     4500     4352 
    4141     3993     3991     4078     4236     4509     4855     5198 
    5580     5984     6201     6075     5632     5054     4545     4249 
    4257     4513     4899     5374     5725     5711     5518     5359 
    5055     4548     4077     3801     3778     4059     4564     5094 
    5551     5907     6174     6417     6590     6556     6332     6038 
    5775     5624     5578     5555     5505     5483     5517     5432 
    5088     4567     3994     3518     3314     3456     3910     4487 
    4947     5271     5460     5466     5409     5346     5117     4679 
    4180     3848     3854     4122     4503     4996     5489     5798 
    5976     6048     5960     5842     5794     5811     5976     6305 
    6675     6990     7144     6967     6477     5929     5556     5467 
    5551     5555     5408     5217     5024     4866     4865     5030 
    5231     5412     5640     5876     6003     6099     6262     6327 
    6151     5807     5463     5355     5491     5530     5347     5193 
    5181     5231     5316     5331     5161     4914     4735     4635 
    4596     4618     4673     4718     4839     5212     5680     5798 
    5510     5069     4583     4274     4348     4583     4735     4760 
    4660     4581     4575     4488     4311     4194     4263     4554 
    4903     5054     5005     4897     4812     4896     5136     5233 
    5113     5043     5125     5246     5366     5574     5975     6531 
    7005     7221     7226     7041     6612     6092     5695     5462 
    5479     5753     5918     5717     5306     4818     4274     3770 
    3397     3240     3342     3647     4128     4648     4949     5117 
    5329     5439     5458     5537     5491     5225     5005     5013 
    5198     5408     5544     5647     5730     5734     5663     5579 
    5525     5495     5414     5285     5260     5383     5555     5761 
    5917     5872     5757     5734     5757     5827     5919     5850 
    5628     5460     5408     5397     5379     5378     5428     5506 
    5576     5578     5408     5121     4891     4746     4688     4762 
    4954     5266     5641     5903     5961     5873     5764     5661 
    5458     5058     4504     4000     3738     3731     3939     4256 
    4467     4515     4468     4326     4179     4102     4002     3840 
    3798     4008     4392     4831     5186     5198     4777     4206 
    3804     3726     4056     4633     5054     5227     5373     5501 
    5610     5841     6043     6107     6234     6378     6462     6659 
    6901     7011     7099     7184     7057     6787     6702     6820 
    6845     6629     6276     5919     5653     5528     5487     5398 
    5274     5292     5394     5343     5136     4839     4330     3638 
    3040     2656     2452     2525     2952     3523     4050     4523 
    4881     5067     5204     5316     5316     5320     5408     5400 
    5343     5474     5706     5845     5953     6075     6160     6177 
    6066     5842     5633     5497     5402     5317     5259     5278 
    5440     5798     6220     6463     6578     6771     6957     6986 
    6790     6272     5564     4953     4617     4699     5090     5408 
    5514     5572     5618     5475     5055     4550     4170     3940 
    3981     4382     4869     5165     5370     5591     5755     5892 
    5973     5734     5138     4510     4102     3967     4101     4338 
    4472     4579     4715     4639     4288     3817     3346     3132 
    3420     4101     4881     5648     6426     7082     7389     7287 
    6866     6373     6157     6228     6372     6548     6606     6282 
    5728     5293     5124     5206     5269     5035     4752     4731 
    4877     5053     5159     5074     4881     4673     4423     4257 
    4378     4774     5278     5686     5923     5921     5481     4765 
    4182     3628     2979     2646     2812     3271     3986     4758 
    5097     4911     4565     4301     4178     4244     4391     4553 
    4969     5701     6453     7059     7489     7634     7501     7283 
    7184     7252     7225     6928     6565     6311     6183     6124 
    5958     5702     5530     5454     5489     5641     5763     5854 
    5953     5891     5659     5378     5031     4752     4734     4884 
    5046     5097     4954     4758     4644     4517     4212     3689 
    3191     3028     3141     3273     3404     3595     3782     3944 
    4039     4017     3994     4028     4066     4190     4496     4907 
    5312     5649     5918     6120     6139     5950     5734     5574 
    5493     5535     5540     5398     5323     5456     5670     5794 
    5800     5772     5699     5530     5494     5773     6214     6723 
    7288     7676     7659     7279     6724     6276     6127     6106 
    5957     5722     5501     5250     5023     5007     5224     5499 
    5686     5724     5548     5185     4854     4687     4576     4399 
    4180     4086     4253     4603     4816     4676     4315     3966 
    3759     3794     4067     4394     4644     4837     4968     5078 
    5255     5410     5379     5223     5138     5125     5096     5042 
    4935     4768     4691     4799     4936     4966     4882     4784 
    4824     4896     4768     4534     4459     4677     5224     5883 
    6301     6424     6367     6195     6068     6146     6354     6502 
    6509     6453     6415     6357     6241     5979     5459     4837 
    4402     4305     4599     5155     5744     6261     6693     7091 
    7398     7348     6937     6428     5813     5057     4492     4333 
    4456     4760     5192     5655     6006     6031     5605     4930 
    4333     3888     3574     3500     3599     3626     3643     3885 
    4198     4334     4423     4568     4577     4468     4411     4340 
    4280     4421     4745     5265     6081     6932     7400     7538 
    7541     7248     6606     5968     5551     5305     5256     5462 
    5848     6203     6288     6095     5827     5548     5135     4642 
    4311     4183     4141     4131     4178     4344     4653     5008 
    5259     5329     5170     4733     4253     4051     3986     3846 
    3821     3989     4180     4399     4580     4565     4357     4000 
    3690     3759     4248     4919     5476     5719     5691     5475 
    5201     5157     5350     5472     5495     5645     5906     6123 
    6253     6228     6099     6039     5954     5644     5271     5144 
    5238     5217     4989     4833     4823     4896     5238     5787 
    6166     6318     6367     6238     5856     5435     5259     5385 
    5744     6215     6535     6593     6601     6674     6658     6447 
    6193     6025     5822     5544     5262     4950     4631     4406 
    4291     4325     4564     4814     4842     4799     4860     4916 
    4860     4768     4815     5049     5236     5290     5355     5374 
    5336     5389     5420     5246     4941     4598     4280     4143 
    4333     4800     5273     5571     5783     5988     6184     6309 
    6130     5647     5255     5104     4997     4916     5023     5202 
    5205     4961     4499     3989     3777     3964     4230     4353 
    4471     4662     4932     5356     5744     5846     5852     5852 
    5540     4958     4526     4326     4202     4290     4730     5202 
    5327     5124     4814     4523     4279     4159     4263     4536 
    4945     5540     6100     6432     6690     6876     6745     6380 
    6095     5914     5672     5436     5368     5432     5528     5626 
    5633     5578     5692     5956     6123     6112     5991     5942 
    6030     6041     5922     5892     6031     6204     6245     6107 
    5844     5421     4826     4306     4109     4186     4407     4696 
    4953     5158     5375     5557     5520     5233     4950     4823 
    4801     4824     4811     4680     4482     4355     4330     4194 
    3959     4031     4487     5008     5445     5756     5879     5881 
    5869     5791     5564     5331     5370     5815     6547     7225 
    7468     7095     6262     5343     4544     3807     3215     2995 
    3134     3445     3758     3969     4051     3971     3800     3815 
    4117     4495     4841     5208     5526     5733     5929     6130 
    6180     6037     5845     5578     5136     4779     4787     4973 
    5065     5107     5196     5227     5093     4818     4490     4224 
    4160     4403     4901     5448     5823     5917     5872     5913 
    5948     5825     5691     5663     5711     5840     5937     5961 
    6134     6446     6554     6351     6003     5634     5331     5117 
