Origin Time       2024/04/02 04:24:00
Lat.              40.133
Long.             141.712
Depth. (km)       71
Mag.              6.0
Station Code      FKS031
Station Lat.      37.3363
Station Long.     140.8087
Station Height(m) 415
Record Time       2024/04/02 04:25:54
Sampling Freq(Hz) 100Hz
Duration Time(s)  68
Dir.              N-S
Scale Factor      7845(gal)/8223790
Max. Acc. (gal)   3.398
Last Correction   2024/04/02 04:25:54
Memo.             
[...]
   19448    20025    20538    20104    20004    20426    20088    19573 
   19739    20079    20412    20633    20429    20090    20074    20178 
   19858    19538    19726    19658    19323    19542    19877    20013 
   20325    20541    20576    20637    20559    20308    19894    19565 
   19834    20214    20048    20028    20309    20156    20073    20425 
   20283    19846    20185    20493    19780    19296    19593    19583 
   19430    19855    20371    20245    19807    19870    20070    19989 
   20240    20445    20116    20231    20551    20047    19932    20683 
   20460    19560    19612    20070    20015    19692    19689    20058 
   20160    19901    19734    19855    20290    20702    20628    20395 
   20416    20240    19889    20009    20363    20386    20005    19522 
   19701    20432    20386    19639    19483    19808    19921    19884 
   19764    19508    19357    19734    20223    20007    19796    20173 
   20424    20305    19870    19619    20142    20640    20514    20329 
   20371    20208    19807    19944    20235    19716    19353    19707 
   19622    19438    19826    19693    19407    20074    20337    19662 
   19840    20660    20259    19483    19965    20741    20694    20139 
   20031    20521    20104    18999    19175    19911    19633    19449 
   20167    20513    20287    20272    20317    20132    19931    20158 
   20402    20125    20021    19857    19407    20066    20771    20019 
   19990    20787    20143    19333    19731    20170    20125    19758 
   19450    19581    20001    20452    20398    20142    20555    20679 
   19911    19726    20264    20167    19688    19831    20229    20131 
   19908    19963    19573    18978    19529    20459    20140    19410 
   19645    20082    19827    19826    20636    20976    20298    20047 
   20591    20457    19862    20124    20460    19943    19431    19515 
   19994    20426    20267    20185    20515    19975    19311    19781 
   19834    19465    19919    20250    20115    20158    20362    19989 
   19138    19797    20939    20152    19722    20710    20534    19585 
   19759    20260    20366    20501    20386    20359    20356    19591 
   19467    20210    20247    20241    20445    20078    19865    19899 
   19639    19614    19788    19749    19824    19911    19930    19996 
   19755    19762    20086    19772    19607    20159    20324    20098 
   20189    20355    20258    20056    20002    20178    20231    20011 
   20059    20200    19916    19718    19707    19523    19615    19998 
   20065    19822    19735    20015    20046    19530    19606    20343 
   20386    19988    20002    20131    20190    20239    20129    20035 
   20174    20148    19894    20086    20294    19947    19874    20243 
   20402    20191    19818    19531    19489    19824    20133    19966 
   19774    19982    20164    19793    19453    19691    19886    19816 
   19827    20054    20093    19812    20174    20498    19658    19452 
   20318    20179    19440    19842    20688    20683    20412    20509 
   20470    20110    20029    20416    20526    20197    20082    20123 
   19924    19596    19502    19750    19812    19360    19195    19784 
   20151    20098    20395    20613    20583    20688    20368    19924 
   20186    20578    20418    20056    20163    20394    20201    20241 
   20283    19714    19680    20182    19777    19183    19699    20202 
   19722    19476    20013    20308    20066    19789    19718    20205 
   20873    20783    20493    20574    20494    20052    19792    20278 
   20227    19245    19295    19570    18997    19182    19962    20326 
   20299    20125    20533    20943    20417    20038    20355    20471 
   20331    20171    19630    19296    19897    20270    19739    19549 
   19942    19881    19403    19685    20355    19674    19053    20096 
   20383    19728    20148    20417    19830    19822    20340    20506 
   20241    19901    20055    20424    20175    19876    19878    19642 
   19746    20223    20275    19944    19592    19843    20193    19909 
   19986    20046    19634    19904    20015    19672    19990    20101 
   19847    19850    19560    19448    19944    20106    19847    20050 
   20713    20779    20078    19737    20102    20306    19950    20052 
   20648    20341    19862    20054    20021    20043    20217    20213 
   20293    20004    19745    19799    19349    18976    19309    20000 
   20397    20027    19778    20081    20278    20194    19886    19797 
   20236    20637    20440    19951    20027    20351    20270    20245 
   20163    19840    19938    20270    20217    19917    19916    20317 
   20436    20036    19786    20005    20225    20186    20143    20082 
   20034    20070    19661    19083    19430    20179    20116    19607 
   19360    19475    20083    20572    20366    20250    20371    20117 
   19904    20124    20344    20217    20210    20682    20618    20012 
   20282    20929    20757    20105    19762    20197    20441    19638 
   19418    20085    19953    19677    20061    20135    20035    20110 
   20043    20093    20065    19890    19988    19890    19785    19992 
   19894    19855    20009    19913    19874    19631    19441    20070 
   20367    19813    19543    19673    19928    19988    19722    20024 
   20386    20007    20213    20659    20140    19921    20155    19975 
   20001    20185    20054    19876    19658    19558    19656    19719 
   19966    20244    20235    20260    20174    19616    19165    19635 
   20332    20065    19897    20727    21076    20513    20191    20490 
   20734    20333    19893    19927    19872    19629    19579    19456 
   19198    19392    19820    19869    20013    20387    20051    19683 
   20386    20517    19620    19754    20407    19974    19561    20251 
   20779    20279    19899    20120    20155    20178    20421    20258 
   19967    20090    20085    19681    19452    19732    20147    20175 
   20061    20155    20174    20174    20248    19943    19554    19715 
   20016    19889    19580    19622    20124    20518    20189    19575 
   19685    20247    20255    19951    19930    20104    20331    20144 
   19527    19666    20258    19816    19457    20305    20613    19975 
   19975    20436    20440    20455    20707    20490    19946    19776 
   19830    19712    19479    19449    19926    20641    20587    19872 
   20035    20515    19970    19773    20395    20480    20243    20171 
   19961    19704    19755    19873    19445    19325    20171    20372 
   19699    19750    20150    19926    19958    20466    20335    20079 
   20596    20764    19865    19186    19865    20904    20515    19410 
   19342    19797    19827    19469    19153    19434    19846    20085 
   20441    20376    20173    20607    20906    20385    19885    20274 
   20734    20260    19556    19456    19924    20218    19711    19530 
   20202    20155    19521    19827    20389    20025    19542    19700 
   20008    20120    19980    19832    20186    20547    20128    19533 
   19849    20475    20278    20043    20434    20409    19692    19529 
   19931    19608    19283    19916    20336    20201    20081    20102 
   20298    20251    20137    20185    19672    19087    19361    19890 
   20237    20750    20871    20009    19587    20209    19938    19068 
   19747    20876    20622    20115    20524    20837    20305    19889 
   20032    20170    20156    20004    19896    19866    19915    20102 
   19627    19132    19772    20228    19982    19854    20054    20205 
   19664    19456    20185    20366    19959    19915    19923    19565 
   19473    19804    19804    19980    20520    20318    19897    20218 
   20309    19764    19731    19773    19388    19896    20591    20235 
   19786    19633    19785    20351    20461    19872    19616    20299 
   20675    19877    19413    19917    20131    19777    19778    20397 
   20868    20950    20784    20125    19714    20044    20090    19872 
   19992    19894    19731    20155    20394    19877    19627    20089 
   20479    20410    20082    19932    20086    20133    19969    19840 
   19840    19840    19916    20193    20270    20035    20012    20312 
   20359    20050    20012    19935    19602    19701    19657    19475 
   20059    20525    20633    20833    20436    19720    19391    19485 
   19737    19599    19380    19604    20007    20155    19978    19863 
   19853    20110    20676    20565    20260    20884    21074    20112 
   19724    20175    20166    19801    19816    20301    20421    19573 
   19315    20183    20470    20191    20301    20455    20318    20209 
   19908    19481    20002    20607    20038    19703    20092    20061 
   19924    20328    20337    19761    20079    20579    19850    19526 
   20250    20448    20066    19896    19946    19951    19761    19836 
   20353    20245    19737    20039    20154    19626    19708    20016 
   20146    20351    19840    19341    19889    20155    19886    19715 
   19568    20237    20698    19577    19176    20051    20152    19961 
   20110    20044    19872    19656    19795    20137    19788    19408 
   19388    19232    19392    19730    19658    19568    19850    20189 
   20025    19727    19909    20164    20156    20086    20150    20267 
   20012    19765    20125    20160    19666    19834    20306    20456 
   20571    20426    20305    20403    20185    20124    20144    19720 
   19707    19966    19565    19084    19419    19989    19799    19816 
   20553    20533    20128    20287    20495    20628    20615    20765 
   20858    19882    19121    19688    19900    19090    18828    19596 
   20164    20187    20143    20355    20906    20711    19782    19808 
   20175    19826    19832    19966    19846    20548    20796    19927 
   19915    20229    20258    20829    20891    20638    20903    20358 
   19361    19279    19403    19201    19102    19373    19965    20239 
   20272    20772    20881    20382    20506    20503    19889    19966 
   20227    20046    20297    20646    20656    20808    20746    20251 
   19768    19298    19128    19179    18732    18681    19421    19368 
   18889    19323    19854    19715    19514    19695    19959    19926 
   19780    20121    20772    20876    20690    20713    20541    20528 
   20745    20166    19604    20194    20592    20278    20309    20553 
   20444    20186    20082    20027    19834    19656    19606    19711 
   19880    19804    19813    20079    19724    19114    19121    18975 
   19005    19943    20368    19958    19523    19159    19404    19592 
   18975    19141    20082    20209    20169    20540    20563    20665 
   20830    20142    19611    19834    19996    20131    19907    19737 
   20611    21127    20715    20758    21278    21573    21616    22021 
   22513    21868    20908    20787    20321    19171    18932    19553 
   19460    19206    19683    19739    19184    19086    19660    19990 
   19569    19707    20154    19360    18935    20116    21115    21189 
   21396    21940    21998    21489    20819    20236    19673    18689 
   18057    18247    18405    18690    18708    18303    18812    19299 
   18885    19197    20216    20510    20305    20642    21416    21836 
   21757    21367    20989    20595    19722    19009    18576    17637 
   17516    18517    19045    19793    20694    20551    20563    20992 
   21018    20892    20281    19657    20125    20525    20062    20251 
   21124    21062    20619    20898    20834    20036    19395    18720 
   18009    18129    18808    18985    18770    19020    19603    20046 
   20638    21406    21768    21446    20752    20146    19530    18743 
   18589    19340    19465    18960    19707    20814    20418    19427 
   19151    19878    20877    20914    20382    20244    20416    20497 
   20185    20174    21114    21693    20983    20355    20903    21589 
   21512    21207    20854    20318    19840    19903    20787    21497 
   21581    21404    20401    19333    19213    19483    20530    21702 
   21108    19746    19094    18373    17355    17096    17983    19523 
   20714    20995    21091    20865    19815    19440    20078    19938 
   19102    18967    19295    19276    19060    18862    19110    20274 
   20974    20437    20389    20853    20387    19427    18666    18607 
   19462    19720    19167    19350    19834    19499    19248    19901 
   20079    19114    18551    18728    18696    18341    18119    18414 
   19052    20155    21628    22037    21352    21271    21583    20659 
   19398    19977    21460    21659    20825    20270    19907    19321 
   19502    20561    21371    21776    21401    20524    20225    19874 
   19398    19457    19575    19688    19828    19938    20139    20159 
   20314    20472    20071    19973    20690    21227    20900    20642 
   21131    21022    19966    19367    19504    19796    20051    20329 
   20343    20109    20150    19747    18956    19126    19380    19342 
   19656    19318    19032    19353    18793    18451    19430    19967 
   19564    19336    19498    19272    18624    18974    20524    21749 
   22003    21625    21289    21516    21980    22038    21566    21068 
   20711    20443    20472    20050    19290    19786    20502    20052 
   19811    19786    18956    18185    18162    18748    20069    21699 
   22472    21837    20586    19840    19812    20347    21432    22092 
   21393    20301    19920    19986    19710    18908    18839    19935 
   20007    18042    16460    16808    17501    17779    18557    19616 
   20439    20960    20862    20518    20403    20464    20715    20575 
   20135    20264    20035    19210    19071    19237    19646    20669 
   20823    19737    19184    19971    20679    20449    20852    21671 
   20752    19489    20131    21131    20856    20070    19593    19745 
   20298    20440    20349    20322    20109    20229    20488    20326 
   20252    20113    19988    20218    19627    18651    18940    19624 
   20071    20505    20179    20170    21311    21109    19245    18779 
   19585    19113    18324    18998    19992    20567    21088    21471 
   21178    20190    20250    20745    19685    19387    20286    19797 
   19373    20160    20715    21231    21682    21054    19776    19381 
   20430    21323    21076    21041    21207    20552    20302    21041 
   21107    19878    18627    18447    18466    17767    17610    18384 
   18698    18906    19789    19965    19430    20241    21143    19823 
   18582    19294    19932    19931    20418    20452    19156    18243 
   18466    18611    18598    18638    19159    20507    20979    20237 
   19712    19603    19642    19152    18381    18630    19645    20760 
   21190    20374    19839    20445    21001    20815    20842    22017 
   22657    21635    20799    20682    20452    20335    20634    21003 
   20772    20555    21222    21608    20927    20287    20544    21293 
   21620    21050    20232    20202    20390    19901    19390    19344 
   19903    20364    19612    19037    19149    18597    18080    17766 
   17325    17601    18002    18501    19753    20278    19778    20133 
   21145    21108    20746    21294    21247    19885    19136    19530 
   19796    19599    19631    20166    20182    19225    18748    19546 
   20561    20754    20591    20692    20479    20418    20869    20607 
   20480    21244    21172    20723    21228    21307    20814    20981 
   20972    20691    20876    20565    20016    20224    20279    20066 
   20252    19958    19406    20097    21026    21053    21375    21768 
   20907    19815    20016    20682    20279    19683    19981    19630 
   18426    18200    18496    18198    18189    18974    19421    19311 
   19780    20486    20579    20294    19716    19159    18774    18516 
   18787    19087    19354    20395    21053    19974    18785    19288 
   20044    19529    19040    19160    18592    17940    18681    19498 
   19407    19931    20866    20607    19750    19691    19894    19344 
   19132    19818    19893    19631    20457    21339    20974    20908 
   21951    22087    21280    21088    21026    20698    20434    20332 
   20920    21338    20177    19600    21007    21124    19876    20143 
   20466    19813    19400    18954    18800    19132    19651    20772 
   21119    20308    20522    20965    20212    20082    20749    20895 
   20667    20206    20344    21286    21475    20660    19415    18415 
   18808    19847    19766    19273    19611    19619    18594    17887 
   18488    19508    19603    19683    20393    20524    20152    19411 
   19075    20687    21952    21262    20663    20447    20093    19845 
   19685    19664    19352    18922    19002    19661    20790    21262 
   20723    20378    19973    18836    17963    17763    17498    17882 
   19337    20341    21043    22118    22333    21658    20965    20318 
   20110    20077    19785    20162    20794    20680    20808    21080 
   20969    20888    19815    18605    19218    20212    20556    20688 
   20560    20845    21303    20480    18939    18584    19543    20325 
   19935    19257    19575    19873    19830    20723    20729    19063 
   18906    20048    19889    18860    18585    19646    20586    20389 
   20737    21456    20981    20499    20422    19479    18835    19703 
   20437    20371    20588    20892    20594    19876    19413    19543 
   19542    19170    19246    19614    19549    18889    18272    19209 
   20943    21408    21478    21654    21022    20367    19912    18974 
   18482    19464    20767    20715    19600    18797    18833    19056 
   19253    19619    19467    19481    20443    20596    19661    19326 
   19786    20236    20569    21292    22063    22137    21575    20659 
   20159    20433    20081    18705    18100    18810    19373    19187 
   19259    19970    20142    19674    19957    20571    20321    19970 
   20070    19955    19824    20116    20659    21282    21239    20115 
   19253    19603    20212    20194    19919    20243    20734    20182 
   19704    20036    19518    18739    18981    19159    18966    19151 
   19692    19836    19398    19641    20856    21192    20241    19998 
   20837    21373    21535    21492    20889    20306    19863    18877 
   18235    18663    18874    18544    18917    20206    21165    21253 
   20939    20063    19467    19911    19699    19094    19834    20638 
   20479    20410    20572    20185    19516    19380    19900    21080 
   21960    21239    20194    20173    20433    20456    20267    20514 
   21524    21864    21172    20576    20202    19738    19309    19565 
   20083    19568    19284    19743    19117    18567    19647    20727 
   20637    20088    20050    20282    19963    19255    18862    19542 
   21023    22042    22508    22779    22724    22648    22077    20403 
   19218    19268    19116    18682    18469    18717    20017    21072 
   20709    19781    18323    16922    17020    17532    17514    17999 
   18785    19184    19570    20101    20692    21095    20950    20584 
   20614    20904    20501    19419    18987    19503    19889    19699 
   19789    20380    20690    20694    20275    19302    18798    19102 
   19230    18684    18342    18922    19803    20318    20548    21258 
   22524    22716    21384    20483    20835    20796    19907    19939 
