Origin Time       2024/04/02 04:24:00
Lat.              40.133
Long.             141.712
Depth. (km)       71
Mag.              6.0
Station Code      FKS016
Station Lat.      37.1232
Station Long.     140.1910
Station Height(m) 375
Record Time       2024/04/02 04:26:04
Sampling Freq(Hz) 100Hz
Duration Time(s)  83
Dir.              N-S
Scale Factor      7845(gal)/8223790
Max. Acc. (gal)   3.619
Last Correction   2024/04/02 04:26:04
Memo.             
[...]
     913      990     1101     1314     1540     1633     1652     1695 
    1722     1686     1544     1291     1028      838      745      754 
     854     1008     1113     1124     1161     1266     1327     1304 
    1248     1205     1202     1248     1328     1431     1522     1491 
    1331     1173     1017      832      738      816     1003     1174 
    1220     1146     1098     1142     1151     1069      973      881 
     772      715      804      996     1158     1244     1259     1192 
    1075      989      974     1021     1163     1360     1470     1448 
    1404     1382     1325     1279     1355     1467     1443     1266 
    1063      945      889      791      684      774     1085     1360 
    1456     1512     1641     1715     1564     1266     1020      936 
     986     1035     1016     1003     1057     1117     1090     1011 
     961      934      930      980     1066     1189     1413     1660 
    1705     1553     1389     1210     1015     1003     1271     1622 
    1826     1823     1664     1486     1409     1304     1028      749 
     568      453      507      746     1008     1228     1416     1501 
    1463     1393     1340     1354     1478     1517     1308     1085 
    1073     1190     1328     1395     1335     1232     1185     1219 
    1347     1512     1609     1587     1476     1333     1216     1101 
     896      684      665      897     1274     1615     1795     1829 
    1769     1620     1363     1100      996     1069     1179     1208 
    1108      918      739      654      606      515      438      399 
     324      267      380      661      959     1136     1190     1302 
    1598     1960     2176     2184     2081     1906     1632     1314 
     967      642      523      662      927     1181     1340     1374 
    1331     1320     1378     1382     1250     1082      976      955 
    1036     1166     1256     1306     1348     1333     1202     1003 
     827      695      646      706      753      720      722      845 
    1035     1228     1363     1414     1460     1564     1615     1514 
    1340     1201     1158     1200     1206     1132     1105     1175 
    1212     1136     1030      950      854      810      966     1252 
    1489     1610     1607     1564     1601     1638     1543     1351 
    1147      909      635      436      437      645      942     1216 
    1394     1444     1468     1545     1566     1507     1459     1364 
    1169     1009     1020     1135     1237     1266     1162      994 
     903      908     1034     1262     1320     1097      882      893 
    1070     1289     1426     1401     1297     1200      935      459 
     120       76      149      251      454      823     1321     1822 
    2188     2327     2258     2108     1987     1883     1742     1534 
    1264     1054     1016     1098     1236     1443     1659     1764 
    1706     1534     1325     1120      951      869      857      854 
     877      954     1027     1112     1304     1476     1459     1327 
    1156      942      743      670      769      951     1140     1305 
    1354     1305     1279     1255     1200     1158     1094      985 
     955     1093     1405     1853     2204     2280     2204     1983 
    1509      988      700      633      627      533      378      365 
     496      608      711      889     1123     1263     1151      882 
     737      801      928      967      934      913      915      970 
    1074     1054      904      818      797      718      642      700 
     895     1121     1223     1147     1059     1102     1227     1351 
    1478     1606     1706     1765     1841     2003     2214     2388 
    2444     2366     2277     2191     1957     1572     1152      743 
     414      245      175       90        5       86      359      595 
     722      877     1136     1506     1865     1919     1611     1260 
    1081     1070     1237     1513     1707     1733     1698     1645 
    1485     1329     1336     1358     1286     1243     1266     1298 
    1321     1296     1216     1151     1093      880      448       62 
      20      270      560      702      648      531      523      657 
     870     1090     1316     1553     1714     1788     1880     1976 
    2047     2160     2219     2164     2166     2215     2114     1891 
    1625     1289      976      754      503      225       54       90 
     376      810     1282     1729     2070     2270     2320     2265 
    2269     2331     2241     1956     1578     1125      691      395 
     194       71      129      379      707     1054     1397     1599 
    1586     1470     1252      897      540      271      136      162 
     209      260      535     1011     1347     1516     1776     2087 
    2269     2405     2551     2575     2473     2315     1985     1437 
     839      313      -71     -206     -183     -236     -375     -473 
    -542     -537     -287      226      869     1494     1991     2363 
    2623     2766     2841     2781     2540     2330     2228     2068 
    1738     1221      603       47     -372     -584     -477      -63 
     535     1173     1710     2101     2371     2412     2069     1425 
     743      275       36     -112     -133       62      410      810 
    1198     1603     2072     2539     2830     2824     2566     2107 
    1413      621       13     -418     -816    -1021     -820     -225 
     621     1572     2484     3179     3474     3283     2646     1769 
     930      271     -130      -97      454     1282     2084     2659 
    2791     2440     1895     1422     1089      943      993     1139 
    1305     1485     1642     1722     1611     1228      660       24 
    -587     -994     -961     -453      290     1057     1767     2201 
    2164     1867     1622     1417     1185     1062     1165     1482 
    1941     2326     2454     2407     2212     1648      693     -256 
    -913    -1269    -1314    -1075     -633       48      978     2042 
    3038     3735     4051     4060     3778     3177     2301     1232 
     199     -642    -1406    -2061    -2358    -2242    -1881    -1370 
    -631      387     1595     2781     3713     4255     4382     4152 
    3624     2898     2164     1501      849      213     -365     -885 
   -1328    -1645    -1765    -1660    -1339     -749      157     1290 
    2423     3319     3858     3990     3717     3111     2228     1194 
     326     -189     -334       -5      681     1348     1791     1939 
    1749     1340      984      923     1197     1642     2133     2632 
    3118     3519     3622     3325     2860     2317     1594      945 
     735      923     1337     1930     2502     2902     3312     3832 
    4191     4104     3507     2477     1221      -12    -1055    -1674 
   -1659    -1147     -468      211      874     1518     2050     2239 
    1961     1486     1271     1389     1567     1675     1686     1557 
    1267      750       67     -526     -846     -922     -938     -885 
    -557      -47      297      376      398      503      585      522 
     367      284      310      386      569      909     1336     1710 
    1871     1761     1359      729      157     -160     -278     -284 
    -160      259      967     1545     1714     1707     1560      931 
      -2     -607     -658     -303      321     1077     1829     2498 
    3028     3311     3304     3060     2502     1553      548        5 
     -55       71      391      886     1275     1526     1691     1603 
    1327     1100      932      819      955     1474     2150     2725 
    3192     3393     3226     2926     2554     2062     1637     1377 
    1250     1202     1192     1310     1520     1649     1749     1771 
    1524     1186      996      828      568      341      264      291 
     371      568      931     1464     2110     2697     3068     3235 
    3307     3117     2371     1306      388     -217     -471     -392 
     -45      488     1039     1494     1744     1656     1309      892 
     529      297      149      102      324      768     1244     1622 
    1757     1750     1861     2023     2069     1950     1630     1240 
     953      762      707      919     1421     1971     2189     2033 
    1625      881      -24     -554     -541     -263      222     1038 
    1960     2677     3064     3046     2693     2106     1286      419 
    -201     -507     -579     -423       -8      471      706      757 
     855      962      961      897      858      885      985     1156 
    1453     1910     2286     2312     2100     1831     1483     1105 
     793      542      380      388      533      658      800     1100 
    1429     1695     1977     2100     1922     1629     1252      699 
     189      -51      -76        6        9     -153     -116      346 
    1024     1707     2242     2589     2821     2808     2385     1624 
     803      270       86      125      411      876     1165     1088 
     796      446      193      168      229      309      546      920 
    1340     1722     2026     2427     2890     3053     2779     2166 
    1463     1059      981      977     1053     1304     1590     1644 
    1339      795      301      137      274      498      936     1703 
    2506     3121     3469     3426     3026     2363     1494      608 
    -124     -576     -641     -423      -60      386      697      842 
    1089     1331     1389     1584     1991     2328     2443     2046 
    1089       76     -656    -1013     -857     -260      454     1139 
    1869     2412     2535     2463     2316     2119     2006     1894 
    1786     1804     1815     1698     1452     1092      762      650 
     774      984     1159     1323     1541     1728     1656     1458 
    1506     1782     1934     1729     1318     1050      994     1027 
    1011      922     1030     1498     2025     2268     2189     1906 
    1479      997      614      375      186       51      151      604 
    1282     1981     2475     2365     1583      703       54     -387 
    -449     -194       89      444      994     1655     2311     2768 
    2720     2199     1594     1102      666      360      378      612 
     766      805      738      405     -213     -974    -1638    -1825 
   -1378     -488      611     1767     2781     3456     3657     3338 
    2666     1988     1394      692       35     -228     -270     -405 
    -541     -437       55      923     1900     2698     3273     3545 
    3397     2956     2425     1987     1687     1468     1458     1676 
    1988     2366     2644     2651     2416     1989     1467      876 
     168     -459     -688     -415       89      460      753     1152 
    1579     1881     1873     1576     1323     1205     1140     1216 
    1286     1097      866      827      842      791      610      267 
     -90     -278     -136      353      792      828      727      855 
    1101     1321     1676     2200     2650     2768     2488     1971 
    1359      772      427      367      449      625      970     1505 
    1942     2026     1919     1750     1578     1652     1918     1952 
    1540      788       -5     -475     -452      -25      634     1385 
    2114     2637     2747     2529     2204     1753     1271     1063 
    1193     1597     2147     2467     2432     2423     2637     2706 
    2185     1169      -12    -1154    -1953    -2154    -1771     -835 
     503     1709     2228     2068     1691     1513     1647     1921 
    2118     2182     2135     1960     1718     1568     1470     1327 
    1252     1154      800      353       58      -75      -36      244 
     762     1370     1780     1827     1687     1557     1351      959 
     477      103      -32       54      379     1013     1787     2353 
    2578     2475     1987     1242      577      102     -325     -702 
    -797     -550     -210       81      413      882     1552     2270 
    2613     2482     2207     1944     1641     1336     1104      954 
     881      946     1228     1634     1966     2227     2361     2128 
    1617     1147      762      476      635     1340     2052     2334 
    2180     1599      792      179     -140     -288     -236       14 
     333      730     1296     1979     2675     3322     3842     3983 
    3534     2631     1533      513     -155     -552     -963    -1251 
   -1097     -587       91      974     1931     2640     2932     2760 
    2215     1672     1413     1294     1167     1152     1274     1329 
    1169      804      368       51       -2      255      764     1286 
    1587     1665     1602     1350      986      774      747      634 
     373      301      638     1255     1957     2583     2870     2598 
    1931     1290      934     1015     1526     1976     1946     1593 
    1136      747      643      730      834     1069     1491     1937 
    2228     2245     1880     1132      237     -463     -780     -688 
    -302      224      796     1285     1567     1664     1718     1894 
    2131     2208     2103     1873     1449      832      183     -349 
    -750    -1067    -1223    -1027     -438      380     1182     1706 
    1944     2147     2497     2975     3377     3503     3349     2911 
    2124     1135      275     -248     -413     -292      -99       41 
     253      514      711      982     1275     1256      936      588 
     314      203      309      330       49     -135      211     1042 
    2147     3327     4359     4972     4845     3994     2853     1703 
     675      -20     -368     -670    -1212    -1834    -2002    -1420 
    -282     1044     2281     3160     3389     3042     2623     2425 
    2423     2578     2663     2404     1825      984       55     -621 
    -973    -1035     -730     -166      496     1362     2475     3415 
    3688     3276     2478     1663     1183     1084     1161     1474 
    2076     2577     2705     2609     2397     2138     1942     1765 
    1580     1356      966      492       60     -434    -1012    -1506 
   -1757    -1559     -797      301     1435     2396     2934     2980 
    2694     2232     1765     1418     1232     1204     1198     1093 
     857      457      -39     -469     -726     -772     -530       41 
     837     1678     2384     2901     3265     3269     2737     1896 
    1007      194     -325     -442     -222      306     1065     1842 
    2489     2921     2964     2593     2101     1682     1277      741 
      47     -521     -673     -517     -251      179      832     1574 
    2303     2972     3465     3672     3564     3103     2297     1355 
     560       74        1      386     1051     1626     1918     2118 
    2411     2700     2790     2521     1907     1158      464      -83 
    -491     -796     -949     -862     -561     -124      461     1219 
    2084     2945     3593     3809     3564     2934     1981      828 
    -268    -1020    -1228     -892     -167      749     1526     1883 
    1948     1912     1713     1302      760      187     -279     -494 
    -426     -259      -29      535     1417     2180     2578     2681 
    2583     2442     2400     2354     2220     2077     1764      981 
    -268    -1617    -2501    -2536    -1759     -471      976     2365 
    3451     3796     3296     2427     1588      874      333       52 
     129      575     1055     1097      785      691      973     1340 
    1783     2335     2644     2548     2197     1582      824      328 
     182      237      573     1215     1923     2458     2690     2558 
    2111     1544      977      395      -14      -22      221      473 
     700      850      886      908      994     1297     1985     2934 
    3807     4357     4565     4423     3781     2639     1285       -6 
   -1139    -2033    -2558    -2600    -2097    -1131      -55      746 
    1289     1676     1721     1502     1366     1327     1339     1509 
    1709     1811     1840     1575      905      209     -176     -190 
      83      421      742     1132     1502     1744     1813     1630 
    1225      751      310      -55     -197        9      427      877 
    1335     1850     2424     2897     3030     2755     2212     1725 
    1545     1591     1687     1840     1937     1684     1078      409 
     -89     -280      -86      527     1498     2504     3121     3219 
    2851     2133     1356      799      562      635      953     1432 
    1926     2208     2262     2249     2112     1783     1409     1020 
     499      -83     -477     -359      369     1275     1830     2029 
    2169     2227     1954     1382      799      410      182        2 
     -76       94      514      967     1273     1439     1552     1645 
    1682     1742     1996     2285     2243     1884     1490     1101 
     691      352       87     -124     -256     -332     -433     -515 
    -307      341     1236     2091     2682     2913     2925     2871 
    2659     2220     1715     1296      874      213     -608    -1086 
    -891     -179      567      999     1324     1890     2450     2558 
    2238     1795     1382      907      403      137      156      348 
     645      912     1143     1471     1873     2236     2527     2625 
    2435     2195     2104     2095     2195     2363     2316     1846 
    1031      174     -467     -854     -913     -472      403     1360 
    2110     2550     2722     2739     2551     2066     1455      918 
     342     -345     -915    -1201    -1278    -1173     -754       76 
    1229     2346     2998     3092     2824     2377     1895     1493 
    1154      815      475       97     -328     -639     -643     -351 
      43      415      803     1262     1738     2141     2435     2604 
    2570     2199     1520      787      174     -245     -326        9 
     623     1281     1782     1945     1682     1237      978     1001 
    1248     1633     1950     2030     1818     1301      604      -60 
    -495     -500      -75      513     1082     1691     2366     2965 
    3306     3302     3057     2743     2330     1765     1219      777 
     465      427      625      880     1151     1422     1598     1620 
    1524     1345     1067      712      365      143      213      604 
    1089     1518     1896     2168     2232     2088     1864     1649 
    1463     1406     1529     1738     1975     2187     2295     2220 
    1854     1163      356     -213     -373     -189      249      819 
    1390     1939     2390     2546     2467     2485     2658     2682 
    2331     1603      675     -162     -772    -1167    -1223     -849 
    -237      344      801     1201     1621     1984     2099     1907 
    1567     1221      859      467      139       17      194      634 
    1150     1559     1827     1938     1814     1470     1071      749 
     517      386      378      468      635      811      893      951 
    1092     1258     1398     1561     1818     2160     2389     2324 
    2103     1976     1902     1632     1143      600      117     -228 
    -345     -143      418     1263     2218     2945     3130     2762 
    2003     1109      342     -287     -828    -1094     -926     -422 
     184      803     1489     2169     2632     2802     2662     2241 
    1782     1502     1340     1152      922      695      504      342 
