Origin Time       2024/04/02 04:24:00
Lat.              40.133
Long.             141.712
Depth. (km)       71
Mag.              6.0
Station Code      FKS002
Station Lat.      37.8453
Station Long.     140.6008
Station Height(m) 43
Record Time       2024/04/02 04:25:45
Sampling Freq(Hz) 100Hz
Duration Time(s)  75
Dir.              E-W
Scale Factor      7845(gal)/8223790
Max. Acc. (gal)   4.202
Last Correction   2024/04/02 04:25:44
Memo.             
[...]
   -9283    -9605    -9494    -9072    -8652    -8467    -8706    -9190 
   -9250    -8862    -8760    -9059    -9414    -9715    -9823    -9670 
   -9323    -8962    -8978    -9394    -9651    -9494    -9120    -8711 
   -8667    -9096    -9482    -9583    -9243    -8586    -8545    -9194 
   -9559    -9428    -9267    -9231    -9196    -9188    -9289    -9310 
   -9163    -9175    -9410    -9545    -9605    -9559    -9142    -8865 
   -9397   -10048    -9850    -9221    -8947    -9138    -9509    -9595 
   -9351    -9105    -8884    -8884    -9207    -9414    -9535    -9752 
   -9645    -9234    -9088    -9076    -8807    -8580    -8698    -9053 
   -9440    -9475    -9166    -9212    -9556    -9512    -9189    -9090 
   -9501   -10091    -9967    -9236    -8853    -9016    -9321    -9432 
   -9347    -9463    -9643    -9398    -9198    -9383    -9351    -9116 
   -9026    -8847    -8649    -8654    -8781    -8969    -9070    -9167 
   -9497    -9724    -9516    -9169    -9057    -9159    -9209    -9162 
   -9097    -9015    -9224    -9794    -9983    -9609    -9343    -9352 
   -9431    -9447    -9153    -8699    -8731    -9297    -9605    -9460 
   -9458    -9684    -9769    -9432    -8658    -8048    -8295    -9109 
   -9533    -9321    -9001    -8874    -8915    -8955    -8910    -8989 
   -9134    -9157    -9346    -9740    -9823    -9324    -8622    -8503 
   -9089    -9632    -9720    -9323    -8719    -8772    -9644   -10343 
  -10137    -9277    -8691    -8954    -9504    -9643    -9536    -9420 
   -9354    -9506    -9736    -9755    -9514    -9085    -8694    -8783 
   -9617   -10392   -10146    -9316    -8797    -8792    -9009    -9049 
   -8881    -8904    -9216    -9351    -9225    -9289    -9489    -9487 
   -9328    -9379    -9832   -10046    -9602    -9173    -9109    -9099 
   -8860    -8410    -8425    -9093    -9526    -9398    -9119    -8961 
   -9171    -9551    -9459    -9142    -9408    -9911    -9811    -9339 
   -9084    -9073    -9011    -8750    -8675    -9007    -9339    -9459 
   -9344    -8984    -8712    -8741    -9073    -9599    -9751    -9367 
   -9093    -9096    -9147    -9221    -8986    -8518    -8579    -9115 
   -9452    -9406    -9308    -9518    -9682    -9385    -9097    -9009 
   -8999    -9410    -9918    -9678    -8981    -8692    -8988    -9382 
   -9366    -9258    -9460    -9640    -9751    -9701    -9171    -8822 
   -9115    -9402    -9369    -9189    -8981    -8974    -9217    -9400 
   -9412    -9560    -9922    -9954    -9437    -8986    -9113    -9597 
   -9852    -9688    -9321    -8864    -8523    -8475    -8523    -8671 
   -8947    -9108    -9190    -9385    -9633    -9795    -9814    -9713 
   -9505    -9350    -9379    -9429    -9477    -9540    -9458    -9305 
   -9211    -9131    -9139    -9383    -9670    -9630    -9279    -8795 
   -8486    -8776    -9312    -9342    -8885    -8581    -8972    -9648 
   -9504    -8752    -8729    -9377    -9536    -9124    -8841    -8791 
   -8772    -8816    -8868    -8930    -9163    -9300    -9184    -9265 
   -9570    -9667    -9447    -9061    -8884    -9135    -9428    -9553 
   -9759    -9958    -9813    -9369    -9031    -9136    -9521    -9760 
   -9713    -9474    -9305    -9364    -9512    -9695    -9803    -9568 
   -9154    -9001    -9262    -9698    -9900    -9714    -9285    -8789 
   -8559    -9038    -9748    -9547    -8684    -8208    -8448    -9437 
  -10284    -9887    -9063    -9057    -9795   -10384   -10149    -9571 
   -9113    -8676    -8829    -9722   -10156    -9420    -8432    -8301 
   -8899    -9481    -9587    -9189    -8891    -9238    -9728    -9522 
   -8901    -8869    -9274    -9340    -9356    -9298    -8594    -8036 
   -8345    -8638    -8390    -8403    -8970    -9255    -9163    -9219 
   -9162    -8887    -8831    -8996    -9213    -9516    -9559    -9178 
   -9080    -9533    -9763    -9348    -8704    -8438    -8833    -9537 
  -10079   -10327   -10181    -9695    -9244    -8985    -8826    -8938 
   -9359    -9533    -9236    -9043    -9298    -9591    -9475    -9192 
   -9085    -9117    -9331    -9504    -9246    -8972    -9042    -9154 
   -9400    -9923   -10126    -9725    -9212    -9024    -9258    -9556 
   -9490    -9170    -9028    -9452   -10088   -10010    -9378    -9086 
   -9279    -9717   -10012    -9740    -9202    -8918    -8962    -9279 
   -9474    -9256    -9115    -9294    -9483    -9462    -8946    -8282 
   -8405    -9217    -9915    -9909    -9207    -8800    -9046    -9189 
   -9124    -9054    -8856    -8769    -9112    -9555    -9545    -9192 
   -9059    -9352    -9586    -9288    -8892    -8850    -9008    -9315 
   -9440    -9063    -8776    -9026    -9317    -8945    -8091    -7805 
   -8465    -9467   -10007    -9522    -8482    -8139    -8873    -9674 
   -9729    -9498    -9464    -9343    -9067    -8977    -9120    -9324 
   -9418    -9275    -9184    -9533    -9873    -9664    -9400    -9593 
   -9918    -9902    -9432    -8972    -9082    -9522    -9705    -9452 
   -9112    -9138    -9238    -9019    -8932    -9242    -9663    -9994 
   -9917    -9459    -9269    -9475    -9510    -9128    -8796    -8984 
   -9445    -9701    -9606    -9347    -9339    -9582    -9643    -9472 
   -9134    -8748    -8758    -8915    -8631    -8283    -8364    -8708 
   -9096    -9433    -9666    -9724    -9593    -9377    -9103    -8926 
   -9012    -9059    -9016    -9190    -9401    -9448    -9431    -9163 
   -8752    -8807    -9235    -9387    -9209    -9023    -9042    -9274 
   -9364    -9219    -9270    -9613    -9972   -10189   -10147    -9818 
   -9401    -9324    -9567    -9360    -8672    -8411    -8841    -9613 
  -10253   -10199    -9454    -8573    -8226    -8684    -9263    -9339 
   -9198    -9111    -9031    -9097    -9293    -9348    -9186    -8970 
   -9012    -9374    -9508    -9243    -9084    -9100    -9238    -9641 
   -9782    -9266    -8927    -9429   -10118   -10133    -9464    -8775 
   -8769    -9324    -9595    -9416    -9286    -9304    -9408    -9466 
   -9086    -8598    -8665    -9004    -9404    -9994   -10131    -9621 
   -9256    -9212    -9316    -9548    -9517    -9119    -8772    -8719 
   -8860    -8903    -8868    -9040    -9151    -8993    -9154    -9516 
   -9378    -9127    -9121    -9194    -9481    -9489    -8935    -8783 
   -9374    -9980    -9929    -9250    -8764    -8872    -9026    -8926 
   -8711    -8494    -8641    -9301    -9671    -9231    -8750    -8843 
   -9201    -9586    -9841    -9686    -9378    -9212    -8834    -8440 
   -8769    -9344    -9401    -9277    -9332    -9508    -9628    -9535 
   -9575   -10083   -10505   -10330    -9923    -9540    -9117    -8895 
   -8823    -8791    -9171    -9652    -9400    -8754    -8532    -8652 
   -8739    -8635    -8452    -8712    -9427    -9902    -9869    -9509 
   -9072    -8808    -8750    -8980    -9613   -10270   -10392   -10026 
   -9630    -9393    -9343    -9477    -9409    -9035    -8958    -9200 
   -9205    -9159    -9186    -8926    -8765    -9216    -9655    -9458 
   -9167    -9265    -9352    -9305    -9325    -9263    -9205    -9350 
   -9385    -9248    -9297    -9454    -9468    -9429    -9412    -9279 
   -8922    -8518    -8487    -8970    -9566    -9756    -9579    -9252 
   -8718    -8484    -8922    -9174    -8911    -8841    -9205    -9713 
   -9957    -9768    -9378    -8941    -8595    -8584    -8946    -9439 
   -9745    -9895   -10023    -9902    -9408    -8827    -8521    -8602 
   -8962    -9489    -9811    -9625    -9352    -9185    -8806    -8511 
   -8656    -9007    -9315    -9382    -9354    -9472    -9448    -9173 
   -8927    -8938    -9370    -9822    -9594    -8986    -8874    -9351 
   -9783    -9549    -8741    -8401    -9143   -10046    -9969    -9111 
   -8507    -8691    -9140    -8978    -8295    -8229    -9117    -9903 
   -9996    -9651    -9108    -8915    -9393    -9991   -10174    -9868 
   -9383    -9181    -9266    -9309    -9269    -9302    -9316    -9256 
   -9355    -9566    -9675    -9744    -9545    -8911    -8438    -8602 
   -9232    -9790    -9656    -8991    -8600    -8878    -9437    -9641 
   -9540    -9526    -9471    -9390    -9574    -9703    -9325    -8849 
   -8986    -9483    -9587    -9416    -9289    -9216    -9389    -9572 
   -9467    -9424    -9516    -9610    -9688    -9459    -9074    -9134 
   -9598    -9842    -9558    -9036    -8625    -8532    -8842    -9258 
   -9585    -9761    -9494    -8939    -8557    -8607    -9197    -9774 
   -9694    -9367    -9425    -9702    -9821    -9720    -9310    -8833 
   -8838    -8989    -8854    -8977    -9371    -9421    -9178    -8861 
   -8437    -8116    -8186    -8591    -9063    -9324    -9240    -9000 
   -8777    -8738    -9054    -9437    -9444    -9193    -9136    -9175 
   -8908    -8695    -8966    -9197    -8992    -8808    -9054    -9663 
  -10191   -10180    -9848    -9640    -9494    -9267    -9009    -8812 
   -8792    -9070    -9601    -9869    -9535    -9148    -9202    -9510 
   -9936   -10234   -10034    -9718    -9597    -9163    -8506    -8505 
   -9081    -9288    -9155    -9180    -9116    -8951    -9004    -9232 
   -9389    -9386    -9512    -9553    -9215    -9216    -9686    -9904 
   -9819    -9390    -8741    -8692    -9270    -9738    -9778    -9375 
   -8938    -8893    -9034    -9310    -9589    -9367    -9154    -9489 
   -9629    -9246    -8978    -9186    -9659    -9853    -9490    -8954 
   -8737    -9143    -9871   -10031    -9643    -9270    -8846    -8606 
   -8881    -9178    -9258    -9374    -9360    -9144    -8942    -8642 
   -8437    -8758    -9229    -9358    -9335    -9497    -9837    -9942 
   -9423    -8664    -8496    -8970    -9343    -9251    -9032    -9001 
   -9208    -9481    -9445    -9059    -8760    -8833    -9097    -9274 
   -9136    -8440    -7684    -7701    -8276    -8980    -9606    -9580 
   -9058    -8864    -9121    -9514    -9676    -9513    -9444    -9300 
   -8719    -8406    -8816    -9418    -9706    -9641    -9603    -9825 
  -10123   -10134    -9445    -8550    -8642    -9776   -10743   -10536 
   -9570    -9082    -9360    -9753    -9828    -9639    -9431    -9277 
   -9278    -9636   -10131   -10180    -9655    -9165    -9094    -9192 
   -9373    -9652    -9595    -9062    -8856    -9532   -10189    -9838 
   -9028    -8567    -8492    -8815    -9212    -9082    -8765    -8954 
   -9518    -9984   -10131    -9798    -9045    -8532    -8718    -9131 
   -9301    -9356    -9431    -9456    -9296    -8865    -8517    -8654 
   -9057    -9170    -8646    -7855    -7688    -8205    -8600    -8746 
   -9034    -9163    -9050    -9316    -9738    -9706    -9406    -9024 
   -8742    -8864    -9055    -9090    -9180    -9092    -8819    -8784 
   -8799    -8680    -8810    -9228    -9400    -9158    -8946    -8996 
   -9467   -10285   -10504    -9910    -9400    -9243    -9220    -9123 
   -9026    -9451   -10081   -10087    -9512    -8742    -8251    -8525 
   -9099    -9108    -8716    -8665    -8842    -8694    -8540    -8796 
   -9275    -9913   -10358    -9981    -9194    -8748    -8640    -8843 
   -9205    -9263    -9117    -9304    -9821    -9999    -9637    -9393 
   -9346    -9111    -9032    -9148    -9100    -9200    -9325    -9039 
   -9055    -9693   -10076    -9927    -9487    -9032    -9009    -9328 
   -9806   -10485   -10947   -10913   -10778   -10881   -10955   -10768 
  -10666   -10488    -9922    -9734   -10295   -10867   -10991   -10686 
  -10177    -9822    -9796   -10056   -10258   -10057    -9713    -9780 
  -10273   -10551   -10116    -9262    -8807    -9193    -9621    -9216 
   -8635    -8730    -9255    -9603    -9466    -9173    -9076    -8811 
   -8182    -7811    -8079    -8394    -8371    -8197    -7761    -7283 
   -7237    -7357    -7515    -7815    -7869    -7784    -7958    -7932 
   -7596    -7672    -8228    -8756    -8915    -8661    -8388    -8471 
   -8766    -8938    -8955    -8978    -9123    -9688   -10563   -10773 
  -10033    -9387    -9498    -9940   -10107    -9976    -9965   -10096 
   -9857    -9066    -8117    -7325    -6993    -7398    -8028    -8401 
   -8816    -9360    -9796    -9934    -9736    -9714   -10068   -10345 
  -10550   -10685   -10396    -9954    -9602    -9212    -9001    -8907 
   -8537    -7873    -7267    -7115    -7211    -7250    -7650    -8456 
   -8946    -8765    -8235    -7989    -8478    -9306    -9724    -9680 
   -9564    -9741   -10650   -12166   -13096   -12680   -11884   -11600 
  -11496   -11411   -11619   -12071   -12020   -10808    -9182    -8236 
   -8244    -8784    -8954    -8803    -9077    -9630   -10231   -10762 
  -10771   -10309    -9653    -9032    -9027    -9609   -10092   -10157 
   -9726    -8854    -8005    -7701    -7766    -7646    -7345    -7196 
   -7550    -8201    -8249    -7929    -8293    -9009    -9169    -8895 
   -8702    -8673    -8567    -8237    -7951    -8194    -9126   -10233 
  -10721   -10439   -10054   -10216   -10619   -10431    -9840    -9769 
  -10064   -10034    -9737    -9161    -8340    -7973    -8010    -7889 
   -7912    -8253    -8738    -9455    -9896    -9470    -8410    -7173 
   -6570    -7209    -8424    -9549   -10376   -10372    -9697    -9148 
   -8739    -8317    -8430    -9424   -10921   -12262   -12792   -12213 
  -10810    -9275    -8387    -8179    -7773    -7091    -7156    -8033 
   -8811    -9171    -9504   -10080   -10266    -9208    -7283    -5815 
   -5830    -6944    -7932    -8465    -8688    -8764    -9171    -9462 
   -9046    -8885    -9950   -11893   -13525   -13660   -12297   -10403 
   -8953    -8550    -8854    -9308    -9907   -10260   -10141   -10102 
  -10251   -10396   -10166    -8914    -7349    -7042    -7982    -8707 
   -8410    -7832    -7911    -8710    -9937   -11075   -11499   -11076 
  -10061    -8982    -8340    -7952    -7857    -8702    -9964   -10200 
   -9231    -8082    -7715    -8328    -9359   -10075   -10006    -9548 
   -9531    -9718    -9579    -9404    -9113    -8572    -8738   -10092 
  -11551   -11901   -11037    -9845    -9212    -9290    -9472    -8927 
   -7801    -7082    -7005    -7115    -7150    -7249    -7892    -9040 
  -10046   -10527   -10424   -10030    -9774    -9876   -10450   -10984 
  -10840   -10242    -9481    -8600    -7986    -7929    -8456    -9275 
   -9691    -9558    -9521    -9817    -9929    -9663    -9216    -8656 
   -8494    -8679    -8452    -8615    -9499    -9393    -8406    -8349 
   -9292   -10266   -10810   -10781   -10326    -9714    -9201    -9018 
   -9059    -9167    -9363    -9563    -9682    -9737    -9906   -10692 
  -12114   -12825   -11713    -9748    -8436    -8051    -8066    -7801 
   -7350    -7781    -9283   -10458   -10328    -9505    -8827    -8249 
   -7673    -7414    -7493    -7900    -8635    -8741    -7863    -7750 
   -9217   -10710   -11168   -10936   -10543   -10625   -11414   -11801 
  -10795    -9219    -8220    -7690    -7250    -6820    -6273    -6026 
   -6677    -7890    -9259   -10712   -11584   -11557   -11331   -11142 
  -10712   -10118    -9329    -8386    -8100    -8904    -9936   -10316 
  -10012    -9613    -9745    -9961    -9355    -8199    -7708    -8379 
   -9032    -8540    -7672    -7607    -8317    -9271   -10299   -11133 
  -11152   -10714   -10700   -10523    -9346    -7663    -6540    -6928 
   -8716   -10288   -10188    -8576    -6895    -6299    -6373    -6345 
   -6448    -6918    -7543    -8469    -9595   -10280   -10388    -9906 
   -8714    -7819    -8140    -9073   -10064   -10871   -11237   -11395 
  -11314   -10952   -10660   -10056    -8669    -7171    -6635    -7335 
   -8506    -9408    -9969   -10270   -10449   -10509   -10251    -9994 
  -10203   -10535   -10354    -9680    -9143    -9212    -9647   -10188 
  -11080   -11955   -11738   -10544    -9483    -8934    -9003    -9517 
   -9342    -8270    -7712    -8383    -9367    -9481    -8590    -7678 
   -7862    -9084   -10327   -11164   -11597   -11477   -10709    -9319 
   -8079    -7983    -8764    -9470    -9489    -8866    -8395    -8465 
   -8448    -8056    -7650    -7522    -8144    -9158    -9259    -8604 
   -8170    -7882    -7647    -7830    -8658   -10003   -11273   -12032 
  -12183   -11740   -11240   -11398   -12112   -12492   -11865   -10633 
   -9787    -9625    -9456    -8700    -8047    -8571    -9759   -10241 
   -9886    -9358    -9084    -9161    -9139    -8810    -8417    -7722 
   -6754    -6156    -6039    -6354    -7442    -8932    -9914   -10430 
  -10681   -10134    -8861    -7574    -6531    -5946    -6284    -7503 
   -8676    -8895    -8737    -9329   -10191   -10316    -9585    -8426 
   -8055    -8926    -9621    -9531    -9251    -8769    -8198    -7952 
   -8163    -9030    -9975    -9896    -9204    -8912    -8910    -8997 
   -9555   -10539   -11310   -11352   -10970   -11024   -11469   -11491 
  -10763    -9439    -8356    -8380    -8969    -9404    -9707    -9625 
   -9194    -8841    -8387    -7811    -7557    -7933    -9111   -10477 
  -11020   -10712    -9990    -9258    -8645    -7665    -6750    -7003 
   -8032    -8734    -8800    -8615    -8908    -9652    -9909    -9513 
   -9120    -8773    -8275    -8218    -9270   -10932   -11774   -10898 
   -8905    -7582    -8363   -10503   -11923   -11938   -11493   -11325 
  -11365   -11504   -11761   -11851   -11362   -10439    -9518    -8770 
   -8557    -8884    -8823    -8156    -7734    -7844    -8135    -8461 
   -8661    -8625    -9015    -9927    -9956    -8862    -8070    -7997 
   -8364    -9128    -9533    -9221    -9205    -9823   -10154    -9703 
   -8922    -8282    -7927    -8055    -8594    -9298   -10293   -11057 
  -10539    -9166    -8452    -8667    -8937    -9031    -9224    -9386 
   -9482    -9639    -9433    -8565    -7776    -7850    -8571    -9336 
   -9895   -10143   -10000    -9539    -8866    -8236    -8077    -8496 
   -8988    -9039    -8760    -8449    -8442    -9251   -10632   -11522 
  -11245   -10137    -9209    -8881    -8559    -8145    -8226    -8633 
   -8797    -8762    -8901    -9526   -10417   -10690    -9875    -8461 
   -7416    -7560    -8795    -9995   -10309   -10189    -9945    -8939 
   -7581    -7242    -8132    -9296    -9628    -9034    -8619    -8772 
   -8961    -9009    -8776    -8602    -9448   -10847   -11308   -10567 
   -9514    -8916    -8577    -8136    -8058    -8363    -8383    -8264 
   -8263    -8110    -8052    -8471    -9154    -9778   -10172   -10355 
  -10628   -11281   -12259   -12773   -11967   -10239    -8725    -8108 
   -8518    -9516   -10368   -10652   -10459   -10081    -9574    -8604 
   -7221    -6633    -7777    -9586   -10374   -10046    -9391    -8610 
   -8114    -8603    -9512    -9807    -9850   -10211   -10057    -9051 
   -8386    -8291    -8147    -8306    -8735    -8779    -8622    -8766 
   -9420   -10116    -9868    -9001    -8754    -9053    -9066    -8573 
   -7792    -7472    -8473   -10311   -11267   -10589    -9296    -8212 
   -7470    -7871    -9639   -11333   -11892   -11519   -10848   -10354 
   -9950    -9591    -9666   -10115   -10507   -10731   -10625   -10096 
   -9463    -8718    -8005    -8013    -8463    -8410    -8021    -8167 
   -8816    -8942    -8232    -7699    -7803    -8148    -8649    -8810 
   -8320    -8210    -8868    -9699   -10447   -10488    -9703    -9242 
   -9445    -9454    -8668    -7790    -8136    -9448   -10543   -10952 
