Origin Time       2024/04/02 04:24:00
Lat.              40.133
Long.             141.712
Depth. (km)       71
Mag.              6.0
Station Code      FKS007
Station Lat.      37.4061
Station Long.     140.9632
Station Height(m) 70
Record Time       2024/04/02 04:25:52
Sampling Freq(Hz) 100Hz
Duration Time(s)  78
Dir.              E-W
Scale Factor      3920(gal)/6182761
Max. Acc. (gal)   5.078
Last Correction   2024/04/02 04:25:52
Memo.             
[...]
    3411     2960     2700     2578     2067     2302     2281     1778 
    2023     1713     1205     2341     3035     2013     1933     3101 
    3282     2691     2645     3068     3253     2930     2965     3528 
    3409     2720     2204     1937     2057     1844     1264     1863 
    2687     2046     1880     3078     3302     2262     1690     2021 
    2645     2862     2607     2618     2803     2384     2079     2527 
    2721     2832     3227     2590     1672     2000     1937     1063 
    1450     2560     2622     2392     3109     3718     2941     2474 
    3615     3944     2675     2461     3014     2027     1027     1912 
    2758     2241     2009     2514     2240     1806     2494     3144 
    3446     3607     2870     2672     3270     2450     1688     2613 
    2760     1828     2044     2940     3035     2384     1896     2166 
    2086     1243     1281     1886     1886     2340     3203     2940 
    2336     2699     2746     1950     1921     2267     1958     2270 
    3413     3690     2879     2402     2805     3006     2388     2089 
    2634     2639     1767     1606     2237     2307     2164     2455 
    2392     1983     1977     1979     1720     1897     2507     2659 
    2421     2786     3235     2615     1965     2326     2585     2275 
    2574     3535     3645     2710     2402     3261     3948     3350 
    2116     2091     2975     2780     2179     2463     2763     2724 
    2789     2865     2720     2450     2854     3389     2411     1451 
    2150     2363     1760     2429     3103     2255     1820     2281 
    2050     1597     1576     1455     1886     3059     3404     2736 
    2405     2576     2682     2603     2474     2978     3844     3416 
    2449     2856     3183     2344     2136     2584     2997     3564 
    2851     1724     2553     2926     1588     1433     2495     3294 
    3569     3194     3606     4356     3036     1947     2708     2268 
    1530     2452     2332     1010      941     2024     3029     2613 
    1461     2058     3420     3086     1956     1843     2294     2251 
    2111     2279     2513     3014     3591     3698     3324     2745 
    2394     2327     2356     2344     2023     1837     1953     1595 
    1126     1350     2007     2609     2702     2781     3507     3478 
    2147     1220     1140     1486     2088     2222     2301     3028 
    3229     2350     1725     1984     2147     1735     1828     2781 
    3042     2207     2083     3165     3873     3118     1922     2088 
    2778     2469     1898     1676     2194     3334     3456     2649 
    2665     3413     3468     2620     2029     2583     3722     3810 
    2788     2578     3188     3020     2526     2605     2692     2442 
    2009     1745     2073     2490     2499     2534     2601     2345 
    1841     1544     2169     3134     2854     1901     1848     2217 
    2320     2568     2909     3229     3535     3403     3071     3090 
    3131     2880     2477     2204     2213     1846     1152     1250 
    1603     1487     1799     2442     2213     1442     1688     2622 
    2652     2150     2014     2241     2573     2604     3386     4826 
    3852     1518     1687     2831     2435     1729     1990     3121 
    3603     2492     1905     2759     3207     2859     2697     3168 
    3845     3514     2363     2031     2317     2007     1840     2720 
    3297     2511     2035     2735     2781     2212     2667     3135 
    2724     2787     3049     2509     2188     2217     2016     2368 
    2597     1609     1236     2463     2988     1865     1168     1787 
    2303     2109     1984     2163     2087     1989     2667     3622 
    3921     3529     2843     2803     3485     3433     2741     2870 
    3319     2829     2262     2802     3122     2103     1639     2618 
    2892     2070     2373     3350     2467      892     1097     2082 
    2391     2393     2767     3417     3255     2219     2007     2758 
    2684     2075     2330     2624     2312     2135     2423     2841 
    2443     1663     1872     2172     1754     1336     1056     1166 
    1615     1821     2265     2787     2688     2743     3175     3275 
    2983     2559     2552     2614     2099     2148     2788     2738 
    2601     2839     2872     2745     2769     3133     3016     1863 
    1403     2211     2662     2624     2689     2574     2211     1995 
    2319     2593     2616     3230     3302     2484     2718     2981 
    2267     2380     2805     2523     2568     2787     2692     2440 
    2219     2746     3053     2138     1907     2706     2583     1763 
    1837     2546     2388     1883     2375     2784     2311     2111 
    2877     3743     3107     1900     2455     3216     2468     2212 
    2663     2371     2161     2348     2562     3217     3415     2886 
    2696     2365     2034     2425     2488     2351     2677     2583 
    2518     2870     2199      950      686     1393     2700     3611 
    3520     3607     3746     3314     3294     3180     2536     3005 
    3854     3279     2473     2662     3351     3539     2365     1227 
    1820     2268     1238      748     1574     2457     2687     2207 
    1756     2375     3152     2410     1373     1940     3002     3192 
    3157     3659     4000     3054     1738     1656     2059     1978 
    2058     2184     1787     1724     2337     2713     2719     2711 
    2712     2792     2795     2489     2251     2406     2389     2188 
    2402     2540     2484     2705     2647     2041     1512     1760 
    2794     3059     1955     1648     2588     2479     1603     2276 
    3542     2716     1454     2661     3749     2413     1553     2273 
    2293     1528     1802     2999     3262     2483     2285     2259 
    1480     1598     2703     2707     2609     3564     3447     2255 
    2260     2939     2937     2667     2403     1933     1429     1442 
    1910     1756     1607     2790     3476     2584     2393     3227 
    3350     2665     2206     2683     3022     2401     2563     3098 
    2224     2031     3297     3381     2570     2750     3339     3038 
    2089     1862     2326     2265     2199     2831     2732     1747 
    1938     2940     2923     2451     2593     2768     2095     1552 
    2079     2333     2447     3254     3369     3036     3139     2997 
    2804     2500     2392     3386     3765     3045     3297     3584 
    2740     2481     2923     2938     2686     2336     2314     2510 
    1810     1357     2476     2899     1543     1096     2040     2165 
    1928     2372     2410     1996     2117     2673     2608     1771 
    1579     1943     1947     2039     1863     1423     2247     3536 
    2820     1401     2053     2961     2028     1171     1789     2951 
    3324     2647     2069     2412     2968     2592     2175     2908 
    3076     2073     2147     2814     2222     2165     3357     3439 
    2769     2525     1964     1965     3325     3980     2982     2488 
    3407     3522     1918     1178     2725     3935     3234     2637 
    2804     2801     2817     2640     2381     3181     4177     4016 
    3760     3964     3588     2548     1966     2456     2257      941 
    1695     3619     3393     2916     3276     2802     2429     2684 
    2981     3618     3504     2582     2685     3003     2239     1673 
    2091     2746     2749     1891     1610     2637     3166     2943 
    3077     2748     2499     3094     2793     2713     4088     3589 
    1700     2289     3115     1624      954     2369     3338     2460 
    1048     1360     2128     1260      993     1860     1450      808 
    1020      704      712     1908     2626     2546     2308     1872 
    1551     1117      693     1159     1502      943     1369     2680 
    2630     2276     2815     2715     2312     2328     2025     2069 
    2371     2148     2378     2428     1460     1600     3178     4353 
    4875     4664     3752     3145     2753     1990     1489     1504 
    1510     1920     2868     3539     3882     3961     3793     3435 
    2615     2331     2834     2627     2523     3561     4017     3750 
    4082     4206     3811     3544     2764     2033     2281     2510 
    2409     2175     2062     2438     2203     1731     2678     4049 
    4455     3688     2278     1568     1119      145      -23      787 
    1123      563      320     1368     1956      944      515     1121 
     711      205     1663     3254     3031     2568     2945     2825 
    1513       83     -223      622     1820     3266     4603     5196 
    5712     5730     4350     3159     2872     2362     1916     2131 
    2233     2035     2518     3000     2244     1674     2149     2489 
    2535     2382     1739     1253     1578     1971     1648     1762 
    2998     3875     4166     4972     5537     5242     4954     4145 
    2387      862     -115     -413      205     1040     2558     5166 
    6887     7038     6547     5014     3167     2188     1305      902 
    1374      975     -191       36     1618     2498     3048     5049 
    6565     5857     5305     5871     5719     4137     2343     1794 
    1719      -86    -2388    -1889       11      557     1177     2358 
    2549     2006     1405     1834     2992     1990      307      997 
    1352      332      958     2479     2895     3271     3904     4051 
    3776     3159     3183     3536     2012       92     -402     -914 
    -258     2263     3778     4258     4801     4303     2697     1208 
     706     1228     1896     2108     1865      948      -75      315 
    1836     2788     3421     4935     6196     5523     4088     3627 
    3619     3255     2368     1400     1542     2242     2273     2263 
    2283     1616      847      399      105      536     1684     3355 
    5725     6773     5386     4041     3279     2417     2929     4054 
    4204     4737     5343     4126     2031      627     -134     -840 
   -1354     -178     2383     3752     3860     4217     4629     4821 
    4864     4216     3136     2502     2244     2113     2085     2544 
    4493     6699     6440     4792     4598     5218     4583     2619 
    1173     1245      962      368     2250     5296     6610     6433 
    4796     2514     1742     1390      425      452      763      823 
    2194     3393     3530     4331     4297     2550     1399      353 
   -1291    -1226     1125     4069     5886     5801     5234     5143 
    4281     2306      303     -778     -887    -1103    -1266      235 
    2859     4316     4317     3844     2418      184     -827      115 
    1509     2177     3382     5693     6028     4050     3209     2791 
    1164      421      458     -138     -160      787     2317     3656 
    3038     2560     4210     3479     -237     -900      994     1501 
    1873     2036      527      -48     1313     2112     2566     3802 
    4158     3085     1986     1429     1176     1144     1904     2862 
    2388     1016      503     1489     2626     1962      243     -664 
    -462       11       52     1015     3472     4595     3390     1985 
    1275     1174     1695     2310     2582     1945      243    -1499 
   -2269    -1602     -229      983     2529     3747     2930      434 
   -1349     -191     2948     4956     5240     4909     4415     4412 
    4019     2297     2291     5363     7982     8501     8144     7416 
    5948     3756     2359     2681     3245     3107     3358     4601 
    5610     5323     4615     4720     4535     2828     1883     3262 
    4357     3528     2185     1225      348     -602     -933      524 
    2405     2409     2219     3416     4179     4167     4749     6071 
    7123     6518     4400     2004      378      743     1811     1763 
    2641     5016     6205     6076     5772     5245     5794     7334 
    6207     2582      703     1258     2388     2409     1454     2279 
    3950     3109     1659     2678     4946     5625     3858     1397 
     270      849     1642     1253      651     1287     2273     1391 
    -413      131     1789     1646     1211     1163     -543    -2178 
    -949     1182     2028     2228     2080     1580     1450     1422 
    1101     1807     3513     4605     5619     6369     5095     3126 
    1583     -934    -2893    -1815      529     1732     2204     3200 
    4465     4025     1295    -1452    -2298    -1044      782      669 
     273     2577     3516      717       89     2466     3104     2876 
    3638     3828     3018     1374     -847    -1783    -1111     -393 
     579     2656     5058     5837     4141     2860     3732     3500 
    1763     2244     4525     4813     2194     -411      -32     2011 
    2416     1518     1043      370    -1071    -2370    -2109     -316 
     555      358     1841     4214     5210     6598     9121     9570 
    7471     5260     3347     1881     2144     3783     4738     4666 
    5051     4833     2916     2148     2838     2587     2402     2958 
    3568     4361     4119     3519     4812     5732     4152     2849 
    3594     3750      902    -2078    -1420      124     -297      632 
    4057     6302     6276     5857     5648     5609     5654     4122 
     520    -2144    -1344     1219     2546     3359     5157     5911 
    4941     4697     4838     4149     4516     5205     3531     1705 
    1838     1801     1329     1994     2241     1433     2707     4948 
    3451      460      966     1681    -2198    -5519    -2601     1494 
    1744     1699     4394     6613     5543     3720     4054     5307 
    4730     2704     2144     3268     3778     2457      601      884 
    1821      180    -1109      261      397    -1406    -1692      -85 
    2081     3985     4965     4813     3724     2997     2124     -571 
   -2217     -846      699     1765     2392     1355      932     1601 
     696      964     3938     4974     4451     5227     5288     4176 
    2689     1247     2692     4696     2508     1007     3735     4654 
    2365     1251     1733     2357     2594     2985     4416     5603 
    5852     5764     4708     3071     1914     1310     1854     2711 
    1581     -517    -1355    -1672    -1693     -572      586     1231 
    2032     2682     2772     2102     1578     2594     3251     1994 
    2083     4715     5656     3616     2356     3160     4046     4345 
    5000     6553     7423     5706     2760     1277      860     -484 
    -953     1774     4407     4390     4247     5315     5576     3892 
    2983     3818     2533      402     1941     3552     1852     1125 
    2836     3309     1395     -557     -163     1573     2337     3174 
    4476     4236     3387     3451     3293     2935     2850     2090 
    1595     1949     1055      200     2133     4639     5669     5900 
    4898     3261     2756     2696     2268     2255     2188     1390 
    1293     2680     3950     3569     2126     1383     1159      194 
    -234     1107     2437     2058      250     -995      590     3749 
    5317     5254     5165     4960     3531     1208      429     1938 
    2828     1662      351     -199     -308      385     1287     1419 
    1523     1881     1619     1166     1428     2212     2888     2976 
    2437     2128     2322     1503      251      742     1743     2490 
    4293     5665     5356     4539     3120     1468      952     1155 
    1998     3436     4393     4927     4420     3053     3479     4735 
    3901     2389     1970     1537      658      320     1224     2850 
    3452     2711     2068     1897     2106     3209     4174     3601 
    3361     3985     2168     -551     -285       -1    -1682    -1913 
    -782     -807    -1632    -1650     -161      756      261     1828 
    4850     5505     5070     5259     5227     4408     3297     3993 
    5188     3660     1874     2373     3627     4469     4579     4283 
    3740     2552     1805     2125     3148     5268     6351     3936 
    1792     3484     5285     3804     1764     2259     4277     5039 
    3702     2301     2475     3068     2593     2093     3137     4160 
    3499     2307     1483     1379     2224     2973     2825     2458 
    2319     1249     -179      428     1981     2841     4357     5472 
    3466      499       62     1250     2291     2616     1708      579 
     637     1617     2116     1845     2704     4348     4022     2708 
    2963     3895     4057     3770     2829      999       -2      795 
    2136     2921     2694     2252     2734     2531      194    -1872 
   -1048     1495     3301     4347     5298     5655     4878     2923 
    1232     1240     1922     2587     3524     4095     4858     5392 
    3070      267      650     1005       16     1223     3825     5723 
    6782     5485     3281     3173     3204     2105     1828     1967 
    1668     1977     2542     2358     1966     1657     1915     2547 
    1103     -579      950     1606     -471     -434     1159     1121 
    1381     2972     3955     4181     4503     4442     3424     1881 
    1006     1639     2335     1106      569     4106     7122     4325 
      77      283     3269     4176     3052     3557     4388     2964 
    2110     1915     -199    -1198      767     2298     1877     1312 
    2383     3411     1836      235      942     1475     1247     2427 
    5138     7222     7044     6092     5902     4651     1756      326 
    1433     1940      977     1393     2630     2178     1841     3104 
    3626     2860     3312     5010     4750     2770     3221     5352 
    4496     1916     1341      942     -605     -654      546     1197 
    1889     2271     2242     2716     1911      154      784     1977 
    1331     1605     3109     2974     1441     1037     2495     2641 
    -173     -826     1865     1577     -571     1102     3821     4235 
    4562     6051     8055     8865     7299     6070     5971     3699 
     436     -701     -827      -78     1580     1822     1611     2429 
    2187      235    -1277     -311     2377     3650     3091     3113 
    3574     2457     1038     1948     3500     2892     1579     1680 
    2501     3169     3358     3315     4504     5469     3409     1720 
    3857     5153     1879    -1198      941     5069     5476     3829 
    4411     4916     1737    -1801     -723     2972     4782     5176 
    5720     5169     2925      616     -202      753     2655     4021 
    4588     5224     4978     2786      586     -189     -563     -176 
    1699     2935     2898     3914     5589     5366     3545     2903 
    3667     2588      303      528     1570      986      399      598 
    1847     3564     3442     3016     4359     5407     5425     4215 
    1363      -73      715      795      107      600     2509     3788 
    2956     2229     2720     1965      512     1120     2253     1500 
     688     1718     2859     1776     -641     -795     1458     1898 
     682     1590     3437     3412     2284     1540     1962     2579 
    1542      561     1138     1705     2927     4922     5249     4239 
    3174     2741     3406     3267     2272     2703     3516     2892 
    1880     2151     3226     3014     1708     1788     3789     5819 
    6134     4825     3847     4055     3488     1963     2337     4044 
