Origin Time       2024/04/02 04:24:00
Lat.              40.133
Long.             141.712
Depth. (km)       71
Mag.              6.0
Station Code      FKS004
Station Lat.      37.6798
Station Long.     140.7342
Station Height(m) 488
Record Time       2024/04/02 04:25:25
Sampling Freq(Hz) 100Hz
Duration Time(s)  94
Dir.              E-W
Scale Factor      7845(gal)/8223790
Max. Acc. (gal)   5.374
Last Correction   2024/04/02 04:25:26
Memo.             
[...]
  -10531   -10444   -10490   -11094   -11676   -11194   -10860   -11056 
  -10413    -9833   -10554   -11531   -11618   -10833   -10389   -10755 
  -10889   -10660   -10735   -11030   -11098   -10872   -10696   -10665 
  -10682   -11001   -11249   -10686   -10250   -10737   -10731    -9720 
   -9620   -10824   -11341   -11007   -11084   -11040   -10373   -10260 
  -10804   -10854   -10889   -11495   -11587   -10863   -10516   -11234 
  -11916   -11477   -10801   -10577   -10453   -10274   -10087   -10513 
  -11237   -11196   -11230   -11267   -10030    -9308   -10585   -11792 
  -11745   -11126   -10527   -10706   -11323   -11240   -10532   -10174 
  -10824   -11554   -11219   -10975   -11389   -10975   -10026    -9568 
   -9751   -11056   -11815   -10678   -10065   -10536   -10578   -10828 
  -11367   -11178   -10620   -10377   -10944   -11904   -11722   -10845 
  -10747   -10979   -10736   -10542   -10960   -10848   -10156   -10887 
  -11952   -11284   -10397   -10530   -10797   -10420    -9632    -9551 
  -10187   -10520   -10555   -10808   -11538   -12168   -11835   -11342 
  -11287   -10971   -10818   -11119   -10967   -10509   -10206    -9960 
  -10314   -11026   -11165   -10804   -10459   -10905   -11272   -10265 
  -10042   -11398   -11867   -10881    -9919   -10721   -12357   -11758 
  -10019   -10268   -11369   -10959    -9944    -9849   -10031   -10062 
  -10948   -12218   -12036   -10905   -10574   -10779   -10539   -10135 
  -10623   -11572   -11576   -10887    -9911    -9409   -10326   -10956 
  -10685   -11341   -12395   -11786   -10260   -10152   -11091   -11075 
  -10172    -9898   -10153   -10010   -10427   -11894   -12559   -11668 
  -10878   -11078   -11369   -11319   -11049   -10520   -10049   -10039 
  -10632   -11102   -10331    -9220    -9620   -11125   -12132   -11871 
  -10983   -10863   -11124   -10770   -10558   -10582   -10253   -10154 
  -10369   -10812   -11789   -12097   -11267   -10744   -10683   -10602 
  -10783   -11107   -10972   -10312   -10126   -10643   -10960   -11125 
  -10876    -9948   -10076   -11581   -12139   -11053    -9984    -9918 
  -10552   -11252   -11186   -10903   -11172   -10851   -10440   -10832 
  -10623   -10444   -11435   -12059   -11549   -10731   -10466   -10843 
  -10980   -10673   -10473   -10559   -10692   -10430   -10165   -10373 
  -10444   -10528   -11070   -11128   -10536   -10469   -10843   -10975 
  -11203   -11753   -12291   -12009   -10536    -9683   -10523   -11130 
  -10535    -9792    -9811   -10832   -11577   -11129   -10957   -11560 
  -11371   -10469   -10639   -11419   -11020   -10326   -10767   -11516 
  -11291   -10363   -10270   -11013   -11101   -10450   -10350   -11038 
  -11053   -10338   -10517   -11360   -11627   -11296   -10566    -9883 
  -10093   -10710   -10601    -9910    -9655   -10492   -11516   -11500 
  -11017   -10999   -11225   -11110   -10874   -11026   -11331   -11708 
  -11894   -11194   -10346   -10436   -10818   -10439    -9738    -9956 
  -10693   -10642   -10453   -10870   -11187   -11583   -12012   -11589 
  -11017   -10983   -10601    -9987   -10399   -11457   -11511   -10783 
  -10933   -11246   -10619   -10683   -11682   -11820   -10912   -10089 
  -10547   -11361   -10731    -9941   -10342   -10762   -10863   -11286 
  -11286   -10532   -10389   -11028   -11087   -10601   -10573   -10581 
  -10022    -9857   -10473   -10944   -11013   -10736   -10426   -10790 
  -11248   -11331   -11449   -11299   -11026   -10914   -10791   -10980 
  -11013   -10353   -10060   -10449   -10470   -10199   -10512   -11284 
  -11250   -10092    -9815   -11191   -11885   -10953   -10331   -10713 
  -10879   -10227    -9628   -10428   -11371   -10922   -11149   -12036 
  -11392   -10551   -10709   -10917   -10719   -10250   -10212   -10397 
  -10160   -10296   -10941   -11261   -11194   -11188   -11047   -10440 
  -10476   -11080   -10795   -10577   -11326   -11875   -11681   -10995 
  -10419   -10700   -11146   -10771   -10411   -10829   -11187   -10690 
   -9991   -10332   -11256   -11180   -10594   -11175   -12202   -12170 
  -11551   -11178   -11018   -10417    -9531    -9877   -11128   -11362 
  -10740   -10396   -10432   -10633   -10482   -10123   -10496   -10881 
  -10578   -10500   -10781   -11053   -11032   -10660   -11033   -11657 
  -11041   -10476   -10971   -11329   -10951   -10134    -9960   -10940 
  -11230   -10212   -10053   -11253   -11848   -10652    -9157    -9780 
  -11268   -11029   -10382   -10945   -11510   -11049   -10390   -10469 
  -10849   -10901   -11014   -11716   -11988   -11038   -10566   -11113 
  -10998   -10172    -9845   -10558   -11707   -11766   -10974   -11017 
  -11303   -10646    -9877    -9873   -10597   -11230   -11007   -10720 
  -11229   -11820   -11248    -9979    -9645   -10253   -10798   -10895 
  -10766   -10883   -11070   -11018   -11102   -11074   -10864   -11383 
  -12137   -12220   -11801   -11184   -10845   -10574   -10284   -10403 
  -10243   -10046   -11036   -11973   -11238   -10269   -10226   -10435 
  -10902   -11002   -10245    -9911   -10292   -10918   -11437   -11016 
  -10542   -11277   -11557   -10727   -10752   -11595   -12010   -11541 
  -10562   -10494   -10631    -9954    -9987   -10496   -10359   -10173 
  -10162   -10415   -10666   -10262    -9958   -10584   -11458   -11701 
  -11275   -10577   -10346   -10719   -10930   -11098   -11416   -11673 
  -11911   -11334   -10443   -10770   -11128   -10656   -10347   -10008 
   -9717   -10165   -10662   -10304    -9882   -10550   -11192   -10844 
  -10642   -11022   -11691   -12140   -11673   -11024   -11052   -11313 
  -11352   -11379   -11689   -11646   -10795   -10176   -10164   -10233 
  -10393   -10683   -11092   -11047   -10322   -10004   -10134    -9817 
   -9337    -9679   -10798   -11449   -11531   -12035   -12523   -12205 
  -11353   -10606   -10662   -11091   -10620    -9783   -10052   -10879 
  -10774   -10003    -9841   -10328   -10524   -10469   -10986   -11886 
  -11948   -10773   -10091   -10739   -10787    -9883   -10215   -12032 
  -12825   -11715   -10801   -11033   -11287   -10947   -10416   -10430 
  -10671   -10359   -10336   -10671   -10237    -9860   -10123   -10424 
  -11014   -11439   -11157   -11254   -11767   -11465   -10689   -10381 
  -10463   -10543   -10446   -10617   -11242   -11632   -11535   -10949 
  -10239   -10376   -10779   -10975   -11923   -12109   -10530   -10156 
  -10976   -10392    -9799   -10419   -10708   -10558   -10673   -10997 
  -11396   -11465   -11217   -10905   -10451   -10363   -10824   -11183 
  -11369   -11573   -11391   -10802   -10565   -10578   -10173    -9931 
  -10592   -11225   -11011   -10878   -11057   -10898   -10555   -10048 
  -10237   -11692   -12069   -11024   -11117   -11734   -11021    -9852 
   -9629   -10493   -11222   -11117   -11003   -10721   -10104   -10057 
  -10409   -10771   -11067   -10920   -10710   -10831   -10928   -10890 
  -10650   -10199   -10218   -10889   -11318   -10689    -9872   -10484 
  -11365   -10944   -10469   -10640   -11040   -11352   -11052   -10752 
  -10876   -10925   -10967   -10874   -10700   -11079   -11672   -11442 
  -10700   -10839   -11626   -11518   -10478    -9845   -10139   -10993 
  -11738   -10903    -9227    -9760   -11121   -10609   -10477   -11693 
  -12066   -11523   -10913   -10215   -10052   -10881   -11560   -11184 
  -10401   -10228   -10778   -11065   -10867   -10713   -10756   -11195 
  -11384   -10671   -10107   -10295   -10311   -10285   -10828   -11087 
  -10920   -10798   -10755   -11310   -11819   -11645   -11678   -11844 
  -11785   -11746   -11418   -10647    -9765    -9116    -9015    -9622 
  -10619   -11211   -11086   -10686   -10567   -10724   -10408    -9761 
  -10189   -11230   -11400   -11264   -11051   -10590   -10878   -11691 
  -12019   -11743   -11240   -10855   -10498   -10112   -10099   -10804 
  -11446   -10864    -9691    -9810   -11110   -11315   -10436   -10481 
  -10895   -10435   -10227   -10898   -11273   -11109   -11030   -11219 
  -11763   -11597   -10230    -9937   -11159   -11333   -10292   -10179 
  -11009   -11252   -10832   -10349   -10332   -10886   -10766   -10327 
  -11057   -11511   -10793   -10763   -11358   -11048   -10463   -10854 
  -11664   -11331   -10138   -10176   -11130   -11315   -11311   -11183 
  -10161    -9235    -9400   -10829   -12534   -12731   -11708   -10762 
  -10482   -10924   -10867   -10060   -10017   -10577   -10814   -10800 
  -10354   -10123   -10525   -10426   -10189   -10874   -11971   -12536 
  -11844   -10385   -10191   -11695   -12349   -11302   -10686   -10729 
  -10050    -9080    -9261   -10477   -10872   -10563   -11371   -12154 
  -11017    -9501    -9967   -11450   -11323   -10234   -10295   -10760 
  -10766   -11090   -11556   -11562   -11399   -11214   -10706    -9888 
   -9960   -11298   -11662   -10543    -9888    -9907   -10292   -10894 
  -10852   -10739   -11322   -11751   -11388   -10666   -10474   -10831 
  -11033   -11107   -11078   -10648   -10380   -10642   -10457   -10065 
  -10671   -11141   -10778   -10746   -10932   -10914   -10960   -11043 
  -11391   -11646   -10860   -10150   -10515   -10639   -10419   -10702 
  -11211   -11226   -10631   -10805   -11785   -11689   -10654   -10319 
  -10905   -11242   -10609    -9815   -10372   -11708   -11502   -10291 
  -10076   -10388   -10489   -10455   -10508   -11160   -11889   -11992 
  -11642   -10937   -10656   -11246   -11119   -10011    -9767   -10417 
  -10866   -10781   -10087    -9872   -10817   -11349   -11106   -11275 
  -11163   -10482   -10935   -12114   -12055   -11269   -11003   -10836 
  -10606   -10821   -11098   -11037   -10777   -10324   -10326   -10990 
  -11021   -10407   -10355   -10426   -10107   -10552   -11529   -11357 
  -10727   -11034   -11697   -11762   -10980   -10131   -10143   -10569 
  -10392    -9954   -10461   -11187   -10854   -10602   -11129   -11087 
  -10481   -10625   -11674   -12258   -11144   -10254   -11157   -11454 
  -10319    -9485    -9477    -9805   -10100   -10606   -10945   -10936 
  -11504   -11905   -11408   -11095   -10909   -10532   -10692   -10656 
   -9949   -10261   -11453   -11944   -11811   -11311   -10875   -10955 
  -10764   -10463   -10825   -11037   -10662   -10165   -10071   -10798 
  -11138   -10579   -10531   -10870   -10791   -10404   -10106   -10694 
  -11488   -11068   -10436   -10698   -10901   -10281    -9837   -10604 
  -11388   -10999   -10662   -11173   -11442   -10928   -10517   -11038 
  -11749   -10986    -9481    -9842   -11542   -11767   -10419    -9687 
  -10282   -10643   -10353   -10848   -11495   -11114   -11126   -11939 
  -12212   -11712   -10858   -10358   -10210    -9396    -8722    -9540 
  -10493   -10247   -10147   -11071   -11585   -11063   -10970   -11361 
  -10871   -10301   -10508   -10369   -10149   -10924   -11577   -11190 
  -10968   -11302   -10943   -10165   -10339   -10794   -10675   -10751 
  -10820   -10284   -10025   -10469   -10825   -10741   -10798   -11337 
  -11726   -11511   -10974   -10581   -11148   -11884   -11025   -10193 
  -10766   -10980   -10743   -10959   -11151   -10939   -10579   -10493 
  -10511   -10513   -10786   -11041   -11110   -11497   -11817   -11367 
  -11277   -12052   -12241   -11646   -11416   -11871   -11720   -10273 
   -9452   -10164   -10605   -10370   -10975   -12334   -12839   -12272 
  -12046   -12403   -12067   -11199   -10600    -9661    -8610    -8448 
   -8889    -9674   -10648   -11433   -12268   -12891   -12515   -11076 
   -9267    -8293    -8500    -8760    -8600    -9013   -10212   -11381 
  -12364   -13197   -13551   -13262   -12262   -10864    -9807    -9369 
   -9514    -9821    -9714    -9738   -10208   -10312   -10110   -10127 
   -9873    -9513    -9911   -10504   -10867   -11553   -12521   -13494 
  -13888   -13232   -12031   -10849    -9742    -8822    -8644    -9445 
  -10746   -11512   -10886    -9958   -10449   -11518   -11597   -11273 
  -10821    -9724    -9489   -10944   -12017   -12070   -13074   -14665 
  -14230   -12479   -11749   -11326   -10042    -8962    -8623    -7958 
   -7215    -7155    -7122    -8081   -11481   -14716   -14716   -12638 
  -11229   -11529   -12696   -13571   -13501   -12619   -11934   -11157 
   -9490    -8297    -8386    -8588    -8631    -8869    -9289    -9936 
   -9745    -8695    -9429   -11834   -12792   -12517   -13645   -15550 
  -14877   -11824    -9990    -9828    -9817    -9961    -9776    -9175 
   -9058    -9355   -10409   -12629   -14231   -13157   -10581    -9614 
  -10018    -9078    -7666    -7928    -8303    -8456   -10284   -11908 
  -11607   -11599   -12661   -13783   -14494   -13516   -10647    -8633 
   -9382   -10659    -9366    -7277    -7798    -9263    -9373   -10010 
  -12073   -13074   -12390   -12201   -12488   -11595   -10100    -9377 
   -9510    -9969   -10839   -12032   -11952   -10728   -10951   -12699 
  -13946   -14204   -13486   -11448    -9059    -7786    -7569    -7865 
   -9067   -11329   -13270   -13903   -13801   -12965   -11689   -11076 
  -10362    -9462    -9846   -10150    -9304    -9479   -10675   -10347 
   -8461    -7408    -8255   -10035   -11515   -11886   -11952   -13697 
  -15689   -14621   -12077   -11454   -12005   -11142    -9205    -8802 
   -9309    -8559    -7732    -7975    -8414    -8924   -10243   -12746 
  -15597   -15898   -12617    -9952    -9828    -9239    -8348    -9714 
  -12297   -12934   -11730   -11859   -12856   -12059   -10559    -9775 
   -8951    -8665    -9714    -9998    -8667    -8802   -11276   -13203 
  -13585   -13834   -14095   -12772    -9624    -6601    -5189    -5860 
   -7888    -9524   -11084   -13501   -15052   -14528   -13092   -11341 
   -9868   -10141   -11329   -11778   -12069   -12276   -11113    -8779 
   -7528    -8106    -8316    -8193    -9687   -10993   -10632   -10994 
  -11990   -11722   -11492   -12019   -11850   -11028   -10983   -11659 
  -10984    -9390   -10174   -12839   -13807   -13036   -12775   -12899 
  -12317   -10870    -8842    -7653    -8193    -8988    -8571    -7700 
   -8378   -10274   -11248   -12086   -13946   -14548   -12744   -10289 
   -8487    -8465   -10953   -13551   -13400   -11543   -10077    -9175 
   -9003    -9363    -9911   -11600   -13297   -13103   -12880   -13321 
  -12147   -10708   -11325   -11288    -9115    -7840    -8029    -7898 
   -8055    -9813   -12243   -13224   -12321   -10989   -10687   -11330 
  -11611   -11045   -10311   -10138   -10226    -9481    -8059    -7948 
  -10719   -14326   -14674   -12121   -10868   -11480   -11596   -11371 
  -11639   -11476   -10484    -9038    -7261    -6276    -7797   -11195 
  -13282   -12876   -12198   -11958   -11250   -11111   -12078   -12684 
  -12646   -12542   -11615    -9603    -7911    -7661    -8517    -9404 
  -10702   -12494   -12681   -11846   -12096   -11704    -9504    -8229 
   -9433   -11156   -11858   -12896   -15256   -16336   -13286    -8094 
   -5698    -7086    -8891    -9769   -10993   -12199   -12019   -11151 
  -10590   -10204   -10894   -11805   -10764    -9918   -10597   -10377 
  -10127   -11300   -11988   -11884   -11392    -9980    -9217   -10289 
  -11951   -12706   -11709   -10319   -10324   -10099    -8869    -8949 
  -10759   -12933   -13878   -12199    -9575    -9350   -11263   -12051 
  -11857   -13027   -13629   -12216   -11568   -11773   -10732    -8739 
   -7533    -9047   -11659   -11361    -9039    -7701    -7839    -9123 
  -10174   -10552   -11940   -13425   -12839   -11241   -10685   -11414 
  -11472    -9359    -7308    -6747    -6729    -8583   -11630   -12614 
  -12279   -12202   -12044   -11728   -11311   -11003   -10629    -9644 
   -8599    -9093   -10878   -12069   -13008   -13410   -11669   -10509 
  -12098   -13014   -11834   -11349   -12031   -11276    -8546    -6801 
   -7933   -10513   -12802   -13567   -11994   -10512   -11461   -12143 
  -11002   -10674   -11392   -11017    -9431    -8735   -10457   -12289 
  -12154   -12461   -13491   -12093    -9598    -9032    -9409    -9925 
  -10809   -11414   -11966   -12633   -12928   -12762   -11786   -10388 
   -9686    -9124    -8189    -7588    -7133    -6768    -7388    -9668 
  -12768   -14091   -12927   -11157    -9890   -10062   -12275   -14025 
  -12522    -9622    -9231   -10589   -10752   -10724   -11527   -11341 
  -10401   -10825   -11160    -9015    -7362    -9290   -12160   -12968 
  -12865   -13144   -12263   -10948   -11529   -12316   -11820   -10894 
   -9980    -9971   -10982   -11894   -12544   -12563   -11469   -10705 
  -10575    -9567    -8580    -8954    -9607    -9780    -9954   -10330 
  -11047   -11828   -11585   -10972   -11512   -11670    -9868    -8372 
   -9571   -12167   -13551   -13009   -11295   -10129   -10577   -11088 
  -10870   -11141   -11487   -10454    -8999    -9011    -9979   -10781 
  -11913   -12846   -11983   -10791   -10947   -11101   -10858   -10081 
   -8660    -8911   -10548   -10870   -10129    -9823   -10795   -12228 
  -11925   -10490   -10018   -10453   -11259   -11623   -10586    -9802 
  -10616   -11273   -11291   -11894   -12818   -13063   -11955    -9887 
   -8349    -8203    -9109    -9553    -8783    -8626    -9730   -10336 
  -11091   -13153   -14184   -13468   -13095   -12679   -11267   -10542 
  -11539   -12486   -12256   -12062   -11530    -9386    -7285    -6751 
   -6878    -7682   -10173   -12467   -12598   -12287   -12136   -11149 
  -10156    -9703   -10060   -12054   -13922   -13468   -12617   -13439 
  -14014   -11993    -8826    -7379    -7341    -7804    -9406   -10921 
  -10804   -10272   -10299   -10029    -9409    -9894   -11493   -12042 
  -11628   -12383   -13151   -11866   -10170   -10069   -10690   -10567 
   -9972    -9976   -10463   -10848   -11279   -11296   -10411    -9425 
   -8911    -9265   -10820   -12243   -11665   -10046   -10087   -10868 
   -9902    -8606    -9144   -10350   -10316   -10027   -11323   -13540 
  -14836   -14237   -12881   -12668   -12351   -10114    -7996    -8021 
   -9142    -9902    -9575    -9020   -10359   -12765   -13279   -11659 
  -10156   -10976   -12725   -11890   -10370   -11360   -12546   -11920 
  -10532    -9490    -9784   -10868   -10774    -9971   -10054   -10539 
  -10948   -11144   -10771   -10648   -10983   -11005   -10685   -10443 
  -10531   -10152    -9772   -11372   -13151   -12731   -12168   -12594 
  -12116   -10393    -9437   -10026   -10960   -11859   -12202   -11198 
  -10377   -10535   -10694   -11264   -11762   -10800    -9328    -8668 
   -9174   -10471   -11229   -11338   -11576   -11052    -9549    -9358 
  -11064   -12185   -11134    -9597    -9400    -8900    -7468    -7769 
  -10054   -12356   -13583   -12830   -11550   -12073   -12526   -11556 
  -11479   -12463   -12965   -13004   -11923    -9296    -8162   -10023 
  -10912    -9502    -9348   -10582   -10763   -10180   -10393   -10781 
   -9329    -8409   -11059   -13120   -12521   -12907   -12955   -11053 
  -10389   -10115    -8244    -7836   -10195   -12428   -13016   -12866 
  -12117   -10837   -10373   -10076    -9162    -9309   -10269   -11005 
  -11924   -11907   -10478    -9506   -10143   -11673   -11607    -9288 
   -7952    -9119   -11184   -12850   -13352   -12475   -11223   -10984 
  -10843    -9518    -9220   -10798   -11692   -11160   -10033    -9271 
   -9838   -10592   -10782   -11654   -12833   -12820   -11026    -8704 
   -8714   -10787   -12359   -13282   -13359   -11681    -9466    -8675 
