Origin Time       2024/04/02 04:24:00
Lat.              40.133
Long.             141.712
Depth. (km)       71
Mag.              6.0
Station Code      HKD073
Station Lat.      43.3327
Station Long.     145.6003
Station Height(m) 36
Record Time       2024/04/02 04:26:26
Sampling Freq(Hz) 100Hz
Duration Time(s)  60
Dir.              E-W
Scale Factor      3920(gal)/6182761
Max. Acc. (gal)   3.753
Last Correction   2024/04/02 04:26:26
Memo.             
[...]
   -8838    -8623    -8525    -8559    -8606    -8537    -8492    -8647 
   -8947    -9212    -9237    -9003    -8744    -8635    -8701    -8851 
   -8877    -8752    -8666    -8737    -8944    -9119    -9057    -8816 
   -8638    -8640    -8765    -8880    -8879    -8800    -8809    -8918 
   -8911    -8730    -8544    -8471    -8565    -8765    -8967    -9187 
   -9375    -9305    -8915    -8523    -8463    -8630    -8682    -8502 
   -8286    -8293    -8641    -9181    -9511    -9434    -9210    -9031 
   -8779    -8498    -8410    -8479    -8557    -8628    -8723    -8913 
   -9138    -9145    -8912    -8678    -8588    -8653    -8803    -8946 
   -9040    -9091    -9131    -9050    -8663    -8182    -8090    -8484 
   -9063    -9473    -9433    -8992    -8582    -8539    -8761    -8893 
   -8746    -8531    -8597    -8939    -9191    -9095    -8759    -8509 
   -8532    -8709    -8856    -8935    -8914    -8790    -8714    -8719 
   -8671    -8631    -8742    -8909    -8977    -8991    -9033    -9023 
   -8855    -8635    -8526    -8549    -8684    -8868    -8944    -8843 
   -8730    -8782    -8868    -8851    -8876    -8950    -8948    -8940 
   -8964    -8944    -8855    -8682    -8516    -8569    -8838    -9043 
   -8966    -8694    -8560    -8737    -8994    -9035    -8904    -8860 
   -8944    -8941    -8719    -8428    -8344    -8525    -8835    -9146 
   -9345    -9420    -9354    -9007    -8493    -8181    -8155    -8241 
   -8365    -8549    -8815    -9135    -9391    -9458    -9323    -9083 
   -8846    -8633    -8437    -8360    -8420    -8470    -8507    -8657 
   -8905    -9066    -9034    -8928    -8873    -8880    -8955    -9010 
   -8927    -8794    -8750    -8823    -8901    -8741    -8389    -8246 
   -8413    -8731    -9156    -9481    -9452    -9170    -8896    -8733 
   -8588    -8385    -8244    -8317    -8571    -8860    -9046    -9088 
   -9110    -9215    -9272    -9162    -8986    -8757    -8436    -8260 
   -8386    -8632    -8764    -8709    -8654    -8788    -9000    -9119 
   -9060    -8833    -8694    -8787    -8844    -8757    -8724    -8766 
   -8795    -8824    -8865    -8878    -8863    -8903    -8989    -8987 
   -8834    -8640    -8569    -8663    -8820    -8912    -8858    -8707 
   -8620    -8649    -8760    -8980    -9226    -9300    -9158    -8903 
   -8636    -8469    -8451    -8470    -8454    -8525    -8750    -9002 
   -9165    -9193    -9035    -8821    -8767    -8831    -8824    -8685 
   -8536    -8534    -8619    -8706    -8895    -9165    -9299    -9230 
   -9038    -8768    -8511    -8416    -8502    -8641    -8749    -8839 
   -8926    -9000    -9056    -9032    -8872    -8689    -8667    -8795 
   -8929    -9032    -9038    -8820    -8475    -8259    -8317    -8627 
   -8930    -8971    -8885    -8915    -9037    -9123    -9104    -9006 
   -8926    -8855    -8695    -8492    -8403    -8481    -8610    -8707 
   -8831    -8961    -8961    -8898    -8997    -9247    -9288    -8919 
   -8495    -8437    -8703    -8999    -9036    -8758    -8495    -8527 
   -8786    -9014    -9019    -8862    -8724    -8652    -8623    -8706 
   -8910    -9059    -9053    -8983    -8906    -8812    -8737    -8690 
   -8619    -8577    -8605    -8660    -8769    -8914    -8999    -8975 
   -8827    -8660    -8641    -8807    -9016    -9047    -8916    -8913 
   -9035    -8924    -8474    -8050    -8095    -8567    -8987    -9120 
   -9167    -9286    -9382    -9309    -8980    -8459    -8043    -8037 
   -8393    -8812    -9096    -9193    -9155    -9085    -9005    -8900 
   -8750    -8545    -8403    -8419    -8551    -8821    -9187    -9353 
   -9114    -8661    -8408    -8476    -8624    -8804    -9082    -9288 
   -9276    -9065    -8796    -8655    -8614    -8550    -8484    -8479 
   -8586    -8784    -8953    -9059    -9138    -9119    -8987    -8886 
   -8864    -8878    -8862    -8691    -8421    -8287    -8402    -8694 
   -8971    -9031    -8882    -8767    -8857    -9017    -9044    -8931 
   -8822    -8833    -8913    -8955    -8924    -8814    -8729    -8756 
   -8758    -8705    -8735    -8803    -8810    -8774    -8681    -8591 
   -8602    -8695    -8818    -8906    -8946    -9007    -9001    -8834 
   -8742    -8897    -9054    -8895    -8471    -8169    -8291    -8741 
   -9135    -9211    -9050    -8864    -8762    -8766    -8839    -8902 
   -8892    -8776    -8613    -8563    -8729    -8994    -9118    -9009 
   -8827    -8755    -8774    -8792    -8832    -8888    -8789    -8548 
   -8513    -8778    -8963    -8871    -8684    -8628    -8776    -8962 
   -9024    -9037    -9104    -9205    -9189    -8953    -8609    -8356 
   -8309    -8423    -8573    -8729    -8889    -9019    -9094    -9099 
   -9028    -8903    -8720    -8496    -8359    -8472    -8834    -9153 
   -9120    -8841    -8671    -8718    -8788    -8732    -8647    -8673 
   -8809    -9017    -9183    -9145    -8935    -8650    -8390    -8369 
   -8602    -8800    -8805    -8772    -8926    -9194    -9288    -9129 
   -8854    -8589    -8489    -8580    -8638    -8558    -8504    -8625 
   -8887    -9162    -9353    -9349    -9131    -8849    -8595    -8420 
   -8446    -8629    -8792    -8870    -8867    -8801    -8800    -8944 
   -9080    -9062    -8950    -8826    -8703    -8608    -8569    -8561 
   -8580    -8734    -9074    -9326    -9199    -8896    -8746    -8704 
   -8612    -8465    -8392    -8559    -8881    -9078    -9139    -9247 
   -9322    -9140    -8706    -8282    -8191    -8505    -8905    -8998 
   -8778    -8616    -8714    -8945    -9158    -9144    -8886    -8731 
   -8751    -8759    -8772    -8788    -8781    -8821    -8835    -8764 
   -8717    -8740    -8785    -8823    -8834    -8797    -8746    -8730 
   -8756    -8857    -9009    -9063    -8968    -8826    -8715    -8704 
   -8811    -8922    -8929    -8783    -8527    -8387    -8569    -8947 
   -9193    -9178    -9028    -8894    -8781    -8665    -8600    -8571 
   -8527    -8527    -8618    -8801    -9103    -9443    -9562    -9320 
   -8853    -8336    -8009    -8122    -8431    -8580    -8762    -9123 
   -9368    -9321    -9125    -8934    -8758    -8592    -8485    -8435 
   -8472    -8639    -8747    -8741    -8917    -9268    -9443    -9303 
   -8953    -8595    -8434    -8492    -8602    -8630    -8617    -8663 
   -8846    -9122    -9281    -9224    -9039    -8772    -8463    -8283 
   -8436    -8796    -8981    -8922    -8905    -9049    -9176    -9057 
   -8658    -8290    -8281    -8510    -8718    -8916    -9156    -9291 
   -9131    -8784    -8550    -8506    -8597    -8748    -8832    -8873 
   -9014    -9179    -9163    -8934    -8659    -8515    -8498    -8513 
   -8542    -8608    -8738    -8967    -9177    -9194    -9042    -8856 
   -8733    -8695    -8692    -8688    -8675    -8663    -8690    -8794 
   -9006    -9220    -9188    -8886    -8620    -8657    -8866    -8907 
   -8776    -8676    -8624    -8676    -8884    -9023    -8917    -8658 
   -8481    -8586    -8855    -9010    -9001    -8933    -8900    -8937 
   -8951    -8845    -8672    -8540    -8506    -8569    -8676    -8773 
   -8866    -8995    -9133    -9193    -9138    -8982    -8815    -8762 
   -8773    -8715    -8621    -8627    -8797    -9006    -9033    -8865 
   -8735    -8746    -8740    -8634    -8553    -8603    -8736    -8905 
   -9083    -9156    -9029    -8744    -8479    -8461    -8653    -8774 
   -8737    -8665    -8672    -8852    -9130    -9234    -9066    -8886 
   -8942    -9054    -8841    -8368    -8128    -8345    -8771    -9060 
   -9059    -8980    -9079    -9263    -9283    -9034    -8652    -8422 
   -8456    -8540    -8516    -8528    -8672    -8894    -9155    -9322 
   -9247    -9002    -8764    -8557    -8357    -8278    -8379    -8569 
   -8804    -9035    -9113    -9094    -9217    -9389    -9252    -8735 
   -8201    -8085    -8355    -8595    -8635    -8653    -8837    -9189 
   -9476    -9456    -9184    -8893    -8673    -8478    -8333    -8307 
   -8404    -8646    -9020    -9320    -9365    -9140    -8774    -8577 
   -8644    -8696    -8628    -8558    -8576    -8793    -9099    -9176 
   -9015    -8873    -8869    -8902    -8820    -8615    -8451    -8490 
   -8800    -9264    -9500    -9236    -8783    -8623    -8703    -8679 
   -8474    -8236    -8228    -8600    -9092    -9351    -9308    -9109 
   -8956    -8868    -8760    -8626    -8450    -8341    -8528    -8891 
   -9094    -9044    -8883    -8836    -9002    -9143    -8973    -8564 
   -8297    -8443    -8779    -8907    -8817    -8744    -8841    -9060 
   -9156    -9066    -8973    -8885    -8749    -8665    -8644    -8561 
   -8411    -8409    -8667    -8974    -9114    -9063    -8926    -8857 
   -8802    -8677    -8681    -8873    -9034    -9056    -8916    -8712 
   -8692    -8831    -8828    -8603    -8420    -8513    -8787    -8992 
   -9065    -9082    -9055    -8949    -8815    -8714    -8582    -8457 
   -8483    -8623    -8765    -8886    -8976    -9054    -9176    -9279 
   -9184    -8842    -8514    -8486    -8634    -8717    -8795    -8872 
   -8851    -8824    -8783    -8595    -8387    -8400    -8663    -9003 
   -9238    -9271    -9076    -8856    -8872    -8993    -8930    -8695 
   -8462    -8334    -8430    -8816    -9213    -9276    -9117    -8943 
   -8706    -8497    -8449    -8433    -8428    -8626    -8993    -9294 
   -9433    -9415    -9241    -8920    -8489    -8094    -7972    -8255 
   -8780    -9206    -9354    -9250    -8974    -8655    -8484    -8509 
   -8485    -8343    -8430    -8862    -9317    -9515    -9370    -8966 
   -8539    -8305    -8369    -8661    -8935    -9027    -8968    -8914 
   -8923    -8797    -8498    -8333    -8497    -8868    -9165    -9216 
   -9108    -9019    -9059    -9178    -9154    -8852    -8417    -8125 
   -8190    -8581    -8951    -9037    -8920    -8787    -8779    -8909 
   -9047    -9055    -8842    -8462    -8184    -8294    -8753    -9160 
   -9220    -9045    -8880    -8856    -8969    -9055    -8962    -8844 
   -8910    -9000    -8836    -8534    -8395    -8408    -8495    -8711 
   -8898    -8955    -9081    -9304    -9502    -9544    -9211    -8573 
   -8002    -7752    -7897    -8241    -8507    -8761    -9142    -9523 
   -9742    -9754    -9514    -9011    -8380    -7833    -7571    -7663 
   -8010    -8532    -9151    -9566    -9636    -9641    -9686    -9599 
   -9283    -8675    -7927    -7525    -7684    -8146    -8692    -9278 
   -9776    -9927    -9705    -9499    -9453    -9141    -8309    -7330 
   -6898    -7381    -8389    -9193    -9493    -9610    -9854   -10000 
   -9708    -9047    -8423    -8116    -8009    -7977    -8081    -8280 
   -8500    -8754    -9022    -9273    -9494    -9612    -9510    -9166 
   -8826    -8763    -8781    -8477    -7964    -7734    -8032    -8665 
   -9222    -9492    -9624    -9736    -9658    -9230    -8612    -8186 
   -8149    -8320    -8396    -8293    -8261    -8590    -9123    -9489 
   -9576    -9388    -9005    -8695    -8612    -8636    -8625    -8553 
   -8462    -8450    -8575    -8748    -8837    -8784    -8674    -8776 
   -9204    -9654    -9702    -9171    -8322    -7682    -7513    -7717 
   -8125    -8567    -9104   -10001   -10933   -11097   -10214    -8657 
   -7187    -6507    -6730    -7610    -8792    -9808   -10454   -10818 
  -10836   -10359    -9447    -8243    -7049    -6465    -6721    -7370 
   -8077    -8924    -9996   -11094   -11576   -10956    -9588    -8097 
   -6976    -6771    -7457    -8292    -8876    -9345    -9715    -9863 
   -9694    -9148    -8252    -7181    -6478    -6729    -7769    -8943 
   -9887   -10414   -10386   -10082    -9826    -9502    -9012    -8458 
   -7929    -7530    -7232    -7090    -7553    -8755   -10182   -11327 
  -11742   -11073    -9537    -7766    -6454    -6044    -6321    -6998 
   -8215    -9844   -11323   -12100   -11767   -10428    -8674    -6995 
   -5811    -5584    -6295    -7454    -8830   -10399   -11743   -12177 
  -11288    -9351    -7242    -5848    -5818    -7266    -9241   -10566 
  -11157   -11500   -11547   -10831    -9106    -6793    -4771    -3704 
   -3839    -5129    -7338   -10078   -12490   -13608   -13465   -12871 
  -12037   -10355    -7733    -5350    -4499    -5319    -7069    -8834 
  -10005   -10628   -10958   -10903   -10215    -8821    -7049    -5666 
   -5483    -6782    -9020   -11065   -11841   -11011    -9315    -8083 
   -8035    -8729    -9426    -9959   -10382   -10368    -9549    -8001 
   -6220    -5058    -5217    -6645    -8741   -10543   -11123   -10591 
   -9815    -9285    -8941    -8534    -8131    -8302    -9358   -10828 
  -11795   -11427    -9751    -7951    -7161    -7284    -7391    -7068 
   -7143    -8370    -9682    -9390    -7831    -6862    -7270    -8353 
   -9310   -10103   -10944   -11427   -11005   -10005    -9240    -8822 
   -8137    -7071    -6379    -6596    -7438    -8455    -9519   -10491 
  -11092   -11158   -10509    -9016    -7094    -5711    -5698    -6980 
   -8484    -9266    -9530    -9837    -9986    -9695    -9294    -8981 
   -8549    -8097    -8051    -8383    -8661    -8899    -9459   -10171 
  -10418   -10177   -10068   -10061    -9311    -7721    -6354    -6134 
   -7005    -8310    -9621   -10889   -11687   -10998    -8653    -6060 
   -4639    -4736    -6024    -7866    -9754   -11550   -12952   -13359 
  -12509   -10636    -8130    -5672    -4239    -4479    -6092    -7987 
   -9435   -10657   -12018   -13197   -13215   -11299    -7968    -4772 
   -3000    -3143    -5059    -8000   -10872   -13069   -14512   -14729 
  -13110    -9968    -6530    -4058    -3027    -3263    -4557    -6571 
   -8773   -10526   -11178   -10886   -10670   -10867   -10609    -9353 
   -8131    -8429   -10063   -11328   -10948    -9140    -7377    -6879 
   -7133    -6985    -6552    -6866    -8354   -10302   -11564   -11581 
  -10502    -8794    -7181    -6273    -6287    -7303    -8762    -9498 
   -9232    -8881    -9285   -10240   -10906   -10933   -10614   -10238 
   -9698    -8651    -7082    -5658    -5325    -6397    -8243   -10030 
  -11227   -11544   -11043    -9998    -8757    -7954    -7828    -7853 
   -7725    -7694    -7888    -8113    -8274    -8399    -8293    -7984 
   -8176    -9311   -10817   -11836   -11822   -10656    -8888    -7596 
   -7644    -8795    -9612    -8821    -6879    -5513    -5729    -7101 
   -8627    -9763   -10787   -11899   -12341   -11183    -8608    -6008 
   -4915    -5661    -7353    -9258   -11184   -12834   -13585   -12523 
   -9709    -6998    -5908    -6170    -6706    -6631    -6365    -7284 
   -9353   -11405   -12900   -13352   -12327   -10555    -9017    -7628 
   -6001    -4632    -4654    -6478    -8954   -10388   -10388   -10011 
  -10111   -10430   -10144    -8928    -7645    -7403    -8121    -8816 
   -8578    -7285    -6053    -6128    -7545    -9513   -11196   -12062 
  -11986   -11213   -10248    -9124    -7290    -5119    -4144    -5113 
   -7105    -8893   -10243   -11363   -11885   -11310    -9756    -7913 
   -6728    -6622    -7128    -7876    -9070   -10698   -12115   -12505 
  -11587    -9841    -7962    -6403    -5504    -5498    -6331    -7780 
   -9496   -10932   -11704   -11778   -10862    -8737    -6372    -5251 
   -5659    -6532    -7209    -8535   -10985   -13129   -13440   -12000 
   -9920    -7797    -5315    -3208    -3671    -7066   -10793   -12530 
  -12594   -12619   -12865   -11953    -9212    -5890    -4030    -4643 
   -6583    -7826    -8170    -9220   -11349   -12614   -11560    -9299 
   -7852    -7686    -7593    -6699    -5915    -6630    -8577   -10157 
  -10424    -9981    -9973   -10554   -10781    -9907    -8283    -7145 
   -7376    -8336    -8899    -9132    -9518    -9828    -9705    -9112 
   -8139    -7121    -6574    -6736    -7548    -8839   -10097   -10701 
  -10682   -10358    -9663    -8573    -7270    -5954    -5129    -5497 
   -7519   -10745   -13366   -13653   -11868    -9974    -9478    -9681 
   -8729    -6232    -3696    -2992    -4825    -7944   -10403   -11740 
  -12633   -13235   -13231   -12443   -10780    -8379    -5939    -4468 
   -4422    -5326    -6470    -7737    -9430   -11248   -12289   -12315 
  -11681   -10541    -9141    -7933    -7082    -6325    -5509    -5297 
   -6594    -9155   -11758   -13322   -13206   -11472    -9192    -7532 
   -6580    -5924    -5683    -5871    -6257    -7274    -9154   -11083 
  -12205   -12023   -10467    -8468    -7374    -7474    -7647    -6992 
   -6444    -7485    -9726   -11444   -11689   -10715    -9401    -8572 
   -8224    -7705    -6908    -6533    -7026    -8342   -10203   -11766 
  -12159   -11314    -9800    -8371    -7358    -6565    -6081    -6292 
   -7240    -8628    -9934   -10567   -10404    -9893    -9356    -8710 
   -8112    -8063    -8753    -9725   -10142    -9857    -9615    -9474 
   -8644    -7153    -5984    -5913    -6994    -8582   -10010   -11203 
  -12067   -12094   -11043    -9177    -7016    -5312    -4794    -5560 
   -7063    -8911   -10916   -12449   -12792   -11869   -10040    -7742 
   -5865    -5445    -6429    -7827    -8974    -9629    -9548    -8928 
   -8548    -8920    -9578    -9621    -9008    -8524    -8562    -8802 
   -8873    -8805    -8918    -9335    -9552    -9026    -8113    -7693 
   -8164    -9184   -10017   -10109    -9593    -9148    -9029    -8679 
   -7796    -6942    -6674    -7061    -8130    -9777   -11440   -12358 
  -11928   -10272    -8511    -7594    -7169    -6420    -5500    -5383 
   -6605    -8821   -11245   -12729   -12549   -11537   -10765    -9980 
   -8572    -6601    -4700    -3817    -4554    -6631    -9180   -11431 
  -12962   -13254   -12003   -10046    -8710    -8208    -7705    -6974 
   -6756    -7434    -8464    -9044    -8884    -8432    -8298    -8616 
   -9230    -9895   -10241   -10199    -9950    -9401    -8439    -7246 
   -6390    -6606    -7807    -8893    -9145    -9149    -9771   -10701 
  -10873    -9971    -8799    -8280    -8420    -8524    -8256    -7892 
   -7674    -7675    -8095    -9069   -10302   -11048   -10762    -9827 
   -8889    -8079    -7401    -6794    -6399    -6907    -8389    -9810 
  -10337   -10041    -9683    -9938   -10399   -10127    -9110    -8212 
   -7951    -8039    -7925    -7389    -6956    -7402    -8737   -10335 
  -11436   -11439   -10496    -9288    -8280    -7631    -7176    -6616 
   -6211    -6701    -8386   -10546   -11775   -11307    -9802    -8393 
   -7740    -7977    -8578    -8689    -8319    -8406    -9141    -9515 
   -9093    -8705    -8960    -9339    -9217    -8920    -8972    -9141 
   -8950    -8385    -7919    -7970    -8236    -8144    -7941    -8412 
   -9543   -10388   -10357    -9799    -9055    -8068    -7013    -6435 
   -6879    -8240    -9568   -10079    -9928    -9794    -9997   -10055 
   -9412    -8352    -7581    -7549    -8316    -9296    -9652    -9206 
   -8424    -7778    -7543    -7933    -8921    -9916   -10152    -9613 
   -9078    -9039    -9276    -9497    -9499    -9004    -8151    -7481 
   -7243    -7408    -7929    -8560    -8872    -8852    -8949    -9155 
   -9066    -8855    -9017    -9467    -9656    -9312    -8692    -8182 
   -8101    -8680    -9509    -9465    -8232    -7224    -7736    -9181 
  -10194   -10069    -9008    -8156    -8404    -9164    -9441    -9115 
   -8596    -8281    -8373    -8807    -9282    -9428    -9306    -9465 
