Origin Time       2024/04/02 04:24:00
Lat.              40.133
Long.             141.712
Depth. (km)       71
Mag.              6.0
Station Code      HKD092
Station Lat.      42.9283
Station Long.     143.4485
Station Height(m) 17
Record Time       2024/04/02 04:26:00
Sampling Freq(Hz) 100Hz
Duration Time(s)  60
Dir.              N-S
Scale Factor      7845(gal)/8223790
Max. Acc. (gal)   7.033
Last Correction   2024/04/02 04:26:00
Memo.             
[...]
   -6566    -6635    -6492    -6320    -6307    -6353    -6281    -6173 
   -6185    -6276    -6334    -6353    -6376    -6382    -6367    -6354 
   -6319    -6269    -6216    -6111    -5998    -6006    -6150    -6322 
   -6453    -6547    -6586    -6588    -6604    -6563    -6411    -6245 
   -6135    -6053    -5996    -5975    -5938    -5879    -5907    -6100 
   -6380    -6617    -6759    -6791    -6681    -6489    -6342    -6223 
   -6026    -5779    -5699    -5975    -6467    -6802    -6821    -6708 
   -6629    -6546    -6403    -6219    -5980    -5728    -5670    -6008 
   -6573    -6936    -7001    -6959    -6786    -6442    -6146    -6023 
   -5958    -5880    -5827    -5894    -6107    -6297    -6291    -6180 
   -6137    -6215    -6432    -6759    -7006    -7015    -6828    -6531 
   -6160    -5848    -5775    -5958    -6257    -6496    -6589    -6593 
   -6598    -6571    -6384    -5998    -5611    -5510    -5737    -6096 
   -6384    -6450    -6327    -6312    -6504    -6648    -6640    -6575 
   -6467    -6342    -6322    -6423    -6520    -6546    -6507    -6353 
   -6138    -6069    -6187    -6339    -6417    -6380    -6327    -6351 
   -6370    -6347    -6326    -6270    -6164    -6079    -6092    -6228 
   -6475    -6681    -6623    -6430    -6370    -6365    -6286    -6212 
   -6158    -5995    -5814    -5886    -6143    -6280    -6259    -6235 
   -6222    -6189    -6220    -6367    -6463    -6367    -6212    -6207 
   -6359    -6508    -6539    -6536    -6586    -6608    -6513    -6342 
   -6123    -5837    -5643    -5782    -6118    -6278    -6254    -6331 
   -6573    -6820    -6961    -6930    -6620    -6052    -5586    -5528 
   -5729    -5903    -5962    -6037    -6338    -6774    -7009    -6955 
   -6716    -6447    -6346    -6370    -6288    -6031    -5767    -5748 
   -5977    -6208    -6359    -6481    -6550    -6548    -6529    -6561 
   -6532    -6292    -5962    -5737    -5702    -5900    -6183    -6311 
   -6292    -6304    -6440    -6646    -6824    -6840    -6617    -6330 
   -6123    -5931    -5798    -5881    -6093    -6207    -6234    -6382 
   -6754    -7117    -7140    -6802    -6347    -5999    -5869    -5845 
   -5732    -5620    -5833    -6415    -6914    -7022    -6944    -6779 
   -6390    -5918    -5660    -5633    -5745    -5987    -6232    -6319 
   -6366    -6543    -6782    -6955    -6993    -6855    -6596    -6308 
   -6002    -5643    -5297    -5175    -5416    -5917    -6470    -6929 
   -7234    -7357    -7272    -6949    -6404    -5850    -5602    -5737 
   -6042    -6278    -6335    -6239    -6096    -5980    -5902    -5852 
   -5879    -6052    -6250    -6262    -6129    -6112    -6340    -6678 
   -6994    -7252    -7302    -7063    -6758    -6620    -6650    -6731 
   -6737    -6502    -5981    -5435    -5155    -5174    -5414    -5836 
   -6363    -6817    -6949    -6758    -6532    -6447    -6439    -6400 
   -6257    -6143    -6289    -6604    -6799    -6801    -6705    -6538 
   -6280    -6070    -6061    -6107    -6000    -5834    -5836    -6115 
   -6585    -6997    -7101    -6808    -6362    -6096    -6000    -5930 
   -5891    -5969    -6199    -6467    -6671    -6785    -6685    -6408 
   -6269    -6416    -6667    -6725    -6409    -5917    -5641    -5688 
   -5948    -6264    -6412    -6322    -6180    -6096    -6006    -5930 
   -5967    -6077    -6162    -6200    -6264    -6465    -6747    -6902 
   -6902    -6902    -6948    -6841    -6443    -6031    -5892    -5888 
   -5836    -5876    -6151    -6444    -6477    -6367    -6323    -6346 
   -6458    -6620    -6640    -6480    -6214    -5907    -5746    -5798 
   -5887    -6030    -6335    -6598    -6602    -6519    -6582    -6674 
   -6516    -6075    -5609    -5439    -5566    -5733    -5937    -6369 
   -6929    -7339    -7485    -7411    -7227    -6959    -6548    -6127 
   -5944    -5960    -5918    -5756    -5649    -5688    -5719    -5652 
   -5725    -6087    -6426    -6497    -6477    -6489    -6393    -6184 
   -6052    -6022    -6043    -6177    -6474    -6893    -7149    -6976 
   -6573    -6224    -5964    -5857    -6018    -6389    -6702    -6710 
   -6480    -6274    -6196    -6165    -6187    -6362    -6562    -6562 
   -6413    -6305    -6276    -6296    -6381    -6507    -6550    -6440 
   -6219    -5975    -5775    -5645    -5609    -5691    -5853    -6002 
   -6139    -6393    -6725    -6928    -6910    -6723    -6574    -6648 
   -6748    -6633    -6427    -6299    -6157    -5987    -6034    -6311 
   -6470    -6339    -6129    -6112    -6231    -6320    -6454    -6644 
   -6733    -6687    -6583    -6511    -6512    -6431    -6147    -5850 
   -5657    -5501    -5491    -5701    -5938    -6084    -6246    -6451 
   -6600    -6739    -6883    -6859    -6693    -6582    -6519    -6415 
   -6231    -6026    -5903    -5841    -5927    -6331    -6744    -6669 
   -6224    -5938    -6056    -6388    -6586    -6600    -6624    -6612 
   -6408    -6131    -5949    -5873    -5927    -6108    -6253    -6274 
   -6367    -6596    -6729    -6656    -6507    -6454    -6543    -6674 
   -6736    -6610    -6207    -5725    -5463    -5462    -5691    -6091 
   -6432    -6671    -6944    -7186    -7165    -6817    -6409    -6235 
   -6235    -6193    -6016    -5767    -5571    -5578    -5846    -6127 
   -6249    -6485    -6910    -7140    -6978    -6673    -6532    -6504 
   -6276    -5877    -5678    -5757    -5931    -6103    -6255    -6426 
   -6578    -6581    -6430    -6214    -5984    -5892    -6075    -6362 
   -6482    -6478    -6602    -6878    -7114    -7133    -6879    -6462 
   -5942    -5414    -5242    -5598    -6170    -6608    -6789    -6755 
   -6562    -6261    -6026    -6003    -6104    -6189    -6178    -6010 
   -5841    -5950    -6241    -6517    -6872    -7226    -7290    -7033 
   -6621    -6241    -5971    -5773    -5674    -5717    -5783    -5795 
   -5918    -6246    -6606    -6808    -6847    -6852    -6843    -6723 
   -6467    -6208    -6157    -6269    -6232    -6077    -6092    -6276 
   -6443    -6531    -6623    -6751    -6743    -6517    -6166    -5718 
   -5313    -5179    -5351    -5761    -6270    -6678    -6944    -7095 
   -7060    -6858    -6644    -6485    -6326    -6219    -6147    -5957 
   -5792    -5899    -6149    -6338    -6459    -6542    -6575    -6544 
   -6421    -6124    -5680    -5348    -5336    -5555    -5823    -6137 
   -6582    -7053    -7218    -6936    -6474    -6157    -6049    -6050 
   -6104    -6166    -6196    -6316    -6592    -6839    -6960    -7030 
   -7056    -6902    -6455    -5908    -5653    -5748    -5888    -5931 
   -6010    -6230    -6601    -6994    -7096    -6852    -6543    -6291 
   -6061    -5923    -5914    -5980    -6095    -6253    -6324    -6151 
   -5856    -5724    -5842    -6107    -6380    -6548    -6639    -6710 
   -6706    -6589    -6447    -6390    -6427    -6424    -6320    -6218 
   -6099    -5946    -5979    -6183    -6176    -5900    -5740    -5907 
   -6214    -6451    -6670    -6912    -7003    -6822    -6400    -5883 
   -5566    -5539    -5611    -5759    -6131    -6659    -7087    -7308 
   -7322    -7017    -6419    -5886    -5664    -5616    -5624    -5825 
   -6195    -6405    -6342    -6319    -6523    -6745    -6794    -6697 
   -6527    -6343    -6187    -6079    -6116    -6320    -6450    -6370 
   -6363    -6544    -6651    -6733    -6937    -6991    -6714    -6203 
   -5587    -5105    -4976    -5209    -5620    -6120    -6785    -7350 
   -7446    -7245    -7113    -6979    -6640    -6205    -5794    -5418 
   -5290    -5580    -6064    -6372    -6361    -6189    -6135    -6322 
   -6642    -6976    -7281    -7406    -7121    -6451    -5773    -5427 
   -5382    -5454    -5587    -5842    -6165    -6376    -6428    -6423 
   -6392    -6355    -6394    -6505    -6608    -6670    -6669    -6509 
   -6157    -5867    -5948    -6332    -6673    -6739    -6637    -6571 
   -6575    -6598    -6581    -6478    -6311    -6154    -6088    -6087 
   -6064    -6052    -6048    -5964    -5854    -5884    -6083    -6295 
   -6405    -6563    -6924    -7210    -7034    -6558    -6178    -5981 
   -5925    -5917    -5849    -5772    -5764    -5814    -5892    -5999 
   -6183    -6407    -6589    -6731    -6907    -7053    -6940    -6592 
   -6286    -6214    -6399    -6562    -6466    -6305    -6169    -5995 
   -5904    -5873    -5738    -5614    -5756    -6118    -6374    -6438 
   -6546    -6783    -6972    -6949    -6712    -6350    -5964    -5717 
   -5757    -6048    -6342    -6447    -6486    -6681    -6968    -7088 
   -6922    -6675    -6581    -6562    -6459    -6286    -6045    -5670 
   -5231    -4981    -5104    -5513    -6049    -6617    -7069    -7288 
   -7334    -7288    -7051    -6493    -5773    -5181    -4870    -4869 
   -5101    -5503    -6093    -6732    -7084    -6944    -6546    -6357 
   -6434    -6461    -6381    -6440    -6767    -7091    -6970    -6407 
   -5790    -5306    -5012    -5128    -5688    -6270    -6507    -6539 
   -6660    -6751    -6609    -6520    -6737    -6917    -6778    -6620 
   -6682    -6750    -6664    -6602    -6756    -6994    -6917    -6484 
   -6129    -5938    -5578    -5135    -5084    -5425    -5732    -5935 
   -6316    -6856    -7214    -7182    -6961    -6910    -7063    -7225 
   -7312    -7238    -6889    -6420    -6088    -5892    -5711    -5524 
   -5491    -5799    -6189    -6266    -6207    -6286    -6319    -6143 
   -5899    -5709    -5499    -5219    -5154    -5641    -6477    -7273 
   -8075    -8806    -8941    -8275    -7160    -5973    -4923    -4095 
   -3584    -3537    -3975    -4750    -5591    -6196    -6512    -6751 
   -7052    -7407    -7678    -7578    -7059    -6504    -6160    -5875 
   -5613    -5395    -5061    -4795    -4989    -5466    -5890    -6453 
   -7298    -8050    -8402    -8511    -8553    -8251    -7315    -6054 
   -4985    -4301    -4212    -4968    -6242    -7294    -7701    -7555 
   -7203    -6848    -6416    -5998    -5945    -6338    -6802    -6960 
   -6829    -6635    -6511    -6485    -6559    -6610    -6461    -6230 
   -6147    -6106    -6004    -6030    -6187    -6162    -5761    -5192 
   -4868    -4978    -5224    -5175    -4947    -4950    -5260    -5756 
   -6417    -7211    -7951    -8372    -8370    -7920    -6984    -5973 
   -5493    -5524    -5683    -5800    -5782    -5551    -5216    -4936 
   -4730    -4644    -4896    -5698    -7044    -8588    -9788   -10255 
   -9868    -8739    -7199    -5648    -4368    -3588    -3613    -4515 
   -5848    -6987    -7717    -8332    -8802    -8472    -7284    -6088 
   -5522    -5593    -6037    -6555    -6818    -6639    -6216    -5730 
   -5059    -4253    -3755    -3989    -4904    -6187    -7681    -9109 
   -9996   -10210   -10033    -9756    -9289    -8224    -6600    -4939 
   -3472    -2396    -2235    -3013    -4062    -4845    -5317    -5699 
   -6191    -6790    -7206    -6974    -6058    -5107    -4726    -4941 
   -5482    -6120    -6766    -7553    -8618    -9688   -10184    -9791 
   -8811    -7750    -6594    -4990    -3137    -1757    -1282    -1671 
   -2795    -4344    -5725    -6624    -7410    -8498    -9477    -9509 
   -8484    -7287    -6835    -7021    -7086    -6714    -6187    -5992 
   -6399    -7051    -7221    -6563    -5541    -4831    -4384    -3798 
   -3397    -3944    -5339    -6563    -7051    -7198    -7416    -7723 
   -8162    -8650    -8823    -8467    -7673    -6747    -5968    -5350 
   -4997    -5067    -5140    -4725    -4220    -4436    -5366    -6134 
   -6068    -5325    -4511    -4112    -4396    -5530    -7175    -8293 
   -8330    -7951    -7823    -7693    -7119    -6297    -5904    -6282 
   -6937    -7258    -7157    -6667    -5908    -5285    -4990    -4896 
   -4833    -4518    -3913    -3580    -4060    -5282    -6902    -8750 
  -10462   -11345   -11175   -10246    -8637    -6554    -4846    -4220 
   -4398    -4599    -4617    -4814    -5233    -5611    -5887    -6097 
   -6350    -6856    -7450    -7568    -7047    -6242    -5506    -5282 
   -6039    -7547    -8810    -9094    -8622    -7823    -6621    -5044 
   -3488    -2312    -2099    -3497    -6176    -8908   -10779   -11537 
  -11115    -9580    -7314    -4884    -2754    -1301     -851    -1366 
   -2509    -4207    -6365    -8361    -9819   -10930   -11435   -10789 
   -9073    -6723    -4251    -2324    -1386    -1300    -1679    -2637 
   -4538    -7011    -9320   -11242   -12633   -13020   -12182   -10343 
   -7828    -5022    -2450     -653      -36     -832    -2955    -5792 
   -8451   -10214   -10836   -10536    -9483    -7630    -5209    -3034 
   -2215    -3127    -4746    -5826    -6158    -6116    -5861    -5347 
   -4602    -3908    -3878    -4864    -6353    -7676    -8807   -10011 
  -11132   -11456   -10478    -8654    -6806    -5084    -3345    -1911 
   -1181    -1290    -2295    -4009    -6030    -8149   -10273   -11969 
  -12534   -11619    -9482    -6763    -4263    -2542    -1748    -1867 
   -2705    -3894    -5155    -6442    -7879    -9313   -10103    -9899 
   -9063    -7927    -6500    -5067    -4180    -3997    -4124    -4264 
   -4608    -5375    -6493    -7704    -8505    -8479    -7847    -7183 
   -6799    -6621    -6431    -6104    -5647    -5341    -5560    -6004 
   -6002    -5682    -5672    -6033    -6363    -6340    -5956    -5737 
   -6281    -7366    -8183    -8167    -7218    -5657    -4217    -3384 
   -2791    -2000    -1549    -2405    -4814    -8141   -11340   -13374 
  -13680   -12563   -10736    -8425    -5570    -2732     -781      -47 
    -342    -1410    -3202    -5722    -8456   -10446   -11200   -10980 
  -10087    -8546    -6596    -4699    -3090    -2069    -2169    -3350 
   -4672    -5535    -6740    -9051   -11353   -11971   -10720    -8448 
   -6149    -4672    -4263    -4538    -4988    -5437    -5958    -6297 
   -6150    -5844    -5902    -6346    -6847    -7373    -8201    -9084 
   -9302    -8702    -7591    -6011    -4033    -2255    -1478    -2015 
   -3462    -5051    -6211    -6922    -7281    -7290    -7361    -7732 
   -7912    -7668    -7248    -6559    -5452    -4419    -4059    -4388 
   -5062    -5663    -5856    -5683    -5562    -5879    -6581    -7277 
   -7803    -8059    -7699    -6724    -5726    -5256    -5459    -6197 
   -7165    -8004    -8363    -7967    -7026    -6096    -5206    -4113 
   -3296    -3592    -5111    -7044    -8465    -9061    -8977    -8299 
   -7258    -6457    -5950    -5115    -4141    -4067    -5090    -6336 
   -6968    -6918    -6817    -7195    -7896    -8407    -8306    -7554 
   -6786    -6521    -6301    -5616    -4997    -5206    -6112    -6821 
   -6775    -6578    -7003    -7645    -7643    -6772    -5368    -4136 
   -3508    -3291    -3449    -4259    -5733    -7553    -9155    -9929 
   -9540    -8098    -6226    -4774    -4144    -4021    -3983    -4122 
   -4752    -5771    -6895    -7994    -8845    -9076    -8360    -6872 
   -5444    -4552    -4120    -4455    -5632    -6856    -7452    -7485 
   -7429    -7672    -8164    -8550    -8567    -8114    -7002    -5090 
   -2774     -878     -274    -1458    -3905    -6380    -8144    -9112 
   -9259    -8726    -7834    -6806    -5923    -5454    -5356    -5339 
   -5200    -5250    -6018    -7379    -8633    -9379    -9606    -9146 
   -7847    -6100    -4504    -3397    -2864    -2809    -3292    -4415 
   -5630    -6266    -6507    -6984    -7766    -8193    -7852    -7412 
   -7566    -7870    -7657    -7037    -6366    -5790    -5449    -5491 
   -5830    -6272    -6871    -7504    -7515    -6621    -5440    -4726 
   -4679    -5071    -5638    -6192    -6732    -7314    -7877    -8375 
   -8622    -8320    -7488    -6400    -5377    -4699    -4401    -4378 
   -4662    -5412    -6531    -7530    -7955    -7902    -7716    -7333 
   -6612    -5827    -5331    -5283    -5501    -5355    -4598    -3897 
   -3896    -4502    -5490    -6760    -8012    -9058    -9828    -9919 
   -9043    -7454    -5679    -4217    -3446    -3480    -4156    -5283 
   -6640    -7798    -8388    -8410    -8113    -7641    -6809    -5580 
   -4541    -4164    -4247    -4471    -4746    -5054    -5491    -6107 
   -6659    -6903    -7061    -7519    -8194    -8814    -9130    -8707 
   -7477    -6021    -4988    -4801    -5394    -6003    -5940    -5464 
   -5317    -5624    -6054    -6512    -6835    -6832    -6835    -7036 
   -6855    -5921    -4791    -4194    -4368    -5235    -6554    -7825 
   -8429    -8260    -7879    -7695    -7562    -7152    -6261    -5209 
   -4619    -4506    -4496    -4634    -4958    -5073    -4797    -4521 
   -4614    -5031    -5621    -6249    -6768    -7334    -8118    -8775 
   -8939    -8739    -8401    -8075    -7782    -7479    -7218    -6898 
   -6259    -5217    -3951    -3013    -2917    -3599    -4772    -6042 
   -6810    -6930    -6763    -6497    -6220    -6203    -6648    -7389 
   -8006    -8222    -8136    -7938    -7497    -6679    -5989    -6057 
   -6658    -7091    -7042    -6551    -5711    -4826    -4422    -4662 
   -5243    -6039    -7036    -7855    -8117    -7820    -7161    -6184 
   -4959    -3997    -3704    -3955    -4641    -5634    -6485    -6913 
   -7009    -6955    -6971    -7088    -6978    -6551    -6210    -6096 
   -5981    -5926    -6183    -6631    -6918    -6774    -6203    -5622 
   -5386    -5328    -5273    -5337    -5637    -6197    -6978    -7662 
   -7821    -7626    -7676    -7838    -7595    -7217    -7098    -6957 
   -6461    -5751    -5259    -5130    -5175    -5427    -5803    -5956 
   -5981    -6156    -6269    -6151    -6114    -6315    -6550    -6777 
   -7006    -7122    -7263    -7473    -7337    -6675    -5877    -5382 
   -5413    -5911    -6426    -6504    -6338    -6561    -7271    -7711 
   -7263    -6297    -5613    -5533    -5763    -5765    -5283    -4536 
   -4033    -4178    -4853    -5607    -6126    -6484    -7098    -8085 
   -8850    -8766    -7901    -6559    -4828    -3198    -2609    -3157 
   -3838    -4207    -4920    -6308    -7888    -9201   -10071   -10255 
   -9497    -7932    -6205    -4981    -4490    -4503    -4768    -5375 
   -6343    -7277    -7823    -7815    -7186    -6268    -5710    -5872 
   -6527    -7075    -7134    -6863    -6509    -5969    -5108    -4288 
   -4093    -4727    -5934    -7160    -7947    -8334    -8440    -8085 
   -7302    -6453    -5670    -5011    -4746    -4819    -4781    -4545 
   -4460    -4635    -4810    -4907    -5312    -6249    -7322    -8159 
   -8834    -9274    -9173    -8568    -7715    -6772    -6008    -5656 
   -5771    -6335    -7029    -7414    -7469    -7302    -6883    -6281 
   -5532    -4622    -3834    -3520    -3626    -3933    -4372    -4938 
   -5836    -7275    -8785    -9612    -9632    -9104    -8179    -7111 
   -6216    -5616    -5359    -5476    -5764    -5927    -5958    -6099 
   -6579    -7398    -8191    -8532    -8245    -7308    -5796    -4054 
   -2540    -1599    -1495    -2367    -3971    -5738    -7306    -8716 
   -9909   -10492   -10193    -9154    -7815    -6615    -5616    -4679 
   -3863    -3331    -3222    -3589    -4129    -4540    -5089    -6141 
   -7403    -8306    -8733    -8937    -9036    -8830    -7959    -6412 
   -4752    -3643    -3385    -3847    -4669    -5589    -6539    -7469 
   -8225    -8525    -8291    -8023    -8128    -8306    -8210    -7877 
