Origin Time       2024/04/02 04:24:00
Lat.              40.133
Long.             141.712
Depth. (km)       71
Mag.              6.0
Station Code      HKD066
Station Lat.      43.6619
Station Long.     145.1307
Station Height(m) 3
Record Time       2024/04/02 04:26:29
Sampling Freq(Hz) 100Hz
Duration Time(s)  70
Dir.              N-S
Scale Factor      7845(gal)/8223790
Max. Acc. (gal)   5.545
Last Correction   2024/04/02 04:26:29
Memo.             
[...]
    6646     6639     6679     6743     6797     6836     6895     6967 
    7060     7194     7300     7360     7391     7366     7303     7213 
    7078     6937     6816     6733     6723     6737     6736     6717 
    6679     6628     6555     6478     6447     6466     6516     6590 
    6673     6759     6831     6882     6933     6961     6957     6929 
    6887     6897     6967     7013     7025     6998     6924     6863 
    6797     6696     6637     6644     6698     6804     6914     7005 
    7052     7047     7042     7028     6991     6986     6987     6986 
    7003     6997     6968     6953     6937     6921     6924     6922 
    6914     6918     6939     6959     6971     6988     7009     7014 
    6978     6902     6852     6858     6878     6893     6895     6882 
    6855     6793     6733     6721     6725     6729     6731     6720 
    6709     6702     6696     6701     6713     6731     6760     6783 
    6787     6786     6804     6844     6878     6917     6980     7028 
    7071     7133     7155     7123     7086     7057     7037     7007 
    6975     6970     6955     6893     6802     6744     6762     6804 
    6818     6817     6790     6763     6774     6793     6832     6886 
    6903     6917     6940     6936     6940     6970     7026     7094 
    7129     7123     7079     7007     6955     6913     6879     6886 
    6879     6853     6856     6855     6825     6781     6705     6617 
    6538     6493     6513     6590     6712     6814     6844     6853 
    6852     6848     6906     6994     7063     7105     7091     7060 
    7029     6972     6939     6930     6910     6894     6849     6799 
    6808     6812     6799     6810     6801     6793     6831     6899 
    6998     7101     7156     7153     7107     7067     7041     7013 
    7007     7013     6997     6991     7001     7030     7074     7067 
    6997     6886     6752     6627     6536     6500     6528     6586 
    6628     6625     6608     6635     6685     6740     6805     6844 
    6858     6866     6851     6855     6879     6859     6818     6806 
    6817     6852     6893     6937     7001     7044     7025     6948 
    6868     6845     6851     6851     6866     6906     6967     7018 
    7041     7051     7028     6982     6983     7015     7059     7133 
    7173     7157     7123     7056     6964     6887     6831     6799 
    6783     6756     6717     6686     6709     6770     6816     6870 
    6903     6868     6820     6770     6718     6716     6735     6739 
    6754     6763     6754     6762     6810     6862     6880     6878 
    6852     6837     6875     6918     6951     6993     6995     6968 
    6932     6845     6754     6710     6716     6763     6801     6825 
    6863     6883     6902     6903     6862     6862     6924     6978 
    7033     7075     7080     7090     7084     7045     7001     6963 
    6933     6913     6906     6936     6970     6982     6987     6971 
    6936     6917     6887     6828     6774     6731     6693     6679 
    6702     6718     6702     6690     6697     6731     6814     6917 
    7011     7106     7173     7184     7129     7042     7001     7015 
    7042     7047     7013     6982     6959     6907     6856     6824 
    6775     6701     6610     6536     6481     6413     6380     6440 
    6570     6723     6864     6974     7068     7146     7200     7253 
    7306     7334     7311     7238     7150     7051     6951     6876 
    6809     6752     6744     6767     6794     6821     6841     6829 
    6778     6758     6791     6821     6856     6914     6979     7036 
    7060     7045     7015     6987     6968     6934     6878     6820 
    6751     6696     6679     6635     6578     6577     6601     6664 
    6763     6831     6868     6875     6845     6847     6898     6979 
    7045     7060     7053     7029     6998     7007     7007     6959 
    6907     6862     6818     6794     6801     6848     6906     6922 
    6880     6809     6745     6693     6675     6732     6822     6913 
    6990     7005     6967     6929     6913     6929     6957     6976 
    6968     6940     6959     7001     7009     7028     7056     7040 
    7005     6953     6886     6856     6867     6886     6912     6944 
    6952     6898     6806     6735     6670     6617     6597     6583 
    6601     6674     6732     6750     6789     6852     6902     6945 
    6990     7005     7013     7040     7018     6940     6875     6840 
    6852     6922     7005     7055     7076     7079     7051     6995 
    6952     6906     6826     6755     6716     6712     6767     6862 
    6934     6929     6862     6805     6782     6782     6820     6866 
    6891     6903     6868     6795     6751     6766     6832     6895 
    6936     6988     7024     7006     6948     6856     6775     6729 
    6694     6691     6728     6777     6841     6890     6901     6905 
    6909     6914     6914     6890     6868     6853     6828     6822 
    6840     6839     6816     6785     6752     6714     6713     6758 
    6806     6847     6898     6968     7052     7094     7076     7053 
    7057     7087     7102     7094     7080     7036     6953     6876 
    6791     6704     6655     6643     6685     6783     6866     6880 
    6840     6799     6816     6872     6921     6953     6968     6967 
    6963     6957     6940     6905     6867     6836     6806     6777 
    6748     6750     6789     6828     6860     6882     6893     6910 
    6930     6961     7032     7122     7210     7264     7242     7173 
    7092     6998     6926     6895     6880     6871     6870     6898 
    6967     7024     7028     6975     6891     6845     6872     6934 
    7018     7101     7130     7087     7011     6921     6806     6723 
    6721     6745     6777     6816     6829     6870     6948     6983 
    6998     7005     6941     6829     6717     6629     6600     6605 
    6616     6644     6673     6674     6658     6621     6570     6535 
    6521     6528     6574     6640     6706     6812     6968     7132 
    7273     7350     7360     7333     7264     7156     7042     6932 
    6822     6701     6577     6493     6454     6463     6539     6627 
    6710     6826     6937     7015     7075     7098     7111     7160 
    7227     7298     7339     7327     7285     7210     7102     6997 
    6903     6813     6748     6740     6750     6737     6712     6671 
    6631     6646     6706     6768     6799     6799     6804     6822 
    6862     6943     7044     7126     7175     7150     7053     6922 
    6787     6705     6693     6712     6735     6744     6747     6771 
    6805     6841     6875     6891     6920     6974     7028     7048 
    6998     6886     6766     6694     6690     6737     6826     6930 
    6991     7002     6994     6956     6883     6793     6694     6627 
    6631     6686     6760     6826     6867     6907     6956     6987 
    7005     6998     6951     6914     6916     6910     6882     6853 
    6825     6813     6839     6893     6948     6972     6945     6905 
    6886     6889     6894     6897     6924     6991     7071     7141 
    7186     7199     7187     7117     7002     6922     6878     6828 
    6772     6716     6700     6751     6801     6822     6849     6848 
    6824     6832     6847     6863     6913     6951     6961     6995 
    7021     6997     6960     6916     6843     6779     6762     6787 
    6808     6785     6723     6652     6624     6644     6654     6664 
    6706     6735     6739     6727     6720     6748     6767     6748 
    6755     6797     6852     6932     6978     6994     7063     7142 
    7167     7175     7188     7188     7164     7096     6987     6883 
    6840     6847     6866     6899     6924     6910     6887     6859 
    6812     6783     6772     6759     6741     6714     6682     6664 
    6656     6660     6709     6785     6836     6874     6920     6952 
    6967     6964     6928     6883     6876     6918     6993     7056 
    7074     7045     6960     6832     6718     6652     6629     6658 
    6739     6833     6925     7032     7148     7240     7288     7283 
    7207     7083     6939     6810     6744     6731     6743     6787 
    6835     6844     6820     6785     6777     6795     6766     6683 
    6617     6596     6644     6781     6936     7055     7126     7165 
    7179     7149     7059     6955     6871     6816     6786     6770 
    6763     6778     6804     6848     6902     6907     6871     6848 
    6825     6797     6786     6755     6710     6709     6755     6821 
    6882     6925     6968     6993     6975     6949     6933     6895 
    6822     6739     6678     6667     6723     6841     6982     7117 
    7253     7349     7352     7287     7192     7107     7086     7107 
    7092     7022     6929     6839     6759     6685     6600     6489 
    6374     6319     6343     6411     6509     6632     6774     6959 
    7155     7314     7443     7527     7562     7573     7549     7473 
    7354     7204     7038     6860     6691     6527     6381     6326 
    6349     6390     6453     6488     6459     6440     6467     6552 
    6725     6934     7132     7296     7373     7371     7321     7237 
    7172     7155     7140     7061     6914     6754     6604     6459 
    6334     6232     6172     6165     6210     6305     6448     6656 
    6901     7075     7175     7261     7308     7331     7372     7414 
    7469     7510     7466     7369     7280     7227     7226     7253 
    7298     7381     7470     7512     7510     7470     7404     7307 
    7173     7041     6940     6879     6852     6790     6648     6490 
    6366     6257     6147     6057     6012     6033     6143     6326 
    6496     6592     6627     6616     6573     6527     6481     6498 
    6629     6797     6964     7167     7300     7260     7084     6818 
    6529     6319     6204     6189     6292     6467     6629     6744 
    6871     7045     7256     7511     7762     7952     8078     8051 
    7800     7395     6921     6451     6069     5834     5773     5890 
    6178     6583     6960     7250     7497     7668     7709     7663 
    7580     7508     7497     7557     7680     7892     8164     8378 
    8418     8210     7735     7078     6359     5633     4953     4398 
    4041     3913     3986     4232     4638     5157     5755     6434 
    7155     7847     8422     8803     8984     8984     8808     8471 
    8005     7488     6999     6555     6157     5786     5386     4950 
    4534     4234     4172     4388     4822     5454     6261     7126 
    7927     8600     9124     9532     9825     9985    10060    10071 
   10039    10025     9963     9726     9267     8552     7626     6646 
    5737     4995     4491     4191     4048     4036     4124     4305 
    4561     4835     5096     5368     5672     5971     6222     6412 
    6493     6420     6220     5973     5810     5834     6054     6401 
    6802     7219     7635     7997     8220     8249     8085     7785 
    7437     7083     6793     6683     6810     7165     7738     8498 
    9355    10130    10629    10758    10551    10071     9310     8294 
    7130     6012     5144     4573     4249     4203     4434     4885 
    5520     6239     6913     7422     7645     7524     7198     6916 
    6799     6781     6818     6939     7152     7461     7820     8097 
    8176     8047     7727     7206     6485     5688     5017     4646 
    4603     4765     5023     5393     5925     6621     7419     8189 
    8822     9275     9437     9202     8695     8120     7533     6968 
    6471     6029     5675     5439     5273     5200     5227     5286 
    5351     5397     5439     5553     5799     6227     6847     7570 
    8330     9015     9458     9579     9369     8856     8162     7435 
    6764     6200     5722     5204     4575     3942     3416     3069 
    3011     3276     3813     4642     5740     6926     8019     8907 
    9560    10008    10295    10453    10471    10280     9877     9378 
    8889     8438     7955     7354     6702     6199     5958     5971 
    6193     6547     6934     7269     7339     6949     6195     5301 
    4455     3877     3747     4091     4776     5575     6334     6988 
    7461     7641     7477     7095     6705     6448     6401     6551 
    6848     7285     7773     8206     8669     9201     9694    10068 
   10193     9949     9391     8568     7383     5875     4326     3018 
    2128     1809     2045     2701     3700     4877     5926     6673 
    7175     7569     7963     8428     8903     9288     9579     9717 
    9566     9146     8544     7851     7229     6724     6297     5987 
    5768     5557     5350     5138     4918     4793     4865     5132 
    5598     6288     7138     8025     8854     9497     9817     9810 
    9551     9131     8696     8336     8025     7734     7410     6943 
    6320     5698     5232     5004     5069     5406     5952     6624 
    7294     7844     8158     8132     7827     7379     6875     6421 
    6045     5680     5348     5109     5012     5124     5416     5769 
    6108     6403     6632     6798     6975     7213     7434     7645 
    7905     8155     8347     8507     8646     8802     8964     9036 
    8918     8488     7655     6431     4985     3565     2403     1683 
    1506     1892     2768     3909     5092     6259     7410     8506 
    9552    10577    11524    12275    12694    12618    12006    11022 
    9832     8517     7203     5972     4908     4222     3969     3971 
    4059     4041     3788     3369     2956     2798     3122     3909 
    5046     6471     8094     9703    10955    11572    11553    11056 
   10262     9292     8202     7122     6188     5436     4870     4456 
    4124     3859     3689     3676     3916     4488     5390     6496 
    7604     8542     9254     9776    10135    10336    10369    10242 
   10048     9802     9375     8700     7786     6710     5637     4693 
    3967     3537     3354     3345     3515     3890     4463     5236 
    6208     7275     8283     9136     9726     9958     9910     9687 
    9290     8762     8218     7762     7469     7298     7079     6718 
    6224     5594     4897     4324     4025     4077     4519     5323 
    6350     7392     8205     8630     8675     8456     8090     7628 
    7122     6682     6453     6489     6662     6775     6768     6723 
    6678     6613     6581     6685     6912     7140     7246     7121 
    6751     6274     5842     5574     5514     5606     5826     6170 
    6542     6906     7302     7697     8037     8214     8100     7719 
    7203     6650     6142     5788     5690     5853     6162     6484 
    6728     6914     7202     7604     7848     7751     7411     6964 
    6511     6149     5923     5859     6034     6489     7133     7809 
    8413     8941     9351     9466     9200     8662     7998     7330 
    6740     6237     5830     5535     5309     5070     4816     4634 
    4515     4432     4483     4739     5190     5823     6571     7353 
    8139     8808     9223     9432     9552     9629     9691     9757 
    9764     9587     9143     8397     7360     6102     4800     3774 
    3269     3250     3528     3942     4438     5051     5680     6160 
    6569     7141     7897     8644     9186     9487     9636     9720 
    9748     9691     9474     8988     8179     7126     5999     4946 
    4021     3276     2849     2847     3279     4113     5196     6234 
    7024     7526     7766     7811     7781     7793     7871     8024 
    8251     8425     8399     8140     7622     6909     6188     5587 
    5179     4953     4807     4745     4903     5409     6261     7283 
    8268     9097     9699     9996     9969     9661     9146     8540 
    7969     7477     7078     6783     6596     6539     6574     6546 
    6351     5967     5414     4824     4361     4182     4405     4995 
    5864     6912     7912     8685     9184     9364     9228     8874 
    8468     8174     8017     7855     7534     7052     6485     5883 
    5281     4747     4391     4263     4287     4406     4581     4722 
    4804     4900     5117     5598     6365     7294     8255     9107 
    9722    10044    10079     9904     9628     9351     9120     8916 
    8752     8588     8280     7785     7126     6323     5545     4947 
    4510     4221     4051     3928     3852     3867     3971     4199 
    4631     5278     6060     6891     7701     8415     8957     9275 
    9387     9390     9362     9300     9165     8980     8802     8645 
    8449     8074     7422     6582     5748     5103     4729     4542 
    4429     4440     4679     5109     5562     5952     6334     6743 
    7180     7643     8052     8316     8453     8478     8401     8298 
    8212     8129     8054     7982     7889     7715     7391     6890 
    6274     5714     5336     5134     5104     5281     5570     5840 
    6019     6060     5998     5972     6046     6192     6411     6712 
    7082     7514     7962     8311     8478     8463     8325     8083 
    7704     7163     6516     5927     5605     5653     6007     6485 
    6933     7300     7546     7622     7547     7354     7128     7001 
    7013     7141     7342     7510     7577     7541     7388     7140 
    6844     6546     6331     6237     6212     6219     6216     6176 
    6126     6049     5911     5787     5751     5799     5875     5927 
    6002     6188     6485     6793     7009     7078     7033     6990 
    6995     6964     6895     6979     7344     7852     8326     8722 
    8993     9080     8981     8681     8171     7506     6822     6355 
    6253     6421     6677     6902     7049     7095     7037     6890 
    6677     6423     6189     5984     5741     5475     5273     5175 
    5200     5368     5691     6137     6643     7146     7604     7956 
    8170     8314     8471     8627     8702     8596     8245     7663 
    6933     6164     5508     5078     4864     4804     4877     5103 
    5467     5914     6403     6875     7254     7555     7812     8001 
    8164     8356     8541     8654     8596     8293     7803     7248 
    6729     6351     6215     6323     6559     6789     6928     6910 
    6723     6446     6177     5998     5968     6108     6399     6821 
    7308     7723     7973     7992     7711     7173     6517     5832 
    5184     4662     4357     4372     4753     5455     6411     7518 
    8627     9583    10254    10555    10484    10114     9529     8824 
    8098     7358     6629     6062     5736     5564     5440     5289 
    5080     4838     4619     4503     4552     4792     5255     5904 
    6639     7384     8012     8390     8549     8583     8523     8440 
    8419     8452     8419     8164     7611     6859     6076     5394 
    4939     4791     4953     5300     5664     5988     6265     6492 
    6717     6926     7037     7013     6882     6760     6760     6812 
    6798     6712     6581     6480     6504     6617     6779     7026 
    7310     7511     7574     7512     7400     7345     7392     7555 
    7831     8137     8363     8449     8372     8109     7705     7261 
    6855     6528     6320     6243     6243     6246     6246     6238 
