Origin Time       2024/04/02 04:24:00
Lat.              40.133
Long.             141.712
Depth. (km)       71
Mag.              6.0
Station Code      HKD053
Station Lat.      43.7849
Station Long.     143.6072
Station Height(m) 208
Record Time       2024/04/02 04:26:20
Sampling Freq(Hz) 100Hz
Duration Time(s)  60
Dir.              N-S
Scale Factor      7845(gal)/8223790
Max. Acc. (gal)   1.741
Last Correction   2024/04/02 04:26:20
Memo.             
[...]
    -899     -922     -916     -866     -855     -888     -870     -781 
    -720     -754     -819     -845     -832     -830     -851     -872 
    -885     -865     -835     -872     -939     -984    -1019    -1031 
    -977     -873     -797     -789     -799     -764     -737     -814 
    -939     -988     -962     -901     -816     -720     -652     -668 
    -758     -828     -841     -832     -850     -881     -896     -899 
    -877     -837     -843     -885     -886     -876     -905     -940 
    -927     -858     -757     -691     -706     -765     -835     -876 
    -857     -832     -843     -846     -814     -796     -812     -824 
    -839     -870     -904     -943     -939     -872     -832     -869 
    -912     -912     -896     -889     -869     -832     -800     -792 
    -827     -862     -832     -773     -754     -765     -769     -815 
    -973    -1107    -1043     -912     -885     -908     -891     -842 
    -789     -746     -727     -761     -820     -861     -881     -864 
    -820     -803     -838     -900     -900     -799     -720     -737 
    -788     -862     -972    -1057    -1034     -923     -831     -804 
    -799     -780     -743     -738     -827     -949     -990     -946 
    -874     -815     -774     -766     -803     -818     -774     -768 
    -834     -870     -849     -864     -899     -838     -730     -743 
    -837     -866     -874     -943    -1012    -1032    -1034    -1028 
   -1003     -947     -859     -757     -696     -723     -803     -854 
    -842     -810     -803     -828     -838     -773     -689     -695 
    -797     -888     -892     -857     -858     -888     -881     -812 
    -746     -756     -815     -870     -876     -837     -830     -866 
    -855     -796     -777     -807     -810     -791     -851     -990 
   -1078    -1050     -976     -920     -881     -865     -872     -857 
    -811     -805     -862     -885     -853     -827     -818     -770 
    -703     -711     -816     -893     -866     -837     -885     -931 
    -926     -922     -919     -866     -808     -820     -831     -781 
    -780     -885     -966     -919     -834     -837     -895     -909 
    -866     -830     -843     -847     -795     -754     -765     -760 
    -733     -762     -827     -832     -815     -855     -912     -947 
    -969     -932     -866     -880     -936     -927     -892     -924 
    -972     -940     -881     -877     -877     -824     -769     -762 
    -780     -758     -700     -699     -795     -912     -978     -969 
    -928     -912     -903     -874     -832     -797     -801     -843 
    -885     -912     -922     -892     -832     -781     -742     -727 
    -760     -800     -811     -797     -803     -868     -926     -886 
    -804     -785     -807     -839     -935    -1027     -980     -861 
    -869    -1001    -1055     -954     -822     -762     -766     -784 
    -797     -804     -781     -715     -680     -747     -846     -858 
    -824     -851     -915     -931     -899     -861     -834     -812 
    -792     -762     -735     -793     -911     -918     -789     -719 
    -787     -893     -928     -869     -773     -730     -764     -799 
    -792     -799     -827     -826     -820     -851     -897     -935 
    -969     -974     -931     -891     -907     -926     -884     -854 
    -880     -865     -776     -704     -683     -660     -649     -704 
    -799     -858     -892     -949     -990     -966     -928     -900 
    -838     -791     -831     -899     -930     -919     -870     -845 
    -873     -913     -946     -957     -918     -864     -841     -826 
    -770     -716     -722     -764     -804     -834     -843     -846 
    -869     -892     -878     -834     -803     -820     -864     -872 
    -839     -845     -878     -862     -831     -862     -912     -913 
    -885     -882     -899     -885     -857     -861     -872     -870 
    -858     -814     -754     -741     -787     -868     -940     -943 
    -888     -861     -893     -923     -877     -774     -716     -751 
    -826     -876     -889     -903     -924     -903     -855     -873 
    -931     -905     -799     -754     -814     -873     -873     -864 
    -874     -862     -822     -814     -839     -845     -841     -866 
    -913     -915     -826     -715     -723     -841     -886     -812 
    -781     -839     -845     -777     -781     -888     -958     -928 
    -877     -851     -832     -791     -739     -754     -853     -927 
    -919     -905     -934     -926     -850     -804     -820     -824 
    -800     -828     -905     -923     -885     -882     -896     -859 
    -814     -819     -854     -886     -912     -930     -930     -907 
    -864     -835     -855     -892     -868     -789     -733     -741 
    -796     -851     -851     -799     -768     -787     -796     -815 
    -897     -972     -923     -772     -665     -714     -839     -877 
    -815     -788     -839     -909     -967    -1026    -1062    -1020 
    -915     -858     -861     -824     -751     -697     -631     -538 
    -552     -734     -908     -947     -939     -924     -864     -834 
    -899     -934     -861     -808     -853     -912     -928     -934 
    -942     -936     -913     -878     -846     -870     -932     -912 
    -799     -743     -773     -783     -785     -846     -905     -904 
    -882     -853     -804     -793     -858     -913     -885     -842 
    -872     -938     -965     -953     -905     -822     -785     -837 
    -877     -826     -756     -768     -814     -797     -774     -823 
    -891     -880     -835     -870     -931     -913     -880     -877 
    -850     -811     -801     -810     -835     -884     -897     -845 
    -810     -835     -845     -808     -778     -756     -731     -747 
    -831     -911     -931     -935     -932     -872     -795     -757 
    -746     -770     -834     -882     -888     -900     -912     -878 
    -841     -823     -789     -795     -866     -926     -949     -977 
    -993     -938     -837     -795     -826     -839     -791     -716 
    -710     -827     -963     -993     -966     -961     -931     -846 
    -800     -837     -850     -795     -741     -747     -795     -842 
    -842     -768     -712     -766     -857     -904     -932     -984 
   -1026    -1015     -963     -908     -893     -900     -819     -677 
    -654     -747     -810     -826     -853     -865     -859     -891 
    -909     -865     -837     -837     -762     -656     -672     -781 
    -853     -872     -882     -891     -891     -876     -843     -838 
    -896     -954     -943     -897     -873     -866     -855     -857 
    -859     -822     -758     -743     -828     -957    -1021     -999 
    -950     -913     -880     -861     -841     -777     -723     -743 
    -799     -835     -838     -819     -793     -781     -797     -822 
    -854     -919     -985     -992     -938     -905     -938     -972 
    -947     -880     -792     -735     -762     -803     -805     -835 
    -866     -805     -726     -758     -854     -876     -831     -838 
    -893     -903     -889     -911     -936     -931     -889     -819 
    -751     -733     -758     -785     -788     -768     -762     -796 
    -818     -815     -837     -881     -893     -861     -847     -869 
    -897     -951     -955     -834     -733     -760     -803     -797 
    -808     -849     -841     -805     -828     -870     -886     -928 
    -961     -924     -891     -903     -899     -878     -888     -899 
    -872     -834     -800     -796     -861     -951     -974     -923 
    -851     -787     -745     -729     -712     -720     -777     -814 
    -799     -830     -932     -981     -919     -835     -792     -764 
    -773     -854     -919     -907     -866     -826     -787     -797 
    -870     -915     -900     -880     -882     -886     -895     -924 
    -959     -943     -851     -745     -727     -795     -801     -695 
    -641     -738     -845     -865     -859     -869     -876     -886 
    -896     -893     -913     -957     -965     -935     -920     -918 
    -893     -842     -795     -751     -718     -729     -772     -805 
    -830     -853     -868     -866     -835     -769     -750     -857 
    -989    -1008     -957     -931     -905     -819     -750     -777 
    -824     -816     -793     -815     -874     -931     -946     -908 
    -873     -859     -804     -729     -749     -850     -907     -905 
    -899     -896     -892     -884     -865     -819     -750     -687 
    -672     -754     -911    -1000     -954     -895     -897     -865 
    -772     -742     -801     -816     -726     -669     -734     -788 
    -774     -801     -886     -955     -989    -1003     -992     -980 
    -993     -986     -920     -842     -791     -743     -691     -680 
    -756     -862     -932     -966     -957     -919     -904     -878 
    -783     -692     -710     -789     -826     -801     -788     -842 
    -903     -892     -869     -870     -834     -762     -729     -760 
    -834     -908     -940     -928     -920     -916     -859     -791 
    -791     -828     -843     -846     -859     -885     -908     -924 
    -939     -962     -997    -1005     -934     -820     -784     -841 
    -864     -811     -757     -730     -726     -768     -831     -865 
    -872     -874     -872     -889     -947     -978     -926     -828 
    -753     -746     -814     -870     -854     -795     -751     -772 
    -824     -853     -865     -891     -935     -974     -961     -908 
    -884     -908     -922     -876     -819     -807     -789     -733 
    -724     -822     -943     -981     -928     -847     -811     -845 
    -857     -793     -746     -772     -805     -822     -846     -864 
    -859     -866     -872     -820     -766     -772     -765     -756 
    -819     -866     -811     -760     -808     -891     -911     -884 
    -870     -849     -824     -828     -830     -805     -765     -718 
    -730     -810     -888     -949    -1020    -1082    -1057     -942 
    -843     -819     -796     -727     -688     -730     -795     -834 
    -868     -920     -969     -965     -924     -895     -864     -820 
    -808     -827     -851     -882     -920     -923     -897     -896 
    -901     -865     -828     -838     -853     -843     -841     -868 
    -886     -858     -792     -727     -692     -710     -773     -832 
    -866     -909     -989    -1063    -1085    -1048     -986     -928 
    -873     -819     -792     -804     -846     -892     -897     -859 
    -832     -835     -816     -777     -780     -811     -803     -761 
    -756     -814     -880     -899     -899     -904     -874     -814 
    -797     -846     -886     -873     -845     -846     -864     -855 
    -811     -773     -772     -787     -812     -850     -880     -900 
    -935     -986    -1008     -982     -978    -1011     -999     -924 
    -864     -832     -793     -761     -746     -710     -645     -592 
    -584     -614     -648     -683     -741     -818     -884     -939 
   -1004    -1065    -1108    -1147    -1147    -1107    -1088    -1067 
    -961     -796     -697     -700     -708     -646     -562     -549 
    -619     -730     -796     -778     -774     -846     -885     -839 
    -834     -958    -1082    -1085    -1075    -1131    -1150    -1092 
   -1012     -905     -750     -575     -432     -386     -479     -635 
    -737     -749     -729     -750     -828     -905     -923     -912 
    -965    -1058    -1080    -1001     -896     -831     -796     -781 
    -827     -919     -945     -855     -742     -687     -658     -595 
    -541     -612     -783     -939    -1093    -1269    -1359    -1305 
   -1181    -1016     -795     -587     -496     -526     -607     -687 
    -754     -832     -901     -897     -841     -814     -815     -785 
    -743     -788     -935    -1070    -1098    -1028     -940     -895 
    -835     -685     -495     -371     -330     -318     -373     -587 
    -903    -1178    -1368    -1513    -1611    -1595    -1417    -1112 
    -804     -621     -562     -530     -491     -515     -598     -665 
    -745     -888    -1007     -988     -884     -830     -843     -885 
    -973    -1108    -1181    -1134    -1084    -1147    -1264    -1313 
   -1267    -1142     -885     -486     -157     -130     -317     -487 
    -600     -716     -785     -761     -720     -707     -662     -611 
    -642     -749     -865    -1000    -1175    -1323    -1348    -1270 
   -1185    -1089     -916     -693     -494     -345     -290     -390 
    -645     -915    -1016     -907     -754     -730     -777     -746 
    -662     -654     -727     -850    -1075    -1389    -1647    -1711 
   -1539    -1186     -742     -330     -101      -68     -129     -267 
    -571    -1016    -1426    -1645    -1660    -1539    -1350    -1152 
    -996     -899     -861     -886     -915     -818     -585     -371 
    -287     -324     -440     -608     -769     -855     -839     -780 
    -801     -911     -993     -986     -949     -973    -1075    -1215 
   -1317    -1277    -1009     -526      -31      193       81     -256 
    -746    -1275    -1622    -1617    -1347    -1024     -707     -402 
    -251     -376     -714    -1054    -1279    -1435    -1510    -1383 
   -1039     -666     -484     -544     -735     -903     -930     -812 
    -673     -607     -606     -664     -826    -1135    -1526    -1818 
   -1904    -1818    -1576    -1147     -538      156      741      976 
     769      225     -471    -1116    -1532    -1653    -1544    -1332 
   -1128     -949     -777     -719     -945    -1360    -1556    -1333 
    -984     -811     -722     -503     -234     -178     -369     -576 
    -648     -687     -761     -768     -660     -568     -630     -820 
    -999    -1108    -1192    -1278    -1351    -1378    -1351    -1275 
   -1189    -1123    -1065     -969     -780     -477     -112      257 
     513      476       83     -556    -1244    -1779    -2012    -2004 
   -1949    -1846    -1512     -981     -530     -311     -276     -372 
    -534     -621     -554     -373     -167      -99     -319     -766 
   -1190    -1420    -1475    -1401    -1259    -1206    -1266    -1209 
    -972     -814     -865     -993    -1107    -1188    -1151     -947 
    -695     -553     -517     -504     -499     -542     -643     -712 
    -664     -561     -510     -503     -496     -540     -723    -1035 
   -1358    -1549    -1495    -1225     -973     -905     -895     -750 
    -565     -580     -834    -1143    -1329    -1309    -1088     -741 
    -407     -249     -321     -530     -746     -889     -936     -899 
    -787     -676     -681     -832     -981     -924     -761     -789 
   -1000    -1084     -928     -722     -649     -738     -947    -1170 
   -1301    -1367    -1413    -1354    -1101     -780     -660     -787 
    -862     -662     -382     -337     -503     -610     -604     -648 
    -747     -764     -675     -633     -777    -1053    -1243    -1206 
    -976     -703     -562     -622     -818    -1058    -1254    -1289 
   -1084     -793     -745     -947    -1081    -1044    -1061    -1231 
   -1320    -1117     -765     -503     -361     -270     -248     -282 
    -257     -180     -257     -602    -1059    -1363    -1409    -1352 
   -1381    -1487    -1549    -1503    -1309     -982     -634     -359 
    -201     -228     -503     -922    -1233    -1306    -1237    -1158 
   -1058     -797     -348       39       75     -190     -457     -577 
    -683     -893    -1132    -1274    -1337    -1389    -1314     -963 
    -513     -405     -768    -1213    -1378    -1306    -1189    -1061 
    -874     -704     -637     -600     -508     -457     -576     -816 
   -1031    -1162    -1210    -1136     -907     -630     -502     -546 
    -648     -783     -985    -1193    -1362    -1580    -1777    -1625 
   -1020     -352      -17       -6     -176     -545    -1042    -1386 
   -1449    -1382    -1317    -1217     -958     -572     -324     -361 
    -483     -418     -199      -81     -156     -291     -394     -542 
    -787    -1023    -1146    -1219    -1360    -1539    -1556    -1248 
    -796     -606     -793    -1061    -1165    -1189    -1287    -1383 
   -1296    -1023     -739     -494     -155      260      472      292 
    -128     -487     -658     -737     -781     -735     -661     -761 
   -1036    -1247    -1248    -1152    -1120    -1162    -1210    -1290 
   -1474    -1719    -1838    -1686    -1345    -1058     -936     -881 
    -762     -573     -402     -356     -461     -565     -518     -395 
    -390     -552     -693     -629     -476     -495     -718     -963 
   -1117    -1274    -1503    -1663    -1579    -1294    -1012     -827 
    -649     -475     -465     -650     -807     -807     -793     -864 
    -918     -899     -876     -869     -797     -658     -576     -558 
    -508     -457     -526     -741    -1012    -1248    -1370    -1302 
   -1047     -695     -364     -167     -126     -120      -62      -64 
    -286     -727    -1227    -1555    -1591    -1433    -1254    -1131 
   -1085    -1109    -1194    -1347    -1467    -1406    -1220    -1086 
   -1036     -986     -881     -745     -639     -596     -629     -723 
    -803     -807     -784     -834     -945    -1015    -1043    -1116 
   -1237    -1336    -1340    -1198     -908     -523     -130      114 
      71     -207     -529     -764     -873     -861     -797     -765 
    -745     -648     -472     -352     -407     -649    -1015    -1352 
   -1437    -1239     -990     -850     -730     -552     -479     -664 
    -947    -1111    -1177    -1229    -1232    -1115     -864     -584 
    -454     -494     -568     -633     -743     -893    -1063    -1306 
   -1541    -1522    -1225     -922     -754     -635     -554     -616 
    -801     -954     -970     -881     -800     -791     -830     -891 
    -919     -893     -924    -1088    -1205    -1071     -799     -645 
    -654     -672     -610     -567     -642     -773     -884     -982 
   -1080    -1140    -1112    -1005     -920     -936     -974     -854 
    -577     -367     -348     -371     -303     -236     -287     -459 
    -685     -872     -980    -1081    -1242    -1398    -1451    -1363 
   -1177     -972     -784     -583     -417     -438     -703    -1036 
   -1225    -1240    -1179    -1111    -1051    -1021    -1058    -1190 
   -1416    -1620    -1605    -1310     -886     -504     -247     -109 
     -39      -31     -149     -415     -726     -954    -1065    -1077 
   -1026     -966     -926     -915     -992    -1165    -1336    -1368 
   -1198     -935     -756     -660     -487     -233     -124     -278 
    -548     -734     -818     -895     -961     -922     -776     -587 
    -391     -282     -368     -598     -872    -1167    -1421    -1574 
   -1640    -1583    -1366    -1096     -892     -741     -603     -519 
    -554     -691     -819     -855     -838     -835     -858     -886 
    -873     -808     -769     -807     -847     -876    -1001    -1221 
   -1350    -1285    -1129    -1015     -927     -799     -648     -556 
    -560     -641     -766     -903     -990    -1005     -962     -884 
    -826     -801     -742     -641     -627     -801    -1069    -1260 
