Origin Time       2024/04/02 04:24:00
Lat.              40.133
Long.             141.712
Depth. (km)       71
Mag.              6.0
Station Code      HKD098
Station Lat.      42.4985
Station Long.     143.2790
Station Height(m) 81
Record Time       2024/04/02 04:25:53
Sampling Freq(Hz) 100Hz
Duration Time(s)  66
Dir.              E-W
Scale Factor      7845(gal)/8223790
Max. Acc. (gal)   2.288
Last Correction   2024/04/02 04:25:54
Memo.             
[...]
    9512     9545     9513     9379     9306     9374     9413     9432 
    9393     9209     9124     9235     9298     9282     9339     9440 
    9475     9418     9316     9340     9570     9786     9815     9699 
    9563     9575     9675     9653     9578     9622     9682     9620 
    9539     9470     9435     9543     9555     9252     8989     8995 
    9028     9008     9039     9188     9408     9356     9038     9009 
    9256     9229     8951     8857     9073     9363     9495     9533 
    9621     9682     9601     9460     9456     9633     9798     9790 
    9714     9780     9927     9876     9675     9652     9753     9740 
    9726     9825     9937     9965     9771     9377     9142     9266 
    9489     9486     9320     9317     9464     9456     9312     9294 
    9362     9356     9344     9379     9352     9188     9001     8976 
    9097     9252     9393     9470     9545     9693     9783     9715 
    9575     9504     9512     9478     9499     9701     9802     9620 
    9413     9382     9456     9567     9637     9606     9562     9509 
    9331     9159     9140     9147     9059     8881     8691     8645 
    8864     9274     9629     9684     9517     9467     9603     9657 
    9555     9512     9620     9737     9660     9356     9107     9128 
    9323     9606     9821     9717     9428     9332     9483     9625 
    9629     9680     9855     9764     9294     9049     9259     9313 
    8951     8699     8907     9271     9397     9362     9402     9447 
    9269     8822     8523     8811     9332     9539     9508     9470 
    9491     9576     9639     9688     9780     9819     9844     9934 
    9898     9695     9617     9620     9451     9290     9335     9418 
    9439     9429     9437     9537     9691     9699     9463     9244 
    9292     9363     9304     9346     9483     9504     9360     9147 
    9011     8965     9039     9297     9524     9556     9506     9389 
    9207     9084     9153     9432     9645     9603     9578     9729 
    9865     9811     9578     9423     9462     9390     9058     8854 
    9065     9406     9590     9621     9460     9204     9136     9290 
    9440     9397     9251     9282     9463     9540     9489     9432 
    9412     9447     9528     9621     9695     9660     9579     9602 
    9699     9737     9603     9350     9225     9348     9613     9844 
    9944     9915     9756     9541     9369     9201     9166     9363 
    9409     9201     9143     9243     9323     9404     9387     9281 
    9255     9254     9162     9126     9227     9220     9088     9128 
    9328     9456     9479     9540     9729     9894     9896     9830 
    9891    10045     9942     9587     9394     9408     9455     9528 
    9528     9394     9343     9386     9239     9072     9224     9431 
    9377     9289     9404     9439     9255     9298     9459     9320 
    9283     9528     9512     9229     9173     9370     9591     9736 
    9575     9239     9273     9472     9296     9038     9182     9526 
    9501     9059     8865     9192     9567     9547     9310     9378 
    9543     9360     9146     9101     9146     9234     9085     8819 
    8931     9410     9792     9840     9744     9482     9043     8969 
    9204     9266     9252     9182     9065     9059     9062     9178 
    9478     9699     9776     9782     9752     9703     9670     9732 
    9877     9931     9747     9529     9498     9629     9848     9879 
    9679     9378     8937     8829     9188     9304     9246     9389 
    9444     9364     9301     9359     9617     9660     9367     9124 
    9058     9336     9771     9783     9667     9744     9571     9454 
    9737     9783     9595     9516     9301     9134     9170     9180 
    9374     9622     9607     9714     9794     9462     9360     9865 
   10287    10079     9552     9243     9197     9085     8989     9328 
    9645     9458     9313     9324     9293     9437     9528     9582 
    9832     9802     9474     9277     9360     9757     9684     8895 
    8708     9130     9150     9061     9148     9382     9610     9452 
    9440     9775     9724     9283     8949     9134     9640     9659 
    9339     9406     9587     9400     9124     8928     8938     9477 
    9941     9794     9466     9351     9690     9871     9350     9088 
    9321     9477     9429     9271     9648    10169     9990     9775 
    9621     9211     9051     9200     9477     9483     8818     8586 
    9121     9046     9007     9730     9593     9015     9208     9119 
    9182     9791     9691     9512     9501     9073     9043     9197 
    8883     9003     9644     9520     9086     9331     9535     9759 
   10000     9578     9495     9760     9470     9482     9784     9655 
    9486     9462     9629     9837     9857    10087    10158     9761 
    9571     9540     9464     9450     9525     9730     9582     9359 
    9628     9656     9459     9398     9088     9190     9734     9501 
    9123     9409     9640     9648     9462     9468     9863     9616 
    9271     9373     9258     9359     9288     9074     9607     9788 
    9490     9570     9448     9308     9366     9035     9154     9907 
    9877     9248     9094     9310     9124     8824     9194     9240 
    8803     8953     9107     9165     9373     9165     8980     9105 
    9248     9346     9221     9339     9744     9630     9536     9890 
    9842     9690     9617     9119     9163     9764     9656     9335 
    9670    10026     9483     8830     9327     9794     9225     8845 
    8992     9234     9558     9734    10207    10741    10251     9567 
    9491     9609     9761     9482     9246     9767     9852     9205 
    8812     8635     8662     8797     8869     9159     9016     8706 
    9053     9059     8934     9163     8941     8878     9097     8919 
    8932     9343     9609     9304     8868     8980     9350     9937 
   10457    10304     9927     9641     9413     9274     9193     9406 
    9779     9836     9622     9548     9394     9057     9409    10087 
   10123     9931     9490     8924     8954     9036     9111     9508 
    9425     9120     9059     8712     8737     9369     9699     9988 
   10305    10208     9990     9603     9034     8775     8912     9231 
    9489     9612     9651     9578     9418     9185     8932     8862 
    8985     9134     9374     9641     9644     9578     9634     9589 
    9455     9331     9331     9508     9541     9536     9850    10129 
    9990     9547     9084     9028     9441     9894    10045     9894 
    9717     9598     9531     9765    10125    10204    10017     9634 
    9138     8761     8797     9143     9292     9223     9146     9031 
    9049     9304     9548     9531     9266     9120     9296     9537 
    9757    10079    10318    10168     9742     9471     9421     9390 
    9460     9721     9886     9656     9244     9027     8930     8892 
    9069     9207     9005     8719     8596     8553     8544     8661 
    8934     9223     9477     9842    10199    10218     9984     9787 
    9621     9528     9741    10064     9981     9582     9360     9505 
    9987    10604    10895    10540     9884     9616     9807     9883 
    9547     8996     8421     8075     8189     8550     8905     9143 
    9143     8945     8625     8453     8606     8718     8673     8681 
    8646     8482     8299     8283     8491     8833     9288     9655 
    9779     9882    10015    10104    10192    10165     9936     9653 
    9589     9875    10184    10111     9772     9406     9018     8716 
    8750     9103     9398     9477     9601     9786     9798     9728 
    9837    10138    10289     9979     9348     8888     8899     9140 
    9340     9514     9574     9383     9076     9012     9304     9633 
    9899    10166    10185     9938     9751     9732     9801     9814 
    9717     9701     9821     9833     9653     9528     9644     9714 
    9358     8850     8750     9003     9154     9109     9057     8911 
    8610     8476     8826     9549    10104    10174    10112    10154 
   10143    10133    10237    10312    10188     9906     9668     9612 
    9621     9445     9109     8888     8802     8745     8679     8525 
    8426     8573     8802     8984     9154     9246     9292     9441 
    9594     9537     9393     9389     9481     9606     9829    10049 
   10072     9929     9759     9572     9377     9274     9408     9618 
    9508     9111     8802     8742     9001     9378     9386     9159 
    9312     9794    10114    10238    10305    10154     9748     9343 
    9132     9147     9275     9445     9610     9522     9221     9032 
    9019     9201     9537     9755     9711     9490     9234     8997 
    8864     8981     9084     8928     8920     9366     9975    10328 
   10242     9902     9471     8935     8595     8727     9082     9369 
    9441     9317     9329     9572     9671     9487     9248     9011 
    8681     8376     8272     8360     8548     8742     8837     8928 
    9232     9576     9678     9676     9678     9601     9593     9720 
    9740     9593     9498     9556     9601     9630     9882    10300 
   10677    10918    10813    10328     9830     9520     9324     9269 
    9369     9450     9379     9232     9146     9134     9111     9078 
    9093     9121     9157     9240     9383     9522     9520     9478 
    9620     9863     9981     9829     9509     9470     9826    10066 
    9914     9647     9428     9200     9070     9161     9355     9421 
    9289     9148     9180     9302     9425     9568     9601     9306 
    8769     8299     8175     8534     9104     9483     9617     9559 
    9454     9574     9834     9945     9887     9790     9686     9533 
    9342     9147     8985     8928     9109     9559    10026    10264 
   10309    10222    10019     9799     9547     9274     9123     9077 
    9065     9143     9273     9320     9383     9572     9687     9509 
    9092     8702     8577     8692     8868     8991     8953     8715 
    8436     8305     8461     9000     9782    10314    10270     9919 
    9551     9207     9062     9216     9414     9439     9344     9312 
    9451     9636     9670     9601     9502     9275     9003     8941 
    9150     9459     9524     9074     8455     8332     8625     8784 
    8823     9023     9367     9726     9985    10210    10492    10593 
   10336     9892     9485     9247     9182     9215     9340     9556 
    9732     9686     9510     9443     9467     9640     9979    10099 
    9934     9872     9895     9821     9894    10220    10507    10616 
   10636    10594    10530    10450    10208     9823     9624     9732 
    9867     9815     9768     9973    10292    10470    10486    10368 
   10035     9509     9100     9062     9238     9375     9413     9417 
    9483     9593     9730     9853     9782     9543     9356     9282 
    9290     9373     9471     9551     9583     9428     9046     8772 
    8949     9394     9591     9379     9201     9393     9632     9566 
    9331     9157     9173     9389     9526     9351     9080     8968 
    8924     8819     8772     8938     9238     9466     9431     9078 
    8611     8154     7657     7339     7446     7838     8340     8800 
    8995     8927     8769     8685     8932     9572    10180    10330 
   10076     9740     9598     9734     9995    10133     9921     9439 
    9130     9161     9267     9389     9680     9985    10000     9748 
    9435     9213     9063     8834     8630     8735     8997     8980 
    8625     8402     8750     9401     9702     9472     9090     8966 
    8996     8829     8536     8367     8305     8317     8459     8861 
    9514    10046    10215    10185    10183    10297    10442    10535 
   10643    10755    10814    10978    11292    11411    11130    10654 
   10120     9679     9551     9560     9478     9370     9178     8881 
    8708     8668     8581     8532     8712     9088     9435     9578 
    9537     9485     9555     9714     9904    10188    10530    10625 
   10312     9903     9790     9972    10188    10277    10219     9958 
    9536     9209     9144     9298     9535     9607     9355     8949 
    8648     8511     8430     8357     8334     8363     8525     8901 
    9362     9742     9942     9923     9690     9347     9121     8986 
    8671     8232     8020     8172     8581     9109     9610     9896 
    9864     9691     9705    10011    10378    10504    10331    10027 
    9666     9197     8787     8808     9315     9795     9852     9728 
    9790    10062    10361    10462    10312    10106     9968     9818 
    9644     9548     9555     9576     9464     9194     8932     8766 
    8602     8422     8357     8402     8284     7901     7503     7387 
    7628     7974     8137     8131     8086     8104     8190     8225 
    8182     8087     7820     7454     7383     7715     8162     8464 
    8556     8544     8607     8765     8997     9379     9745     9815 
    9626     9416     9472     9971    10639    11029    11002    10659 
   10165     9715     9462     9445     9553     9576     9466     9355 
    9205     8883     8604     8677     9034     9378     9576     9702 
    9768     9698     9522     9414     9495     9617     9602     9612 
    9895    10381    10719    10794    10890    11102    11226    11214 
   11095    10833    10550    10488    10670    10859    10928    10989 
   11121    11261    11387    11589    11823    11792    11361    10787 
   10299     9887     9533     9283     9178     9127     9012     8919 
    8941     9039     9173     9317     9497     9710     9845     9821 
    9648     9466     9502     9822    10133    10083     9799     9591 
    9445     9271     9043     8783     8565     8330     8004     7650 
    7415     7447     7707     7960     8097     8290     8777     9512 
   10161    10415    10276    10022     9825     9648     9544     9607 
    9657     9425     8997     8692     8583     8403     8052     7809 
    7840     7990     8081     8098     8131     8186     8212     8337 
    8810     9514     9930     9833     9501     9248     9188     9278 
    9521    10000    10577    10845    10683    10467    10428    10368 
   10153     9930     9826     9783     9657     9391     9090     8905 
    8824     8730     8654     8718     8891     9020     9016     8937 
    8926     9104     9396     9645     9865     9994     9926     9864 
    9987    10143    10102     9857     9691     9784     9981    10131 
   10249    10315    10268    10106     9944     9958    10085    10084 
   10007    10027    10089    10107     9992     9691     9378     9134 
    8883     8758     8986     9466     9879    10012     9884     9819 
   10080    10497    10895    11173    11144    10858    10446     9929 
    9498     9239     8920     8445     8017     7843     7906     8054 
    8167     8193     8108     7970     7973     8240     8656     8957 
    8955     8715     8522     8579     8707     8679     8653     8756 
    8842     8857     8777     8553     8325     8224     8224     8390 
    8706     8946     9051     9080     9065     9220     9630    10014 
   10231    10415    10569    10659    10758    10782    10629    10373 
   10042     9678     9412     9258     9184     9151     9180     9425 
    9752     9828     9711     9578     9454     9485     9744    10125 
   10532    10808    10774    10552    10355    10203    10166    10253 
   10181     9911     9751     9703     9551     9348     9281     9267 
    9107     8829     8580     8448     8519     8692     8777     8853 
    8972     8945     8768     8677     8776     8931     9018     9031 
    8976     8876     8834     8812     8733     8829     9293     9722 
    9614     9109     8726     8653     8722     8862     9163     9520 
    9607     9373     9217     9398     9664     9809     9853     9875 
   10108    10615    11080    11275    11242    11134    11037    10955 
   10840    10604    10331    10196    10091     9899     9753     9706 
    9680     9637     9566     9570     9701     9792     9832    10034 
   10365    10436    10030     9396     8812     8363     8060     7898 
    7935     8175     8445     8567     8513     8475     8602     8730 
    8722     8675     8615     8565     8668     8915     9096     9015 
    8699     8374     8199     8225     8490     8949     9427     9720 
    9763     9686     9624     9705     9973    10187    10152     9995 
    9902     9911     9988    10108    10160    10030     9833     9744 
    9834    10065    10246    10299    10338    10357    10249    10066 
    9960    10007    10079     9942     9620     9374     9283     9212 
    9051     8792     8538     8370     8230     8074     7960     7963 
    8091     8306     8467     8467     8424     8475     8591     8702 
    8722     8553     8337     8306     8391     8453     8541     8696 
    8781     8671     8496     8473     8557     8532     8330     8131 
    8166     8441     8770     9062     9344     9564     9637     9679 
    9864    10160    10501    10864    11163    11296    11277    11252 
   11264    11148    10882    10714    10785    10960    11020    10806 
   10409    10099     9960     9863     9744     9652     9607     9543 
    9443     9483     9830    10327    10638    10635    10530    10566 
   10752    10963    11016    10728    10226     9872     9817     9887 
    9825     9559     9217     8810     8372     8154     8244     8483 
    8613     8422     7978     7560     7360     7425     7722     8152 
    8559     8816     8972     9166     9487     9830    10006     9976 
    9822     9668     9624     9583     9358     9027     8780     8592 
    8445     8446     8579     8685     8660     8602     8738     9049 
    9340     9617     9919    10127    10145    10018     9919    10033 
   10292    10366    10119     9807     9594     9410     9312     9363 
    9389     9274     9117     9040     9157     9548    10096    10565 
   10817    10885    10886    10828    10671    10440    10141     9857 
    9703     9591     9441     9374     9418     9378     9181     9013 
    8972     8970     9011     9162     9348     9414     9243     8891 
    8621     8538     8523     8434     8201     8055     8263     8664 
    8955     9088     9158     9219     9248     9294     9377     9398 
    9305     9090     8784     8545     8545     8769     9018     9209 
    9439     9705     9925    10041    10026     9944     9855     9740 
    9563     9347     9273     9494     9850    10092    10226    10284 
   10157     9904     9801     9948    10180    10330    10385    10336 
   10162     9985     9923    10003    10210    10444    10557    10488 
   10365    10299    10201     9975     9679     9359     8993     8654 
    8434     8353     8372     8413     8473     8573     8619     8650 
    8806     8965     8941     8842     8920     9242     9661     9952 
    9958     9779     9579     9342     9065     8884     8762     8546 
    8230     7967     7906     8029     8216     8422     8661     8928 
    9178     9360     9459     9536     9688     9879     9991    10060 
   10204    10378    10454    10436    10461    10552    10542    10373 
   10228    10215    10264    10258    10133     9948     9740     9487 
