Origin Time       2024/04/02 04:24:00
Lat.              40.133
Long.             141.712
Depth. (km)       71
Mag.              6.0
Station Code      HKD079
Station Lat.      43.3034
Station Long.     144.5998
Station Height(m) 32
Record Time       2024/04/02 04:26:16
Sampling Freq(Hz) 100Hz
Duration Time(s)  62
Dir.              N-S
Scale Factor      7845(gal)/8223790
Max. Acc. (gal)   3.624
Last Correction   2024/04/02 04:26:16
Memo.             
[...]
    2956     2805     2685     2870     3115     3017     2740     2735 
    3025     3222     3046     2731     2678     2829     2845     2571 
    2200     2218     2790     3408     3488     2971     2390     2359 
    2821     3210     3157     2789     2531     2544     2646     2752 
    2876     3013     3121     3060     2803     2567     2635     3011 
    3267     3141     2889     2744     2698     2678     2650     2659 
    2756     2938     3098     3045     2835     2700     2687     2704 
    2702     2741     2875     2984     2897     2633     2436     2536 
    2871     3109     3055     2867     2814     2940     3002     2863 
    2721     2760     2902     2991     2959     2845     2779     2895 
    3096     3091     2821     2602     2721     3015     3075     2814 
    2550     2517     2635     2743     2770     2759     2799     2829 
    2767     2735     2839     2980     3030     2951     2797     2681 
    2632     2614     2675     2847     3069     3196     3065     2786 
    2624     2641     2853     3133     3109     2794     2621     2735 
    2903     2924     2787     2602     2528     2659     2841     2868 
    2801     2851     3063     3218     3121     2832     2594     2635 
    2909     3111     3067     2798     2481     2475     2884     3219 
    3041     2538     2214     2350     2798     3176     3179     2899 
    2756     2851     2926     2872     2794     2825     2897     2803 
    2548     2378     2544     2963     3226     3160     2913     2681 
    2655     2871     3113     3165     3038     2833     2619     2498 
    2532     2596     2633     2810     3030     2949     2654     2544 
    2704     2957     3152     3172     2978     2695     2577     2708 
    2938     3105     3094     2856     2559     2504     2740     2976 
    2963     2754     2612     2740     3007     3080     2893     2741 
    2821     2955     2902     2641     2417     2520     2862     3068 
    3026     2917     2879     2882     2857     2837     2833     2833 
    2930     3067     2972     2693     2577     2674     2790     2876 
    2948     2956     2920     2918     2874     2683     2536     2571 
    2652     2764     2938     3078     3121     3018     2789     2631 
    2689     2866     2918     2762     2593     2647     2916     3091 
    2930     2648     2609     2855     3125     3172     3005     2801 
    2749     2884     3030     3010     2836     2667     2573     2509 
    2531     2689     2899     2999     2924     2820     2786     2758 
    2776     2945     3169     3213     3036     2849     2808     2840 
    2816     2722     2658     2717     2855     2956     2957     2809 
    2558     2474     2735     3082     3183     3086     2945     2766 
    2583     2517     2659     2928     3034     2824     2488     2336 
    2506     2820     3010     3005     2809     2546     2548     2852 
    3078     3073     2986     2875     2749     2706     2814     2957 
    2980     2890     2733     2559     2558     2825     3110     3111 
    2781     2412     2415     2722     2880     2764     2697     2899 
    3094     2952     2674     2593     2722     2837     2799     2772 
    2918     3159     3289     3142     2764     2443     2502     2922 
    3198     2898     2371     2338     2818     3215     3196     2876 
    2575     2625     3036     3389     3285     2871     2623     2701 
    2932     3033     2835     2587     2589     2660     2575     2512 
    2695     2995     3129     3056     2944     2862     2801     2754 
    2721     2751     2779     2755     2830     2979     2986     2889 
    2767     2614     2623     2899     3159     3117     2868     2798 
    3069     3307     3094     2521     2124     2313     2859     3240 
    3213     2863     2508     2351     2359     2583     3009     3379 
    3505     3375     3087     2791     2668     2886     3169     3048 
    2713     2614     2666     2741     2906     2986     2837     2708 
    2814     2964     2906     2727     2573     2497     2554     2697 
    2864     3007     2986     2806     2648     2601     2675     2787 
    2817     2843     2906     2924     2864     2722     2624     2778 
    3086     3192     2987     2691     2560     2770     3152     3206 
    2851     2513     2434     2531     2713     2887     2887     2722 
    2651     2735     2833     2959     3095     3065     2847     2667 
    2724     2941     3144     3264     3179     2952     2953     3134 
    3003     2535     2203     2344     2794     3125     3172     2997 
    2744     2652     2712     2743     2760     2816     2984     3253 
    3227     2732     2272     2311     2713     3037     3072     2920 
    2697     2554     2656     2855     2887     2752     2567     2490 
    2617     2770     2768     2725     2731     2650     2529     2694 
    3145     3441     3326     3006     2799     2843     3030     3083 
    2866     2535     2300     2355     2717     3079     3150     2921 
    2631     2600     2787     2933     3009     3009     2852     2577 
    2409     2551     2775     2810     2818     2868     2754     2533 
    2601     3052     3376     3257     3001     2835     2774     2764 
    2563     2338     2641     3298     3537     3123     2563     2332 
    2461     2855     3283     3298     2987     2874     2913     2752 
    2454     2297     2424     2787     3191     3299     2938     2508 
    2438     2614     2818     2987     2988     2789     2655     2787 
    3082     3335     3345     2922     2292     2095     2550     3168 
    3489     3415     3051     2727     2700     2774     2775     2852 
    3038     3148     2944     2479     2261     2658     3387     3701 
    3152     2296     2106     2662     3207     3312     3134     2968 
    3009     3057     2758     2218     2026     2566     3353     3615 
    3238     2617     2303     2511     2879     3046     2934     2756 
    2803     2959     2968     2840     2674     2616     2785     3007 
    3017     2795     2538     2533     2864     3260     3423     3136 
    2465     1952     2018     2527     3044     3275     3219     2921 
    2473     2236     2465     2930     3314     3460     3192     2616 
    2362     2741     3084     2866     2493     2347     2428     2740 
    3088     3176     3067     3022     3025     2901     2775     2876 
    3082     3114     2911     2635     2515     2621     2731     2637 
    2531     2714     3080     3171     2752     2095     1864     2525 
    3468     3653     3134     2668     2539     2663     2856     2883 
    2779     2828     3029     3107     2999     2899     2909     2936 
    2945     3001     3042     2948     2708     2442     2398     2691 
    3040     3019     2601     2303     2508     2902     3042     2860 
    2535     2436     2775     3194     3215     2891     2647     2605 
    2620     2689     2852     3127     3388     3244     2593     2016 
    2112     2756     3326     3372     2897     2385     2373     2702 
    2821     2670     2637     2936     3281     3203     2698     2320 
    2504     3091     3470     3245     2731     2516     2781     3194 
    3303     2988     2587     2567     2936     3218     3175     3019 
    2913     2775     2589     2544     2690     2866     3102     3331 
    3235     2918     2678     2463     2423     2867     3485     3626 
    3165     2589     2396     2583     2863     2998     2802     2431 
    2312     2484     2633     2720     2839     2841     2756     2901 
    3208     3296     3102     2879     2762     2628     2462     2434 
    2454     2432     2616     2984     3111     2859     2470     2344 
    2775     3411     3537     3060     2602     2650     3006     3082 
    2714     2376     2515     3015     3326     3019     2338     2142 
    2836     3696     3811     3044     2064     1796     2374     2979 
    3013     2710     2587     2774     3029     3200     3260     3096 
    2764     2513     2451     2601     2851     3009     3110     3157 
    2925     2490     2276     2490     2944     3296     3348     3003 
    2327     1842     2149     2991     3493     3300     2813     2469 
    2354     2448     2741     3037     3127     2984     2679     2477 
    2587     2820     2886     2822     2841     2880     2808     2812 
    2955     3084     3241     3364     3171     2678     2286     2428 
    3017     3393     3207     2693     2326     2594     3226     3370 
    3038     2895     3024     3092     2987     2729     2450     2520 
    3019     3445     3341     2805     2331     2297     2720     3346 
    3624     3199     2523     2253     2639     3384     3726     3132 
    2049     1587     2166     3069     3627     3709     3284     2569 
    2042     1976     2290     2735     3095     3235     3202     3250 
    3316     2976     2168     1456     1537     2403     3273     3483 
    3038     2610     2728     3026     3021     2778     2571     2659 
    3079     3568     3735     3406     2879     2473     2238     2250 
    2519     2972     3503     3759     3466     2852     2517     2770 
    3195     3215     2737     2224     2280     2856     3391     3545 
    3145     2270     1503     1418     2126     3154     3831     3893 
    3411     2686     2214     2308     2899     3458     3518     3292 
    2983     2409     1725     1340     1444     2085     3044     3788 
    4062     4051     3750     3075     2477     2382     2560     2693 
    2702     2478     2103     1991     2273     2548     2470     2211 
    2135     2442     3153     3843     4029     3871     3645     3354 
    3123     3121     3349     3550     3387     2907     2479     2473 
    2968     3474     3418     2697     1730     1345     1868     2675 
    3326     3682     3288     2205     1225      972     1730     3076 
    3863     3434     2137      986     1055     2573     4749     6200 
    5680     3437     1314      859     1929     3377     4348     4588 
    4330     3854     3165     2411     1925     1883     2091     2134 
    1961     1935     2223     2473     2286     1877     1722     1912 
    2295     2770     3369     4031     4324     4089     3578     2764 
    1841     1551     2249     3472     4457     4634     3782     2324 
    1463     2115     3611     4434     3843     2475     1777     2362 
    3435     4035     3921     3430     2894     2444     2214     2247 
    2317     2220     2164     2378     2706     3129     3704     3831 
    2864     1227      179      650     2304     3939     4583     3989 
    2737     1792     1632     2146     3053     4109     5003     5367 
    5098     4419     3619     2897     2205     1278      182     -477 
    -202      872     2228     3465     4205     4083     3225     2385 
    2378     3226     4112     4270     3585     2594     1941     1653 
    1364     1105     1259     2006     3129     4133     4511     4230 
    3804     3638     3623     3512     3284     2982     2766     2945 
    3277     3181     2708     2269     1999     1894     2016     2448 
    3240     4167     4546     3883     2631     1877     2258     3291 
    3835     3306     2219     1572     2070     3400     4206     3577 
    2060      843      534      918     1715     3007     4522     5290 
    4615     2907     1401     1323     2937     5031     5817     4774 
    3053     1942     1811     2520     3562     3866     2825     1247 
     484     1120     2721     4324     4980     4174     2363      864 
     766     2091     3549     3584     2093      523      356     1784 
    3678     4749     4521     3599     3057     3149     3368     3392 
    3032     2309     1768     1684     1850     2354     3111     3356 
    2805     2155     2116     2801     3798     4635     5012     4780 
    3952     2656     1335      608      706     1498     2582     3310 
    3400     3248     3138     2909     2685     2668     2713     2768 
    2880     2982     2864     2516     2511     3167     3865     3990 
    3576     2806     1966     1632     1956     2450     2700     2797 
    3152     3889     4594     4691     3998     2928     1999     1605 
    2002     2814     3300     3087     2168      899       -1       44 
    1088     2662     4144     5124     5429     5032     4018     2695 
    1463      622      599     1633     3260     4649     5157     4391 
    2516      830      834     2462     4456     5703     5566     4135 
    2232      677       59      687     2239     3715     3991     2986 
    1995     2284     3744     5109     5300     4392     3218     2562 
    2612     2724     2161     1134      546      913     1877     2755 
    3229     3231     2863     2728     3191     3707     3790     3681 
    3674     3593     3268     3110     3308     3110     2174     1456 
    1887     3221     4293     4275     3469     2582     2047     2027 
    2322     2498     2285     1760     1344     1470     2038     2547 
    2874     3057     2829     2525     3086     4476     5300     4379 
    2511     1379     1451     2470     3912     4588     3788     2398 
    1819     2177     2716     3118     3159     2648     2215     2648 
    3770     4600     4531     3584     1817      -21     -649      336 
    2390     4274     4693     3591     1925      777      915     2339 
    4005     4773     4810     4545     3635     2598     2423     2637 
    2484     2228     2242     2528     3038     3473     3281     2162 
     580     -230      592     2512     4542     6130     6627     5560 
    3435     1502      907     1918     3805     5100     4714     3113 
    1354      180      352     1707     3024     3731     3878     3503 
    3068     2844     2619     2400     2093     1714     1829     2577 
    3461     4002     3789     2860     1926     1603     1910     2640 
    3499     4048     4286     4382     3908     2655     1225      427 
    1078     3095     4851     5069     3946     2328     1358     1792 
    3262     4846     5482     4480     2602     1256     1013     1684 
    2485     2556     2026     1773     2278     3048     3426     3339 
    2763     1976     1879     2579     3349     3703     3134     1926 
    1536     2281     3186     3937     4552     4807     4793     4425 
    3285     1745      796     1027     2332     3709     3928     2932 
    1917     1792     2289     2855     2986     2459     2235     3001 
    3944     4380     4251     3376     2016      976      770     1532 
    2960     4117     4326     3873     3275     2700     2180     1723 
    1672     2396     3204     3165     2613     2425     2683     2906 
    2878     2548     1887     1412     2023     3570     4812     5094 
    4625     3831     3231     3121     3287     3360     3389     3501 
    3376     2812     1968     1193      981     1198     1124      707 
     618     1493     3215     4783     5462     5352     4849     4311 
    3707     2813     1891     1371     1320     1570     1891     2342 
    3188     4114     4342     3581     2465     2258     3420     4730 
    4810     3597     2029     1111     1031     1231     1367     1755 
    2681     3748     4376     4469     3998     2918     1857     1529 
    1810     2300     2767     3005     2878     2334     1717     1610 
    1962     2268     2452     2794     3300     3622     3516     3245 
    3230     3420     3499     3397     3145     2948     3045     3244 
    3410     3554     3573     3586     3530     3179     2879     3078 
    3701     4023     3253     1784      702      503     1094     2091 
    3038     3424     2795     1401      237      423     2197     4206 
    4887     4239     3138     2197     1934     2635     3649     3950 
    3510     2986     2442     1858     1907     2955     4313     4882 
    4405     3613     3084     2956     2983     2678     2074     1601 
    1351     1121     1124     1744     2517     3130     3908     4374 
    3867     2789     1807     1482     2258     3572     4252     3881 
    2720     1483     1181     1934     2930     3838     4831     5362 
    4687     3411     2573     2454     3246     4583     5119     4271 
    2814     1593      803      392      608     1606     2768     3407 
    3611     3414     2683     2142     2431     2994     3117     2883 
    2713     2686     2689     2744     2786     2728     2714     2934 
    3245     3157     2725     2602     2836     3037     3096     2959 
    2810     2852     2605     1945     1570     1867     2856     4113 
    4762     4479     3592     2768     2443     2394     2573     2851 
    2785     2511     2218     2077     2524     3144     3219     2793 
    2018     1240     1289     2242     3253     3888     4002     3460 
    2778     2448     2390     2571     2987     3392     3457     3183 
    2914     2697     2515     2574     2841     3221     3546     3419 
    2863     2197     1769     1850     2116     2311     2656     3063 
    3323     3383     3280     3283     3516     3944     4248     3726 
    2446     1250      687     1061     2155     3069     3304     3137 
    3037     3148     3298     3366     3187     2756     2550     2709 
    2926     3121     3181     2797     2038     1551     1836     2679 
    3472     3852     3913     3813     3580     3365     3284     3187 
    3032     2949     2855     2442     1782     1367     1453     2084 
    2965     3377     3149     2673     2289     2388     3069     3846 
    4055     3380     2164     1194     1215     2141     3056     3530 
    3773     3821     3738     3586     3299     3011     2899     2955 
    3032     2949     2820     2825     2775     2404     1894     1861 
    2574     3501     4051     4141     3777     3118     2771     2916 
    3026     2855     2513     2123     1850     1827     2261     3073 
    3696     3807     3362     2439     1733     1788     2303     2979 
    3484     3102     1840      967     1572     3314     5001     5537 
    4723     3431     2582     2350     2516     2978     3485     3690 
    3674     3360     2421     1293      616      454      800     1480 
    2016     2331     2735     3207     3481     3443     3051     2575 
    2413     2578     3038     3619     3852     3703     3491     3334 
    3154     2857     2478     2057     1809     2238     3348     4283 
    4043     2578     1009      496     1098     1907     2277     2458 
    3006     3946     4518     4139     3210     2647     3025     3962 
    4369     3694     2515     1826     1908     2160     2182     2218 
    2570     3118     3372     3080     2454     2041     2307     2972 
    3416     3561     3649     3569     3034     2214     1726     2084 
    3137     4247     4887     4733     3796     2658     1852     1463 
    1491     1945     2527     2798     2880     3082     3064     2596 
    1977     1389     1097     1486     2317     3014     3376     3582 
    3893     4194     4162     3834     3474     3302     3393     3672 
    3923     3738     3064     2551     2471     2332     1998     1844 
    2134     2913     3816     4214     3784     2752     1784     1422 
    1529     1645     1798     2247     2776     2976     2816     2585 
    2486     2597     2926     3302     3534     3618     3566     3397 
    3242     3192     3210     3307     3427     3229     2489     1605 
