Origin Time       2024/04/02 04:24:00
Lat.              40.133
Long.             141.712
Depth. (km)       71
Mag.              6.0
Station Code      HKD080
Station Lat.      43.5077
Station Long.     144.4485
Station Height(m) 140
Record Time       2024/04/02 04:26:17
Sampling Freq(Hz) 100Hz
Duration Time(s)  69
Dir.              E-W
Scale Factor      7845(gal)/8223790
Max. Acc. (gal)   6.860
Last Correction   2024/04/02 04:26:17
Memo.             
[...]
   -7024    -6975    -6612    -6224    -6133    -6203    -6440    -6620 
   -6403    -6189    -6367    -6756    -7088    -7075    -6690    -6334 
   -6253    -6363    -6627    -7021    -7065    -6475    -6057    -6359 
   -6826    -7103    -7242    -7169    -6874    -6536    -6519    -6797 
   -6887    -6880    -6993    -6867    -6542    -6378    -6400    -6523 
   -6521    -6405    -6461    -6462    -6284    -6307    -6502    -6616 
   -6637    -6651    -6783    -6882    -6750    -6677    -6841    -6939 
   -6839    -6766    -6805    -6747    -6515    -6426    -6627    -6813 
   -6686    -6448    -6605    -6902    -6752    -6698    -7109    -7155 
   -6689    -6428    -6480    -6450    -6250    -6219    -6486    -6822 
   -6994    -6799    -6498    -6505    -6571    -6561    -6714    -6987 
   -7186    -7099    -6826    -6798    -6797    -6490    -6409    -6716 
   -6786    -6686    -6952    -7152    -6713    -6305    -6519    -6727 
   -6588    -6439    -6291    -6253    -6664    -7204    -7338    -7048 
   -6443    -5926    -6228    -6998    -7141    -6797    -6683    -6652 
   -6446    -6457    -6999    -7461    -7087    -6408    -6289    -6393 
   -6265    -6380    -6960    -7310    -7138    -6948    -6678    -6162 
   -6150    -6778    -7079    -6828    -6516    -6411    -6574    -6615 
   -6534    -6936    -7249    -6844    -6511    -6459    -6258    -6176 
   -6362    -6648    -6926    -6967    -6804    -6609    -6562    -6886 
   -7063    -6650    -6416    -6681    -6687    -6426    -6573    -6975 
   -6891    -6384    -6286    -6594    -6482    -6214    -6606    -7094 
   -6798    -6322    -6547    -6986    -6797    -6358    -6493    -7029 
   -7183    -6889    -6697    -6525    -6183    -6235    -6662    -6824 
   -6891    -6951    -6624    -6300    -6381    -6467    -6416    -6585 
   -6956    -7029    -6767    -6698    -6774    -6585    -6417    -6583 
   -6770    -6714    -6571    -6542    -6459    -6312    -6453    -6627 
   -6490    -6565    -7028    -7263    -7028    -6667    -6363    -6026 
   -6092    -6867    -7364    -7036    -6598    -6237    -5944    -6210 
   -6813    -7240    -7419    -7096    -6404    -6180    -6536    -6696 
   -6444    -6343    -6546    -6635    -6457    -6276    -6466    -6991 
   -7263    -7102    -6862    -6453    -6015    -6330    -7106    -7194 
   -6686    -6474    -6648    -6675    -6471    -6523    -6816    -6763 
   -6509    -6627    -6952    -7060    -6926    -6768    -6617    -6146 
   -5768    -6235    -6740    -6612    -6604    -6565    -6119    -6158 
   -6745    -6999    -6894    -6817    -6727    -6529    -6606    -7086 
   -7221    -6750    -6397    -6443    -6642    -6947    -7086    -6937 
   -7036    -7260    -6947    -6469    -6416    -6517    -6419    -6335 
   -6598    -6705    -6330    -6438    -6980    -6767    -6251    -6318 
   -6507    -6551    -6770    -7083    -7086    -6812    -6818    -7042 
   -6936    -6762    -6741    -6559    -6450    -6644    -6882    -7072 
   -7140    -6990    -6764    -6674    -6831    -6871    -6511    -6266 
   -6343    -6288    -6293    -6808    -7233    -6949    -6675    -6821 
   -6632    -6331    -6573    -6627    -6264    -6421    -6963    -7013 
   -6704    -6504    -6274    -6180    -6767    -7373    -7040    -6674 
   -7056    -7136    -6528    -6187    -6477    -6847    -6797    -6644 
   -6743    -6651    -6453    -6690    -6968    -6844    -6585    -6471 
   -6436    -6276    -6247    -6535    -6600    -6409    -6439    -6596 
   -6879    -7191    -6932    -6566    -6737    -6669    -6224    -6126 
   -6276    -6629    -6975    -6745    -6561    -7005    -7317    -7009 
   -6574    -6528    -6532    -6091    -5979    -6775    -7356    -7005 
   -6573    -6723    -6953    -6658    -6346    -6658    -6843    -6334 
   -5945    -6174    -6629    -6879    -7001    -7376    -7557    -7042 
   -6459    -6288    -6525    -7061    -7285    -6826    -6093    -5705 
   -5884    -6381    -6948    -7275    -7148    -6991    -6949    -6635 
   -6254    -6215    -6534    -7188    -7636    -7223    -6531    -6401 
   -6421    -6135    -6131    -6482    -6357    -6021    -6575    -7572 
   -7611    -6859    -6485    -6517    -6354    -6242    -6552    -6740 
   -6376    -6245    -6855    -7249    -6840    -6451    -6612    -6689 
   -6349    -6339    -6864    -7007    -6555    -6313    -6436    -6334 
   -6247    -6845    -7554    -7481    -6953    -6538    -6308    -6390 
   -6805    -7222    -7338    -7076    -6531    -6014    -6023    -6709 
   -7365    -7233    -6473    -5698    -5563    -6281    -6893    -6840 
   -6824    -6851    -6484    -6237    -6504    -6880    -7010    -6886 
   -6654    -6636    -6832    -6708    -6511    -6944    -7256    -6717 
   -6336    -6512    -6492    -6513    -6671    -6362    -6245    -6659 
   -6606    -6462    -7090    -7487    -6929    -6435    -6516    -6421 
   -6115    -6507    -7218    -6941    -6120    -5983    -6250    -6470 
   -6976    -7577    -7550    -6813    -6288    -6534    -6698    -6393 
   -6436    -6772    -6768    -6520    -6226    -6162    -6527    -6885 
   -6968    -6874    -6609    -6488    -6763    -7083    -7102    -6940 
   -6801    -6609    -6377    -6528    -6914    -6731    -6189    -6215 
   -6588    -6577    -6357    -6408    -6562    -6334    -6102    -6710 
   -7449    -7105    -6492    -6556    -6471    -6026    -6180    -6956 
   -7649    -7761    -7169    -6408    -6021    -6027    -6319    -6743 
   -7090    -7119    -6778    -6565    -6610    -6397    -6230    -6718 
   -7354    -7522    -7327    -6964    -6520    -6269    -6382    -6523 
   -6606    -6790    -6612    -6246    -6478    -6767    -6497    -6430 
   -7033    -7507    -7186    -6778    -6798    -6555    -6251    -6671 
   -7129    -6763    -6178    -6238    -6517    -6459    -6714    -7285 
   -7115    -6488    -6316    -6435    -6650    -6910    -6817    -6531 
   -6559    -6675    -6447    -6253    -6554    -6956    -7130    -7206 
   -7060    -6646    -6226    -6025    -6157    -6442    -6639    -6673 
   -6424    -6185    -6358    -6569    -6629    -7038    -7568    -7326 
   -6453    -5994    -6205    -6597    -7056    -7439    -7238    -6565 
   -6204    -6565    -7169    -7206    -6822    -6621    -6323    -6018 
   -6322    -6758    -6886    -6997    -7038    -6980    -6806    -6409 
   -6268    -6585    -6866    -6879    -6659    -6335    -6077    -5994 
   -6388    -7075    -7410    -7439    -7102    -6138    -5517    -5987 
   -6646    -6855    -7044    -7161    -6732    -6347    -6891    -7591 
   -7207    -6400    -6372    -6767    -7017    -7338    -7547    -7018 
   -5821    -4995    -5401    -6428    -6955    -7033    -7138    -6978 
   -6257    -5636    -5892    -6562    -6810    -6949    -7344    -7300 
   -6669    -6376    -6681    -6870    -6592    -6300    -6451    -6613 
   -6457    -6767    -7468    -7261    -6339    -5854    -5842    -6087 
   -6700    -7348    -7352    -6652    -6208    -6477    -6639    -6561 
   -6895    -7206    -6837    -6280    -6259    -6712    -6920    -6705 
   -6579    -6399    -6004    -6238    -7229    -7681    -6987    -6150 
   -6106    -6480    -6606    -6789    -7325    -7487    -6967    -6633 
   -6747    -6490    -5953    -6212    -6874    -6579    -5765    -5810 
   -6601    -7219    -7626    -7962    -7312    -5606    -4853    -5845 
   -6990    -7514    -7701    -7194    -6145    -5564    -5744    -6308 
   -7101    -8078    -8509    -7604    -6147    -5412    -5548    -6231 
   -7033    -7470    -7136    -6008    -5086    -5121    -5645    -6455 
   -7520    -8301    -8541    -7943    -6687    -6030    -6131    -6295 
   -6745    -7330    -7350    -6929    -6696    -6810    -6426    -5503 
   -5660    -6743    -7164    -7504    -8407    -8384    -6818    -5394 
   -5432    -6151    -6658    -7484    -8419    -8001    -6419    -5215 
   -4650    -4725    -6249    -8291    -8499    -6879    -5401    -5159 
   -6211    -8047    -9517    -9487    -7848    -5744    -4448    -4328 
   -5130    -6313    -7221    -7329    -6400    -5260    -5402    -6781 
   -7765    -7692    -7495    -7292    -6172    -4945    -5088    -5846 
   -6131    -6471    -7214    -7747    -7807    -7537    -6858    -6268 
   -6843    -8279    -8866    -7778    -5888    -4453    -4202    -5313 
   -6820    -7250    -6615    -5952    -5850    -6467    -7357    -7707 
   -7279    -6345    -5398    -5211    -6280    -7863    -8289    -7198 
   -6183    -6320    -6999    -7238    -6652    -5854    -5776    -6196 
   -6636    -7389    -8140    -8135    -7338    -6038    -5166    -5733 
   -6891    -7225    -6918    -6490    -5857    -5390    -5724    -6748 
   -7699    -7798    -7068    -6365    -6393    -7275    -8090    -7437 
   -5859    -5188    -5571    -6400    -7732    -8626    -7697    -5984 
   -5649    -6455    -6963    -7481    -8681    -9587    -8993    -7285 
   -5832    -5053    -4365    -3937    -4359    -5555    -7360    -9208 
   -9995    -9126    -6745    -4465    -4394    -5543    -5397    -4361 
   -4309    -5829    -8299   -10099   -10046    -8317    -5389    -2536 
   -1636    -2857    -5017    -7389    -9803   -11904   -12468   -10619 
   -7565    -5119    -3815    -3636    -4468    -5656    -6659    -7389 
   -7587    -7209    -6683    -6266    -6033    -5903    -5829    -5938 
   -5701    -4976    -5408    -7975   -10905   -11657    -9436    -5697 
   -2995    -2905    -4639    -6174    -6863    -7526    -8320    -8592 
   -7762    -6025    -5043    -5927    -7366    -8164    -8723    -8935 
   -8036    -6508    -5818    -6365    -6794    -5890    -4495    -4364 
   -5525    -6338    -6115    -5761    -5888    -6346    -7109    -8380 
   -9840    -9963    -7524    -3812    -1632    -2613    -6192   -10156 
  -11655    -9117    -4491    -2097    -3865    -7524    -9802    -9328 
   -6806    -3960    -2934    -5023    -8255    -9350    -8694    -8534 
   -8270    -6565    -4766    -4699    -5938    -7361    -8900    -9973 
   -9320    -7317    -5236    -3492    -2786    -4364    -8079   -11348 
  -11422    -8997    -6330    -3713    -1661    -2057    -4985    -7950 
   -8918    -8761    -8779    -8156    -7307    -7870    -7940    -5401 
   -2986    -3426    -5103    -5811    -5895    -6149    -6318    -6598 
   -7495    -8068    -6917    -4969    -4980    -7295    -9379    -9999 
   -9655    -8176    -5471    -3033    -2952    -5617    -9032   -10673 
   -9207    -5510    -2598    -2709    -5130    -7531    -8384    -7900 
   -6778    -5578    -5443    -6839    -8725    -9794    -8946    -6694 
   -5289    -5332    -5746    -6272    -6906    -7092    -6322    -4973 
   -4326    -4941    -6366    -8291   -10030   -10392    -9117    -7356 
   -6421    -6274    -6076    -5833    -5969    -6026    -5139    -4044 
   -4706    -6844    -8093    -7219    -4860    -3369    -4831    -7720 
   -8988    -8298    -7334    -7585    -9460   -11592   -11622    -8449 
   -3726     -810    -1657    -5206    -8591    -9254    -7094    -4739 
   -4598    -6458    -8546    -9327    -8055    -5401    -3481    -3800 
   -5584    -7028    -7322    -7167    -7503    -8025    -7946    -7568 
   -7614    -8104    -8573    -8274    -6882    -5323    -4770    -5130 
   -5366    -5238    -5659    -7222    -9120    -9397    -6812    -2976 
   -1300    -3306    -7310   -10631   -11214    -8143    -3476    -1370 
   -3200    -6658    -9281   -10102    -9479    -8422    -7362    -5940 
   -4063    -2639    -2713    -4634    -7827   -10386   -10714    -9278 
   -7157    -5163    -4453    -5651    -7730    -8850    -8433    -7447 
   -6431    -5170    -4527    -5686    -7603    -8271    -7609    -6929 
   -7052    -7827    -8225    -6858    -3825    -1790    -3161    -6837 
   -9655   -10015    -8900    -8000    -7767    -8128    -9043    -9094 
   -6972    -4279    -3450    -4654    -6540    -7893    -7719    -5466 
   -2735    -2725    -5575    -8005    -8649    -8455    -7489    -5895 
   -5140    -5880    -6586    -5903    -5158    -5992    -7531    -8255 
   -7673    -6447    -6180    -6933    -7408    -7902    -8837    -9444 
   -9270    -7603    -4405    -1787    -1463    -3600    -7327   -10381 
  -11029    -9517    -6972    -5125    -5298    -6912    -8542    -8869 
   -7345    -5208    -3755    -3192    -3773    -5337    -7079    -8432 
   -8491    -6700    -4784    -4731    -5838    -6709    -7697    -9262 
  -10093    -8665    -5726    -3418    -3061    -5136    -8829   -11562 
  -11489    -9269    -6586    -4492    -3227    -2983    -4116    -5846 
   -6619    -6604    -6845    -6770    -6072    -6041    -7109    -8496 
   -9387    -9020    -7438    -5811    -5387    -5833    -5652    -5300 
   -6484    -8679    -9914    -8930    -5894    -3141    -3403    -6276 
   -8876    -9308    -7470    -4818    -3738    -4853    -6739    -8317 
   -8764    -7372    -5287    -4818    -6272    -7604    -7647    -7163 
   -6939    -7126    -7330    -6844    -5775    -5027    -5196    -6237 
   -7763    -9111    -9221    -7807    -6203    -5501    -5664    -6620 
   -7537    -7011    -5516    -4741    -5113    -6203    -7929    -9813 
  -10045    -7389    -3813    -2407    -3662    -6048    -7817    -7917 
   -6995    -6447    -6836    -7861    -8611    -8352    -7150    -5521 
   -4198    -3618    -3667    -4482    -6180    -8244    -9806    -9714 
   -7734    -5501    -4303    -4492    -6662    -9775   -11099    -9321 
   -5402    -2130    -2192    -5324    -9022   -10735    -9289    -6111 
   -3672    -3117    -4733    -8370   -12183   -12896    -8947    -2884 
     527     -978    -5277    -9304   -11832   -12085    -9173    -4214 
    -742    -1220    -4486    -8104   -10736   -11325    -9486    -6906 
   -5530    -5580    -6836    -9015   -10388    -9455    -7357    -5583 
   -3916    -3030    -4598    -7646    -9356    -8775    -6748    -4410 
   -3262    -4195    -6222    -8113    -9277    -8770    -6870    -5497 
   -5186    -5310    -6079    -7014    -6556    -4961    -4309    -5389 
   -7056    -7892    -7739    -7819    -8317    -8062    -7090    -5946 
   -4642    -4182    -5560    -7840    -9383    -9298    -7419    -4239 
   -1418    -1606    -5445    -9790   -11392   -10189    -7884    -5833 
   -4588    -4363    -5239    -6674    -7740    -7823    -6840    -5676 
   -5730    -7441    -9768   -10739    -9232    -6505    -4369    -3512 
   -4131    -5478    -6272    -6417    -6353    -6524    -7429    -8303 
   -8104    -7496    -7720    -8893    -9859    -9181    -6766    -4018 
   -2640    -3391    -5197    -6365    -6700    -6837    -6947    -7209 
   -7570    -7303    -6230    -5363    -5598    -6596    -7385    -7522 
   -7241    -6912    -6737    -6984    -7703    -8299    -8491    -8320 
   -7136    -5135    -3898    -3985    -4833    -6174    -7605    -8199 
   -7250    -5224    -3510    -3154    -4553    -7271    -9549    -9728 
   -8056    -6151    -5337    -5796    -7001    -8278    -8560    -7006 
   -4592    -3703    -5532    -8675   -10562    -9780    -6913    -3801 
   -2232    -2862    -5279    -8687   -11584   -12090   -10189    -7785 
   -5775    -3804    -2532    -2890    -4311    -6004    -7789    -9090 
   -9069    -7371    -4962    -3742    -3987    -4729    -6108    -7935 
   -8492    -7192    -5865    -6076    -7155    -8129    -9119    -9969 
  -10116    -9433    -8106    -6401    -4607    -3462    -3827    -5205 
   -6311    -6793    -6851    -6574    -6631    -7781    -9271    -9618 
   -8652    -7064    -5258    -3723    -3152    -3882    -5703    -7815 
   -9174    -9096    -7438    -4974    -3395    -3831    -5992    -8835 
  -10729   -10481    -8820    -6697    -4536    -3689    -4560    -6220 
   -8614   -10579    -9914    -7153    -4552    -3681    -4672    -5587 
   -5286    -4911    -4870    -5088    -6297    -8388   -10480   -11470 
  -10368    -7797    -5346    -4070    -4166    -4788    -5478    -6527 
   -7530    -8145    -8409    -7603    -5863    -4949    -5502    -6374 
   -7095    -7954    -7997    -6463    -4823    -4320    -4418    -4749 
   -5398    -6386    -7916    -9348    -9684    -9236    -8542    -7539 
   -6370    -5243    -4530    -4754    -5706    -6924    -8090    -8306 
   -7379    -6828    -7310    -7753    -7724    -7268    -6060    -4727 
   -4484    -5271    -5721    -5132    -4761    -5710    -7233    -8544 
   -9502    -9313    -7560    -5775    -5471    -6200    -7063    -7781 
   -8117    -8145    -8164    -8078    -7909    -7848    -7284    -5400 
   -3113    -2446    -3554    -4942    -6034    -6736    -6444    -5306 
   -4436    -4750    -6334    -8236    -9256    -9180    -8629    -7938 
   -7052    -6401    -6636    -7385    -7585    -6856    -5665    -4741 
   -4870    -6305    -7979    -8421    -7483    -6303    -5810    -5999 
   -6783    -8100    -8723    -7582    -5935    -5553    -6353    -7163 
   -7256    -6642    -5414    -3925    -3264    -4086    -6031    -8376 
  -10115   -10427    -9154    -6624    -4056    -2938    -3781    -6358 
   -9517   -11117    -9950    -6606    -3022    -1806    -3666    -6597 
   -8680    -9202    -8128    -6575    -6168    -7172    -8488    -9109 
   -8656    -7468    -6390    -5896    -5800    -5640    -5146    -4552 
   -4363    -5028    -6633    -8498    -9424    -8673    -6636    -4534 
   -3676    -4683    -6816    -8514    -8793    -7647    -5904    -4982 
   -5464    -6351    -6602    -6289    -6232    -6913    -7707    -7985 
   -7893    -7387    -6482    -5713    -5240    -5179    -5880    -6794 
   -7009    -6871    -7416    -8638    -9486    -9377    -8556    -7290 
   -6045    -5668    -6110    -6307    -5764    -4958    -4558    -4801 
   -5356    -5845    -6295    -7038    -8095    -8773    -8613    -8000 
   -7207    -6237    -5610    -5850    -6588    -6966    -6633    -6064 
   -5821    -6033    -6799    -7917    -8374    -7418    -5694    -4549 
   -4661    -5975    -8117    -9933   -10208    -8984    -6993    -5196 
   -4580    -5061    -5925    -6639    -6462    -5485    -5108    -6018 
   -7418    -7966    -7187    -6388    -6501    -6702    -6573    -6408 
   -6195    -6208    -6623    -6880    -6561    -5925    -5632    -5957 
   -6444    -6797    -7094    -7425    -7866    -7897    -6921    -5552 
   -4611    -4419    -5462    -7281    -8360    -8090    -6840    -5521 
   -5413    -6448    -7493    -8293    -8897    -8854    -8098    -7106 
   -6301    -6119    -6721    -7287    -6774    -5265    -3788    -3489 
   -4931    -7356    -9099    -9089    -7773    -6447    -5802    -5973 
   -7137    -8710    -9444    -8912    -7534    -5713    -4267    -4328 
   -5725    -7199    -7992    -7539    -5895    -4765    -5067    -5763 
   -6486    -7331    -7260    -6038    -5302    -6169    -7817    -8830 
   -8721    -7852    -6623    -5440    -4903    -5193    -5856    -6465 
   -6999    -7506    -7704    -7369    -6674    -5884    -5278    -5139 
   -5479    -6087    -6790    -7515    -7896    -7402    -6419    -5929 
   -6108    -6693    -7441    -7668    -7128    -6609    -6556    -6579 
   -6354    -5911    -5560    -5764    -6590    -7568    -8120    -7884 
   -7114    -6459    -6230    -6513    -7084    -7381    -7420    -7477 
   -7384    -7210    -7217    -7163    -6679    -5948    -5449    -5065 
   -4607    -4860    -6072    -7134    -7592    -8028    -8364    -7859 
   -6760    -6050    -5814    -5844    -6447    -7470    -8262    -8241 
   -7204    -6037    -5914    -6624    -7159    -7096    -6544    -5919 
