Origin Time       2024/04/02 04:24:00
Lat.              40.133
Long.             141.712
Depth. (km)       71
Mag.              6.0
Station Code      HKD097
Station Lat.      42.6181
Station Long.     143.4210
Station Height(m) 33
Record Time       2024/04/02 04:25:53
Sampling Freq(Hz) 100Hz
Duration Time(s)  76
Dir.              E-W
Scale Factor      7845(gal)/8223790
Max. Acc. (gal)   2.364
Last Correction   2024/04/02 04:25:37
Memo.             
[...]
  -18671   -18920   -19089   -19163   -19188   -19109   -18924   -18781 
  -18729   -18681   -18625   -18563   -18423   -18241   -18115   -18087 
  -18184   -18378   -18582   -18744   -18846   -18886   -18881   -18812 
  -18711   -18661   -18644   -18580   -18501   -18486   -18490   -18435 
  -18360   -18373   -18482   -18601   -18708   -18828   -18929   -19001 
  -19041   -19052   -19060   -19056   -19036   -19033   -18970   -18793 
  -18609   -18447   -18273   -18176   -18188   -18207   -18246   -18362 
  -18489   -18590   -18709   -18806   -18841   -18846   -18839   -18821 
  -18777   -18717   -18670   -18615   -18577   -18596   -18592   -18511 
  -18418   -18354   -18326   -18350   -18414   -18480   -18551   -18642 
  -18705   -18721   -18762   -18827   -18846   -18835   -18800   -18700 
  -18559   -18436   -18365   -18401   -18543   -18666   -18702   -18690 
  -18624   -18513   -18472   -18512   -18531   -18512   -18499   -18511 
  -18538   -18574   -18679   -18831   -18909   -18935   -18939   -18854 
  -18706   -18549   -18374   -18272   -18288   -18387   -18582   -18848 
  -19111   -19319   -19367   -19249   -19091   -18928   -18778   -18706 
  -18677   -18634   -18578   -18490   -18384   -18303   -18237   -18173 
  -18106   -18065   -18169   -18385   -18559   -18713   -18952   -19211 
  -19377   -19453   -19460   -19392   -19238   -19025   -18797   -18538 
  -18289   -18125   -18015   -17946   -17973   -18079   -18246   -18509 
  -18825   -19059   -19174   -19221   -19143   -18908   -18685   -18562 
  -18489   -18443   -18397   -18301   -18215   -18222   -18308   -18441 
  -18619   -18827   -18970   -18966   -18909   -18854   -18746   -18624 
  -18562   -18601   -18689   -18643   -18508   -18457   -18376   -18223 
  -18191   -18276   -18393   -18589   -18809   -18932   -18972   -18952 
  -18844   -18715   -18679   -18738   -18836   -18927   -18890   -18748 
  -18677   -18635   -18531   -18446   -18370   -18223   -18087   -18079 
  -18160   -18280   -18458   -18639   -18733   -18763   -18792   -18819 
  -18837   -18839   -18821   -18825   -18837   -18778   -18665   -18539 
  -18426   -18382   -18377   -18341   -18347   -18442   -18546   -18667 
  -18873   -19078   -19129   -19068   -19012   -18928   -18785   -18634 
  -18463   -18293   -18247   -18284   -18300   -18385   -18557   -18686 
  -18782   -18891   -18943   -18928   -18925   -18929   -18868   -18759 
  -18657   -18569   -18538   -18589   -18636   -18630   -18607   -18570 
  -18519   -18500   -18532   -18609   -18720   -18828   -18921   -19032 
  -19151   -19176   -19037   -18820   -18615   -18395   -18214   -18180 
  -18212   -18207   -18212   -18250   -18256   -18256   -18330   -18458 
  -18607   -18782   -18960   -19116   -19238   -19322   -19352   -19307 
  -19194   -18989   -18659   -18312   -18090   -17979   -17938   -18021 
  -18210   -18357   -18445   -18605   -18800   -18906   -18974   -19032 
  -19028   -18979   -18932   -18898   -18874   -18832   -18736   -18615 
  -18551   -18505   -18377   -18268   -18308   -18430   -18530   -18588 
  -18603   -18597   -18607   -18624   -18642   -18674   -18729   -18771 
  -18755   -18677   -18585   -18530   -18489   -18447   -18472   -18558 
  -18655   -18762   -18783   -18684   -18603   -18532   -18389   -18289 
  -18297   -18338   -18424   -18605   -18824   -19035   -19240   -19408 
  -19440   -19278   -19017   -18774   -18522   -18261   -18096   -17980 
  -17861   -17845   -17942   -18122   -18445   -18823   -19129   -19421 
  -19603   -19508   -19310   -19160   -18910   -18573   -18369   -18283 
  -18199   -18157   -18162   -18179   -18274   -18457   -18630   -18793 
  -18994   -19171   -19232   -19226   -19190   -19040   -18828   -18651 
  -18469   -18342   -18342   -18328   -18284   -18293   -18276   -18233 
  -18293   -18419   -18526   -18665   -18833   -18905   -18883   -18819 
  -18648   -18388   -18158   -18015   -17932   -17899   -17977   -18145 
  -18247   -18281   -18393   -18500   -18534   -18667   -18925   -19170 
  -19329   -19344   -19160   -18831   -18463   -18179   -18135   -18372 
  -18731   -19097   -19415   -19597   -19600   -19487   -19395   -19413 
  -19494   -19507   -19337   -18991   -18546   -18013   -17487   -17221 
  -17297   -17552   -17901   -18327   -18657   -18837   -19086   -19421 
  -19691   -19882   -19905   -19635   -19159   -18604   -18154   -17975 
  -17984   -18085   -18222   -18296   -18395   -18554   -18644   -18704 
  -18752   -18712   -18612   -18431   -18142   -17822   -17550   -17371 
  -17319   -17500   -17979   -18469   -18742   -18998   -19225   -19253 
  -19359   -19593   -19665   -19637   -19525   -19157   -18674   -18199 
  -17747   -17502   -17550   -17784   -18134   -18515   -18943   -19377 
  -19564   -19573   -19637   -19550   -19272   -19057   -18825   -18513 
  -18299   -18187   -18139   -18222   -18424   -18688   -18860   -18939 
  -19140   -19199   -18814   -18431   -18210   -17923   -17999   -18574 
  -19130   -19680   -20212   -20250   -19894   -19510   -19117   -18813 
  -18651   -18584   -18609   -18607   -18522   -18393   -18175   -17905 
  -17586   -17239   -17092   -17045   -16877   -16804   -16854   -16876 
  -17093   -17626   -18364   -19302   -20228   -20733   -20744   -20470 
  -20090   -19735   -19484   -19321   -19165   -18925   -18543   -18068 
  -17662   -17429   -17294   -17274   -17535   -18030   -18608   -19186 
  -19572   -19588   -19296   -18891   -18616   -18667   -19020   -19438 
  -19651   -19592   -19404   -19117   -18787   -18613   -18508   -18315 
  -18092   -17833   -17624   -17624   -17736   -17932   -18331   -18819 
  -19194   -19485   -19738   -19862   -19832   -19689   -19399   -18924 
  -18427   -18065   -17697   -17339   -17243   -17405   -17787   -18385 
  -19010   -19569   -19985   -20019   -19616   -18891   -18023   -17351 
  -17072   -17105   -17435   -17998   -18499   -18825   -19106   -19379 
  -19643   -19853   -19882   -19673   -19213   -18576   -18038   -17884 
  -18045   -18338   -18743   -19060   -19149   -19168   -19086   -18908 
  -18841   -18778   -18654   -18651   -18651   -18563   -18585   -18698 
  -18793   -18855   -18843   -18844   -18847   -18666   -18463   -18376 
  -18121   -17739   -17518   -17336   -17203   -17424   -17891   -18426 
  -19109   -19707   -19980   -20119   -20198   -20113   -19939   -19660 
  -19261   -18964   -18744   -18496   -18445   -18508   -18407   -18296 
  -18231   -18069   -17972   -17965   -17847   -17752   -17771   -17810 
  -18025   -18465   -18979   -19507   -19816   -19699   -19314   -18748 
  -18060   -17609   -17521   -17612   -17867   -18121   -18046   -17809 
  -17734   -17820   -18103   -18674   -19322   -19838   -20218   -20425 
  -20428   -20277   -19965   -19549   -19110   -18661   -18257   -17910 
  -17591   -17356   -17271   -17358   -17636   -18069   -18443   -18481 
  -18239   -18026   -17988   -18179   -18631   -19232   -19803   -20182 
  -20372   -20495   -20424   -20067   -19614   -19056   -18384   -17861 
  -17473   -17113   -17042   -17243   -17479   -17857   -18310   -18527 
  -18677   -18958   -19201   -19384   -19607   -19720   -19433   -18717 
  -17864   -17115   -16676   -16746   -17235   -17955   -18751   -19452 
  -20028   -20424   -20472   -20193   -19718   -19156   -18658   -18314 
  -18083   -17871   -17671   -17463   -17212   -17136   -17448   -18104 
  -19009   -19897   -20490   -20788   -20776   -20385   -19723   -18945 
  -18218   -17743   -17518   -17442   -17518   -17641   -17632   -17544 
  -17516   -17529   -17612   -17865   -18183   -18445   -18738   -19040 
  -19253   -19510   -19905   -20255   -20470   -20595   -20488   -20061 
  -19511   -19017   -18505   -17930   -17443   -17132   -16980   -17003 
  -17142   -17377   -17779   -18237   -18592   -18920   -19348   -19785 
  -20078   -20233   -20191   -19799   -19187   -18586   -18015   -17622 
  -17545   -17633   -17876   -18337   -18800   -19126   -19319   -19330 
  -19180   -18916   -18569   -18284   -18171   -18165   -18183   -18252 
  -18435   -18652   -18789   -18878   -18940   -18970   -19037   -19125 
  -19133   -19079   -19063   -19032   -18901   -18721   -18544   -18455 
  -18561   -18767   -18952   -19110   -19076   -18728   -18310   -18052 
  -17930   -17976   -18234   -18555   -18760   -18864   -18991   -19140 
  -19190   -19070   -18709   -18123   -17635   -17516   -17653   -17933 
  -18365   -18778   -18952   -18879   -18682   -18490   -18377   -18360 
  -18438   -18542   -18613   -18654   -18617   -18531   -18535   -18696 
  -19017   -19473   -19896   -20048   -19842   -19314   -18523   -17686 
  -17077   -16729   -16623   -16899   -17521   -18299   -19102   -19784 
  -20266   -20606   -20760   -20569   -20029   -19348   -18709   -18100 
  -17585   -17366   -17469   -17712   -17929   -18098   -18225   -18195 
  -18060   -18048   -18117   -18181   -18333   -18513   -18592   -18600 
  -18648   -18775   -18841   -18763   -18747   -18802   -18677   -18558 
  -18669   -18690   -18631   -18783   -18840   -18558   -18258   -18044 
  -17830   -17834   -18123   -18539   -19075   -19646   -20042   -20259 
  -20325   -20204   -20013   -19768   -19398   -19097   -18882   -18508 
  -18110   -17938   -17880   -17856   -17875   -17790   -17637   -17587 
  -17562   -17635   -17967   -18362   -18748   -19180   -19475   -19634 
  -19734   -19565   -19194   -18972   -18945   -19064   -19302   -19411 
  -19259   -18856   -18183   -17516   -17082   -16796   -16819   -17203 
  -17686   -18347   -19157   -19795   -20335   -20761   -20730   -20382 
  -19915   -19165   -18326   -17706   -17194   -16825   -16785   -16957 
  -17319   -17950   -18648   -19291   -19904   -20314   -20402   -20286 
  -20027   -19577   -19048   -18574   -18119   -17751   -17670   -17874 
  -18211   -18671   -19192   -19483   -19518   -19499   -19399   -19282 
  -19260   -19229   -19205   -19219   -19059   -18662   -18196   -17814 
  -17589   -17451   -17406   -17554   -17745   -17879   -18110   -18396 
  -18713   -19130   -19487   -19755   -19942   -19850   -19580   -19299 
  -18863   -18395   -18126   -17840   -17512   -17423   -17413   -17359 
  -17559   -17938   -18268   -18675   -19030   -19101   -19035   -18894 
  -18592   -18204   -17919   -17890   -18088   -18405   -18756   -19051 
  -19205   -19137   -18958   -18897   -18889   -18832   -18878   -18986 
  -18975   -18866   -18729   -18581   -18450   -18301   -18165   -18152 
  -18176   -18125   -18068   -18049   -18064   -18126   -18200   -18307 
  -18532   -18852   -19138   -19294   -19267   -19076   -18825   -18607 
  -18468   -18480   -18611   -18705   -18727   -18754   -18766   -18744 
  -18727   -18719   -18752   -18863   -18951   -18995   -19124   -19228 
  -19165   -19049   -18808   -18318   -17803   -17486   -17443   -17699 
  -18121   -18539   -18827   -18929   -18908   -18773   -18561   -18408 
  -18378   -18427   -18520   -18719   -18960   -19066   -19128   -19253 
  -19295   -19184   -18960   -18605   -18148   -17722   -17446   -17361 
  -17490   -17811   -18215   -18631   -19047   -19349   -19435   -19391 
  -19302   -19101   -18766   -18505   -18442   -18457   -18567   -18870 
  -19182   -19357   -19496   -19579   -19503   -19341   -19149   -18879 
  -18540   -18204   -17940   -17744   -17537   -17338   -17266   -17356 
  -17579   -17945   -18414   -18827   -19029   -19075   -19152   -19236 
  -19214   -19192   -19238   -19232   -19149   -19075   -18987   -18823 
  -18635   -18481   -18279   -18026   -17842   -17683   -17531   -17585 
  -17876   -18229   -18588   -18954   -19253   -19441   -19542   -19615 
  -19666   -19647   -19533   -19309   -19033   -18833   -18721   -18619 
  -18490   -18270   -17891   -17477   -17244   -17248   -17405   -17733 
  -18314   -19056   -19751   -20287   -20615   -20667   -20405   -19920 
  -19349   -18754   -18253   -17955   -17755   -17633   -17706   -17929 
  -18246   -18662   -19048   -19275   -19299   -19126   -18839   -18523 
  -18220   -18006   -17898   -17803   -17741   -17797   -17895   -17953 
  -18050   -18242   -18476   -18727   -18975   -19180   -19357   -19519 
  -19566   -19516   -19556   -19638   -19581   -19394   -19098   -18625 
  -17979   -17297   -16807   -16609   -16675   -17003   -17460   -17941 
  -18550   -19207   -19755   -20272   -20663   -20722   -20555   -20247 
  -19734   -19125   -18558   -18052   -17689   -17585   -17770   -18142 
  -18512   -18739   -18762   -18634   -18527   -18550   -18588   -18526 
  -18455   -18404   -18328   -18270   -18237   -18268   -18401   -18581 
  -18800   -19045   -19236   -19329   -19246   -18881   -18358   -17917 
  -17639   -17497   -17500   -17736   -18200   -18765   -19341   -19909 
  -20426   -20767   -20819   -20582   -20078   -19363   -18603   -17994 
  -17608   -17458   -17512   -17612   -17707   -17922   -18314   -18790 
  -19228   -19603   -19874   -19944   -19908   -19862   -19664   -19306 
  -18862   -18320   -17871   -17610   -17482   -17562   -17709   -17779 
  -17973   -18256   -18463   -18765   -19076   -19133   -19072   -18986 
  -18802   -18689   -18663   -18612   -18632   -18690   -18655   -18620 
  -18623   -18611   -18732   -18999   -19110   -19094   -19175   -19148 
  -18991   -18936   -18812   -18592   -18530   -18532   -18522   -18585 
  -18593   -18496   -18397   -18252   -18166   -18273   -18424   -18593 
  -18829   -18995   -19107   -19332   -19618   -19865   -20088   -20213 
  -20170   -19961   -19504   -18837   -18156   -17469   -16818   -16463 
  -16422   -16530   -16823   -17270   -17759   -18354   -19045   -19745 
  -20443   -20965   -21120   -20972   -20542   -19777   -18810   -17861 
  -17086   -16567   -16316   -16366   -16717   -17230   -17744   -18215 
  -18612   -18833   -18886   -18927   -18972   -18931   -18905   -18940 
  -18916   -18881   -18855   -18766   -18715   -18733   -18675   -18594 
  -18616   -18648   -18619   -18555   -18463   -18414   -18457   -18531 
  -18617   -18721   -18806   -18906   -18993   -18995   -19047   -19167 
  -19141   -18970   -18711   -18306   -17864   -17536   -17388   -17524 
  -17868   -18195   -18443   -18631   -18723   -18739   -18792   -18964 
  -19095   -18990   -18747   -18496   -18241   -18036   -17884   -17776 
  -17776   -17898   -18161   -18590   -19020   -19209   -19097   -18796 
  -18459   -18193   -18056   -18049   -18042   -17913   -17793   -17829 
  -17988   -18235   -18523   -18738   -18809   -18751   -18644   -18563 
  -18482   -18397   -18346   -18246   -18112   -18087   -18119   -18104 
  -18122   -18231   -18362   -18551   -18874   -19165   -19341   -19618 
  -20001   -20208   -20218   -20197   -20008   -19576   -19143   -18759 
  -18284   -17787   -17390   -17089   -16929   -16985   -17257   -17694 
  -18222   -18742   -19221   -19647   -19957   -20133   -20198   -20115 
  -19923   -19688   -19332   -18875   -18484   -18212   -18036   -17963 
  -18010   -18214   -18636   -19201   -19737   -20164   -20380   -20224 
  -19757   -19225   -18751   -18318   -17928   -17590   -17308   -17077 
  -16950   -17030   -17288   -17593   -17949   -18369   -18728   -19041 
  -19418   -19719   -19792   -19668   -19286   -18662   -18045   -17529 
  -17107   -16933   -17091   -17498   -18123   -18904   -19657   -20235 
  -20571   -20660   -20525   -20227   -19866   -19537   -19246   -18949 
  -18605   -18177   -17674   -17270   -17142   -17273   -17622   -18117 
  -18511   -18720   -18837   -18763   -18578   -18553   -18538   -18443 
  -18531   -18652   -18607   -18632   -18716   -18740   -18927   -19259 
  -19533   -19826   -20063   -19958   -19619   -19396   -19242   -19067 
  -19068   -19186   -19187   -19049   -18833   -18644   -18530   -18451 
  -18389   -18200   -17851   -17516   -17203   -17000   -17136   -17489 
  -17868   -18342   -18778   -19014   -19198   -19354   -19403   -19483 
  -19627   -19666   -19543   -19286   -18924   -18570   -18351   -18287 
  -18319   -18384   -18389   -18293   -18229   -18293   -18415   -18603 
  -18878   -19105   -19236   -19356   -19408   -19329   -19168   -18917 
  -18531   -18091   -17751   -17558   -17439   -17425   -17590   -17907 
  -18345   -18833   -19282   -19665   -19962   -20177   -20314   -20325 
  -20206   -19940   -19480   -18948   -18512   -18195   -18015   -17984 
  -17971   -17891   -17857   -17941   -18061   -18184   -18288   -18249 
  -18080   -17929   -17807   -17722   -17772   -17930   -18135   -18401 
  -18655   -18783   -18779   -18678   -18504   -18288   -18076   -17892 
  -17793   -17863   -18037   -18245   -18590   -18998   -19237   -19377 
  -19593   -19811   -20016   -20325   -20659   -20845   -20827   -20545 
  -19936   -19098   -18273   -17618   -17224   -17186   -17388   -17544 
  -17558   -17442   -17224   -17080   -17166   -17477   -17907   -18327 
  -18696   -19039   -19325   -19525   -19670   -19791   -19816   -19647 
  -19348   -19053   -18752   -18384   -17994   -17622   -17288   -17139 
  -17278   -17605   -18015   -18482   -18941   -19257   -19390   -19404 
  -19269   -18993   -18708   -18451   -18216   -18096   -18152   -18283 
  -18349   -18351   -18369   -18414   -18547   -18885   -19326   -19619 
  -19705   -19593   -19228   -18759   -18396   -18162   -18041   -18050 
  -18179   -18326   -18453   -18617   -18817   -18978   -19017   -18963 
  -18862   -18636   -18408   -18341   -18357   -18462   -18673   -18805 
  -18874   -18924   -18810   -18652   -18658   -18720   -18790   -18935 
  -19030   -18972   -18866   -18785   -18675   -18596   -18694   -18964 
  -19259   -19458   -19525   -19461   -19275   -19037   -18855   -18719 
  -18620   -18563   -18441   -18241   -18049   -17848   -17705   -17747 
  -17917   -18141   -18377   -18559   -18731   -18909   -18999   -19063 
  -19172   -19245   -19317   -19352   -19164   -18886   -18681   -18455 
  -18301   -18319   -18364   -18493   -18847   -19217   -19411   -19465 
  -19326   -18944   -18516   -18229   -18092   -18117   -18283   -18453 
  -18553   -18650   -18777   -18974   -19318   -19704   -19963   -20052 
  -19927   -19521   -18885   -18189   -17605   -17239   -17136   -17274 
  -17545   -17833   -18121   -18439   -18712   -18870   -18956   -18951 
  -18866   -18820   -18787   -18692   -18585   -18441   -18218   -18033 
  -17967   -18027   -18215   -18400   -18504   -18608   -18704   -18723 
  -18756   -18860   -18948   -19001   -19049   -19097   -19179   -19240 
  -19163   -18989   -18785   -18509   -18208   -18027   -18003   -18084 
  -18207   -18333   -18477   -18661   -18852   -19006   -19102   -19152 
  -19157   -19103   -18997   -18885   -18725   -18400   -18015   -17776 
  -17639   -17581   -17753   -18080   -18342   -18574   -18854   -19093 
  -19240   -19284   -19155   -18814   -18347   -17872   -17479   -17221 
  -17100   -17158   -17467   -17915   -18346   -18813   -19329   -19730 
  -19989   -20125   -20048   -19792   -19488   -19138   -18758   -18454 
  -18231   -18011   -17848   -17795   -17779   -17774   -17797   -17774 
  -17710   -17713   -17780   -17891   -18111   -18368   -18505   -18574 
  -18662   -18733   -18835   -19036   -19236   -19291   -19222   -19090 
  -18945   -18929   -19079   -19251   -19365   -19376   -19149   -18681 
  -18169   -17794   -17628   -17655   -17793   -17977   -18169   -18326 
  -18473   -18657   -18902   -19218   -19502   -19661   -19732   -19696 
  -19522   -19319   -19152   -18982   -18829   -18679   -18489   -18335 
  -18281   -18291   -18364   -18480   -18559   -18577   -18516   -18404 
