Origin Time       2024/04/02 04:24:00
Lat.              40.133
Long.             141.712
Depth. (km)       71
Mag.              6.0
Station Code      HKD076
Station Lat.      43.0509
Station Long.     144.8498
Station Height(m) 2
Record Time       2024/04/02 04:26:17
Sampling Freq(Hz) 100Hz
Duration Time(s)  60
Dir.              N-S
Scale Factor      7845(gal)/8223790
Max. Acc. (gal)   2.035
Last Correction   2024/04/02 04:26:18
Memo.             
   -5865    -5865    -5863    -5827    -5775    -5752    -5787    -5846 
   -5884    -5902    -5922    -5925    -5914    -5927    -5933    -5894 
   -5891    -5952    -5961    -5876    -5806    -5782    -5752    -5737 
   -5765    -5782    -5765    -5776    -5830    -5877    -5884    -5871 
   -5854    -5833    -5805    -5786    -5813    -5881    -5949    -5995 
   -6008    -5960    -5854    -5763    -5730    -5740    -5795    -5896 
   -5971    -5965    -5906    -5834    -5794    -5805    -5829    -5842 
   -5876    -5935    -5964    -5957    -5945    -5903    -5832    -5791 
   -5800    -5838    -5880    -5913    -5930    -5906    -5832    -5746 
   -5694    -5691    -5748    -5850    -5957    -6000    -5952    -5877 
   -5850    -5852    -5818    -5753    -5725    -5772    -5848    -5879 
   -5871    -5881    -5902    -5896    -5871    -5846    -5833    -5825 
   -5826    -5859    -5888    -5864    -5830    -5868    -5927    -5904 
   -5822    -5767    -5760    -5771    -5780    -5805    -5844    -5854 
   -5833    -5827    -5864    -5926    -5980    -6006    -5989    -5935 
   -5881    -5875    -5903    -5907    -5846    -5763    -5744    -5784 
   -5795    -5755    -5730    -5759    -5807    -5864    -5919    -5942 
   -5940    -5938    -5953    -5961    -5937    -5879    -5807    -5736 
   -5684    -5690    -5753    -5826    -5891    -5967    -6030    -6023 
   -5948    -5864    -5813    -5818    -5876    -5942    -5967    -5907 
   -5783    -5667    -5601    -5611    -5706    -5850    -5980    -6030 
   -6004    -5956    -5902    -5849    -5832    -5860    -5899    -5904 
   -5877    -5844    -5821    -5821    -5822    -5790    -5748    -5733 
   -5734    -5786    -5903    -5994    -5987    -5937    -5919    -5923 
   -5910    -5884    -5867    -5861    -5842    -5809    -5792    -5782 
   -5782    -5803    -5803    -5755    -5711    -5722    -5798    -5915 
   -6010    -6049    -6038    -5985    -5917    -5848    -5794    -5786 
   -5803    -5806    -5822    -5861    -5892    -5925    -5965    -5969 
   -5940    -5937    -5964    -5949    -5850    -5746    -5728    -5771 
   -5822    -5859    -5861    -5829    -5788    -5784    -5827    -5890 
   -5918    -5899    -5892    -5913    -5884    -5792    -5738    -5752 
   -5792    -5836    -5852    -5826    -5810    -5844    -5880    -5863 
   -5805    -5764    -5775    -5803    -5796    -5792    -5834    -5876 
   -5868    -5827    -5799    -5809    -5832    -5829    -5809    -5800 
   -5807    -5848    -5910    -5919    -5846    -5778    -5775    -5792 
   -5775    -5734    -5715    -5759    -5842    -5903    -5918    -5921 
   -5930    -5915    -5884    -5873    -5884    -5923    -5969    -5929 
   -5783    -5659    -5633    -5665    -5692    -5706    -5748    -5832 
   -5922    -5983    -5980    -5927    -5907    -5957    -6004    -5994 
   -5967    -5962    -5976    -5979    -5929    -5841    -5811    -5861 
   -5917    -5918    -5876    -5853    -5904    -5992    -6031    -5991 
   -5914    -5873    -5872    -5871    -5876    -5904    -5940    -5960 
   -5921    -5821    -5746    -5729    -5729    -5759    -5840    -5921 
   -5942    -5900    -5853    -5842    -5838    -5833    -5846    -5836 
   -5790    -5787    -5837    -5872    -5907    -5960    -5975    -5923 
   -5840    -5805    -5842    -5899    -5935    -5931    -5908    -5934 
   -5961    -5904    -5803    -5732    -5726    -5784    -5830    -5787 
   -5713    -5711    -5786    -5845    -5856    -5836    -5779    -5707 
   -5668    -5657    -5679    -5756    -5830    -5836    -5838    -5873 
   -5880    -5869    -5904    -5929    -5863    -5768    -5751    -5805 
   -5852    -5856    -5825    -5782    -5759    -5759    -5782    -5850 
   -5942    -5985    -5950    -5877    -5805    -5768    -5787    -5815 
   -5819    -5854    -5934    -5983    -5952    -5877    -5822    -5810 
   -5834    -5883    -5933    -5956    -5934    -5883    -5857    -5861 
   -5849    -5830    -5859    -5913    -5921    -5887    -5860    -5871 
   -5926    -6015    -6072    -6042    -5954    -5879    -5821    -5787 
   -5821    -5880    -5876    -5829    -5795    -5742    -5675    -5668 
   -5740    -5827    -5884    -5922    -5961    -5977    -5952    -5899 
   -5864    -5848    -5827    -5805    -5790    -5809    -5887    -5967 
   -5964    -5883    -5803    -5799    -5841    -5841    -5809    -5837 
   -5911    -5927    -5867    -5792    -5757    -5765    -5798    -5857 
   -5930    -5961    -5926    -5877    -5853    -5834    -5815    -5844 
   -5895    -5863    -5782    -5772    -5787    -5742    -5706    -5740 
   -5810    -5876    -5906    -5864    -5795    -5787    -5833    -5890 
   -5958    -6004    -5995    -5987    -6007    -5965    -5825    -5679 
   -5632    -5671    -5726    -5767    -5780    -5771    -5752    -5730 
   -5728    -5756    -5806    -5896    -6011    -6087    -6106    -6080 
   -6018    -5941    -5853    -5763    -5710    -5702    -5719    -5756 
   -5780    -5786    -5790    -5776    -5753    -5757    -5795    -5880 
   -5980    -5994    -5935    -5908    -5926    -5931    -5896    -5833 
   -5823    -5896    -5938    -5884    -5829    -5826    -5837    -5850 
   -5887    -5933    -5953    -5969    -6011    -5992    -5877    -5802 
   -5814    -5838    -5848    -5865    -5898    -5906    -5860    -5814 
   -5792    -5776    -5802    -5891    -5980    -6037    -6042    -5988 
   -5917    -5877    -5869    -5859    -5813    -5767    -5755    -5759 
   -5768    -5794    -5825    -5877    -5965    -6010    -5971    -5931 
   -5937    -5935    -5930    -5942    -5923    -5845    -5755    -5692 
   -5672    -5682    -5699    -5734    -5813    -5927    -5989    -5941 
   -5834    -5745    -5688    -5665    -5687    -5737    -5806    -5877 
   -5900    -5865    -5810    -5756    -5753    -5809    -5852    -5865 
   -5853    -5810    -5782    -5788    -5795    -5806    -5815    -5791 
   -5779    -5856    -5962    -5980    -5934    -5923    -5910    -5865 
   -5857    -5881    -5859    -5811    -5815    -5859    -5850    -5787 
   -5779    -5845    -5898    -5917    -5911    -5875    -5865    -5904 
   -5910    -5859    -5833    -5849    -5849    -5826    -5803    -5802 
   -5832    -5888    -5950    -5968    -5935    -5934    -5969    -5952 
   -5891    -5852    -5829    -5792    -5765    -5751    -5705    -5655 
   -5671    -5736    -5800    -5867    -5926    -5987    -6056    -6076 
   -6018    -5906    -5760    -5667    -5715    -5829    -5895    -5935 
   -5973    -5948    -5903    -5944    -6015    -5988    -5908    -5922 
   -6019    -6066    -6006    -5884    -5803    -5842    -5908    -5859 
   -5738    -5638    -5593    -5665    -5799    -5830    -5773    -5759 
   -5811    -5842    -5788    -5736    -5803    -5911    -5935    -5888 
   -5825    -5796    -5838    -5888    -5902    -5926    -5985    -6029 
   -6002    -5913    -5819    -5794    -5840    -5898    -5923    -5894 
   -5832    -5795    -5753    -5648    -5567    -5611    -5738    -5842 
   -5879    -5880    -5879    -5917    -5964    -5937    -5859    -5822 
   -5805    -5721    -5598    -5544    -5630    -5810    -5969    -6027 
   -5975    -5872    -5827    -5865    -5904    -5907    -5922    -5944 
   -5915    -5837    -5715    -5586    -5564    -5692    -5850    -5907 
   -5888    -5917    -6022    -6114    -6134    -6081    -5964    -5852 
   -5829    -5873    -5888    -5833    -5783    -5796    -5806    -5749 
   -5702    -5737    -5845    -5981    -6054    -6022    -5983    -5979 
   -5899    -5748    -5688    -5748    -5814    -5860    -5890    -5829 
   -5711    -5690    -5800    -5931    -5972    -5929    -5921    -5968 
   -5941    -5833    -5799    -5865    -5946    -5996    -5999    -5926 
   -5830    -5830    -5921    -5977    -5971    -5949    -5896    -5806 
   -5749    -5738    -5742    -5802    -5898    -5913    -5854    -5857 
   -5945    -6034    -6069    -6016    -5891    -5788    -5779    -5849 
   -5915    -5899    -5815    -5734    -5690    -5686    -5726    -5795 
   -5881    -5979    -6034    -5984    -5837    -5670    -5593    -5628 
   -5690    -5745    -5819    -5888    -5950    -6012    -5996    -5896 
   -5856    -5919    -5976    -5940    -5875    -5881    -5903    -5850 
   -5794    -5746    -5665    -5634    -5691    -5734    -5718    -5697 
   -5726    -5826    -5898    -5875    -5849    -5876    -5872    -5798 
   -5748    -5780    -5860    -5927    -5926    -5864    -5805    -5779 
   -5803    -5873    -5926    -5935    -5945    -5958    -5956    -5927 
   -5896    -5910    -5929    -5861    -5736    -5655    -5670    -5746 
   -5814    -5819    -5782    -5768    -5757    -5705    -5686    -5740 
   -5802    -5869    -5992    -6093    -6075    -5995    -5945    -5929 
   -5946    -5981    -5971    -5911    -5876    -5921    -6061    -6170 
   -6046    -5798    -5734    -5850    -5926    -5949    -6015    -6100 
   -6127    -6083    -5992    -5892    -5817    -5769    -5760    -5780 
   -5760    -5682    -5644    -5691    -5761    -5825    -5865    -5883 
   -5890    -5825    -5734    -5769    -5856    -5871    -5863    -5817 
   -5701    -5643    -5692    -5753    -5798    -5829    -5818    -5818 
   -5880    -5919    -5886    -5892    -5985    -6041    -5979    -5869 
   -5809    -5814    -5854    -5899    -5899    -5845    -5792    -5778 
   -5772    -5726    -5690    -5792    -6018    -6191    -6222    -6173 
   -6106    -6035    -5960    -5853    -5710    -5624    -5682    -5811 
   -5918    -5981    -5969    -5921    -5960    -6066    -6065    -5941 
   -5819    -5744    -5695    -5691    -5742    -5794    -5779    -5679 
   -5509    -5378    -5421    -5566    -5622    -5597    -5622    -5686 
   -5691    -5675    -5719    -5802    -5895    -6038    -6160    -6138 
   -6012    -5888    -5775    -5661    -5552    -5476    -5487    -5599 
   -5775    -5975    -6149    -6218    -6195    -6205    -6204    -6075 
   -5888    -5714    -5529    -5410    -5445    -5574    -5718    -5903 
   -6127    -6284    -6345    -6357    -6305    -6223    -6201    -6210 
   -6158    -6065    -5956    -5755    -5489    -5394    -5575    -5846 
   -6021    -6068    -6021    -5964    -5940    -5850    -5626    -5339 
   -5128    -5119    -5321    -5610    -5821    -5919    -5984    -6004 
   -5926    -5798    -5695    -5641    -5651    -5686    -5692    -5715 
   -5842    -6045    -6220    -6338    -6412    -6436    -6376    -6207 
   -5967    -5714    -5537    -5525    -5644    -5776    -5891    -5996 
   -6056    -6046    -5945    -5761    -5606    -5549    -5589    -5742 
   -5981    -6170    -6200    -6161    -6169    -6161    -6093    -6034 
   -5981    -5899    -5782    -5586    -5325    -5151    -5139    -5267 
   -5526    -5848    -6123    -6327    -6408    -6284    -5964    -5563 
   -5250    -5116    -5119    -5239    -5516    -5868    -6164    -6334 
   -6359    -6258    -6084    -5919    -5795    -5657    -5532    -5543 
   -5691    -5852    -5933    -5894    -5772    -5767    -6048    -6516 
   -6893    -6983    -6832    -6577    -6210    -5717    -5266    -4993 
   -4891    -5011    -5406    -5937    -6373    -6613    -6664    -6536 
   -6262    -5900    -5540    -5327    -5390    -5676    -5926    -5968 
   -5921    -5941    -5975    -5942    -5895    -5925    -6048    -6170 
   -6149    -5948    -5694    -5505    -5418    -5487    -5718    -6018 
   -6292    -6440    -6342    -6058    -5803    -5621    -5398    -5146 
   -5031    -5124    -5300    -5412    -5471    -5509    -5506    -5582 
   -5830    -6079    -6133    -5953    -5629    -5336    -5179    -5166 
   -5314    -5616    -5921    -6077    -6062    -5962    -5907    -5983 
   -6118    -6178    -6169    -6208    -6378    -6639    -6847    -6924 
   -6926    -6914    -6843    -6588    -6137    -5705    -5467    -5390 
   -5382    -5429    -5594    -5892    -6230    -6451    -6450    -6257 
   -5911    -5433    -5022    -4949    -5198    -5486    -5625    -5637 
   -5535    -5363    -5275    -5290    -5283    -5320    -5559    -5914 
   -6107    -5954    -5549    -5140    -4868    -4769    -4889    -5201 
   -5589    -5929    -6129    -6193    -6241    -6319    -6388    -6444 
   -6539    -6677    -6817    -6903    -6883    -6696    -6295    -5814 
   -5493    -5395    -5460    -5672    -5940    -6114    -6192    -6215 
   -6147    -6041    -5984    -5894    -5675    -5422    -5232    -5094 
   -5043    -5179    -5536    -5971    -6231    -6180    -5926    -5665 
   -5478    -5350    -5308    -5389    -5560    -5695    -5614    -5355 
   -5244    -5474    -5884    -6231    -6436    -6565    -6635    -6585 
   -6443    -6343    -6362    -6434    -6438    -6320    -6131    -5913 
   -5668    -5562    -5746    -6065    -6303    -6431    -6427    -6226 
   -5876    -5526    -5356    -5455    -5729    -5988    -6124    -6212 
   -6222    -5856    -5058    -4210    -3719    -3789    -4382    -5197 
   -5914    -6407    -6654    -6617    -6324    -5865    -5436    -5393 
   -5890    -6648    -7303    -7596    -7403    -6910    -6440    -6122 
   -5918    -5773    -5668    -5591    -5522    -5475    -5502    -5636 
   -5857    -6114    -6358    -6529    -6596    -6623    -6627    -6534 
   -6301    -5975    -5660    -5462    -5421    -5481    -5535    -5530 
   -5502    -5499    -5505    -5466    -5408    -5386    -5366    -5260 
   -5071    -4885    -4719    -4540    -4452    -4644    -5104    -5663 
   -6161    -6431    -6416    -6266    -6146    -6060    -5915    -5732 
   -5653    -5711    -5778    -5776    -5761    -5756    -5733    -5771 
   -5944    -6187    -6417    -6589    -6604    -6404    -6064    -5714 
   -5505    -5578    -5865    -6085    -6089    -5971    -5780    -5520 
   -5283    -5177    -5304    -5718    -6269    -6723    -6979    -6980 
   -6729    -6385    -6056    -5732    -5525    -5586    -5791    -5873 
   -5755    -5571    -5445    -5454    -5643    -5994    -6430    -6805 
   -6944    -6812    -6492    -6025    -5437    -4876    -4557    -4629 
   -5081    -5706    -6212    -6480    -6552    -6442    -6184    -5910 
   -5692    -5571    -5655    -5923    -6135    -6135    -6033    -5965 
   -5898    -5751    -5651    -5840    -6293    -6745    -6975    -6887 
   -6538    -6114    -5721    -5375    -5161    -5159    -5364    -5710 
   -6026    -6118    -5973    -5682    -5331    -5093    -5147    -5485 
   -5965    -6448    -6832    -7045    -7049    -6894    -6724    -6633 
   -6508    -6127    -5498    -4895    -4488    -4290    -4283    -4376 
   -4494    -4689    -5030    -5479    -5863    -5960    -5751    -5451 
   -5275    -5289    -5483    -5786    -6050    -6124    -5967    -5676 
   -5437    -5344    -5358    -5445    -5625    -5840    -5948    -5875 
   -5686    -5563    -5664    -5910    -6102    -6230    -6411    -6647 
   -6818    -6767    -6426    -5914    -5455    -5312    -5649    -6284 
   -6822    -7115    -7263    -7249    -6899    -6195    -5374    -4747 
   -4476    -4492    -4573    -4603    -4715    -5005    -5313    -5563 
   -5895    -6285    -6562    -6768    -6955    -6949    -6646    -6207 
   -5796    -5409    -5111    -5082    -5325    -5649    -5903    -6057 
   -6176    -6343    -6538    -6748    -6961    -6997    -6770    -6490 
   -6350    -6303    -6199    -6043    -5988    -6075    -6157    -6088 
   -5898    -5709    -5579    -5547    -5595    -5605    -5579    -5718 
   -6034    -6223    -6112    -5934    -5915    -5954    -5991    -6106 
   -6245    -6320    -6284    -6045    -5660    -5331    -5165    -5092 
   -4969    -4757    -4607    -4639    -4735    -4770    -4827    -4993 
   -5232    -5557    -6054    -6655    -7065    -7060    -6737    -6358 
   -6085    -5971    -5962    -5958    -5925    -5856    -5711    -5470 
   -5208    -5112    -5310    -5690    -5994    -6089    -6053    -6015 
   -5999    -5937    -5857    -5881    -6011    -6099    -6050    -5881 
   -5611    -5263    -4993    -4993    -5227    -5495    -5719    -5888 
   -5890    -5678    -5389    -5188    -5208    -5458    -5771    -6023 
   -6265    -6478    -6546    -6505    -6462    -6365    -6145    -5895 
   -5769    -5823    -6015    -6237    -6327    -6234    -6060    -5848 
   -5570    -5300    -5184    -5290    -5582    -5975    -6380    -6679 
   -6806    -6756    -6523    -6165    -5822    -5580    -5490    -5595 
   -5811    -5957    -6019    -6052    -5988    -5849    -5783    -5805 
   -5887    -6053    -6203    -6162    -5946    -5701    -5489    -5367 
   -5378    -5405    -5363    -5401    -5626    -5875    -5973    -5975 
   -5965    -5918    -5782    -5633    -5641    -5805    -5949    -6006 
   -6010    -5944    -5832    -5844    -6124    -6508    -6694    -6689 
   -6652    -6606    -6629    -6733    -6678    -6413    -6205    -6145 
   -6076    -5999    -6042    -6157    -6170    -6070    -5940    -5771 
   -5571    -5429    -5346    -5259    -5202    -5186    -5159    -5165 
   -5229    -5270    -5302    -5441    -5699    -5976    -6150    -6150 
   -5991    -5695    -5317    -4978    -4779    -4716    -4752    -4903 
   -5173    -5467    -5737    -6034    -6291    -6320    -6178    -6102 
   -6103    -6046    -5938    -5833    -5710    -5552    -5418    -5389 
   -5459    -5556    -5690    -5903    -6124    -6191    -6023    -5741 
   -5562    -5564    -5628    -5601    -5509    -5524    -5714    -5973 
   -6154    -6188    -6057    -5826    -5686    -5753    -5915    -6045 
   -6196    -6404    -6515    -6417    -6158    -5833    -5543    -5379 
   -5393    -5578    -5854    -6087    -6270    -6538    -6845    -6975 
   -6867    -6669    -6488    -6304    -6068    -5829    -5745    -5886 
   -6108    -6254    -6323    -6376    -6381    -6258    -6018    -5773 
   -5610    -5528    -5475    -5398    -5305    -5251    -5270    -5344 
   -5441    -5522    -5583    -5663    -5717    -5665    -5610    -5771 
   -6130    -6404    -6446    -6353    -6200    -5988    -5788    -5655 
   -5578    -5607    -5800    -6057    -6192    -6126    -6007    -6126 
   -6531    -6862    -6839    -6621    -6404    -6100    -5625    -5125 
   -4806    -4733    -4841    -5044    -5308    -5598    -5879    -6130 
   -6292    -6303    -6164    -5908    -5625    -5483    -5491    -5412 
   -5151    -4919    -4851    -4876    -5001    -5283    -5584    -5728 
   -5773    -5871    -5999    -6058    -6092    -6153    -6157    -6072 
   -5973    -5903    -5923    -6068    -6224    -6269    -6207    -6122 
   -6077    -6057    -5998    -5899    -5857    -5903    -5949    -5944 
   -5953    -5973    -5842    -5495    -5135    -4982    -5038    -5254 
   -5632    -6019    -6169    -6085    -5987    -5995    -6057    -6060 
   -5958    -5860    -5907    -6042    -6034    -5809    -5501    -5201 
   -4981    -5028    -5340    -5643    -5802    -5922    -6033    -6085 
   -6115    -6180    -6299    -6467    -6602    -6592    -6455    -6301 
   -6188    -6123    -6129    -6196    -6270    -6266    -6145    -5995 
   -5949    -6034    -6168    -6259    -6288    -6295    -6259    -6099 
   -5868    -5734    -5713    -5726    -5744    -5710    -5591    -5466 
   -5427    -5460    -5518    -5583    -5633    -5643    -5614    -5611 
   -5699    -5813    -5815    -5737    -5730    -5794    -5773    -5687 
   -5683    -5761    -5873    -6087    -6392    -6605    -6658    -6690 
   -6723    -6588    -6261    -5913    -5653    -5491    -5417    -5381 
   -5319    -5269    -5344    -5547    -5757    -5884    -5907    -5860 
