Origin Time       2024/04/02 04:24:00
Lat.              40.133
Long.             141.712
Depth. (km)       71
Mag.              6.0
Station Code      HKD080
Station Lat.      43.5077
Station Long.     144.4485
Station Height(m) 140
Record Time       2024/04/02 04:26:17
Sampling Freq(Hz) 100Hz
Duration Time(s)  69
Dir.              U-D
Scale Factor      7845(gal)/8223790
Max. Acc. (gal)   3.277
Last Correction   2024/04/02 04:26:17
Memo.             
[...]
    6619     6763     6851     6890     7264     7381     6883     6671 
    6953     6998     6912     7125     7264     7065     7006     7206 
    7187     6901     6821     7061     7204     7121     6998     6901 
    6968     7194     7252     7037     6863     6905     6975     6994 
    6956     6824     6714     6731     7025     7488     7504     7156 
    7119     7209     7118     7110     7025     6706     6627     6837 
    6952     6988     7051     7223     7497     7446     7180     7284 
    7375     7065     6948     6979     6593     6255     6505     6878 
    6986     7001     7038     7126     7250     7233     7090     7025 
    7015     7069     7169     7096     7084     7241     7079     6841 
    6949     6866     6566     6833     7329     7164     6833     6955 
    6978     6893     7110     7014     6447     6323     6720     7017 
    7203     7476     7601     7366     7141     7280     7453     7264 
    6916     6805     6804     6616     6662     7163     7416     7426 
    7669     7541     6921     6791     6905     6551     6536     7111 
    7227     7045     7149     7068     6821     6791     6813     7017 
    7462     7522     7009     6629     6772     7022     7063     6945 
    6760     6662     6736     6998     7230     6963     6455     6600 
    7215     7356     7195     7133     6737     6378     6875     7426 
    6984     6300     6366     6849     7111     7115     7090     7111 
    7173     7302     7493     7535     7128     6687     6771     6704 
    6214     6338     6862     6906     7114     7608     7488     7242 
    7641     7878     7312     6718     6851     7194     6799     6180 
    6498     7136     7186     7333     7719     7570     7190     7242 
    7353     6966     6431     6489     7030     7272     7111     6982 
    6894     6867     7059     7146     7013     7177     7619     7464 
    6563     6151     6797     7150     6590     6529     7152     7072 
    6600     6768     7129     7306     7591     7672     7225     6737 
    6524     6413     6512     6822     7013     7076     7173     7403 
    7534     7121     6797     7265     7443     6783     6655     7273 
    7423     7092     6844     6498     6270     6690     7209     7175 
    7126     7408     7535     7456     7315     6810     6346     6786 
    7452     7187     6566     6573     7069     7470     7354     6963 
    7032     7333     7163     7042     7281     7126     6906     7119 
    6766     5938     6104     6859     6990     6968     7252     7474 
    7611     7380     6652     6332     6758     7331     7636     7349 
    6704     6625     7163     7312     6816     6615     6974     6976 
    6751     7176     7576     7389     7538     7852     7396     6709 
    6424     6415     6762     7148     7128     7075     7225     7194 
    6779     6594     7198     7600     7032     6706     7107     7114 
    6735     6701     6677     6480     6836     7676     7734     7022 
    6944     7244     7040     7092     7281     6552     5994     6660 
    7327     7365     7476     7506     6975     6480     6646     7020 
    6909     6532     6436     6523     6740     7295     7632     7200 
    6810     7180     7437     6983     6802     7099     6860     6639 
    7327     7539     6820     6806     7038     6473     6716     7878 
    7847     7200     7198     6744     6008     6500     7474     7337 
    6404     6177     6994     7573     7487     7549     7484     6791 
    6523     7101     7195     6615     6579     6885     6643     6513 
    7055     7469     7576     7785     7635     7033     6818     7118 
    7176     6682     6459     6980     7146     6613     6602     7176 
    7443     7418     7420     7423     7024     6246     6303     7191 
    7048     6251     6880     8100     7943     6972     6502     6712 
    7248     7458     6922     6434     6777     7202     7098     7037 
    7106     6970     6959     7267     7383     6991     6604     6789 
    7153     7020     6525     6288     6714     7534     7855     7333 
    6836     7079     7376     7032     6466     6124     6177     6594 
    6971     7288     7545     7348     7141     7445     7481     6959 
    6798     6941     6705     6731     7380     7527     6972     6745 
    6893     6879     6880     7137     7245     6947     6810     7074 
    6952     6340     6288     7083     7713     7537     7304     7631 
    7673     6933     6377     6555     6984     7407     7765     7708 
    6891     5805     5772     6721     7133     7149     7669     7642 
    6674     6570     7310     7076     6367     6504     6964     7214 
    7389     7269     6932     6822     6770     6868     7489     7620 
    6709     6316     6860     7045     6933     7067     7096     7365 
    7960     7678     6781     6588     6782     7126     8058     8422 
    7434     6466     6180     6192     6853     7592     6959     5961 
    6521     7542     7500     7302     7126     6436     6566     7682 
    7816     6921     6538     6901     7329     7446     7296     6997 
    6570     6534     7207     7469     6898     6906     7565     7419 
    6756     6709     6729     6484     6893     7643     7538     6829 
    6484     6658     6926     6947     6826     6843     6772     6555 
    6964     7794     7624     6682     6563     7292     7623     7118 
    6446     6212     6174     6268     6941     7630     7441     7007 
    7300     7987     8058     7307     6797     6878     6539     6037 
    6339     6795     7068     7512     7375     6747     6863     7393 
    7531     7406     7002     6505     6457     6616     6561     6534 
    6602     6677     7240     7990     7695     6731     6596     7241 
    7531     7296     7221     7237     6995     6987     7248     6944 
    6303     6307     6523     6308     6712     7894     8027     7110 
    6870     6941     6490     6627     7400     7285     6642     6845 
    7226     6778     6444     6875     7240     7461     7979     7948 
    6913     6249     6768     7427     7354     6913     6544     6393 
    6802     7546     7693     7179     6608     6119     6235     7499 
    8596     8073     6951     6802     7268     7303     6990     6979 
    7173     7171     7110     7086     6886     6615     6718     7222 
    7443     7071     6612     6544     6804     6959     6925     6972 
    7056     7203     7462     7248     6551     6413     6959     7361 
    7484     7510     7276     6917     6767     6664     6380     6183 
    6493     7177     7410     7010     7017     7487     7249     6743 
    7103     7398     6895     6883     7411     6860     5818     6203 
    7393     7697     7211     6685     6463     6924     7722     7886 
    7454     6859     6203     6104     6706     6945     6527     6529 
    7283     7782     7761     7727     7503     7017     6656     6543 
    6723     6947     7049     7353     7491     7269     7377     7310 
    6489     6088     6682     7291     7204     6781     6930     7412 
    7047     6415     6709     7114     6967     7221     7869     7608 
    6475     6195     7253     7697     6887     6691     7211     7291 
    7402     7346     6399     5597     5800     6685     7645     7705 
    6979     6914     7438     7481     7252     6944     6278     5775 
    6123     7292     8208     7789     6933     6901     7113     7315 
    8058     8073     6470     5571     6741     7728     7121     6473 
    6619     6690     7053     8056     7913     6531     6436     7766 
    8222     7524     7152     7164     6673     6124     6555     7365 
    7468     7311     7238     6760     6250     6216     6231     6021 
    6035     6656     7538     8046     7927     7321     6870     7018 
    7144     7082     7346     7098     6010     5925     7153     7793 
    7366     6879     6768     6837     7018     7279     7009     6058 
    5917     7230     8066     7423     6675     6384     6170     6457 
    7442     8190     7808     7048     7107     7032     6093     6056 
    7187     7711     7750     8124     8151     7453     6682     6359 
    6519     6886     6988     6550     6168     6555     7279     7831 
    8270     7986     6729     6091     6879     7330     6632     6351 
    6837     6987     7024     7445     7634     7500     7550     7333 
    6573     6264     6432     5985     5603     6594     8024     8290 
    7542     6867     6779     7327     7992     7871     7403     7485 
    7416     6639     5823     5265     5130     5996     7449     8158 
    7823     7356     7375     7462     7068     6581     6540     6851 
    7271     7284     6605     6222     6982     8163     8575     7863 
    6964     6901     7074     6764     6637     6762     6412     6196 
    6758     7300     7630     7962     7603     6789     6681     7075 
    6890     6261     6358     7098     7192     6752     6928     7269 
    6704     6346     7578     8679     7753     6261     5849     6153 
    6759     7288     7256     6995     6870     6763     6864     7391 
    7759     7300     6396     5734     5506     6079     7383     8055 
    7707     7555     7636     7277     7059     6993     6547     6778 
    7811     7582     6041     5335     5983     6805     6978     6779 
    7103     8054     8753     8658     7781     6551     5819     5680 
    5529     5524     6247     7703     9015     8923     7504     6455 
    6845     7457     6539     5185     5522     6789     7535     7812 
    7473     6906     7338     8152     7931     7161     6696     6378 
    6286     6724     7462     8066     8239     7793     6813     6029 
    6261     6895     6575     6006     6891     8363     8499     7354 
    6038     5634     6700     8189     8518     7614     6471     5849 
    6019     6569     6704     6628     7439     8874     9097     7565 
    6014     6049     6963     6963     6415     7096     8363     8240 
    7015     6080     5738     5871     6474     7155     7384     7561 
    8338     8610     7072     5416     5760     6826     7007     7071 
    6907     5672     5265     7334     9279     8671     7663     8332 
    8660     6936     5096     5178     6273     6781     7115     7809 
    7645     6289     5393     5728     6694     8074     9418     9370 
    7771     6388     6307     6424     5582     5003     6131     7561 
    7555     6856     6693     7069     7711     8608     8850     7140 
    4900     4972     6650     7426     7758     8473     8206     6999 
    6662     7057     6858     6509     6851     7159     6724     6130 
    5952     5830     5757     6574     8253     9667     9869     8496 
    6462     5526     5668     5444     5150     5969     7337     8334 
    8851     8468     7047     5551     5151     6143     7672     8455 
    7962     6918     6332     6605     7442     7861     7223     6238 
    6150     7194     7996     7506     6793     6804     6497     6052 
    7167     8564     7881     6370     5915     5992     6353     7411 
    8063     7416     6504     6212     6323     6369     6149     6235 
    7389     9100     9625     8444     7318     6924     5807     4440 
    4781     6180     7183     8168     8937     8734     8197     7632 
    6806     6257     6034     6056     6802     7506     7329     7254 
    7804     8156     7956     7211     6080     5503     5827     6091 
    6199     7134     8608     8903     7222     5405     5672     7186 
    7788     7318     6740     6412     6392     6787     7214     7126 
    6797     6875     7233     7071     6448     6625     7894     8696 
    8255     7717     7384     6497     5836     6154     6373     6237 
    6970     8457     9220     8703     7288     5502     4306     4631 
    6207     7554     7662     7256     7400     7858     7811     7226 
    6868     7005     7055     7141     7740     7861     6939     6751 
    7782     7612     6235     6400     7531     7396     6828     6608 
    5714     5023     6170     7501     6840     5779     6660     8461 
    9076     8730     8248     7142     5595     4742     4905     5972 
    7666     8892     8486     6804     5837     6902     8781     9435 
    8268     6203     4930     5370     6470     6687     6157     6343 
    7703     8934     8799     7584     6446     6232     7275     8868 
    9151     7479     5302     3925     4122     6195     8478     8880 
    7831     7137     6956     6336     5691     5780     6292     7280 
    8627     8976     7773     6062     5169     5769     7001     7361 
    7086     7460     8394     8878     8376     7052     5872     5551 
    5679     5709     5752     6484     7862     8563     8151     7638 
    7187     6366     5869     6037     6103     6559     7983     8610 
    7758     7273     7308     6758     6312     6706     7258     7578 
    7902     7850     7161     6654     6903     7442     7242     5881 
    4988     6060     7507     7632     7452     7825     7965     7450 
    6655     6073     6222     6939     7242     6756     6438     7011 
    7713     7750     7488     7188     6683     6357     6583     6821 
    6620     6608     7015     7103     7204     7890     8201     7740 
    7298     6918     6158     5529     5871     6598     7115     8013 
    8572     7716     6677     6610     7144     7812     7967     7312 
    6643     6231     5638     5260     5641     6436     7076     7569 
    8294     8800     8376     7722     7603     7614     7318     6272 
    4429     3577     5233     7763     8893     8689     7960     7206 
    6837     6651     6566     6797     7026     6990     6694     6320 
    6663     8122     9370     8799     6957     5503     4918     5313 
    6806     8129     8121     7558     7403     7325     6731     6185 
    6760     7659     7236     6296     6469     6982     6898     7273 
    8140     7862     6756     6525     7017     7218     7146     6890 
    6519     6654     7291     7817     8145     8058     7125     6162 
    6278     6627     6068     5560     6189     7052     7186     7169 
    7273     6960     6783     7258     7514     7577     8040     7940 
    7029     6502     6407     6596     7460     8155     8067     7894 
    7192     5312     4035     4845     6311     6856     6963     7411 
    7790     7670     7497     7489     7171     6768     7060     7300 
    6740     6736     7819     8546     8328     7522     6331     5312 
    4822     4731     5401     6764     7901     8592     8865     8603 
    8229     7572     6157     4999     5265     6454     7411     7487 
    6972     7188     8370     8611     7061     5493     5405     6382 
    7362     7697     7442     7053     6739     6758     7072     6956 
    6573     6741     7326     8043     8633     8436     7700     7348 
    7150     6320     5427     5734     6967     7662     7403     6898 
    6551     6369     6512     7113     7898     8370     8351     8128 
    7939     7458     6570     5880     5699     5977     6728     7391 
    7337     7218     7885     8357     7473     6195     5574     5368 
    5763     6774     7172     6714     6575     6899     7049     7214 
    7653     8041     8054     7592     6876     6315     6170     6637 
    7350     7344     6396     5428     5405     6278     7132     7591 
    7985     8191     7819     7107     6619     6512     6708     7214 
    7935     8344     7843     6656     5740     5910     6998     7900 
    8052     7830     7600     7547     7452     6826     6180     6347 
    6756     6747     6988     7709     8077     7781     7122     6376 
    5965     6407     7576     8345     7785     6612     6232     6570 
    6529     6261     6685     7434     7464     6793     6308     6400 
    6571     6643     7021     7294     6898     6589     6901     7365 
    7655     7503     6974     6612     6372     6097     6149     6693 
    7578     8189     7735     6844     7001     7669     7107     6030 
    6064     6477     6511     6809     7045     6585     6367     7103 
    7739     7572     7264     6997     6561     6637     7516     8014 
    7541     7109     7092     6693     5898     5551     6039     7142 
    8267     8618     7985     7163     6934     7149     7381     7677 
    7970     7665     6777     6261     6502     7101     7902     8496 
    8085     7029     6480     6482     6412     6261     6342     6527 
    6453     6442     6922     7342     7554     8009     7956     7022 
    6494     6620     6389     5980     6099     6562     7184     7859 
    8000     7749     7827     7750     6852     5749     5165     5409 
    6551     7813     8340     8282     8060     7657     6905     5985 
    5532     5954     6898     7647     7751     7323     6940     6949 
    7155     7269     7256     7175     7002     6809     6860     6976 
    6755     6459     6372     6457     7125     8316     8795     8028 
    6997     6426     6237     6440     6775     6812     6820     6961 
    6930     6786     6702     6540     6296     6484     7377     7962 
    7408     6619     6448     6565     6629     6619     6554     6764 
    7528     8306     8464     8298     8085     7618     7268     7329 
    7103     6362     6031     6539     7179     7393     7248     6987 
    6987     7337     7335     6511     5672     5649     6103     6569 
    7060     7614     8152     8235     7457     6412     6025     6438 
    7242     7894     7911     7457     7261     7352     7071     6407 
    5925     6153     7149     7813     7329     6613     6403     6600 
    7383     8214     8275     8263     8586     8078     6698     5875 
    5848     5895     6045     6378     6473     6517     6963     7453 
    7780     8202     8186     7177     6142     5904     5730     5309 
    5517     6419     7199     7798     8517     8907     8573     7871 
    7348     7249     7036     6264     5683     5618     5482     5350 
    5437     5691     6397     7310     7727     7758     7931     8248 
    8118     7344     6683     6597     6837     7133     7052     6731 
    7134     8027     8025     7290     7036     7013     6565     6357 
    6744     7037     7173     7638     8156     8055     7307     6454 
    6003     6265     6902     7057     6712     6516     6724     7238 
    7680     7711     7480     7099     6610     6434     6721     7038 
    6932     6520     6430     6624     6687     7017     7699     8104 
    8100     7715     6905     6250     6127     5965     5788     6273 
    6902     7061     7549     8553     8820     8051     7249     6825 
    6565     6608     7020     7140     6578     5961     5775     6064 
    6875     7628     7704     7692     8143     8251     7429     6500 
    6196     6575     7562     8181     7434     6427     6577     7287 
    7650     7646     7279     6940     7210     7570     7188     6496 
    6419     6835     7042     6974     6922     6829     6488     6129 
    6214     6520     6493     6417     6633     6849     7153     7622 
    7682     7325     7213     7339     7238     6914     6666     6559 
    6338     5819     5385     5468     5962     6740     7673     8252 
    8182     7636     7065     6876     6871     6858     7084     7368 
    7433     7460     7396     7275     7449     7720     7697     7522 
    7241     6683     6330     6666     7033     6860     6602     6586 
