Origin Time       2024/04/02 04:24:00
Lat.              40.133
Long.             141.712
Depth. (km)       71
Mag.              6.0
Station Code      HKD099
Station Lat.      43.0736
Station Long.     142.8392
Station Height(m) 177
Record Time       2024/04/02 04:25:59
Sampling Freq(Hz) 100Hz
Duration Time(s)  68
Dir.              U-D
Scale Factor      7845(gal)/8223790
Max. Acc. (gal)   1.303
Last Correction   2024/04/02 04:25:59
Memo.             
[...]
   33777    34024    34074    33863    33889    34049    34040    33890 
   33670    33571    33640    33752    33926    33944    33666    33520 
   33751    34009    34010    33972    34010    33887    33740    33791 
   33878    33944    33913    33716    33647    33720    33781    33930 
   34091    34196    34315    34269    34074    34007    34051    34036 
   33903    33667    33593    33759    33866    33870    33818    33758 
   33914    34094    34010    33885    33867    33894    33917    33872 
   33794    33670    33517    33567    33810    33975    34069    34202 
   34223    34123    34067    34007    33945    33883    33744    33747 
   33882    33879    33802    33644    33542    33766    33859    33667 
   33740    33917    33859    33785    33817    33890    33901    33875 
   33991    34196    34215    34022    33924    33901    33718    33690 
   33956    34103    34109    34059    33943    33982    34005    33826 
   33785    33875    33839    33797    33858    33926    34028    34188 
   34107    33732    33583    33758    33837    33758    33710    33735 
   33644    33467    33683    34168    34229    33964    33833    33878 
   34037    34105    33932    33637    33403    33490    33856    34072 
   34082    34005    33760    33540    33596    33743    33770    33760 
   33817    33813    33750    33912    34129    34013    33771    33768 
   33984    34107    33995    33912    33947    33893    33760    33675 
   33697    33771    33810    33933    33980    33787    33832    34126 
   34021    33671    33702    34013    34115    33994    33924    33903 
   33870    33905    33879    33778    33825    33910    33909    33983 
   34060    34014    33975    33964    33940    33976    33902    33650 
   33507    33539    33670    33882    33936    33713    33548    33721 
   34030    34177    34165    34047    33940    34020    34086    33974 
   33880    33880    33925    33951    33926    34007    34048    33758 
   33613    33940    34111    33901    33717    33735    33849    33864 
   33787    33739    33673    33739    34024    34194    34084    33859 
   33728    33789    33858    33787    33728    33817    33974    34010 
   33790    33642    33882    33991    33748    33723    33894    34011 
   34148    34010    33702    33724    33831    33928    34187    34198 
   33937    33847    33893    33848    33741    33733    33741    33667 
   33708    33785    33785    33862    33852    33747    33835    34013 
   34150    34202    34075    34007    34087    33978    33709    33702 
   33863    33744    33617    33867    34018    33868    33779    33763 
   33810    33894    33798    33825    34065    33990    33812    33886 
   33828    33681    33669    33627    33663    33816    33866    33775 
   33658    33789    34033    34026    34060    34187    34024    34002 
   34380    34430    34060    33868    33929    33978    33793    33569 
   33720    33957    33880    33828    34107    34337    34105    33693 
   33465    33389    33554    33839    33798    33551    33539    33864 
   34280    34373    34082    33794    33748    33754    33681    33756 
   33945    33916    33778    33772    33852    33918    33916    33974 
   34091    33971    33794    33867    33936    33876    33951    34184 
   34244    33970    33636    33571    33790    33952    33817    33679 
   33725    33747    33743    33841    33968    33952    33905    34111 
   34219    33880    33729    34044    34119    33768    33608    33856 
   34101    34071    33929    33853    33859    33920    33920    33806 
   33643    33432    33359    33636    33952    33859    33556    33521 
   33822    34141    34209    34267    34383    34152    33822    33706 
   33621    33767    34118    34165    33845    33540    33597    33790 
   33802    33860    33925    33790    33678    33616    33547    33717 
   34126    34364    34168    33918    33924    33799    33552    33659 
   33912    34028    34040    33898    33897    34129    34165    34045 
   33982    33909    33903    33887    33782    33812    33984    34141 
   34172    34098    34037    33880    33783    33948    33987    33774 
   33542    33377    33435    33589    33629    33727    33739    33529 
   33608    34122    34461    34288    33944    33814    33867    33961 
   34140    34335    34223    33870    33816    34052    34142    34029 
   33751    33396    33299    33475    33652    33893    34025    33671 
   33403    33750    34086    34144    34253    34315    34326    34256 
   33916    33828    34041    33801    33420    33546    33837    33959 
   33878    33677    33685    33948    34088    33929    33824    33961 
   34006    33988    34086    33926    33490    33331    33594    33899 
   34033    34125    33982    33519    33455    33847    33939    33817 
   33883    34074    34231    34086    33781    33849    34057    33955 
   33721    33623    33802    34036    33922    33805    33955    33909 
   33752    33852    33934    33930    33922    33671    33482    33744 
   34034    33957    33696    33609    33774    33949    34156    34403 
   34280    33905    33720    33706    33875    33975    33743    33752 
   34018    33949    33921    34052    33825    33662    33855    33751 
   33388    33427    33735    33951    34092    33852    33524    33957 
   34462    34267    33932    33767    33939    34443    34574    34169 
   33781    33723    33772    33643    33670    33814    33605    33571 
   33994    34172    33918    33582    33534    33810    33972    33924 
   33836    33729    33748    33983    34222    34183    33826    33529 
   33708    34101    34069    33681    33543    33743    33813    33650 
   33671    34014    34298    34295    34159    33926    33689    33690 
   33856    34086    34182    33955    33799    33763    33674    33839 
   33982    33797    33702    33594    33442    33782    34244    34180 
   33841    33720    33879    33905    33646    33562    33937    34387 
   34271    33808    33786    33987    33890    33843    33889    33737 
   33817    34184    34202    34025    34103    34157    34003    33771 
   33700    34014    34146    33829    33740    33814    33826    34028 
   34107    33959    33785    33596    33681    33805    33679    33816 
   33998    33806    33735    33901    34018    33944    33674    33635 
   33970    34203    33983    33629    33825    34218    34145    34020 
   33895    33624    33710    33863    33713    33748    33837    33771 
   33894    33804    33388    33613    34217    34076    33656    33725 
   33802    33679    33704    33701    33540    33597    33916    33957 
   33690    33671    33916    34068    34030    33987    34249    34458 
   34014    33428    33482    33971    34257    34080    33831    33781 
   33723    33863    34180    34167    33988    33918    34038    34281 
   34038    33563    33663    33905    33839    33744    33777    34024 
   34206    34099    34063    34068    33874    33789    34014    34034 
   33585    33435    33798    33903    33613    33327    33448    33914 
   34068    33956    34032    34218    34218    33781    33401    33593 
   33866    33951    33805    33462    33561    33932    33960    34005 
   34167    34092    34129    34408    34279    33837    33836    34032 
   33898    33716    33690    33732    33744    33524    33396    33697 
   33890    33853    33952    33924    33848    33960    33905    33951 
   34229    34180    33947    33704    33563    33862    34153    34014 
   33705    33534    33646    33701    33656    33914    34072    33947 
   33933    33820    33615    33713    34176    34628    34469    33906 
   33505    33444    33853    34103    33821    33837    34160    34198 
   34137    34092    33984    33967    33937    33702    33554    33620 
   33588    33733    34121    33951    33547    33760    34080    34061 
   34021    34030    34047    33921    33497    33276    33710    33964 
   33407    33318    34075    34222    33906    33952    33825    33674 
   33852    33891    34167    34542    33979    33436    33831    33999 
   33928    34157    33967    33679    33810    33754    33820    34072 
   33748    33511    33809    33825    33669    33898    34219    34242 
   34065    33951    33990    34099    34063    33812    33760    34061 
   34065    33755    33809    34018    34109    34238    33949    33393 
   33524    33943    33894    33777    33723    33610    33724    33853 
   33824    34060    34395    34325    34074    33864    33779    34018 
   34037    33583    33543    33930    33918    33650    33565    33567 
   33674    33959    34142    34125    34148    34082    33752    33462 
   33481    33835    34030    33671    33496    33889    34175    34163 
   34044    33859    33826    33980    33970    33775    33855    33991 
   33729    33594    33818    33793    33574    33783    34272    34279 
   33926    33855    33867    33924    34121    34080    34126    34330 
   34148    33840    33610    33511    33613    33482    33408    33596 
   33623    33832    33922    33655    33759    33897    34020    34383 
   34333    34209    34218    33833    33686    33889    33760    33677 
   33825    33756    33538    33563    33901    34107    33939    33701 
   33671    33837    33964    33929    33844    33735    33721    33943 
   34221    34299    34125    33847    33701    33806    33828    33710 
   34022    34376    34026    33696    33984    34152    33916    33831 
   33949    33882    33747    33853    33960    33909    33748    33525 
   33750    34273    34302    34067    33831    33407    33313    33667 
   33889    33936    33870    33799    33993    34099    33829    33737 
   34146    34439    34263    34075    33778    33178    33305    34156 
   34252    33843    33867    33905    33774    33679    33636    33901 
   34191    33890    33454    33540    33860    34141    34260    33863 
   33415    33693    34080    33820    33484    33566    33763    33799 
   33693    33751    34069    34160    33957    33863    33772    33783 
   34194    34384    34036    33891    34006    33848    33625    33723 
   34045    34079    33739    33594    33578    33731    34241    34150 
   33600    33700    33936    33914    33944    33712    33596    34115 
   34349    33930    33844    34292    34441    33959    33474    33570 
   34056    34399    34258    33853    33551    33269    33273    33704 
   33766    33544    33686    33853    33940    34040    34055    34095 
   33901    33633    33685    33685    33809    34102    33990    33731 
   33484    33417    33909    34252    34248    34327    34138    33843 
   33752    33685    33790    33921    33808    33652    33606    33670 
   33679    33663    33894    34064    34005    34082    34087    33902 
   34011    34264    34273    34194    33983    33647    33463    33440 
   33681    33948    33713    33579    33983    34177    33997    33825 
   33974    34364    34277    34005    34091    33990    33883    34075 
   34029    33805    33590    33640    34163    34245    33791    33689 
   33741    33705    33701    33625    33673    33795    33922    34306 
   34504    34107    33455    33103    33531    34082    33924    33698 
   33778    33860    33970    33968    33913    33909    33791    33748 
   33585    33230    33416    33951    34206    34349    34345    34057 
   33818    33856    33998    33966    33874    33974    34101    33964 
   33674    33717    34026    34007    33876    34094    34245    34074 
   33871    33585    33345    33552    33910    34176    34373    34106 
   33794    33963    33991    33897    33945    33882    34056    34245 
   33976    33995    34277    34078    33779    33586    33232    33099 
   33315    33633    33940    33866    33600    33841    34233    34303 
   34292    34107    33848    33748    33415    33158    33619    34218 
   34211    33581    32933    33050    33655    34180    34578    34456 
   34049    34125    34269    33988    33590    33579    34051    34176 
   33777    33660    33885    34207    34248    33700    33326    33420 
   33606    33949    34275    34550    34655    34141    33671    33610 
   33404    33349    33546    33554    33512    33697    34236    34646 
   34308    33825    33814    33980    34036    33875    33629    33547 
   33610    33612    33593    33957    34479    34719    34786    34443 
   33967    34078    34237    34152    34159    33775    32999    32584 
   32683    33087    33578    34049    34113    33428    33084    33577 
   33903    34069    34238    34383    34848    34744    34030    33968 
   33956    33585    33620    33741    33828    34048    33863    33399 
   33315    33755    34171    33984    33579    33453    33745    34339 
   34422    34024    34024    34213    34364    34666    34596    34109 
   33862    33666    33301    33357    33768    33891    33679    33235 
   32825    33187    34141    34551    34253    34037    34086    34083 
   34078    34236    34402    34153    33420    33066    33438    33430 
   32969    33122    33581    33918    34511    34904    34661    34230 
   34055    34268    34302    33918    33968    34198    33898    33615 
   33403    33185    33308    33343    33435    33867    33787    33498 
   33886    34330    34499    34582    34198    33632    33616    33894 
   33964    34057    34294    34288    34033    33874    34088    34485 
   34299    33681    33299    33127    33480    34207    34445    34300 
   33955    33428    33372    33579    33532    33609    33862    34241 
   34859    35243    35012    34304    33529    32976    32675    32775 
   33075    33239    33307    33458    34002    34402    33863    33205 
   33231    33488    33679    33756    33733    33764    33816    33982 
   34140    34059    34163    34420    34446    34504    34512    34233 
   33955    33758    33581    33448    33296    33354    33798    34218 
   34200    33852    33831    34325    34319    33654    33380    33471 
   33627    34033    34217    34165    34442    34642    34372    33936 
   33639    33782    34109    34086    33994    34115    34119    33886 
   33675    33502    33259    33350    33705    33658    33408    33320 
   33470    34047    34453    34249    34113    34276    34383    34439 
   34546    34438    33840    33246    33235    33502    33791    33885 
   33454    33299    33939    34541    34758    34689    34187    33594 
   33331    33315    33376    33336    33332    33797    34404    34380 
   34005    34150    34538    34321    33760    33691    34128    34226 
   33566    33010    33261    33642    33565    33467    33546    33490 
   33612    34113    34315    34111    33924    33847    33991    33994 
   33520    33265    33659    34236    34469    34312    34137    34163 
   34392    34686    34677    34179    33566    33436    33687    33809 
   33813    33571    33162    33423    34006    34107    34209    34327 
   34102    33893    33593    33197    33326    33867    34138    33902 
   33474    33141    33197    33818    34028    33420    33181    33469 
   33814    34310    34460    34273    34215    33798    33243    33309 
   33569    33924    34551    34414    33561    33644    34449    34715 
   34623    34163    33351    33204    33639    33970    34196    33906 
   33115    32850    33242    33613    33829    33907    33733    33642 
   34024    34404    34376    34221    33756    33278    33790    34550 
   34508    34321    34057    33505    33482    33856    33926    33654 
   33153    33220    34055    34402    34306    34616    34601    34048 
   34011    34113    33728    33573    33806    34180    34430    34069 
   33836    34040    33646    33199    33489    33691    33751    34030 
   34014    33731    33664    33704    33573    33513    33764    33887 
   33785    33889    34029    34003    33993    34076    34261    34152 
   33706    33716    33949    33701    33729    34396    34689    34265 
   33735    33624    33799    33754    33693    33949    34001    33697 
   33732    34161    34245    33889    33659    33616    33642    33934 
   34141    33844    33642    33822    33889    33804    33841    34074 
   34217    34045    34207    34797    34669    33879    33539    33579 
   33515    33550    33905    34152    33743    33239    33265    33450 
   33650    33808    33841    34133    34280    33909    33963    34549 
   34670    34276    33930    33953    34155    34013    33789    34088 
   34663    34805    34288    33700    33652    34053    34380    34138 
   33527    33276    33494    33829    34022    33933    33859    33690 
   33137    33064    33625    33741    33504    33461    33505    33791 
   34493    35055    34674    33674    33257    33605    33975    33851 
   33362    33108    33286    33515    33461    33284    33238    33231 
   33482    33907    33867    33755    33970    34140    34491    34758 
   34360    34009    34200    34526    34628    34229    33531    33316 
   33732    34009    33856    33745    33693    33671    34017    34271 
   34018    33837    33890    33853    33785    33732    33864    34338 
   34612    34352    34030    34094    34381    34308    33894    33683 
   33690    33810    33961    33975    33979    33964    33924    33724 
   33146    33219    33978    33772    33272    33724    34244    34242 
   33851    33575    33836    33966    33855    33899    33777    33478 
   33311    33467    33728    33575    33546    34167    34676    34647 
   34345    34044    34095    34269    34095    33655    33215    33114 
   33276    33307    33524    34137    34420    33999    33546    33666 
   34069    34268    34335    34439    34341    33980    33764    33833 
   33874    33855    33802    33542    33376    33411    33304    33500 
   34115    34187    33750    33740    33999    33793    33428    33501 
   33754    34032    34352    34280    34009    34098    34348    34519 
   34474    34128    33847    33677    33427    33255    33185    33070 
   32904    33007    33448    33778    34030    34272    34152    33843 
   33700    33774    33994    33998    33772    33936    34462    34647 
   34449    34206    33858    33620    33739    33727    33573    33619 
   33642    33916    34334    33932    33262    33397    33682    33620 
   33801    34068    33991    33982    34111    34129    34342    34547 
   34222    33910    34091    34292    34142    33770    33403    33156 
   33196    33540    33659    33435    33454    33774    34103    34203 
   33936    33704    33663    33575    33662    34114    34547    34611 
   34395    34149    34234    34472    34117    33520    33556    33918 
   34119    34331    34462    34176    33639    33308    33272    33404 
   33675    33793    33732    33831    33826    33804    34156    34406 
   34415    34327    33957    33728    33878    33994    33816    33409 
   33351    33725    33770    33633    33887    34141    34118    33951 
   33621    33374    33462    33832    34322    34522    34287    34165 
   34318    34240    34029    34152    34319    34099    33686    33502 
   33786    34260    34333    33987    33632    33407    33515    34025 
   34192    33656    33272    33365    33489    33725    34095    34173 
   33975    34011    34412    34657    34619    34659    34534    34119 
   33839    33582    33459    33879    34207    34060    33799    33318 
   33018    33359    33581    33403    33169    33002    33300    33754 
