Origin Time       2024/04/02 04:24:00
Lat.              40.133
Long.             141.712
Depth. (km)       71
Mag.              6.0
Station Code      HKD094
Station Lat.      43.1692
Station Long.     143.2410
Station Height(m) 204
Record Time       2024/04/02 04:26:07
Sampling Freq(Hz) 100Hz
Duration Time(s)  60
Dir.              U-D
Scale Factor      7845(gal)/8223790
Max. Acc. (gal)   0.840
Last Correction   2024/04/02 04:26:07
Memo.             
[...]
  -10187   -10019   -10111   -10341   -10289   -10049   -10056   -10288 
  -10349   -10219   -10197   -10265   -10235   -10095   -10017   -10158 
  -10331   -10297   -10237   -10311   -10365   -10336   -10289   -10173 
  -10068   -10181   -10362   -10365   -10351   -10396   -10260   -10138 
  -10399   -10582   -10212    -9864   -10023   -10181    -9987    -9911 
  -10176   -10341   -10342   -10503   -10509   -10095    -9832   -10049 
  -10249   -10091    -9904    -9926    -9987    -9969    -9850    -9786 
  -10029   -10327   -10320   -10212   -10243   -10277   -10204   -10176 
  -10301   -10435   -10465   -10385   -10210   -10179   -10346   -10273 
   -9950    -9969   -10336   -10424   -10174   -10146   -10315   -10161 
   -9917   -10157   -10480   -10262    -9923   -10076   -10439   -10470 
  -10272   -10187   -10199   -10208   -10282   -10373   -10265   -10019 
  -10044   -10357   -10523   -10516   -10498   -10261    -9903    -9857 
   -9999   -10029   -10133   -10376   -10363   -10131   -10207   -10359 
  -10095    -9872    -9965    -9950    -9903   -10081   -10260   -10322 
  -10384   -10386   -10278   -10214   -10223   -10185   -10099   -10044 
  -10057   -10193   -10517   -10808   -10692   -10318   -10141   -10060 
   -9788    -9656    -9915   -10072   -10033   -10299   -10552   -10282 
  -10064   -10299   -10392   -10197   -10180   -10210   -10053   -10088 
  -10349   -10242    -9811    -9794   -10243   -10481   -10354   -10328 
  -10446   -10334   -10087   -10099   -10261   -10272   -10222   -10197 
  -10014    -9737    -9834   -10408   -10763   -10405    -9904    -9985 
  -10369   -10334   -10052   -10158   -10439   -10276    -9859    -9903 
  -10413   -10565   -10161    -9968   -10206   -10289   -10157   -10284 
  -10439   -10088    -9695    -9894   -10257   -10262   -10185   -10257 
  -10245   -10150   -10134   -10098   -10104   -10289   -10363   -10266 
  -10349   -10457   -10288   -10214   -10377   -10222    -9819    -9940 
  -10432   -10435   -10115   -10091   -10089    -9937   -10021   -10233 
  -10230   -10192   -10319   -10413   -10362   -10357   -10416   -10408 
  -10392   -10268    -9998   -10008   -10258   -10200    -9971   -10092 
  -10413   -10363   -10023   -10018   -10397   -10665   -10501   -10052 
   -9926   -10285   -10480   -10308   -10224   -10239   -10049    -9930 
  -10174   -10299   -10145   -10173   -10251   -10085   -10045   -10243 
  -10134    -9678    -9757   -10507   -10774   -10292   -10134   -10578 
  -10683   -10125    -9794   -10123   -10431   -10272    -9963    -9888 
   -9975    -9883    -9764    -9994   -10266   -10120    -9837    -9884 
  -10150   -10353   -10478   -10486   -10403   -10424   -10427   -10204 
  -10069   -10227   -10264   -10010    -9975   -10431   -10760   -10439 
  -10068   -10168   -10211    -9992    -9991   -10191   -10212   -10192 
  -10368   -10439   -10164    -9976   -10250   -10482   -10258   -10106 
  -10281   -10339   -10210   -10089   -10026   -10099   -10161    -9964 
   -9810   -10087   -10389   -10277   -10233   -10513   -10528   -10247 
  -10243   -10399   -10335   -10280   -10390   -10440   -10381   -10237 
  -10065   -10119   -10228   -10054    -9949   -10106   -10156   -10189 
  -10365   -10304   -10135   -10339   -10543   -10276   -10091   -10438 
  -10624   -10234    -9934   -10060   -10269   -10381   -10278   -10046 
  -10161   -10430   -10185    -9720    -9718   -10019   -10133   -10076 
  -10156   -10284   -10192   -10061   -10123   -10235   -10203   -10122 
  -10233   -10354   -10228   -10179   -10338   -10218    -9841    -9855 
  -10187   -10161    -9948   -10072   -10231   -10138   -10071   -10165 
  -10357   -10505   -10296    -9769    -9691   -10309   -10623   -10231 
  -10033   -10189   -10058    -9915   -10262   -10527   -10296   -10158 
  -10289   -10235   -10143   -10401   -10600   -10228    -9780    -9883 
  -10260   -10431   -10342   -10251   -10357   -10323    -9980    -9859 
  -10152   -10399   -10381   -10278   -10284   -10426   -10474   -10251 
  -10089   -10264   -10386   -10162    -9983   -10130   -10235   -10172 
  -10296   -10424   -10230   -10085   -10172   -10154   -10102   -10264 
  -10334   -10120   -10083   -10334   -10389   -10234   -10196   -10185 
  -10058   -10029   -10215   -10407   -10471   -10413   -10207   -10073 
  -10224   -10307   -10143   -10160   -10330   -10169    -9913   -10053 
  -10214   -10017    -9931   -10192   -10346   -10254   -10262   -10465 
  -10546   -10336   -10107   -10108   -10191   -10174   -10183   -10382 
  -10503   -10250   -10006   -10065   -10061    -9977   -10087   -10166 
  -10096   -10053   -10042   -10083   -10277   -10439   -10168    -9668 
   -9765   -10318   -10385   -10168   -10245   -10183    -9906   -10064 
  -10523   -10611   -10331   -10083   -10072   -10339   -10492   -10131 
   -9814   -10081   -10276    -9979    -9954   -10314   -10204    -9907 
  -10152   -10362   -10150   -10158   -10428   -10282    -9925   -10075 
  -10342   -10183   -10195   -10546   -10546   -10327   -10428   -10428 
  -10003    -9960   -10415   -10407   -10187   -10438   -10404    -9907 
  -10077   -10615   -10281    -9772   -10203   -10642   -10299    -9996 
   -9983    -9849    -9949   -10343   -10374   -10233   -10449   -10474 
  -10098   -10199   -10604   -10370    -9975   -10134   -10253    -9972 
   -9934   -10214   -10272   -10282   -10435   -10316   -10142   -10264 
  -10177    -9973   -10266   -10458   -10084   -10071   -10531   -10412 
   -9900    -9925   -10177   -10185   -10288   -10358   -10130   -10115 
  -10349   -10262   -10088   -10241   -10307   -10095   -10146   -10477 
  -10420    -9987    -9882   -10168   -10296   -10164   -10083   -10153 
  -10219   -10146   -10026   -10035   -10201   -10478   -10647   -10370 
   -9906    -9836   -10112   -10280   -10134    -9918   -10122   -10692 
  -10874   -10384    -9990   -10223   -10466   -10241   -10089   -10204 
  -10141   -10069   -10196   -10239   -10255   -10323   -10183    -9987 
  -10095   -10253   -10108    -9988   -10119   -10141   -10034   -10076 
  -10068    -9933   -10134   -10552   -10346    -9757    -9909   -10463 
  -10417   -10203   -10353   -10316   -10072   -10273   -10597   -10307 
   -9834    -9871   -10065   -10106   -10224   -10150    -9891   -10088 
  -10326    -9964    -9792   -10215   -10292    -9923   -10048   -10428 
  -10147    -9796   -10246   -10648   -10369   -10258   -10423   -10249 
  -10083   -10139    -9954    -9756    -9931    -9977    -9742    -9961 
  -10490   -10442   -10253   -10646   -10774   -10187   -10004   -10461 
  -10454    -9946   -10002   -10594   -10700   -10319   -10228   -10363 
  -10311   -10183   -10058    -9883    -9886   -10147   -10227    -9961 
   -9859   -10066   -10168   -10064    -9991   -10085   -10206   -10147 
  -10064   -10208   -10527   -10651   -10272    -9875   -10119   -10554 
  -10496   -10246   -10265   -10372   -10299   -10139   -10021   -10077 
  -10411   -10604   -10401   -10264   -10260   -10100   -10112   -10345 
  -10246   -10072   -10359   -10530   -10228   -10299   -10770   -10555 
   -9931   -10125   -10635   -10428   -10103   -10326   -10554   -10328 
  -10044   -10100   -10231   -10169   -10057    -9942    -9846    -9876 
   -9926    -9973   -10211   -10420   -10243   -10045   -10249   -10345 
   -9952    -9914   -10566   -10797   -10446   -10494   -10624   -10157 
   -9848   -10091   -10035    -9655    -9802   -10220   -10211   -10111 
  -10196   -10042    -9684    -9624    -9883   -10173   -10390   -10381 
  -10189   -10219   -10462   -10543   -10409   -10245   -10176   -10273 
  -10426   -10392   -10195   -10079   -10157   -10328   -10266    -9936 
   -9907   -10295   -10443   -10212   -10219   -10557   -10605   -10305 
  -10166   -10138    -9942    -9810    -9879   -10044   -10341   -10498 
  -10278   -10177   -10407   -10292    -9822    -9965   -10517   -10357 
   -9940   -10139   -10347   -10184   -10200   -10363   -10297   -10219 
  -10347   -10381   -10211   -10071    -9992   -10023   -10166   -10158 
  -10242   -10648   -10605    -9945    -9749   -10181   -10342   -10242 
  -10461   -10557   -10137   -10088   -10605   -10579   -10054   -10015 
  -10173    -9971    -9977   -10219    -9975    -9756   -10264   -10609 
  -10195    -9992   -10343   -10358   -10087   -10156   -10129    -9876 
  -10102   -10559   -10384    -9871    -9909   -10238   -10177   -10169 
  -10547   -10532   -10064   -10026   -10282   -10189   -10033   -10054 
   -9961    -9868    -9996   -10039    -9937   -10145   -10463   -10303 
  -10141   -10461   -10597   -10350   -10280   -10308   -10157   -10172 
  -10458   -10392    -9984   -10038   -10369   -10208    -9950   -10284 
  -10683   -10417    -9976    -9998   -10102   -10116   -10341   -10345 
   -9904    -9864   -10395   -10476    -9972    -9987   -10619   -10701 
  -10093    -9826   -10081   -10180    -9933    -9732    -9917   -10247 
  -10226   -10071   -10181   -10272   -10188   -10168   -10173   -10098 
  -10050   -10099   -10135   -10053   -10014   -10211   -10443   -10431 
  -10382   -10555   -10596   -10315   -10245   -10459   -10351   -10029 
  -10025   -10080    -9923    -9918   -10123   -10309   -10454   -10400 
  -10168   -10284   -10679   -10551   -10060   -10130   -10481   -10251 
   -9922   -10273   -10551   -10080    -9869   -10324   -10374    -9968 
  -10011   -10280   -10207   -10180   -10342   -10160    -9896   -10212 
  -10567   -10222    -9841   -10038   -10146    -9973   -10118   -10365 
  -10308   -10276   -10366   -10342   -10376   -10519   -10358   -10029 
  -10146   -10493   -10404   -10057   -10011   -10045    -9842    -9909 
  -10318   -10299    -9899    -9880   -10195   -10359   -10422   -10451 
  -10207    -9967   -10185   -10362   -10261   -10501   -10740   -10305 
  -10006   -10392   -10403    -9651    -9337    -9821   -10065    -9948 
  -10197   -10582   -10616   -10581   -10609   -10467   -10114    -9791 
   -9856   -10247   -10386    -9941    -9508    -9946   -10709   -10654 
  -10181   -10100   -10129   -10091   -10328   -10631   -10527   -10349 
  -10478   -10400    -9984    -9891    -9958    -9701    -9786   -10457 
  -10604   -10156   -10107   -10304   -10222   -10166   -10191   -10022 
  -10008   -10318   -10243    -9782    -9873   -10316   -10250   -10102 
  -10498   -10759   -10257    -9825   -10201   -10547   -10327   -10365 
  -10777   -10665   -10039    -9814   -10146   -10254    -9946    -9805 
   -9969   -10215   -10390   -10341   -10241   -10330   -10328   -10052 
   -9856    -9942   -10056   -10146   -10346   -10339   -10069   -10274 
  -10828   -10648    -9983    -9744    -9680    -9451    -9410    -9764 
  -10233   -10480   -10530   -10503   -10380   -10300   -10449   -10696 
  -10690   -10342   -10099   -10376   -10809   -10705   -10139    -9764 
   -9806    -9992   -10018    -9907    -9987   -10273   -10346   -10021 
   -9778   -10104   -10517   -10349   -10133   -10422   -10416    -9888 
   -9963   -10516   -10471   -10239   -10413   -10326    -9946   -10143 
  -10624   -10530   -10265   -10274   -10154   -10111   -10419   -10330 
   -9741    -9560    -9826    -9965   -10034   -10207   -10338   -10347 
  -10180   -10054   -10382   -10783   -10505    -9977   -10052   -10216 
   -9747    -9333    -9693   -10296   -10431   -10193   -10035   -10069 
  -10281   -10578   -10605   -10409   -10355   -10327   -10181   -10115 
  -10152   -10153   -10102    -9953    -9690    -9717   -10307   -10740 
  -10440   -10127   -10241   -10277   -10226   -10328   -10359   -10319 
  -10358   -10351   -10257   -10272   -10534   -10609   -10255   -10258 
  -10602   -10266    -9761   -10139   -10620   -10168    -9543    -9871 
  -10477   -10245    -9863   -10150   -10326   -10030   -10068   -10571 
  -10791   -10278    -9574    -9567    -9973    -9990    -9965   -10334 
  -10508   -10311   -10435   -10740   -10492   -10104   -10179   -10184 
   -9883    -9904   -10216   -10150    -9937   -10133   -10296   -10154 
  -10253   -10390   -10191   -10291   -10485    -9834    -9327   -10100 
  -10731   -10103    -9702   -10324   -10581   -10269   -10557   -10953 
  -10625   -10416   -10644   -10446    -9994   -10072   -10412   -10372 
  -10035    -9995   -10273   -10143    -9672    -9778   -10292   -10334 
  -10035    -9980   -10189   -10409   -10426   -10154    -9934   -10231 
  -10561   -10239   -10041   -10489   -10555   -10023    -9990   -10520 
  -10597   -10208   -10177   -10315    -9977    -9537    -9624   -10083 
  -10427   -10450   -10188    -9880    -9964   -10297   -10172    -9852 
  -10174   -10646   -10330    -9748    -9860   -10322   -10330   -10131 
  -10303   -10432   -10038    -9625    -9729   -10138   -10287   -10023 
   -9882   -10091   -10249   -10188   -10139   -10201   -10192   -10153 
  -10378   -10605   -10443   -10381   -10701   -10606   -10062   -10203 
  -10746   -10339    -9552    -9575    -9823    -9867   -10222   -10505 
  -10260   -10187   -10530   -10458    -9888    -9701    -9985   -10211 
  -10274   -10064    -9798   -10139   -10685   -10620   -10413   -10565 
  -10509   -10110    -9988    -9998    -9815   -10142   -10916   -10771 
   -9969   -10102   -10671   -10334    -9805   -10022   -10490   -10701 
  -10561   -10138    -9921   -10215   -10546   -10486   -10378   -10253 
   -9813    -9688   -10278   -10800   -10585    -9938    -9761   -10161 
  -10253    -9872    -9676    -9852    -9954    -9941   -10277   -10579 
  -10299   -10066   -10076    -9783    -9684   -10165   -10323   -10054 
  -10315   -10723   -10261    -9622    -9787   -10184   -10214   -10154 
  -10157   -10239   -10435   -10349   -10077   -10457   -11082   -10816 
  -10264   -10482   -10829   -10400    -9645    -9417    -9690    -9968 
  -10039    -9942    -9900    -9929    -9852   -10031   -10540   -10588 
  -10096    -9963   -10327   -10443   -10223   -10179   -10270   -10318 
  -10431   -10443   -10195   -10065   -10224   -10246   -10191   -10442 
  -10563   -10238   -10054   -10269   -10399   -10289   -10291   -10416 
  -10407   -10277   -10164   -10216   -10440   -10411   -10103   -10230 
  -10693   -10575   -10071   -10014   -10160    -9957    -9904   -10246 
  -10150    -9713    -9833   -10006    -9594    -9495   -10107   -10451 
  -10293   -10455   -10893   -10802   -10439   -10417   -10446   -10328 
  -10165    -9788    -9498    -9923   -10605   -10454    -9811    -9880 
  -10347   -10251    -9990   -10129   -10168    -9892    -9921   -10276 
  -10361   -10231   -10335   -10592   -10598   -10278   -10045   -10284 
  -10696   -10550    -9940    -9829   -10308   -10477   -10253   -10135 
   -9892    -9471    -9625   -10218   -10150    -9643    -9715   -10062 
  -10044   -10049   -10332   -10381   -10164   -10188   -10413   -10561 
  -10608   -10507   -10474   -10774   -10791   -10169    -9967   -10613 
  -10879   -10285    -9891   -10123   -10210    -9861    -9664    -9954 
  -10395   -10439   -10068    -9994   -10515   -10817   -10471   -10200 
  -10220   -10072   -10039   -10412   -10640   -10592   -10656   -10594 
  -10215   -10131   -10490   -10597   -10301    -9960    -9726    -9895 
  -10238    -9964    -9567    -9861   -10030    -9690    -9953   -10746 
  -10650    -9941   -10106   -10694   -10422    -9879    -9853    -9832 
   -9795   -10127   -10316   -10137   -10291   -10793   -10682   -10023 
   -9926   -10223   -10065    -9940   -10239   -10184    -9846   -10131 
  -10631   -10520   -10278   -10453   -10593   -10377   -10183   -10201 
  -10079    -9715    -9614   -10118   -10666   -10498    -9988   -10058 
  -10513   -10486   -10025    -9769    -9872   -10187   -10355    -9919 
   -9468    -9918   -10539   -10224    -9626    -9744   -10110   -10143 
  -10214   -10423   -10484   -10552   -10708   -10585   -10260   -10260 
  -10469   -10328    -9991   -10008   -10223   -10077    -9768    -9846 
  -10141   -10255   -10207   -10033    -9873   -10120   -10659   -10800 
  -10409   -10156   -10419   -10729   -10524   -10065   -10083   -10492 
  -10455   -10022   -10058   -10399   -10191    -9741    -9794    -9965 
   -9813    -9788   -10023   -10125   -10169   -10299   -10250   -10142 
  -10413   -10701   -10324    -9799   -10039   -10601   -10488    -9980 
  -10095   -10638   -10547    -9909    -9764   -10234   -10521   -10415 
  -10299   -10179   -10010   -10068   -10137    -9906    -9984   -10527 
  -10673   -10532   -10671   -10535   -10035    -9898    -9898    -9632 
   -9682   -10264   -10612   -10409   -10157    -9969    -9757    -9981 
  -10426   -10166    -9640    -9850   -10408   -10498   -10314   -10507 
  -10812   -10536   -10157   -10334   -10516   -10273   -10087   -10187 
  -10228   -10079    -9888    -9682    -9614    -9957   -10328   -10226 
  -10048   -10210   -10408   -10277    -9819    -9389    -9367    -9691 
   -9988   -10191   -10539   -10804   -10500   -10039   -10135   -10372 
  -10123    -9840    -9988   -10192   -10135   -10000    -9930    -9913 
  -10041   -10278   -10381   -10453   -10682   -10712   -10361   -10061 
  -10017   -10076   -10200   -10307   -10216   -10127   -10355   -10594 
  -10353    -9902    -9895   -10160   -10107    -9949   -10022   -10115 
  -10272   -10612   -10764   -10521   -10242   -10226   -10319   -10305 
  -10138    -9942    -9979   -10120    -9952    -9769   -10065   -10335 
  -10106   -10030   -10411   -10504   -10184   -10120   -10304   -10262 
  -10114   -10147   -10216   -10215   -10185   -10029    -9973   -10395 
  -10813   -10612   -10207   -10120   -10180   -10123    -9971    -9950 
  -10173   -10278   -10060   -10034   -10478   -10809   -10706   -10551 
  -10434   -10223   -10192   -10257    -9987    -9844   -10320   -10616 
  -10269   -10125   -10346   -10181    -9859    -9977   -10143   -10041 
  -10030   -10147   -10170   -10206   -10255   -10176   -10187   -10281 
  -10050    -9840   -10231   -10717   -10655   -10324   -10204   -10247 
  -10184   -10048   -10087   -10331   -10473   -10292   -10093   -10129 
  -10089    -9883    -9864    -9964    -9904    -9985   -10420   -10579 
  -10168   -10003   -10407   -10628   -10440   -10343   -10420   -10481 
  -10579   -10663   -10519   -10255   -10108   -10045   -10004    -9933 
   -9826    -9911   -10197   -10490   -10813   -10943   -10532   -10035 
  -10119   -10509   -10569   -10355   -10249   -10212   -10095   -10081 
  -10196   -10161   -10093   -10278   -10439   -10388   -10474   -10663 
  -10486   -10158   -10301   -10635   -10447    -9977    -9940   -10322 
  -10613   -10615   -10373   -10066   -10071   -10314   -10257    -9954 
   -9991   -10293   -10299   -10204   -10459   -10546   -10152   -10080 
  -10505   -10613   -10382   -10385   -10392   -10207   -10331   -10557 
  -10250    -9931   -10179   -10320   -10010    -9964   -10254   -10257 
  -10114   -10152   -10068    -9848    -9910   -10145   -10191   -10203 
  -10291   -10218   -10077   -10044   -10091   -10312   -10500   -10291 
  -10060   -10262   -10378   -10003    -9821   -10052    -9934    -9641 
   -9952   -10354   -10172    -9975   -10100   -10076   -10003   -10247 
  -10332   -10003    -9921   -10138    -9965    -9597    -9663    -9877 
   -9926    -9980    -9876    -9730   -10103   -10530   -10212    -9782 
  -10026   -10289   -10031    -9968   -10264   -10180    -9952   -10184 
  -10287    -9909    -9892   -10384   -10416    -9948    -9915   -10270 
  -10199    -9895    -9971   -10158   -10071    -9909    -9883    -9929 
   -9967    -9967    -9869    -9796    -9971   -10242   -10341   -10366 
