Origin Time       2024/04/02 04:24:00
Lat.              40.133
Long.             141.712
Depth. (km)       71
Mag.              6.0
Station Code      HKD069
Station Lat.      43.3941
Station Long.     145.1168
Station Height(m) 25
Record Time       2024/04/02 04:26:23
Sampling Freq(Hz) 100Hz
Duration Time(s)  75
Dir.              E-W
Scale Factor      3920(gal)/6182761
Max. Acc. (gal)   6.175
Last Correction   2024/04/02 04:26:24
Memo.             
[...]
    -725     -743     -922    -1078    -1104    -1128    -1194    -1164 
    -963     -717     -619     -669     -706     -666     -645     -715 
    -797     -839     -930    -1077    -1139    -1080    -1052    -1142 
   -1248    -1306    -1374    -1414    -1317    -1121     -990     -952 
    -855     -685     -582     -551     -505     -437     -435     -532 
    -585     -522     -491     -596     -745     -879    -1086    -1347 
   -1499    -1477    -1360    -1283    -1278    -1241    -1082     -828 
    -609     -482     -382     -369     -553     -872    -1171    -1327 
   -1333    -1304    -1268    -1168    -1036     -898     -713     -550 
    -542     -650     -725     -773     -883     -986     -960     -854 
    -779     -770     -801     -847     -872     -835     -776     -771 
    -836     -923     -972    -1011    -1088    -1132    -1093    -1053 
   -1096    -1162    -1089     -869     -719     -760     -887    -1011 
   -1150    -1264    -1251    -1143    -1070    -1054     -980     -802 
    -603     -435     -307     -309     -515     -798     -985    -1131 
   -1327    -1444    -1374    -1224    -1068     -861     -683     -704 
    -868     -924     -759     -538     -473     -542     -596     -624 
    -733     -975    -1238    -1379    -1415    -1428    -1407    -1315 
   -1160     -980     -836     -733     -591     -392     -243     -263 
    -465     -769    -1059    -1264    -1403    -1486    -1412    -1162 
    -939     -897     -969    -1020    -1003     -987    -1016    -1014 
    -928     -833     -808     -810     -775     -721     -675     -658 
    -721     -860     -998    -1117    -1276    -1465    -1546    -1428 
   -1213    -1042     -919     -775     -608     -502     -502     -538 
    -552     -588     -710     -882     -988    -1023    -1095    -1207 
   -1201     -989     -712     -568     -564     -619     -756     -932 
    -949     -802     -732     -806     -873     -901     -997    -1176 
   -1320    -1323    -1222    -1118     -984     -748     -469     -310 
    -332     -413     -518     -721     -943    -1094    -1272    -1522 
   -1677    -1609    -1427    -1240     -990     -652     -392     -425 
    -725     -981    -1007     -968    -1056    -1152    -1063     -896 
    -803     -689     -467     -262     -218     -333     -573     -973 
   -1441    -1728    -1726    -1578    -1435    -1257     -946     -572 
    -322     -242     -210     -231     -466     -902    -1303    -1463 
   -1401    -1300    -1254    -1186    -1034     -829     -580     -298 
    -181     -414     -767     -889     -840     -859     -970    -1086 
   -1169    -1142     -916     -618     -481     -515     -594     -735 
    -971    -1155    -1174    -1137    -1150    -1123     -997     -881 
    -871     -956    -1080    -1181    -1241    -1265    -1186    -1004 
    -880     -879     -895     -865     -859     -895     -873     -842 
    -998    -1239    -1294    -1173    -1051     -921     -701     -459 
    -317     -301     -405     -654    -1014    -1273    -1321    -1367 
   -1539    -1673    -1624    -1394    -1033     -631     -319     -156 
     -83      -89     -270     -630     -986    -1180    -1213    -1131 
   -1007     -940     -904     -835     -779     -746     -689     -666 
    -766     -889     -918     -978    -1142    -1221    -1156    -1103 
   -1081    -1039    -1059    -1145    -1173    -1109     -994     -851 
    -704     -583     -546     -672     -905    -1009     -863     -674 
    -688     -843     -959    -1053    -1232    -1445    -1535    -1472 
   -1381    -1341    -1299    -1177     -983     -803     -713     -716 
    -742     -745     -746     -763     -791     -818     -847     -904 
    -938     -833     -639     -606     -829    -1060    -1023     -789 
    -703     -849     -924     -821     -826    -1038    -1138     -980 
    -831     -866     -949     -937     -851     -757     -704     -740 
    -828     -876     -939    -1051    -1088    -1078    -1182    -1297 
   -1170     -828     -564     -552     -699     -802     -774     -732 
    -850    -1105    -1295    -1348    -1355    -1319    -1194    -1037 
    -895     -760     -660     -634     -627     -554     -467     -504 
    -601     -580     -483     -551     -875    -1208    -1288    -1241 
   -1337    -1466    -1340    -1072    -1014    -1089     -960     -656 
    -440     -341     -246     -173     -239     -444     -672     -892 
   -1178    -1472    -1570    -1463    -1396    -1433    -1355    -1094 
    -908     -986    -1145    -1140    -1018     -905     -766     -550 
    -377     -403     -575     -719     -789     -826     -789     -672 
    -635     -783     -975    -1008     -880     -793     -866     -924 
    -822     -721     -794     -988    -1131    -1132    -1062    -1025 
   -1026    -1012     -981     -994    -1070    -1103     -994     -803 
    -662     -618     -650     -728     -785     -802     -843     -929 
   -1009    -1031    -1055    -1193    -1354    -1354    -1211    -1078 
   -1022     -937     -737     -595     -673     -788     -711     -551 
    -611     -900    -1098    -1112    -1148    -1242    -1299    -1289 
   -1158     -858     -529     -429     -601     -823     -982    -1139 
   -1235    -1151     -943     -809     -824     -816     -666     -492 
    -414     -445     -542     -673     -814     -935    -1051    -1154 
   -1189    -1185    -1242    -1347    -1333    -1134     -956     -996 
   -1153    -1173     -964     -701     -600     -624     -636     -665 
    -824    -1063    -1219    -1268    -1274    -1226    -1151    -1100 
   -1022     -886     -804     -886    -1111    -1365    -1548    -1577 
   -1404    -1102     -806     -595     -504     -510     -498     -438 
    -410     -413     -429     -551     -833    -1163    -1368    -1377 
   -1251    -1099     -980     -941    -1008    -1065     -988     -845 
    -758     -758     -799     -786     -703     -621     -614     -752 
    -972    -1071    -1002     -950    -1031    -1121    -1075     -971 
    -931     -880     -688     -459     -504     -845    -1079    -1007 
    -915    -1049    -1229    -1210    -1067     -933     -769     -612 
    -608     -717     -760     -715     -705     -787     -899     -983 
   -1086    -1210    -1177     -959     -811     -885     -960     -795 
    -611     -748    -1052    -1161    -1070    -1024    -1043     -937 
    -766     -775     -918     -974     -928     -888     -858     -822 
    -864    -1027    -1186    -1212    -1143    -1105    -1070     -894 
    -579     -297     -188     -271     -507     -837    -1131    -1280 
   -1316    -1290    -1192    -1066     -977     -839     -603     -455 
    -544     -749     -884     -950    -1086    -1288    -1378    -1311 
   -1283    -1386    -1362    -1015     -649     -643     -798     -694 
    -425     -372     -494     -468     -360     -474     -737     -883 
    -931    -1020    -1080    -1006     -961    -1118    -1299    -1272 
   -1149    -1139    -1116     -888     -636     -585     -647     -662 
    -666     -810    -1002    -1006     -937    -1091    -1389    -1490 
   -1348    -1277    -1374    -1312     -894     -425     -254     -320 
    -447     -624     -808     -937    -1085    -1221    -1170     -977 
    -894     -932     -870     -686     -620     -779     -967     -978 
    -888     -914    -1088    -1267    -1349    -1344    -1256    -1102 
   -1008    -1022    -1013     -966    -1019    -1095    -1021     -935 
   -1016    -1108    -1057     -967     -903     -772     -587     -495 
    -520     -548     -509     -413     -411     -662    -1004    -1162 
   -1185    -1281    -1395    -1318    -1076     -858     -726     -599 
    -468     -470     -616     -729     -746     -772     -903    -1086 
   -1152    -1080    -1026    -1057    -1097    -1086    -1026     -939 
    -839     -700     -534     -472     -590     -799     -944     -963 
    -942     -958     -976     -990    -1031    -1065    -1028     -930 
    -857     -858     -901     -939     -947     -950    -1022    -1126 
   -1134    -1100    -1202    -1414    -1532    -1465    -1264    -1028 
    -824     -631     -414     -227     -185     -326     -496     -556 
    -593     -718     -898    -1069    -1198    -1299    -1390    -1463 
   -1527    -1518    -1321    -1010     -792     -714     -681     -657 
    -683     -732     -663     -483     -483     -811    -1195    -1422 
   -1546    -1516    -1236     -882     -689     -604     -440     -241 
    -204     -339     -526     -730     -961    -1145    -1167    -1024 
    -853     -816     -912     -994    -1017    -1126    -1353    -1466 
   -1368    -1299    -1334    -1239     -966     -729     -603     -475 
    -351     -365     -549     -831    -1135    -1414    -1574    -1483 
   -1209    -1000     -912     -780     -590     -544     -651     -648 
    -469     -376     -598    -1005    -1230    -1178    -1134    -1258 
   -1376    -1365    -1315    -1294    -1242    -1080     -840     -653 
    -564     -527     -527     -560     -590     -598     -647     -840 
   -1068    -1084     -927     -860     -914     -892     -720     -543 
    -481     -433     -368     -555    -1061    -1500    -1632    -1612 
   -1547    -1365    -1089     -858     -719     -660     -737     -930 
   -1102    -1162    -1098    -1002    -1039    -1153    -1072     -819 
    -740     -846     -789     -624     -740    -1067    -1200    -1086 
    -953     -830     -625     -470     -528     -633     -565     -437 
    -497     -713     -836     -849     -946    -1097    -1091     -856 
    -562     -388     -252     -101     -180     -565     -930    -1052 
   -1142    -1399    -1590    -1513    -1367    -1310    -1226    -1039 
    -844     -723     -664     -650     -684     -700     -627     -551 
    -626     -877    -1157    -1332    -1425    -1494    -1466    -1285 
   -1076     -906     -596     -105      200       28     -405     -833 
   -1372    -2094    -2637    -2718    -2571    -2444    -2222    -1720 
    -957     -179      370      667      733      527      118     -366 
    -888    -1410    -1815    -2070    -2228    -2208    -1824    -1048 
    -142      510      738      694      543      225     -325     -934 
   -1447    -1834    -1974    -1824    -1572    -1297     -917     -462 
     -76      117       21     -367     -840    -1192    -1454    -1660 
   -1686    -1488    -1227    -1074    -1058    -1204    -1533    -1822 
   -1837    -1666    -1451    -1150     -705     -285     -201     -402 
    -495     -346     -166     -117     -204     -408     -779    -1358 
   -2001    -2431    -2573    -2608    -2590    -2406    -2117    -1829 
   -1351     -488      498     1194     1593     1863     1811     1173 
     150     -771    -1341    -1619    -1681    -1631    -1763    -2264 
   -2802    -2820    -2272    -1631    -1096     -446      346      960 
    1152      969      522     -128     -813    -1311    -1548    -1599 
   -1495    -1262    -1169    -1407    -1537     -983       -6      548 
     381      -80     -458     -668     -699     -637     -596     -603 
    -727    -1072    -1544    -1968    -2434    -3064    -3557    -3477 
   -2829    -1996    -1222     -434      515     1524     2181     2144 
    1483      508     -604    -1855    -3118    -4065    -4544    -4750 
   -4840    -4591    -3656    -2004       83     2188     3867     4747 
    4602     3538     1998      330    -1377    -2947    -3972    -4278 
   -4166    -3818    -2960    -1485      145     1387     2078     2308 
    2171     1862     1518      795     -705    -2621    -4156    -4896 
   -4878    -4225    -3055    -1533      126     1548     2313     2406 
    2230     2029     1591      617     -737    -2001    -2999    -3838 
   -4450    -4608    -4239    -3548    -2856    -2291    -1759    -1186 
    -630     -105      499     1174     1692     1926     1973     1919 
    1691     1133      193     -971    -2156    -3311    -4444    -5355 
   -5606    -4979    -3751    -2281     -690      871     2164     3111 
    3714     3865     3448     2512     1331      177     -950    -2120 
   -3116    -3624    -3563    -3010    -2034     -882     -100     -122 
    -795    -1536    -1890    -1802    -1471    -1145    -1067    -1351 
   -1844    -2293    -2580    -2774    -3016    -3309    -3462    -3258 
   -2576    -1481     -289      687     1460     2220     2933     3319 
    3113     2216      725    -1001    -2425    -3268    -3704    -3861 
   -3505    -2564    -1437     -471      307      797      747      167 
    -579    -1161    -1632    -2309    -3227    -3892    -3791    -2945 
   -1784     -687      216      936     1521     2001     2221     1870 
     900     -313    -1380    -2207    -2818    -3187    -3297    -3096 
   -2491    -1598     -869     -740    -1122    -1498    -1632    -1793 
   -2023    -1888    -1269     -593      -86      581     1644     2721 
    3231     2968     2093      925     -175    -1019    -1907    -3373 
   -5387    -7165    -7780    -6772    -4354    -1251     1652     3635 
    4377     4021     3093     2188     1543     1053      555     -148 
   -1149    -2160    -2688    -2462    -1569     -375      566      766 
     167     -778    -1508    -1849    -1908    -1686    -1214     -798 
    -852    -1512    -2450    -3218    -3515    -3106    -1925     -316 
    1038     1645     1631     1305      521    -1014    -3143    -5407 
   -7342    -8372    -8055    -6516    -4247    -1616     1269     4209 
    6684     8249     8828     8478     7254     5295     2896      388 
   -2043    -4327    -6418    -8161    -9221    -9372    -8672    -7184 
   -4928    -2245      226     2104     3486     4610     5561     6199 
    6149     4965     2499     -697    -3666    -5778    -6839    -6830 
   -6004    -4838    -3552    -1866      406     2530     3267     2323 
     531    -1467    -3561    -5353    -6176    -5683    -3930    -1392 
    1298     3828     5965     7237     7210     5738     3067     -163 
   -3300    -5973    -7848    -8478    -7770    -6310    -4782    -3310 
   -1745     -307      575      796      440     -457    -1600    -2405 
   -2391    -1455      108     1844     3423     4619     5113     4672 
    3525     2122      680     -763    -2193    -3603    -4884    -5804 
   -6179    -5840    -4499    -2125      609     2705     3646     3594 
    2911     1722       21    -1912    -3528    -4562    -5243    -5766 
   -5925    -5472    -4354    -2532     -139     2247     3887     4430 
    3995     2801     1131     -481    -1683    -2603    -3339    -3764 
   -3903    -4001    -4098    -3759    -2594     -921      423      919 
     843      735      792     1033     1514     2019     2052     1426 
     474     -472    -1375    -2089    -2201    -1597     -889     -945 
   -2072    -3691    -4810    -4746    -3466    -1594     -117      329 
     -25     -453     -415      177     1075     1866     2166     1909 
    1374      810      147     -774    -1752    -2298    -2223    -1818 
   -1582    -1890    -2756    -3739    -4146    -3631    -2636    -1884 
   -1618    -1564    -1302     -577      419     1189     1468     1312 
     717     -334    -1450    -2123    -2385    -2478    -2212    -1360 
    -312      393      719      818      731      495      -33     -999 
   -2055    -2719    -2916    -2645    -1714     -197     1252     1952 
    1898     1556     1179      702       35     -821    -1633    -1948 
   -1672    -1355    -1441    -1793    -2227    -2764    -3214    -3261 
   -3002    -2815    -2814    -2756    -2316    -1433     -402      497 
    1258     2057     2924     3493     3441     2928     2148     1039 
    -251    -1386    -2412    -3677    -5246    -6704    -7413    -6923 
   -5176    -2434      710     3539     5634     6849     6941     5607 
    2987     -151    -2914    -4905    -6354    -7537    -8197    -7952 
   -6843    -4991    -2396      477     2642     3578     3563     2852 
    1460     -267    -1669    -2398    -2521    -2087    -1069      316 
    1627     2461     2515     1599      -70    -1773    -2820    -3047 
   -2879    -2932    -3406    -3989    -4270    -3889    -2524     -247 
    2151     3682     4026     3467     2262      546    -1298    -2741 
   -3516    -3636    -3349    -3091    -3124    -3379    -3700    -3944 
   -3809    -2993    -1652     -303      637     1045     1188     1579 
    2358     3052     3195     2781     2006      958     -337    -1672 
   -2657    -3092    -3206    -3357    -3606    -3765    -3637    -3066 
   -2113    -1176     -544      -93      327      622      671      517 
     258     -113     -527     -674     -309      346      776      756 
     457       25     -403     -588     -614     -994    -1930    -2932 
   -3522    -3680    -3467    -2882    -2166    -1683    -1413    -1017 
    -465      -70      102      282      477      449      166     -214 
    -605    -1019    -1558    -2289    -3014    -3400    -3228    -2421 
   -1128      174     1031     1415     1590     1730     1818     1745 
    1306      301    -1059    -2189    -2793    -3069    -3141    -2835 
   -2137    -1263     -275      778     1581     1873     1698     1251 
     663      -36     -826    -1728    -2738    -3548    -3751    -3359 
   -2676    -1905    -1223     -771     -364      353     1344     2083 
    2065     1130     -585    -2640    -4331    -5118    -4966    -4178 
   -3111    -1970     -769      329      942      975      662      122 
    -647    -1422    -1810    -1695    -1241     -599      103      704 
    1059     1064      682      -34     -871    -1532    -1922    -2193 
   -2448    -2552    -2325    -1837    -1367     -998     -511      138 
     638      792      639      187     -526    -1325    -1951    -2240 
   -2233    -2002    -1529     -821       10      798     1344     1410 
     854     -157    -1272    -2171    -2650    -2751    -2651    -2473 
   -2382    -2514    -2750    -2796    -2407    -1661     -979     -582 
    -286      -46      -55     -196      -31      543     1147     1416 
    1295      900      330     -386    -1238    -2146    -2946    -3429 
   -3411    -2846    -1921     -980     -163      680     1562     2210 
    2324     1705      356    -1364    -2844    -3677    -4020    -4253 
   -4459    -4485    -4173    -3423    -2214     -656      911     2059 
    2560     2473     1955     1082       16     -858    -1200    -1002 
    -520      -53      135      -83     -548    -1004    -1373    -1682 
   -1889    -1867    -1575    -1222    -1150    -1553    -2283    -2896 
   -2991    -2538    -1817    -1168     -796     -673     -642     -579 
    -399     -137      -71     -494    -1310    -2034    -2195    -1676 
    -792      -74      161      -38     -365     -490     -357      -95 
     254      588      614      202     -372     -768     -956    -1123 
   -1368    -1625    -1914    -2407    -3105    -3647    -3577    -2767 
   -1478      -92      996     1393     1028      385       19      -82 
    -290     -688    -1066    -1293    -1384    -1338    -1137     -881 
    -703     -562     -361     -138       28      128      185      160 
     -39     -414     -844    -1310    -1817    -2087    -1820    -1196 
    -635     -280      -84     -106     -431     -997    -1646    -2203 
   -2540    -2695    -2773    -2748    -2484    -1934    -1228     -495 
