Origin Time       2024/04/02 04:24:00
Lat.              40.133
Long.             141.712
Depth. (km)       71
Mag.              6.0
Station Code      HKD075
Station Lat.      43.1309
Station Long.     145.0288
Station Height(m) 43
Record Time       2024/04/02 04:26:16
Sampling Freq(Hz) 100Hz
Duration Time(s)  60
Dir.              E-W
Scale Factor      3920(gal)/6182761
Max. Acc. (gal)   10.222
Last Correction   2024/04/02 04:26:16
Memo.             
[...]
  -12811   -12553   -12075   -11759   -11674   -11548   -11198   -11091 
  -11773   -12683   -12933   -12643   -12277   -11789   -11169   -10975 
  -11520   -12116   -12187   -12176   -12400   -12409   -12019   -11647 
  -11529   -11560   -11662   -11783   -11926   -12109   -12194   -12211 
  -12269   -12126   -11769   -11631   -11828   -12035   -12022   -11939 
  -11947   -11971   -12039   -12156   -12111   -11942   -11912   -11971 
  -11965   -11927   -11853   -11694   -11560   -11645   -11957   -12294 
  -12473   -12387   -12154   -12081   -12111   -11933   -11633   -11449 
  -11469   -11756   -12097   -12301   -12495   -12523   -12225   -11887 
  -11611   -11419   -11560   -11885   -12058   -12177   -12268   -12127 
  -11942   -12013   -12110   -11912   -11654   -11709   -11951   -12035 
  -11999   -12110   -12314   -12255   -11862   -11601   -11718   -11922 
  -12014   -11884   -11534   -11473   -11969   -12501   -12606   -12313 
  -11889   -11649   -11664   -11745   -11804   -11869   -11895   -11980 
  -12296   -12497   -12177   -11704   -11531   -11621   -11863   -12100 
  -12141   -12054   -12032   -12173   -12292   -12157   -11843   -11483 
  -11327   -11694   -12190   -12151   -11795   -11783   -12148   -12445 
  -12509   -12384   -11935   -11322   -11064   -11326   -11819   -12125 
  -12125   -12215   -12562   -12658   -12165   -11482   -11191   -11356 
  -11621   -11825   -12039   -12296   -12527   -12524   -12239   -11940 
  -11646   -11333   -11372   -11727   -12074   -12459   -12637   -12316 
  -11897   -11748   -11747   -11680   -11538   -11543   -11774   -12077 
  -12365   -12521   -12390   -12052   -11763   -11691   -11788   -11853 
  -11813   -11849   -12088   -12276   -12160   -11993   -11988   -11883 
  -11702   -11754   -11893   -11990   -12203   -12341   -12187   -11974 
  -11800   -11604   -11569   -11681   -11795   -12071   -12416   -12419 
  -12111   -11833   -11736   -11791   -11833   -11872   -12009   -11984 
  -11779   -11846   -12164   -12269   -12089   -11894   -11721   -11613 
  -11841   -12170   -12091   -11754   -11652   -11933   -12336   -12529 
  -12429   -12149   -11836   -11630   -11629   -11806   -11949   -11923 
  -11907   -12042   -12196   -12233   -12101   -11845   -11659   -11631 
  -11728   -12012   -12387   -12502   -12231   -11831   -11622   -11714 
  -11836   -11749   -11751   -12076   -12407   -12499   -12422   -12160 
  -11698   -11353   -11398   -11576   -11709   -12016   -12356   -12420 
  -12338   -12214   -11998   -11820   -11739   -11701   -11684   -11648 
  -11655   -11775   -11908   -12045   -12311   -12594   -12492   -12022 
  -11792   -11827   -11615   -11300   -11286   -11563   -12022   -12543 
  -12882   -12840   -12467   -11964   -11402   -10942   -10938   -11286 
  -11691   -12362   -13122   -13189   -12554   -11870   -11446   -11276 
  -11240   -11293   -11592   -12056   -12444   -12733   -12813   -12436 
  -11747   -11298   -11332   -11529   -11677   -11924   -12233   -12444 
  -12525   -12421   -12179   -11923   -11630   -11390   -11376   -11496 
  -11686   -12100   -12490   -12492   -12399   -12419   -12174   -11608 
  -11157   -11093   -11396   -11902   -12352   -12532   -12462   -12269 
  -11998   -11819   -11822   -11693   -11477   -11637   -12020   -12223 
  -12271   -12207   -12053   -11851   -11581   -11506   -11894   -12407 
  -12584   -12399   -11982   -11541   -11429   -11622   -11790   -11917 
  -12102   -12302   -12437   -12371   -12091   -11774   -11638   -11733 
  -11868   -11999   -12016   -11817   -11950   -12481   -12420   -11706 
  -11346   -11643   -12153   -12431   -12276   -11787   -11320   -11382 
  -11954   -12341   -12301   -12266   -12260   -11977   -11682   -11712 
  -11826   -11816   -11784   -11826   -11936   -12021   -12099   -12117 
  -11868   -11555   -11609   -12065   -12541   -12620   -12380   -12069 
  -11637   -11241   -11221   -11533   -11960   -12368   -12653   -12772 
  -12576   -11921   -11229   -11042   -11182   -11391   -11843   -12482 
  -12951   -13020   -12673   -12108   -11443   -10806   -10647   -11109 
  -11875   -12625   -13035   -13016   -12702   -12246   -11826   -11367 
  -10853   -10681   -11142   -12143   -13112   -13319   -12796   -12098 
  -11537   -11318   -11406   -11439   -11415   -11680   -12225   -12627 
  -12602   -12319   -12019   -11751   -11627   -11728   -11845   -11835 
  -11852   -11954   -12055   -12102   -12005   -11834   -11912   -12209 
  -12308   -12161   -11925   -11643   -11565   -11763   -11928   -11947 
  -11900   -11953   -12192   -12234   -11971   -11915   -12123   -12168 
  -11873   -11455   -11287   -11450   -11928   -12615   -12877   -12449 
  -11914   -11646   -11650   -11824   -11846   -11599   -11462   -11835 
  -12526   -12889   -12634   -12032   -11524   -11325   -11334   -11540 
  -11892   -12131   -12339   -12497   -12217   -11830   -11877   -12003 
  -11928   -11842   -11601   -11284   -11490   -12162   -12608   -12505 
  -12050   -11767   -11984   -12339   -12270   -11811   -11483   -11490 
  -11713   -12057   -12274   -12221   -12092   -11993   -11920   -11982 
  -12111   -12015   -11717   -11529   -11537   -11707   -12057   -12428 
  -12566   -12410   -12171   -12009   -11808   -11567   -11427   -11348 
  -11366   -11669   -12255   -12894   -13155   -12687   -11837   -11229 
  -10927   -10871   -11240   -11987   -12739   -13033   -12806   -12436 
  -11960   -11320   -10953   -11112   -11533   -11983   -12472   -12955 
  -13142   -12804   -12003   -11088   -10612   -10850   -11539   -12210 
  -12597   -12751   -12824   -12744   -12295   -11563   -10938   -10767 
  -11270   -12226   -12829   -12670   -12239   -11965   -11879   -11953 
  -11944   -11657   -11389   -11450   -11725   -12021   -12295   -12527 
  -12623   -12415   -11920   -11468   -11359   -11500   -11632   -11847 
  -12200   -12300   -12116   -12077   -12190   -12165   -11976   -11748 
  -11614   -11613   -11605   -11720   -12132   -12406   -12317   -12114 
  -11692   -11291   -11556   -12119   -12314   -12332   -12277   -11972 
  -11722   -11821   -11998   -12010   -11995   -11978   -11861   -11839 
  -12029   -12210   -12245   -12145   -11922   -11763   -11824   -11876 
  -11843   -11979   -12177   -12185   -12095   -12009   -11862   -11692 
  -11687   -11921   -12186   -12180   -11885   -11628   -11680   -11966 
  -12277   -12409   -12266   -12064   -11921   -11705   -11578   -11678 
  -11808   -12006   -12318   -12335   -11967   -11807   -12019   -12091 
  -11872   -11645   -11608   -11800   -12002   -12014   -12016   -12076 
  -12043   -11962   -11847   -11679   -11613   -11777   -12067   -12086 
  -11866   -12009   -12336   -12216   -11902   -11799   -11777   -11779 
  -11875   -11953   -11856   -11730   -11902   -12260   -12445   -12352 
  -12067   -11795   -11678   -11648   -11688   -11881   -12099   -12110 
  -12039   -12085   -12165   -12143   -11893   -11549   -11533   -11836 
  -12036   -12103   -12250   -12226   -11808   -11616   -12101   -12452 
  -12040   -11524   -11518   -11810   -12030   -12037   -11891   -11845 
  -12040   -12284   -12324   -12007   -11530   -11553   -12137   -12390 
  -12073   -11809   -11715   -11682   -11958   -12268   -12052   -11720 
  -11818   -11968   -11905   -11861   -11976   -12347   -12658   -12292 
  -11529   -11194   -11404   -11847   -12269   -12404   -12225   -12048 
  -12081   -12118   -11918   -11628   -11494   -11622   -12095   -12627 
  -12693   -12432   -12155   -11687   -11276   -11293   -11375   -11484 
  -12022   -12671   -12902   -12696   -12151   -11530   -11246   -11285 
  -11468   -11851   -12275   -12463   -12453   -12209   -11641   -11175 
  -11315   -11935   -12457   -12463   -12107   -11981   -12236   -12270 
  -11807   -11410   -11539   -11930   -12180   -12286   -12219   -11941 
  -11821   -11905   -11865   -11866   -12066   -12209   -12234   -12104 
  -11672   -11262   -11265   -11555   -12025   -12629   -12961   -12713 
  -12120   -11635   -11451   -11337   -11172   -11365   -12067   -12691 
  -12791   -12600   -12436   -12206   -11785   -11325   -11043   -11112 
  -11558   -12285   -13012   -13091   -12363   -11539   -11172   -11262 
  -11584   -11933   -12153   -12172   -12192   -12305   -12291   -12072 
  -11720   -11451   -11615   -12076   -12242   -12003   -11828   -11842 
  -11847   -11993   -12209   -12111   -11985   -12137   -12164   -11929 
  -11675   -11442   -11372   -11682   -12196   -12522   -12582   -12569 
  -12350   -11693   -11004   -10962   -11574   -12219   -12597   -12798 
  -12641   -12071   -11611   -11484   -11372   -11264   -11379   -11698 
  -12222   -12850   -12999   -12519   -11980   -11472   -11051   -11224 
  -11751   -12198   -12646   -12767   -12339   -11782   -11378   -11211 
  -11259   -11505   -12069   -12576   -12575   -12380   -12311   -12227 
  -11960   -11531   -11292   -11477   -11833   -12146   -12313   -12198 
  -11998   -11892   -11814   -11909   -12095   -11980   -11781   -11888 
  -12057   -12068   -11977   -11756   -11610   -11778   -11989   -11999 
  -11992   -12012   -11990   -12081   -12188   -12100   -11996   -11789 
  -11371   -11393   -11992   -12474   -12691   -12619   -12025   -11372 
  -11234   -11471   -11820   -12082   -12012   -11924   -12259   -12549 
  -12310   -11892   -11553   -11300   -11433   -11949   -12286   -12283 
  -12198   -11977   -11749   -12002   -12404   -12208   -11807   -11804 
  -11718   -11462   -11841   -12571   -12492   -11713   -11328   -11721 
  -12391   -12673   -12379   -12025   -11869   -11464   -11102   -11604 
  -12362   -12364   -12032   -11992   -12078   -12167   -12338   -12278 
  -11654   -11051   -11226   -11838   -12326   -12637   -12463   -11741 
  -11278   -11547   -12126   -12484   -12413   -12038   -11711   -11819 
  -12314   -12445   -11975   -11627   -11573   -11597   -11938   -12229 
  -11949   -11722   -11968   -12169   -12091   -11928   -11768   -11780 
  -12119   -12350   -12064   -11766   -11813   -11780   -11659   -11786 
  -11923   -11940   -12132   -12385   -12304   -11919   -11628   -11647 
  -11778   -11919   -12262   -12582   -12309   -11614   -11336   -11664 
  -11926   -11816   -11784   -12063   -12422   -12589   -12462   -12222 
  -11885   -11236   -10739   -11053   -11818   -12457   -12986   -13237 
  -12833   -11960   -11194   -10807   -10806   -11198   -11868   -12621 
  -13093   -13011   -12700   -12381   -11832   -11185   -10874   -11027 
  -11504   -12134   -12592   -12510   -12178   -12157   -12175   -11845 
  -11548   -11532   -11603   -11722   -11923   -12163   -12292   -12216 
  -12173   -12246   -12264   -12167   -11780   -11347   -11464   -11810 
  -11967   -12294   -12657   -12509   -11973   -11513   -11363   -11422 
  -11602   -12084   -12594   -12652   -12534   -12470   -12169   -11571 
  -10920   -10616   -10917   -11707   -12790   -13570   -13386   -12659 
  -12057   -11565   -11133   -10847   -11012   -11755   -12272   -12201 
  -12276   -12608   -12569   -12099   -11655   -11470   -11491   -11584 
  -11689   -11858   -12094   -12301   -12279   -11951   -11696   -11857 
  -12120   -12007   -11632   -11524   -11825   -12109   -12125   -11974 
  -11765   -11728   -12005   -12408   -12722   -12606   -11882   -11220 
  -11290   -11784   -12141   -12149   -11882   -11671   -11795   -12218 
  -12539   -12377   -11957   -11741   -11816   -11995   -11979   -11575 
  -11073   -11042   -11691   -12580   -13124   -13221   -12814   -11836 
  -11107   -11450   -12223   -12496   -12281   -11736   -10953   -10579 
  -11248   -12484   -13069   -12770   -12532   -12584   -12258   -11500 
  -10731   -10190   -10166   -10837   -12142   -13713   -14638   -14296 
  -12969   -11298   -10044    -9678   -10032   -10884   -11985   -13002 
  -13932   -14404   -13649   -11822   -10069    -9619   -10720   -12145 
  -12811   -12993   -12975   -12335   -11361   -11140   -11655   -12016 
  -12237   -12689   -12930   -12540   -11820   -11132   -10688   -10705 
  -11081   -11704   -12667   -13481   -13304   -12167   -11040   -10706 
  -11033   -11665   -12636   -13617   -13857   -13142   -11818   -10406 
   -9509    -9499   -10533   -12447   -14234   -14782   -14173   -13150 
  -12157   -11416   -10843   -10217    -9836   -10037   -10710   -11919 
  -13430   -14097   -13499   -12653   -12290   -12178   -11943   -11348 
  -10439    -9958   -10530   -11728   -12934   -13681   -13285   -11997 
  -11166   -11312   -11754   -11995   -12083   -12324   -12926   -13470 
  -13386   -12664   -11400    -9753    -8681    -9234   -11060   -12969 
  -14352   -15136   -15233   -14317   -12235    -9766    -7989    -7355 
   -8123   -10560   -13977   -16556   -16972   -15664   -13863   -11903 
   -9624    -7778    -7281    -8172   -10346   -13498   -16396   -17395 
  -15808   -12792   -10041    -8323    -8296   -10205   -12652   -13965 
  -13858   -13000   -11984   -10828    -9692    -9572   -10964   -13067 
  -14769   -15115   -13903   -11990   -10183    -8981    -9038   -10486 
  -12409   -13559   -13313   -12281   -11550   -11243   -11200   -11968 
  -13548   -14675   -14485   -13481   -12227   -10855    -9665    -8510 
   -7306    -7561   -10672   -15357   -18777   -19211   -17039   -13599 
   -9720    -6121    -4011    -4265    -6881   -10986   -14931   -17440 
  -18811   -19741   -19201   -15356    -8780    -3005    -1262    -3760 
   -8590   -13869   -18139   -20306   -20163   -17997   -13959    -8707 
   -4158    -2608    -4798    -9568   -15283   -20293   -22489   -19973 
  -12918    -4566      645      338    -4752   -12327   -19823   -24680 
  -25198   -21426   -14635    -6460      832     4168     1351    -6945 
  -17246   -25205   -27778   -24522   -17354    -9136    -2369     1376 
    1070    -3824   -11752   -19287   -24066   -25221   -21855   -14600 
   -6918    -1830       73    -1302    -5908   -12678   -19771   -24668 
  -25003   -20414   -12883    -5483    -1291    -1776    -5144    -8708 
  -12388   -16873   -20733   -21518   -17945   -11581    -6375    -4913 
   -6615    -9628   -12478   -14560   -15816   -16047   -15036   -13041 
  -11036    -9681    -8570    -8079    -9372   -11721   -13392   -14341 
  -15340   -15856   -14524   -11126    -7340    -5860    -8318   -12934 
  -15694   -14909   -12571   -11205   -11227   -11116    -9610    -7854 
   -8447   -12315   -17547   -20937   -20226   -15300    -8357    -3242 
   -2867    -6738   -11675   -14564   -14926   -14998   -16462   -17980 
  -16943   -12522    -6643    -2818    -3383    -7627   -13063   -17147 
  -18160   -16824   -15468   -14156   -11259    -7551    -5530    -6435 
   -9811   -13746   -16023   -16338   -15964   -14988   -12403    -8832 
   -5799    -4336    -6224   -11816   -17860   -21138   -20933   -17864 
  -13087    -7647    -2890    -1672    -5765   -12373   -17137   -18470 
  -16934   -14300   -12323   -10529    -8521    -8008    -9503   -11834 
  -14590   -16941   -17050   -14446   -10452    -6702    -5025    -7241 
  -12526   -16987   -17874   -15861   -13121   -11086    -9682    -8355 
   -7534    -8313   -11064   -14584   -16551   -15528   -12307    -8972 
   -7390    -8475   -11923   -15702   -16555   -13477    -9802    -8801 
   -9720   -10885   -12461   -14467   -15942   -16124   -14455   -11006 
   -7471    -5755    -6427    -9525   -14349   -18678   -20329   -18533 
  -14062    -9006    -5307    -4176    -6539   -11432   -15968   -18384 
  -18229   -15197   -10440    -6748    -6419    -9064   -12096   -14210 
  -15724   -15973   -14102   -11024    -8713    -8493    -9711   -10467 
  -10483   -11372   -13625   -15706   -16053   -14105   -10352    -7233 
   -7883   -12024   -15582   -15385   -11948    -8101    -6883    -9241 
  -12763   -14573   -14516   -13927   -13756   -14257   -14259   -12251 
   -9075    -7183    -7720   -10153   -13049   -14622   -14577   -14341 
  -14281   -13206   -11160    -9909   -10157   -10967   -11869   -12762 
  -12682   -11495   -11223   -12901   -14000   -12354   -10560   -11865 
  -14381   -14189   -10905    -7458    -7115   -10470   -14324   -15244 
  -13410   -11491   -11332   -12596   -13425   -12163    -9438    -7936 
   -8962   -11122   -12969   -14042   -14443   -15146   -16114   -15397 
  -12241    -8215    -5312    -4967    -7292   -10709   -13806   -16783 
  -19597   -20208   -17008   -11550    -6777    -4208    -4230    -6852 
  -10900   -14564   -17212   -18869   -18611   -15484   -10449    -6143 
   -4730    -6271    -9340   -12673   -15570   -17362   -17546   -15974 
  -12466    -7933    -5297    -6699   -11079   -15380   -16955   -15819 
  -14108   -12834   -11662   -10568    -9743    -9568   -10331   -11665 
  -12969   -13390   -12427   -10898   -10023   -10640   -12482   -13844 
  -13977   -13754   -13199   -11715    -9995    -9219    -9772   -11605 
  -13986   -15074   -13874   -11793   -10368    -9569    -9388   -10171 
  -11884   -14527   -16973   -16684   -13289    -9599    -7878    -8061 
   -9459   -11383   -12789   -13719   -15077   -16079   -15219   -12626 
   -9584    -7822    -8277    -9772   -11020   -12440   -14334   -15415 
  -14472   -11979    -9433    -8393    -9572   -11954   -13811   -14310 
  -13639   -12615   -11919   -11252   -10193    -9566   -10467   -12404 
  -13786   -13819   -13035   -12164   -11309   -10831   -11450   -12749 
  -13389   -12558   -10988   -10565   -11676   -12595   -12411   -12154 
  -12646   -13082   -12449   -10923    -9351    -8687    -9764   -12340 
  -14686   -15409   -14776   -13249   -11160   -10006   -10832   -12150 
  -11818    -9922    -8739   -10151   -13322   -15540   -14950   -11938 
   -9198    -9488   -11753   -12517   -11477   -11264   -12452   -13055 
  -12280   -11700   -12445   -13341   -12928   -11637   -11078   -12050 
  -13264   -12777   -10943    -9683    -9691   -10625   -12031   -13384 
  -14443   -14775   -13535   -11094    -9407    -9573   -10611   -11497 
  -12186   -12627   -13155   -14320   -14966   -13541   -11338   -10451 
  -10212    -9759   -10393   -12222   -13292   -13112   -12687   -12303 
  -12008   -11951   -11732   -11566   -12115   -12661   -12388   -11992 
  -12304   -12976   -12981   -11680    -9400    -7661    -8152   -10618 
  -13292   -15051   -15640   -15054   -13570   -11760    -9982    -8339 
   -7724    -8912   -11003   -13272   -15667   -16703   -15244   -12808 
  -11206   -10501   -10183   -10291   -10692   -10829   -11185   -12805 
  -14927   -15609   -13918   -10667    -8410    -9189   -11850   -13401 
  -12479   -10786   -10507   -11653   -13454   -14996   -14571   -12181 
  -10471   -11115   -12490   -12039   -10081    -9183   -10031   -11408 
  -12973   -14646   -15382   -14586   -13179   -12136   -10969    -9236 
   -8056    -8655   -11177   -14501   -16379   -15682   -13527   -11141 
   -9154    -8446    -9203   -10670   -12554   -14800   -16428   -16243 
  -14137   -10625    -6663    -4366    -5117    -7948   -11828   -16174 
  -19234   -19764   -18066   -14341    -9356    -5222    -3623    -4849 
   -8260   -12558   -16076   -18084   -19135   -18783   -15655   -10271 
   -4994    -2684    -5117   -10554   -15379   -17955   -18161   -16096 
  -13077   -10566    -8379    -6573    -6775    -9821   -14362   -17700 
  -17492   -14192   -10438    -8196    -8177    -9550   -10830   -12187 
  -14114   -15866   -16464   -14987   -11738    -8932    -8276    -9435 
  -10889   -11722   -12616   -14064   -15186   -15308   -14268   -11888 
   -9339    -8495    -8922    -8906    -8729    -9663   -11819   -14778 
