Origin Time       2024/04/02 04:24:00
Lat.              40.133
Long.             141.712
Depth. (km)       71
Mag.              6.0
Station Code      HKD099
Station Lat.      43.0736
Station Long.     142.8392
Station Height(m) 177
Record Time       2024/04/02 04:25:59
Sampling Freq(Hz) 100Hz
Duration Time(s)  68
Dir.              E-W
Scale Factor      7845(gal)/8223790
Max. Acc. (gal)   2.588
Last Correction   2024/04/02 04:25:59
Memo.             
[...]
  -14662   -14723   -14658   -14527   -14449   -14507   -14627   -14650 
  -14543   -14366   -14153   -14025   -14152   -14369   -14385   -14330 
  -14396   -14419   -14299   -14233   -14324   -14403   -14372   -14403 
  -14555   -14648   -14647   -14621   -14557   -14542   -14694   -14840 
  -14818   -14754   -14752   -14751   -14688   -14650   -14723   -14833 
  -14901   -14935   -14945   -14897   -14793   -14719   -14665   -14586 
  -14652   -14904   -15029   -14902   -14727   -14609   -14538   -14553 
  -14644   -14669   -14581   -14531   -14558   -14597   -14689   -14872 
  -15055   -15075   -14910   -14774   -14775   -14798   -14818   -14894 
  -14925   -14828   -14721   -14744   -14791   -14682   -14507   -14428 
  -14440   -14473   -14431   -14224   -14008   -14002   -14133   -14264 
  -14380   -14484   -14601   -14696   -14652   -14447   -14253   -14287 
  -14531   -14785   -14933   -14953   -14883   -14813   -14787   -14790 
  -14748   -14619   -14504   -14484   -14453   -14413   -14459   -14519 
  -14505   -14459   -14496   -14615   -14625   -14543   -14571   -14636 
  -14638   -14655   -14636   -14527   -14446   -14455   -14530   -14617 
  -14673   -14759   -14824   -14723   -14611   -14634   -14677   -14716 
  -14766   -14809   -14893   -14939   -14931   -14976   -14997   -14974 
  -15009   -14967   -14781   -14563   -14368   -14289   -14346   -14401 
  -14423   -14419   -14386   -14341   -14328   -14420   -14508   -14467 
  -14399   -14416   -14551   -14720   -14743   -14674   -14681   -14733 
  -14794   -14858   -14820   -14667   -14551   -14504   -14416   -14365 
  -14462   -14562   -14584   -14631   -14702   -14733   -14647   -14432 
  -14327   -14400   -14409   -14401   -14443   -14392   -14418   -14631 
  -14752   -14732   -14736   -14821   -14960   -15060   -15107   -15111 
  -14999   -14835   -14725   -14658   -14632   -14613   -14598   -14697 
  -14814   -14804   -14746   -14616   -14451   -14445   -14465   -14351 
  -14339   -14578   -14832   -14877   -14841   -14893   -14960   -15007 
  -15037   -14963   -14791   -14651   -14608   -14554   -14362   -14164 
  -14153   -14251   -14285   -14247   -14242   -14292   -14312   -14320 
  -14400   -14463   -14443   -14458   -14577   -14708   -14739   -14694 
  -14652   -14616   -14590   -14601   -14665   -14756   -14817   -14886 
  -15012   -15020   -14794   -14562   -14472   -14420   -14451   -14613 
  -14700   -14588   -14407   -14304   -14283   -14295   -14409   -14612 
  -14743   -14744   -14663   -14654   -14841   -14979   -14856   -14715 
  -14733   -14756   -14760   -14820   -14816   -14732   -14783   -15024 
  -15164   -14978   -14646   -14430   -14338   -14318   -14299   -14107 
  -13876   -13882   -14034   -14200   -14347   -14423   -14473   -14515 
  -14520   -14430   -14288   -14384   -14693   -14845   -14855   -14909 
  -14905   -14806   -14810   -14943   -14994   -14924   -14854   -14729 
  -14528   -14497   -14700   -14867   -14867   -14798   -14767   -14750 
  -14739   -14833   -14901   -14763   -14600   -14539   -14515   -14586 
  -14789   -15001   -15140   -15174   -15087   -14928   -14839   -14908 
  -14955   -14868   -14731   -14527   -14292   -14156   -14125   -14170 
  -14293   -14439   -14508   -14408   -14233   -14168   -14192   -14161 
  -14062   -13976   -13987   -14106   -14235   -14359   -14511   -14578 
  -14530   -14543   -14667   -14778   -14866   -15020   -15206   -15300 
  -15264   -15097   -14841   -14635   -14620   -14762   -14790   -14586 
  -14420   -14465   -14601   -14779   -14951   -15028   -15066   -14980 
  -14675   -14427   -14377   -14388   -14465   -14574   -14658   -14742 
  -14790   -14858   -14970   -14983   -14870   -14710   -14571   -14486 
  -14401   -14262   -14152   -14189   -14324   -14413   -14480   -14643 
  -14889   -15099   -15130   -14928   -14625   -14428   -14424   -14443 
  -14315   -14285   -14539   -14702   -14639   -14665   -14747   -14677 
  -14497   -14270   -14094   -14069   -14116   -14180   -14257   -14345 
  -14520   -14717   -14818   -14871   -14820   -14693   -14698   -14759 
  -14739   -14693   -14544   -14308   -14253   -14420   -14662   -14891 
  -15041   -15047   -14843   -14616   -14666   -14748   -14578   -14494 
  -14670   -14847   -14893   -14813   -14677   -14620   -14677   -14740 
  -14750   -14775   -14820   -14839   -14789   -14588   -14428   -14505 
  -14627   -14696   -14709   -14581   -14449   -14490   -14670   -14773 
  -14621   -14413   -14388   -14488   -14619   -14693   -14725   -14833 
  -14899   -14859   -14866   -14851   -14715   -14577   -14470   -14365 
  -14349   -14407   -14430   -14424   -14461   -14550   -14635   -14671 
  -14689   -14704   -14739   -14789   -14791   -14735   -14697   -14681 
  -14602   -14555   -14615   -14623   -14532   -14466   -14474   -14420 
  -14273   -14234   -14272   -14283   -14405   -14563   -14557   -14536 
  -14624   -14679   -14658   -14698   -14839   -14904   -14859   -14920 
  -15010   -14921   -14800   -14783   -14781   -14754   -14759   -14758 
  -14643   -14439   -14301   -14226   -14114   -14079   -14191   -14350 
  -14561   -14759   -14786   -14727   -14662   -14636   -14732   -14737 
  -14588   -14586   -14686   -14700   -14686   -14686   -14762   -14868 
  -14918   -15003   -14997   -14833   -14833   -14908   -14719   -14419 
  -14220   -14125   -14095   -14084   -14200   -14461   -14581   -14492 
  -14492   -14682   -14813   -14791   -14759   -14683   -14546   -14558 
  -14712   -14808   -14805   -14728   -14713   -14866   -14970   -14971 
  -15074   -15051   -14671   -14330   -14351   -14493   -14474   -14389 
  -14428   -14494   -14442   -14424   -14577   -14760   -14796   -14748 
  -14769   -14736   -14634   -14666   -14713   -14667   -14786   -15025 
  -15018   -14798   -14693   -14775   -14798   -14656   -14535   -14418 
  -14237   -14230   -14415   -14569   -14553   -14338   -14238   -14412 
  -14474   -14297   -14197   -14291   -14415   -14431   -14424   -14526 
  -14635   -14642   -14589   -14562   -14624   -14748   -14783   -14612 
  -14382   -14380   -14580   -14748   -14744   -14638   -14666   -14800 
  -14790   -14713   -14787   -14983   -15040   -14839   -14655   -14604 
  -14528   -14520   -14594   -14598   -14602   -14669   -14787   -14991 
  -15114   -15014   -14813   -14600   -14523   -14737   -14985   -15009 
  -14971   -15002   -15017   -14983   -14863   -14571   -14297   -14260 
  -14318   -14382   -14418   -14251   -14015   -13929   -13995   -14148 
  -14222   -14331   -14602   -14731   -14662   -14578   -14477   -14472 
  -14588   -14650   -14682   -14733   -14785   -14831   -14783   -14688 
  -14696   -14824   -14972   -14929   -14690   -14577   -14742   -14902 
  -14733   -14465   -14494   -14655   -14677   -14642   -14613   -14644 
  -14760   -14755   -14619   -14654   -14814   -14808   -14661   -14478 
  -14261   -14208   -14384   -14571   -14742   -14874   -14844   -14708 
  -14499   -14256   -14222   -14457   -14670   -14682   -14710   -14790 
  -14636   -14416   -14467   -14639   -14731   -14690   -14524   -14450 
  -14499   -14531   -14696   -14914   -14874   -14771   -14746   -14609 
  -14567   -14728   -14825   -14908   -14949   -14837   -14805   -14802 
  -14607   -14420   -14347   -14304   -14351   -14519   -14731   -14816 
  -14631   -14378   -14303   -14315   -14277   -14141   -14003   -14085 
  -14341   -14617   -14820   -14808   -14763   -14944   -15026   -14840 
  -14758   -14829   -14886   -14914   -14754   -14415   -14195   -14118 
  -14119   -14284   -14519   -14715   -14920   -15037   -14955   -14789 
  -14611   -14374   -14141   -14122   -14391   -14721   -14939   -15029 
  -15014   -14990   -15003   -15045   -15052   -14886   -14612   -14368 
  -14200   -14239   -14449   -14543   -14462   -14461   -14665   -14837 
  -14818   -14775   -14763   -14662   -14477   -14334   -14268   -14301 
  -14528   -14758   -14785   -14841   -14979   -15010   -15018   -15041 
  -14966   -14793   -14607   -14507   -14349   -14094   -14091   -14339 
  -14608   -14854   -14889   -14756   -14766   -14920   -15018   -14837 
  -14644   -14744   -14720   -14513   -14395   -14227   -14202   -14458 
  -14656   -14705   -14620   -14315   -14022   -14044   -14291   -14391 
  -14234   -14119   -14188   -14334   -14535   -14775   -14949   -15002 
  -15029   -15129   -15187   -15072   -14859   -14639   -14453   -14486 
  -14736   -14829   -14710   -14585   -14431   -14285   -14262   -14311 
  -14361   -14415   -14486   -14562   -14611   -14665   -14710   -14682 
  -14646   -14652   -14571   -14413   -14447   -14638   -14534   -14276 
  -14443   -14786   -14851   -14944   -15195   -15250   -15047   -14805 
  -14708   -14771   -14814   -14777   -14721   -14609   -14450   -14368 
  -14523   -14883   -15132   -15194   -15179   -15036   -14898   -14918 
  -14967   -14852   -14478   -14073   -13919   -13856   -13809   -14095 
  -14593   -14779   -14725   -14720   -14604   -14342   -14164   -14129 
  -14216   -14422   -14683   -14845   -14785   -14674   -14798   -15030 
  -14985   -14693   -14493   -14401   -14256   -14125   -14146   -14315 
  -14542   -14790   -14994   -14931   -14617   -14420   -14342   -14187 
  -14172   -14368   -14597   -14878   -15153   -15345   -15408   -15261 
  -15052   -14939   -14866   -14879   -14893   -14585   -14141   -14017 
  -14131   -14274   -14445   -14655   -14956   -15225   -15145   -14742 
  -14478   -14539   -14597   -14550   -14528   -14447   -14389   -14480 
  -14566   -14608   -14619   -14658   -14858   -15051   -15076   -14914 
  -14493   -14003   -13678   -13593   -13711   -13716   -13698   -14065 
  -14500   -14647   -14700   -14805   -14985   -15121   -15122   -15120 
  -15117   -15106   -15128   -15039   -14874   -14778   -14723   -14771 
  -14874   -14817   -14674   -14586   -14551   -14594   -14593   -14416 
  -14246   -14251   -14409   -14619   -14732   -14783   -14759   -14551 
  -14462   -14685   -14862   -14824   -14740   -14751   -14747   -14488 
  -14211   -14220   -14311   -14380   -14488   -14600   -14700   -14679 
  -14654   -14825   -14904   -14800   -14814   -14885   -14886   -14886 
  -14833   -14607   -14148   -13703   -13558   -13564   -13699   -14165 
  -14790   -15174   -15020   -14571   -14458   -14673   -14889   -15059 
  -15022   -14847   -14831   -14868   -14860   -14877   -14920   -15072 
  -15304   -15375   -15156   -14781   -14458   -14202   -13981   -13925 
  -13987   -14027   -14175   -14521   -14847   -15024   -15238   -15539 
  -15684   -15666   -15634   -15388   -14786   -14143   -13726   -13558 
  -13618   -13819   -14212   -14831   -15336   -15520   -15434   -15161 
  -15001   -14944   -14646   -14129   -13582   -13261   -13501   -14060 
  -14476   -14791   -15007   -14997   -14885   -14760   -14694   -14742 
  -14685   -14566   -14546   -14310   -13834   -13639   -13879   -14345 
  -14821   -15253   -15819   -16336   -16326   -15831   -15099   -14319 
  -13778   -13420   -13142   -13163   -13485   -14021   -14605   -14859 
  -14928   -15164   -15403   -15326   -14809   -14245   -14137   -14272 
  -14326   -14386   -14574   -14881   -15041   -14863   -14490   -14160 
  -14203   -14578   -14774   -14739   -14743   -14840   -14945   -14804 
  -14454   -14241   -14177   -14231   -14419   -14617   -14902   -15232 
  -15165   -14535   -13765   -13441   -13778   -14515   -15264   -15754 
  -15907   -15803   -15535   -15115   -14598   -14284   -14331   -14476 
  -14420   -14152   -14003   -14284   -14742   -14924   -14763   -14443 
  -14212   -14197   -14242   -14226   -14079   -13837   -13834   -14112 
  -14526   -15025   -15302   -15354   -15373   -15026   -14463   -14447 
  -15016   -15476   -15353   -15068   -15261   -15547   -15253   -14531 
  -13977   -14103   -14754   -15086   -14727   -14220   -14256   -14715 
  -14818   -14457   -14280   -14526   -14966   -15319   -15307   -14978 
  -14494   -13818   -13123   -12717   -12735   -13338   -14401   -15364 
  -15816   -15816   -15619   -15326   -14989   -14775   -14712   -14689 
  -14619   -14265   -13625   -13200   -13155   -13311   -13772   -14494 
  -15148   -15654   -15981   -15830   -15071   -14308   -14146   -14185 
  -14067   -14226   -14647   -14929   -15218   -15558   -15708   -15708 
  -15651   -15492   -14962   -13976   -13319   -13572   -14184   -14594 
  -14885   -15318   -15974   -16409   -16117   -15259   -14274   -13487 
  -13219   -13589   -14327   -15124   -15645   -15503   -14922   -14413 
  -13969   -13633   -13690   -14123   -14611   -14721   -14312   -13682 
  -13142   -13105   -13836   -14818   -15445   -15634   -15510   -15268 
  -14891   -14256   -13671   -13536   -13751   -13998   -14350   -14932 
  -15493   -15884   -16033   -15738   -15198   -14887   -14851   -14796 
  -14643   -14523   -14447   -14424   -14561   -14750   -14746   -14573 
  -14347   -14042   -13693   -13477   -13574   -13879   -14210   -14746 
  -15471   -15997   -16255   -16245   -15746   -14844   -13859   -13057 
  -12715   -12846   -13216   -13674   -14129   -14542   -14986   -15606 
  -16379   -16818   -16561   -16069   -15695   -15136   -14378   -13672 
  -13107   -12995   -13467   -14181   -14997   -15921   -16529   -16375 
  -15687   -14991   -14569   -14459   -14370   -13911   -13149   -12633 
  -12762   -13358   -14058   -14785   -15514   -16017   -15967   -15265 
  -14365   -13873   -13751   -13674   -13751   -14273   -15192   -15876 
  -15757   -15184   -14686   -14380   -14323   -14323   -14085   -13819 
  -13830   -14084   -14515   -15053   -15515   -15759   -15746   -15461 
  -14940   -14210   -13246   -12276   -11908   -12559   -13886   -15101 
  -15743   -15796   -15553   -15461   -15674   -16024   -16146   -15685 
  -14868   -14269   -14204   -14605   -15136   -15637   -16063   -16119 
  -15700   -15111   -14612   -14229   -13837   -13288   -12668   -12457 
  -13001   -13965   -14740   -15083   -15182   -15284   -15326   -15090 
  -14652   -14314   -14107   -13745   -13332   -13509   -14347   -15083 
  -15283   -15198   -15229   -15481   -15604   -15321   -14742   -14095 
  -13578   -13255   -13404   -14349   -15475   -15946   -15819   -15491 
  -15315   -15415   -15369   -14925   -14423   -14111   -13946   -13886 
  -13826   -13734   -13803   -14062   -14222   -14068   -13722   -13555 
  -13771   -14079   -14127   -14011   -14015   -14311   -14863   -15313 
  -15384   -15352   -15550   -15707   -15345   -14627   -14161   -14291 
  -14851   -15267   -15256   -15255   -15392   -15186   -14589   -14057 
  -13929   -14049   -13984   -13828   -13979   -14392   -14974   -15620 
  -15961   -16065   -16252   -16151   -15537   -14963   -14665   -14395 
  -14106   -14076   -14554   -15017   -14904   -14619   -14237   -13448 
  -12914   -13196   -13697   -13869   -13829   -13748   -13644   -13610 
  -13913   -14520   -14912   -14812   -14397   -13937   -13745   -14071 
  -14858   -15618   -15849   -15616   -15237   -15020   -15250   -15543 
  -15353   -14995   -14893   -14847   -14666   -14527   -14746   -15249 
  -15581   -15553   -15171   -14523   -14071   -14000   -13894   -13621 
  -13545   -13902   -14392   -14415   -13990   -13778   -13937   -14116 
  -14270   -14562   -14928   -15124   -15076   -14870   -14629   -14669 
  -15147   -15705   -15996   -16005   -15727   -15045   -14096   -13482 
  -13479   -13659   -13941   -14527   -15009   -15079   -14972   -14756 
  -14332   -13972   -14165   -14860   -15349   -15286   -15020   -14716 
  -14320   -14122   -14334   -14829   -15408   -15777   -15614   -14944 
  -14266   -13995   -14080   -14314   -14503   -14559   -14624   -14636 
  -14332   -13861   -13738   -14168   -14683   -14810   -14820   -14982 
  -15009   -14777   -14457   -14195   -14079   -14062   -14085   -14207 
  -14463   -14837   -15209   -15210   -14648   -14064   -14065   -14436 
  -14682   -14829   -15074   -15093   -14609   -14187   -14216   -14399 
  -14678   -15003   -15049   -14843   -14559   -14358   -14380   -14492 
  -14697   -15048   -15137   -14747   -14362   -14385   -14652   -15013 
  -15568   -16197   -16564   -16513   -16052   -15291   -14499   -13938 
  -13709   -13767   -13967   -14254   -14585   -14706   -14565   -14265 
  -13782   -13394   -13505   -13998   -14458   -14729   -14917   -14890 
  -14584   -14419   -14577   -14925   -15333   -15415   -15175   -15029 
  -14897   -14585   -14239   -14104   -14220   -14349   -14558   -15047 
  -15502   -15734   -15858   -15770   -15392   -14908   -14478   -14116 
  -13834   -13728   -13729   -13662   -13626   -13772   -13927   -13987 
  -14166   -14575   -14875   -14688   -14116   -13435   -12893   -12812 
  -13181   -13682   -14118   -14532   -15064   -15542   -15603   -15236 
  -14667   -14062   -13648   -13748   -14430   -15313   -16050   -16578 
  -16758   -16433   -15826   -15404   -15218   -14781   -14103   -13798 
  -13983   -14353   -14736   -14971   -15129   -15510   -15992   -16001 
  -15373   -14586   -13898   -13252   -12931   -13138   -13595   -14068 
  -14472   -14710   -14785   -14808   -14802   -14697   -14625   -14683 
  -14646   -14476   -14434   -14763   -15487   -16093   -16009   -15484 
  -15074   -14860   -14804   -14908   -14978   -14860   -14515   -13945 
  -13401   -13157   -13177   -13300   -13366   -13450   -13871   -14428 
  -14588   -14477   -14555   -14777   -14837   -14690   -14598   -14906 
  -15487   -15709   -15390   -15048   -15012   -15040   -14758   -14062 
  -13356   -13258   -13864   -14546   -14743   -14688   -14833   -15061 
  -15003   -14557   -14029   -13902   -14166   -14516   -14968   -15468 
  -15801   -16056   -16376   -16418   -15870   -15136   -14600   -14158 
  -13784   -13610   -13724   -14181   -14852   -15295   -15211   -14837 
  -14507   -14320   -14343   -14601   -14994   -15402   -15705   -15732 
  -15336   -14620   -14126   -14180   -14446   -14663   -14829   -14913 
  -14894   -14619   -14123   -13724   -13621   -14011   -14742   -15072 
  -14724   -14237   -13979   -13832   -13818   -14257   -15090   -15627 
  -15557   -15300   -15095   -15002   -15187   -15272   -14697   -13756 
  -13157   -13042   -13089   -13146   -13352   -13805   -14392   -14949 
  -15372   -15550   -15514   -15441   -15367   -15152   -14829   -14701 
  -14791   -14677   -14254   -13968   -14162   -14796   -15554   -16005 
  -15962   -15688   -15383   -14845   -14044   -13381   -13257   -13587 
  -13741   -13387   -13078   -13315   -13965   -14762   -15261   -15182 
  -14948   -14759   -14334   -13869   -13652   -13625   -13869   -14403 
  -14887   -15094   -15213   -15449   -15627   -15533   -15287   -15057 
  -14783   -14311   -13705   -13401   -13891   -14959   -15714   -15768 
  -15645   -15758   -15780   -15267   -14351   -13613   -13514   -13907 
  -14283   -14470   -14656   -14933   -15007   -14615   -14100   -13860 
  -13848   -13961   -14183   -14451   -14592   -14382   -13919   -13672 
  -13861   -14311   -14914   -15457   -15581   -15291   -14886   -14535 
  -14262   -14108   -14142   -14312   -14532   -14750   -14835   -14913 
  -15182   -15406   -15435   -15267   -14926   -14673   -14569   -14602 
  -14793   -14890   -15064   -15661   -16229   -16312   -16146   -16137 
  -16302   -16092   -15165   -14076   -13594   -13821   -14168   -14153 
  -13853   -13554   -13587   -13999   -14384   -14623   -14847   -14895 
  -14638   -14229   -14058   -14358   -14724   -14878   -15056   -15149 
  -14929   -14575   -14287   -14281   -14608   -14924   -14967   -14733 
