Origin Time       2024/04/02 04:24:00
Lat.              40.133
Long.             141.712
Depth. (km)       71
Mag.              6.0
Station Code      HKD086
Station Lat.      42.8542
Station Long.     143.8579
Station Height(m) 9
Record Time       2024/04/02 04:26:02
Sampling Freq(Hz) 100Hz
Duration Time(s)  78
Dir.              E-W
Scale Factor      3920(gal)/6182761
Max. Acc. (gal)   8.886
Last Correction   2024/04/02 04:26:02
Memo.             
[...]
  -49004   -48901   -48941   -48993   -48918   -48778   -48659   -48465 
  -48150   -47983   -48235   -48774   -49335   -49867   -50226   -50167 
  -49772   -49312   -48876   -48445   -48180   -48299   -48725   -49308 
  -50000   -50571   -50763   -50506   -49915   -49363   -49138   -49115 
  -49121   -49149   -49205   -49288   -49348   -49261   -48995   -48627 
  -48212   -47851   -47742   -47991   -48491   -49158   -49943   -50581 
  -50771   -50619   -50401   -50035   -49342   -48584   -48171   -48160 
  -48423   -48847   -49193   -49348   -49488   -49612   -49562   -49444 
  -49372   -49246   -49005   -48740   -48579   -48639   -49021   -49639 
  -50107   -50124   -49778   -49315   -48876   -48601   -48613   -48793 
  -48917   -48928   -48864   -48784   -48796   -49000   -49408   -49875 
  -50165   -50221   -50173   -50001   -49598   -49088   -48771   -48833 
  -49224   -49704   -50015   -50075   -49930   -49629   -49169   -48564 
  -48036   -47846   -47982   -48375   -49008   -49701   -50169   -50250 
  -49954   -49365   -48675   -48177   -48007   -48078   -48296   -48654 
  -49084   -49343   -49348   -49348   -49481   -49672   -49838   -49851 
  -49719   -49679   -49837   -50054   -50196   -50195   -49992   -49678 
  -49424   -49301   -49359   -49496   -49545   -49573   -49558   -49374 
  -49117   -48864   -48589   -48386   -48392   -48650   -49025   -49306 
  -49401   -49275   -48959   -48637   -48375   -48147   -48125   -48391 
  -48832   -49457   -50176   -50654   -50677   -50293   -49689   -49056 
  -48534   -48277   -48297   -48471   -48842   -49421   -49963   -50265 
  -50260   -49983   -49655   -49466   -49380   -49353   -49392   -49459 
  -49543   -49592   -49458   -49127   -48710   -48345   -48160   -48189 
  -48487   -49062   -49592   -49747   -49579   -49257   -48931   -48809 
  -48939   -49172   -49423   -49683   -49881   -49908   -49766   -49527 
  -49181   -48783   -48553   -48555   -48712   -49149   -49836   -50343 
  -50417   -50205   -49913   -49613   -49247   -48777   -48360   -48283 
  -48629   -49102   -49380   -49499   -49653   -49766   -49579   -49186 
  -48967   -49010   -49144   -49289   -49449   -49628   -49846   -50062 
  -50090   -49787   -49307   -48932   -48813   -48854   -48819   -48689 
  -48687   -48944   -49384   -49763   -49860   -49732   -49541   -49220 
  -48739   -48389   -48362   -48449   -48433   -48444   -48642   -48937 
  -49226   -49482   -49592   -49491   -49307   -49222   -49338   -49547 
  -49595   -49505   -49520   -49623   -49659   -49577   -49363   -49124 
  -49020   -49043   -49056   -48954   -48837   -48913   -49170   -49350 
  -49287   -49094   -48937   -48868   -48944   -49142   -49277   -49254 
  -49142   -49069   -49146   -49312   -49398   -49328   -49134   -48939 
  -48857   -48885   -49051   -49334   -49532   -49485   -49212   -48951 
  -49025   -49373   -49627   -49674   -49653   -49663   -49747   -49943 
  -50149   -50121   -49809   -49463   -49210   -48958   -48766   -48730 
  -48717   -48634   -48632   -48897   -49461   -50067   -50340   -50243 
  -50071   -50057   -50176   -50182   -49878   -49351   -48827   -48533 
  -48605   -48883   -48985   -48783   -48514   -48408   -48435   -48457 
  -48447   -48451   -48432   -48415   -48559   -48880   -49182   -49358 
  -49486   -49546   -49422   -49248   -49290   -49492   -49558   -49432 
  -49283   -49171   -49078   -49067   -49171   -49314   -49433   -49608 
  -49887   -50077   -50024   -49876   -49807   -49826   -49900   -49957 
  -49930   -49841   -49631   -49147   -48488   -48035   -48003   -48300 
  -48758   -49204   -49495   -49604   -49574   -49481   -49298   -48896 
  -48343   -47941   -47911   -48186   -48526   -48793   -48912   -48837 
  -48711   -48725   -48900   -49168   -49492   -49852   -50183   -50450 
  -50580   -50476   -50239   -50033   -49835   -49557   -49288   -49211 
  -49267   -49284   -49264   -49175   -49071   -49233   -49647   -50005 
  -50161   -50115   -49907   -49531   -48930   -48258   -47851   -47761 
  -47773   -47883   -48245   -48806   -49404   -49973   -50314   -50224 
  -49860   -49379   -48792   -48302   -48060   -48057   -48398   -49086 
  -49802   -50300   -50599   -50672   -50466   -50068   -49672   -49466 
  -49438   -49521   -49647   -49514   -49047   -48597   -48418   -48539 
  -48773   -48875   -48877   -48845   -48725   -48534   -48342   -48272 
  -48446   -48805   -49161   -49357   -49392   -49408   -49493   -49590 
  -49611   -49571   -49580   -49739   -50089   -50488   -50671   -50605 
  -50356   -49880   -49289   -48782   -48415   -48310   -48559   -48991 
  -49434   -49759   -49807   -49618   -49308   -48968   -48731   -48509 
  -48229   -48108   -48260   -48573   -48933   -49279   -49595   -49851 
  -50071   -50324   -50554   -50590   -50370   -49994   -49537   -48999 
  -48495   -48299   -48448   -48622   -48675   -48755   -48963   -49276 
  -49529   -49612   -49646   -49676   -49631   -49528   -49363   -49103 
  -48791   -48485   -48304   -48360   -48531   -48713   -48980   -49211 
  -49200   -49029   -48982   -49218   -49558   -49781   -49953   -50032 
  -49876   -49702   -49693   -49600   -49238   -48808   -48674   -48976 
  -49492   -49970   -50317   -50431   -50222   -49712   -49103   -48711 
  -48668   -48908   -49356   -49803   -49995   -49984   -49915   -49648 
  -49049   -48339   -47808   -47595   -47721   -48010   -48208   -48324 
  -48446   -48453   -48299   -48215   -48335   -48541   -48883   -49572 
  -50406   -50869   -50740   -50133   -49344   -48777   -48596   -48684 
  -48926   -49308   -49906   -50687   -51327   -51569   -51506   -51257 
  -50735   -49937   -49164   -48751   -48620   -48490   -48420   -48535 
  -48692   -48867   -49089   -49159   -48986   -48750   -48633   -48599 
  -48557   -48546   -48521   -48412   -48362   -48473   -48718   -48948 
  -48881   -48568   -48368   -48432   -48792   -49358   -49861   -50190 
  -50335   -50291   -50138   -49832   -49361   -48948   -48780   -48911 
  -49139   -49130   -49042   -49298   -49740   -49832   -49416   -48845 
  -48585   -48690   -48912   -49211   -49599   -49927   -50118   -50144 
  -49931   -49512   -49081   -48836   -48778   -48761   -48810   -49122 
  -49631   -49875   -49586   -49069   -48728   -48656   -48745   -48876 
  -49051   -49334   -49619   -49711   -49644   -49622   -49684   -49673 
  -49443   -49164   -49259   -49636   -49717   -49443   -49154   -48993 
  -49076   -49348   -49450   -49325   -49262   -49270   -49205   -49223 
  -49422   -49550   -49424   -49142   -48887   -48655   -48334   -48060 
  -48048   -48223   -48485   -48949   -49506   -49804   -49868   -49921 
  -49893   -49692   -49496   -49532   -49722   -49811   -49905   -50201 
  -50529   -50643   -50483   -50196   -50014   -49959   -49808   -49353 
  -48766   -48500   -48636   -48898   -49143   -49282   -49282   -49294 
  -49245   -48913   -48450   -48191   -48264   -48443   -48457   -48570 
  -48985   -49261   -49163   -48970   -48903   -49034   -49279   -49401 
  -49335   -49189   -49069   -49128   -49318   -49289   -49030   -49041 
  -49435   -49723   -49653   -49497   -49452   -49319   -48824   -48150 
  -47935   -48415   -49055   -49430   -49672   -49933   -50073   -49935 
  -49551   -48993   -48321   -47885   -48083   -48690   -49254   -49804 
  -50218   -50089   -49693   -49537   -49495   -49300   -49076   -49192 
  -49724   -50275   -50432   -50011   -49207   -48553   -48283   -48336 
  -48731   -49401   -50138   -50674   -50805   -50590   -50194   -49732 
  -49284   -48844   -48495   -48516   -48972   -49412   -49420   -49144 
  -48746   -48097   -47505   -47523   -48028   -48579   -49010   -49315 
  -49589   -49713   -49324   -48610   -48148   -48032   -48160   -48685 
  -49595   -50423   -50672   -50359   -49893   -49491   -49173   -49124 
  -49438   -49913   -50337   -50548   -50479   -50238   -49963   -49759 
  -49641   -49443   -49157   -49062   -49173   -49180   -48942   -48499 
  -48031   -47789   -47860   -48295   -49041   -49747   -50052   -49857 
  -49481   -49330   -49363   -49315   -49039   -48605   -48361   -48556 
  -48861   -48857   -48817   -49185   -49720   -49927   -49884   -49961 
  -50031   -49847   -49571   -49314   -49185   -49464   -50054   -50531 
  -50619   -50330   -49798   -49004   -48026   -47282   -47095   -47365 
  -47856   -48543   -49444   -50306   -50658   -50218   -49255   -48337 
  -47780   -47630   -47823   -48181   -48590   -49068   -49574   -49863 
  -49668   -49190   -48995   -49170   -49278   -49288   -49589   -50111 
  -50373   -50286   -50124   -49986   -49958   -50106   -50079   -49673 
  -49331   -49511   -50017   -50167   -49763   -49195   -48569   -47970 
  -47782   -48028   -48333   -48440   -48477   -48624   -48598   -48248 
  -48061   -48297   -48702   -49149   -49796   -50690   -51439   -51594 
  -51163   -50352   -49360   -48495   -48107   -48365   -49076   -49923 
  -50739   -51339   -51437   -50980   -50260   -49576   -48989   -48428 
  -48052   -48224   -48819   -49315   -49559   -49566   -49219   -48663 
  -48326   -48390   -48637   -48863   -49044   -49123   -49032   -48842 
  -48602   -48202   -47873   -48089   -48616   -48989   -49260   -49442 
  -49494   -49536   -49525   -49453   -49478   -49497   -49147   -48616 
  -48673   -49249   -49523   -49563   -49805   -49896   -49737   -49833 
  -50132   -50123   -49671   -49153   -49029   -49280   -49513   -49550 
  -49512   -49459   -49344   -49336   -49539   -49631   -49476   -49294 
  -49052   -48591   -48032   -47629   -47437   -47494   -47987   -48702 
  -49203   -49526   -49708   -49583   -49327   -49244   -49383   -49533 
  -49507   -49564   -49913   -50135   -49912   -49521   -49263   -49158 
  -49087   -49070   -49292   -49646   -49835   -49916   -50061   -50094 
  -49768   -49261   -49004   -49109   -49253   -49119   -48795   -48521 
  -48298   -48154   -48317   -48808   -49261   -49343   -49216   -49209 
  -49345   -49513   -49568   -49294   -48786   -48541   -48815   -49301 
  -49508   -49271   -49043   -49275   -49818   -50307   -50332   -49842 
  -49363   -48889   -48042   -47365   -47679   -48900   -50256   -51063 
  -51225   -50980   -50433   -49636   -48590   -47470   -46866   -46968 
  -47423   -47998   -48436   -48611   -48787   -49129   -49633   -50146 
  -50418   -50550   -50576   -50141   -49336   -48729   -48631   -48992 
  -49486   -49792   -49933   -50035   -50134   -50086   -49583   -48792 
  -48216   -48098   -48572   -49378   -49947   -50287   -50533   -50341 
  -49637   -48972   -48747   -48733   -48674   -48604   -48517   -48558 
  -48950   -49575   -50053   -50048   -49850   -50059   -50267   -49805 
  -49119   -48733   -48482   -48211   -47975   -47875   -47985   -48398 
  -49157   -49900   -50192   -50215   -50354   -50489   -50142   -49305 
  -48780   -49065   -49726   -50177   -50134   -49823   -49879   -50352 
  -50682   -50491   -49675   -48592   -47998   -48031   -48278   -48678 
  -49277   -49881   -50207   -49922   -49227   -48843   -48795   -48568 
  -48078   -47565   -47378   -47664   -48155   -48675   -49095   -49272 
  -49502   -49944   -50129   -49807   -49312   -49053   -49040   -48999 
  -49000   -49312   -49819   -50270   -50570   -50771   -50975   -51059 
  -50843   -50292   -49398   -48417   -47831   -47745   -47854   -47965 
  -48172   -48489   -48706   -48773   -48961   -49494   -50120   -50426 
  -50571   -50721   -50381   -49486   -48668   -48165   -48026   -48375 
  -48907   -49350   -49657   -49452   -48698   -48166   -48203   -48265 
  -48049   -47918   -48260   -48966   -49545   -49757   -49550   -48803 
  -47867   -47376   -47588   -48369   -49130   -49226   -48848   -48695 
  -48904   -49148   -49301   -49276   -48940   -48726   -49309   -50372 
  -50928   -50852   -50686   -50451   -49962   -49679   -50103   -50744 
  -50764   -50329   -50156   -50307   -50476   -50685   -50843   -50548 
  -49940   -49697   -49975   -50208   -49999   -49638   -49445   -49161 
  -48556   -47988   -48014   -48643   -49163   -49024   -48552   -48346 
  -48487   -48670   -48576   -47979   -47225   -47227   -48171   -49377 
  -50366   -50809   -50359   -49007   -47190   -45781   -45418   -45832 
  -46483   -47196   -47914   -48610   -49365   -50149   -50716   -50713 
  -50063   -49399   -49387   -49935   -50551   -50563   -49401   -47475 
  -46003   -45813   -46821   -48593   -51007   -53893   -56422   -57716 
  -57524   -55954   -53304   -49947   -46318   -43480   -42728   -44176 
  -46708   -49214   -51143   -52435   -53348   -53852   -53534   -52226 
  -50185   -48012   -46477   -45812   -45624   -45709   -46079   -46668 
  -47820   -49982   -52403   -53633   -53288   -51874   -49620   -46689 
  -43822   -42075   -42049   -43564   -46036   -48845   -51452   -53429 
  -54270   -53488   -51317   -48879   -47331   -47220   -48306   -49584 
  -50060   -49671   -48986   -48428   -48112   -48057   -48298   -48764 
  -49137   -49090   -48748   -48797   -49818   -51438   -52532   -52533 
  -51988   -51733   -52111   -52474   -51815   -50264   -48635   -47412 
  -46842   -46808   -47178   -47994   -49030   -49958   -50455   -50511 
  -50843   -51716   -52000   -50863   -49298   -48778   -49550   -50809 
  -51516   -50976   -49095   -46365   -43870   -42814   -43548   -45498 
  -47961   -50309   -51924   -52468   -51927   -50536   -48769   -47090 
  -45958   -45972   -47273   -49055   -50160   -49749   -47803   -45511 
  -44482   -45538   -48282   -51386   -53592   -54310   -53453   -51533 
  -49370   -47420   -45827   -44644   -44125   -45188   -48762   -54387 
  -60009   -63260   -62746   -58536   -52194   -45997   -41631   -39851 
  -40730   -43799   -48150   -52279   -54585   -54424   -52379   -49728 
  -47435   -45855   -45439   -46467   -48290   -49886   -50509   -49836 
  -48273   -46618   -45288   -44386   -44110   -44757   -46612   -49578 
  -52622   -54588   -55145   -54209   -51971   -49305   -46956   -45377 
  -45004   -45816   -47410   -49134   -50201   -50698   -51442   -52631 
  -53558   -53354   -51789   -49193   -46214   -44044   -43598   -44653 
  -46470   -48588   -50748   -52058   -51472   -49723   -48649   -48583 
  -48490   -47803   -46919   -46875   -48504   -51341   -53969   -55169 
  -54562   -52776   -50799   -49331   -48700   -48693   -49158   -50255 
  -51259   -50907   -49237   -47443   -46437   -46535   -47790   -49754 
  -51755   -53639   -54963   -54316   -50893   -45491   -39741   -35722 
  -35270   -38709   -44950   -52056   -57677   -60289   -59669   -56482 
  -52019   -47426   -43373   -40645   -40156   -42210   -46008   -50284 
  -53966   -56105   -56497   -55800   -54430   -52438   -50199   -48537 
  -47895   -47625   -47105   -46784   -47197   -47998   -48185   -47092 
  -45401   -44536   -45105   -46903   -49686   -53052   -56311   -58535 
  -58881   -57276   -54084   -49801   -45636   -42768   -41271   -41061 
  -42714   -46226   -50378   -53870   -55956   -56176   -54561   -51874 
  -49135   -47176   -46298   -46168   -46629   -47947   -49800   -51287 
  -51874   -51444   -50186   -48553   -46738   -44818   -43302   -42839 
  -43567   -44769   -45701   -46647   -48139   -50077   -52108   -53792 
  -54866   -55649   -56150   -55571   -53417   -50022   -46395   -43930 
  -43242   -43678   -44502   -45661   -47556   -50496   -53912   -56777 
  -58877   -60278   -60186   -57814   -53654   -49231   -45998   -44369 
  -43959   -44506   -45510   -45967   -45590   -44870   -44017   -43272 
  -43178   -43912   -45401   -47544   -49997   -52325   -54190   -55195 
  -54828   -53037   -50503   -48023   -46146   -45337   -46158   -48373 
  -50596   -52137   -52891   -52056   -49687   -47153   -45606   -45739 
  -47691   -50637   -53271   -54525   -53907   -51983   -49854   -47939 
  -46401   -45564   -45512   -46320   -47906   -49604   -50509   -50126 
  -48717   -47074   -46113   -46346   -47661   -49628   -51696   -53461 
  -54543   -54413   -53258   -51994   -51016   -50279   -50089   -50728 
  -51827   -52592   -52414   -51123   -49109   -47203   -45873   -44992 
  -44492   -44321   -44365   -44832   -45821   -47121   -48642   -49957 
  -50358   -49785   -48688   -47535   -46943   -47290   -47992   -48416 
  -48916   -49860   -51060   -51870   -51214   -49052   -46434   -43914 
  -42239   -42366   -43978   -46225   -48841   -51818   -54844   -57112 
  -57752   -56416   -53558   -50242   -47675   -46483   -46429   -47238 
  -48814   -50787   -52547   -53448   -53353   -52707   -51756   -50481 
  -49282   -48676   -48546   -48758   -49468   -50413   -51132   -51299 
  -50671   -49629   -48790   -48020   -47312   -47242   -47735   -48303 
  -48816   -49247   -49583   -49549   -48952   -48147   -47313   -46540 
  -46444   -47214   -48144   -48934   -49617   -49758   -49476   -49205 
  -48743   -48298   -48306   -48386   -48063   -47365   -47021   -48026 
  -49945   -51543   -52939   -54624   -56110   -56691   -55757   -53238 
  -49984   -46464   -42992   -40898   -41030   -42896   -45843   -49082 
  -51391   -52045   -51612   -51121   -50511   -49149   -47448   -46442 
  -46778   -48396   -50403   -51968   -52800   -52798   -52151   -51245 
  -50413   -49538   -48162   -46556   -45362   -44690   -44975   -46893 
  -49945   -52711   -54183   -54480   -54261   -53542   -52206   -50738 
  -49538   -48816   -48703   -48802   -48561   -48121   -47906   -47706 
  -47184   -46617   -46532   -47146   -48009   -48429   -48363   -48216 
  -48297   -48906   -50031   -50951   -50899   -49862   -48391   -46866 
  -45346   -44113   -43702   -44482   -46339   -48404   -49756   -50460 
  -51216   -52152   -52522   -51897   -50986   -50807   -51589   -52721 
  -53532   -53766   -53615   -53400   -52883   -51629   -49822   -47834 
  -46165   -45602   -46177   -47227   -48255   -48807   -48556   -47594 
  -46524   -46087   -46280   -46640   -47145   -47833   -48342   -48474 
  -48454   -48497   -48835   -49621   -50503   -51174   -51834   -52426 
  -52455   -51887   -51243   -50644   -49795   -48901   -48573   -49032 
  -49831   -50245   -50090   -49883   -49970   -49925   -49016   -47404 
  -46285   -46462   -47663   -49101   -50056   -50424   -50534   -50415 
  -49963   -49447   -49330   -49822   -50439   -50296   -49308   -48322 
  -47981   -48304   -48965   -49687   -50293   -50194   -48797   -46604 
  -44767   -44034   -44653   -46300   -48074   -49280   -49951   -50257 
  -50101   -49699   -49509   -49479   -49427   -49433   -49260   -48694 
  -48254   -48416   -48837   -49184   -49618   -50003   -50067   -50244 
  -51085   -52389   -53715   -54820   -55255   -54569   -52840   -50397 
  -47473   -44543   -42648   -42769   -44876   -48055   -51342   -53966 
  -55222   -54817   -53102   -50646   -48065   -46186   -45530   -45896 
  -46854   -48243   -49864   -50992   -50842   -49401   -47326   -45340 
  -44058   -43907   -44812   -46502   -48697   -50637   -51616   -51549 
  -50641   -49474   -48646   -48157   -47992   -48480   -49626   -50728 
  -51081   -50758   -50400   -50636   -51459   -52149   -52335   -52279 
  -52048   -51551   -50922   -50352   -49878   -49291   -48560   -48169 
  -48197   -47990   -47461   -47159   -47159   -47338   -47871   -48785 
  -49727   -50138   -49872   -49384   -48885   -48274   -47472   -46382 
  -45341   -45090   -45859   -47166   -48671   -50415   -52023   -52916 
  -53220   -53291   -52935   -52117   -51389   -51023   -50979   -51214 
  -51314   -50918   -50109   -48965   -47581   -46295   -45597   -45795 
