Origin Time       2024/04/02 04:24:00
Lat.              40.133
Long.             141.712
Depth. (km)       71
Mag.              6.0
Station Code      HKD053
Station Lat.      43.7849
Station Long.     143.6072
Station Height(m) 208
Record Time       2024/04/02 04:26:20
Sampling Freq(Hz) 100Hz
Duration Time(s)  60
Dir.              U-D
Scale Factor      7845(gal)/8223790
Max. Acc. (gal)   0.656
Last Correction   2024/04/02 04:26:20
Memo.             
[...]
   -5143    -5089    -5015    -4990    -5047    -5100    -5105    -5163 
   -5250    -5227    -5162    -5173    -5155    -5100    -5100    -5123 
   -5136    -5123    -5086    -5069    -5104    -5185    -5208    -5171 
   -5181    -5161    -5120    -5173    -5216    -5155    -5069    -5028 
   -5019    -5030    -5066    -5089    -5107    -5151    -5146    -5107 
   -5152    -5181    -5077    -4996    -5055    -5119    -5077    -5017 
   -5032    -5047    -5055    -5113    -5136    -5121    -5130    -5152 
   -5206    -5244    -5223    -5185    -5101    -5012    -5012    -5073 
   -5127    -5128    -5107    -5132    -5116    -5017    -4982    -5019 
   -5031    -5020    -5058    -5196    -5319    -5300    -5194    -5090 
   -5055    -5078    -5080    -5111    -5197    -5204    -5117    -5051 
   -5061    -5112    -5119    -5076    -5053    -5053    -5053    -5073 
   -5123    -5151    -5147    -5188    -5239    -5223    -5200    -5194 
   -5136    -5071    -5059    -5046    -5031    -5057    -5077    -5061 
   -5071    -5111    -5082    -5027    -5038    -5053    -5046    -5098 
   -5178    -5163    -5077    -5046    -5086    -5130    -5125    -5096 
   -5111    -5158    -5185    -5189    -5185    -5225    -5290    -5283 
   -5211    -5125    -5071    -5058    -5027    -5030    -5121    -5171 
   -5117    -5040    -5008    -5036    -5057    -5046    -5074    -5113 
   -5105    -5109    -5123    -5081    -5036    -5051    -5092    -5109 
   -5107    -5142    -5200    -5204    -5148    -5136    -5198    -5186 
   -5070    -5022    -5103    -5175    -5152    -5125    -5150    -5150 
   -5103    -5074    -5094    -5081    -4988    -4924    -4963    -5023 
   -5044    -5086    -5171    -5223    -5209    -5213    -5279    -5293 
   -5188    -5115    -5142    -5138    -5077    -5044    -5046    -5062 
   -5121    -5182    -5154    -5107    -5169    -5204    -5103    -5067 
   -5139    -5147    -5100    -5069    -5070    -5093    -5090    -5069 
   -5044    -4990    -4976    -5043    -5131    -5200    -5200    -5136 
   -5093    -5070    -5057    -5054    -5015    -5015    -5130    -5239 
   -5251    -5166    -5046    -5004    -5043    -5112    -5188    -5201 
   -5119    -5028    -5019    -5088    -5190    -5238    -5201    -5157 
   -5154    -5188    -5181    -5076    -4989    -5020    -5061    -5022 
   -5008    -5097    -5130    -5038    -5000    -5081    -5174    -5188 
   -5146    -5135    -5166    -5193    -5185    -5161    -5127    -5067 
   -5057    -5135    -5200    -5170    -5112    -5116    -5116    -5049 
   -5007    -5039    -5089    -5138    -5170    -5127    -5034    -5036 
   -5169    -5244    -5157    -5051    -5035    -5058    -5092    -5109 
   -5085    -5093    -5165    -5190    -5120    -5051    -5035    -5038 
   -5088    -5147    -5138    -5124    -5146    -5136    -5090    -5097 
   -5185    -5217    -5096    -4989    -5058    -5170    -5159    -5101 
   -5121    -5163    -5132    -5080    -5051    -5030    -5067    -5173 
   -5212    -5166    -5154    -5171    -5123    -5038    -5026    -5090 
   -5154    -5167    -5117    -5088    -5159    -5186    -5096    -5026 
   -5017    -5034    -5059    -5073    -5085    -5115    -5127    -5070 
   -4995    -4999    -5054    -5121    -5200    -5208    -5179    -5229 
   -5247    -5158    -5096    -5088    -5082    -5093    -5105    -5062 
   -4980    -4943    -4989    -5085    -5205    -5290    -5275    -5188 
   -5111    -5073    -5058    -5096    -5170    -5169    -5104    -5028 
   -4934    -4938    -5090    -5217    -5229    -5196    -5178    -5175 
   -5142    -5061    -5024    -5100    -5196    -5197    -5119    -5062 
   -5069    -5062    -5035    -5082    -5162    -5166    -5096    -5003 
   -4953    -4993    -5080    -5128    -5134    -5151    -5177    -5162 
   -5105    -5069    -5105    -5107    -5032    -5047    -5143    -5161 
   -5119    -5150    -5223    -5206    -5161    -5165    -5150    -5127 
   -5154    -5162    -5093    -5007    -5005    -5086    -5140    -5131 
   -5089    -5077    -5124    -5162    -5167    -5204    -5228    -5175 
   -5098    -5050    -5008    -4953    -4935    -5017    -5136    -5171 
   -5130    -5103    -5117    -5154    -5189    -5223    -5233    -5189 
   -5138    -5127    -5109    -5046    -4942    -4861    -4907    -5053 
   -5142    -5121    -5092    -5094    -5098    -5115    -5150    -5175 
   -5171    -5119    -5040    -4993    -5020    -5123    -5225    -5205 
   -5085    -5065    -5155    -5181    -5131    -5104    -5101    -5094 
   -5131    -5185    -5171    -5147    -5143    -5120    -5113    -5124 
   -5165    -5220    -5169    -5024    -4972    -5078    -5194    -5196 
   -5143    -5108    -5069    -5053    -5101    -5140    -5139    -5150 
   -5146    -5096    -5073    -5090    -5088    -5089    -5117    -5139 
   -5123    -5101    -5125    -5136    -5086    -5101    -5182    -5188 
   -5119    -5058    -5051    -5094    -5128    -5135    -5139    -5144 
   -5130    -5076    -5036    -5089    -5155    -5127    -5063    -5047 
   -5061    -5062    -5059    -5112    -5194    -5209    -5155    -5108 
   -5080    -5035    -5026    -5096    -5135    -5061    -4973    -5015 
   -5104    -5092    -5113    -5239    -5274    -5220    -5165    -5080 
   -5039    -5073    -5088    -5061    -5031    -5043    -5058    -5012 
   -4996    -5071    -5159    -5223    -5274    -5278    -5211    -5150 
   -5125    -5080    -5071    -5119    -5117    -5120    -5136    -5065 
   -4995    -5022    -5107    -5154    -5136    -5138    -5125    -5086 
   -5135    -5200    -5185    -5152    -5108    -5044    -5003    -5001 
   -5055    -5154    -5258    -5267    -5166    -5139    -5219    -5212 
   -5113    -5036    -4989    -4976    -5013    -5092    -5158    -5167 
   -5111    -5055    -5097    -5166    -5173    -5155    -5144    -5125 
   -5035    -4958    -5044    -5150    -5127    -5049    -4999    -5027 
   -5101    -5161    -5169    -5147    -5185    -5209    -5097    -5011 
   -5044    -5047    -5015    -5070    -5127    -5059    -5036    -5151 
   -5209    -5151    -5112    -5130    -5152    -5170    -5146    -5078 
   -5063    -5100    -5119    -5132    -5140    -5147    -5169    -5143 
   -5054    -5007    -5030    -5093    -5177    -5216    -5221    -5201 
   -5143    -5109    -5121    -5152    -5185    -5182    -5130    -5074 
   -5051    -5020    -5011    -5061    -5073    -5074    -5140    -5171 
   -5131    -5061    -5012    -5036    -5108    -5189    -5250    -5259 
   -5229    -5185    -5123    -5054    -5036    -5074    -5071    -5034 
   -5042    -5055    -5046    -5053    -5059    -5050    -5080    -5134 
   -5136    -5130    -5197    -5269    -5225    -5124    -5105    -5147 
   -5147    -5104    -5053    -5049    -5119    -5150    -5101    -5084 
   -5104    -5117    -5123    -5142    -5158    -5147    -5131    -5085 
   -5036    -5089    -5143    -5077    -4980    -4996    -5085    -5081 
   -5046    -5120    -5198    -5212    -5174    -5069    -5009    -5058 
   -5124    -5144    -5119    -5101    -5092    -5080    -5124    -5147 
   -5089    -5081    -5132    -5107    -5038    -5062    -5144    -5215 
   -5229    -5143    -5040    -5013    -5005    -5030    -5113    -5138 
   -5088    -5115    -5224    -5236    -5136    -5093    -5108    -5069 
   -5055    -5136    -5206    -5166    -5098    -5147    -5217    -5159 
   -5059    -4999    -4996    -5084    -5174    -5171    -5113    -5092 
   -5131    -5151    -5100    -5032    -5059    -5171    -5192    -5096 
   -5077    -5171    -5194    -5082    -5022    -5123    -5211    -5162 
   -5105    -5116    -5130    -5113    -5085    -5076    -5112    -5177 
   -5197    -5166    -5151    -5116    -5059    -5038    -5023    -5023 
   -5063    -5092    -5081    -5059    -5035    -5007    -5008    -5071 
   -5166    -5224    -5209    -5161    -5134    -5111    -5089    -5076 
   -5065    -5058    -5020    -4984    -5011    -5080    -5157    -5213 
   -5219    -5179    -5109    -5043    -5055    -5131    -5157    -5115 
   -5124    -5189    -5177    -5096    -5062    -5063    -5040    -5035 
   -5070    -5107    -5112    -5074    -5009    -5028    -5151    -5205 
   -5147    -5111    -5146    -5177    -5147    -5098    -5082    -5089 
   -5097    -5086    -5096    -5116    -5071    -5023    -5024    -5070 
   -5178    -5278    -5301    -5273    -5233    -5198    -5148    -5124 
   -5162    -5163    -5086    -5009    -4982    -4989    -5000    -5017 
   -5034    -5035    -5082    -5146    -5103    -5022    -5050    -5162 
   -5248    -5239    -5171    -5152    -5175    -5138    -5065    -5030 
   -5004    -5026    -5120    -5192    -5238    -5260    -5208    -5138 
   -5146    -5194    -5184    -5144    -5124    -5054    -4974    -4981 
   -5017    -5043    -5065    -5070    -5105    -5148    -5146    -5150 
   -5173    -5175    -5158    -5138    -5107    -5066    -5038    -4992 
   -4935    -4955    -5034    -5127    -5211    -5221    -5212    -5246 
   -5258    -5206    -5127    -5059    -5047    -5084    -5090    -5036 
   -4982    -4984    -5023    -5092    -5173    -5206    -5240    -5275 
   -5223    -5182    -5231    -5242    -5179    -5107    -5065    -5046 
   -5026    -5062    -5130    -5138    -5119    -5089    -5038    -5031 
   -5096    -5154    -5146    -5138    -5146    -5116    -5130    -5205 
   -5185    -5120    -5135    -5120    -5042    -4999    -5008    -5063 
   -5166    -5252    -5220    -5104    -5077    -5111    -5071    -5040 
   -5062    -5028    -4945    -4936    -5049    -5152    -5150    -5128 
   -5148    -5197    -5227    -5154    -5084    -5121    -5135    -5120 
   -5140    -5116    -5044    -5001    -4996    -5022    -5066    -5112 
   -5139    -5127    -5113    -5131    -5120    -5062    -5042    -5094 
   -5140    -5159    -5178    -5201    -5244    -5294    -5293    -5233 
   -5165    -5104    -5020    -4953    -4968    -5034    -5081    -5077 
   -5043    -5043    -5059    -5027    -5001    -5073    -5169    -5182 
   -5154    -5162    -5182    -5152    -5086    -5074    -5120    -5132 
   -5113    -5089    -5038    -5042    -5121    -5163    -5144    -5127 
   -5142    -5166    -5136    -5080    -5071    -5096    -5098    -5073 
   -5062    -5094    -5144    -5190    -5209    -5194    -5182    -5162 
   -5107    -5059    -5059    -5111    -5178    -5204    -5177    -5130 
   -5089    -5054    -5023    -5020    -5054    -5092    -5104    -5074 
   -5051    -5105    -5175    -5158    -5117    -5144    -5186    -5178 
   -5150    -5144    -5121    -5066    -5013    -4989    -5026    -5121 
   -5158    -5051    -4931    -4938    -5012    -5097    -5174    -5223 
   -5269    -5259    -5154    -5082    -5109    -5158    -5204    -5243 
   -5232    -5162    -5090    -5040    -5004    -4992    -4984    -4954 
   -4951    -5043    -5162    -5190    -5157    -5158    -5179    -5142 
   -5103    -5169    -5246    -5246    -5239    -5238    -5200    -5132 
   -5103    -5138    -5125    -5058    -5040    -5058    -5077    -5085 
   -5062    -5059    -5113    -5142    -5078    -4996    -4968    -4992 
   -5088    -5209    -5254    -5201    -5117    -5094    -5165    -5248 
   -5262    -5202    -5084    -4984    -4993    -5039    -5043    -5047 
   -5065    -5093    -5109    -5043    -4935    -4928    -5024    -5089 
   -5124    -5200    -5225    -5157    -5131    -5197    -5238    -5190 
   -5121    -5093    -5104    -5092    -5007    -4955    -5024    -5078 
   -5038    -5003    -5053    -5143    -5209    -5244    -5240    -5178 
   -5115    -5053    -4939    -4903    -5008    -5115    -5171    -5200 
   -5171    -5096    -5066    -5144    -5224    -5190    -5135    -5169 
   -5242    -5277    -5263    -5194    -5044    -4862    -4756    -4797 
   -4942    -5073    -5130    -5117    -5093    -5096    -5107    -5158 
   -5310    -5494    -5574    -5487    -5325    -5208    -5116    -4985 
   -4869    -4820    -4806    -4784    -4787    -4892    -5089    -5220 
   -5221    -5221    -5221    -5130    -5050    -5057    -5092    -5161 
   -5260    -5293    -5221    -5155    -5181    -5250    -5287    -5317 
   -5363    -5344    -5184    -4930    -4737    -4720    -4873    -5123 
   -5297    -5285    -5192    -5100    -5032    -5066    -5148    -5131 
   -5035    -5008    -5107    -5248    -5344    -5375    -5328    -5178 
   -5015    -4922    -4854    -4808    -4814    -4850    -4938    -5113 
   -5316    -5414    -5317    -5115    -4978    -4962    -5043    -5162 
   -5205    -5117    -4986    -4963    -5044    -5119    -5165    -5215 
   -5217    -5089    -4905    -4855    -4930    -4954    -4897    -4889 
   -5004    -5179    -5316    -5409    -5518    -5576    -5485    -5325 
   -5174    -5042    -5001    -5032    -5032    -4961    -4868    -4833 
   -4837    -4880    -5023    -5174    -5238    -5209    -5174    -5270 
   -5437    -5547    -5566    -5431    -5166    -4936    -4885    -5027 
   -5189    -5215    -5094    -4872    -4658    -4572    -4669    -4949 
   -5255    -5425    -5502    -5567    -5571    -5421    -5123    -4837 
   -4710    -4777    -5001    -5256    -5460    -5575    -5483    -5189 
   -4901    -4760    -4737    -4780    -4854    -4911    -4931    -4926 
   -4932    -5012    -5169    -5356    -5525    -5603    -5580    -5487 
   -5339    -5178    -5035    -4889    -4737    -4611    -4595    -4706 
   -4838    -4974    -5185    -5431    -5589    -5547    -5290    -4981 
   -4789    -4706    -4714    -4864    -5088    -5296    -5443    -5449 
   -5367    -5325    -5332    -5310    -5231    -5165    -5166    -5184 
   -5121    -4922    -4662    -4464    -4423    -4619    -4970    -5289 
   -5481    -5535    -5487    -5440    -5485    -5587    -5579    -5386 
   -5136    -4954    -4854    -4827    -4846    -4870    -4873    -4839 
   -4789    -4831    -5049    -5343    -5508    -5498    -5478    -5516 
   -5494    -5367    -5178    -4968    -4803    -4747    -4831    -5005 
   -5148    -5154    -5042    -4974    -5044    -5190    -5297    -5293 
   -5169    -4928    -4679    -4571    -4625    -4806    -5043    -5188 
   -5242    -5359    -5552    -5680    -5661    -5532    -5371    -5242 
   -5162    -5100    -5038    -4980    -4887    -4785    -4754    -4831 
   -4986    -5074    -4992    -4868    -4835    -4934    -5159    -5359 
   -5389    -5277    -5120    -5027    -5034    -5086    -5121    -5058 
   -4927    -4837    -4855    -5042    -5269    -5327    -5251    -5135 
   -5016    -4997    -5096    -5192    -5185    -5158    -5228    -5320 
   -5320    -5228    -5089    -4984    -4962    -4962    -4974    -4995 
   -4946    -4822    -4719    -4703    -4788    -4957    -5205    -5476 
   -5614    -5532    -5319    -5112    -5020    -5104    -5332    -5584 
   -5711    -5620    -5346    -5066    -4926    -4947    -5108    -5275 
   -5231    -4973    -4716    -4642    -4781    -5001    -5182    -5246 
   -5130    -4988    -5020    -5193    -5381    -5506    -5533    -5439 
   -5255    -5112    -5094    -5150    -5224    -5269    -5193    -5026 
   -4834    -4671    -4652    -4765    -4873    -4951    -5009    -5001 
   -4989    -5098    -5324    -5508    -5522    -5382    -5121    -4811 
   -4679    -4833    -5107    -5320    -5427    -5433    -5375    -5275 
   -5120    -4970    -4926    -4990    -5101    -5165    -5123    -4999 
   -4841    -4684    -4573    -4599    -4810    -5101    -5321    -5394 
   -5366    -5323    -5265    -5235    -5304    -5363    -5301    -5151 
   -4978    -4845    -4838    -4972    -5142    -5267    -5356    -5381 
   -5293    -5157    -5062    -4962    -4850    -4853    -4980    -5123 
   -5263    -5398    -5447    -5390    -5298    -5182    -5024    -4899 
   -4842    -4770    -4715    -4819    -5082    -5374    -5566    -5598 
   -5471    -5238    -5049    -4978    -4968    -5067    -5281    -5404 
   -5336    -5182    -5059    -4982    -4909    -4884    -4947    -5039 
   -5067    -4965    -4780    -4652    -4683    -4877    -5115    -5263 
   -5317    -5320    -5323    -5356    -5341    -5235    -5161    -5252 
   -5437    -5508    -5398    -5225    -5084    -5023    -5063    -5116 
   -5070    -4930    -4773    -4696    -4750    -4862    -4958    -5034 
   -5077    -5123    -5223    -5301    -5252    -5090    -4920    -4806 
   -4762    -4807    -4924    -5096    -5277    -5364    -5328    -5238 
   -5174    -5138    -5061    -4965    -4941    -5039    -5221    -5346 
   -5332    -5275    -5281    -5335    -5364    -5328    -5227    -5094 
   -4980    -4900    -4882    -4930    -4977    -4990    -4976    -4936 
   -4927    -5004    -5155    -5309    -5406    -5433    -5348    -5157 
   -5005    -5012    -5123    -5223    -5267    -5273    -5232    -5158 
   -5093    -5034    -5001    -5058    -5184    -5323    -5432    -5455 
   -5424    -5368    -5259    -5127    -5000    -4873    -4799    -4784 
   -4773    -4749    -4769    -4882    -5035    -5128    -5154    -5136 
   -5063    -4962    -4904    -4928    -5036    -5166    -5211    -5142 
   -5054    -5034    -5093    -5188    -5240    -5227    -5211    -5219 
   -5197    -5105    -4969    -4827    -4731    -4738    -4842    -5001 
   -5192    -5383    -5526    -5574    -5516    -5358    -5140    -4995 
   -5008    -5117    -5221    -5270    -5217    -5040    -4872    -4858 
   -4972    -5120    -5240    -5282    -5255    -5213    -5206    -5227 
   -5228    -5169    -5015    -4838    -4827    -5012    -5239    -5402 
   -5447    -5346    -5181    -5059    -4990    -4919    -4834    -4783 
   -4800    -4914    -5104    -5271    -5364    -5385    -5308    -5197 
   -5112    -4993    -4842    -4766    -4803    -4928    -5123    -5300 
   -5350    -5240    -5082    -5016    -5031    -5061    -5112    -5194 
   -5248    -5246    -5250    -5252    -5169    -5042    -4958    -4932 
   -4980    -5084    -5189    -5224    -5179    -5120    -5080    -5050 
   -5000    -4893    -4799    -4810    -4924    -5094    -5279    -5449 
   -5578    -5610    -5506    -5325    -5178    -5116    -5082    -4996 
   -4900    -4891    -4946    -4980    -4970    -4962    -4977    -5009 
   -5080    -5173    -5235    -5269    -5298    -5297    -5251    -5178 
   -5084    -4962    -4877    -4911    -5028    -5142    -5235    -5273 
   -5213    -5112    -5054    -5049    -5078    -5130    -5192    -5265 
   -5317    -5287    -5202    -5132    -5071    -4996    -4930    -4907 
   -4932    -4946    -4912    -4896    -4927    -4985    -5049    -5065 
   -5044    -5084    -5194    -5312    -5418    -5512    -5555    -5510 
   -5397    -5269    -5115    -4945    -4865    -4893    -4936    -4978 
   -5057    -5124    -5119    -5082    -5088    -5116    -5119    -5097 
   -5065    -5023    -4990    -4988    -5030    -5139    -5298    -5417 
   -5436    -5374    -5300    -5247    -5178    -5089    -5007    -4954 
   -4968    -5019    -5040    -5015    -5000    -5035    -5093    -5135 
   -5152    -5154    -5143    -5113    -5103    -5116    -5107    -5090 
   -5081    -5063    -5070    -5105    -5127    -5139    -5161    -5161 
   -5125    -5113    -5161    -5238    -5269    -5221    -5143    -5098 
   -5116    -5159    -5150    -5062    -4950    -4900    -4942    -5062 
   -5238    -5367    -5336    -5174    -5003    -4892    -4868    -4959 
   -5127    -5267    -5319    -5290    -5213    -5130    -5088    -5103 
   -5146    -5179    -5197    -5209    -5171    -5094    -5073    -5109 
   -5155    -5189    -5189    -5146    -5073    -4973    -4874    -4849 
