Origin Time       2024/04/02 04:24:00
Lat.              40.133
Long.             141.712
Depth. (km)       71
Mag.              6.0
Station Code      HKD069
Station Lat.      43.3941
Station Long.     145.1168
Station Height(m) 25
Record Time       2024/04/02 04:26:23
Sampling Freq(Hz) 100Hz
Duration Time(s)  75
Dir.              N-S
Scale Factor      3920(gal)/6182761
Max. Acc. (gal)   5.646
Last Correction   2024/04/02 04:26:24
Memo.             
[...]
    5237     5140     4974     4769     4633     4562     4516     4543 
    4669     4828     4967     5117     5297     5453     5498     5419 
    5311     5245     5155     4975     4811     4776     4807     4819 
    4825     4821     4791     4765     4762     4772     4772     4756 
    4794     4920     5040     5043     4959     4878     4812     4749 
    4728     4763     4835     4940     5054     5104     5052     4966 
    4927     4939     4980     5061     5172     5259     5315     5362 
    5361     5256     5075     4869     4676     4531     4447     4404 
    4444     4650     4994     5348     5643     5827     5816     5599 
    5244     4846     4525     4365     4350     4426     4588     4823 
    5027     5112     5099     5059     5052     5056     5029     5031 
    5106     5188     5241     5301     5347     5336     5270     5139 
    4935     4763     4750     4819     4816     4772     4792     4851 
    4882     4910     4983     5084     5180     5254     5285     5240 
    5104     4940     4857     4890     4965     5010     5010     4942 
    4814     4738     4778     4840     4871     4954     5074     5092 
    4984     4837     4745     4771     4921     5126     5261     5244 
    5080     4838     4628     4522     4512     4593     4745     4925 
    5137     5361     5465     5370     5162     4960     4813     4725 
    4670     4615     4592     4652     4771     4878     4936     4972 
    5028     5115     5232     5326     5310     5186     5058     5032 
    5069     5032     4912     4797     4682     4557     4493     4511 
    4574     4670     4815     5037     5312     5531     5603     5512 
    5305     5057     4815     4606     4481     4485     4601     4776 
    4943     5035     5040     5066     5206     5368     5419     5363 
    5246     5090     4908     4713     4592     4639     4773     4860 
    4921     5020     5098     5074     5009     4963     4897     4817 
    4797     4835     4845     4807     4815     4910     5007     5012 
    4929     4854     4822     4786     4769     4844     4984     5102 
    5172     5242     5329     5382     5394     5405     5351     5122 
    4766     4473     4372     4409     4483     4602     4800     5032 
    5193     5204     5078     4914     4821     4842     4930     5036 
    5142     5177     5099     4991     4914     4832     4759     4805 
    4965     5069     5069     5114     5223     5284     5303     5300 
    5211     5078     5058     5168     5253     5227     5138     5027 
    4907     4816     4765     4726     4726     4793     4912     5081 
    5199     5127     4951     4870     4910     4969     4997     4994 
    4939     4848     4828     4919     5003     4991     4984     5072 
    5133     5056     4945     4896     4861     4815     4805     4819 
    4819     4876     5050     5219     5250     5233     5270     5273 
    5191     5078     4932     4775     4721     4826     4958     4972 
    4906     4831     4739     4631     4494     4365     4425     4745 
    5111     5327     5441     5538     5605     5630     5563     5335 
    5041     4841     4720     4592     4507     4574     4793     5070 
    5328     5538     5664     5670     5566     5396     5190     4941 
    4653     4408     4299     4317     4376     4441     4554     4697 
    4757     4685     4539     4438     4496     4680     4838     4893 
    4930     5054     5216     5275     5172     5026     4970     4956 
    4931     4974     5126     5306     5428     5483     5444     5262 
    4988     4718     4555     4572     4676     4700     4712     4869 
    5011     4902     4656     4524     4529     4568     4627     4748 
    4953     5267     5644     5893     5899     5743     5541     5319 
    5053     4743     4445     4224     4130     4193     4385     4674 
    5013     5281     5397     5432     5425     5318     5132     4951 
    4802     4702     4649     4605     4581     4623     4686     4699 
    4727     4837     4953     5016     5064     5083     5041     4991 
    4996     5079     5180     5195     5129     5106     5171     5197 
    5105     5029     5106     5243     5239     5048     4792     4593 
    4489     4474     4534     4624     4680     4738     4894     5094 
    5199     5238     5328     5457     5508     5422     5273     5155 
    5072     5004     5003     5082     5119     5038     4934     4929 
    4995     5025     5022     5071     5179     5275     5299     5240 
    5136     5017     4880     4771     4704     4617     4518     4487 
    4529     4578     4634     4755     4925     5042     5092     5199 
    5394     5524     5483     5326     5198     5158     5101     4947 
    4764     4678     4708     4739     4750     4861     5062     5213 
    5227     5071     4793     4556     4461     4461     4509     4661 
    4926     5200     5405     5497     5417     5206     5012     4865 
    4709     4590     4554     4550     4525     4559     4777     5091 
    5309     5445     5607     5753     5722     5445     5021     4597 
    4304     4234     4349     4505     4636     4808     5034     5199 
    5231     5182     5101     4991     4903     4903     4934     4916 
    4909     4981     5088     5165     5169     5098     4983     4850 
    4713     4591     4544     4631     4793     4962     5143     5280 
    5294     5208     5064     4911     4829     4857     4935     4965 
    4931     4862     4769     4726     4833     5055     5241     5322 
    5328     5279     5189     5081     4935     4758     4664     4732 
    4881     4983     5018     5054     5109     5079     4887     4655 
    4554     4595     4701     4815     4906     4998     5135     5289 
    5408     5487     5475     5273     4928     4600     4357     4176 
    4104     4235     4531     4857     5125     5290     5391     5496 
    5550     5496     5368     5180     4951     4777     4723     4702 
    4635     4649     4863     5138     5275     5281     5273     5286 
    5241     5110     5002     5003     5055     5081     5074     5030 
    4913     4704     4484     4379     4389     4441     4568     4841 
    5162     5344     5387     5408     5395     5276     5102     4962 
    4848     4742     4724     4869     5111     5329     5483     5608 
    5690     5587     5223     4796     4536     4436     4400     4422 
    4521     4678     4892     5123     5253     5268     5262     5214 
    5058     4859     4710     4595     4516     4566     4764     4998 
    5185     5328     5417     5406     5309     5161     4975     4815 
    4700     4606     4604     4747     4947     5086     5132     5141 
    5147     5125     5060     4961     4805     4656     4683     4885 
    5058     5089     5101     5187     5193     4987     4736     4666 
    4723     4704     4624     4648     4774     4880     4944     5049 
    5228     5406     5482     5442     5322     5148     4959     4831 
    4797     4776     4708     4681     4754     4807     4782     4787 
    4853     4921     5021     5166     5203     5052     4853     4778 
    4845     4921     4912     4923     5045     5152     5136     5064 
    4993     4886     4784     4782     4810     4794     4834     4949 
    4981     4955     5021     5079     4990     4872     4877     4958 
    5007     5050     5134     5167     5051     4903     4921     5088 
    5188     5085     4851     4670     4607     4606     4671     4848 
    5101     5310     5384     5340     5249     5165     5098     5021 
    4905     4789     4740     4753     4802     4879     4945     4976 
    5001     5054     5123     5146     5069     4940     4841     4781 
    4704     4579     4521     4650     4857     4965     5006     5112 
    5302     5488     5540     5379     5067     4756     4559     4461 
    4414     4460     4622     4841     5054     5191     5215     5185 
    5198     5277     5339     5299     5224     5221     5255     5252 
    5225     5189     5130     5052     4954     4823     4670     4528 
    4449     4456     4471     4437     4455     4657     4990     5300 
    5503     5566     5501     5398     5332     5247     5099     4961 
    4843     4701     4603     4607     4662     4760     4952     5155 
    5196     5117     5148     5304     5389     5363     5325     5250 
    5046     4760     4511     4328     4212     4179     4192     4236 
    4409     4728     5040     5248     5349     5362     5345     5319 
    5199     4955     4745     4720     4830     4921     4921     4945 
    5121     5347     5465     5490     5498     5489     5439     5367 
    5283     5152     4994     4888     4825     4698     4477     4286 
    4260     4352     4417     4477     4658     4944     5293     5707 
    6022     6019     5694     5245     4875     4609     4340     4030 
    3779     3708     3855     4187     4634     5100     5538     5897 
    6034     5881     5590     5326     5111     4977     4941     4896 
    4780     4666     4546     4331     4115     4105     4286     4494 
    4672     4804     4887     5014     5254     5500     5620     5644 
    5653     5618     5492     5273     4963     4618     4387     4381 
    4540     4732     4893     4990     5055     5199     5421     5518 
    5385     5231     5241     5277     5176     5029     4974     4990 
    5001     4948     4793     4591     4438     4387     4474     4692 
    4966     5211     5422     5606     5648     5472     5211     4995 
    4827     4699     4617     4545     4474     4476     4608     4840 
    5127     5424     5660     5711     5549     5334     5119     4809 
    4439     4142     4024     4190     4557     4837     4933     4989 
    5037     5009     4954     4966     5029     5132     5328     5550 
    5643     5582     5455     5362     5335     5268     5127     5044 
    5041     5029     4994     4918     4740     4544     4470     4469 
    4427     4364     4377     4563     4933     5346     5696     6047 
    6412     6563     6320     5777     5124     4500     4045     3798 
    3645     3559     3655     3930     4243     4573     5008     5580 
    6195     6651     6791     6638     6304     5888     5422     4864 
    4203     3535     2995     2698     2742     3162     3897     4890 
    6028     6990     7449     7382     6929     6184     5275     4368 
    3561     2916     2559     2577     2893     3405     4127     5046 
    5983     6670     6903     6675     6177     5633     5194     4930 
    4874     5119     5624     6049     6110     5815     5270     4534 
    3659     2832     2375     2493     3177     4262     5496     6675 
    7685     8471     8977     9049     8500     7352     5838     4187 
    2595     1327      615      476      865     1835     3240     4556 
    5451     6124     6722     7006     6853     6438     5907     5358 
    4957     4704     4435     4146     3959     3860     3781     3782 
    3985     4410     4916     5371     5730     5923     5885     5664 
    5319     4814     4157     3508     3071     2956     3149     3574 
    4223     5141     6267     7348     8077     8253     7878     7153 
    6254     5172     3954     2929     2503     2814     3569     4268 
    4549     4384     4083     3978     4097     4327     4752     5503 
    6367     6987     7394     7852     8377     8816     9078     8941 
    8072     6447     4385     2182       49    -1715    -2770    -2895 
   -2004     -211     2128     4656     7130     9248    10609    10864 
    9977     8321     6364     4363     2515     1138      522      769 
    1782     3333     5174     7047     8645     9713    10160    10003 
    9292     8172     6799     5211     3526     2046     1043      643 
     854     1564     2643     4077     5784     7503     9034    10322 
   11280    11692    11252     9790     7545     5081     2969     1561 
     871      678      694      632      365      102      178      758 
    1857     3415     5206     6822     7910     8288     7809     6447 
    4636     3143     2462     2473     2747     3043     3433     4100 
    5095     6276     7427     8338     8885     9172     9406     9556 
    9365     8691     7626     6373     5154     4106     3166     2233 
    1444     1061     1120     1450     1941     2492     2881     3054 
    3347     4134     5397     6822     8133     9151     9733     9831 
    9455     8621     7484     6291     5162     4124     3179     2282 
    1464      867      669     1047     2016     3346     4670     5611 
    5945     5736     5277     4809     4323     3649     2738     1890 
    1630     2284     3706     5430     7103     8644     9918    10553 
   10234     9036     7313     5351     3349     1577      355      -54 
     522     2054     4211     6550     8695    10220    10686    10006 
    8519     6525     4153     1840      248     -417     -383      209 
    1312     2747     4296     5832     7185     8065     8257     7833 
    7145     6604     6462     6640     6843     6874     6564     5679 
    4193     2301      372     -936     -988      352     2670     5282 
    7506     8966     9775    10249    10435    10150     9331     8009 
    6108     3664     1069    -1076    -2247    -2146     -637     2173 
    5692     9052    11579    12961    13033    11720     9372     6605 
    3826     1430     -132     -853    -1057     -831     -157      788 
    1948     3561     5766     8280    10460    11769    12159    11758 
   10489     8259     5293     2149     -562    -2519    -3670    -3941 
   -3235    -1645      629     3378     6306     9117    11522    13171 
   13813    13274    11536     9094     6637     4474     2672     1333 
     457      -37     -130      151      731     1685     3057     4721 
    6525     8241     9495    10040     9948     9345     8228     6658 
    4843     2969     1214      -65     -531     -136      973     2507 
    4078     5494     6820     8064     8976     9189     8460     6863 
    4905     3300     2504     2574     3306     4457     5853     7238 
    8161     8232     7409     5972     4337     2916     1981     1559 
    1558     1900     2466     3058     3547     3952     4327     4761 
    5515     6810     8445     9834    10358     9717     8143     6207 
    4412     3072     2395     2493     3302     4573     6041     7374 
    8022     7576     6152     4228     2326      775     -319     -780 
    -175     1766     4670     7691    10009    11198    11303    10649 
    9579     8295     6852     5267     3744     2644     2083     1871 
    1872     2070     2410     2785     3107     3358     3498     3396 
    3088     2990     3655     5282     7414     9168     9759     8957 
    7220     5303     3764     2840     2536     2747     3308     4037 
    4815     5540     6108     6530     6964     7579     8256     8460 
    7798     6572     5294     4138     3277     2941     3030     3307 
    3612     3721     3627     3670     3907     3957     3659     3310 
    3262     3616     4350     5425     6634     7673     8330     8486 
    8141     7471     6676     5837     5035     4353     3646     2702 
    1589      715      569     1363     2973     5062     7085     8454 
    8857     8336     7201     5977     5126     4529     3718     2643 
    1612      854      670     1392     2978     5047     7184     8995 
   10118    10433    10126     9436     8358     6776     4824     2841 
    1089     -267    -1028     -896      356     2540     5024     7073 
    8247     8599     8360     7534     6165     4752     3903     3746 
    4081     4776     5668     6463     6932     6987     6588     5731 
    4596     3527     2763     2405     2589     3382     4505     5422 
    5771     5549     4997     4480     4263     4315     4465     4654 
    4877     5026     5055     5075     5175     5377     5682     6022 
    6238     6133     5760     5476     5414     5426     5507     5671 
    5682     5296     4666     4202     4062     4138     4397     4798 
    5179     5462     5645     5617     5215     4443     3647     3280 
    3462     4010     4667     5161     5380     5414     5354     5219 
    5048     4957     5077     5345     5489     5290     4798     4312 
    4132     4299     4490     4301     3635     2723     1972     1789 
    2342     3460     4798     6156     7505     8637     9150     8871 
    8061     7130     6275     5533     4974     4632     4398     4172 
    4048     4212     4658     5080     5137     4725     3956     3029 
    2189     1607     1347     1614     2738     4657     6867     8957 
   10652    11503    11097     9499     7106     4339     1728     -137 
    -864     -354     1214     3415     5698     7548     8618     8812 
    8287     7358     6326     5455     4933     4711     4608     4584 
    4717     4886     4773     4295     3627     2882     2207     1891 
    2134     2868     3870     4996     6134     7056     7540     7536 
    7073     6192     5177     4534     4516     4962     5581     6135 
    6471     6540     6315     5742     4804     3591     2294     1187 
     587      707     1485     2651     3970     5357     6763     8003 
    8754     8789     8133     6963     5522     4148     3242     3060 
    3587     4661     6063     7428     8358     8652     8260     7163 
    5513     3654     1963      807      429      852     1922     3338 
    4723     5811     6497     6713     6479     5989     5474     5077 
    4894     4992     5306     5631     5805     5809     5665     5333 
    4799     4214     3747     3384     3189     3393     4059     5007 
    5973     6776     7483     8205     8740     8648     7700     6082 
    4190     2423     1118      483      598     1374     2552     3880 
    5236     6513     7502     8017     8026     7593     6788     5659 
    4297     2962     1952     1339     1047     1091     1554     2459 
    3721     5101     6295     7092     7464     7572     7644     7748 
    7779     7652     7388     7005     6438     5621     4591     3487 
    2456     1620     1143     1211     1888     3114     4807     6770 
    8580     9788    10121     9519     8164     6412     4631     3040 
    1670      579      -47     -106      389     1414     2843     4406 
    5730     6493     6633     6327     5927     5887     6443     7410 
    8394     9056     9150     8544     7221     5299     3203     1554 
     789     1033     2188     3863     5420     6354     6592     6325 
    5709     4926     4235     3766     3456     3244     3180     3374 
    3969     5037     6437     7835     8862     9249     8875     7793 
    6324     4951     3960     3340     3010     2931     3020     3163 
    3332     3535     3763     4049     4432     4931     5599     6394 
    7066     7424     7492     7217     6448     5281     4015     2915 
    2214     2045     2329     2814     3267     3664     4172     4892 
    5738     6580     7299     7690     7581     7058     6349     5513 
    4494     3488     2941     3034     3519     4200     5025     5733 
    6058     6058     5881     5545     5059     4590     4399     4516 
    4688     4708     4561     4273     3911     3692     3783     4122 
    4508     4694     4567     4297     4145     4219     4549     5205 
    6263     7644     8965     9695     9475     8257     6382     4398 
