Origin Time       2024/04/02 04:24:00
Lat.              40.133
Long.             141.712
Depth. (km)       71
Mag.              6.0
Station Code      HKD092
Station Lat.      42.9283
Station Long.     143.4485
Station Height(m) 17
Record Time       2024/04/02 04:26:00
Sampling Freq(Hz) 100Hz
Duration Time(s)  60
Dir.              U-D
Scale Factor      7845(gal)/8223790
Max. Acc. (gal)   2.497
Last Correction   2024/04/02 04:26:00
Memo.             
[...]
   -9653    -9406    -9552    -9837    -9918    -9886    -9933    -9976 
   -9796    -9445    -9356    -9649    -9772    -9431    -9103    -9325 
   -9929   -10160    -9830    -9537    -9487    -9393    -9238    -9239 
   -9485    -9676    -9464    -9246    -9605   -10123   -10111    -9828 
   -9786    -9783    -9563    -9454    -9656    -9759    -9516    -9290 
   -9385    -9620    -9641    -9447    -9447    -9684    -9680    -9612 
   -9944   -10092    -9633    -9375    -9625    -9633    -9296    -9340 
   -9891   -10368   -10401   -10049    -9605    -9510    -9807    -9898 
   -9529    -9255    -9398    -9664    -9856    -9963    -9937    -9877 
   -9873    -9806    -9688    -9721    -9872    -9857    -9574    -9294 
   -9328    -9603    -9860    -9991    -9894    -9580    -9447    -9679 
   -9818    -9570    -9363    -9529    -9721    -9674    -9661    -9767 
   -9699    -9367    -9043    -9070    -9451    -9845    -9948    -9699 
   -9452    -9614    -9933    -9900    -9614    -9505    -9570    -9510 
   -9491    -9806   -10021    -9744    -9451    -9479    -9572    -9645 
   -9703    -9560    -9335    -9375    -9679    -9879    -9678    -9362 
   -9451    -9742    -9782    -9690    -9647    -9621    -9543    -9412 
   -9424    -9526    -9486    -9599   -10014   -10123    -9744    -9506 
   -9598    -9548    -9406    -9674   -10100   -10064    -9742    -9653 
   -9760    -9755    -9556    -9348    -9381    -9622    -9742    -9648 
   -9632    -9787    -9787    -9498    -9293    -9400    -9522    -9556 
   -9792   -10056    -9941    -9724    -9744    -9734    -9548    -9406 
   -9383    -9587   -10034   -10238   -10018    -9744    -9508    -9286 
   -9393    -9864   -10071    -9657    -9277    -9485    -9817    -9783 
   -9617    -9558    -9471    -9405    -9668   -10112   -10088    -9578 
   -9315    -9416    -9389    -9342    -9535    -9579    -9429    -9698 
  -10278   -10300    -9725    -9548    -9969   -10046    -9663    -9533 
   -9517    -9329    -9428    -9741    -9682    -9514    -9763   -10150 
  -10208   -10006    -9825    -9621    -9316    -9216    -9432    -9594 
   -9607    -9672    -9772    -9848    -9841    -9552    -9085    -9047 
   -9543    -9745    -9381    -9300    -9852   -10235    -9995    -9626 
   -9543    -9691    -9855    -9806    -9602    -9545    -9734    -9927 
   -9830    -9505    -9362    -9536    -9648    -9497    -9404    -9528 
   -9643    -9813   -10188   -10193    -9566    -9252    -9622    -9814 
   -9682    -9802    -9944    -9726    -9601    -9805    -9736    -9163 
   -8911    -9427    -9946    -9903    -9601    -9352    -9252    -9433 
   -9857   -10081    -9768    -9359    -9486    -9887    -9915    -9617 
   -9418    -9444    -9590    -9748    -9837    -9818    -9795    -9904 
   -9911    -9559    -9256    -9440    -9807    -9929    -9813    -9617 
   -9444    -9386    -9406    -9393    -9391    -9499    -9545    -9404 
   -9390    -9720    -9944    -9706    -9441    -9599    -9876    -9705 
   -9208    -9193    -9872   -10389   -10242    -9929    -9765    -9555 
   -9418    -9559    -9653    -9470    -9356    -9487    -9616    -9725 
   -9767    -9493    -9428   -10004   -10173    -9517    -9342    -9798 
   -9667    -9254    -9566    -9952    -9593    -9101    -9117    -9472 
   -9859   -10119   -10237   -10308   -10180    -9601    -9099    -9394 
   -9938    -9856    -9539    -9694   -10025    -9829    -9171    -8957 
   -9482    -9828    -9690    -9788   -10030    -9830    -9528    -9566 
   -9726    -9825    -9882    -9926    -9968    -9822    -9497    -9336 
   -9312    -9310    -9499    -9783   -10003   -10249   -10349    -9961 
   -9402    -9328    -9590    -9587    -9471    -9620    -9656    -9354 
   -9278    -9698   -10096    -9995    -9675    -9656    -9767    -9710 
   -9698    -9737    -9580    -9239    -8893    -8943    -9595   -10216 
  -10156    -9825    -9810    -9764    -9413    -9356    -9803   -10011 
   -9613    -9292    -9580    -9890    -9671    -9532    -9902   -10084 
   -9715    -9541    -9863    -9865    -9402    -9379    -9925   -10180 
   -9815    -9402    -9390    -9598    -9813    -9911    -9686    -9269 
   -9185    -9518    -9687    -9563    -9678    -9971    -9861    -9589 
   -9717    -9915    -9863    -9803    -9617    -9263    -9175    -9267 
   -9283    -9494    -9788    -9787    -9782    -9917    -9833    -9775 
   -9967    -9818    -9390    -9463    -9844    -9973    -9952    -9753 
   -9352    -9201    -9360    -9539    -9778   -10003   -10003    -9802 
   -9375    -8915    -8947    -9359    -9514    -9389    -9413    -9691 
   -9891    -9747    -9601    -9755    -9748    -9486    -9703   -10304 
  -10297    -9807    -9728    -9775    -9323    -8988    -9354    -9733 
   -9564    -9351    -9409    -9309    -9155    -9531   -10079   -10158 
  -10066   -10019    -9687    -9342    -9389    -9412    -9208    -9362 
  -10022   -10431   -10093    -9547    -9505    -9730    -9521    -9117 
   -9319    -9821    -9937    -9980   -10092    -9876    -9659    -9730 
   -9586    -9336    -9590    -9879    -9580    -9336    -9601    -9761 
   -9668    -9732    -9717    -9418    -9359    -9783   -10216   -10066 
   -9292    -8715    -8953    -9466    -9651    -9742   -10015   -10208 
  -10107    -9891    -9715    -9597    -9639    -9720    -9630    -9648 
   -9938    -9977    -9424    -8874    -9053    -9670    -9938    -9819 
   -9693    -9563    -9332    -9200    -9404    -9856   -10261   -10324 
   -9991    -9674    -9664    -9787    -9837    -9765    -9630    -9590 
   -9764   -10068   -10146    -9688    -9050    -9004    -9479    -9740 
   -9740    -9802    -9810    -9691    -9529    -9391    -9444    -9595 
   -9509    -9274    -9336    -9871   -10327   -10048    -9548    -9663 
   -9987    -9948    -9756    -9549    -9347    -9317    -9398    -9556 
   -9830    -9871    -9651    -9846   -10354   -10150    -9367    -9282 
   -9892    -9991    -9621    -9597    -9676    -9563    -9570    -9614 
   -9513    -9490    -9666    -9877    -9933    -9838    -9717    -9432 
   -9067    -9248    -9863    -9949    -9518    -9405    -9629    -9620 
   -9340    -9290    -9636    -9864    -9660    -9346    -9186    -9240 
   -9545    -9934   -10183   -10173    -9895    -9643    -9641    -9625 
   -9425    -9229    -9073    -9067    -9485   -10046   -10214   -10111 
  -10066    -9844    -9348    -9175    -9566    -9930    -9933    -9782 
   -9599    -9526    -9805   -10145   -10081    -9817    -9710    -9728 
   -9825    -9868    -9544    -8984    -8812    -9247    -9721    -9807 
   -9744    -9720    -9759    -9960   -10017    -9590    -9274    -9630 
   -9926    -9517    -9228    -9702    -9956    -9390    -9162    -9764 
   -9949    -9344    -9136    -9628    -9891    -9637    -9498    -9817 
  -10131    -9961    -9653    -9791   -10193   -10162    -9541    -9057 
   -9333    -9837    -9629    -8993    -9132   -10048   -10342    -9749 
   -9594   -10129   -10076    -9302    -9105    -9564    -9567    -9196 
   -9364    -9841    -9722    -9153    -9111    -9792   -10265    -9927 
   -9474    -9621    -9841    -9632    -9468    -9595    -9671    -9663 
   -9725    -9725    -9659    -9756    -9884    -9747    -9589    -9671 
   -9574    -9217    -9354    -9953   -10173   -10007    -9802    -9531 
   -9397    -9443    -9366    -9355    -9593    -9782    -9814    -9694 
   -9436    -9371    -9568    -9744    -9969   -10285   -10224    -9819 
   -9676    -9687    -9394    -9078    -9198    -9651    -9964    -9890 
   -9705    -9734    -9786    -9632    -9482    -9516    -9630    -9730 
   -9836    -9886    -9709    -9428    -9405    -9521    -9432    -9297 
   -9340    -9423    -9479    -9612    -9875   -10212   -10287    -9880 
   -9483    -9509    -9656    -9732    -9663    -9234    -8858    -9045 
   -9397    -9525    -9718    -9973    -9809    -9458    -9478    -9555 
   -9562    -9936   -10207    -9759    -9324    -9525    -9742    -9610 
   -9537    -9652    -9864   -10075   -10002    -9672    -9463    -9470 
   -9424    -9300    -9459    -9927   -10350   -10454   -10014    -9371 
   -9325    -9717    -9675    -9112    -8715    -8955    -9537    -9799 
   -9722    -9872   -10146    -9891    -9541    -9911   -10323    -9836 
   -9085    -9207    -9945   -10157    -9711    -9447    -9710    -9980 
   -9747    -9467    -9690    -9817    -9502    -9513    -9996   -10241 
  -10138   -10003    -9733    -9302    -9162    -9539   -10083   -10227 
   -9860    -9516    -9482    -9570    -9710    -9856    -9904    -9971 
  -10089   -10023    -9787    -9801    -9991    -9701    -9084    -9119 
   -9744    -9942    -9637    -9471    -9475    -9477    -9621    -9842 
   -9956   -10002    -9780    -9228    -8996    -9370    -9606    -9324 
   -9219    -9601    -9703    -9414    -9698   -10450   -10415    -9553 
   -9121    -9653   -10258    -9960    -9320    -9336    -9339    -8735 
   -8791    -9786    -9998    -9288    -9282    -9894    -9845    -9343 
   -9347    -9836   -10118    -9958    -9888   -10138   -10116    -9605 
   -9204    -9337    -9752    -9778    -9305    -9181    -9641    -9807 
   -9537    -9535    -9792    -9776    -9464    -9373    -9717    -9977 
   -9913    -9980    -9998    -9366    -8745    -9147    -9987   -10114 
   -9733    -9720   -10049   -10084    -9670    -9232    -9120    -9215 
   -9371    -9678    -9894    -9690    -9495    -9783   -10126    -9855 
   -9055    -8700    -9428   -10237   -10075    -9748    -9849    -9498 
   -8899    -9274   -10270   -10606   -10199    -9772    -9505    -9298 
   -9423    -9709    -9432    -8916    -9143    -9684    -9718    -9844 
  -10343   -10276    -9648    -9383    -9528    -9788   -10162   -10347 
   -9985    -9171    -8586    -8873    -9543    -9788    -9742    -9678 
   -9697   -10061   -10227    -9680    -9555   -10251   -10134    -9092 
   -8908    -9722   -10199    -9879    -9394    -9560   -10293   -10527 
   -9852    -9142    -9066    -9090    -8802    -9005    -9936   -10411 
  -10180   -10108    -9960    -9298    -9067    -9660   -10003    -9643 
   -9224    -9180    -9468    -9753    -9614    -9139    -8919    -9261 
   -9753    -9907    -9877   -10044   -10237   -10053    -9774    -9769 
   -9585    -9282    -9594   -10039    -9976   -10064   -10381   -10164 
   -9807    -9926    -9832    -9055    -8298    -8257    -8819    -9298 
   -9418    -9501    -9775   -10395   -11086   -10967    -9972    -9246 
   -9445    -9880    -9663    -9090    -9171    -9977   -10469   -10222 
  -10034   -10052    -9382    -8426    -8530    -9239    -9283    -9170 
   -9803   -10396   -10242   -10262   -10856   -10975   -10251    -9304 
   -8515    -8294    -8939    -9714    -9753    -9425    -9417    -9494 
   -9404    -9606   -10131   -10103    -9263    -8710    -9205    -9934 
   -9984    -9764    -9875    -9822    -9181    -8884    -9590   -10235 
   -9930    -9394    -9599   -10381   -10636   -10010    -9571    -9837 
   -9934    -9483    -8972    -8617    -8731    -9724   -10972   -11375 
  -10733    -9617    -8748    -8626    -8985    -9290    -9707   -10251 
  -10269    -9991   -10265   -10561    -9902    -8729    -7936    -7871 
   -8581    -9571   -10046    -9933    -9977   -10569   -10974   -10519 
   -9794    -9520    -9564    -9667    -9583    -9117    -8788    -9012 
   -9259    -9288    -9525    -9806    -9729    -9726   -10158   -10644 
  -10681    -9973    -9130    -9184    -9679    -9724    -9813    -9985 
   -9421    -8831    -9117    -9366    -9157    -9377    -9988   -10183 
   -9983    -9838    -9605    -9123    -8916    -9240    -9670   -10102 
  -10608   -10731   -10234    -9572    -9180    -9139    -9358    -9643 
   -9656    -9454    -9830   -10575   -10312    -9301    -8864    -8870 
   -9007    -9612    -9983    -9313    -8764    -9448   -10196   -10073 
  -10207   -10871   -10594    -9458    -8942    -8833    -8320    -8262 
   -9282   -10169   -10007    -9575    -9757   -10233   -10451   -10519 
  -10488   -10142    -9643    -9396    -9413    -9285    -8920    -8780 
   -8974    -9346   -10241   -11344   -11418   -10450    -9448    -8748 
   -8563    -9109    -9599    -9506    -9522    -9761    -9687    -9548 
   -9629    -9640    -9471    -9506   -10057   -10605   -10370    -9416 
   -8519    -8530    -9448   -10095    -9857    -9556    -9647    -9799 
  -10066   -10386   -10265    -9725    -9317    -9355    -9648    -9710 
   -9366    -9175    -9736   -10632   -10820   -10085    -9143    -8565 
   -8433    -8457    -8392    -8546    -9104    -9517    -9664   -10311 
  -11242   -11165   -10359   -10241   -10368    -9574    -8770    -9131 
   -9786    -9868    -9936   -10312   -10505   -10234    -9792    -9464 
   -9066    -8721    -9275   -10496   -10669    -9477    -8500    -8418 
   -8710    -9279   -10037   -10378   -10243   -10241   -10420   -10280 
   -9917    -9660    -9227    -8629    -8645    -9385   -10003   -10266 
  -10544   -10567   -10006    -9441    -9261    -8999    -8722    -9193 
  -10193   -10577   -10219   -10069   -10293   -10084    -9335    -8999 
   -9404    -9622    -9236    -8958    -8999    -8870    -8673    -8766 
   -9043    -9549   -10476   -11250   -11002   -10077    -9479    -9012 
   -8459    -8827    -9918   -10172    -9679    -9578    -9794    -9981 
  -10354   -10519    -9895    -9158    -9285    -9886    -9988    -9614 
   -9495    -9868   -10108    -9790    -9691   -10235   -10285    -9412 
   -8745    -8779    -9031    -9232    -9355    -9421    -9578   -10022 
  -10694   -11063   -10751   -10010    -9175    -8379    -7839    -7982 
   -8860    -9830   -10589   -11466   -12271   -12179   -10781    -8861 
   -7956    -8428    -8870    -8521    -8290    -8583    -8889    -9289 
   -9981   -10575   -10739   -10536   -10380   -10613   -10828   -10563 
  -10006    -9140    -8089    -7728    -8122    -8378    -8507    -9143 
  -10075   -10701   -10943   -10736    -9915    -9121    -8989    -8907 
   -8712    -9383   -10558   -10832   -10390   -10127    -9787    -9202 
   -8897    -8602    -8106    -8563   -10247   -11372   -11020   -10511 
  -10542   -10245    -9400    -8689    -8596    -8899    -8946    -9107 
  -10116   -11020   -10786   -10122    -9715    -9509    -9544    -9553 
   -9261    -9219    -9678    -9937    -9686    -9292    -8932    -8722 
   -8985    -9869   -11043   -11593   -10909    -9925    -9771    -9786 
   -9009    -8102    -8243    -9316    -9817    -8977    -8314    -9082 
  -10081   -10264   -10201   -10045    -9628    -9549    -9968   -10130 
   -9559    -8611    -8245    -9096   -10264   -10415   -10104   -10368 
  -10628   -10372   -10102    -9991    -9823    -9521    -9148    -9049 
   -9427    -9718    -9445    -9256    -9855   -10413    -9734    -8641 
   -8722    -9639   -10156   -10122   -10172   -10552   -10534    -9852 
   -9845   -10809   -10816    -9421    -8768    -9428    -9643    -9196 
   -9166    -9319    -9266    -9204    -9099    -9278    -9907   -10127 
   -9661    -9212    -9000    -9092    -9652    -9998    -9738    -9726 
  -10033    -9787    -9479    -9884   -10110    -9709    -9657    -9906 
   -9510    -8816    -8721    -9120    -9451    -9609    -9875   -10141 
   -9945    -9406    -9158    -9563   -10224   -10188    -9404    -9042 
   -9427    -9597    -9153    -8711    -8888    -9486    -9705    -9606 
   -9906   -10162    -9873    -9956   -10646   -10714   -10010    -9699 
   -9809    -9553    -9373    -9887   -10331   -10119    -9880    -9691 
   -9166    -9008    -9522    -9876    -9945   -10085   -10072    -9714 
   -9150    -8594    -8679    -9795   -10817   -10681   -10147    -9900 
   -9533    -9175    -9207    -9351    -9572    -9964   -10003    -9645 
   -9562    -9613    -9394    -9437    -9880    -9930    -9566    -9553 
  -10039   -10589   -10685    -9967    -9074    -9204   -10007    -9999 
   -9316    -9205    -9421    -9107    -8780    -9231    -9988   -10096 
   -9427    -9028    -9803   -10746   -10463    -9637    -9413    -9455 
   -9255    -9027    -9026    -9139    -9059    -9009    -9580   -10408 
  -10534   -10181   -10308   -10517    -9919    -9247    -9190    -9072 
   -8785    -8768    -8846    -9154   -10077   -11020   -11021   -10255 
   -9589    -9198    -8888    -8891    -9340   -10079   -10906   -11070 
  -10138    -9286    -9292    -9231    -9034    -9678   -10578   -10586 
   -9892    -9204    -9186    -9985   -10652   -10400    -9625    -9040 
   -8842    -9023    -9525    -9751    -9254    -8820    -9256    -9925 
  -10050   -10084   -10466   -10511    -9923    -9645    -9764    -9445 
   -8989    -8928    -8910    -8965    -9526   -10282   -10524   -10160 
   -9709    -9417    -9092    -8897    -9364   -10268   -10450    -9578 
   -9085    -9818   -10504   -10343   -10191   -10201    -9710    -9109 
   -9042    -8964    -8479    -8467    -9197    -9455    -8959    -8943 
   -9682   -10280   -10386   -10147    -9779    -9772    -9971    -9612 
   -9066    -9003    -8930    -8758    -9170    -9995   -10480   -10435 
  -10265   -10173    -9672    -8594    -8037    -8746    -9648    -9863 
  -10179   -10808   -10650    -9815    -9556    -9846    -9725    -8968 
   -8313    -8548    -9391    -9899    -9882    -9628    -9120    -8850 
   -9512   -10289   -10195   -10018   -10288   -10189    -9697    -9472 
   -9355    -9316    -9780   -10150    -9945   -10135   -10778   -10558 
   -9632    -9196    -9043    -8683    -8748    -9381    -9887   -10251 
  -10759   -11065   -10710    -9806    -9070    -9000    -9244    -9310 
   -9224    -9332    -9732   -10034   -10022    -9953    -9930    -9737 
   -9282    -8924    -9070    -9455    -9594    -9715   -10168   -10432 
  -10031    -9537    -9628   -10120   -10378   -10030    -9400    -9130 
   -9282    -9382    -9468    -9950   -10353    -9850    -9113    -9518 
  -10493   -10319    -9312    -9146    -9711    -9647    -9119    -9270 
   -9853    -9715    -8962    -8930    -9890   -10424    -9973    -9666 
   -9733    -9333    -8928    -9352    -9913    -9830    -9563    -9690 
  -10108   -10392   -10145    -9456    -9088    -9521   -10261   -10355 
   -9575    -8854    -8849    -8964    -8958    -9499   -10365   -10539 
  -10022    -9686    -9913   -10060    -9495    -8988    -9423    -9929 
   -9711    -9684   -10204   -10243    -9643    -9288    -9327    -9173 
   -8854    -8991    -9574   -10052   -10235   -10291   -10249    -9961 
   -9463    -9190    -9444    -9844    -9855    -9571    -9339    -9069 
   -8627    -8422    -8950    -9786   -10083   -10214   -10957   -11704 
  -11564   -10694    -9657    -8849    -8394    -8307    -8760    -9526 
  -10006   -10249   -10531   -10480   -10007    -9860   -10214   -10183 
   -9413    -8826    -9204    -9931    -9918    -9363    -9254    -9624 
   -9819    -9628    -9285    -9263    -9813   -10166    -9572    -9012 
   -9485    -9790    -9103    -8660    -8888    -9042    -9242    -9814 
  -10426   -10713   -10543   -10156    -9895    -9536    -8919    -8569 
   -8603    -8734    -9225    -9946   -10234   -10268   -10419   -10415 
  -10168    -9868    -9655    -9647    -9736    -9803    -9818    -9589 
   -9201    -9076    -9293    -9543    -9625    -9617    -9599    -9532 
   -9466    -9404    -9275    -9351    -9917   -10434   -10138    -9463 
   -9487   -10160   -10557   -10353    -9867    -9356    -8995    -8932 
   -9177    -9590    -9902    -9991   -10010    -9980    -9957   -10249 
  -10678   -10516    -9811    -9396    -9379    -9239    -9058    -9212 
