Origin Time       2024/04/02 04:24:00
Lat.              40.133
Long.             141.712
Depth. (km)       71
Mag.              6.0
Station Code      HKD089
Station Lat.      43.2436
Station Long.     143.5544
Station Height(m) 90
Record Time       2024/04/02 04:26:07
Sampling Freq(Hz) 100Hz
Duration Time(s)  60
Dir.              N-S
Scale Factor      7845(gal)/8223790
Max. Acc. (gal)   4.108
Last Correction   2024/04/02 04:26:08
Memo.             
[...]
    -966    -1228    -1277    -1123     -904     -773     -722     -641 
    -618     -733     -839     -897    -1000    -1085    -1053     -936 
    -828     -810     -855     -831     -688     -521     -491     -711 
   -1074    -1332    -1358    -1213    -1026     -812     -552     -367 
    -364     -454     -627     -980    -1309    -1324    -1115     -932 
    -919    -1055    -1135     -990     -695     -498     -540     -695 
    -816     -880     -953    -1124    -1340    -1413    -1328    -1215 
   -1057     -824     -643     -544     -452     -463     -645     -891 
   -1101    -1231    -1236    -1143    -1024     -880     -607     -201 
      13     -236     -697     -988    -1057    -1069    -1190    -1402 
   -1462    -1227     -845     -552     -453     -525     -683     -868 
   -1055    -1077     -845     -677     -777     -842     -669     -521 
    -673    -1008    -1254    -1350    -1301    -1048     -739     -608 
    -576     -491     -454     -554     -692     -781     -892    -1094 
   -1258    -1179     -892     -642     -556     -591     -679     -797 
    -915     -930     -889     -913     -865     -716     -731     -938 
   -1102    -1144    -1112     -974     -792     -751     -791     -708 
    -567     -546     -645     -805    -1050    -1281    -1278    -1062 
    -857     -718     -645     -718     -849     -837     -706     -585 
    -537     -627     -747     -731     -688     -729     -830    -1003 
   -1165    -1243    -1236    -1038     -679     -468     -562     -733 
    -783     -816     -934    -1023     -985     -963    -1096    -1196 
   -1136    -1081    -1066     -988     -831     -665     -584     -607 
    -611     -533     -522     -738    -1016    -1013     -745     -619 
    -830    -1104    -1188    -1124    -1024     -923     -831     -780 
    -814     -832     -733     -681     -792     -928     -962     -837 
    -700     -845    -1217    -1386    -1129     -704     -467     -546 
    -824    -1005     -847     -521     -486     -796    -1030     -988 
    -826     -724     -747     -812     -851     -915    -1015    -1152 
   -1275    -1159     -772     -400     -267     -433     -756     -953 
   -1005    -1101    -1194    -1132    -1000     -901     -826     -831 
    -907     -922     -818     -712     -777     -978    -1107    -1020 
    -830     -729     -702     -677     -672     -664     -675     -796 
    -981    -1075    -1032     -812     -477     -433     -858    -1248 
   -1107     -635     -410     -616     -967    -1117     -996     -851 
    -884    -1019    -1146    -1136     -868     -534     -444     -565 
    -693     -745     -738     -743     -839    -1020    -1179    -1202 
   -1123    -1078    -1030     -869     -716     -688     -791     -990 
   -1077     -955     -824     -818     -880     -895     -776     -558 
    -421     -519     -781     -955     -865     -649     -650     -940 
   -1159    -1017     -739     -669     -735     -747     -739     -828 
   -1054    -1279    -1302    -1148     -986     -820     -639     -621 
    -768     -801     -662     -615     -753     -837     -670     -359 
    -195     -454    -1073    -1543    -1514    -1186     -861     -648 
    -639     -853    -1058     -974     -642     -473     -719    -1042 
   -1081     -993    -1015    -1047     -947     -793     -734     -784 
    -892    -1021    -1084     -942     -658     -498     -517     -519 
    -514     -704    -1074    -1383    -1449    -1223     -834     -540 
    -483     -599     -757     -889     -974     -961     -857     -801 
    -870     -953     -955     -900     -843     -754     -517     -261 
    -301     -625    -1015    -1286    -1321    -1251    -1251    -1233 
   -1108     -963     -928     -976     -942     -768     -552     -396 
    -433     -714    -1081    -1300    -1229     -945     -730     -753 
    -881     -897     -745     -619     -664     -788     -907     -986 
    -988     -915     -791     -727     -903    -1194    -1186     -788 
    -413     -444     -777    -1024    -1027     -901     -761     -662 
    -676     -816     -969    -1031    -1004     -900     -757     -685 
    -692     -719     -805     -911     -897     -804     -797     -905 
   -1078    -1259    -1304    -1105     -828     -697     -697     -654 
    -504     -360     -413     -731    -1104    -1290    -1283    -1113 
    -783     -463     -423     -745    -1163    -1279    -1074     -913 
    -996    -1167    -1134     -799     -425     -261     -328     -598 
    -927    -1061    -1004     -988    -1094    -1210    -1210    -1063 
    -834     -618     -475     -456     -604     -862    -1032     -922 
    -645     -572     -830    -1193    -1405    -1301     -888     -399 
    -132     -299     -772    -1094    -1093    -1048    -1144    -1183 
    -992     -714     -544     -464     -445     -575     -811     -935 
    -859     -688     -546     -565     -803    -1070    -1101     -923 
    -746     -630     -635     -824    -1059    -1235    -1368    -1297 
    -951     -639     -544     -556     -630     -715     -714     -729 
    -893    -1097    -1163    -1088     -973     -938    -1107    -1366 
   -1371    -1061     -618     -141      124      -55     -468     -849 
   -1179    -1409    -1451    -1323    -1136    -1003     -899     -774 
    -661     -591     -548     -523     -594     -797    -1050    -1204 
   -1104     -827     -720     -877    -1026     -966     -838     -899 
   -1061    -1038     -804     -533     -413     -552     -777     -864 
    -864     -938    -1028     -923     -664     -534     -680     -950 
   -1046     -881     -703     -703     -812     -847     -731     -614 
    -657     -810     -994    -1173    -1247    -1233    -1243    -1225 
   -1139    -1011     -727     -299      -59     -256     -733    -1140 
   -1290    -1274    -1239    -1177    -1073     -962     -818     -658 
    -549     -562     -684     -706     -610     -664     -997    -1379 
   -1402    -1066     -774     -689     -723     -793     -832     -892 
   -1071    -1296    -1344    -1193    -1053     -939     -696     -444 
    -425     -592     -826    -1069    -1112     -865     -614     -612 
    -731     -697     -546     -500     -587     -741     -905     -920 
    -693     -405     -351     -598     -895    -1039    -1136    -1310 
   -1471    -1475    -1309    -1050     -702     -325     -263     -618 
    -997    -1158    -1111     -854     -589     -534     -577     -629 
    -730     -819     -889     -959    -1019    -1161    -1242    -1038 
    -727     -495     -375     -460     -661     -815     -955    -1077 
   -1100    -1021     -859     -734     -787     -940    -1008     -997 
   -1094    -1317    -1406    -1194     -832     -602     -670     -928 
   -1065     -949     -796     -814     -918     -897     -700     -506 
    -499     -599     -584     -382     -211     -430    -1003    -1455 
   -1580    -1524    -1389    -1236    -1065     -807     -522     -378 
    -546     -978    -1271    -1197     -978     -731     -407     -249 
    -461     -751     -788     -630     -498     -498     -631     -831 
   -1024    -1142    -1042     -699     -405     -481     -911    -1309 
   -1318    -1013     -741     -614     -449     -166       22     -205 
    -864    -1579    -2042    -2091    -1644     -913     -255      128 
     226      145     -145     -765    -1495    -1939    -1958    -1696 
   -1395    -1129     -851     -634     -540     -591     -834    -1120 
   -1262    -1271    -1132     -789     -535     -706    -1066    -1219 
   -1158    -1031     -969     -912     -630     -214        0      -67 
    -415    -1082    -1865    -2363    -2285    -1698     -957     -310 
     167      344      151     -226     -608    -1048    -1572    -1960 
   -1968    -1529     -830     -187      213      351      282      155 
     140      124     -356    -1394    -2281    -2477    -2205    -1753 
   -1213     -707     -124      653     1273     1306      754     -243 
   -1549    -2648    -2959    -2598    -2002    -1278     -592     -228 
    -132     -162     -384     -739     -974    -1053    -1086    -1074 
   -1013     -865     -607     -495     -749    -1181    -1497    -1480 
   -1081     -676     -706    -1127    -1584    -1800    -1772    -1722 
   -1614    -1085      -98      762      920      495       17     -373 
    -880    -1466    -1872    -1917    -1567     -945     -286      149 
     159     -203     -648    -1092    -1723    -2376    -2505    -1984 
   -1117     -136      754     1162      774     -255    -1374    -2123 
   -2350    -2077    -1449     -733     -205       35       -8     -421 
   -1047    -1208     -541      255      313     -307    -1031    -1580 
   -1941    -2056    -1949    -1823    -1715    -1372     -772     -228 
     135      383      507      454      187     -202     -627    -1142 
   -1557    -1588    -1398    -1321    -1409    -1559    -1578    -1379 
   -1309    -1526    -1566    -1101     -315      373      491     -193 
   -1335    -2228    -2380    -1813     -931     -171      224      194 
     -95     -292     -270     -184     -103       21      -25     -735 
   -2207    -3723    -4407    -4020    -2724     -756     1285     2558 
    2752     2135      963     -567    -2095    -3330    -4195    -4506 
   -4008    -2878    -1528      -95     1306     2315     2624     2238 
    1351      174    -1040    -1944    -2296    -2214    -1966    -1637 
   -1274     -978     -766     -652     -526      -32      789     1232 
     799     -287    -1514    -2415    -2736    -2597    -2207    -1572 
    -716      187      904     1107      602     -247     -830    -1070 
   -1329    -1665    -1760    -1493    -1109     -811     -608     -540 
    -621     -811    -1123    -1486    -1620    -1158      -40     1154 
    1610     1082      -76    -1582    -3142    -4086    -4122    -3721 
   -3126    -2150     -861      594     2025     2839     2687     1894 
     741     -696    -2153    -3350    -4182    -4449    -3910    -2698 
   -1247       72     1120     1885     2146     1556      315     -909 
   -1694    -2003    -2026    -2066    -2214    -2185    -1719     -990 
    -554     -724    -1016     -660      341     1243     1510     1134 
     176    -1237    -2571    -3132    -2845    -2336    -1957    -1416 
    -568      333     1048     1348     1077      391     -459    -1356 
   -2030    -2061    -1506     -999     -988    -1305    -1452    -1163 
    -764     -749     -973     -877     -426     -117     -176     -379 
    -554     -811    -1275    -1887    -2436    -2740    -2704    -2173 
   -1182     -171      504      753      530       79     -190     -341 
    -715    -1279    -1845    -2351    -2587    -2347    -1692     -735 
     234      616      187     -546    -1120    -1478    -1620    -1567 
   -1329     -853     -189      423      639      413       75     -325 
    -974    -1715    -2222    -2277    -1761     -861      -35      460 
     642      515      162     -245     -699    -1212    -1642    -1841 
   -1831    -1880    -1912    -1348     -256      361       68     -449 
    -576     -430     -355     -448     -658    -1075    -1821    -2732 
   -3384    -3252    -2122     -531      625      950      676      186 
    -283     -641     -889    -1038    -1108    -1183    -1410    -1825 
   -2083    -1759    -1055     -723    -1065    -1587    -1614     -919 
      62      773     1108     1142      751     -184    -1501    -2762 
   -3403    -3049    -2015    -1009     -251      434     1000     1266 
    1251      992      376     -612    -1722    -2621    -3060    -2806 
   -1996    -1255     -947     -707      -43      872     1363     1215 
     807      322     -330     -980    -1378    -1653    -2147    -2763 
   -2832    -2104    -1063        1      889      990      187     -819 
   -1630    -2378    -2984    -3181    -2943    -2327    -1236      252 
    1456     1684     1048       94     -807    -1453    -1736    -1836 
   -2084    -2323    -1993    -1062     -210      -33     -395     -801 
   -1070    -1175     -926     -411     -125     -292     -695     -955 
    -832     -508     -338     -488    -1069    -1868    -2261    -1999 
   -1458     -926     -288      384      506     -202    -1165    -1773 
   -1894    -1480     -692      -47      201      168     -155     -772 
   -1278    -1188     -503      299      734      672      355       37 
    -211     -402     -639    -1117    -1895    -2790    -3474    -3646 
   -3095    -1837     -376      542      750      704      583      102 
    -670    -1204    -1271    -1186    -1275    -1498    -1676    -1696 
   -1370     -683     -140     -226     -693     -854     -527     -187 
    -199     -492     -932    -1566    -2304    -2637    -2311    -1750 
   -1177     -486       24      -39     -552    -1090    -1390    -1541 
   -1613    -1440    -1078     -747     -484     -469     -826    -1011 
    -561       99      365      167     -276     -815    -1282    -1429 
   -1127     -527       83      529      693      367     -530    -1707 
   -2745    -3357    -3311    -2535    -1379     -292      639     1309 
    1389      876       93     -896    -2150    -3358    -3970    -3601 
   -2208     -182     1679     2458     1806      477     -434     -695 
    -822    -1107    -1350    -1470    -1684    -2150    -2714    -2917 
   -2370    -1159      230     1252     1679     1674     1309      484 
    -697    -1931    -2975    -3623    -3686    -3157    -2072     -441 
    1408     2871     3456     2918     1386     -614    -2473    -3678 
   -3923    -3369    -2550    -1772     -963      -89      576      699 
     253     -442    -1075    -1583    -1902    -1838    -1383     -760 
    -245        2        9     -324    -1215    -2389    -3082    -2791 
   -1659     -313      490      448      -99     -712    -1208    -1435 
   -1233     -608      199      606       55    -1152    -2020    -2050 
   -1611    -1142     -634      -97        1     -668    -1660    -2272 
   -2301    -1935    -1378     -803     -302      162      510      476 
      10     -507     -631     -388     -337     -903    -1734    -2204 
   -2250    -2111    -1683     -873      -75      329      487      583 
     346     -429    -1406    -2131    -2600    -2979    -3103    -2660 
   -1692     -515      685     1749     2257     1944     1030     -241 
   -1718    -3068    -3912    -4002    -3280    -2064     -819      276 
    1131     1559     1553     1190      457     -585    -1698    -2532 
   -2851    -2679    -2182    -1463     -529      535     1313     1320 
     677      -43     -627    -1304    -2199    -3029    -3298    -2817 
   -1957    -1282     -923     -560       -1      615     1044     1078 
     637     -110     -827    -1301    -1525    -1598    -1672    -1830 
   -2022    -2137    -2000    -1494     -747     -101      233      359 
     402      253     -274    -1062    -1672    -1900    -1915    -1818 
   -1594    -1263     -947     -842     -962    -1012     -702     -126 
     291      291      -35     -456     -703     -696     -704     -934 
   -1197    -1242    -1163    -1233    -1435    -1456    -1156     -706 
    -288       -8       72       25      -18     -106     -481    -1178 
   -1783    -1962    -1823    -1528     -996     -140      789     1367 
    1414      959      102     -886    -1655    -2077    -2390    -2739 
   -2840    -2419    -1587     -653       28      207      -44     -541 
   -1150    -1602    -1655    -1431    -1170     -916     -669     -502 
    -434     -391     -332     -255     -183     -263     -595    -1026 
   -1405    -1830    -2269    -2338    -1861    -1150     -469      103 
     410      267     -290     -977    -1482    -1707    -1683    -1443 
   -1027     -494       33      297      -33     -953    -1941    -2516 
   -2695    -2654    -2349    -1690     -791      -13      411      729 
    1092     1152      626     -251     -999    -1332    -1229     -826 
    -388     -274     -735    -1597    -2301    -2533    -2385    -2019 
   -1490     -812     -132      345      558      523      221     -288 
    -822    -1188    -1297    -1112     -661     -230      -86     -159 
    -457    -1159    -1981    -2351    -2141    -1686    -1246     -746 
    -120      311      252     -136     -584     -992    -1255    -1318 
   -1374    -1701    -2249    -2501    -2049    -1150     -325      236 
     472      132     -774    -1624    -1885    -1717    -1451    -1061 
    -411      297      637      449     -113     -897    -1638    -2010 
   -2097    -2235    -2475    -2552    -2236    -1607     -899     -172 
     610     1290     1567     1354      741     -105     -849    -1229 
   -1358    -1414    -1368    -1165     -877     -662     -584     -463 
     -70      407      453      -75     -768    -1316    -1759    -2181 
   -2525    -2586    -2246    -1641     -896     -168      229      267 
     229      292      434      545      454       13     -695    -1350 
   -1726    -1860    -1842    -1556     -816      116      573      182 
    -834    -1975    -2840    -3225    -3053    -2432    -1539     -595 
      67      252       94     -144     -319     -417     -465     -459 
    -349     -133       28     -114     -611    -1201    -1601    -1749 
   -1734    -1626    -1394    -1021     -724     -810    -1266    -1694 
   -1767    -1586    -1425    -1294     -981     -376      432     1181 
    1518     1306      707      -98     -931    -1513    -1688    -1536 
   -1178     -805     -675     -820    -1067    -1339    -1632    -1831 
   -1745    -1386     -965     -600     -297      -93      -82     -301 
    -677    -1073    -1366    -1513    -1509    -1274     -803     -333 
     -54       39      -91     -464     -947    -1395    -1692    -1799 
   -1817    -1804    -1690    -1336     -724      -91      336      622 
     849      826      384     -292     -993    -1757    -2485    -2890 
   -2982    -2910    -2574    -1869     -934       20      774     1115 
     965      523      116     -207     -650    -1210    -1609    -1633 
   -1428    -1356    -1524    -1682    -1551    -1139     -801     -787 
    -957    -1136    -1177     -857     -197      387      521      237 
    -260     -881    -1522    -1993    -2070    -1707    -1174     -758 
    -488     -203      233      711      907      677      163     -480 
   -1198    -1972    -2720    -3210    -3287    -2997    -2377    -1524 
    -737     -236      -31      -41     -135     -260     -519     -909 
   -1217    -1198     -778     -190      175       70     -436    -1073 
   -1621    -1894    -1765    -1381     -981     -649     -441     -444 
    -648     -938    -1155    -1283    -1490    -1680    -1489     -965 
    -585     -540     -635     -706     -796     -990    -1194    -1283 
   -1275    -1219    -1100     -919     -731     -615     -587     -638 
    -845    -1224    -1499    -1298     -699     -170       21     -113 
    -494     -900    -1147    -1273    -1348    -1306    -1039     -616 
    -279     -137      -72      -28      -79     -184     -272     -419 
    -656     -942    -1278    -1563    -1648    -1534    -1298    -1019 
    -811     -712     -666     -689     -853    -1035    -1030     -824 
    -584     -494     -583     -669     -633     -589     -645     -754 
    -899    -1069    -1225    -1406    -1628    -1707    -1470    -1000 
