Origin Time       2024/04/02 04:24:00
Lat.              40.133
Long.             141.712
Depth. (km)       71
Mag.              6.0
Station Code      HKD079
Station Lat.      43.3034
Station Long.     144.5998
Station Height(m) 32
Record Time       2024/04/02 04:26:16
Sampling Freq(Hz) 100Hz
Duration Time(s)  62
Dir.              U-D
Scale Factor      7845(gal)/8223790
Max. Acc. (gal)   2.256
Last Correction   2024/04/02 04:26:16
Memo.             
[...]
    7379     7317     7194     7346     7753     7952     7809     7527 
    7314     7362     7689     7927     7727     7279     7018     7096 
    7415     7726     7761     7639     7612     7530     7233     6994 
    7125     7581     7989     7990     7674     7439     7510     7704 
    7765     7796     7848     7682     7399     7203     6983     6968 
    7427     7921     8033     7824     7339     6813     6856     7587 
    8283     8344     7840     7144     6723     7025     7842     8322 
    8131     7800     7696     7609     7414     7260     7335     7668 
    7932     7805     7399     7088     7302     8066     8545     8067 
    7256     7161     7665     7804     7557     7545     7537     7288 
    7254     7461     7547     7646     7916     7974     7510     7078 
    7281     7603     7458     7299     7422     7442     7353     7439 
    7546     7632     7956     8167     7663     6945     7018     7782 
    8268     8025     7485     7119     7045     7364     7867     8008 
    7784     7626     7568     7464     7402     7429     7504     7585 
    7549     7452     7542     7781     7904     7832     7651     7504 
    7510     7526     7304     7130     7461     7933     7913     7588 
    7450     7520     7539     7400     7333     7426     7429     7441 
    7635     7636     7422     7495     7707     7542     7176     7161 
    7636     8133     8131     7786     7512     7237     7010     7271 
    7800     7879     7546     7321     7295     7396     7696     7943 
    7742     7237     6913     7011     7426     7794     7896     7874 
    7808     7591     7366     7349     7422     7500     7646     7697 
    7541     7481     7750     7989     7831     7574     7546     7466 
    7331     7578     7874     7615     7249     7314     7503     7596 
    7712     7723     7553     7419     7442     7597     7754     7700 
    7524     7506     7543     7360     7175     7445     7935     7943 
    7520     7361     7553     7600     7418     7345     7456     7537 
    7524     7562     7622     7555     7550     7728     7651     7142 
    6868     7312     7920     7925     7597     7634     7771     7549 
    7250     7042     7051     7588     8062     7717     7211     7403 
    7924     8041     7720     7317     6986     7017     7765     8541 
    8264     7464     7310     7533     7435     7349     7735     8193 
    8143     7765     7549     7442     7198     7075     7487     8132 
    8191     7566     7086     7130     7231     7265     7603     8019 
    7898     7488     7537     7817     7514     6976     7299     8148 
    8149     7411     7267     7742     7839     7668     7784     7717 
    7172     6926     7321     7662     7690     7902     8148     7816 
    7254     7064     7045     7168     7650     7939     7578     7141 
    7148     7333     7454     7626     7746     7626     7489     7599 
    7749     7558     7226     7385     7879     7933     7653     7558 
    7415     7149     7240     7581     7624     7497     7728     8002 
    7697     7296     7271     7240     7416     8127     8464     7857 
    7244     7408     7782     7686     7507     7565     7385     7080 
    7244     7623     7820     7950     8012     7846     7375     6909 
    7095     7746     8035     8001     7993     7570     6681     6358 
    7021     7801     8095     8063     7801     7452     7334     7389 
    7242     6968     7130     7734     8066     7958     7786     7469 
    7063     7149     7627     7846     7869     7865     7429     6831 
    6930     7522     7798     7730     7716     7771     7580     7249 
    7308     7614     7662     7703     7954     7974     7603     7207 
    7133     7454     7911     8201     8203     7852     7291     6934 
    6876     6880     7110     7688     8058     8008     8073     8239 
    7893     7190     6972     7399     7758     7732     7607     7400 
    7231     7473     7803     7649     7179     6898     7071     7580 
    8149     8554     8478     7904     7260     6789     6787     7538 
    8298     8166     7506     7217     7518     7796     7570     7339 
    7385     7095     6639     6899     7712     8294     8424     8140 
    7461     6737     6579     7072     7658     8058     8252     8009 
    7555     7368     7157     6862     7207     7978     8070     7689 
    7830     8033     7531     7218     7800     8208     7724     7157 
    7052     7018     7105     7612     7932     7744     7767     8005 
    7759     7219     6998     7144     7376     7666     8044     8074 
    7600     7253     7175     7015     7130     7862     8469     8081 
    7202     7055     7599     7981     8005     7628     6916     6644 
    7199     7890     8112     8067     8121     8041     7514     6975 
    6909     7165     7584     8044     8064     7511     7025     6959 
    6997     7148     7658     8008     7809     7782     8120     7978 
    7515     7607     7920     7609     6917     6705     6994     7195 
    7560     8390     8680     7869     7042     6957     7191     7530 
    8055     8353     8048     7496     7252     7203     7040     7204 
    8028     8656     8280     7439     7067     7192     7477     7839 
    7908     7477     7098     6998     6979     7284     7939     8469 
    8530     7956     7211     7020     7191     7454     7946     8100 
    7547     7129     7323     7570     7535     7439     7275     6934 
    6883     7288     7435     7294     7624     8168     8176     8004 
    8064     7913     7446     7150     7171     7310     7412     7470 
    7576     7635     7431     7106     7057     7292     7545     7928 
    8384     8170     7322     7036     7485     7755     7852     8033 
    7784     7291     7368     7749     7700     7434     7380     7265 
    7118     7562     8175     7996     7543     7493     7334     7110 
    7425     7846     7707     7171     6906     7373     8032     8139 
    7931     7688     7335     7230     7468     7402     7032     7253 
    8028     8120     7298     6814     7287     8024     8307     7892 
    6998     6426     6907     8081     8650     8068     7207     6777 
    6655     6930     7682     8240     8093     7657     7499     7599 
    7542     7260     7321     7777     7807     7365     7130     7069 
    7125     7635     8311     8517     8016     7099     6543     6889 
    7728     8104     7784     7642     7935     7881     7582     7815 
    8240     8094     7707     7680     7582     7118     7159     7767 
    7673     6980     7064     7684     7700     7635     8218     8419 
    7677     7142     7322     7528     7628     7967     8122     7468 
    6696     6948     7747     8005     7763     7303     6863     7141 
    8087     8618     8202     7461     7113     7067     7018     7110 
    7342     7526     7894     8305     7881     6880     6728     7445 
    7963     8251     8382     7828     7041     6972     7376     7496 
    7358     7447     7645     7578     7638     7943     7690     7136 
    7412     8140     8171     7485     6787     6658     7207     7997 
    8428     8159     7372     6772     6891     7439     7790     7770 
    7616     7591     7699     7695     7553     7457     7430     7555 
    7797     7724     7314     7084     7198     7500     7942     8356 
    8302     7695     7303     7566     7731     7458     7396     7491 
    7237     7115     7692     8290     7898     6858     6558     7277 
    7921     8037     8043     8046     7927     7614     7148     6852 
    6822     6876     7196     7848     8203     7858     7334     7333 
    7790     8081     7963     7769     7703     7681     7628     7416 
    7128     7071     7084     7098     7651     8333     8091     7445 
    7380     7542     7398     7136     7018     6956     6928     7411 
    8286     8379     7577     7167     7489     7732     7658     7641 
    7704     7695     7669     7627     7473     7319     7399     7608 
    7638     7619     7793     7819     7334     6777     6879     7420 
    7499     7199     7311     7747     8012     8005     7728     7384 
    7317     7576     7780     7430     6723     6571     7241     7963 
    8247     8360     8490     8419     7936     7186     6781     7152 
    7825     8078     7832     7319     6848     6939     7611     8093 
    7954     7507     7098     6880     6897     7260     7994     8383 
    7893     7277     7182     7464     8046     8418     8040     7573 
    7632     7744     7479     7099     6910     6903     7155     7614 
    7788     7726     8063     8560     8364     7701     7453     7460 
    7268     7157     7049     6802     7121     7942     8160     7816 
    7804     7686     6613     5737     6593     8187     8804     8660 
    8471     7921     6997     6710     7492     8334     8452     8163 
    7674     7076     6963     7319     7190     6303     5771     6498 
    7854     8835     9130     8656     7935     7689     7427     6744 
    6704     7724     8367     7831     7246     7265     7192     7241 
    8087     8703     8066     7096     6840     7076     7361     7750 
    8143     8155     7940     7649     6875     6123     6536     7888 
    9028     9285     8587     7377     6458     6431     7099     7730 
    7869     7557     7217     7234     7564     8052     8397     8067 
    7204     6679     6797     7146     7712     8735     9495     8772 
    6751     5397     6069     7431     7720     7420     7493     7902 
    8469     8719     8073     6914     6376     7157     8348     8332 
    7491     7435     8025     7954     7028     6354     6793     7801 
    8480     8783     8756     8097     7121     6777     7291     7842 
    7719     7052     6408     6249     6728     7666     8588     8874 
    8245     7285     6845     6858     6941     7426     8081     7938 
    7304     7308     7931     8297     7900     6970     6223     6393 
    7682     9136     9391     8456     7273     6292     5957     6801 
    8248     9081     8734     7501     6328     6087     6767     7727 
    8094     7442     6673     6902     7894     8691     8587     7630 
    6759     6602     6894     7426     8174     8785     8753     7858 
    6843     6875     7773     8303     7981     7268     6851     7074 
    7524     7655     7501     7318     7285     7445     7458     7159 
    7088     7578     7889     7296     6458     6612     7739     8618 
    8773     8561     7715     6369     6091     7674     9601     9828 
    8260     6554     5837     6203     7524     8646     8037     6605 
    6390     7146     7682     8193     8851     8920     8208     7474 
    7254     7280     7427     7915     8210     7588     6542     6107 
    6525     7191     7519     7577     7570     7376     7225     7609 
    8078     7859     7334     7210     7423     7762     8158     8464 
    8465     7939     7330     7473     8141     8392     7811     6721 
    5934     6064     7051     8367     8899     7904     6651     6574 
    6886     6733     6970     7898     8621     8877     8784     7963 
    6864     6929     8156     8842     8271     7304     6744     6844 
    7572     8390     8478     7622     6345     5617     6162     7504 
    8617     8822     7944     6932     6891     7539     8167     8460 
    8160     7506     7183     7326     7562     7815     8132     7997 
    6982     6106     6772     8294     9015     8864     8229     7069 
    6311     6972     8299     8725     8056     7434     7291     7103 
    6944     7045     6986     6779     7049     7983     8934     9061 
    8553     8073     7464     6623     6122     6355     7179     8067 
    8440     8174     7539     6744     6083     6039     6705     7592 
    8210     8430     8430     8266     7865     7603     7727     7658 
    7211     7306     8136     8496     8063     7662     7233     6646 
    6716     7298     7389     7234     7510     7555     6621     5742 
    6242     7631     8816     9576     9756     8978     7533     6446 
    6343     6822     7446     8255     8833     8553     7665     6818 
    6355     6566     7412     8101     8181     8321     8781     8672 
    7946     7585     7381     6631     6089     6532     7338     7825 
    8087     8129     7753     7376     7493     7535     6785     5995 
    6504     7771     8270     8089     7971     7696     6941     6540 
    7500     8781     8831     8066     7325     6637     6349     6940 
    7722     7561     6909     7038     7808     8066     7619     7659 
    8617     9223     8904     8055     6740     5823     6234     6983 
    7107     7265     7840     8040     7460     6948     7091     7250 
    7102     7128     7584     8290     8969     9420     9130     7839 
    6555     6266     6894     7832     8193     7728     7522     7942 
    7800     7125     7261     7943     8189     8249     8284     7820 
    6829     6207     6704     7177     6470     5818     6320     7184 
    7574     7736     8213     8687     8731     8721     8522     7796 
    7107     6756     6920     7786     8236     7700     7291     7292 
    7366     8035     8976     9009     8186     7179     6593     6898 
    7283     7011     6913     7250     7366     7474     7943     8388 
    8351     7761     7037     6652     6643     6974     7524     7788 
    7689     7699     7651     7360     7379     7716     7956     8182 
    8195     7746     7411     7820     8607     8846     8452     8005 
    7299     6069     5190     5543     6970     8556     9244     8745 
    7727     7047     6975     7155     7418     7803     7927     7753 
    7858     8021     7603     7098     7140     7206     6799     6717 
    7492     7906     7589     7819     8371     8185     7566     7017 
    6732     6966     7549     8000     7993     7925     8152     7844 
    6724     6205     7198     8394     8264     7597     7499     7310 
    6860     7199     8064     8181     7663     7398     7557     7800 
    7666     7303     7360     7700     7693     7393     7198     7091 
    7117     7469     7751     7690     7750     8108     8519     8426 
    7558     7010     7210     7129     6782     6902     7516     8172 
    8266     7892     7588     7337     7349     7948     8399     8047 
    7306     6849     6804     6669     6458     6831     7643     8230 
    8357     8023     7674     7743     7776     7443     7055     6945 
    7400     8205     8607     8433     8176     7834     7346     7447 
    8081     7956     7179     7122     7564     7461     7175     7306 
    7506     7654     8160     8777     8714     7742     6478     5786 
    5859     6282     6625     6812     7237     7738     7703     7572 
    7958     8526     8973     9294     9147     8394     7715     7704 
    7843     7249     6370     6261     6632     6948     7381     7591 
    7360     7547     8303     8372     7349     6629     7009     7688 
    8213     8461     7938     7029     6770     7218     7632     7800 
    7631     6825     6226     6696     7474     7765     7707     7686 
    7958     8361     8511     8104     7318     7075     7763     8398 
    8029     6982     6340     6600     7267     7929     8600     8895 
    8500     7994     7631     6966     6153     6064     7122     8075 
    7731     7144     7069     6924     6901     7248     7593     7723 
    7619     7665     8050     8321     8353     8337     8056     7429 
    7242     7854     8225     7743     7168     7065     7173     7375 
    7542     7164     6535     6667     7699     8799     8989     8179 
    7437     7381     7651     7893     7789     7360     7179     7230 
    7028     6890     7303     7685     7450     7188     7597     8311 
    8440     7803     7065     6781     7022     7668     8413     8741 
    8278     7361     6862     6990     6943     6486     6571     7452 
    8089     8082     7971     7754     7268     7241     7960     8217 
    7480     6852     6995     7628     8260     8436     8152     7666 
    7411     7769     8082     7615     7177     7555     7940     7875 
    8043     8233     7831     7307     7171     7288     7284     6913 
    6565     6728     7209     7491     7329     6794     6258     6353 
    7122     7851     8262     8459     8571     8889     9108     8791 
    8309     7935     7573     7276     7032     6783     6664     6944 
    7557     7905     7879     7770     7377     6934     7075     7406 
    7357     7160     6993     6879     6968     7231     7707     8291 
    8401     8106     8132     8348     8198     7793     7483     7310 
    7221     7407     7936     8311     8064     7514     7298     7392 
    7399     7329     7376     7553     7798     8039     8226     8317 
    8112     7489     6802     6631     6963     7167     6951     6739 
    6849     7094     7319     7523     7538     7209     6899     7183 
    7736     7963     8310     8926     8815     7788     6913     6772 
    7069     7564     8143     8387     8104     7851     7994     8000 
    7651     7516     7572     7317     7026     7207     7611     7804 
    7830     7645     7150     6987     7523     7784     7011     6064 
    6142     7118     7920     7958     7607     7420     7568     8017 
    8338     8000     7439     7333     7321     7117     7337     8229 
    9022     8962     8280     7588     7074     6936     7263     7485 
    7323     7263     7472     7665     7865     8175     8333     8014 
    7317     6743     6600     6712     6920     7252     7538     7504 
    7187     7025     7246     7506     7589     7674     7785     7963 
    8402     8810     8677     8145     7662     7375     7268     7161 
    6852     6575     6691     7115     7580     7850     7769     7430 
    7069     6937     6994     7057     7330     7789     7956     7747 
    7271     6698     6740     7677     8708     9139     8899     8139 
    7236     6777     7109     7807     8037     7743     7447     7150 
    6795     6713     6930     7207     7425     7713     8303     8842 
    8785     8279     7711     7380     7485     7697     7504     6895 
    6353     6434     7106     7658     7767     7763     7798     7935 
    8297     8522     8259     7938     7962     7932     7576     7362 
    7326     6912     6465     6775     7418     7585     7554     7705 
    7669     7379     7276     7294     7121     7025     7353     7943 
    8406     8401     8021     7796     7831     7674     7311     7341 
    7827     8060     7858     7744     7751     7568     7419     7497 
    7415     7184     7426     8016     8117     7770     7726     7948 
    7808     7337     7011     7028     7335     7611     7550     7430 
    7443     7258     7010     7273     7840     8135     8222     8302 
    8070     7302     6662     6709     6777     6555     6785     7400 
    7638     7501     7439     7514     7495     7407     7429     7497 
    7680     8162     8586     8478     8036     7597     7194     7020 
    7138     7256     7335     7435     7469     7393     7106     6841 
    7126     7686     7827     7647     7561     7555     7638     7940 
    8251     8220     7963     7885     7982     7981     7886     7743 
    7380     6840     6532     6755     7375     7908     7939     7582 
    7345     7539     7956     8156     8040     7728     7337     7101 
