Origin Time       2024/04/02 04:24:00
Lat.              40.133
Long.             141.712
Depth. (km)       71
Mag.              6.0
Station Code      HKD134
Station Lat.      42.6713
Station Long.     141.0790
Station Height(m) 392
Record Time       2024/04/02 04:25:23
Sampling Freq(Hz) 100Hz
Duration Time(s)  100
Dir.              U-D
Scale Factor      7845(gal)/8223790
Max. Acc. (gal)   0.735
Last Correction   2024/04/02 04:25:23
Memo.             
[...]
   11439    11245    11152    11173    11275    11364    11394    11414 
   11477    11543    11537    11464    11385    11344    11360    11411 
   11439    11414    11327    11214    11172    11259    11406    11533 
   11593    11560    11485    11437    11416    11422    11443    11418 
   11303    11149    11036    11007    11051    11091    11091    11064 
   11014    10960    10956    11038    11175    11286    11349    11399 
   11422    11395    11360    11357    11376    11410    11438    11416 
   11352    11290    11259    11260    11254    11221    11184    11180 
   11225    11280    11280    11219    11152    11109    11105    11142 
   11195    11234    11273    11345    11445    11515    11503    11426 
   11348    11307    11310    11357    11427    11476    11485    11469 
   11461    11461    11433    11376    11337    11325    11323    11306 
   11279    11272    11269    11233    11175    11133    11132    11172 
   11254    11342    11369    11327    11295    11315    11354    11361 
   11329    11283    11240    11211    11240    11345    11480    11543 
   11492    11384    11295    11259    11254    11236    11200    11196 
   11230    11267    11267    11223    11192    11211    11230    11205 
   11184    11229    11314    11379    11389    11357    11294    11203 
   11159    11222    11310    11338    11356    11388    11380    11308 
   11241    11237    11261    11246    11202    11155    11115    11121 
   11194    11299    11411    11531    11603    11583    11515    11454 
   11412    11415    11441    11427    11383    11354    11342    11311 
   11257    11227    11242    11268    11273    11242    11148    11006 
   10901    10901    11022    11209    11362    11445    11461    11414 
   11335    11272    11264    11346    11461    11492    11388    11227 
   11156    11219    11334    11415    11460    11470    11402    11292 
   11242    11259    11254    11194    11128    11132    11191    11211 
   11164    11110    11105    11145    11196    11230    11254    11271 
   11268    11259    11281    11329    11340    11276    11205    11222 
   11317    11400    11438    11450    11439    11412    11403    11434 
   11502    11549    11503    11372    11250    11207    11245    11318 
   11365    11346    11296    11291    11342    11388    11385    11349 
   11279    11188    11167    11265    11381    11407    11352    11272 
   11215    11195    11230    11337    11461    11508    11454    11346 
   11260    11233    11234    11259    11315    11375    11391    11365 
   11317    11242    11141    11056    11026    11051    11109    11167 
   11184    11164    11145    11152    11191    11248    11275    11253 
   11241    11287    11361    11399    11364    11290    11226    11194 
   11191    11214    11249    11288    11345    11414    11465    11489 
   11485    11456    11434    11442    11446    11410    11345    11279 
   11210    11165    11183    11236    11244    11200    11195    11292 
   11437    11541    11569    11527    11457    11411    11404    11435 
   11499    11558    11587    11576    11518    11421    11327    11303 
   11360    11421    11418    11344    11219    11117    11118    11192 
   11233    11215    11200    11241    11291    11294    11257    11213 
   11171    11171    11209    11217    11165    11084    11028    11055 
   11167    11276    11310    11286    11263    11265    11269    11280 
   11314    11338    11311    11252    11241    11286    11308    11310 
   11323    11333    11350    11392    11411    11384    11353    11322 
   11271    11210    11172    11168    11191    11241    11298    11317 
   11283    11264    11323    11438    11534    11539    11446    11358 
   11349    11380    11410    11422    11381    11291    11233    11246 
   11291    11304    11263    11188    11151    11188    11257    11277 
   11237    11199    11199    11182    11133    11099    11094    11097 
   11125    11195    11281    11331    11321    11268    11234    11281 
   11396    11485    11497    11476    11458    11431    11380    11325 
   11313    11345    11392    11442    11468    11441    11383    11333 
   11306    11323    11387    11460    11506    11493    11412    11295 
   11184    11113    11109    11169    11259    11311    11277    11215 
   11213    11277    11373    11472    11519    11465    11342    11269 
   11291    11307    11244    11151    11114    11184    11337    11450 
   11442    11372    11310    11246    11173    11106    11070    11084 
   11119    11138    11142    11149    11183    11249    11322    11389 
   11398    11292    11141    11088    11157    11256    11299    11295 
   11291    11310    11357    11416    11434    11383    11295    11234 
   11241    11335    11461    11489    11402    11300    11260    11283 
   11322    11346    11376    11398    11365    11330    11342    11360 
   11354    11350    11377    11445    11496    11429    11229    11006 
   10917    11021    11205    11345    11418    11426    11377    11341 
   11365    11398    11380    11307    11234    11234    11302    11346 
   11353    11352    11325    11279    11256    11263    11275    11265 
   11240    11209    11169    11148    11159    11171    11157    11140 
   11132    11121    11130    11206    11313    11375    11389    11398 
   11414    11434    11438    11407    11367    11348    11338    11306 
   11260    11236    11242    11263    11298    11348    11379    11379 
   11372    11371    11335    11245    11152    11129    11198    11329 
   11446    11507    11504    11419    11279    11173    11160    11213 
   11257    11265    11263    11287    11365    11476    11569    11622 
   11622    11549    11435    11349    11291    11202    11068    10953 
   10925    10990    11110    11241    11337    11376    11381    11380 
   11358    11321    11290    11261    11240    11257    11310    11365 
   11403    11412    11387    11352    11361    11441    11531    11535 
   11423    11284    11214    11241    11313    11345    11327    11310 
   11307    11317    11340    11345    11291    11196    11113    11079 
   11117    11202    11287    11348    11361    11318    11246    11209 
   11232    11288    11322    11321    11315    11329    11348    11362 
   11388    11416    11419    11403    11362    11279    11190    11126 
   11095    11121    11191    11271    11341    11384    11416    11487 
   11570    11600    11543    11418    11276    11176    11141    11161 
   11171    11130    11084    11094    11179    11307    11398    11385 
   11302    11245    11276    11350    11376    11323    11248    11213 
   11248    11307    11340    11357    11364    11333    11306    11319 
   11330    11302    11284    11310    11311    11213    11082    11064 
   11182    11342    11461    11484    11356    11137    11026    11122 
   11311    11419    11376    11254    11195    11287    11445    11484 
   11356    11199    11159    11249    11398    11522    11574    11553 
   11493    11421    11352    11288    11205    11132    11152    11273 
   11408    11435    11344    11253    11237    11272    11361    11502 
   11600    11585    11492    11375    11250    11148    11113    11151 
   11232    11330    11414    11434    11379    11300    11257    11236 
   11198    11182    11211    11214    11148    11072    11033    11040 
   11106    11187    11237    11269    11294    11291    11279    11265 
   11215    11113    11018    11021    11129    11240    11296    11368 
   11476    11576    11650    11665    11573    11383    11194    11117 
   11183    11319    11422    11435    11380    11322    11327    11410 
   11476    11439    11349    11283    11249    11237    11263    11322 
   11387    11464    11546    11565    11470    11302    11149    11084 
   11110    11196    11313    11396    11394    11325    11263    11273 
   11369    11492    11554    11534    11443    11302    11179    11160 
   11225    11268    11256    11221    11169    11130    11165    11277 
   11396    11434    11360    11269    11277    11330    11314    11225 
   11124    11067    11102    11222    11357    11448    11457    11389 
   11317    11311    11353    11356    11259    11084    10952    10966 
   11088    11246    11407    11523    11533    11476    11441    11406 
   11333    11257    11191    11126    11126    11218    11319    11369 
   11394    11404    11383    11358    11353    11345    11314    11217 
   11048    10926    10962    11136    11372    11573    11641    11538 
   11356    11260    11317    11377    11281    11091    10975    10983 
   11072    11192    11302    11373    11416    11450    11475    11475 
   11466    11441    11340    11207    11169    11241    11337    11414 
   11483    11541    11537    11442    11290    11119    10978    10930 
   10999    11122    11198    11186    11132    11111    11178    11296 
   11364    11327    11244    11179    11138    11141    11188    11246 
   11271    11210    11080    10997    11036    11161    11286    11353 
   11375    11384    11381    11365    11373    11396    11348    11192 
   11001    10893    10936    11075    11207    11275    11277    11307 
   11439    11581    11583    11429    11203    11036    11038    11242 
   11565    11826    11884    11782    11635    11492    11392    11376 
   11415    11456    11464    11418    11303    11145    11034    11070 
   11219    11364    11412    11357    11261    11192    11169    11202 
   11314    11481    11628    11707    11723    11672    11558    11452 
   11402    11345    11233    11124    11090    11126    11173    11188 
   11187    11179    11138    11107    11132    11151    11105    11040 
   11044    11175    11388    11519    11439    11194    10952    10899 
   11098    11399    11615    11666    11527    11236    10932    10768 
   10813    11043    11346    11557    11584    11473    11299    11126 
   11013    10989    11020    11020    10948    10912    11037    11298 
   11565    11749    11824    11807    11731    11650    11614    11596 
   11520    11372    11198    11064    11037    11122    11275    11453 
   11585    11618    11597    11564    11515    11476    11452    11426 
   11435    11500    11588    11639    11596    11473    11350    11299 
   11321    11369    11437    11523    11562    11475    11310    11190 
   11179    11253    11350    11415    11388    11229    10997    10821 
   10785    10894    11087    11276    11410    11483    11497    11439 
   11306    11129    10953    10849    10852    10937    11086    11257 
   11380    11430    11389    11264    11142    11088    11106    11168 
   11213    11190    11110    11036    11038    11122    11259    11406 
   11510    11589    11678    11666    11456    11140    10883    10789 
   10883    11137    11441    11631    11634    11512    11369    11257 
   11188    11184    11280    11441    11543    11531    11496    11493 
   11441    11296    11149    11133    11256    11345    11273    11128 
   11049    11051    11052    11024    11041    11171    11360    11531 
   11651    11676    11566    11391    11263    11246    11317    11404 
   11510    11669    11861    11988    11962    11747    11403    11070 
   10855    10782    10836    11002    11223    11406    11475    11454 
   11445    11519    11620    11662    11631    11554    11454    11348 
   11269    11219    11145    11018    10912    10937    11115    11306 
   11346    11232    11088    11011    11022    11095    11190    11252 
   11210    11064    10916    10875    10959    11082    11200    11346 
   11523    11618    11481    11191    11017    11064    11198    11269 
   11271    11292    11348    11415    11512    11592    11539    11341 
   11101    10975    11059    11254    11384    11429    11488    11612 
   11767    11857    11824    11703    11537    11376    11298    11357 
   11531    11677    11668    11535    11375    11256    11232    11300 
   11400    11434    11364    11248    11132    11020    10983    11090 
   11276    11452    11580    11647    11626    11500    11288    11070 
   10939    10903    10935    11014    11071    11036    10960    10976 
   11126    11277    11314    11296    11310    11317    11265    11191 
   11122    11024    10928    10940    11028    11060    11036    11044 
   11138    11317    11527    11688    11712    11574    11354    11148 
   11024    11022    11110    11214    11304    11357    11375    11421 
   11491    11515    11479    11408    11318    11236    11205    11240 
   11337    11468    11599    11711    11773    11758    11681    11577 
   11466    11344    11206    11095    11064    11130    11318    11604 
   11840    11866    11669    11375    11175    11173    11242    11196 
   11064    11001    11040    11098    11114    11083    11033    11018 
   11056    11110    11159    11149    11021    10862    10887    11155 
   11453    11570    11511    11408    11340    11345    11484    11685 
   11731    11522    11205    10982    10957    11136    11404    11573 
   11539    11352    11129    11055    11265    11641    11916    11929 
   11738    11511    11300    11053    10801    10669    10736    10972 
   11288    11588    11785    11840    11784    11686    11577    11394 
   11097    10790    10609    10589    10729    10995    11238    11330 
   11304    11249    11222    11240    11233    11128    10993    10975 
   11148    11435    11634    11545    11194    10833    10708    10894 
   11327    11803    12027    11832    11371    11006    10987    11191 
   11323    11307    11294    11388    11564    11757    11942    12070 
   12006    11699    11369    11296    11450    11570    11508    11315 
   11083    10912    10890    11033    11280    11530    11691    11763 
   11790    11754    11612    11346    11001    10717    10638    10778 
   11025    11260    11441    11551    11543    11376    11111    10870 
   10704    10655    10775    10974    11109    11191    11286    11350 
   11334    11261    11209    11214    11253    11341    11462    11488 
   11364    11176    11055    11102    11321    11599    11788    11776 
   11562    11268    11059    11022    11121    11259    11387    11507 
   11587    11565    11460    11361    11340    11399    11492    11564 
   11605    11588    11476    11299    11092    10941    10962    11128 
   11330    11481    11489    11313    11056    10914    10957    11086 
   11219    11346    11430    11468    11484    11457    11408    11381 
   11327    11210    11130    11178    11300    11379    11310    11110 
   10956    10975    11105    11265    11468    11701    11875    11913 
   11844    11739    11616    11461    11260    11053    10936    10976 
   11151    11385    11591    11677    11583    11326    11022    10813 
   10770    10885    11087    11273    11369    11349    11260    11198 
   11215    11265    11283    11245    11178    11095    11017    10980 
   10995    11044    11097    11094    11074    11148    11286    11360 
   11371    11373    11375    11377    11408    11429    11342    11183 
   11106    11136    11217    11360    11546    11689    11709    11612 
   11487    11403    11385    11412    11419    11357    11222    11067 
   10989    11064    11260    11431    11485    11446    11356    11269 
   11275    11383    11491    11491    11375    11210    11072    11010 
   11040    11105    11136    11125    11122    11203    11391    11600 
   11753    11794    11626    11246    10859    10698    10824    11084 
   11296    11398    11396    11331    11277    11254    11203    11095 
   11036    11168    11458    11723    11827    11746    11522    11280 
   11190    11261    11344    11330    11225    11095    11052    11168 
   11385    11569    11607    11487    11306    11207    11225    11257 
   11238    11182    11098    11037    11055    11164    11380    11597 
   11632    11511    11376    11256    11141    11095    11202    11446 
   11669    11770    11786    11681    11399    11082    10949    11075 
   11379    11703    11874    11773    11445    11086    10887    10944 
   11226    11565    11761    11755    11643    11534    11460    11402 
   11304    11141    10966    10901    11002    11175    11291    11308 
   11265    11205    11157    11132    11097    11070    11107    11199 
   11318    11427    11454    11383    11249    11107    11024    11020 
   11059    11072    11049    11072    11173    11250    11203    11076 
   11024    11095    11198    11276    11342    11384    11399    11421 
   11419    11314    11149    11078    11105    11138    11203    11322 
   11425    11468    11443    11331    11167    11057    11083    11192 
   11315    11433    11507    11526    11530    11495    11400    11342 
   11376    11442    11477    11458    11389    11290    11211    11218 
   11314    11415    11450    11412    11310    11205    11194    11292 
   11416    11456    11388    11352    11434    11560    11651    11697 
   11651    11510    11372    11353    11461    11576    11562    11445 
   11360    11341    11335    11333    11330    11294    11226    11190 
   11203    11217    11186    11080    10928    10863    10951    11109 
   11244    11302    11279    11264    11329    11395    11334    11141 
   10951    10914    11057    11275    11421    11399    11223    11064 
   11064    11176    11273    11275    11169    11061    11084    11263 
   11473    11584    11554    11434    11303    11209    11144    11107 
   11155    11317    11502    11570    11506    11407    11345    11307 
   11261    11245    11318    11441    11551    11632    11635    11524 
   11350    11219    11229    11383    11565    11658    11634    11529 
   11387    11253    11171    11152    11169    11180    11155    11124 
   11151    11244    11357    11429    11465    11515    11547    11491 
   11360    11226    11136    11092    11098    11133    11168    11194 
   11241    11341    11445    11480    11454    11387    11249    11079 
   10995    11043    11137    11183    11169    11136    11161    11286 
   11426    11485    11441    11281    11083    11001    11075    11210 
   11304    11350    11385    11385    11307    11190    11090    11010 
   10989    11067    11194    11279    11329    11373    11373    11326 
   11296    11291    11283    11279    11294    11331    11406    11495 
   11543    11549    11554    11557    11502    11389    11284    11223 
   11168    11097    11057    11095    11203    11329    11407    11411 
   11341    11254    11240    11321    11433    11485    11454    11415 
   11427    11466    11481    11431    11326    11203    11097    11026 
   11002    11007    10999    11013    11152    11423    11693    11808 
   11695    11435    11198    11088    11129    11260    11369    11399 
   11375    11356    11396    11452    11441    11385    11333    11299 
   11319    11375    11400    11407    11430    11450    11445    11403 
   11333    11276    11223    11141    11072    11099    11263    11511 
   11713    11732    11516    11165    10881    10781    10809    10908 
   11068    11218    11276    11219    11095    11049    11194    11449 
   11634    11670    11587    11419    11200    11017    10935    10935 
   10982    11052    11103    11133    11172    11218    11238    11246 
   11256    11241    11229    11280    11388    11518    11643    11724 
   11724    11649    11557    11473    11380    11303    11263    11214 
