Origin Time       2024/04/02 04:24:00
Lat.              40.133
Long.             141.712
Depth. (km)       71
Mag.              6.0
Station Code      HKD131
Station Lat.      42.4206
Station Long.     141.0809
Station Height(m) 13
Record Time       2024/04/02 04:25:16
Sampling Freq(Hz) 100Hz
Duration Time(s)  96
Dir.              N-S
Scale Factor      7845(gal)/8223790
Max. Acc. (gal)   2.334
Last Correction   2024/04/02 04:25:17
Memo.             
[...]
  -20405   -20449   -20173   -19920   -19926   -20040   -20104   -20170 
  -20210   -20109   -20021   -20182   -20421   -20522   -20618   -20703 
  -20521   -20127   -19866   -19854   -19936   -19986   -19989   -19993 
  -20042   -20123   -20197   -20228   -20139   -19915   -19728   -19757 
  -20001   -20351   -20599   -20525   -20152   -19804   -19776   -19986 
  -20113   -20121   -20266   -20511   -20514   -20228   -19982   -19985 
  -20119   -20204   -20178   -20123   -20067   -19849   -19614   -19726 
  -20066   -20355   -20482   -20344   -20039   -19772   -19607   -19570 
  -19724   -20075   -20407   -20491   -20393   -20214   -19971   -19778 
  -19808   -20074   -20455   -20823   -21031   -20935   -20549   -20121 
  -20031   -20283   -20460   -20383   -20312   -20456   -20625   -20572 
  -20424   -20337   -20201   -19957   -19737   -19634   -19626   -19711 
  -19836   -19926   -20039   -20146   -20125   -20097   -20198   -20270 
  -20189   -20127   -20204   -20291   -20268   -20177   -20117   -20159 
  -20317   -20545   -20711   -20707   -20583   -20413   -20216   -20054 
  -20005   -20129   -20372   -20445   -20201   -19930   -19882   -19894 
  -19797   -19743   -19820   -19866   -19877   -20024   -20310   -20594 
  -20773   -20767   -20551   -20263   -20062   -19962   -19901   -19900 
  -20023   -20162   -20190   -20243   -20343   -20306   -20254   -20405 
  -20599   -20565   -20244   -19732   -19323   -19282   -19522   -19807 
  -20023   -20121   -20101   -20029   -19980   -19974   -20020   -20088 
  -20119   -20132   -20177   -20232   -20282   -20341   -20456   -20683 
  -20877   -20721   -20221   -19811   -19722   -19812   -19971   -20190 
  -20403   -20564   -20694   -20815   -20853   -20706   -20424   -20202 
  -20164   -20202   -20201   -20214   -20240   -20240   -20241   -20150 
  -19932   -19862   -20029   -20086   -19846   -19616   -19685   -19965 
  -20245   -20436   -20467   -20310   -20071   -19935   -20098   -20501 
  -20717   -20480   -20024   -19677   -19589   -19731   -19881   -19911 
  -19919   -19951   -19977   -19954   -19784   -19597   -19666   -19936 
  -20283   -20758   -21181   -21265   -21101   -20949   -20822   -20599 
  -20295   -19993   -19711   -19549   -19618   -19757   -19836   -19893 
  -19878   -19853   -19966   -20110   -20167   -20179   -20174   -20258 
  -20541   -20780   -20653   -20236   -19823   -19620   -19630   -19668 
  -19730   -19963   -20185   -20139   -20044   -20258   -20628   -20709 
  -20480   -20299   -20232   -20108   -19990   -19985   -19984   -19934 
  -19921   -20007   -20152   -20237   -20198   -20154   -20286   -20536 
  -20594   -20376   -20106   -19896   -19788   -19923   -20239   -20474 
  -20595   -20706   -20767   -20777   -20767   -20672   -20548   -20441 
  -20243   -19970   -19742   -19589   -19545   -19670   -19940   -20213 
  -20345   -20297   -20132   -19953   -19770   -19576   -19445   -19471 
  -19629   -19792   -19943   -20144   -20256   -20162   -20055   -20090 
  -20216   -20421   -20665   -20812   -20808   -20657   -20407   -20240 
  -20260   -20395   -20537   -20530   -20279   -19961   -19776   -19718 
  -19737   -19769   -19738   -19649   -19591   -19692   -19948   -20205 
  -20394   -20510   -20533   -20487   -20387   -20282   -20298   -20470 
  -20677   -20803   -20812   -20677   -20470   -20425   -20567   -20611 
  -20383   -20054   -19889   -19876   -19807   -19635   -19462   -19357 
  -19342   -19491   -19886   -20355   -20538   -20394   -20202   -20136 
  -20117   -20083   -20171   -20456   -20808   -21074   -21114   -20815 
  -20348   -20002   -19746   -19537   -19548   -19710   -19815   -19880 
  -19911   -19853   -19762   -19750   -19863   -19992   -20077   -20152 
  -20085   -19849   -19795   -20020   -20101   -19967   -20066   -20386 
  -20497   -20405   -20304   -20150   -20013   -20020   -20035   -19890 
  -19703   -19749   -20040   -20316   -20453   -20513   -20529   -20444 
  -20337   -20445   -20683   -20769   -20769   -20734   -20511   -20191 
  -20000   -20002   -20113   -20213   -20245   -20162   -19986   -19816 
  -19715   -19795   -20113   -20478   -20621   -20463   -20131   -19849 
  -19753   -19815   -19994   -20272   -20501   -20437   -20109   -19897 
  -19998   -20214   -20309   -20166   -19830   -19545   -19445   -19458 
  -19521   -19614   -19759   -19962   -20202   -20456   -20615   -20677 
  -20775   -20864   -20837   -20757   -20727   -20725   -20633   -20449 
  -20340   -20347   -20312   -20171   -20054   -20028   -19955   -19766 
  -19615   -19557   -19408   -19120   -18958   -19140   -19561   -20074 
  -20552   -20749   -20632   -20407   -20205   -20169   -20386   -20675 
  -20879   -21038   -21114   -20989   -20722   -20495   -20407   -20372 
  -20264   -20079   -19899   -19830   -19907   -20048   -20228   -20413 
  -20433   -20236   -19969   -19742   -19600   -19629   -19853   -20074 
  -20139   -20189   -20322   -20490   -20648   -20680   -20544   -20347 
  -20169   -20083   -20148   -20279   -20301   -20164   -19996   -19936 
  -19993   -20002   -19861   -19762   -19905   -20158   -20297   -20340 
  -20389   -20393   -20309   -20263   -20313   -20274   -20075   -19923 
  -19885   -19876   -19955   -20198   -20476   -20625   -20630   -20449 
  -20066   -19745   -19639   -19647   -19772   -19977   -20097   -20150 
  -20235   -20290   -20314   -20398   -20445   -20299   -20028   -19737 
  -19421   -19228   -19326   -19580   -19826   -20044   -20173   -20224 
  -20402   -20718   -20899   -20880   -20802   -20679   -20560   -20533 
  -20487   -20256   -19915   -19746   -19896   -20147   -20225   -20201 
  -20229   -20227   -20142   -20079   -20092   -20133   -20092   -19943 
  -19903   -20110   -20398   -20602   -20750   -20821   -20696   -20444 
  -20298   -20259   -20128   -19980   -19961   -19969   -19963   -20036 
  -20109   -20112   -20167   -20272   -20244   -20098   -19973   -19831 
  -19674   -19730   -20042   -20328   -20380   -20186   -19930   -19890 
  -20011   -20065   -20106   -20186   -20229   -20270   -20271   -20113 
  -19944   -20012   -20208   -20285   -20241   -20218   -20221   -20167 
  -20092   -20056   -20077   -20139   -20196   -20221   -20248   -20266 
  -20159   -19940   -19793   -19818   -19986   -20245   -20474   -20494 
  -20248   -19915   -19782   -19959   -20263   -20407   -20294   -20021 
  -19720   -19531   -19561   -19793   -20115   -20420   -20640   -20715 
  -20668   -20568   -20397   -20189   -20102   -20200   -20362   -20409 
  -20270   -20032   -19792   -19703   -19849   -19981   -19905   -19785 
  -19801   -19953   -20191   -20479   -20699   -20704   -20551   -20451 
  -20379   -20162   -19969   -20079   -20340   -20453   -20428   -20349 
  -20066   -19507   -19048   -19105   -19585   -20051   -20289   -20371 
  -20353   -20336   -20437   -20559   -20586   -20571   -20544   -20417 
  -20245   -20175   -20104   -19931   -19808   -19774   -19830   -20047 
  -20275   -20378   -20497   -20629   -20614   -20499   -20379   -20347 
  -20514   -20704   -20736   -20833   -21085   -21170   -20947   -20587 
  -20137   -19558   -19070   -18918   -19006   -19153   -19303   -19399 
  -19452   -19535   -19592   -19577   -19656   -19926   -20266   -20568 
  -20750   -20725   -20521   -20263   -20094   -20098   -20202   -20337 
  -20479   -20432   -20092   -19793   -19838   -19969   -19919   -19975 
  -20337   -20672   -20779   -20753   -20588   -20336   -20171   -20097 
  -20119   -20331   -20630   -20908   -21215   -21477   -21648   -21816 
  -21856   -21591   -21115   -20690   -20464   -20337   -20200   -20128 
  -20196   -20278   -20206   -19994   -19781   -19630   -19492   -19287 
  -19105   -19176   -19429   -19572   -19701   -20001   -20205   -20150 
  -20098   -20167   -20229   -20200   -19989   -19566   -19111   -18721 
  -18403   -18357   -18720   -19363   -20051   -20633   -21174   -21643 
  -21722   -21401   -21043   -20750   -20379   -19943   -19570   -19314 
  -19290   -19565   -19786   -19645   -19425   -19445   -19657   -19932 
  -20167   -20267   -20167   -19988   -20005   -20185   -20314   -20491 
  -20839   -21147   -21176   -21035   -20825   -20341   -19707   -19390 
  -19472   -19768   -20240   -20729   -20818   -20441   -20124   -20162 
  -20287   -20424   -20734   -21065   -21212   -21244   -21181   -20883 
  -20387   -19973   -19769   -19755   -19963   -20287   -20483   -20456 
  -20286   -20123   -20088   -20133   -20152   -20229   -20428   -20464 
  -20150   -19716   -19400   -19246   -19302   -19492   -19595   -19576 
  -19616   -19759   -19873   -19867   -19681   -19265   -18762   -18389 
  -18207   -18253   -18690   -19438   -20013   -20197   -20232   -20264 
  -20368   -20615   -20823   -20979   -21301   -21632   -21471   -20603 
  -19453   -18701   -18544   -18769   -19267   -19961   -20568   -20864 
  -20906   -20945   -21205   -21612   -21975   -22231   -22204   -21759 
  -21091   -20526   -20383   -20725   -21240   -21686   -21972   -21922 
  -21425   -20621   -19745   -19040   -18723   -18835   -19144   -19364 
  -19460   -19557   -19722   -19881   -19876   -19761   -19745   -19828 
  -19957   -20213   -20599   -20918   -20957   -20659   -20167   -19791 
  -19676   -19608   -19446   -19406   -19695   -20187   -20510   -20445 
  -20127   -19716   -19377   -19408   -19908   -20688   -21401   -21640 
  -21321   -20737   -20115   -19496   -19098   -19315   -20028   -20549 
  -20642   -20547   -20344   -20090   -19838   -19502   -19138   -18859 
  -18623   -18542   -18864   -19369   -19519   -19323   -19306   -19635 
  -19896   -19791   -19618   -19750   -20154   -20567   -20866   -21208 
  -21627   -21841   -21811   -21714   -21556   -21421   -21432   -21401 
  -21072   -20466   -19884   -19627   -19753   -20094   -20464   -20802 
  -21024   -21072   -21157   -21300   -21162   -20800   -20579   -20518 
  -20518   -20646   -20899   -21154   -21374   -21365   -20727   -19584 
  -18584   -18041   -17857   -18029   -18511   -19029   -19496   -20025 
  -20436   -20413   -19988   -19368   -18769   -18499   -18758   -19510 
  -20526   -21332   -21496   -21141   -20634   -20240   -20194   -20301 
  -20039   -19487   -19107   -18931   -18704   -18469   -18609   -19233 
  -19890   -20152   -20077   -20020   -20197   -20466   -20576   -20521 
  -20551   -20810   -21087   -21162   -21115   -21070   -20991   -20799 
  -20395   -19693   -18835   -18152   -17952   -18409   -19423   -20564 
  -21375   -21654   -21547   -21378   -21255   -21080   -20837   -20580 
  -20308   -20043   -19963   -20250   -20665   -20649   -20133   -19799 
  -20007   -20335   -20513   -20625   -20633   -20583   -20575   -20472 
  -20228   -20044   -20021   -19993   -19885   -19777   -19530   -19183 
  -19106   -19269   -19421   -19485   -19371   -19174   -19174   -19315 
  -19419   -19588   -19882   -20121   -20251   -20353   -20524   -20933 
  -21585   -22122   -22269   -22087   -21560   -20568   -19562   -19345 
  -19967   -20729   -21105   -21053   -20760   -20378   -20056   -19947 
  -19981   -19989   -19927   -19807   -19687   -19697   -19944   -20289 
  -20407   -20133   -19522   -18833   -18466   -18539   -18790   -19107 
  -19661   -20332   -20680   -20598   -20293   -19955   -19670   -19321 
  -18924   -18840   -19230   -19846   -20413   -20835   -21080   -21200 
  -21286   -21180   -20795   -20403   -20198   -20101   -19966   -19653 
  -19149   -18698   -18584   -18840   -19350   -19973   -20453   -20592 
  -20466   -20272   -20255   -20641   -21222   -21442   -21091   -20580 
  -20510   -20983   -21633   -22099   -22000   -21095   -19726   -18631 
  -18310   -18696   -19488   -20333   -20690   -20355   -19838   -19666 
  -19870   -20287   -20729   -20904   -20776   -20659   -20683   -20676 
  -20633   -20771   -20960   -20752   -20125   -19543   -19338   -19504 
  -19892   -20299   -20586   -20745   -20769   -20598   -20154   -19580 
  -19398   -19804   -20293   -20393   -20116   -19799   -19712   -19649 
  -19418   -19353   -19561   -19683   -19735   -20104   -20717   -20997 
  -20601   -19688   -18682   -18063   -18076   -18620   -19375   -19981 
  -20367   -20734   -21062   -21208   -21344   -21687   -21975   -21766 
  -21166   -20655   -20443   -20451   -20525   -20509   -20476   -20541 
  -20418   -20032   -19874   -20025   -20227   -20703   -21421   -21675 
  -21258   -20731   -20452   -20294   -20182   -20287   -20525   -20426 
  -19890   -19399   -19361   -19738   -20166   -20275   -19998   -19619 
  -19588   -20021   -20498   -20622   -20424   -20156   -20123   -20428 
  -20704   -20533   -19980   -19342   -18848   -18603   -18550   -18594 
  -18682   -18866   -19296   -19970   -20628   -21050   -21250   -21228 
  -20767   -19881   -19206   -19225   -19552   -19749   -19975   -20198 
  -19988   -19461   -19211   -19327   -19522   -19757   -19988   -19899 
  -19549   -19562   -20144   -20721   -20844   -20571   -20152   -19886 
  -19840   -19870   -20221   -21165   -22187   -22585   -22357   -21868 
  -21369   -20987   -20780   -20806   -20987   -20992   -20652   -20277 
  -20189   -20313   -20551   -20861   -20908   -20517   -20146   -20147 
  -20268   -20321   -20476   -20707   -20802   -20796   -20796   -20772 
  -20763   -20719   -20430   -19969   -19595   -19228   -18701   -18288 
  -18343   -18736   -19182   -19515   -19471   -19018   -18678   -18850 
  -19234   -19372   -19211   -18990   -19002   -19319   -19705   -19973 
  -20148   -20267   -20321   -20412   -20663   -21000   -21263   -21361 
  -21224   -20925   -20677   -20665   -20918   -21061   -20453   -19218 
  -18231   -17807   -17718   -18036   -18909   -20117   -21101   -21374 
  -21091   -20781   -20538   -20189   -19935   -20147   -20736   -21227 
  -21386   -21386   -21269   -20915   -20571   -20542   -20655   -20626 
  -20491   -20324   -19863   -19072   -18647   -19048   -19662   -19708 
  -19332   -19226   -19768   -20779   -21735   -22264   -22358   -22037 
  -21351   -20603   -20181   -20223   -20453   -20449   -20140   -19809 
  -19697   -19851   -20147   -20275   -19969   -19309   -18639   -18210 
  -18084   -18355   -19047   -19816   -20264   -20412   -20590   -21114 
  -21930   -22427   -22099   -21157   -20085   -19252   -18968   -19356 
  -20267   -21280   -21775   -21412   -20429   -19356   -18598   -18310 
  -18324   -18295   -18137   -18042   -18084   -18333   -18918   -19662 
  -20190   -20472   -20773   -21084   -21173   -21211   -21459   -21706 
  -21857   -22122   -22405   -22391   -21990   -21400   -20696   -19778 
  -18949   -18727   -19148   -19948   -20853   -21469   -21500   -21037 
  -20344   -19638   -19089   -18828   -18962   -19499   -20282   -21065 
  -21574   -21628   -21320   -20835   -20356   -20104   -20046   -19863 
  -19449   -19095   -19141   -19529   -19967   -20383   -20714   -20622 
  -19878   -18936   -18615   -19110   -19977   -20777   -21159   -21035 
  -20673   -20287   -19982   -19811   -19611   -19345   -19290   -19508 
  -19820   -20298   -20973   -21428   -21398   -21185   -21134   -21157 
  -20960   -20459   -19761   -19083   -18715   -18720   -18991   -19476 
  -20035   -20443   -20611   -20599   -20474   -20285   -20123   -20189 
  -20601   -21038   -21091   -20938   -20922   -20952   -20814   -20528 
  -20351   -20506   -20853   -21209   -21575   -21805   -21678   -21174 
  -20432   -19656   -19005   -18470   -18049   -17863   -18048   -18608 
  -19214   -19425   -19202   -18906   -18828   -18873   -18883   -18954 
  -19125   -19271   -19296   -19197   -19202   -19647   -20352   -20718 
  -20679   -20667   -20700   -20559   -20251   -19845   -19619   -19965 
  -20671   -21108   -20993   -20503   -20027   -19693   -19407   -19341 
  -19657   -20187   -20827   -21365   -21458   -21224   -20980   -20780 
  -20599   -20372   -20075   -19907   -20029   -20370   -20876   -21448 
  -21730   -21520   -21022   -20564   -20409   -20561   -20659   -20386 
  -19877   -19541   -19602   -19830   -19826   -19471   -18910   -18503 
  -18663   -19330   -20002   -20468   -20740   -20548   -19923   -19527 
  -19696   -20101   -20345   -20256   -19903   -19410   -19055   -19344 
  -20223   -20864   -20845   -20638   -20668   -20723   -20607   -20390 
  -20055   -19839   -20175   -20862   -21359   -21600   -21604   -21150 
  -20312   -19440   -18802   -18574   -18655   -18796   -19128   -19911 
  -20862   -21443   -21485   -21104   -20572   -20244   -20216   -20294 
  -20271   -20123   -20158   -20663   -21311   -21513   -21331   -21217 
  -21139   -20811   -20424   -20376   -20586   -20760   -20868   -20798 
  -20429   -20015   -19813   -19773   -19789   -19867   -19903   -19687 
  -19349   -19278   -19372   -19148   -18732   -18762   -19273   -19762 
  -20086   -20375   -20474   -20223   -19876   -19764   -19839   -19738 
  -19395   -19406   -20071   -20767   -21026   -21054   -20977   -20800 
  -20714   -20772   -20649   -20129   -19546   -19381   -19645   -19986 
  -20310   -20703   -20891   -20551   -19927   -19556   -19575   -19688 
  -19716   -19846   -20310   -21001   -21485   -21497   -21126   -20547 
  -20093   -20096   -20243   -19977   -19599   -19745   -20137   -20171 
  -20097   -20457   -20980   -21077   -20763   -20341   -19926   -19622 
  -19558   -19626   -19764   -20101   -20397   -20325   -20105   -20034 
  -20185   -20560   -20969   -21159   -21065   -20669   -20110   -19836 
  -20035   -20297   -20235   -19850   -19399   -19241   -19396   -19425 
  -19152   -18920   -19012   -19329   -19608   -19705   -19550   -19256 
  -19126   -19082   -18925   -18920   -19192   -19570   -20009   -20298 
  -20143   -19722   -19560   -19928   -20470   -20731   -20860   -21076 
  -21146   -20841   -20321   -19834   -19484   -19403   -19669   -20173 
  -20756   -21185   -21213   -20915   -20622   -20409   -20016   -19503 
  -19264   -19422   -19934   -20664   -21236   -21541   -21867   -22079 
  -21710   -20892   -20155   -19722   -19642   -19788   -19761   -19526 
  -19446   -19479   -19421   -19595   -20139   -20588   -20710   -20641 
  -20412   -20216   -20460   -21111   -21735   -22145   -22346   -22212 
  -21716   -21118   -20569   -19998   -19427   -19116   -19314   -19892 
  -20413   -20561   -20286   -19797   -19402   -19095   -18783   -18678 
  -18840   -19083   -19467   -20104   -20860   -21493   -21878   -22075 
  -22060   -21651   -20958   -20250   -19479   -18790   -18697   -19197 
  -19715   -19946   -20083   -20193   -19947   -19469   -19283   -19143 
  -18615   -18158   -18218   -18504   -18706   -18897   -19210   -19649 
  -20074   -20347   -20460   -20472   -20484   -20479   -20232   -19786 
  -19573   -19766   -20186   -20745   -21355   -21732   -21740   -21504 
  -21051   -20486   -20216   -20380   -20615   -20686   -20683   -20734 
  -20906   -21243   -21608   -21621   -21159   -20482   -19845   -19506 
  -19606   -19950   -20401   -20943   -21161   -20696   -19975   -19512 
  -19264   -19175   -19329   -19639   -19966   -20152   -20067   -19959 
  -20116   -20259   -20082   -19903   -19989   -20051   -19778   -19326 
  -19016   -18821   -18758   -19143   -19792   -20164   -20302   -20425 
  -20367   -20047   -19820   -20090   -20752   -21263   -21216   -20721 
  -20250   -20002   -19753   -19510   -19543   -19718   -19657   -19494 
  -19723   -20367   -20983   -21255   -21066   -20514   -19971   -19587 
  -19249   -19168   -19696   -20683   -21547   -21930   -21811   -21282 
  -20706   -20488   -20625   -20842   -20902   -20827   -20841   -20881 
