Origin Time       2024/04/02 04:24:00
Lat.              40.133
Long.             141.712
Depth. (km)       71
Mag.              6.0
Station Code      HKD120
Station Lat.      43.3442
Station Long.     141.6633
Station Height(m) 36
Record Time       2024/04/02 04:26:05
Sampling Freq(Hz) 100Hz
Duration Time(s)  60
Dir.              N-S
Scale Factor      7845(gal)/8223790
Max. Acc. (gal)   1.481
Last Correction   2024/04/02 04:26:05
Memo.             
[...]
   15241    15226    15245    15276    15306    15329    15350    15372 
   15388    15411    15450    15489    15500    15487    15454    15407 
   15357    15322    15303    15290    15282    15298    15342    15388 
   15412    15415    15391    15345    15295    15283    15327    15396 
   15434    15439    15434    15425    15411    15411    15438    15466 
   15472    15466    15465    15458    15431    15399    15376    15352 
   15321    15290    15275    15282    15313    15364    15425    15469 
   15475    15437    15372    15319    15294    15282    15286    15306 
   15315    15300    15286    15302    15330    15330    15303    15276 
   15257    15255    15298    15381    15452    15472    15473    15479 
   15483    15499    15526    15538    15533    15525    15529    15526 
   15493    15433    15357    15280    15240    15249    15276    15290 
   15287    15290    15317    15383    15471    15534    15534    15487 
   15427    15372    15327    15303    15302    15317    15327    15333 
   15356    15398    15439    15448    15417    15377    15346    15319 
   15298    15291    15309    15348    15387    15418    15444    15452 
   15435    15410    15380    15349    15331    15325    15309    15282 
   15257    15240    15232    15237    15267    15336    15414    15461 
   15461    15426    15384    15380    15418    15454    15466    15475 
   15484    15483    15479    15476    15462    15442    15435    15437 
   15433    15425    15415    15390    15354    15337    15349    15373 
   15376    15350    15315    15284    15267    15279    15319    15375 
   15433    15492    15549    15607    15661    15685    15662    15608 
   15547    15488    15435    15395    15357    15313    15255    15187 
   15149    15182    15261    15323    15353    15373    15384    15381 
   15383    15410    15445    15445    15398    15334    15296    15295 
   15323    15376    15429    15450    15442    15421    15399    15402 
   15442    15506    15549    15545    15514    15477    15434    15379 
   15319    15272    15238    15223    15229    15244    15260    15269 
   15268    15259    15226    15178    15144    15157    15217    15299 
   15384    15457    15493    15472    15408    15341    15299    15299 
   15334    15394    15466    15537    15574    15565    15531    15507 
   15481    15457    15450    15438    15396    15352    15345    15373 
   15422    15466    15484    15454    15398    15361    15360    15377 
   15395    15394    15375    15344    15304    15268    15256    15283 
   15340    15394    15421    15421    15399    15358    15326    15337 
   15372    15398    15415    15429    15418    15377    15344    15346 
   15373    15407    15446    15488    15498    15462    15406    15354 
   15323    15309    15307    15315    15325    15342    15395    15489 
   15593    15662    15666    15615    15538    15458    15385    15342 
   15321    15286    15241    15223    15241    15277    15319    15364 
   15398    15406    15390    15354    15310    15271    15253    15249 
   15252    15265    15303    15372    15458    15519    15522    15472 
   15410    15372    15349    15333    15336    15342    15340    15342 
   15352    15349    15329    15306    15296    15302    15307    15326 
   15372    15426    15462    15477    15464    15431    15411    15417 
   15446    15485    15515    15534    15538    15515    15472    15421 
   15380    15376    15390    15383    15360    15336    15302    15275 
   15272    15268    15234    15188    15169    15196    15250    15310 
   15371    15429    15460    15457    15435    15410    15381    15353 
   15341    15360    15400    15442    15471    15466    15442    15410 
   15380    15375    15394    15396    15373    15353    15345    15349 
   15367    15395    15422    15431    15410    15365    15329    15321 
   15334    15348    15354    15350    15331    15319    15338    15379 
   15427    15493    15569    15620    15622    15581    15518    15449 
   15387    15341    15307    15280    15277    15296    15325    15344 
   15323    15271    15253    15313    15403    15458    15462    15422 
   15353    15291    15269    15273    15267    15261    15294    15354 
   15406    15457    15518    15541    15511    15466    15426    15392 
   15387    15418    15445    15433    15390    15327    15257    15202 
   15176    15194    15263    15356    15429    15472    15498    15510 
   15500    15465    15411    15368    15352    15353    15365    15390 
   15411    15399    15354    15314    15298    15304    15317    15323 
   15345    15377    15400    15422    15446    15461    15454    15431 
   15421    15452    15525    15585    15591    15542    15462    15365 
   15287    15253    15252    15269    15299    15333    15358    15381 
   15410    15454    15499    15515    15503    15484    15466    15434 
   15380    15325    15286    15257    15236    15229    15242    15265 
   15299    15344    15385    15425    15465    15489    15481    15453 
   15418    15384    15375    15395    15419    15426    15427    15442 
   15461    15472    15481    15472    15408    15315    15256    15244 
   15241    15236    15236    15232    15221    15232    15279    15334 
   15372    15398    15407    15391    15367    15357    15361    15361 
   15361    15377    15411    15454    15500    15542    15577    15606 
   15612    15585    15541    15504    15473    15448    15434    15433 
   15429    15417    15399    15372    15334    15298    15273    15256 
   15240    15238    15253    15284    15341    15412    15469    15496 
   15504    15500    15473    15438    15417    15402    15375    15331 
   15286    15267    15288    15333    15377    15379    15317    15232 
   15183    15194    15260    15350    15434    15480    15485    15475 
   15477    15495    15512    15525    15523    15492    15433    15381 
   15356    15326    15283    15264    15284    15315    15346    15380 
   15400    15403    15399    15398    15404    15418    15444    15466 
   15485    15514    15553    15568    15526    15431    15326    15246 
   15211    15219    15245    15275    15296    15287    15250    15230 
   15248    15300    15365    15433    15491    15522    15519    15493 
   15464    15438    15418    15414    15429    15457    15493    15508 
   15471    15404    15357    15340    15321    15280    15241    15219 
   15207    15207    15241    15287    15314    15329    15361    15407 
   15457    15503    15527    15533    15543    15566    15583    15561 
   15499    15427    15364    15304    15260    15248    15250    15246 
   15244    15255    15282    15319    15352    15373    15390    15414 
   15445    15464    15460    15445    15422    15391    15363    15345 
   15344    15364    15398    15423    15433    15445    15453    15431 
   15395    15357    15300    15236    15203    15214    15242    15292 
   15368    15434    15464    15471    15454    15404    15338    15295 
   15284    15273    15249    15245    15286    15346    15400    15439 
   15461    15462    15460    15464    15476    15492    15508    15506 
   15480    15449    15427    15417    15422    15438    15434    15398 
   15352    15311    15282    15271    15277    15300    15334    15379 
   15431    15469    15466    15418    15338    15269    15240    15242 
   15268    15309    15346    15356    15334    15315    15321    15340 
   15361    15380    15384    15369    15350    15345    15354    15361 
   15360    15353    15331    15296    15272    15277    15300    15330 
   15368    15407    15433    15433    15421    15418    15426    15438 
   15449    15456    15448    15417    15381    15375    15391    15400 
   15388    15365    15345    15341    15357    15381    15410    15453 
   15510    15557    15580    15579    15557    15502    15423    15352 
   15296    15269    15294    15353    15411    15433    15414    15369 
   15314    15260    15225    15210    15219    15257    15322    15388 
   15430    15449    15468    15499    15527    15547    15565    15576 
   15565    15533    15498    15461    15402    15330    15284    15282 
   15300    15323    15358    15399    15422    15435    15456    15475 
   15472    15448    15429    15445    15492    15545    15573    15558 
   15495    15400    15313    15255    15226    15234    15283    15341 
   15373    15369    15338    15304    15284    15277    15271    15261 
   15253    15245    15229    15211    15207    15221    15241    15252 
   15252    15269    15317    15363    15381    15383    15379    15376 
   15388    15431    15484    15525    15541    15526    15481    15425 
   15379    15350    15329    15311    15307    15309    15311    15321 
   15334    15344    15356    15375    15395    15421    15460    15500 
   15506    15468    15414    15371    15342    15322    15309    15298 
   15290    15291    15307    15348    15410    15480    15539    15570 
   15569    15556    15546    15529    15483    15410    15322    15249 
   15226    15248    15272    15291    15307    15307    15292    15296 
   15342    15412    15475    15515    15527    15514    15483    15449 
   15425    15403    15381    15364    15352    15346    15358    15400 
   15460    15507    15525    15519    15504    15488    15460    15410 
   15354    15314    15279    15252    15234    15223    15218    15230 
   15268    15313    15338    15357    15394    15444    15487    15511 
   15504    15471    15425    15394    15388    15406    15437    15473 
   15504    15515    15498    15460    15418    15384    15377    15408 
   15461    15502    15516    15504    15473    15434    15400    15380 
   15380    15406    15445    15480    15498    15495    15491    15495 
   15492    15491    15508    15527    15520    15488    15437    15365 
   15290    15245    15238    15249    15264    15271    15259    15246 
   15257    15295    15350    15402    15437    15468    15492    15502 
   15520    15553    15568    15565    15558    15535    15496    15475 
   15487    15499    15480    15435    15380    15323    15276    15250 
   15234    15226    15222    15218    15209    15190    15171    15153 
   15124    15084    15067    15094    15176    15298    15425    15529 
   15591    15599    15556    15479    15404    15356    15341    15352 
   15360    15334    15284    15229    15179    15141    15114    15102 
   15113    15147    15205    15282    15356    15414    15464    15512 
   15546    15562    15556    15522    15465    15394    15325    15268 
   15230    15230    15272    15323    15342    15315    15263    15223 
   15210    15215    15248    15304    15360    15406    15441    15464 
   15487    15523    15554    15560    15546    15530    15518    15500 
   15480    15454    15391    15273    15118    14955    14823    14754 
   14758    14825    14922    15012    15083    15140    15174    15211 
   15282    15385    15507    15611    15672    15681    15657    15623 
   15603    15618    15645    15626    15553    15469    15402    15348 
   15318    15330    15361    15384    15414    15457    15462    15394 
   15283    15183    15129    15144    15213    15279    15290    15253 
   15215    15230    15322    15472    15611    15696    15734    15731 
   15701    15681    15691    15714    15736    15768    15796    15801 
   15774    15711    15607    15481    15358    15250    15159    15090 
   15034    14979    14939    14945    15020    15161    15342    15510 
   15623    15661    15626    15514    15337    15169    15109    15184 
   15356    15558    15730    15812    15800    15755    15726    15709 
   15688    15635    15541    15433    15353    15330    15357    15400 
   15421    15398    15346    15291    15248    15225    15246    15325 
   15437    15531    15573    15552    15480    15387    15310    15271 
   15255    15225    15163    15071    14987    14953    14986    15072 
   15171    15246    15284    15302    15329    15365    15368    15315 
   15259    15252    15321    15439    15545    15585    15564    15522 
   15485    15469    15491    15557    15647    15715    15704    15612 
   15477    15346    15273    15299    15418    15588    15754    15870 
   15907    15847    15697    15508    15356    15294    15306    15346 
   15376    15354    15264    15140    15052    15070    15209    15418 
   15628    15804    15932    16011    16039    16012    15923    15789 
   15639    15495    15360    15233    15109    14978    14839    14686 
   14516    14359    14284    14303    14385    14536    14771    15053 
   15311    15500    15619    15685    15712    15696    15639    15568 
   15531    15569    15678    15797    15826    15700    15445    15179 
   15006    14945    14949    14940    14872    14785    14756    14831 
   15006    15241    15476    15655    15746    15750    15703    15619 
   15515    15444    15444    15489    15527    15523    15479    15419 
   15373    15342    15292    15191    15043    14881    14774    14798 
   14985    15275    15573    15812    15975    16055    16050    15966 
   15816    15626    15417    15214    15079    15045    15070    15107 
   15156    15219    15286    15352    15448    15592    15768    15924 
   16024    16056    16020    15913    15749    15560    15395    15317 
   15381    15574    15801    15959    15989    15862    15604    15288 
   14997    14787    14675    14632    14625    14616    14574    14520 
   14517    14601    14742    14897    15055    15228    15431    15661 
   15911    16181    16452    16696    16872    16934    16858    16611 
   16204    15726    15272    14893    14647    14566    14600    14662 
   14688    14671    14621    14558    14527    14570    14708    14964 
   15341    15782    16189    16479    16610    16575    16428    16262 
   16151    16109    16116    16125    16066    15894    15619    15253 
   14835    14447    14187    14103    14175    14361    14615    14881 
   15080    15178    15205    15221    15261    15342    15464    15643 
   15888    16170    16436    16630    16700    16617    16394    16092 
   15785    15523    15321    15159    15010    14874    14754    14624 
   14473    14349    14292    14276    14262    14256    14299    14420 
   14608    14818    15021    15203    15367    15523    15664    15786 
   15888    15947    15938    15873    15805    15763    15739    15724 
   15718    15692    15626    15535    15446    15372    15314    15252 
   15174    15105    15072    15090    15179    15334    15508    15654 
   15750    15793    15788    15751    15715    15696    15696    15701 
   15691    15643    15572    15525    15552    15642    15734    15773 
   15734    15618    15450    15267    15093    14947    14831    14747 
   14696    14686    14751    14904    15117    15329    15483    15550 
   15520    15403    15238    15071    14931    14871    14937    15113 
   15330    15508    15606    15642    15669    15722    15803    15876 
   15903    15869    15768    15600    15402    15232    15118    15043 
   14972    14902    14847    14796    14736    14669    14589    14501 
   14438    14435    14519    14706    14972    15260    15542    15827 
   16101    16313    16433    16467    16425    16305    16119    15909 
   15727    15588    15471    15353    15232    15124    15039    14975 
   14924    14893    14909    14989    15120    15287    15458    15603 
   15704    15754    15766    15762    15753    15743    15716    15653 
   15560    15449    15325    15203    15105    15043    15022    15040 
   15059    15032    14933    14806    14737    14798    15022    15377 
   15763    16081    16294    16416    16456    16437    16370    16254 
   16105    15939    15777    15655    15606    15635    15705    15745 
   15688    15519    15272    15014    14814    14693    14640    14648 
   14727    14864    15021    15151    15228    15265    15290    15287 
   15242    15190    15186    15273    15439    15638    15816    15932 
   15954    15862    15678    15449    15215    15021    14905    14887 
   14963    15097    15244    15387    15511    15587    15581    15503 
   15384    15256    15136    15032    14953    14941    15017    15164 
   15354    15558    15763    15959    16110    16170    16141    16050 
   15912    15746    15558    15345    15114    14890    14697    14536 
   14412    14362    14439    14666    15006    15368    15674    15896 
   16029    16086    16098    16098    16098    16083    16024    15909 
   15759    15597    15425    15253    15105    14964    14820    14696 
   14634    14651    14709    14748    14756    14758    14804    14921 
   15079    15221    15299    15290    15202    15066    14940    14902 
   14986    15157    15356    15545    15699    15792    15811    15761 
   15668    15546    15407    15248    15066    14868    14683    14555 
   14532    14634    14824    15034    15219    15371    15514    15681 
   15894    16127    16310    16386    16335    16175    15977    15820 
   15734    15688    15650    15616    15584    15541    15498    15485 
   15519    15568    15587    15577    15564    15579    15630    15691 
   15724    15722    15707    15716    15749    15773    15742    15630 
   15469    15322    15215    15133    15039    14916    14787    14679 
   14598    14540    14509    14517    14571    14685    14866    15093 
   15333    15554    15716    15815    15896    15989    16074    16116 
   16098    16005    15840    15646    15481    15363    15276    15217 
   15178    15148    15134    15134    15115    15063    14990    14912 
   14850    14840    14912    15059    15246    15425    15554    15614 
   15622    15595    15531    15438    15368    15375    15468    15622 
   15797    15940    16001    15939    15754    15487    15207    14974 
   14820    14748    14735    14763    14847    15017    15264    15525 
   15736    15881    15966    16015    16043    16048    16017    15963 
   15927    15919    15896    15808    15646    15430    15196    15001 
   14905    14918    14994    15083    15160    15213    15248    15257 
   15214    15122    15022    14939    14889    14886    14945    15074 
   15273    15535    15834    16110    16293    16333    16227    16027 
   15808    15643    15585    15639    15755    15861    15904    15876 
   15793    15680    15552    15410    15248    15059    14844    14635 
   14472    14389    14411    14540    14762    15060    15404    15728 
   15955    16046    16017    15938    15878    15869    15889    15888 
   15809    15642    15430    15237    15097    15029    15034    15076 
   15115    15156    15217    15287    15331    15318    15240    15122 
   14991    14855    14716    14605    14558    14601    14736    14928 
   15122    15272    15361    15408    15426    15406    15341    15253 
   15171    15126    15134    15178    15205    15194    15163    15129 
   15099    15090    15120    15168    15217    15272    15352    15442 
   15511    15535    15495    15377    15214    15063    14970    14945 
   14979    15070    15215    15392    15572    15747    15915    16047 
   16113    16098    16006    15869    15730    15633    15603    15639 
   15723    15835    15950    16040    16086    16077    15997    15849 
   15657    15472    15327    15233    15179    15155    15164    15223 
   15341    15503    15678    15812    15847    15768    15618    15462 
