Origin Time       2024/04/02 04:24:00
Lat.              40.133
Long.             141.712
Depth. (km)       71
Mag.              6.0
Station Code      HKD112
Station Lat.      41.9370
Station Long.     143.2403
Station Height(m) 15
Record Time       2024/04/02 04:25:37
Sampling Freq(Hz) 100Hz
Duration Time(s)  66
Dir.              N-S
Scale Factor      7845(gal)/8223790
Max. Acc. (gal)   4.296
Last Correction   2024/04/02 04:25:37
Memo.             
[...]
     915     1089     1256     1243     1190     1348     1617     1620 
    1275      950      915     1074     1236     1277     1165     1042 
    1039     1202     1545     1858     1825     1514     1316     1404 
    1487     1231      792      592      727      970     1107     1111 
    1148     1301     1435     1453     1486     1645     1761     1698 
    1576     1445     1219      994      905      903      895      858 
     842      915     1104     1421     1837     2080     1849     1310 
     931      927     1097     1129     1031     1040     1156     1273 
    1439     1620     1621     1412     1186     1148     1260     1286 
    1188     1204     1429     1636     1594     1379     1262     1308 
    1291     1116     1036     1194     1372     1432     1482     1553 
    1503     1208      799      625      780     1013     1161     1250 
    1354     1539     1728     1784     1705     1510     1237     1021 
    1008     1216     1453     1490     1402     1470     1645     1611 
    1296      926      761      884     1155     1374     1487     1518 
    1386     1082      873      989     1297     1417     1205      993 
    1086     1343     1458     1333     1105      984     1035     1146 
    1287     1566     1876     1915     1560     1054      842     1032 
    1170      954      716      868     1220     1275     1055     1043 
    1306     1404     1196     1035     1143     1398     1613     1695 
    1678     1633     1505     1262     1117     1173     1169      930 
     707      807     1159     1432     1549     1717     1842     1644 
    1331     1308     1452     1412     1186     1080     1205     1310 
    1262     1274     1445     1629     1711     1653     1455     1196 
    1004      897      810      718      657      712     1004     1498 
    1908     1954     1688     1378     1198     1197     1279     1235 
    1009      801      827     1077     1398     1674     1772     1571 
    1237     1231     1629     1854     1541     1050      830      834 
     785      631      525      602      891     1250     1499     1676 
    1868     1960     1856     1667     1505     1395     1270      967 
     603      554      878     1235     1343     1228     1171     1345 
    1706     2134     2327     1993     1359      957      931      957 
     766      576      773     1260     1597     1625     1521     1476 
    1472     1395     1293     1263     1275     1293     1314     1358 
    1418     1439     1443     1439     1298     1089     1124     1379 
    1417     1085      812      961     1248     1189      874      851 
    1336     1907     2043     1752     1455     1336     1165      839 
     622      704      918      986      903      927     1196     1540 
    1719     1640     1418     1297     1348     1389     1302     1223 
    1294     1405     1305     1003      835      966     1117     1055 
     965     1090     1340     1522     1621     1676     1710     1678 
    1532     1389     1335     1270     1156     1051      997     1044 
    1154     1161     1046      950      939     1048     1355     1738 
    1941     1856     1611     1464     1486     1474     1304     1031 
     788      738      954     1417     1890     1865     1298      877 
    1065     1498     1597     1325     1077     1031     1028     1034 
    1177     1371     1306      958      820     1235     1806     1937 
    1597     1208     1055     1138     1297     1274      976      758 
     965     1354     1464     1262     1090     1202     1494     1703 
    1775     1786     1655     1233      706      523      714      781 
     569      523      893     1399     1687     1688     1574     1499 
    1516     1641     1736     1580     1247      997      965     1086 
    1181     1148     1100     1152     1310     1532     1730     1802 
    1722     1549     1381     1294     1236     1131     1048     1063 
    1067      961      874     1026     1360     1521     1343     1131 
    1173     1368     1485     1449     1370     1310     1228     1125 
    1067     1112     1247     1360     1348     1225     1169     1306 
    1433     1344     1201     1174     1131      993      967     1190 
    1452     1444     1189     1059     1248     1551     1686     1564 
    1337     1201     1200     1300     1386     1270      999      869 
     953     1096     1283     1572     1845     1861     1551     1219 
    1100      959      668      540      781     1139     1224     1125 
    1325     1786     1933     1667     1462     1517     1557     1381 
    1124      997      972      869      726      765     1023     1312 
    1462     1512     1640     1864     1989     1898     1622     1246 
     951      897      905      689      328      267      751     1439 
    1802     1723     1513     1487     1628     1713     1638     1462 
    1200      870      695      868     1185     1321     1283     1386 
    1776     2134     2079     1694     1426     1520     1669     1444 
     924      538      464      556      657      749      909     1165 
    1462     1725     1799     1601     1340     1260     1310     1262 
     997      660      552      797     1115     1227     1320     1653 
    2026     2080     1879     1768     1809     1713     1329      895 
     756      895      918      675      565      880     1273     1310 
    1144     1235     1669     1989     1761     1223      999     1243 
    1498     1339      913      702      845     1138     1381     1493 
    1584     1782     1949     1863     1547     1255     1140     1117 
    1039      922      943     1113     1196     1098     1036     1232 
    1588     1750     1622     1482     1555     1741     1698     1306 
     965     1021     1251     1240      951      710      754      954 
    1132     1335     1526     1521     1347     1158      931      634 
     445      544      869     1158     1314     1487     1669     1674 
    1566     1593     1756     1777     1439      950      823     1194 
    1570     1494     1124      958     1163     1383     1305     1102 
    1069     1196     1293     1296     1328     1363     1163      751 
     492      670     1169     1609     1784     1842     1966     2130 
    2155     1908     1494     1144      904      719      602      606 
     816     1100     1169     1111     1208     1464     1713     1873 
    1996     2077     1933     1459      893      611      707      826 
     622      372      596     1182     1625     1807     1938     2057 
    2004     1752     1458     1228     1031      857      812      962 
    1229     1499     1629     1487     1233     1246     1544     1610 
    1143      648      712     1065     1047      765      834     1250 
    1537     1644     1863     2168     2189     1798     1350     1169 
    1183     1131      835      413      260      558      990     1174 
    1192     1398     1814     2130     2164     1977     1699     1416 
    1182      963      711      449      234      247      666     1283 
    1674     1740     1741     1842     1929     1898     1786     1606 
    1312      946      727      729      727      634      662      942 
    1289     1475     1583     1784     1934     1838     1660     1629 
    1605     1351      984      761      657      599      742     1111 
    1386     1367     1286     1463     1811     2003     1900     1552 
    1127      881      908     1032      999      714      477      747 
    1456     1960     1841     1421     1308     1638     1906     1614 
     967      546      575      822      969      977     1062     1286 
    1506     1694     1875     1945     1825     1591     1393     1351 
    1389     1333     1112      791      626      850     1219     1306 
    1082      861      897     1159     1402     1503     1630     1853 
    1888     1579     1212     1108     1200     1155      882      719 
     931     1328     1628     1772     1794     1740     1664     1561 
    1412     1290     1264     1247     1066      696      413      526 
     949     1336     1491     1432     1345     1445     1725     1968 
    1941     1566     1013      584      472      669      977     1096 
     946      862     1166     1686     1953     1775     1458     1417 
    1648     1780     1547     1061      702      729      965     1017 
     822      668      797     1166     1486     1605     1726     1962 
    2106     1965     1566     1167      990      942      816      635 
     619      805     1019     1244     1536     1707     1588     1363 
    1264     1215     1075      965     1051     1221     1279     1286 
    1401     1615     1791     1825     1755     1737     1795     1757 
    1498     1086      695      395      213      286      626      988 
    1190     1323     1487     1601     1611     1642     1817     1976 
    1788     1374     1208     1237      996      556      542     1115 
    1544     1270      812      963     1605     2007     1877     1615 
    1686     1902     1599      818      419      718     1098      982 
     595      680     1274     1593     1437     1397     1717     2025 
    1931     1498     1063      818      747      747      746      788 
     895     1011     1131     1291     1472     1634     1809     1972 
    1910     1510     1043      872     1016     1186     1167     1090 
    1240     1480     1443     1327     1572     1896     1695     1142 
     896     1065     1240     1177     1020     1044     1215     1300 
    1312     1375     1410     1325     1185     1135     1264     1452 
    1505     1414     1221     1020     1024     1235     1399     1347 
    1116      907      884     1038     1296     1537     1564     1385 
    1225     1233     1372     1506     1556     1503     1239      868 
     793     1094     1333     1170      850      832     1183     1556 
    1649     1587     1705     1949     1917     1571     1325     1332 
    1352     1236     1084     1017      972      865      891     1177 
    1458     1470     1327     1318     1483     1572     1444     1244 
    1146     1088      866      538      483      877     1306     1283 
    1004     1086     1593     1931     1764     1428     1304     1256 
    1004      738      781      980     1042     1005      993     1039 
    1225     1501     1590     1464     1456     1671     1761     1486 
    1179     1196     1286     1096      768      708     1019     1389 
    1543     1483     1360     1413     1722     1972     1831     1468 
    1331     1420     1343     1020      777      807      928      961 
    1005     1185     1408     1507     1517     1621     1771     1695 
    1347      957      747      796      965     1012      913      892 
    1090     1366     1444     1278     1121     1129     1244     1405 
    1472     1320     1175     1341     1718     1880     1601     1233 
    1232     1452     1464     1204      953      892      880      796 
     862     1205     1532     1553     1410     1448     1703     1880 
    1796     1580     1472     1475     1321     1008      869      945 
     967      904      947     1193     1463     1441     1151      970 
    1059     1212     1202     1094     1138     1355     1533     1632 
    1857     2191     2218     1746     1134      830      873      938 
     781      540      573      965     1366     1512     1517     1556 
    1603     1587     1556     1522     1428     1318     1186      889 
     484      305      546      986     1366     1752     2184     2380 
    2112     1591     1213     1050      872      618      527      793 
    1235     1475     1402     1286     1360     1464     1395     1279 
    1231     1152      977      801      870     1236     1571     1644 
    1621     1703     1782     1594     1155      801      693      708 
     837     1132     1485     1784     1956     1975     2091     2396 
    2447     1903     1090      596      594      733      735      726 
     839      993     1096     1291     1773     2289     2322     1891 
    1591     1782     2124     2065     1547     1069      993     1017 
     680      145       -9      326      718      922     1158     1566 
    1868     1817     1572     1305      924      537      450      641 
     801      799      766      876     1086     1212     1205     1189 
    1248     1306     1250     1210     1468     1966     2388     2556 
    2474     2243     2022     1910     1883     1783     1479     1001 
     487       76     -264     -635     -962    -1020     -557      450 
    1551     2273     2728     3218     3690     3921     3738     3083 
    2180     1399      932      730      687      761      882      904 
     785      668      739     1011     1159      922      525      184 
    -232     -708     -935     -750     -216      529     1278     1896 
    2342     2454     2034     1166      356      253      935     1755 
    2147     2191     2400     3083     3821     4077     3975     3807 
    3456     2755     1818      922      189     -508    -1175    -1487 
   -1206     -548       40      265      252      353      675     1043 
    1347     1625     1894     2038     1948     1701     1503     1470 
    1518     1528     1490     1439     1514     1858     2212     2262 
    2153     2107     2091     1972     1594      953      275     -186 
    -306     -114      297      861     1480     1950     2095     2097 
    2290     2470     2060     1055      135     -220     -286     -491 
    -629     -256      572     1579     2739     4023     5151     5772 
    5586     4445     2617      720     -708    -1602    -2207    -2377 
   -1632     -182      994     1325     1161      982      664      -86 
    -985    -1320     -634      858     2528     3928     4891     5108 
    4252     2650     1259      700      691      696      808     1432 
    2381     2953     2722     1895     1015      469      378      676 
    1081     1223     1036      810      699      432     -202     -920 
   -1224     -838      163     1437     2629     3549     4024     3933 
    3435     2791     2010      977      -24     -349      124      751 
     970      872      943     1397     1942     2265     2285     2065 
    1688     1036       62     -827    -1179     -986     -480      206 
    1148     2323     3289     3674     3582     3137     2278     1085 
    -143     -990    -1215     -923     -270      722     1906     2994 
    3762     4083     3929     3403     2690     1996     1306      386 
    -684    -1445    -1610    -1212     -442      456     1282     1956 
    2489     2744     2501     1799      972      423      390      680 
     915     1016     1128     1282     1379     1329     1244     1404 
    1858     2344     2594     2516     2172     1624      896      108 
    -467     -479      294     1618     2845     3478     3468     2984 
    2197     1258      380     -202     -494     -654     -639     -251 
     592     1696     2546     2764     2581     2400     2241     1910 
    1390      843      433      195      149      402      931     1452 
    1723     1809     1899     2038     1964     1455      837      579 
     642      719      675      630      847     1360     1915     2311 
    2459     2293     1898     1533     1399     1360     1088      645 
     541      990     1567     1629     1007      275       56      309 
     608      781     1057     1605     2111     2214     1991     1617 
    1162      816      797     1107     1537     1856     2029     2120 
    2062     1784     1375      966      652      508      491      491 
     542      769     1252     1971     2704     3086     2925     2351 
    1601      832      178     -255     -386     -190      221      745 
    1444     2366     3265     3643     3310     2686     2103     1359 
     386     -406     -669     -414      152      795     1298     1475 
    1327     1082      888      766      789      928      958      774 
     548      471      506      500      495      648      970     1413 
    1995     2608     2952     2909     2763     2701     2450     1844 
    1117      464      -52     -324     -230      263     1020     1795 
    2392     2666     2658     2625     2659     2500     1912      988 
     -14     -895    -1493    -1655    -1336     -615      368     1557 
    2953     4309     5189     5362     4864     3816     2357      634 
   -1135    -2536    -3084    -2697    -1745     -616      442     1263 
    1863     2398     2905     3230     3168     2654     1935     1391 
    1065      639        1     -481     -438      -10      346      477 
     707     1362     2286     3036     3329     3204     2810     2178 
    1328      448     -238     -596     -492      205     1402     2598 
    3242     3203     2701     2085     1620     1316     1075      880 
     762      805     1038     1201     1036      764      861     1453 
    2172     2678     3090     3550     3720     3208     2149     1001 
      39     -799    -1518    -1745    -1236     -411      229      746 
    1343     1842     1952     1740     1636     1875     2243     2482 
    2577     2637     2663     2442     1837     1128      760      797 
     980     1204     1543     1934     2207     2305     2324     2299 
    2079     1545      824      197     -128     -187     -156      -90 
     141      641     1285     1749     1795     1563     1340     1196 
    1109     1161     1390     1664     1813     1865     1981     2073 
    1880     1447     1061      816      564      207     -135     -302 
    -294     -183       70      523     1046     1358     1378     1405 
    1714     2170     2517     2785     3141     3430     3214     2408 
    1466      781      306      -95     -330     -328     -199       -9 
     310      724     1015     1089     1155     1355     1642     2035 
    2529     2851     2639     1844      850      176       -1      101 
     346      814     1499     2343     3214     3798     3798     3171 
    2099      877     -178     -873    -1186    -1181     -869     -170 
     861     1914     2700     3198     3531     3711     3574     2976 
    1979      897      166      -47      -36     -128     -268     -302 
    -263     -160      130      692     1387     1918     2169     2266 
    2172     1676      846       93     -256     -175      218      756 
    1252     1625     1888     2072     2226     2467     2870     3323 
    3596     3528     3133     2529     1803      889     -241    -1279 
   -1750    -1460     -623      359     1262     2085     2759     3060 
    2833     2162     1370      797      603      835     1494     2295 
    2732     2614     2195     1695     1043      176     -660     -977 
    -486      531     1471     1954     1992     1848     1710     1512 
    1136      680      445      684     1278     1868     2238     2366 
    2197     1657      865       89     -432     -588     -444     -113 
     329      778     1115     1336     1561     1939     2428     2718 
    2621     2397     2447     2844     3237     3180     2578     1714 
     922      465      469      724      822      623      382      411 
     735      963      688       48     -444     -454       10      739 
    1487     2079     2439     2671     2971     3380     3693     3657 
    3199     2440     1559      623     -422    -1490    -2296    -2654 
