Origin Time       2024/04/02 04:24:00
Lat.              40.133
Long.             141.712
Depth. (km)       71
Mag.              6.0
Station Code      HKD146
Station Lat.      42.8076
Station Long.     140.6878
Station Height(m) 147
Record Time       2024/04/02 04:25:56
Sampling Freq(Hz) 100Hz
Duration Time(s)  60
Dir.              E-W
Scale Factor      7845(gal)/8223790
Max. Acc. (gal)   2.111
Last Correction   2024/04/02 04:25:56
Memo.             
[...]
   -7751    -7861    -7947    -7985    -7971    -7942    -7935    -7960 
   -8023    -8113    -8193    -8245    -8291    -8330    -8347    -8363 
   -8401    -8449    -8498    -8532    -8530    -8480    -8370    -8203 
   -8025    -7878    -7780    -7730    -7728    -7762    -7815    -7885 
   -7971    -8070    -8170    -8252    -8294    -8284    -8232    -8143 
   -8044    -7947    -7831    -7700    -7595    -7547    -7564    -7628 
   -7703    -7751    -7758    -7732    -7695    -7665    -7649    -7650 
   -7674    -7727    -7801    -7878    -7924    -7905    -7811    -7659 
   -7497    -7375    -7326    -7371    -7481    -7622    -7759    -7861 
   -7909    -7916    -7885    -7831    -7776    -7734    -7711    -7715 
   -7749    -7800    -7838    -7844    -7812    -7766    -7757    -7808 
   -7901    -7994    -8051    -8083    -8122    -8172    -8221    -8264 
   -8309    -8356    -8388    -8378    -8317    -8203    -8043    -7873 
   -7747    -7690    -7700    -7742    -7761    -7728    -7678    -7669 
   -7719    -7793    -7852    -7894    -7940    -7994    -8040    -8068 
   -8071    -8043    -7993    -7958    -7967    -8004    -8017    -7982 
   -7928    -7906    -7936    -8002    -8074    -8127    -8162    -8193 
   -8208    -8197    -8170    -8147    -8129    -8105    -8056    -7981 
   -7898    -7825    -7766    -7720    -7688    -7695    -7757    -7847 
   -7923    -7959    -7960    -7956    -7969    -7982    -7967    -7938 
   -7923    -7928    -7942    -7944    -7936    -7938    -7954    -7960 
   -7938    -7890    -7831    -7774    -7717    -7653    -7600    -7580 
   -7593    -7624    -7669    -7731    -7789    -7828    -7854    -7877 
   -7889    -7890    -7894    -7913    -7938    -7952    -7959    -7967 
   -7971    -7973    -7987    -8031    -8082    -8114    -8112    -8064 
   -7983    -7900    -7839    -7816    -7828    -7844    -7848    -7850 
   -7861    -7871    -7866    -7844    -7803    -7727    -7627    -7554 
   -7561    -7655    -7796    -7916    -7985    -8008    -8005    -7983 
   -7936    -7862    -7777    -7700    -7646    -7636    -7682    -7769 
   -7861    -7936    -8004    -8071    -8140    -8206    -8248    -8263 
   -8274    -8297    -8332    -8361    -8345    -8253    -8093    -7905 
   -7753    -7669    -7628    -7595    -7558    -7541    -7570    -7650 
   -7757    -7848    -7893    -7905    -7933    -7993    -8048    -8074 
   -8079    -8085    -8093    -8101    -8105    -8112    -8122    -8110 
   -8071    -8031    -8005    -7982    -7950    -7912    -7896    -7908 
   -7916    -7885    -7812    -7719    -7657    -7646    -7670    -7717 
   -7769    -7820    -7889    -7952    -7955    -7893    -7784    -7663 
   -7584    -7561    -7581    -7626    -7668    -7686    -7693    -7704 
   -7715    -7700    -7653    -7600    -7566    -7555    -7558    -7568 
   -7585    -7616    -7639    -7636    -7623    -7626    -7649    -7685 
   -7730    -7774    -7809    -7850    -7921    -8037    -8181    -8314 
   -8398    -8419    -8394    -8351    -8313    -8276    -8213    -8112 
   -7983    -7857    -7765    -7739    -7777    -7839    -7902    -7967 
   -8048    -8140    -8201    -8201    -8136    -8012    -7852    -7701 
   -7600    -7551    -7530    -7530    -7574    -7665    -7767    -7866 
   -7966    -8060    -8129    -8160    -8155    -8118    -8060    -8009 
   -7992    -8014    -8060    -8121    -8189    -8248    -8297    -8333 
   -8351    -8334    -8275    -8166    -8036    -7933    -7900    -7938 
   -8028    -8145    -8260    -8334    -8348    -8307    -8243    -8167 
   -8079    -7983    -7896    -7851    -7875    -7939    -7985    -7979 
   -7936    -7878    -7823    -7789    -7793    -7825    -7861    -7900 
   -7955    -8023    -8085    -8125    -8125    -8071    -7955    -7803 
   -7670    -7580    -7501    -7411    -7310    -7214    -7171    -7206 
   -7284    -7360    -7419    -7497    -7623    -7774    -7901    -7959 
   -7925    -7816    -7661    -7497    -7360    -7263    -7223    -7257 
   -7339    -7437    -7537    -7638    -7735    -7828    -7906    -7958 
   -7992    -8027    -8067    -8101    -8122    -8144    -8191    -8280 
   -8398    -8510    -8579    -8592    -8567    -8519    -8457    -8402 
   -8382    -8383    -8372    -8332    -8291    -8274    -8272    -8282 
   -8286    -8263    -8218    -8175    -8147    -8131    -8109    -8077 
   -8035    -7986    -7936    -7890    -7839    -7771    -7692    -7631 
   -7616    -7639    -7674    -7711    -7743    -7770    -7790    -7805 
   -7816    -7824    -7823    -7811    -7790    -7762    -7724    -7681 
   -7639    -7614    -7611    -7624    -7647    -7665    -7668    -7665 
   -7676    -7680    -7655    -7609    -7564    -7545    -7570    -7631 
   -7689    -7727    -7753    -7770    -7771    -7761    -7747    -7730 
   -7700    -7673    -7659    -7678    -7732    -7793    -7840    -7862 
   -7859    -7847    -7850    -7877    -7927    -7969    -7993    -8020 
   -8048    -8059    -8056    -8041    -8009    -7959    -7897    -7851 
   -7846    -7863    -7865    -7835    -7786    -7731    -7689    -7676 
   -7688    -7722    -7776    -7857    -7948    -8032    -8086    -8100 
   -8075    -8024    -7967    -7927    -7894    -7875    -7896    -7958 
   -8039    -8120    -8191    -8240    -8255    -8221    -8156    -8090 
   -8031    -7975    -7919    -7850    -7776    -7732    -7731    -7747 
   -7766    -7784    -7798    -7805    -7809    -7813    -7813    -7812 
   -7830    -7861    -7877    -7873    -7865    -7861    -7870    -7892 
   -7912    -7919    -7912    -7889    -7861    -7840    -7830    -7824 
   -7828    -7839    -7839    -7834    -7854    -7916    -8004    -8091 
   -8167    -8225    -8252    -8243    -8209    -8166    -8106    -8027 
   -7962    -7955    -8008    -8078    -8127    -8149    -8160    -8158 
   -8143    -8135    -8159    -8194    -8197    -8160    -8100    -8043 
   -8014    -8029    -8066    -8093    -8105    -8117    -8143    -8176 
   -8199    -8183    -8109    -7986    -7844    -7728    -7681    -7713 
   -7800    -7902    -7987    -8040    -8067    -8078    -8064    -8014 
   -7924    -7815    -7731    -7699    -7712    -7751    -7785    -7777 
   -7724    -7650    -7588    -7569    -7588    -7609    -7626    -7659 
   -7720    -7804    -7886    -7929    -7935    -7932    -7944    -7967 
   -7981    -7954    -7881    -7785    -7697    -7650    -7654    -7690 
   -7740    -7801    -7878    -7956    -8008    -8028    -8046    -8073 
   -8102    -8122    -8124    -8108    -8067    -7998    -7911    -7827 
   -7761    -7719    -7709    -7727    -7757    -7782    -7803    -7808 
   -7789    -7736    -7658    -7578    -7515    -7470    -7434    -7411 
   -7420    -7473    -7564    -7678    -7786    -7850    -7878    -7921 
   -7998    -8075    -8118    -8147    -8186    -8232    -8262    -8253 
   -8216    -8162    -8097    -8037    -8013    -8020    -8031    -8028 
   -8005    -7965    -7912    -7846    -7759    -7649    -7534    -7449 
   -7418    -7449    -7515    -7582    -7662    -7776    -7915    -8052 
   -8159    -8217    -8239    -8237    -8220    -8186    -8133    -8059 
   -7974    -7902    -7870    -7871    -7879    -7871    -7838    -7790 
   -7754    -7734    -7708    -7677    -7662    -7670    -7685    -7697 
   -7722    -7761    -7786    -7777    -7742    -7708    -7684    -7659 
   -7642    -7643    -7669    -7713    -7778    -7867    -7967    -8054 
   -8105    -8117    -8105    -8079    -8059    -8075    -8127    -8181 
   -8214    -8222    -8205    -8176    -8158    -8155    -8144    -8105 
   -8041    -7969    -7897    -7842    -7792    -7730    -7661    -7607 
   -7589    -7624    -7704    -7809    -7919    -8005    -8044    -8039 
   -8021    -8006    -7983    -7950    -7906    -7861    -7828    -7812 
   -7819    -7854    -7893    -7908    -7900    -7884    -7866    -7840 
   -7801    -7761    -7716    -7665    -7618    -7600    -7628    -7686 
   -7749    -7807    -7851    -7870    -7885    -7924    -7979    -8019 
   -8023    -8006    -7997    -8010    -8046    -8081    -8100    -8101 
   -8093    -8075    -8056    -8035    -7997    -7942    -7892    -7874 
   -7897    -7948    -7998    -8010    -7977    -7909    -7839    -7794 
   -7778    -7766    -7749    -7742    -7766    -7827    -7908    -7979 
   -8013    -8005    -7978    -7966    -7982    -8014    -8048    -8070 
   -8064    -8036    -8000    -7967    -7946    -7948    -7975    -8009 
   -8012    -7974    -7915    -7858    -7819    -7794    -7765    -7716 
   -7659    -7612    -7573    -7550    -7561    -7601    -7658    -7713 
   -7766    -7819    -7855    -7854    -7834    -7821    -7819    -7816 
   -7784    -7700    -7582    -7465    -7398    -7406    -7458    -7523 
   -7607    -7719    -7843    -7956    -8040    -8090    -8133    -8194 
   -8278    -8370    -8453    -8519    -8560    -8559    -8522    -8476 
   -8428    -8365    -8294    -8230    -8190    -8178    -8182    -8195 
   -8217    -8230    -8221    -8170    -8079    -7977    -7902    -7875 
   -7897    -7952    -8002    -8014    -7994    -7969    -7958    -7965 
   -7974    -7967    -7933    -7879    -7831    -7809    -7808    -7820 
   -7844    -7882    -7923    -7950    -7963    -7977    -7998    -8020 
   -8036    -8035    -8001    -7952    -7927    -7927    -7921    -7882 
   -7825    -7763    -7703    -7653    -7618    -7588    -7576    -7599 
   -7659    -7755    -7878    -8000    -8090    -8137    -8145    -8114 
   -8064    -8006    -7938    -7859    -7790    -7728    -7673    -7624 
   -7578    -7550    -7562    -7620    -7724    -7854    -7977    -8082 
   -8175    -8249    -8287    -8283    -8256    -8225    -8198    -8174 
   -8145    -8108    -8051    -7973    -7874    -7751    -7616    -7481 
   -7364    -7290    -7285    -7344    -7425    -7485    -7514    -7522 
   -7506    -7469    -7429    -7396    -7373    -7356    -7349    -7369 
   -7415    -7476    -7549    -7628    -7727    -7848    -7977    -8086 
   -8171    -8240    -8299    -8332    -8311    -8244    -8152    -8066 
   -8019    -8036    -8102    -8183    -8255    -8322    -8395    -8459 
   -8484    -8464    -8402    -8311    -8216    -8152    -8144    -8181 
   -8237    -8311    -8424    -8579    -8752    -8904    -9007    -9043 
   -9018    -8942    -8837    -8729    -8619    -8503    -8382    -8275 
   -8209    -8193    -8191    -8167    -8105    -7996    -7843    -7669 
   -7489    -7312    -7167    -7084    -7071    -7109    -7168    -7229 
   -7290    -7360    -7446    -7542    -7635    -7704    -7715    -7651 
   -7531    -7371    -7190    -7018    -6883    -6806    -6782    -6777 
   -6785    -6831    -6905    -6984    -7064    -7136    -7195    -7237 
   -7267    -7298    -7338    -7383    -7434    -7491    -7553    -7630 
   -7712    -7788    -7858    -7916    -7931    -7881    -7777    -7659 
   -7558    -7483    -7427    -7389    -7383    -7423    -7528    -7690 
   -7878    -8052    -8185    -8283    -8372    -8472    -8591    -8722 
   -8847    -8957    -9038    -9074    -9069    -9027    -8947    -8824 
   -8671    -8500    -8332    -8170    -8002    -7813    -7599    -7391 
   -7225    -7130    -7134    -7252    -7460    -7705    -7946    -8159 
   -8325    -8422    -8436    -8392    -8344    -8301    -8253    -8226 
   -8245    -8301    -8371    -8429    -8444    -8405    -8318    -8194 
   -8060    -7956    -7898    -7875    -7870    -7861    -7831    -7788 
   -7751    -7738    -7747    -7757    -7762    -7782    -7835    -7900 
   -7951    -7975    -7955    -7898    -7846    -7843    -7917    -8059 
   -8240    -8432    -8584    -8654    -8641    -8580    -8517    -8475 
   -8444    -8399    -8310    -8162    -7982    -7827    -7750    -7742 
   -7773    -7838    -7939    -8051    -8128    -8136    -8089    -8016 
   -7935    -7848    -7771    -7732    -7750    -7798    -7831    -7811 
   -7728    -7599    -7468    -7384    -7356    -7360    -7373    -7387 
   -7412    -7434    -7420    -7373    -7295    -7194    -7113    -7107 
   -7215    -7433    -7724    -8037    -8303    -8484    -8573    -8580 
   -8506    -8345    -8104    -7811    -7480    -7128    -6824    -6646 
   -6616    -6689    -6810    -6956    -7109    -7253    -7388    -7511 
   -7647    -7811    -7985    -8178    -8421    -8708    -8981    -9174 
   -9254    -9220    -9097    -8932    -8750    -8560    -8378    -8229 
   -8128    -8073    -8023    -7944    -7848    -7765    -7712    -7677 
   -7631    -7577    -7542    -7550    -7609    -7722    -7867    -8008 
   -8097    -8118    -8086    -8009    -7894    -7758    -7627    -7511 
   -7416    -7358    -7366    -7460    -7622    -7805    -7973    -8093 
   -8128    -8073    -7954    -7803    -7654    -7549    -7531    -7624 
   -7821    -8091    -8368    -8586    -8719    -8781    -8785    -8748 
   -8675    -8563    -8409    -8226    -8032    -7835    -7650    -7500 
   -7416    -7407    -7460    -7551    -7681    -7827    -7943    -8014 
   -8060    -8086    -8055    -7946    -7813    -7761    -7850    -8071 
   -8349    -8596    -8739    -8749    -8644    -8444    -8164    -7842 
   -7533    -7308    -7221    -7265    -7402    -7574    -7726    -7792 
   -7739    -7584    -7380    -7187    -7020    -6866    -6733    -6639 
   -6586    -6593    -6673    -6818    -7025    -7277    -7537    -7761 
   -7913    -7966    -7908    -7744    -7510    -7246    -6995    -6794 
   -6675    -6667    -6770    -6949    -7148    -7312    -7433    -7549 
   -7704    -7916    -8174    -8473    -8807    -9159    -9495    -9784 
   -9996   -10112   -10108    -9973    -9728    -9421    -9096    -8784 
   -8522    -8337    -8228    -8159    -8104    -8051    -7996    -7939 
   -7890    -7858    -7850    -7893    -7990    -8108    -8226    -8351 
   -8449    -8495    -8503    -8491    -8453    -8387    -8316    -8248 
   -8162    -8047    -7925    -7839    -7800    -7786    -7777    -7762 
   -7735    -7684    -7611    -7512    -7392    -7250    -7075    -6867 
   -6664    -6521    -6497    -6629    -6889    -7210    -7522    -7767 
   -7906    -7919    -7793    -7551    -7264    -7002    -6805    -6696 
   -6675    -6737    -6853    -6990    -7138    -7327    -7582    -7909 
   -8272    -8606    -8835    -8920    -8877    -8753    -8611    -8500 
   -8456    -8494    -8603    -8756    -8938    -9153    -9355    -9470 
   -9448    -9297    -9070    -8819    -8579    -8374    -8210    -8086 
   -8005    -7955    -7911    -7842    -7755    -7701    -7716    -7778 
   -7844    -7896    -7933    -7973    -8012    -8031    -8006    -7958 
   -7908    -7859    -7812    -7781    -7774    -7782    -7777    -7740 
   -7695    -7661    -7628    -7569    -7457    -7292    -7133    -7056 
   -7102    -7264    -7507    -7771    -7994    -8145    -8235    -8271 
   -8268    -8237    -8170    -8052    -7919    -7809    -7723    -7631 
   -7526    -7414    -7299    -7194    -7115    -7078    -7084    -7121 
   -7179    -7252    -7326    -7384    -7414    -7433    -7496    -7661 
   -7925    -8221    -8445    -8529    -8468    -8328    -8182    -8068 
   -7998    -7971    -7979    -7996    -8001    -8004    -8010    -8017 
   -8029    -8075    -8170    -8284    -8374    -8409    -8406    -8414 
   -8457    -8515    -8564    -8596    -8625    -8652    -8664    -8638 
   -8544    -8345    -8035    -7646    -7234    -6862    -6582    -6434 
   -6442    -6600    -6866    -7168    -7437    -7632    -7762    -7844 
   -7881    -7881    -7882    -7902    -7906    -7850    -7739    -7631 
   -7570    -7553    -7550    -7549    -7566    -7619    -7697    -7770 
   -7827    -7885    -7946    -7990    -8013    -8029    -8071    -8168 
   -8320    -8500    -8668    -8781    -8826    -8797    -8699    -8549 
   -8382    -8224    -8091    -7981    -7886    -7827    -7817    -7835 
   -7838    -7817    -7781    -7723    -7634    -7539    -7458    -7399 
   -7375    -7411    -7534    -7740    -7973    -8154    -8247    -8267 
   -8256    -8279    -8367    -8510    -8679    -8842    -8981    -9094 
   -9177    -9204    -9158    -9011    -8750    -8405    -8029    -7682 
   -7416    -7237    -7115    -7057    -7111    -7291    -7524    -7692 
   -7708    -7582    -7398    -7230    -7119    -7071    -7063    -7092 
   -7195    -7392    -7662    -7942    -8181    -8378    -8553    -8722 
   -8866    -8941    -8908    -8785    -8625    -8483    -8380    -8283 
   -8178    -8075    -7965    -7840    -7726    -7650    -7619    -7609 
   -7603    -7603    -7626    -7693    -7803    -7915    -8023    -8151 
   -8324    -8517    -8649    -8641    -8484    -8237    -7963    -7696 
   -7434    -7169    -6930    -6760    -6689    -6718    -6829    -6988 
   -7163    -7321    -7456    -7568    -7651    -7711    -7769    -7827 
   -7875    -7915    -7938    -7927    -7869    -7786    -7722    -7682 
   -7650    -7599    -7511    -7379    -7211    -7026    -6864    -6781 
   -6794    -6878    -6988    -7078    -7111    -7109    -7117    -7163 
   -7242    -7334    -7437    -7582    -7784    -8017    -8249    -8451 
   -8596    -8700    -8776    -8814    -8796    -8710    -8548    -8311 
   -8031    -7759    -7554    -7453    -7465    -7587    -7811    -8090 
   -8351    -8545    -8660    -8677    -8600    -8478    -8352    -8259 
   -8228    -8249    -8287    -8318    -8348    -8390    -8452    -8523 
   -8579    -8587    -8527    -8414    -8264    -8074    -7855    -7650 
   -7499    -7419    -7412    -7472    -7578    -7695    -7785    -7827 
   -7817    -7782    -7759    -7788    -7878    -8013    -8172    -8321 
   -8421    -8468    -8473    -8464    -8467    -8496    -8550    -8619 
   -8673    -8683    -8623    -8480    -8263    -7994    -7699    -7446 
   -7315    -7337    -7483    -7693    -7900    -8055    -8129    -8116 
   -8031    -7909    -7793    -7715    -7670    -7647    -7620    -7557 
   -7453    -7335    -7238    -7172    -7141    -7165    -7253    -7369 
   -7465    -7514    -7516    -7491    -7460    -7441    -7447    -7481 
   -7553    -7677    -7855    -8056    -8226    -8316    -8305    -8222 
   -8120    -8037    -7993    -7978    -7969    -7952    -7927    -7877 
   -7785    -7663    -7542    -7449    -7393    -7356    -7314    -7272 
   -7260    -7300    -7391    -7507    -7622    -7716    -7803    -7909 
   -8041    -8183    -8316    -8403    -8415    -8374    -8325    -8311 
   -8349    -8448    -8607    -8800    -8964    -9030    -8992    -8892 
   -8764    -8622    -8473    -8338    -8237    -8156    -8089    -8044 
   -8017    -7996    -7973    -7967    -8008    -8079    -8155    -8233 
   -8321    -8414    -8491    -8519    -8478    -8372    -8229    -8075 
   -7947    -7866    -7832    -7847    -7917    -8016    -8077    -8058 
   -7956    -7801    -7628    -7489    -7418    -7418    -7464    -7522 
   -7580    -7649    -7728    -7790    -7817    -7832    -7884    -7993 
   -8135    -8282    -8422    -8536    -8602    -8600    -8525    -8384 
   -8210    -8037    -7915    -7890    -7959    -8070    -8178    -8247 
   -8228    -8105    -7915    -7704    -7503    -7345    -7275    -7319 
   -7461    -7631    -7758    -7835    -7888    -7948    -8020    -8078 
   -8091    -8051    -7952    -7803    -7638    -7495    -7391    -7349 
   -7377    -7443    -7503    -7541    -7549    -7511    -7429    -7322 
   -7229    -7183    -7182    -7223    -7319    -7468    -7642    -7804 
   -7920    -7973    -7947    -7861    -7750    -7643    -7537    -7412 
