Origin Time       2024/04/02 04:24:00
Lat.              40.133
Long.             141.712
Depth. (km)       71
Mag.              6.0
Station Code      HKD127
Station Lat.      42.8743
Station Long.     141.8204
Station Height(m) 61
Record Time       2024/04/02 04:25:53
Sampling Freq(Hz) 100Hz
Duration Time(s)  78
Dir.              U-D
Scale Factor      7845(gal)/8223790
Max. Acc. (gal)   1.379
Last Correction   2024/04/02 04:25:54
Memo.             
[...]
   -3808    -4033    -4155    -4110    -4009    -3882    -3731    -3638 
   -3681    -3819    -3939    -4037    -4193    -4322    -4278    -4132 
   -4067    -4054    -4008    -4048    -4255    -4449    -4419    -4175 
   -3921    -3836    -3897    -3997    -4106    -4151    -4028    -3916 
   -4014    -4086    -3885    -3657    -3678    -3861    -4020    -4105 
   -4131    -4058    -3820    -3565    -3597    -3908    -4136    -4117 
   -4017    -3944    -3840    -3696    -3643    -3781    -3959    -3944 
   -3784    -3740    -3838    -3879    -3892    -4028    -4151    -4059 
   -3944    -4082    -4337    -4423    -4322    -4171    -4018    -3854 
   -3770    -3859    -3987    -3966    -3815    -3716    -3809    -3990 
   -4000    -3802    -3684    -3815    -3986    -4024    -4000    -3933 
   -3804    -3759    -3932    -4145    -4086    -3759    -3565    -3816 
   -4280    -4438    -4216    -4023    -4068    -4148    -4113    -4064 
   -4074    -4028    -3875    -3767    -3882    -4124    -4170    -3866 
   -3470    -3410    -3767    -4191    -4359    -4240    -3986    -3765 
   -3659    -3649    -3686    -3786    -3936    -4048    -4118    -4183 
   -4166    -4056    -4001    -4060    -4120    -4051    -3912    -3893 
   -4059    -4261    -4279    -4087    -3871    -3757    -3728    -3755 
   -3863    -4071    -4236    -4140    -3855    -3728    -3889    -4059 
   -4037    -3956    -3967    -4064    -4140    -4071    -3896    -3819 
   -3844    -3804    -3829    -4121    -4379    -4252    -3970    -3908 
   -4017    -4101    -4151    -4126    -3974    -3882    -4006    -4172 
   -4143    -3963    -3900    -4028    -4085    -3912    -3707    -3672 
   -3792    -3985    -4120    -4066    -3875    -3696    -3639    -3789 
   -4063    -4202    -4104    -4002    -4133    -4349    -4325    -4050 
   -3801    -3754    -3827    -3893    -3956    -4032    -4075    -4027 
   -3854    -3653    -3611    -3762    -3929    -3979    -3991    -4068 
   -4129    -4077    -3948    -3835    -3811    -3888    -3954    -3928 
   -3932    -4066    -4168    -4104    -3969    -3834    -3723    -3807 
   -4122    -4367    -4260    -3928    -3753    -3855    -4058    -4214 
   -4243    -4090    -3890    -3798    -3820    -3935    -4082    -4143 
   -4077    -3966    -3901    -3861    -3802    -3767    -3750    -3728 
   -3773    -3946    -4149    -4225    -4125    -3962    -3861    -3852 
   -3901    -3927    -3900    -3933    -4047    -4037    -3863    -3767 
   -3835    -3913    -3910    -3859    -3832    -3915    -4094    -4230 
   -4186    -3963    -3730    -3681    -3807    -3946    -4014    -4020 
   -3991    -3970    -3997    -4052    -4077    -4062    -4039    -4014 
   -4014    -4018    -3892    -3657    -3589    -3825    -4166    -4324 
   -4222    -4052    -4000    -4020    -3971    -3866    -3874    -4018 
   -4094    -4056    -4095    -4220    -4185    -3915    -3703    -3844 
   -4176    -4288    -4110    -3905    -3819    -3824    -3912    -4028 
   -4051    -4004    -4016    -4082    -4064    -3898    -3757    -3828 
   -4013    -4094    -4066    -4036    -4023    -4012    -4041    -4047 
   -3927    -3796    -3819    -3927    -3974    -3966    -3987    -4035 
   -4023    -3950    -3962    -4093    -4122    -3948    -3763    -3732 
   -3847    -4000    -4008    -3834    -3724    -3846    -3994    -3940 
   -3774    -3674    -3657    -3743    -3994    -4257    -4225    -3897 
   -3663    -3808    -4168    -4390    -4334    -4166    -4078    -4044 
   -3966    -3920    -3981    -4012    -3956    -3973    -4060    -4048 
   -3910    -3829    -3948    -4137    -4190    -4156    -4180    -4179 
   -4029    -3906    -4005    -4155    -4136    -4017    -3970    -4063 
   -4220    -4268    -4118    -3839    -3558    -3451    -3658    -4016 
   -4117    -3850    -3573    -3605    -3816    -3851    -3689    -3709 
   -4066    -4344    -4174    -3809    -3708    -3852    -3923    -3906 
   -4033    -4252    -4272    -4060    -3921    -3993    -4060    -4008 
   -3989    -4056    -4064    -3912    -3674    -3555    -3680    -3917 
   -4064    -4097    -4098    -4040    -3862    -3743    -3898    -4191 
   -4318    -4218    -4052    -4000    -4106    -4217    -4187    -4091 
   -4058    -4028    -3940    -3966    -4178    -4284    -4087    -3770 
   -3612    -3690    -3896    -4095    -4240    -4282    -4168    -3933 
   -3709    -3685    -3928    -4172    -4140    -3951    -3846    -3813 
   -3819    -3940    -4114    -4153    -4014    -3812    -3618    -3454 
   -3423    -3612    -3874    -3944    -3770    -3562    -3535    -3723 
   -3963    -4052    -3979    -3917    -3970    -4112    -4272    -4275 
   -4002    -3697    -3717    -4009    -4206    -4160    -4054    -4079 
   -4175    -4152    -4050    -4031    -4050    -4027    -4025    -4063 
   -4068    -4013    -3874    -3686    -3653    -3834    -3974    -4017 
   -4191    -4433    -4452    -4276    -4135    -4043    -3925    -3866 
   -3958    -4124    -4189    -4067    -3906    -3862    -3861    -3807 
   -3808    -3966    -4132    -4031    -3709    -3595    -3834    -4009 
   -3874    -3759    -3898    -4031    -3937    -3794    -3838    -4010 
   -4060    -3916    -3805    -3931    -4164    -4266    -4224    -4166 
   -4098    -3966    -3838    -3823    -3878    -3867    -3831    -3947 
   -4094    -3948    -3645    -3640    -3983    -4241    -4122    -3843 
   -3736    -3807    -3919    -4070    -4205    -4122    -3844    -3688 
   -3765    -3851    -3847    -3881    -3990    -4052    -4006    -3959 
   -4045    -4213    -4236    -4054    -3909    -3994    -4170    -4228 
   -4207    -4261    -4317    -4140    -3800    -3654    -3801    -3937 
   -3910    -3923    -4040    -3996    -3740    -3651    -3902    -4156 
   -4141    -4012    -4001    -4060    -4004    -3856    -3839    -4033 
   -4272    -4380    -4355    -4248    -4045    -3802    -3708    -3844 
   -4010    -3966    -3762    -3661    -3739    -3846    -3956    -4120 
   -4194    -4095    -4002    -4018    -4056    -4091    -4137    -4125 
   -4047    -4002    -4005    -3955    -3825    -3775    -3898    -4017 
   -4014    -4029    -4126    -4141    -3970    -3774    -3766    -3904 
   -3963    -3904    -3927    -4078    -4136    -3989    -3820    -3796 
   -3828    -3777    -3721    -3788    -3883    -3828    -3661    -3605 
   -3770    -4047    -4239    -4213    -4017    -3827    -3757    -3808 
   -3973    -4175    -4210    -3994    -3751    -3751    -4008    -4266 
   -4286    -4110    -3963    -3939    -3924    -3889    -3964    -4125 
   -4132    -3960    -3883    -4001    -4075    -3954    -3823    -3866 
   -3928    -3858    -3839    -4006    -4166    -4121    -3925    -3766 
   -3748    -3774    -3762    -3820    -3978    -4074    -4041    -4010 
   -4055    -4086    -4008    -3863    -3746    -3700    -3728    -3824 
   -4004    -4195    -4182    -3946    -3807    -3940    -4062    -3904 
   -3661    -3673    -3901    -4058    -4051    -4027    -4014    -3883 
   -3716    -3766    -3990    -4132    -4155    -4179    -4191    -4121 
   -4008    -3939    -3947    -3973    -3917    -3808    -3800    -3932 
   -4098    -4179    -4109    -4016    -4074    -4139    -3994    -3815 
   -3855    -4039    -4140    -4105    -4071    -4147    -4183    -3982 
   -3708    -3645    -3739    -3862    -4086    -4357    -4413    -4151 
   -3770    -3555    -3593    -3742    -3929    -4191    -4364    -4247 
   -3994    -3873    -3873    -3888    -3935    -4006    -4037    -4033 
   -4070    -4140    -4140    -4020    -3827    -3692    -3763    -4004 
   -4207    -4248    -4131    -3937    -3732    -3555    -3535    -3724 
   -3917    -3982    -4029    -4083    -4086    -4067    -4023    -3960 
   -4035    -4287    -4480    -4368    -4012    -3747    -3834    -4091 
   -4162    -3975    -3744    -3670    -3804    -4044    -4236    -4345 
   -4379    -4268    -4066    -3966    -4014    -4048    -3964    -3896 
   -4001    -4214    -4255    -3950    -3531    -3372    -3524    -3797 
   -4001    -4008    -3878    -3812    -3885    -4010    -4074    -4021 
   -3927    -3946    -4075    -4125    -4033    -3940    -3997    -4198 
   -4309    -4089    -3667    -3476    -3731    -4159    -4359    -4248 
   -4043    -3970    -4032    -4070    -4052    -4094    -4149    -4078 
   -3960    -3974    -4054    -4043    -3978    -3950    -3916    -3854 
   -3851    -3951    -4045    -4031    -3947    -3892    -3894    -3960 
   -4031    -3960    -3824    -3866    -4025    -4055    -3996    -4044 
   -4195    -4311    -4279    -4004    -3595    -3389    -3562    -3908 
   -4090    -3967    -3703    -3541    -3551    -3692    -3878    -3978 
   -3929    -3888    -3970    -4018    -3888    -3743    -3785    -3928 
   -3991    -3969    -3979    -4029    -3944    -3708    -3601    -3790 
   -4039    -4017    -3750    -3566    -3650    -3821    -3888    -3955 
   -4131    -4243    -4148    -4037    -4117    -4283    -4338    -4264 
   -4135    -3982    -3827    -3746    -3778    -3825    -3819    -3819 
   -3851    -3877    -3902    -3936    -3940    -3921    -3920    -3923 
   -3924    -3939    -3913    -3873    -4027    -4384    -4606    -4529 
   -4367    -4274    -4209    -4168    -4207    -4294    -4268    -4079 
   -3913    -3952    -4085    -4048    -3886    -3881    -4050    -4144 
   -4032    -3798    -3576    -3423    -3427    -3707    -4129    -4309 
   -4099    -3800    -3688    -3684    -3681    -3788    -4032    -4207 
   -4170    -4063    -4105    -4183    -3960    -3520    -3384    -3707 
   -4144    -4433    -4568    -4553    -4388    -4198    -4136    -4167 
   -4131    -4012    -3966    -4016    -3962    -3728    -3542    -3635 
   -3920    -4120    -4086    -3888    -3678    -3569    -3647    -3958 
   -4324    -4413    -4114    -3716    -3576    -3701    -3801    -3724 
   -3642    -3747    -3958    -4070    -4087    -4139    -4129    -3896 
   -3666    -3823    -4239    -4392    -4156    -3932    -3950    -3996 
   -3866    -3684    -3662    -3809    -3927    -3933    -4024    -4284 
   -4419    -4264    -4064    -3989    -3896    -3748    -3770    -4077 
   -4405    -4438    -4221    -4008    -3923    -3921    -3943    -3986 
   -4036    -4047    -4055    -4131    -4233    -4279    -4217    -4023 
   -3786    -3676    -3740    -3916    -4106    -4195    -4131    -4000 
   -3901    -3877    -3912    -3886    -3750    -3667    -3769    -3952 
   -4056    -4066    -4020    -3894    -3723    -3593    -3527    -3591 
   -3893    -4307    -4487    -4297    -3970    -3748    -3628    -3611 
   -3838    -4293    -4645    -4576    -4135    -3694    -3585    -3770 
   -3943    -3902    -3750    -3681    -3743    -3881    -4106    -4371 
   -4487    -4453    -4403    -4251    -3908    -3604    -3582    -3798 
   -4099    -4371    -4469    -4267    -3836    -3483    -3465    -3730 
   -4033    -4268    -4457    -4544    -4423    -4110    -3719    -3427 
   -3387    -3524    -3651    -3757    -3921    -4074    -4072    -3892 
   -3643    -3549    -3724    -3981    -4113    -4162    -4147    -3974 
   -3697    -3541    -3603    -3688    -3603    -3477    -3508    -3657 
   -3859    -4174    -4537    -4635    -4268    -3711    -3438    -3568 
   -3815    -3975    -4118    -4255    -4260    -4178    -4101    -3944 
   -3650    -3334    -3188    -3389    -3882    -4342    -4567    -4579 
   -4403    -4082    -3762    -3665    -3916    -4322    -4531    -4484 
   -4357    -4207    -4012    -3831    -3724    -3711    -3847    -4128 
   -4383    -4434    -4309    -4143    -3951    -3800    -3883    -4137 
   -4267    -4226    -4194    -4213    -4153    -3924    -3689    -3712 
   -3908    -3937    -3751    -3624    -3720    -3906    -3946    -3765 
   -3564    -3562    -3685    -3755    -3848    -4051    -4191    -4152 
   -4104    -4222    -4363    -4203    -3781    -3553    -3753    -4064 
   -4153    -4145    -4199    -4120    -3794    -3510    -3562    -3869 
   -4106    -4168    -4182    -4144    -3952    -3717    -3640    -3707 
   -3766    -3762    -3766    -3905    -4178    -4361    -4280    -4043 
   -3886    -3888    -3963    -4089    -4266    -4301    -4020    -3605 
   -3383    -3466    -3746    -3982    -4004    -3963    -4060    -4112 
   -3900    -3658    -3689    -3851    -3886    -3932    -4218    -4563 
   -4594    -4317    -4120    -4135    -4113    -3998    -3932    -3892 
   -3800    -3719    -3740    -3935    -4257    -4423    -4237    -3970 
   -3974    -4186    -4315    -4228    -3986    -3688    -3381    -3161 
   -3207    -3600    -4189    -4671    -4831    -4689    -4426    -4183 
   -3971    -3831    -3906    -4166    -4357    -4361    -4284    -4183 
   -3964    -3654    -3491    -3582    -3762    -3924    -4064    -4086 
   -3927    -3728    -3611    -3510    -3443    -3593    -3958    -4342 
   -4675    -4950    -4993    -4604    -3883    -3246    -3121    -3528 
   -4009    -4110    -3848    -3527    -3321    -3268    -3399    -3684 
   -3986    -4174    -4201    -4055    -3742    -3445    -3438    -3742 
   -4066    -4232    -4369    -4596    -4765    -4676    -4365    -4040 
   -3905    -4029    -4257    -4341    -4179    -3890    -3670    -3574 
   -3542    -3628    -3971    -4405    -4479    -4047    -3539    -3438 
   -3780    -4280    -4684    -4878    -4824    -4523    -4091    -3754 
   -3694    -3844    -3973    -4040    -4170    -4247    -3991    -3431 
   -2928    -2787    -3005    -3375    -3690    -3897    -4062    -4156 
   -4032    -3689    -3423    -3516    -3877    -4287    -4747    -5228 
   -5414    -4992    -4136    -3434    -3260    -3537    -4035    -4518 
   -4707    -4406    -3767    -3217    -2999    -3065    -3296    -3605 
   -3867    -3904    -3690    -3461    -3439    -3653    -3996    -4320 
   -4506    -4541    -4436    -4179    -3821    -3481    -3341    -3555 
   -4014    -4378    -4386    -4102    -3844    -3819    -3927    -4010 
   -4058    -4106    -4093    -3915    -3574    -3187    -2965    -3157 
   -3747    -4367    -4687    -4698    -4545    -4313    -4074    -3981 
   -4135    -4419    -4550    -4384    -4106    -3890    -3716    -3650 
   -3788    -3935    -3834    -3603    -3615    -4009    -4480    -4595 
   -4284    -3933    -3848    -3861    -3736    -3639    -3840    -4248 
   -4507    -4465    -4270    -4024    -3684    -3335    -3211    -3410 
   -3732    -3927    -4018    -4158    -4233    -4037    -3712    -3665 
   -3985    -4276    -4261    -4160    -4199    -4163    -3862    -3546 
   -3480    -3539    -3520    -3557    -3866    -4243    -4244    -3825 
   -3403    -3319    -3528    -3781    -3942    -4075    -4241    -4396 
   -4515    -4600    -4549    -4291    -3989    -3877    -4072    -4483 
   -4766    -4581    -4032    -3565    -3434    -3593    -3886    -4071 
   -3983    -3689    -3399    -3326    -3585    -4058    -4426    -4441 
   -4097    -3647    -3488    -3817    -4419    -4945    -5192    -5073 
   -4661    -4267    -4136    -4178    -4167    -4023    -3859    -3834 
   -3921    -3910    -3724    -3545    -3507    -3547    -3631    -3812 
   -3985    -3942    -3705    -3485    -3441    -3591    -3848    -4120 
   -4348    -4450    -4369    -4156    -3942    -3819    -3753    -3692 
   -3738    -3987    -4244    -4199    -3870    -3596    -3635    -3879 
   -4048    -4071    -4105    -4224    -4275    -4147    -3985    -3962 
   -4023    -4032    -4028    -4070    -4060    -3950    -3908    -4024 
   -4106    -3967    -3713    -3559    -3599    -3811    -4087    -4283 
   -4329    -4272    -4187    -4047    -3804    -3564    -3514    -3712 
   -3998    -4133    -4036    -3890    -3877    -3924    -3921    -3943 
   -4028    -4097    -4158    -4249    -4225    -3977    -3711    -3713 
   -3956    -4129    -4047    -3809    -3596    -3538    -3697    -4039 
   -4398    -4538    -4403    -4133    -3863    -3642    -3512    -3522 
   -3665    -3877    -4027    -4045    -4037    -4089    -4174    -4260 
   -4287    -4216    -4104    -3983    -3851    -3800    -3875    -3962 
   -3966    -3951    -3981    -4008    -3929    -3713    -3477    -3414 
   -3640    -4074    -4414    -4445    -4257    -4068    -3979    -4000 
   -4110    -4247    -4294    -4222    -4091    -3937    -3794    -3711 
   -3701    -3761    -3842    -3858    -3793    -3727    -3704    -3685 
   -3613    -3522    -3534    -3681    -3869    -4063    -4249    -4288 
   -4079    -3817    -3827    -4114    -4390    -4467    -4349    -4112 
   -3870    -3720    -3694    -3809    -3973    -4009    -3908    -3842 
   -3898    -4005    -4067    -4059    -4020    -4012    -4071    -4174 
   -4218    -4079    -3777    -3528    -3558    -3862    -4195    -4325 
   -4247    -4062    -3792    -3477    -3288    -3389    -3746    -4140 
   -4357    -4396    -4428    -4506    -4484    -4268    -3981    -3827 
   -3932    -4249    -4544    -4531    -4120    -3526    -3140    -3149 
   -3449    -3896    -4382    -4696    -4671    -4426    -4189    -4010 
   -3873    -3904    -4221    -4602    -4615    -4149    -3585    -3346 
   -3453    -3701    -3977    -4164    -4105    -3886    -3793    -3854 
   -3781    -3466    -3238    -3407    -3784    -3973    -3924    -3885 
   -3978    -4072    -4052    -4040    -4180    -4348    -4325    -4126 
   -3946    -3848    -3746    -3711    -3885    -4043    -3879    -3611 
   -3694    -4090    -4344    -4314    -4234    -4245    -4287    -4237 
   -4002    -3650    -3388    -3358    -3541    -3815    -4105    -4372 
   -4472    -4325    -4131    -4089    -4132    -4105    -4010    -3954 
   -3943    -3919    -3910    -4039    -4287    -4449    -4392    -4295 
   -4364    -4498    -4494    -4342    -4171    -4064    -3958    -3793 
   -3696    -3769    -3892    -3936    -3969    -4087    -4245    -4271 
   -4095    -3873    -3701    -3526    -3433    -3591    -3883    -3987 
   -3863    -3750    -3690    -3585    -3530    -3627    -3811    -3975 
   -4032    -3956    -3843    -3808    -3909    -4114    -4224    -4075 
   -3784    -3561    -3473    -3503    -3597    -3730    -3919    -4086 
   -4052    -3839    -3723    -3854    -4097    -4309    -4467    -4513 
   -4352    -4044    -3819    -3807    -3871    -3852    -3823    -3923 
   -4156    -4407    -4495    -4338    -4074    -3898    -3900    -4047 
   -4162    -4058    -3777    -3535    -3500    -3645    -3824    -3970 
   -4114    -4259    -4325    -4263    -4137    -4008    -3906    -3940 
   -4128    -4279    -4218    -3924    -3507    -3211    -3277    -3651 
   -4017    -4180    -4179    -4086    -3944    -3778    -3609    -3527 
   -3597    -3735    -3819    -3850    -3883    -3855    -3684    -3505 
   -3554    -3834    -4136    -4301    -4324    -4253    -4104    -3892 
   -3657    -3473    -3558    -4008    -4446    -4429    -4078    -3809 
   -3755    -3820    -3951    -4121    -4221    -4126    -3817    -3449 
   -3250    -3323    -3613    -3974    -4171    -4054    -3807    -3785 
   -4016    -4220    -4297    -4376    -4429    -4221    -3720    -3304 
   -3349    -3726    -4059    -4309    -4617    -4783    -4523    -4047 
   -3817    -3862    -3881    -3881    -4109    -4491    -4645    -4374 
   -3905    -3601    -3607    -3816    -4082    -4328    -4465    -4398 
   -4209    -4110    -4159    -4212    -4162    -4052    -3983    -3989 
   -4033    -4101    -4189    -4252    -4234    -4147    -4058    -4056 
   -4186    -4329    -4336    -4216    -4075    -3952    -3844    -3824 
