Origin Time       2024/04/02 04:24:00
Lat.              40.133
Long.             141.712
Depth. (km)       71
Mag.              6.0
Station Code      HKD156
Station Lat.      41.8996
Station Long.     140.6960
Station Height(m) 84
Record Time       2024/04/02 04:25:11
Sampling Freq(Hz) 100Hz
Duration Time(s)  96
Dir.              N-S
Scale Factor      7845(gal)/8223790
Max. Acc. (gal)   4.455
Last Correction   2024/04/02 04:25:11
Memo.             
[...]
   -2778    -2992    -3086    -3067    -2947    -2731    -2494    -2362 
   -2331    -2286    -2215    -2230    -2393    -2644    -2887    -3010 
   -2941    -2717    -2434    -2189    -2069    -2079    -2122    -2118 
   -2077    -2103    -2254    -2478    -2690    -2818    -2799    -2677 
   -2562    -2546    -2666    -2872    -3045    -3141    -3238    -3369 
   -3396    -3167    -2751    -2385    -2219    -2239    -2380    -2601 
   -2884    -3187    -3384    -3380    -3213    -3042    -3024    -3075 
   -2960    -2671    -2408    -2317    -2435    -2701    -2995    -3164 
   -3132    -3010    -2949    -2959    -2956    -2859    -2654    -2425 
   -2258    -2204    -2311    -2544    -2778    -2886    -2714    -2228 
   -1750    -1686    -2138    -2907    -3631    -3966    -3815    -3341 
   -2785    -2311    -2007    -1923    -2046    -2296    -2617    -2978 
   -3314    -3555    -3672    -3638    -3389    -2887    -2255    -1791 
   -1763    -2181    -2806    -3343    -3639    -3696    -3555    -3260 
   -2928    -2701    -2569    -2457    -2396    -2425    -2493    -2544 
   -2577    -2587    -2569    -2542    -2554    -2654    -2844    -3067 
   -3177    -3065    -2803    -2581    -2508    -2547    -2651    -2797 
   -2910    -2928    -2891    -2879    -2905    -2901    -2840    -2803 
   -2867    -2979    -3015    -2910    -2735    -2639    -2697    -2853 
   -2967    -2918    -2759    -2640    -2610    -2685    -2909    -3187 
   -3323    -3289    -3257    -3364    -3522    -3522    -3272    -2833 
   -2363    -2053    -2008    -2196    -2497    -2733    -2770    -2656 
   -2550    -2548    -2609    -2608    -2496    -2323    -2153    -2045 
   -1992    -1939    -1930    -2068    -2338    -2623    -2866    -3068 
   -3203    -3265    -3296    -3326    -3362    -3389    -3345    -3156 
   -2849    -2523    -2259    -2124    -2126    -2188    -2269    -2412 
   -2586    -2673    -2641    -2560    -2442    -2257    -2104    -2147 
   -2377    -2658    -2906    -3073    -3083    -2940    -2759    -2597 
   -2436    -2339    -2424    -2698    -3014    -3206    -3245    -3181 
   -3024    -2760    -2471    -2320    -2405    -2697    -3096    -3480 
   -3699    -3642    -3325    -2926    -2644    -2521    -2511    -2550 
   -2550    -2465    -2350    -2320    -2470    -2813    -3240    -3557 
   -3624    -3469    -3234    -3038    -2884    -2705    -2501    -2374 
   -2423    -2659    -2976    -3194    -3208    -3056    -2837    -2666 
   -2686    -2938    -3253    -3406    -3333    -3117    -2839    -2558 
   -2361    -2301    -2353    -2446    -2527    -2585    -2690    -2917 
   -3177    -3230    -2921    -2413    -2079    -2160    -2621    -3219 
   -3627    -3636    -3285    -2809    -2427    -2201    -2122    -2209 
   -2448    -2714    -2878    -2975    -3118    -3235    -3087    -2629 
   -2120    -1813    -1784    -1989    -2312    -2612    -2808    -2940 
   -3084    -3200    -3206    -3111    -3013    -2992    -3042    -3103 
   -3091    -2934    -2689    -2508    -2382    -2188    -1962    -1921 
   -2189    -2673    -3137    -3379    -3325    -3061    -2802    -2700 
   -2646    -2452    -2172    -1993    -1999    -2177    -2511    -2916 
   -3248    -3445    -3557    -3604    -3503    -3237    -2953    -2783 
   -2701    -2620    -2521    -2527    -2741    -3080    -3314    -3265 
   -2971    -2660    -2516    -2548    -2655    -2713    -2667    -2500 
   -2259    -2127    -2226    -2452    -2617    -2636    -2582    -2552 
   -2554    -2550    -2575    -2683    -2814    -2845    -2728    -2540 
   -2428    -2442    -2501    -2539    -2575    -2690    -2887    -3084 
   -3245    -3339    -3294    -3125    -2894    -2590    -2243    -2034 
   -2088    -2312    -2540    -2721    -2894    -3071    -3200    -3238 
   -3140    -2906    -2670    -2600    -2728    -2910    -3025    -3065 
   -3037    -2948    -2863    -2767    -2566    -2274    -2083    -2128 
   -2355    -2620    -2859    -3083    -3303    -3524    -3730    -3844 
   -3798    -3581    -3215    -2749    -2340    -2204    -2396    -2732 
   -2988    -3044    -2887    -2613    -2377    -2273    -2268    -2259 
   -2239    -2301    -2513    -2845    -3181    -3380    -3312    -2941 
   -2461    -2178    -2214    -2448    -2700    -2871    -2982    -3056 
   -3090    -3096    -3064    -2924    -2639    -2308    -2084    -2014 
   -2033    -2088    -2181    -2353    -2637    -3017    -3357    -3460 
   -3283    -3017    -2862    -2839    -2879    -2968    -3087    -3142 
   -3060    -2916    -2856    -2913    -3026    -3125    -3086    -2860 
   -2616    -2560    -2725    -2953    -3032    -2841    -2489    -2246 
   -2300    -2600    -2957    -3192    -3221    -3115    -3037    -3036 
   -2951    -2640    -2209    -1912    -1926    -2254    -2716    -3071 
   -3253    -3384    -3512    -3542    -3381    -3057    -2722    -2536 
   -2550    -2667    -2744    -2754    -2776    -2839    -2887    -2875 
   -2775    -2596    -2392    -2208    -2034    -1849    -1715    -1750 
   -2008    -2452    -2979    -3399    -3561    -3416    -2978    -2394 
   -1975    -1922    -2184    -2579    -2944    -3183    -3304    -3364 
   -3391    -3365    -3245    -2983    -2582    -2138    -1819    -1756 
   -1907    -2149    -2430    -2720    -2956    -3103    -3207    -3295 
   -3314    -3184    -2863    -2404    -1988    -1834    -1995    -2327 
   -2677    -2949    -3080    -3096    -3071    -2972    -2713    -2371 
   -2196    -2326    -2623    -2813    -2736    -2461    -2219    -2216 
   -2423    -2620    -2698    -2754    -2879    -3036    -3105    -2978 
   -2682    -2436    -2444    -2658    -2876    -3009    -3079    -3117 
   -3165    -3206    -3102    -2801    -2496    -2416    -2601    -2937 
   -3271    -3460    -3396    -3105    -2795    -2640    -2612    -2614 
   -2594    -2531    -2450    -2457    -2641    -2948    -3233    -3379 
   -3337    -3179    -2980    -2706    -2371    -2110    -1995    -2054 
   -2312    -2735    -3204    -3607    -3863    -3886    -3607    -3133 
   -2712    -2525    -2566    -2648    -2589    -2404    -2278    -2355 
   -2621    -2898    -2943    -2671    -2246    -1944    -1969    -2339 
   -2871    -3312    -3437    -3153    -2651    -2265    -2147    -2276 
   -2619    -3095    -3493    -3624    -3473    -3183    -2963    -2930 
   -2963    -2851    -2543    -2165    -1894    -1842    -2027    -2363 
   -2700    -2898    -2903    -2751    -2552    -2419    -2405    -2496 
   -2636    -2766    -2866    -2938    -2986    -3056    -3198    -3358 
   -3457    -3485    -3392    -3119    -2774    -2571    -2613    -2816 
   -3042    -3192    -3229    -3172    -3056    -2855    -2554    -2241 
   -2050    -2031    -2141    -2312    -2531    -2797    -3022    -3080 
   -2978    -2844    -2740    -2641    -2621    -2830    -3223    -3496 
   -3406    -3025    -2606    -2369    -2470    -2864    -3244    -3333 
   -3165    -2929    -2716    -2517    -2297    -2007    -1692    -1530 
   -1688    -2180    -2825    -3354    -3584    -3466    -3072    -2589 
   -2227    -2111    -2239    -2498    -2762    -2970    -3068    -3001 
   -2787    -2546    -2400    -2380    -2405    -2435    -2524    -2686 
   -2813    -2790    -2604    -2389    -2330    -2467    -2690    -2863 
   -2916    -2872    -2774    -2639    -2531    -2573    -2798    -3121 
   -3461    -3740    -3823    -3661    -3375    -3051    -2666    -2280 
   -2084    -2184    -2482    -2822    -3125    -3357    -3450    -3375 
   -3210    -3030    -2849    -2673    -2493    -2343    -2339    -2532 
   -2835    -3126    -3302    -3252    -2972    -2621    -2396    -2404 
   -2628    -2894    -2971    -2817    -2639    -2646    -2812    -2913 
   -2743    -2280    -1719    -1379    -1475    -1988    -2706    -3370 
   -3832    -4047    -3987    -3688    -3264    -2818    -2424    -2177 
   -2165    -2362    -2623    -2762    -2681    -2448    -2184    -1915 
   -1686    -1587    -1652    -1854    -2185    -2606    -3015    -3308 
   -3434    -3443    -3460    -3553    -3701    -3831    -3874    -3808 
   -3618    -3337    -3049    -2809    -2678    -2716    -2872    -3034 
   -3145    -3156    -2930    -2400    -1756    -1351    -1378    -1715 
   -2107    -2386    -2542    -2616    -2587    -2436    -2254    -2137 
   -2091    -2166    -2466    -2970    -3514    -3925    -4109    -4032 
   -3744    -3350    -2924    -2543    -2369    -2551    -3021    -3511 
   -3771    -3659    -3191    -2641    -2400    -2609    -3033    -3335 
   -3396    -3323    -3245    -3180    -3048    -2763    -2365    -2027 
   -1911    -2037    -2330    -2712    -3133    -3534    -3801    -3808 
   -3558    -3258    -3111    -3082    -3024    -2882    -2658    -2438 
   -2425    -2713    -3125    -3493    -3862    -4218    -4344    -4099 
   -3645    -3207    -2880    -2686    -2620    -2604    -2554    -2493 
   -2547    -2812    -3256    -3750    -4124    -4194    -3869    -3277 
   -2683    -2231    -1868    -1502    -1138     -858     -707     -681 
    -832    -1237    -1821    -2452    -3051    -3456    -3492    -3213 
   -2826    -2443    -2079    -1745    -1439    -1190    -1150    -1424 
   -1887    -2251    -2280    -1926    -1371     -946     -930    -1385 
   -2122    -2806    -3196    -3284    -3133    -2770    -2258    -1756 
   -1451    -1435    -1709    -2239    -2905    -3542    -4071    -4460 
   -4618    -4411    -3827    -3055    -2369    -1957    -1880    -2047 
   -2232    -2281    -2259    -2374    -2772    -3406    -4104    -4683 
   -4976    -4941    -4710    -4432    -4209    -4070    -3936    -3744 
   -3526    -3306    -3088    -2883    -2668    -2404    -2092    -1822 
   -1709    -1825    -2173    -2660    -3115    -3364    -3283    -2886 
   -2371    -2006    -1910    -2014    -2160    -2236    -2232    -2137 
   -1926    -1686    -1536    -1498    -1601    -1900    -2309    -2655 
   -2887    -2961    -2739    -2178    -1480     -967     -915    -1459 
   -2520    -3735    -4660    -5117    -5150    -4773    -4051    -3177 
   -2336    -1656    -1317    -1460    -2031    -2806    -3564    -4156 
   -4465    -4450    -4234    -4006    -3844    -3724    -3576    -3285 
   -2837    -2388    -2157    -2280    -2612    -2821    -2770    -2637 
   -2648    -2841    -3113    -3388    -3597    -3616    -3375    -3019 
   -2840    -2986    -3343    -3577    -3321    -2524    -1566     -986 
   -1152    -2084    -3476    -4839    -5687    -5782    -5270    -4540 
   -3898    -3439    -3110    -2808    -2420    -1899    -1340     -928 
    -766     -733     -575     -183      270      507      361     -153 
    -891    -1665    -2316    -2754    -2971    -3032    -3032    -3005 
   -2849    -2474    -1969    -1586    -1563    -1965    -2666    -3446 
   -4093    -4461    -4515    -4286    -3820    -3195    -2535    -1926 
   -1441    -1260    -1629    -2702    -4321    -5938    -6849    -6536 
   -5008    -2870     -899      361      750      479      -43     -526 
    -985    -1628    -2563    -3624    -4421    -4622    -4132    -3127 
   -2130    -1769    -2317    -3508    -4703    -5211    -4666    -3230 
   -1485     -206      103     -373    -1112    -1775    -2324    -2902 
   -3653    -4502    -5124    -5216    -4801    -4210    -3751    -3558 
   -3611    -3736    -3778    -3716    -3572    -3373    -3218    -3202 
   -3281    -3248    -2928    -2380    -1877    -1691    -1849    -2181 
   -2582    -3036    -3407    -3477    -3222    -2866    -2610    -2451 
   -2311    -2185    -2219    -2651    -3562    -4746    -5856    -6523 
   -6378    -5233    -3354    -1494     -395     -297     -997    -2157 
   -3414    -4438    -4938    -4683    -3634    -2038     -336      965 
    1425      876     -386    -1723    -2547    -2654    -2191    -1385 
    -499      101       76     -661    -1892    -3169    -4079    -4498 
   -4572    -4507    -4391    -4178    -3817    -3323    -2791    -2471 
   -2685    -3499    -4538    -5171    -4939    -3850    -2343    -1028 
    -326     -234     -498     -945    -1502    -2118    -2771    -3395 
   -3824    -3912    -3661    -3256    -2928    -2851    -3118    -3601 
   -3970    -3970    -3559    -2876    -2234    -1964    -2110    -2435 
   -2714    -2852    -2847    -2758    -2633    -2528    -2560    -2786 
   -3059    -3213    -3269    -3349    -3481    -3586    -3599    -3497 
   -3210    -2636    -1858    -1154     -718     -526     -477     -484 
    -542     -899    -1857    -3304    -4702    -5557    -5760    -5404 
   -4548    -3316    -2014     -889      -41      367      117     -807 
   -2182    -3665    -4803    -5107    -4411    -3221    -2392    -2365 
   -2961    -3785    -4554    -5117    -5328    -5047    -4295    -3346 
   -2594    -2304    -2500    -3044    -3790    -4599    -5219    -5394 
   -5058    -4329    -3457    -2682    -1992    -1196     -302      383 
     607      378      -95     -498     -664     -764    -1171    -2128 
   -3483    -4752    -5455    -5440    -4973    -4449    -4079    -3933 
   -4010    -4199    -4268    -3883    -2820    -1244      298     1107 
     661     -982    -3110    -4839    -5686    -5607    -4793    -3476 
   -1849     -172     1084     1362      411    -1487    -3663    -5370 
   -6107    -5821    -4826    -3532    -2297    -1429    -1104    -1247 
   -1660    -2146    -2623    -3221    -4033    -4793    -5036    -4560 
   -3541    -2255    -1011     -198      -56     -503    -1305    -2203 
   -2983    -3582    -4031    -4209    -3784    -2540     -735      965 
    1915     1796      731     -823    -2392    -3654    -4398    -4522 
   -4095    -3287    -2305    -1447    -1057    -1323    -2137    -3126 
   -3829    -3942    -3515    -2990    -2871    -3213    -3628    -3767 
   -3586    -3280    -3090    -3149    -3376    -3607    -3797    -3962 
   -3996    -3743    -3199    -2614    -2401    -2798    -3674    -4598 
   -5076    -4915    -4345    -3789    -3557    -3635    -3742    -3601 
   -3172    -2650    -2363    -2596    -3345    -4171    -4463    -3960 
   -2929    -1908    -1418    -1676    -2462    -3318    -3870    -3954 
   -3649    -3211    -2848    -2619    -2458    -2209    -1830    -1617 
   -1938    -2716    -3366    -3291    -2396    -1209     -476     -560 
   -1291    -2273    -3083    -3365    -3011    -2241    -1418     -868 
    -735     -905    -1107    -1163    -1188    -1494    -2245    -3132 
   -3596    -3341    -2574    -1921    -1980    -2825    -4018    -4980 
   -5217    -4453    -2864    -1142     -108     -176    -1148    -2371 
   -3133    -3146    -2745    -2475    -2523    -2695    -2756    -2652 
   -2451    -2250    -2196    -2446    -3017    -3680    -4006    -3708 
   -2999    -2558    -2957    -4121    -5431    -6200    -6023    -5023 
   -3751    -2706    -2003    -1445     -842     -302     -261    -1163 
   -2976    -5016    -6334    -6299    -4949    -2997    -1451     -951 
   -1393    -2249    -2974    -3172    -2818    -2290    -2014    -2164 
   -2674    -3323    -3866    -4118    -4024    -3707    -3388    -3144 
   -2853    -2438    -1995    -1702    -1642    -1771    -2002    -2290 
   -2612    -2832    -2768    -2389    -1879    -1590    -1803    -2479 
   -3280    -3763    -3658    -2968    -1926     -947     -387     -279 
    -419     -580     -730    -1044    -1622    -2335    -2922    -3156 
   -3010    -2718    -2679    -3204    -4162    -4939    -4908    -3940 
   -2462    -1088     -326     -459    -1495    -3177    -5020    -6435 
   -6984    -6646    -5757    -4687    -3650    -2775    -2170    -1891 
   -1884    -2062    -2457    -3146    -4012    -4683    -4752    -4043 
   -2852    -1873    -1705    -2300    -3072    -3514    -3491    -3172 
   -2903    -2970    -3312    -3558    -3392    -2868    -2326    -2093 
   -2297    -2855    -3481    -3755    -3406    -2613    -1864    -1509 
   -1552    -1810    -2045    -2011    -1678    -1266    -1016    -1071 
   -1425    -1946    -2467    -2833    -3003    -3091    -3192    -3261 
   -3148    -2758    -2178    -1663    -1495    -1784    -2371    -3021 
   -3554    -3856    -3828    -3396    -2636    -1822    -1260    -1116 
   -1399    -2023    -2801    -3462    -3780    -3715    -3423    -3117 
   -2841    -2512    -2160    -1975    -2119    -2652    -3492    -4402 
   -5066    -5211    -4684    -3576    -2328    -1530    -1483    -2072 
   -2974    -3913    -4757    -5495    -6146    -6577    -6478    -5601 
   -3990    -2081     -596     -148     -787    -1973    -3037    -3636 
   -3797    -3655    -3342    -2992    -2636    -2166    -1501     -700 
      45      480      394     -228    -1200    -2204    -2910    -3195 
   -3184    -3063    -2943    -2829    -2673    -2454    -2218    -2104 
   -2316    -2906    -3609    -3989    -3731    -2878    -1819    -1044 
    -869    -1259    -1877    -2357    -2575    -2663    -2758    -2866 
   -2918    -2793    -2366    -1728    -1283    -1485    -2450    -3817 
   -4976    -5478    -5239    -4487    -3622    -2947    -2539    -2385 
   -2385    -2311    -2008    -1629    -1470    -1678    -2219    -2968 
   -3743    -4383    -4781    -4892    -4738    -4379    -3955    -3635 
   -3462    -3404    -3416    -3424    -3434    -3600    -3971    -4301 
   -4232    -3628    -2681    -1741    -1128    -1050    -1503    -2246 
   -2978    -3446    -3427    -2839    -1837     -729      162      588 
     425     -333    -1576    -3040    -4337    -5140    -5262    -4626 
   -3358    -1891     -805     -465     -754    -1208    -1424    -1367 
   -1279    -1310    -1472    -1806    -2292    -2694    -2771    -2555 
   -2354    -2508    -3136    -3997    -4673    -4945    -4860    -4530 
   -4036    -3503    -3106    -2914    -2820    -2675    -2498    -2478 
   -2775    -3288    -3665    -3657    -3315    -2812    -2300    -1938 
   -1883    -2197    -2790    -3462    -4025    -4333    -4284    -3929 
   -3483    -3142    -2988    -2986    -2994    -2884    -2660    -2448 
   -2377    -2536    -2965    -3510    -3797    -3534    -2762    -1837 
   -1220    -1237    -1925    -2972    -3894    -4359    -4314    -3882 
   -3292    -2791    -2452    -2139    -1772    -1526    -1647    -2118 
   -2689    -3033    -2909    -2344    -1613     -966     -550     -475 
    -777    -1395    -2197    -2972    -3500    -3669    -3514    -3149 
   -2713    -2327    -2045    -1881    -1854    -1953    -2114    -2238 
   -2293    -2405    -2733    -3237    -3705    -3908    -3654    -2974 
   -2200    -1711    -1675    -2054    -2671    -3254    -3613    -3774 
   -3813    -3719    -3465    -3082    -2613    -2166    -1961    -2155 
   -2636    -3073    -3198    -3038    -2764    -2479    -2324    -2457 
   -2845    -3241    -3399    -3238    -2851    -2471    -2407    -2810 
   -3476    -3948    -3975    -3680    -3277    -2903    -2623    -2409 
   -2204    -2022    -1925    -1949    -2103    -2411    -2813    -3121 
   -3198    -3055    -2814    -2633    -2582    -2625    -2706    -2774 
   -2733    -2493    -2147    -1988    -2268    -2909    -3497    -3623 
   -3219    -2582    -2141    -2141    -2481    -2855    -2984    -2802 
   -2463    -2203    -2176    -2419    -2911    -3484    -3800    -3685 
   -3287    -2832    -2467    -2303    -2367    -2535    -2613    -2566 
   -2513    -2555    -2705    -2913    -3014    -2839    -2471    -2235 
   -2339    -2681    -2994    -3102    -3011    -2829    -2679    -2643 
