Origin Time       2024/04/02 04:24:00
Lat.              40.133
Long.             141.712
Depth. (km)       71
Mag.              6.0
Station Code      HKD129
Station Lat.      42.6347
Station Long.     141.6057
Station Height(m) 6
Record Time       2024/04/02 04:25:50
Sampling Freq(Hz) 100Hz
Duration Time(s)  60
Dir.              N-S
Scale Factor      7845(gal)/8223790
Max. Acc. (gal)   3.885
Last Correction   2024/04/02 04:25:51
Memo.             
[...]
    3044     3241     3307     3153     2878     2729     2787     2855 
    2763     2633     2656     2853     3153     3431     3553     3485 
    3314     3156     3015     2855     2745     2728     2756     2849 
    3013     3180     3310     3360     3264     3082     2928     2798 
    2637     2447     2361     2517     2843     3159     3403     3615 
    3775     3712     3294     2727     2404     2450     2633     2735 
    2786     2876     2994     3140     3294     3319     3161     2960 
    2833     2793     2829     2916     3005     3106     3240     3387 
    3465     3397     3199     2978     2829     2814     2910     3019 
    3088     3132     3127     3040     2976     3105     3361     3504 
    3420     3226     3102     3106     3122     2956     2605     2350 
    2401     2616     2785     2895     2974     2964     2878     2814 
    2793     2766     2772     2884     3044     3106     3038     2924 
    2866     2956     3146     3265     3253     3156     3034     2980 
    3030     3052     2929     2743     2701     2871     3065     3127 
    3173     3338     3528     3566     3385     3065     2724     2434 
    2265     2266     2392     2555     2743     2959     3171     3322 
    3322     3134     2951     2995     3208     3337     3252     3067 
    3021     3181     3330     3269     3107     3084     3294     3632 
    3886     3859     3542     3177     2999     2948     2897     2903 
    3007     3122     3207     3271     3238     3037     2791     2720 
    2855     3030     3078     2978     2860     2852     2938     3018 
    3001     2853     2716     2772     2963     3153     3334     3407 
    3245     2972     2772     2629     2466     2305     2157     2008 
    1914     1912     1979     2091     2232     2393     2554     2674 
    2728     2754     2835     2961     3001     2911     2822     2839 
    2926     2995     3028     3113     3315     3557     3670     3582 
    3408     3265     3145     3051     3071     3204     3321     3356 
    3353     3356     3366     3380     3379     3330     3249     3231 
    3311     3384     3350     3231     3123     3088     3129     3253 
    3420     3555     3661     3766     3843     3842     3676     3281 
    2790     2485     2501     2691     2782     2685     2593     2640 
    2685     2544     2249     1996     1929     1988     2058     2146 
    2300     2482     2646     2816     3063     3369     3586     3622 
    3580     3539     3454     3285     3060     2897     2899     3001 
    3087     3123     3133     3145     3142     3051     2848     2648 
    2567     2570     2608     2755     3073     3497     3874     4063 
    4028     3847     3619     3392     3126     2767     2440     2347 
    2473     2713     3045     3365     3456     3262     2965     2763 
    2695     2647     2467     2205     2043     2042     2137     2304 
    2569     2868     3110     3295     3458     3588     3627     3535 
    3327     3059     2808     2667     2656     2745     2917     3114 
    3235     3273     3294     3303     3273     3210     3130     3028 
    2855     2610     2427     2398     2461     2598     2928     3427 
    3817     3838     3566     3294     3150     3044     2905     2787 
    2728     2740     2840     2988     3130     3199     3123     2956 
    2864     2918     3025     3051     2949     2790     2716     2824 
    3036     3161     3091     2955     2999     3280     3566     3604 
    3435     3288     3238     3250     3272     3226     3113     3003 
    2979     3061     3138     3072     2825     2462     2196     2227 
    2461     2687     2835     2901     2894     2886     2972     3123 
    3173     3037     2870     2894     3142     3422     3503     3314 
    2982     2721     2677     2812     2941     2897     2658     2397 
    2336     2497     2691     2737     2613     2494     2587     2876 
    3123     3142     3037     3072     3302     3550     3684     3685 
    3584     3441     3291     3141     2974     2771     2655     2797 
    3153     3519     3715     3622     3302     2979     2791     2694 
    2620     2619     2737     2886     2964     2972     2978     3053 
    3144     3117     2995     2940     3014     3118     3177     3199 
    3198     3203     3230     3256     3211     3055     2878     2789 
    2768     2775     2812     2845     2853     2890     2992     3106 
    3188     3210     3099     2899     2767     2731     2724     2697 
    2628     2582     2668     2917     3202     3318     3187     2917 
    2624     2403     2393     2621     2883     3026     3091     3118 
    3140     3214     3256     3072     2670     2327     2251     2335 
    2450     2691     3024     3213     3253     3369     3611     3785 
    3709     3416     3118     2960     2910     2872     2845     2864 
    2898     2940     3036     3154     3242     3304     3299     3180 
    3019     2928     2930     2976     3069     3273     3497     3547 
    3433     3294     3167     3067     2988     2894     2832     2886 
    3037     3173     3230     3256     3252     3114     2866     2690 
    2670     2731     2762     2644     2390     2253     2420     2751 
    2960     2994     2998     2965     2808     2640     2575     2539 
    2505     2583     2799     3053     3237     3280     3233     3298 
    3541     3713     3586     3326     3237     3303     3277     3048 
    2745     2600     2706     2871     2849     2702     2656     2710 
    2755     2851     3045     3238     3368     3439     3433     3360 
    3315     3349     3380     3364     3368     3388     3312     3125 
    2976     2929     2852     2709     2646     2735     2928     3114 
    3134     2983     2905     3030     3183     3144     2933     2745 
    2686     2737     2856     3006     3159     3288     3370     3434 
    3539     3639     3532     3133     2654     2363     2300     2361 
    2428     2401     2353     2497     2841     3148     3245     3132 
    2929     2833     2968     3240     3392     3253     2889     2571 
    2542     2737     2871     2830     2809     2982     3261     3472 
    3537     3474     3337     3133     2890     2693     2575     2490 
    2405     2403     2563     2776     2852     2781     2709     2748 
    2891     2994     2936     2837     2910     3146     3395     3561 
    3586     3438     3248     3145     3061     2968     3010     3202 
    3339     3287     3159     3141     3242     3323     3296     3227 
    3202     3180     3069     2856     2628     2535     2620     2803 
    3048     3345     3551     3520     3319     3126     2984     2806 
    2555     2363     2382     2635     3007     3250     3169     2839 
    2528     2452     2617     2816     2851     2752     2689     2716 
    2762     2821     2944     3099     3223     3337     3469     3577 
    3627     3600     3451     3204     2987     2934     3076     3275 
    3346     3257     3123     3042     3005     2937     2752     2493 
    2385     2506     2658     2709     2713     2713     2745     2853 
    2948     2940     2934     3028     3123     3160     3225     3415 
    3685     3839     3763     3532     3242     3006     2945     3007 
    3036     3009     2994     2987     2948     2866     2751     2663 
    2740     3024     3298     3331     3141     2884     2685     2586 
    2606     2774     3068     3370     3497     3391     3261     3261 
    3256     3125     2934     2751     2600     2558     2644     2739 
    2783     2814     2845     2920     3084     3287     3418     3430 
    3393     3369     3300     3142     2937     2743     2631     2660 
    2736     2650     2409     2268     2335     2477     2544     2552 
    2585     2652     2721     2825     2990     3084     3019     2945 
    3026     3265     3543     3711     3735     3726     3738     3661 
    3389     2999     2720     2636     2555     2357     2203     2276 
    2517     2690     2690     2671     2782     3017     3279     3411 
    3369     3288     3271     3287     3308     3346     3361     3246 
    3034     2941     3091     3325     3360     3141     2887     2795 
    2829     2839     2797     2768     2772     2828     2953     3061 
    3030     2844     2602     2477     2579     2774     2816     2668 
    2519     2587     2897     3192     3241     3163     3260     3549 
    3739     3694     3551     3458     3400     3264     3022     2824 
    2813     2959     3100     3141     3123     3069     2913     2752 
    2825     3060     3148     3010     2817     2673     2559     2496 
    2542     2658     2759     2802     2793     2770     2770     2817 
    2903     2991     3022     2964     2903     2937     2998     2968 
    2899     2916     3015     3133     3238     3234     3051     2814 
    2693     2744     2968     3242     3349     3306     3314     3412 
    3460     3357     3217     3241     3407     3551     3596     3503 
    3254     2913     2641     2644     2921     3207     3292     3207 
    3032     2783     2512     2335     2336     2520     2825     3098 
    3169     3078     2988     2938     2889     2849     2851     2917 
    3042     3190     3333     3419     3391     3315     3276     3235 
    3183     3206     3295     3314     3223     3122     3041     2944 
    2872     2870     2914     2987     3079     3191     3333     3422 
    3397     3327     3217     3040     2914     2910     2903     2848 
    2903     3090     3164     2971     2683     2551     2612     2741 
    2853     2913     2898     2840     2791     2737     2702     2747 
    2824     2910     3071     3254     3321     3268     3207     3192 
    3192     3137     3017     2965     3078     3222     3168     2845 
    2411     2095     2012     2143     2370     2567     2725     2940 
    3252     3489     3435     3154     2948     2943     3044     3208 
    3392     3487     3503     3514     3515     3491     3443     3385 
    3316     3233     3175     3141     3079     3026     3059     3125 
    3075     2857     2627     2552     2620     2695     2662     2577 
    2605     2701     2655     2446     2245     2243     2512     2862 
    2992     2934     2947     2998     2856     2544     2282     2216 
    2390     2756     3125     3292     3222     3037     2867     2721 
    2554     2388     2270     2228     2349     2704     3073     3051 
    2628     2268     2280     2544     2847     3130     3387     3526 
    3443     3184     2890     2629     2419     2289     2285     2405 
    2496     2412     2276     2246     2251     2124     1841     1605 
    1752     2339     2965     3281     3441     3746     4152     4414 
    4417     4233     4055     4005     3958     3736     3370     3003 
    2722     2551     2451     2392     2301     2093     1823     1633 
    1622     1872     2346     2826     3191     3500     3747     3807 
    3647     3434     3334     3352     3380     3360     3321     3275 
    3183     3021     2832     2706     2650     2512     2192     1856 
    1786     2049     2515     3111     3825     4507     4892     4777 
    4176     3376     2724     2380     2357     2614     3056     3580 
    4035     4212     3990     3402     2617     1876     1350     1097 
    1136     1437     1890     2377     2853     3306     3638     3724 
    3627     3542     3568     3694     3925     4247     4554     4741 
    4753     4558     4209     3888     3742     3708     3653     3607 
    3665     3798     3913     3998     4164     4487     4882     5200 
    5225     4796     4054     3238     2448     1792     1367     1201 
    1379     1925     2629     3254     3674     3874     3937     3927 
    3842     3720     3569     3339     3033     2689     2282     1877 
    1703     1795     1935     2046     2258     2652     3146     3566 
    3819     3901     3858     3811     3827     3827     3719     3541 
    3339     3076     2747     2482     2473     2806     3327     3759 
    3923     3825     3581     3244     2763     2099     1363      816 
     614      704      965     1317     1738     2265     2926     3655 
    4364     4997     5486     5745     5664     5211     4576     4013 
    3626     3447     3508     3746     3970     3975     3708     3265 
    2718     2093     1433      784      299      307      988     2057 
    3015     3569     3746     3790     3820     3681     3211     2502 
    1841     1533     1701     2170     2656     2986     3141     3176 
    3150     3123     3068     2825     2339     1790     1437     1431 
    1690     1960     2146     2463     3109     3960     4685     5059 
    5092     4824     4199     3226     2076     1028      446      561 
    1219     2041     2733     3123     3125     2775     2292     1976 
    1885     1838     1837     2091     2558     2889     2852     2540 
    2200     2034     2029     1999     1895     1892     2158     2650 
    3190     3631     3935     4163     4452     4895     5393     5648 
    5444     4841     4008     3064     2111     1332      938     1016 
    1544     2394     3300     4017     4471     4715     4741     4486 
    4086     3770     3595     3524     3518     3464     3271     3013 
    2905     3059     3403     3835     4213     4321     4050     3499 
    2870     2312     1911     1745     1921     2521     3410     4309 
    4988     5274     5107     4608     4002     3473     3037     2616 
    2158     1648     1169      823      469     -122     -788    -1080 
    -826     -145      777     1672     2266     2524     2560     2404 
    2010     1459      966      787     1054     1578     2046     2350 
    2516     2508     2286     1933     1649     1656     2052     2733 
    3510     4190     4602     4746     4772     4750     4671     4518 
    4352     4243     4036     3596     3195     3180     3523     3935 
    4261     4618     5090     5455     5355     4731     3838     2929 
    2147     1520      984      630      708     1347     2390     3478 
    4255     4538     4336     3820     3306     3041     3048     3319 
    3923     4783     5633     6223     6434     6280     5915     5526 
    5096     4418     3537     2883     2829     3254     3678     3767 
    3605     3450     3423     3457     3418     3152     2525     1564 
     598       63      114      634     1555     2857     4401     5841 
    6662     6527     5582     4287     3026     1939     1069      467 
     245      477     1005     1533     1904     2197     2562     2992 
    3322     3430     3292     2917     2354     1786     1517     1722 
    2323     3113     3873     4450     4776     4781     4425     3823 
    3192     2592     1979     1502     1352     1462     1534     1275 
     634     -157     -738     -859     -533       91      926     1917 
    2963     3939     4779     5421     5786     5919     5923     5686 
    5030     4051     3032     2170     1545     1179     1108     1480 
    2339     3402     4236     4490     4055     3142     2123     1323 
     916      965     1537     2632     4001     5179     5759     5686 
    5215     4526     3711     3072     2878     2949     2986     2943 
    2884     2886     3025     3264     3514     3707     3748     3581 
    3213     2705     2242     2057     2151     2326     2543     2947 
    3570     4303     4984     5463     5607     5211     4124     2520 
     903     -174     -500     -271      253     1021     2092     3306 
    4206     4476     4213     3784     3514     3430     3326     3090 
    2763     2389     2037     1840     1837     1987     2286     2732 
    3306     3943     4499     4783     4652     4172     3539     2895 
    2408     2295     2563     2965     3265     3346     3213     2994 
    2806     2662     2583     2604     2686     2741     2710     2590 
    2392     2216     2257     2544     2884     3130     3188     3011 
    2776     2760     2998     3314     3559     3707     3798     3901 
    4020     4078     4001     3873     3915     4225     4666     5015 
    5121     4973     4645     4194     3672     3226     2970     2832 
    2735     2689     2689     2650     2521     2386     2335     2330 
    2309     2257     2149     2023     2000     2150     2525     3250 
    4224     4963     5063     4598     3929     3322     2840     2471 
    2215     2064     1988     1954     2015     2322     2945     3767 
    4521     4885     4672     3928     2879     1849     1150      900 
     973     1120     1240     1447     1892     2556     3244     3807 
    4229     4449     4315     3786     3061     2413     1981     1753 
    1632     1580     1742     2246     2922     3395     3435     3136 
    2790     2691     2907     3190     3281     3261     3438     3933 
    4588     5166     5441     5247     4627     3785     2930     2262 
    1973     2166     2725     3343     3761     3927     3958     3978 
    4017     3990     3755     3272     2620     1902     1312     1159 
    1609     2469     3323     3851     3986     3828     3466     2968 
    2457     1985     1453      896      568      680     1232     2060 
    2934     3605     3855     3585     2868     1907      967      313 
      74      214      765     1815     3165     4338     5019     5246 
    5138     4672     3897     2982     2101     1494     1354     1620 
    2088     2610     3053     3240     3049     2531     1852     1244 
    1027     1383     2114     2814     3267     3418     3238     2816 
    2359     2074     2207     2883     3893     4796     5332     5610 
    5845     6108     6335     6262     5624     4503     3213     1993 
    1044      607      855     1723     2940     4132     4904     5065 
    4722     4145     3608     3206     2857     2555     2446     2594 
    2839     3025     3238     3645     4167     4523     4521     4158 
    3582     3021     2651     2511     2532     2655     2843     3036 
    3111     2951     2583     2224     2127     2463     3198     4017 
    4602     4865     4787     4317     3611     3014     2663     2393 
    2130     1985     1968     2061     2389     2894     3226     3181 
    2902     2606     2350     2026     1584     1215     1223     1732 
    2529     3252     3651     3638     3261     2732     2301     2182 
    2585     3557     4739     5535     5598     4954     3823     2504 
    1308      544      387      785     1571     2490     3231     3624 
    3719     3663     3516     3177     2562     1806     1205     1040 
    1421     2157     2922     3541     3994     4240     4203     3844 
    3168     2354     1765     1690     2085     2594     2851     2853 
    2864     3061     3399     3665     3657     3385     3102     3138 
    3686     4629     5670     6551     6994     6740     5834     4630 
    3510     2681     2100     1603     1140      811      715      814 
     989     1148     1201     1090      865      658      656      981 
    1594     2361     3153     3836     4268     4364     4074     3470 
    2787     2222     1900     1877     2081     2417     2787     3063 
    3161     3122     3092     3115     2984     2555     2073     1871 
    1950     2081     2134     2146     2216     2331     2409     2461 
    2509     2623     2956     3507     4090     4554     4828     4923 
