Origin Time       2024/04/02 04:24:00
Lat.              40.133
Long.             141.712
Depth. (km)       71
Mag.              6.0
Station Code      HKD103
Station Lat.      42.7275
Station Long.     142.2973
Station Height(m) 86
Record Time       2024/04/02 04:25:55
Sampling Freq(Hz) 100Hz
Duration Time(s)  60
Dir.              N-S
Scale Factor      3920(gal)/6182761
Max. Acc. (gal)   2.753
Last Correction   2024/04/02 04:25:55
Memo.             
[...]
    3831     3914     4022     4140     4237     4282     4279     4255 
    4229     4206     4183     4147     4094     4020     3915     3772 
    3601     3431     3292     3192     3128     3104     3125     3196 
    3331     3512     3701     3873     4017     4109     4124     4057 
    3920     3737     3542     3361     3216     3142     3160     3246 
    3334     3362     3316     3232     3153     3100     3079     3101 
    3169     3267     3369     3445     3482     3483     3461     3440 
    3462     3544     3652     3728     3745     3722     3697     3688 
    3701     3746     3806     3845     3840     3789     3703     3603 
    3525     3494     3496     3490     3455     3402     3353     3327 
    3341     3391     3457     3522     3568     3586     3579     3553 
    3547     3598     3690     3776     3832     3870     3909     3955 
    4016     4106     4210     4266     4213     4032     3747     3436 
    3187     3040     3016     3110     3264     3398     3471     3502 
    3531     3591     3694     3822     3928     3993     4022     4009 
    3955     3891     3824     3717     3561     3393     3264     3205 
    3197     3223     3297     3421     3556     3648     3663     3614 
    3549     3489     3437     3414     3456     3564     3723     3918 
    4118     4276     4351     4323     4197     4001     3792     3632 
    3554     3560     3596     3564     3425     3240     3077     2968 
    2929     2988     3155     3411     3717     4045     4346     4565 
    4661     4614     4453     4254     4086     3976     3933     3943 
    3937     3836     3626     3372     3177     3108     3165     3301 
    3449     3538     3532     3435     3295     3185     3153     3207 
    3325     3467     3582     3627     3589     3497     3412     3373 
    3393     3472     3601     3736     3823     3843     3818     3754 
    3664     3581     3528     3512     3531     3575     3633     3690 
    3703     3638     3525     3430     3389     3398     3435     3474 
    3496     3492     3458     3392     3315     3274     3292     3345 
    3396     3428     3440     3430     3398     3343     3278     3233 
    3241     3319     3471     3672     3862     4010     4118     4178 
    4190     4173     4120     4023     3902     3778     3644     3501 
    3367     3270     3238     3287     3402     3534     3638     3701 
    3719     3692     3620     3520     3453     3486     3640     3881 
    4136     4320     4395     4369     4254     4070     3849     3646 
    3507     3439     3420     3444     3520     3628     3733     3813 
    3866     3900     3925     3924     3890     3852     3834     3847 
    3879     3899     3885     3844     3796     3766     3768     3788 
    3808     3806     3747     3626     3483     3370     3321     3333 
    3374     3419     3448     3436     3374     3267     3130     2994 
    2887     2819     2796     2826     2920     3083     3267     3414 
    3508     3534     3464     3326     3199     3157     3235     3411 
    3612     3763     3839     3862     3849     3821     3820     3861 
    3898     3880     3806     3718     3663     3640     3587     3451 
    3261     3109     3052     3101     3260     3491     3724     3915 
    4039     4080     4051     3970     3844     3686     3522     3388 
    3321     3319     3342     3333     3274     3185     3083     2979 
    2907     2902     2954     3011     3027     3004     3011     3119 
    3320     3568     3853     4165     4450     4638     4683     4574 
    4333     3998     3596     3163     2763     2458     2280     2244 
    2332     2494     2687     2889     3086     3270     3440     3596 
    3738     3879     4041     4224     4418     4618     4798     4927 
    4979     4930     4779     4551     4283     4011     3759     3535 
    3346     3190     3060     2961     2904     2886     2892     2908 
    2923     2941     2983     3086     3286     3596     3990     4420 
    4840     5170     5322     5258     4993     4571     4036     3445 
    2888     2453     2157     1972     1878     1857     1877     1912 
    1977     2131     2420     2846     3375     3964     4559     5102 
    5540     5821     5900     5782     5513     5154     4765     4406 
    4135     3957     3837     3734     3621     3495     3371     3241 
    3080     2883     2658     2417     2181     1971     1834     1834 
    2012     2364     2852     3413     3986     4510     4909     5117 
    5106     4901     4553     4116     3641     3191     2817     2542 
    2370     2302     2346     2504     2768     3121     3546     4009 
    4444     4767     4920     4884     4665     4301     3878     3508 
    3253     3120     3095     3132     3180     3204     3181     3116 
    3043     3023     3120     3353     3676     4017     4303     4483 
    4563     4594     4612     4649     4740     4892     5078     5264 
    5387     5364     5140     4733     4195     3585     2988     2474 
    2069     1782     1627     1600     1695     1916     2276     2776 
    3376     4015     4620     5115     5424     5512     5405     5176 
    4900     4625     4392     4226     4105     3984     3830     3629 
    3392     3148     2917     2731     2643     2687     2844     3071 
    3334     3599     3833     4029     4207     4408     4692     5079 
    5520     5943     6298     6509     6502     6257     5788     5126 
    4332     3478     2635     1880     1311     1016     1030     1329 
    1839     2443     3017     3464     3721     3790     3764     3757 
    3822     3976     4187     4372     4469     4454     4302     4007 
    3571     3006     2380     1797     1345     1099     1114     1392 
    1890     2538     3236     3880     4382     4687     4816     4853 
    4871     4885     4863     4769     4578     4271     3867     3446 
    3106     2884     2746     2628     2484     2290     2052     1828 
    1710     1777     2079     2600     3255     3938     4572     5115 
    5554     5895     6142     6284     6298     6148     5791     5202 
    4392     3431     2416     1460      702      242       93      228 
     602     1149     1821     2574     3346     4100     4813     5457 
    6012     6441     6686     6709     6517     6159     5708     5261 
    4914     4679     4489     4240     3845     3282     2580     1796 
    1014      319     -228     -574     -660     -451       55      844 
    1856     2981     4107     5154     6067     6824     7398     7741 
    7796     7549     7042     6331     5495     4657     3895     3235 
    2704     2300     1989     1767     1652     1666     1834     2155 
    2581     3053     3531     3964     4292     4471     4474     4330 
    4127     3978     3986     4214     4654     5200     5678     5912 
    5794     5305     4516     3552     2556     1665      999      623 
     514      652     1036     1614     2295     2990     3611     4092 
    4413     4588     4664     4684     4653     4535     4297     3958 
    3575     3204     2900     2693     2574     2512     2485     2473 
    2437     2363     2298     2302     2407     2639     3022     3522 
    4039     4452     4656     4616     4357     3922     3378     2818 
    2316     1930     1695     1599     1596     1652     1770     1965 
    2235     2551     2854     3114     3350     3580     3801     4013 
    4194     4311     4336     4269     4136     3970     3785     3601 
    3453     3366     3333     3341     3387     3474     3596     3722 
    3791     3743     3576     3335     3079     2895     2872     3054 
    3444     4036     4785     5563     6211     6623     6744     6570 
    6154     5593     5000     4488     4120     3897     3805     3807 
    3835     3830     3763     3626     3422     3156     2824     2430 
    2004     1627     1378     1313     1458     1782     2232     2785 
    3410     4034     4566     4926     5084     5066     4905     4641 
    4345     4074     3819     3548     3250     2910     2501     2036 
    1583     1210      958      849      873     1008     1230     1520 
    1889     2371     2975     3683     4465     5257     5958     6479 
    6781     6861     6744     6504     6260     6080     5928     5722 
    5399     4938     4339     3641     2946     2391     2073     2031 
    2261     2701     3235     3754     4187     4479     4601     4583 
    4493     4400     4375     4475     4692     4961     5204     5347 
    5348     5199     4945     4666     4425     4247     4156     4157 
    4208     4246     4236     4151     3963     3682     3363     3071 
    2853     2728     2670     2638     2589     2485     2319     2139 
    1995     1918     1920     2006     2179     2415     2678     2944 
    3212     3501     3832     4195     4541     4796     4873     4711 
    4336     3834     3285     2741     2245     1845     1579     1495 
    1674     2151     2868     3731     4637     5422     5905     6021 
    5833     5473     5079     4740     4502     4379     4358     4414 
    4530     4708     4920     5070     5052     4792     4264     3519 
    2679     1900     1322     1024     1039     1358     1921     2650 
    3469     4291     5058     5745     6333     6801     7115     7226 
    7100     6706     6036     5151     4141     3067     1986      997 
     232     -192     -220      125      743     1482     2200     2786 
    3164     3330     3361     3360     3401     3512     3679     3867 
    4036     4146     4167     4091     3938     3725     3478     3247 
    3064     2924     2801     2642     2419     2165     1925     1735 
    1641     1692     1910     2244     2608     2927     3165     3323 
    3417     3468     3485     3470     3421     3338     3236     3131 
    3036     2985     3006     3105     3279     3497     3735     3999 
    4281     4528     4703     4803     4833     4817     4797     4793 
    4790     4760     4672     4526     4365     4255     4252     4374 
    4584     4778     4843     4714     4386     3931     3456     3025 
    2664     2372     2121     1870     1591     1279      945      629 
     422      419      686     1270     2164     3243     4323     5251 
    5899     6178     6074     5633     4946     4151     3396     2809 
    2464     2353     2412     2556     2704     2818     2878     2895 
    2920     3010     3197     3492     3896     4404     4998     5627 
    6161     6469     6512     6327     6002     5672     5464     5446 
    5576     5738     5823     5750     5483     5062     4544     3968 
    3365     2782     2282     1935     1822     2003     2467     3115 
    3794     4363     4732     4879     4835     4674     4467     4255 
    4060     3883     3706     3532     3386     3280     3213     3189 
    3221     3301     3370     3348     3177     2850     2403     1904 
    1452     1162     1111     1306     1701     2232     2813     3325 
    3673     3828     3827     3733     3590     3415     3219     3019 
    2872     2828     2895     3051     3233     3363     3408     3391 
    3371     3403     3525     3750     4053     4372     4628     4755 
    4728     4585     4416     4316     4351     4526     4801     5135 
    5468     5699     5747     5606     5327     4981     4637     4329 
    4052     3815     3643     3541     3475     3409     3330     3257 
    3237     3304     3452     3666     3919     4162     4343     4425 
    4385     4208     3905     3511     3061     2605     2178     1788 
    1462     1242     1169     1262     1527     1963     2534     3174 
    3793     4299     4616     4707     4593     4341     4004     3629 
    3268     2965     2739     2580     2458     2347     2227     2079 
    1896     1695     1520     1426     1477     1734     2209     2831 
    3486     4070     4518     4827     5035     5181     5298     5403 
    5498     5565     5583     5542     5437     5260     5017     4715 
    4356     3966     3592     3262     2987     2810     2785     2935 
    3237     3614     3946     4130     4109     3898     3593     3327 
    3204     3279     3547     3963     4443     4874     5170     5287 
    5217     4999     4694     4367     4080     3879     3770     3733 
    3731     3727     3665     3489     3194     2857     2607     2549 
    2712     3057     3500     3951     4329     4565     4643     4583 
    4415     4192     3962     3740     3529     3322     3106     2903 
    2737     2600     2514     2520     2616     2793     3062     3404 
    3777     4115     4324     4315     4062     3588     2949     2241 
    1601     1137      899      927     1201     1611     2045     2405 
    2601     2619     2528     2461     2572     2956     3605     4421 
    5250     5923     6300     6308     5967     5382     4714     4112 
    3636     3289     3058     2906     2814     2803     2884     3040 
    3257     3522     3816     4131     4445     4723     4934     5045 
    5016     4836     4543     4213     3939     3795     3798     3885 
    3941     3844     3498     2882     2076     1234      531      108 
      50      375      998     1749     2443     2930     3119     3035 
    2793     2531     2358     2320     2380     2467     2514     2504 
    2480     2517     2678     2998     3457     3974     4443     4804 
    5047     5171     5196     5154     5045     4856     4596     4305 
    4075     4010     4161     4527     5077     5759     6497     7186 
    7704     7946     7838     7354     6544     5506     4361     3268 
    2385     1836     1683     1889     2347     2944     3573     4130 
    4558     4861     5079     5239     5337     5340     5215     4940 
    4504     3937     3304     2673     2114     1695     1456     1411 
    1569     1925     2436     3027     3612     4101     4420     4532 
    4442     4188     3837     3464     3109     2790     2522     2319 
    2220     2242     2368     2601     2949     3376     3810     4157 
    4367     4424     4315     4045     3661     3254     2934     2774 
    2819     3071     3468     3936     4429     4918     5364     5697 
    5854     5795     5523     5078     4496     3822     3143     2566 
    2189     2081     2250     2641     3156     3670     4066     4272 
    4284     4142     3920     3707     3567     3502     3477     3442 
    3363     3235     3060     2848     2635     2470     2388     2400 
    2502     2678     2899     3123     3308     3415     3438     3412 
    3351     3254     3150     3060     2988     2950     2963     3048 
    3238     3524     3844     4134     4340     4410     4341     4172 
    3940     3692     3491     3400     3472     3722     4123     4613 
    5105     5515     5775     5831     5686     5395     5034     4680 
    4374     4112     3868     3613     3318     2986     2641     2324 
    2090     1979     1997     2152     2446     2858     3333     3781 
    4117     4283     4246     4025     3708     3429     3282     3290 
    3442     3706     4027     4333     4557     4668     4676     4605 
    4464     4261     4026     3791     3566     3337     3087     2821 
    2569     2365     2242     2228     2337     2550     2808     3037 
    3189     3247     3210     3110     2991     2890     2835     2833 
    2884     2995     3180     3427     3682     3881     3978     3948 
    3821     3664     3535     3467     3458     3475     3485     3472 
    3424     3344     3238     3106     2966     2851     2801     2852 
    3018     3300     3693     4170     4684     5186     5627     5951 
    6092     6005     5692     5195     4574     3884     3179     2542 
    2068     1821     1795     1915     2084     2220     2299     2352 
    2436     2621     2975     3503     4145     4812     5403     5804 
    5927     5744     5289     4640     3906     3202     2601     2139 
    1838     1688     1658     1705     1788     1889     2007     2148 
    2333     2582     2891     3224     3542     3830     4092     4324 
    4522     4693     4860     5039     5219     5352     5386     5305 
    5137     4921     4665     4358     3999     3615     3259     2989 
    2848     2866     3053     3371     3746     4096     4346     4448 
    4414     4283     4104     3934     3813     3752     3731     3750 
    3828     3954     4094     4208     4239     4147     3937     3637 
    3296     2996     2817     2804     2954     3213     3499     3753 
    3965     4149     4307     4424     4500     4541     4549     4528 
    4500     4486     4487     4487     4460     4386     4268     4113 
    3920     3698     3449     3182     2920     2686     2484     2320 
    2215     2189     2239     2349     2486     2600     2638     2570 
    2401     2172     1949     1793     1732     1775     1920     2157 
    2472     2854     3286     3737     4173     4571     4903     5139 
    5256     5238     5074     4778     4392     3994     3657     3416 
    3262     3153     3042     2896     2721     2562     2498     2601 
    2916     3434     4078     4728     5261     5593     5686     5538 
    5189     4712     4183     3668     3217     2865     2640     2549 
    2574     2677     2796     2855     2795     2595     2289     1945 
    1652     1506     1570     1852     2317     2883     3458     3984 
    4439     4801     5048     5180     5207     5131     4945     4653 
    4267     3811     3334     2891     2549     2374     2397     2603 
    2928     3278     3572     3776     3892     3933     3923     3887 
    3843     3821     3862     3994     4210     4463     4686     4832 
    4885     4838     4686     4441     4133     3799     3466     3147 
    2862     2629     2449     2324     2279     2351     2563     2922 
    3404     3945     4463     4870     5108     5168     5076     4871 
    4575     4194     3747     3276     2841     2517     2370     2411 
    2613     2927     3291     3654     3981     4256     4465     4585 
    4582     4444     4193     3872     3538     3253     3081     3073 
    3218     3456     3711     3896     3933     3811     3569     3259 
    2954     2726     2620     2658     2833     3115     3470     3878 
    4320     4755     5117     5350     5424     5341     5120     4788 
    4371     3912     3454     3033     2681     2447     2372     2469 
    2718     3053     3402     3709     3933     4053     4084     4051 
    3956     3804     3616     3402     3184     3014     2930     2960 
    3123     3393     3718     4038     4286     4417     4428     4328 
    4152     3956     3781     3642     3556     3533     3559     3603 
    3637     3641     3612     3569     3536     3534     3584     3689 
    3807     3877     3858     3745     3568     3389     3260     3196 
    3194     3220     3213     3134     2994     2819     2651     2535 
    2502     2579     2788     3128     3564     4034     4489     4904 
    5254     5517     5672     5719     5668     5523     5285     4955 
    4543     4075     3577     3080     2620     2238     1973     1851 
    1884     2064     2367     2765     3217     3657     4020     4278 
    4440     4532     4584     4608     4603     4559     4440     4207 
    3862     3444     3027     2706     2542     2542     2673     2875 
    3064     3166     3151     3044     2904     2793     2759     2823 
