Origin Time       2024/04/02 04:24:00
Lat.              40.133
Long.             141.712
Depth. (km)       71
Mag.              6.0
Station Code      HKD157
Station Lat.      41.9053
Station Long.     140.9698
Station Height(m) 37
Record Time       2024/04/02 04:25:08
Sampling Freq(Hz) 100Hz
Duration Time(s)  99
Dir.              U-D
Scale Factor      7845(gal)/8223790
Max. Acc. (gal)   3.529
Last Correction   2024/04/02 04:25:08
Memo.             
[...]
   29153    29151    29150    29149    29149    29150    29151    29153 
   29151    29150    29150    29150    29150    29151    29150    29150 
   29151    29150    29149    29150    29149    29149    29150    29151 
   29151    29150    29150    29149    29149    29153    29151    29149 
   29150    29151    29149    29151    29154    29150    29149    29153 
   29150    29147    29147    29153    29154    29150    29149    29151 
   29150    29150    29150    29149    29150    29151    29149    29149 
   29150    29151    29151    29150    29150    29150    29150    29150 
   29151    29150    29150    29151    29150    29150    29151    29149 
   29149    29151    29151    29151    29151    29151    29150    29149 
   29149    29151    29151    29150    29151    29151    29150    29154 
   29153    29149    29150    29151    29150    29150    29150    29150 
   29150    29150    29150    29151    29154    29150    29147    29151 
   29153    29151    29151    29151    29150    29150    29151    29153 
   29149    29149    29153    29150    29150    29150    29150    29151 
   29151    29151    29150    29149    29151    29153    29150    29149 
   29149    29150    29151    29151    29150    29150    29150    29151 
   29151    29150    29150    29150    29150    29151    29151    29151 
   29151    29149    29149    29153    29151    29150    29151    29151 
   29150    29149    29150    29150    29149    29147    29147    29149 
   29150    29150    29150    29151    29151    29149    29149    29149 
   29149    29151    29150    29147    29149    29153    29151    29150 
   29149    29147    29149    29151    29149    29149    29150    29150 
   29150    29149    29149    29151    29151    29149    29150    29151 
   29150    29149    29150    29151    29150    29150    29150    29147 
   29150    29150    29147    29150    29151    29151    29151    29149 
   29149    29150    29150    29150    29150    29147    29150    29153 
   29150    29150    29153    29151    29149    29149    29150    29150 
   29149    29149    29150    29150    29150    29151    29149    29147 
   29151    29151    29150    29151    29150    29149    29150    29147 
   29146    29149    29151    29150    29150    29149    29147    29149 
   29150    29150    29151    29151    29149    29150    29150    29150 
   29150    29150    29149    29150    29153    29151    29150    29149 
   29149    29150    29149    29149    29150    29150    29150    29151 
   29151    29151    29150    29150    29151    29150    29149    29149 
   29150    29151    29151    29149    29150    29150    29149    29150 
   29154    29151    29149    29149    29149    29150    29150    29147 
   29147    29150    29151    29149    29150    29153    29153    29150 
   29151    29151    29150    29150    29153    29153    29151    29151 
   29151    29150    29150    29149    29147    29151    29153    29150 
   29149    29150    29149    29149    29153    29151    29150    29151 
   29151    29150    29149    29147    29150    29151    29150    29150 
   29151    29150    29150    29151    29150    29149    29150    29146 
   29146    29151    29154    29150    29147    29151    29153    29150 
   29150    29150    29149    29149    29151    29151    29151    29150 
   29149    29149    29153    29154    29151    29151    29153    29151 
   29149    29149    29149    29150    29151    29150    29150    29149 
   29150    29153    29150    29146    29147    29150    29151    29149 
   29147    29150    29151    29150    29150    29150    29149    29149 
   29150    29150    29151    29153    29153    29150    29150    29150 
   29149    29149    29150    29151    29150    29150    29150    29149 
   29146    29149    29150    29151    29150    29149    29149    29147 
   29147    29149    29149    29150    29151    29150    29149    29150 
   29150    29149    29150    29151    29150    29147    29147    29151 
   29151    29149    29150    29149    29149    29150    29149    29149 
   29151    29151    29151    29151    29149    29149    29153    29153 
   29151    29150    29150    29149    29150    29151    29149    29149 
   29149    29150    29151    29151    29149    29149    29149    29149 
   29150    29151    29151    29149    29146    29149    29154    29153 
   29149    29150    29153    29147    29146    29151    29153    29149 
   29147    29150    29150    29149    29149    29149    29151    29151 
   29149    29147    29149    29151    29150    29149    29147    29150 
   29149    29147    29151    29151    29149    29150    29149    29146 
   29147    29150    29150    29149    29149    29149    29149    29150 
   29151    29150    29149    29149    29149    29150    29151    29151 
   29150    29150    29150    29150    29150    29149    29147    29149 
   29150    29150    29150    29149    29149    29149    29149    29150 
   29153    29150    29147    29151    29151    29147    29147    29150 
   29150    29150    29150    29150    29149    29149    29149    29150 
   29150    29150    29149    29147    29149    29149    29147    29149 
   29149    29147    29150    29153    29151    29150    29149    29150 
   29151    29150    29150    29149    29150    29153    29151    29149 
   29149    29147    29150    29151    29150    29149    29150    29151 
   29150    29150    29149    29149    29150    29150    29151    29149 
   29147    29150    29151    29151    29150    29150    29150    29150 
   29150    29149    29149    29150    29150    29147    29147    29149 
   29149    29149    29150    29149    29150    29150    29151    29151 
   29149    29149    29150    29150    29149    29149    29147    29147 
   29150    29150    29149    29149    29149    29149    29150    29150 
   29150    29150    29151    29153    29150    29149    29150    29151 
   29151    29151    29151    29149    29149    29150    29147    29147 
   29150    29151    29151    29150    29149    29150    29150    29151 
   29153    29150    29147    29150    29150    29146    29147    29150 
   29150    29147    29147    29150    29151    29149    29149    29150 
   29149    29147    29147    29149    29149    29150    29150    29147 
   29147    29149    29149    29150    29151    29151    29150    29151 
   29150    29150    29151    29151    29149    29147    29149    29150 
   29147    29147    29150    29151    29150    29150    29147    29146 
   29147    29149    29149    29149    29150    29150    29150    29147 
   29147    29150    29150    29150    29149    29149    29149    29150 
   29151    29151    29150    29149    29149    29151    29151    29149 
   29149    29149    29149    29150    29150    29150    29149    29150 
   29151    29150    29150    29150    29149    29149    29151    29151 
   29151    29153    29150    29149    29151    29151    29150    29150 
   29151    29149    29147    29151    29151    29149    29149    29150 
   29149    29147    29149    29150    29150    29149    29147    29149 
   29150    29147    29146    29149    29149    29151    29153    29149 
   29149    29150    29150    29150    29150    29151    29153    29149 
   29149    29151    29150    29149    29151    29150    29147    29149 
   29153    29150    29150    29150    29147    29149    29153    29151 
   29149    29151    29151    29149    29150    29153    29153    29150 
   29149    29151    29153    29153    29151    29150    29147    29147 
   29150    29150    29151    29150    29150    29151    29151    29151 
   29153    29150    29151    29153    29151    29151    29153    29151 
   29149    29150    29150    29147    29151    29153    29149    29150 
   29151    29151    29151    29150    29150    29150    29153    29153 
   29150    29150    29151    29151    29153    29150    29149    29149 
   29149    29150    29150    29149    29149    29150    29150    29149 
   29149    29150    29150    29150    29151    29151    29151    29150 
   29150    29153    29151    29150    29150    29150    29150    29150 
   29150    29150    29150    29151    29150    29149    29147    29150 
   29150    29149    29150    29151    29150    29149    29149    29149 
   29147    29149    29151    29151    29150    29147    29147    29150 
   29149    29150    29150    29147    29147    29150    29150    29147 
   29149    29150    29150    29150    29150    29150    29151    29151 
   29150    29149    29149    29150    29150    29150    29150    29149 
   29149    29149    29150    29151    29149    29147    29147    29149 
   29151    29149    29147    29149    29150    29150    29150    29150 
   29149    29149    29150    29150    29149    29149    29147    29146 
   29149    29151    29150    29150    29153    29150    29147    29149 
   29153    29150    29150    29151    29149    29147    29150    29149 
   29147    29150    29150    29149    29150    29151    29147    29149 
   29150    29150    29149    29150    29149    29147    29151    29153 
   29149    29147    29153    29151    29150    29151    29150    29145 
   29147    29153    29151    29150    29151    29150    29149    29147 
   29147    29150    29150    29149    29149    29149    29149    29150 
   29150    29151    29151    29150    29149    29150    29149    29147 
   29149    29149    29150    29151    29150    29149    29149    29149 
   29149    29151    29150    29149    29150    29150    29149    29150 
   29150    29149    29151    29151    29147    29149    29151    29151 
   29147    29147    29151    29151    29149    29149    29149    29150 
   29151    29150    29149    29150    29151    29150    29150    29149 
   29147    29149    29149    29149    29149    29150    29151    29151 
   29150    29147    29149    29150    29153    29154    29153    29150 
   29150    29151    29150    29150    29151    29150    29150    29151 
   29151    29149    29149    29151    29151    29149    29150    29151 
   29150    29151    29151    29150    29150    29151    29150    29149 
   29153    29153    29149    29147    29150    29147    29147    29151 
   29153    29149    29149    29150    29150    29150    29149    29147 
   29150    29150    29150    29153    29150    29149    29154    29151 
   29146    29150    29151    29149    29149    29150    29150    29149 
   29149    29149    29150    29150    29149    29149    29150    29149 
   29149    29147    29147    29147    29150    29150    29150    29151 
   29153    29150    29150    29151    29153    29149    29149    29151 
   29150    29147    29151    29154    29150    29149    29151    29151 
   29149    29150    29150    29150    29150    29149    29147    29149 
   29151    29150    29149    29150    29151    29151    29150    29149 
   29150    29150    29150    29150    29150    29150    29150    29151 
   29151    29150    29150    29149    29147    29149    29150    29151 
   29151    29150    29149    29149    29150    29150    29150    29150 
   29150    29150    29150    29150    29149    29149    29147    29149 
   29151    29151    29151    29151    29149    29149    29150    29151 
   29151    29150    29146    29147    29150    29151    29151    29150 
   29149    29149    29151    29151    29150    29149    29150    29151 
   29151    29151    29154    29153    29151    29151    29150    29146 
   29147    29150    29150    29153    29158    29158    29155    29151 
   29146    29141    29137    29128    29116    29095    29076    29080 
   29104    29127    29138    29126    29099    29076    29076    29112 
   29187    29272    29324    29320    29266    29200    29173    29220 
   29315    29370    29311    29127    28858    28571    28336    28217 
   28216    28273    28318    28354    28445    28660    28996    29366 
   29660    29824    29876    29905    30018    30280    30639    30946 
   31056    30932    30596    30082    29412    28651    27934    27449 
   27333    27583    28026    28424    28595    28507    28323    28236 
   28329    28595    28953    29285    29543    29748    29916    30067 
   30221    30300    30191    29941    29694    29488    29324    29250 
   29224    29101    28813    28460    28240    28281    28490    28644 
   28541    28142    27623    27321    27560    28348    29303    29948 
   29987    29492    28946    28876    29440    30337    31006    31104 
   30807    30458    30103    29718    29439    29226    28931    28695 
   28800    29319    30148    31040    31579    31414    30549    29320 
   28287    28035    28715    29870    30893    31401    31247    30496 
   29305    27874    26574    25837    25863    26377    26897    27318 
   27757    28075    28177    28247    28348    28320    28150    28096 
   28393    29029    29821    30577    31079    31145    30754    30134 
   29744    29867    30175    30099    29403    28300    27438    27440 
   28262    29293    29875    29813    29447    29010    28475    28028 
   27935    28264    28999    29948    30715    30996    30727    30152 
   29640    29126    28291    27460    27356    28112    29236    30153 
   30658    30956    30977    30267    28857    27467    26850    27351 
   28783    30489    31630    31653    30747    29655    28791    28089 
   27734    28053    28846    29354    28841    27514    26626    27140 
   28667    29921    29936    28958    28021    27730    28032    28675 
   29380    30118    31089    32063    32412    31833    30582    29176 
   28138    27692    27657    28000    28898    29767    29504    28012 
   26369    25816    26944    29070    30663    30711    29265    27216 
   25779    25716    27045    29304    31587    32849    32653    31406 
   29879    28883    28912    29633    30315    30609    30464    29893 
   29074    28291    27812    27826    28286    28937    29489    29737 
   29686    29454    29116    28887    28927    29128    29492    29907 
   29883    29343    28819    28730    29146    29860    30426    30404 
   29754    28934    28472    28551    29033    29551    29808    29914 
   29907    29609    29096    28437    27672    27197    27249    27653 
   28381    29470    30593    31189    30789    29461    28080    27537 
   27799    28356    28973    29504    29614    29146    28509    28352 
   28856    29619    30132    30114    29542    28665    28093    28331 
   29245    30256    30792    30531    29575    28379    27623    27872 
   28853    29751    30373    30855    30905    30450    29878    29363 
   28966    28806    28750    28730    28907    29177    29265    29091 
   28680    28193    27982    28236    28779    29286    29405    28948 
   28189    27708    28005    29138    30538    31467    31506    30538 
   28817    27120    26493    27490    29604    31644    32525    31776 
   29727    27340    25691    25483    26816    29022    30951    31746 
   31162    29529    27796    26920    27097    28111    29656    30812 
   30612    29377    28233    27881    28329    29056    29560    29828 
   29830    29307    28466    28055    28426    29164    29660    29722 
   29578    29542    29729    29857    29448    28555    27993    28312 
   29087    29820    30352    30400    29929    29297    28741    28414 
   28485    28842    29216    29423    29218    28590    28271    28917 
   30094    30897    30929    30358    29538    28827    28470    28395 
   28410    28544    28881    29187    29143    28814    28551    28590 
   28787    28826    28738    28861    29278    29791    30289    30605 
   30365    29427    28186    27338    27426    28412    29667    30441 
   30381    29679    28823    28181    27923    28275    29320    30531 
   31062    30545    29353    28131    27360    27288    27772    28445 
   29251    30086    30589    30726    30510    29799    28919    28374 
   28263    28617    29439    30264    30538    30188    29346    28242 
   27527    27847    28993    30009    30221    29710    28876    28232 
   28177    28495    28811    29250    29758    29826    29448    29015 
   28649    28640    29258    29971    30175    29970    29644    29393 
   29289    29151    28908    28821    29155    29820    30171    29685 
   28702    27791    27210    27257    27904    28601    28991    29033 
   28880    28856    28914    28822    28829    29119    29467    29790 
   30090    30375    30673    30591    29762    28603    27932    28220 
   29154    29965    30227    29925    29166    28219    27415    27133 
   27724    29014    30294    30956    30707    29694    28637    28210 
   28539    29238    29762    30068    30469    30767    30470    29550 
   28479    27842    27865    28341    29010    29619    29944    29883 
   29353    28479    27772    27730    28436    29417    29975    29883 
   29500    29243    29170    29081    28960    29038    29359    29664 
   29666    29326    28925    28732    28728    28813    28892    28795 
   28567    28526    28709    28853    28945    28987    28892    28964 
   29369    29752    29974    30105    30052    29743    29214    28686 
   28464    28566    28838    29128    29165    28944    28769    28744 
   28822    29041    29322    29515    29604    29502    29072    28564 
   28435    28846    29550    29986    29864    29469    29150    29096 
   29274    29322    29147    29065    29096    29088    28981    28730 
   28624    29000    29600    29987    29990    29525    28864    28530 
   28594    28829    29147    29408    29471    29390    29191    28925 
   28802    28885    29106    29519    29975    30087    29702    28977 
   28352    28254    28579    29002    29376    29556    29431    29061 
   28651    28518    28869    29485    29916    29967    29747    29362 
   28834    28347    28262    28647    29096    29249    29122    28860 
   28655    28719    28981    29346    29878    30226    29814    28842 
   28071    27899    28260    28912    29508    29852    29961    29902 
   29686    29339    29118    29168    29246    29284    29350    29371 
   29412    29425    29174    28787    28512    28393    28578    29079 
   29562    29716    29412    28925    28780    29030    29224    29134 
   29054    29250    29477    29459    29330    29246    29222    29174 
   28939    28660    28652    28910    29335    29768    29890    29625 
   29151    28728    28655    28944    29324    29654    29821    29691 
   29313    28848    28522    28583    28962    29361    29551    29461 
   29235    29031    28858    28771    28795    28923    29323    29917 
   30175    29851    29103    28177    27652    28035    29011    29906 
   30285    29951    29114    28310    27907    27981    28480    29261 
   29943    30019    29419    28675    28405    28846    29729    30483 
   30727    30464    29810    28938    28179    27873    28167    28879 
   29535    29843    29797    29388    28767    28256    27986    27999 
   28402    29138    29941    30389    30164    29452    28796    28564 
   28790    29262    29721    30034    30094    29706    28884    28138 
   28065    28663    29401    29803    29739    29366    28853    28294 
   27981    28240    28930    29593    29947    29852    29278    28571 
   28252    28483    29069    29652    29844    29627    29300    28993 
   28734    28634    28772    29097    29416    29523    29419    29270 
   29174    29128    29126    29178    29313    29504    29670    29713 
   29547    29174    28692    28264    28131    28420    28988    29602 
   30079    30213    29883    29243    28636    28360    28482    28838 
