Origin Time       2024/04/02 04:24:00
Lat.              40.133
Long.             141.712
Depth. (km)       71
Mag.              6.0
Station Code      HKD129
Station Lat.      42.6347
Station Long.     141.6057
Station Height(m) 6
Record Time       2024/04/02 04:25:50
Sampling Freq(Hz) 100Hz
Duration Time(s)  60
Dir.              U-D
Scale Factor      7845(gal)/8223790
Max. Acc. (gal)   1.589
Last Correction   2024/04/02 04:25:51
Memo.             
[...]
    3480     3345     3294     3211     3068     3037     3281     3642 
    3882     3917     3759     3566     3515     3634     3801     3875 
    3851     3777     3659     3564     3566     3654     3750     3816 
    3896     4036     4117     3959     3634     3419     3470     3651 
    3739     3713     3658     3661     3852     4156     4252     3993 
    3558     3271     3276     3349     3285     3213     3238     3295 
    3370     3414     3364     3368     3505     3636     3651     3511 
    3322     3354     3672     4052     4245     4224     4183     4228 
    4337     4419     4279     3943     3673     3516     3369     3211 
    3096     3117     3252     3331     3321     3350     3418     3416 
    3381     3392     3437     3527     3694     3905     4064     4027 
    3834     3715     3693     3592     3412     3329     3335     3265 
    3105     3026     3149     3388     3535     3520     3443     3370 
    3354     3431     3508     3576     3758     3971     4054     4054 
    4045     4062     4122     4089     3878     3631     3430     3316 
    3312     3330     3450     3738     3893     3786     3651     3638 
    3669     3539     3258     3192     3434     3662     3754     3863 
    4089     4276     4159     3823     3586     3532     3584     3634 
    3628     3634     3619     3574     3663     3897     4090     4062 
    3753     3415     3365     3511     3600     3557     3449     3442 
    3523     3508     3505     3709     3982     4048     3742     3246 
    3018     3127     3284     3418     3555     3600     3559     3561 
    3642     3669     3519     3381     3496     3657     3573     3354 
    3281     3505     3865     4020     3865     3620     3476     3437 
    3504     3566     3458     3279     3191     3241     3396     3435 
    3285     3249     3478     3801     3967     3840     3628     3640 
    3788     3792     3649     3612     3828     4090     4063     3734 
    3438     3396     3524     3685     3784     3781     3792     3890 
    3993     4044     4028     3919     3780     3654     3522     3458 
    3528     3593     3520     3377     3262     3200     3161     3084 
    3045     3142     3348     3613     3823     3832     3703     3588 
    3581     3658     3670     3570     3453     3429     3580     3840 
    3998     3960     3765     3524     3468     3665     3875     3861 
    3605     3334     3308     3457     3473     3311     3230     3388 
    3663     3844     3794     3588     3504     3696     4050     4314 
    4288     4078     3956     3973     3925     3727     3559     3547 
    3603     3639     3688     3843     4013     3951     3677     3445 
    3339     3283     3223     3192     3267     3412     3499     3500 
    3488     3527     3666     3873     3986     3858     3562     3330 
    3310     3473     3642     3693     3746     3824     3692     3343 
    3078     3106     3381     3649     3771     3877     4025     4067 
    3896     3672     3627     3669     3557     3375     3396     3645 
    3831     3697     3410     3335     3464     3542     3470     3303 
    3168     3138     3145     3140     3133     3173     3341     3580 
    3699     3626     3538     3624     3847     4006     3942     3754 
    3700     3815     3906     3763     3399     3167     3310     3653 
    3894     3829     3584     3505     3630     3704     3632     3565 
    3645     3821     3898     3724     3469     3451     3626     3754 
    3746     3573     3411     3515     3734     3739     3543     3387 
    3461     3792     4047     3881     3545     3426     3503     3639 
    3701     3623     3564     3599     3592     3522     3480     3535 
    3767     4044     4095     3925     3730     3674     3767     3747 
    3474     3195     3156     3399     3728     3811     3603     3446 
    3609     3870     3894     3696     3480     3434     3596     3778 
    3835     3825     3824     3846     3924     3958     3804     3564 
    3412     3387     3431     3389     3235     3218     3434     3690 
    3834     3846     3771     3662     3595     3605     3615     3562 
    3553     3658     3734     3634     3503     3570     3708     3618 
    3407     3377     3503     3526     3327     3121     3156     3281 
    3226     3106     3225     3639     4079     4171     3870     3570 
    3557     3703     3769     3672     3534     3510     3588     3670 
    3738     3816     3861     3802     3689     3636     3673     3682 
    3597     3580     3743     3910     3909     3730     3524     3489 
    3562     3638     3742     3762     3654     3550     3566     3748 
    3900     3774     3501     3361     3458     3645     3608     3353 
    3285     3541     3815     3829     3554     3217     3140     3377 
    3663     3709     3497     3319     3410     3690     3881     3836 
    3757     3846     4054     4220     4198     4040     3931     3811 
    3545     3289     3204     3275     3512     3781     3807     3562 
    3319     3349     3585     3676     3576     3581     3765     3867 
    3739     3581     3626     3726     3581     3331     3331     3534 
    3640     3582     3578     3819     4091     4094     3871     3651 
    3538     3495     3508     3597     3677     3650     3591     3659 
    3804     3831     3686     3487     3477     3670     3717     3561 
    3492     3611     3831     3944     3794     3564     3443     3456 
    3620     3811     3886     3852     3721     3623     3654     3673 
    3601     3526     3539     3736     4020     4135     4010     3823 
    3740     3669     3427     3121     3009     3144     3321     3330 
    3211     3157     3245     3388     3422     3312     3250     3337 
    3472     3616     3750     3802     3801     3762     3697     3694 
    3707     3640     3612     3663     3659     3611     3609     3636 
    3632     3600     3589     3557     3414     3240     3296     3681 
    4086     4143     3904     3732     3820     4037     4122     3951 
    3646     3395     3287     3322     3352     3208     3007     2988 
    3181     3404     3443     3338     3325     3408     3414     3321 
    3208     3191     3365     3647     3856     3863     3693     3589 
    3684     3834     3838     3573     3213     3130     3354     3561 
    3564     3488     3547     3793     4013     3967     3775     3655 
    3535     3431     3480     3620     3781     3823     3647     3538 
    3603     3510     3261     3252     3615     4017     4045     3739 
    3549     3677     3782     3549     3164     2998     3215     3588 
    3697     3542     3489     3690     3967     4056     3960     3883 
    3819     3657     3450     3306     3233     3188     3234     3457 
    3730     3819     3727     3682     3769     3827     3812     3842 
    3877     3789     3597     3464     3489     3474     3227     3046 
    3277     3723     3970     3878     3612     3441     3535     3846 
    4166     4266     4149     4186     4506     4648     4284     3701 
    3411     3584     3780     3573     3234     3215     3553     3933 
    4018     3782     3495     3393     3458     3435     3206     2988 
    2965     3076     3223     3358     3485     3619     3713     3739 
    3736     3684     3580     3591     3753     3838     3735     3580 
    3496     3446     3346     3279     3406     3632     3672     3483 
    3337     3403     3605     3761     3767     3732     3701     3649 
    3681     3848     4013     4025     3917     3923     4027     3925 
    3578     3267     3246     3503     3730     3713     3578     3511 
    3585     3788     3896     3742     3493     3358     3389     3514 
    3538     3422     3314     3272     3299     3387     3476     3597 
    3736     3743     3603     3395     3199     3181     3364     3504 
    3439     3312     3314     3487     3735     3901     3942     3862 
    3669     3524     3584     3711     3723     3630     3537     3481 
    3414     3330     3310     3481     3820     4064     4082     3970 
    3750     3520     3461     3447     3375     3369     3423     3537 
    3661     3512     3199     3110     3262     3537     3827     3898 
    3781     3828     4106     4260     4105     3800     3585     3547 
    3450     3154     2960     3024     3168     3289     3360     3454 
    3681     3890     3877     3672     3481     3588     4071     4511 
    4418     3892     3437     3392     3676     3901     3867     3790 
    3861     3910     3721     3316     2917     2752     2828     3024 
    3284     3503     3588     3547     3411     3291     3269     3345 
    3551     3801     3947     4099     4390     4658     4727     4594 
    4394     4302     4253     4008     3572     3218     3215     3585 
    3939     3873     3504     3219     3240     3477     3572     3352 
    3121     3140     3380     3761     4039     3978     3785     3693 
    3651     3628     3564     3391     3273     3288     3283     3260 
    3365     3593     3798     3913     4074     4353     4521     4349 
    3937     3658     3796     4105     4098     3796     3528     3433 
    3514     3693     3882     4126     4355     4356     4120     3824 
    3635     3516     3240     2843     2691     2902     3196     3364 
    3512     3789     4133     4287     4095     3775     3636     3690 
    3801     3874     3859     3766     3613     3487     3520     3615 
    3478     3123     2970     3218     3639     3970     4179     4452 
    4702     4558     4074     3616     3376     3354     3375     3298 
    3167     3001     2839     2710     2636     2736     3003     3307 
    3549     3646     3672     3715     3732     3684     3512     3233 
    3009     2983     3176     3443     3593     3662     3829     4077 
    4216     4198     4125     4137     4325     4540     4571     4417 
    4110     3730     3493     3512     3672     3715     3477     3150 
    3087     3267     3300     3002     2575     2351     2529     2955 
    3267     3302     3153     3053     3204     3508     3584     3385 
    3392     3813     4276     4368     4016     3539     3281     3188 
    3084     3040     3188     3465     3697     3829     3858     3805 
    3734     3663     3640     3634     3592     3754     4212     4576 
    4475     3954     3530     3577     3697     3358     2775     2640 
    3153     3754     3865     3511     3230     3403     3750     3896 
    3883     3836     3824     3939     4078     4047     3825     3559 
    3522     3870     4267     4278     3946     3564     3379     3501 
    3769     3892     3715     3348     3140     3253     3419     3330 
    3098     3111     3427     3708     3748     3632     3564     3616 
    3631     3620     3780     3943     3775     3433     3350     3630 
    3879     3636     3060     2810     3040     3289     3310     3294 
    3478     3851     4207     4405     4460     4419     4301     4220 
    4233     4156     3875     3522     3348     3518     3777     3813 
    3740     3753     3905     4086     4033     3785     3642     3645 
    3622     3534     3445     3376     3412     3582     3753     3874 
    3873     3670     3435     3279     3167     3100     3044     3119 
    3516     4020     4290     4272     4117     3948     3744     3370 
    2770     2193     2091     2536     3140     3514     3558     3531 
    3751     4077     4148     4047     4032     4054     3981     3739 
    3322     2898     2632     2600     2830     3208     3543     3721 
    3780     3831     3773     3445     3136     3199     3451     3553 
    3505     3514     3667     3786     3569     3161     3063     3285 
    3458     3518     3577     3700     3975     4332     4506     4426 
    4291     4206     4118     4006     3937     4040     4206     4086 
    3649     3308     3453     3921     4133     3962     3804     3855 
    3962     3804     3304     2903     2868     3007     3144     3153 
    3041     3005     3069     3204     3507     3883     4147     4294 
    4263     4005     3688     3391     3181     3231     3437     3516 
    3408     3260     3267     3418     3437     3302     3366     3693 
    3959     3975     3835     3812     3960     3931     3649     3510 
    3685     3900     3807     3361     2914     2735     2733     2782 
    2907     3154     3414     3546     3596     3686     3839     3974 
    3983     3839     3636     3516     3574     3762     3915     3904 
    3708     3500     3559     3919     4280     4359     4209     4108 
    4113     4039     3834     3716     3869     4112     4135     3897 
    3591     3414     3424     3543     3705     3879     3975     3920 
    3867     4021     4261     4286     4017     3611     3253     2972 
    2739     2709     2948     3204     3262     3156     3100     3246 
    3534     3848     4004     3892     3712     3624     3595     3600 
    3562     3505     3620     3942     4295     4394     4056     3487 
    3075     3002     3103     3121     3034     3028     3214     3433 
    3438     3246     3068     3107     3404     3751     3898     3801 
    3604     3535     3636     3635     3337     2951     2844     3136 
    3577     3809     3739     3640     3770     3960     3931     3734 
    3592     3616     3774     3950     4078     4149     4141     4071 
    3982     3774     3396     3048     2995     3364     4009     4575 
    4820     4792     4612     4305     3840     3277     2783     2436 
    2142     1946     2069     2505     3084     3658     4051     4263 
    4380     4388     4383     4436     4367     4089     3781     3630 
    3630     3638     3576     3618     3974     4419     4544     4271 
    3827     3474     3218     2925     2752     2911     3296     3665 
    3842     3802     3662     3526     3430     3348     3233     3132 
    3107     3221     3437     3561     3553     3620     3843     3998 
    3797     3258     2698     2458     2708     3267     3823     4244 
    4514     4685     4770     4642     4256     3782     3523     3618 
    3804     3808     3653     3518     3559     3658     3534     3260 
    3145     3227     3269     3107     2798     2536     2592     3099 
    3827     4307     4257     3924     3856     4116     4225     3998 
    3735     3723     3863     3788     3458     3233     3261     3415 
    3580     3701     3792     3875     3885     3808     3705     3580 
    3485     3532     3748     4023     4151     4113     4114     4168 
    4068     3785     3532     3449     3423     3326     3188     3084 
    3025     3011     3106     3279     3327     3221     3194     3349 
    3518     3462     3150     2944     3164     3612     3946     4064 
    4052     4129     4340     4419     4253     3971     3744     3686 
    3670     3464     3219     3242     3397     3464     3476     3461 
    3468     3561     3667     3771     3847     3755     3624     3678 
    3813     3856     3781     3693     3740     3865     3836     3585 
    3253     2925     2617     2479     2619     2976     3441     3820 
    4029     4191     4224     3969     3618     3466     3666     4058 
    4230     4132     4028     3959     3886     3747     3419     3083 
    3064     3354     3697     3780     3555     3419     3559     3777 
    3875     3804     3742     3777     3712     3514     3323     3248 
    3356     3565     3720     3780     3774     3767     3798     3765 
    3555     3292     3122     3038     3021     2990     2901     2894 
    3009     3153     3335     3593     3852     3937     3789     3607 
    3642     3873     3975     3781     3558     3577     3754     3796 
    3631     3547     3685     3881     3981     3909     3788     3829 
    4023     4228     4251     4009     3767     3786     3966     4077 
    4044     4006     4071     4087     3881     3554     3325     3264 
    3304     3353     3387     3424     3381     3144     2848     2767 
    2945     3272     3655     3978     4202     4380     4434     4278 
    4035     3871     3831     3878     3944     3975     3916     3639 
    3154     2764     2644     2601     2523     2559     2794     3107 
    3342     3480     3669     3967     4155     4087     3920     3839 
    3947     4221     4401     4305     4056     3820     3673     3605 
    3520     3402     3383     3523     3677     3726     3690     3600 
    3418     3079     2648     2292     2153     2353     2836     3299 
    3543     3659     3869     4190     4320     4120     3897     3979 
    4303     4465     4241     3879     3661     3577     3557     3555 
    3526     3484     3465     3553     3784     3956     3942     3834 
    3716     3657     3651     3596     3477     3392     3433     3628 
    3881     3991     3886     3689     3526     3476     3589     3758 
    3870     3927     3870     3696     3520     3391     3249     3045 
    2826     2712     2731     2837     3014     3204     3319     3372 
    3416     3451     3503     3586     3705     3869     3947     3843 
    3689     3574     3505     3515     3555     3622     3765     3898 
    4004     4124     4101     3851     3566     3433     3469     3565 
    3666     3825     4018     4108     4006     3804     3670     3643 
    3666     3689     3654     3511     3275     3084     3119     3325 
    3510     3655     3811     3970     4064     3944     3654     3491 
    3541     3645     3751     3862     3963     4099     4182     4085 
    3866     3573     3234     2980     2853     2810     2889     3125 
    3410     3577     3596     3558     3531     3537     3528     3395 
    3127     2862     2674     2550     2521     2652     2945     3287 
    3532     3708     3905     4095     4216     4229     4178     4205 
    4302     4330     4279     4156     3962     3829     3838     3925 
    4044     4102     4041     3933     3774     3543     3373     3383 
    3559     3751     3794     3777     3847     3869     3693     3450 
    3316     3304     3280     3160     3075     3176     3434     3773 
    4083     4237     4287     4383     4511     4550     4448     4247 
    4040     3863     3663     3449     3361     3464     3609     3692 
    3681     3538     3354     3279     3329     3453     3586     3678 
    3751     3816     3817     3740     3589     3376     3276     3447 
    3740     3882     3767     3512     3287     3106     2934     2844 
    2876     2960     2970     2911     2941     3129     3365     3487 
    3465     3454     3551     3692     3786     3842     3923     4054 
    4245     4448     4519     4434     4284     4133     4060     4081 
    4083     3987     3817     3688     3670     3672     3532     3198 
    2872     2837     3079     3327     3369     3252     3199     3306 
    3453     3493     3370     3190     3181     3418     3711     3842 
    3717     3469     3420     3667     3933     3981     3919     4051 
    4398     4581     4355     3956     3794     3858     3808     3609 
    3562     3743     3892     3809     3615     3483     3402     3331 
    3296     3268     3200     3106     3024     3003     3038     3087 
    3206     3411     3549     3547     3472     3379     3349     3380 
    3356     3258     3113     2930     2833     2925     3187     3558 
    3940     4197     4252     4122     3917     3727     3508     3306 
