Origin Time       2024/04/02 04:24:00
Lat.              40.133
Long.             141.712
Depth. (km)       71
Mag.              6.0
Station Code      HKD157
Station Lat.      41.9053
Station Long.     140.9698
Station Height(m) 37
Record Time       2024/04/02 04:25:08
Sampling Freq(Hz) 100Hz
Duration Time(s)  99
Dir.              N-S
Scale Factor      7845(gal)/8223790
Max. Acc. (gal)   8.989
Last Correction   2024/04/02 04:25:08
Memo.             
[...]
   -2047    -2543    -2929    -2940    -2494    -1813    -1275    -1178 
   -1564    -2151    -2554    -2643    -2512    -2241    -1892    -1606 
   -1571    -1833    -2177    -2388    -2420    -2293    -2137    -2083 
   -2077    -2104    -2214    -2299    -2265    -2231    -2335    -2516 
   -2569    -2388    -2133    -2047    -2133    -2141    -1922    -1601 
   -1440    -1642    -2068    -2320    -2281    -2191    -2218    -2316 
   -2394    -2353    -2115    -1752    -1375    -1001     -745     -851 
   -1422    -2346    -3245    -3646    -3439    -2856    -2145    -1518 
   -1189    -1287    -1687    -2066    -2253    -2322    -2384    -2444 
   -2482    -2488    -2400    -2141    -1713    -1205     -766     -595 
    -814    -1354    -2081    -2817    -3300    -3430    -3265    -2868 
   -2393    -2060    -1976    -2031    -2011    -1921    -1914    -2015 
   -2138    -2200    -2176    -2095    -1977    -1826    -1687    -1632 
   -1769    -2170    -2760    -3399    -3850    -3821    -3330    -2673 
   -2035    -1463     -945     -546     -529     -994    -1665    -2173 
   -2303    -2099    -1848    -1786    -1904    -2049    -2118    -2196 
   -2382    -2539    -2434    -2126    -1988    -2231    -2613    -2743 
   -2461    -1984    -1760    -1976    -2315    -2398    -2193    -1890 
   -1738    -1827    -1987    -2031    -1996    -2027    -2126    -2134 
   -1995    -1834    -1833    -2061    -2371    -2513    -2355    -1980 
   -1582    -1283    -1138    -1192    -1409    -1695    -2068    -2585 
   -3115    -3412    -3375    -3105    -2817    -2694    -2737    -2744 
   -2474    -1911    -1331     -986     -868     -942    -1251    -1702 
   -2133    -2432    -2555    -2593    -2598    -2481    -2292    -2149 
   -1995    -1819    -1790    -2039    -2411    -2492    -2081    -1475 
   -1167    -1390    -1948    -2465    -2690    -2623    -2475    -2389 
   -2323    -2274    -2315    -2385    -2316    -2037    -1687    -1464 
   -1390    -1336    -1236    -1242    -1534    -2033    -2520    -2907 
   -3181    -3234    -2918    -2242    -1495    -1121    -1291    -1665 
   -1761    -1522    -1381    -1715    -2424    -3091    -3362    -3213 
   -2906    -2643    -2342    -1873    -1314     -889     -745     -886 
   -1260    -1814    -2415    -2835    -2925    -2735    -2488    -2378 
   -2370    -2338    -2241    -2142    -2112    -2066    -1876    -1638 
   -1578    -1692    -1792    -1817    -1856    -2030    -2408    -2822 
   -3068    -3171    -3086    -2648    -1953    -1274     -758     -514 
    -677    -1205    -1829    -2288    -2536    -2727    -2959    -3125 
   -3032    -2589    -1939    -1433    -1275    -1337    -1449    -1644 
   -2016    -2467    -2724    -2659    -2397    -2112    -1856    -1617 
   -1451    -1468    -1742    -2201    -2573    -2604    -2442    -2509 
   -2882    -3144    -2948    -2385    -1848    -1638    -1687    -1779 
   -1896    -2089    -2268    -2270    -2034    -1698    -1480    -1471 
   -1602    -1753    -1891    -2108    -2478    -2976    -3450    -3561 
   -3061    -2116    -1196     -715     -766    -1174    -1713    -2173 
   -2454    -2648    -2875    -3117    -3302    -3318    -2995    -2300 
   -1382     -487        5     -203    -1001    -1966    -2663    -2813 
   -2506    -2173    -2127    -2296    -2388    -2166    -1703    -1302 
   -1097    -1032    -1174    -1655    -2359    -2963    -3225    -3107 
   -2816    -2610    -2461    -2196    -1894    -1817    -2110    -2566 
   -2770    -2574    -2224    -1948    -1682    -1290     -881     -824 
   -1321    -2064    -2587    -2762    -2759    -2729    -2602    -2268 
   -1853    -1638    -1757    -2008    -2011    -1719    -1518    -1706 
   -2197    -2673    -2882    -2840    -2689    -2478    -2246    -2083 
   -2038    -2076    -2061    -1942    -1944    -2196    -2385    -2164 
   -1614    -1090     -965    -1402    -2104    -2546    -2560    -2401 
   -2332    -2392    -2450    -2338    -2020    -1698    -1551    -1549 
   -1579    -1571    -1598    -1873    -2455    -3010    -3157    -2883 
   -2404    -1950    -1699    -1640    -1615    -1572    -1628    -1902 
   -2322    -2610    -2605    -2484    -2436    -2309    -1884    -1296 
   -1017    -1387    -2158    -2772    -2965    -2825    -2587    -2405 
   -2200    -1883    -1539    -1264    -1090    -1057    -1273    -1825 
   -2536    -2976    -2903    -2554    -2385    -2579    -2903    -2999 
   -2767    -2430    -2204    -2035    -1745    -1329    -1043    -1188 
   -1738    -2295    -2486    -2351    -2234    -2347    -2532    -2562 
   -2486    -2428    -2351    -2234    -2061    -1728    -1254     -851 
    -781    -1225    -2031    -2775    -3217    -3410    -3454    -3311 
   -2938    -2519    -2218    -1937    -1567    -1158     -810     -679 
    -908    -1459    -2100    -2679    -3268    -3827    -3983    -3487 
   -2590    -1809    -1426    -1309    -1205    -1101    -1154    -1401 
   -1695    -1892    -1983    -2027    -2097    -2243    -2455    -2654 
   -2729    -2616    -2347    -2061    -1895    -1829    -1715    -1480 
   -1221    -1084    -1186    -1611    -2259    -2864    -3261    -3411 
   -3315    -3053    -2686    -2141    -1412     -787     -637     -957 
   -1336    -1489    -1518    -1755    -2450    -3331    -3731    -3373 
   -2635    -2061    -1854    -1830    -1804    -1810    -1984    -2323 
   -2542    -2363    -1953    -1738    -1918    -2292    -2508    -2421 
   -2184    -2041    -2083    -2151    -2134    -2073    -1958    -1763 
   -1526    -1282    -1161    -1351    -1892    -2617    -3184    -3287 
   -2990    -2573    -2162    -1769    -1405    -1120    -1075    -1383 
   -1888    -2305    -2474    -2454    -2469    -2619    -2774    -2743 
   -2377    -1709     -959     -459     -537    -1219    -2124    -2776 
   -2982    -2906    -2727    -2408    -1938    -1487    -1251    -1291 
   -1532    -1830    -2106    -2396    -2701    -2898    -2878    -2644 
   -2284    -1971    -1881    -2039    -2328    -2550    -2542    -2359 
   -2118    -1818    -1483    -1194    -1028    -1075    -1387    -1927 
   -2458    -2664    -2578    -2509    -2515    -2424    -2228    -2041 
   -1860    -1584    -1201     -868     -819    -1201    -1930    -2659 
   -3065    -3113    -2937    -2691    -2484    -2263    -2019    -1931 
   -2093    -2263    -2127    -1749    -1471    -1475    -1718    -2029 
   -2187    -2147    -2020    -1826    -1539    -1286    -1323    -1809 
   -2546    -3088    -3206    -3002    -2674    -2346    -2101    -2081 
   -2397    -2852    -3036    -2748    -2134    -1574    -1453    -1807 
   -2331    -2700    -2758    -2520    -2060    -1524    -1185    -1248 
   -1578    -1879    -2118    -2436    -2776    -2907    -2678    -2209 
   -1799    -1624    -1614    -1640    -1713    -1854    -1954    -2034 
   -2200    -2312    -2234    -2135    -2173    -2177    -1954    -1696 
   -1790    -2340    -3022    -3376    -3238    -2886    -2619    -2413 
   -2107    -1659    -1215     -996    -1048    -1269    -1638    -2180 
   -2803    -3349    -3593    -3352    -2637    -1728    -1074     -950 
   -1169    -1432    -1675    -1966    -2311    -2617    -2810    -2856 
   -2794    -2708    -2613    -2458    -2205    -1895    -1676    -1617 
   -1633    -1651    -1605    -1505    -1494    -1649    -1815    -1792 
   -1653    -1688    -1999    -2369    -2562    -2511    -2286    -2004 
   -1819    -1885    -2157    -2351    -2277    -1985    -1668    -1549 
   -1702    -2007    -2322    -2527    -2579    -2598    -2655    -2617 
   -2363    -1980    -1679    -1586    -1648    -1746    -1821    -1853 
   -1815    -1759    -1873    -2249    -2693    -2953    -2926    -2621 
   -2114    -1547    -1088     -932    -1256    -1941    -2528    -2628 
   -2300    -1985    -2031    -2330    -2525    -2408    -2037    -1744 
   -1806    -2043    -2103    -1960    -1825    -1786    -1748    -1653 
   -1597    -1705    -1987    -2339    -2575    -2602    -2548    -2533 
   -2470    -2205    -1788    -1476    -1487    -1829    -2297    -2654 
   -2828    -2872    -2826    -2682    -2390    -1981    -1605    -1412 
   -1474    -1725    -1996    -2182    -2312    -2389    -2366    -2239 
   -2034    -1813    -1690    -1694    -1748    -1783    -1858    -2103 
   -2489    -2814    -2918    -2799    -2556    -2334    -2203    -2041 
   -1657    -1144     -869    -1061    -1602    -2219    -2674    -2843 
   -2741    -2554    -2533    -2706    -2771    -2435    -1710    -1001 
    -774    -1104    -1717    -2299    -2656    -2808    -2843    -2760 
   -2552    -2263    -1972    -1749    -1520    -1210     -976     -977 
   -1198    -1494    -1642    -1574    -1471    -1637    -2209    -2963 
   -3465    -3488    -3199    -2907    -2691    -2424    -2035    -1629 
   -1458    -1718    -2238    -2589    -2505    -2064    -1659    -1651 
   -1888    -1942    -1705    -1425    -1385    -1644    -2012    -2290 
   -2403    -2407    -2470    -2650    -2737    -2550    -2209    -1964 
   -1856    -1750    -1653    -1740    -2053    -2392    -2515    -2330 
   -1948    -1587    -1462    -1690    -2200    -2783    -3221    -3357 
   -3186    -2867    -2592    -2428    -2247    -1883    -1351     -901 
    -807     -996    -1147    -1243    -1555    -2135    -2754    -3122 
   -3055    -2678    -2281    -1911    -1435     -878     -496     -564 
   -1101    -1833    -2430    -2729    -2758    -2683    -2686    -2751 
   -2760    -2682    -2493    -2191    -1880    -1610    -1372    -1277 
   -1449    -1858    -2312    -2601    -2646    -2473    -2207    -2058 
   -2116    -2281    -2430    -2493    -2477    -2443    -2369    -2176 
   -1850    -1486    -1283    -1447    -1953    -2539    -2917    -2982 
   -2852    -2682    -2544    -2384    -2064    -1617    -1185     -841 
    -710     -892    -1333    -1960    -2654    -3177    -3335    -3118 
   -2679    -2212    -1854    -1679    -1694    -1869    -2208    -2628 
   -2856    -2740    -2392    -1998    -1713    -1615    -1701    -1950 
   -2269    -2409    -2201    -1818    -1621    -1771    -2122    -2359 
   -2216    -1795    -1486    -1509    -1804    -2272    -2832    -3365 
   -3673    -3608    -3181    -2466    -1582     -810     -391     -341 
    -641    -1246    -1942    -2554    -3055    -3337    -3190    -2619 
   -1969    -1611    -1611    -1809    -2025    -2139    -2181    -2269 
   -2299    -2037    -1561    -1202    -1154    -1409    -1804    -2153 
   -2412    -2644    -2849    -2870    -2539    -1923    -1336    -1026 
    -922     -880    -1019    -1474    -2081    -2570    -2830    -2925 
   -3017    -3208    -3354    -3190    -2656    -2027    -1715    -1826 
   -2101    -2320    -2473    -2605    -2652    -2498    -2155    -1790 
   -1574    -1549    -1543    -1417    -1347    -1548    -1975    -2396 
   -2527    -2249    -1822    -1625    -1723    -1902    -1952    -1802 
   -1502    -1236    -1235    -1575    -2111    -2601    -2863    -2868 
   -2704    -2421    -2033    -1641    -1356    -1232    -1368    -1757 
   -2120    -2234    -2212    -2259    -2389    -2438    -2234    -1880 
   -1782    -2150    -2664    -2839    -2581    -2161    -1825    -1632 
   -1539    -1463    -1352    -1301    -1509    -2014    -2605    -3078 
   -3343    -3308    -2945    -2482    -2177    -1999    -1775    -1478 
   -1317    -1543    -2115    -2706    -3030    -3033    -2840    -2565 
   -2176    -1649    -1085     -626     -436     -558     -873    -1277 
   -1757    -2284    -2751    -3001    -2903    -2521    -2164    -2083 
   -2170    -2133    -1900    -1659    -1570    -1636    -1746    -1803 
   -1777    -1719    -1769    -1976    -2200    -2317    -2376    -2515 
   -2732    -2872    -2883    -2840    -2745    -2535    -2232    -1971 
   -1790    -1605    -1447    -1516    -1887    -2320    -2450    -2215 
   -1923    -1863    -2093    -2512    -2870    -3005    -3044    -3084 
   -2957    -2574    -2053    -1540    -1143     -877     -745     -831 
   -1175    -1746    -2458    -3134    -3592    -3705    -3456    -2947 
   -2288    -1593     -993     -490      -98      -20     -395    -1166 
   -2083    -2791    -3200    -3472    -3543    -3262    -2722    -2146 
   -1769    -1701    -1795    -1887    -1918    -1892    -1957    -2295 
   -2813    -3167    -3134    -2797    -2439    -2220    -1996    -1536 
    -870     -360     -441    -1256    -2450    -3461    -4089    -4499 
   -4770    -4882    -4822    -4554    -4152    -3639    -2816    -1597 
    -205     1119     2161     2690     2606     1872      382    -1701 
   -3724    -5070    -5668    -5838    -5904    -5799    -5104    -3622 
   -1674      153     1354     1722     1309      222    -1329    -2963 
   -4257    -4939    -4995    -4615    -4013    -3307    -2479    -1462 
    -276      920     1894     2444     2542     2334     2047     1695 
     961     -486    -2610    -4835    -6401    -7063    -7150    -7007 
   -6555    -5422    -3591    -1543      171     1171     1444     1283 
     722     -380    -1896    -3557    -5024    -5923    -6076    -5518 
   -4484    -3402    -2536    -1857    -1362    -1131    -1217    -1655 
   -2309    -2889    -3200    -3167    -2786    -2119    -1221     -183 
     781     1273      777     -747    -2493    -3412    -2997    -1462 
     473     1919     2180     1174     -675    -2991    -5514    -7804 
   -9238    -9242    -7635    -4914    -1960      556     2462     3840 
    4536     4114     2361     -494    -3940    -7287    -9664   -10392 
   -9398    -7107    -4132    -1066     1787     4341     6362     7335 
    6801     4796     1890    -1163    -3843    -6034    -7774    -9115 
  -10002   -10046    -8868    -6646    -4000    -1474      716     2493 
    3578     3659     2799     1298     -459    -1975    -3122    -4321 
   -5805    -7136    -7576    -6745    -5057    -3350    -2052    -1154 
    -830    -1170    -1603    -1399     -427      805     1564     1449 
     747      163      156      422       49    -1634    -4282    -6774 
   -8095    -7707    -5481    -1865     2010     4741     5375     3937 
    1117    -2327    -5678    -8185    -9273    -8943    -7758    -6226 
   -4486    -2477     -108     2435     4488     5375     4881     3141 
     363    -3053    -6367    -8664    -9219    -7830    -4922    -1341 
    1923     3909     4040     2569      444    -1316    -2273    -2833 
   -3612    -4793    -6253    -7561    -8175    -7857    -6543    -4267 
   -1360     1490     3414     3869     3021     1576      248     -770 
   -1868    -3397    -5147    -6658    -7703    -8095    -7589    -6030 
   -3343       71     3103     4681     4544     3283     1814      607 
    -467    -1630    -2790    -3522    -3589    -3330    -3225    -3393 
   -3562    -3349    -2637    -1695    -1066    -1225    -2176    -3410 
   -4274    -4544    -4557    -4537    -4176    -3148    -1701     -522 
     -86     -190     -218      118      523      368     -866    -2986 
   -5044    -6164    -6087    -5049    -3531    -2016     -816     -118 
     106      162      186       37     -353     -962    -1736    -2463 
   -2964    -3365    -3840    -4230    -4236    -3901    -3465    -2891 
   -2064    -1155     -521     -276      -43      504     1143     1332 
     584    -1129    -3314    -5323    -6658    -7229    -7238    -6685 
   -5260    -2874       94     3088     5319     5911     4800     2802 
     648    -1539    -3854    -6065    -7597    -7825    -6554    -4506 
   -2813    -2046    -2072    -2459    -2976    -3717    -4518    -4665 
   -3624    -1728      128     1210     1435     1225      862      129 
   -1371    -3434    -4930    -4916    -3655    -2100    -1019     -693 
    -892    -1111    -1036     -803     -826    -1487    -2887    -4565 
   -5717    -5983    -5479    -4336    -2763    -1078      465     1618 
    2072     1575       33    -2124    -3875    -4432    -3838    -2704 
   -1746    -1383    -1657    -2290    -2785    -2810    -2563    -2749 
   -3898    -5459    -6192    -5331    -3053     -275     1880     2770 
    2605     2012     1289      307     -992    -2354    -3408    -3977 
   -4175    -4214    -4055    -3526    -2868    -2673    -3204    -4093 
   -4747    -4887    -4449    -3442    -1937      -48     1977     3831 
    5070     4972     3196      395    -2416    -4758    -6646    -8058 
   -8606    -7732    -5351    -2227      387     1607     1467      615 
    -375    -1308    -2172    -2905    -3326    -3279    -2941    -2781 
   -2884    -2856    -2500    -1931    -1270     -679     -367     -326 
    -360     -537    -1208    -2405    -3754    -4888    -5483    -5335 
   -4743    -4294    -4082    -3699    -2951    -1945     -810      112 
     417       85     -584    -1247    -1695    -1918    -2043    -2258 
   -2732    -3408    -3854    -3753    -3214    -2386    -1359     -267 
     704     1186      835     -193    -1447    -2704    -3939    -4996 
   -5644    -5746    -5344    -4594    -3578    -2288     -807      666 
    1908     2624     2565     1807      596     -938    -2605    -4099 
   -5103    -5216    -4271    -2718    -1182      133     1162     1466 
     564    -1271    -2972    -3711    -3773    -3915    -4287    -4542 
   -4399    -3850    -3144    -2601    -2269    -2006    -2000    -2519 
   -3191    -3279    -2563    -1563     -827     -286      413     1221 
    1574      869     -950    -3273    -5260    -6349    -6424    -5671 
   -4278    -2366     -330     1085     1529     1435     1219      654 
    -589    -2317    -3954    -5047    -5530    -5603    -5397    -4792 
   -3669    -2234     -954     -257     -367    -1138    -1937    -2060 
   -1497     -893     -766    -1228    -2052    -2625    -2550    -2253 
   -2292    -2550    -2728    -2749    -2466    -1911    -1472    -1301 
   -1171     -924     -654     -568     -720    -1057    -1555    -2157 
   -2774    -3260    -3450    -3449    -3586    -3925    -4183    -4099 
   -3599    -2741    -1786    -1044     -697     -772    -1162    -1783 
   -2585    -3419    -4077    -4274    -3730    -2490    -1086     -144 
     180       41     -492    -1331    -2257    -2925    -3045    -2606 
   -1890    -1255     -915     -978    -1405    -1912    -2335    -2678 
   -2883    -2851    -2596    -2386    -2415    -2443    -2092    -1294 
    -481     -135     -305     -843    -1633    -2573    -3635    -4776 
   -5630    -5605    -4425    -2376     -198     1297     1737     1192 
      40    -1206    -2250    -3044    -3624    -3927    -3790    -3273 
   -2631    -2083    -1861    -2002    -2176    -2115    -1968    -1977 
   -2095    -2172    -2290    -2555    -2814    -2870    -2718    -2627 
   -3013    -3939    -4885    -5248    -4756    -3491    -1873     -375 
     846     1687     1831     1156     -103    -1543    -2662    -3115 
   -2959    -2536    -2160    -1996    -2031    -2073    -1968    -1713 
   -1431    -1385    -1788    -2559    -3269    -3470    -3113    -2446 
   -1714    -1092     -670     -450     -484     -908    -1698    -2604 
   -3265    -3245    -2471    -1630    -1443    -1759    -1957    -1841 
   -1782    -2253    -3213    -3890    -3499    -2083     -438      542 
     491     -279    -1345    -2431    -3133    -3288    -3231    -3240 
   -3331    -3368    -3057    -2394    -1996    -2347    -3036    -3204 
   -2604    -1976    -2088    -2781    -3384    -3496    -3213    -2843 
