Origin Time       2024/04/02 04:24:00
Lat.              40.133
Long.             141.712
Depth. (km)       71
Mag.              6.0
Station Code      HKD105
Station Lat.      42.4826
Station Long.     142.0538
Station Height(m) 7
Record Time       2024/04/02 04:25:45
Sampling Freq(Hz) 100Hz
Duration Time(s)  74
Dir.              N-S
Scale Factor      7845(gal)/8223790
Max. Acc. (gal)   3.804
Last Correction   2024/04/02 04:25:46
Memo.             
[...]
   -3084    -3392    -3819    -4168    -4342    -4384    -4332    -4160 
   -3896    -3646    -3468    -3330    -3194    -3033    -2851    -2686 
   -2600    -2627    -2785    -3061    -3384    -3647    -3800    -3848 
   -3824    -3757    -3666    -3568    -3464    -3354    -3256    -3181 
   -3144    -3146    -3160    -3133    -3037    -2893    -2776    -2771 
   -2887    -3065    -3208    -3272    -3295    -3343    -3438    -3546 
   -3622    -3628    -3542    -3368    -3169    -3034    -3007    -3075 
   -3203    -3358    -3492    -3572    -3597    -3554    -3442    -3322 
   -3234    -3167    -3127    -3160    -3264    -3362    -3381    -3346 
   -3339    -3400    -3512    -3645    -3773    -3850    -3825    -3705 
   -3546    -3397    -3281    -3196    -3148    -3145    -3198    -3338 
   -3601    -3948    -4256    -4403    -4363    -4213    -4060    -3950 
   -3861    -3762    -3627    -3438    -3219    -3030    -2925    -2889 
   -2868    -2902    -3065    -3333    -3592    -3773    -3865    -3877 
   -3821    -3723    -3622    -3534    -3453    -3380    -3302    -3173 
   -2991    -2808    -2690    -2677    -2749    -2862    -2994    -3134 
   -3262    -3385    -3531    -3645    -3632    -3493    -3335    -3258 
   -3284    -3353    -3377    -3318    -3187    -2999    -2789    -2624 
   -2547    -2550    -2596    -2666    -2759    -2860    -2984    -3171 
   -3419    -3692    -3933    -4114    -4245    -4318    -4311    -4216 
   -4033    -3775    -3492    -3262    -3117    -3025    -2936    -2836 
   -2790    -2857    -3018    -3208    -3376    -3481    -3504    -3496 
   -3516    -3543    -3534    -3493    -3462    -3461    -3478    -3499 
   -3522    -3534    -3520    -3507    -3531    -3572    -3562    -3484 
   -3427    -3480    -3615    -3728    -3751    -3689    -3570    -3420 
   -3272    -3177    -3156    -3159    -3106    -2990    -2895    -2920 
   -3072    -3283    -3465    -3577    -3616    -3592    -3508    -3370 
   -3231    -3168    -3187    -3222    -3225    -3221    -3238    -3288 
   -3387    -3514    -3596    -3566    -3437    -3296    -3211    -3148 
   -3036    -2926    -2936    -3082    -3277    -3443    -3549    -3592 
   -3593    -3603    -3676    -3781    -3805    -3690    -3531    -3454 
   -3483    -3557    -3651    -3775    -3898    -3947    -3906    -3825 
   -3716    -3557    -3361    -3191    -3103    -3069    -3041    -3015 
   -2987    -2943    -2913    -2949    -3071    -3257    -3480    -3694 
   -3829    -3842    -3773    -3703    -3673    -3645    -3568    -3437 
   -3265    -3087    -2948    -2871    -2875    -2960    -3065    -3119 
   -3132    -3171    -3300    -3520    -3747    -3879    -3867    -3721 
   -3476    -3222    -3055    -2997    -3003    -3055    -3164    -3311 
   -3423    -3470    -3492    -3532    -3586    -3607    -3568    -3493 
   -3411    -3327    -3265    -3264    -3323    -3379    -3379    -3339 
   -3303    -3311    -3392    -3534    -3662    -3694    -3624    -3505 
   -3389    -3292    -3226    -3238    -3338    -3443    -3481    -3464 
   -3442    -3415    -3342    -3230    -3153    -3153    -3211    -3321 
   -3497    -3721    -3904    -3963    -3920    -3883    -3919    -3964 
   -3910    -3715    -3412    -3072    -2779    -2577    -2434    -2338 
   -2330    -2435    -2619    -2824    -3010    -3194    -3397    -3593 
   -3728    -3786    -3781    -3720    -3631    -3580    -3581    -3584 
   -3537    -3423    -3294    -3242    -3303    -3414    -3489    -3522 
   -3546    -3578    -3607    -3615    -3608    -3595    -3581    -3580 
   -3607    -3613    -3510    -3310    -3114    -2991    -2967    -3011 
   -3059    -3068    -3059    -3080    -3163    -3292    -3437    -3588 
   -3735    -3823    -3823    -3797    -3819    -3852    -3797    -3630 
   -3451    -3352    -3299    -3222    -3142    -3133    -3207    -3308 
   -3372    -3354    -3277    -3202    -3175    -3190    -3225    -3265 
   -3300    -3298    -3241    -3183    -3175    -3187    -3181    -3199 
   -3276    -3342    -3333    -3299    -3310    -3358    -3419    -3484 
   -3528    -3507    -3410    -3292    -3245    -3298    -3403    -3507 
   -3589    -3645    -3676    -3676    -3651    -3647    -3682    -3711 
   -3666    -3538    -3385    -3276    -3225    -3210    -3203    -3192 
   -3167    -3110    -3026    -2972    -3005    -3117    -3238    -3316 
   -3362    -3412    -3491    -3595    -3693    -3767    -3793    -3759 
   -3703    -3682    -3707    -3728    -3693    -3588    -3439    -3284 
   -3176    -3146    -3127    -3051    -2970    -2978    -3064    -3154 
   -3207    -3237    -3249    -3215    -3138    -3113    -3222    -3411 
   -3584    -3726    -3815    -3786    -3615    -3380    -3207    -3156 
   -3186    -3227    -3249    -3248    -3219    -3194    -3217    -3292 
   -3370    -3404    -3429    -3504    -3623    -3742    -3816    -3804 
   -3713    -3599    -3514    -3476    -3469    -3505    -3600    -3709 
   -3740    -3646    -3488    -3360    -3287    -3238    -3175    -3095 
   -3021    -2947    -2878    -2847    -2864    -2928    -3059    -3265 
   -3550    -3905    -4243    -4421    -4380    -4189    -3932    -3624 
   -3276    -2961    -2759    -2681    -2687    -2732    -2790    -2876 
   -3033    -3264    -3512    -3703    -3823    -3919    -3994    -3982 
   -3823    -3512    -3109    -2740    -2542    -2556    -2740    -3033 
   -3375    -3672    -3808    -3758    -3622    -3518    -3503    -3541 
   -3554    -3501    -3395    -3253    -3105    -3017    -3049    -3180 
   -3330    -3477    -3632    -3748    -3762    -3682    -3585    -3545 
   -3561    -3562    -3492    -3356    -3227    -3190    -3257    -3395 
   -3549    -3634    -3596    -3491    -3435    -3477    -3549    -3534 
   -3362    -3073    -2809    -2717    -2836    -3051    -3227    -3358 
   -3478    -3558    -3561    -3485    -3341    -3152    -2997    -2974 
   -3094    -3230    -3261    -3225    -3252    -3349    -3402    -3384 
   -3377    -3414    -3464    -3538    -3653    -3747    -3763    -3728 
   -3682    -3623    -3537    -3442    -3342    -3241    -3181    -3198 
   -3272    -3352    -3381    -3330    -3260    -3275    -3387    -3493 
   -3528    -3542    -3599    -3672    -3677    -3597    -3499    -3423 
   -3334    -3213    -3095    -3013    -2961    -2971    -3078    -3273 
   -3503    -3662    -3673    -3577    -3476    -3393    -3319    -3276 
   -3284    -3322    -3365    -3415    -3468    -3496    -3488    -3438 
   -3345    -3211    -3042    -2857    -2713    -2681    -2779    -2947 
   -3082    -3144    -3207    -3362    -3612    -3875    -4071    -4162 
   -4125    -3979    -3804    -3681    -3613    -3524    -3364    -3149 
   -2925    -2749    -2687    -2728    -2795    -2862    -2974    -3175 
   -3450    -3724    -3925    -4024    -4020    -3920    -3747    -3543 
   -3356    -3223    -3183    -3250    -3387    -3497    -3501    -3439 
   -3430    -3516    -3628    -3688    -3678    -3634    -3589    -3553 
   -3519    -3447    -3288    -3094    -2964    -2956    -3056    -3215 
   -3376    -3504    -3592    -3616    -3585    -3555    -3564    -3604 
   -3638    -3600    -3454    -3253    -3105    -3079    -3168    -3272 
   -3284    -3198    -3119    -3132    -3225    -3357    -3512    -3643 
   -3677    -3611    -3508    -3426    -3407    -3469    -3573    -3658 
   -3682    -3619    -3461    -3267    -3106    -3003    -2957    -2964 
   -3013    -3099    -3229    -3384    -3514    -3574    -3570    -3535 
   -3476    -3391    -3316    -3295    -3306    -3295    -3237    -3188 
   -3196    -3238    -3281    -3342    -3427    -3511    -3582    -3635 
   -3618    -3478    -3246    -3022    -2878    -2810    -2805    -2883 
   -3051    -3240    -3380    -3465    -3530    -3577    -3566    -3537 
   -3586    -3707    -3750    -3626    -3402    -3186    -3025    -2949 
   -3010    -3204    -3447    -3645    -3755    -3812    -3863    -3902 
   -3886    -3807    -3705    -3612    -3505    -3376    -3252    -3150 
   -3055    -2965    -2925    -2979    -3163    -3441    -3696    -3832 
   -3854    -3778    -3613    -3429    -3314    -3281    -3275    -3233 
   -3148    -3090    -3134    -3277    -3424    -3485    -3441    -3338 
   -3262    -3279    -3357    -3404    -3377    -3302    -3195    -3057 
   -2936    -2922    -3059    -3273    -3449    -3551    -3596    -3562 
   -3456    -3343    -3304    -3352    -3429    -3487    -3504    -3465 
   -3352    -3200    -3092    -3092    -3188    -3333    -3483    -3559 
   -3487    -3307    -3146    -3095    -3169    -3335    -3550    -3767 
   -3939    -4044    -4093    -4087    -4017    -3874    -3662    -3423 
   -3231    -3125    -3091    -3118    -3179    -3203    -3145    -3042 
   -2974    -3003    -3160    -3434    -3747    -3990    -4071    -3954 
   -3677    -3335    -3042    -2872    -2833    -2893    -2986    -3051 
   -3092    -3149    -3257    -3438    -3676    -3904    -4036    -4040 
   -3948    -3805    -3627    -3416    -3196    -3017    -2945    -2990 
   -3086    -3184    -3261    -3284    -3277    -3325    -3439    -3555 
   -3650    -3735    -3774    -3747    -3699    -3673    -3670    -3673 
   -3650    -3592    -3519    -3423    -3284    -3133    -2992    -2856 
   -2745    -2704    -2747    -2878    -3086    -3322    -3528    -3694 
   -3828    -3913    -3932    -3882    -3812    -3798    -3834    -3809 
   -3670    -3458    -3230    -3059    -3024    -3144    -3356    -3574 
   -3720    -3734    -3636    -3520    -3392    -3190    -2947    -2791 
   -2816    -2994    -3229    -3426    -3543    -3593    -3608    -3601 
   -3565    -3487    -3365    -3202    -3042    -2961    -2968    -2995 
   -2998    -2992    -3022    -3126    -3287    -3422    -3496    -3554 
   -3592    -3538    -3368    -3146    -2957    -2853    -2852    -2947 
   -3100    -3237    -3287    -3279    -3306    -3404    -3543    -3678 
   -3769    -3788    -3738    -3649    -3558    -3496    -3477    -3504 
   -3578    -3673    -3742    -3775    -3789    -3773    -3716    -3613 
   -3462    -3273    -3092    -3011    -3111    -3373    -3701    -3969 
   -4068    -3986    -3815    -3618    -3380    -3091    -2825    -2674 
   -2640    -2663    -2725    -2828    -2937    -3014    -3095    -3272 
   -3588    -3958    -4240    -4371    -4410    -4417    -4356    -4170 
   -3882    -3600    -3397    -3280    -3202    -3142    -3119    -3144 
   -3195    -3240    -3237    -3153    -3029    -2979    -3123    -3453 
   -3827    -4109    -4244    -4263    -4264    -4261    -4172    -3973 
   -3720    -3485    -3288    -3123    -3002    -2913    -2835    -2798 
   -2871    -3080    -3334    -3473    -3457    -3408    -3438    -3559 
   -3717    -3815    -3780    -3596    -3323    -3063    -2887    -2818 
   -2837    -2884    -2897    -2849    -2799    -2857    -3061    -3338 
   -3576    -3716    -3755    -3707    -3592    -3465    -3368    -3307 
   -3283    -3287    -3308    -3357    -3431    -3512    -3622    -3757 
   -3827    -3736    -3491    -3175    -2893    -2691    -2558    -2471 
   -2428    -2434    -2492    -2632    -2897    -3268    -3638    -3913 
   -4067    -4058    -3889    -3663    -3505    -3445    -3407    -3303 
   -3161    -3084    -3127    -3272    -3485    -3747    -4002    -4129 
   -4063    -3892    -3765    -3743    -3793    -3847    -3827    -3661 
   -3294    -2760    -2242    -1938    -1856    -1849    -1864    -1988 
   -2313    -2809    -3348    -3838    -4263    -4598    -4791    -4823 
   -4729    -4557    -4328    -4031    -3669    -3283    -2909    -2554 
   -2270    -2164    -2255    -2459    -2705    -2980    -3235    -3416 
   -3554    -3684    -3738    -3643    -3457    -3310    -3227    -3152 
   -3068    -2998    -2899    -2729    -2529    -2407    -2416    -2520 
   -2668    -2859    -3076    -3288    -3453    -3550    -3572    -3491 
   -3310    -3134    -3053    -3041    -3034    -3015    -3002    -3019 
   -3094    -3215    -3337    -3474    -3678    -3937    -4209    -4507 
   -4827    -5065    -5104    -4945    -4637    -4209    -3713    -3245 
   -2882    -2650    -2516    -2444    -2444    -2516    -2643    -2826 
   -3068    -3308    -3469    -3561    -3638    -3692    -3665    -3550 
   -3423    -3389    -3501    -3719    -3947    -4136    -4286    -4361 
   -4272    -4000    -3665    -3375    -3098    -2752    -2326    -1891 
   -1563    -1462    -1621    -1949    -2331    -2740    -3207    -3692 
   -4110    -4437    -4689    -4827    -4795    -4638    -4492    -4425 
   -4375    -4221    -3917    -3503    -3026    -2519    -2046    -1706 
   -1561    -1601    -1764    -2000    -2309    -2732    -3276    -3838 
   -4253    -4480    -4615    -4742    -4849    -4877    -4796    -4617 
   -4359    -4050    -3720    -3385    -3056    -2759    -2540    -2432 
   -2420    -2475    -2620    -2897    -3279    -3658    -3950    -4106 
   -4078    -3870    -3554    -3167    -2724    -2332    -2166    -2324 
   -2762    -3383    -4060    -4598    -4847    -4846    -4723    -4545 
   -4279    -3874    -3345    -2793    -2344    -2068    -1921    -1772 
   -1532    -1259    -1104    -1178    -1516    -2065    -2716    -3360 
   -3939    -4425    -4758    -4839    -4648    -4295    -3959    -3770 
   -3738    -3766    -3775    -3775    -3800    -3881    -4031    -4195 
   -4291    -4286    -4199    -4048    -3835    -3570    -3281    -3032 
   -2909    -2965    -3181    -3510    -3947    -4494    -5109    -5676 
   -6035    -6068    -5746    -5139    -4345    -3403    -2293    -1111 
    -112      479      607      305     -326    -1078    -1757    -2367 
   -3009    -3703    -4359    -4876    -5217    -5435    -5609    -5822 
   -6066    -6199    -6029    -5478    -4623    -3659    -2801    -2200 
   -1929    -1988    -2323    -2876    -3589    -4355    -5017    -5427 
   -5505    -5247    -4669    -3824    -2844    -1946    -1360    -1185 
   -1359    -1730    -2165    -2592    -2951    -3179    -3264    -3241 
   -3136    -2936    -2695    -2540    -2554    -2732    -3025    -3404 
   -3851    -4288    -4610    -4770    -4791    -4695    -4484    -4193 
   -3870    -3515    -3129    -2799    -2614    -2589    -2685    -2818 
   -2902    -2898    -2822    -2698    -2538    -2367    -2261    -2317 
   -2571    -3011    -3670    -4510    -5359    -6065    -6524    -6663 
   -6404    -5718    -4742    -3677    -2617    -1649     -918     -525 
    -479     -724    -1134    -1544    -1906    -2255    -2562    -2814 
   -3041    -3211    -3319    -3430    -3592    -3819    -4074    -4237 
   -4245    -4171    -4044    -3812    -3504    -3184    -2889    -2671 
   -2543    -2479    -2513    -2652    -2859    -3127    -3461    -3816 
   -4128    -4402    -4650    -4842    -4947    -4955    -4873    -4730 
   -4554    -4368    -4137    -3859    -3642    -3507    -3415    -3348 
   -3261    -3179    -3119    -2971    -2663    -2273    -1923    -1740 
   -1846    -2258    -2855    -3551    -4283    -4893    -5278    -5444 
   -5412    -5232    -4954    -4596    -4185    -3757    -3277    -2658 
   -1922    -1197     -631     -383     -510     -992    -1798    -2781 
   -3796    -4761    -5509    -5896    -5931    -5713    -5377    -5026 
   -4683    -4310    -3861    -3319    -2766    -2357    -2151    -2087 
   -2096    -2174    -2373    -2624    -2717    -2567    -2290    -2014 
   -1819    -1775    -1934    -2286    -2767    -3295    -3782    -4195 
   -4510    -4656    -4646    -4567    -4414    -4152    -3824    -3489 
   -3181    -2951    -2836    -2821    -2845    -2835    -2774    -2762 
   -2878    -3105    -3364    -3557    -3676    -3842    -4129    -4495 
   -4784    -4820    -4550    -4052    -3487    -3005    -2656    -2497 
   -2556    -2768    -3057    -3396    -3713    -3869    -3785    -3518 
   -3146    -2771    -2546    -2550    -2718    -2929    -3119    -3295 
   -3442    -3504    -3435    -3260    -3046    -2844    -2709    -2722 
   -2882    -3096    -3289    -3403    -3385    -3222    -2947    -2633 
   -2362    -2168    -2061    -2087    -2290    -2679    -3219    -3817 
   -4348    -4719    -4861    -4742    -4414    -4021    -3712    -3510 
   -3341    -3157    -2947    -2732    -2577    -2520    -2592    -2814 
   -3126    -3429    -3685    -3898    -4027    -4023    -3915    -3762 
   -3607    -3491    -3442    -3500    -3688    -3937    -4116    -4128 
   -3966    -3680    -3381    -3213    -3229    -3354    -3456    -3465 
   -3404    -3322    -3273    -3300    -3420    -3636    -3890    -4071 
   -4143    -4156    -4166    -4147    -4047    -3898    -3773    -3667 
   -3555    -3456    -3396    -3354    -3268    -3105    -2929    -2829 
   -2825    -2893    -2997    -3133    -3292    -3449    -3588    -3707 
   -3796    -3850    -3816    -3618    -3261    -2852    -2516    -2338 
   -2335    -2474    -2691    -2909    -3087    -3249    -3411    -3568 
   -3699    -3786    -3827    -3851    -3909    -4000    -4054    -4020 
   -3959    -3932    -3881    -3712    -3449    -3222    -3119    -3114 
   -3148    -3198    -3242    -3237    -3142    -2955    -2701    -2407 
   -2115    -1903    -1813    -1830    -1933    -2104    -2367    -2766 
   -3288    -3875    -4441    -4903    -5211    -5339    -5292    -5059 
   -4654    -4137    -3561    -2976    -2493    -2235    -2277    -2587 
   -3063    -3582    -4027    -4320    -4472    -4530    -4526    -4515 
   -4548    -4580    -4521    -4299    -3921    -3462    -3011    -2620 
   -2315    -2076    -1868    -1683    -1570    -1607    -1863    -2340 
   -2930    -3483    -3920    -4229    -4388    -4410    -4355    -4236 
   -4050    -3836    -3635    -3441    -3225    -2995    -2764    -2532 
   -2307    -2107    -1941    -1842    -1861    -2015    -2301    -2667 
   -3019    -3327    -3612    -3873    -4110    -4325    -4464    -4465 
   -4317    -4068    -3825    -3688    -3692    -3773    -3805    -3712 
   -3496    -3225    -3019    -2965    -3057    -3249    -3504    -3782 
   -4024    -4187    -4268    -4263    -4167    -4001    -3821    -3692 
   -3655    -3707    -3801    -3892    -3946    -3929    -3840    -3723 
   -3605    -3476    -3316    -3137    -2951    -2755    -2555    -2384 
   -2273    -2258    -2336    -2450    -2570    -2724    -2948    -3265 
   -3650    -4017    -4263    -4309    -4167    -3935    -3746    -3680 
   -3703    -3716    -3653    -3515    -3330    -3115    -2917    -2826 
   -2898    -3106    -3368    -3592    -3716    -3736    -3684    -3591 
   -3443    -3215    -2926    -2633    -2392    -2258    -2293    -2525 
   -2897    -3302    -3689    -4050    -4345    -4541    -4587    -4405 
   -3959    -3325    -2635    -2022    -1576    -1351    -1387    -1672 
   -2093    -2531    -2951    -3370    -3780    -4158    -4483    -4710 
   -4772    -4653    -4391    -4054    -3740    -3559    -3537    -3581 
   -3620    -3673    -3744    -3742    -3578    -3322    -3100    -2926 
   -2751    -2643    -2735    -3059    -3504    -3933    -4261    -4441 
   -4457    -4355    -4203    -4023    -3766    -3397    -2979    -2655 
   -2540    -2637    -2875    -3192    -3573    -3977    -4314    -4531 
   -4612    -4513    -4226    -3877    -3630    -3545    -3573    -3647 
   -3715    -3743    -3711    -3558    -3258    -2878    -2520    -2272 
   -2173    -2227    -2419    -2724    -3107    -3526    -3919    -4252 
   -4523    -4692    -4679    -4472    -4126    -3717    -3312    -2960 
