Origin Time       2024/04/02 04:24:00
Lat.              40.133
Long.             141.712
Depth. (km)       71
Mag.              6.0
Station Code      HKD144
Station Lat.      42.9059
Station Long.     140.7670
Station Height(m) 180
Record Time       2024/04/02 04:26:05
Sampling Freq(Hz) 100Hz
Duration Time(s)  60
Dir.              N-S
Scale Factor      7845(gal)/8223790
Max. Acc. (gal)   1.624
Last Correction   2024/04/02 04:26:06
Memo.             
[...]
   13726    13703    13689    13687    13695    13707    13722    13738 
   13751    13749    13733    13707    13680    13657    13640    13628 
   13625    13630    13657    13705    13770    13857    13965    14064 
   14138    14193    14243    14287    14315    14323    14326    14320 
   14296    14241    14161    14081    14008    13941    13872    13792 
   13690    13578    13470    13371    13281    13215    13193    13212 
   13262    13333    13416    13504    13597    13689    13776    13855 
   13918    13967    13994    13984    13936    13852    13743    13633 
   13545    13479    13433    13420    13444    13487    13536    13591 
   13643    13687    13718    13740    13768    13811    13860    13913 
   13959    13981    13976    13948    13899    13836    13767    13691 
   13605    13521    13468    13452    13455    13464    13502    13571 
   13656    13749    13846    13942    14034    14119    14195    14257 
   14304    14342    14380    14415    14438    14442    14430    14397 
   14327    14215    14079    13936    13806    13699    13618    13558 
   13513    13489    13489    13502    13522    13547    13572    13599 
   13629    13644    13636    13622    13616    13616    13626    13648 
   13679    13728    13792    13859    13915    13957    13981    13987 
   13965    13927    13892    13872    13868    13861    13841    13809 
   13771    13734    13689    13628    13555    13466    13370    13298 
   13251    13217    13198    13197    13207    13225    13247    13255 
   13242    13212    13167    13119    13076    13046    13035    13047 
   13070    13090    13101    13111    13126    13146    13171    13215 
   13277    13342    13392    13424    13435    13425    13401    13365 
   13332    13317    13325    13352    13400    13454    13500    13532 
   13547    13554    13564    13581    13591    13601    13614    13630 
   13644    13645    13626    13599    13574    13547    13512    13477 
   13456    13448    13447    13466    13498    13535    13583    13649 
   13734    13845    13972    14104    14235    14341    14404    14432 
   14431    14411    14384    14357    14326    14289    14246    14187 
   14112    14034    13959    13902    13864    13840    13833    13845 
   13863    13879    13892    13888    13857    13813    13767    13710 
   13644    13575    13505    13450    13421    13405    13390    13371 
   13346    13319    13301    13306    13346    13417    13505    13594 
   13671    13730    13768    13778    13751    13697    13632    13570 
   13514    13468    13432    13410    13400    13389    13373    13352 
   13323    13281    13252    13262    13298    13346    13402    13463 
   13514    13566    13618    13672    13733    13810    13896    13976 
   14038    14083    14119    14149    14157    14130    14088    14050 
   14021    13981    13922    13841    13752    13672    13595    13521 
   13462    13419    13389    13369    13340    13304    13273    13252 
   13246    13259    13293    13351    13433    13531    13635    13741 
   13840    13911    13957    13992    14008    14013    14023    14048 
   14077    14104    14138    14184    14234    14274    14293    14281 
   14258    14243    14226    14203    14181    14150    14094    14011 
   13923    13840    13749    13652    13547    13435    13338    13282 
   13286    13348    13452    13574    13686    13782    13856    13906 
   13950    14003    14054    14100    14142    14170    14169    14143 
   14104    14069    14045    14023    13996    13965    13938    13910 
   13872    13826    13775    13713    13630    13537    13454    13386 
   13331    13292    13275    13275    13277    13269    13240    13204 
   13166    13126    13100    13108    13138    13176    13221    13271 
   13323    13374    13423    13467    13508    13540    13562    13581 
   13608    13643    13674    13691    13707    13733    13763    13782 
   13782    13770    13763    13771    13786    13797    13809    13822 
   13829    13826    13826    13838    13860    13882    13887    13864 
   13824    13776    13726    13675    13636    13617    13621    13648 
   13690    13741    13784    13807    13807    13792    13761    13717 
   13679    13656    13635    13606    13555    13475    13363    13221 
   13077    12947    12839    12768    12734    12730    12737    12749 
   12779    12820    12866    12912    12951    12999    13068    13143 
   13215    13289    13365    13427    13474    13520    13578    13648 
   13716    13767    13802    13832    13865    13898    13918    13922 
   13910    13883    13859    13838    13819    13809    13818    13844 
   13875    13913    13961    14008    14034    14045    14041    14021 
   13999    13979    13968    13980    14014    14058    14094    14102 
   14087    14073    14065    14062    14060    14054    14034    13988 
   13922    13857    13802    13755    13705    13651    13606    13593 
   13621    13683    13779    13907    14038    14145    14206    14224 
   14226    14226    14219    14195    14148    14084    14011    13918 
   13805    13695    13597    13498    13393    13301    13250    13262 
   13344    13483    13656    13830    13971    14069    14134    14188 
   14233    14254    14241    14195    14118    14017    13909    13798 
   13683    13563    13440    13319    13200    13101    13035    12999 
   12987    12996    13020    13058    13113    13194    13304    13440 
   13612    13798    13959    14067    14111    14084    13996    13868 
   13718    13570    13441    13329    13228    13140    13070    13023 
   13005    13004    13018    13063    13155    13284    13429    13578 
   13732    13905    14072    14199    14273    14299    14288    14250 
   14184    14089    13972    13841    13713    13610    13537    13509 
   13545    13636    13760    13898    14034    14165    14287    14393 
   14481    14548    14602    14646    14685    14729    14751    14717 
   14623    14480    14311    14137    13950    13757    13576    13419 
   13279    13174    13122    13119    13144    13173    13192    13200 
   13200    13192    13186    13201    13244    13294    13325    13333 
   13340    13356    13373    13378    13367    13350    13324    13282 
   13217    13124    13018    12920    12856    12833    12825    12814 
   12804    12803    12827    12893    12984    13065    13117    13136 
   13136    13127    13112    13097    13081    13062    13042    13027 
   13027    13053    13111    13194    13284    13363    13424    13479 
   13552    13648    13764    13895    14038    14180    14301    14378 
   14396    14370    14327    14268    14187    14102    14035    14007 
   14003    14008    14017    14025    14038    14068    14126    14214 
   14318    14418    14497    14544    14555    14532    14477    14386 
   14251    14075    13865    13652    13473    13348    13267    13225 
   13215    13234    13294    13397    13517    13632    13740    13844 
   13938    14017    14075    14108    14148    14206    14266    14307 
   14318    14285    14196    14054    13878    13686    13501    13347 
   13236    13162    13120    13119    13154    13208    13261    13293 
   13308    13328    13369    13420    13473    13522    13560    13593 
   13633    13684    13748    13824    13909    13994    14062    14102 
   14102    14065    13996    13907    13818    13752    13717    13714 
   13752    13845    13980    14116    14223    14295    14335    14351 
   14350    14347    14358    14389    14428    14457    14457    14419 
   14347    14264    14177    14087    13995    13909    13848    13844 
   13895    13972    14048    14121    14179    14211    14226    14231 
   14224    14203    14160    14103    14048    13986    13903    13794 
   13660    13518    13381    13246    13119    12999    12893    12816 
   12756    12702    12658    12634    12611    12586    12564    12550 
   12552    12571    12595    12611    12617    12619    12640    12673 
   12698    12718    12735    12744    12754    12773    12799    12833 
   12862    12896    12955    13038    13131    13231    13331    13420 
   13479    13493    13468    13436    13409    13382    13360    13356 
   13378    13414    13440    13466    13521    13606    13709    13829 
   13954    14076    14183    14274    14350    14400    14419    14412 
   14391    14373    14373    14377    14369    14349    14310    14243 
   14156    14053    13933    13786    13621    13452    13292    13159 
   13073    13028    13015    13022    13057    13132    13224    13296 
   13327    13328    13327    13344    13383    13446    13529    13608 
   13674    13736    13787    13833    13891    13954    14010    14077 
   14156    14238    14341    14470    14619    14767    14874    14918 
   14920    14889    14809    14685    14543    14404    14273    14158 
   14081    14053    14064    14098    14137    14166    14187    14187 
   14169    14156    14141    14121    14118    14137    14168    14207 
   14247    14284    14327    14372    14378    14334    14262    14183 
   14098    14013    13929    13851    13776    13701    13620    13537 
   13455    13379    13312    13250    13201    13158    13112    13070 
   13038    13001    12969    12942    12915    12889    12877    12862 
   12825    12788    12777    12796    12842    12903    12958    12995 
   13008    13020    13053    13107    13181    13289    13436    13595 
   13738    13861    13977    14100    14222    14312    14364    14381 
   14372    14347    14319    14285    14250    14208    14156    14085 
   14008    13941    13887    13837    13787    13753    13738    13738 
   13757    13794    13838    13868    13867    13844    13811    13783 
   13761    13718    13649    13574    13504    13443    13402    13381 
   13371    13359    13338    13301    13242    13173    13127    13113 
   13119    13131    13135    13115    13063    12964    12810    12644 
   12506    12410    12370    12382    12425    12482    12534    12568 
   12580    12575    12557    12537    12525    12533    12565    12634 
   12764    12958    13196    13448    13678    13851    13968    14041 
   14083    14111    14122    14112    14104    14100    14094    14095 
   14121    14172    14237    14310    14380    14420    14415    14366 
   14296    14224    14168    14137    14142    14179    14222    14243 
   14229    14183    14119    14054    13995    13942    13900    13879 
   13883    13906    13932    13967    14018    14092    14197    14324 
   14462    14593    14702    14778    14814    14808    14760    14679 
   14573    14450    14300    14116    13913    13710    13537    13414 
   13339    13311    13324    13373    13450    13539    13626    13706 
   13765    13802    13830    13845    13845    13836    13813    13772 
   13721    13662    13590    13516    13437    13354    13270    13188 
   13109    13054    13041    13057    13096    13167    13270    13396 
   13524    13640    13749    13871    14004    14138    14262    14362 
   14420    14430    14397    14328    14227    14103    13976    13859 
   13752    13663    13603    13582    13579    13567    13537    13509 
   13495    13498    13521    13566    13620    13663    13672    13641 
   13591    13529    13446    13355    13271    13194    13134    13095 
   13068    13058    13072    13105    13165    13255    13367    13482 
   13581    13649    13693    13721    13730    13724    13702    13675 
   13662    13680    13725    13775    13824    13867    13894    13894 
   13868    13829    13787    13759    13751    13778    13857    13973 
   14081    14157    14208    14239    14241    14211    14161    14107 
   14067    14029    13986    13949    13914    13863    13788    13702 
   13624    13562    13514    13486    13466    13436    13405    13381 
   13351    13320    13294    13279    13281    13279    13246    13181 
   13090    12976    12869    12792    12746    12744    12788    12857 
   12933    13005    13076    13139    13182    13221    13262    13301 
   13359    13450    13571    13707    13832    13936    14014    14057 
   14069    14057    14026    13984    13954    13944    13933    13905 
   13867    13822    13772    13705    13624    13552    13498    13471 
   13475    13498    13533    13589    13653    13718    13780    13821 
   13826    13799    13740    13655    13552    13433    13300    13154 
   13011    12891    12800    12726    12680    12665    12669    12692 
   12722    12748    12791    12862    12961    13081    13212    13350 
   13498    13655    13791    13888    13964    14035    14107    14176 
   14234    14278    14323    14362    14378    14373    14355    14346 
   14345    14334    14311    14274    14220    14166    14125    14085 
   14034    13976    13917    13856    13799    13756    13733    13747 
   13795    13868    13963    14075    14189    14299    14392    14462 
   14520    14578    14635    14677    14713    14756    14793    14806 
   14806    14801    14778    14731    14658    14570    14484    14407 
   14349    14330    14341    14359    14385    14413    14430    14428 
   14407    14373    14337    14303    14261    14206    14139    14075 
   14004    13932    13867    13818    13778    13734    13697    13663 
   13621    13571    13537    13516    13491    13466    13425    13374 
   13332    13305    13285    13258    13235    13216    13173    13085 
   12969    12845    12721    12594    12465    12349    12237    12124 
   12035    11986    11973    11988    12031    12106    12217    12357 
   12517    12676    12825    12961    13077    13173    13273    13402 
   13547    13683    13803    13895    13960    14007    14035    14050 
   14057    14049    14031    14008    13957    13876    13779    13679 
   13590    13531    13497    13483    13489    13516    13570    13644 
   13721    13787    13838    13882    13933    13995    14045    14068 
   14075    14072    14048    13977    13853    13698    13536    13385 
   13262    13167    13104    13076    13061    13031    12997    12974 
   12961    12968    13000    13046    13101    13161    13196    13193 
   13158    13090    13003    12930    12893    12908    12966    13047 
   13144    13257    13370    13463    13522    13560    13583    13589 
   13593    13617    13664    13726    13791    13846    13902    13971 
   14052    14148    14254    14357    14458    14562    14655    14725 
   14751    14725    14671    14617    14577    14561    14571    14601 
   14634    14638    14612    14561    14488    14419    14373    14355 
   14372    14408    14438    14457    14476    14482    14465    14426 
   14358    14257    14126    13988    13856    13733    13636    13572 
   13522    13489    13470    13441    13412    13389    13348    13294 
   13248    13217    13215    13247    13302    13367    13440    13512 
   13568    13599    13602    13581    13552    13522    13497    13482 
   13475    13485    13513    13544    13567    13594    13636    13690 
   13744    13798    13845    13891    13937    13972    14017    14081 
   14158    14237    14295    14319    14331    14331    14304    14258 
   14208    14161    14125    14106    14098    14098    14107    14123 
   14146    14162    14161    14131    14084    14033    13977    13933 
   13919    13921    13921    13922    13929    13930    13941    13967 
   13988    14003    14015    14014    13996    13965    13919    13865 
   13807    13732    13644    13562    13477    13377    13269    13151 
   13024    12899    12775    12657    12560    12488    12447    12422 
   12410    12414    12430    12447    12468    12496    12528    12561 
   12592    12614    12625    12622    12600    12565    12537    12530 
   12553    12610    12676    12739    12802    12865    12937    13005 
   13055    13104    13171    13242    13298    13343    13389    13427 
   13448    13467    13487    13495    13493    13477    13450    13419 
   13394    13374    13352    13332    13317    13304    13292    13284 
   13288    13313    13352    13396    13428    13444    13451    13462 
   13481    13508    13525    13537    13563    13603    13659    13728 
   13803    13890    13987    14084    14161    14233    14308    14359 
   14393    14438    14476    14477    14439    14366    14285    14215 
   14168    14158    14184    14220    14273    14343    14422    14497 
   14565    14613    14643    14666    14694    14737    14805    14899 
   14986    15040    15068    15059    15005    14932    14848    14737 
   14612    14499    14401    14314    14216    14104    14004    13932 
   13880    13856    13863    13887    13913    13919    13905    13892 
   13883    13875    13880    13887    13880    13864    13833    13787 
   13738    13683    13617    13547    13464    13366    13269    13173 
   13086    13043    13046    13086    13162    13265    13379    13493 
   13594    13664    13705    13743    13778    13797    13810    13817 
   13802    13776    13748    13716    13697    13690    13689    13680 
   13664    13663    13678    13701    13752    13809    13846    13882 
   13910    13917    13910    13900    13890    13888    13887    13864 
   13815    13749    13656    13548    13432    13300    13170    13062 
   12964    12869    12792    12745    12734    12757    12811    12877 
   12947    13032    13127    13204    13257    13298    13328    13338 
   13332    13315    13297    13286    13281    13277    13258    13223 
   13196    13173    13144    13115    13086    13066    13069    13084 
   13097    13116    13146    13177    13200    13238    13285    13304 
   13317    13347    13382    13427    13477    13517    13560    13613 
   13651    13666    13668    13672    13668    13655    13652    13663 
   13690    13728    13747    13741    13734    13726    13733    13757 
   13786    13815    13851    13888    13922    13944    13963    13975 
   13975    13968    13952    13923    13892    13861    13841    13851 
   13884    13925    13964    13991    13995    13977    13940    13880 
   13813    13745    13680    13636    13618    13622    13655    13714 
   13774    13840    13921    14000    14075    14139    14185    14220 
   14258    14293    14326    14354    14381    14401    14408    14401 
   14381    14361    14342    14310    14250    14175    14092    13996 
   13891    13795    13713    13632    13548    13467    13394    13332 
   13290    13274    13281    13315    13370    13440    13527    13624 
   13710    13774    13807    13817    13803    13771    13734    13705 
   13682    13659    13624    13568    13506    13428    13329    13238 
   13170    13135    13146    13182    13223    13275    13335    13381 
   13414    13440    13466    13504    13564    13637    13697    13745 
   13779    13784    13775    13755    13713    13664    13630    13608 
   13597    13606    13618    13630    13666    13706    13726    13748 
   13788    13846    13914    13991    14080    14170    14246    14308 
   14361    14392    14403    14407    14409    14422    14439    14453 
   14454    14427    14378    14322    14253    14161    14058    13960 
   13864    13784    13726    13674    13635    13609    13579    13533 
   13474    13398    13317    13247    13186    13135    13108    13084 
   13054    13035    13019    12996    12980    12962    12933    12904 
