Origin Time       2024/04/02 04:24:00
Lat.              40.133
Long.             141.712
Depth. (km)       71
Mag.              6.0
Station Code      HKD156
Station Lat.      41.8996
Station Long.     140.6960
Station Height(m) 84
Record Time       2024/04/02 04:25:11
Sampling Freq(Hz) 100Hz
Duration Time(s)  96
Dir.              E-W
Scale Factor      7845(gal)/8223790
Max. Acc. (gal)   3.515
Last Correction   2024/04/02 04:25:11
Memo.             
[...]
    1813     1495     1059      819      928     1197     1389     1416 
    1296     1094      931      943     1107     1298     1502     1726 
    1879     1854     1659     1451     1433     1660     1965     2007 
    1595      974      507      292      256      315      452      661 
     859     1031     1250     1432     1406     1166      847      604 
     533      635      850     1075     1221     1262     1206     1124 
    1085     1035      947      865      773      673      571      472 
     473      587      715      838      985     1152     1298     1345 
    1331     1413     1622     1744     1629     1413     1297     1306 
    1312     1147      785      446      373      631     1092     1541 
    1784     1749     1502     1271     1246     1351     1422     1422 
    1371     1291     1148      927      765      751      859     1077 
    1312     1431     1417     1313     1240     1383     1748     2043 
    1945     1412      803      575      830     1274     1529     1444 
    1178      939      788      697      621      587      689      870 
    1004     1116     1251     1372     1422     1362     1258     1243 
    1393     1629     1699     1474     1138      908      886     1063 
    1317     1493     1441     1128      683      270       72      214 
     527      756      861      934     1032     1111     1116     1085 
    1044     1020     1092     1296     1544     1641     1533     1359 
    1188     1057     1017     1030     1073     1165     1275     1345 
    1325     1287     1345     1431     1404     1223      978      881 
    1009     1196     1242     1086      938     1062     1422     1790 
    1937     1750     1360      947      607      442      459      550 
     654      765      905     1081     1225     1279     1290     1313 
    1320     1240     1111     1047     1048      992      876      864 
    1065     1398     1659     1609     1219      787      630      769 
    1051     1374     1699     1918     1902     1638     1220      841 
     693      762      881      931      901      849      820      857 
    1035     1337     1579     1559     1254      907      792      936 
    1175     1290     1231     1213     1399     1671     1744     1483 
    1115      878      766      777      909     1069     1151     1043 
     827      772      974     1332     1676     1842     1786     1509 
    1061      598      249      176      522     1151     1786     2223 
    2334     2116     1676     1225     1003      980      918      724 
     548      560      731      913     1047     1128     1179     1263 
    1294     1113      765      472      390      494      756     1161 
    1516     1625     1564     1471     1343     1119      912      973 
    1291     1541     1483     1146      778      697      905     1089 
    1019      691      297      110      248      657     1220     1734 
    2038     2093     1925     1590     1159      770      618      745 
    1047     1371     1567     1607     1584     1647     1827     1927 
    1732     1228      670      378      372      487      627      788 
    1004     1206     1278     1262     1263     1329     1401     1354 
    1183      976      773      661      706      870     1082     1228 
    1247     1212     1169     1109     1024      911      832      876 
    1039     1171     1082      830      692      805     1050     1236 
    1277     1243     1258     1370     1482     1414     1254     1266 
    1435     1568     1610     1551     1328      934      581      568 
     909     1331     1507     1323      965      719      747     1031 
    1366     1553     1543     1412     1283     1308     1509     1714 
    1791     1833     1904     1884     1591      999      322     -112 
     -93      338      945     1402     1499     1340     1084      737 
     456      440      641      965     1306     1555     1691     1656 
    1417     1134      986      967      916      751      581      548 
     710      989     1225     1332     1356     1386     1381     1128 
     552       49      105      662     1298     1702     1829     1863 
    1969     2104     2047     1678     1216      977     1008     1159 
    1243     1165     1024     1011     1190     1398     1360     1044 
     739      765     1175     1655     1800     1549     1206     1078 
    1173     1200      934      454       21      -56      376     1040 
    1487     1587     1512     1431     1327     1053      602      160 
     -66       78      598     1174     1435     1354     1197     1193 
    1409     1772     2072     2052     1655     1071      585      441 
     731     1341     1948     2195     2018     1586     1075      729 
     733      954     1124     1101      882      641      633      963 
    1431     1696     1642     1416     1221     1146     1121     1159 
    1314     1494     1626     1680     1533     1144      708      531 
     828     1483     2014     1973     1371      696      434      594 
     859     1040     1150     1262     1389     1433     1262      882 
     494      291      353      618      839      841      751      778 
    1030     1489     1929     2039     1734     1251      940      969 
    1205     1445     1586     1590     1467     1251      947      604 
     353      302      436      602      622      469      337      449 
     819     1267     1543     1470     1155      845      643      530 
     534      746     1175     1657     2025     2212     2147     1837 
    1398      895      383       -4     -224     -336     -319      -52 
     508     1166     1634     1854     1953     1953     1763     1351 
     850      513      521      824     1220     1575     1912     2259 
    2512     2532     2292     1876     1410     1038      904     1007 
    1147     1231     1260     1163     1004      957     1008     1066 
    1067      955      783      683      769     1059     1371     1564 
    1660     1644     1516     1341     1138     1005     1075     1296 
    1502     1559     1462     1314     1192     1159     1229     1345 
    1418     1294      934      514      238      228      456      801 
    1192     1543     1729     1698     1458     1053      612      297 
     240      550     1098     1482     1524     1487     1688     2120 
    2431     2295     1769     1156      696      491      508      595 
     684      891     1252     1590     1664     1355      803      353 
     226      371      583      718      830      976     1055     1004 
     923      950     1113     1372     1657     1850     1823     1553 
    1229     1115     1182     1159      926      589      340      349 
     592      819      850      756      650      568      530      585 
     789     1179     1709     2204     2385     2122     1644     1255 
    1074     1115     1286     1379     1263     1030      841      714 
     580      476      546      811     1134     1385     1506     1521 
    1536     1651     1825     1946     2000     1966     1711     1233 
     739      436      413      623      903     1040      874      469 
     163      272      739     1232     1495     1495     1402     1399 
    1406     1220      889      700      822     1162     1498     1659 
    1588     1351     1111      993      970      940      828      653 
     530      589      822     1040     1181     1371     1598     1771 
    1872     1879     1803     1728     1725     1826     1922     1826 
    1528     1254     1209     1390     1638     1730     1509     1043 
     598      415      508      706      895     1027     1046      996 
    1054     1337     1725     1937     1840     1603     1503     1591 
    1680     1644     1507     1336     1221     1277     1501     1707 
    1722     1537     1296     1142     1038      843      525      230 
     195      486      905     1204     1306     1355     1490     1609 
    1476     1021      477      160      230      614     1026     1200 
    1136      985      854      764      666      548      422      283 
     194      265      492      766     1038     1340     1664     1881 
    1884     1702     1402     1120     1024     1113     1304     1559 
    1831     2057     2110     1850     1343      884      761      935 
    1093     1073      916      726      626      608      596      585 
     661      951     1335     1460     1242      882      548      388 
     529      884     1156     1115      803      494      475      745 
    1063     1266     1339     1382     1507     1641     1660     1620 
    1663     1880     2150     2180     1844     1314      908      849 
    1067     1279     1198      781      346      264      611     1154 
    1474     1320      919      696      873     1340     1796     2069 
    2139     2012     1772     1489     1173      880      645      500 
     518      625      670      614      503      452      535      668 
     766      747      525      240       90       83      135       91 
    -109     -295     -282      -33      345      681      897     1000 
     974      855      739      711      777      815      726      561 
     434      475      769     1273     1763     1941     1749     1487 
    1471     1750     2150     2442     2474     2215     1819     1551 
    1537     1713     1922     1957     1710     1339     1077     1055 
    1324     1809     2394     2952     3273     3222     2786     2041 
    1240      726      603      707      901     1131     1285     1302 
    1339     1555     1819     1871     1625     1186      691      245 
      22      183      684     1317     1825     2037     1979     1811 
    1682     1575     1448     1485     1755     1976     1852     1368 
     756      259      -87     -302     -360     -326     -206       99 
     573     1058     1375     1383     1043      465     -136     -558 
    -680     -426      202     1112     2091     2870     3352     3651 
    3815     3658     2983     1881      731      -33     -125      469 
    1497     2597     3377     3491     2767     1406      -56    -1197 
   -1934    -2273    -2157    -1513     -368      949     2008     2650 
    2922     2924     2716     2332     1844     1324      888      661 
     573      504      463      519      754     1097     1316     1264 
     939      427      -32     -149      129      507      583      133 
    -731    -1518    -1701    -1127      -20     1196     2149     2673 
    2771     2640     2556     2582     2640     2677     2613     2381 
    2045     1767     1640     1534     1228      639      -91     -672 
    -807     -328      716     1914     2701     2836     2448     1846 
    1408     1417     1865     2380     2498     2077     1389      893 
     877     1223     1544     1501     1015      271     -498    -1084 
   -1244     -936     -392      201      847     1583     2270     2598 
    2469     2184     2043     2000     1834     1495     1131      841 
     526      116     -205     -209      129      668     1217     1615 
    1794     1701     1320      834      565      657      970     1294 
    1475     1397      982      328     -252     -471     -291       87 
     411      565      672      922     1337     1773     2004     1890 
    1553     1243     1104     1235     1647     2134     2411     2380 
    2246     2331     2644     2882     2799     2355     1637      904 
     550      819     1564     2330     2613     2177     1296      530 
     221      328      562      657      546      329      178      329 
     880     1557     1902     1752     1302      769      270     -163 
    -533     -845    -1142    -1352    -1179     -465      589     1593 
    2184     2319     2301     2313     2226     1930     1580     1390 
    1355     1310     1161      984      989     1263     1664     2027 
    2214     2108     1732     1169      522      -63     -425     -419 
     -75      432      924     1318     1644     1881     1938     1852 
    1829     2110     2698     3150     2876     1661      -82    -1467 
   -1667     -513     1387     3129     4090     4158     3607     2860 
    2227     1760     1355      868      241     -352     -544       -5 
    1185     2465     3276     3423     2986     2231     1464      889 
     626      747     1291     2110     2735     2660     1773      504 
    -479     -814     -612     -276     -151     -230     -279     -147 
      98      309      513      838     1259     1579     1576     1289 
     988      843      878      965      859      473       29      -71 
     440     1391     2215     2444     2057     1269      295     -584 
   -1048     -896     -145      901     1772     2133     1899     1159 
     210     -502     -649     -191      650     1503     2019     2029 
    1563      799        4     -580     -762     -441      234      939 
    1350     1236      750      407      592     1239     1942     2380 
    2592     2751     2991     3410     3917     4187     3962     3366 
    2708     2120     1615     1212      919      722      534      274 
       2     -167     -144      226      984     1875     2554     2841 
    2760     2466     2214     2195     2376     2502     2347     1981 
    1686     1661     1821     1811     1402      742      179      -47 
      -8       25     -175     -664    -1209    -1480    -1285     -616 
     279     1073     1586     1826     1929     1965     1869     1620 
    1293      986      800      841     1173     1649     2046     2231 
    2006     1185      -79    -1350    -2224    -2554    -2377    -1711 
    -585      760     1945     2695     2932     2749     2300     1682 
     999      426      159      288      797     1601     2465     3127 
    3516     3634     3411     2731     1601      399     -386     -670 
    -662     -510     -186      418     1293     2245     2959     3191 
    2994     2554     1975     1293      581       94      103      616 
    1367     1952     2054     1683     1124      676      406      294 
     419      824     1413     1976     2278     2172     1674     1065 
     642      383      162       59      264      777     1273     1287 
     668     -141     -441        9      837     1468     1580     1327 
    1128     1266     1706     2151     2288     2030     1475      785 
     118     -456     -888    -1039     -822     -337      255      819 
    1259     1544     1614     1339      724       29     -448     -507 
     -87      649     1409     2045     2562     2987     3322     3504 
    3415     3010     2450     2037     1861     1748     1576     1385 
    1286     1351     1510     1663     1800     2008     2295     2452 
    2288     1856     1308      743      282       56      101      294 
     367      106     -328     -486      -55      990     2404     3613 
    4014     3408     2160      977      388      405      627      556 
      17     -611     -734      -68     1082     2111     2593     2438 
    1773      919      232     -116     -199     -226     -272     -178 
     197      791     1401     1815     1976     1912     1659     1410 
    1447     1863     2513     3038     3049     2416     1356      332 
    -214     -162      299      826     1140     1236     1215     1140 
    1134     1240     1279     1085      723      430      436      778 
    1179     1283     1058      689      337      171      340      828 
    1394     1701     1521      853      -68     -853    -1146     -819 
     -79      683     1196     1386     1412     1574     1964     2420 
    2721     2690     2338     1840     1350     1050     1136     1586 
    2130     2481     2471     2115     1595     1113      778      657 
     673      633      540      589      834     1081     1086      787 
     442      449      901     1525     1995     2247     2484     2822 
    3083     2978     2419     1588      789      245      -18     -102 
     -56      101      369      706      959     1016      903      722 
     662      868     1251     1560     1560     1212      704      252 
     -13      -45      128      511     1111     1701     1968     1873 
    1638     1505     1582     1784     1919     1822     1424      803 
     230        4      191      654     1155     1394     1297     1219 
    1495     1988     2253     1980     1297      642      298      249 
     392      635      886     1082     1250     1467     1782     2114 
    2290     2196     1821     1263      718      319      122      145 
     288      409      468      598      976     1611     2335     2856 
    2951     2694     2270     1748     1188      650      249      199 
     534     1067     1599     1918     1921     1683     1273      706 
      22     -666    -1116    -1053     -421      454     1082     1271 
    1301     1486     1780     1871     1576     1031      500      156 
      10      -28       17      193      475      828     1204     1464 
    1510     1409     1367     1470     1547     1418     1113      819 
     801     1189     1827     2471     3002     3416     3659     3493 
    2712     1497      311     -454     -638     -278      405     1077 
    1514     1679     1628     1482     1301     1000      553      130 
      24      396     1034     1630     2158     2663     3021     3046 
    2728     2261     1860     1561     1314     1155     1151     1258 
    1383     1468     1436     1221      810      342      130      373 
     935     1505     1821     1858     1861     1980     2031     1829 
    1394      891      500      271      167      191      353      704 
    1220     1688     1888     1669     1015      137     -665    -1188 
   -1341    -1152     -691      -55      596     1086     1270     1206 
    1183     1337     1432     1139      409     -405     -818     -610 
     117     1030     1755     2182     2400     2459     2349     2058 
    1652     1275     1046      918      774      591      457      494 
     754     1185     1621     1867     1809     1522     1237     1105 
    1111     1215     1435     1719     1949     2057     2016     1791 
    1390      888      363     -103     -353     -199      438     1466 
    2570     3269     3258     2654     1807     1054      571      337 
     251      222      221      292      506      911     1524     2245 
    2837     3052     2833     2326     1701     1086      562      197 
      64      137      330      549      692      841     1143     1536 
    1817     1769     1306      611       81       41      441      940 
    1306     1549     1842     2242     2579     2694     2627     2548 
    2548     2569     2421     1871      915     -128     -897    -1150 
    -810       32     1167     2241     2832     2689     1927     1027 
     527      688     1327     1902     1948     1459      837      565 
     850     1462     1953     1979     1486      676     -178     -824 
   -1066     -876     -417      129      571      712      610      553 
     731     1085     1402     1493     1329     1065      918      977 
    1089     1020      722      342       -4     -236     -151      353 
    1051     1578     1718     1449      870      214     -180     -102 
     341      846     1124     1023      675      465      645     1159 
    1850     2517     2945     3032     2812     2392     1912     1478 
    1112      865      850     1075     1375     1541     1479     1283 
