Origin Time       2024/04/02 04:24:00
Lat.              40.133
Long.             141.712
Depth. (km)       71
Mag.              6.0
Station Code      HKD128
Station Lat.      42.7656
Station Long.     141.8219
Station Height(m) 31
Record Time       2024/04/02 04:25:51
Sampling Freq(Hz) 100Hz
Duration Time(s)  77
Dir.              U-D
Scale Factor      7845(gal)/8223790
Max. Acc. (gal)   3.274
Last Correction   2024/04/02 04:25:51
Memo.             
[...]
   -8959    -9105    -9339    -9441    -9246    -8853    -8522    -8426 
   -8577    -8869    -9134    -9236    -9167    -9000    -8818    -8695 
   -8703    -8845    -9023    -9121    -9109    -9031    -8932    -8865 
   -8914    -9103    -9323    -9416    -9323    -9103    -8833    -8586 
   -8496    -8656    -8937    -9142    -9248    -9317    -9367    -9416 
   -9441    -9390    -9265    -9115    -8949    -8781    -8692    -8748 
   -8897    -9003    -8970    -8833    -8676    -8576    -8548    -8586 
   -8704    -8916    -9202    -9518    -9733    -9663    -9293    -8827 
   -8509    -8491    -8754    -9123    -9425    -9589    -9599    -9494 
   -9332    -9123    -8842    -8569    -8446    -8511    -8702    -8926 
   -9090    -9180    -9227    -9185    -8996    -8772    -8675    -8714 
   -8847    -9097    -9382    -9516    -9448    -9250    -8966    -8695 
   -8618    -8789    -9047    -9231    -9321    -9329    -9252    -9124 
   -9043    -9086    -9209    -9320    -9379    -9363    -9223    -8970 
   -8696    -8490    -8398    -8442    -8576    -8716    -8850    -9001 
   -9132    -9217    -9304    -9418    -9517    -9563    -9541    -9406 
   -9136    -8842    -8699    -8777    -8981    -9143    -9223    -9286 
   -9313    -9192    -8897    -8527    -8221    -8109    -8260    -8640 
   -9128    -9526    -9651    -9501    -9215    -8895    -8621    -8513 
   -8637    -8962    -9378    -9698    -9736    -9485    -9135    -8865 
   -8723    -8723    -8878    -9126    -9351    -9454    -9389    -9178 
   -8900    -8625    -8414    -8349    -8448    -8665    -8959    -9254 
   -9444    -9478    -9367    -9162    -8958    -8842    -8827    -8891 
   -9030    -9223    -9397    -9491    -9494    -9397    -9193    -8900 
   -8565    -8306    -8278    -8550    -8991    -9343    -9441    -9333 
   -9166    -8995    -8818    -8700    -8714    -8846    -9057    -9293 
   -9436    -9427    -9335    -9219    -9061    -8861    -8699    -8653 
   -8714    -8797    -8862    -8977    -9208    -9441    -9533    -9518 
   -9443    -9205    -8814    -8494    -8361    -8333    -8428    -8765 
   -9274    -9717    -9944    -9930    -9722    -9431    -9135    -8808 
   -8480    -8318    -8421    -8645    -8799    -8862    -8896    -8901 
   -8885    -8912    -8995    -9093    -9219    -9436    -9703    -9830 
   -9705    -9423    -9112    -8810    -8594    -8569    -8695    -8849 
   -9000    -9128    -9105    -8873    -8606    -8538    -8687    -8877 
   -8973    -8981    -8951    -8920    -8958    -9108    -9283    -9393 
   -9436    -9374    -9147    -8876    -8770    -8860    -8984    -9012 
   -8965    -8932    -8945    -8980    -9049    -9150    -9200    -9124 
   -8973    -8853    -8818    -8878    -9011    -9155    -9240    -9242 
   -9177    -9058    -8922    -8841    -8823    -8795    -8772    -8869 
   -9100    -9331    -9455    -9432    -9282    -9084    -8905    -8770 
   -8698    -8721    -8851    -9024    -9127    -9134    -9103    -9051 
   -8986    -8955    -8972    -8954    -8870    -8849    -9020    -9327 
   -9571    -9629    -9485    -9171    -8787    -8529    -8561    -8846 
   -9173    -9350    -9290    -9001    -8617    -8333    -8248    -8307 
   -8469    -8789    -9252    -9686    -9913    -9894    -9698    -9378 
   -8978    -8592    -8365    -8403    -8679    -9042    -9293    -9312 
   -9177    -9065    -9061    -9127    -9192    -9215    -9180    -9107 
   -9043    -9018    -9009    -8961    -8826    -8657    -8556    -8537 
   -8556    -8630    -8765    -8897    -8995    -9093    -9208    -9325 
   -9421    -9486    -9532    -9537    -9460    -9320    -9196    -9128 
   -9107    -9130    -9165    -9117    -8958    -8773    -8644    -8572 
   -8556    -8641    -8811    -8951    -8999    -9005    -9035    -9121 
   -9293    -9509    -9637    -9605    -9481    -9385    -9364    -9352 
   -9254    -9080    -8910    -8753    -8579    -8432    -8376    -8415 
   -8546    -8770    -9009    -9117    -9035    -8873    -8773    -8779 
   -8905    -9184    -9532    -9738    -9686    -9433    -9109    -8827 
   -8641    -8554    -8553    -8614    -8710    -8829    -8962    -9063 
   -9058    -8954    -8885    -8964    -9143    -9321    -9505    -9693 
   -9751    -9582    -9275    -8996    -8847    -8869    -9009    -9155 
   -9217    -9169    -9019    -8797    -8553    -8394    -8409    -8537 
   -8658    -8750    -8865    -9031    -9223    -9359    -9340    -9163 
   -8966    -8884    -8920    -8999    -9088    -9232    -9425    -9567 
   -9572    -9443    -9216    -8932    -8667    -8514    -8526    -8694 
   -8949    -9217    -9414    -9435    -9239    -8901    -8518    -8205 
   -8086    -8208    -8510    -8895    -9244    -9444    -9466    -9370 
   -9213    -9034    -8916    -8942    -9100    -9351    -9668    -9940 
   -9976    -9711    -9286    -8916    -8733    -8743    -8856    -8957 
   -8969    -8820    -8507    -8164    -7940    -7843    -7851    -8005 
   -8301    -8638    -8937    -9181    -9374    -9544    -9733    -9923 
  -10019   -10002    -9965    -9918    -9749    -9448    -9150    -8955 
   -8869    -8838    -8812    -8799    -8803    -8775    -8653    -8415 
   -8097    -7901    -8074    -8603    -9219    -9670    -9882    -9845 
   -9571    -9167    -8849    -8765    -8914    -9216    -9543    -9729 
   -9672    -9418    -9113    -8889    -8784    -8764    -8775    -8765 
   -8737    -8761    -8878    -9023    -9113    -9113    -9003    -8816 
   -8673    -8677    -8829    -9062    -9271    -9351    -9265    -9082 
   -8931    -8897    -8962    -9053    -9116    -9147    -9159    -9194 
   -9288    -9409    -9497    -9514    -9466    -9405    -9332    -9155 
   -8858    -8560    -8365    -8274    -8256    -8360    -8618    -8970 
   -9313    -9522    -9467    -9142    -8743    -8546    -8669    -9019 
   -9416    -9690    -9745    -9621    -9441    -9292    -9142    -8954 
   -8791    -8711    -8671    -8638    -8685    -8845    -9019    -9093 
   -9038    -8897    -8711    -8509    -8355    -8374    -8631    -9054 
   -9468    -9722    -9755    -9617    -9433    -9286    -9161    -9022 
   -8905    -8851    -8849    -8865    -8841    -8739    -8627    -8610 
   -8704    -8862    -9046    -9198    -9271    -9312    -9390    -9494 
   -9593    -9614    -9404    -8984    -8656    -8619    -8745    -8878 
   -9031    -9213    -9304    -9188    -8907    -8615    -8445    -8473 
   -8704    -9031    -9324    -9524    -9630    -9637    -9520    -9266 
   -8918    -8607    -8526    -8730    -9018    -9163    -9162    -9089 
   -8934    -8706    -8532    -8499    -8577    -8777    -9123    -9478 
   -9663    -9640    -9499    -9335    -9161    -8977    -8865    -8905 
   -9026    -9062    -8980    -8874    -8769    -8635    -8534    -8548 
   -8657    -8810    -8968    -9054    -9027    -8989    -9058    -9217 
   -9410    -9628    -9814    -9844    -9668    -9396    -9159    -8969 
   -8788    -8642    -8576    -8587    -8641    -8729    -8834    -8854 
   -8692    -8413    -8253    -8401    -8822    -9356    -9821   -10046 
   -9953    -9622    -9197    -8781    -8471    -8356    -8464    -8745 
   -9096    -9420    -9672    -9811    -9755    -9459    -9018    -8615 
   -8371    -8294    -8391    -8660    -8973    -9124    -9019    -8757 
   -8526    -8391    -8325    -8360    -8548    -8850    -9215    -9595 
   -9864    -9904    -9795    -9655    -9425    -9067    -8773    -8765 
   -9040    -9423    -9734    -9829    -9624    -9240    -8920    -8748 
   -8635    -8525    -8475    -8544    -8667    -8729    -8743    -8814 
   -8927    -8968    -8911    -8841    -8826    -8901    -9100    -9358 
   -9514    -9467    -9240    -8976    -8856    -8912    -9009    -9078 
   -9185    -9286    -9228    -9043    -8955    -9018    -9113    -9217 
   -9339    -9363    -9229    -9045    -8872    -8648    -8359    -8164 
   -8232    -8491    -8730    -8884    -9038    -9200    -9262    -9202 
   -9138    -9180    -9348    -9583    -9805    -9960   -10023    -9952 
   -9724    -9383    -8997    -8640    -8409    -8352    -8438    -8608 
   -8770    -8806    -8668    -8468    -8368    -8403    -8522    -8702 
   -8926    -9127    -9263    -9324    -9258    -9042    -8797    -8726 
   -8911    -9274    -9724   -10154   -10359   -10165    -9625    -8946 
   -8278    -7727    -7492    -7754    -8419    -9163    -9710    -9940 
   -9794    -9363    -8938    -8723    -8676    -8737    -8953    -9224 
   -9316    -9236    -9184    -9189    -9177    -9204    -9362    -9521 
   -9486    -9286    -9093    -8946    -8789    -8645    -8606    -8719 
   -8920    -9066    -9072    -9016    -9024    -9103    -9151    -9077 
   -8877    -8664    -8577    -8618    -8661    -8696    -8831    -9051 
   -9229    -9332    -9355    -9252    -9053    -8878    -8792    -8792 
   -8893    -9065    -9186    -9171    -9072    -8986    -8953    -8974 
   -9058    -9175    -9271    -9254    -9050    -8729    -8484    -8467 
   -8644    -8845    -8939    -8957    -9000    -9108    -9227    -9313 
   -9377    -9420    -9418    -9378    -9327    -9269    -9200    -9167 
   -9198    -9181    -9000    -8757    -8654    -8716    -8818    -8881 
   -8901    -8892    -8899    -8986    -9169    -9362    -9456    -9404 
   -9220    -8965    -8779    -8796    -8949    -9063    -9113    -9177 
   -9231    -9208    -9131    -9049    -8966    -8885    -8788    -8586 
   -8230    -7906    -7881    -8183    -8615    -9023    -9363    -9609 
   -9774    -9867    -9828    -9674    -9548    -9489    -9406    -9281 
   -9147    -9007    -8885    -8858    -8965    -9143    -9267    -9270 
   -9196    -9072    -8865    -8604    -8429    -8472    -8679    -8851 
   -8889    -8869    -8873    -8900    -8942    -8962    -8910    -8857 
   -8926    -9097    -9252    -9335    -9340    -9263    -9120    -8945 
   -8739    -8544    -8502    -8676    -8924    -9088    -9150    -9147 
   -9104    -9061    -9061    -9094    -9169    -9354    -9675    -9985 
  -10031    -9714    -9207    -8745    -8430    -8294    -8388    -8711 
   -9142    -9505    -9639    -9472    -9096    -8673    -8284    -7973 
   -7857    -8062    -8575    -9220    -9741    -9950    -9756    -9215 
   -8615    -8313    -8441    -8860    -9332    -9698    -9910    -9963 
   -9856    -9634    -9381    -9177    -9057    -9013    -8978    -8827 
   -8511    -8205    -8182    -8480    -8841    -9004    -8919    -8692 
   -8490    -8446    -8581    -8819    -9085    -9343    -9497    -9423 
   -9175    -8981    -8976    -9105    -9261    -9352    -9298    -9112 
   -8981    -9103    -9437    -9740    -9814    -9613    -9185    -8642 
   -8171    -7925    -7970    -8303    -8830    -9333    -9618    -9636 
   -9443    -9099    -8756    -8640    -8796    -9015    -9144    -9259 
   -9423    -9552    -9586    -9536    -9410    -9231    -9042    -8856 
   -8707    -8700    -8846    -8962    -8900    -8726    -8557    -8438 
   -8398    -8496    -8731    -9026    -9298    -9439    -9292    -8856 
   -8409    -8271    -8509    -8943    -9405    -9867   -10291   -10482 
  -10233    -9564    -8727    -8025    -7728    -7962    -8590    -9313 
   -9888   -10200   -10231   -10022    -9678    -9310    -8946    -8572 
   -8213    -7916    -7766    -7870    -8189    -8514    -8723    -8850 
   -8955    -9090    -9315    -9626    -9915   -10015    -9872    -9563 
   -9178    -8802    -8564    -8622    -8953    -9286    -9359    -9163 
   -8862    -8563    -8338    -8298    -8471    -8750    -9019    -9171 
   -9103    -8851    -8611    -8475    -8411    -8472    -8756    -9238 
   -9837   -10449   -10845   -10785   -10230    -9436    -8820    -8630 
   -8792    -9151    -9613    -9995   -10056    -9717    -9074    -8353 
   -7839    -7670    -7759    -7958    -8205    -8479    -8739    -8961 
   -9113    -9147    -9058    -8916    -8781    -8679    -8646    -8773 
   -9112    -9539    -9815    -9842    -9745    -9664    -9610    -9551 
   -9460    -9259    -8903    -8541    -8418    -8583    -8835    -9016 
   -9138    -9173    -9054    -8861    -8742    -8677    -8599    -8599 
   -8812    -9198    -9571    -9755    -9670    -9293    -8667    -8014 
   -7689    -7823    -8185    -8471    -8596    -8658    -8752    -8943 
   -9262    -9622    -9915   -10096   -10127    -9995    -9783    -9586 
   -9391    -9163    -8941    -8811    -8820    -8935    -9099    -9247 
   -9328    -9336    -9320    -9370    -9551    -9787    -9907    -9867 
   -9744    -9522    -9116    -8592    -8195    -8113    -8266    -8398 
   -8371    -8260    -8185    -8198    -8252    -8237    -8114    -8028 
   -8175    -8546    -8939    -9224    -9425    -9540    -9521    -9427 
   -9382    -9414    -9543    -9894   -10469   -10960   -11013   -10544 
   -9726    -8750    -7770    -6998    -6625    -6697    -7160    -7832 
   -8409    -8734    -8934    -9180    -9508    -9899   -10314   -10654 
  -10829   -10816   -10574   -10054    -9336    -8642    -8158    -7906 
   -7827    -7898    -8124    -8425    -8645    -8661    -8490    -8267 
   -8175    -8365    -8857    -9513   -10118   -10469   -10490   -10242 
   -9791    -9198    -8629    -8286    -8206    -8276    -8444    -8739 
   -9047    -9124    -8907    -8571    -8276    -8137    -8320    -8837 
   -9405    -9802   -10071   -10257   -10211    -9815    -9209    -8658 
   -8330    -8241    -8291    -8380    -8453    -8434    -8252    -7921 
   -7601    -7500    -7723    -8276    -9113   -10068   -10895   -11383 
  -11431   -11092   -10484    -9792    -9310    -9246    -9508    -9769 
   -9668    -9000    -7875    -6662    -5787    -5593    -6197    -7398 
   -8789    -9976   -10666   -10747   -10293    -9525    -8781    -8442 
   -8749    -9680   -10951   -12043   -12410   -11838   -10575    -9111 
   -7916    -7298    -7279    -7628    -8050    -8318    -8305    -8064 
   -7840    -7817    -8019    -8426    -8977    -9509    -9915   -10215 
  -10368   -10210    -9701    -9024    -8419    -8024    -7879    -7983 
   -8307    -8742    -9147    -9458    -9675    -9747    -9629    -9397 
   -9243    -9301    -9489    -9602    -9539    -9321    -8970    -8587 
   -8457    -8775    -9374    -9933   -10230   -10170    -9788    -9277 
   -8846    -8556    -8371    -8278    -8272    -8343    -8472    -8619 
   -8741    -8811    -8749    -8492    -8149    -7908    -7846    -7970 
   -8247    -8611    -9046    -9585   -10223   -10849   -11300   -11485 
  -11412   -11097   -10481    -9593    -8661    -7906    -7400    -7196 
   -7326    -7620    -7834    -7881    -7788    -7587    -7411    -7518 
   -8064    -8953    -9940   -10817   -11425   -11612   -11291   -10582 
   -9837    -9431    -9533   -10065   -10704   -10990   -10613    -9626 
   -8340    -7096    -6154    -5679    -5744    -6243    -6886    -7376 
   -7631    -7784    -8050    -8567    -9297   -10093   -10816   -11330 
  -11583   -11639   -11537   -11168   -10500    -9701    -8919    -8212 
   -7735    -7716    -8175    -8869    -9478    -9784    -9761    -9486 
   -9053    -8608    -8283    -8046    -7805    -7627    -7665    -7948 
   -8359    -8766    -9103    -9304    -9258    -8910    -8397    -7921 
   -7611    -7566    -7848    -8357    -8884    -9296    -9601    -9907 
  -10311   -10789   -11206   -11412   -11268   -10724    -9985    -9421 
   -9200    -9224    -9373    -9574    -9672    -9518    -9150    -8691 
   -8212    -7792    -7572    -7643    -7924    -8210    -8322    -8187 
   -7830    -7392    -7148    -7329    -7960    -8923   -10048   -11071 
  -11647   -11565   -10941   -10150    -9547    -9235    -9103    -9008 
   -8893    -8768    -8654    -8525    -8334    -8127    -7996    -7979 
   -8036    -8129    -8262    -8453    -8743    -9143    -9528    -9697 
   -9609    -9441    -9413    -9633   -10056   -10520   -10859   -10999 
  -10924   -10615   -10130    -9558    -8854    -7963    -7042    -6355 
   -6021    -6012    -6261    -6689    -7268    -7982    -8746    -9466 
  -10095   -10590   -10891   -10999   -11017   -11064   -11187   -11311 
  -11345   -11237   -10890   -10228    -9360    -8429    -7464    -6555 
   -5958    -5852    -6150    -6687    -7425    -8390    -9479   -10428 
  -11043   -11290   -11160   -10659    -9925    -9205    -8657    -8272 
   -7979    -7703    -7398    -7105    -6937    -6997    -7292    -7749 
   -8320    -8961    -9526    -9844    -9896    -9842    -9836    -9917 
  -10049   -10180   -10255   -10203    -9941    -9497    -9104    -9088 
   -9535   -10135   -10451   -10353   -10002    -9567    -9107    -8602 
   -8032    -7481    -7076    -6874    -6879    -7113    -7570    -8186 
   -8833    -9370    -9656    -9605    -9328    -9154    -9335    -9790 
  -10203   -10303   -10058    -9649    -9289    -9072    -8984    -9051 
   -9387    -9956   -10447   -10559   -10239    -9630    -8926    -8340 
   -8070    -8166    -8459    -8712    -8777    -8568    -8083    -7512 
   -7145    -7110    -7321    -7677    -8162    -8722    -9273    -9783 
  -10253   -10602   -10728   -10670   -10567   -10457   -10307   -10180 
  -10158   -10134    -9892    -9346    -8604    -7874    -7349    -7172 
   -7381    -7869    -8453    -9000    -9386    -9474    -9246    -8903 
   -8650    -8468    -8248    -8020    -7913    -8044    -8438    -8997 
   -9518    -9821    -9834    -9562    -9097    -8676    -8522    -8691 
   -9103    -9633   -10145   -10512   -10606   -10304    -9651    -8916 
   -8383    -8186    -8343    -8745    -9115    -9221    -9078    -8815 
   -8556    -8430    -8475    -8567    -8536    -8348    -8140    -8078 
   -8257    -8688    -9231    -9651    -9799    -9698    -9481    -9310 
   -9310    -9522    -9879   -10193   -10308   -10177    -9799    -9240 
   -8689    -8343    -8284    -8465    -8772    -9080    -9223    -9124 
   -8927    -8756    -8538    -8233    -7985    -7942    -8132    -8544 
   -9112    -9622    -9815    -9602    -9135    -8644    -8244    -7943 
   -7809    -7951    -8363    -8916    -9478    -9948   -10241   -10359 
  -10401   -10443   -10481   -10466   -10349   -10080    -9675    -9225 
   -8823    -8488    -8205    -8001    -7909    -7867    -7766    -7612 
   -7500    -7488    -7643    -8079    -8788    -9544   -10083   -10350 
  -10443   -10400   -10203    -9906    -9556    -9123    -8640    -8270 
   -8141    -8203    -8332    -8518    -8796    -9097    -9275    -9238 
   -9005    -8739    -8629    -8735    -9009    -9317    -9566    -9791 
  -10072   -10357   -10498   -10420   -10157    -9778    -9350    -8942 
   -8573    -8233    -7940    -7720    -7577    -7527    -7587    -7753 
   -8067    -8545    -9058    -9432    -9609    -9660    -9661    -9603 
   -9487    -9400    -9425    -9571    -9774    -9977   -10135   -10176 
  -10033    -9710    -9265    -8730    -8127    -7566    -7248    -7311 
   -7688    -8183    -8652    -9027    -9301    -9531    -9765    -9987 
  -10143   -10196   -10137    -9945    -9583    -9081    -8576    -8278 
   -8329    -8645    -9022    -9347    -9556    -9539    -9225    -8687 
   -8074    -7512    -7115    -7011    -7223    -7724    -8510    -9460 
  -10258   -10654   -10679   -10520   -10309   -10087    -9825    -9479 
   -9100    -8815    -8684    -8638    -8575    -8442    -8309    -8333 
   -8572    -8892    -9123    -9200    -9161    -9112    -9120    -9131 
   -9055    -8939    -8922    -9008    -9024    -8858    -8600    -8414 
   -8370    -8517    -8900    -9405    -9764    -9796    -9526    -9135 
