Origin Time       2024/04/02 04:24:00
Lat.              40.133
Long.             141.712
Depth. (km)       71
Mag.              6.0
Station Code      HKD168
Station Lat.      41.8691
Station Long.     140.1266
Station Height(m) 2
Record Time       2024/04/02 04:25:42
Sampling Freq(Hz) 100Hz
Duration Time(s)  60
Dir.              N-S
Scale Factor      7845(gal)/8223790
Max. Acc. (gal)   1.469
Last Correction   2024/04/02 04:25:42
Memo.             
[...]
    3816     3847     3829     3792     3797     3809     3801     3775 
    3708     3636     3593     3538     3481     3441     3384     3358 
    3395     3451     3511     3554     3568     3580     3593     3592 
    3586     3592     3616     3667     3708     3716     3709     3673 
    3619     3577     3539     3528     3553     3591     3640     3696 
    3754     3811     3848     3855     3804     3724     3665     3638 
    3639     3627     3580     3551     3569     3605     3650     3713 
    3770     3797     3797     3773     3731     3692     3697     3744 
    3794     3824     3850     3878     3890     3913     3947     3931 
    3897     3886     3855     3812     3774     3721     3665     3636 
    3611     3554     3484     3373     3207     3084     3033     3011 
    3059     3145     3204     3256     3302     3333     3381     3439 
    3465     3478     3487     3466     3464     3512     3564     3607 
    3661     3682     3674     3692     3739     3789     3824     3801 
    3721     3619     3497     3412     3383     3361     3362     3385 
    3395     3412     3454     3496     3535     3572     3568     3538 
    3532     3549     3605     3677     3705     3693     3661     3620 
    3626     3700     3796     3881     3931     3892     3800     3711 
    3622     3591     3611     3608     3604     3592     3526     3449 
    3388     3346     3364     3434     3499     3561     3622     3649 
    3655     3640     3613     3605     3597     3613     3667     3709 
    3743     3751     3709     3669     3639     3622     3622     3631 
    3669     3715     3731     3715     3678     3658     3666     3685 
    3712     3743     3758     3762     3777     3785     3765     3711 
    3630     3546     3504     3505     3508     3489     3458     3423 
    3392     3356     3308     3269     3279     3345     3435     3528 
    3613     3680     3727     3770     3805     3823     3839     3832 
    3765     3681     3613     3558     3522     3489     3484     3524 
    3564     3599     3647     3704     3762     3819     3854     3863 
    3885     3932     3987     4029     4029     3996     3977     3979 
    3985     3975     3917     3816     3726     3665     3639     3642 
    3638     3626     3619     3589     3534     3496     3478     3472 
    3519     3616     3715     3802     3839     3773     3663     3578 
    3530     3541     3585     3611     3639     3663     3658     3649 
    3627     3592     3580     3568     3554     3558     3564     3572 
    3581     3558     3510     3457     3406     3399     3446     3495 
    3532     3538     3503     3493     3508     3483     3446     3415 
    3372     3368     3420     3478     3535     3605     3650     3638 
    3600     3537     3446     3408     3438     3484     3526     3537 
    3510     3469     3427     3414     3449     3526     3646     3770 
    3861     3902     3888     3839     3807     3813     3855     3901 
    3912     3896     3855     3773     3685     3591     3491     3437 
    3430     3457     3524     3607     3689     3758     3798     3827 
    3850     3870     3886     3869     3804     3721     3655     3630 
    3635     3618     3573     3527     3483     3451     3422     3364 
    3283     3211     3171     3157     3163     3198     3275     3399 
    3531     3626     3672     3653     3573     3488     3449     3447 
    3488     3568     3655     3723     3761     3755     3703     3634 
    3581     3559     3569     3597     3640     3677     3688     3684 
    3645     3570     3520     3508     3516     3539     3542     3530 
    3553     3626     3739     3869     3983     4060     4106     4132 
    4136     4139     4126     4062     3974     3878     3759     3651 
    3566     3507     3501     3530     3580     3646     3678     3659 
    3604     3527     3461     3429     3431     3458     3499     3584 
    3699     3790     3863     3888     3850     3800     3750     3700 
    3666     3640     3631     3626     3607     3622     3680     3750 
    3844     3937     3981     3987     3952     3854     3727     3604 
    3489     3418     3403     3403     3426     3461     3466     3447 
    3399     3331     3296     3306     3345     3396     3443     3469 
    3484     3478     3443     3407     3369     3323     3296     3291 
    3307     3331     3348     3369     3404     3472     3607     3757 
    3831     3828     3775     3690     3607     3581     3623     3686 
    3732     3739     3694     3632     3568     3507     3501     3528 
    3547     3588     3640     3686     3716     3705     3662     3607 
    3546     3514     3514     3510     3495     3473     3438     3392 
    3338     3280     3253     3261     3267     3291     3350     3406 
    3449     3501     3546     3555     3530     3499     3487     3492 
    3523     3596     3696     3773     3834     3904     3973     4058 
    4147     4212     4249     4249     4214     4152     4094     4066 
    4014     3939     3867     3765     3635     3523     3449     3426 
    3424     3408     3387     3370     3357     3369     3419     3488 
    3588     3711     3821     3889     3905     3894     3862     3824 
    3802     3767     3703     3608     3488     3362     3257     3208 
    3221     3258     3312     3389     3477     3545     3613     3697 
    3750     3786     3854     3913     3943     3967     3971     3951 
    3932     3900     3852     3811     3773     3743     3730     3716 
    3688     3635     3557     3504     3516     3547     3601     3694 
    3767     3792     3781     3711     3635     3639     3667     3681 
    3712     3690     3588     3470     3353     3253     3226     3250 
    3310     3410     3496     3541     3555     3531     3507     3516 
    3526     3515     3503     3469     3423     3408     3416     3426 
    3422     3381     3342     3353     3419     3538     3643     3728 
    3840     3923     3960     4001     4002     3959     3908     3834 
    3748     3678     3599     3504     3457     3480     3547     3661 
    3780     3843     3863     3836     3777     3709     3612     3535 
    3512     3489     3489     3537     3599     3666     3719     3734 
    3735     3736     3701     3649     3599     3557     3542     3528 
    3507     3476     3420     3375     3364     3370     3372     3352 
    3310     3267     3248     3244     3250     3296     3360     3412 
    3468     3512     3539     3592     3663     3711     3762     3827 
    3890     3989     4093     4129     4091     3986     3844     3730 
    3667     3631     3619     3634     3639     3613     3553     3477 
    3404     3337     3283     3261     3281     3350     3465     3580 
    3653     3669     3643     3631     3653     3677     3697     3699 
    3690     3692     3665     3586     3492     3407     3335     3284 
    3245     3222     3240     3284     3360     3488     3608     3689 
    3740     3747     3775     3882     4018     4131     4168     4090 
    3932     3770     3677     3662     3680     3727     3784     3813 
    3850     3893     3885     3834     3758     3654     3577     3557 
    3586     3681     3813     3915     3937     3889     3804     3697 
    3596     3542     3537     3577     3651     3690     3677     3650 
    3599     3555     3581     3640     3705     3773     3796     3798 
    3824     3828     3796     3754     3697     3639     3611     3604 
    3597     3572     3503     3396     3312     3260     3226     3250 
    3299     3325     3364     3406     3426     3461     3510     3562 
    3631     3686     3734     3774     3759     3700     3632     3578 
    3581     3627     3678     3751     3823     3865     3896     3897 
    3850     3793     3757     3738     3755     3786     3792     3774 
    3720     3631     3534     3465     3446     3476     3535     3599 
    3646     3673     3690     3715     3732     3734     3747     3751 
    3742     3766     3815     3831     3817     3796     3740     3674 
    3628     3574     3541     3537     3499     3434     3384     3349 
    3345     3370     3381     3383     3408     3451     3512     3557 
    3546     3528     3511     3480     3466     3442     3406     3411 
    3441     3470     3500     3518     3542     3597     3662     3720 
    3778     3807     3789     3758     3712     3642     3572     3485 
    3402     3375     3381     3410     3477     3522     3538     3558 
    3543     3514     3508     3485     3470     3514     3569     3619 
    3661     3667     3661     3669     3689     3736     3819     3885 
    3909     3890     3821     3746     3682     3613     3562     3523 
    3487     3480     3487     3507     3546     3580     3597     3607 
    3607     3593     3570     3524     3430     3288     3134     3014 
    2968     2992     3055     3125     3199     3285     3381     3477 
    3551     3588     3584     3557     3532     3520     3515     3528 
    3564     3582     3559     3504     3441     3362     3264     3172 
    3099     3042     3017     3038     3109     3194     3281     3361 
    3392     3399     3433     3472     3523     3599     3649     3651 
    3626     3584     3566     3600     3659     3717     3774     3836 
    3927     4029     4077     4072     4018     3900     3816     3828 
    3896     4024     4168     4278     4371     4444     4486     4521 
    4550     4571     4594     4621     4625     4591     4534     4480 
    4455     4452     4455     4450     4453     4495     4554     4595 
    4603     4554     4438     4287     4148     4052     4013     4021 
    4045     4054     4041     4016     3951     3854     3759     3659 
    3539     3402     3256     3126     3022     2943     2898     2879 
    2870     2883     2945     3032     3090     3105     3084     3013 
    2932     2929     3006     3125     3279     3419     3512     3569 
    3570     3515     3449     3381     3310     3257     3208     3159 
    3153     3204     3287     3381     3460     3518     3546     3535 
    3511     3495     3474     3460     3454     3430     3406     3393 
    3397     3458     3549     3626     3685     3673     3605     3550 
    3493     3450     3456     3477     3499     3524     3535     3528 
    3512     3473     3408     3333     3249     3169     3111     3063 
    3013     2983     2976     2978     3003     3053     3103     3179 
    3291     3416     3553     3667     3715     3720     3700     3619 
    3508     3435     3404     3418     3456     3466     3480     3511 
    3530     3570     3632     3672     3703     3712     3667     3605 
    3565     3558     3605     3690     3774     3852     3904     3927 
    3969     4012     4036     4062     4074     4060     4037     4013 
    3983     3948     3889     3823     3782     3750     3719     3717 
    3732     3748     3777     3802     3820     3851     3885     3924 
    3951     3919     3835     3730     3607     3485     3370     3244 
    3133     3061     3011     2988     3003     3030     3038     3029 
    3038     3073     3122     3186     3257     3333     3392     3430 
    3465     3485     3478     3469     3470     3496     3555     3639 
    3734     3816     3862     3848     3784     3712     3666     3658 
    3676     3724     3802     3861     3885     3898     3896     3889 
    3879     3847     3808     3797     3819     3879     3956     4001 
    3997     3937     3847     3769     3707     3657     3635     3607 
    3574     3568     3542     3492     3474     3476     3472     3468 
    3443     3407     3372     3338     3319     3325     3361     3426 
    3507     3604     3701     3781     3835     3852     3839     3808 
    3775     3767     3788     3809     3780     3680     3546     3414 
    3294     3196     3137     3110     3103     3123     3163     3200 
    3256     3342     3456     3607     3784     3956     4105     4214 
    4268     4283     4266     4203     4113     4036     3981     3936 
    3893     3869     3873     3886     3897     3888     3838     3751 
    3667     3623     3596     3578     3582     3582     3608     3684 
    3774     3878     3981     4048     4083     4087     4074     4068 
    4067     4062     4043     3986     3904     3828     3748     3681 
    3653     3642     3647     3684     3727     3753     3774     3792 
    3796     3774     3709     3620     3535     3447     3343     3215 
    3064     2947     2916     2974     3087     3210     3310     3364 
    3392     3420     3451     3480     3505     3524     3535     3528 
    3501     3472     3453     3464     3528     3638     3770     3916 
    4047     4149     4212     4186     4066     3925     3831     3828 
    3912     4016     4112     4190     4216     4176     4085     3951 
    3812     3692     3586     3492     3393     3295     3230     3208 
    3198     3187     3184     3186     3200     3230     3265     3323 
    3392     3442     3492     3555     3626     3705     3755     3743 
    3690     3609     3530     3493     3477     3472     3499     3558 
    3645     3731     3794     3807     3757     3680     3597     3523 
    3488     3481     3492     3551     3676     3839     4028     4257 
    4500     4685     4772     4756     4668     4575     4523     4526 
    4579     4629     4635     4596     4499     4363     4220     4077 
    3937     3809     3678     3534     3365     3163     2926     2689 
    2482     2297     2146     2076     2089     2181     2376     2629 
    2872     3086     3215     3256     3285     3319     3346     3418 
    3489     3514     3528     3508     3443     3389     3326     3267 
    3241     3202     3160     3149     3148     3168     3226     3288 
    3365     3500     3672     3851     4016     4112     4145     4162 
    4178     4218     4297     4376     4436     4469     4456     4401 
    4325     4236     4155     4086     4010     3951     3916     3898 
    3923     3966     4000     4002     3900     3676     3402     3114 
    2828     2590     2412     2282     2227     2243     2295     2374 
    2466     2538     2625     2749     2860     2976     3076     3082 
    3036     2968     2874     2822     2825     2824     2829     2840 
    2824     2808     2830     2866     2918     3011     3072     3088 
    3127     3173     3230     3354     3528     3744     4006     4270 
    4503     4687     4789     4793     4708     4548     4351     4151 
    3962     3816     3716     3626     3581     3623     3692     3754 
    3804     3811     3797     3782     3755     3762     3804     3832 
    3843     3834     3786     3744     3717     3670     3645     3647 
    3631     3615     3601     3541     3451     3362     3267     3206 
    3207     3254     3361     3532     3719     3897     4036     4108 
    4137     4145     4120     4050     3939     3792     3636     3530 
    3483     3491     3532     3589     3681     3800     3910     4028 
    4164     4291     4402     4506     4583     4631     4660     4634 
    4521     4348     4140     3910     3712     3580     3500     3481 
    3541     3665     3811     3932     3998     4013     4012     4002 
    3997     4029     4082     4120     4136     4106     4024     3905 
    3758     3599     3422     3237     3094     3014     3010     3063 
    3119     3175     3219     3240     3253     3257     3264     3294 
    3339     3412     3528     3673     3821     3958     4060     4097 
    4070     4004     3897     3767     3627     3476     3339     3207 
    3098     3051     3063     3138     3275     3422     3535     3618 
    3681     3719     3757     3813     3874     3940     4006     4040 
    4052     4074     4104     4141     4187     4221     4233     4228 
    4207     4178     4126     4021     3867     3696     3531     3379 
    3252     3129     2995     2870     2751     2654     2608     2608 
    2648     2722     2809     2880     2926     2952     2988     3045 
    3088     3117     3146     3149     3175     3275     3399     3545 
    3708     3831     3882     3863     3775     3661     3551     3447 
    3372     3331     3298     3269     3231     3180     3165     3202 
    3292     3446     3623     3775     3881     3919     3905     3863 
    3839     3885     3987     4110     4244     4379     4499     4573 
    4602     4581     4482     4371     4283     4180     4106     4068 
    4020     3987     3981     3967     3942     3892     3784     3646 
    3518     3385     3287     3273     3284     3303     3365     3427 
    3484     3547     3538     3451     3346     3227     3154     3150 
    3149     3152     3171     3167     3142     3091     2980     2837 
    2700     2612     2651     2829     3064     3291     3457     3547 
    3589     3599     3584     3608     3678     3762     3893     4055 
    4207     4364     4499     4583     4630     4627     4554     4430 
    4280     4109     3931     3778     3678     3622     3608     3647 
    3730     3821     3896     3928     3890     3825     3800     3848 
    3989     4187     4367     4475     4468     4357     4191     3996 
    3815     3682     3605     3597     3626     3655     3681     3661 
    3559     3407     3219     3001     2805     2673     2577     2540 
    2598     2714     2902     3153     3379     3559     3670     3680 
    3605     3447     3221     2994     2835     2760     2759     2812 
    2860     2878     2905     2937     2964     3003     3026     3026 
    3061     3113     3138     3187     3244     3262     3291     3325 
    3369     3496     3685     3906     4167     4414     4606     4727 
    4739     4657     4534     4374     4193     4039     3917     3852 
    3885     3964     4023     4039     3983     3863     3734     3613 
    3512     3450     3403     3339     3281     3248     3227     3238 
    3287     3356     3430     3491     3497     3426     3292     3149 
    3060     3060     3114     3177     3229     3257     3256     3234 
    3229     3252     3269     3302     3377     3473     3584     3694 
    3765     3801     3817     3819     3827     3835     3839     3848 
    3888     3960     4058     4153     4202     4201     4182     4168 
    4183     4244     4334     4396     4394     4328     4230     4155 
    4120     4108     4121     4159     4193     4187     4148     4074 
    3959     3836     3726     3650     3639     3690     3755     3798 
    3834     3869     3886     3908     3947     4002     4070     4102 
    4066     3970     3820     3643     3495     3392     3323     3292 
    3294     3326     3385     3450     3507     3553     3565     3551 
    3585     3665     3739     3805     3847     3852     3859     3866 
    3848     3808     3753     3700     3678     3704     3771     3858 
    3909     3901     3851     3782     3748     3785     3861     3925 
    3947     3928     3889     3836     3775     3712     3659     3643 
    3654     3643     3597     3524     3412     3291     3191     3098 
    3021     2975     2963     2998     3044     3068     3064     3021 
    2967     2955     2999     3087     3200     3306     3362     3376 
    3375     3377     3416     3492     3573     3616     3589     3531 
    3485     3449     3410     3350     3254     3142     3055     3006 
