Origin Time       2024/04/02 04:24:00
Lat.              40.133
Long.             141.712
Depth. (km)       71
Mag.              6.0
Station Code      HKD159
Station Lat.      41.7160
Station Long.     141.0046
Station Height(m) 23
Record Time       2024/04/02 04:25:05
Sampling Freq(Hz) 100Hz
Duration Time(s)  134
Dir.              N-S
Scale Factor      7845(gal)/8223790
Max. Acc. (gal)   18.210
Last Correction   2024/04/02 04:25:05
Memo.             
[...]
    6990     6658     6552     6536     6471     6188     5535     4556 
    3478     2509     1881     1827     2293     3052     3967     4819 
    5425     5946     6555     7176     7781     8468     9163     9570 
    9391     8676     7900     7437     7087     6493     5553     4244 
    2652     1171      270      217     1034     2467     4051     5273 
    5765     5590     5258     5269     5834     7018     8664    10243 
   11183    11286    10692     9609     8294     7084     6111     5181 
    4087     2894     1868     1186      845      791     1030     1622 
    2516     3481     4317     5127     6215     7605     8922     9860 
   10424    10631    10432     9871     8959     7636     6097     4741 
    3728     2956     2389     2111     2037     1956     1903     2115 
    2741     3727     4835     5884     6804     7499     7985     8422 
    8795     8888     8561     7901     7164     6454     5690     4938 
    4359     3991     3762     3566     3462     3662     4097     4480 
    4843     5309     5649     5705     5636     5610     5744     6184 
    6976     7927     8716     9092     8930     8271     7233     5922 
    4606     3642     3129     2979     3068     3219     3300     3391 
    3650     4058     4428     4654     4878     5294     5811     6254 
    6682     7117     7369     7319     7060     6779     6608     6542 
    6520     6540     6651     6789     6824     6585     5778     4436 
    3161     2505     2511     2951     3653     4527     5375     5910 
    6075     6147     6412     6870     7329     7569     7423     6913 
    6296     5883     5773     5788     5746     5560     5050     4288 
    3763     3744     4055     4494     4914     5171     5363     5664 
    6015     6392     6868     7267     7296     6889     6193     5425 
    4768     4378     4364     4696     5104     5287     5275     5274 
    5265     5198     5302     5807     6596     7290     7541     7221 
    6509     5697     4924     4283     3963     4101     4599     5175 
    5638     5950     6068     6053     6196     6644     7087     7132 
    6685     5933     5167     4661     4587     4951     5579     6147 
    6351     6146     5694     5270     5197     5390     5279     4580 
    3662     2999     2806     3246     4345     5680     6728     7315 
    7411     7067     6579     6266     6331     6805     7392     7717 
    7562     6833     5711     4583     3782     3539     3850     4365 
    4799     5138     5395     5505     5449     5363     5445     5699 
    5907     5919     5756     5566     5602     5958     6373     6547 
    6508     6431     6403     6376     6145     5576     4951     4666 
    4646     4529     4259     3994     3834     3861     4105     4504 
    4965     5381     5745     6114     6455     6789     7273     7848 
    8164     8050     7635     7107     6620     6139     5459     4671 
    4118     3885     3867     3970     3937     3682     3538     3669 
    3948     4390     5019     5737     6531     7348     8012     8432 
    8534     8222     7693     7246     6813     6142     5370     4847 
    4576     4409     4387     4472     4510     4395     4162     4035 
    4117     4170     4079     4074     4329     4793     5404     6099 
    6708     7121     7495     7942     8307     8448     8221     7506 
    6571     5873     5482     5277     5212     5165     4965     4496 
    3773     2983     2424     2342     2782     3603     4665     5763 
    6555     6893     6948     6951     7080     7496     8151     8646 
    8614     8090     7245     6124     4909     3954     3375     2995 
    2728     2666     2756     2856     3061     3534     4141     4712 
    5421     6419     7453     8186     8560     8669     8537     8141 
    7541     6885     6305     5872     5652     5665     5694     5458 
    5043     4681     4379     4174     4268     4687     5205     5545 
    5452     4892     4187     3739     3730     4136     4828     5625 
    6296     6674     6809     6912     7107     7350     7607     7923 
    8106     7735     6677     5293     4120     3427     3103     3056 
    3265     3551     3785     3886     3766     3716     4201     5216 
    6415     7492     8237     8538     8452     8166     7808     7414 
    7079     6848     6473     5680     4611     3732     3381     3433 
    3484     3410     3453     3723     4132     4733     5571     6389 
    6939     7281     7506     7593     7620     7680     7704     7553 
    7167     6663     6199     5684     4980     4222     3588     3068 
    2632     2353     2398     2809     3423     4178     5115     6114 
    7030     7832     8421     8662     8577     8228     7622     6859 
    6158     5675     5409     5258     5158     5098     5030     4861 
    4591     4307     4044     3842     3773     3808     3975     4418 
    5051     5651     6189     6671     6967     7064     7144     7231 
    7186     7002     6747     6478     6243     5907     5356     4849 
    4715     4893     4980     4627     3946     3447     3353     3431 
    3697     4293     4908     5204     5347     5548     5737     6033 
    6702     7607     8333     8604     8337     7719     7056     6436 
    5865     5481     5282     5034     4607     4099     3651     3387 
    3377     3541     3771     4062     4390     4791     5444     6411 
    7468     8324     8826     8965     8761     8220     7400     6478 
    5664     5074     4698     4375     3940     3446     3005     2632 
    2450     2617     3136     3962     5054     6176     7045     7593 
    7848     7825     7690     7697     7869     7908     7483     6600 
    5606     4749     4067     3682     3677     3881     4133     4445 
    4761     5036     5335     5578     5643     5638     5663     5653 
    5593     5513     5474     5582     5806     5969     5926     5651 
    5343     5301     5553     5971     6467     6870     7048     7088 
    6982     6562     5872     5216     4808     4634     4612     4608 
    4421     4029     3708     3647     3753     4090     4915     5972 
    6597     6642     6575     6724     7049     7458     7863     8093 
    7920     7276     6370     5414     4473     3753     3518     3703 
    4028     4446     4927     5194     5238     5343     5493     5576 
    5775     6232     6794     7168     7200     7068     7002     6848 
    6342     5644     5093     4734     4514     4537     4858     5290 
    5521     5325     4762     4093     3491     3115     3237     3932 
    4901     5842     6702     7433     7900     8149     8329     8413 
    8299     7962     7420     6708     5895     5107     4521     4232 
    4145     4147     4243     4295     4117     3894     3867     3871 
    3800     3870     4128     4495     5147     6205     7365     8175 
    8446     8344     8160     7973     7668     7275     6876     6319 
    5560     4901     4469     4023     3512     3157     3018     3118 
    3519     4068     4588     5062     5445     5694     5884     6053 
    6161     6309     6658     7126     7435     7399     7150     6949 
    6802     6616     6484     6365     5922     5059     4166     3597 
    3350     3258     3289     3543     3960     4332     4680     5131 
    5597     6045     6544     6893     6889     6674     6480     6543 
    7026     7717     8202     8282     7950     7209     6129     4843 
    3527     2508     2093     2235     2663     3127     3493     3817 
    4203     4660     5235     5979     6794     7520     8067     8419 
    8483     8102     7358     6608     6096     5761     5526     5359 
    5012     4379     3850     3694     3686     3676     3867     4307 
    4691     4853     4931     5088     5368     5741     6243     6993 
    7839     8371     8453     8243     7789     7209     6720     6220 
    5491     4662     3975     3564     3504     3622     3639     3591 
    3622     3789     4232     4990     5829     6543     7065     7310 
    7287     7176     7103     7163     7426     7663     7538     7056 
    6378     5649     5100     4815     4554     4167     3815     3611 
    3470     3380     3415     3527     3632     3801     4220     4988 
    6057     7330     8568     9451     9840     9752     9151     8009 
    6486     4981     3906     3360     3154     3180     3375     3646 
    4085     4770     5421     5761     5913     6104     6274     6243 
    6069     5976     6066     6174     6053     5877     6025     6359 
    6512     6450     6363     6362     6355     6187     5840     5324 
    4550     3611     2882     2587     2678     3153     3971     4841 
    5618     6409     7060     7276     7244     7408     7747     7943 
    7893     7569     6926     6081     5296     4810     4637     4569 
    4396     4010     3491     3072     2895     2980     3312     3897 
    4684     5443     6092     6837     7642     8176     8310     8222 
    8093     7924     7639     7204     6617     5964     5344     4816 
    4475     4294     4152     4095     4163     4105     3750     3399 
    3412     3757     4286     4996     5725     6112     6169     6280 
    6497     6606     6790     7345     8035     8295     7928     7283 
    6760     6370     5908     5346     4801     4356     4095     4033 
    3964     3805     3839     4320     5059     5633     5842     5896 
    6120     6492     6760     6902     6987     6993     6955     6879 
    6573     5867     4851     3897     3395     3412     3727     4158 
    4606     4934     5119     5340     5675     6027     6397     6799 
    7125     7337     7466     7485     7383     7109     6652     6201 
    5838     5424     4974     4626     4284     3901     3667     3577 
    3420     3276     3458     4028     4641     5084     5616     6382 
    7134     7769     8378     8864     9116     9170     8999     8468 
    7526     6299     5070     4064     3277     2647     2178     1852 
    1725     1895     2290     2705     2995     3308     3981     5058 
    6297     7574     8823     9733    10021     9861     9556     9090 
    8286     7153     6114     5611     5544     5483     5163     4467 
    3410     2268     1405      957      826      940     1422     2370 
    3532     4702     6087     7662     8872     9471     9768     9956 
    9950     9709     9254     8623     7788     6642     5283     3987 
    2925     2269     2187     2486     2752     2795     2704     2741 
    3246     4256     5447     6546     7537     8446     9121     9409 
    9374     9131     8708     8091     7303     6389     5316     4125 
    3088     2392     1944     1691     1825     2481     3411     4298 
    5223     6291     7155     7609     7954     8266     8280     8047 
    7812     7488     6874     6139     5614     5320     4972     4448 
    4009     3800     3618     3407     3372     3604     3977     4340 
    4692     5138     5772     6612     7608     8559     9043     8851 
    8232     7379     6288     5121     4168     3553     3279     3346 
    3701     4213     4837     5545     6177     6524     6504     6234 
    5949     5832     5908     6087     6258     6327     6261     6180 
    6162     6124     5994     5779     5502     5242     5047     4851 
    4611     4409     4290     4232     4264     4386     4553     4758 
    4895     4945     5274     6076     6952     7541     7857     7967 
    7933     7870     7676     7142     6345     5435     4361     3200 
    2349     2097     2394     2995     3662     4310     4891     5362 
    5906     6737     7657     8208     8257     8004     7674     7427 
    7229     6917     6459     5894     5112     4153     3397     3068 
    3055     3329     3925     4639     5185     5499     5706     5810 
    5657     5312     5017     4826     4761     5017     5660     6434 
    6899     6882     6717     6759     7037     7542     8206     8631 
    8432     7689     6782     5948     5252     4726     4348     4079 
    3931     3862     3748     3581     3453     3385     3512     4054 
    4850     5525     5998     6338     6517     6435     6012     5347 
    4708     4324     4325     4766     5526     6369     7132     7670 
    7813     7550     7045     6497     6169     6277     6808     7545 
    8159     8316     7947     7226     6258     5112     3964     2945 
    2158     1817     1915     2080     2093     2188     2666     3630 
    5023     6536     7793     8627     8891     8627     8240     7844 
    7261     6573     6018     5618     5152     4446     3528     2512 
    1559      926      967     1780     2988     4271     5579     6655 
    7075     6794     6286     6104     6528     7751     9783    12124 
   14125    15310    15390    14408    12595    10250     7847     5660 
    3523     1375     -481    -1944    -3221    -4266    -4776    -4568 
   -3530    -1580     1147     4276     7214     9358    10552    11041 
   10903    10261     9613     9153     8429     7275     6296     5969 
    6165     6825     7836     8584     8591     7755     6123     4140 
    2320      672     -652    -1021     -492      139      688     1421 
    2277     3377     5063     7209     9478    11605    13053    13458 
   13134    12509    11817    11226    10609     9447     7354     4541 
    1374    -1925    -4905    -7057    -8208    -8267    -7272    -5526 
   -3241     -457     2787     6574    10898    15234    18760    21093 
   22384    22666    21767    19842    17132    13601     9227     4167 
   -1189    -6174   -10218   -12857   -13502   -11867    -8279    -3408 
    1856     6674    10635    13641    15711    16907    17185    16492 
   15171    13722    12213    10542     8770     7026     5536     4411 
    3505     2623     1514      109    -1140    -1718    -1764    -1715 
   -1567    -1075     -108     1448     3618     6285     9339    12510 
   15183    16784    17157    16398    14461    11438     8109     5202 
    2808     1075      378      718     1701     2856     3933     4999 
    6097     6871     6805     5598     3115     -338    -3524    -5175 
   -5116    -3547     -383     3878     7989    11074    12981    13809 
   13903    13759    13451    12753    11724    10604     9344     7711 
    5661     3299      733    -1786    -3820    -5081    -5481    -4760 
   -2716      313     3582     6323     8205     9355     9922    10195 
   10520    10665    10442    10497    11279    12317    12999    12977 
   12017    10027     7142     3932     1259     -460    -1421    -2047 
   -2832    -3856    -4513    -4043    -2141      903     4569     8422 
   11932    14616    16395    17421    17609    16586    14281    11250 
    7983     4591     1505     -618    -1748    -2107    -1676     -583 
     915     2542     3898     4698     4911     4791     4820     5355 
    6365     7553     8662     9559    10166    10566    10754    10446 
    9501     7919     5703     3237     1132     -307    -1131    -1375 
    -911      172     1470     2702     3981     5543     7338     9081 
   10508    11423    11755    11643    11318    10833    10152     9444 
    8861     8221     7168     5487     3357     1208     -818    -2740 
   -4263    -5058    -5077    -4429    -3262    -1634      712     4311 
    9320    14926    19620    22176    22468    21203    19130    16517 
   13213     9386     5709     2560     -410    -3445    -5915    -7327 
   -8032    -8232    -7638    -6033    -3407        1     3761     7618 
   11523    15313    18474    20279    20397    19059    16742    13977 
   11195     8777     6821     4999     3117     1167     -810    -2508 
   -3501    -3488    -2398     -693      980     2358     3164     3064 
    2400     2012     2512     4064     6478     9354    12167    14384 
   15491    15218    13883    12110    10385     8918     7720     6822 
    6110     5209     3855     2004     -249    -2496    -4072    -4583 
   -4171    -3329    -2254     -616     1737     4658     7959    11007 
   13032    14210    15323    16440    16938    16406    14868    12418 
    9055     5032      992    -2451    -4931    -6288    -6426    -5177 
   -2619      610     3474     5277     6195     6737     7065     7271 
    7585     8010     8507     9300    10359    11272    11605    11240 
   10594    10034     9344     8422     7565     6795     5725     4286 
    2979     2120     1375      234    -1363    -2809    -3258    -2593 
   -1336      251     2205     4476     6917     9300    11219    12282 
   12507    12351    12106    11443    10103     8665     7867     7592 
    7184     6313     4931     2992      865     -880    -2118    -2936 
   -3195    -2625    -1102     1233     3966     6741     9517    12073 
   13941    15074    15754    15824    14856    12903    10303     7300 
    4209     1336     -980    -2290    -2527    -1971     -715      945 
    2261     3021     3852     5182     6793     8370     9741    10748 
   11299    11369    11072    10706    10373     9941     9316     8425 
    7137     5201     2575     -379    -3071    -4846    -5373    -4619 
   -2771     -525     1433     3134     4989     7202     9601    11839 
   13674    14897    15358    15152    14377    12996    11206     9502 
    8023     6318     4144     1755     -606    -2767    -4540    -5680 
   -5714    -4352    -2081      425     3123     6108     9016    11300 
   12652    13190    13193    12795    11985    10748     9431     8502 
    7873     7119     6123     5204     4722     4479     3828     2467 
     738     -645    -1015     -352      714     1691     2494     3279 
    4284     5433     6359     7026     7843     9078    10523    11766 
   12486    12618    12437    12187    11600    10196     7962     5404 
    3018      963     -785    -2201    -3098    -3176    -2513    -1559 
    -380     1428     4155     7558    10724    12664    13230    12954 
   12275    11499    10737     9830     9039     8823     8756     7865 
    5771     3059      623    -1152    -2126    -1903     -309     2250 
    4999     7213     8478     8681     8197     7666     7209     6473 
    5413     4444     4075     4529     5518     6571     7384     7673 
    7254     6453     5823     5591     5671     5904     5992     5625 
    4978     4492     4132     3688     3342     3433     4170     5390 
    6446     6787     6515     6099     5694     5005     3832     2349 
     996      261      333     1165     2592     4216     5676     7061 
    8677    10426    11853    12663    12695    11747     9894     7735 
    5972     4950     4495     4070     3493     3119     3015     2937 
    2930     3025     3024     2961     3103     3508     3969     4504 
    5479     6795     7913     8842     9880    10670    10557     9587 
    8538     7985     7761     7381     6501     4966     2818      449 
   -1417    -2280    -2241    -1530      -60     2243     5073     7950 
   10489    12243    12654    11649    10048     8762     7749     6284 
    4243     2520     1794     1659     1647     1956     2751     3866 
    5140     6296     6976     7075     6764     6508     6802     7537 
    8127     8247     8041     7716     7173     6168     4687     3056 
    1682      729      194      318     1363     3080     4931     6544 
    7823     8734     9151     9117     8991     9120     9585    10301 
   11186    11912    11892    10800     8791     6165     3192      298 
