Origin Time       2024/04/02 04:24:00
Lat.              40.133
Long.             141.712
Depth. (km)       71
Mag.              6.0
Station Code      HKD135
Station Lat.      42.5533
Station Long.     140.8864
Station Height(m) 63
Record Time       2024/04/02 04:25:19
Sampling Freq(Hz) 100Hz
Duration Time(s)  98
Dir.              U-D
Scale Factor      7845(gal)/8223790
Max. Acc. (gal)   1.978
Last Correction   2024/04/02 04:25:20
Memo.             
[...]
   -8587    -8556    -8613    -8631    -8611    -8635    -8611    -8491 
   -8471    -8611    -8707    -8692    -8684    -8645    -8523    -8463 
   -8495    -8527    -8625    -8762    -8716    -8445    -8167    -8014 
   -7919    -7828    -7801    -7838    -7898    -8037    -8264    -8449 
   -8554    -8640    -8672    -8644    -8658    -8729    -8757    -8765 
   -8779    -8680    -8478    -8353    -8360    -8413    -8451    -8460 
   -8422    -8278    -8059    -7955    -8036    -8248    -8536    -8758 
   -8885    -8995    -9015    -8945    -8930    -8951    -8924    -8880 
   -8841    -8768    -8652    -8604    -8667    -8656    -8519    -8422 
   -8406    -8502    -8777    -9026    -9023    -8895    -8816    -8750 
   -8673    -8696    -8800    -8764    -8518    -8194    -7888    -7707 
   -7797    -8144    -8559    -8785    -8802    -8877    -9007    -8951 
   -8883    -9005    -9126    -9135    -9072    -8833    -8463    -8235 
   -8275    -8461    -8613    -8673    -8590    -8266    -7838    -7576 
   -7533    -7708    -8121    -8527    -8692    -8753    -8833    -8806 
   -8631    -8429    -8282    -8239    -8313    -8436    -8511    -8514 
   -8471    -8392    -8374    -8506    -8637    -8600    -8525    -8509 
   -8438    -8345    -8380    -8514    -8653    -8776    -8841    -8787 
   -8629    -8453    -8305    -8214    -8278    -8446    -8560    -8638 
   -8687    -8630    -8560    -8537    -8540    -8652    -8781    -8761 
   -8721    -8749    -8770    -8816    -8847    -8769    -8658    -8581 
   -8568    -8691    -8826    -8789    -8631    -8449    -8212    -7954 
   -7878    -8074    -8328    -8472    -8615    -8758    -8733    -8590 
   -8469    -8357    -8298    -8411    -8646    -8870    -9061    -9194 
   -9224    -9188    -9128    -9000    -8806    -8640    -8496    -8313 
   -8159    -8058    -7971    -7971    -8024    -8023    -8090    -8305 
   -8518    -8683    -8775    -8704    -8592    -8584    -8592    -8599 
   -8714    -8870    -8903    -8811    -8708    -8588    -8425    -8391 
   -8559    -8704    -8748    -8743    -8595    -8313    -8113    -8086 
   -8164    -8295    -8486    -8703    -8833    -8837    -8776    -8629 
   -8386    -8167    -8071    -8133    -8364    -8646    -8812    -8803 
   -8654    -8525    -8567    -8708    -8846    -8950    -8939    -8803 
   -8654    -8541    -8459    -8432    -8434    -8417    -8401    -8422 
   -8437    -8430    -8402    -8303    -8220    -8284    -8406    -8422 
   -8401    -8490    -8668    -8816    -8910    -8950    -8847    -8560 
   -8293    -8225    -8262    -8324    -8502    -8684    -8658    -8552 
   -8505    -8417    -8341    -8415    -8521    -8575    -8648    -8707 
   -8731    -8780    -8831    -8891    -8993    -9042    -8986    -8939 
   -8969    -9008    -8977    -8885    -8765    -8599    -8395    -8139 
   -7815    -7608    -7668    -7761    -7707    -7670    -7723    -7766 
   -7877    -8128    -8353    -8468    -8610    -8793    -8862    -8764 
   -8576    -8429    -8483    -8741    -8981    -9036    -8974    -8878 
   -8687    -8415    -8247    -8245    -8306    -8388    -8479    -8484 
   -8397    -8351    -8367    -8345    -8363    -8546    -8760    -8861 
   -8973    -9113    -9153    -9189    -9282    -9243    -9113    -9085 
   -9094    -9011    -8823    -8590    -8401    -8266    -8164    -8163 
   -8283    -8455    -8619    -8664    -8529    -8375    -8384    -8498 
   -8559    -8565    -8564    -8541    -8559    -8653    -8691    -8664 
   -8750    -8919    -9019    -9020    -8888    -8603    -8293    -8102 
   -8059    -8112    -8236    -8402    -8490    -8475    -8445    -8330 
   -8116    -8037    -8155    -8301    -8456    -8635    -8696    -8615 
   -8553    -8545    -8518    -8507    -8565    -8652    -8748    -8899 
   -9038    -8981    -8760    -8568    -8422    -8278    -8229    -8286 
   -8349    -8442    -8533    -8455    -8247    -8073    -7950    -7958 
   -8166    -8363    -8398    -8372    -8318    -8233    -8267    -8463 
   -8703    -8931    -9074    -9049    -8958    -8926    -8900    -8851 
   -8851    -8853    -8799    -8787    -8787    -8607    -8314    -8137 
   -8058    -8012    -8091    -8275    -8349    -8282    -8232    -8176 
   -8068    -8166    -8494    -8716    -8834    -8993    -9020    -8907 
   -8847    -8808    -8723    -8649    -8691    -8861    -8943    -8838 
   -8715    -8591    -8463    -8514    -8644    -8642    -8635    -8662 
   -8638    -8694    -8793    -8757    -8704    -8730    -8714    -8688 
   -8777    -8914    -8918    -8792    -8662    -8505    -8352    -8379 
   -8461    -8382    -8251    -8147    -8035    -8058    -8235    -8397 
   -8526    -8644    -8723    -8795    -8804    -8692    -8575    -8542 
   -8565    -8626    -8676    -8644    -8556    -8519    -8645    -8934 
   -9200    -9248    -9115    -8923    -8706    -8476    -8302    -8251 
   -8291    -8283    -8229    -8208    -8105    -7905    -7819    -7820 
   -7800    -7925    -8233    -8478    -8568    -8542    -8395    -8230 
   -8208    -8365    -8596    -8757    -8842    -8876    -8766    -8579 
   -8503    -8530    -8626    -8837    -9036    -9040    -8830    -8502 
   -8191    -7959    -7865    -8048    -8415    -8658    -8723    -8675 
   -8475    -8262    -8206    -8230    -8306    -8491    -8641    -8610 
   -8486    -8371    -8295    -8297    -8380    -8509    -8642    -8698 
   -8627    -8537    -8479    -8376    -8276    -8272    -8294    -8310 
   -8394    -8541    -8703    -8791    -8719    -8625    -8669    -8741 
   -8756    -8831    -8951    -8958    -8869    -8814    -8715    -8538 
   -8480    -8513    -8422    -8301    -8313    -8352    -8316    -8305 
   -8383    -8402    -8317    -8324    -8419    -8441    -8521    -8764 
   -8937    -8964    -8954    -8835    -8657    -8646    -8726    -8704 
   -8672    -8680    -8599    -8478    -8451    -8436    -8378    -8399 
   -8517    -8592    -8567    -8502    -8398    -8198    -8008    -7974 
   -8008    -8010    -8050    -8164    -8332    -8517    -8657    -8754 
   -8823    -8819    -8781    -8716    -8556    -8421    -8429    -8482 
   -8577    -8738    -8824    -8839    -8876    -8838    -8684    -8534 
   -8463    -8432    -8361    -8247    -8187    -8222    -8336    -8490 
   -8611    -8712    -8858    -8961    -8934    -8849    -8780    -8748 
   -8762    -8841    -8954    -8970    -8839    -8702    -8671    -8708 
   -8780    -8938    -9185    -9343    -9262    -9088    -8953    -8766 
   -8594    -8630    -8781    -8856    -8914    -9008    -8977    -8808 
   -8737    -8804    -8877    -8984    -9159    -9213    -9046    -8878 
   -8861    -8853    -8791    -8764    -8731    -8622    -8479    -8291 
   -8040    -7842    -7759    -7758    -7824    -7925    -8009    -8040 
   -8033    -8059    -8101    -8104    -8127    -8235    -8397    -8548 
   -8596    -8476    -8252    -8118    -8176    -8333    -8544    -8788 
   -8876    -8749    -8621    -8534    -8367    -8179    -8059    -8009 
   -8073    -8187    -8220    -8220    -8259    -8251    -8181    -8158 
   -8197    -8282    -8460    -8676    -8765    -8679    -8484    -8203 
   -7896    -7761    -7851    -7970    -8051    -8156    -8175    -8037 
   -7890    -7852    -7947    -8164    -8405    -8598    -8780    -8941 
   -9073    -9246    -9397    -9471    -9570    -9710    -9826    -9891 
   -9861    -9705    -9494    -9370    -9366    -9317    -9136    -8985 
   -8883    -8723    -8622    -8613    -8540    -8467    -8507    -8527 
   -8451    -8326    -8191    -8149    -8194    -8205    -8297    -8509 
   -8557    -8441    -8391    -8293    -8104    -8141    -8398    -8560 
   -8642    -8723    -8695    -8629    -8668    -8753    -8814    -8869 
   -8910    -8880    -8749    -8592    -8525    -8567    -8710    -8880 
   -8883    -8688    -8465    -8310    -8290    -8422    -8548    -8580 
   -8544    -8367    -8037    -7692    -7425    -7321    -7460    -7771 
   -8101    -8289    -8212    -7931    -7647    -7549    -7700    -7929 
   -8079    -8194    -8213    -8109    -8068    -8104    -8164    -8409 
   -8784    -9020    -9101    -9166    -9289    -9437    -9472    -9420 
   -9441    -9504    -9559    -9664    -9724    -9657    -9540    -9373 
   -9170    -9043    -8996    -8999    -9020    -8961    -8819    -8688 
   -8588    -8505    -8411    -8282    -8162    -8097    -8050    -7987 
   -7921    -7863    -7774    -7614    -7470    -7514    -7803    -8253 
   -8734    -9092    -9283    -9432    -9585    -9645    -9624    -9543 
   -9315    -9023    -8920    -8955    -8888    -8706    -8472    -8116 
   -7705    -7479    -7497    -7619    -7763    -7901    -7938    -7879 
   -7815    -7749    -7713    -7813    -8024    -8197    -8229    -8140 
   -8039    -7985    -7965    -8025    -8199    -8386    -8538    -8694 
   -8748    -8606    -8336    -8031    -7790    -7682    -7639    -7615 
   -7638    -7731    -7955    -8252    -8411    -8430    -8429    -8357 
   -8289    -8349    -8438    -8576    -8912    -9265    -9398    -9279 
   -8928    -8517    -8297    -8320    -8568    -8981    -9292    -9364 
   -9385    -9394    -9273    -9119    -9081    -9055    -8883    -8602 
   -8364    -8248    -8260    -8388    -8549    -8696    -8951    -9323 
   -9621    -9799    -9865    -9679    -9254    -8895    -8789    -8827 
   -8899    -8974    -8969    -8830    -8715    -8772    -8930    -9032 
   -9009    -8880    -8703    -8577    -8561    -8650    -8841    -9105 
   -9362    -9563    -9670    -9618    -9482    -9389    -9296    -9177 
   -9112    -9001    -8752    -8577    -8584    -8579    -8471    -8306 
   -8032    -7684    -7492    -7510    -7576    -7704    -7966    -8213 
   -8351    -8437    -8472    -8414    -8328    -8286    -8224    -8112 
   -8113    -8251    -8247    -8040    -7847    -7707    -7585    -7582 
   -7650    -7612    -7443    -7272    -7258    -7375    -7406    -7315 
   -7196    -6982    -6706    -6593    -6718    -7029    -7462    -7912 
   -8305    -8627    -8887    -9136    -9375    -9558    -9710    -9844 
   -9894    -9850    -9759    -9649    -9532    -9337    -9049    -8810 
   -8650    -8487    -8429    -8498    -8421    -8163    -8040    -8166 
   -8364    -8563    -8849    -9221    -9483    -9543    -9548    -9535 
   -9451    -9420    -9398    -9180    -8864    -8675    -8630    -8644 
   -8650    -8630    -8560    -8405    -8287    -8321    -8298    -8112 
   -8087    -8355    -8617    -8785    -8970    -9121    -9254    -9468 
   -9641    -9583    -9406    -9323    -9258    -9092    -8977    -8976 
   -8851    -8502    -8085    -7686    -7379    -7310    -7429    -7512 
   -7461    -7345    -7287    -7352    -7551    -7928    -8429    -8839 
   -9000    -8932    -8808    -8811    -8937    -9038    -9050    -8991 
   -8904    -8846    -8839    -8810    -8698    -8559    -8418    -8226 
   -8090    -8145    -8225    -8171    -8113    -8139    -8260    -8521 
   -8758    -8839    -8885    -8955    -9016    -9082    -9121    -9113 
   -9132    -9181    -9213    -9213    -9101    -8768    -8290    -7906 
   -7782    -7865    -7986    -8009    -7867    -7616    -7458    -7488 
   -7601    -7797    -8156    -8563    -8830    -8900    -8812    -8661 
   -8594    -8711    -8918    -9028    -9084    -9186    -9180    -8991 
   -8743    -8407    -8012    -7848    -7959    -8156    -8398    -8534 
   -8370    -8163    -8222    -8422    -8658    -8942    -9070    -8947 
   -8793    -8792    -8947    -9211    -9445    -9445    -9167    -8812 
   -8565    -8453    -8432    -8444    -8506    -8625    -8629    -8438 
   -8247    -8135    -8004    -7881    -7857    -7912    -8009    -8179 
   -8438    -8698    -8903    -9104    -9286    -9369    -9346    -9281 
   -9216    -9140    -9063    -9070    -9123    -9078    -8985    -8953 
   -8885    -8711    -8529    -8403    -8270    -8070    -7831    -7609 
   -7527    -7673    -7889    -7938    -7889    -7958    -8128    -8244 
   -8284    -8334    -8413    -8482    -8541    -8583    -8592    -8568 
   -8496    -8446    -8467    -8426    -8294    -8181    -8067    -7900 
   -7732    -7624    -7651    -7878    -8230    -8506    -8576    -8561 
   -8627    -8727    -8846    -9094    -9383    -9564    -9666    -9668 
   -9543    -9375    -9201    -9003    -8757    -8448    -8235    -8244 
   -8306    -8303    -8332    -8367    -8321    -8255    -8235    -8189 
   -8095    -8044    -8071    -8160    -8310    -8448    -8511    -8537 
   -8486    -8330    -8210    -8210    -8241    -8283    -8352    -8365 
   -8301    -8256    -8256    -8240    -8251    -8357    -8490    -8579 
   -8696    -8827    -8918    -9116    -9429    -9548    -9385    -9151 
   -8930    -8775    -8862    -9185    -9539    -9845   -10011    -9848 
   -9437    -9104    -8935    -8834    -8773    -8700    -8521    -8263 
   -7979    -7630    -7231    -6891    -6751    -6897    -7202    -7470 
   -7765    -8159    -8500    -8730    -8939    -9055    -9050    -9144 
   -9433    -9753    -9973   -10069   -10045    -9894    -9566    -9108 
   -8710    -8517    -8500    -8506    -8353    -7956    -7380    -6845 
   -6616    -6720    -7026    -7450    -7846    -8043    -8093    -8163 
   -8329    -8576    -8842    -9119    -9439    -9683    -9706    -9579 
   -9385    -9047    -8642    -8414    -8320    -8104    -7811    -7662 
   -7595    -7476    -7470    -7673    -7912    -8186    -8575    -8835 
   -8802    -8760    -8907    -9089    -9296    -9633    -9960   -10130 
  -10184   -10142    -9969    -9717    -9544    -9470    -9289    -8985 
   -8731    -8445    -8010    -7557    -7129    -6723    -6500    -6471 
   -6471    -6504    -6709    -7172    -7812    -8397    -8839    -9157 
   -9277    -9278    -9360    -9517    -9715    -9999   -10207   -10141 
   -9877    -9603    -9405    -9220    -8905    -8411    -7846    -7344 
   -6976    -6756    -6678    -6693    -6735    -6845    -7076    -7322 
   -7503    -7722    -8067    -8505    -8976    -9397    -9720    -9972 
  -10126   -10143   -10076    -9917    -9633    -9348    -9173    -9066 
   -8964    -8846    -8637    -8291    -7956    -7798    -7785    -7836 
   -7967    -8120    -8171    -8075    -7909    -7840    -7928    -8116 
   -8472    -8978    -9373    -9570    -9624    -9431    -9045    -8725 
   -8592    -8625    -8804    -9100    -9381    -9402    -9155    -8874 
   -8544    -8105    -7855    -7904    -8004    -8094    -8240    -8341 
   -8334    -8287    -8272    -8330    -8511    -8792    -9020    -9150 
   -9270    -9321    -9242    -9170    -9134    -9042    -8978    -9004 
   -9004    -8991    -9039    -8997    -8758    -8473    -8222    -7983 
   -7832    -7742    -7522    -7204    -6991    -6924    -7021    -7298 
   -7628    -7940    -8251    -8456    -8499    -8506    -8576    -8679 
   -8802    -8974    -9073    -8957    -8700    -8409    -8077    -7812 
   -7774    -7896    -7983    -7982    -7915    -7835    -7901    -8158 
   -8417    -8573    -8687    -8734    -8714    -8737    -8772    -8716 
   -8712    -8903    -9134    -9216    -9177    -9078    -8970    -8985 
   -9154    -9271    -9219    -9153    -9169    -9130    -8991    -8854 
   -8723    -8557    -8446    -8491    -8618    -8721    -8870    -9127 
   -9339    -9460    -9622    -9776    -9806    -9738    -9548    -9246 
   -9019    -8935    -8896    -8845    -8750    -8571    -8316    -8077 
   -7913    -7761    -7643    -7647    -7649    -7636    -7821    -8112 
   -8316    -8511    -8641    -8614    -8617    -8668    -8621    -8536 
   -8437    -8274    -8132    -8039    -7893    -7674    -7466    -7317 
   -7194    -7136    -7222    -7362    -7476    -7599    -7642    -7593 
   -7647    -7770    -7846    -8036    -8428    -8826    -9108    -9256 
   -9189    -8958    -8810    -8858    -8999    -9159    -9325    -9397 
   -9350    -9265    -9111    -8908    -8831    -8930    -9063    -9127 
   -9124    -9058    -8887    -8613    -8320    -8093    -8052    -8243 
   -8446    -8463    -8386    -8334    -8286    -8275    -8432    -8785 
   -9219    -9601    -9872    -9976    -9860    -9574    -9181    -8696 
   -8287    -8106    -8012    -7906    -7902    -7977    -8001    -8023 
   -8091    -8074    -7912    -7800    -7874    -8020    -8206    -8529 
   -8842    -8964    -8997    -9038    -9082    -9216    -9429    -9553 
   -9502    -9296    -8974    -8581    -8154    -7773    -7533    -7474 
   -7600    -7804    -7890    -7832    -7794    -7851    -7962    -8172 
   -8517    -8905    -9250    -9509    -9625    -9613    -9548    -9472 
   -9455    -9467    -9350    -9126    -8908    -8694    -8581    -8614 
   -8575    -8413    -8253    -8074    -7942    -7990    -8105    -8124 
   -8079    -8013    -7942    -7969    -8156    -8390    -8568    -8727 
   -8824    -8766    -8688    -8708    -8761    -8900    -9105    -9096 
   -8838    -8571    -8340    -8122    -7966    -7861    -7866    -8062 
   -8290    -8359    -8274    -8110    -7967    -7973    -8079    -8144 
   -8218    -8395    -8549    -8534    -8491    -8610    -8749    -8735 
   -8692    -8671    -8577    -8556    -8696    -8785    -8772    -8820 
   -8916    -8962    -8982    -8996    -8988    -8978    -8973    -8922 
   -8800    -8662    -8584    -8596    -8672    -8742    -8775    -8799 
   -8826    -8812    -8753    -8711    -8692    -8634    -8590    -8646 
   -8721    -8776    -8919    -9067    -9005    -8795    -8689    -8721 
   -8753    -8711    -8553    -8289    -8073    -8016    -8037    -8110 
   -8289    -8472    -8559    -8568    -8498    -8409    -8399    -8398 
   -8251    -7951    -7704    -7672    -7739    -7785    -7847    -7852 
   -7754    -7726    -7797    -7830    -7861    -7981    -8133    -8267 
   -8376    -8428    -8429    -8475    -8622    -8806    -8961    -9132 
   -9281    -9259    -9072    -8856    -8654    -8483    -8428    -8473 
   -8523    -8580    -8623    -8588    -8495    -8383    -8291    -8340 
   -8529    -8721    -8904    -9072    -9165    -9283    -9478    -9590 
   -9610    -9639    -9594    -9464    -9405    -9383    -9329    -9288 
   -9173    -8937    -8729    -8554    -8284    -7959    -7713    -7622 
   -7717    -7917    -8023    -7942    -7835    -7863    -7939    -8010 
   -8214    -8521    -8731    -8845    -8972    -9081    -9093    -9032 
   -8934    -8783    -8622    -8563    -8565    -8484    -8309    -8114 
   -7898    -7700    -7587    -7530    -7514    -7592    -7784    -7996 
   -8066    -7973    -7913    -8006    -8206    -8491    -8808    -9043 
   -9188    -9282    -9290    -9238    -9182    -9076    -8931    -8860 
   -8868    -8873    -8861    -8849    -8810    -8681    -8444    -8247 
   -8251    -8363    -8426    -8455    -8463    -8444    -8480    -8600 
   -8741    -8856    -8953    -9067    -9166    -9205    -9247    -9300 
   -9278    -9198    -9096    -8980    -8937    -8977    -8980    -8950 
   -8950    -8915    -8811    -8673    -8469    -8179    -7943    -7911 
   -8071    -8317    -8483    -8436    -8237    -8040    -7890    -7809 
   -7835    -7928    -8059    -8225    -8311    -8218    -8059    -7990 
   -8010    -8047    -8104    -8201    -8287    -8371    -8476    -8457 
   -8275    -8141    -8077    -7970    -7986    -8224    -8441    -8548 
   -8679    -8796    -8796    -8726    -8642    -8487    -8217    -8000 
   -8063    -8326    -8533    -8692    -8854    -8842    -8638    -8500 
   -8510    -8544    -8564    -8587    -8602    -8599    -8623    -8742 
