Origin Time       2024/04/02 04:24:00
Lat.              40.133
Long.             141.712
Depth. (km)       71
Mag.              6.0
Station Code      HKD171
Station Lat.      41.6490
Station Long.     139.9979
Station Height(m) 31
Record Time       2024/04/02 04:25:10
Sampling Freq(Hz) 100Hz
Duration Time(s)  92
Dir.              E-W
Scale Factor      7845(gal)/8223790
Max. Acc. (gal)   1.987
Last Correction   2024/04/02 04:25:10
Memo.             
[...]
    4695     4901     5046     5039     4931     4758     4648     4658 
    4693     4687     4675     4718     4757     4695     4650     4766 
    4949     5031     5005     4961     4970     5053     5127     5103 
    4985     4830     4693     4518     4322     4286     4411     4599 
    4850     5107     5296     5355     5236     5046     4907     4815 
    4742     4687     4649     4676     4818     4989     5005     4893 
    4842     4834     4776     4741     4761     4766     4762     4756 
    4733     4749     4799     4826     4853     4874     4861     4850 
    4845     4872     4986     5096     5097     5054     4999     4891 
    4752     4665     4662     4688     4762     4984     5281     5489 
    5509     5294     4949     4654     4390     4170     4171     4440 
    4854     5228     5401     5375     5267     5125     4888     4560 
    4341     4321     4344     4336     4414     4661     5012     5328 
    5506     5548     5483     5306     5013     4683     4502     4550 
    4677     4773     4893     5040     5136     5151     5100     5034 
    4974     4853     4666     4494     4423     4530     4700     4754 
    4688     4584     4515     4495     4525     4700     5007     5240 
    5313     5259     5054     4758     4541     4463     4510     4646 
    4819     5030     5239     5414     5594     5670     5505     5193 
    4878     4622     4461     4363     4357     4514     4719     4853 
    4941     4985     4997     4999     4900     4683     4482     4365 
    4345     4442     4617     4812     5008     5155     5265     5340 
    5270     5046     4823     4629     4460     4446     4585     4783 
    5027     5220     5228     5162     5185     5223     5204     5189 
    5177     5096     4912     4685     4540     4522     4558     4587 
    4633     4770     5005     5206     5248     5190     5124     4986 
    4734     4433     4167     4078     4274     4673     5116     5489 
    5736     5875     5887     5705     5340     4865     4349     3931 
    3757     3815     4006     4268     4627     5107     5541     5738 
    5699     5462     5100     4750     4465     4264     4171     4179 
    4324     4580     4868     5167     5431     5586     5602     5440 
    5120     4727     4340     4081     3998     4032     4194     4469 
    4793     5197     5610     5832     5836     5698     5428     5050 
    4653     4317     4067     3929     3935     4109     4482     4954 
    5359     5679     5895     5841     5522     5138     4742     4309 
    3939     3781     3866     4145     4592     5085     5463     5711 
    5845     5833     5676     5402     5059     4673     4280     4035 
    4018     4109     4248     4504     4823     5107     5324     5393 
    5270     5088     4928     4707     4406     4187     4143     4187 
    4290     4495     4803     5152     5416     5505     5505     5471 
    5317     5076     4839     4599     4410     4336     4348     4491 
    4801     5125     5270     5238     5208     5250     5242     5112 
    4907     4711     4604     4581     4576     4603     4734     4942 
    5105     5147     5073     4949     4823     4671     4500     4414 
    4464     4649     4943     5232     5356     5313     5209     5049 
    4853     4715     4623     4540     4514     4598     4780     5008 
    5225     5354     5370     5321     5158     4880     4638     4507 
    4494     4599     4735     4888     5135     5363     5406     5304 
    5098     4792     4542     4459     4419     4399     4487     4602 
    4656     4774     5044     5312     5412     5393     5333     5239 
    5121     5005     4915     4830     4669     4437     4266     4272 
    4487     4835     5146     5313     5373     5329     5177     4966 
    4757     4576     4356     4054     3804     3774     3987     4395 
    4974     5649     6200     6396     6145     5526     4774     4082 
    3557     3318     3420     3805     4306     4761     5186     5586 
    5806     5742     5447     5055     4727     4502     4342     4255 
    4306     4517     4746     4923     5134     5327     5325     5134 
    4920     4793     4700     4603     4579     4671     4807     4915 
    4966     4939     4842     4747     4675     4642     4696     4788 
    4833     4791     4698     4676     4750     4796     4799     4826 
    4889     4996     5121     5225     5282     5250     5123     4949 
    4747     4572     4473     4383     4361     4565     4869     5108 
    5306     5391     5258     4965     4599     4283     4158     4189 
    4337     4612     4899     5136     5381     5564     5607     5563 
    5421     5123     4812     4630     4510     4448     4541     4760 
    4977     5080     5058     5009     5017     5066     5057     4977 
    4927     4908     4869     4853     4865     4834     4780     4785 
    4855     4980     5154     5335     5471     5479     5329     5063 
    4710     4367     4145     4055     4131     4344     4581     4827 
    5066     5215     5293     5351     5328     5178     4970     4734 
    4444     4224     4214     4399     4727     5157     5576     5844 
    5864     5660     5363     5081     4872     4745     4604     4441 
    4376     4419     4534     4753     5017     5201     5255     5144 
    4895     4664     4550     4519     4533     4583     4698     4846 
    4922     4936     4968     4988     4945     4866     4838     4858 
    4891     4980     5108     5175     5152     5067     4954     4835 
    4718     4621     4585     4649     4752     4839     4949     5059 
    5078     5009     4916     4783     4618     4504     4469     4486 
    4567     4731     4938     5123     5235     5263     5274     5258 
    5138     4942     4747     4606     4544     4563     4625     4712 
    4842     4954     4976     4945     4892     4776     4604     4441 
    4348     4322     4284     4236     4283     4448     4653     4843 
    4972     5030     5020     4936     4849     4788     4731     4747 
    4823     4850     4866     4903     4889     4911     5061     5194 
    5186     5107     5015     4905     4808     4784     4822     4877 
    4924     4942     4930     4893     4828     4774     4745     4708 
    4673     4673     4676     4630     4580     4590     4645     4734 
    4814     4824     4822     4793     4700     4668     4774     4930 
    5038     5078     5061     4977     4874     4827     4796     4711 
    4606     4549     4560     4675     4928     5219     5431     5536 
    5468     5259     5061     4865     4646     4542     4587     4711 
    4970     5312     5549     5730     5925     5927     5690     5393 
    5036     4607     4302     4217     4282     4475     4784     5093 
    5331     5587     5837     5881     5671     5314     4904     4533 
    4284     4203     4278     4430     4681     5073     5433     5620 
    5659     5568     5404     5209     4950     4675     4479     4364 
    4320     4356     4444     4552     4669     4764     4889     5092 
    5259     5356     5409     5354     5229     5117     4942     4730 
    4607     4549     4494     4482     4509     4533     4658     4947 
    5231     5335     5262     5038     4706     4417     4270     4187 
    4136     4182     4276     4314     4356     4490     4683     4893 
    5098     5225     5223     5092     4846     4518     4191     4037 
    4063     4083     4176     4476     4796     5001     5131     5171 
    5104     4978     4820     4604     4376     4290     4365     4479 
    4689     5062     5405     5601     5703     5680     5541     5417 
    5290     5084     4912     4818     4681     4552     4590     4773 
    4962     5135     5262     5269     5287     5373     5305     5124 
    5046     4922     4666     4482     4356     4236     4263     4446 
    4696     5022     5410     5665     5647     5452     5178     4854 
    4557     4334     4194     4164     4274     4468     4675     4882 
    5109     5344     5510     5537     5421     5185     4903     4627 
    4359     4164     4070     4023     4086     4314     4629     4997 
    5408     5740     5894     5867     5717     5462     5109     4734 
    4428     4226     4183     4334     4556     4737     4934     5158 
    5314     5381     5374     5254     5003     4681     4367     4139 
    4082     4218     4468     4738     5030     5350     5567     5576 
    5447     5252     5023     4820     4675     4554     4473     4475 
    4525     4630     4869     5139     5297     5404     5475     5429 
    5293     5067     4719     4372     4207     4213     4245     4314 
    4465     4590     4711     4922     5175     5441     5632     5609 
    5429     5221     4982     4754     4672     4699     4702     4708 
    4773     4860     4949     5051     5132     5121     5043     4941 
    4746     4518     4429     4461     4534     4617     4622     4557 
    4530     4549     4612     4768     4941     5058     5152     5198 
    5147     5057     4942     4774     4641     4584     4510     4467 
    4583     4779     4945     5066     5115     5098     5043     4889 
    4688     4629     4703     4779     4827     4847     4826     4774 
    4720     4772     4997     5238     5354     5394     5422     5462 
    5510     5505     5374     5159     4981     4866     4739     4602 
    4556     4611     4672     4739     4860     4923     4774     4487 
    4214     4008     3929     3978     4052     4212     4476     4693 
    4887     5108     5229     5252     5246     5157     5000     4830 
    4645     4476     4330     4168     4078     4179     4356     4486 
    4648     4804     4847     4854     4907     4973     5020     5039 
    5026     4969     4866     4777     4772     4828     4901     4988 
    5046     5042     4996     4970     5023     5092     5128     5205 
    5250     5161     5050     4978     4909     4819     4642     4494 
    4482     4430     4395     4607     4923     5236     5614     5853 
    5811     5641     5405     5105     4881     4785     4791     4904 
    5058     5208     5424     5671     5787     5756     5651     5460 
    5213     4961     4723     4572     4522     4452     4325     4233 
    4213     4252     4328     4441     4611     4776     4882     4955 
    4981     4984     5022     5062     5061     4996     4858     4711 
    4600     4523     4521     4585     4658     4730     4784     4811 
    4810     4752     4657     4585     4533     4495     4473     4487 
    4625     4842     5017     5151     5181     5063     4923     4727 
    4391     4114     4032     4078     4252     4510     4742     4947 
    5159     5348     5405     5282     5090     4884     4677     4560 
    4545     4592     4658     4739     4888     5043     5093     5090 
    5089     5088     5124     5146     5105     5109     5143     5090 
    4977     4812     4552     4356     4378     4525     4727     5061 
    5483     5823     6011     6080     5973     5614     5054     4428 
    3920     3696     3809     4178     4623     5024     5286     5277 
    4996     4544     4033     3692     3622     3716     3993     4434 
    4900     5383     5811     5944     5748     5428     5113     4769 
    4421     4160     3927     3750     3888     4330     4866     5475 
    5967     6064     5869     5501     4985     4537     4275     4185 
    4311     4526     4683     4833     4923     4893     4833     4787 
    4811     4981     5232     5474     5674     5757     5624     5270 
    4830     4429     4144     4102     4301     4600     4963     5335 
    5555     5589     5468     5142     4630     4078     3670     3528 
    3663     4060     4634     5198     5675     6054     6304     6415 
    6355     6089     5663     5161     4645     4216     4006     4044 
    4229     4484     4756     4942     5051     5185     5281     5293 
    5271     5193     5081     4916     4600     4245     4117     4253 
    4495     4752     4989     5200     5387     5468     5425     5313 
    5128     4911     4718     4568     4523     4619     4795     4912 
    4897     4815     4730     4700     4820     5093     5408     5656 
    5759     5734     5647     5448     5082     4619     4167     3813 
    3612     3568     3655     3846     4136     4560     5090     5574 
    5842     5825     5536     5055     4500     4009     3717     3709 
    3963     4337     4714     5023     5140     5065     4946     4810 
    4633     4538     4561     4590     4673     4900     5117     5189 
    5158     5023     4792     4629     4626     4756     5020     5395 
    5746     5884     5674     5171     4534     3890     3434     3349 
    3592     4035     4631     5287     5856     6246     6374     6162 
    5601     4811     4041     3477     3194     3283     3755     4455 
    5159     5719     6124     6373     6426     6293     5960     5428 
    4877     4445     4143     3994     3981     4071     4286     4569 
    4869     5171     5400     5522     5522     5301     4899     4494 
    4182     3981     3942     4109     4387     4622     4785     4923 
    5050     5150     5186     5132     4977     4742     4537     4449 
    4430     4498     4730     5019     5255     5452     5501     5343 
    5158     5040     4932     4896     5013     5178     5254     5219 
    5104     4930     4707     4521     4513     4706     4999     5306 
    5567     5682     5564     5238     4741     4133     3632     3400 
    3400     3640     4187     4986     5864     6585     6943     6870 
    6382     5556     4650     3910     3372     3079     3080     3335 
    3798     4376     4912     5378     5872     6334     6556     6523 
    6259     5690     4953     4267     3696     3354     3357     3589 
    3956     4499     5155     5805     6399     6775     6775     6451 
    5863     5061     4309     3796     3481     3400     3630     4094 
    4638     5125     5497     5715     5744     5653     5447     5030 
    4627     4500     4477     4391     4297     4197     4164     4275 
    4442     4673     4986     5233     5370     5471     5556     5562 
    5428     5192     4851     4461     4261     4288     4415     4684 
    5066     5391     5589     5647     5589     5509     5398     5142 
    4760     4337     3935     3693     3726     3994     4390     4823 
    5248     5683     6049     6126     5871     5445     4961     4504 
    4205     4062     4013     4090     4279     4463     4603     4726 
    4833     4989     5250     5475     5529     5404     5163     4927 
    4729     4514     4325     4236     4245     4379     4633     4912 
    5184     5447     5575     5443     5154     4827     4472     4230 
    4186     4202     4214     4272     4374     4495     4660     4916 
    5267     5643     5968     6134     6016     5601     5023     4448 
    3998     3774     3757     3855     4081     4464     4989     5570 
    6033     6276     6258     5996     5567     5009     4425     3944 
    3689     3781     4128     4549     5051     5555     5854     5940 
    5841     5501     4951     4329     3827     3578     3541     3639 
    3877     4247     4698     5166     5529     5668     5626     5502 
    5274     4974     4749     4622     4542     4548     4612     4649 
    4673     4743     4834     4905     4954     4957     4912     4851 
    4785     4703     4660     4738     4839     4846     4841     4854 
    4806     4754     4800     4901     5016     5111     5092     4955 
    4773     4618     4521     4449     4434     4500     4575     4683 
    4812     4868     4939     5031     4949     4795     4729     4645 
    4602     4770     5035     5238     5347     5317     5134     4877 
    4662     4572     4596     4645     4650     4595     4558     4664 
    4860     4992     4973     4830     4715     4723     4833     5023 
    5206     5244     5119     4889     4622     4405     4318     4375 
    4573     4841     5069     5255     5420     5475     5348     5107 
    4887     4742     4668     4656     4675     4689     4746     4895 
    5098     5265     5354     5364     5273     5130     5017     4893 
    4761     4718     4752     4796     4823     4791     4676     4521 
    4437     4527     4765     5051     5328     5541     5617     5540 
    5374     5146     4904     4719     4519     4243     4002     3928 
    4039     4318     4768     5305     5742     5956     5891     5568 
    5135     4735     4483     4436     4438     4411     4525     4770 
    4982     5223     5506     5616     5478     5246     4977     4672 
    4422     4279     4264     4410     4606     4747     4893     5009 
    5028     5047     5100     5128     5182     5248     5173     4962 
    4738     4510     4307     4267     4357     4445     4534     4634 
    4725     4876     5076     5193     5181     5078     4935     4818 
    4733     4687     4766     4908     4981     5005     4945     4765 
    4627     4617     4702     4866     5042     5189     5290     5259 
    5067     4789     4500     4307     4283     4369     4537     4752 
    4934     5096     5235     5302     5314     5263     5090     4830 
    4607     4498     4523     4685     4965     5327     5641     5769 
    5661     5333     4941     4626     4391     4226     4141     4160 
    4288     4461     4673     4974     5301     5544     5664     5576 
    5258     4903     4683     4600     4680     4845     4911     4895 
    4900     4877     4811     4760     4723     4716     4770     4882 
    5030     5154     5217     5246     5217     5059     4762     4394 
    4074     3915     3971     4229     4594     4990     5374     5579 
    5506     5259     4947     4652     4392     4121     3898     3847 
    3981     4255     4679     5220     5734     6022     5981     5724 
    5395     5067     4811     4662     4602     4576     4513     4414 
    4388     4482     4619     4712     4729     4654     4510     4407 
    4436     4583     4834     5135     5329     5337     5254     5193 
    5152     5088     4996     4893     4787     4691     4661     4765 
    4958     5096     5170     5255     5265     5147     4981     4799 
    4646     4602     4665     4810     5036     5289     5471     5548 
    5501     5300     4969     4612     4340     4203     4212     4375 
    4691     5131     5576     5794     5683     5371     4947     4464 
    4066     3874     3913     4136     4413     4598     4702     4874 
    5107     5269     5320     5251     5074     4849     4591     4371 
    4305     4334     4336     4349     4392     4387     4415     4558 
    4727     4905     5105     5219     5235     5248     5229     5107 
    4927     4708     4432     4198     4117     4172     4401     4843 
    5335     5721     5952     5915     5629     5271     4882     4491 
    4257     4207     4294     4565     4959     5375     5779     6031 
    6014     5763     5359     4920     4602     4480     4549     4753 
    5013     5286     5526     5665     5672     5555     5333     5028 
    4665     4340     4168     4124     4174     4371     4611     4807 
    5031     5198     5200     5112     4934     4621     4318     4198 
    4234     4307     4388     4483     4565     4657     4777     4893 
    5008     5086     5005     4783     4572     4437     4386     4437 
