Origin Time       2024/04/02 04:24:00
Lat.              40.133
Long.             141.712
Depth. (km)       71
Mag.              6.0
Station Code      HKD109
Station Lat.      42.1678
Station Long.     142.7673
Station Height(m) 4
Record Time       2024/04/02 04:25:41
Sampling Freq(Hz) 100Hz
Duration Time(s)  68
Dir.              N-S
Scale Factor      7845(gal)/8223790
Max. Acc. (gal)   3.335
Last Correction   2024/04/02 04:25:41
Memo.             
[...]
   13620    13520    13392    13333    13370    13447    13495    13482 
   13448    13485    13632    13837    14003    14061    14018    13922 
   13779    13593    13429    13350    13320    13217    12989    12787 
   12766    12893    13032    13146    13297    13517    13760    13996 
   14199    14311    14308    14257    14211    14114    13894    13633 
   13489    13506    13598    13672    13698    13666    13593    13540 
   13575    13687    13761    13698    13567    13549    13699    13878 
   13923    13855    13811    13841    13864    13824    13755    13693 
   13589    13401    13201    13111    13158    13273    13390    13527 
   13680    13784    13817    13865    13976    14050    13990    13851 
   13738    13694    13726    13829    13941    13940    13771    13518 
   13327    13265    13294    13371    13456    13518    13563    13637 
   13736    13779    13770    13807    13905    13950    13890    13817 
   13837    13909    13936    13896    13798    13643    13441    13246 
   13130    13107    13123    13146    13182    13238    13290    13338 
   13424    13558    13682    13775    13869    13963    14000    13964 
   13895    13792    13668    13606    13630    13672    13679    13641 
   13594    13574    13574    13556    13513    13485    13491    13490 
   13473    13509    13626    13768    13878    13944    13994    14033 
   14002    13851    13641    13474    13387    13390    13489    13636 
   13749    13798    13803    13794    13772    13760    13801    13844 
   13803    13689    13594    13595    13663    13702    13726    13832 
   13979    13967    13716    13416    13263    13238    13259    13362 
   13579    13798    13882    13829    13726    13644    13586    13543 
   13543    13574    13551    13447    13377    13436    13582    13693 
   13722    13744    13795    13857    13922    13950    13880    13747 
   13639    13590    13568    13555    13566    13567    13516    13460 
   13456    13482    13518    13597    13726    13817    13765    13639 
   13621    13741    13772    13562    13271    13117    13109    13178 
   13313    13483    13616    13711    13833    13986    14077    14062 
   14000    13945    13899    13861    13838    13857    13918    13937 
   13867    13772    13702    13633    13559    13536    13618    13745 
   13798    13753    13689    13659    13625    13543    13441    13374 
   13346    13348    13404    13545    13730    13859    13911    13936 
   13909    13805    13690    13633    13583    13471    13332    13248 
   13244    13292    13398    13563    13691    13718    13730    13807 
   13871    13803    13640    13508    13460    13463    13508    13626 
   13764    13776    13649    13527    13502    13571    13666    13736 
   13784    13817    13824    13802    13744    13667    13608    13575 
   13562    13535    13446    13305    13181    13154    13255    13412 
   13547    13680    13863    14076    14218    14224    14134    14002 
   13860    13764    13756    13822    13913    13983    13995    13971 
   13956    13921    13795    13612    13509    13527    13563    13545 
   13500    13467    13446    13419    13405    13420    13429    13413 
   13394    13397    13451    13520    13525    13463    13401    13428 
   13593    13788    13853    13765    13640    13583    13590    13593 
   13593    13636    13698    13706    13639    13579    13613    13698 
   13720    13666    13632    13667    13687    13617    13504    13440 
   13446    13456    13406    13329    13320    13402    13529    13662 
   13790    13932    14095    14210    14168    13975    13797    13802 
   13996    14200    14224    14068    13855    13652    13444    13246 
   13130    13120    13182    13263    13311    13311    13315    13383 
   13533    13737    13942    14115    14219    14212    14127    14038 
   13963    13857    13666    13406    13204    13150    13247    13439 
   13609    13674    13684    13726    13778    13748    13686    13771 
   14003    14172    14177    14127    14112    14095    14015    13886 
   13743    13587    13419    13279    13227    13262    13338    13439 
   13578    13691    13714    13729    13856    14060    14181    14126 
   13967    13813    13656    13439    13211    13077    13023    12977 
   12953    13014    13159    13346    13547    13741    13884    13930 
   13888    13830    13810    13818    13795    13713    13647    13687 
   13802    13849    13744    13531    13324    13217    13246    13369 
   13482    13537    13651    13918    14192    14291    14257    14234 
   14214    14091    13876    13683    13536    13383    13279    13293 
   13331    13230    13004    12847    12900    13092    13217    13197 
   13144    13193    13348    13543    13730    13892    14008    14073 
   14103    14121    14139    14148    14116    14084    14083    14048 
   13907    13686    13501    13462    13543    13635    13667    13626 
   13532    13406    13309    13324    13413    13431    13343    13258 
   13289    13432    13593    13702    13802    13937    14023    13969 
   13853    13824    13910    13992    13954    13811    13647    13464 
   13231    13003    12930    13058    13251    13343    13317    13320 
   13514    13861    14137    14203    14137    14053    13994    13994 
   14069    14111    14003    13811    13698    13664    13598    13529 
   13583    13730    13784    13644    13398    13211    13157    13217 
   13365    13541    13620    13571    13541    13618    13699    13670 
   13571    13522    13556    13635    13764    13948    14111    14176 
   14157    14110    14013    13790    13502    13342    13387    13501 
   13540    13514    13481    13444    13387    13320    13269    13275 
   13385    13579    13756    13840    13867    13937    14094    14251 
   14299    14274    14247    14148    13903    13629    13500    13482 
   13394    13219    13131    13176    13212    13205    13278    13458 
   13572    13497    13360    13382    13560    13702    13705    13659 
   13635    13562    13405    13296    13331    13429    13509    13612 
   13757    13863    13906    13988    14187    14399    14459    14357 
   14177    13969    13743    13539    13383    13258    13150    13100 
   13155    13289    13420    13539    13717    13998    14316    14493 
   14435    14273    14180    14175    14166    14084    13954    13857 
   13815    13786    13749    13733    13728    13706    13695    13716 
   13721    13640    13440    13219    13107    13066    13020    13038 
   13176    13332    13369    13302    13235    13140    12954    12775 
   12731    12789    12862    12942    13085    13329    13606    13805 
   13909    13945    13918    13863    13845    13872    13859    13738 
   13595    13560    13609    13628    13595    13586    13667    13784 
   13833    13825    13855    13956    14081    14180    14230    14224 
   14195    14202    14262    14299    14204    13986    13753    13581 
   13486    13473    13487    13458    13398    13408    13525    13687 
   13833    13994    14204    14396    14477    14447    14395    14388 
   14384    14283    14041    13679    13279    12965    12793    12667 
   12459    12258    12260    12444    12609    12699    12834    13105 
   13425    13656    13776    13838    13878    13938    14084    14326 
   14589    14789    14882    14855    14702    14422    14019    13510 
   12972    12553    12337    12262    12249    12309    12487    12830 
   13342    13971    14550    14854    14843    14720    14673    14632 
   14413    14027    13697    13563    13540    13513    13525    13625 
   13752    13828    13872    13942    14007    13977    13867    13832 
   13980    14210    14364    14454    14567    14627    14426    13983 
   13582    13370    13188    12876    12536    12371    12395    12448 
   12437    12432    12494    12565    12618    12754    13015    13277 
   13462    13653    13888    14021    13909    13655    13482    13451 
   13455    13433    13416    13402    13356    13297    13305    13401 
   13552    13751    13961    14084    14087    14064    14099    14131 
   14076    13969    13944    14049    14215    14389    14570    14755 
   14921    14978    14837    14565    14270    13995    13737    13478 
   13208    12947    12727    12663    12861    13243    13618    13934 
   14247    14528    14608    14357    13869    13367    12951    12595 
   12291    12136    12224    12499    12814    13104    13379    13616 
   13716    13626    13425    13224    13055    12915    12845    12897 
   13053    13250    13478    13755    14062    14354    14619    14836 
   14922    14821    14588    14318    14064    13860    13743    13709 
   13721    13740    13768    13795    13775    13740    13803    13964 
   14069    14046    14034    14135    14196    14022    13705    13487 
   13420    13412    13443    13562    13802    14142    14449    14582 
   14555    14447    14311    14187    14139    14191    14208    14046 
   13797    13628    13540    13450    13332    13213    13105    12972 
   12837    12779    12765    12673    12455    12151    11901    11873 
   12113    12537    13019    13463    13791    13933    13902    13802 
   13738    13772    13922    14160    14465    14827    15141    15241 
   15094    14843    14634    14494    14374    14231    14048    13814 
   13524    13194    12895    12668    12480    12324    12295    12453 
   12696    12865    12953    13062    13208    13332    13477    13780 
   14254    14700    14922    14970    14991    14982    14793    14393 
   13960    13641    13359    12951    12417    11897    11527    11385 
   11493    11816    12258    12692    13020    13251    13448    13633 
   13771    13849    13900    13942    13971    14045    14216    14426 
   14594    14713    14758    14669    14412    14029    13613    13248 
   13018    12984    13101    13292    13520    13729    13867    13976 
   14115    14299    14507    14697    14837    14902    14843    14647 
   14396    14165    13954    13743    13516    13274    13051    12884 
   12780    12745    12841    13136    13524    13794    13954    14227 
   14646    14976    15051    14928    14758    14551    14177    13687 
   13347    13275    13315    13277    13178    13169    13239    13228 
   13112    13041    13093    13167    13128    12997    12883    12781 
   12638    12522    12540    12634    12661    12630    12761    13194 
   13774    14223    14419    14400    14246    14045    13888    13837 
   13882    13981    14119    14269    14401    14488    14484    14376 
   14231    14168    14231    14314    14278    14143    14064    14133 
   14270    14377    14488    14673    14850    14863    14696    14482 
   14289    13996    13516    12935    12432    12106    11938    11867 
   11870    11893    11897    11946    12136    12457    12806    13116 
   13423    13732    13998    14223    14453    14667    14810    14859 
   14872    14941    15043    15067    14948    14736    14544    14389 
   14200    13929    13564    13165    12862    12719    12654    12536 
   12330    12118    11956    11871    11920    12128    12447    12796 
   13144    13505    13859    14138    14291    14285    14116    13818 
   13464    13150    12877    12609    12415    12395    12542    12799 
   13124    13498    13882    14153    14179    13945    13574    13201 
   12891    12694    12719    12985    13378    13849    14430    15075 
   15645    15990    16071    15936    15574    14989    14346    13805 
   13367    12985    12660    12411    12214    12051    12037    12324 
   12862    13440    13890    14146    14203    14091    13911    13776 
   13695    13628    13639    13806    14022    14099    14002    13879 
   13852    13882    13910    13969    14048    14058    13940    13693 
   13366    13026    12744    12610    12631    12710    12819    13051 
   13437    13873    14242    14527    14808    15132    15444    15630 
   15631    15452    15144    14785    14457    14203    14025    13844 
   13567    13180    12758    12397    12091    11751    11371    11038 
   10843    10825    10991    11344    11886    12582    13354    14114 
   14801    15411    15932    16340    16652    16877    16945    16753 
   16305    15707    15045    14351    13678    13066    12515    11993 
   11487    11049    10767    10666    10777    11169    11794    12467 
   13046    13541    14018    14465    14840    15144    15360    15456 
   15410    15207    14885    14489    13973    13293    12555    11923 
   11456    11130    11018    11232    11707    12280    12923    13713 
   14623    15495    16164    16576    16800    16895    16803    16480 
   16009    15516    15033    14513    13918    13301    12741    12232 
   11757    11389    11230    11259    11388    11628    12056    12654 
   13329    14013    14690    15360    15935    16275    16341    16220 
   15954    15534    15005    14450    13898    13327    12787    12434 
   12344    12398    12475    12611    12870    13149    13224    13069 
   12879    12793    12808    12972    13373    13917    14368    14643 
   14894    15252    15610    15789    15808    15781    15673    15329 
   14724    14048    13450    12897    12386    12029    11924    12052 
   12289    12513    12695    12831    12895    12931    13061    13306 
   13556    13764    14026    14401    14779    14987    14976    14855 
   14733    14621    14499    14341    14073    13586    12891    12166 
   11549    11030    10590    10277    10154    10227    10446    10808 
   11394    12204    13072    13790    14274    14567    14693    14620 
   14353    13969    13559    13197    12985    12950    13015    13103 
   13207    13377    13637    13891    13995    13934    13849    13826 
   13788    13672    13578    13576    13566    13431    13215    13059 
   13065    13261    13629    14141    14767    15427    15951    16151 
   15975    15537    15007    14493    13995    13521    13128    12839 
   12663    12696    13051    13697    14470    15194    15781    16202 
   16406    16384    16198    15913    15552    15133    14724    14385 
   14184    14164    14199    14099    13837    13478    13109    12771 
   12372    11853    11302    10867    10682    10794    11126    11581 
   12094    12630    13157    13621    13998    14270    14384    14296 
   14006    13544    13020    12598    12376    12340    12403    12507 
   12668    12897    13170    13443    13718    14057    14478    14926 
   15342    15669    15861    15893    15778    15570    15327    15022 
   14590    14069    13564    13120    12737    12484    12469    12729 
   13200    13751    14242    14608    14817    14789    14466    13950 
   13421    12962    12550    12193    11935    11799    11796    11956 
   12268    12671    13116    13563    13972    14331    14651    14904 
   15014    14931    14674    14307    13895    13506    13211    13062 
   13066    13144    13192    13171    13142    13178    13293    13446 
   13605    13755    13883    13981    14053    14143    14285    14419 
   14466    14408    14284    14122    13910    13617    13238    12807 
   12424    12167    12023    11950    12004    12258    12687    13181 
   13626    13994    14314    14558    14648    14569    14350    14048 
   13744    13522    13450    13539    13741    14017    14331    14629 
   14860    15005    15022    14863    14526    14076    13648    13340 
   13134    12953    12791    12710    12769    12962    13216    13479 
   13717    13872    13934    13995    14149    14372    14521    14497 
   14326    14084    13846    13709    13722    13791    13761    13606 
   13448    13319    13124    12897    12822    12945    13131    13286 
   13450    13660    13842    13896    13861    13899    14073    14277 
   14396    14432    14409    14293    14087    13856    13645    13423 
   13154    12835    12484    12094    11649    11188    10845    10756 
   10922    11222    11565    11943    12379    12874    13396    13911 
   14422    14928    15429    15901    16289    16487    16418    16152 
   15809    15391    14835    14177    13541    13043    12694    12437 
   12295    12336    12550    12881    13300    13818    14395    14924 
   15336    15615    15757    15728    15511    15165    14769    14307 
   13779    13267    12833    12449    12082    11724    11410    11180 
   11052    11045    11200    11506    11915    12432    13043    13640 
   14106    14431    14700    14902    14899    14661    14380    14246 
   14253    14300    14332    14324    14247    14114    13991    13917 
   13859    13747    13544    13306    13131    13024    12927    12876 
   12969    13220    13556    13896    14207    14454    14546    14443 
   14238    14034    13828    13597    13398    13297    13274    13296 
   13375    13558    13845    14139    14323    14399    14440    14451 
   14392    14246    14041    13826    13622    13431    13273    13155 
   13045    12908    12761    12711    12849    13101    13302    13377 
   13377    13408    13521    13687    13845    13942    13956    13919 
   13892    13933    14068    14250    14401    14504    14565    14544 
   14419    14229    14041    13886    13717    13489    13266    13159 
   13162    13169    13143    13150    13238    13369    13491    13612 
   13748    13861    13896    13867    13824    13760    13620    13405 
   13238    13238    13408    13656    13899    14098    14193    14148 
   14010    13880    13834    13900    14058    14227    14311    14300 
   14265    14249    14256    14272    14253    14164    14006    13784 
   13497    13161    12841    12609    12488    12440    12417    12418 
   12456    12480    12459    12424    12424    12506    12750    13188 
   13737    14260    14671    14958    15095    15045    14864    14686 
   14566    14413    14127    13740    13410    13200    13004    12758 
   12557    12480    12486    12496    12536    12660    12812    12918 
   13023    13231    13559    13946    14335    14708    15033    15225 
   15242    15186    15167    15142    15010    14751    14431    14116 
   13825    13536    13243    12962    12699    12447    12243    12187 
   12370    12756    13204    13620    14010    14355    14571    14596 
   14462    14277    14106    13934    13763    13644    13609    13606 
   13578    13562    13622    13728    13797    13819    13821    13788 
   13714    13645    13670    13810    13976    14072    14083    14019 
   13846    13539    13176    12899    12791    12849    13016    13220 
   13378    13425    13359    13257    13207    13230    13293    13363 
   13425    13512    13664    13864    14054    14176    14164    14008 
   13788    13598    13463    13350    13246    13231    13371    13617 
   13851    14017    14148    14280    14423    14585    14737    14775 
   14601    14216    13717    13234    12866    12657    12614    12719 
   12941    13216    13452    13582    13617    13582    13459    13213 
   12852    12474    12213    12094    12054    12098    12294    12650 
   13100    13578    14045    14462    14783    15016    15195    15298 
   15272    15145    15012    14918    14810    14596    14265    13879 
   13459    12999    12519    12055    11659    11408    11360    11516 
   11812    12191    12661    13239    13891    14546    15149    15665 
