Origin Time       2024/04/02 04:24:00
Lat.              40.133
Long.             141.712
Depth. (km)       71
Mag.              6.0
Station Code      HKD182
Station Lat.      42.9721
Station Long.     141.5161
Station Height(m) 56
Record Time       2024/04/02 04:25:56
Sampling Freq(Hz) 100Hz
Duration Time(s)  69
Dir.              U-D
Scale Factor      7845(gal)/8223790
Max. Acc. (gal)   1.464
Last Correction   2024/04/02 04:25:57
Memo.             
[...]
   11002    10941    10909    10952    11063    11149    11175    11156 
   11070    10956    10943    11024    11098    11126    11092    11024 
   11016    11106    11248    11346    11348    11322    11346    11376 
   11361    11303    11186    11037    10924    10847    10794    10770 
   10739    10698    10690    10737    10833    10930    10972    10994 
   11084    11250    11411    11495    11466    11340    11194    11106 
   11101    11145    11173    11160    11134    11134    11188    11259 
   11264    11205    11171    11233    11387    11518    11493    11322 
   11099    10918    10844    10878    10975    11082    11130    11076 
   10978    10940    10967    10959    10912    10895    10956    11105 
   11276    11395    11449    11475    11545    11632    11610    11460 
   11245    11041    10937    10951    11026    11114    11145    11118 
   11110    11149    11173    11119    11030    10964    10914    10912 
   10983    11053    11097    11151    11209    11218    11172    11161 
   11226    11261    11232    11221    11253    11295    11294    11213 
   11078    10971    10951    10962    10912    10841    10858    10944 
   11029    11117    11234    11357    11443    11468    11439    11404 
   11341    11191    11028    10940    10924    10966    11017    11048 
   11159    11368    11512    11529    11506    11472    11402    11300 
   11184    11090    11071    11074    11030    10989    11003    11047 
   11072    11059    11014    10999    11095    11257    11323    11275 
   11237    11236    11209    11156    11122    11119    11113    11105 
   11134    11171    11153    11126    11136    11125    11094    11115 
   11178    11202    11176    11175    11250    11348    11394    11427 
   11488    11537    11519    11404    11210    11006    10867    10833 
   10874    10906    10914    10959    11032    11063    11090    11167 
   11205    11168    11136    11098    11030    10998    11021    11078 
   11202    11399    11561    11558    11414    11284    11229    11171 
   11092    11026    10994    11029    11128    11241    11296    11257 
   11157    11057    11002    10995    11036    11111    11159    11146 
   11138    11160    11159    11111    11086    11121    11159    11117 
   11020    10956    10936    10944    11028    11182    11319    11388 
   11398    11387    11376    11365    11340    11248    11068    10891 
   10817    10835    10878    10922    11006    11106    11117    11013 
   10859    10755    10746    10800    10887    11014    11156    11263 
   11319    11362    11391    11387    11367    11322    11236    11149 
   11136    11176    11180    11132    11117    11180    11215    11179 
   11184    11241    11261    11229    11171    11105    11007    10895 
   10858    10929    11025    11071    11087    11122    11200    11330 
   11462    11480    11353    11222    11192    11192    11140    11070 
   11009    10963    10960    10998    11034    11055    11072    11109 
   11191    11269    11226    11076    10972    11007    11122    11241 
   11340    11418    11488    11512    11445    11323    11202    11092 
   11040    11074    11148    11196    11163    11043    10945    10974 
   11074    11124    11106    11071    11056    11057    11034    10989 
   11021    11151    11246    11265    11300    11398    11503    11542 
   11516    11497    11500    11443    11319    11199    11138    11144 
   11171    11156    11075    11005    11040    11133    11187    11186 
   11146    11088    11043    11018    11063    11206    11313    11273 
   11187    11130    11082    11084    11132    11141    11151    11200 
   11213    11153    11082    11049    11059    11097    11146    11165 
   11119    11029    10956    10945    10975    11034    11099    11106 
   11037    10984    11010    11068    11125    11186    11244    11279 
   11252    11168    11097    11045    10997    10975    10986    11006 
   11026    11036    11040    11038    11041    11095    11183    11236 
   11249    11254    11263    11317    11433    11519    11492    11373 
   11223    11136    11155    11213    11272    11341    11400    11408 
   11349    11248    11161    11111    11087    11101    11161    11244 
   11268    11173    11047    10993    10980    10987    11065    11194 
   11284    11329    11376    11376    11256    11078    10955    10935 
   10979    11024    11043    11045    11048    11082    11117    11064 
   10949    10878    10894    10940    10926    10886    10902    10980 
   11076    11182    11322    11461    11527    11543    11557    11515 
   11377    11223    11126    11055    10979    10932    10918    10901 
   10868    10849    10859    10883    10932    11036    11175    11276 
   11327    11368    11362    11279    11214    11219    11218    11207 
   11218    11207    11173    11165    11188    11215    11211    11153 
   11075    10993    10902    10882    10937    10982    11033    11130 
   11215    11249    11241    11207    11168    11130    11107    11115 
   11148    11209    11291    11365    11423    11439    11403    11341 
   11280    11225    11198    11202    11195    11157    11105    11065 
   11074    11157    11260    11308    11315    11338    11406    11497 
   11554    11539    11445    11303    11192    11134    11111    11133 
   11184    11225    11198    11064    10882    10750    10696    10713 
   10797    10945    11129    11237    11205    11122    11087    11102 
   11098    11045    10990    10987    11063    11188    11303    11389 
   11429    11403    11349    11290    11213    11142    11088    11011 
   10920    10889    10920    10899    10801    10739    10827    11048 
   11268    11403    11488    11529    11493    11439    11395    11283 
   11122    11021    10995    11020    11076    11091    11033    10966 
   10914    10881    10886    10910    10875    10777    10760    10890 
   11034    11115    11192    11306    11422    11508    11578    11595 
   11489    11307    11187    11171    11196    11219    11259    11330 
   11372    11323    11211    11109    11020    10913    10812    10758 
   10741    10760    10809    10881    10997    11133    11248    11321 
   11330    11300    11286    11275    11263    11244    11198    11194 
   11272    11335    11306    11232    11172    11091    10999    11014 
   11097    11084    10963    10832    10759    10764    10831    10918 
   10963    10937    10897    10930    11045    11149    11198    11269 
   11383    11402    11303    11246    11276    11325    11394    11473 
   11476    11356    11196    11070    10960    10872    10875    10986 
   11091    11092    11070    11094    11128    11199    11348    11480 
   11488    11391    11319    11335    11348    11296    11249    11222 
   11217    11299    11438    11508    11481    11431    11389    11298 
   11118    10922    10809    10786    10810    10889    11030    11137 
   11179    11230    11267    11225    11128    11018    10959    10968 
   10976    10941    10922    11002    11156    11321    11475    11576 
   11585    11523    11392    11188    10960    10787    10710    10685 
   10667    10697    10798    10924    11045    11172    11287    11354 
   11353    11333    11356    11368    11284    11137    11037    11045 
   11124    11205    11268    11299    11276    11229    11200    11182 
   11145    11119    11136    11163    11191    11234    11269    11273 
   11254    11205    11121    11068    11088    11144    11196    11234 
   11253    11279    11322    11334    11331    11364    11404    11456 
   11481    11381    11203    11036    10863    10712    10648    10679 
   10805    11034    11307    11526    11665    11677    11519    11284 
   11072    10897    10794    10787    10845    10962    11079    11095 
   11009    10908    10862    10868    10906    11006    11205    11439 
   11630    11724    11639    11369    11070    10881    10824    10897 
   11087    11298    11411    11427    11383    11245    11061    10948 
   10925    10980    11124    11322    11477    11473    11286    11029 
   10848    10790    10813    10872    10953    11060    11206    11338 
   11314    11067    10728    10517    10550    10758    11002    11178 
   11265    11361    11533    11682    11664    11473    11217    11032 
   10989    11017    11009    10951    10890    10860    10874    10903 
   10836    10665    10605    10759    10967    11090    11101    11001 
   10887    10945    11196    11415    11399    11206    11052    11020 
   11033    11067    11144    11238    11311    11384    11539    11754 
   11924    12031    12075    12008    11839    11646    11458    11237 
   10995    10824    10750    10674    10559    10523    10620    10771 
   10899    10951    10899    10797    10746    10854    11146    11545 
   11915    12114    12121    11967    11674    11340    11070    10881 
   10750    10728    10828    10970    11136    11313    11368    11241 
   11033    10847    10754    10795    10932    11106    11233    11264 
   11244    11200    11110    10967    10852    10858    10962    11083 
   11161    11145    11043    10944    10929    10982    11040    11117 
   11275    11488    11674    11803    11842    11751    11554    11303 
   11059    10901    10824    10747    10692    10736    10876    11063 
   11236    11350    11443    11516    11495    11356    11198    11122 
   11103    11030    10903    10912    11180    11597    11992    12226 
   12226    12004    11620    11194    10872    10712    10697    10762 
   10798    10794    10840    10964    11090    11148    11184    11281 
   11381    11353    11237    11151    11065    10903    10704    10508 
   10334    10245    10341    10633    10994    11252    11342    11310 
   11269    11298    11341    11314    11227    11165    11206    11362 
   11588    11796    11920    11967    11935    11770    11460    11061 
   10655    10324    10110    10014    10042    10142    10269    10493 
   10889    11353    11726    11962    12104    12168    12137    11990 
   11762    11510    11240    10964    10767    10686    10690    10794 
   10991    11145    11138    11056    11070    11160    11178    11133 
   11117    11051    10855    10646    10566    10615    10743    10920 
   11109    11250    11330    11427    11566    11650    11616    11499 
   11358    11234    11137    11079    11074    11079    11016    10908 
   10844    10756    10588    10508    10629    10843    11022    11137 
   11172    11115    11045    11095    11277    11470    11618    11720 
   11793    11889    11989    12000    11897    11718    11522    11371 
   11221    11032    10902    10874    10829    10686    10443    10160 
    9957     9942    10127    10440    10787    11083    11276    11331 
   11229    11095    11103    11232    11391    11558    11682    11704 
   11645    11584    11564    11578    11624    11674    11689    11639 
   11499    11295    11105    10995    11002    11079    11145    11159 
   11141    11151    11206    11281    11371    11427    11387    11245 
   11082    10983    10989    11086    11188    11209    11205    11275 
   11402    11491    11481    11416    11364    11341    11329    11319 
   11317    11365    11539    11796    11962    11927    11700    11362 
   11059    10917    10943    11010    11045    11083    11153    11260 
   11360    11367    11245    11052    10870    10737    10619    10513 
   10481    10498    10524    10563    10589    10598    10647    10744 
   10852    10930    10945    10868    10767    10771    10878    11011 
   11132    11172    11126    11118    11188    11248    11269    11288 
   11331    11398    11439    11415    11365    11337    11299    11233 
   11179    11171    11156    11086    11028    11061    11136    11159 
   11098    10989    10918    10955    11064    11122    11063    10995 
   11060    11275    11562    11832    12023    12066    11927    11673 
   11387    11102    10874    10748    10687    10673    10692    10640 
   10507    10449    10531    10685    10860    10990    11010    10998 
   11044    11098    11121    11167    11283    11469    11680    11850 
   11923    11866    11739    11612    11483    11341    11184    10991 
   10794    10669    10652    10705    10724    10665    10562    10486 
   10513    10621    10721    10821    10953    11101    11227    11302 
   11315    11280    11244    11298    11460    11639    11763    11821 
   11853    11898    11932    11884    11722    11469    11184    10952 
   10813    10721    10632    10571    10547    10552    10623    10748 
   10881    11060    11335    11659    11951    12151    12197    12102 
   11938    11709    11431    11171    10924    10656    10423    10281 
   10242    10319    10493    10660    10737    10739    10675    10593 
   10584    10633    10716    10918    11232    11541    11807    12008 
   12083    12019    11863    11692    11545    11388    11219    11095 
   11020    10918    10779    10659    10552    10447    10405    10438 
   10431    10315    10208    10309    10660    11130    11631    12124 
   12483    12577    12430    12124    11711    11261    10886    10647 
   10527    10480    10457    10476    10579    10754    10941    11070 
   11052    10914    10782    10727    10747    10822    10953    11142 
   11394    11691    11929    12002    11942    11835    11735    11688 
   11699    11763    11851    11888    11826    11674    11448    11194 
   10971    10790    10631    10484    10326    10127     9884     9668 
    9616     9767    10046    10395    10760    11124    11491    11809 
   11997    12048    12036    12010    11975    11944    11901    11763 
   11469    11076    10729    10517    10450    10509    10644    10783 
   10901    11002    11063    11047    10994    10993    11068    11199 
   11376    11614    11896    12145    12286    12259    11997    11515 
   10989    10615    10426    10358    10407    10555    10724    10864 
   10979    11060    11119    11186    11280    11395    11477    11504 
   11549    11635    11697    11723    11745    11766    11817    11902 
   11943    11871    11651    11253    10747    10278     9911     9698 
    9745    10072    10521    10901    11101    11140    11082    10986 
   10951    11044    11238    11466    11661    11792    11889    11936 
   11890    11763    11566    11303    10997    10701    10486    10389 
   10392    10490    10673    10864    11017    11160    11268    11250 
   11129    11045    11084    11196    11273    11264    11207    11149 
   11079    11006    10995    11037    11075    11134    11219    11221 
   11103    11014    11059    11168    11280    11416    11520    11496 
   11395    11353    11403    11464    11460    11344    11113    10852 
   10698    10696    10746    10743    10696    10682    10754    10894 
   11057    11223    11365    11462    11546    11642    11713    11699 
   11587    11452    11362    11361    11458    11589    11630    11541 
   11425    11362    11298    11151    10922    10682    10476    10334 
   10289    10311    10339    10403    10577    10886    11256    11534 
   11612    11520    11399    11375    11477    11608    11643    11588 
   11546    11566    11628    11746    11919    12077    12143    12097 
   11951    11745    11495    11168    10790    10454    10227    10166 
   10257    10385    10490    10597    10694    10750    10778    10787 
   10758    10694    10655    10701    10816    10940    11059    11219 
   11430    11619    11722    11732    11651    11489    11283    11092 
   10937    10835    10851    10997    11205    11384    11437    11334 
   11144    10957    10871    10924    11094    11331    11565    11708 
   11720    11642    11584    11616    11686    11692    11593    11398 
   11126    10840    10612    10473    10454    10584    10828    11113 
   11364    11554    11728    11896    12016    12104    12183    12217 
   12179    12132    12131    12083    11847    11438    11028    10758 
   10640    10608    10628    10720    10860    10982    11025    10952 
   10805    10639    10476    10358    10357    10480    10663    10836 
   10944    10947    10844    10690    10520    10366    10324    10451 
   10669    10870    11033    11209    11408    11545    11578    11568 
   11558    11566    11591    11581    11476    11269    11061    10947 
   10908    10910    10952    11026    11114    11221    11334    11365 
   11253    11043    10813    10635    10559    10592    10710    10878 
   11033    11128    11126    11034    10952    11011    11234    11480 
   11593    11530    11313    11025    10759    10558    10469    10498 
   10581    10706    10916    11157    11352    11519    11718    11948 
   12156    12266    12244    12136    11988    11793    11538    11221 
   10855    10509    10274    10161    10170    10303    10442    10471 
   10427    10358    10307    10346    10488    10674    10875    11113 
   11410    11753    12082    12297    12326    12171    11897    11614 
   11411    11313    11276    11286    11340    11383    11373    11287 
   11148    11074    11103    11161    11191    11173    11099    10999 
   10937    10963    11090    11290    11516    11709    11848    11956 
   12021    11954    11709    11364    11020    10743    10531    10393 
   10372    10465    10623    10783    10863    10821    10692    10544 
   10476    10579    10852    11183    11477    11705    11859    11940 
   11950    11840    11616    11408    11322    11319    11341    11365 
   11352    11283    11240    11268    11326    11372    11391    11348 
   11213    10991    10720    10449    10264    10233    10341    10539 
   10771    10966    11082    11119    11086    11001    10909    10845 
   10831    10895    11038    11242    11492    11705    11813    11848 
   11855    11807    11701    11564    11377    11130    10887    10732 
   10692    10750    10901    11103    11298    11458    11558    11566 
   11512    11423    11333    11284    11225    11088    10897    10673 
   10415    10185    10077    10081    10138    10253    10431    10620 
   10786    10940    11102    11230    11277    11288    11337    11404 
   11448    11483    11537    11599    11686    11831    11974    12035 
   11993    11874    11696    11453    11141    10813    10544    10399 
   10390    10462    10569    10679    10777    10859    10929    10979 
   11029    11122    11261    11371    11404    11402    11422    11481 
   11562    11626    11620    11497    11265    10975    10677    10459 
   10405    10507    10704    10922    11072    11140    11176    11234 
   11325    11430    11524    11573    11542    11473    11468    11591 
   11799    11965    11962    11738    11376    11028    10766    10606 
   10563    10597    10644    10705    10800    10918    11030    11114 
   11169    11238    11362    11522    11645    11669    11584    11416 
   11207    10984    10782    10679    10739    10932    11169    11348 
   11396    11310    11130    10902    10720    10667    10686    10670 
   10639    10686    10874    11172    11469    11665    11718    11642 
   11520    11429    11356    11294    11283    11288    11209    11014 
   10782    10601    10538    10594    10733    10936    11140    11261 
   11288    11259    11218    11196    11184    11173    11184    11218 
   11232    11199    11122    10989    10822    10698    10639    10627 
