Origin Time       2024/04/02 04:24:00
Lat.              40.133
Long.             141.712
Depth. (km)       71
Mag.              6.0
Station Code      IBR003
Station Lat.      36.5914
Station Long.     140.6453
Station Height(m) 58
Record Time       2024/04/02 04:25:32
Sampling Freq(Hz) 100Hz
Duration Time(s)  117
Dir.              N-S
Scale Factor      7845(gal)/8223790
Max. Acc. (gal)   5.950
Last Correction   2024/04/02 04:25:32
Memo.             
[...]
   -5409    -5721    -6027    -6083    -6304    -6223    -5940    -6405 
   -7348    -7676    -7164    -6231    -5336    -4972    -5278    -5861 
   -6081    -5753    -5702    -6473    -7055    -6605    -6003    -5906 
   -5942    -6289    -7096    -7530    -7134    -6774    -7103    -7086 
   -5972    -4861    -4621    -4945    -5556    -6309    -6741    -6520 
   -5994    -5622    -5494    -5671    -6064    -6447    -6833    -6903 
   -6496    -6427    -6918    -6926    -6054    -5530    -6169    -6808 
   -6539    -5903    -5506    -5680    -6172    -6405    -6315    -5977 
   -5761    -6164    -6787    -6714    -6069    -6068    -6740    -7082 
   -6999    -6602    -6054    -5715    -5233    -4896    -5498    -6223 
   -6434    -6763    -6876    -6359    -5972    -5756    -5294    -5206 
   -5818    -6423    -6748    -6829    -6322    -5772    -6228    -7141 
   -7155    -6201    -5478    -5590    -5794    -5746    -5775    -5809 
   -6053    -6728    -7144    -6862    -6342    -5908    -5757    -6184 
   -6658    -6547    -6566    -7086    -7071    -6326    -5867    -5799 
   -5421    -5094    -5568    -6142    -6025    -5593    -5292    -5583 
   -6505    -7038    -6871    -6632    -6359    -6214    -6520    -6586 
   -6241    -6207    -6197    -6037    -6174    -6146    -6004    -6596 
   -7161    -6570    -5697    -5597    -5971    -6604    -6988    -6327 
   -5643    -5958    -6281    -6276    -6481    -6189    -5413    -5498 
   -6083    -6158    -6211    -6405    -6390    -6517    -6597    -6053 
   -5699    -6328    -6816    -6408    -6068    -6007    -5775    -5873 
   -6210    -6188    -6293    -6403    -6077    -6162    -6303    -5649 
   -5598    -6489    -6629    -6231    -6540    -6794    -6162    -5721 
   -5896    -6064    -6435    -6767    -6534    -6442    -6485    -5807 
   -5192    -5698    -6340    -6103    -5863    -6393    -6907    -6694 
   -6111    -5803    -6143    -6470    -5983    -5765    -6504    -6752 
   -6291    -6181    -5961    -5282    -5363    -6357    -6851    -6496 
   -6079    -6108    -6482    -6520    -6031    -5556    -5512    -6165 
   -6890    -6863    -6755    -6929    -6550    -5810    -5697    -5891 
   -5813    -6153    -6921    -6999    -6573    -6447    -6106    -5312 
   -5198    -6041    -6578    -6241    -5935    -6119    -6177    -6021 
   -6227    -6660    -6548    -6030    -5957    -6296    -6562    -6706 
   -6787    -6720    -6249    -5848    -6210    -6374    -5692    -5506 
   -6374    -7192    -6939    -5813    -5281    -5740    -5841    -5620 
   -6084    -6558    -6412    -6245    -6079    -5850    -6021    -6247 
   -6178    -6173    -6149    -6266    -6883    -7311    -7156    -6745 
   -6079    -5557    -5678    -5823    -5779    -6187    -6570    -6164 
   -5744    -5935    -6049    -5881    -5822    -5737    -5730    -5989 
   -6300    -6683    -6825    -6413    -6284    -6759    -6886    -6466 
   -6156    -6023    -5856    -5714    -5671    -5795    -6312    -7091 
   -7203    -6421    -5775    -5578    -5571    -5933    -6245    -6018 
   -5903    -6245    -6496    -6407    -6161    -6119    -6369    -6293 
   -5674    -5313    -5837    -6673    -6843    -6528    -6516    -6504 
   -6085    -5923    -6215    -6377    -6427    -6679    -6871    -6492 
   -5756    -5655    -6365    -6793    -6349    -5701    -5475    -5610 
   -6087    -6652    -6529    -5931    -5819    -6288    -6968    -7157 
   -6492    -6083    -6380    -6365    -5976    -5738    -5549    -5806 
   -6646    -6787    -5891    -5431    -5957    -6409    -6115    -5598 
   -5701    -6284    -6385    -5922    -5636    -5752    -6166    -6739 
   -7032    -6862    -6666    -6756    -6658    -6083    -5799    -6205 
   -6570    -6508    -6378    -6107    -5564    -5385    -5652    -5628 
   -5506    -5755    -6058    -6363    -6646    -6755    -7106    -7238 
   -6212    -5174    -5428    -6214    -6825    -7075    -6534    -5811 
   -5942    -6419    -6232    -5946    -6446    -6913    -6512    -5910 
   -5476    -5158    -5589    -6455    -6428    -5886    -6041    -6442 
   -6500    -6613    -6438    -5684    -5454    -6161    -7017    -7580 
   -7407    -6426    -5687    -5632    -5749    -5921    -6092    -6126 
   -6107    -5944    -5838    -6226    -6602    -6683    -7053    -7048 
   -6073    -5522    -5800    -5890    -6007    -6381    -6165    -5552 
   -5638    -6162    -6095    -5779    -5984    -6177    -6278    -6860 
   -7013    -6405    -6318    -6480    -6146    -6232    -6727    -6628 
   -6373    -6475    -6288    -5579    -5147    -5462    -5954    -6048 
   -5891    -5953    -6285    -6624    -6817    -6536    -5926    -5624 
   -5483    -5625    -6725    -7905    -7677    -6477    -5533    -5086 
   -5166    -5796    -6376    -6613    -6859    -6859    -6234    -5705 
   -5849    -6195    -6295    -6058    -5830    -6145    -6652    -6781 
   -6612    -6231    -5817    -5783    -6043    -6165    -6285    -6527 
   -6181    -5570    -5979    -6767    -6706    -6176    -5745    -5602 
   -5601    -5432    -5570    -6223    -6679    -6729    -6636    -6501 
   -6384    -6351    -6713    -7153    -6552    -5502    -5617    -6331 
   -6373    -6143    -6261    -6492    -6469    -6123    -5698    -5521 
   -5657    -5908    -6384    -7075    -7133    -6370    -5671    -5346 
   -5516    -6178    -6538    -6566    -6778    -6627    -6184    -6446 
   -6932    -6374    -5251    -5167    -5996    -6361    -6286    -6311 
   -6237    -6096    -5903    -5445    -5514    -6596    -7244    -6759 
   -6446    -6651    -6399    -5842    -5722    -5884    -6176    -6655 
   -7060    -7064    -6534    -5813    -5545    -5728    -5964    -6359 
   -6781    -6617    -6079    -5719    -5398    -5223    -5703    -6332 
   -6313    -6180    -6372    -6297    -6157    -6357    -6110    -5517 
   -5790    -6559    -6664    -6579    -7002    -6948    -6145    -6027 
   -6546    -6362    -5782    -5961    -6598    -6470    -6011    -6335 
   -6488    -5832    -5610    -5965    -6062    -6166    -6480    -6178 
   -5167    -4635    -5016    -5652    -6420    -7291    -7492    -7009 
   -6744    -6532    -5948    -5979    -6816    -7075    -6628    -6169 
   -5611    -5360    -5819    -6232    -6099    -5641    -5418    -5763 
   -5948    -5922    -6655    -7543    -7480    -7140    -7051    -6440 
   -5520    -5463    -6102    -6351    -5864    -5128    -4912    -5448 
   -6134    -6357    -6253    -6313    -6450    -6520    -6840    -7049 
   -6605    -6012    -5908    -6195    -6228    -5813    -5863    -6552 
   -6565    -5881    -5772    -6072    -6041    -5908    -6134    -6663 
   -6921    -6619    -6200    -6174    -6396    -6162    -5601    -5732 
   -6454    -6636    -6291    -6291    -6370    -5984    -5755    -5927 
   -5910    -5825    -6241    -6835    -6779    -6157    -5697    -5548 
   -5602    -6111    -7069    -7815    -7576    -6358    -5341    -5514 
   -6297    -6732    -6759    -6583    -6249    -5652    -4808    -4530 
   -5491    -6822    -7191    -6633    -6038    -5676    -5722    -6426 
   -6963    -6767    -6500    -6160    -5598    -6002    -7381    -7730 
   -6899    -6666    -6890    -6347    -5228    -4460    -4977    -6577 
   -7461    -7006    -6193    -5441    -4922    -4926    -5381    -5983 
   -6193    -5719    -5080    -5351    -6570    -7159    -6882    -6930 
   -6832    -6122    -6080    -6864    -7051    -6382    -5856    -6003 
   -6741    -7489    -7396    -6835    -6936    -7229    -6542    -5313 
   -4375    -3827    -4159    -5313    -6192    -6562    -6416    -5832 
   -6107    -7105    -7161    -6461    -6023    -6039    -6447    -6716 
   -6497    -6173    -5807    -5517    -5854    -6586    -7032    -7075 
   -6760    -6239    -5651    -5012    -5050    -6066    -6971    -7325 
   -7404    -7015    -6646    -6739    -6228    -5296    -5502    -5780 
   -4773    -4278    -5147    -5996    -6723    -7460    -7476    -7095 
   -6826    -6222    -5520    -5701    -6151    -5543    -4754    -4892 
   -5108    -5427    -6975    -8667    -8625    -7414    -6282    -5518 
   -5559    -6115    -6247    -6615    -7817    -8272    -7087    -5799 
   -5328    -4943    -4580    -4614    -4426    -3689    -3647    -5418 
   -7921    -8905    -7777    -6315    -5962    -6201    -6488    -6671 
   -6455    -6319    -6548    -6976    -7453    -7030    -5730    -5154 
   -5698    -6257    -6293    -6357    -6466    -6231    -6095    -5873 
   -5510    -6166    -7256    -7222    -6606    -6062    -5082    -4222 
   -4440    -5070    -5314    -5572    -6166    -6820    -7194    -7175 
   -6841    -6164    -5806    -6561    -7198    -6829    -6621    -6272 
   -5134    -5417    -7514    -8314    -7496    -7155    -6810    -5609 
   -4935    -5077    -4826    -4456    -4156    -3685    -4349    -6362 
   -8019    -8432    -7815    -6928    -6264    -5648    -5459    -6068 
   -6490    -6211    -6550    -7593    -7539    -6809    -6976    -7539 
   -7901    -7271    -4791    -2917    -3640    -4581    -4236    -4244 
   -5206    -6108    -6814    -7673    -8213    -8024    -7222    -6299 
   -6126    -6440    -6129    -5755    -6563    -7871    -8178    -7310 
   -6107    -4943    -3704    -3234    -4268    -5351    -5287    -5547 
   -7125    -8145    -7303    -6257    -6438    -7080    -7277    -7142 
   -6930    -6928    -7256    -6930    -5903    -5791    -6423    -6573 
   -6461    -6070    -5039    -4301    -4946    -6313    -6956    -7126 
   -7840    -8808    -8822    -6790    -3744    -2289    -2921    -4390 
   -5813    -6609    -6781    -6897    -6739    -5764    -5302    -6412 
   -7265    -7164    -7550    -7546    -6130    -5617    -7134    -8162 
   -7145    -5620    -5022    -5313    -6327    -7113    -6484    -5259 
   -4448    -3881    -3943    -4854    -5813    -6423    -6871    -6945 
   -6524    -6307    -6327    -5899    -5645    -6092    -6656    -7488 
   -8561    -8548    -6874    -5171    -5339    -6270    -5670    -4428 
   -4653    -6089    -7693    -9001    -9026    -7230    -4928    -3867 
   -4658    -6300    -7033    -6357    -4785    -3121    -3011    -5088 
   -7474    -8622    -9027    -8884    -7067    -3921    -2617    -4583 
   -6936    -7666    -7916    -8041    -7057    -5706    -5413    -5246 
   -4441    -4704    -6689    -8579    -8745    -7577    -6664    -6157 
   -5391    -5277    -6215    -6546    -5517    -4630    -5296    -6778 
   -6660    -4345    -2683    -3821    -6689    -8679    -8137    -6636 
   -6332    -6747    -7462    -8621    -8745    -7294    -6308    -6783 
   -6750    -4973    -3877    -5193    -6610    -6705    -7165    -8063 
   -7419    -5459    -4027    -3458    -3784    -5135    -5810    -5192 
   -5107    -5435    -5231    -5641    -6898    -7646    -7450    -7053 
   -7068    -6799    -6038    -6713    -8811    -9135    -6897    -4523 
   -3686    -4303    -5657    -7387    -8610    -7317    -4051    -2641 
   -4328    -6426    -6682    -5512    -4990    -5358    -5219    -5232 
   -6216    -7257    -8237    -9227    -9405    -8490    -6633    -4838 
   -4928    -5980    -5143    -3877    -5454    -7530    -7009    -6048 
   -6235    -6137    -5476    -5219    -5981    -7434    -7703    -5834 
   -4557    -5576    -5687    -4217    -4911    -7213    -8218    -8473 
   -8290    -7155    -6365    -6567    -6682    -6153    -5751    -6201 
   -6678    -6659    -7096    -7229    -5868    -4838    -5405    -6154 
   -6529    -6910    -6569    -5821    -6239    -6664    -4773    -1656 
    -529    -2420    -5190    -7155    -8311    -8131    -7399    -8071 
   -9020    -8444    -7713    -7982    -7607    -6174    -6006    -6813 
   -5726    -3859    -4482    -6567    -7163    -6088    -5063    -5161 
   -5443    -4679    -4217    -5409    -6120    -5301    -5729    -7709 
   -8757    -9061    -9296    -8075    -5634    -4476    -4707    -4120 
   -3327    -4371    -6513    -8109    -8154    -6183    -3964    -3987 
   -6043    -8284    -9738   -10039    -8618    -5780    -3500    -3063 
   -4116    -6538    -9382   -10438    -8856    -5834    -3356    -2335 
   -2860    -5287    -7630    -7223    -5883    -5603    -5080    -4625 
   -5391    -6396    -7570    -8630    -7533    -6232    -8064    -9882 
   -8206    -5390    -4093    -4163    -4409    -4496    -5706    -7946 
   -8648    -7138    -5067    -3037    -2060    -3919    -6910    -7859 
   -7524    -7875    -7730    -5813    -4174    -4465    -4885    -4270 
   -4504    -6682    -9194    -9687    -7350    -5065    -6157    -8461 
   -8127    -6197    -5809    -7283    -8487    -7884    -6639    -6878 
   -7717    -6523    -4051    -3126    -3696    -4205    -4629    -5148 
   -5309    -5406    -5641    -4943    -4218    -5875    -8114    -7936 
   -6876    -6759    -6404    -5926    -6701    -7238    -6666    -7385 
   -9271    -9362    -7373    -5154    -3663    -3499    -5071    -6569 
   -5911    -5104    -6814    -8706    -7813    -5881    -4877    -4199 
   -4052    -4758    -5657    -6928    -8090    -7628    -5671    -3873 
   -3489    -4402    -6288    -8811    -9672    -7709    -5660    -5591 
   -6924    -8567    -8976    -7693    -6524    -5767    -4251    -3245 
   -3666    -3883    -3732    -4869    -7465    -9737   -10257    -9305 
   -7542    -5636    -4955    -5934    -7234    -7638    -6956    -5906 
   -5850    -6404    -5166    -2870    -3003    -4990    -5919    -5687 
   -4585    -2818    -2633    -4791    -7122    -8515    -9113    -8291 
   -6777    -6642    -7383    -7419    -7395    -7816    -7384    -5898 
   -5603    -7676    -9822    -9089    -5146     -961       36    -1629 
   -3227    -4170    -5046    -6554    -9026   -10606    -9683    -8020 
   -7858    -8696    -8946    -7489    -4147    -1368    -1665    -4504 
   -8185    -9486    -6022    -2138    -3030    -6459    -8212    -8117 
   -7288    -6299    -5610    -5140    -5333    -6339    -7137    -8183 
   -9225    -7994    -5984    -6077    -6108    -4544    -4298    -5609 
   -5938    -5157    -4121    -4205    -6435    -8066    -7021    -5989 
   -6219    -6066    -6180    -7221    -7797    -7665    -6930    -5543 
   -4434    -3940    -4081    -5343    -7047    -7807    -7620    -7348 
   -7263    -7523    -8098    -7380    -3971    -1054    -3022    -7086 
   -8237    -8090    -8475    -7434    -5823    -5891    -6570    -6544 
   -6173    -6070    -6264    -5738    -4367    -4153    -6035    -7819 
   -7288    -5948    -6405    -7173    -6339    -6168    -7142    -6581 
   -5737    -7146    -8831    -8850    -7524    -5287    -4387    -5086 
   -3616    -1674    -4283    -8631    -9730    -8694    -7834    -6639 
   -4396    -2438    -2582    -4468    -6602    -8197    -8483    -6885 
   -4560    -3898    -5494    -7573    -8507    -8213    -8009    -8191 
   -7034    -4564    -3327    -4387    -6250    -7666    -8154    -7005 
   -5385    -5359    -5915    -5628    -5684    -6405    -6156    -5051 
   -4757    -4783    -4054    -4056    -5918    -8174    -9069    -8172 
   -6571    -5902    -6057    -5503    -4140    -3495    -4395    -5799 
   -6609    -7678    -9495   -10632   -10174    -8282    -5810    -4055 
   -3361    -3958    -5979    -7433    -6932    -6559    -7369    -7325 
   -5752    -4205    -3973    -4719    -4900    -4182    -3542    -3693 
   -5378    -8019    -9383    -9217    -8461    -7009    -5659    -4834 
   -4391    -5637    -7639    -7730    -6825    -7109    -8422    -9394 
   -8322    -5427    -3650    -3828    -4629    -6230    -7808    -7572 
   -5948    -3763    -2315    -3348    -5593    -7020    -7894    -8202 
   -7542    -7022    -6979    -6245    -5170    -5348    -7298    -9468 
   -8688    -4726    -2199    -3747    -6494    -7825    -8509    -8484 
   -6296    -3843    -4059    -5350    -5347    -4978    -5132    -5525 
   -6273    -7133    -8198    -9880    -9983    -6902    -4147    -4585 
   -5832    -5945    -6297    -7059    -6709    -5849    -6181    -6450 
   -4687    -3022    -4029    -5934    -6502    -6523    -7635    -9728 
  -10565    -8290    -4421    -2652    -3835    -5374    -6133    -6326 
   -5205    -4413    -6578    -8986    -7954    -5555    -4336    -3956 
   -5209    -8052    -9761    -8958    -6346    -4082    -4445    -6592 
   -8143    -7750    -5632    -4519    -5582    -5331    -3315    -4074 
   -6739    -6673    -5235    -5220    -5643    -6265    -7742    -8599 
   -7350    -5300    -4953    -6404    -7786    -8289    -7655    -5872 
   -4607    -4449    -3975    -4185    -6197    -7591    -7754    -8255 
   -7996    -6355    -4781    -3534    -3248    -5158    -7743    -8704 
   -8334    -7570    -6305    -5309    -5679    -6581    -7051    -7256 
   -7138    -6466    -5586    -5088    -4592    -3654    -3161    -3518 
   -4911    -7734    -9761    -8973    -7244    -6581    -6475    -6411 
   -7538    -9949   -11149    -9417    -5838    -2720    -1455    -2492 
   -5274    -7010    -6162    -4905    -4456    -4222    -4464    -4903 
   -4959    -5362    -6442    -7518    -8446    -9398    -9918    -9246 
   -7177    -5270    -5340    -6339    -6731    -7101    -7234    -6278 
   -5039    -3882    -2816    -3159    -4797    -6019    -6486    -6372 
   -5728    -5512    -5900    -6066    -6111    -6386    -6768    -7155 
   -7460    -7681    -7638    -7333    -7408    -7828    -7433    -5930 
   -4862    -5119    -5661    -5459    -4519    -4256    -5598    -6511 
   -5926    -5667    -5667    -5138    -5643    -6702    -6430    -6544 
   -8360    -9945   -10322    -9354    -6513    -3585    -3003    -3754 
   -4279    -5112    -6026    -6579    -7199    -7040    -5452    -4091 
   -4799    -7025    -8051    -6573    -4955    -5355    -6400    -6546 
   -6623    -7064    -7074    -6913    -6868    -5732    -3770    -3149 
   -3982    -4965    -6365    -8708   -10598    -9980    -7535    -6192 
   -6470    -6373    -5925    -6640    -7350    -6681    -6389    -6747 
   -5470    -3345    -2867    -3574    -4372    -5567    -6507    -6254 
   -5826    -6156    -6369    -6041    -5952    -6636    -8044    -9193 
   -8811    -7198    -5942    -6048    -7094    -8036    -8091    -7385 
   -6612    -5409    -3277    -1485    -1352    -2716    -4865    -6918 
   -8179    -8743    -8608    -7562    -6158    -5228    -5152    -6060 
   -7832    -9525    -9819    -8653    -6862    -5131    -4064    -3686 
   -4114    -5659    -7184    -7535    -7356    -7362    -6701    -4795 
   -3469    -4564    -6894    -8036    -7738    -7388    -6959    -5478 
   -4113    -4642    -5502    -4843    -4953    -7372    -8819    -7153 
   -4791    -3835    -4075    -4993    -6269    -7831    -8969    -8606 
   -7334    -6330    -5676    -5193    -5491    -6745    -7437    -7133 
   -6880    -6215    -4954    -4538    -5157    -6219    -7654    -7940 
   -5711    -3516    -4108    -5719    -6524    -7542    -7935    -6151 
   -4480    -5030    -6174    -6293    -5900    -5525    -4893    -4290 
   -4714    -6139    -7369    -8047    -8347    -8214    -7877    -6872 
   -5224    -4835    -5779    -5749    -5065    -5486    -6319    -6705 
   -6651    -6154    -5401    -4139    -3742    -6100    -8538    -7952 
   -6500    -6400    -6523    -6833    -8056    -8591    -7678    -6485 
   -5113    -3854    -3701    -4472    -6045    -8213    -8770    -6508 
   -4243    -4382    -5468    -6475    -7904    -8537    -7468    -6038 
   -5374    -5742    -6743    -6879    -5736    -4811    -5031    -5661 
