Origin Time       2024/04/02 04:24:00
Lat.              40.133
Long.             141.712
Depth. (km)       71
Mag.              6.0
Station Code      IBR001
Station Lat.      36.7763
Station Long.     140.3582
Station Height(m) 106
Record Time       2024/04/02 04:26:09
Sampling Freq(Hz) 100Hz
Duration Time(s)  77
Dir.              N-S
Scale Factor      7845(gal)/8223790
Max. Acc. (gal)   3.580
Last Correction   2024/04/02 04:26:08
Memo.             
[...]
   -2673    -2435    -2359    -2417    -2446    -2425    -2421    -2442 
   -2450    -2481    -2517    -2517    -2563    -2666    -2685    -2678 
   -2875    -3156    -3169    -2956    -2833    -2887    -2976    -3017 
   -3065    -3146    -3126    -2948    -2731    -2569    -2446    -2300 
   -2160    -2107    -2103    -2091    -2115    -2184    -2246    -2282 
   -2350    -2492    -2714    -3007    -3240    -3279    -3196    -3105 
   -3079    -3117    -3053    -2817    -2528    -2303    -2218    -2246 
   -2272    -2284    -2300    -2263    -2162    -2123    -2226    -2331 
   -2351    -2397    -2551    -2791    -2964    -2933    -2833    -2778 
   -2768    -2899    -3125    -3287    -3373    -3434    -3453    -3383 
   -3240    -3034    -2774    -2533    -2297    -2133    -2211    -2339 
   -2177    -1846    -1722    -1863    -1975    -1931    -1907    -2039 
   -2265    -2451    -2619    -2866    -3075    -3145    -3137    -3137 
   -3252    -3404    -3397    -3252    -3127    -3080    -3073    -3022 
   -2798    -2485    -2280    -2085    -1861    -1796    -1848    -1864 
   -1860    -1884    -1988    -2160    -2293    -2386    -2511    -2720 
   -3002    -3221    -3307    -3381    -3470    -3456    -3345    -3292 
   -3277    -3150    -2956    -2826    -2749    -2662    -2484    -2197 
   -1962    -1899    -1922    -1915    -1830    -1723    -1748    -1917 
   -2114    -2323    -2519    -2658    -2801    -2964    -3107    -3253 
   -3396    -3487    -3554    -3623    -3628    -3488    -3206    -2895 
   -2632    -2405    -2246    -2103    -1945    -1888    -1867    -1750 
   -1710    -1861    -2026    -2099    -2236    -2525    -2830    -2998 
   -3007    -2984    -3028    -3084    -3133    -3183    -3179    -3142 
   -3119    -2959    -2652    -2520    -2600    -2562    -2354    -2192 
   -2232    -2458    -2623    -2613    -2585    -2583    -2629    -2774 
   -2920    -3007    -3080    -3067    -2922    -2847    -2899    -2835 
   -2625    -2450    -2367    -2363    -2323    -2253    -2324    -2474 
   -2590    -2714    -2795    -2805    -2859    -2947    -2901    -2759 
   -2766    -2949    -3087    -3095    -3084    -3042    -2802    -2416 
   -2141    -2046    -2062    -2166    -2276    -2263    -2161    -2118 
   -2205    -2324    -2338    -2326    -2389    -2502    -2659    -2791 
   -2803    -2774    -2770    -2749    -2716    -2706    -2697    -2651 
   -2608    -2635    -2751    -2837    -2762    -2616    -2540    -2459 
   -2281    -2127    -2111    -2150    -2169    -2181    -2187    -2234 
   -2373    -2548    -2671    -2677    -2621    -2617    -2664    -2790 
   -2997    -3110    -3056    -2965    -3011    -3213    -3287    -3065 
   -2795    -2662    -2577    -2474    -2363    -2265    -2220    -2187 
   -2114    -2135    -2309    -2500    -2631    -2702    -2729    -2756 
   -2816    -2897    -2891    -2824    -2889    -3040    -3086    -3061 
   -3086    -3092    -2959    -2808    -2829    -2884    -2740    -2513 
   -2416    -2358    -2223    -2135    -2145    -2160    -2137    -2033 
   -1930    -2042    -2311    -2486    -2594    -2794    -3007    -3133 
   -3233    -3284    -3253    -3242    -3260    -3256    -3265    -3229 
   -3067    -2863    -2691    -2558    -2475    -2396    -2258    -2147 
   -2139    -2138    -2053    -1979    -2043    -2219    -2415    -2566 
   -2677    -2783    -2833    -2798    -2836    -3045    -3257    -3315 
   -3271    -3230    -3180    -3005    -2740    -2566    -2466    -2286 
   -2119    -2114    -2124    -2029    -1980    -2041    -2143    -2272 
   -2371    -2419    -2479    -2556    -2613    -2694    -2805    -2821 
   -2714    -2619    -2581    -2562    -2604    -2767    -2953    -2975 
   -2874    -2813    -2798    -2812    -2830    -2781    -2725    -2720 
   -2631    -2421    -2262    -2224    -2203    -2162    -2184    -2328 
   -2471    -2415    -2215    -2088    -2126    -2290    -2439    -2562 
   -2797    -3026    -3048    -2974    -2937    -2872    -2782    -2744 
   -2774    -2890    -3009    -2951    -2740    -2548    -2466    -2467 
   -2421    -2276    -2200    -2308    -2467    -2565    -2620    -2623 
   -2610    -2573    -2440    -2369    -2502    -2667    -2697    -2674 
   -2739    -2794    -2720    -2673    -2758    -2868    -2909    -2857 
   -2859    -3041    -3229    -3214    -3042    -2916    -2916    -2874 
   -2690    -2547    -2543    -2504    -2370    -2330    -2432    -2533 
   -2542    -2457    -2384    -2442    -2592    -2705    -2735    -2752 
   -2821    -2887    -2914    -2959    -2975    -2828    -2594    -2529 
   -2662    -2749    -2679    -2633    -2679    -2617    -2432    -2339 
   -2370    -2417    -2467    -2501    -2474    -2519    -2714    -2883 
   -2945    -2951    -2825    -2640    -2602    -2674    -2725    -2816 
   -2916    -2848    -2643    -2459    -2377    -2419    -2488    -2506 
   -2523    -2508    -2407    -2316    -2342    -2424    -2452    -2380 
   -2290    -2359    -2540    -2574    -2485    -2550    -2741    -2829 
   -2845    -2889    -2868    -2755    -2700    -2724    -2660    -2581 
   -2679    -2839    -2886    -2890    -2956    -2976    -2848    -2759 
   -2770    -2720    -2636    -2566    -2488    -2454    -2443    -2417 
   -2432    -2496    -2508    -2371    -2199    -2199    -2398    -2654 
   -2797    -2760    -2602    -2443    -2425    -2482    -2470    -2420 
   -2322    -2212    -2247    -2358    -2384    -2338    -2266    -2209 
   -2272    -2420    -2502    -2565    -2710    -2874    -3048    -3200 
   -3213    -3141    -3076    -2990    -2914    -2899    -2893    -2790 
   -2621    -2555    -2548    -2413    -2238    -2201    -2223    -2218 
   -2259    -2320    -2334    -2443    -2708    -2878    -2916    -3076 
   -3262    -3237    -3177    -3241    -3230    -3064    -2905    -2763 
   -2555    -2361    -2236    -2081    -1898    -1845    -1984    -2150 
   -2281    -2513    -2722    -2727    -2691    -2721    -2759    -2802 
   -2840    -2878    -2897    -2852    -2860    -2983    -3005    -2828 
   -2625    -2520    -2515    -2536    -2521    -2528    -2612    -2677 
   -2598    -2511    -2600    -2722    -2708    -2659    -2627    -2581 
   -2629    -2809    -2953    -2953    -2879    -2833    -2776    -2631 
   -2544    -2563    -2498    -2411    -2466    -2592    -2728    -2797 
   -2717    -2641    -2677    -2717    -2720    -2741    -2774    -2766 
   -2729    -2725    -2759    -2748    -2641    -2500    -2376    -2278 
   -2196    -2180    -2296    -2428    -2521    -2659    -2722    -2636 
   -2550    -2521    -2517    -2540    -2590    -2654    -2732    -2749 
   -2670    -2559    -2374    -2166    -2130    -2220    -2342    -2473 
   -2455    -2317    -2262    -2304    -2408    -2613    -2928    -3210 
   -3253    -3140    -3134    -3190    -3083    -2947    -3033    -3200 
   -3177    -2986    -2733    -2409    -2081    -1935    -1948    -1949 
   -2026    -2193    -2223    -2227    -2432    -2729    -3013    -3272 
   -3437    -3503    -3495    -3379    -3202    -3088    -3021    -2887 
   -2728    -2589    -2385    -2088    -1749    -1451    -1360    -1578 
   -1987    -2411    -2685    -2752    -2748    -2768    -2793    -2871 
   -3071    -3356    -3523    -3358    -2928    -2536    -2299    -2045 
   -1769    -1726    -1884    -1961    -1945    -2056    -2311    -2556 
   -2816    -3191    -3630    -3985    -4079    -3867    -3541    -3230 
   -2955    -2872    -2957    -2909    -2678    -2367    -1950    -1483 
   -1178    -1224    -1593    -2046    -2330    -2423    -2523    -2683 
   -2841    -3002    -3149    -3375    -3712    -3848    -3663    -3411 
   -3168    -2897    -2701    -2608    -2485    -2289    -2042    -1763 
   -1543    -1460    -1479    -1571    -1788    -2141    -2451    -2589 
   -2662    -2727    -2681    -2583    -2664    -2868    -2957    -3003 
   -3130    -3244    -3281    -3277    -3242    -3099    -2898    -2863 
   -2883    -2704    -2474    -2274    -2057    -2026    -2157    -2130 
   -1930    -1788    -1807    -1977    -2274    -2605    -2848    -2968 
   -3076    -3298    -3429    -3180    -2744    -2492    -2488    -2587 
   -2647    -2629    -2597    -2558    -2490    -2427    -2423    -2494 
   -2547    -2532    -2581    -2754    -2921    -2937    -2731    -2411 
   -2222    -2205    -2174    -2165    -2307    -2463    -2602    -2818 
   -2940    -2845    -2720    -2728    -2891    -3149    -3304    -3154 
   -2803    -2525    -2398    -2269    -2031    -1856    -1917    -2077 
   -2199    -2354    -2513    -2585    -2606    -2621    -2789    -3254 
   -3711    -3801    -3613    -3350    -3075    -2841    -2722    -2755 
   -2878    -2913    -2880    -2951    -2944    -2710    -2528    -2493 
   -2431    -2384    -2423    -2442    -2384    -2317    -2292    -2231 
   -2072    -1956    -2029    -2241    -2427    -2496    -2528    -2705 
   -3033    -3275    -3346    -3396    -3484    -3581    -3650    -3623 
   -3528    -3352    -2994    -2594    -2351    -2158    -1872    -1584 
   -1386    -1263    -1327    -1690    -2099    -2315    -2493    -2755 
   -3037    -3388    -3877    -4263    -4229    -3846    -3408    -3103 
   -2948    -2758    -2452    -2265    -2207    -1968    -1611    -1478 
   -1482    -1370    -1271    -1409    -1790    -2227    -2511    -2671 
   -2852    -3127    -3500    -3844    -4029    -3940    -3454    -2745 
   -2235    -2101    -2199    -2323    -2353    -2322    -2286    -2189 
   -2022    -1875    -1794    -1842    -2077    -2408    -2809    -3298 
   -3645    -3649    -3426    -3088    -2718    -2490    -2469    -2658 
   -2974    -3133    -3033    -2775    -2506    -2412    -2405    -2299 
   -2211    -2261    -2403    -2590    -2758    -2913    -3068    -3141 
   -3160    -3238    -3227    -2874    -2340    -1985    -1817    -1661 
   -1432    -1181    -1040    -1020    -1053    -1147    -1362    -1814 
   -2590    -3577    -4459    -4936    -5030    -4955    -4764    -4428 
   -4093    -3869    -3526    -2813    -1925    -1212     -797     -679 
    -778     -974    -1242    -1494    -1516    -1372    -1420    -1825 
   -2517    -3407    -4314    -5017    -5435    -5463    -4997    -4149 
   -3169    -2393    -2042    -1948    -1831    -1615    -1302     -976 
    -888    -1102    -1366    -1613    -2000    -2502    -2938    -3248 
   -3422    -3453    -3427    -3366    -3348    -3505    -3549    -3222 
   -2803    -2454    -1984    -1310     -741     -699    -1092    -1665 
   -2470    -3254    -3547    -3478    -3469    -3550    -3658    -3863 
   -4043    -4083    -4044    -3796    -3252    -2524    -1675     -930 
    -600     -726    -1135    -1547    -1746    -1821    -2018    -2458 
   -3105    -3901    -4657    -5063    -4988    -4581    -4067    -3546 
   -3107    -2936    -2862    -2463    -1887    -1518    -1287    -1146 
   -1270    -1509    -1648    -1890    -2257    -2361    -2153    -2096 
   -2450    -2937    -3423    -4018    -4456    -4561    -4476    -4058 
   -3434    -3068    -2749    -2273    -2158    -2458    -2567    -2343 
   -1914    -1341    -1107    -1483    -1937    -2214    -2555    -2843 
   -2922    -3010    -3169    -3283    -3250    -2971    -2554    -2110 
   -1701    -1671    -2007    -2155    -2056    -2065    -2187    -2255 
   -2274    -2278    -2409    -2751    -3122    -3515    -4077    -4526 
   -4441    -3863    -3136    -2461    -1948    -1837    -2110    -2386 
   -2585    -2713    -2392    -1578     -943     -963    -1352    -1692 
   -1930    -2046    -2158    -2589    -3292    -3915    -4179    -4056 
   -3804    -3642    -3607    -3642    -3593    -3526    -3715    -3942 
   -3771    -3348    -2867    -2191    -1354     -648     -450     -931 
   -1690    -2205    -2380    -2259    -1962    -1769    -1746    -1800 
   -1922    -2081    -2272    -2479    -2760    -3257    -3816    -4052 
   -3690    -2916    -2397    -2479    -2762    -2847    -2853    -2964 
   -3002    -2779    -2398    -2058    -1837    -1620    -1323    -1107 
   -1258    -1891    -2643    -3092    -3311    -3477    -3659    -3927 
   -4149    -4104    -3747    -3304    -2947    -2752    -3063    -3688 
   -3778    -3343    -2843    -2299    -1933    -1984    -2238    -2382 
   -2282    -2103    -2076    -2076    -1814    -1406    -1159    -1009 
    -959    -1167    -1507    -1884    -2266    -2582    -3059    -3840 
   -4612    -4918    -4672    -4344    -4240    -4155    -3888    -3478 
   -3160    -3051    -2957    -2682    -2169    -1491     -837     -386 
     -66      229      136     -554    -1337    -1857    -2137    -2320 
   -2785    -3512    -3975    -4140    -4290    -4371    -4372    -4491 
   -4812    -5169    -5232    -4901    -4361    -3634    -2601    -1395 
    -403       60       52     -155     -430     -760     -996     -965 
    -754     -616     -703    -1090    -1829    -2809    -3858    -4799 
   -5443    -5815    -5907    -5628    -5324    -5287    -5071    -4297 
   -3369    -2716    -2092    -1287     -600     -201       44       98 
    -149     -475     -529     -453     -862    -1956    -3177    -4118 
   -4870    -5356    -5368    -5015    -4573    -4310    -4244    -4113 
   -4012    -4193    -4330    -4014    -3237    -2176    -1236     -764 
    -700     -977    -1501    -1869    -1838    -1547    -1219     -984 
    -760     -704    -1247    -2041    -2497    -2905    -3385    -3412 
   -3090    -3091    -3491    -3774    -3693    -3601    -3793    -3983 
   -4013    -3942    -3622    -3318    -3269    -2872    -1841     -672 
     310      993     1129      662      -63     -646    -1001    -1166 
   -1054     -920    -1363    -2378    -3362    -4147    -4928    -5479 
   -5532    -5189    -4449    -3453    -2771    -2589    -2577    -2559 
   -2506    -2420    -2262    -1935    -1642    -1640    -1748    -1823 
   -2147    -2821    -3354    -3412    -3348    -3473    -3734    -4075 
   -4153    -3561    -2702    -2255    -2361    -2806    -3273    -3534 
   -3607    -3600    -3496    -3377    -3454    -3577    -3346    -2748 
   -2107    -1750    -1873    -2178    -2023    -1474    -1286    -1622 
   -2045    -2377    -2606    -2833    -3231    -3441    -3180    -2911 
   -2841    -2766    -2828    -3073    -3296    -3526    -3707    -3715 
   -3720    -3707    -3465    -3040    -2648    -2563    -2880    -3221 
   -3152    -2799    -2532    -2385    -2119    -1667    -1278    -1121 
   -1183    -1340    -1443    -1707    -2250    -2689    -2928    -3168 
   -3433    -3651    -3678    -3507    -3337    -3306    -3264    -2907 
   -2369    -2066    -1934    -1683    -1418    -1386    -1553    -1796 
   -2000    -2093    -2205    -2386    -2556    -2764    -2863    -2697 
   -2508    -2358    -2141    -2014    -1985    -1815    -1456    -1213 
   -1474    -2142    -2597    -2633    -2860    -3393    -3595    -3507 
   -3624    -3879    -3974    -3731    -3171    -2612    -2323    -2153 
   -1809    -1512    -1649    -1985    -1968    -1470     -993    -1023 
   -1412    -2076    -3024    -3739    -4016    -4079    -3731    -3165 
   -3145    -3438    -3319    -3175    -3519    -3819    -3554    -2988 
   -2381    -1698    -1216    -1209    -1428    -1741    -2261    -2744 
   -2922    -2963    -3040    -2943    -2585    -2519    -3086    -3692 
   -3817    -3904    -4371    -4666    -4272    -3597    -3037    -2478 
   -1942    -1638    -1486    -1163     -729     -625     -807     -897 
    -830     -723     -749    -1162    -2107    -3140    -3568    -3669 
   -4039    -4411    -4614    -4860    -4828    -4280    -3773    -3712 
   -3809    -3615    -2936    -2122    -1647    -1405    -1134     -882 
    -776     -954    -1447    -2004    -2417    -2614    -2512    -2377 
   -2686    -3279    -3681    -3921    -4045    -3892    -3669    -3662 
   -3738    -3735    -3555    -3106    -2610    -2226    -1763    -1431 
   -1482    -1497    -1386    -1507    -1679    -1645    -1609    -1649 
   -1579    -1482    -1717    -2299    -2883    -3354    -3704    -3743 
   -3500    -3241    -3036    -3002    -3246    -3416    -3211    -2893 
   -2952    -3292    -3184    -2624    -2323    -2268    -2127    -2138 
   -2400    -2513    -2324    -2192    -2405    -2933    -3524    -3881 
   -3966    -3834    -3485    -3180    -3217    -3381    -3181    -2643 
   -2281    -2218    -2150    -1968    -1809    -1671    -1371    -1148 
   -1404    -1827    -2037    -2315    -2901    -3522    -3908    -4094 
   -4185    -4302    -4391    -4174    -3696    -3192    -2740    -2496 
   -2511    -2659    -2922    -3130    -3018    -2675    -2170    -1449 
    -828     -622     -800    -1266    -1678    -1696    -1620    -1896 
   -2349    -2560    -2555    -2543    -2598    -2798    -3183    -3534 
   -3613    -3573    -3504    -3110    -2632    -2710    -3110    -3241 
   -3141    -2998    -2901    -2897    -2794    -2505    -2193    -1810 
   -1283     -908     -953    -1181    -1163     -950     -969    -1301 
   -1729    -2173    -2617    -3026    -3400    -3770    -4190    -4657 
   -4955    -4737    -4156    -3859    -3753    -3204    -2338    -1561 
    -882     -338     -166     -302     -338     -232     -442    -1055 
   -1610    -1931    -2324    -2955    -3688    -4396    -4942    -5067 
   -4741    -4399    -4406    -4498    -4178    -3547    -3079    -2806 
   -2548    -2313    -2023    -1499     -849     -438     -545    -1132 
   -1737    -1910    -1961    -2332    -2805    -3164    -3441    -3599 
   -3746    -4126    -4727    -5192    -5201    -4665    -3684    -2821 
   -2547    -2459    -2092    -1620    -1332    -1216    -1162    -1225 
   -1368    -1459    -1649    -2111    -2712    -3299    -3851    -4132 
   -4010    -3971    -4194    -4236    -4005    -3636    -3150    -2650 
   -2160    -1698    -1367    -1235    -1410    -1796    -2026    -1958 
   -1800    -1784    -2033    -2544    -3176    -3802    -4237    -4197 
   -3881    -3609    -3115    -2443    -2143    -2235    -2405    -2442 
   -2222    -2088    -2222    -2127    -1749    -1594    -1800    -2222 
   -2706    -3150    -3520    -3586    -3129    -2396    -1749    -1354 
   -1271    -1356    -1447    -1575    -1699    -1880    -2404    -2956 
   -2902    -2596    -2704    -2953    -3025    -3327    -3902    -4033 
   -3573    -3218    -3291    -3447    -3435    -3252    -2990    -2778 
   -2643    -2546    -2373    -2025    -1647    -1394    -1313    -1453 
   -1742    -2145    -2660    -3057    -3125    -2948    -2810    -2975 
   -3400    -3851    -4216    -4414    -4276    -3801    -3206    -2729 
   -2544    -2477    -2263    -2080    -1983    -1622    -1040     -810 
    -990    -1078    -1208    -1749    -2451    -3057    -3512    -3781 
   -3978    -4172    -4313    -4275    -4029    -3821    -3734    -3411 
   -2756    -2232    -1966    -1721    -1669    -1891    -1993    -1776 
   -1335     -911     -843    -1177    -1583    -1864    -2165    -2641 
   -3208    -3638    -3736    -3497    -3207    -3106    -3119    -3133 
   -3134    -3106    -3026    -2920    -2818    -2635    -2274    -1827 
   -1487    -1521    -1919    -2146    -1856    -1412    -1189    -1063 
    -885     -778     -881    -1229    -1836    -2629    -3333    -3754 
   -4085    -4322    -4102    -3672    -3728    -4152    -4444    -4596 
   -4556    -4149    -3546    -2917    -2282    -1773    -1455    -1111 
    -737     -700    -1119    -1702    -2143    -2400    -2581    -2685 
