Origin Time       2024/04/02 04:24:00
Lat.              40.133
Long.             141.712
Depth. (km)       71
Mag.              6.0
Station Code      IBR001
Station Lat.      36.7763
Station Long.     140.3582
Station Height(m) 106
Record Time       2024/04/02 04:26:09
Sampling Freq(Hz) 100Hz
Duration Time(s)  77
Dir.              E-W
Scale Factor      7845(gal)/8223790
Max. Acc. (gal)   4.212
Last Correction   2024/04/02 04:26:08
Memo.             
[...]
   -1198    -1283    -1333    -1070     -611     -162      280      680 
     930     1038     1039      951      864      884      931      820 
     564      228     -243     -730    -1063    -1233    -1161     -791 
    -284      178      425      399      357      461      542      525 
     511      565      592      449      194      -70     -365     -677 
    -911     -989    -1005    -1084    -1043     -720     -278      113 
     395      649      940     1048      878      692      696      792 
     691      322      -64     -384     -791    -1266    -1494    -1270 
    -823     -413      -78      171      359      542      762      999 
    1097     1071     1101     1050      729      245     -360    -1047 
   -1557    -1732    -1620    -1412    -1287    -1175     -957     -673 
    -364      -52      209      469      768      973     1028     1017 
     943      846      749      522      139     -252     -550     -777 
    -934     -928     -781     -639     -469     -124      261      498 
     693      930     1059      951      716      621      652      572 
     422      319      199       14     -241     -554     -766     -745 
    -603     -415      -51      349      465      490      741      967 
     918      751      595      463      325      160       -2     -244 
    -522     -611     -627     -820     -962     -710     -183      356 
     805     1066     1147     1200     1221     1071      778      517 
     324       71     -341     -855    -1243    -1401    -1513    -1636 
   -1522    -1121     -735     -564     -441      -83      440      826 
    1017     1159     1317     1485     1583     1471     1075      514 
      -8     -396     -662     -877    -1116    -1359    -1514    -1548 
   -1436    -1223    -1048     -886     -546      -40      399      702 
    1032     1332     1291      928      491      -27     -641    -1043 
    -950     -544     -144      194      371      274      243      523 
     747      642      410      271      184       -5     -329     -642 
    -807     -774     -608     -518     -600     -675     -564     -229 
     251      719     1032     1088      911      638      364      180 
      82      -36     -137     -136      -56       68      136        9 
    -221     -387     -506     -606     -585     -415     -153      203 
     584      792      735      518      257       -9     -153       55 
     544      874      932      953      800      249     -438     -942 
   -1197    -1173     -864     -426      -89      129      338      382 
      12     -440     -471     -340     -351     -120      378      634 
     656      797      999      912      535      238      126       87 
     184      284       45     -426     -745     -824     -805     -695 
    -357      137      515      648      649      637      538      279 
      -1     -167     -264     -426     -679     -822     -738     -561 
    -419     -452     -718     -889     -653      -99      569     1165 
    1512     1520     1167      706      436      272      136      102 
      10     -313     -734    -1090    -1468    -1887    -2095    -1929 
   -1425     -676       10      265      261      434      768      997 
    1124     1359     1679     1745     1498     1181      847      502 
     237        6     -198     -333     -606    -1112    -1537    -1659 
   -1379     -702        0      546     1147     1705     1921     1698 
    1131      610      494      599      596      517      386       82 
    -243     -413     -533     -616     -630     -657     -637     -479 
    -209      130      411      589      706      680      515      313 
      40     -280     -395     -206       35      121       10     -236 
    -360     -229       -1      130      148      197      295      292 
     141       -9       24      174      270      345      406      333 
      72     -336     -756    -1190    -1688    -1934    -1733    -1356 
    -939     -322      399      773      616      288       82       44 
     349     1131     2058     2506     2205     1414      426     -504 
   -1055    -1313    -1656    -2061    -2270    -2313    -2344    -2312 
   -2041    -1491     -789      -59      623     1281     2011     2712 
    3094     3063     2679     2076     1539     1081      398     -471 
   -1163    -1471    -1452    -1413    -1590    -1776    -1763    -1714 
   -1699    -1539    -1140     -494      326     1165     1930     2470 
    2632     2494     2184     1767     1375     1012      550      -17 
    -641    -1273    -1784    -2068    -2147    -2033    -1725    -1366 
    -950     -270      548     1183     1582     1776     1750     1570 
    1449     1437     1189      504     -187     -364     -130       16 
    -162     -561     -901     -878     -503      -76      218      378 
     318       39     -151      -93      -91     -334     -587     -679 
    -618     -357       13      214      168      105       66      -81 
    -278     -356     -205      135      461      700      970     1247 
    1345     1196      881      448      -91     -515     -612     -558 
    -527     -442     -284     -148     -140     -263     -459     -621 
    -486      -28      421      789     1279     1728     1688     1111 
     379     -103     -230     -264     -406     -638     -872     -843 
    -486     -272     -523     -849     -835     -662     -472     -101 
     441     1009     1409     1466     1271     1034      837      610 
     342      203       99     -270     -816    -1354    -1861    -2085 
   -1926    -1807    -1865    -1726    -1248     -662      -78      585 
    1294     1815     1975     1912     1806     1514      946      311 
     -93     -157     -103     -224     -758    -1634    -2280    -2485 
   -2490    -2301    -1898    -1271     -481       14      -39     -110 
     459     1539     2477     2921     2818     2236     1374      301 
    -800    -1404    -1397    -1059     -569     -410     -853    -1378 
   -1595    -1444     -830       25      760     1273     1449     1216 
     940      963     1082     1039      905      780      569      206 
    -114      -90      259      523      425       -4     -665    -1279 
   -1625    -1742    -1584    -1143     -506      413     1448     2133 
    2324     2131     1620      992      596      548      432      -48 
    -446     -473     -371     -372     -711    -1231    -1382    -1109 
    -742     -445     -209       60      356      756     1422     1981 
    1921     1397      831      368       -1     -255     -356     -411 
    -585     -823    -1008    -1279    -1711    -1957    -1756    -1252 
    -629      -41      504     1293     2142     2423     2054     1426 
     985      905      753      406      403      765      920      491 
    -518    -1725    -2681    -3137    -3007    -2424    -1534     -572 
     -81     -187     -255      263     1286     2226     2590     2528 
    2367     2196     1898     1197      129     -889    -1544    -1850 
   -2085    -2378    -2524    -2342    -1840    -1077     -126      743 
    1189     1135      872      915     1525     2205     2312     2047 
    1829     1352      396     -517    -1017    -1254    -1229     -903 
    -469     -109       10     -140     -314     -477     -670     -591 
    -144      344      639      774      945     1162     1019      341 
    -352     -738    -1063    -1287    -1183    -1098    -1363    -1602 
   -1475    -1173     -899     -731     -746     -738     -465       72 
     877     1740     2161     2019     1644     1236      799      329 
     -71     -364     -726    -1134    -1451    -1818    -2235    -2346 
   -1961    -1355     -967     -747     -225      731     1842     2685 
    2895     2565     2166     1863     1333      459     -314     -658 
    -799     -884     -737     -396     -268     -544     -877     -797 
    -174      683     1266     1383     1325     1294      994      222 
    -576     -924     -891     -733     -454      -59      166       64 
     -48      206      710     1031     1054     1007     1071     1165 
    1008      602      319      233      -39     -637    -1301    -1755 
   -1780    -1420     -939     -419       78      382      427      307 
     310      598      920     1034     1001      994     1061     1036 
     649      -67     -706     -999     -950     -739     -560     -356 
    -114       55      216      449      692      820      764      622 
     554      481      180     -326     -751     -880     -729     -500 
    -522     -874    -1058     -770     -357      -13      346      602 
     592      410      203      -87     -571    -1004     -923     -364 
     101      194      143      187      306      297       41     -287 
    -382     -247     -103       78      243       12     -638    -1224 
   -1300     -870     -291      345     1154     1794     1815     1347 
     846      626      623      571      394       75     -514    -1246 
   -1768    -2062    -2328    -2462    -2130    -1252     -233      549 
    1105     1422     1557     1791     2095     2274     2305     2142 
    1864     1551     1069      376     -479    -1297    -1678    -1560 
   -1258    -1121    -1304    -1506    -1368     -838      -18      754 
    1092     1004      788      621      571      741     1019     1116 
    1071      990      718      351      180      140       -5     -315 
    -580     -622     -896    -1696    -2303    -2119    -1405     -626 
     -78      116      -83     -490     -572      -44      830     1543 
    1750     1657     1591     1337      792      243     -437    -1294 
   -1908    -2218    -2296    -2080    -1842    -1761    -1603    -1317 
   -1005     -580       17      699     1416     2074     2461     2513 
    2317     1881     1359      938      500       16     -440    -1016 
   -1683    -2093    -2039    -1651    -1287    -1094     -919     -718 
    -409      233     1088     1656     1579     1066      652      303 
    -233     -531     -243      319      796      962      824      662 
     459       43     -303     -234      140      616     1078     1266 
     965      396       17      120      506      587      336      372 
     745      959      909      747      487       76     -349     -481 
    -302     -135      -74       89      491      884      793      156 
    -498     -735     -735     -766     -684     -365       62      438 
     568      337     -108     -506     -675     -660     -641     -602 
    -500     -490     -575     -510     -234     -129     -480     -793 
    -491      174      650      866     1020      986      467     -310 
    -823    -1057    -1225    -1318    -1308    -1105     -668     -249 
     -56      -52      -86       20      259      450      591      772 
     996     1262     1463     1360      900      193     -637    -1297 
   -1464    -1188     -758     -410     -355     -619     -939    -1015 
    -733     -237      232      688     1154     1301     1012      611 
     182     -178      -99      315      670      811      706      529 
     479      500      490      390       85     -481    -1046    -1313 
   -1362    -1209     -842     -653     -753     -660     -195      232 
     364      542     1108     1838     2290     2118     1312      542 
     345      407      328       51     -283     -453     -598     -954 
   -1345    -1588    -1661    -1605    -1512    -1274     -691      153 
     899     1304     1418     1260      812      395      346      592 
     895     1113     1162      912      421      114      164      116 
    -310     -801    -1040    -1059     -915     -587     -143      255 
     433      363      247      237      202       59      216     1007 
    1900     2080     1448      560     -184     -756    -1000     -785 
    -396     -243     -459     -873    -1225    -1387    -1296     -842 
     -97      679     1198     1237      982      854      776      561 
     465      421      -55     -839    -1367    -1443    -1202     -842 
    -480     -205     -214     -504     -679     -529     -359     -322 
    -110      315      569      522      295      -60     -338     -348 
    -265     -209     -141     -109       29      324      427      213 
    -224     -704     -714      -31      853     1395     1364      834 
     120     -522     -976    -1161    -1167    -1104     -872     -436 
     -40       62      -68     -133      120      614      861      643 
     459      714     1213     1547     1479     1100      604      -25 
    -712    -1124    -1105     -715      -14      741     1138      928 
     236     -438     -641     -305      328      935     1333     1371 
     924      194     -488     -958    -1156    -1155     -990     -550 
      17      406      666      930     1074     1039     1039     1273 
    1532     1428      992      575      261     -162     -688    -1096 
   -1368    -1516    -1397    -1093     -807     -454        9      378 
     615      803      880      766      473      278      486      916 
    1156     1019      579       66     -302     -530     -793    -1059 
   -1035     -626      -97      135      -68     -357     -523     -689 
    -850     -972    -1017     -888     -654     -472     -407     -484 
    -669     -874     -999     -900     -472      110      436      305 
     -82     -355     -279        8      234      360      537      865 
    1305     1718     1937     1744     1061      170     -552    -1024 
   -1451    -1933    -2297    -2380    -2250    -2046    -1715    -1161 
    -436      413     1425     2641     3828     4436     4237     3535 
    2722     1942     1066      136     -610    -1210    -1699    -1900 
   -1890    -1976    -2184    -2231    -1942    -1377     -621      326 
    1323     1949     2089     2158     2266     2058     1568     1206 
    1112     1138     1134      989      634       70     -558    -1129 
   -1638    -1995    -2131    -2135    -2128    -2239    -2336    -2147 
   -1696    -1101     -399      305      893     1275     1541     1868 
    2205     2438     2531     2354     1773      985      375      -44 
    -515     -967    -1240    -1513    -1965    -2386    -2470    -2199 
   -1748    -1305     -864     -207      540      986     1169     1360 
    1611     1791     1775     1572     1260      981      843      595 
      20     -594     -866     -719     -344       10      159      -29 
    -425     -742     -870     -745     -373       74      491      783 
     820      571      228      106      276      533      668      541 
     120     -414     -707     -612     -336     -164     -291     -676 
   -1073    -1252    -1150     -907     -630     -287       68      236 
      48     -283     -398     -318     -236     -152      -79     -141 
    -364     -714    -1134    -1468    -1587    -1383     -931     -522 
    -133      402      919     1254     1397     1359     1155      807 
     473      220     -120     -560    -1034    -1626    -2220    -2469 
   -2299    -1892    -1312     -581      179      827     1383     2080 
    2897     3541     3913     3960     3549     2853     2214     1590 
     706     -384    -1287    -1730    -1833    -1875    -1922    -1875 
   -1649    -1183     -567       52      704     1424     2104     2641 
    2943     2916     2610     2234     1868     1391      695     -117 
    -796    -1287    -1653    -1725    -1516    -1362    -1350    -1289 
   -1080     -859     -707     -365      248      861     1324     1576 
    1525     1251      932      522      -87     -556     -627     -643 
    -766     -849     -934     -969     -859     -722     -558     -251 
     186      496      361      -12     -126      -10       25     -143 
    -533     -997    -1236    -1150     -936     -648     -271        5 
     171      299      309      305      369      441      677     1038 
    1100      785      324     -245     -742     -812     -619     -475 
    -248      101      249       -8     -394     -560     -673     -918 
    -996     -731     -321       33      271      391      376      398 
     745     1246     1460     1359     1247     1177      935      475 
     -66     -607    -1046    -1188    -1024     -734     -363      -27 
      76       39       14       93      373      745     1089     1432 
    1725     1930     1891     1408      685       48     -406     -615 
    -526     -367     -481     -843    -1248    -1624    -1826    -1748 
   -1534    -1225     -719     -143      355      803     1074      988 
     718      517      303      -66     -560    -1080    -1521    -1807 
   -1852    -1728    -1717    -1759    -1537    -1185    -1013     -824 
    -306      306      729     1044     1210     1013      577      228 
     121      247      459      473      121     -298     -361      -99 
     149      180       81       99      220      251      206      198 
     286      449      614      757      858      868      791      704 
     707      797      739      340     -130     -344     -390     -399 
    -282     -126     -174     -314     -220      155      615     1035 
    1344     1431     1354     1364     1520     1606     1421      950 
     387      -93     -492     -872    -1317    -1738    -1752    -1391 
   -1158    -1101     -931     -635     -303       41      356      635 
     911     1135     1127      837      537      356      124     -109 
    -209     -261     -206       97      348      261      103       94 
      93       85      252      629      969     1066     1015      911 
     681      272     -291     -936    -1505    -1752    -1691    -1613 
   -1424     -911     -396     -130       83      359      697     1094 
    1325     1229     1013      913      928      935      861      739 
     557      218     -240     -606     -677     -548     -479     -502 
    -542     -716    -1102    -1433    -1367     -931     -442     -114 
      67      141      132      237      584      930     1019      945 
     892      893      827      552      175      -79     -270     -568 
    -874    -1035    -1151    -1254    -1090     -662     -280      -41 
     130      299      440      526      626      679      598      517 
     592      731      621      125     -457     -778     -845     -873 
    -930     -926     -801     -538     -270     -203     -267     -206 
     -12       94       64       81      203      353      410      206 
    -171     -479     -680     -729     -530     -199      102      332 
     499      572      562      527      334      -31     -251     -216 
     -58      167      353      356      135     -170     -337     -361 
    -372     -342     -157      197      581      823      897      820 
     583      311      191      218      311      450      492      264 
     -21      -43       87       52     -206     -521     -734     -814 
    -839     -820     -631     -284      -62     -114     -216     -135 
     132      521      915     1125     1163     1260     1417     1306 
     841      297      -33      -67       25      -48     -392     -747 
    -843     -738     -557     -294      -18      175      338      557 
     835     1023      997      909      837      592      241       85 
       4     -292     -603     -622     -457     -349     -361     -394 
    -332     -190      -71      -55     -105     -117     -113     -191 
    -310     -441     -638     -822     -838     -635     -247      201 
