Origin Time       2024/04/02 04:24:00
Lat.              40.133
Long.             141.712
Depth. (km)       71
Mag.              6.0
Station Code      IBR001
Station Lat.      36.7763
Station Long.     140.3582
Station Height(m) 106
Record Time       2024/04/02 04:26:09
Sampling Freq(Hz) 100Hz
Duration Time(s)  77
Dir.              U-D
Scale Factor      7845(gal)/8223790
Max. Acc. (gal)   1.470
Last Correction   2024/04/02 04:26:08
Memo.             
[...]
   14673    14844    14866    14689    14565    14624    14710    14608 
   14374    14268    14358    14569    14782    14777    14485    14114 
   13937    14071    14372    14663    14886    14944    14793    14601 
   14565    14627    14539    14299    14199    14312    14434    14490 
   14516    14485    14384    14270    14231    14296    14465    14677 
   14640    14219    13811    13867    14331    14802    14991    14829 
   14393    14014    14044    14403    14720    14758    14520    14230 
   14230    14555    14809    14725    14474    14353    14445    14584 
   14623    14601    14594    14562    14463    14334    14247    14268 
   14391    14540    14621    14574    14520    14593    14710    14785 
   14769    14550    14210    14053    14289    14746    14902    14566 
   14157    14067    14300    14548    14486    14233    14134    14299 
   14554    14639    14515    14380    14323    14308    14416    14654 
   14774    14620    14339    14176    14239    14415    14573    14688 
   14663    14481    14334    14369    14557    14719    14674    14465 
   14303    14311    14335    14188    14011    14081    14345    14538 
   14563    14521    14497    14503    14562    14683    14760    14667 
   14384    14104    14098    14314    14511    14643    14755    14737 
   14524    14353    14427    14547    14477    14324    14311    14476 
   14643    14648    14528    14411    14424    14601    14748    14612 
   14257    14053    14139    14341    14551    14665    14449    13963 
   13755    14134    14702    14962    14836    14519    14284    14393 
   14804    15106    15018    14669    14366    14274    14391    14635 
   14820    14779    14535    14264    14187    14389    14715    14904 
   14825    14569    14251    13968    13941    14260    14574    14558 
   14364    14278    14342    14457    14561    14674    14770    14709 
   14500    14342    14347    14388    14307    14165    14165    14407 
   14750    14894    14716    14418    14261    14312    14449    14542 
   14559    14478    14307    14183    14212    14315    14355    14295 
   14223    14289    14500    14667    14635    14526    14535    14563 
   14430    14266    14242    14330    14454    14497    14446    14455 
   14567    14615    14515    14469    14608    14708    14634    14535 
   14484    14358    14165    14091    14184    14342    14428    14404 
   14450    14646    14744    14590    14368    14353    14543    14608 
   14409    14230    14291    14530    14758    14814    14652    14323 
   14087    14212    14596    14958    15103    14924    14451    13994 
   13911    14179    14481    14635    14601    14382    14168    14257 
   14592    14740    14534    14269    14233    14365    14503    14605 
   14654    14650    14683    14748    14708    14588    14512    14494 
   14544    14665    14721    14636    14462    14287    14254    14409 
   14596    14629    14469    14315    14358    14508    14624    14615 
   14443    14251    14214    14338    14466    14357    13977    13687 
   13929    14666    15261    15244    14852    14557    14508    14569 
   14563    14422    14245    14250    14462    14620    14573    14446 
   14314    14183    14207    14418    14531    14388    14220    14300 
   14478    14500    14519    14634    14654    14544    14430    14416 
   14442    14404    14420    14431    14260    14166    14419    14793 
   14837    14489    14241    14327    14449    14439    14404    14446 
   14415    14157    13996    14200    14478    14524    14440    14484 
   14608    14575    14477    14520    14581    14530    14505    14563 
   14570    14500    14404    14296    14256    14326    14527    14835 
   14998    14809    14395    14126    14257    14573    14743    14728 
   14543    14297    14266    14503    14713    14647    14457    14426 
   14517    14586    14621    14551    14365    14183    14079    14107 
   14247    14424    14536    14463    14322    14315    14400    14436 
   14376    14328    14458    14661    14685    14512    14388    14446 
   14470    14347    14264    14377    14647    14874    14916    14783 
   14540    14335    14277    14305    14442    14739    14960    14801 
   14326    13999    14202    14663    14802    14523    14214    14191 
   14385    14554    14581    14472    14318    14339    14594    14793 
   14793    14751    14671    14500    14409    14555    14702    14480 
   14137    14261    14716    14936    14790    14459    14156    14065 
   14257    14575    14666    14459    14328    14466    14686    14787 
   14683    14411    14150    14096    14310    14557    14493    14211 
   14065    14131    14311    14515    14654    14597    14328    14142 
   14192    14318    14457    14561    14521    14405    14422    14565 
   14563    14443    14473    14472    14193    13942    14102    14555 
   14872    14944    14867    14536    14143    14166    14554    14852 
   14828    14604    14407    14359    14500    14736    14823    14628 
   14283    14061    14177    14463    14554    14435    14361    14392 
   14386    14351    14407    14515    14547    14466    14407    14501 
   14650    14674    14558    14430    14378    14388    14484    14631 
   14608    14296    13921    13863    14154    14432    14509    14489 
   14488    14527    14450    14207    14060    14146    14256    14133 
   13910    14035    14527    14898    14879    14554    14195    14057 
   14160    14357    14439    14350    14295    14381    14508    14612 
   14661    14674    14715    14742    14683    14446    14033    13764 
   13910    14368    14854    15080    15002    14723    14434    14382 
   14466    14461    14470    14655    14917    14922    14627    14408 
   14412    14469    14469    14455    14548    14663    14565    14346 
   14288    14405    14561    14737    14982    15088    14825    14467 
   14386    14469    14526    14550    14539    14465    14322    14231 
   14296    14397    14469    14494    14407    14226    13976    13815 
   14041    14598    15006    14943    14654    14555    14584    14485 
   14342    14219    14076    14095    14354    14539    14412    14249 
   14368    14616    14694    14536    14276    14148    14287    14539 
   14654    14666    14732    14816    14789    14692    14709    14787 
   14616    14237    14096    14319    14513    14408    14203    14227 
   14457    14523    14289    14077    14173    14476    14764    14940 
   14862    14548    14372    14569    14920    15020    14723    14304 
   14164    14482    14985    15107    14692    14160    14007    14365 
   14855    14955    14612    14185    13976    14035    14311    14708 
   14912    14774    14631    14652    14590    14330    14098    14052 
   14129    14358    14685    14798    14598    14408    14496    14658 
   14589    14426    14377    14403    14508    14646    14609    14380 
   14189    14272    14503    14531    14355    14188    14177    14459 
   14831    14894    14609    14268    14220    14474    14636    14535 
   14288    14037    13930    14049    14346    14582    14534    14427 
   14547    14748    14790    14689    14575    14485    14411    14422 
   14573    14840    15056    14944    14462    13983    13879    14081 
   14299    14395    14397    14385    14517    14885    15201    15018 
   14401    13882    13753    13942    14331    14685    14689    14392 
   14200    14289    14322    14118    14057    14219    14256    14310 
   14750    15329    15454    15071    14621    14297    14119    14243 
   14440    14179    13610    13448    13888    14517    14971    15141 
   14939    14328    13743    13717    14148    14532    14613    14559 
   14659    14909    15091    14970    14454    13814    13451    13555 
   13933    14212    14449    14812    15043    14998    14808    14539 
   14354    14408    14608    14692    14473    14176    14135    14341 
   14629    14874    14975    14802    14380    14133    14328    14677 
   14824    14697    14496    14499    14727    14908    14832    14632 
   14535    14486    14345    14214    14230    14353    14558    14736 
   14582    14168    13961    14083    14269    14413    14611    14910 
   15180    15117    14697    14372    14446    14656    14631    14423 
   14272    14210    14241    14373    14457    14419    14432    14628 
   14872    14979    14924    14706    14304    13944    13903    14116 
   14400    14594    14665    14762    14793    14632    14408    14185 
   14058    14096    14158    14125    14042    14143    14496    14793 
   14879    14806    14557    14261    14179    14332    14484    14490 
   14484    14621    14860    15039    15025    14689    14049    13478 
   13366    13728    14296    14750    14958    14976    14851    14713 
   14710    14744    14640    14504    14521    14513    14327    14297 
   14589    14723    14411    14035    13983    14218    14554    14825 
   14786    14349    13999    14270    14805    14914    14629    14292 
   14050    14011    14118    14176    14142    14181    14449    14763 
   14867    14808    14762    14859    14966    14773    14292    13791 
   13460    13471    13944    14634    15020    14960    14750    14562 
   14458    14538    14727    14748    14408    13934    13751    13981 
   14449    14817    14801    14530    14369    14436    14665    14925 
   14966    14679    14307    14164    14327    14654    14833    14557 
   13923    13440    13556    14303    15199    15662    15556    15211 
   14913    14523    13902    13344    13232    13537    13988    14411 
   14705    14854    15010    15229    15240    14913    14461    14008 
   13745    13979    14607    15153    15259    14929    14369    13824 
   13639    13942    14351    14512    14575    14710    14767    14698 
   14674    14712    14651    14507    14446    14489    14519    14476 
   14435    14461    14553    14631    14629    14561    14280    13772 
   13436    13558    14064    14650    14941    14773    14385    14277 
   14462    14524    14458    14507    14567    14388    14116    14218 
   14627    14833    14638    14180    13722    13551    13842    14423 
   14794    14782    14716    14786    14827    14694    14553    14449 
   14099    13672    13716    14273    14887    15072    14821    14521 
   14296    14162    14245    14509    14713    14558    14208    14035 
   13921    13906    14355    15052    15399    15253    15055    15106 
   15175    15025    14731    14539    14651    14945    15051    14690 
   14057    13575    13365    13336    13628    14420    15286    15476 
   14974    14380    14288    14755    15016    14624    14102    14046 
   14435    14755    14686    14351    13977    13894    14234    14602 
   14719    14644    14432    14293    14347    14396    14343    14234 
   14261    14642    15183    15565    15654    15319    14647    14049 
   13825    13972    14305    14538    14443    14094    13917    14223 
   14774    15129    15090    14790    14534    14408    14364    14467 
   14629    14597    14285    13977    14027    14276    14359    14326 
   14332    14393    14557    14885    15264    15361    14926    14142 
   13468    13327    13797    14369    14513    14311    14168    14270 
   14478    14679    14864    14886    14671    14338    14119    14300 
   14782    14970    14496    13756    13424    13595    13915    14222 
   14454    14450    14247    14177    14517    15097    15337    14944 
   14318    13942    13964    14308    14612    14644    14665    14832 
   14914    14582    13941    13647    13873    14157    14384    14661 
   14975    15248    15183    14710    14183    13946    14148    14411 
   14288    14123    14407    14940    15140    14796    14351    14273 
   14601    15026    15039    14613    14264    14222    14440    14786 
   14956    14739    14250    13815    13803    14310    14886    14963 
   14598    14422    14794    15304    15279    14661    14089    14025 
   14162    14206    14373    14616    14594    14469    14590    14845 
   14889    14748    14771    15009    15151    15039    14810    14658 
   14619    14616    14557    14358    14046    13996    14546    15283 
   15426    14854    14229    14060    14129    14085    14000    14098 
   14311    14416    14457    14540    14512    14235    13965    13992 
   14162    14169    13991    13898    14085    14391    14613    14737 
   14692    14449    14247    14254    14314    14362    14590    14894 
   14804    14315    14006    14107    14224    14044    13738    13648 
   14033    14885    15639    15697    15128    14463    14025    13732 
   13605    13780    14034    14141    14208    14401    14639    14666 
   14490    14303    14203    14295    14547    14735    14787    14751 
   14530    14056    13581    13610    14146    14517    14422    14218 
   14233    14431    14659    14928    15265    15489    15441    15175 
   14823    14512    14264    13980    13775    13864    14069    14127 
   14095    14095    14285    14729    15105    15117    14948    15028 
   15330    15311    14786    14135    13772    13853    14220    14581 
   14764    14814    14829    14802    14760    14755    14644    14343 
   14106    14197    14520    14716    14578    14288    14148    14307 
   14671    14887    14704    14161    13586    13533    14081    14571 
   14562    14361    14401    14584    14586    14455    14281    14108 
   14291    14887    15233    14918    14405    14172    13964    13541 
   13350    13737    14472    15244    15831    16006    15607    14806 
   14188    14045    14112    14095    13967    13944    14185    14447 
   14419    14210    14111    14222    14364    14350    14409    14809 
   15322    15566    15371    14872    14312    13788    13560    13876 
   14447    14763    14669    14386    14237    14455    15007    15385 
   15117    14461    14062    14162    14557    14972    15145    14953 
   14642    14557    14623    14446    14014    13821    14008    14183 
   14185    14261    14497    14663    14692    14802    14937    14843 
   14602    14424    14274    14099    14054    14251    14455    14369 
   14115    14031    14177    14332    14281    14079    14089    14526 
   15103    15314    14920    14261    13788    13664    13950    14393 
   14413    13990    13807    14188    14629    14666    14482    14403 
   14447    14602    14866    15024    14845    14366    13848    13679 
   13960    14319    14472    14459    14477    14700    14966    14943 
   14613    14262    14116    14099    14188    14528    14914    15014 
   14901    14860    15018    15156    15051    14801    14489    14153 
   13876    13659    13636    13980    14521    14951    15026    14756 
   14493    14434    14526    14731    14971    15156    15149    14905 
   14658    14415    14122    14029    14062    13956    13918    14220 
   14669    14874    14773    14574    14382    14266    14231    14079 
   13913    14180    14790    15128    14929    14590    14554    14643 
   14571    14492    14548    14650    14705    14781    14910    14847 
   14454    14004    13878    14192    14611    14747    14631    14381 
   14054    13845    13895    14170    14446    14499    14458    14520 
   14674    14844    14936    14939    14898    14756    14530    14357 
   14276    14297    14372    14281    13980    13709    13747    14094 
   14338    14243    14075    13999    13922    14004    14451    15021 
   15267    15106    14855    14658    14412    14223    14156    14040 
   13848    13802    14172    14844    15322    15318    14916    14516 
   14496    14704    14789    14652    14381    14193    14274    14578 
   14860    14804    14422    14087    14096    14462    14860    14913 
   14609    14297    14389    14867    15168    14966    14575    14354 
   14364    14616    14889    14773    14304    13915    13882    14085 
   14261    14345    14351    14392    14666    14974    14987    14797 
   14654    14515    14157    13788    13830    14156    14370    14335 
   14234    14368    14773    15255    15499    15287    14935    14778 
   14571    14218    14034    14048    13952    13630    13409    13618 
   14062    14388    14447    14301    14315    14693    15068    14989 
   14451    13930    13929    14430    14933    14917    14376    13876 
   13849    14184    14503    14578    14494    14316    14077    14148 
   14667    15016    14709    14134    13927    14133    14440    14770 
   15010    14925    14584    14292    14173    14162    14331    14719 
   15079    15214    15153    15051    15072    15159    15067    14689 
   14220    13923    13810    13817    13999    14274    14459    14551 
   14621    14712    14837    14952    14960    14805    14575    14523 
   14625    14492    14130    13886    13722    13518    13432    13660 
   14080    14305    14361    14559    14744    14690    14651    14806 
   14889    14724    14551    14492    14274    13906    13863    14274 
   14729    14871    14704    14540    14598    14728    14793    14832 
   14818    14736    14623    14476    14320    14137    13884    13757 
   14010    14567    15018    14982    14600    14431    14739    15129 
   15034    14457    13996    14068    14458    14827    14994    14878 
   14656    14534    14490    14508    14567    14472    14104    13717 
   13629    13802    14046    14303    14416    14296    14241    14481 
   14791    14901    14778    14542    14291    14139    14241    14477 
   14584    14600    14724    14928    14972    14779    14488    14214 
   14049    14084    14280    14443    14472    14449    14413    14322 
   14227    14202    14126    13918    13857    14233    14736    14824 
   14499    14199    14058    13913    13852    14083    14436    14604 
   14679    14913    15179    15202    14974    14683    14539    14542 
   14411    14017    13645    13720    14250    14709    14816    14912 
   15128    15210    15076    14829    14747    14949    15103    15021 
   14825    14706    14800    14859    14596    14134    13841    14073 
   14670    15071    15128    14968    14634    14277    14183    14382 
   14584    14667    14689    14619    14621    14781    14769    14440 
   13981    13591    13448    13663    14172    14634    14682    14418 
   14175    14096    14126    13990    13622    13528    13976    14511 
   14647    14457    14320    14420    14708    15083    15349    15271 
   14914    14593    14404    14243    14076    13819    13498    13425 
   13788    14431    14974    15047    14766    14631    14847    15190 
   15292    15034    14679    14408    14243    14270    14295    14002 
   13564    13424    13686    14060    14303    14459    14581    14590 
   14561    14697    14901    14932    14783    14570    14443    14523 
   14801    15071    15020    14666    14281    14015    13977    14138 
   14320    14459    14508    14488    14565    14764    14882    14762 
   14562    14462    14288    13987    13871    14021    14185    14247 
   14361    14642    14989    15179    15138    15024    14932    14894 
   14955    15009    14929    14655    14326    14231    14273    14176 
   14056    14077    14166    14269    14393    14555    14746    14926 
   15024    14910    14628    14355    14129    14022    14126    14308 
   14369    14260    14079    13937    13954    14172    14357    14381 
