Origin Time       2024/04/02 04:24:00
Lat.              40.133
Long.             141.712
Depth. (km)       71
Mag.              6.0
Station Code      IWT008
Station Lat.      39.0815
Station Long.     141.7093
Station Height(m) 24
Record Time       2024/04/02 04:24:58
Sampling Freq(Hz) 100Hz
Duration Time(s)  104
Dir.              U-D
Scale Factor      7845(gal)/8223790
Max. Acc. (gal)   12.612
Last Correction   2024/04/02 04:24:57
Memo.             
[...]
  -36651   -38385   -42518   -45879   -46313   -44363   -41553   -37736 
  -35232   -36325   -39919   -43436   -44005   -42373   -41658   -41912 
  -40868   -40131   -41673   -41044   -38583   -39264   -40459   -40007 
  -40190   -41735   -43541   -42722   -39796   -38226   -38412   -40421 
  -41914   -40741   -39830   -38961   -37989   -39480   -41431   -41700 
  -39094   -35113   -35806   -39865   -41883   -41790   -41216   -42596 
  -44658   -42808   -39307   -38518   -39600   -42147   -44335   -43108 
  -41990   -41723   -39501   -38396   -38195   -36498   -35359   -36439 
  -40447   -44014   -44282   -44332   -43478   -41615   -42503   -42643 
  -40120   -39287   -38994   -39360   -42260   -42673   -40610   -40371 
  -40313   -39501   -37968   -36130   -37986   -42516   -43638   -41897 
  -42159   -43486   -41565   -37700   -36413   -38612   -42500   -43590 
  -40598   -39771   -40795   -39501   -40069   -42263   -40944   -39204 
  -40567   -42002   -41192   -39501   -39433   -42907   -46522   -43270 
  -36381   -36829   -42144   -40680   -34967   -34497   -39066   -45081 
  -47621   -43526   -39758   -40336   -40995   -40603   -39355   -37137 
  -37220   -40510   -42851   -42947   -41700   -39433   -38796   -39784 
  -40363   -40393   -39996   -41073   -43919   -44500   -41061   -38080 
  -38893   -40795   -42261   -42627   -40003   -38605   -41760   -44383 
  -43438   -40292   -37010   -36647   -39090   -41187   -41208   -40450 
  -40983   -41435   -39737   -37123   -37073   -41040   -43551   -41458 
  -40427   -41389   -41617   -42028   -39880   -36093   -37609   -42024 
  -43573   -43486   -42525   -40888   -41023   -40988   -38763   -37573 
  -37924   -39609   -42645   -43040   -41485   -40252   -38375   -38754 
  -40521   -40254   -40787   -41624   -40986   -40725   -40360   -40111 
  -40062   -39397   -39664   -39818   -39478   -41393   -43278   -43056 
  -42669   -40946   -38638   -38754   -39401   -39544   -40470   -40826 
  -40740   -41673   -41544   -40679   -40976   -40284   -39873   -41345 
  -41794   -41787   -42064   -41044   -40317   -40509   -39445   -37929 
  -38955   -41754   -42346   -40505   -39595   -40683   -42838   -44470 
  -42947   -39579   -39299   -40856   -40437   -39413   -38346   -37482 
  -39626   -42349   -41326   -40643   -42336   -41513   -39765   -39444 
  -38965   -39972   -40748   -39251   -38743   -39375   -39900   -40378 
  -40508   -41440   -42236   -40420   -38484   -39885   -42317   -42554 
  -40751   -39619   -41166   -41991   -40489   -39679   -40255   -41769 
  -42203   -40720   -40196   -41204   -42776   -42822   -40221   -38940 
  -39725   -39667   -38817   -37427   -37485   -40644   -42649   -41600 
  -40745   -40609   -40088   -40343   -41446   -41800   -41578   -41199 
  -40582   -40425   -40570   -40092   -39168   -39499   -41967   -44266 
  -43009   -39162   -37802   -39402   -40635   -41045   -40981   -41528 
  -41887   -39374   -38152   -41237   -43324   -41956   -39159   -37039 
  -38075   -41478   -43004   -41580   -40775   -42383   -42738   -40336 
  -39301   -39897   -40761   -42206   -41095   -38932   -38894   -38172 
  -38448   -40672   -40732   -41083   -42229   -40965   -41538   -43065 
  -40763   -38982   -39424   -40350   -42110   -41758   -39676   -39981 
  -42114   -42691   -40208   -38049   -38604   -40150   -41943   -41617 
  -39197   -39436   -41481   -42183   -41295   -38799   -38396   -40940 
  -41215   -40446   -40956   -39829   -38658   -39349   -38847   -37990 
  -39931   -42318   -42965   -43167   -42357   -40541   -39907   -40177 
  -39996   -40076   -41185   -41985   -40902   -39538   -39826   -39837 
  -39656   -41165   -41598   -41597   -43295   -42329   -39742   -38928 
  -37669   -38539   -42720   -43958   -41374   -39348   -39316   -40876 
  -42163   -40624   -38402   -38801   -40568   -42191   -42348   -40267 
  -39213   -39752   -40123   -41678   -42001   -39353   -38850   -40583 
  -40957   -41283   -41250   -39567   -38634   -39672   -41813   -42946 
  -41499   -40103   -40802   -42076   -41840   -39167   -37454   -38705 
  -40401   -42780   -43526   -40689   -39671   -41033   -41273   -40301 
  -39006   -39336   -41403   -42151   -40431   -39201   -40432   -41589 
  -41278   -40188   -39036   -39496   -40695   -41256   -41085   -39577 
  -39638   -41998   -41960   -39536   -38026   -37948   -39094   -41087 
  -42553   -42685   -41611   -40063   -39722   -39954   -39152   -39482 
  -40899   -40911   -40946   -40748   -39744   -41130   -42506   -41197 
  -41021   -41299   -40325   -40369   -41338   -42921   -44304   -43380 
  -40886   -39075   -39008   -40146   -41311   -40840   -38932   -38445 
  -39943   -42159   -43251   -42574   -42099   -41188   -40671   -41724 
  -40714   -38684   -37960   -38299   -41212   -42655   -39054   -36613 
  -39118   -41773   -41481   -40414   -39802   -40409   -42369   -41921 
  -38410   -36855   -38889   -40995   -41391   -41044   -41254   -42115 
  -41300   -39410   -39233   -39885   -40729   -41139   -40243   -40497 
  -41432   -40738   -40192   -40594   -40788   -40477   -39221   -38168 
  -39955   -42801   -43127   -41582   -39353   -38462   -40527   -41453 
  -40063   -40493   -41562   -40568   -39191   -39020   -40738   -42905 
  -42029   -39471   -39799   -42151   -42911   -41222   -39636   -41135 
  -41921   -39401   -38908   -40720   -40899   -39815   -38905   -39775 
  -42130   -42074   -39614   -38271   -38604   -39891   -40212   -38589 
  -38707   -41289   -42747   -43433   -43564   -40786   -37436   -37129 
  -39752   -43128   -44651   -44417   -43187   -40824   -39028   -38295 
  -38880   -41222   -41203   -38475   -38223   -39681   -40173   -40439 
  -40311   -40433   -41895   -42653   -41809   -41260   -41154   -40394 
  -40108   -40975   -40788   -40111   -40566   -40267   -40724   -43476 
  -43536   -39964   -38338   -39634   -40347   -40981   -42784   -42546 
  -40815   -40396   -38936   -38065   -40730   -41959   -40084   -38645 
  -38767   -41355   -43816   -42263   -40325   -40829   -40589   -38711 
  -38072   -40859   -43891   -42994   -39768   -37638   -39024   -41589 
  -41079   -40200   -39896   -38242   -38784   -40360   -39232   -39953 
  -42816   -42635   -42182   -43255   -42076   -40540   -39731   -37177 
  -36879   -39297   -39077   -37962   -38751   -40803   -42788   -42434 
  -41478   -42021   -41771   -40859   -40475   -39622   -39868   -41183 
  -41288   -41557   -41775   -40937   -40498   -40378   -41153   -41931 
  -39267   -36518   -38747   -43140   -45042   -42190   -37841   -38048 
  -40601   -40401   -38057   -38306   -42897   -45245   -43070   -41241 
  -40151   -39827   -40092   -39055   -39140   -40736   -41632   -41496 
  -39243   -37835   -39766   -40977   -40856   -41358   -41478   -40871 
  -39532   -38832   -40991   -43528   -42911   -39330   -35969   -37829 
  -43154   -44632   -43233   -41627   -39064   -39563   -42070   -40844 
  -39538   -41079   -41315   -40308   -39966   -39097   -38545   -39341 
  -40285   -41289   -42310   -42094   -41168   -40867   -39873   -38518 
  -39028   -39939   -40548   -41453   -40886   -39483   -39575   -40802 
  -42059   -42392   -40730   -38686   -39294   -42028   -43471   -41908 
  -39870   -40522   -42484   -42248   -40315   -39067   -37898   -37608 
  -39222   -40454   -40626   -39762   -38280   -38099   -39406   -41146 
  -42711   -43263   -42032   -40879   -40594   -40254   -41532   -42913 
  -41970   -40674   -38962   -37793   -40624   -43880   -42816   -40907 
  -41381   -41712   -40664   -40028   -40248   -40514   -40174   -39309 
  -39425   -41635   -43837   -42688   -39572   -38450   -39379   -40630 
  -41378   -40722   -39756   -40234   -41723   -42643   -41010   -38551 
  -37760   -37361   -38013   -39781   -41291   -43291   -43622   -41204 
  -39723   -39494   -40039   -42256   -42349   -40396   -41596   -43062 
  -41412   -40412   -39885   -38842   -40005   -40443   -38456   -38755 
  -40761   -41458   -41925   -41474   -39417   -39700   -42277   -41547 
  -38990   -38300   -37473   -38826   -42527   -42098   -39384   -38063 
  -37849   -40625   -42961   -40277   -36601   -37158   -41323   -43835 
  -41619   -39106   -40552   -42340   -41774   -41050   -40367   -39835 
  -40090   -39926   -39496   -39949   -40513   -40022   -41054   -43831 
  -43390   -42125   -42005   -39216   -37987   -39714   -40028   -40720 
  -42067   -42626   -42402   -40386   -38718   -39640   -41215   -40919 
  -40165   -41542   -42820   -43100   -43059   -41256   -41134   -43194 
  -42107   -39384   -37551   -37176   -39793   -41602   -40432   -39071 
  -38520   -40105   -41528   -39113   -38136   -41547   -44622   -45798 
  -43640   -38969   -38146   -39856   -40348   -41627   -42102   -41254 
  -40336   -37231   -36281   -40734   -43549   -42323   -40092   -37640 
  -37840   -41045   -42547   -41654   -39656   -37675   -39472   -43461 
  -43401   -38769   -35190   -38034   -43799   -44957   -41836   -38898 
  -39334   -41883   -42514   -41084   -38777   -38862   -41613   -40878 
  -39376   -40875   -40517   -39827   -40593   -39564   -39217   -40189 
  -39799   -39806   -41013   -42155   -42165   -41562   -42084   -42025 
  -41342   -41774   -41507   -40506   -39260   -37824   -38326   -39750 
  -39870   -39523   -40490   -42167   -41457   -39869   -40610   -41223 
  -40851   -41256   -41323   -41130   -40844   -38573   -37593   -40551 
  -42947   -44100   -44432   -41484   -38927   -38800   -38229   -38955 
  -41257   -41430   -40162   -39683   -39306   -39197   -40840   -42439 
  -41810   -41210   -40842   -39609   -40074   -41461   -41885   -42724 
  -43054   -41592   -39295   -38090   -39100   -40436   -40366   -38691 
  -38429   -41334   -41343   -38465   -38566   -40250   -41824   -42793 
  -42639   -42539   -40888   -38306   -38646   -41100   -42318   -41195 
  -39657   -40532   -41851   -40406   -38620   -39437   -42380   -44000 
  -41296   -37686   -37579   -39721   -41577   -42318   -41170   -39469 
  -40167   -41403   -40009   -38068   -38641   -41662   -44404   -44161 
  -41598   -39745   -39611   -39395   -38969   -40139   -41648   -41480 
  -41153   -40775   -38981   -37876   -38592   -40008   -41499   -41285 
  -39935   -40294   -41277   -40841   -40020   -40207   -42090   -43870 
  -41770   -38182   -38016   -39204   -38807   -38871   -41092   -42665 
  -41642   -39987   -38597   -38583   -41169   -42796   -42113   -41330 
  -39297   -37848   -39077   -39325   -39043   -40312   -41943   -44774 
  -46326   -42068   -37188   -37945   -41083   -42214   -40207   -38087 
  -40296   -43580   -43274   -41316   -39869   -39394   -40528   -41010 
  -39172   -38334   -39933   -41365   -41230   -39966   -39333   -40662 
  -42415   -41527   -38562   -38202   -40235   -41858   -44401   -45593 
  -43136   -40505   -38504   -38101   -40556   -41665   -41423   -42450 
  -41810   -39696   -39297   -40620   -41921   -41391   -40662   -40999 
  -41143   -41814   -42796   -44375   -45702   -42259   -37898   -38611 
  -41085   -42893   -43538   -42851   -43719   -45011   -42626   -38705 
  -38500   -40409   -40822   -41904   -42777   -40591   -39700   -40649 
  -39033   -39253   -43194   -43054   -40244   -41763   -43455   -42171 
  -41705   -41264   -41868   -44354   -42741   -39569   -40311   -41940 
  -42106   -38627   -33702   -34653   -38454   -38832   -37083   -35348 
  -35545   -37137   -37802   -38323   -38082   -37292   -38016   -38249 
  -37957   -39746   -40705   -39572   -40066   -40765   -41262   -44493 
  -44706   -40328   -38145   -35648   -32005   -32512   -34792   -36717 
  -40238   -41139   -34975   -29581   -31438   -36373   -42063   -45389 
  -43660   -39923   -35714   -35646   -41712   -43641   -39459   -38061 
  -39393   -41499   -44409   -43216   -40355   -42365   -44415   -41851 
  -38861   -37805   -37423   -38308   -40836   -42871   -44474   -47256 
  -48338   -46641   -45623   -44559   -43614   -45393   -45698   -43926 
  -45137   -45577   -43989   -44298   -42743   -41206   -45589   -48828 
  -43029   -34011   -31398   -33439   -34951   -37129   -39348   -41936 
  -45924   -45318   -39303   -35499   -36406   -39205   -43472   -48182 
  -49925   -49747   -48274   -46461   -47332   -45142   -38045   -34627 
  -38465   -43721   -41300   -34074   -31612   -33848   -37093   -36810 
  -31864   -29921   -32819   -33782   -33660   -36930   -40626   -44149 
  -49130   -51213   -48142   -42253   -37824   -38408   -41434   -43799 
  -45141   -44986   -43005   -38422   -33349   -32123   -35621   -39397 
  -38751   -35814   -34263   -36097   -40119   -42074   -43810   -44120 
  -39663   -37793   -40605   -44134   -47947   -47428   -41555   -38233 
  -42140   -49368   -53072   -48996   -40741   -38414   -40595   -40165 
  -41130   -43343   -41852   -37386   -32321   -32678   -38377   -40246 
  -38088   -37523   -40055   -45060   -47304   -42809   -37056   -33921 
  -31706   -33166   -39447   -44932   -46372   -44983   -42969   -41243 
  -40143   -39711   -40275   -43044   -43403   -39186   -39364   -43777 
  -43521   -40691   -38870   -37068   -35739   -34867   -37129   -41208 
  -42138   -44223   -46560   -43345   -40074   -37824   -34855   -37284 
  -41485   -40189   -38422   -40150   -40896   -39116   -38171   -38516 
  -39857   -41096   -40733   -42302   -44676   -42206   -37134   -35058 
  -37986   -43764   -46300   -43821   -42666   -43499   -42865   -44000 
  -45760   -43972   -39426   -34595   -36159   -42688   -43525   -40756 
  -40981   -42577   -43649   -42259   -38578   -37721   -39850   -40868 
  -41547   -43879   -45839   -45335   -41794   -33886   -27355   -31248 
  -38951   -39513   -37118   -38215   -40821   -43248   -44918   -45320 
  -46330   -45955   -43418   -43200   -43746   -41764   -39766   -39051 
  -38421   -38619   -39775   -39946   -40625   -43293   -43710   -42017 
  -43005   -44595   -44481   -43788   -40960   -38384   -39424   -39872 
  -38144   -36763   -36505   -37420   -37083   -37197   -40911   -42041 
  -38475   -37831   -41023   -42105   -41584   -43224   -44562   -43511 
  -41947   -40386   -39380   -38364   -37278   -37725   -37174   -35604 
  -35866   -36377   -36113   -35464   -35725   -38379   -40306   -39954 
  -40744   -43186   -44748   -43486   -40107   -38616   -38990   -39499 
  -42199   -42766   -37378   -34030   -34874   -35526   -37752   -40416 
  -40340   -39451   -38848   -38988   -42919   -47868   -47977   -46921 
  -48627   -50681   -50128   -47586   -47794   -48292   -45053   -41528 
  -37828   -35176   -36794   -37642   -36666   -39494   -42761   -42785 
  -42006   -39445   -38237   -40745   -40795   -39634   -41276   -43349 
  -45597   -45940   -41939   -40142   -41512   -39661   -37350   -36019 
  -34623   -36217   -37539   -38280   -41624   -41292   -36462   -34751 
  -35613   -37449   -41639   -42353   -39731   -41863   -43892   -41114 
  -40348   -40259   -38179   -39771   -41999   -40343   -39565   -40753 
  -43560   -48119   -47927   -41868   -37469   -36294   -35727   -36178 
  -37183   -37473   -38410   -41335   -43671   -42358   -38799   -37901 
  -42313   -46846   -47021   -45670   -43669   -40512   -38736   -38666 
  -38705   -38476   -37806   -36761   -36876   -39121   -40828   -40936 
  -41832   -41296   -38642   -39595   -42614   -42188   -39634   -36972 
  -36055   -38395   -41204   -42935   -42746   -41053   -43557   -48347 
  -48053   -44316   -40888   -40038   -41804   -40952   -38938   -41064 
  -42979   -42593   -42724   -41218   -39679   -40645   -40818   -40909 
  -42205   -40988   -36786   -34188   -35344   -37223   -38153   -39118 
  -39735   -39987   -40250   -39262   -37017   -36491   -37963   -38736 
  -39629   -41091   -40506   -38643   -38510   -40288   -41386   -40387 
  -39852   -40697   -40981   -40702   -38996   -37111   -38713   -41399 
  -43214   -45260   -46390   -46383   -44373   -41782   -43455   -47089 
  -47961   -47183   -45048   -40930   -39108   -41489   -42568   -41947 
  -43552   -44439   -42599   -40080   -38739   -40957   -44454   -44597 
  -42178   -39815   -38389   -37835   -37517   -37359   -36398   -34689 
  -35237   -37523   -38504   -37654   -35861   -35438   -37245   -39316 
  -40286   -39768   -38631   -38265   -37651   -37301   -38982   -38811 
  -37974   -41098   -41581   -39216   -40710   -41628   -40119   -40521 
  -42496   -44035   -43714   -41917   -40918   -41003   -41418   -42021 
  -42481   -42072   -39860   -37839   -38480   -39804   -40554   -40890 
  -39490   -37584   -38869   -42923   -44767   -42924   -39781   -38306 
  -40764   -43386   -43066   -42076   -40868   -40594   -40953   -39638 
  -39016   -39729   -41185   -43725   -43785   -41334   -40419   -40922 
  -40968   -40637   -39933   -38994   -39561   -40883   -40940   -41535 
  -43216   -43722   -43536   -42525   -39978   -39286   -40807   -41642 
  -41281   -39384   -38608   -40716   -41855   -41839   -41381   -39582 
  -40427   -42496   -40899   -40045   -41833   -42225   -41278   -40406 
  -40027   -40108   -40405   -42009   -43654   -42114   -39325   -38681 
  -39094   -39884   -41709   -43218   -41895   -38790   -38524   -39860 
  -38892   -37786   -38998   -41797   -43228   -41659   -40620   -40649 
  -39549   -39699   -40660   -39839   -39091   -39247   -39771   -40810 
  -40643   -38851   -38317   -39332   -39424   -39055   -39397   -40008 
  -40483   -40431   -41337   -43181   -42218   -39356   -38727   -39637 
  -40556   -41592   -42677   -44070   -43605   -41035   -39502   -38672 
  -39177   -41177   -40832   -38638   -37616   -39139   -41987   -41724 
  -38969   -38179   -40101   -42431   -42056   -39982   -38975   -38919 
  -40347   -41960   -40780   -38681   -38947   -40119   -39604   -38261 
  -37810   -39102   -41571   -42978   -43191   -42677   -40224   -38242 
  -39652   -41839   -42664   -42439   -41035   -39194   -38514   -40401 
  -42573   -41443   -39233   -38566   -38800   -39997   -40375   -39316 
  -40373   -42272   -41943   -41508   -41717   -41962   -42306   -41260 
  -39690   -40404   -42151   -41222   -39395   -40678   -42784   -42885 
  -41798   -41631   -43488   -44118   -41823   -39411   -38493   -39333 
  -40329   -40053   -41065   -42758   -41586   -39474   -38901   -39715 
  -40811   -39896   -39048   -40725   -40246   -36967   -37517   -40320 
  -39406   -38446   -40271   -40718   -40495   -41754   -42457   -41679 
  -39556   -39302   -42098   -42353   -40767   -41080   -41189   -40315 
  -38808   -38520   -41328   -42707   -41539   -41202   -40178   -39753 
  -41256   -40548   -39070   -39208   -39395   -40429   -41494   -41291 
  -41629   -42439   -42346   -41551   -40910   -41238   -41596   -40995 
  -40986   -41122   -39503   -38576   -39806   -40393   -40768   -41764 
  -41681   -42361   -44431   -44784   -42951   -41173   -40309   -39429 
  -39683   -40532   -38703   -36109   -35888   -37993   -41133   -42484 
  -42003   -40873   -39114   -38900   -39671   -38952   -38259   -39360 
  -40767   -40757   -40267   -40108   -40370   -41214   -41959   -42915 
  -43355   -42360   -41771   -41242   -40333   -40680   -40930   -41374 
  -43121   -42527   -39671   -38372   -38095   -38070   -39147   -40378 
  -40932   -40360   -39089   -38863   -38681   -38735   -40878   -42205 
  -41154   -40239   -40826   -42854   -43818   -41517   -39564   -40456 
  -41125   -40972   -40848   -40081   -39819   -40609   -41343   -41274 
  -40333   -40375   -41631   -41403   -40841   -41288   -40551   -39294 
