Origin Time       2024/04/02 04:24:00
Lat.              40.133
Long.             141.712
Depth. (km)       71
Mag.              6.0
Station Code      IWT010
Station Lat.      38.9346
Station Long.     141.1264
Station Height(m) 31
Record Time       2024/04/02 04:25:00
Sampling Freq(Hz) 100Hz
Duration Time(s)  114
Dir.              E-W
Scale Factor      7845(gal)/8223790
Max. Acc. (gal)   12.332
Last Correction   2024/04/02 04:24:59
Memo.             
[...]
   -7530    -7512    -7900    -8313    -9026    -9504    -8876    -7982 
   -7997    -8556    -9093    -9632    -9991    -9940    -9576    -9101 
   -8968    -9489    -9887    -9440    -9007    -9531   -10308   -10206 
   -9482    -8888    -8019    -6802    -6713    -8158    -9251    -8721 
   -7677    -7445    -7576    -7206    -6655    -6615    -7045    -7510 
   -8014    -8930   -10061   -10656   -10262    -9255    -8688    -8845 
   -8899    -8824    -9204    -9425    -8889    -8472    -8915    -9563 
   -9455    -8644    -8023    -8046    -8422    -8938    -9486    -9645 
   -9076    -8064    -7419    -7639    -8453    -9329    -9883   -10053 
   -9960    -9528    -8977    -8959    -9471    -9787    -9614    -9310 
   -9239    -9277    -9062    -8831    -9178    -9564    -9031    -8333 
   -8577    -9003    -8753    -8419    -8298    -7977    -7758    -8251 
   -9200    -9741    -9458    -8838    -8494    -8425    -8506    -8625 
   -8452    -8347    -8958    -9666    -9718    -9416    -9077    -8802 
   -8642    -8542    -8545    -8687    -9027    -9360    -9159    -8626 
   -8557    -8895    -8949    -8824    -8911    -8889    -8694    -8544 
   -8232    -7800    -7327    -6791    -6943    -8189    -9427    -9667 
   -9194    -8679    -8407    -8375    -8542    -8950    -9560    -9953 
   -9794    -9525    -9448    -9196    -8838    -8819    -8880    -8608 
   -8430    -8721    -8939    -8591    -7970    -7678    -7793    -7785 
   -7676    -7977    -8368    -8407    -8685    -9483    -9913    -9647 
   -9336    -8961    -8324    -8280    -9228    -9983    -9796    -9437 
   -9286    -8872    -8433    -8777    -9659    -9726    -8667    -7743 
   -7682    -8291    -9481   -10628   -10501    -9131    -8050    -7994 
   -8260    -8352    -8301    -7993    -7619    -7797    -8448    -8856 
   -8845    -8675    -8426    -8152    -8158    -8787    -9513    -9389 
   -8757    -8444    -8154    -7634    -7546    -8410    -9817   -10601 
  -10181    -9342    -8941    -9159    -9968   -11064   -11812   -11581 
  -10388    -9162    -8456    -7832    -7435    -8070    -9262    -9724 
   -9505    -9472    -9559    -9217    -8637    -8303    -8060    -7788 
   -7915    -8330    -8622    -8892    -9057    -9057    -9374    -9960 
  -10060    -9555    -9038    -8608    -8216    -8262    -8642    -8889 
   -8842    -8401    -7699    -7326    -7704    -8430    -8812    -8842 
   -8806    -8554    -7955    -7493    -7488    -7566    -7663    -8000 
   -8378    -8704    -9104    -9306    -9140    -9112    -9467    -9477 
   -8626    -7715    -7852    -8721    -9109    -9027    -9286    -9613 
   -9327    -8746    -8478    -8395    -8078    -7750    -7861    -8232 
   -8653    -9251    -9886   -10204    -9898    -9015    -8320    -8399 
   -9012    -9652    -9764    -9123    -8398    -8128    -8050    -8144 
   -8692    -9369    -9495    -8880    -8063    -7673    -7832    -8264 
   -8514    -8496    -8634    -9051    -9429    -9485    -9108    -8634 
   -8518    -8644    -8922    -9320    -9293    -8953    -9190    -9749 
   -9624    -9081    -9150    -9760   -10004    -9733    -9567    -9610 
   -9348    -8799    -8565    -8671    -8611    -8421    -8372    -8441 
   -8737    -9213    -9402    -9456    -9845    -9818    -8506    -6917 
   -6411    -6636    -6906    -7547    -8646    -9288    -9148    -9074 
   -9397    -9625    -9499    -9063    -8656    -8814    -9447    -9919 
   -9967    -9656    -9016    -8233    -7635    -7438    -7518    -7593 
   -8002    -9136   -10073    -9597    -8163    -7317    -7628    -8345 
   -8752    -9000    -9373    -9463    -9042    -8847    -9215    -9474 
   -9489    -9828   -10405   -10480    -9873    -9373    -9610   -10116 
  -10203    -9778    -8920    -7852    -7083    -6993    -7547    -8301 
   -8820    -9078    -9077    -8714    -8074    -7596    -7866    -8731 
   -9396    -9564    -9451    -9346    -9509    -9683    -9412    -8873 
   -8295    -7680    -7375    -7434    -7508    -7824    -8591    -9101 
   -8870    -8437    -8324    -8453    -8563    -8446    -8256    -8351 
   -8741    -9130    -9393    -9636    -9749    -9633    -9693    -9967 
   -9786    -9077    -8557    -8480    -8359    -7952    -7612    -7645 
   -8210    -9213    -9694    -8928    -7774    -7306    -7547    -8079 
   -8419    -8333    -8460    -9423   -10440   -10570   -10111    -9477 
   -8820    -8607    -8901    -9327    -9644    -9625    -9315    -8993 
   -8683    -8503    -8691    -8919    -8935    -9354   -10326   -10516 
   -9238    -7830    -7271    -7130    -7446    -8425    -9090    -8754 
   -8222    -8064    -7742    -7365    -8047    -9633   -10497   -10041 
   -9127    -8365    -7928    -8116    -8891    -9649    -9802    -9381 
   -9053    -9169    -9259    -8968    -8698    -8823    -9047    -8942 
   -8432    -7800    -7514    -7627    -7850    -8266    -8834    -9078 
   -9081    -9070    -8658    -7974    -7807    -8417    -9460   -10300 
  -10320    -9504    -8406    -7786    -7947    -8283    -8255    -8302 
   -9072   -10322   -11097   -10932   -10392    -9945    -9342    -8698 
   -8430    -8145    -7566    -7211    -7280    -7535    -8063    -9123 
  -10374   -10921   -10534    -9764    -8955    -8252    -7983    -8302 
   -8861    -9269    -9591    -9774    -9300    -8407    -8247    -9038 
   -9857   -10169   -10015    -9576    -9266    -9128    -8645    -7974 
   -7692    -7522    -7231    -7264    -7677    -8055    -8318    -8810 
   -9456    -9474    -8838    -8658    -9194    -9502    -9094    -8283 
   -7512    -7155    -7449    -8284    -9173    -9722    -9967    -9931 
   -9443    -8710    -8318    -8382    -8471    -8324    -7989    -7776 
   -8062    -8896    -9882   -10245    -9605    -8567    -7805    -7577 
   -7958    -8548    -8810    -8696    -8575    -8718    -8877    -8746 
   -8669    -9151    -9899   -10233    -9995    -9340    -8734    -8737 
   -8982    -8907    -8644    -8301    -7959    -7815    -7804    -7962 
   -8397    -8878    -9043    -8806    -8649    -9038    -9543    -9589 
   -9425    -9373    -9144    -8657    -8401    -8617    -8972    -9063 
   -8776    -8471    -8776    -9504    -9655    -9089    -8630    -8626 
   -8804    -8946    -9130    -9452    -9760    -9984   -10053    -9622 
   -8888    -8581    -8830    -9215    -9277    -8849    -8652    -9324 
   -9945    -9335    -7979    -7159    -7136    -7186    -6997    -7138 
   -7875    -8634    -8878    -8492    -7776    -7356    -7541    -8131 
   -8796    -9304    -9529    -9369    -8978    -8869    -9265    -9748 
   -9741    -9027    -8075    -7688    -7777    -7920    -8510    -9331 
   -9320    -8652    -8357    -8577    -9074    -9796   -10123    -9695 
   -9294    -9153    -8739    -8433    -8810    -9570   -10390   -10848 
  -10243    -9138    -8752    -8865    -8892    -9167    -9702    -9886 
   -9613    -9088    -8164    -7121    -6782    -7281    -7873    -7987 
   -7975    -8500    -9274    -9482    -9101    -8513    -7915    -7866 
   -8739    -9788   -10242   -10293   -10106    -9424    -8748    -8854 
   -9097    -8546    -7708    -7354    -7522    -8094    -8919    -9610 
   -9744    -9128    -8311    -8266    -8827    -9061    -9190    -9526 
   -9306    -8525    -8206    -8673    -9142    -8746    -7998    -8209 
   -9093    -9370    -9147    -9086    -8692    -7686    -7171    -7797 
   -8965    -9837    -9613    -8398    -7420    -7233    -7527    -8156 
   -8676    -8491    -8116    -8468    -9238    -9769   -10169   -10320 
   -9879    -9101    -8511    -8652    -9628   -10562   -10677   -10304 
  -10183   -10393   -10385   -10021    -9580    -9167    -9015    -9278 
   -9521    -9298    -8780    -8240    -7481    -6671    -6471    -6851 
   -7339    -7819    -8228    -8349    -8158    -7973    -8073    -8334 
   -8429    -8432    -8662    -8865    -8941    -9425    -9985    -9763 
   -9124    -8911    -9008    -8976    -8969    -9252    -9544    -9463 
   -9157    -8957    -8795    -8553    -8442    -8533    -8538    -8392 
   -8329    -8365    -8456    -8530    -8390    -8276    -8309    -7871 
   -7238    -7628    -8754    -9175    -8816    -8421    -7929    -7423 
   -7728    -8862    -9559    -9236    -8835    -8939    -9026    -8949 
   -9293   -10273   -11110   -10960   -10150    -9559    -9394    -9288 
   -9049    -8993    -9100    -8739    -8133    -8402    -9344    -9323 
   -8094    -7290    -7276    -6866    -6401    -7191    -8846   -10048 
  -10350    -9987    -9073    -7842    -7014    -7295    -8607    -9903 
  -10214    -9737    -9278    -9224    -9339    -9301    -9127    -8947 
   -8777    -8664    -8762    -8851    -8669    -8730    -9031    -8603 
   -7790    -7749    -8189    -8442    -8667    -9111    -9710   -10048 
   -9825    -9616   -10066   -10535   -10066    -9202    -9046    -9325 
   -9050    -8371    -8136    -8082    -7450    -6905    -7488    -8436 
   -8567    -8487    -9181   -10018    -9822    -8945    -8627    -8714 
   -8175    -7357    -7435    -8388    -9208    -9547    -9648    -9288 
   -8521    -8253    -8764    -9235    -9201    -9019    -9143    -9548 
   -9664    -9200    -8517    -7877    -7520    -7740    -8170    -8390 
   -8694    -9198    -9347    -8876    -8338    -8199    -8236    -8345 
   -8748    -9013    -8540    -7917    -7969    -8460    -9059    -9745 
  -10215   -10238    -9882    -9393    -9181    -9216    -9105    -9057 
   -9433    -9930   -10137    -9863    -9153    -8708    -9248   -10250 
  -10447    -9589    -8596    -7977    -7611    -7696    -8407    -9373 
   -9909    -9725    -9447    -9664   -10130   -10517   -10681   -10239 
   -8924    -7477    -7133    -7753    -8108    -8037    -8405    -9115 
   -8995    -7996    -7503    -7948    -8430    -8723    -9231    -9518 
   -8996    -8302    -8340    -8830    -8978    -8785    -8843    -9255 
   -9618    -9817    -9964    -9910    -9397    -8553    -8004    -8075 
   -8221    -8229    -8672    -9390    -9679    -9524    -9104    -8451 
   -7874    -7592    -7362    -7079    -7091    -7527    -8014    -8131 
   -7848    -7645    -7798    -7959    -7874    -7743    -7897    -8490 
   -9146    -9444    -9668   -10084   -10195    -9760    -9448    -9649 
   -9891   -10011   -10434   -10980   -10899   -10193    -9663    -9614 
   -9728   -10053   -10667   -11110   -11315   -11549   -11411   -10716 
  -10326   -10770   -11302   -11105   -10362    -9647    -9194    -8650 
   -7469    -6224    -5918    -6053    -5791    -5524    -5877    -6758 
   -7672    -8418    -9158    -9821   -10077    -9953    -9733    -9331 
   -8845    -8851    -9227    -9119    -8299    -7508    -7435    -8001 
   -8687    -8924    -8644    -8533    -8986    -9657   -10210   -10473 
  -10403   -10282   -10311   -10102    -9047    -6932    -4421    -2776 
   -2276    -2236    -2585    -3508    -4850    -6521    -7900    -7723 
   -6087    -5000    -5805    -7609    -8903    -9343    -9317    -8615 
   -7021    -5560    -5352    -6197    -7537    -9624   -12233   -13556 
  -12900   -12364   -13258   -13919   -13050   -11479    -9670    -7209 
   -4477    -2415    -1579    -1988    -3221    -4769    -6251    -7426 
   -8193    -8839   -10220   -12541   -14721   -16185   -17419   -18428 
  -18563   -17485   -15118   -11728    -8658    -7164    -6848    -6934 
   -7423    -8129    -8722    -9290    -9420    -8141    -5670    -3442 
   -2328    -2376    -3080    -3354    -3312    -4600    -7325    -9753 
  -11094   -11545   -10798    -8895    -7179    -6828    -7967   -10073 
  -12293   -14193   -15587   -16168   -16276   -16136   -15237   -13738 
  -12334   -10737    -8229    -5196    -3109    -2997    -4290    -5572 
   -5856    -5076    -3985    -3291    -3784    -6589   -11218   -15036 
  -15701   -12888    -8397    -5193    -4969    -6459    -7187    -6131 
   -4332    -3662    -5044    -8133   -11875   -14747   -15741   -15048 
  -13177   -10422    -7847    -6855    -6910    -6403    -5382    -5049 
   -6027    -8303   -11499   -14269   -14569   -11948    -8444    -6305 
   -6382    -8603   -11935   -14536   -15422   -14899   -13275   -10737 
   -7917    -5328    -3235    -2371    -3341    -5660    -8546   -11323 
  -12785   -12537   -12168   -13019   -14798   -16627   -17423   -16437 
  -14018   -10967    -7742    -4575    -2135    -1551    -3300    -6205 
   -8170    -8179    -6359    -2870     1138     3473     3080      588 
   -2982    -6565    -8596    -8379    -7215    -6458    -6625    -8256 
  -10987   -13524   -15196   -16052   -16475   -16776   -16363   -14203 
  -10241    -5582    -2134    -2003    -5147    -8868   -11169   -11942 
  -11308    -9776    -8650    -8797    -9805   -10854   -11689   -11913 
  -10871    -9093    -7836    -7520    -7916    -8580    -9020    -9236 
   -9436    -9768   -10511   -11449   -11414    -9591    -7144    -6374 
   -8253   -11538   -13760   -12880    -8992    -4511    -2216    -3122 
   -5756    -7672    -8212    -8581    -9810   -12052   -14107   -14085 
  -12008    -9324    -6581    -3955    -2124    -1614    -2689    -5626 
  -10223   -14989   -17864   -17821   -15075   -10578    -6135    -4000 
   -5059    -8148   -11684   -14224   -14157   -11593    -8756    -6839 
   -5294    -4132    -3993    -4463    -4707    -5067    -6038    -7267 
   -8147    -7933    -6458    -4984    -4695    -5481    -7250   -10129 
  -13088   -15024   -15587   -14138   -10855    -7435    -5377    -5328 
   -7067    -8830    -8595    -6878    -5823    -5676    -5513    -5753 
   -6987    -8626   -10110   -11539   -13039   -14862   -17363   -20066 
  -21740   -21226   -18108   -13589    -9698    -7496    -6990    -7865 
   -9585   -11271   -12025   -11423    -9308    -5891    -2316      125 
     827     -284    -2486    -4789    -6639    -7587    -7704    -7380 
   -6650    -5949    -5771    -5540    -4693    -3932    -4004    -4801 
   -6312    -8122    -9104    -9169    -8789    -7893    -7319    -8297 
  -10210   -11623   -12268   -12366   -11734   -10686    -9964    -9429 
   -8595    -7720    -7534    -8232    -8812    -8468    -8175    -9050 
  -10532   -11534   -11615   -10839    -9595    -8405    -7855    -8198 
   -8608    -8326    -8051    -8824   -10569   -12118   -12256   -10804 
   -8756    -7632    -8032    -8976    -9567    -9549    -8602    -7315 
   -6930    -7522    -8329    -8897    -9181    -9390    -9809   -10616 
  -11659   -12314   -11961   -10744    -9794   -10134   -11341   -12222 
  -12194   -11250    -9850    -8738    -8168    -7969    -8075    -8453 
   -8731    -8522    -8334    -8911    -9580    -9193    -8395    -8754 
  -10046   -10633    -9794    -8253    -7342    -7682    -8829   -10007 
  -10235    -9030    -7045    -5088    -3937    -4418    -6230    -8226 
  -10115   -12123   -13494   -13242   -11603    -9382    -6790    -3697 
    -808      573      487      -48     -904    -2301    -4149    -6350 
   -8631   -10708   -12359   -13333   -13684   -13811   -14176   -14885 
  -15523   -15739   -15400   -14249   -12403   -10540    -9019    -7944 
   -7960    -9711   -12622   -14818   -14910   -13497   -11904   -10463 
   -8846    -6871    -4843    -3477    -3123    -3188    -3196    -3859 
   -5537    -7284    -8579    -9684   -10536   -10885   -10544    -9296 
   -7341    -5447    -4310    -4203    -4988    -6012    -6596    -6355 
   -4884    -2566    -1197    -2074    -4558    -7453   -10165   -12016 
  -12201   -10878    -9273    -8472    -8455    -8642    -8756    -8488 
   -7512    -6369    -6215    -7433    -9381   -11412   -13266   -14705 
  -15408   -14800   -12646   -10189    -8974    -9165   -10269   -11578 
  -11596    -9304    -5744    -2590     -311      731     -247    -2674 
   -4868    -6203    -7163    -8067    -8792    -9262    -9923   -11075 
  -12160   -12858   -13676   -14931   -16241   -16870   -16453   -15448 
  -14500   -13984   -14061   -14307   -13824   -12569   -11522   -10962 
  -10513   -10408   -10625   -10528    -9977    -9163    -8340    -8197 
   -8961    -9792    -9873    -9109    -7970    -7240    -7755    -9821 
  -12239   -13146   -12131    -9892    -7110    -4661    -3357    -3248 
   -3541    -3591    -3877    -4658    -4887    -4059    -3029    -2521 
   -2836    -4149    -6070    -7985    -9545   -10520   -10802   -10666 
  -10736   -11036   -10736    -9796    -9317    -9863   -10920   -11678 
  -11226    -9266    -7295    -6646    -6459    -5926    -5603    -5884 
   -6428    -6737    -6717    -6494    -6304    -6690    -7468    -7885 
   -7955    -7889    -7820    -8214    -9049    -9697    -9891    -9798 
   -9429    -8746    -8360    -8880    -9585    -9736    -9968   -10540 
  -10692   -10336   -10206   -10466   -10585   -10470   -10706   -11364 
  -11762   -11828   -11990   -11985   -11716   -11940   -12787   -13142 
  -12050    -9883    -7794    -6552    -6376    -7071    -7712    -7159 
   -5535    -4384    -4806    -6219    -7538    -8683    -9892   -10426 
   -9730    -8773    -8571    -9049    -9736   -10270   -10515   -10096 
   -8546    -6585    -5867    -7007    -8704    -9522    -9223    -7962 
   -6478    -5849    -6084    -6893    -8287    -9744   -10566   -10601 
  -10253    -9942    -9902   -10291   -10565    -9871    -8364    -6995 
   -6516    -6972    -7825    -8457    -8719    -9246   -10451   -11772 
  -12725   -13414   -13674   -12993   -11627   -10500    -9702    -8869 
   -8456    -8730    -9032    -8760    -7997    -7267    -6843    -6720 
   -6862    -6809    -6211    -5918    -6656    -7454    -7555    -7977 
   -8988    -8831    -6909    -5188    -5200    -6307    -7410    -8387 
   -9316    -9390    -7897    -5925    -5252    -5875    -6520    -6808 
   -7144    -7630    -8128    -8484    -8689    -8865    -8939    -9045 
   -9672   -10816   -11637   -11496   -10960   -10975   -11481   -11759 
  -11480   -10625    -9216    -7879    -7607    -8452    -9493    -9748 
   -8835    -7592    -7196    -7446    -7554    -7476    -7303    -7011 
   -6750    -6646    -6705    -6913    -7657    -9479   -11871   -13431 
  -13536   -12561   -11101   -10042   -10088   -11134   -12610   -13477 
  -12837   -11152    -9668    -9157    -9655   -10615   -11209   -11009 
  -10204    -8985    -7608    -6727    -6805    -7777    -8823    -8877 
   -8195    -7697    -7134    -6230    -5837    -6255    -6795    -7514 
   -8752    -9900   -10512   -10747   -10727   -10710   -10747   -10415 
   -9490    -8330    -7676    -7850    -8482    -8930    -8625    -7738 
   -7057    -7025    -7618    -8461    -8962    -8905    -8606    -8322 
   -8027    -7823    -7879    -8074    -8414    -8928    -9261    -9495 
  -10438   -12307   -14044   -14368   -13035   -10887    -9094    -8145 
   -7535    -7063    -7398    -8750   -10297   -10855   -10044    -8800 
   -7777    -6885    -6507    -6724    -6696    -5975    -5179    -5148 
   -5629    -5805    -5861    -6311    -6975    -7649    -8237    -8483 
   -8394    -8316    -8444    -8646    -8661    -8351    -7946    -7884 
   -8483    -9923   -11817   -13008   -12950   -12109   -10777    -9246 
   -8176    -7851    -7942    -7874    -7612    -7568    -7460    -6893 
   -6520    -7167    -8745   -10590   -11848   -11761   -10577    -9567 
   -9450    -9728    -9726    -9562    -9579    -9598    -9321    -8777 
   -8232    -7897    -7728    -7681    -7662    -7531    -7508    -7712 
   -7846    -7888    -8247    -9107    -9732    -9138    -7677    -6536 
   -6223    -6492    -6847    -7047    -7256    -7665    -8255    -8649 
