Origin Time       2024/04/02 04:24:00
Lat.              40.133
Long.             141.712
Depth. (km)       71
Mag.              6.0
Station Code      IWT012
Station Lat.      39.3206
Station Long.     141.1388
Station Height(m) 62
Record Time       2024/04/02 04:24:55
Sampling Freq(Hz) 100Hz
Duration Time(s)  158
Dir.              E-W
Scale Factor      7845(gal)/8223790
Max. Acc. (gal)   96.625
Last Correction   2024/04/02 04:24:54
Memo.             
[...]
    8707      429    -9639   -20250   -23607   -19256   -14920    -9636 
    -240    11196    22280    30966    34055    29003    20209    12490 
    1425   -14743   -28460   -34746   -34036   -27896   -18987    -7470 
    7969    22554    30318    33531    35642    31995    19310     3037 
  -13061   -26238   -29983   -25012   -17599    -9655     -367    10107 
   17598    18785    15935    11867     8845     6084      839    -3743 
   -4957    -5167    -6250    -8625    -9201    -5165      733     5031 
    5657     3696     3134     4395     5335     4826     3339     2756 
    2938     3669     5510     5205     2020     -357    -1463    -2181 
   -3524    -6372    -9119    -9709    -6574       68     7720    12114 
   12104    12900    14084    10825     6326     2932    -3565   -12642 
  -18400   -19049   -15723    -7643     3326    11507    15141    17238 
   19178    19066    15264     8595      584    -8201   -16688   -20298 
  -17027   -13096   -11121    -6212     3419    14604    22369    23654 
   20194    15383    10516     4175    -4491   -13077   -18906   -19626 
  -14543    -8479    -3904     1501     6052     9009    13285    17338 
   16988    10705     1730    -4205    -6431    -6500    -3258     1548 
    4688     6851     8212     5800    -1455    -9578   -12795   -10397 
   -5583      573     6151     8615     9175     9967    12849    15574 
   10947      963    -6103   -10658   -12982   -11534   -10528    -8877 
   -2362     7315    17793    24116    21366    12783     4800    -1296 
   -7383   -13076   -18634   -21527   -15099    -1224    10646    14893 
   13887    14589    17747    16497     9342     1555    -5212   -10426 
  -11052    -8469    -6733    -6443    -6050    -3535     1193     4712 
    4324     2112     2581     5545     6995     5661     1868    -1956 
   -2057      584     3284     4548     3238      723     -487      356 
     935     -928    -1687     3670    11449    12560     6106     -745 
   -3176    -2536    -2365    -4194    -6435    -5296     -719     3732 
    6563     6428     3608     2049     3195     4962     4986     2250 
    -152      711     2087     1625      207     -838      -14     1452 
    1470      255     -834      400     3003     3804     3249     2787 
    2590     2874     2803      826    -2843    -5516    -4565     -360 
    4428     7142     6563     3627     1559     3210     6142     6079 
    2370    -3024    -5806    -4760    -3597    -4121    -5765    -5313 
     747     9140    12656     9373     4214     1436      729     -784 
   -4104    -5863    -4272     -714     3457     5151     2417    -1696 
   -3073     -379     4039     7399     9336     8874     6844     5178 
    2134    -1418    -3696    -6102    -6970    -5680    -5769    -6106 
   -1898     5931    11719    13599    14324    14033    11265     7333 
    1710    -5996   -11481   -12953   -13246   -12316    -7161      283 
    4553     5329     4819     4743     9112    16036    16000     7599 
   -1674    -7466    -8831    -7092    -5084    -3358    -2076     -344 
    3639     8154    11006    10458     6284     3262     2220      727 
     309     -841    -4050    -5476    -4193    -1475      846      492 
    -145     2015     3215     1439      429      457     2104     5638 
    6562     6097     7133     6137     2326    -1871    -6002    -7418 
   -4152    -1163    -1394     -749     3250     8127     9624     7344 
    5499     5139     5040     5539     3404    -3834   -11056   -13779 
  -11992    -6569     -448     4048     8244    12536    14677    13555 
   10180     6365     3499     1661     -629    -4996    -9350   -10295 
   -8685    -6636    -3804      688     5567     8114     7403     5580 
    5198     5594     4517     1074    -3605    -5965    -4402    -1243 
    1422     3007     4017     4560     4008     3076     2849     2817 
    2208     1613      689     -808     -220     3429     6311     5339 
    2759      639    -1082    -1703    -2735    -4360    -5240    -6339 
   -5290    -1656      288     1634     3917     5495     7307     8321 
    8047     9397     8741     2994    -2238    -4062    -4309    -3456 
   -1159     1574     2323     1563     2296     3685     3573     2947 
    2694     2600     2454     1578     -218    -1813    -2454    -2604 
   -1410      704     1210     1823     3800     4035     2232      751 
    1516     2980      735    -2911    -1867     2307     4610     5958 
    8074     8001     5597     3138     -712    -5287    -6447    -4665 
   -3784    -3181     -741     1952     2752     1690     1314     4195 
    8667    10335     7587     2760    -2116    -6262    -8370    -7204 
   -2520     2656     4881     4955     4988     6995     9520     7495 
    3203      677    -3443    -7522    -6903    -5999    -6995    -5190 
    -629     4064     8002     9691     9904     8795     5146     2192 
    1044    -1038    -3603    -5486    -6269    -4476      244     5954 
    9930     9166     3678     -492     -816    -1332    -2269    -1494 
     -40      832     2168     4904     7225     8492     9748     8378 
    2681    -2014    -2469    -3640    -7846   -11086   -10299    -5811 
    -502     5148    11803    15195    13238     9832     8128     8546 
    8294     2949    -5790   -11541   -12337    -9795    -6648    -4669 
   -2296      365     3015     6548     8664     9040     9085     7389 
    5057     3353    -1516    -8660   -10187    -6081    -3115    -1821 
     369     4141     8626    11106    11296    10806     9159     5688 
     760    -3874    -6201    -6509    -6582    -7339    -7739    -7067 
   -4916     -823     3146     6519    10135    11337    10173     8851 
    6246     2803     -324    -2355     -862     1674      878    -1684 
   -3427    -3655    -1336     3132     6629     5984     1730     -799 
    1340     3122      936    -2242    -4654    -6405    -6601    -5422 
   -3947    -2209      962     4579     6073     7171     9509    11114 
   11877    11079     7754     5161     4147     2822     2552     2506 
    -479    -4889    -8500   -10039    -8145    -6022    -6237    -5576 
   -2189     1243     3208     5976    10388    13909    15727    17199 
   15649     6864    -4804   -11871   -13968   -13235   -10555    -7512 
   -5058    -1490     5186    12866    16232    13046     7358     4672 
    5783     6250     2875    -1911    -6354   -10134    -9879    -6004 
   -3993    -4392    -3011      514     2702     2687     2303     2866 
    4806     7955    10681     9815     5184      765     -301      969 
     827    -1301    -2648    -3882    -6230    -5057      789     3962 
    3071     4307     8449    11144    10168     6687     2166    -2790 
   -6779    -9336   -11422   -11627    -7187      631     7470    10921 
   11793    13236    15507    14121     9148     4526      423    -2532 
   -4067    -7547   -12387   -14700   -13289    -7797       83     6378 
    9617    11383    13585    14816    11948     5239    -2165    -6322 
   -6048    -4693    -3659    -1356      186     -252      687     1873 
     812      -28     -487     -511     2420     6956    10534    11519 
    8000     1617    -4743   -10336   -12027    -9065    -6377    -3600 
    1732     6995    10335    10747     8291     5876     4449     2914 
     928    -2106    -5678    -6729    -4707    -2274      441     4290 
    8834    14133    17328    13873     6118     -440    -5178    -8556 
   -9645    -7962    -4256     -556     2772     5341     5475     4938 
    5275     4599     3299     1756    -1583    -4237    -3634    -1676 
    -156     -356    -2625    -4051    -2220     1989     6650    10318 
   10986     7437     2646       81     -639    -1671    -3716    -4376 
   -2295      695     3219     4477     3834      999    -2219    -1715 
    2492     7051     9119     5510    -1233    -3591     -351     4027 
    5624     3893     1560    -1495    -6104    -9953   -13248   -14588 
  -10180    -2731     5283    14693    21012    20850    18133    14061 
    7561     2107    -2604    -8796   -12179   -10602    -6423    -3231 
   -3985    -3258     2633     7956    11129    12116     8478     3632 
     707    -1591    -3353    -4513    -4220    -1085     1715     1695 
    1823     3434     5197     6426     6266     5000     3306     1637 
    1441     2027     1479      909     2002     2933     1498     -638 
   -1672    -2062    -2847    -4299    -4973    -4804    -4149    -1810 
    1649     5169     7134     5289     1799      688     2112     3519 
    2394    -1178    -5489    -9393    -9717    -5073      147     3130 
    6473    11996    15290    13196     9540     6376     2728    -1219 
   -5113    -7291    -6978    -5694    -3071     1085     4541     6733 
    8041     7514     5374     3260     1570     -822    -3302    -3126 
     174     3632     4048     2566     2527     3075     3538     4531 
    3839     2443     2327     2344     2755     2596     2640     5556 
    7447     5410     1282    -3685    -6342    -5517    -5206    -7844 
  -11658   -12806    -8599     -905     4963     5938     4731     6432 
   11477    15408    15688    11635     3516    -4553   -10359   -13824 
  -12869   -10370    -9764    -6600      810     8324    14759    18806 
   17795    14100    10619     6048      346    -4518    -7638    -8727 
   -8415    -6623    -2353     2619     6930    10619    12013    11731 
   11021     8009     1918    -4440    -8052    -9069    -7474    -4514 
   -3631    -2562      989     4347     6596     6629     3649      157 
   -2411    -2627     1506     7138    10323    11009     8745     4117 
     380    -2474    -6728   -12387   -16117   -14098    -7645    -1688 
     928     1726     4606     9996    13471    11805     6666     2265 
     556     -769    -2805    -4216    -5324    -4210     1040     6525 
    8240     5455     1521     1432     3873     3073    -1810    -5448 
   -5216    -2124     2563     4337     2501     2586     5923     9868 
   11481     9135     4766      384    -2824    -2417     -106     -977 
   -2412     -183     1759     1129     -436    -2652    -3761    -2381 
   -1282    -3258    -6185    -7395    -8206    -9201    -7550    -1935 
    3559     5406     5948     6529     5103     2342      167    -1790 
   -4864    -9466   -11908    -9076    -4621    -1331     1420     4311 
    9232    14480    16434    15618    11094     1289    -9236   -14107 
  -12162    -7747    -4623    -2351     1134     7003    13529    17544 
   17230    12927     7588     4529     3882     3117     1899     1462 
    3223    10322    19900    24224    22928    18970    12960     7830 
    6345     5656      912    -7511   -13107   -11732    -6517    -2139 
   -2188    -7079    -9952    -5427     2640    10786    19217    23504 
   20942    16802    11678      869   -13090   -24395   -31394   -34210 
  -34897   -34821   -32147   -27391   -20147    -7365     7573    19666 
   29859    39561    48309    52965    47399    30038     7182   -12911 
  -25543   -29809   -29116   -29961   -32093   -29417   -21076    -8889 
    5996    21574    36653    47833    50529    44377    33054    22998 
   17039    12426     7731     -247   -14526   -27317   -31399   -30508 
  -28209   -25629   -22651   -12961     5614    23105    32868    36930 
   35048    29656    27583    27575    25257    19963     7253   -15140 
  -38620   -54999   -62523   -59751   -48413   -34425   -20028    -5301 
    7971    17913    21157    19188    20065    24522    28150    28227 
   17690    -7040   -33733   -44288   -36289   -22115    -8924      122 
    2794     8387    25004    44992    55232    48042    25695    -1323 
  -23206   -37122   -45777   -51031   -51074   -42523   -25560    -3870 
   21957    48190    64666    70702    73379    71996    66120    59661 
   46473    20175    -9641   -32981   -51675   -67606   -76356   -76680 
  -71332   -57719   -37157   -18971    -4114     9551    18725    28210 
   45588    63904    72000    67078    48196    17761   -11962   -27762 
  -29837   -30863   -37376   -43960   -46602   -43984   -33372   -15152 
    8795    35144    54801    60670    54805    41419    21047    -3805 
  -27557   -46676   -56151   -51108   -35020   -13466    13088    41774 
   62877    69120    62425    49015    34538    24719    22546    23413 
   21483    15425     2890   -17139   -38566   -54162   -61106   -59853 
  -54176   -48919   -44329   -37960   -28412   -14245     3037    18416 
   28645    31742    27118    20062    15915    12241     5329    -4399 
  -15009   -21236   -18547    -9896     2374    16370    22362    16831 
    9231     3773      340     4579    14307    18245    13489     4864 
   -3123    -7530    -8415    -8680   -10682   -11384    -6940    -1620 
    1817     9629    22044    31468    35746    35309    31893    32336 
   39357    46589    46009    35722    18663    -2655   -25366   -44805 
  -54596   -52785   -44467   -32656   -19707    -7815     7221    23476 
   30080    25749    17070     7808     2754     2655     -437    -7938 
  -14575   -22108   -33411   -47102   -59719   -64939   -59786   -45250 
  -24467    -2660    19832    39293    46722    43856    36261    24948 
   12887     4521      457    -4036    -7911    -6354    -3118     2479 
   13772    22887    26838    31903    37989    42045    45287    45624 
   37042    19804    -1011   -20869   -31596   -28390   -20314   -16962 
  -16513   -15777   -14608   -11542    -6644     1305    15907    33791 
   48011    55637    57510    56832    53387    43372    23643    -8226 
  -47830   -81621   -99146   -99975   -88541   -71382   -54760   -39498 
  -22029     -330    22125    39364    49314    52840    49913    38902 
   15938   -15921   -42425   -56313   -61623   -60855   -54260   -41831 
  -22651     2673    30628    55572    70910    74602    72706    70266 
   64443    52655    38168    22662     6411    -7044   -18360   -29312 
  -34346   -31854   -25802   -13717     2467    12024    16467    24607 
   32151    31858    26480    18238     6596    -2188    -6211   -16109 
  -33393   -45385   -47299   -42385   -32109   -21235   -14598   -10153 
   -4147     3034     8424    10520    10142     8920     7935     8490 
    9705     6566      496      544     5285     5339     1464    -1657 
   -2683     3145    16380    28397    34925    37655    37878    37531 
   34055    23707    10180    -5447   -23595   -36818   -41157   -40015 
  -34626   -24984   -14453    -5948     1374     7273     9975    12447 
   18489    23850    21417    11882      932    -9054   -17550   -22369 
  -20688   -11547     -402     4099     -653   -10219   -18160   -23047 
  -28536   -33710   -32400   -25282   -20131   -17329   -11367    -2135 
    7861    16140    20090    22570    27838    32975    34504    33871 
   33178    33678    33681    29203    20128    12037    10860    14812 
   15287     7171    -7225   -18922   -18702   -11564    -5852     3078 
   14708    21863    27225    31930    32475    32011    32184    28914 
   21188     9294    -7969   -26172   -36891   -39640   -39831   -37897 
  -32643   -25740   -17423    -7981     -598     3114     5582     8633 
   11060    12059    10112      502   -14612   -24790   -27754   -26998 
  -21756   -15179   -14073   -18273   -22187   -20808   -11971       -9 
    9000    16524    23120    24444    22582    20065    14500     9057 
    8498    10839    10968     7258     3557       -8    -5875    -9802 
  -11165   -13297   -10840    -1287     7711    12719    15695    17891 
   22624    32039    41678    46132    42368    26307     1613   -18214 
  -29088   -34971   -34052   -27683   -20711   -11873    -3181       20 
     156     2673    10035    20799    30314    34403    31796    25537 
   17766     5563   -11083   -25911   -34524   -37921   -38063   -35502 
  -30599   -23931   -16659   -10984    -6521     1474    14322    28421 
   41605    48266    41569    24992     5112   -13130   -21208   -17448 
  -11931   -11097   -10392    -4413     3815     7495     6023     4415 
    6362    12663    21375    27160    26685    24156    24815    25355 
   18671     5520    -6566   -12058   -10417    -6905    -8174   -11948 
  -10829    -4290     2353     3658     -440    -2389     1578     5555 
    3978    -3346   -12820   -19811   -23053   -21975   -16713   -12503 
  -10354    -5017     1706     5094     7916    12853    16795    17940 
   17474    15060    10864     6889     3541      670    -1277    -2828 
   -3832    -4387    -6605   -10550   -14860   -18844   -19970   -17767 
  -14546   -11160   -10678   -14494   -15893    -9861     1274    13312 
   22303    26326    26125    22846    18441    14693    10848     5313 
   -1312    -6288    -8507    -8437    -4630     3622    13545    20931 
   24549    28433    34470    39062    39001    31310    15518    -1464 
  -12744   -17265   -17197   -15866   -12619    -3524     8795    17184 
   19423    16267     8573       33    -6639   -12329   -16638   -17856 
  -15947   -12841   -12305   -15471   -17637   -16119   -13267    -9574 
   -5301    -3156    -3133    -3380    -3716    -4159    -5331    -6357 
   -3981    -1201    -3511    -8062   -10341   -10403   -10519   -11975 
  -12401    -9890    -4503     3260    11036    17080    20659    22237 
   23649    23830    21859    18982    15523    12549    10440     7508 
    3991     2587     4307     7339     9759    10264     9391     9506 
   10245     8710     3960    -2439    -7580    -8378    -4573      751 
    4239     4378     2421     1074     1867     3591     3743     3360 
    3260    -1321   -10762   -18276   -21400   -21478   -18887   -15005 
   -9578     -756     9329    16474    19224    17664    12621     7877 
    6558     7731    10008    11338     8465     2366    -2718    -5401 
   -5173    -1279     2956     4126     1899    -4044   -11529   -17342 
  -21115   -20677   -12653      518    11419    14868    12212     7669 
    2936    -2628    -8633   -11645    -8230      432     9409    14918 
   17281    17895    16904    14999    12768     9990     6342     1275 
   -5144   -11402   -15430   -17612   -19255   -17626   -10800    -1551 
    7430    12937    12484     7740     1428    -2640    -3435    -6242 
  -12019   -13794    -7479     3534    13711    18805    18006    16121 
   16663    17111    14381     8205     2529     1445     1409    -2061 
   -5568    -5429    -3207     -423     1892     2074     1256     1649 
    3379     5553     6258     3993     -286    -4610    -6656    -5003 
   -1185     2331     4151     3859     3064     3472     3856     3755 
    5572     8827     9548     5845     -986    -7724   -11453   -13066 
  -15627   -20337   -25960   -30056   -29876   -22740    -9136     5282 
   16220    25486    33303    34581    29076    21456    11674     1327 
   -1968     1502     3275     1671     -108    -1240     -832     -529 
   -3294    -6450    -7047    -6916    -8594   -12483   -15013   -12571 
   -6905     -523     5069     8878    13709    20449    25512    27905 
   27309    21948    14351     9108     6559     4683     2215    -1341 
   -5514    -8546    -8233    -4961    -1887       13     2596     6839 
   12016    15434    13783     7488     -329    -7375   -11734   -14165 
  -18740   -25745   -30246   -28300   -18870    -4581     7870    15527 
   21548    25011    23206    19545    15090     7406    -1340    -8816 
  -15519   -19750   -17859   -11230    -6528    -5611    -6242    -8371 
