Origin Time       2024/04/02 04:24:00
Lat.              40.133
Long.             141.712
Depth. (km)       71
Mag.              6.0
Station Code      IWT014
Station Lat.      39.4846
Station Long.     141.1466
Station Height(m) 86
Record Time       2024/04/02 04:24:54
Sampling Freq(Hz) 100Hz
Duration Time(s)  138
Dir.              E-W
Scale Factor      7845(gal)/8223790
Max. Acc. (gal)   31.545
Last Correction   2024/04/02 04:24:54
Memo.             
[...]
    3427     3422     3410     3411     3419     3422     3422     3427 
    3431     3422     3410     3408     3415     3416     3418     3419 
    3418     3416     3422     3430     3431     3424     3416     3416 
    3426     3431     3429     3429     3424     3418     3414     3412 
    3411     3412     3419     3424     3424     3420     3416     3411 
    3412     3418     3416     3416     3416     3416     3424     3433 
    3430     3422     3418     3426     3434     3424     3414     3418 
    3427     3427     3423     3419     3416     3411     3404     3408 
    3420     3427     3427     3416     3404     3408     3419     3420 
    3423     3431     3433     3422     3411     3419     3426     3415 
    3412     3424     3423     3416     3420     3433     3435     3424 
    3416     3404     3393     3414     3446     3451     3441     3412 
    3377     3379     3414     3446     3473     3476     3439     3403 
    3376     3366     3404     3447     3450     3460     3458     3399 
    3330     3323     3383     3470     3532     3545     3545     3514 
    3420     3375     3424     3465     3476     3499     3511     3495 
    3441     3369     3353     3372     3388     3496     3653     3681 
    3630     3573     3472     3416     3460     3532     3605     3627 
    3581     3493     3356     3218     3098     2975     3017     3245 
    3427     3599     3697     3478     3276     3292     3334     3572 
    3838     3740     3510     3289     2934     2654     2705     2856 
    2859     2886     2816     2515     2478     2882     3416     3897 
    4113     4043     3815     3561     3530     3538     3389     3439 
    3790     4098     4121     4087     3966     3154     2207     1945 
    1775     1902     2643     3096     3630     4453     4448     3797 
    3285     3285     3816     4394     5027     5306     4695     3503 
    1954     1306     2216     3083     3508     3933     4108     4109 
    3732     3052     2701     2776     3152     3763     4392     4677 
    4666     4649     4309     3778     3650     3595     3793     4800 
    5101     4175     4083     4206     3045     2165     1799     1381 
    1771     2447     3092     3861     4099     4388     4986     5294 
    5200     4588     3761     2673     1659     1656     2162     2818 
    3198     2930     3373     4121     3712     2938     2371     1725 
    2010     4006     5441     4733     3410     1883     1063     2523 
    4490     5530     6037     6343     6417     4977     2781     2251 
    3044     3670     3273     2174     1475      873      105      -37 
     839     2253     2934     2586     1969     2170     4163     6184 
    6567     6097     4784     3686     4209     4942     5081     4916 
    4163     2505      847     1493     3730     4854     4371     2386 
     359        1      766     2093     3222     3642     3917     4017 
    4294     4865     4861     4656     5028     5752     6361     6139 
    4012      472    -1664    -1107      -16      770     3503     6654 
    5706     2760     2211     2555     2434     2876     3098     3006 
    3697     4491     4981     5850     5536     2965      972      726 
    1389     3538     5999     7614     8816     8542     6145     2970 
    1656     2371     2037     1332     1348      557      549     2007 
    3164     3715     3928     4048     3122     2236     3832     4923 
    4395     5543     7211     7784     7141     3611      147      611 
    1638      966     1323     2458     2733     3713     5659     6370 
    5946     5904     5088     2732     1768     3033     3609     3526 
    5050     6613     5702     3596     1698      502     1121     2058 
    1406      812      978      581      996     3361     4756     4240 
    4394     4097     1948     1880     4652     6178     5714     5139 
    5440     5983     5663     5302     4839     2351    -1017    -2363 
   -1343      895     3123     4646     5209     4206     2162      669 
     348     1378     3595     5687     6624     7042     8017     9096 
    8677     5981     1611    -2354    -3554    -2420     -357     2546 
    4839     5000     3785     2579     2146     1879     1290     1842 
    4514     7477     8199     6808     4814     2880     1929     2268 
    2768     2802     2485     2269     2778     4279     6338     7346 
    6569     5113     3018      267    -1291     -421     2149     4380 
    4954     4865     5520     6436     5973     4606     4156     3505 
    1547      556     1414     2863     4545     5440     4707     3308 
    1822      881     1233     2164     3531     5451     6417     5894 
    4931     4102     2779      295    -1192      926     4722     6609 
    6084     4656     3574     3283     3298     2848     2168     2176 
    2455     2049     2369     4444     6570     7982     8144     5891 
    3088     1883     1308     1165     2362     3570     3323     2176 
     661     -843     -892      949     2705     3489     4563     5510 
    5205     4657     4527     4086     3040     2103     2224     2974 
    3150     2702     2914     4371     5694     6174     6778     7743 
    7546     5424     3439     2662     2128     2613     3639     2782 
    1543     1701     1405      895     1192      648     -357       22 
    1645     3929     5668     6154     6652     6928     6095     4700 
    2947     2168     3558     4909     4264     2396      789      514 
    1587     3118     4252     4283     3555     3994     5845     6542 
    5260     3975     3476     3238     3661     4306     3847     3523 
    3604     1545     -648       99     1610     2891     4079     3119 
    1098     1364     3469     4364     3666     3357     3132     2562 
    3037     3646     3339     3692     4935     5537     4758     3064 
    2382     3505     3917     3322     4280     5729     5823     5833 
    6052     5127     3581     3172     3553     3318     2344      994 
     255      923     2083     3233     4448     4548     3474     2673 
    1659      348      618     1908     3219     5240     7053     7712 
    6941     4683     3014     2540     2006     2516     4021     4110 
    3404     4220     5999     6551     5197     2837      477     -556 
     727     3096     5157     6604     6143     3742     1679      546 
     -68      399     1682     2651     2938     3495     4407     4105 
    3570     4303     4102     2295     1201     1117     1362     2677 
    4607     5637     6272     6629     5556     4117     3717     3717 
    3238     2218     1634     2211     3086     3636     4703     6191 
    6230     5067     4480     3720     2593     2948     4059     4020 
    3751     3839     2905     1741     1494      895      610     1831 
    2716     3036     4124     4872     4824     5252     5474     4170 
    2701     2442     2219     2242     3921     5622     5656     5016 
    4449     3341     1826     1387     2061     2825     3916     4639 
    3727     2424     2617     3570     3411     2771     2520     1875 
    2444     4639     5026     4064     3559     1803     -225     -808 
   -1757    -2218      256     3306     4943     6673     7303     5475 
    3981     3927     4569     6309     7619     6843     4922     3453 
    3321     3681     3744     3558     2388      830      279      816 
    2232     3527     4766     7150     8999     8212     5459     2825 
    1776     1917     2515     3087     3208     3146     2987     2853 
    2733     2404     2658     3171     2901     2837     3323     3613 
    4218     5665     7067     7333     7218     6999     5490     3655 
    2477     1351      738      561       56     -702    -1470     -828 
    1937     4492     5331     4548     2323     1039     2085     3465 
    4995     7206     7869     6308     4473     2922     1561     1660 
    2602     2038     1626     3692     5751     5956     5298     3943 
    2536     2270     2400     2311     2577     2277      325    -1568 
   -1404      484     3051     5364     6219     5335     4379     4897 
    5489     4664     3526     2986     3545     5140     6193     6485 
    6474     5578     4540     4368     3736     1665     -233    -1042 
   -1329     -388     1876     3456     3484     3310     3464     3191 
    3437     4623     5124     5786     7144     6713     4839     3213 
    1636     1472     2914     3268     3204     4442     4801     3769 
    3253     2745     1393      168      425     1576     1811     1988 
    2988     3578     3650     3319     2751     2492     2833     5000 
    7952     9556    10536    10430     8067     4689     2247     1782 
    1853     1274     1101      789     -608    -1988    -2656    -2392 
    -313     3246     5899     6399     6011     5217     4033     4024 
    5706     7719     8410     6934     4607     3605     4452     6122 
    7275     6826     4699     2106      -98    -1502    -1479     -423 
     712      899     -360    -1235     -427      708     1989     4159 
    6007     6832     6841     5543     4353     4783     4838     4191 
    5131     5971     4459     2951     2446     1449     1360     3650 
    6131     6725     6085     4993     3364     1995     1660     2182 
    3018     2678     1048      288      718     1648     3424     4969 
    5005     4375     4465     5556     6484     6300     5456     4405 
    3483     3195     3289     3446     3508     2922     2066     1810 
    1964     2116     2079     1576     1183     2087     3449     3628 
    3519     3612     3001     2604     3102     3990     5150     5698 
    5039     3928     2990     2234     1817     2547     3451     2982 
    3142     4534     4506     3157     1836     1161     1852     3006 
    4151     5198     4931     4253     4344     4777     5358     5232 
    4843     4671     3084     1476     1607     1640      993      491 
     175        5      -63      589     2116     3754     5725     7365 
    7298     6575     6238     5827     5566     5448     4405     2640 
    2111     3291     4580     5535     5996     4506     2157     1822 
    3210     4981     6822     7497     6405     4564     2768     1780 
    1695     1460     1093      729     -500    -1837    -1966    -1174 
     -76      588      837     1773     3318     4461     4876     5121 
    5621     6284     7738     9590    10150     9359     7338     4112 
    1397      319      225      167      237      864     1078      774 
    1740     4170     6247     6785     5796     3365     1050     1587 
    3925     5004     4502     2970     1030     -306     -862     -486 
    1313     4033     6328     7755     8106     6822     5440     5840 
    6949     7400     7479     6872     4795     2349     1291     1979 
    3237     3200     2451     2570     2029      126    -1016     -988 
    -764       40     1082     1093     1306     2575     3057     3176 
    4383     5171     5390     6617     7411     6156     4213     3063 
    2705     3083     4360     5103     4029     3115     3819     3981 
    2687     2061     2111      913     -329      454     2000     2851 
    3474     4014     4550     5174     5236     5319     5790     5293 
    4510     4434     3410     1672     1575     2668     2733     1900 
    1486     1111     1201     2747     4276     5682     7549     7947 
    6864     5763     5150     4959     3990     2320      873      -16 
     814     3119     4851     4905     3680     2502     1869     1876 
    2852     3769     4286     4496     3496     2562     2675     1836 
     141     -286      360      982     1435     1827     2245     2299 
    2135     2608     2855     2101     1680     2043     2647     3523 
    4212     3778     2146      257    -1069    -1228     -253      403 
     264     -229    -1752    -3564    -3638    -2243     -692     1019 
    3090     4429     4583     4972     5462     4923     4375     4545 
    5213     6511     7808     8689     8951     7855     6135     4754 
    3817     4417     6427     7308     5832     3734     2544     1435 
     592     1525     2991     3257     2982     2519     1309      216 
     932     3250     6207    10377    15264    18485    19708    20213 
   20239    20225    20605    19936    16723    11562     5984     1039 
   -2965    -6566   -10635   -14913   -17478   -17624   -16646   -14463 
  -10280    -5383    -1607      862     2725     4815     8055    12225 
   15952    18436    19743    20150    20031    20002    19885    17824 
   13162     7992     3981     1367      -54     -878     -932      743 
    3280     4797     5485     5244     3271     2107     4679     9285 
   12317    12015     8181     2494    -1320    -1433     -780    -3343 
   -8649   -13695   -17239   -17312   -12996    -8351    -5962    -5825 
   -9308   -14119   -15294   -11344    -2798     7533    15043    17629 
   15579    11800    11311    15647    20857    21612    16731     9612 
    3994     2898     6928    11083     9706     3744    -2378    -6741 
   -8706    -7844    -5343    -2420      808     4664     9109    12563 
   13713    13331    11538     6178    -3572   -13171   -16191   -11614 
   -3586     2409     1521    -5541   -11817   -12001    -6621     -184 
    3426     4533     4997     6021     7965    10154    12467    14170 
   14671    14516    11314     3535    -4772    -8424    -3709     7655 
   17587    21829    21292    16144    10000     8055    10170    16285 
   26350    33921    32279    21884     8864     -762    -4779    -2878 
    1075    -2451   -15412   -26736   -29647   -27697   -22019   -13193 
   -6335    -1900     1611     1189    -1772    -1597     1624     5271 
    9703    13455    13082     8357     1497    -4650    -7885    -8364 
   -7018    -4170     1030     9779    19273    24198    24321    23903 
   25246    27899    30032    28541    21681    11689     3794     1602 
    2710     1906    -2506    -9371   -16754   -20853   -20970   -22358 
  -26246   -27579   -24835   -20090   -13713    -7119    -3484    -1705 
    2498     9250    15129    19082    22013    23062    21455    18355 
   13344     5211    -2899    -5598    -2262     2751     6447     7920 
    5807     2832     4500     9965    14416    15601    14044    12091 
   10575     8472     6650     6520     7306     7125     4537    -1703 
  -11203   -19591   -22221   -18964   -13387    -8671    -4499      553 
    5606     8901    10594    11880    12978    14774    16634    14357 
    8118     2361    -1867    -3032     1021     6212     7873     7218 
    6628     6750     8688    13547    19427    22936    23022    20082 
   15897    13474    12363    10288     8733     9346     8557     1440 
  -10330   -19152   -21243   -18273   -11735    -5676    -5494    -8968 
  -10165    -7300     -854     7342    13489    14867    11118     3218 
   -4672    -6496    -2786      -16      789     2511     3387     2729 
    3991     6181     5620     3785     4415     8598    14621    18596 
   16220     6941    -3450    -9216   -10139    -6488      380     4978 
    4275     -958    -8195   -12260   -11605    -8883    -3759     3123 
    7566     8698     9520    11191    11597    10092     8212     5402 
    1111    -2313    -2682      202     4942     8885    10197     9235 
    7777     7628     8117     7689     7450     7233     5062     3160 
    4394     7503    10590    11839     9138     3269    -1817    -3078 
   -1780     -481     1976     7130    12690    16074    16810    15627 
   14060    13251    12413     8503     1259    -4337    -6239    -7015 
   -7026    -5211    -1610     3823     9321    11044     8208     3991 
     874      218     3229     7173     7515     5077     2497    -1267 
   -5235    -4849       20     5556    10498    14305    13998     9008 
    4226     3005     3280     3262     2658      282    -3202    -6563 
  -11160   -15727   -16599   -14415   -10897    -5593      274     4168 
    6181     8413     9440     6362     2585     1826     1678     1075 
    1856     4259     7588    10346    11044     9865     7566     5638 
    5036     4129     1941     -202    -1675    -3105    -3535    -1884 
    -656    -1872    -3936    -5775    -7677    -7369    -2423     2589 
    2644      -87    -4780   -11485   -14197   -10640    -6436    -4295 
   -2513     -151     3126     7284    11801    16351    20691    24440 
   26291    25014    21679    18531    16686    16370    16721    15336 
   11699     8725     8841    11178    12866    13059    12997    12910 
   12845    11892     8768     5528     4001     3569     4078     4980 
    5406     5524     5344     4293     1894     -672     -688     1726 
    3245     2965     2790     3022     3017     3399     4383     4928 
    3596       89    -2382     -490     4180     8536    11419    12145 
   10683     7716     4382     2465     1988     1872     2164     1163 
   -3171    -8634   -12738   -15604   -16308   -14002   -11067   -10084 
  -11128   -13405   -15337   -14310   -10404    -7338    -7041    -7626 
   -7623    -6551    -3750     -399     2420     4797     6243     7283 
    7398     5607     4391     4645     5111     6926     9769    10424 
    7453     2959      305      630     3061     6901    10438    10951 
    8190     4931     3964     5833     9100    12472    15508    16777 
   14941    11859     9859     9132    10477    14118    17544    19144 
   19381    18146    14824    10723     8661     8058     5942     3261 
    2354     2836     4124     5719     5919     3920     1661     1021 
     776     -225    -1194    -1725    -1255      649     3316     6084 
    8483    10174     9759     6183     2014     -631    -2222    -1728 
    1127     3397     3250     1155    -2223    -6034    -9067    -9771 
   -7415    -4131    -2650    -2732    -3163    -4077    -5351    -5876 
   -5132    -4468    -4723    -4673    -4334    -4058    -2579     -313 
    1443     2855     4128     5112     5710     6496     7608     7869 
    8344    10909    13182    12507     9764     6466     4405     4403 
    4070     2166      450      -95      700     3203     6091     6984 
    5861     4591     3855     2470     -602    -3423    -3480    -1502 
    1028     3015     3285     2859     3296     4407     5922     8016 
   10552    12487    13574    15330    17105    17481    17405    16459 
   13552     9288     4804     2363     2655     3856     5583     7177 
    6631     4378     2650     2948     4405     4186     2637     2284 
    2232     1301     1016     2003     3497     5837     8583     8590 
    4943      731    -2695    -5725    -7782    -9181   -10089    -9027 
   -5559    -1792      494     2686     5522     6812     6812     7483 
    8039     7933     7835     7222     5790     5192     6943     8795 
    8764     8380     5692     -984    -6226    -7461    -7086    -5512 
   -4168    -5242    -7393    -8627    -8658    -7646    -5779    -3434 
    -714     2266     4418     4957     4725     4911     5385     5362 
    5131     5038     4247     2652     1944     2840     4359     6301 
    8052     8860    10038    11820    13251    14497    14760    13520 
   12110    10292     6840     3577     2944     3713     4379     5925 
    7470     6656     4576     3551     3364     3029     2543     2674 
    3612     4035     3569     3407     3636     3127     1344     -326 
      98     2041     3705     4546     3747     1228     -228     1890 
