Origin Time       2024/04/02 04:24:00
Lat.              40.133
Long.             141.712
Depth. (km)       71
Mag.              6.0
Station Code      IWT011
Station Lat.      39.1453
Station Long.     141.1527
Station Height(m) 43
Record Time       2024/04/02 04:24:58
Sampling Freq(Hz) 100Hz
Duration Time(s)  132
Dir.              E-W
Scale Factor      7845(gal)/8223790
Max. Acc. (gal)   24.128
Last Correction   2024/04/02 04:24:58
Memo.             
[...]
   -9192    -6475    -6943    -9772   -10550    -8710    -7684    -9178 
  -11198   -10685    -7978    -6841    -9009   -11389   -10134    -6399 
   -4580    -5659    -7252    -8280    -9397   -10411   -10505   -10536 
  -11340   -11167    -9184    -8106    -9136    -9628    -8510    -7457 
   -6667    -5541    -5094    -5294    -4621    -4596    -7350   -10570 
  -12330   -13810   -14616   -13502   -11529   -10050    -9080    -8770 
   -9324   -10034   -10682   -11275   -10713    -9117    -8248    -8526 
   -9121    -9235    -8406    -7723    -8390    -8954    -8182    -8009 
   -9301    -9675    -8661    -8671    -9572    -9213    -8409    -8938 
   -9821   -10278   -11072   -11516   -10827   -10077    -9409    -7831 
   -6176    -6488    -8837   -11021   -11989   -12344   -11464    -8892 
   -6546    -5728    -5671    -6226    -7673    -8820    -9015    -9667 
  -11241   -11959   -11226   -10679   -10731   -10180    -9428   -10023 
  -11569   -12293   -11728   -10416    -8835    -7889    -7705    -7079 
   -6184    -6394    -7211    -7376    -7537    -8502    -9294    -9093 
   -8367    -7909    -8637   -10544   -11580   -10635    -9791   -10066 
   -9454    -7881    -7468    -7743    -7511    -8152    -9925   -10839 
  -10606   -10111    -9517    -9058    -8549    -7511    -6590    -7030 
   -8757    -9796    -9039    -7531    -5944    -4695    -4537    -4834 
   -5171    -6918   -10334   -13306   -14246   -13907   -13277   -12424 
  -11695   -10600    -8440    -7249    -8533    -9593    -8181    -6474 
   -6716    -7520    -7630    -8051    -9089    -9996   -10160    -9486 
   -9049    -9262    -9148    -8638    -8517    -9140   -10092   -10551 
  -10864   -11742   -12483   -12634   -12356   -11099    -9255    -8461 
   -8735    -8696    -8753   -10265   -11765   -11142    -9690    -9143 
   -9656   -11225   -12136   -10727    -8864    -8020    -7014    -6234 
   -6922    -7804    -8313    -9780   -11079   -10716   -10797   -12309 
  -12910   -12100   -11338   -10174    -8086    -6893    -7369    -7601 
   -6932    -6837    -7403    -7373    -7118    -8047    -9601    -9922 
   -9355    -9470    -9531    -8395    -7146    -6770    -6748    -6489 
   -6517    -7846    -9562   -10019    -9942   -10293   -10309    -9657 
   -8961    -8239    -7488    -7797    -8841    -8679    -8263    -9441 
  -10142    -8718    -7618    -8116    -8021    -6901    -6925    -8082 
   -8837    -9454   -10152   -10255   -10624   -11966   -12190   -10315 
   -9005    -9458    -9917   -10165   -10736   -10296    -8745    -8090 
   -8378    -8267    -8074    -7958    -7344    -7013    -7426    -7812 
   -8357    -9702   -11462   -12476   -11695    -9636    -7977    -7456 
   -8016    -9499   -10991   -11510   -11192   -10646   -10169    -9558 
   -8856    -9234   -10833   -11461   -10353    -9675   -10558   -11569 
  -11531   -10551    -8696    -6975    -7465    -8922    -7939    -6072 
   -6691    -8117    -8114    -7618    -7250    -7103    -7496    -7551 
   -6906    -7383    -9552   -11221   -11757   -12239   -11800   -10076 
   -9126    -9413    -9188    -8144    -7871    -8768    -9297    -8839 
   -8278    -8095    -8418    -9108    -9282    -8567    -7954    -8441 
   -9444    -9738    -9514    -9283    -8503    -7175    -6070    -5609 
   -6226    -8181   -10415   -11319   -10832   -10103    -9634    -9470 
   -9649    -9931   -10376   -11323   -12490   -12557   -10941    -9655 
   -9576    -8590    -7165    -7497    -8019    -7078    -6617    -7854 
   -9238   -10034   -10763   -10485    -8900    -8050    -8445    -8803 
   -9100    -9517    -9467    -8853    -8148    -7909    -8353    -9366 
  -10864   -11869   -11124    -9807    -9664    -9396    -8109    -8175 
   -9922   -10712   -10513   -10305    -9265    -8475    -9656   -11178 
  -11391   -11017   -10739   -10501    -9860    -8272    -6652    -6890 
   -8715    -9985    -9910    -9136    -8611    -9022    -9489    -9063 
   -8796    -9377    -9718    -9421    -9320    -9454    -9659   -10800 
  -12306   -11932    -9535    -7018    -5455    -5107    -6328    -8561 
  -10092   -10291   -10212   -10139    -8981    -7238    -7322    -8926 
   -9267    -8725    -9373   -10385   -10076    -8688    -7533    -7447 
   -7979    -8317    -8559    -8980    -9155    -8851    -8799    -9389 
   -9674    -9078    -8145    -7295    -7172    -8267    -9390    -9737 
  -10326   -10839    -9954    -8706    -8181    -7793    -8017    -8937 
   -8739    -7597    -7458    -8025    -8098    -8419    -9474    -9949 
   -9398    -8738    -8321    -8210    -8753    -9687   -10285   -10692 
  -11088   -10423    -8957    -8900   -10060   -10153    -9220    -8569 
   -8162    -8004    -8550    -9027    -8617    -8623   -10045   -11175 
  -11047   -10999   -11387   -11620   -11551   -10265    -7809    -6736 
   -7920    -8962    -8665    -8438    -8934    -9281    -9211    -8896 
   -8464    -8957   -10211   -10054    -8518    -7515    -7284    -7655 
   -8390    -8245    -7713    -8375    -9437    -9933   -10763   -12096 
  -12181    -9850    -7082    -6343    -6849    -7281    -8024    -8691 
   -8588    -8822   -10125   -11183   -11434   -11515   -11028   -10029 
   -9624    -9390    -8517    -8135    -8761    -8572    -7057    -6114 
   -6928    -9350   -12075   -13158   -12757   -12198   -11236   -10125 
   -9954    -9621    -8437    -8553    -9837    -9558    -8499    -8726 
   -8537    -6841    -6000    -6559    -6836    -7541    -9844   -11794 
  -11510   -10227    -9614    -9433    -9274    -9169    -8668    -8637 
  -10497   -12276   -11469    -9779    -9258    -8633    -7292    -7001 
   -8044    -8870    -9189    -9733   -10336   -10095    -8471    -6361 
   -5908    -7825   -10184   -11121   -10781    -9967    -9020    -8548 
   -9085   -10123   -11067   -11402   -10231    -8147    -7331    -8344 
   -9594   -10072   -10068    -9927    -9482    -8522    -7936    -8768 
  -10385   -11233    -9953    -7250    -6281    -7504    -7894    -7114 
   -7260    -8008    -8148    -8206    -8491    -8878    -9547    -9738 
   -9136    -8704    -8495    -8143    -7909    -7754    -7623    -7950 
   -8823    -9502    -9699   -10176   -10611    -9776    -8421    -8191 
   -8841    -9544   -10602   -11796   -11743   -10138    -8499    -7942 
   -7973    -8525   -10309   -12015   -11739   -10521    -9441    -7618 
   -6091    -6943    -8792    -9169    -8914    -9952   -11159   -10698 
   -9796    -9420    -8306    -7144    -7406    -7453    -6470    -6920 
   -9030    -9829    -9063    -9099    -9890   -10099   -10191   -10273 
   -9351    -8464    -9255   -10114    -9375    -8988    -9794    -9460 
   -8066    -7734    -7728    -7291    -8140    -9980   -10744   -10983 
  -11736   -11966   -11350   -10766   -10226    -9394    -8329    -7307 
   -6917    -7511    -8592    -9271    -9416    -9548    -9362    -8526 
   -8355    -9764   -11322   -11616   -11101   -10417    -9528    -8861 
   -8837    -8965    -9094    -9315    -8700    -7165    -7022    -9497 
  -11696   -10809    -8685    -7950    -8129    -8356    -8799    -9470 
  -10077    -9956    -8702    -7258    -7069    -8113    -9250   -10188 
  -10721    -9971    -8758    -8910    -9478    -8630    -7774    -8556 
   -9846   -10670   -10800   -10245   -10304   -10694    -9626    -8152 
   -7686    -7375    -7376    -8182    -8467    -8091    -8375    -9107 
   -9702   -10185    -9786    -8738    -8703    -9381    -9574    -9861 
  -10551   -11101   -11283   -10469    -9101    -9088   -10223   -10554 
   -9682    -8492    -7487    -6789    -6767    -7346    -7654    -7753 
   -8449    -9119    -9046    -9336   -10600   -11508   -11325   -10886 
  -10399    -9139    -7302    -5869    -5501    -6512    -8372    -9383 
   -8880    -8587    -9174    -8873    -8120    -9082   -10544   -10372 
   -9244    -8247    -7753    -7939    -8104    -8044    -8660    -9463 
   -8946    -8056    -8799   -10015    -9817    -9310    -9910   -10875 
  -10590    -8985    -8059    -8730    -9748    -9980    -9224    -8284 
   -8040    -7879    -7183    -6914    -7758    -9067   -10535   -11669 
  -10960    -9136    -8864    -9832    -9963    -9606    -9726    -9828 
   -9987   -10611   -10382    -8762    -8155    -9644   -11119   -11790 
  -12367   -11981   -10669   -10110    -9899    -9072    -8538    -8538 
   -8368    -8086    -7562    -6957    -7952   -10654   -11897   -10142 
   -7823    -7221    -7892    -8101    -7770    -8398    -9058    -7990 
   -6862    -7022    -7380    -8519   -10875   -11635    -9990    -8856 
   -8749    -8336    -8908   -10816   -11507   -10489    -9579    -9162 
   -8496    -7962    -8804   -10359    -9963    -7649    -6813    -8067 
   -8429    -7797    -8295    -9109    -9420   -10258   -10721    -9657 
   -8995   -10463   -12210   -12023   -11094   -11234   -12116   -12707 
  -12172   -10804   -10053    -9805    -8914    -8186    -8634    -8984 
   -8017    -6571    -5670    -5184    -5053    -6006    -7777    -8549 
   -8006    -7777    -8209    -8781    -9849   -11082   -11462   -11188 
  -10650    -9830    -9814   -10831   -10820    -9617    -9170    -8927 
   -7757    -7221    -7861    -8078    -7965    -8287    -8120    -7191 
   -6733    -7164    -7840    -8451    -8896    -8899    -8830    -9225 
   -9648    -9477    -8576    -7654    -7901    -8715    -8792    -8937 
   -9520    -9011    -8224    -9381   -10665   -10038    -9957   -10983 
  -10507    -9441    -9594    -9472    -8669    -9193   -11053   -11857 
  -10854    -9545    -9018    -9259    -9126    -7531    -6097    -6795 
   -8280    -8644    -8245    -8311    -9513   -11124   -11535   -10597 
   -9630    -9462    -9900   -10189    -9533    -8058    -7427    -8556 
   -9310    -8325    -7982    -9540   -10565    -9667    -8764    -9440 
  -10855   -11626   -10960    -9043    -7218    -6160    -5587    -6050 
   -8051   -10311   -11195   -10836   -10192    -9452    -9011    -9468 
   -9814    -9236    -8858    -8422    -6763    -5765    -7321    -9733 
  -10845   -10697   -10289   -10062    -9848    -9452    -9202    -9711 
  -10107    -8793    -7030    -7109    -8118    -8476    -8769    -9265 
   -9475    -9761   -10187   -10297   -10411   -10778   -10890   -10531 
   -9907    -8896    -7501    -6296    -6010    -7106    -8738    -9302 
   -8991    -9347   -10678   -11959   -12565   -12949   -13560   -14084 
  -13689   -12220   -11248   -11240   -10330    -8830    -8692    -9107 
   -9016    -9310    -9606    -8683    -7290    -6642    -6844    -7912 
   -9564   -10804   -11402   -12023   -12729   -13162   -13012   -12081 
  -11142   -10775   -10295    -9822   -10183   -11109   -11885   -12306 
  -12187   -10963    -9460    -9976   -12091   -13281   -13792   -14669 
  -14596   -13358   -12457   -11566   -10249    -9764    -9787    -8849 
   -7713    -7677    -8343    -9285   -10521   -11227   -10836    -9794 
   -8055    -5908    -5034    -5844    -6477    -6351    -7238    -8645 
   -7411    -4256    -2967    -3700    -5008    -7237    -9607   -10542 
  -10224    -8819    -6137    -3677    -2497    -1695    -1448    -2147 
   -2037     -922     -768    -1259    -1128    -1512    -3458    -5063 
   -4819    -5009    -6813    -7763    -8001    -9440    -9919    -8044 
   -7245    -8845   -10272   -11232   -12622   -12854   -11381   -10341 
  -10509   -10482   -10125   -10316    -9861    -8523    -9259   -11839 
  -12671   -12216   -12951   -14176   -15099   -16340   -16942   -15730 
  -13470   -10945    -8687    -7770    -7573    -6106    -3229      -79 
    2475     3377     1875    -1896    -6635   -10396   -12627   -13109 
  -10696    -7285    -7831   -12422   -14574   -11188    -7265    -6453 
   -5583    -2651     -502     -710    -2056    -4495    -8085   -10233 
  -10276   -11558   -13772   -13392   -12214   -12518   -11125    -7920 
   -7110    -8388    -9175   -10023   -11186   -11415   -10543    -8606 
   -6346    -6041    -7601    -8811    -9595   -10845   -12226   -12469 
  -10223    -6675    -4828    -4711    -3700    -1185      691      527 
   -1374    -5455   -11445   -16255   -18036   -17826   -15938   -12069 
   -7789    -5211    -4557    -4992    -5875    -5745    -4074    -3820 
   -7047   -11338   -14162   -15288   -14365   -11635    -9305    -8714 
   -9274   -10920   -13784   -16695   -18651   -20043   -21502   -22585 
  -22094   -19855   -17093   -14462   -11503    -8966    -9359   -12533 
  -14565   -14033   -12907   -11689   -10828   -11720   -13081   -12456 
   -9310    -4752    -1574    -1729    -4089    -7700   -12019   -14415 
  -14026   -13613   -13657   -11754    -8932    -8478    -9787   -10509 
  -10744   -10832    -9898    -7758    -5293    -3264    -2196    -2640 
   -3662    -3639    -3979    -6409    -9221   -12054   -16379   -20055 
  -20831   -20938   -22103   -22400   -20351   -17050   -13760   -10434 
   -6407    -1917     1381     2920     3511     2087    -2242    -6355 
   -7726    -9228   -13340   -17181   -18636   -19542   -20212   -19101 
  -16370   -12742    -8708    -5481    -3496    -1692      379     2137 
    2614      117    -5273   -10169   -12542   -14206   -16582   -17761 
  -16290   -14581   -14264   -13027    -9472    -5134    -1552     1144 
    3519     5069     4633     2812     1822     2658     3302     1332 
   -2902    -7873   -13045   -18135   -21722   -21756   -18790   -16490 
  -16403   -15727   -13054   -11071   -10012    -5983     1201     7006 
    8959     7414     2585    -4577   -11522   -16097   -17899   -17097 
  -13825    -9352    -5375    -2716    -2848    -7092   -12636   -14185 
  -10150    -2795     5641    12881    16151    14467     9274     2947 
   -3372   -10420   -17740   -23148   -26817   -30562   -33223   -31769 
  -25743   -17304    -8680    -1757     2118     3277     2878     1740 
     456    -1183    -3655    -6998   -11489   -16152   -19290   -21851 
  -24695   -25956   -25080   -23568   -21635   -19242   -17637   -16328 
  -12884    -7321    -1756     2906     5651     4356     -761    -6602 
  -11198   -13740   -11952    -5787     -301      746    -1483    -5066 
   -8584   -10426   -10497   -10315   -11470   -14331   -17687   -20447 
  -22376   -23055   -22046   -19344   -15206   -10323    -5929    -3298 
   -2586    -2459    -2143    -3249    -7240   -12183   -15246   -16259 
  -16303   -15434   -13409   -12029   -14179   -19174   -23218   -24167 
  -21944   -17390   -11804    -5556      278     2803     1004    -3080 
   -6913    -8617    -7416    -4220    -1487    -1443    -3539    -5495 
   -6401    -6361    -5697    -5958    -7782    -9431   -10428   -11998 
  -13201   -11859    -8552    -6100    -5886    -6177    -4920    -3584 
   -4762    -7354    -9265   -11335   -14238   -16497   -17197   -16599 
  -15290   -14557   -14967   -14817   -13146   -11732   -11061    -9332 
   -6725    -4571    -2466     -958    -1825    -3645    -3933    -4357 
   -7061   -10307   -12560   -14512   -15796   -15457   -13479    -9390 
   -4043     -985    -1416    -2681    -3499    -4665    -5637    -5152 
   -3354    -1602    -1175    -1864    -2139    -1260     -371     -777 
   -1800    -2443    -3832    -6696    -9126    -9694    -9483    -9609 
   -9714    -8922    -6083     -781     4259     5125     1962    -2521 
   -7979   -13514   -15566   -14192   -13392   -14220   -15109   -16071 
  -18023   -20297   -20669   -18427   -15840   -14912   -15168   -15066 
  -13306    -9737    -5917    -3666    -3179    -3549    -4129    -4703 
   -5837    -8361   -11003   -11254    -9969   -10369   -12109   -12887 
  -13463   -14428   -13948   -12021    -9875    -7442    -5564    -5080 
   -5346    -6758    -9504   -11507   -11246    -9252    -6890    -5625 
   -6204    -7882    -9136    -9381    -9467   -10104   -10882   -11338 
  -11973   -13591   -16294   -19653   -22855   -24502   -24456   -24584 
  -24983   -23511   -20445   -18199   -17194   -16069   -14229   -12141 
  -10284    -8889    -8113    -7716    -6960    -5591    -4050    -2172 
      -8      900       94     -892    -1696    -3366    -5952    -8189 
   -9163    -9464    -9479    -8390    -6659    -5886    -5917    -5752 
   -5628    -5724    -5428    -5271    -6253    -7485    -8514   -10866 
  -14083   -15518   -14693   -12695    -9934    -8156    -9294   -11137 
  -10801    -9899    -9999    -9242    -7344    -6347    -6478    -7244 
   -8614    -8599    -6231    -4783    -5848    -6934    -7496    -9003 
  -10539   -10530    -9648    -8738    -7226    -5476    -4735    -4340 
   -3389    -3118    -3940    -3636    -1462     -260    -1790    -4583 
   -7315    -9201    -8923    -6741    -4633    -3784    -4662    -8143 
  -13612   -17840   -18698   -17420   -15238   -12086    -9217    -8355 
   -8796    -9046    -9482   -10852   -12387   -13120   -13270   -13628 
  -14459   -15325   -15612   -14914   -13582   -12796   -12985   -13113 
  -12340   -11256   -10771   -10152    -8322    -6299    -5215    -4545 
   -4077    -4347    -5447    -6936    -8002    -8197    -8145    -8858 
  -10621   -12329   -12526   -11803   -11210    -9153    -4958    -1591 
    -608     -745    -1543    -2628    -2952    -3439    -5562    -7875 
   -8610    -8749    -9148    -8835    -7916    -8197   -10110   -11907 
  -12702   -13433   -14389   -15016   -15595   -16313   -16168   -14715 
  -12872   -10856    -8345    -6570    -6507    -7279    -8459   -10152 
  -11183   -10620    -9566    -9166    -8569    -7330    -7366    -9251 
  -10446    -9857    -8918    -7919    -6473    -5324    -4716    -4256 
   -4525    -6255    -8823   -11018   -12378   -12606   -11443   -10461 
  -11519   -13410   -14181   -14359   -14621   -14243   -13277   -12829 
  -12934   -12482   -11350   -10612   -10579   -10909   -11711   -12756 
  -13126   -12386   -10594    -8048    -6303    -6473    -6976    -7017 
   -8332   -10814   -12401   -12811   -12815   -12488   -12213   -12445 
  -12738   -12883   -13004   -12579   -11624   -10956   -10516    -9572 
   -8198    -7314    -7204    -6786    -5312    -3709    -2805    -1950 
    -874     -411     -332      274      405    -1165    -2990    -3584 
   -3690    -3773    -3991    -5641    -8316    -9810   -10305   -11052 
  -11048    -9794    -8791    -8195    -7187    -6744    -7693    -9169 
  -10972   -13547   -16078   -17585   -18414   -19261   -19746   -19035 
  -17381   -15472   -13363   -11352    -9892    -8730    -7774    -7294 
   -6669    -5229    -3978    -3928    -4133    -3636    -3005    -2370 
    -729     1799     2988     1070    -2631    -5344    -5771    -3908 
    -691     2054     3365     3360     1964     -839    -4369    -7558 
   -9622   -10064    -9101    -8590    -9805   -11421   -12395   -13000 
  -12343    -9999    -8122    -7915    -8167    -8685   -10049   -11479 
  -12626   -14045   -15345   -16302   -17644   -18802   -17990   -15210 
  -12151    -9585    -7661    -6902    -6963    -7105    -7747    -9101 
  -10500   -11819   -12974   -13728   -14851   -16545   -17377   -16962 
  -16530   -16320   -15741   -15175   -15055   -14787   -13806   -12307 
  -11136   -10886   -10936   -10925   -11487   -12190   -12062   -11514 
  -11245   -11592   -12765   -13714   -13050   -11632   -11453   -12244 
  -12083   -10848    -9624    -7970    -5796    -4984    -6081    -7578 
   -8965   -10102    -9744    -8047    -6674    -5950    -5873    -7202 
   -9094   -10106   -10696   -11126   -10200    -7684    -4707    -2303 
   -1244    -1713    -2728    -3631    -5185    -7470    -9279   -10149 
