Origin Time       2024/04/02 04:24:00
Lat.              40.133
Long.             141.712
Depth. (km)       71
Mag.              6.0
Station Code      IWT018
Station Lat.      39.6954
Station Long.     141.1477
Station Height(m) 120
Record Time       2024/04/02 04:24:52
Sampling Freq(Hz) 100Hz
Duration Time(s)  81
Dir.              E-W
Scale Factor      7845(gal)/8223790
Max. Acc. (gal)   45.324
Last Correction   2024/04/02 04:24:52
Memo.             
[...]
   -1885    -1888    -1888    -1883    -1883    -1885    -1887    -1888 
   -1887    -1885    -1883    -1884    -1887    -1887    -1885    -1884 
   -1883    -1885    -1887    -1888    -1887    -1887    -1887    -1881 
   -1884    -1895    -1891    -1881    -1881    -1883    -1880    -1887 
   -1892    -1885    -1883    -1887    -1887    -1887    -1888    -1887 
   -1884    -1883    -1887    -1890    -1887    -1883    -1884    -1883 
   -1884    -1890    -1891    -1887    -1884    -1883    -1885    -1887 
   -1885    -1883    -1879    -1883    -1888    -1888    -1888    -1888 
   -1881    -1884    -1890    -1888    -1885    -1883    -1884    -1890 
   -1887    -1885    -1890    -1887    -1884    -1885    -1885    -1885 
   -1887    -1887    -1883    -1885    -1891    -1890    -1887    -1884 
   -1883    -1884    -1885    -1890    -1891    -1887    -1880    -1881 
   -1888    -1891    -1883    -1876    -1883    -1888    -1887    -1888 
   -1885    -1883    -1885    -1890    -1887    -1881    -1883    -1885 
   -1883    -1881    -1890    -1895    -1890    -1887    -1885    -1881 
   -1880    -1884    -1884    -1885    -1888    -1884    -1884    -1888 
   -1887    -1883    -1881    -1885    -1888    -1888    -1885    -1884 
   -1885    -1887    -1884    -1884    -1885    -1883    -1883    -1887 
   -1890    -1888    -1885    -1887    -1887    -1884    -1887    -1885 
   -1883    -1881    -1880    -1883    -1891    -1891    -1885    -1881 
   -1881    -1890    -1894    -1888    -1885    -1881    -1877    -1884 
   -1892    -1891    -1890    -1885    -1877    -1881    -1888    -1883 
   -1879    -1884    -1888    -1888    -1887    -1888    -1887    -1885 
   -1885    -1884    -1885    -1887    -1887    -1884    -1884    -1888 
   -1891    -1885    -1883    -1881    -1881    -1884    -1887    -1885 
   -1881    -1883    -1888    -1887    -1887    -1888    -1885    -1885 
   -1885    -1881    -1880    -1887    -1890    -1879    -1877    -1888 
   -1891    -1884    -1885    -1883    -1880    -1887    -1892    -1884 
   -1877    -1884    -1890    -1885    -1885    -1890    -1884    -1880 
   -1883    -1888    -1887    -1884    -1885    -1884    -1884    -1887 
   -1888    -1887    -1885    -1881    -1880    -1888    -1892    -1884 
   -1879    -1879    -1881    -1892    -1895    -1891    -1898    -1904 
   -1910    -1927    -1944    -1957    -1984    -2018    -2057    -2110 
   -2158    -2184    -2192    -2177    -2123    -2030    -1907    -1761 
   -1621    -1498    -1391    -1301    -1227    -1202    -1263    -1386 
   -1549    -1796    -2120    -2382    -2504    -2554    -2585    -2605 
   -2633    -2641    -2585    -2462    -2282    -1960    -1458     -985 
    -776     -969    -1557    -2061    -2053    -1853    -1863    -1991 
   -2173    -2434    -2473    -2101    -1615    -1220     -994    -1394 
   -2578    -3555    -3402    -2517    -1372      237     1447      560 
   -2434    -5923    -7663    -5934    -2442     -442      211     1003 
    1085     -463    -2469    -3285    -3092    -3500    -5081    -6474 
   -5043      248     5719     7026     4074    -1112    -6254    -8784 
   -7479    -2918     2862     5903     3650     -475    -1872    -1796 
   -3221    -5848    -8033    -8613    -8046    -6388    -1125     6507 
    9842     6177     -298    -5452    -8696    -9576    -6809    -2432 
     -22     1405     3758     4897     4099     3600     1768    -4600 
  -11828   -13192    -7987     -541     4612     4939     1775     -854 
   -1917    -4649    -8375    -7468    -3343    -2470    -3084     -247 
    4864     9011     8656     1841    -6559   -11682   -13675   -12056 
   -6636      394     6124     8807     9154     5811    -1501    -6218 
   -7396   -10982   -14305   -12341    -7434    -1426     5252     9709 
   10046     6845     1507    -4411    -9460   -12679   -12513    -6501 
    2064     4812     1534     -963    -1200    -2107    -4017    -5152 
   -4932    -3034      684     2744      904     1015     6180     8382 
    2744    -5877   -12781   -15207   -11615    -4430     3385    10187 
   12428     6798    -3600   -11576   -14449   -13622   -10287    -6268 
   -1350     4298     4036    -1988    -2513     3472     5085    -1074 
   -6648    -4995    -1098     -909     -529     3273     6226     5115 
     965    -4479    -9540   -12081   -11144    -7337     -892     5528 
    6783     2894    -1264    -3298    -5175    -8247    -8100    -2046 
    4287     6551     4780     -425    -4456    -3638    -3133    -7619 
  -11701    -9855    -5942    -4189    -2359     1339     4577     5563 
    4608     1459    -3435    -8125    -9815    -4984     3847     8320 
    6733     3990     1224    -2964    -6214    -5549    -2268     -299 
   -2720    -8329   -10912    -6308     1036     3704      577    -4411 
   -8550   -10916   -10891    -7380     1134    10431    11627     5166 
    -295    -1290      -62     -260    -2926    -3975    -2575    -2895 
   -4558    -5385    -5444    -2421     1885      738    -3028    -1987 
    1409     1621     -857    -4430    -8240    -8842    -5591    -2722 
    -567     3173     4523      700    -2336    -2832    -6249   -11429 
  -11569    -5086     3256     7298     5377     2349     1309     -627 
   -3962    -5301    -3636    -1251    -1556    -4302    -4380     -360 
    4437     8487     9317     3057    -7234   -13155   -12565   -10461 
   -8313    -3570     1455     1907    -1647    -5031    -5734    -3848 
   -1028     1217     2416     2160      648     -768    -1138      745 
    4901     5637      -62    -4645    -3719    -2142    -2095    -2265 
   -3905    -8040   -11634   -10675    -5634      334     5116     5868 
    1081    -4969    -6403    -2509     1644     1736     1097     2714 
    2211    -1173    -3932    -6261    -9047   -12110   -12280    -5572 
    3547     7562     5980     2930     1687     1250       21      168 
    1906     1194    -3762    -9707   -11870    -7878     -252     4132 
    1842    -1965    -3341    -6115   -10608   -10253    -3817     2511 
    3445      210    -1437     -556     -846    -2016    -2107    -1325 
    -179     -332    -1271     -396     -288    -1624      265     2276 
   -1123    -6088    -8854    -9590    -6689    -1302     1988     2654 
    2983     2776      793    -2304    -4571    -5036    -3946    -2108 
   -2853    -7646   -10809    -8129    -2174     2810     4288     3420 
    3442     3889     -260    -7597    -8364    -2339     1610     1768 
    1907     3084     2366    -1174    -4473    -8035   -10917    -7562 
    -811     1853     1884     3237     2228    -3774    -8159    -6554 
   -3673    -4951    -9270    -9684    -3539     3761     7134     5567 
    2571     2799     4062     1287    -3700    -4649     -988      951 
   -2003    -5825    -6558    -6231    -8154    -9412    -6878    -3789 
   -1946      -47      598      379     2739     6605     6874     2720 
   -1188    -2782    -4118    -4996    -4468    -3406    -1652      380 
    -238    -3975    -6643    -7416    -9524   -10871    -7626    -1714 
    3149     5196     5540     6529     7307     5910     2548    -1448 
   -3770    -4249    -5584    -7615    -7959    -5548    -2133    -2479 
   -5572    -5081    -3940    -7148    -7905    -2022     3202     4329 
    4787     5193     5564     5618     1599    -4785    -6546    -3893 
   -2419    -3348    -3711    -3226    -4297    -5428    -3635     -916 
    -816    -2886    -4812    -6172    -6516    -4502     -769     3202 
    6357     6268     1155    -6039    -9697    -8495    -5661    -3060 
    -900      730     1269    -1259    -5078    -3690     2567     3222 
   -4984    -9695    -4468     1296     2477     3820     6718     6629 
     384    -8442   -12645    -9528    -3198     1648     3312       71 
   -6181    -8397    -4951     -734     1332     1791      637    -4005 
   -9039    -7820    -1680     3153     4016     1610    -1873    -4874 
   -5630    -2636     1335     2675     1571    -1869    -6443    -5859 
     940     4854      816    -5973    -9084    -8267    -6883    -4567 
     504     4957     5169     3582     3329     3993     3415     -834 
   -6770    -9845    -9676    -7372    -4959    -4672    -3717      633 
    4536     2253    -4479    -6957    -3800    -2760    -5259    -4581 
    1039     5989     7079     5567     2178    -1713    -4256    -6034 
   -7358    -6254    -2016     1584      241    -4351    -6106    -3454 
   -2199    -5513    -8394    -5270     2959     8762     6708      930 
   -1980    -1335     -904    -4095    -8519    -7727    -2274      288 
   -3152    -7280    -4349     4421     8856     5387       -2    -2617 
   -3238    -5294    -8098    -6767    -2289     -957    -3111    -3250 
    -826     -195     -699      527      953    -2162    -6826    -8930 
   -6027     -527     2083     -197    -2451      -51     2864      958 
   -2817    -2361     2992     6404     2354    -4405    -6984    -5555 
   -3754    -4843    -6970    -3335     3057     1556    -4936    -5975 
   -3574    -4303    -5427    -3483    -1428     -696      309      523 
   -1381    -1927     2137     5837     2802    -3657    -6220    -3685 
   -1129    -2709    -4623    -2146      765     -949    -5622    -8090 
   -4899      313      187    -4060    -4695    -1073     1105      483 
     418     1570     1528      608     -642    -4608    -9153    -9954 
   -8845    -7798    -4607     1819     6507     4179     -372    -1838 
   -3107    -5062    -5967    -5572    -3966    -3580    -4147    -1016 
    5100     8581     8299     7653     6257      757    -7296   -13398 
  -14528   -10454    -4635     -279     2355     3496     2365    -1027 
   -4599    -6421    -7109    -8433    -8907    -4978     3051    10848 
   13593    10161     3009    -5779   -13552   -16479   -11886    -2405 
    4739     7329     6183      332    -5066    -4136    -1050    -1085 
   -3254    -5243    -6889    -8104    -5667      800     5363     6484 
    6114     1219    -7384   -11967   -10644    -7704    -4857    -2290 
       8     3516     6899     6732     4048     1165    -4070   -11254 
  -13680    -8883    -1636     3781     6037     4827      981    -3311 
   -6671    -8868    -8885    -4914     2382     6648     3288    -2046 
   -2288     1077     2265     -595    -4569    -7507    -8920    -8106 
   -5772    -2311     2863     6380     4433      306    -1595    -2471 
   -3958    -5302    -5815    -4089      315     3414     2015    -1063 
   -1563      641     1212    -2814    -8262   -10550    -8446    -4460 
   -1796      333     2731     3087       60    -5387    -8707    -6038 
   -1764     -558      230     1977     2269     1746     2390     3627 
    3581     1023    -2457    -4920    -6625    -6859    -5637    -5790 
   -7115    -5580    -2442    -4027    -7371    -3566     3422     4032 
     207    -1077      874     1942     1162      540    -1871    -6791 
   -9003    -5745     -854     1065     1560     3268     2295    -3306 
   -7858    -6860    -3206    -1854    -2592    -3306    -2907      526 
    3819      633    -5265    -6567    -5818    -6340    -5309    -2149 
     861     3192     4437     4143     2201    -1300    -3110    -1572 
   -1775    -4745    -4282     -874     -664    -3412    -5713    -5957 
   -2991      178     -217    -1641    -2412    -3493    -2710     -368 
     589     1290     2897     3653     1490    -4058    -8407    -7111 
   -4433    -5159    -5664    -1341     4843     6525     3715      484 
   -2677    -6168    -8860    -9306    -6089     -872     2797     3686 
    2791     1908     -101    -4939    -8208    -7414    -7087    -7819 
   -5247       60     2853     1857     1491     3505     2940    -3470 
  -10940   -14283   -13173    -7927    -1213     3375     6745     8478 
    6220     1212    -4596    -8322    -7033    -4207    -5270    -9644 
  -11643    -6963     1053     5759     5991     4576     1389    -4691 
   -8506    -5713    -1273      272      726     1725     1540    -1513 
   -4804    -5401    -5559    -7612   -10328   -13308   -15921   -14443 
   -8286    -1487     3059     4236     3411     2755     1044    -1780 
   -2257     1644     5699     2065    -6393    -8749    -5474    -4237 
   -6057    -7109    -5508    -4410    -6249    -7769    -5724    -1306 
    2424     3738     2254       47      911     3746     4808     5537 
    8048    10454    12777    15786    13828     3072   -10107   -17493 
  -16239    -9740    -2884     4413    10847     9560    -1210   -13536 
  -17795   -12171    -4351     -598       75    -1460    -4372    -4874 
   -2250    -1270    -5387    -7677     -143     8640     9404    10482 
   19633    30284    32567    25928    16748     6936    -1840    -3090 
    2481     6744     4743    -3655   -16124   -30254   -40926   -40533 
  -29425   -16835   -10073   -11716   -20610   -29008   -27901   -15377 
    2602    14932    16614    14152    10827     4820     2307    10939 
   25474    33035    28667    16731     2674    -7172    -7551      -27 
    8654    11088     6026     1263     2220     3522    -1194    -9849 
  -17859   -24745   -29386   -25042    -7774    12715    21801    14625 
   -4158   -25506   -40813   -44863   -35046   -14029    10226    27074 
   26827    11693    -5863   -17253   -18270    -8303     4818    11422 
    9139     1998    -4035    -3766     3145     7839     -506   -18026 
  -27896   -22356    -6511    13855    30693    35409    29511    18719 
    3856   -11356   -15589    -3055    12869     8615   -19878   -47191 
  -49397   -30294    -8036     7659    15430    14887     7109    -7435 
  -23877   -30268   -24649   -14196    -1451     7863     7389     3198 
    1863      670    -2070    -5391    -9062    -9568    -1877    14600 
   31477    37233    32418    23388    10247    -3619   -11713   -14222 
  -11677    -1119    17331    34426    33581    11357   -15233   -32016 
  -36351   -32945   -31270   -26973    -8934     8622     4911   -13450 
  -28331   -32413   -27000   -17830   -11164    -3342    12386    24729 
   20181    10419     9752     9467      -94    -8311    -4326     2327 
   -1190    -8851    -6224     5825    12271     8507     7458    14607 
   19286    18562    17945    12557    -1691   -12642    -8976     -882 
   -4575   -15768   -23595   -32439   -43395   -44799   -37331   -30249 
  -16962     6567    21936    16417     2547    -2655     3990    13421 
   15984    12318     8264     5913     6727    11740    15944    14644 
   12658    13610     9711    -2911   -15157   -19245   -14312    -4515 
   -1397    -9674   -16618   -15245   -13925   -13257    -6461     4175 
   12411    12938     4020    -5435    -6489    -2501    -1015    -3345 
   -5278    -5356    -6999    -9980   -10578    -7373     -351     6493 
    7045     5692    11049    15165     5555    -8401    -9767     -542 
    6139     4276    -2913    -7547    -3292     5949     7780    -1615 
  -10012    -7815    -3442    -6313    -8631    -1552     6879     4652 
   -5714   -11924    -8502     -706     1286    -8176   -19475   -19530 
  -12244    -7827    -6728    -3758     5250    15248    16614    11578 
    6374     1505    -3046   -11040   -22805   -25574   -12577     3561 
    7658      514    -5109    -2636     5672    15871    19064     9286 
   -1537      666     9593    12268     9139     5886     1020    -9247 
  -20989   -25434   -21319   -14515    -7796    -1329     2883     3994 
    2369    -1656    -2702     3335     9697     9699     3732    -5919 
  -12472    -8590      695     2978    -3299    -8792    -8820    -7535 
   -9612   -10455     -549    14639    17443     6062    -4226    -7599 
  -10184   -12382   -11242    -8748    -5948    -2446     -176      218 
     167      625     1566     2092     1024    -3407    -9969   -11179 
   -4000     4787    11156    14779    12330     4870    -2052    -9119 
  -16335   -14411    -5077    -5842   -16978   -20699   -11826      465 
    7713     8924     8097     7315     5775     1860    -2079     -768 
    4099     7430     6615     -125    -8699   -12654   -11813    -9944 
  -11604   -14197    -8032     3410     6605     3672     6777    15120 
   18462    14176     5482    -5414   -12109   -10687    -9082   -13038 
  -15797   -10135    -2257    -4492   -14288   -17798   -11036    -1051 
    4114     3308     3144     5039     3792      633      599     4839 
   12206    18127    15715     4253    -8090   -13166   -10955    -6316 
   -3850    -5259    -6058    -1491     4544     3323    -7069   -14706 
   -9059    -1752    -7186   -15452   -10986     2211    10172     7152 
   -1124    -3276     4307     8669    -1652   -16390   -18513    -7967 
    4360    12114    12976     6898    -1440    -7739   -12364   -13728 
   -6681     5232     8741    -1475   -15255   -18989   -10875     -589 
    6249    12114    16052    11840      660    -5802    -1723     4318 
    3145    -3678    -9817   -12128    -9147     -164     8961    10169 
    5869     1678    -5196   -15570   -20509   -12359     2646    10956 
   10174     7653     5749     1313    -5799   -11630   -13062    -9479 
   -4168    -2978    -5799    -6712    -2674     2667     1537    -7221 
  -14489   -14045    -8280    -2863    -2366    -3416     2331    14138 
   19965    11340    -2551    -8492    -8403    -7462    -4826     -974 
    2120     1675    -3434    -8154    -6944    -1971     -519    -3993 
   -7433    -8527    -6586    -1050     3007     1772     2124     7682 
   10249     6191    -1098    -9602   -13412    -7993    -2110    -5148 
  -10215    -4806     7113     9872     1298    -6700    -6551     -675 
    2130    -2008    -5109     -769     8282    16027    16279     8978 
    -274    -9084   -16229   -19408   -18373   -12722    -4357     -631 
   -2551    -1706     2721     2978    -2151    -8195   -11970   -10777 
   -4164     4299     9566     9286     6319     2855    -2049    -6378 
   -7642    -5763       93     6002     3738    -4995   -10000    -8264 
   -4387    -1471      288     2239     4295     3161     -896    -4095 
   -6169    -6095    -1971     1630     -511    -5625    -6355    -2266 
   -1864    -5973    -4878     2407     6107     2204    -2452    -1836 
    1456     4090     5576     4781     2578      348    -3049    -7294 
   -9227    -6010      557     4783     4877     3681      904    -6008 
  -13023   -13223    -8140    -3142      305     -750    -7873   -13157 
  -11138    -6767    -2717     2778     8336    10135     4098    -7847 
  -14756    -9582     2253     9867     6600    -3951   -10606    -8756 
   -5686    -5697    -4072      893     3773     -109    -6993    -7952 
   -2574      569    -1131    -1386     3978     9244     6488     -166 
   -3048    -4548    -7056    -6808    -2120     3118     4031     1698 
    -653    -3851    -5860    -3947    -2747    -4895    -6363    -5313 
   -3362     -893     2458     4525     2516    -1782    -3932    -4171 
   -5927    -8347    -6579     2153    13386    18288    12461    -1769 
  -16074   -21033   -16920   -10458    -3279     4515     7780     3775 
   -1914    -3817    -3009    -2008    -1381    -2052    -4087    -4976 
   -3908    -1377     3122     5323      540    -7160   -12430   -14104 
  -10439     -893     9463    15225    16051    12364     3762    -7063 
  -14060   -12695    -5421     1609     4727     3096    -1863    -7146 
   -8827    -5055       60     1255     -877    -2592    -3026    -2659 
