Origin Time       2024/04/02 04:24:00
Lat.              40.133
Long.             141.712
Depth. (km)       71
Mag.              6.0
Station Code      IWT024
Station Lat.      40.2612
Station Long.     141.2908
Station Height(m) 94
Record Time       2024/04/02 04:24:49
Sampling Freq(Hz) 100Hz
Duration Time(s)  117
Dir.              E-W
Scale Factor      7845(gal)/8223790
Max. Acc. (gal)   63.615
Last Correction   2024/04/02 04:24:49
Memo.             
[...]
     595      594      596      598      596      598      598      598 
     598      596      594      594      594      595      599      599 
     598      600      599      595      595      595      595      598 
     599      596      595      595      594      594      598      602 
     599      594      592      594      594      595      602      603 
     596      594      596      600      599      595      596      596 
     595      596      598      596      596      599      596      592 
     594      598      599      598      596      599      600      596 
     591      588      592      599      602      598      596      596 
     595      598      600      600      596      591      589      592 
     592      596      600      599      598      598      594      589 
     591      596      599      600      603      599      594      595 
     594      588      591      598      600      598      596      594 
     589      594      600      600      596      594      595      596 
     595      594      598      602      600      598      595      592 
     594      594      595      599      600      598      594      591 
     589      591      595      600      600      598      594      596 
     599      596      595      599      600      595      594      598 
     598      596      598      598      598      598      594      592 
     595      596      596      598      600      602      598      595 
     592      589      594      596      594      596      600      598 
     595      592      589      595      604      604      598      594 
     594      591      591      594      599      603      600      595 
     594      587      585      594      604      607      603      595 
     587      585      589      598      603      603      599      592 
     588      588      591      596      604      603      595      592 
     591      591      594      599      606      610      600      591 
     587      588      591      598      603      606      602      594 
     584      583      591      602      606      606      604      596 
     587      583      589      600      606      604      602      598 
     591      589      592      598      602      600      596      594 
     591      592      596      596      596      600      600      594 
     587      588      594      600      604      604      598      589 
     585      587      595      603      604      604      600      595 
     589      587      591      602      607      604      599      595 
     591      589      595      596      595      599      599      592 
     591      595      596      595      594      596      598      596 
     598      592      589      595      602      600      598      596 
     595      595      596      600      599      598      600      596 
     592      594      596      594      592      596      600      600 
     598      595      592      592      596      598      596      599 
     599      591      588      598      603      600      598      594 
     587      587      598      606      603      596      592      592 
     591      592      598      602      600      596      599      598 
     591      591      592      592      598      603      599      594 
     596      598      594      594      598      598      596      592 
     589      592      595      600      600      596      595      595 
     594      594      596      596      596      598      598      594 
     595      599      599      599      598      596      592      589 
     592      598      598      596      599      596      591      591 
     585      564      504      396      252      108       17       29 
     159      419      814     1231     1404     1077      359     -237 
    -286      171      780     1371     2069     2533     1827     -249 
   -2446    -2882     -527     3138     4718     2404    -2184    -5506 
   -4922    -1182     2604     4301     3159     -348    -3464    -2984 
    1456     6573     8382     6285     1918    -4117   -10723   -13914 
   -9351     2505    15830    23468    20043     4949   -15232   -28493 
  -24970    -7263    10612    18836    19639    17167     9617    -4294 
  -19128   -25348   -16144     3381    18473    20961    11504    -5815 
  -18054   -14177    -2550     3267     3676     6895    14709    17482 
    5845   -13729   -24390   -16718     4328    24282    27800     9822 
  -16043   -28490   -20129     -643    15206    19238    14492     8220 
    3767    -1181    -9417   -16569   -16320    -8378     3335    12145 
   13290     9147     4976     3318     1503    -3792    -8702    -6905 
    1441     8864     6262    -5714   -14890   -11565     2369    18080 
   27125    25077    14756     3811    -4962   -14222   -23090   -23741 
   -9121    14200    27234    18079    -4784   -20017   -14794     2461 
   14952    13613     1364    -6986    -2230     3504    -3842   -19222 
  -24663    -7253    24744    45358    37065     9567   -12826   -17548 
   -7069     9810    17316     6775   -10592   -21458   -21806   -12761 
    -625     9501    16750    16694     7150    -2718    -5798    -8104 
  -14293   -16340    -7065     6459    11485     6438     3127     8810 
   16659    21431    23257    16171    -1181   -15426   -14655     -707 
   12494    10239    -4218   -12915    -7901      652     -318   -11110 
  -20052   -17676    -5958     6702    12645     8112    -2297    -9964 
  -12930   -13837   -13463   -10662    -3616     5823    11735    12299 
   10809     9811     8831     4550    -2689    -5544    -1869     2118 
    3906     3647    -1177    -8436   -10355    -4378     3199     5077 
    -414    -8968   -13655   -10840    -2991     4619     8683     9448 
    9684    11151     9248      851    -4993    -1271     6574    13312 
   16555    13945     9204     6617     4683     3187     1665    -4523 
  -14381   -19241   -14295    -3045     6462     7308      222    -9173 
  -16993   -19381   -14953    -7983      -89     9996    17217    15155 
    6686       13    -1498        5     1746     2427     2639     3461 
    4086     2899       28    -3662    -8525   -12471    -9950     -745 
    8019    10611     6741     1053     -665     1436     3580     4202 
    1385    -3491    -1946     7032    13651    14667    12924     8810 
    5393     4434      611    -7322   -13139   -12455    -4827     5726 
   11206     8168      430    -5354    -2685     7861    16773    16920 
   10291     3238      295     1351     2948      939    -6299   -15078 
  -20248   -19442   -12600    -4056      706     2563     3321      846 
   -4224    -8503   -10396    -8826    -3245     4068     7842     4708 
    -951    -2335       78     1209      159     -977    -2755    -5363 
   -5976    -3682      658     7257    13365    14365    10438     3919 
   -4241    -9845    -6475     5522    17595    20991    12742    -3609 
  -19593   -26381   -20021    -3279    15222    26173    26561    19556 
   10401     3562       12    -1784    -3896    -8484   -14332   -16625 
  -12328    -2720     7989    15892    18972    17049    12804     9155 
    6334     3238    -2034    -8020    -8197    -2494      607    -1657 
   -4483    -5594    -6421    -7288    -7115    -5790    -4036    -2284 
    -814      190      665     1246     3973     8841    10798     5130 
   -6045   -15102   -15333    -6778     3915     9360     7627     3894 
    3349     3904      951    -5425   -11456   -13267    -9690    -3013 
    3562     8091    10195    10434     8977     5800     3711     7211 
   14860    19576    17955    11508     2442    -4955    -5368     1073 
    9217    14095    12110     3334    -7187   -14141   -14974   -10091 
   -3261      556     -706    -4608    -7912    -9852    -9450    -6168 
   -4028    -5946    -8140    -7133    -4018     -311     3433     7315 
   11163    11857     6450    -2532    -9930   -13736   -15415   -16105 
  -13744    -4995     8723    19511    20742    13878     5360      544 
     621     2407     1714    -2006    -4725    -2806     1579     3422 
    1837      333     2470     8256    12482     9270     -762   -11811 
  -18276   -16856   -10173    -5896    -6887    -8469    -6556    -2531 
     168     1169     3177     7723    12123    12151     7744     3082 
    1436     2631     5228     7771     7755     5190     4320     6484 
    7450     3840    -2509    -6953    -7168    -4741    -2157     -101 
    2566     6717     9980     8783     4831     3080     4052     4959 
    3842      257    -3449    -4432    -3415    -2632    -2458    -1860 
     465     5166    10126    11338     8610     5865     4571     2390 
   -2170    -7504   -10241    -8064    -3632    -2296    -3003     -930 
    2878     6112     9455    10528     6093     -903    -3966     -225 
    6334     8511     3936    -1983    -3456    -1374      587     1425 
    1620     2119     4086     6941     8348     5814     -398    -5787 
   -6467    -3457    -1186    -3828   -10782   -16591   -17335   -13414 
   -7101    -1869       90      560      596    -1333    -4815    -7977 
   -9733    -9378    -7427    -5395    -3885    -1872     1503     4762 
    6369     6826     6589     5667     4662     4326     4554     4239 
    3121     2095     1748     2478     3846     3855     1220    -2123 
   -2529      529     3684     4526     4072     4684     7446    11155 
   13846    14304    11743     7213     4220     4556     6023     6034 
    4791     3412      591    -5948   -14412   -19562   -19774   -18091 
  -15431    -9853    -2454     3304     6887     9447    10196     8243 
    4498      322    -2658    -3329    -3357    -4839    -5834    -2775 
    4189    11785    17155    19237    17734    12109     3190    -5622 
   -9582    -5967     1466     5544     4828     3304     2798     2425 
    1528     -463    -2851    -3649    -3472    -5005    -8368   -10459 
   -7875     -479     7688    11790     9649     3365    -1968    -3090 
    -926     1637     1783    -1069    -3653    -3372    -1831     -720 
    -680    -2313    -3704    -3037    -2282    -3704    -6926    -8950 
   -6177        5     4311     5610     5208     1883    -2886    -4907 
   -4633    -3404      978     8005    12819    11749     5348    -2296 
   -6808    -6272    -1567     4475     8808     9937     8295     5440 
    2200    -1771    -4568    -3007      526      992     -911    -2211 
   -2961    -3240    -2535    -1363      395     2829     3981     2512 
    -240    -3154    -5490    -4855     -932     2976     4557     3844 
    2708     3886     6882     8062     5849     2511     1215     2150 
    2605     1788     2095     4507     7001     6863     2641    -3612 
   -7873    -8650    -6158    -1383     2004     1615     -325    -1733 
   -2643    -2350     -248     2393     4330     5644     6010     4302 
     124    -5663    -9992    -9155    -4241      341     2909     3557 
    2933     3472     6277     9402    10100     6399     -746    -7611 
  -11442   -11101    -6687    -1466      839      638     -166    -1408 
   -3179    -4970    -4467     1389    10671    17077    16758    10995 
    4271     -118    -2621    -4272    -4310    -2181     1341     5259 
    8845    10650     8584     2922    -3134    -6863    -6993    -3402 
    1525     3530      931    -2728    -4101    -4243    -4392    -4040 
   -2758     -819      224     -591    -1324      176     2199     1637 
    -989    -4041    -6907    -6777    -1840     4345     8172     9929 
   10135     8297     5044     1092    -3121    -5637    -4791    -1289 
    2258     2785      552    -1418    -2521    -3597    -4903    -6698 
   -6712    -2124     4806     9724    10511     6824     2172     1377 
    2710     1737    -1281    -4186    -5431    -3874    -1040      110 
    -222     -388    -1017    -1949    -1448      726     4783     9194 
    8228      -36    -9710   -14804   -13042    -5896      919     2890 
    -440    -7830   -13757   -12248    -6686    -3551    -2598    -1703 
    -876     1399     6689    12029    14370    15053    15169    14754 
   14719    13680    10886    10125    12325    12799     7955    -3717 
  -20626   -35131   -40995   -37655   -24385    -3825    14130    23407 
   26226    24351    18334    12302    10635    13140    15346    11875 
    2396    -6596    -9999    -9855    -9941   -10882   -11804   -12271 
  -11169    -5572     5282    15923    19487    14359     3331    -8734 
  -15323   -12627    -3672     4013     4546      280    -2466    -5576 
  -13142   -18945   -16108    -8117    -1749      144    -2088    -6816 
  -11124    -9433     3449    24842    41380    39185    19338    -4344 
  -20609   -24657   -16098      324    17370    27135    23039     6417 
  -12584   -22754   -18994    -4318    13406    27321    33783    30516 
   18504     5289     -396     3854    14854    26694    32057    27577 
   17328     6501    -4810   -18993   -34071   -40679   -29508    -2713 
   26450    44313    44047    27332     1957   -24397   -43672   -44921 
  -25205     4035    28593    39046    30570     7685   -15939   -28642 
  -28474   -21257   -14411   -10741    -8094    -4572      684     9297 
   19718    25914    24416    17855    11076     6328     -602   -16515 
  -38742   -54135   -50491   -24356    15182    49662    63944    53131 
   22638   -12324   -36529   -44996   -40146   -27220   -13301    -4207 
   -1148     -783     1823     9405    18455    20329    10675    -4043 
  -11469    -4226    14239    33161    42132    37895    24769     8448 
   -8440   -25762   -43417   -58847   -66091   -59765   -41254   -18065 
    2461    17354    26611    29029    24048    15741     9397     7295 
    8633    11190    13339    13019     7352    -2574   -10984   -13579 
  -10215    -3385     2947     5408     3689      305    -2083    -1846 
    1977     9061    17339    22684    21118    14215     8055     5298 
    1663    -9459   -28015   -44259   -47351   -33745    -8391    16657 
   29728    30288    25810    19422    10127      858    -3491    -2319 
    1992     6901    10498    12244     9714     -346   -14166   -24030 
  -27419   -24846   -15583     -905    13377    21228    22162    18823 
   10640    -2883   -15766   -20753   -17406    -9861    -1317     6650 
   13117    17793    20655    21270    19037    14300     9386     7358 
    8986    11979    12965    10831     7712     4927     1075    -4793 
  -11249   -15822   -17928   -18617   -17425   -14594   -13721   -16436 
  -19624   -20186   -16881    -9467      147     8388    12312    11229 
    6613      187    -5756    -8158    -6913    -4511    -2092    -1121 
   -3645    -7435    -8189    -5053      866     8321    14308    14737 
    8495     -496    -6816    -6824      419    10978    18612    21114 
   18912    11658     1354    -6677    -8687    -5360     -531     1989 
    1588       54    -1834    -4753    -8614   -11821   -12857   -10498 
   -3137     7801    15368    14060     7350     2722     2567     4098 
    4303     2540     -194    -3441    -7480   -11718   -14642   -14789 
  -10415     -502    12298    22778    28104    28788    26890    25296 
   24610    21737    14953     6783       27    -5643   -10420   -11072 
   -6021      256     1935    -2571    -9645   -13761   -13336   -11034 
   -9121    -8487    -9251    -9983    -8407    -2733     6953    17548 
   24943    26261    20262     9965     2284     1549     7479    17643 
   27841    34018    34160    26257    10277    -7072   -17720   -20989 
  -21169   -20912   -20667   -20619   -21249   -22704   -23643   -21848 
  -16907   -10856    -6226    -4758    -6766    -9791    -8785    -1035 
    9803    17801    20106    17262    11950     6737     2691      589 
      20    -1080    -3110    -4992    -6430    -6166    -2326     4561 
   11858    15670    12139     1676    -9842   -15777   -14247    -8685 
   -3316     -842    -2494    -6226    -8390    -9047   -11219   -15618 
  -18814   -16081    -6764     4365    12575    16514    16166    11994 
    6247     3154     6226    13081    16471    12781     4002    -6247 
  -14210   -18265   -18685   -14821    -8268    -4257    -5584    -9391 
  -10258    -5205     3439    10095    10030     2107   -10619   -22667 
  -27842   -21886    -7395     7453    16368    17544    12835     7501 
    6423     9418    12051    11253     8294     5269     2690     1356 
    1570     1853     1516      907      -40      276     4314    10773 
   15687    16850    14997    13412    15843    22966    31259    35270 
   31634    21397     8444    -2732    -7855    -5166     2211     9124 
   12690    12102     7597      877    -5752   -11192   -15346   -17159 
  -15329   -10955    -6529    -3712    -3458    -5463    -7643    -8213 
   -7219    -5729    -4607    -4055    -3299    -1105     2266     5503 
    8537    11146    11524     9008     5780     4656     6547    10162 
   12685    10960     4410    -4054   -11331   -16006   -17528   -15957 
  -12515   -10023   -11260   -15637   -18922   -17362   -11187    -3929 
     741     2023     1428     -294    -2311    -2743    -1723     -735 
     554     2731     4874     5968     5850     5144     4345     3052 
    1518     1313     2856     4575     5139     4491     2953     1185 
     912     3510     7620    10898    12502    11439     6867      710 
   -4357    -7199    -6723    -2886      677     -186    -5400   -12133 
  -18284   -22356   -22531   -17883   -10107    -2964     1016     2373 
    2272     1125      105     -279    -1642    -4563    -7308    -8085 
   -5964    -1609     2698     4806     4059     2647     4141     8839 
   13591    15782    15530    14679    13329     9558     3958      544 
    2058     7173    12143    13805    11977     8955     6388     4704 
    4009     3505     2567     1382       76     -114     2151     5219 
    6073     3852      -47    -3758    -6137    -6142    -2930     2035 
    5594     6374     5753     5536     5869     5528     3730      557 
   -4495   -11750   -18605   -20852   -16806    -7803     3488    13234 
   17502    14596     6277    -2382    -6741    -7460    -8110    -9289 
   -9508    -8533    -6825    -4995    -3508    -1642     1209     4171 
    5509     4002     1688     2876     7986    13016    14644    12028 
    6814     2162     -487     -996     1286     4460     4248      379 
   -3268    -4116    -2092      769     1784      565    -2235    -6759 
  -12715   -18391   -19916   -14474    -5255     1891     4382     3376 
    2164     2963     4618     4595     1254    -4438    -8738    -8818 
   -4945      843     5998     8642     7940     4324      526     -432 
    1356     3744     5459     5737     3083    -2947    -9301   -11151 
   -6741      970     7554    10292     8815     4645      562     -704 
    1591     5408     8120     9293     9887    10146     9656     7898 
    4488      129    -3399    -4963    -4770    -3531    -2128     -985 
     962     4363     7033     6382     2856     -787    -2232    -1460 
      21     1023      746     -707    -1529     -702      224     -233 
   -2010    -4838    -7641    -8175    -5327      318     7022    11394 
   10570     5393     -585    -3856    -2644     1885     6072     6282 
    1648    -5074    -9749   -10397    -8289    -5834    -4013    -2073 
     264     2088     3268     3912     3153     1768     2389     5907 
   10770    14361    13972     8546     -122    -7743   -10180    -7055 
