Origin Time       2024/04/02 04:24:00
Lat.              40.133
Long.             141.712
Depth. (km)       71
Mag.              6.0
Station Code      IWT023
Station Lat.      40.0370
Station Long.     141.4501
Station Height(m) 402
Record Time       2024/04/02 04:24:49
Sampling Freq(Hz) 100Hz
Duration Time(s)  107
Dir.              U-D
Scale Factor      7845(gal)/8223790
Max. Acc. (gal)   39.399
Last Correction   2024/04/02 04:24:48
Memo.             
[...]
  -15573   -15587   -15587   -15576   -15583   -15584   -15581   -15581 
  -15577   -15583   -15588   -15581   -15577   -15581   -15584   -15584 
  -15584   -15583   -15583   -15583   -15577   -15579   -15592   -15587 
  -15572   -15583   -15587   -15577   -15584   -15585   -15580   -15589 
  -15583   -15577   -15589   -15580   -15573   -15595   -15584   -15569 
  -15589   -15589   -15574   -15581   -15581   -15581   -15588   -15585 
  -15580   -15581   -15583   -15585   -15585   -15581   -15580   -15579 
  -15584   -15587   -15583   -15583   -15583   -15580   -15585   -15584 
  -15579   -15585   -15587   -15580   -15583   -15587   -15581   -15577 
  -15581   -15584   -15581   -15580   -15584   -15584   -15581   -15581 
  -15585   -15584   -15583   -15585   -15580   -15581   -15591   -15584 
  -15573   -15580   -15589   -15587   -15580   -15579   -15581   -15584 
  -15585   -15583   -15579   -15583   -15584   -15581   -15583   -15581 
  -15581   -15584   -15583   -15583   -15581   -15581   -15584   -15583 
  -15583   -15581   -15580   -15589   -15585   -15573   -15583   -15589 
  -15579   -15577   -15585   -15581   -15579   -15583   -15581   -15579 
  -15584   -15585   -15581   -15583   -15583   -15581   -15585   -15583 
  -15581   -15587   -15580   -15580   -15588   -15580   -15576   -15581 
  -15583   -15589   -15585   -15573   -15583   -15587   -15577   -15585 
  -15585   -15576   -15585   -15588   -15580   -15584   -15584   -15581 
  -15585   -15585   -15581   -15580   -15585   -15585   -15581   -15588 
  -15585   -15576   -15584   -15588   -15580   -15579   -15583   -15584 
  -15583   -15581   -15579   -15580   -15591   -15588   -15576   -15581 
  -15587   -15584   -15580   -15583   -15588   -15583   -15579   -15587 
  -15584   -15580   -15588   -15585   -15577   -15584   -15585   -15583 
  -15584   -15585   -15583   -15584   -15585   -15584   -15581   -15585 
  -15588   -15581   -15576   -15584   -15587   -15580   -15581   -15585 
  -15585   -15587   -15581   -15577   -15587   -15587   -15577   -15581 
  -15587   -15584   -15583   -15577   -15580   -15589   -15583   -15576 
  -15583   -15583   -15580   -15583   -15581   -15580   -15584   -15583 
  -15581   -15585   -15583   -15584   -15584   -15579   -15584   -15581 
  -15576   -15587   -15589   -15580   -15583   -15588   -15583   -15583 
  -15584   -15577   -15580   -15588   -15583   -15577   -15585   -15587 
  -15581   -15583   -15584   -15583   -15587   -15584   -15580   -15587 
  -15587   -15585   -15587   -15580   -15576   -15585   -15587   -15583 
  -15584   -15584   -15581   -15583   -15584   -15585   -15581   -15581 
  -15583   -15577   -15577   -15588   -15589   -15576   -15576   -15592 
  -15588   -15573   -15577   -15588   -15584   -15580   -15584   -15583 
  -15579   -15583   -15583   -15580   -15581   -15583   -15587   -15584 
  -15574   -15579   -15584   -15580   -15585   -15587   -15581   -15584 
  -15584   -15580   -15585   -15585   -15580   -15583   -15585   -15583 
  -15584   -15584   -15580   -15584   -15584   -15579   -15579   -15583 
  -15587   -15585   -15580   -15579   -15584   -15583   -15581   -15584 
  -15584   -15584   -15583   -15581   -15583   -15580   -15579   -15581 
  -15583   -15584   -15583   -15581   -15584   -15584   -15581   -15581 
  -15583   -15585   -15584   -15580   -15579   -15584   -15585   -15580 
  -15584   -15587   -15581   -15581   -15585   -15583   -15581   -15583 
  -15584   -15583   -15581   -15580   -15581   -15587   -15585   -15579 
  -15583   -15588   -15580   -15576   -15585   -15587   -15579   -15581 
  -15588   -15583   -15580   -15585   -15581   -15583   -15591   -15583 
  -15576   -15584   -15584   -15580   -15584   -15584   -15580   -15583 
  -15584   -15584   -15588   -15583   -15577   -15589   -15591   -15576 
  -15581   -15591   -15583   -15581   -15587   -15583   -15584   -15585 
  -15580   -15581   -15584   -15580   -15585   -15588   -15577   -15580 
  -15589   -15585   -15577   -15581   -15587   -15581   -15579   -15587 
  -15587   -15580   -15584   -15585   -15581   -15583   -15584   -15584 
  -15583   -15583   -15587   -15584   -15576   -15580   -15588   -15584 
  -15579   -15581   -15587   -15585   -15580   -15580   -15585   -15587 
  -15583   -15583   -15583   -15585   -15588   -15581   -15579   -15587 
  -15587   -15576   -15580   -15589   -15587   -15579   -15580   -15585 
  -15580   -15580   -15588   -15583   -15580   -15587   -15584   -15579 
  -15584   -15585   -15583   -15581   -15581   -15583   -15581   -15581 
  -15584   -15584   -15583   -15581   -15583   -15587   -15584   -15580 
  -15583   -15584   -15580   -15583   -15585   -15583   -15577   -15566 
  -15507   -15315   -14893   -14204   -13458   -13124   -13513   -14176 
  -14108   -13379   -14019   -16613   -17734   -15712   -14246   -16443 
  -21265   -23409   -17281    -9603   -12973   -21375   -20536   -14913 
  -14851   -16518   -14697   -14139   -15907   -14177   -11168   -12325 
  -14725   -13456    -8452    -5773   -11832   -21015   -20494   -11592 
   -9930   -20101   -26118   -17159    -8336   -14650   -22443   -16425 
  -10071   -16405   -23458   -22767   -21006   -20561   -20503   -20283 
  -14593    -7697   -11947   -18254    -9865    -1489    -9751   -16553 
  -11893    -8918   -10812   -14573   -14625    -7871   -10098   -24669 
  -24706    -7846    -3605   -15545   -26896   -31930   -27415   -17064 
  -11974    -9625    -9200   -14671   -10581    -5316   -20879   -25713 
  -15905   -28232   -33424   -15438   -12255   -11634      889    -2369 
  -19498   -27048   -18370    -8700   -15998   -26581   -27376   -28692 
  -25855   -11133    -7921   -26168   -26383    -5503   -12953   -27507 
  -14442   -14972   -18567    -2209   -10455   -21910    -9533   -10940 
  -13772    -4511    -8804   -19966   -22123   -19476   -18914   -18655 
  -17864   -23710   -27445   -20422   -15094   -13009    -7647    -8388 
  -17034   -17406   -11611   -12021   -13427   -16649   -24102   -22314 
   -9441    -3518   -11584   -17120   -12928   -11905   -11145    -7843 
  -21120   -35591   -21342    -2612     -893    -5881   -19286   -31279 
  -24640   -14312   -11844    -9521   -16426   -31422   -25907    -9313 
  -10161   -12316    -8723   -16999   -24683   -17030    -9115    -8966 
   -7870    -9472   -15881   -19548   -19353   -14143   -11439   -15921 
  -18366   -16915   -12795   -12785   -18357   -16179   -12667   -16985 
  -20024   -20353   -17369   -13763   -18011   -17703    -6388    -4295 
  -17157   -26638   -20344    -8155    -4121    -8409   -19980   -28279 
  -19823    -8559    -8355   -12613   -16962   -20344   -19607   -17409 
  -14551   -10204   -11396   -13294   -12202   -17903   -18364    -8931 
   -9888   -15003   -15160   -21020   -20417   -10160   -16595   -26310 
  -16750   -11308   -18252   -22042   -17699   -11271   -14592   -20637 
  -20796   -20131   -16768    -9927    -3137    -5382   -17801   -20387 
  -13034   -15553   -21039   -14882    -9829   -14644   -18127   -21817 
  -22801   -12366    -9749   -15556   -14405   -19610   -22650   -10069 
   -8460   -18607   -18598   -17859   -21103   -17185   -13895   -19296 
  -19800   -12633   -12899   -14534   -12394   -20962   -22111    -6912 
   -9130   -16815    -9023   -15773   -30940   -23348    -9652    -6531 
   -9625   -20189   -24817   -13423    -8868   -19853   -23082   -13992 
  -10767   -15600   -17938   -17614   -18323   -18443   -17096   -14615 
  -10100    -6913   -10663   -15314   -15121   -17305   -20325   -16679 
  -14054   -16702   -16495   -14323   -11518    -8266   -11453   -15439 
  -13934   -11650   -13425   -20780   -22225   -15291   -14400   -18480 
  -20098   -17743   -12124   -15407   -22434   -13798    -8461   -17755 
  -19754   -18800   -19363   -12240   -12407   -21452   -17822    -9040 
  -12789   -19013   -16657   -11576   -12991   -19064   -17545   -10589 
  -10887   -16167   -18760   -15800   -11574   -14971   -18924   -15612 
  -12941   -13479   -17446   -23267   -21571   -19318   -21728   -16713 
  -13500   -17756   -14224    -8410    -9092   -11371   -14407   -18617 
  -19044   -13464   -10660   -13751   -17010   -19737   -20416   -18200 
  -15633   -12737   -11161   -13113   -15427   -13649   -12687   -14913 
  -12580   -12035   -15201   -14065   -16957   -20202   -16915   -17243 
  -16182   -10172   -13200   -21851   -20887   -14748   -14531   -17957 
  -20112   -17824   -13655   -16708   -18543   -13292   -15488   -20181 
  -15610    -9809    -9369   -12571   -15495   -16645   -15090   -13012 
  -16322   -18297   -13790   -13930   -21199   -22600   -15296   -12390 
  -15768   -16812   -15693   -12268    -9688   -15584   -21343   -16907 
  -12731   -17057   -18445   -12469   -14457   -23715   -19827    -8232 
   -7808   -15098   -22815   -22653   -13057   -13593   -20814   -15491 
  -10617   -15318   -14041   -10646   -15682   -18145   -16515   -16252 
  -13651   -13544   -16599   -16131   -15967   -16772   -15020   -14277 
  -15861   -17194   -16779   -15003   -12307   -11545   -15334   -16650 
  -16070   -18293   -16090   -12891   -16070   -18411   -16114   -15558 
  -19120   -21447   -18048   -10817    -8714   -13490   -16526   -16340 
  -15142   -15874   -18725   -19286   -20092   -18916   -14570   -14327 
  -15276   -14508   -13217   -11773   -13998   -15094   -12702   -15871 
  -18381   -15390   -17146   -16891   -12595   -14450   -14256   -12235 
  -14978   -13479   -12675   -17878   -15946   -11404   -14863   -17693 
  -15512   -13012   -13497   -17200   -19093   -17189   -15205   -13898 
  -14563   -18817   -20865   -18666   -17834   -16893   -13360   -13660 
  -18150   -18215   -14334   -13857   -13359   -11250   -15525   -19423 
  -17153   -18408   -19398   -13107   -10183   -14590   -16012   -14048 
  -13921   -14620   -16287   -16108   -13548   -14341   -14143   -11345 
  -14393   -18642   -18138   -18044   -19222   -18689   -16605   -17739 
  -21589   -19022   -12804   -13802   -16873   -15356   -15691   -17086 
  -14447   -11796   -11808   -11797   -12105   -14357   -16173   -16980 
  -16509   -16771   -19981   -16831    -9945   -15318   -21030   -12885 
  -10956   -18665   -20186   -22195   -20133   -10382   -12649   -18584 
  -15441   -14936   -15133   -11456   -10612   -13130   -14430   -12914 
  -12984   -16098   -17282   -16606   -15998   -16237   -19094   -18171 
  -14231   -17791   -19170   -12071   -11691   -14921   -10381   -10238 
  -18235   -19010   -16179   -17991   -15921   -11875   -11971   -13953 
  -16154   -14646   -14145   -18038   -17558   -14310   -13100   -13311 
  -15237   -15260   -15808   -19503   -17882   -16048   -20007   -17329 
  -11017   -10604   -12216   -14740   -15746   -16085   -18463   -16382 
  -12976   -18441   -24024   -18362   -15120   -20102   -16988   -10295 
  -10359    -9498   -12627   -21109   -21612   -19612   -20798   -21222 
  -19479   -11674    -7420   -14936   -21020   -15930    -9346   -13124 
  -17382   -13350   -12341   -17101   -18068   -16308   -18895   -19564 
  -16575   -17821   -17822   -14670   -11700    -7983   -11149   -19257 
  -20314   -16100   -12386   -11464   -14345   -15749   -14223   -13394 
  -13215   -18099   -24219   -18408    -8926    -9452   -11843    -9949 
  -15754   -24563   -18149   -11412   -16740   -17976   -15736   -15931 
  -13664   -13753   -19461   -21065   -13880   -11176   -18299   -19727 
  -16015   -17208   -14596   -11986   -16957   -16146   -16499   -23789 
  -18057    -7489    -7507   -12429   -21412   -23471   -13366    -9613 
  -13257   -16083   -20136   -19564   -16432   -18873   -15793    -7707 
  -11083   -16988   -14531   -11996    -9747   -11828   -20132   -18207 
  -12151   -13427   -13386   -19198   -28329   -22053   -10824    -9452 
  -12452   -16031   -18593   -15784   -11858   -11556   -13887   -18794 
  -19772   -14318   -13304   -18520   -20047   -19106   -19946   -15751 
  -12222   -14960   -14218   -17259   -21622   -11766    -5821   -10729 
  -12726   -17883   -20000   -15078   -17466   -17104   -12930   -18697 
  -20494   -17844   -19292   -14135   -12441   -16432   -11969   -14512 
  -21695   -14769   -10975   -16262   -15830   -18156   -22489   -14293 
   -9823   -18900   -18831    -7283    -6228   -15124   -16811   -15606 
  -19500   -17381   -12075   -17437   -19832   -10312   -10478   -17848 
  -13194   -10092   -16691   -21045   -25606   -28256   -20976   -15889 
  -18774   -18252   -15827   -18334   -17343   -12275   -12521   -10291 
  -10316   -18431   -12577    -5462   -10462    -5857    -7836   -21621 
  -17219   -11152   -25929   -36466   -30437   -25316   -23083   -20748 
  -21045   -21973   -24405   -24259   -15473    -4101    -3835   -10296 
  -10098   -11766   -15358   -15693   -15441    -9424   -12718   -23573 
  -13213     -152    -5081    -6509    -1273    -5062    -7684     -676 
   -9571   -35243   -39965   -21589   -11458   -17543   -26288   -34673 
  -36566   -22339   -11965   -10300      997     3670    -8830    -7134 
    3732     -750   -13367   -23566   -34736   -34739   -23796   -22499 
  -20865   -13648   -18025   -26491   -24972   -16908   -16092   -24356 
  -23670    -8788     6467     6029    -7558   -16653   -20591   -21955 
  -21560   -26406   -26639   -20436   -24686   -29057   -15778     -268 
    4004     7068     3881   -14342   -19804    -6723   -10347   -19824 
  -11322    -1367     1030    -2443      951     7765    -6012   -11206 
    4899     1294   -17589   -29270   -31334   -20321    -9738    -5289 
    -762   -10983   -32329   -40683   -36103   -20991    -2398   -16735 
  -54419   -56884   -38186   -32914   -25072   -27167   -37575   -20710 
     815    -2639   -12789   -16650   -19224   -16688    -7535    -8618 
  -17647   -17567   -16812   -20718   -18883   -12050   -13666   -19762 
  -14956    -7518     2736    13768     5729    -3735      826    -1035 
  -14904   -21235    -9297    -5046   -22736   -33681   -26041   -14974 
  -12158   -20911   -32271   -29045   -16698   -23225   -30492   -13782 
  -13393   -29000   -22233   -15435   -14459    -4804    -9082   -22395 
  -21375   -10956    -9783   -23414   -25847   -10621    -1015    -6120 
  -20694   -23171   -14442   -16447   -16650    -8459    -5697    -7763 
  -13780   -22414   -21795   -15066   -22804   -34852   -33100   -31294 
  -28466   -21001   -18943   -17189   -18549   -21304   -17374   -15957 
  -15211   -13209   -13410   -10422   -10546   -13779   -10192    -7042 
   -9612    -8692    -2542     -440    -4282    -7165    -4479      942 
    1151    -8764   -19919   -17686   -11479   -11176    -8388    -9248 
  -14339   -16227   -24929   -33513   -25085   -15728   -21038   -28343 
  -30092   -25689   -18141   -19511   -24277   -20243   -13941   -17302 
  -23804   -19553   -15701   -18534   -20040   -23172   -19630   -10906 
  -15049   -21163   -17076   -10810    -6115    -8479   -14289   -10592 
   -6701    -9493    -9173    -6679    -5327    -8460   -14693   -11450 
   -5705    -7388   -11122   -18908   -20237    -7959    -7376   -22418 
  -28760   -23349   -14608    -6478    -7411   -16004   -18708   -13648 
  -10654   -12560   -15450   -14777    -9558   -11227   -18102   -16919 
  -16471   -16795   -14436   -21965   -25573   -14856    -9875   -12966 
  -14717   -16920   -16974   -13498   -14204   -16326   -13513   -13929 
  -20177   -20965   -16177   -18397   -24173   -23581   -22711   -22104 
  -17253   -15106   -17443   -16181   -13371   -15970   -18532   -18615 
  -18106   -15309   -14941   -19147   -23193   -20532   -13416   -12742 
  -12872    -9277   -11260   -14241   -11020   -10822   -17887   -18967 
  -15719   -21811   -26153   -22027   -21446   -22682   -17527   -11587 
  -15979   -22416   -19830   -19468   -23040   -21627   -19283   -18422 
  -14284    -8039    -7334   -10066   -10590   -11493   -11129    -9711 
  -10315   -11367   -12519   -11138    -8932   -10991   -14601   -14585 
   -8166    -3612   -10277   -18480   -17761   -14022   -13880   -14728 
  -13567   -14411   -19057   -20101   -20036   -24672   -23445   -15697 
  -15993   -20730   -15851   -12036   -19010   -21259   -16316   -13043 
  -12712   -14621   -16233   -17788   -16432   -14104   -17423   -20590 
  -21141   -20583   -16796   -13325   -12081   -12548   -14148   -12081 
   -8363    -9545   -13047   -16675   -18418   -15088   -15959   -18956 
  -13279   -11169   -15272   -14520   -12434   -11936   -14507   -18312 
  -16479   -16143   -19651   -16312   -11839   -12297   -11821   -14615 
  -18994   -19386   -19980   -17849   -14278   -15032   -17679   -18211 
  -14280   -13726   -17905   -16251   -15403   -21348   -23229   -19996 
  -17783   -14462   -11747   -13645   -14781   -15761   -20159   -18604 
  -10675   -11097   -18304   -16825    -9880    -9282   -13207   -16613 
  -16686   -13486   -11302   -12494   -14422   -14507   -14316   -13382 
  -13113   -15373   -15353   -14779   -17242   -17005   -14424   -15469 
  -17423   -16742   -14798   -14270   -14609   -10673    -7636   -11915 
  -16202   -17864   -17806   -14688   -14817   -19172   -19174   -16406 
  -16748   -16106   -15321   -17504   -18142   -18188   -17633   -16528 
  -19820   -23134   -22022   -19769   -18824   -18981   -19234   -18711 
  -17288   -17892   -19156   -15851   -13296   -16675   -16858   -11958 
  -12313   -15623   -14798   -12465   -11002    -9791   -11418   -16575 
  -16661   -13266   -16243   -18250   -14925   -14107   -14639   -13273 
  -13163   -14747   -16120   -17882   -16946   -11468    -9769   -14875 
  -18547   -17456   -17348   -20082   -18004   -13147   -15151   -18628 
  -21227   -24144   -18636   -12220   -13815   -16984   -19882   -16879 
  -10174   -11304   -14920   -17004   -16798   -11481    -9742   -11160 
  -12175   -16461   -14534    -9919   -14728   -16281   -13420   -15966 
  -16159   -14810   -17409   -17382   -13961   -13814   -17084   -18318 
  -15842   -12856   -13822   -16459   -16995   -16638   -11749    -6751 
   -9425   -12517   -14157   -17427   -17332   -15628   -17371   -16630 
  -13540   -15627   -15703   -11414   -12167   -13471   -12456   -14170 
  -15520   -15299   -15211   -15460   -15294   -14170   -15543   -16853 
  -15682   -15673   -14623   -15484   -20893   -21513   -19122   -19876 
  -19072   -16595   -15727   -16282   -17340   -18085   -17042   -15094 
  -15057   -14139   -14750   -19588   -19664   -16347   -16096   -16406 
  -17687   -18891   -17015   -14277   -13246   -13227   -13120   -13618 
  -14303   -15808   -15988   -12186   -12776   -17865   -17768   -17500 
  -19830   -17955   -15984   -15959   -14447   -15290   -16945   -16827 
  -17475   -16553   -14625   -14901   -14793   -13247   -13467   -15703 
  -16713   -16229   -17500   -20279   -18951   -14099   -13932   -15083 
  -11425   -10543   -12166   -10554   -12131   -15815   -13814   -12220 
  -15727   -17820   -18002   -17346   -13976   -13787   -17703   -18385 
  -15592   -15495   -20112   -21915   -18674   -17531   -18065   -17598 
  -18242   -18268   -16499   -17246   -17919   -14580   -14951   -19149 
  -19300   -17637   -16096   -14652   -15399   -16248   -16615   -16829 
  -15315   -14926   -16974   -16675   -13200   -12579   -13883   -10750 
   -7751    -8955   -10991   -13101   -13772   -12294   -11029   -12772 
  -14786   -12291   -12054   -15179   -14542   -14347   -16735   -17463 
  -15604   -14230   -15558   -14798   -13756   -16567   -17826   -17783 
  -17375   -15356   -15951   -15705   -12893   -14327   -16723   -17328 
