Origin Time       2024/04/02 04:24:00
Lat.              40.133
Long.             141.712
Depth. (km)       71
Mag.              6.0
Station Code      IWT012
Station Lat.      39.3206
Station Long.     141.1388
Station Height(m) 62
Record Time       2024/04/02 04:24:55
Sampling Freq(Hz) 100Hz
Duration Time(s)  158
Dir.              U-D
Scale Factor      7845(gal)/8223790
Max. Acc. (gal)   28.887
Last Correction   2024/04/02 04:24:54
Memo.             
[...]
    7738     5572     2593      820     1156     1078     2358     6431 
    8757     9537    14211    17956    13508     5890     1260     -537 
   -1053    -2687    -4901    -3700     2020     9952    15800    16559 
   13779     9612     5094     1818    -1170    -5347    -6621    -2388 
    3175     6906     9514    13629    18566    18381    13239     8797 
    5425      919    -4923    -8337    -5744    -1701     1482     8584 
   15298    16017    17328    18364    12534     6905     5904     3736 
     -94    -3591    -5551    -2249      886    -2239      -82    10609 
   16337    14739    11759    10199     9842     8124     4270    -1289 
   -5564    -5715    -3095     2342     7474     8920    13030    18497 
   15103     7134     4148     4186     2342     -774    -1088     1649 
    4441     7146     7871     6048     6639     8959     9124     8869 
    9900     7867      507    -2592     1221     1057     -639     4164 
    9235    10482    11763    11804     7354     2486     2339     4827 
    6381     6129     5163     4742     1424    -2766     -805     1215 
     922     7190    14164    13575    11908    12101     9389     3179 
    -471     -646    -2613       39     9853    12183     6704     6262 
   10110    11457    10629    10562     8012     1424    -1537      -41 
    -178    -1298    -1626     -135     4978    10149    12168    12808 
   11402     7140     3667     1539     -419      -71      351     -418 
    2733     9103    13508    14328    11574     6902     4185     4644 
    4421     2077     2609     5343     4043     2824     6670    10230 
   10339     9497     9792     9157     5697     3808     3307     -255 
   -2304      639     3156     3798     5875     7612     6844     6650 
    6771     4417     2219     1910     2968     5695     6296     3588 
    5120    11929    14307     9664     4604     2760     3483     3727 
    1809     1479     2317     1583     5417    13252    13913     7187 
    2592     4129     7152     6702     4654     3948     4372     5549 
    7966     8924     4996     1787     2785     3271     4388     6043 
    3944     2339     5836     9850     9046     5165     3211     4959 
    8283     8665     5262     3269     5093     7987     8386     5159 
    1842     1478     3269     6156     8388     7013     3987     4476 
    5838     4060     3267     4765     5906     8154    11271    12090 
   10085     5918      989     -842      583      608      901     4355 
    6339     6747     8804     8372     4742     4133     6926     9552 
    9664     5935     1911     1314     2921     3831     2177      584 
    3132     8610    12750    12064     6909     1867      133     3105 
    8158     8542     5508     3933     3936     6423     7682     3446 
     527     3720     7885     9038     8492     8198     7927     7489 
    7465     5771     1803      503     2486     3966     5225     5503 
    5263     7974     9408     6867     5501     4218     1911     3052 
    4656     4117     6426     9818     9558     9216     9761     6369 
    1607     -102     -903      415     4369     5597     5674     8121 
    9661     9558     8195     4877     3364     4874     5724     4538 
    2513     1181     1706     2972     2484     2162     5236     9454 
   11426    10782     9126     7574     5691     3794     3372     5055 
    7337     7530     5822     5223     5653     5314     4592     3823 
    4129     6372     7357     5197     2759     2146     2573     3145 
    3897     4190     4294     6513     9540     9714     8417     8185 
    7418     4178       35     -773     3167     7275     7911     7643 
    8314     8476     7724     5717     4263     5036     4266     1475 
    1196     2960     3439     4171     6968     8488     8301    10219 
   11358     7472     3179     1568      747     1721     3662     4576 
    5413     5555     5174     5308     5008     5606     7663     7663 
    5795     5170     5410     6116     6142     3667     2056     3624 
    6043     7550     7978     8876     9948     9337     7573     5138 
    3404     2794     1575     1938     3595     3681     5643     8544 
    7549     6135     6615     6297     5275     3780     2062     2879 
    5807     6705     4753     3109     3923     5753     6689     7398 
    7790     7078     6860     7861     7959     5746     3310     3250 
    4795     6501     7306     5564     2786     1966     2149     2647 
    4688     6200     6122     6311     7441     8822     7191     3550 
    2748     2030      -27     1202     5020     8338    10122     9825 
    9470     9540     8475     7310     5742     3199     1325      708 
    2262     4814     4604     3127     4361     6855     6960     5386 
    5128     4502     1807     2411     6666     7284     6382     9381 
   11789    10312     7742     5447     3630     3137     4795     7354 
    6455     2797     2525     4024     3677     4536     5526     5274 
    6471     6475     3991     2114     1024      702     2258     5425 
    8410     9799     9444     8340     8972     9879     7580     5216 
    5499     5522     3402      716     1478     5026     6714     8622 
    9869     5366     2614     6558     7920     4212      811      742 
    4980     7657     5374     4449     4569     3851     7653    11037 
    7591     5254     6880     7024     5011     2010      877     2521 
    3906     5992     7662     6370     6328     8213     8289     6650 
    4475     3759     4614     3854     3353     4741     3615     1821 
    3978     6432     7186     8001     7496     6295     6377     6721 
    7148     7221     5445     3977     4351     4133     3161     2670 
    2990     5562     7982     6806     5964     7619     7015     3915 
    3238     5100     6381     6286     4646     2523     1956     2851 
    3385     3234     5682     9428     8563     5871     5544     5065 
    4353     3686     3096     5659     8430     6848     5331     7461 
    9620     8742     5937     4621     4800     2913     1958     6034 
    9634     8918     6828     4753     3747     4247     3917     3492 
    4680     5633     7078     9991    10224     6346     1242    -1810 
     -45     3758     5713     7506     9223     8826     7425     6184 
    4467     2457     3107     6652     7155     3886     3049     4371 
    3539     3181     6080     8425     9560    11653    11307     7493 
    3975     1603      641     1393     3052     4749     4414     3269 
    4722     7427     8727     8272     6750     5316     5389     6628 
    5645     2628     3368     8014     9774     8429     8280     6893 
    2616     -410      230     3007     4018     2862     3788     6447 
    7090     6488     6517     5077     2365     3631     7587     7719 
    5648     5351     5202     4854     5637     5692     3967     3292 
    4750     5868     6637     7213     5116     3395     6153     8532 
    6836     5445     5791     4386     2762     3859     3620      695 
    1696     7561    11626    12114    11396     8833     5028     3049 
    2863     3121     3508     4637     7350     9155     8205     6631 
    5543     5975     7734     8058     7192     5298     2436     1823 
    2569     2323     2388     1950     1231     3609     7321     7658 
    4881     2354     2508     5138     7622     8652     8140     5931 
    4488     5290     5611     4646     4276     4976     6635     7570 
    6417     6490     7753     6535     6439     8939     8351     5205 
    2793      442    -1082    -1102      206     5259    11824    12980 
    9944     7256     4807     4623     7165     7874     6737     5964 
    3960     1371     1258     3283     4915     4950     5908     9360 
   10461     7701     6474     6951     5116     2664     2093     1944 
    2340     3566     4521     5471     6864     9265    10341     7523 
    5859     7101     6072     4315     3708     2323     3014     4769 
    3582     2255     1946     2592     6579    10077     9691     8941 
    8172     5844     2767    -1071    -3345    -1545     3483    10192 
   13687    12529    12247    11011     5678     2095     1472      202 
     639     4564     7182     5113     2520     3634     6108     7001 
    7326     8856    11064    11103     7410     2843      353      251 
    3149     6481     5925     5028     8198    10683     8336     4124 
    1865     2220     2192     1208     3187     5877     5305     5537 
    7933     9211     9117     7287     4126     2312     2474     3584 
    4915     5323     5150     6299     7277     6787     6312     5999 
    8197    11543     9396     5918     5965     4568     2182     1335 
     896     2295     4884     6525     7474     7234     6197     5464 
    4260     3242     4309     6397     6751     4583     2193     1925 
    2720     3846     5865     7234     8834    11713    11311     7233 
    4826     4446     3547     2563     2747     3878     4842     5213 
    5648     6400     6724     6529     6960     7246     5759     4920 
    6431     6944     5655     5431     5988     5011     1798    -1459 
   -1250      751     2589     7758    12195     9485     5921     5829 
    6065     7014     8311     7344     5618     6566     8297     5872 
    1472      213     1179     3254     6578     9518    12177    12425 
    7616     2906     1825     1745     2353     4205     6041     5721 
    2754     1642     4398     6412     5402     3495     2330     2956 
    6403    10497    11403     9117     6088     4314     4010     3510 
    3303     3765     3516     4480     7211     9401    10844     9429 
    4510     1618     3056     4244     3200     3889     6123     5856 
    4450     3361     2633     4182     6394     8260    10562    10840 
   10172    10004     7573     3905      464    -1293     2945     9703 
   12268    11873     9513     4970     2519     2146       52    -2127 
   -2266     -440     3527     7619     8607     6608     4661     4234 
    6068     8010     5678     3626     6110     8205     9313     9034 
    4569     1929     4317     6543     7149     7520     7588     6359 
    5197     5894     4263      708     1455     4086     6554    10480 
   10399     5150     2035     3258     5829     7119     4692      -44 
    -206     5867    10500     8127     3064     3095     6389     6816 
    7257     9495     9193     6868     6007     7474     9007     7383 
    5513     7425     8330     6054     5549     5050     2795     2502 
    1823     -392      508     3165     3302     2002     2424     5067 
    7379     7778     7321     5270      851     -959     3411     7002 
    2647    -2582      444     5782     6990     8721    12064    12837 
   11889    11349    10454     8221     3906     -143     -205     2219 
    5622    10207    11322     6378     1544     1767     3688     4750 
    6924     8132     6673     7546    11400    11659     7072     2560 
    -594    -2091      811     4781     4464     2212     2049     5406 
   10161    11065     9224     9211     9657    10350    12325    10827 
    6011     4106     4018     2278     -433    -3181    -4460    -2766 
    2101     7728     9809     8492     6828     5198     3576     3541 
    4893     4340      805    -2681    -3431     -953     1880     2565 
    5070    10789    15164    17956    19076    16023    10885     5370 
    -765    -3532    -2116    -2154    -3476    -1485     2045     3688 
    4878     6205     6107     6184     8064    10910    14507    16193 
   13259     9776     7797     4888     3260     5309     8378     8037 
    4546     4214     8249    11950    13290    10457     4099     1561 
    6072    11967    13938    10916     3970    -3632    -6041    -1674 
    2169     2641     6241    12573    14017    10647     7863     5256 
    1001     -897     1058      534    -4938    -8379    -5220     -801 
   -1969    -6253    -6471    -1750     6864    17952    24024    22917 
   19863    13250     2430    -4962    -7086    -7832    -6434     -978 
    5371     9463    14540    20348    19319    11624     4068      842 
    2760     3052    -1092    -1200     1710     1825     5452    14141 
   19576    19950    18581    15851    10524     5161     4040     3325 
   -2359    -6590    -2659     4600     9904    12785    12081     7148 
    -298    -7264    -9375    -4631     2115     7600    13572    17115 
   16714    14600     7788    -1690    -6322    -5888    -1961     4244 
    7765     6779     5999     8411    10150     7884     4450     2506 
    2099     4700     8379     8831     8592    10708    12132     9513 
    4693     3183     3685     1601      949     2906     2961     2978 
    4552     6979    11048    12951     8911     3277     1680     2763 
    5560    11250    14357    12075     8301     4563     2673     3958 
    4606      719    -3103       68     4649     3518     1318     1224 
    1965     5175     8681     8472     7900     9112     7426     3701 
    3180     3407      930    -2833    -5736    -5128    -1225     3156 
    6578     7273     5937     6061     6543     5518     6543    10201 
   11735    11273    11460    11838    15485    22497    24466    21529 
   19059    13620     5475    -1648   -11052   -19070   -16825    -8833 
   -1480     4969     5583     2339     3720     5741     5351     7353 
    8702     6242     5031     7275     8982     6961     2646    -1649 
   -6640    -9603    -4160     6794    15835    21490    21809    16102 
    9289     3973    -1618    -7653   -10605    -8475    -4587    -1563 
    3642    13050    23920    33187    35695    28301    17929    10131 
    4078     2165     3549     3748     4899     7790     9923    10682 
    7983     3723     2072     1629      981     -413    -2023    -1528 
   -1389    -2465      133     4977     5957     3592     2420     4066 
    6901     8533     8752     9085     9975    11218    12471    13331 
   12259     7084      641    -4052   -10377   -17433   -18264   -14068 
  -10176    -4758      190    -1865    -6083    -4823       40     5013 
    9174    11199    10243     9957    13409    15851    14766    13744 
   14123    16609    19252    18285    17828    20171    19375    15489 
   11758     5329    -3063    -6516    -2459     6034    14814    21138 
   25965    28123    21891     8961    -3319   -12321   -15390   -10073 
    -508     7762    12036    10574     4873    -1447    -8208   -15164 
  -18596   -16081    -8514     1402    10185    15037    16102    14806 
   10542     5679     4959     6336     6984     8781    10026     8442 
    5552     2030     -541     -762      171     2208     5421     9499 
   14152    16306    13909     9221     5235     3470     3307     2675 
    1429     2224     5409     9066    13466    16457    14446     9691 
    4563    -1795    -6758    -7275    -6119    -6943    -8286    -5800 
     427     5773     8573    10482    11672    10879     9277     8417 
    6393     3699     2781     3082     5991    11797    15311    14608 
   12607    10463     7177     2739    -1884    -5189    -4554      191 
    6405    11742    13520    11755     9702     7207     3080      649 
    1444     3323     5875     7682     6945     5073     4209     5377 
    6642     6824     8941    12934    14389    12082     9157     7344 
    5636     5541     8059     9379    10073    12243    10731     6485 
    6269     5892     -577    -7314    -7457    -3298      -52      785 
     508      356     1332     3550     3323     -708    -4294    -6814 
   -9120    -9008    -7306    -5740    -2515     4202    13069    20301 
   23110    21051    15851    11300     9236     8600     8822     8924 
    9350    11778    12838    11944    13780    14122    10138     9540 
   11322     9706     7786     6658     5522     6559     6885     4966 
    5220     5825     2810     -908    -3840    -6902    -8089    -5979 
   -1827     1777     5285    10227    11286     7038     5397     6438 
    5381     5112     7479     9398    10046    11499    13871    13522 
    9432     5452     3010      580    -1795    -2517     -503     3632 
    9232    14081    14818    13089    10397     4167    -2658    -6237 
   -9400   -10817    -7634    -3318     1194     6362     9598    11241 
   13390    13506     8379     2228      595     2350     5271     8903 
   11692    13765    16410    17483    15669    13527    11907     9794 
    7218     4097      816    -2484    -5370    -5780    -4896    -4507 
   -2386     1567     4922     7140     8608     9234     7025      540 
   -5795    -5768     -326     3902     4619     5865     8824    10193 
    9385     6470     1729     1094     7233    14283    17896    17377 
   13676     9358     6319     5664     6021     3993     1124     3078 
    8989    11079     7026     2259      448     1073     4002     8320 
   10768    11527    12393    11361     7763     3083     -580     -294 
    1034      823     2783     5248     5926     8309    11048    11259 
    9626     5823     2281     2116     2903     3200     3561     2353 
      66    -1237    -1139      780     3253     4295     5120     6781 
    7520     6820     7148     9578    10736     8291     5833     6173 
    7391     7908     7092     5186     3870     2971     2454     3935 
    6099     6561     6141     5667     4467     2779     1177      800 
    2567     4307     4494     4017     2247      511     2479     6436 
    8523     8584     7140     5629     6089     7341     8638    11570 
   14353    13678    10449     7074     3910     1120      449     1911 
    3030     4706     8727    11138     8739     4459     1867     2188 
    4050     5634     7366     8586     8908     9702     9030     5868 
    3304     3132     6496    12862    17697    17455    13089     7692 
    2542    -2027    -6917   -12336   -12334    -5719     -465     1015 
    2103     3557     4588     5402     5656     4374     3607     5049 
    5178     2953     3071     6563    10530    14034    16152    15211 
   11942     9752     9965     9732     7531     4743     2743     1937 
    1899     2556     3015     1865      747     1945     4486     6034 
    5456     4241     4961     6322     5832     4737     3666     2261 
    2538     4413     5513     5934     7040     9387    11128    10193 
    8984     8964     8478     7987     7214     4918     2660     2365 
    3596     4136     3897     4390     4714     5049     5934     4314 
     421    -1090     -184       12     -333      139     1787     4600 
    7489     9707    12005    14377    15993    15674    11996     6967 
    4433     3801     2651     2088     3515     5609     7873    10536 
   11321     9551     7254     3955       91    -2409    -4411    -4675 
   -2189       37     2521     7060    10542    10519     8984     7619 
    6072     5984     7879     7572     5532     7084    10570    12394 
   13667    13402    10831     8486     5636     1219    -1482    -1202 
     380     3558     7021     6750     3815     2670     2235     -950 
   -5401    -6967    -4706    -1510     1464     5294     7727     7441 
    7557     8799    10206    12082    11823     7506     3609     4071 
    6218     6628     6151     6705     8797    12155    14623    13005 
    7484     2265      388      934     2436     4662     6496     6907 
    6663     5914     4826     4785     4974     5055     7314    10895 
   12584    11581     9223     6361     3229     1804     2274     2463 
