Origin Time       2024/04/02 04:24:00
Lat.              40.133
Long.             141.712
Depth. (km)       71
Mag.              6.0
Station Code      IWT002
Station Lat.      40.1820
Station Long.     141.7643
Station Height(m) 28
Record Time       2024/04/02 04:24:48
Sampling Freq(Hz) 100Hz
Duration Time(s)  120
Dir.              E-W
Scale Factor      7845(gal)/8223790
Max. Acc. (gal)   117.388
Last Correction   2024/04/02 04:24:47
Memo.             
[...]
  -18970   -18971   -18971   -18970   -18970   -18970   -18970   -18971 
  -18972   -18972   -18971   -18971   -18971   -18971   -18971   -18972 
  -18972   -18972   -18971   -18970   -18967   -18967   -18971   -18971 
  -18970   -18971   -18972   -18971   -18971   -18971   -18971   -18971 
  -18974   -18974   -18972   -18971   -18971   -18970   -18971   -18974 
  -18972   -18971   -18971   -18972   -18972   -18972   -18971   -18971 
  -18974   -18974   -18972   -18972   -18971   -18971   -18972   -18974 
  -18974   -18971   -18970   -18971   -18974   -18972   -18971   -18972 
  -18974   -18971   -18970   -18971   -18972   -18972   -18971   -18971 
  -18971   -18968   -18971   -18974   -18971   -18970   -18972   -18972 
  -18971   -18971   -18972   -18971   -18970   -18971   -18974   -18974 
  -18971   -18967   -18968   -18971   -18971   -18968   -18970   -18972 
  -18971   -18970   -18971   -18971   -18971   -18971   -18970   -18972 
  -18974   -18968   -18970   -18972   -18970   -18968   -18971   -18972 
  -18972   -18972   -18972   -18972   -18972   -18971   -18970   -18970 
  -18970   -18970   -18970   -18970   -18970   -18971   -18972   -18971 
  -18968   -18970   -18972   -18971   -18968   -18968   -18970   -18971 
  -18971   -18970   -18972   -18974   -18971   -18971   -18971   -18968 
  -18971   -18972   -18970   -18970   -18972   -18971   -18970   -18971 
  -18972   -18972   -18971   -18971   -18971   -18970   -18970   -18971 
  -18974   -18971   -18971   -18975   -18974   -18970   -18972   -18972 
  -18970   -18970   -18972   -18971   -18971   -18971   -18971   -18972 
  -18974   -18970   -18968   -18970   -18974   -18974   -18972   -18970 
  -18970   -18971   -18971   -18971   -18972   -18972   -18970   -18970 
  -18971   -18971   -18971   -18971   -18972   -18971   -18970   -18970 
  -18970   -18971   -18971   -18972   -18974   -18974   -18971   -18971 
  -18972   -18971   -18970   -18970   -18970   -18970   -18971   -18970 
  -18970   -18971   -18972   -18970   -18970   -18974   -18974   -18972 
  -18972   -18971   -18972   -18971   -18970   -18970   -18971   -18968 
  -18970   -18971   -18968   -18970   -18974   -18971   -18971   -18971 
  -18970   -18972   -18974   -18972   -18971   -18970   -18971   -18972 
  -18971   -18971   -18970   -18970   -18972   -18971   -18972   -18971 
  -18968   -18971   -18972   -18970   -18970   -18974   -18971   -18970 
  -18972   -18974   -18970   -18967   -18970   -18971   -18970   -18971 
  -18970   -18971   -18971   -18971   -18971   -18971   -18972   -18974 
  -18971   -18970   -18972   -18972   -18970   -18970   -18970   -18971 
  -18971   -18970   -18970   -18971   -18970   -18970   -18970   -18971 
  -18971   -18970   -18970   -18972   -18971   -18970   -18971   -18970 
  -18970   -18971   -18971   -18971   -18971   -18971   -18971   -18971 
  -18970   -18970   -18971   -18971   -18970   -18971   -18971   -18970 
  -18971   -18971   -18970   -18971   -18972   -18971   -18971   -18971 
  -18968   -18970   -18972   -18971   -18968   -18970   -18972   -18971 
  -18968   -18971   -18971   -18970   -18971   -18971   -18974   -18974 
  -18970   -18968   -18971   -18970   -18967   -18971   -18972   -18968 
  -18970   -18972   -18972   -18972   -18972   -18971   -18971   -18970 
  -18970   -18972   -18972   -18972   -18971   -18971   -18970   -18968 
  -18971   -18971   -18970   -18970   -18971   -18971   -18972   -18971 
  -18970   -18971   -18971   -18971   -18968   -18970   -18972   -18970 
  -18971   -18974   -18971   -18970   -18971   -18972   -18971   -18970 
  -18971   -18974   -18972   -18971   -18971   -18971   -18970   -18971 
  -18972   -18972   -18971   -18971   -18972   -18972   -18971   -18972 
  -18974   -18972   -18971   -18971   -18970   -18971   -18972   -18971 
  -18971   -18974   -18971   -18971   -18972   -18970   -18970   -18971 
  -18971   -18971   -18972   -18972   -18971   -18971   -18972   -18971 
  -18971   -18974   -18970   -18968   -18971   -18971   -18968   -18970 
  -18972   -18972   -18972   -18975   -18972   -18970   -18972   -18974 
  -18971   -18971   -18970   -18970   -18974   -18972   -18971   -18972 
  -18972   -18971   -18971   -18968   -18971   -18972   -18971   -18971 
  -18972   -18971   -18970   -18970   -18972   -18972   -18971   -18971 
  -18972   -18972   -18971   -18971   -18971   -18970   -18972   -18974 
  -18971   -18971   -18970   -18970   -18972   -18972   -18971   -18972 
  -18971   -18970   -18970   -18971   -18972   -18971   -18971   -18971 
  -18971   -18971   -18970   -18970   -18974   -18974   -18971   -18971 
  -18971   -18971   -18972   -18971   -18970   -18970   -18970   -18972 
  -18972   -18971   -18972   -18972   -18970   -18968   -18970   -18972 
  -18972   -18968   -18970   -18971   -18970   -18971   -18974   -18972 
  -18971   -18972   -18971   -18971   -18972   -18972   -18974   -18975 
  -18971   -18970   -18974   -18971   -18968   -18971   -18971   -18970 
  -18971   -18972   -18974   -18974   -18971   -18971   -18974   -18974 
  -18972   -18974   -18974   -18970   -18970   -18974   -18972   -18970 
  -18971   -18972   -18972   -18971   -18970   -18971   -18971   -18968 
  -18970   -18972   -18972   -18972   -18971   -18971   -18974   -18972 
  -18971   -18974   -18974   -18972   -18971   -18972   -18972   -18970 
  -18970   -18971   -18972   -18970   -18968   -18971   -18974   -18972 
  -18971   -18971   -18972   -18972   -18970   -18971   -18972   -18971 
  -18971   -18972   -18970   -18970   -18972   -18972   -18970   -18971 
  -18972   -18972   -18971   -18968   -18971   -18974   -18971   -18972 
  -18975   -18978   -18975   -18959   -18909   -18813   -18733   -18786 
  -18970   -19097   -19009   -18835   -18889   -19233   -19511   -19340 
  -18914   -19035   -19877   -20025   -18616   -17662   -18866   -20326 
  -19699   -17481   -16514   -18347   -20047   -18931   -16497   -15346 
  -17662   -21477   -20873   -17397   -18145   -21820   -22734   -20920 
  -19444   -20730   -22798   -20452   -16745   -16877   -17344   -17254 
  -17651   -15253   -14135   -19002   -22238   -19234   -16563   -17463 
  -19438   -21577   -21689   -19213   -19149   -21378   -21278   -19381 
  -18173   -18616   -18948   -19252   -22142   -21334   -14110   -11484 
  -15280   -16532   -15934   -17585   -16902   -16659   -25486   -31297 
  -21049   -10123   -14820   -27089   -30913   -22156   -12233   -14289 
  -21905   -20027   -13397   -13632   -19777   -27622   -30727   -24413 
  -16794   -13913   -10879    -9757   -17119   -24672   -20494    -9865 
   -8048   -17774   -22013   -13558    -9065   -13755   -18006   -24582 
  -33103   -27571   -12264   -13213   -27521   -31195   -23793   -19649 
  -23734   -25863   -20977   -23696   -30218   -22072   -11884   -14512 
  -17639   -12042    -2918       29    -9918   -20938   -17756   -14581 
  -20841   -17554   -14177   -29243   -33218   -16201   -14320   -26582 
  -25026   -13663    -9188   -16749   -25582   -23157   -22408   -30204 
  -25936    -9736    -6301   -19097   -29751   -26129   -12953    -6836 
  -14301   -23669   -30697   -35579   -28726   -18171   -21967   -28938 
  -22015    -9304    -3311    -7904   -19183   -21492    -9621    -2349 
  -11167   -25066   -29839   -22496   -14617   -16383   -21778   -22680 
  -16401    -7021    -8561   -19809   -19489    -8872    -8943   -17433 
  -22555   -28140   -35841   -39924   -38468   -32869   -26840   -23036 
  -17443    -9860   -11453   -23242   -27770   -16648    -5305   -10285 
  -22275   -21375    -9725    -4739   -14057   -26670   -24895   -12498 
  -12980   -25394   -24833   -11645    -2832        0    -6548   -25664 
  -39033   -35295   -28648   -26762   -23730   -19780   -16341   -11368 
   -8514   -11294   -13759   -12933   -15618   -19542   -19619   -26944 
  -37390   -30578   -20293   -27075   -32455   -23382   -16657   -18900 
  -21992   -22547   -18280   -10504    -5410    -5833   -12583   -20185 
  -19579   -15091   -13894   -11341    -7558    -9741   -15167   -18085 
  -20191   -22863   -24260   -22636   -20645   -23018   -26466   -26715 
  -25058   -23170   -22063   -18658   -15180   -19171   -22511   -19361 
  -20213   -23360   -21197   -20436   -22491   -15776    -3821    -5632 
  -14763   -11626    -8154   -18397   -28075   -28458   -27535   -25177 
  -16711   -12070   -18462   -20414   -11989    -9803   -13250   -10781 
  -11183   -18559   -19302   -13196   -14280   -24497   -31584   -29722 
  -27963   -30612   -30300   -27120   -25346   -22094   -20484   -24970 
  -25506   -19128   -17417   -18291   -14721   -12139   -12040   -12737 
  -14922   -15121   -13535   -11935    -8645    -7877   -11688   -14245 
  -17626   -25587   -29018   -24787   -23053   -26905   -31033   -30646 
  -25263   -20223   -18542   -16881   -11275    -5443    -8198   -16745 
  -21280   -21790   -22752   -26509   -31024   -28694   -19480   -12750 
  -12777   -17822   -23263   -22115   -15222   -12339   -15383   -16185 
  -13452   -14423   -19386   -21240   -20243   -19013   -12503    -5508 
  -10844   -21092   -22985   -21886   -22651   -23453   -28553   -34138 
  -28084   -17454   -17944   -22607   -19782   -16517   -17350   -15678 
  -12422   -13539   -16321   -15499   -13498   -15543   -20914   -24507 
  -24232   -21608   -18561   -18835   -23332   -23441   -16472   -15375 
  -21223   -20042   -17008   -21708   -21168   -11410    -7026   -11952 
  -19417   -22632   -20214   -18110   -19392   -20657   -18446   -15959 
  -18752   -22455   -19971   -16178   -17682   -19122   -18679   -22758 
  -24574   -18058   -15993   -21276   -20286   -14679   -18621   -27896 
  -27450   -21089   -20490   -21151   -16676   -15475   -21554   -21286 
  -11782   -10860   -20088   -22172   -17120   -15785   -14616    -9864 
   -9262   -15541   -20865   -18991   -15979   -20389   -26283   -25666 
  -21238   -17375   -17180   -19398   -20366   -21695   -20803   -17005 
  -20888   -28659   -26083   -20128   -21327   -22605   -20534   -20028 
  -20731   -22226   -22418   -17598   -14585   -16943   -18218   -18422 
  -17820   -14868   -14577   -16087   -14985   -15165   -17933   -19155 
  -18010   -16603   -16676   -15303   -11300   -12476   -19202   -21578 
  -20979   -25334   -29772   -27230   -22694   -21612   -23053   -25218 
  -24335   -18864   -15692   -19165   -22577   -19530   -13798   -12707 
  -16154   -18094   -16829   -15628   -16048   -17095   -19711   -23305 
  -20858   -12256    -8664   -15014   -22616   -21527   -17918   -22698 
  -28169   -25442   -20896   -18563   -16544   -15831   -16672   -16421 
  -13609   -12515   -16089   -17437   -14459   -15384   -21478   -25177 
  -23322   -19614   -18319   -22060   -26894   -25726   -22123   -20714 
  -18041   -16487   -20097   -22327   -19218   -17378   -19259   -19191 
  -15223   -10150    -6755    -8928   -15411   -18319   -16486   -14617 
  -15377   -20528   -26199   -26531   -24190   -23677   -25482   -27980 
  -27537   -23701   -19920   -17540   -15202   -12757   -12984   -16367 
  -19657   -20117   -17637   -15739   -16236   -18473   -22018   -21292 
  -14829   -13913   -22696   -27697   -22010   -18908   -24183   -25149 
  -18675   -13620   -11643   -11389   -14632   -18851   -18843   -15847 
  -14029   -13753   -15921   -21115   -24561   -24547   -23452   -20309 
  -18378   -21899   -23440   -18662   -17936   -24313   -25186   -19676 
  -19998   -23565   -20617   -14341   -12209   -13180   -11739   -11246 
  -16668   -20105   -17944   -18252   -20331   -19157   -18777   -22457 
  -27550   -28256   -19793    -9370    -9671   -17967   -20394   -15870 
  -15134   -18968   -20730   -21770   -24166   -23087   -20440   -23707 
  -25744   -20730   -21173   -26632   -25347   -22964   -22083   -15704 
  -10057   -12054   -15076   -14558   -14825   -17138   -18654   -19468 
  -17240   -11307   -11477   -19700   -22873   -18331   -15267   -15222 
  -18426   -25195   -26893   -22671   -21119   -21082   -20858   -23467 
  -25037   -24379   -25147   -23049   -16632   -13867   -15539   -14264 
  -10115   -10365   -14561   -15722   -16289   -20601   -18827    -8101 
   -7339   -22029   -31329   -26712   -21625   -21980   -22454   -22562 
  -22666   -20626   -18885   -17986   -16218   -15688   -13441    -8758 
  -10916   -17123   -16696   -14509   -16846   -20318   -24308   -29278 
  -32464   -31896   -27957   -24020   -20548   -16895   -18981   -25243 
  -25208   -19472   -14777   -12401   -13073   -15589   -15718   -14575 
  -13394   -10794   -12010   -17250   -16401   -10431   -11535   -19809 
  -24071   -22921   -22808   -23334   -21203   -19167   -20780   -22631 
  -20927   -17408   -13818   -12648   -16861   -22945   -25864   -26515 
  -28956   -32138   -29539   -23958   -24599   -27703   -26148   -24891 
  -24779   -17316    -8478   -11939   -20340   -19124   -12112    -9212 
   -9956    -9494    -7568    -8403   -14717   -22281   -22437   -14793 
  -10108   -12604   -15086   -14427   -14264   -15255   -16274   -18797 
  -22504   -23868   -21728   -21201   -26133   -31206   -33166   -35819 
  -37858   -37116   -39321   -44508   -43173   -36256   -35384   -42340 
  -49650   -52980   -51572   -47591   -43853   -37228   -22693     -487 
   23584    38765    39854    35025    31363    28088    23639    12931 
   -8093   -30904   -45243   -54495   -66050   -77490   -81855   -79721 
  -78414   -77275   -65342   -39424   -10615    11863    27286    30564 
   18432     3393    -3622    -4781       17    15584    35482    44111 
   39239    28977    13957    -1305    -2775    11055    26149    32651 
   29330    15876    -8988   -41513   -72700  -100930  -126983  -142029 
 -138150  -117609   -92948   -78740   -74233   -65522   -46406   -23764 
   -6444     3885    11732    15653    12217     7385     -105   -18862 
  -42439   -60601   -74467   -82973   -75254   -46012    -8621    18800 
   29868    24698     8492    -4984    -7811    -6921    -7723    -2832 
   13757    34184    49403    60762    69145    72264    76040    85305 
   92137    92489    92653    92751    88026    79546    69461    56543 
   38183    11306   -22464   -56606   -85945  -102636  -100156   -83548 
  -63674   -50215   -43614   -37069   -31720   -29627   -26700   -24224 
  -26477   -33802   -45054   -56223   -65326   -76246   -88904  -102184 
 -118309  -129427  -122334   -98678   -70200   -41725   -12754    13042 
   31903    48806    69936    88310    90895    76873    54232    28209 
    5367    -8094   -14909   -19589   -23809   -31590   -45725   -62715 
  -75226   -79074   -77715   -77576   -82426   -92934  -107370  -121151 
 -129319  -130917  -125799  -112114   -90332   -62484   -31260    -1555 
   23244    41399    51048    55757    62287    71728    81633    87795 
   81634    58591    27735     3809    -8407   -13964   -17221   -20988 
  -28387   -39237   -49754   -57731   -63005   -62581   -54679   -44352 
  -38495   -39544   -43098   -44054   -43135   -41308   -38627   -38218 
  -40247   -40752   -38449   -31353   -16193     2170    16108    27334 
   39252    45154    37582    20002    -1661   -23345   -37297   -40308 
  -39089   -40911   -47677   -56398   -62676   -63309   -57095   -46930 
  -36984   -28661   -22435   -19052   -17720   -16741   -16853   -19611 
  -22982   -23836   -23170   -24425   -25878   -22990   -19028   -19403 
  -22896   -28048   -34962   -41264   -44741   -44911   -41281   -33400 
  -22835   -14373   -10656    -7993    -3576      390     2845     5286 
    6891     5440     2189     -469    -2718    -3981    -2667      291 
    3599     6791     8722     9378     7882     2349    -3755    -6609 
   -8982   -12550   -14956   -16761   -19938   -22677   -23221   -24786 
  -30218   -35425   -36065   -34411   -33848   -33929   -32104   -27427 
  -21047   -13617    -7128    -4822    -4882    -3022      -31     2014 
    4280     6890     6805     1686    -5962   -10944   -12785   -14901 
  -18480   -23340   -28489   -31318   -31810   -34279   -41108   -47857 
  -50067   -49559   -47722   -42831   -36582   -32767   -31149   -28856 
  -25578   -23187   -21051   -18002   -16123   -15039   -10439    -2760 
    2844     5206     7225     9084     9113     9161    11333    12972 
   11457     9270     9300     8803     3955    -2496    -6570   -10019 
  -13651   -14639   -13103   -10916    -8627    -6844    -5624    -4174 
   -2350    -2085    -6434   -14783   -21825   -24777   -26477   -28467 
  -29366   -30983   -37050   -46454   -54168   -56781   -54530   -51101 
  -49106   -46878   -44055   -41710   -38103   -33301   -29049   -23782 
  -18486   -18009   -20837   -20534   -17082   -16310   -20385   -25215 
  -27075   -27313   -27919   -28453   -29403   -30856   -30071   -27309 
  -26557   -27130   -25405   -23438   -24449   -25254   -22551   -19168 
  -18378   -18972   -19036   -18455   -17489   -17184   -17559   -17404 
  -17493   -17703   -16529   -15785   -17697   -20491   -22358   -23865 
  -24475   -22654   -18235   -13493   -12730   -16411   -19130   -17498 
  -14073   -12641   -14250   -17490   -20259   -21174   -21212   -22866 
  -26115   -28659   -28625   -26118   -25039   -27787   -30666   -31828 
  -33058   -33435   -32232   -30889   -30079   -29957   -29677   -27869 
  -24182   -19310   -14739   -12040   -11323    -9552    -5548    -3188 
   -4245    -6481    -7865    -8980   -12714   -19238   -24972   -27292 
  -26975   -26133   -24987   -23307   -21622   -19562   -18129   -19819 
  -22928   -22650   -19353   -18663   -22296   -25249   -24451   -22758 
  -22129   -21554   -19977   -16506   -11809    -8056    -6272    -4432 
     218     5341     7314     7735     8565     9224     8970     7148 
    3958      236    -3800    -8748   -14673   -19082   -21266   -24857 
  -29347   -30362   -28934   -27538   -24565   -20277   -17409   -15192 
  -11711    -8722    -8452    -9780   -10131    -8908    -7761    -7302 
   -6658    -6204    -6702    -8530   -12052   -15892   -18716   -21438 
  -24182   -26082   -28278   -31129   -32344   -31930   -31580   -30541 
  -29265   -29685   -30391   -29975   -29355   -28190   -25704   -22086 
  -18218   -15921   -15431   -15226   -15765   -18328   -21852   -24054 
  -23932   -22851   -22372   -22932   -25278   -27985   -27499   -23901 
  -20011   -16443   -12753    -9803    -8276    -8733   -11462   -13405 
  -12136   -10430   -10528   -12468   -15970   -17236   -14419   -13501 
  -17685   -21186   -19886   -16927   -15309   -15082   -17030   -20155 
  -21122   -21230   -23646   -25393   -23213   -19957   -18735   -19687 
  -22975   -28112   -32688   -35197   -35843   -34515   -31444   -28499 
  -27924   -29332   -29047   -25446   -21077   -17938   -16756   -17841 
  -19772   -21474   -22014   -19827   -17440   -18283   -20304   -21608 
  -23561   -25861   -27352   -29046   -31625   -33925   -34805   -33786 
  -31779   -30291   -28656   -26291   -24560   -22763   -18482   -12205 
   -6847    -4368    -3998    -3640    -4101    -7580   -11643   -12749 
  -13336   -16125   -18023   -17477   -17209   -17482   -16842   -16276 
  -16498   -15712   -13618   -12754   -13575   -14033   -13919   -14764 
  -16903   -19195   -21471   -24462   -27589   -29673   -29231   -26114 
  -23569   -23207   -23217   -22866   -22377   -21466   -20259   -19341 
  -19271   -20456   -22222   -22505   -20113   -16552   -14409   -14778 
  -16605   -17478   -16552   -15271   -14277   -13398   -13144   -14540 
  -16815   -16992   -15313   -14810   -15719   -16794   -17706   -18022 
