Origin Time       2024/04/02 04:24:00
Lat.              40.133
Long.             141.712
Depth. (km)       71
Mag.              6.0
Station Code      IWT025
Station Lat.      39.5169
Station Long.     140.8299
Station Height(m) 367
Record Time       2024/04/02 04:24:55
Sampling Freq(Hz) 100Hz
Duration Time(s)  112
Dir.              N-S
Scale Factor      7845(gal)/8223790
Max. Acc. (gal)   23.038
Last Correction   2024/04/02 04:24:55
Memo.             
[...]
     190      179      418     1374     2621     3109     2493     1605 
    1219     1201     1077      723      151     -580    -1017     -918 
    -658     -495      -78      766     1459     1629     1371      934 
    1201     2428     2929     1718      286      -62      600     1755 
    2268     1498       -8    -1495    -2073    -1553     -859     -615 
    -886    -1117     -464      511      729      534      792     1722 
    3229     4540     4425     3307     2374     1362      449      356 
     337     -395    -2008    -4226    -5386    -4125    -1302     1177 
    2484     2820     1844      108     -368      145      174      584 
    2006     3277     3377     2161      685      157      467      804 
     545     -201     -768    -1007    -1395    -2170    -2521    -1339 
     999     2829     3441     3662     3635     2679     1270      288 
    -201     -508     -774     -799     -726     -916    -1086    -1044 
    -749       40      815     1459     2112     1437       35      109 
     669      850     1711     2458     2385     1906      855     -117 
    -704    -1614    -1807       64     2093     1483     -776    -1663 
    -502      737      167    -1290    -1533    -1071    -1452    -1745 
    -504     1792     3993     5135     4625     2884     1580     1695 
    2277     2573     1915     -646    -3916    -5822    -5745    -3933 
   -1815    -1012     -425     1323     2303     1383      861     2112 
    4121     5416     4806     2274     -938    -2965    -2062     1043 
    3565     4056     3183     2138      892    -1134    -3088    -4216 
   -4487    -3531    -2158    -1360     -599      288      943     1701 
    3203     5333     6786     6493     4473     1475     -820    -1189 
    -795    -1402    -2594    -3060    -2926    -2524     -940     1548 
    3289     4320     4257     2026     -268     -356      877     1220 
    -587    -2749    -2305      974     4356     5061     3276     1093 
    -164     -893    -2427    -4222    -4139    -2227     -653       27 
    1166     2801     4226     5621     6550     6386     5081     2332 
   -1437    -4162    -4472    -4072    -4831    -5379    -3919    -1267 
    1185     3009     3721     3173     2255     2492     4224     5020 
    3289      920     -492    -1564    -2949    -3680    -2037     1570 
    3947     3042      878     -101      -35      213     -376    -1391 
    -992       41       93     -410     -240     1433     2884     2342 
    1552      922     -765    -1115     1557     4155     3557      -40 
   -3044    -2435     -271      596      263     -171      789     2617 
    2558      492    -1541    -2085     -522     1206      691     -490 
     282     1822     1436     -711    -2177    -1557      715     3262 
    4149     2771      384    -1472    -1351      475     2081     2292 
     951     -527     -675     -633    -1690    -2300     -981      738 
    1336     1522     1850     1468      895     1722     2123      444 
    -521      710     2000     1275    -1510    -3974    -3339      272 
    2987     2281     1066     1915     3175     3258     2247      145 
   -2733    -4900    -4569    -1868      940     2380     2752     2691 
    2239     1636     1953     2465     1826     1618     2149     1016 
   -1823    -4108    -3955    -1235     1636     2466     2008     1701 
    2081     2756     1988      -16     -711     -205     -606    -1822 
   -2155     -816     1817     4403     5015     3569     2119     1097 
    -702    -2577    -3167    -2637    -1402     -149       79     -193 
     303     1293     2246     3639     5121     4992     2789      639 
     136      -72    -1591    -3415    -3689    -2898    -2095     -710 
     958     1969     2188     1233      202      851     1707     1109 
     477      793     1293     1960     2409     1321     -195     -457 
    -268     -252     -356     -483      -43      461      637      522 
    -993    -2694    -1980      498     3044     4325     3623     2334 
    1074     -542    -1486    -1931    -2754    -2307      251     2709 
    3165     1880      336      275     1910     2694      858    -1318 
   -1231      137      761      342     -313       49     1594     2895 
    2964     2091     1196      379     -251      -95     -253    -1204 
   -1736    -1899    -1575     -226     1021     1568     2219     2817 
    2528     1030    -1021    -1505      233     1576     1146      311 
     -93      186      614      120       43     1309     1572     -153 
   -1717    -1255      538      996     -654    -2177    -2361     -981 
    2324     5525     6226     4436     1586     -400    -1472    -2659 
   -3164    -2658    -1875     -564      599      675     1227     2901 
    3765     3640     4072     4371     2968      966     -446    -2079 
   -3407    -3125    -2101    -1468     -873       64     1158     1933 
    1796     1125     1547     3331     3942     1707    -1359    -2895 
   -2700    -1120      974     1711      710      427     2157     3353 
    1809    -1418    -3302    -1953      425      838     -209     -275 
    1391     2616     1880      507      205     1682     3624     3596 
    1398    -1405    -3249    -3036    -2060    -2412    -2535     -257 
    2367     2644     1167      656     2261     3431     2508      866 
    -781    -1417      295     2716     3289     1645     -464     -630 
    1282     2432      818    -1809    -2624    -1339      653     1965 
    1860     1777     3219     4013     1725    -1659    -2893    -1749 
     -20      950     1040      503     -218      -48      770      750 
     191     -222     -828     -484     1552     2988     2160      565 
     348     1281     1383      797     1138     1728     1440      521 
   -1169    -3306    -4158    -2982     -719     1601     2704     2467 
    2887     4063     4145     2655      139    -1822    -1964    -1690 
   -2328    -2708    -1518      604     2130     1768     -259     -475 
    2890     4958     2567     -359     -862      317     1545      970 
    -768    -1220     -149      642      718     1821     3501     2567 
   -1113    -3997    -3615    -1093      822     2053     3983     4750 
    2824      946      328     -768    -1317     -206     -240    -2131 
   -2497     -665      484      557     1579     2949     2799     1676 
     865      646      642      -91    -1458    -1576      558     2932 
    2056    -1475    -2782    -1159      189     1405     2978     2840 
    1737     2311     3156     1682     -602    -1437    -1551    -1351 
      40     1426     1460      928     -606    -3750    -5305    -3330 
   -1170      -64     2103     3774     3056     1960     2073     3188 
    3996     2859      302    -1969    -2651    -1421      -28      321 
     245     -253    -1186    -1621     -334     2884     5198     4410 
    2766     1617     -618    -3102    -3235    -1379       72     -203 
   -1271     -715     1831     3956     3924     2074      452      838 
    1456      132    -1445    -1614     -534     1174     1233     -797 
   -1493      -14     1132     1865     2975     3133     1690     -244 
   -1104       45     1818     1705     -244    -1453     -835      454 
    2018     3505     3339     1713      175    -1170    -2216    -2411 
   -1861     -471     1291     2150     1991     2061     3192     3690 
    1714     -872    -1885    -1880    -1607    -1084     -164      783 
     742      228       13     -774    -1009     1113     3588     4114 
    3171     1831      317    -1282    -2118    -2146    -2241    -1641 
     325     2344     3761     4253     2837      369    -1331    -2114 
   -2461    -2097      -16     3626     5886     5221     3159       60 
   -2841    -2608     -691     -595    -1552    -1108      575     1228 
    -338    -2099    -1536      598     2214     2998     3094     2548 
    2193     1764       78    -1775    -1740     -194      252    -1769 
   -3404    -1737     1462     3109     2867     2423     2362     1651 
     432      -44      247      760     1507     1964     1147     -415 
   -1221    -1463    -1840    -1678     -642     1063     2849     3369 
    1894    -1013    -3202    -2926    -1166      757     2632     3839 
    3850     2763      618    -1112     -912     -502     -972     -731 
     245     1179     1845      864    -1215    -1586     -440      284 
     410      560     1714     3304     2808     1123     1301     2814 
    3199     1310    -1169    -1661    -1329    -2064    -2308     -756 
    1243     1721      527     -629     -666      716     3223     4608 
    2882     -267    -1050     1008     2408     1825      820     -541 
   -1466     -712     -514    -1364     -494     1656     2428      711 
   -2520    -4206    -2301     1534     3905     3542     2841     3815 
    4549     2596    -1532    -4800    -4453    -1838     -228      457 
    1571     2338     2062     1048     -591    -1236     1003     3684 
    3608     2458     2335     1848     -153    -2277    -2887    -2195 
    -693     1086     1121      197     1497     2629      611     -927 
       6      710      -58    -1490    -1850     -616      259      270 
     306      508      972     1136      811     1058     1809     1995 
    1756     1359       48    -1408     -996      426      669     -349 
   -1686    -1336     1447     3535     3538     3226     2228     -270 
   -2147    -1615     -294     -149      -10     1228     2207     2682 
    3072     1784    -1058    -2332    -1466    -1023    -1676    -1922 
    -857      950     1999     2081     2565     3754     4456     3908 
    2620     1119     -676    -2214    -1906      535     1796     -747 
   -3940    -3789    -1227      955     2029     2462     2587     2396 
    1486      394      621     1861     2259     1402      190     -795 
   -1570    -2161    -2357    -2185    -1354      194     1325     1850 
    2309     2412     2351     1915      274    -1282     -464     2092 
    3013      737    -2331    -2971     -966     1175     1490      124 
   -1128     -807      453     1001      525      359     1240     2415 
    2913     2775     2079       62    -1879    -1355      190       25 
   -1472    -2236     -789     2451     4122     2475      980     2038 
    3541     3233     1347      442     1958     3252     1721    -1329 
   -2616    -1102      139    -1409    -3646    -3692    -1696      954 
    2906     2879     1853     1471      650     -726     -248     1553 
    2343     2295     1366     -302      -68     2199     3433     2646 
     954     -477    -1089    -1394    -1680    -1181      495     2517 
    3190     1665     -356    -1204    -1235     -822     -704    -2000 
   -2808     -418     3001     3380      712    -1695    -1244     1150 
    2639     2486     2054     2061     1514     -643    -2875    -2565 
    -585      696     1383     1795     1831     2155     2623     2126 
     731       75     -315    -2214    -3213    -1040     1494     2290 
    1898      603     -243      461     1413     1798     1278     -604 
   -1690     -880     -656    -1652    -2335    -1286     1642     3372 
    2505     2234     3481     3547     1803     -318    -1626    -1004 
     797     1219     -432    -1995    -1549      926     4626     7069 
    6426     4507     2560      718     -163     -815    -1772    -1826 
    -580     1852     4577     5783     6041     6431     6293     6423 
    7155     7034     6230     5161     3543     1622     -222    -1489 
   -1984    -1494      237     2174     2808     1459    -1308    -3105 
   -2043      174     1248     1320     1264     2128     4183     5363 
    4423     2884     1752      787      -40     -819    -1312    -1128 
    -499      610     2039     1929     -114     -140     3970     7437 
    5377     -575    -5782    -8108    -8743    -9517   -10478   -10781 
   -9983    -8673    -8775   -10827   -12627   -12672   -11300    -9404 
   -8452    -8355    -7345    -5340    -3361    -2621    -3750    -4459 
   -3321    -2548    -2775    -2830    -2695    -1671      676     3603 
    6481     7352     5518     4220     5387     7499     9067     8556 
    4600     -715    -3435    -2417     -147      479       12      889 
    2012      -28    -4816    -7755    -5363      675     5514     7188 
    7388     7111     6579     6943     7418     5605     1910    -1759 
   -3923    -2833      696     3356     4128     4526     5077     5556 
    7524    11631    14299    11655     5081      851     2015     3242 
      35    -3608    -3327    -1088     -193     -580      162     3389 
    7290     9015     7549     3640     -900    -3488    -2002     2404 
    5800     6594     5217      997    -4338    -6438    -4853    -3863 
   -5946    -7859    -6804    -6440    -9111    -9468    -3424     5117 
   10833    12806    11466     6141    -1834    -7703    -8452    -7553 
   -9836   -13267   -12383    -7227    -2205      588     1984     2000 
     396     -546     1073     3917     5564     4567     1171    -1271 
    1625     8179    11851    10091     5337     1362     -488    -2701 
   -5859    -6249    -1520     5255     8332     5233    -1232    -4646 
    -595     6223     7840     5162     4364     6006     5212    -1061 
   -8721   -10764    -7630    -4167     -687     2678     3160      483 
   -3705    -7206    -6743    -2081     3103     6698     8937     9127 
    7034     4812     3939     3492     2278      788     1525     5343 
    7614     3056    -6963   -15228   -15925   -11152    -7064    -4660 
      91    10145    21509    24645    15805      641   -11242   -12541 
   -6411    -2056    -1964    -3761    -5541    -4197      345     2697 
     820    -1678     -973     4676    12210    16150    14274     7877 
     238    -6226   -10417   -11260    -9676    -6357     -851     2330 
   -2195   -10115   -11296    -1614    12708    21532    21139    15654 
   10270     5791     -884    -8932   -11242    -5374     1075      901 
   -4271    -9614   -11408    -5069     8511    20032    22223    16152 
    7206      129    -1961     -859    -3497   -10270   -11701    -2760 
    8540    11556     5958    -1371    -5549    -6404    -6982    -7736 
   -5413     -504     2524     2995     4074     4977     1929    -2513 
   -1729     4201     8993     9136     6643     3717     -592    -6345 
  -10713   -11130    -7971    -5152    -3829      423     8082    13807 
   14818    12225     6238    -3747   -12915   -14724   -12194   -11689 
  -11169    -6457      577     5098     3703    -1452    -3534    -1455 
     815     3240     4024    -2720   -13693   -16719    -9579    -2894 
   -3326    -7366    -7531      916    13007    17131     9398     -762 
   -2766     2127     5512     4527     2751     3094     5262     7373 
    7479     5024      436    -5790   -10054    -8397    -3564     -542 
   -1252    -4460    -3750     4306    11476     8845     -274    -4229 
    2801    13875    18445    13123     2736    -4769    -6308    -5718 
   -5926    -5518    -3269     1221     6934     9629     7681     5603 
    7254    10817    12614    10747     4356    -4131    -8950    -8600 
   -6362    -4109    -3989    -7514    -9085    -3315     5043     9373 
   10183     9703     7730     5071     2965     -287    -5362    -7075 
   -1503     6160     8961     6335     1354    -2092    -1787     -116 
    -109    -1933    -4455    -5757    -4471    -1378     1512     3024 
    4388     6423     7192     5796     3568     -148    -6806   -12679 
  -12515    -7969    -3736     -367     2956     4930     5549     7793 
   11605    12372     9263     5587     1578    -2911    -6372   -10584 
  -16185   -18173   -14123    -7061      762     7550    10357    10347 
   10922    10226     5466    -1463    -6972    -7616    -2801     2254 
    1632    -3711    -6519    -3510       29     -163    -2270    -2740 
     635     4851     3335    -3539    -8054    -6579    -1884     3235 
    7520    10357    11537    11205     8499     1537    -6160    -7954 
   -5367    -4841    -6448    -5023     -535     1016    -1567    -3156 
    -221     6551    12105    11334     5751     -866    -6235    -8024 
   -7750    -8510    -8337    -3169     5788    10415     7199     2725 
     -93    -3373    -4372    -1193     2038     2334     1397     1150 
    -303    -4688    -7634    -5373    -1922     -627      772     2940 
    3350     1216     -920     -255     1517      -81    -2930      116 
    7885    12401    11028     6313      847    -1474     2255     6259 
    2617    -4842    -7258    -3366     2947     6092     2798     -529 
    2791     6885     3890    -3321    -6255    -1794     4519     5904 
    1684    -3635    -5497    -3350     -187     1995     4105     5724 
    5260     4483     4037     1513    -2083    -4071    -4491    -3438 
    -311     3179     4776     4876     4031     2579     1761      544 
   -1636    -1015     3153     5127     1954    -2513    -4027    -2046 
     634      330    -2701    -4355    -3553    -2720    -2162    -1074 
     955     5063     8719     6929     1961     1267     5458     8422 
    6872     1451    -5116    -6798     -859     7060    10609     8618 
    3272    -2390    -5871    -6525    -5919    -4992    -2551     1044 
    2713      415    -4426    -6875    -3082     4206     9097     8263 
    2980    -2223    -4722    -4025    -1333     -815    -2299    -1156 
    1840     3802     5352     5954     3230    -1372    -2747     -796 
   -1390    -5942    -9815    -9980    -6787    -1945     2353     5352 
    7341     8225     9630    12433    13336     9580     2064    -5143 
   -7790    -7244    -7133    -8409   -10901   -11418    -7389    -3264 
   -2405    -2151     -859     2141     6810     8230     4248      970 
    2346     5648     7218     5047     1814     1626     1316    -1825 
   -3312    -1547      696     2438     2425    -1696    -7669    -8586 
   -2559     4082     6613     7126     8316     9495     8785     5449 
    1717      580      411    -1321    -1804      930     3119     1738 
   -1979    -4656    -3893    -1553     -540     -475     -604    -1264 
   -1412      140     1206     -974    -4018    -3235     1860     7512 
   10511    11626    12361    11199     7150     1711    -3815    -8163 
  -10554   -11728   -11078    -7809    -4220    -1702     1480     5458 
    7234     5439     2682     1730     2871     3935     1428    -4722 
   -9988   -10597    -7211    -3198      691     6833    12727    10777 
    1308    -5292    -3815    -1059    -2820    -4229     -109     5456 
    5888     1892     -568     -415     -186     1679     6176     8823 
    5517    -1325    -5454    -5691    -6539    -8456    -6008     1810 
    7468     5424     1181     3179     8225     6372     -738    -2069 
    3449     5703     1364    -2695    -3434    -3149    -2123    -1960 
   -5352    -7146    -1721     4356     4221     1098     -783     1004 
    6340     9119     6049     1439      251     2444     1597    -4459 
   -7938    -6008    -4378    -6143    -9675   -10962    -7619    -1972 
    3173     5954     4523     1262      494     2137     4402     6539 
    8101     9027     8329     5722     2774     -251    -4043    -8476 
  -11854   -11048    -6474    -2389      567     3727     3885      422 
     288     5283     8438     7219     5451     4213     1964     -324 
   -2016    -4877    -6748    -3383     2482     4662     2527     -318 
