Origin Time       2024/04/02 04:24:00
Lat.              40.133
Long.             141.712
Depth. (km)       71
Mag.              6.0
Station Code      IWT010
Station Lat.      38.9346
Station Long.     141.1264
Station Height(m) 31
Record Time       2024/04/02 04:25:00
Sampling Freq(Hz) 100Hz
Duration Time(s)  114
Dir.              N-S
Scale Factor      7845(gal)/8223790
Max. Acc. (gal)   11.607
Last Correction   2024/04/02 04:24:59
Memo.             
[...]
   -4472    -4298    -3578    -3690    -4517    -4935    -4679    -4368 
   -4418    -4715    -4784    -4432    -4537    -5393    -5452    -4175 
   -3379    -4143    -5124    -5019    -4830    -5815    -6840    -6714 
   -6459    -6658    -6156    -4521    -3033    -2960    -3871    -4198 
   -3526    -3096    -3520    -3782    -3510    -3773    -4553    -4344 
   -3322    -3570    -5105    -5817    -5209    -4510    -4730    -5481 
   -5228    -4401    -5077    -6534    -6521    -5408    -4669    -4278 
   -4002    -4511    -5476    -5404    -4434    -4195    -5080    -5821 
   -5028    -3329    -3030    -4310    -4907    -4171    -3777    -4668 
   -5687    -5541    -4725    -4380    -4788    -5578    -6085    -5944 
   -5541    -5178    -4672    -4421    -4869    -4791    -3553    -3287 
   -4761    -5752    -5520    -5225    -5138    -4955    -4596    -4251 
   -4407    -5028    -5317    -4835    -4298    -4446    -4653    -4342 
   -4394    -5328    -6100    -5899    -5394    -5223    -4949    -4144 
   -3354    -3835    -5499    -6147    -4978    -3935    -4248    -5059 
   -5080    -4175    -3493    -3670    -4290    -5062    -5497    -4968 
   -4303    -4626    -4993    -4330    -3800    -4380    -5027    -5011 
   -4993    -5260    -5256    -4698    -4020    -4271    -5806    -6947 
   -6320    -5084    -4479    -4105    -3910    -4633    -5705    -5599 
   -4324    -3433    -3892    -4839    -4968    -4644    -4710    -4685 
   -4406    -4761    -5366    -4941    -4071    -4247    -5378    -6390 
   -6627    -6123    -5458    -5080    -4872    -4698    -4630    -4791 
   -5286    -5765    -5760    -5458    -5093    -4480    -3867    -4090 
   -4977    -5152    -4255    -3431    -3496    -4040    -4398    -4596 
   -4637    -4149    -3427    -3303    -4117    -5256    -5733    -5559 
   -5317    -5069    -4889    -4758    -4565    -4920    -5915    -6373 
   -5759    -5001    -4892    -4866    -4226    -3707    -4066    -4487 
   -4101    -3429    -3396    -3878    -3971    -3727    -3928    -4268 
   -4325    -4752    -5547    -5931    -5863    -5657    -5409    -5128 
   -4872    -4815    -4831    -4595    -4241    -4095    -4193    -4291 
   -4056    -3527    -3262    -3619    -4129    -4379    -4704    -5035 
   -5054    -5344    -6038    -6320    -6162    -5989    -5636    -5282 
   -5216    -4927    -4552    -4858    -5262    -4965    -4677    -5178 
   -5937    -5983    -5459    -5243    -5262    -4936    -4530    -4623 
   -5078    -5013    -3983    -3117    -3515    -4414    -4823    -4796 
   -4662    -4830    -5309    -5617    -5715    -5799    -6035    -6381 
   -6137    -5309    -4986    -5115    -4413    -3083    -2868    -3865 
   -4183    -3387    -3194    -4233    -4980    -4615    -4221    -4463 
   -4706    -4706    -4810    -4951    -4816    -4271    -3630    -3766 
   -4835    -5607    -5290    -4603    -4495    -5003    -5471    -5589 
   -5779    -6037    -5683    -4878    -4575    -4652    -4153    -3304 
   -3346    -4380    -5094    -4796    -4101    -3831    -4288    -4644 
   -3937    -3283    -4224    -5632    -5516    -4245    -3574    -4131 
   -5161    -5841    -6188    -6396    -6266    -6004    -5907    -5474 
   -4608    -4089    -4160    -4411    -4515    -4220    -3510    -3132 
   -3915    -5169    -5432    -4905    -4887    -5395    -5282    -4390 
   -4077    -4808    -5391    -5467    -5778    -6075    -5549    -4583 
   -4390    -5300    -6030    -5339    -4028    -3703    -4330    -4725 
   -4450    -4195    -4425    -4561    -4324    -4576    -5495    -5636 
   -4644    -4395    -5422    -5775    -4743    -4051    -4791    -5772 
   -5518    -4498    -4293    -5128    -5763    -5674    -5390    -5171 
   -4915    -4657    -4711    -5085    -4951    -3931    -3038    -3183 
   -3983    -4595    -4815    -4891    -4572    -3867    -3996    -5321 
   -6577    -7057    -6858    -6093    -5043    -3994    -3381    -3601 
   -4244    -4758    -5108    -5036    -4369    -3684    -3343    -3315 
   -3904    -4901    -5359    -5077    -4654    -4558    -4824    -5051 
   -5013    -5085    -5319    -5117    -4519    -4171    -4212    -4500 
   -4760    -4685    -4507    -4345    -3946    -3643    -4086    -5194 
   -5941    -5336    -3979    -3634    -4707    -5645    -5443    -4858 
   -4527    -4187    -3954    -4263    -4880    -5127    -4838    -4658 
   -5131    -5675    -5337    -4646    -4899    -5748    -5979    -5567 
   -5042    -4750    -5015    -5398    -5078    -4444    -4414    -4869 
   -5452    -6327    -7047    -6565    -5197    -4545    -4893    -4789 
   -3730    -3130    -3816    -4812    -5242    -5084    -4702    -4684 
   -5032    -5159    -4935    -4768    -5144    -5980    -6222    -5198 
   -3947    -3879    -4669    -5034    -4739    -4330    -4037    -3852 
   -3854    -4230    -4691    -4390    -3572    -3696    -4737    -5076 
   -4482    -4099    -4136    -4023    -3836    -4118    -4812    -5263 
   -5186    -4958    -4860    -4723    -4639    -4984    -5595    -5906 
   -5660    -5165    -4854    -4615    -4133    -3686    -3944    -4899 
   -5468    -4897    -3835    -3310    -3680    -4518    -4877    -4598 
   -4441    -4425    -4511    -5146    -5505    -4837    -4144    -4070 
   -4384    -5062    -5672    -5741    -5560    -5359    -5063    -4806 
   -4681    -4695    -5001    -5494    -5485    -4619    -3889    -4391 
   -5356    -5354    -4577    -4287    -4915    -5582    -5517    -5293 
   -5653    -6053    -5733    -5077    -4807    -4810    -4684    -4788 
   -5348    -5551    -5117    -4951    -5371    -5682    -5355    -4785 
   -4630    -4526    -4075    -4114    -4891    -5259    -4957    -4816 
   -4707    -4066    -3493    -3572    -3739    -3441    -2754    -2250 
   -2890    -4492    -5251    -4657    -4374    -4873    -4895    -4534 
   -4888    -5633    -5796    -5339    -5015    -5356    -5784    -5383 
   -4352    -3577    -3415    -3635    -4089    -4587    -4526    -3975 
   -3919    -4514    -5053    -5358    -5613    -5803    -5674    -4966 
   -4261    -4391    -4924    -4966    -4630    -4556    -4747    -4631 
   -4286    -4460    -5001    -5225    -5404    -5800    -5809    -5166 
   -4388    -4237    -4966    -5663    -5506    -4947    -4668    -4897 
   -5416    -5574    -5401    -5352    -4965    -4249    -4463    -5636 
   -6219    -5675    -4963    -4837    -5121    -5385    -5580    -5888 
   -6015    -5467    -4761    -4834    -5212    -4824    -4081    -4043 
   -4402    -4224    -3952    -4482    -5331    -5570    -4996    -4120 
   -3879    -4325    -4514    -4325    -4367    -4752    -5302    -5651 
   -5285    -4417    -3882    -4113    -4734    -5092    -5069    -4936 
   -4668    -4145    -3692    -3883    -4522    -4661    -4129    -3627 
   -3757    -4567    -5271    -5070    -4394    -4395    -5202    -5940 
   -6304    -6331    -5703    -4614    -4001    -4351    -4950    -4943 
   -4436    -3920    -3551    -3397    -3634    -3975    -3848    -3423 
   -3350    -3842    -4554    -4986    -4877    -4464    -4376    -4677 
   -4673    -4521    -4978    -5598    -5557    -5000    -4569    -4980 
   -5956    -5941    -4935    -4797    -5644    -5934    -5459    -5016 
   -4650    -3998    -3435    -3727    -4587    -4950    -4811    -4839 
   -4854    -4567    -4638    -5475    -5886    -4897    -4018    -4815 
   -6165    -6266    -5255    -4815    -5564    -5998    -5217    -4495 
   -4870    -5609    -5605    -4860    -4410    -4804    -5256    -5093 
   -4826    -5012    -5269    -5148    -4889    -4576    -4185    -4257 
   -4887    -5387    -5314    -4681    -4121    -4364    -4719    -4087 
   -3195    -3555    -5027    -5935    -5439    -4522    -4149    -4245 
   -4469    -4511    -4297    -4094    -3960    -3915    -4392    -5209 
   -5386    -5024    -4992    -5013    -4725    -4781    -5005    -4352 
   -3389    -3530    -4317    -4428    -4261    -4680    -4788    -3982 
   -3539    -3981    -4330    -4449    -4889    -5333    -5190    -4565 
   -4071    -4132    -4268    -3959    -3765    -4152    -4675    -4896 
   -4986    -5259    -5459    -5242    -4941    -5031    -5413    -5606 
   -5530    -5563    -5640    -5313    -4860    -4981    -5516    -5682 
   -5378    -5265    -5412    -5093    -4579    -5015    -5925    -5759 
   -4725    -4475    -5413    -6111    -5670    -5107    -5364    -5645 
   -5088    -4565    -4911    -5074    -4438    -4062    -4266    -4226 
   -3904    -4095    -4893    -5355    -4934    -4380    -4556    -5108 
   -5437    -5822    -6319    -6200    -5298    -4455    -4320    -4456 
   -4024    -3226    -3042    -3636    -4106    -4006    -4095    -4845 
   -5432    -5223    -4683    -4361    -4383    -4725    -5027    -4592 
   -3430    -2825    -3655    -4725    -4718    -4536    -5024    -5152 
   -4630    -4571    -5262    -5857    -5576    -5004    -5425    -6214 
   -5733    -4499    -4174    -4618    -4479    -3913    -4396    -5695 
   -5742    -4243    -3505    -4626    -5448    -4151    -2647    -3399 
   -5286    -6116    -6023    -5844    -5451    -4793    -4338    -4371 
   -4698    -4900    -4838    -4704    -4488    -4028    -3651    -3937 
   -4534    -4571    -4287    -4091    -3576    -3045    -3349    -4275 
   -4870    -4693    -4236    -4075    -4379    -5040    -5262    -4680 
   -4507    -5314    -6046    -6226    -6170    -5733    -4864    -4214 
   -4214    -4415    -4301    -4012    -3921    -4079    -4284    -4471 
   -4581    -4341    -4000    -4189    -4702    -4934    -4918    -4905 
   -4853    -5030    -5841    -6636    -6507    -5914    -5886    -6372 
   -6428    -5881    -5657    -6002    -6118    -5629    -4974    -4907 
   -5336    -5205    -4608    -4549    -4695    -4392    -4340    -5074 
   -5616    -5248    -5020    -5691    -6172    -5695    -5213    -5367 
   -5324    -4766    -4779    -5420    -5352    -4727    -4965    -5890 
   -6033    -4981    -3766    -3500    -4314    -5250    -5449    -5343 
   -5472    -5470    -5131    -4909    -5325    -6073    -6218    -5757 
   -5437    -5514    -5823    -5945    -5755    -5636    -5408    -4737 
   -4233    -4631    -5721    -6180    -5157    -4097    -4537    -5580 
   -5863    -5408    -5011    -4986    -4791    -4371    -4556    -5304 
   -5524    -4912    -4297    -4005    -3472    -2643    -2091    -1787 
   -1310     -834     -859    -1379    -1976    -2330    -2369    -2338 
   -2496    -2853    -3330    -3672    -3870    -4482    -5256    -4843 
   -3331    -2662    -3419    -4008    -3431    -2633    -2849    -3647 
   -3757    -3514    -3956    -4650    -4982    -5290    -5756    -6227 
   -6602    -6628    -6035    -5105    -4560    -4460    -4283    -4036 
   -4170    -4845    -5471    -5301    -4824    -5332    -6959    -8324 
   -8444    -7805    -7177    -7005    -7129    -6613    -5587    -5177 
   -5360    -5894    -7123    -8451    -8588    -7277    -5356    -3333 
   -1421     -737    -1810    -2868    -2155     -409      464       -2 
    -895    -2104    -4147    -6197    -6953    -6883    -7261    -7854 
   -8006    -8514    -9931   -11109   -10571    -8253    -5784    -4594 
   -4268    -3750    -2957    -2478    -2516    -2770    -3028    -3277 
   -3453    -3808    -4943    -6643    -7844    -8031    -7269    -5454 
   -2741     -183      805     -305    -2378    -3634    -3619    -3348 
   -3569    -3824    -3507    -3144    -3943    -5949    -7156    -5886 
   -3585    -2880    -3616    -3703    -3079    -3578    -5498    -6732 
   -5005    -1071     1327      141    -3057    -6115    -8325    -9914 
  -10490    -9397    -7736    -7321    -8586   -10442   -10962    -9602 
   -7542    -5088    -1984      693     1219    -1364    -6492   -11481 
  -13009   -10550    -6933    -4904    -4526    -4630    -5119    -6185 
   -6874    -6237    -4858    -3994    -4067    -4568    -4569    -3329 
   -1231       64     -691    -2633    -4036    -4745    -5454    -5525 
   -4035    -1764      -94      422      156       44     -120    -1524 
   -3717    -4903    -3951    -1428      476       67    -2446    -5736 
   -8195    -9078    -9031    -8856    -8981    -9863   -11406   -12294 
  -10824    -7333    -4796    -5363    -7619    -8106    -5344    -1759 
    -279     -731    -1300    -1005       44     1267     2241     2488 
    1136    -1818    -4810    -6411    -7287    -9448   -13309   -16591 
  -16403   -12336    -7821    -6247    -6446    -5539    -3761    -2929 
   -2733    -1609      519     2664     4162     4253     2479       68 
   -1042     -805     -842    -1829    -3196    -4638    -6309    -8124 
   -9487    -9965   -10214   -11253   -12559   -12357   -10470    -8860 
   -8733    -9493   -10605   -11932   -12564   -11983   -11083   -10050 
   -8271    -6686    -6304    -5914    -4132    -1300     1475     2779 
    1686     -207     -163     1877     3339     2103    -1591    -5587 
   -7489    -6528    -4526    -3732    -4081    -4685    -5647    -6840 
   -7800    -8314    -7653    -5432    -3163    -2409    -2632    -2895 
   -3524    -4515    -4747    -3323     -584     1833     2134      -93 
   -3375    -5502    -5463    -3496     -681      722     -302    -2280 
   -4604    -7859   -11072   -12194    -9961    -5283    -1350     -630 
   -2315    -3900    -4139    -3253    -1950    -1904    -5000   -10384 
  -14274   -14080   -10982    -7447    -4436    -2192    -1381    -1767 
   -1663     -506       78     -770    -2026    -2936    -3858    -5472 
   -7781    -9772   -10400    -9521    -7982    -6601    -5125    -3451 
   -2547    -3109    -4568    -5148    -3142     1097     5347     7389 
    6107     1826    -4036    -9297   -11448    -9902    -7229    -6565 
   -8737   -11649   -12326   -10527    -8459    -7433    -7954   -10347 
  -12719   -12155    -9092    -6551    -5633    -5286    -4622    -3547 
   -2511    -1656     -978    -1175    -2280    -2839    -2155    -1244 
   -1051    -1837    -3713    -5529    -5243    -3408    -3068    -5050 
   -6862    -6484    -4476    -2767    -2647    -3844    -5409    -6617 
   -6980    -6801    -7202    -8660   -10584   -12000   -11746    -9759 
   -7819    -6916    -6138    -5073    -4143    -3481    -3433    -4087 
   -4309    -3268    -2064    -2053    -2870    -3792    -5034    -6602 
   -7977    -8571    -7753    -5941    -4522    -3550    -2150    -1443 
   -3315    -6373    -7032    -4356     -608     2241     3964     4735 
    4203     2096     -791    -2755    -2952    -2533    -2879    -3719 
   -4405    -5543    -7770   -10265   -11499   -10744    -8704    -6799 
   -5476    -3993    -2717    -3341    -5404    -6546    -6696    -7326 
   -7739    -6060    -2774     -820    -1567    -2795    -2304     -912 
    -623    -1738    -2718    -2928    -3703    -5741    -7580    -7429 
   -5938    -5694    -7055    -7692    -6686    -5690    -6153    -6840 
   -5368    -2474    -1009    -1273    -1534    -1032     -182      247 
       1     -580    -1258    -1999    -3348    -5406    -6296    -5204 
   -4503    -5779    -7696    -8631    -8667    -9130   -10612   -11774 
  -11029    -8662    -6363    -5348    -5408    -5667    -5898    -6224 
   -5930    -4401    -3018    -3605    -5251    -5408    -3796    -2779 
   -3790    -5445    -5524    -3496    -1089     -507    -2150    -4743 
   -7018    -8452    -8788    -7865    -6246    -4591    -2998    -1826 
   -1370    -1543    -3015    -6207    -9490   -10679    -9494    -7650 
   -6620    -6048    -5236    -4769    -5255    -6002    -5822    -4371 
   -2478    -1233    -1247    -2949    -5856    -7844    -7442    -5888 
   -5117    -5192    -5364    -6129    -7931    -9389    -9247    -8114 
   -7152    -6883    -6633    -5501    -4591    -5466    -7130    -7491 
   -6192    -4282    -2637    -1633     -812      845     2733     2562 
     -10    -2232    -2234    -1325     -828     -367     -386    -1976 
   -4264    -5358    -4741    -3365    -2262    -1718    -1810    -2556 
   -3626    -4463    -4453    -3761    -2963    -1849     -908    -1768 
   -4310    -6250    -6543    -6694    -8001    -9836   -10957   -11076 
  -11106   -11348   -10386    -7615    -4503    -2442    -1837    -2450 
   -2951    -2027     -403      160    -1005    -3676    -7017    -9315 
   -9699    -9404    -9609    -9942    -9850    -9229    -7981    -6280 
   -4718    -3931    -4000    -4240    -3973    -3105    -2208    -2079 
   -2587    -3238    -4428    -5925    -6266    -5155    -3716    -2801 
   -2870    -3774    -4549    -4687    -4761    -5562    -7028    -8338 
   -9323   -10444   -11225   -10687    -8815    -6361    -4290    -3281 
   -3061    -2945    -2586    -1528      684     3369     5051     5090 
    3989     2523     1154       87     -475     -810    -2050    -4606 
   -7092    -8268    -8410    -8255    -8081    -7850    -7541    -7253 
   -6999    -6652    -6455    -6966    -8056    -8976    -9126    -8023 
   -5927    -4538    -5300    -7334    -8468    -7808    -6115    -4044 
   -1405     1148     1659       -4    -1620    -2492    -3770    -5416 
   -6276    -6070    -5679    -5742    -5663    -4966    -4752    -5977 
   -7765    -8680    -7913    -5769    -4078    -4291    -5746    -6885 
   -6454    -4278    -1949    -1071    -1278    -1683    -2380    -3275 
   -4155    -5783    -8071    -9385    -9387    -8891    -7790    -6369 
   -5962    -6847    -7890    -8282    -7832    -6295    -4185    -2921 
   -2890    -3326    -3804    -3932    -3007    -1439    -1096    -2817 
   -4892    -5111    -3200     -926      -66     -522    -1100    -1723 
   -3100    -4498    -4545    -3750    -3815    -5219    -6482    -6320 
   -6029    -7028    -7798    -6735    -4986    -3974    -3495    -3528 
   -4750    -6561    -7202    -6210    -4796    -4117    -4349    -4793 
   -4847    -4765    -4739    -4486    -4198    -4383    -4492    -3068 
     -13     2474     2335       86    -2350    -4118    -5368    -6014 
   -5969    -5946    -6858    -8260    -8835    -8456    -7861    -7352 
   -7187    -7303    -6628    -4661    -2678    -2034    -2879    -4590 
   -5652    -4450    -1806     -368    -1147    -2943    -4448    -5297 
   -5744    -6164    -6517    -6623    -6785    -7082    -7190    -7253 
   -7630    -8295    -8739    -8572    -8583    -9551   -10392    -9900 
   -9057    -9209    -9649    -8883    -7107    -5942    -5926    -5896 
   -5178    -4378    -3854    -3279    -2506    -1975    -2180    -2863 
   -3377    -3672    -3943    -4033    -3915    -4083    -4880    -5589 
   -4885    -2716    -1147    -2004    -4182    -5032    -3759    -2077 
   -1491    -1332     -743     -604    -1769    -3352    -3910    -2928 
   -1171     -537    -1741    -2882    -2964    -3397    -4654    -5729 
   -5926    -5332    -4774    -4608    -4324    -4191    -4905    -5863 
   -5630    -4029    -3025    -4274    -6644    -7963    -7607    -6431 
   -5398    -4676    -4399    -5325    -7094    -7603    -5973    -3856 
   -3005    -3713    -5177    -6265    -6500    -5891    -4517    -2794 
   -1205     -356     -552     -853     -858    -1615    -2732    -2438 
    -934     -129     -812    -2019    -2679    -3028    -3844    -4962 
   -5675    -6035    -6820    -8429   -10011   -10341    -9879   -10165 
  -11097   -11164   -10044    -9115    -9227    -9328    -8440    -7261 
   -6766    -7030    -7365    -6953    -5713    -3917    -1740     -137 
    -309    -1709    -2651    -2581    -2178    -1902    -1713    -1939 
