Origin Time       2024/04/02 04:24:00
Lat.              40.133
Long.             141.712
Depth. (km)       71
Mag.              6.0
Station Code      IWT012
Station Lat.      39.3206
Station Long.     141.1388
Station Height(m) 62
Record Time       2024/04/02 04:24:55
Sampling Freq(Hz) 100Hz
Duration Time(s)  158
Dir.              N-S
Scale Factor      7845(gal)/8223790
Max. Acc. (gal)   82.355
Last Correction   2024/04/02 04:24:54
Memo.             
[...]
   -2938    -4916    -5687    -6253    -5634    -5127    -5170    -3627 
   -1019      928      753    -2538    -5146    -3788    -3577    -6254 
   -6651    -5185    -3511    -1073      953     3078     5281     5167 
    2289    -2336    -8413   -13154   -12727    -9794    -8370    -5776 
    1101     8883    11649     8646     4693     2358     -326    -2501 
   -4040   -10246   -18852   -22395   -20621   -14179    -5233     1305 
    7184    13639    15579    12669     9710     6841     2408    -1539 
   -6462   -14396   -20239   -21222   -17159    -7506     1559     5973 
    9319    11792    10330     5251     -121    -2004       67     1269 
   -2952    -9755   -12650   -11846   -11219    -9892    -9144   -11546 
   -9726       82     7404     7653     7500     7572     5131     3561 
    3456     1547    -1210    -3028    -4162    -5810    -8972   -11527 
  -12274   -10943    -5109      953     2014     2440     3028     1757 
    2682     4437     3404     1885     -907    -6210   -12218   -19890 
  -24943   -19257    -7530      766     5022     7708    10557    13622 
   13999    10276     4509      137     -561    -1485    -7283   -12965 
  -13937   -13019   -10447    -6998    -6318    -5329     -888     3342 
    5412     6547     7083     5320       35    -6135   -10760   -12553 
  -11133   -10906   -12367    -8064     2023     8652     8583     6554 
    4654     1350    -1317    -1895    -4179    -8144    -8765    -5263 
    -626     2608     2803       79    -4047    -6509    -6976   -10497 
  -16452   -17686   -11704    -1768     6543    10314    11080    10320 
    8742     7173     5297      939    -5740   -10844   -12895   -11855 
   -8841    -8348    -9277    -6617    -2393      569     2328      696 
   -2718    -2149     1810     3690      985    -3935    -5429     -942 
    4257     3836     -996    -4815    -5309    -4741    -7177   -11716 
  -12344    -7225     -106     4083     4105     3736     3588     2754 
    2050    -1185    -5263    -5586    -4193    -2934    -3449    -6755 
   -8225    -5169      112     3769     3365     -392    -5134    -6839 
   -5294    -4792    -4776    -2813      166     3431     4662     1302 
   -3483    -6388    -7349    -5545    -3354    -4521    -5742    -2266 
    4414     9248     7952     1844    -2821    -3650    -2994    -4518 
  -10559   -16459   -15894    -8897      232     5024     4124     5111 
    9525    10083     5224    -3019   -12253   -15905   -12769    -8602 
   -5823    -3554    -1125     2215     7040    10813     9093     2440 
   -4243    -8436   -10542   -11568   -13564   -16197   -14409    -6797 
    1505     6447     7717     6566     4534     3289     2250    -1329 
   -5533    -6264    -4631    -2637     -892    -1043    -3249    -5595 
   -6367    -5584    -5358    -6567    -6555    -3944     -731     1719 
    2257     1170     1779     4862     6670     3628    -2138    -5628 
   -7445    -9400    -9003    -7049    -6521    -5566    -3018       71 
    4552     8757     8722     4985      882    -2826    -6308    -8162 
   -8931   -10609   -11780   -10771    -7851    -2929     2322     5931 
    6882     4491     2295     2320     2052     1845      359    -4816 
   -8772    -8645    -8482    -9521    -9355    -6462    -2162     -172 
   -1458    -2605    -1105     1389     2508      988    -3738    -7879 
   -7917    -6000    -2857     1119     2353      947    -1448    -5640 
   -8428    -6069    -2288     -502       45     -244     1417     5575 
    6523     3514     1190      531      -54    -2789    -8286   -13082 
  -14956   -13517    -9366    -7102    -6933    -3450     2867     9004 
   13154    11662     6794     4849     3150    -2825    -9254   -12746 
  -13792   -12371   -10791    -9883    -5818      302     4789     7412 
    6544     3728     3022     1610    -2303    -5131    -5962    -5582 
   -4706    -5310    -7219    -7389    -4816    -2498    -2632    -3906 
   -4621    -4388    -3503    -1669     1576     4120     4490     4781 
    4274      625    -4006    -7952   -11261   -11377    -8494    -7407 
   -7168    -3110     1614     3156     3095     1544     -939    -2573 
   -3427    -3213    -2600    -1988      218     2331     2008     1169 
    1098     1290     1260    -1347    -6743   -10138    -9522    -7645 
   -5178    -1590     1471     3379     4519     3784     1147    -1360 
   -3049    -4531    -5717    -6930    -8193    -8530    -8432    -7852 
   -6002    -5032    -5402    -3611     1020     6269    10258    10864 
    7535     2095    -2538    -4633    -6470    -9283   -11335   -12703 
  -12236    -8664    -5733    -5593    -4207     1344     7726    10122 
    7774     3013     -864    -1381     -122     -464    -1975    -1799 
     163      292    -3974   -10104   -12906    -9825    -3948     -340 
     220      599     1475      336    -2860    -5271    -5614    -4218 
   -2569    -1860    -2050    -3689    -4893    -2644      -83    -1256 
   -3231    -2679    -1121       63      228    -2627    -7048    -8766 
   -7175    -4202    -1779     -290     1858     4035     4549     3400 
     579    -2462    -2787     -831     -445    -2736    -6096    -8271 
   -6107    -2789    -3271    -4307    -3798    -2535     -198     -499 
   -4792    -6816    -3195     1595     2312    -1252    -5644    -7954 
   -7836    -6138    -4167    -4164    -5410    -3740      791     4070 
    4989     5463     6569     7051     5817     3381     -861    -6320 
  -10042   -11986   -12980   -12263   -10971    -9354    -5873    -1432 
    2648     6162     8509     8573     6007     3315     2255     1217 
   -1227    -5022    -7943    -8451    -8588   -10137   -13242   -14419 
   -8803      118     4703     4229     3138     3757     4459     3335 
    1331     -333    -3373    -7696    -9995   -10982   -12648   -11874 
   -6666     -522     3889     7758    11261    12312     9150     1906 
   -4915    -7368    -7338    -7098    -8240   -10970   -11152    -8005 
   -5644    -5128    -5066    -3535     1405     6768     6669     1629 
   -1634     -484      996       99    -1745    -3904    -7399   -10828 
  -12123   -12398   -10825    -5229     1165     4833     6265     6559 
    6354     4911     1771       62      804      342    -2299    -6142 
  -10235   -10810    -7983    -6763    -7445    -7395    -5140     -507 
    2101     -599    -4059    -2926     2079     5385     3346      534 
    1601     3261     3582     3253     -557    -6563    -9077    -7673 
   -6430    -8691   -11588    -8924    -2655     1610     2648      508 
   -1070     1611     4544     4926     3665     -205    -4363    -6218 
   -7861    -7906    -4930    -3744    -5756    -7472    -6660    -2027 
    4002     6027     3869     1036    -1142    -2088    -3061    -6399 
   -9934    -9988    -6561    -3720    -5216    -7400    -4059     3206 
    7530     6420     2470    -1999    -4185    -2959    -2602    -5764 
   -9200    -9335    -6389    -2906     -955      -79     2323     6138 
    7177     2991    -3208    -7342    -8905    -7573    -4688    -3661 
   -3612    -3601    -3240      649     5246     6183     6220     5503 
    1561    -2459    -4629    -7017    -8761    -8822    -8262    -6443 
   -4982    -6520    -6813    -2500     2079     3740     3168     1594 
     511     -276    -1499    -2454    -3040    -3696    -4783    -7242 
  -10366   -11190    -8962    -5209    -1150      973      743      770 
     873     -322    -1120     -596      492     1070    -1733    -6679 
   -8816    -8842    -7526    -3179     1597     4509     5067     2787 
      25    -1321    -1541    -1267    -2092    -4040    -5271    -5471 
   -4378    -1829     -507    -1070      230     2744     1786    -1710 
   -4816    -7117    -6642    -4288    -4614    -7042    -7897    -5424 
   -1271      -16     -733      549     2115     3204     5016     5059 
    2795      376    -3007    -7184   -10119   -12348   -12640    -9597 
   -6544    -3551     1772     5904     5277     2253      276     -819 
   -2404    -3554    -3230    -2663    -3566    -5694    -7357    -6709 
   -2925     2004     4862     4588     2718      315    -2952    -5931 
   -7045    -5830    -2986    -2010    -4108    -4349     -378     2668 
     379    -4199    -5564    -3288    -1964    -4378    -6741    -5829 
   -4464    -4542    -4518    -3948    -2486     1251     5200     6308 
    6316     6790     5448     1568    -2041    -3586    -3897    -4283 
   -7069   -12406   -14659   -11624    -8314    -7084    -6818    -6226 
   -2816     2196     4881     6220     7546     6673     3315    -1937 
   -8442   -12567   -12762   -10741    -6592    -1620      942      213 
   -1479      622     6875    10748     9880     6578     1420    -3430 
   -6723    -9726   -11244   -11846   -13451   -12610    -6831     -423 
    2612     3582     4947     7187     9771    10744     7287     -703 
   -9362   -13981   -14189   -13933   -14944   -15628   -14237    -9256 
   -2629      905     1983     4669     9036    12631    12715     9244 
    5231      700    -4359    -7808   -11134   -15303   -16997   -15040 
  -11728    -8860    -5528      594     8455    14341    16922    17366 
   16002    11838     6443      680    -8252   -17802   -23126   -24617 
  -21355   -15313   -12954   -11223    -4558     3824    11248    15753 
   13662     7969     3863      440    -3339    -5948    -8333   -11021 
  -11927   -11719   -11130    -8310    -4837    -3036    -1109     2668 
    8507    13869    14366    11128     6913     1876     -947    -1949 
   -7142   -15315   -20008   -18655   -11736    -4384    -2760    -4548 
   -4580    -3457    -3138    -2578     -244     2968     4429     2667 
    -928    -3682    -3430     -484      477    -2849    -5829    -5171 
   -1876     2408     3271    -1327    -4340    -3362    -4473    -6836 
   -6840    -4752     -106     3847     2551    -1510    -3435    -1436 
    2196     2092    -2463    -5917    -5859    -3022     2709     6426 
    2867    -2567    -3663    -2525    -1930    -2552    -3639    -2683 
     773     4531     4695     -545    -7087   -11866   -13842   -11479 
   -9568   -11331   -10600    -5629    -1084     1961     4800     7524 
    8534     6774     4734     4141     3177     1561     -275    -2596 
   -2847     -643       21    -2053    -4662    -6334    -5779    -1232 
    4814     6990     5876     6443     9200    10967    11384    10112 
    4619    -2212    -4922    -4297    -4064    -7126   -12650   -13728 
   -8039    -1721     1499      976    -1992    -2142     1763     5393 
    5302      480    -6872   -13182   -16610   -17583   -16918   -14251 
  -11071    -8090    -3673     -286     -591    -3497    -8202   -13142 
  -16731   -20676   -27660   -36406   -42866   -45397   -43413   -36892 
  -28802   -21089   -13070    -4680     3296     9969    14450    15735 
   13417     9086     4638     -122    -6188   -13247   -20086   -25933 
  -29403   -27648   -18821    -3973    13305    29592    42784    51312 
   57161    63625    66737    61250    51004    40432    29812    19429 
    6274   -10196   -23438   -30917   -35191   -36582   -34449   -25713 
   -4526    24891    46296    49977    42921    37490    37204    37422 
   31972    15294   -11088   -35758   -52033   -63412   -70835   -73256 
  -73022   -69172   -60008   -48955   -34645   -10192    19564    39772 
   43517    34260    23175    21608    23923    16127    -3150   -27368 
  -46839   -52724   -52026   -55769   -60320   -58457   -47320   -26121 
     166    23720    41647    52694    54118    49173    43398    35641 
   26746    20507    13178     1215   -11506   -22373   -31190   -36397 
  -37111   -31734   -17427     5354    31291    52537    64855    70119 
   69176    58919    39251    15518    -7596   -27368   -42016   -53129 
  -61068   -63138   -58490   -45230   -23473    -2787     9720    18300 
   25004    26102    22635    17169    10474     4537    -1829    -8965 
  -13857   -17431   -20623   -23934   -28736   -31190   -29111   -23819 
  -12657     3470    16316    19620    13675     4012    -1829    -1008 
    1062    -1233    -6713   -12108   -15272   -13965    -9543    -6485 
   -5043    -2974      672    10281    28381    46406    55212    53271 
   39706    16302    -7242   -25286   -43241   -58747   -61446   -57882 
  -60825   -66436   -66193   -56587   -32179     5400    39422    60347 
   74089    81629    80385    72004    55494    32522    10982    -4820 
  -15013   -19766   -23619   -34773   -49840   -54970   -46512   -30989 
  -14235    -1183     7372    15645    21902    18686     9690     4908 
    3873     3780     5194     6069     5105     1233    -8571   -22858 
  -35911   -44510   -48192   -44706   -32119   -14040     4418    20040 
   29089    29754    25289    21081    19680    20194    21104    19361 
   10957    -2524   -15503   -26208   -33384   -34820   -32672   -27251 
  -15495     1271    19369    33061    36296    31787    25359    16744 
    8411     6993     7715     2033    -5228   -11820   -23380   -33818 
  -33987   -28536   -25382   -24510   -23683   -23897   -24736   -21230 
   -9891     3667    10474     8457     2052      585     7816    15553 
   20085    23517    25348    27589    29000    23039    10120    -3800 
  -14362   -21298   -30608   -44903   -54807   -51020   -34350   -10470 
   12027    23751    25733    29178    38962    49738    56270    52066 
   31144     1507   -22947   -40459   -54588   -61477   -60156   -59162 
  -60458   -60299   -60069   -57334   -46722   -28850    -7013    13089 
   27195    39075    51675    61935    69711    78282    84021    77734 
   58870    38022    24055    15742     7477    -3870   -19816   -37625 
  -50036   -53212   -48076   -38630   -29209   -20819   -16060   -17331 
  -19485   -19403   -21928   -26500   -26275   -20034    -9845     1709 
    9379    11588    11913    14569    20451    23522    19878    13738 
    7191     -280    -6343   -12649   -22621   -29782   -28404   -25712 
  -26927   -27220   -23213   -16032    -7862    -1044     5393    14415 
   26438    39580    49540    52658    50188    44335    34666    20074 
    2042   -14339   -26063   -32799   -32202   -27874   -28166   -28987 
  -20826    -5524    10787    24607    30962    27938    21868    16283 
    6324    -6831   -15179   -20179   -29123   -40882   -50346   -56289 
  -56011   -44869   -27189   -14250    -8521    -2249     9859    25955 
   40932    47394    42102    33775    29039    22724    10432    -7341 
  -26613   -40381   -45935   -44598   -38823   -31230   -18504     1695 
   20737    31861    39588    45580    43866    35569    26334    14377 
    -160   -10804   -18253   -28559   -38361   -39845   -33343   -21740 
   -6254     6895    12572    14951    16224    13591    10542    10417 
   11450    12914     9848    -2143   -17054   -28983   -35880   -33870 
  -24887   -16816    -9421     2011    13778    20695    22954    20889 
   16039     9972     2944     -510      171    -2393    -9582   -17475 
  -25311   -31402   -32144   -26287   -15921    -6466     -758     4280 
   10563    18831    28350    33191    30172    20016     4240   -11481 
  -23746   -32289   -35203   -34985   -34190   -29978   -24220   -21077 
  -17454    -9988    -2357     -398    -3431    -5665    -4515      638 
    8073    10895     5999    -2142    -7238    -6380    -2637     2592 
   11406    19741    22983    24274    24899    20241    10689     4202 
    4584     6201     3966      182    -3168    -9184   -18246   -25872 
  -29083   -26973   -18701    -5304     9570    22747    32506    36914 
   36472    32827    23404     8001    -7581   -21443   -34874   -44793 
  -49133   -50584   -49308   -42600   -31029   -16661     -237    15487 
   26283    31295    31673    28923    26420    24757    19894    11450 
    3856    -1838    -7982   -14465   -19128   -21404   -21570   -18605 
  -12079    -3800     4125    11596    19693    27298    30651    27538 
   18866     5687    -8379   -17228   -22713   -29285   -32782   -31866 
  -28861   -20671    -9401    -1358     4510    10611    16043    18561 
   15857     9886     4390     -776    -7785   -18123   -29974   -37764 
  -38078   -32599   -24822   -17717   -13451   -10087    -1175    13921 
   26964    31461    25860    13008     2839     2658     6328     5779 
    3102     1224    -1545    -5044    -9103   -12245    -8896    -1139 
    3678     4148     -585    -7271    -7730    -4125    -4695    -9749 
  -14459   -16266   -14773   -10717    -8059    -8762    -9973   -12414 
  -16444   -15377    -7084     2253     8675    12792    15921    18046 
   19202    21852    26590    29164    26283    18117     6481    -4584 
  -11612   -15336   -18713   -24621   -32694   -37342   -34287   -23622 
   -7304     8490    17506    20646    21169    20096    18897    18565 
   16438     9637    -1277   -14269   -26381   -35340   -41415   -43218 
  -39224   -33026   -28507   -24904   -18539    -6651     8780    21890 
   28798    30928    30366    28329    27419    23691     9170   -11842 
  -27681   -34277   -33386   -26638   -16591    -5703     6623    20430 
   33485    42857    43530    34717    24401    17211     8819    -3277 
  -15361   -24150   -29384   -31311   -30659   -27139   -19797   -11056 
   -3993      167      884      302     2239     6613     8911     7670 
    6172     3777    -3430   -13144   -19210   -20173   -19095   -18060 
  -16609   -14157    -9396    -1336     7842    15858    21888    24534 
   22962    18889    13076     2474   -12468   -24088   -27005   -24880 
  -23240   -21293   -16455    -9034      909    12177    20695    24595 
   23998    17219     5451    -6127   -15631   -21811   -19734   -10609 
   -3346     -535      396    -2843    -9910   -13811   -11743    -6226 
     460     4380     1892    -3411    -5502    -4256     -976     5084 
   12968    19700    21720    17907    11372     4854    -1621    -9057 
  -17385   -23510   -23722   -17945   -10442    -5347    -2192      261 
    2134     6139    13009    19612    23402    21066    11947     -166 
  -13001   -23830   -28725   -27811   -25007   -23224   -20482   -15460 
  -11299    -7495    -1617     5051    12148    18110    17463     8303 
   -4302   -13350   -17358   -20156   -22820   -23949   -23091   -18601 
  -10982    -4572     -915     2685     9393    19028    26811    28358 
   23157    14577     7751     3796     -577    -7700   -16168   -23071 
  -26366   -23990   -16864    -8355     2249    15167    25528    29266 
   26491    20777    15395     9356      -75   -12604   -24561   -33065 
  -37868   -39070   -36786   -32090   -25473   -16178    -4230     8502 
   19222    25428    26480    24784    23276    21373    15500     4147 
   -9109   -19143   -24528   -27232   -28282   -27846   -26092   -19832 
   -7800     3431     9671    14558    20518    25365    26924    26311 
   26376    25990    19909     7395    -5800   -14883   -17747   -14651 
  -10127    -7628    -6816    -7342    -7454    -5684    -4627    -5640 
   -6354    -4599     -216     4669     7966     9381     9238     7558 
    2535    -6201   -13664   -15795   -14164   -10605    -4185     3896 
    9873    12561    11645     6513       18    -4079    -5799    -7661 
  -11151   -15506   -18306   -17123   -13460   -11267    -9232    -3473 
    4267     9702    10277     4417    -5395   -13751   -18832   -21240 
  -21952   -22663   -21906   -16610    -8380    -1551     1132    -1156 
