Origin Time       2024/04/02 04:24:00
Lat.              40.133
Long.             141.712
Depth. (km)       71
Mag.              6.0
Station Code      IWT019
Station Lat.      39.8030
Station Long.     141.6584
Station Height(m) 294
Record Time       2024/04/02 04:24:49
Sampling Freq(Hz) 100Hz
Duration Time(s)  84
Dir.              N-S
Scale Factor      7845(gal)/8223790
Max. Acc. (gal)   249.518
Last Correction   2024/04/02 04:24:48
Memo.             
[...]
      13       18       18       16       16       16       16       16 
      17       16       16       17       20       18       14       14 
      17       16       17       18       17       16       16       16 
      16       17       18       18       17       16       16       17 
      17       17       17       16       16       17       17       16 
      16       17       17       16       17       17       16       14 
      16       16       14       17       18       16       14       17 
      14       13       16       17       17       17       16       14 
      14       13       14       17       17       16       16       17 
      18       16       13       14       17       16       16       17 
      18       16       16       18       16       14       16       17 
      18       18       17       16       16       17       17       16 
      14       13       14       18       18       16       16       16 
      18       20       17       17       18       14       14       17 
      16       16       17       17       17       18       18       17 
      16       17       18       17       16       17       17       14 
      14       16       16       16       18       18       17       16 
      18       18       16       17       18       17       14       16 
      17       17       14       13       16       16       13       16 
      17       16       17       17       13       13       16       17 
      16       16       17       16       14       16       17       17 
      18       18       17       17       17       16       16       17 
      16       16       17       18       16       14       17       17 
      13       14       16       14       16       18       18       17 
      18       18       18       18       14       13       16       18 
      20       16       14       20       17       14       17       17 
      13       13       16       18       18       16       16       18 
      16       14       21       21       14       14       17       16 
      17       17       16       16       17       18       17       17 
      18       17       14       16       18       14       16       20 
      18       14       13       17       20       17       16       17 
      16       16       16       16       17       18       16       16 
      17       16       16       17       14       13       14       17 
      16       16       18       20       17       16       17       16 
      13       16       17       16       17       17       16       17 
      18       16       14       16       16       16       14       13 
      17       16       12       13       17       16       13       14 
      17       17       16       16       16       17       18       20 
      17       14       17       17       14       17       17       16 
      17       17       17       17       13       13       16       14 
      16       17       14       14       17       17       16       14 
      14       16       16       14       17       20       16       16 
      20       18       17       18       17       14       17       18 
      16       13       16       17       16       16       18       18 
      14       12       16       16       13       14       17       14 
      13       16       16       13       16       18       17       16 
      13       14       14       13       14       16       13       12 
      16       17       14       16       17       16       13       14 
      18       18       14       16       16       14       17       17 
      14       14       16       16       16       14       17       18 
      17       16       17       17       16       16       18       16 
      12       17       20       14       13       18       18       14 
      16       17       14       14       16       17       20       17 
      16       17       16       14       16       16       14       13 
      13       16       17       16       14       14       17       17 
      14       18       21       16       14       17       18       16 
      16       17       17       17       16       13       14       16 
      14       16       17       12       13       18       18       14 
      16       20       17       16       21       20       17       16 
      14       16       17       18       18       16       14       16 
      14       13       14       16       16       17       17       17 
      16       16       18       16       14       17       17        2 
     -35     -136     -324     -518     -515     -211      129      198 
     248      549      662      449      452      583      488      469 
     816      955     -369    -2519    -3049    -1632      778     1921 
    -727     -990     4986     4249    -3811     -641     7857     3064 
   -5842    -5724    -2415    -1964    -2721    -1453     2336     4544 
    2914      144      430     4704     3956    -3404    -2574     2427 
   -4463   -12136    -4939     6295     3169    -8158    -2479    15249 
   11484    -7188    -5077     7365     2141    -5468     -723     -384 
   -8421    -9521      230     8491     4896     -562     3592     5475 
   -1648    -3396     2890     3726    -4425    -9076    -1626     4131 
   -2498    -4969     2914     4174     3218     9647     1960   -14851 
   -5004    11489     -742   -13779    -1556    10566     2149    -7508 
    2135    11196     -542    -5452     7655     4646    -8140    -4405 
   -6247   -14126     1013    15352     1954   -11820    -1194    20588 
   18273   -14557   -23433    13864    28723    -9567   -30406    -1738 
   18040     1370   -16515   -11701     8496    19737     2538   -18058 
   -3607    22069    11989   -16993   -16490    12116    18593   -10944 
  -18713    10280    10269   -17005    -1779    28960     3927   -27452 
     716    28657     2893   -27152   -16329    10216     9024    -9247 
   -2497    17820    12503    -8066   -10014     2072     3852    -3183 
   -6548    -4614     -405     2668     2272    -2565    -3474     5971 
    9990     1676    -1501     1277    -3997    -9445    -3727     2000 
   -3015    -5853     9273    19909     1175   -13347     1039     6640 
   -4773     3635    12572   -10692   -21793      198     4676    -6999 
    3750    15321     6166    -3512    -8845    -8521     7624    19214 
    1992   -24599   -22029    10405    26704     2543   -15804     5439 
   16083    -9148   -15754     4444     3381   -10462    -2636     7711 
     537    -2801     3424     1517      147    13244    13034   -15493 
  -23647     6419    17130    -7079   -15259     4209    12576     -940 
   -7153     -297     -469      498     9537     7348    -3561    -8596 
   -9076    -3032     8881     7233    -8644    -4941    12356     3176 
  -13058    -4072     7565     7061     3559    -6438   -11614     4251 
   11886    -6169   -10851     4197     4185     -862     4275    -1136 
   -6305     4996     3184    -9528     1405    15780     3870    -7631 
    1833     6242    -6173   -10854      695     7516    -2585   -12326 
    -592    15928     8904    -5170    -1424     2000    -5616    -1665 
    7523     3072      473    -4222   -22158   -18630    11453    23581 
    5116   -16214    -8035    20618    18814   -13597   -20290     5474 
   13837    -6571   -13486     4013     8734    -4468    -6288     1351 
    5088     8586     5319    -6825    -9603      924     5078    -3794 
   -5530     4930     5958    -3800    -3057     7491     6536    -1571 
    1884      924   -11188    -3134    14189     3960   -12071    -6601 
    4707    12013     8681   -11874   -15589    11445    12074   -21571 
  -17228    21764    20723   -12268   -16032     1996     5053     2732 
    6523      750    -8559    -3666     2269    -2928    -8267    -5544 
    4974    12124     4652    -4714    -3237     2197     3404    -2650 
   -5871     6363    14359    -1161   -15456    -8650     2851     5811 
    4997     5810     4179    -3059    -5242     1013     4907     6546 
    1899   -14033   -12075    12645    11395   -16320   -18250     5400 
   13597     3831      295     3491     1348    -1312      901     2278 
    1486     -502    -3832    -2724     2230    -1691    -8918    -1783 
    8444     6241    -1479    -6818    -4129     5755     9194    -1659 
  -12492    -4460     7360     -383    -5786     7761     7628    -8688 
   -5367     3169    -5749    -4094     8059     2245    -3827     2887 
    2192     1318     5211    -2602    -3118    10438     2852   -13772 
   -3284    10432     -895   -14254    -7908     6836     9286    -1888 
   -5672      710     5535     9821     2776   -12129    -4769    11547 
    5806    -7059    -8496    -1231     7750     1152   -13023       95 
   16772    -4436   -20067     6451    21107    -5505   -21216     3019 
   22106     -760   -25149    -3203    28196    15732   -11443    -9626 
    1784      853     1393     5610      383    -6764    -3195     1728 
     122     -839    -1586    -4032     1818    11928     8511    -2727 
   -7240    -8910    -3500    13111    12856   -12557   -18118     6817 
    8336   -15129    -4483    23206     7415   -19684    -3815    16213 
    -680   -13038     6608    14334    -8406   -16020     2695     5421 
   -7210    -3839     1358    -3199     5574    14827    -1078   -13478 
    -591    11310     5039    -7244    -3206    13911     6822   -17608 
  -10628    10845      595   -14420    -1671     9693      679    -9205 
   -1031    16177     7554   -20686   -17296    13938    15831   -13406 
  -13687    16821    15468   -11230    -6610    14466     5925   -17001 
  -13135     8257    10682    -2435    -8803    -4507     8124    14143 
    1158    -9472    -2304     5107     2851     -125     -954    -1993 
   -2326    -1734     1949     4637    -3207    -8625     -834     3623 
    3412     5652    -1219    -8912     2790    13764     2309    -6521 
     588      724    -3990     2268     3202    -9177    -8702     6515 
    3971    -9717     1314    14179    -6286   -14346    17774    24035 
  -12923   -21034     8812    12957    -8496    -5436     8436      112 
   -4226     5514     -556    -9961     4110    15363    -2745   -23094 
  -13806    12893    20214    -3257   -17938     2776    16879    -2114 
  -13852       83     9144     4521      778    -2035    -2667     1919 
   -2177   -12533    -1806    17698     2933   -22944    -5927    24192 
   13992   -14073   -14385     7453    13278    -1503   -10876    -8873 
     -20     9977     5275   -11013   -10698    10033    13971    -7871 
  -12101     9115    11927   -11199   -16281    10616    20509    -5178 
  -16652     -646     8710     6841     2123      299     8819     4969 
  -18694   -15728    15223    12334   -16978    -8800    17020     4128 
  -19137    -5373    21262    13500   -19820   -23442    11342    22068 
  -11222   -20726    12924    18409   -10948   -10530    10214     6129 
   -4129     3168     5813    -5634    -3338    11767     3774   -12835 
     692    13090    -7198   -16686     6702    17918    -3049   -16249 
    -589    13176     8232    -2754   -10087    -4843     3483    -6471 
  -13109     7766    17741    -3813   -11051     4035     2072    -8189 
     546    11169     4125    -6193    -5009    -1102     -703     2577 
    8295     9081     -525   -12613    -6644    10921     5108   -15861 
   -7599    13473     3520    -9922     1663     1197   -13041     1441 
   19908      677   -17483     -303    11542    -5381   -11388     6399 
    9778    -5499    -7392     1545     3842     7304     6251    -6652 
   -3118    12021    -1036   -18360     1741    21028    -1655   -24447 
   -9348     7304      561      677    10103     2103    -6604     2130 
    5447    -1440     1679     5254    -9927   -13508    13166    14361 
  -15855    -6979    21196     3237   -15165    10728    13821   -25254 
  -23764    15871    10027   -18706      791    24206    -4509   -23218 
    9545    28412     4743    -8131     8356     7329   -21080   -20610 
   14048    20493    -7534   -11912    10546     5638   -12156     2992 
   13443    -2504      430    11256    -4633   -16569    -7759    -1628 
    6648    15624     -156   -14758     5929    18978    -9178   -29312 
   -2057    30816    19932    -7303    -7341     3169     -279    -8667 
   -6350     6912     7655   -16357   -24204    12004    32337    -2621 
  -22005     9252    20788    -7875   -18512    -2497     5694     3834 
     799    -4369    -6107    -1170     2573     2371     4738     4707 
   -6637    -9865    15138    31156    -2262   -35363   -13888    10324 
   -8737   -15346    20056    30882    -3877   -13443    13996    16799 
   -5607   -11215     1248    16592    21396     4402   -10713     -985 
    3127    -9012    -1097     6543   -26163   -41943     9809    42095 
  -12375   -52771     3100    80424    84921    13637   -44073   -23940 
    1256   -24533   -34346     1537    29475    21357   -12185   -39671 
  -14912    35050    24622   -12814    15030    43266   -12137   -51143 
   13108    77032    32846   -57564   -76233   -28317    14339    48583 
   45619   -57385  -133922   -22320   131981   103146   -52556  -107981 
   18636   124082     -367  -184601  -117991   108267   130630   -88511 
 -193764     3848   201123    80734  -127118   -61537   107686    54862 
  -87901   -44329    89835    66317   -58263   -43854    71085    36227 
 -104449   -77461    73642    79417   -37206   -76918   -49341   -59341 
  -71362    15998   164026   174958   -13919  -158681   -53721   145578 
  135139  -111539  -261550  -112001    82810    82548    15394    43640 
   85958     6502   -86923   -19506    82690    40296   -40147    -8224 
   72530    56809   -52992  -111125   -48199    33998    25899   -39528 
  -66583   -34024    27859    89930    90344     5987   -47204     4630 
   49033    14651   -12656    10096    24127     4711    -5202     -248 
  -32159   -70748   -31687    50058    61061   -30835  -104187   -27476 
   96697    78975   -37342   -81238   -11484    67297    49963   -34597 
  -68096   -12347    39661    12876   -19692    26460    65767    -9823 
  -98697   -50710    70441   110417    37353   -65997   -89868    -7318 
   72432    45176   -35684   -47115     7429    13882   -36556   -26262 
   46896    51727   -13987   -32935     -112    17180    14169    -1575 
  -33262   -40521     2330    32865    14293     2050     6354    -6077 
    -445    31607    16177   -38171   -34950     9043     -189   -22607 
   25957    66483    12341   -44328   -18821    23384     6825   -41324 
  -40725    11369    27464    -2212     7110    46029    23966   -30489 
  -19003    31548    36228     3481   -10748    -7159   -21139   -29461 
    4328    33114     7690   -35748   -37895     8937    51436    35845 
  -16113   -37503   -17747    -6393   -13149     7958    53946    54745 
   -1301   -39229   -32119   -28624   -34512    -8133    31016    24358 
  -11948   -23265    -4807    23592    27211   -19572   -56970   -23134 
   26211    20997     1009    19842    24412   -32105   -70359   -22222 
   46993    42133   -22613   -38283    27488    70371    32090   -15052 
  -15992    -5220   -11373   -10619     9745    22037     6947   -14307 
  -13744     -731     3423     6652    12429     1763   -13178     3068 
   27774     8306   -27932   -21670     2814    -2300   -16742    -5751 
   15579    21243    12440    -9482   -34225   -28683     3152    18234 
   11044    13262    22453     7500   -16129   -13601     1806     9204 
    5281    -4125     6189    24213     4965   -25793   -17982    -3761 
  -13726     -626    36603    21593   -38624   -52423     -666    40398 
   15795   -29583   -27047     8993    18193    -3110      550    28857 
   13846   -28692   -17957    27561    36902     6914   -23410   -23145 
   -2560     2467    -5629    -8348    -5409     6930    19106     8068 
  -13914   -11855     6118     2068    -7157    16521    30674   -10423 
  -46147   -10860    40095    15086   -45700   -29652    39868    46921 
  -13670   -49121   -20671    20486    24524     2967   -14508    -9599 
   16916    23215    -3816    -7037    24960    28675    -9892   -30574 
   -6910    12479    -5660   -22746    -6597    12513     8561     4720 
   10639     2619    -5965     7414     3368   -27940   -20341    22509 
   21193   -15507   -15091    14852    16869    -9616   -20714    -1065 
   20268    18346     2386    -5751     3272    12282     1140   -20044 
  -29122   -12352    17352    18031   -14223   -25834     4506    28911 
    9701   -24703   -26198     2659    13941    -8976   -23739    -2080 
   20609     3042   -34287   -36390     4567    32648    12125   -14399 
   -4772     9275     4980    12972    18713    -9032   -15569    24601 
   30947   -13509   -22721    21843    43268     4185   -41435   -37089 
    -953    19589    15244     2647    -6106    -5809     6732    21965 
   12490   -19687   -28613    -5327     7271     1794     7686    17583 
    2849   -23841   -18866    26215    49408     5282   -37343   -11009 
   24996     9267   -16537    -6232    14166     7049    -9956    -6407 
    2284    -6172   -16799    -4402    17815    11261   -12839   -12301 
    -211    -5555    -5898    13147    12993   -12353    -8772    20564 
   16808   -11434   -14450     8098    14253   -17462   -38797    -7634 
   20988     4369    -3352    15419     3574   -24603    -4180    25587 
   -4070   -38021   -12633    18369    12307     3885     5437     4824 
    4980     -719    -9536     2369    23076    11300   -22596   -24753 
   10682    28750    -1679   -29990      400    39958    11658   -38361 
  -23835    20609    16610    -9146     4206    22496    -5046   -33713 
  -14095    17598    19784     1929   -10729    -4151     5715    -2430 
   -7449     6708     7219   -12231   -13729      638     4990     7059 
    7943    -4634   -12866    -2945     2515    -4953     -869    12787 
    1624   -23082   -12517    16691     7246   -19580    -6201    23530 
   16660   -10590   -17122    -1597    11878      199   -23869   -12039 
   27945    28605    -7159   -15469     3056     9544     6465     4503 
   -1561    -2600     7110      159   -25574   -15354    31860    35039 
  -18793   -43335    -2544    35086    16212   -13869    -1271    20617 
    4905   -17410    -3021    21054    12324   -11225   -11361     1271 
     598     -616     7661     3697   -10702    -8419     4901     6953 
     -70    -4746    -5979    -9830   -10913     -367     5393     -440 
   -1437    -2901    -5732     5364    10215    -7626    -9853    20413 
   29643    -8379   -33548    -5817    24448    14453    -5059   -10092 
  -13953    -5915    16613    14665    -8295   -10085     2006     1491 
   -2785    -1726    -3015    -4052     -627     -692     -240    11820 
   17545    -1865   -18863    -8661     2986    -2203    -2596     7551 
    4548   -11985   -15209     -319    14547    17138     1521   -14989 
   -3294    16104     7180    -8622    -2308     5663     -140      109 
    1129   -15241   -17184    11650    21972    -6486   -26836    -9003 
   15562    11504    -8630   -16054    -3643    13671    11488    -9759 
  -14420     7385    13211    -7812    -8456    18300    25191       98 
  -20472   -11952     7696     8305    -5290    -4248     8410     3019 
  -12351    -2430    19927    12475   -13219   -15349      988     7981 
    3149    -4245    -3850     5663     9890     5999     2081    -3279 
