Origin Time       2024/04/02 04:24:00
Lat.              40.133
Long.             141.712
Depth. (km)       71
Mag.              6.0
Station Code      IWT006
Station Lat.      39.4850
Station Long.     141.9748
Station Height(m) 17
Record Time       2024/04/02 04:24:53
Sampling Freq(Hz) 100Hz
Duration Time(s)  114
Dir.              N-S
Scale Factor      7845(gal)/8223790
Max. Acc. (gal)   119.008
Last Correction   2024/04/02 04:24:52
Memo.             
[...]
    -467     -467     -472     -472     -468     -468     -471     -469 
    -465     -468     -471     -468     -465     -469     -472     -471 
    -468     -467     -469     -472     -469     -469     -471     -471 
    -469     -468     -468     -469     -469     -468     -467     -468 
    -467     -465     -467     -469     -468     -467     -469     -469 
    -469     -468     -468     -468     -468     -468     -469     -467 
    -467     -469     -468     -469     -469     -469     -469     -469 
    -469     -469     -469     -469     -468     -468     -468     -469 
    -469     -469     -469     -469     -467     -467     -469     -471 
    -472     -471     -469     -471     -469     -469     -469     -467 
    -467     -469     -469     -468     -469     -471     -469     -467 
    -467     -468     -469     -471     -469     -468     -467     -467 
    -468     -469     -471     -468     -468     -469     -469     -469 
    -469     -469     -469     -468     -465     -465     -467     -467 
    -469     -471     -468     -468     -469     -471     -469     -468 
    -467     -468     -471     -468     -467     -469     -471     -469 
    -469     -471     -468     -467     -468     -469     -467     -467 
    -471     -469     -468     -469     -468     -468     -471     -469 
    -468     -467     -467     -467     -469     -469     -468     -468 
    -468     -469     -469     -468     -467     -469     -471     -468 
    -465     -468     -469     -468     -469     -471     -468     -469 
    -469     -468     -468     -469     -469     -471     -473     -472 
    -468     -468     -469     -468     -467     -468     -469     -468 
    -468     -469     -469     -471     -469     -468     -468     -469 
    -469     -471     -473     -473     -471     -467     -467     -464 
    -456     -449     -442     -430     -413     -399     -383     -361 
    -341     -337     -337     -321     -294     -286     -297     -301 
    -278     -282     -348     -368     -302     -342     -515     -548 
    -423     -429     -553     -477     -257     -318     -544     -283 
     301      317      -62        1      228      -14     -448     -568 
    -378     -236     -415     -688     -738     -751     -473      479 
     967      351     -195     -460    -1040    -1173     -387      243 
     -29     -853    -1556    -1713     -916     1113     3190     3547 
    2300      337    -1665    -1865      175     1266     -843    -3990 
   -4774    -3304    -2205    -1942    -1167      278     1051      508 
     149     -446    -2596    -3360    -2039    -1198      -25     1250 
    -217    -4631    -7323    -2717     5729     9204     6184     -315 
   -6737    -7873    -3365     1231      978    -3886    -6223    -2610 
     187     -260       95     -282       72     5918     7759     -909 
   -7888    -7495    -4631     -562     2222     2265     1834      287 
   -1688      -78     3923     4681     1451    -2436    -5270    -6656 
   -7782    -8279    -4522     2327     8328    10029     3434    -3711 
   -1877     2053     3125     3268     -326    -6878   -10964    -9663 
   -3348     5275    12876    15142     9439    -1656    -8577    -4928 
    -723    -2330    -1051     2721     1606    -3919    -9200    -5474 
    4495     5101     1466     4785     5907      102    -7938   -13479 
   -6177     9551    12941     4658     -672    -5173   -11106    -8272 
    2006     4730     -238      207     4264     1495    -6299    -8878 
   -1331     7304     8856     5387    -3338   -10496    -7431    -4176 
   -5296    -1410     5436     8457     5236    -5425   -11701    -4099 
    6282    11726    10463     1147    -5699    -7562    -9906    -6975 
   -3005    -5964    -4777     3364     6404     3623      886     -454 
    -461     1813     7096     6534    -4974   -11461    -5782     1615 
    7063     4830    -5941    -7704     -842    -1641    -3819     1024 
    5112     5782     4591     -438    -4198      985     7569     2301 
   -8664    -8101     -969    -4560    -8861     -166     6181     1242 
   -2938     1314     9387     8426    -3346    -8581    -1337     1811 
   -5017    -6278     1480     4473      708    -4133    -7068    -2359 
    3678     1205       85     4098     3048     2408     7708     6816 
     156    -3368    -8672   -10459    -2581    -1212    -7122    -4162 
    3948     5699     1976     2204     7736     5934    -4494   -11144 
  -11781    -7218     1580     2226    -5058    -3473     3450     4433 
    6594     7985     -373    -6534    -3964    -1058     3030     4727 
   -2910    -7893    -3153     -947    -1799     1395     1475    -1598 
   -1898    -3883    -3198     4013     5616      -97    -2803    -1228 
    1391     2911      469    -2817    -1097     1910      608     -622 
     783      207    -3181    -6393    -4175     2776     4706     2820 
     730    -3890    -2309     3481     -633    -6340    -2583     3281 
    4707     1552    -2687    -1239     2835    -1787    -7173     1089 
    7326    -1525    -6386       68     2830    -1233    -6961    -9872 
   -4180     3973     5891     4687      202    -8436    -9510      828 
    6875     2494     -841     1040     3063     1628    -2641    -4563 
   -2373     1345     5136     5175     -612    -5007    -3172    -1372 
   -4276    -7801    -5817     1359     4365      596      685     6030 
    6821     2037    -2027    -2305    -1782    -3364    -2111     2648 
    1242    -5787    -6936     -893     4220     3329     -417      607 
    5248     4676    -1354    -4833    -3488    -1715    -1927    -1271 
    1607    -1698   -10066    -6004     6057     6242       68     1053 
    4363     2512     -614      -40    -1175    -8341   -12056    -5321 
    3574     5578     2567      630       81     -429       56     -909 
   -2088     1144     3056      133      417     4641     4542    -1406 
   -6709    -6592    -2866     2948     9030     6575    -4706   -10773 
   -6642     -619     2066     2525     2049      565     -221      938 
    1501     -422    -2976    -3531    -3458    -3836    -2061     -419 
      40     3692     6281     4804     3458    -1825    -7917    -4322 
   -1345    -6916    -8495    -4899    -2583     1576     2897     -491 
    4263    13246    10635      -35    -7003    -6690    -2408      247 
      24    -2524    -6772    -7588    -2303     3179     3415      441 
   -1129    -1136    -2041    -2227     -469      139     -595    -1216 
     426     7177    10185     1179    -6831    -4025     1422     4295 
    2795    -1718      133     3478    -3408    -8827    -1780     4977 
     526    -9297   -11233    -1406     5903     1432    -3750     -749 
    3952     3055     -772    -2068    -1350    -2232    -4091    -2544 
    1297     4071     7222     6864      712    -2798    -2920    -2320 
    2494     4604    -2371    -8839    -8039    -2299     2887     2477 
    1853     3514      359    -3534    -5192    -8279    -4935     2172 
    1270     -823     -402      306     8239    13672     4585    -2998 
   -2211    -5189    -9198    -8291    -7905    -7341    -1764     4797 
    5736     -766    -7828    -4568     4807     5644       78      579 
    3834     2457     -346    -3369    -4172     1228     5740     4710 
    4448     4737      283    -4108    -4527    -3777     -712     1949 
     654      684      530    -3566    -4494    -2436    -3748    -3233 
    2594     4329    -3674   -11777   -10158    -2245     4997     8041 
    8000     8681     5852     -679     -611     1899     -920    -3307 
   -5648    -8222    -4529     -750    -3640    -6033    -5386    -5375 
   -1922     5846    10705    10033     3111    -6713    -7731     -137 
    1208    -5431    -6547     1876     9255     5840    -3888    -6164 
    -611     1053     -125     1714     2212     1849     2508    -1120 
   -4957    -5269    -7473    -6656     -596       70    -4436    -3512 
    4781    11128     7614    -1420    -4509     2662     9684     4595 
   -5848    -5825     4190     9548     1239   -12580   -14735    -2833 
    6767     2805    -6281    -6922    -1479      670     1922     4008 
     531    -3690     2002    11576    11904     1759    -8151    -7252 
   -1848    -3944    -6700    -1320     3901     2690     1019      537 
   -3919    -7591    -2235     3596        9    -5690    -6987    -5143 
   -1742    -1251    -2300      116     2889     6373    10388     7177 
    1009      432      421    -4525    -9198    -5895      760     1453 
   -1370    -6153   -11099    -3867     8760     6790    -3273    -8626 
   -7377     1618     7789     5008     2108    -1948    -3967     4905 
    9046     -876    -5648      276     4409     2790    -2700    -6655 
   -4870    -1547     -841    -2662    -2754      233     2556     4916 
    2623    -7381    -8707     1499     4367      251    -1628    -4781 
   -4166     4833     9035     6100     6154     5150      907    -1047 
   -5281    -7701     -683     2316    -2601    -6399   -12177   -13377 
   -2733     5705     5817     2990    -1136    -1651     4120     8741 
    5313    -1047    -1621     2141     5772     7133      418    -9485 
   -7717     -629     -797    -2987    -4033    -3392      594      382 
   -4207    -3329     -673    -3240    -2558     4916     6620    -1092 
   -6135    -3669        0     1593     1891     4078     7022     3415 
    -719     2200     2582     -429     -120    -2227    -6660    -7221 
   -5742    -1956      892    -4087    -7894    -3659     -260     2516 
    8915     9715     1767     -700     8343    11719      631    -8517 
   -9549   -10748    -7836     1976     9084     9062     2317    -6683 
   -7086      221     2897     -896    -2644     -276    -1003    -5768 
   -5250      503      249    -4683    -2775     6189    10619     1237 
  -10860    -7921      476     -225    -3564    -4234    -1375     3122 
     294    -2162     6895    12189     4985    -2396    -4226    -2354 
    -502    -1042    -3429    -7921    -7102     1314     2524    -2794 
    -373     2266    -2724    -3311     3292     6273      614    -8977 
  -11263    -3913     2084     2621     1645     1910     3654     2741 
    1768     6508     7495    -1401    -4372     6046     9953    -2889 
  -12943    -9633    -5321    -3179      846     1771     -579    -2802 
   -5441    -4077     2282     3847     -747    -2034     -770     -999 
     429      737    -1463    -1749    -1702      -82     6247    10579 
    7047     -167    -3057    -1579    -5130    -9876    -3414     2932 
   -2747    -7261    -4444    -1421     1441     1641    -3037    -3613 
    2288     7491     9576     6933     -413    -5814    -4230     -533 
    -947     -885     -386    -6156   -10237    -7604    -5422     1389 
   13059    14571     9138     6037      614    -3287    -3180    -7288 
   -8915     -999     1208    -7339    -8731     -770     2270     -832 
   -4126    -2851     5753    11132     5189      579     2208    -3947 
  -13799    -8345     3353     2022    -2562     -103      711      780 
    4403     3084    -1192     2921     6471     -735    -3964     2439 
    1993    -5269    -5174     -807    -1660    -6455    -9347    -4738 
    3322     2702    -3115      475     9289     8182     1264      877 
    3888     4124     2536     -567    -1749     1510      999    -5648 
   -9628    -8571    -3456     5285     9637     4523    -3869    -8907 
   -7146     -973      847    -2104    -3771    -3059       64     2527 
    1580     2150     3357      592     1526     9489     9046    -3828 
   -9297    -5279    -7327    -9369    -4930    -1115     3727     5811 
    1696     3433     5486    -4394   -11025    -5616    -1544    -1676 
     390     3480     5589     5587      511    -3318     1179     3483 
   -2960    -5449      830     3176    -4891   -13806   -14713    -9944 
   -4156     3138    13335    18068     8812    -2509    -5003    -4946 
   -2451     2003     1773     2293     4905     2984     1250     -283 
   -5462    -4793      592      430     -780    -1522    -3208     1028 
    4125    -3227    -9364    -8282    -7730    -7711    -2683     6443 
    7901    -2803   -11510   -12384   -10795    -6944    -1318     5104 
   10386    11326    10139     7874     2377    -3510    -4222     2448 
    9552     6153    -3051    -4922    -2793    -6056    -9294    -6061 
   -2222      280     4264     5329     1586    -2891    -2797     3555 
    5564    -2517    -6358      346      112   -13801   -21176   -11194 
    2677     9702    11834    15423    23571    29519    27081    19044 
    6462   -10940   -23764   -24175   -22600   -29469   -33801   -22312 
     282    20426    25760    15196     3727    -1880    -8945   -14424 
   -9971     1524    10480     8456    -3078   -12402   -12479    -5471 
    5422    15749    20725    22088    19359     9436     -419    -8324 
  -20263   -25920   -14783    -3129    -8452   -13464      903    19294 
   30343    33419    20061     4432     5528     9371    -1336   -23546 
  -37496   -25633    -5328    -4249   -12177    -7118     6442    14126 
    7890    -9871   -20430    -9574    15817    40722    44184    18789 
    -832     2916    -4993   -29529   -39163   -29868    -6046    22623 
   20903   -13741   -34371   -23691   -10989   -12036   -11232     4422 
   20322    11961   -17702   -34275   -15620    15126    26501    22378 
   20128    22581    22049    14166    16843    42951    56238    29835 
   -2731   -16673   -23712   -30156   -37651   -51128   -71058   -88835 
  -82999   -36294    42276   112097   124286    70247    -8649   -52930 
  -32481     9487    14030    -6404   -14257   -12622   -18843   -30981 
  -30991   -13586     6785    29397    51300    49705    36310    37601 
   31104      391   -26932   -42758   -60898   -66653   -45171   -17682 
    1197    20308    32605    21459    -1475    -6305    10816    27024 
   34510    37597    26230    -3339   -33635   -48361   -43510   -24162 
   -1848     8043    -4131   -27432   -39779   -29702     -174    33550 
   51142    45288    26071     3048   -15849   -17979   -12167   -19148 
  -21766      301    19457    18473    19002    22977    18434    10266 
   -1729   -15271   -18021   -14605    -8668     6620    16632    15101 
   20370    17844   -12636   -35752   -25339   -11843   -14359   -14461 
     166    20808    22129   -12739   -48500   -42591   -19602   -10670 
    6979    46696    81816    81459    41571    -4839   -34731   -58429 
  -74214   -62957   -23413    15815    26897    22002    24263    25020 
   14288     8077    12584     7722    -7858    -9737    -1711    -9316 
  -24227   -18584     5913    21644     8977   -16625   -20345    -1093 
   17679    26647    20332     3607    -8935   -23159   -42348   -46931 
  -28324     -500    25670    50947    65250    47713     2590   -39114 
  -56582   -47063   -15754    16428    21973     -533   -19815   -11431 
   10725    22808    20513    11703    13360    29141    30433     7213 
  -14555   -29957   -51212   -63629   -46965   -10481    21497    32840 
   21215     5335     5354    10150    10014    21035    34676    23977 
   -1236   -18427   -25834   -25446   -20733   -20139   -17822    -1750 
   15873    21859    26014    27954    17329     3227    -2361    -6658 
  -20044   -35557   -37999   -22948    -5242    -6871   -18759    -4024 
   38290    66538    59659    30307    -5163   -28362   -28721   -18489 
   -8370    -3476   -11630   -17219    -4904     2907    -5339   -10484 
   -3281    18111    41391    35001     3832   -17599   -20285   -13473 
  -10558   -18006   -22219   -15313    -4575     3311     2097    -3196 
    4301    21712    30187    28117    20358     8191     3580      924 
  -18940   -34585   -22304    -8989   -16561   -26782   -20353     6573 
   38483    42963    20135     8027    17003    23095    16902     4027 
  -13545   -22010   -14766   -17668   -33204   -35904   -34446   -36035 
  -20549     3339    18322    34083    42394    27283     8955     -544 
   -7349     5479    27648    15795   -15083   -26391   -26449   -17504 
    4969    11770    -3127   -13468   -15668    -8527     9900    15040 
    5119     4788     4758    -5206    -4521     3289    -5763   -19327 
  -15287    -5757     -147     6525     4544      954    11715    11180 
   -7676    -5935    16313    27453    25092    17868     5026   -10789 
  -22164   -27984   -27383   -13571     4850    13200    15682     9809 
  -12887   -33354   -27234     5065    38541    38862     7577   -16891 
  -21629   -20007   -11034     1595     1345    -5170    -3281     1150 
    4309     8025     8255     6934     6751     6327     6255      -40 
  -13636   -15975    -1528    11693    15676    10489    -8322   -25502 
  -18721      459    10227     9325     1433    -6010    -1151    11695 
   11381    -5255    -8378     6602     7623    -3457    -9452   -14665 
   -8388     6874      577   -16380   -16069    -6594     5846    14257 
    5674     3763    19512    20718     2712   -14304   -19315   -11142 
  -11774   -22233    -6691    23438    20475    -3743    -4374    11847 
   16919    17244    17876     7886    -4980   -13240   -21821   -20416 
   -7279    -4708   -14570   -18624   -13497    -3088     9829    14123 
    5409     -498     7711    22297    32077    24105    -4441   -24598 
  -17888    -7785    -9934   -14100    -9190     6608    15709     5301 
   -3753     8850    28848    28182     5968   -10698   -12486   -15654 
  -20460   -12633    -1435    -7003   -20671   -20374    -5873    11758 
   25377    25348    12618     4661     5208     1194   -11578   -25375 
  -29122   -20445   -10266    -5432    -1028     5879    12212    16233 
   14991     7728      621    -4779    -5848     2223     8380     4060 
   -2567    -4897     -184     5319      734    -3593     1590    -1059 
  -13991   -13065      -82      940    -5404    -4612    -2141     1080 
    5525     2959    -1941    -1260      912      648      279     4333 
    8869     2839   -16052   -31718   -18021    18932    37378    24394 
    5967      -90      918    -2563    -8622    -5189     6575     9077 
   -3460   -15390   -21500   -30721   -33426   -13131    13937    19165 
   10849    13042    21648    23422    18249     8618      429     -664 
   -2643    -8347    -9050   -11484   -21001   -20185    -4951     4587 
    2363     1784     5383     1669   -12310   -19873    -4806    14675 
   13279     5005     5254     4124      479    -3881   -11780    -9197 
    7524    16471    12754     7560    -2079   -15209   -17502   -10945 
   -5721     3191    12372     9516     1132    -4584   -13474   -22025 
  -15996     3865    24078    32607    23465     7126    -2015    -6917 
  -11558    -9792    -5580    -9404   -14690   -12187    -5233     3105 
    8991    10270    10420     6277    -1900    -3862     -920     -800 
    -805     -326    -2122    -3484    -4938    -7298    -3917     5162 
    9151     4514    -2099    -3005     1853     2197    -3250    -4072 
    -788    -3132    -9300    -6448     4881    11658    10714     2488 
   -9996   -14239    -9761    -7627    -5529     4220    12880     9567 
    6575    14752    17829     7484      639      724    -7506   -20634 
  -20776    -9236    -2651    -4727    -3851     4754     9879     1941 
   -8226    -6278     1297     3588     4577    10197    15635    14619 
    4630   -14575   -28291   -19870    -4180    -2791    -5694    -1765 
