Origin Time       2024/04/02 04:24:00
Lat.              40.133
Long.             141.712
Depth. (km)       71
Mag.              6.0
Station Code      IWT002
Station Lat.      40.1820
Station Long.     141.7643
Station Height(m) 28
Record Time       2024/04/02 04:24:48
Sampling Freq(Hz) 100Hz
Duration Time(s)  120
Dir.              U-D
Scale Factor      7845(gal)/8223790
Max. Acc. (gal)   56.170
Last Correction   2024/04/02 04:24:47
Memo.             
[...]
  -41980   -41980   -41979   -41979   -41979   -41978   -41979   -41979 
  -41979   -41979   -41979   -41979   -41979   -41978   -41978   -41980 
  -41980   -41979   -41979   -41979   -41979   -41978   -41978   -41978 
  -41978   -41980   -41979   -41976   -41979   -41980   -41978   -41976 
  -41979   -41980   -41980   -41980   -41980   -41979   -41979   -41979 
  -41978   -41980   -41982   -41978   -41978   -41982   -41979   -41978 
  -41982   -41978   -41975   -41980   -41978   -41976   -41980   -41982 
  -41979   -41979   -41980   -41979   -41980   -41979   -41978   -41980 
  -41980   -41979   -41982   -41982   -41980   -41979   -41978   -41979 
  -41980   -41978   -41979   -41982   -41979   -41978   -41980   -41982 
  -41979   -41978   -41980   -41979   -41978   -41978   -41979   -41978 
  -41979   -41982   -41982   -41979   -41979   -41979   -41980   -41982 
  -41978   -41976   -41980   -41979   -41978   -41980   -41980   -41980 
  -41979   -41976   -41978   -41982   -41979   -41978   -41980   -41982 
  -41980   -41979   -41980   -41982   -41982   -41980   -41979   -41980 
  -41980   -41978   -41980   -41982   -41979   -41978   -41979   -41982 
  -41983   -41979   -41978   -41982   -41982   -41979   -41979   -41980 
  -41979   -41978   -41979   -41980   -41979   -41979   -41980   -41980 
  -41979   -41979   -41978   -41979   -41980   -41980   -41980   -41982 
  -41982   -41980   -41980   -41982   -41978   -41978   -41979   -41980 
  -41980   -41979   -41978   -41980   -41982   -41980   -41979   -41980 
  -41980   -41980   -41980   -41980   -41979   -41979   -41979   -41982 
  -41985   -41979   -41976   -41979   -41980   -41978   -41975   -41978 
  -41979   -41980   -41982   -41979   -41978   -41980   -41980   -41978 
  -41978   -41978   -41980   -41982   -41978   -41978   -41982   -41980 
  -41979   -41980   -41980   -41980   -41980   -41980   -41979   -41980 
  -41982   -41979   -41978   -41982   -41980   -41979   -41982   -41980 
  -41979   -41983   -41979   -41976   -41980   -41980   -41980   -41980 
  -41980   -41979   -41978   -41978   -41979   -41979   -41979   -41980 
  -41979   -41979   -41979   -41980   -41982   -41980   -41979   -41980 
  -41982   -41979   -41980   -41980   -41978   -41979   -41980   -41979 
  -41979   -41980   -41980   -41983   -41983   -41979   -41978   -41979 
  -41978   -41979   -41980   -41979   -41979   -41982   -41980   -41978 
  -41978   -41982   -41983   -41980   -41979   -41978   -41979   -41980 
  -41979   -41978   -41979   -41980   -41982   -41980   -41979   -41980 
  -41979   -41979   -41979   -41978   -41982   -41980   -41979   -41980 
  -41979   -41979   -41980   -41976   -41976   -41979   -41979   -41979 
  -41980   -41982   -41979   -41978   -41980   -41980   -41979   -41982 
  -41982   -41980   -41978   -41978   -41982   -41982   -41980   -41982 
  -41979   -41978   -41982   -41983   -41979   -41978   -41979   -41979 
  -41978   -41980   -41983   -41980   -41978   -41976   -41978   -41979 
  -41980   -41980   -41979   -41979   -41979   -41976   -41976   -41979 
  -41980   -41978   -41978   -41979   -41980   -41980   -41979   -41978 
  -41978   -41979   -41980   -41979   -41976   -41978   -41979   -41978 
  -41979   -41980   -41979   -41978   -41980   -41980   -41980   -41980 
  -41978   -41980   -41983   -41980   -41979   -41980   -41979   -41978 
  -41980   -41979   -41978   -41976   -41979   -41980   -41979   -41979 
  -41979   -41978   -41980   -41979   -41978   -41979   -41979   -41978 
  -41979   -41979   -41978   -41980   -41979   -41978   -41980   -41982 
  -41980   -41980   -41979   -41978   -41978   -41980   -41980   -41979 
  -41980   -41976   -41978   -41979   -41976   -41979   -41983   -41979 
  -41978   -41978   -41979   -41980   -41976   -41976   -41979   -41979 
  -41978   -41980   -41982   -41980   -41978   -41979   -41979   -41979 
  -41980   -41979   -41978   -41978   -41976   -41979   -41980   -41979 
  -41978   -41979   -41979   -41979   -41978   -41979   -41980   -41978 
  -41978   -41980   -41979   -41980   -41980   -41978   -41978   -41978 
  -41979   -41980   -41980   -41980   -41980   -41979   -41979   -41979 
  -41976   -41979   -41982   -41980   -41975   -41976   -41980   -41979 
  -41976   -41979   -41980   -41978   -41978   -41979   -41980   -41979 
  -41979   -41978   -41979   -41982   -41980   -41979   -41980   -41980 
  -41979   -41979   -41980   -41979   -41976   -41978   -41980   -41982 
  -41978   -41979   -41983   -41983   -41979   -41975   -41978   -41980 
  -41979   -41982   -41983   -41980   -41979   -41983   -41985   -41979 
  -41980   -41983   -41982   -41979   -41979   -41980   -41979   -41979 
  -41979   -41979   -41979   -41980   -41982   -41979   -41979   -41979 
  -41979   -41979   -41980   -41980   -41980   -41982   -41982   -41979 
  -41979   -41979   -41978   -41978   -41980   -41979   -41978   -41980 
  -41982   -41979   -41978   -41978   -41980   -41980   -41979   -41979 
  -41980   -41982   -41980   -41980   -41982   -41979   -41979   -41980 
  -41978   -41979   -41982   -41980   -41983   -41982   -41979   -41980 
  -41982   -41982   -41979   -41976   -41979   -41982   -41980   -41979 
  -41976   -41979   -41982   -41979   -41980   -41980   -41976   -41979 
  -41980   -41978   -41978   -41982   -41982   -41979   -41979   -41979 
  -41978   -41982   -41982   -41976   -41980   -41983   -41979   -41979 
  -41982   -41980   -41979   -41982   -41982   -41979   -41976   -41978 
  -41982   -41982   -41979   -41979   -41980   -41980   -41979   -41980 
  -41980   -41980   -41985   -41983   -41979   -41979   -41979   -41979 
  -41980   -41980   -41979   -41980   -41980   -41979   -41979   -41979 
  -41979   -41979   -41979   -41979   -41980   -41982   -41979   -41978 
  -41979   -41982   -41978   -41976   -41978   -41980   -41980   -41980 
  -41980   -41979   -41979   -41979   -41980   -41980   -41978   -41979 
  -41985   -41980   -41976   -41979   -41979   -41978   -41982   -41980 
  -41980   -41982   -41978   -41978   -41982   -41979   -41979   -41982 
  -41983   -41982   -41979   -41980   -41979   -41976   -41978   -41979 
  -41980   -41980   -41979   -41979   -41979   -41979   -41979   -41980 
  -41982   -41976   -41978   -41983   -41980   -41979   -41980   -41979 
  -41980   -41982   -41979   -41978   -41979   -41980   -41979   -41978 
  -41979   -41979   -41980   -41979   -41976   -41980   -41983   -41980 
  -41979   -41979   -41979   -41979   -41979   -41979   -41980   -41980 
  -41978   -41976   -41980   -41980   -41979   -41980   -41980   -41980 
  -41983   -41982   -41978   -41982   -41982   -41978   -41978   -41980 
  -41980   -41979   -41976   -41979   -41980   -41979   -41976   -41979 
  -41982   -41979   -41978   -41980   -41979   -41978   -41980   -41980 
  -41979   -41979   -41979   -41979   -41979   -41978   -41979   -41980 
  -41980   -41980   -41979   -41980   -41979   -41976   -41982   -41985 
  -41979   -41979   -41980   -41979   -41980   -41980   -41978   -41978 
  -41979   -41978   -41979   -41980   -41980   -41978   -41979   -41979 
  -41979   -41979   -41979   -41979   -41982   -41980   -41979   -41980 
  -41982   -41983   -41982   -41978   -41976   -41979   -41979   -41978 
  -41980   -41982   -41979   -41979   -41980   -41979   -41979   -41980 
  -41979   -41980   -41982   -41980   -41979   -41980   -41979   -41978 
  -41979   -41979   -41978   -41980   -41982   -41978   -41979   -41983 
  -41979   -41976   -41979   -41979   -41979   -41982   -41982   -41980 
  -41979   -41979   -41980   -41979   -41979   -41979   -41979   -41980 
  -41982   -41980   -41982   -41983   -41980   -41979   -41982   -41983 
  -41979   -41978   -41982   -41980   -41979   -41979   -41982   -41979 
  -41978   -41982   -41983   -41982   -41982   -41982   -41980   -41980 
  -41980   -41979   -41979   -41980   -41980   -41980   -41980   -41979 
  -41979   -41980   -41980   -41978   -41979   -41979   -41979   -41978 
  -41978   -41980   -41982   -41979   -41978   -41979   -41980   -41979 
  -41980   -41980   -41978   -41980   -41982   -41978   -41978   -41979 
  -41978   -41979   -41980   -41979   -41978   -41980   -41980   -41978 
  -41976   -41980   -41980   -41978   -41980   -41980   -41979   -41980 
  -41979   -41979   -41979   -41979   -41980   -41982   -41978   -41978 
  -41982   -41979   -41978   -41980   -41980   -41979   -41979   -41978 
  -41976   -41979   -41980   -41979   -41979   -41979   -41978   -41980 
  -41980   -41976   -41978   -41980   -41978   -41979   -41980   -41978 
  -41978   -41980   -41980   -41978   -41978   -41979   -41979   -41980 
  -41982   -41978   -41978   -41979   -41978   -41978   -41980   -41979 
  -41978   -41979   -41979   -41978   -41979   -41980   -41979   -41976 
  -41979   -41979   -41978   -41979   -41979   -41980   -41980   -41979 
  -41982   -41980   -41975   -41975   -41979   -41979   -41978   -41976 
  -41976   -41979   -41979   -41978   -41976   -41976   -41976   -41978 
  -41980   -41979   -41975   -41979   -41979   -41976   -41978   -41980 
  -41980   -41979   -41978   -41979   -41980   -41978   -41978   -41980 
  -41979   -41979   -41979   -41979   -41978   -41978   -41979   -41978 
  -41975   -41979   -41982   -41980   -41982   -41983   -41979   -41978 
  -41979   -41982   -41982   -41980   -41978   -41980   -41983   -41979 
  -41978   -41979   -41978   -41978   -41980   -41980   -41979   -41978 
  -41979   -41980   -41979   -41979   -41982   -41979   -41978   -41979 
  -41982   -41980   -41978   -41980   -41983   -41980   -41979   -41979 
  -41979   -41980   -41980   -41979   -41978   -41978   -41982   -41980 
  -41978   -41982   -41980   -41978   -41979   -41979   -41979   -41980 
  -41979   -41978   -41980   -41980   -41979   -41978   -41979   -41978 
  -41979   -41982   -41979   -41976   -41979   -41979   -41979   -41982 
  -41979   -41982   -41983   -41979   -41979   -41982   -41980   -41979 
  -41979   -41978   -41976   -41976   -41979   -41982   -41982   -41982 
  -41980   -41980   -41980   -41979   -41980   -41980   -41979   -41982 
  -41985   -41980   -41979   -41982   -41980   -41976   -41979   -41982 
  -41979   -41978   -41979   -41980   -41983   -41980   -41979   -41980 
  -41982   -41979   -41978   -41979   -41980   -41979   -41982   -41982 
  -41980   -41980   -41980   -41979   -41980   -41982   -41980   -41980 
  -41982   -41979   -41979   -41978   -41976   -41978   -41980   -41979 
  -41980   -41982   -41980   -41979   -41982   -41983   -41980   -41979 
  -41980   -41980   -41980   -41982   -41980   -41980   -41982   -41980 
  -41978   -41979   -41982   -41982   -41979   -41979   -41979   -41980 
  -41980   -41980   -41979   -41980   -41980   -41982   -41982   -41980 
  -41980   -41980   -41980   -41979   -41976   -41978   -41979   -41978 
  -41979   -41982   -41982   -41978   -41976   -41980   -41980   -41979 
  -41979   -41979   -41978   -41979   -41979   -41979   -41979   -41979 
  -41978   -41978   -41978   -41978   -41979   -41980   -41979   -41978 
  -41978   -41976   -41978   -41979   -41979   -41980   -41979   -41979 
  -41979   -41979   -41980   -41982   -41979   -41978   -41979   -41982 
  -41982   -41979   -41978   -41980   -41980   -41979   -41979   -41979 
  -41979   -41979   -41979   -41980   -41980   -41980   -41982   -41980 
  -41978   -41979   -41980   -41978   -41976   -41982   -41983   -41978 
  -41979   -41982   -41979   -41978   -41979   -41979   -41980   -41982 
  -41980   -41979   -41979   -41979   -41979   -41982   -41979   -41975 
  -41979   -41982   -41979   -41980   -41982   -41978   -41979   -41982 
  -41979   -41979   -41982   -41979   -41976   -41978   -41979   -41979 
  -41980   -41979   -41976   -41978   -41978   -41978   -41979   -41978 
  -41976   -41979   -41979   -41979   -41979   -41979   -41980   -41980 
  -41978   -41979   -41980   -41979   -41979   -41978   -41980   -41982 
  -41978   -41978   -41982   -41980   -41978   -41978   -41980   -41979 
  -41978   -41979   -41980   -41980   -41980   -41979   -41978   -41979 
  -41978   -41978   -41976   -41975   -41979   -41980   -41978   -41979 
  -41980   -41978   -41976   -41978   -41974   -41963   -41925   -41829 
  -41635   -41270   -40574   -39378   -37894   -36957   -37400   -38900 
  -40059   -40190   -40446   -42383   -45758   -48517   -49086   -48794 
  -50924   -54193   -51247   -42018   -38696   -45809   -50499   -41817 
  -29416   -31822   -44074   -45625   -36501   -28933   -29505   -37795 
  -42064   -37652   -34283   -35845   -38017   -34919   -31048   -41192 
  -59286   -61056   -46040   -38866   -49415   -61010   -55975   -38041 
  -26013   -28528   -41338   -53173   -52790   -46749   -39579   -29434 
  -30879   -42708   -47548   -47742   -45739   -37172   -26932   -28080 
  -37975   -33065   -27372   -42391   -48240   -38693   -42390   -60397 
  -70386   -53555   -24557   -18945   -48528   -83718   -70546   -11969 
   14315   -19909   -58656   -62164   -42407   -28626   -33077   -43181 
  -56933   -74880   -73261   -49185   -31695   -34433   -46192   -54544 
  -56043   -40779   -19705   -38836   -86211   -88187   -41206   -22219 
  -46593   -42681    -4995    -3944   -37871   -44173   -23060   -16868 
  -19025   -16799   -33430   -74862   -97008   -59949   -23436   -44018 
  -59157   -47417   -46145   -39019   -20572     -346    -6617   -66668 
  -89168   -23409    12337   -40143   -91535   -79596   -51065   -51975 
  -52259   -36325   -38604   -58700   -58025   -30824   -15593   -31059 
  -48910   -61574   -69346   -46055   -23577   -37897   -51020   -46961 
  -28773    -4328   -23854   -70482   -64314   -14503    16902     1733 
  -52755   -89829   -70098   -30330   -14007   -31419   -62182   -68273 
  -43679   -18578   -21301   -52331   -66174   -33583   -12580   -47136 
  -82876   -67317   -32779   -28181   -36320   -33967   -38530   -47950 
  -46102   -36471   -25143   -30670   -65098   -81071   -51127   -25201 
  -29269   -41432   -40936   -32266   -39187   -47472   -34707   -25936 
  -40196   -62236   -67606   -38790    -3435   -15213   -59495   -78229 
  -59287   -23994    -8872   -38037   -69438   -55075   -26798   -36602 
  -62853   -53551   -20463   -16151   -40450   -52230   -48227   -42790 
  -36211   -32283   -25585   -18779   -36828   -61249   -51660   -40382 
  -54259   -47352   -25323   -34615   -49518   -51777   -63896   -64525 
  -38388   -22457   -41408   -66819   -57375   -33824   -36121   -42866 
  -33141   -26740   -31353   -42226   -53472   -52519   -41783   -33592 
  -37153   -52990   -57836   -42441   -31352   -33134   -36663   -33534 
  -32363   -45652   -47817   -32351   -30392   -39912   -48300   -49275 
  -43455   -45235   -45513   -46213   -60421   -55621   -28776   -22407 
  -34846   -47052   -58457   -57015   -32898   -20065   -49840   -73661 
  -48879   -28417   -47285   -54232   -34098   -38919   -59418   -42390 
  -16776   -25995   -38210   -36088   -41671   -50657   -49018   -41249 
  -39550   -41320   -33718   -35334   -54734   -54592   -38165   -34635 
  -33168   -37733   -51574   -49380   -38002   -36489   -42037   -44447 
  -37478   -34433   -41477   -40527   -31222   -36842   -54436   -53812 
  -34626   -27689   -45343   -62727   -52220   -28784   -23672   -39745 
  -57485   -55709   -41542   -37824   -44537   -50795   -47879   -39198 
  -40849   -50537   -51630   -39348   -28281   -36734   -50055   -40888 
  -21381   -21185   -42863   -60000   -51268   -33008   -31032   -40081 
  -44427   -47160   -50970   -48270   -44253   -46685   -46292   -40540 
  -40963   -40498   -36776   -50903   -60994   -33667   -11264   -33704 
  -63435   -64486   -49489   -36288   -29921   -35687   -51517   -56016 
  -43348   -33492   -26149   -20621   -33659   -47915   -39961   -34018 
  -45850   -50504   -37906   -30778   -42203   -49500   -40968   -44311 
  -58023   -47983   -26889   -30470   -49958   -55516   -43152   -30798 
  -29010   -37793   -51513   -54174   -40790   -29220   -33812   -46764 
  -55578   -51634   -35178   -31916   -40298   -30608   -25947   -49052 
  -62052   -42033   -24995   -39617   -53036   -46970   -52205   -56335 
  -34252   -23619   -44466   -55537   -39887   -33511   -49146   -50556 
  -30796   -31249   -49214   -43247   -31293   -43565   -53354   -43054 
  -33377   -40558   -50692   -45218   -37805   -38491   -37327   -42857 
  -60758   -66542   -46728   -22153   -19977   -45524   -67193   -56091 
  -38861   -39564   -40143   -41882   -47101   -42093   -44959   -54206 
  -43039   -28455   -30385   -39980   -42453   -34256   -38296   -54448 
  -49121   -31264   -31891   -41210   -43155   -43723   -47995   -50951 
  -44855   -38757   -43688   -42124   -30322   -33731   -49632   -51838 
  -40224   -31739   -29324   -33405   -48631   -59530   -45944   -28792 
  -36479   -47012   -37893   -27584   -31310   -44443   -51975   -43386 
  -31329   -26287   -29909   -46124   -54529   -42230   -33725   -39784 
  -51439   -53114   -39631   -37339   -45296   -43938   -46537   -51202 
  -43312   -34717   -40408   -51817   -46926   -34538   -41665   -54483 
  -46282   -28541   -26779   -42256   -52448   -47248   -40177   -40602 
  -46836   -46435   -36589   -35247   -42543   -46256   -46049   -42383 
  -34821   -32373   -44941   -55776   -46955   -37073   -42029   -48795 
  -49249   -49464   -48026   -39725   -31976   -37033   -50157   -54352 
  -42840   -27190   -29266   -44761   -45388   -33091   -27699   -29766 
  -33876   -39698   -46465   -48644   -43991   -39825   -39492   -40352 
  -39415   -39730   -49709   -55329   -43306   -35714   -44016   -50044 
  -41373   -33747   -45936   -56964   -49438   -42248   -41345   -37897 
  -37254   -46078   -48941   -38071   -39221   -53210   -50171   -33831 
  -29776   -41033   -49636   -46163   -44656   -52463   -52332   -34879 
  -22065   -39043   -62463   -53100   -33519   -35176   -37806   -33975 
  -41748   -50683   -41287   -29519   -38215   -51638   -50167   -44510 
  -42691   -36628   -28532   -35297   -55518   -65200   -52195   -26207 
  -14395   -35240   -59547   -52585   -28806   -15982   -23607   -41492 
  -48323   -43351   -35010   -32007   -44518   -52479   -48859   -54711 
  -53508   -35519   -29810   -39256   -48469   -54108   -49901   -34847 
  -27398   -38942   -52054   -52093   -46268   -37652   -25238   -28887 
  -57348   -70519   -49574   -31907   -32698   -41206   -51610   -50377 
  -42072   -41466   -41928   -38264   -31774   -26670   -34315   -47412 
  -47903   -41289   -39405   -41261   -42809   -44857   -53073   -58185 
  -50418   -47358   -45496   -25058   -17235   -42623   -57993   -41053 
  -21732   -24567   -39904   -50701   -56616   -50044   -30904   -32174 
  -55054   -61715   -49041   -35118   -26412   -27737   -33893   -39452 
  -47379   -48880   -42383   -41149   -39972   -34357   -40138   -58587 
  -65939   -47856   -28890   -35410   -45322   -38306   -39958   -56895 
  -56681   -38226   -30929   -38125   -44560   -41890   -37006   -44124 
  -51175   -39846   -27770   -36722   -51397   -49442   -39680   -34144 
  -32319   -37378   -47063   -53419   -53680   -50348   -45014   -38387 
  -37552   -43475   -41994   -31849   -32937   -44531   -45863   -39646 
  -38627   -38503   -37211   -42372   -51479   -47436   -31907   -36301 
  -55927   -50548   -27822   -25123   -40400   -47004   -41719   -36123 
  -31220   -34672   -52504   -60399   -44169   -28363   -30365   -43015 
  -52656   -48959   -36964   -34503   -43687   -44402   -38669   -49430 
