Origin Time       2024/04/02 04:24:00
Lat.              40.133
Long.             141.712
Depth. (km)       71
Mag.              6.0
Station Code      KNG202
Station Lat.      34.7396
Station Long.     139.8393
Station Height(m) -2339
Record Time       2024/04/02 04:27:00
Sampling Freq(Hz) 100Hz
Duration Time(s)  60
Dir.              E-W
Scale Factor      2000(gal)/6182761
Max. Acc. (gal)   1.903
Last Correction   2024/04/02 04:27:01
Memo.             
[...]
     368      158       -9     -122     -176     -172     -147     -112 
     -40       73      212      376      544      659      679      609 
     470      305      199      210      329      527      752      915 
     934      815      606      337       60     -149     -219     -113 
     124      383      576      648      552      305       39     -127 
    -135       60      379      635      757      733      556      337 
     197      152      185      247      285      288      257      222 
     248      357      527      721      882      957      940      844 
     689      534      442      439      523      657      780      849 
     877      895      893      874      862      839      795      762 
     751      747      724      662      549      390      227      120 
      94      129      197      241      209      107      -44     -197 
    -275     -249     -135       44      236      359      400      404 
     382      374      447      599      778      921      984      954 
     840      708      636      643      722      861     1011     1110 
    1126     1031      830      570      321      153      129      264 
     491      700      826      824      671      443      236       88 
      51      130      259      394      493      488      379      242 
     128       71      113      241      399      527      546      437 
     265      103      -17      -74      -57        1        5      -79 
    -173     -238     -272     -223     -115       -9      112      244 
     404      630      863     1059     1183     1135      897      569 
     264       99      163      439      822     1171     1348     1296 
    1055      716      402      210      185      310      499      677 
     814      890      914      909      885      859      855      877 
     914      965     1016     1026      988      924      834      711 
     567      432      320      240      223      289      422      577 
     692      701      559      302       14     -216     -282     -141 
     114      345      448      376      171     -102     -359     -471 
    -405     -221       39      313      517      616      618      523 
     353      154      -48     -228     -335     -317     -191       -2 
     272      566      751      824      791      627      397      210 
     140      197      334      513      673      738      715      659 
     588      524      505      515      517      517      528      545 
     584      663      770      902     1047     1130     1072      873 
     582      282       88       54      149      318      484      570 
     547      448      343      292      319      395      486      580 
     631      600      493      337      193      151      243      444 
     722      996     1148     1112      885      535      176     -122 
    -313     -350     -267     -164      -79       16       96      161 
     303      507      677      799      843      763      603      428 
     321      354      493      657      778      800      686      498 
     361      336      423      612      853     1041     1098     1044 
     938      812      730      734      758      729      615      398 
     132      -86     -212     -218      -92       79      204      293 
     414      586      743      828      843      788      682      592 
     567      606      656      661      607      511      409      376 
     440      559      678      729      667      507      331      230 
     226      309      483      697      847      860      750      567 
     343      147       64       96      190      309      422      503 
     558      583      555      501      467      436      410      417 
     441      474      516      536      509      444      338      214 
     132       98       99      150      237      319      379      400 
     356      251      128       39       45      164      347      517 
     590      502      253     -105     -450     -639     -626     -452 
    -164      147      338      356      290      217      182      245 
     389      548      693      783      799      771      717      642 
     552      488      470      473      508      601      718      811 
     869      903      893      825      740      647      528      430 
     396      406      452      552      680      780      819      793 
     689      512      321      181      120      140      210      301 
     422      575      738      883      972      981      917      817 
     734      720      788      904     1026     1104     1069      909 
     695      498      352      293      333      410      458      447 
     378      294      251      289      441      661      841      930 
     919      797      611      460      391      398      472      557 
     558      431      206      -79     -379     -565     -549     -392 
    -182       27      150      146       64      -60     -188     -237 
    -167      -39      126      346      560      719      804      762 
     596      367      149       42      101      303      582      823 
     913      821      580      251      -58     -231     -209       14 
     358      671      854      865      705      445      186       33 
      59      238      474      661      728      676      573      506 
     518      575      636      658      582      442      336      310 
     357      454      553      601      587      548      526      540 
     576      619      646      599      459      264       63      -85 
    -103       73      410      744     1000     1196     1240     1103 
     903      703      546      462      423      403      369      341 
     379      470      574      669      710      654      531      422 
     376      399      480      579      668      756      869     1020 
    1187     1299     1286     1107      788      420      125        2 
      59      221      394      497      469      324      164       76 
      96      229      440      643      743      728      633      459 
     269      169      178      262      390      477      435      261 
     -12     -335     -588     -666     -626     -545     -407     -261 
    -176      -92       22      102      173      303      465      602 
     698      721      646      520      395      280      193      155 
     136      101       44      -34     -103      -80       76      292 
     462      567      601      525      400      338      406      651 
    1042     1459     1801     1964     1875     1606     1261      878 
     537      318      185       62      -67     -164     -179      -72 
     163      444      686      902     1079     1137     1092     1044 
    1048     1112     1216     1318     1336     1176      826      353 
    -158     -614     -912    -1014     -983     -880     -707     -485 
    -254      -29      183      342      413      426      390      288 
     164       46      -47      -52       52      221      405      573 
     701      755      779      850      958     1052     1095     1033 
     845      579      305      113       83      239      537      879 
    1169     1336     1328     1163      919      655      434      329 
     339      415      547      698      771      716      566      360 
     159       71      162      420      780     1128     1361     1445 
    1392     1272     1173     1109     1017      832      518       97 
    -351     -684     -750     -524     -107      366      695      723 
     494      117     -306     -599     -659     -532     -316      -81 
     117      227      283      375      499      592      650      670 
     644      603      580      593      616      557      341      -44 
    -536     -990    -1241    -1182     -810     -227      413      975 
    1339     1451     1392     1271     1153     1075     1007      928 
     837      724      624      615      731      939     1143     1201 
    1011      565      -40     -587     -803     -530      164     1052 
    1882     2394     2439     2105     1623     1230     1070     1175 
    1449     1662     1581     1128      409     -374    -1011    -1290 
   -1101     -545      171      831     1213     1233      984      603 
     295      267      554     1061     1607     1929     1829     1275 
     377     -626    -1397    -1654    -1361     -679      169      901 
    1247     1121      625      -54     -667     -980     -890     -449 
     201      853     1297     1444     1347     1112      897      827 
     850      835      670      228     -509    -1350    -1998    -2229 
   -1930    -1080      175     1513     2567     3063     2952     2360 
    1465      510     -270     -763     -948     -916     -848     -841 
    -859     -854     -788     -631     -421     -221      -62       78 
     290      660     1195     1807     2332     2598     2526     2184 
    1685     1106      508     -104     -807    -1577    -2240    -2634 
   -2623    -2127    -1268     -310      471      812      595      -44 
    -785    -1281    -1249     -552      694     2135     3292     3795 
    3546     2648     1422      312     -396     -600     -405     -157 
    -117     -312     -654     -933     -895     -464      278     1159 
    1887     2262     2246     1868     1299      782      452      398 
     611      919     1138     1141      887      446      -61     -474 
    -618     -412       67      665     1245     1662     1829     1759 
    1496     1098      630      191     -113     -273     -267      -45 
     308      589      669      543      237     -171     -487     -540 
    -310       89      490      724      713      556      457      589 
    1052     1812     2675     3342     3518     3097     2204     1088 
      58     -596     -734     -427       96      579      850      874 
     744      582      476      500      662      895     1108     1214 
    1184      998      645      180     -310     -760    -1076    -1162 
    -993     -593      -24      557      970     1077      860      447 
      -4     -306     -271      164      836     1430     1690     1479 
     804     -131    -1058    -1687    -1805    -1465     -858     -167 
     388      654      653      528      454      525      737      998 
    1161     1135      910      532       94     -292     -530     -612 
    -644     -745     -969    -1275    -1511    -1504    -1158     -455 
     454     1250     1657     1598     1197      716      435      508 
     889     1382     1760     1842     1591     1150      730      507 
     544      709      783      602       84     -722    -1591    -2239 
   -2459    -2143    -1317     -223      830     1589     1889     1772 
    1473     1225     1196     1443     1827     2076     1978     1479 
     639     -331    -1063    -1242     -761      299     1690     2981 
    3697     3606     2750     1378      -25     -960    -1163     -668 
     167      874     1158      990      583      200       18       68 
     140      -19     -460    -1060    -1584    -1756    -1420     -586 
     567     1724     2614     3112     3249     3173     3042     2958 
    2911     2780     2416     1692      590     -734    -2019    -3005 
   -3545    -3594    -3167    -2392    -1462     -474      495     1271 
    1682     1632     1087      117    -1030    -1945    -2211    -1596 
    -141     1831     3740     4990     5249     4488     2927      969 
   -1025    -2809    -4140    -4862    -4933    -4267    -2855     -942 
    1092     2775     3665     3672     3027     2035     1055      444 
     391      898     1798     2767     3434     3505     2823     1396 
    -511    -2373    -3619    -3878    -3130    -1655       96     1590 
    2427     2508     2007     1182      264     -507     -982    -1122 
    -908     -401      311     1149     1970     2630     3024     3030 
    2559     1652      520     -562    -1352    -1676    -1565    -1230 
    -812     -420     -169      -27       46        3     -149     -340 
    -481     -474     -195      527     1708     3115     4468     5473 
    5775     5167     3684     1580     -679    -2550    -3578    -3582 
   -2738    -1432     -140      668      745      232     -397     -576 
      72     1559     3480     5203     6149     5917     4462     2212 
    -173    -2049    -2897    -2544    -1289      345     1838     2703 
    2727     2060      861     -694    -2218    -3324    -3748    -3337 
   -2144     -468     1227     2433     2772     2180      929     -540 
   -1701    -2083    -1565     -418      870     1683     1528      393 
   -1302    -2899    -3716    -3456    -2300     -693      729     1394 
    1156      276     -819    -1703    -2039    -1747    -1033     -127 
     793     1558     2115     2539     2946     3383     3842     4302 
    4668     4779     4501     3799     2704     1292     -280    -1775 
   -2933    -3523    -3443    -2689    -1382      152     1527     2428 
    2636     2177     1318      403     -227     -348       59      860 
    1767     2443     2673     2345     1451      152    -1269    -2439 
   -3043    -2980    -2324    -1270      -95      942     1628     1847 
    1687     1331      920      560      323      182        4     -371 
    -936    -1537    -2066    -2413    -2412    -2015    -1301     -350 
     706     1699     2465     2846     2781     2271     1414      476 
    -265     -657     -685     -512     -405     -563    -1024    -1649 
   -2141    -2175    -1534     -183     1670     3619     5229     6190 
    6315     5534     4010     2065       21    -1773    -2945    -3241 
   -2647    -1345      395     2192     3629     4453     4643     4301 
    3578     2706     1874     1073      263     -508    -1171    -1605 
   -1660    -1303     -641       80      518      421     -227    -1203 
   -2112    -2543    -2253    -1246      267     1921     3252     3919 
    3827     3025     1656        9    -1581    -2786    -3293    -3003 
   -2035     -627      843     1904     2155     1531      337     -995 
   -1967    -2140    -1465     -220     1225     2424     3018     2967 
    2387     1469      561        0      -83      262      827     1313 
    1432      959     -139    -1551    -2816    -3564    -3549    -2703 
   -1203      527     1962     2739     2768     2249     1586     1210 
    1436     2283     3422     4415     4860     4415     3011      983 
   -1185    -2999    -3980    -3927    -2974    -1444      132     1190 
    1384      630     -769    -2193    -3035    -2921    -1812       27 
    2110     3802     4645     4563     3706     2369      944     -275 
   -1126    -1548    -1696    -1790    -1890    -1967    -1988    -1846 
   -1373     -506      640     1835     2768     3151     2846     1900 
     635     -454     -924     -477      878     2728     4501     5703 
    5932     4998     3093      697    -1660    -3442    -4198    -3830 
   -2573     -839      822     1906     2182     1726      895      138 
    -187       86      867     1862     2687     3010     2660     1660 
     248    -1212    -2362    -2945    -2935    -2536    -2024    -1664 
   -1607    -1827    -2190    -2506    -2604    -2426    -1986    -1301 
    -399      697     1963     3324     4640     5697     6213     5992 
    5039     3476     1541     -394    -1950    -2846    -2991    -2557 
   -1797     -916     -118      479      870     1090     1264     1468 
    1611     1582     1313      777       36     -732    -1238    -1212 
    -547      664     2148     3447     4121     3961     2966     1377 
    -323    -1669    -2302    -2108    -1390     -550      175      587 
     632      567      709     1148     1780     2386     2679     2475 
    1785      782     -225     -951    -1276    -1232     -969     -658 
    -386     -158      109      480      866     1116     1089      656 
    -190    -1301    -2423    -3234    -3498    -3111    -2057     -512 
    1142     2456     3032     2747     1776      426     -840    -1535 
   -1455     -708      420     1578     2424     2778     2734     2462 
    2131     1918     1822     1722     1490     1001      266     -564 
   -1310    -1773    -1850    -1661    -1358     -979     -536       -7 
     652     1373     2021     2514     2796     2823     2645     2368 
    2005     1509      902      264     -331     -781     -995    -1033 
   -1022     -975     -857     -655     -256      431     1277     2054 
    2588     2795     2706     2490     2360     2413     2659     2981 
    3064     2664     1796      632     -546    -1360    -1540    -1123 
    -353      500     1136     1278      895      172     -647    -1288 
   -1538    -1383     -943     -342      261      653      719      507 
     156     -187     -387     -340      -60      309      616      764 
     711      482      186      -49     -184     -206      -85       90 
     185      178       97      -86     -359     -581     -600     -376 
     113      838     1611     2253     2676     2774     2581     2318 
    2117     2041     2146     2314     2330     2068     1486      651 
    -211     -843    -1097    -1016     -851     -887    -1284    -2054 
   -2994    -3726    -3907    -3346    -2073     -368     1383     2801 
    3592     3690     3217     2379     1495      828      448      351 
     444      537      497      272     -164     -786    -1464    -1972 
   -2136    -1861    -1096       46     1278     2247     2657     2439 
    1765      939      334      224      636     1339     1946     2091 
    1598      557     -724    -1830    -2381    -2241    -1535     -500 
     535     1238     1519     1553     1577     1780     2281     3022 
    3733     4124     4029     3433     2452     1249       -8    -1180 
   -2210    -3063    -3680    -3952    -3709    -2865    -1479      237 
    1897     3094     3586     3349     2521     1335      113     -850 
   -1387    -1439    -1079     -477      196      741      984      895 
     542       14     -530     -917    -1112    -1217    -1334    -1479 
   -1610    -1612    -1313     -653      279     1293     2067     2343 
    2116     1524      795      216      -59      -50      119      206 
       8     -411     -839    -1084     -991     -505      310     1250 
    2002     2384     2396     2096     1665     1382     1401     1743 
    2330     2931     3319     3411     3162     2586     1816     1013 
     303     -229     -578     -781     -870     -872     -752     -418 
     156      896     1660     2297     2713     2835     2614     2063 
    1192       38    -1265    -2503    -3470    -4075    -4293    -4101 
   -3548    -2727    -1709     -631      331     1029     1313     1114 
     497     -406    -1366    -2110    -2500    -2494    -2044    -1239 
    -273      699     1493     1922     1989     1826     1605     1568 
    1884     2511     3242     3790     3933     3578     2768     1730 
     750      -11     -489     -667     -612     -461     -272       -3 
     329      675     1116     1733     2407     2978     3365     3427 
    3042     2267     1261      203     -709    -1300    -1475    -1274 
    -818     -212      435      996     1399     1650     1766     1731 
    1551     1277      963      700      554      494      459      374 
     159     -192     -601     -951    -1182    -1349    -1471    -1509 
   -1503    -1477    -1379    -1223    -1054     -872     -692     -506 
