Origin Time       2024/04/02 04:24:00
Lat.              40.133
Long.             141.712
Depth. (km)       71
Mag.              6.0
Station Code      KNG206
Station Lat.      35.0966
Station Long.     139.3778
Station Height(m) -1130
Record Time       2024/04/02 04:26:55
Sampling Freq(Hz) 100Hz
Duration Time(s)  99
Dir.              E-W
Scale Factor      2000(gal)/6182761
Max. Acc. (gal)   2.476
Last Correction   2024/04/02 04:26:55
Memo.             
[...]
    1213     1048      816      565      381      270      226      234 
     231      172       33     -196     -479     -740     -952    -1164 
   -1318    -1335    -1271    -1155    -1001     -879     -855     -956 
   -1146    -1355    -1521    -1588    -1510    -1271     -940     -600 
    -270       47      299      391      325      232      126      -45 
    -229     -382     -470     -508     -590     -705     -871    -1171 
   -1543    -1900    -2224    -2455    -2539    -2463    -2242    -1896 
   -1459     -991     -544     -167      101      188      -22     -441 
    -798    -1015    -1167    -1210    -1116     -994     -933     -937 
    -982    -1022    -1009     -933     -807     -660     -530     -443 
    -391     -340     -270     -155        9      133      125       20 
    -106     -266     -402     -443     -483     -534     -505     -454 
    -442     -477     -588     -760     -996    -1289    -1550    -1720 
   -1808    -1829    -1780    -1669    -1516    -1344    -1164     -969 
    -753     -531     -309      -77      127      213      177      133 
     113       68       49       76       74       10     -155     -411 
    -638     -827    -1051    -1233    -1303    -1334    -1341    -1280 
   -1170    -1042     -906     -766     -619     -472     -342     -217 
     -67      115      292      447      662      935     1123     1185 
    1123      892      553      203     -116     -336     -340     -118 
     145      268      208      -22     -361     -687     -856     -853 
    -797     -693     -557     -532     -636     -835    -1110    -1345 
   -1434    -1369    -1177     -901     -589     -286      -27      146 
     146      -20     -217     -371     -468     -506     -538     -574 
    -608     -690     -796     -869     -885     -806     -644     -449 
    -265     -146     -152     -296     -522     -772    -1016    -1212 
   -1329    -1377    -1399    -1441    -1495    -1525    -1537    -1527 
   -1448    -1291    -1093     -895     -728     -622     -569     -530 
    -504     -522     -577     -633     -689     -746     -770     -769 
    -774     -794     -839     -890     -935     -966     -929     -814 
    -661     -468     -225       43      297      476      556      595 
     580      471      328      175      -13     -188     -287     -251 
    -101       62      212      308      321      337      323      233 
     144       30     -162     -382     -571     -703     -800     -843 
    -791     -683     -562     -490     -533     -686     -929    -1212 
   -1450    -1589    -1609    -1539    -1431    -1338    -1288    -1302 
   -1403    -1530    -1573    -1488    -1272     -950     -616     -364 
    -232     -224     -343     -548     -748     -921    -1094    -1266 
   -1448    -1669    -1884    -2014    -2021    -1902    -1700    -1480 
   -1292    -1183    -1188    -1287    -1427    -1553    -1611    -1601 
   -1562    -1512    -1479    -1478    -1472    -1423    -1313    -1123 
    -878     -625     -393     -213     -101      -67     -137     -257 
    -290     -187      -19      174      309      293      212       63 
    -263     -586     -713     -717     -677     -573     -439     -343 
    -278     -224     -193     -154      -69       51      136      146 
     156      184      174      159      153      123       81       17 
     -92     -204     -258     -267     -303     -348     -333     -283 
    -201      -47      169      369      489      564      586      503 
     374      229       43     -160     -327     -367     -290     -227 
    -146       -6       -8     -255     -571     -830    -1086    -1322 
   -1435    -1419    -1313    -1126     -926     -777     -676     -578 
    -448     -296     -136       38      180      228      214      188 
     128       47      -26     -146     -281     -309     -263     -246 
    -235     -210     -213     -248     -312     -404     -468     -469 
    -420     -342     -269     -229     -234     -308     -459     -641 
    -815     -970    -1077    -1108    -1090    -1059    -1049    -1086 
   -1139    -1151    -1111    -1026     -893     -738     -613     -563 
    -604     -719     -877    -1023    -1140    -1216    -1232    -1220 
   -1208    -1206    -1244    -1324    -1419    -1513    -1589    -1641 
   -1659    -1641    -1605    -1555    -1499    -1456    -1406    -1330 
   -1221    -1068     -865     -617     -339      -21      302      493 
     523      510      426      203      -51     -321     -593     -714 
    -756     -826     -780     -597     -373      -92      197      331 
     256       68     -207     -572     -875    -1065    -1269    -1436 
   -1481    -1440    -1276     -981     -638     -285       41      242 
     182     -145     -554     -895    -1147    -1340    -1458    -1444 
   -1370    -1313    -1236    -1168    -1151    -1135    -1081    -1005 
    -929     -839     -728     -623     -549     -548     -610     -672 
    -713     -725     -694     -625     -537     -493     -541     -644 
    -757     -876     -992    -1071    -1098    -1077     -985     -815 
    -586     -273      138      566      865     1007     1098     1125 
    1060     1008     1001     1032     1128     1192     1120      915 
     596      177     -274     -643     -811     -791     -713     -609 
    -503     -481     -541     -645     -783     -906     -963     -926 
    -796     -625     -473     -360     -283     -234     -165      -41 
      85       91     -130     -559    -1116    -1728    -2272    -2573 
   -2499    -2057    -1367     -587       76      468      491      178 
    -222     -532     -678     -571     -311      -47      133      -25 
    -616    -1347    -1972    -2418    -2534    -2170    -1376     -307 
     803     1607     1900     1781     1412      844      156     -512 
   -1069    -1468    -1778    -2112    -2411    -2626    -2758    -2713 
   -2472    -2089    -1602    -1111     -711     -449     -327     -227 
      14      468     1065     1663     2147     2350     2082     1363 
     346     -789    -1741    -2274    -2410    -2307    -2102    -1948 
   -1977    -2185    -2535    -2962    -3309    -3482    -3466    -3240 
   -2834    -2298    -1641     -903     -160      530     1066     1369 
    1522     1629     1665     1651     1638     1559     1383     1159 
     912      680      478      254      -64     -519    -1077    -1679 
   -2287    -2775    -2920    -2642    -1984     -965      322     1665 
    2798     3517     3749     3422     2502     1160     -384    -1920 
   -3128    -3802    -3995    -3768    -3156    -2331    -1479     -702 
    -101      244      237     -205     -943    -1723    -2434    -2995 
   -3227    -3025    -2436    -1544     -488      524     1298     1677 
    1688     1496     1126      627      154     -263     -568     -619 
    -427      -51      526     1188     1723     2054     2033     1465 
     423     -919    -2318    -3401    -3991    -4089    -3687    -2953 
   -2177    -1483     -940     -602     -395     -220        5      291 
     550      761      983     1212     1433     1687     1972     2237 
    2445     2510     2283     1634      544     -892    -2455    -3823 
   -4791    -5274    -5125    -4364    -3219    -1871     -486      755 
    1685     2140     2134     1826     1316      787      513      577 
     880     1237     1370     1021       49    -1462    -3131    -4515 
   -5391    -5651    -5223    -4229    -2869    -1270      399     1953 
    3194     3957     4258     4101     3503     2670     1765      871 
      42     -757    -1494    -2089    -2599    -3031    -3236    -3180 
   -2970    -2688    -2446    -2348    -2392    -2538    -2682    -2718 
   -2629    -2435    -2221    -2110    -2145    -2326    -2604    -2840 
   -2884    -2626    -2036    -1221     -325      522     1159     1440 
    1385     1130      740      295       -8      -72      108      478 
     763      736      420     -218    -1158    -2124    -2915    -3448 
   -3579    -3275    -2630    -1686     -455      980     2444     3695 
    4575     4967     4736     3946     2827     1609      549     -188 
    -546     -434      107      786     1334     1688     1846     1735 
    1265      451     -619    -1837    -3011    -3990    -4719    -5019 
   -4677    -3737    -2383     -860      497     1364     1533     1063 
     253     -607    -1217    -1335    -1104     -868     -841    -1194 
   -1931    -2766    -3380    -3538    -3108    -2181     -990      200 
    1130     1642     1805     1862     1977     2154     2360     2475 
    2345     1916     1177      196     -890    -1906    -2633    -2968 
   -2896    -2378    -1509     -476      571     1409     1804     1746 
    1380      802      127     -487     -925    -1033     -812     -459 
       1      525      885     1061     1197     1291     1310     1300 
    1248     1104      912      757      730      894     1194     1517 
    1784     1910     1792     1348      517     -696    -2166    -3700 
   -5156    -6403    -7177    -7294    -6823    -5909    -4778    -3702 
   -2786    -2031    -1410     -822     -184      480     1018     1202 
     961      345     -650    -1877    -3012    -3905    -4499    -4642 
   -4292    -3566    -2618    -1655     -903     -495     -437     -624 
    -914    -1200    -1391    -1478    -1544    -1638    -1704    -1602 
   -1205     -475      522     1554     2308     2641     2547     2013 
    1154      188     -781    -1611    -2117    -2361    -2425    -2198 
   -1630     -724      547     2007     3353     4391     4969     4876 
    4026     2604      891     -792    -2026    -2510    -2245    -1428 
    -230     1129     2272     2933     3094     2773     1987      857 
    -467    -1793    -2790    -3258    -3226    -2643    -1482       41 
    1625     2936     3642     3641     2985     1726       91    -1567 
   -2923    -3688    -3829    -3480    -2634    -1373       50     1372 
    2278     2578     2337     1636      523     -833    -2157    -3193 
   -3876    -4317    -4530    -4523    -4463    -4464    -4572    -4788 
   -5002    -5046    -4715    -3898    -2688    -1264      143     1242 
    1763     1635     1064      237     -720    -1515    -1913    -1954 
   -1708    -1179     -517       70      481      579      312     -130 
    -601     -964     -999     -703     -134      721     1627     2321 
    2778     2929     2656     1994     1092      138     -677    -1156 
   -1141     -674      101     1091     2018     2609     2900     2878 
    2442     1688      715     -459    -1722    -2893    -3851    -4568 
   -4942    -4834    -4281    -3399    -2301    -1135      -32      908 
    1613     2031     2225     2291     2188     1915     1512      942 
     245     -500    -1189    -1651    -1871    -1938    -1811    -1525 
   -1268    -1147    -1229    -1567    -2120    -2819    -3508    -3976 
   -4049    -3619    -2701    -1428      -33     1165     1883     2027 
    1734     1166      425     -324     -916    -1269    -1376    -1321 
   -1129     -815     -556     -519     -799    -1444    -2282    -3005 
   -3384    -3304    -2763    -1931    -1102     -567     -515     -975 
   -1812    -2784    -3601    -4014    -3929    -3409    -2564    -1519 
    -388      796     2010     3176     4242     5134     5609     5439 
    4554     2978      983     -992    -2585    -3515    -3716    -3408 
   -2798    -2041    -1381     -945     -686     -529     -345      -29 
     385      777     1142     1645     2332     3081     3825     4478 
    4886     4959     4614     3851     2851     1809      816     -122 
    -993    -1696    -2155    -2431    -2524    -2354    -1995    -1582 
   -1219    -1012     -974    -1044    -1160    -1226    -1184    -1062 
    -971    -1048    -1380    -2000    -2818    -3616    -4171    -4362 
   -4135    -3511    -2683    -1920    -1383    -1101     -959     -746 
    -310      385     1211     1913     2358     2522     2307     1754 
    1053      226     -803    -2005    -3289    -4539    -5564    -6022 
   -5634    -4411    -2517     -234     2018     3806     4836     5072 
    4595     3513     2091      624     -698    -1654    -2031    -1836 
   -1271     -510      306      933     1140      864      207     -712 
   -1715    -2505    -2967    -3111    -2826    -2189    -1474     -895 
    -687    -1028    -1857    -2951    -3991    -4634    -4631    -3882 
   -2455     -590     1357     2931     3726     3647     2801     1323 
    -460    -2127    -3399    -4109    -4227    -3802    -2884    -1638 
    -219     1240     2442     3126     3243     2795     1860      706 
    -382    -1214    -1579    -1454    -1146     -919     -931    -1356 
   -2170    -3163    -4066    -4518    -4211    -3050    -1195      959 
    2916     4202     4569     4088     2975     1577      328     -503 
    -791     -457      339     1240     1953     2320     2273     1796 
     934     -145    -1266    -2278    -3058    -3646    -4103    -4434 
   -4687    -4830    -4795    -4617    -4350    -4033    -3718    -3410 
   -3074    -2693    -2250    -1747    -1201     -652     -186      104 
     108     -260     -819    -1263    -1509    -1524    -1177     -490 
     372     1251     1959     2452     2825     3050     3087     3007 
    2827     2546     2243     1971     1717     1410      987      418 
    -297    -1023    -1475    -1492    -1159     -600       -6      246 
    -159    -1193    -2491    -3702    -4622    -4913    -4315    -2939 
    -985     1313     3563     5377     6560     7095     6962     6193 
    4958     3394     1655      -58    -1583    -2718    -3337    -3545 
   -3464    -3122    -2642    -2161    -1671    -1123     -486      280 
    1128     1854     2283     2413     2198     1564      616     -506 
   -1645    -2538    -3069    -3305    -3240    -2890    -2403    -1897 
   -1462    -1175    -1016     -937     -904     -882     -837     -768 
    -718     -731     -842    -1099    -1508    -1995    -2465    -2826 
   -2980    -2845    -2382    -1641     -850     -295     -143     -477 
   -1264    -2249    -3177    -3895    -4161    -3847    -3089    -2024 
    -844      190      899     1091      667     -182    -1183    -2067 
   -2560    -2644    -2428    -1970    -1485    -1152     -942     -771 
    -527      -92      546     1243     1783     2103     2197     2013 
    1651     1260      859      460       59     -406     -907    -1321 
   -1665    -2021    -2269    -2350    -2352    -2192    -1758    -1041 
      20     1407     2873     4115     4948     5244     4940     4192 
    3270     2413     1815     1499     1300     1014      469     -387 
   -1414    -2343    -3008    -3399    -3508    -3399    -3238    -3054 
   -2799    -2463    -1989    -1350     -595      224      997     1546 
    1828     1972     1997     1856     1656     1473     1265     1079 
     993      941      783      415     -264    -1252    -2352    -3382 
   -4257    -4790    -4785    -4253    -3322    -2219    -1194     -341 
     258      508      453      264      109      -26     -214     -396 
    -560     -799    -1172    -1651    -2212    -2841    -3445    -3884 
   -4006    -3702    -2961    -1859     -654      311      803      723 
     200     -461    -1024    -1288    -1185     -938     -744     -721 
   -1006    -1509    -2026    -2399    -2452    -2128    -1529     -818 
    -160      312      477      291     -125     -614    -1081    -1467 
   -1830    -2229    -2552    -2737    -2790    -2660    -2375    -1967 
   -1429     -841     -265      328      914     1459     2019     2588 
    3035     3296     3388     3315     3127     2861     2497     2051 
    1571     1066      528      -13     -496     -801     -837     -696 
    -493     -203      125      316      214     -177     -632     -920 
    -926     -611       12      874     1716     2268     2492     2320 
    1666      681     -456    -1577    -2411    -2853    -2980    -2777 
   -2327    -1884    -1599    -1508    -1617    -1858    -2140    -2366 
   -2439    -2345    -2158    -1947    -1717    -1465    -1221    -1016 
    -866     -790     -851    -1114    -1561    -2107    -2611    -2901 
   -2863    -2501    -1917    -1272     -758     -531     -611     -934 
   -1398    -1836    -2096    -2106    -1839    -1328     -635      194 
    1050     1727     2072     2080     1760     1107      255     -602 
   -1275    -1548    -1391     -901     -102      844     1610     2042 
    2220     2226     2080     1910     1862     1947     2153     2440 
    2714     2943     3086     3083     2897     2479     1830     1039 
     212     -521     -975    -1042     -830     -503     -139      105 
       6     -430     -933    -1315    -1657    -1987    -2219    -2444 
   -2722    -2995    -3291    -3557    -3647    -3538    -3294    -2952 
   -2576    -2298    -2194    -2247    -2425    -2677    -2948    -3191 
   -3326    -3283    -3057    -2689    -2247    -1820    -1518    -1459 
   -1696    -2199    -2878    -3564    -4099    -4393    -4394    -4092 
   -3551    -2882    -2173    -1503     -969     -637     -488     -444 
    -465     -522     -524     -448     -363     -313     -326     -411 
    -522     -574     -459      -86      538     1272     1922     2436 
    2826     3027     3051     2971     2768     2404     1851     1117 
     296     -503    -1137    -1433    -1371    -1085     -660     -217 
      96      250      233      132      160      350      655     1065 
    1471     1808     2061     2207     2285     2334     2385     2447 
    2434     2211     1690      909        1     -889    -1520    -1661 
   -1355     -760       57      882     1393     1524     1419     1200 
     961      838      878      986     1063     1009      776      422 
      -9     -476     -845    -1000    -1026    -1041    -1011     -984 
   -1075    -1251    -1469    -1734    -1986    -2160    -2236    -2163 
   -1887    -1489    -1116     -865     -816    -1016    -1402    -1867 
   -2315    -2645    -2791    -2772    -2644    -2458    -2298    -2262 
   -2360    -2536    -2755    -2974    -3145    -3268    -3331    -3300 
   -3168    -2889    -2429    -1864    -1291     -793     -448     -278 
    -246     -287     -308     -237      -68      111      151       -7 
    -239     -406     -462     -413     -327     -277     -330     -590 
   -1031    -1506    -1865    -1954    -1676    -1041     -175      717 
    1410     1746     1774     1611     1285      927      666      448 
     249       68     -171     -463     -713     -929    -1182    -1416 
   -1546    -1599    -1568    -1453    -1330    -1260    -1287    -1434 
   -1671    -1959    -2266    -2504    -2564    -2394    -1994    -1434 
    -801     -136      510      999     1226     1286     1284     1161 
     915      538      -78     -892    -1721    -2395    -2805    -2863 
   -2467    -1670     -650      422     1298     1739     1727     1415 
     875      132     -608    -1111    -1258    -1030     -480      375 
    1398     2286     2876     3129     2979     2436     1647      775 
     -86     -817    -1249    -1303    -1122     -833     -423       21 
     408      708      848      877      844      676      441      198 
    -130     -532     -903    -1223    -1603    -2049    -2393    -2564 
   -2516    -2172    -1656    -1181     -891     -896    -1169    -1520 
