Origin Time       2024/04/02 04:24:00
Lat.              40.133
Long.             141.712
Depth. (km)       71
Mag.              6.0
Station Code      MYG011
Station Lat.      38.3020
Station Long.     141.5079
Station Height(m) 12
Record Time       2024/04/02 04:25:27
Sampling Freq(Hz) 100Hz
Duration Time(s)  74
Dir.              N-S
Scale Factor      7845(gal)/8223790
Max. Acc. (gal)   8.180
Last Correction   2024/04/02 04:25:27
Memo.             
[...]
    3539     3577     3542     2687     3287     4186     3780     4526 
    4209     2498     2991     4001     4020     3977     3707     3757 
    4467     4361     3376     3150     3207     2917     3007     3377 
    3523     3262     3649     4810     4190     2679     3410     4178 
    3478     3283     3118     3357     4434     4298     3712     4050 
    3595     2714     3195     3354     3226     4023     3680     2832 
    3072     3419     3786     4021     4050     4158     4033     3659 
    3188     3626     4233     3420     3447     3773     2967     3446 
    3206     2439     3184     2763     3584     5140     3781     3126 
    3244     2910     3346     3148     3958     5300     4089     4000 
    4912     3179     2637     3589     3061     2930     3267     3453 
    3349     2656     3092     3808     3427     3499     4418     4627 
    4045     4236     4095     3041     3300     3620     3018     3014 
    3109     4263     5328     3928     4021     4486     2069     2477 
    4947     3780     2332     3376     4212     3595     2712     2620 
    3454     3970     2793     2791     4546     4051     3402     3808 
    2818     3551     4973     3267     2774     4407     4306     3558 
    3661     3651     2681     2575     3829     3627     3542     4183 
    3666     4045     4236     3577     4326     4064     3272     3419 
    2415     2505     3430     3365     4530     4526     2936     3024 
    3122     3069     3578     3412     3649     4032     3306     2791 
    3235     4087     4590     4195     3743     3515     3028     3167 
    3807     3460     3379     3920     3071     3119     4353     3603 
    3442     3956     2511     2817     4560     4179     3843     3078 
    2182     4158     5103     4257     4407     3786     3800     5031 
    4801     3553     2948     3557     3393     2481     2690     2849 
    3244     3836     3873     4264     4016     3514     3469     3419 
    3948     3345     2922     4376     4000     3504     4274     3233 
    3254     4118     2914     3045     4013     3466     3173     3002 
    3082     3514     4035     4959     4044     3133     3761     2705 
    2432     3676     3411     3593     4108     2978     2727     4306 
    4001     2605     3672     4135     3150     3511     3370     3304 
    4174     3608     3445     3815     3188     3322     3535     3316 
    3813     4476     4611     4423     4095     3622     3476     2906 
    2500     3545     3427     2552     3545     3530     1740     2359 
    4473     4081     3291     4662     4939     3346     3007     4194 
    5255     3892     2115     3848     4876     3928     4610     4509 
    3316     3430     3701     3115     2849     3083     2416     2987 
    4322     3451     3547     4548     4116     3929     4029     3708 
    3034     3063     3153     2230     3555     5524     4486     4178 
    4924     4380     3944     2982     2230     2650     2542     2825 
    3015     2790     3480     3542     3607     4124     3693     3858 
    4348     3667     3335     3654     2640     1656     2983     4116 
    4218     4518     4310     4330     3727     2670     3639     4360 
    4109     3688     1869     2027     4344     4124     3419     4395 
    4187     3473     4182     3985     2785     3090     3480     3304 
    3956     4001     3123     2860     3171     3727     4218     3640 
    2976     4199     4321     1968     2234     4463     4797     5166 
    5498     4102     3396     3613     2949     2732     3005     3090 
    3268     2810     3140     3943     3955     4320     3604     3111 
    4426     4147     3181     3219     2724     2961     3862     3445 
    3059     3605     4141     4094     3172     2891     3497     2965 
    3362     5618     4889     2911     3654     3134     2328     3549 
    3164     2961     3878     3630     4255     4380     3056     4156 
    4760     2867     3416     4448     3311     2974     3362     3157 
    2459     3454     5618     4224     2319     3275     2941     2849 
    4668     4356     3609     3635     2397     3086     5134     4226 
    2959     3477     3142     2272     2597     2735     3121     4456 
    3906     2874     3461     3618     3549     3465     3194     3167 
    3608     3771     1987     2034     3889     3044     2625     3751 
    3867     2870     2597     4074     3800     2655     3458     3524 
    3173     3630     3586     3937     4712     4226     3454     3878 
    4382     3986     3973     4536     4193     4035     3946     2662 
    2880     3958     3670     3777     3991     3611     3292     3726 
    4783     4106     3329     4344     3365     2200     4264     4364 
    2403     3018     3848     3677     3781     3234     2381     2384 
    3022     2802     2285     2836     3281     3804     4170     3096 
    2543     3242     4055     4656     3943     2897     3519     4032 
    2960     2772     4185     4405     3650     4025     4722     4941 
    4476     3735     4513     4935     3616     3721     4325     3758 
    3645     3256     3704     4777     2947     2216     4087     3306 
    2025     2947     3366     2841     3699     4677     3096     3246 
    5062     3632     3341     4379     2597     2606     4047     3250 
    4078     5620     4058     2932     3878     3418     2605     4588 
    5883     4725     4784     4768     3694     3632     3364     3144 
    3481     3446     3618     3719     4291     4472     2619     2277 
    3557     3439     3705     3478     1772     1350     2060     2814 
    1984     1228     3511     4224     3157     3672     4179     4711 
    4290     4009     5530     4409     2840     4256     3817     2917 
    4738     4734     2979     3618     3909     2535     3400     3966 
    2760     3592     3769     3389     4607     3670     2970     3546 
    1933     1679     3011     2238     1999     4306     5869     5437 
    5314     5472     4718     4230     4780     5105     5013     4429 
    2236     1111     2635     3157     3318     4270     3071     2257 
    2992     2043     1991     3538     4033     4058     3470     3408 
    4847     5382     4935     4631     4779     5146     4530     3896 
    3905     4039     4415     3703     2926     4108     4445     2342 
    1880     3655     2836     1750     3744     4280     3723     4190 
    3935     3915     4241     4814     4999     3763     3357     3686 
    4189     4171     2286     2087     3086     1664     1293     2713 
    2184     1501     2276     2280     2498     3821     3755     2758 
    2335     2747     3468     2284     1641     2466     2084     3177 
    4442     3616     3059     2916     4078     4378     3481     5038 
    5462     4479     5026     4828     4429     4606     4261     3770 
    3885     4812     5266     5162     5081     4387     3210     2864 
    3703     3811     3323     3518     3549     3611     3758     3518 
    3281     3456     3929     3800     3658     3730     3739     4040 
    3075     1776     2068     2782     3014     3180     4064     3248 
     599     1067     3429     3600     3021     2970     1709      781 
    1541      831      403     2358     3950     5678     6594     4689 
    3813     4716     3989     3402     3233      811       52     3489 
    6467     6774     6238     5636     5589     5822     5613     6897 
    7280     4950     4453     4729     4158     3624     2141     2111 
    2712     2910     5502     6859     5491     5065     4687     3709 
    3789     4322     3622     2612     2427     1066     -182     1370 
    2889     3680     5422     5587     3539     1588     -876    -4105 
   -4780    -2088      364     1813     3203     4008     5371     6430 
    5610     4764     5437     7454     7928     4800     2161     4108 
    5857     3890     3356     4021     4870     6871     5940     4212 
    3187     1872     4437     6887     4700     2200     2305     4869 
    7013     6340     5360     5830     5401     4257     3576     1885 
    2623     5994     4363      695     2068     2496       82     2650 
    5521     2612      234      133     1520     2884     1769     3461 
    5509     3134     1391      218     1831     7183     7310     5809 
    7699     6440     5108     6322     5275     3758      658    -3886 
   -3429      310     3165     3650     2687     3022     2674     1385 
    -174     -558     2944     4054     1856     2106     3244     5312 
    6978     6723     7777     7411     5486     5725     4120     1598 
    4148     6342     3416     3203     6737     4098    -1495    -1478 
    -521     1512     4286     1201     2218     8598     7279     4793 
    5822     5636     7928     9545     7732     8295     7624     3542 
    1669      936     1027     2436     -203    -2234     3990     8806 
    5818     3119     1256    -1971     -700     2984     2644     2053 
    3888     5179     5818     5390     3059     2236     4629     6451 
    5292     3819     4369     4633     2231     -958    -1111     1397 
    2085     1958     3396     2088      155     4399     6879     2579 
     639     1246     4063     9517    10110     8899     6682     1286 
     903      865    -3581    -2623     2810     5863     7242     7038 
    3753     -668      197     6112     6034     1027      754     3006 
    6528     8770     3067    -2565      326     6049     6997     4033 
    4537     8005     7750     4297     3442     8087    11335     7134 
    3946     3693      279      257     4804     5080     1075      108 
    3577     4036     2011     3441     6848     6401     1337     1505 
    4141     2540     3172     -730    -2898     9493    11205      922 
    2431     3847      472     1447     1201     1046     1647     2362 
    6602     4490    -3464    -1595     4604     4918     6149     7871 
    5764     4742     3547     -523    -2350     1116     4264     3138 
    6721    11333     5475     3948     7835     2567      540     2076 
   -1216     2658     8606     7146     6555     8279     6365    -1125 
   -3427     6057    10380     6184     7126     6939     1644     2779 
    7788     5832      -14    -2407    -2060     1428     5906     3892 
     -14      -39     1992     6022     6717     3750     1258     -774 
    4818    10627     4681     1240     3496     1260     -315      646 
     567     2053     5798     7203     3994      583     1143     4063 
    4248     2633     2675     2124     4882     9832     6866     5508 
   10372     4722    -1756     4071     3667      336     5857     5783 
    2538     3098     3098     5823     4536      556     5445     8120 
    3433      545      109      711     1888     4301     3769      141 
    1998     2475      210     5421     9356     5934     3172     4125 
    3464       32     3318     5656    -1339     -378     5005     2889 
    4401     6405     3932     4780     3839       81     1252     3279 
    2223     1664     3307     4525     1297     -764     4083     5356 
    2093     6636    10497     5988     6471     8576     2790      476 
    4739     6486     5186     4490     4878     3829     2224     2326 
    1556     1961     4877     5390     5283     4386     2336     2300 
    -271      823     6951     6203     8218    11955     4351      325 
    3797     2856     2686     4314     1179    -1220     4502     9163 
    4014     1629     3341      845     4021     5598    -1328     1510 
    5413     2123     4492     3801     3491    11211     9239     1894 
    2272     3122     1730      774    -1680    -2137     3700     5607 
    1522     1286     1571     3620     8287     4282     -349     3025 
    2398      977     7057     7632      940      918     3977     3207 
    3561     3886     3211     4245     3148     3152     6153     4050 
     766     1232     2058     3202     3019     1899     2859     5147 
    5069     2740     5181     7034     3994     5395     6349     5780 
    7933     4803     1205     1525     1742     3219     2914     2447 
    4153     3504     4028     5595     2505     3029     7462     3908 
    2253     6685     4865     3761     4463     1424     2261     4125 
    5305     7126     3974     3038     6558     3217    -1105     2887 
    4758     1633     2945     4743     2936     3384     4264     1618 
    -783    -1162      853     5501     5197      449     2438     6563 
    5177     2681      479     1993     8100     9016     6403     6146 
    3145    -1128     -241     4976     5995     1595     5289    10536 
    4612     -128    -1251    -1204     3165     5316     6898     6498 
    2724     4171     4688     2070     1821     2814     4365     2389 
    2847     9142     7993     1614     1694     4931     2762    -1602 
     568     4507     4322     3578     2430     2369     5117     4934 
    3343     3974     3271     3068     2778     1621     3356     2546 
    1645     7317     8166     1803     1854     7072     7636     5962 
    6131     4847     3272     5232     3165    -3910    -1844     5622 
    5734     2401      -12      461     3753     3242     2301     5929 
    5583     3294     6860     4317    -1491     4554     6355      438 
    4244     7755     5452     5979     4860     1359      776     2457 
    2482     3555     7063     3375    -1775     1921     4002     1070 
     367     1715     2766     3944     3835     1223     4914     9801 
    2282      662     8869     6230     4251     8270     4739     1837 
    -268    -4997     -363     5921     5753     6698     5757     2234 
    1127     2759     3592     1486     4264     7352     4278     8476 
   11049      411    -2552     2020      475     1603     4884     3592 
    4548     8391     7588     5047     4311     1055      186     3065 
    3754     6458     6856     1640     2177     5013     3230     3302 
    4433     1968     -448     1337     4351     3689     3411     5582 
    3770      756     2255     4468     4556     5603     8716     7932 
    2110     -473     3272     7041     4963      418      -97     4522 
    8398     4747      375     2677     5040     3141     2133     4236 
    3720     3141     4619     1718     1896     5382     3909     2999 
    1968     2403     5429     2956     2027     5512     4996     3198 
    3415     2384      -70     1032     4247     5188     6482     5208 
    1154     1495     1899     1328     4797     5549     1409      -97 
    2727     6076     6239     4240     3628     3987     5530     6274 
    3167     2488     2555      436     5189     7319     2061     3766 
    3438      526     6994     5826     -643     4051     5293     2089 
    5071     5787     3632     5715     7084     3365     2124     4295 
    3964     3063     1892     1925     4172     3121      936      738 
     549     3014     6717     6300     5432     4440     1329     2274 
    2195      129     5331     6304     3119     8822     8688     2616 
    5491     4158    -1340     2047     5286     4437     2311     1186 
    4326     3204     -311     2180     4407     4515     4523     5293 
    5962     3315     2822     2413    -1213     2185     6778     4112 
    3817     6405     7523     7326     4098     1934     1648      319 
     957     2550     3188     4124     3735     2722     2473     2278 
    4334     6943     4958     1136     1013     2195      772     2459 
    6430     3392     2255     7470     6700     3539     5146     6791 
    4777     2527     3622     2500     1570     3997     1529    -1111 
    2039     5784     6632     5003     5026     3541     -951      677 
    5289     6015     5864     3326      715     3416     4842     2177 
    2155     5119     4364     1202     1474     1605     1156     2276 
    3200     5675     6308     5294     6320     4575     2173     1582 
    3321     6853     3154      576     5593     4136      777     2767 
    4806     7577     5092     -959     1233     4302     3175     3014 
     760      268     4843     5643     4415     6795     8613     6670 
    3647     4126     5081     4988     5247     2185     2860     6674 
    3751     2887     3808      792     1414     2250     3123     8401 
    8567     2802     -442      700     2999     2355     1393     4023 
    6480     4916     1701     1975     6139     6971     3820     3032 
    2650     2470     3946     2408      554     2353     4430     3754 
    2049     4071     4842      517     2176     7283     3137      287 
    6983     7462      911     1688     4162     1139       90     3287 
    5116     3527     3018     4851     4662     3028     2782     2511 
    3041     6542     7353     5543     6141     2281    -2031     1641 
    3075     1621     4876     6867     4021     2401     2350     1570 
    2585     2566     2384     5293     3655     1756     6076     5413 
    2030     4772     4764      141     1084     4594     1333     -452 
    5714     7348     3079     2326     4857     7233     7074     6798 
    5973      936      140     3592     1848      787     3146     4704 
    5432     3774     3616     4179     2084     4997     7573     3874 
    3223     2821     1341     3412     3222     4905     9012     5497 
    3580     5112     1155      653     2069     1178     5184     7977 
    7692     5717      657     1576     4919     2571    -1034    -1070 
    5020     8970     5414     3437     3928     2610      958      126 
    1210     4982     6793     3501     4027     7056     2130      135 
    3177     1000     2288     5860     4719     5584     6007     3311 
    2133     1757     1453     2901     6345     6912     3069     3273 
    5171     1590     1825     6274     4552     3153     4546     1331 
    -841     1647     3750     2960     1714     4959     7465     6049 
    5549     3319     2451     4580     3184     3595     4735     2142 
    3531     5630     4263     2417     -465      -47     3595     4642 
    3990     4588     6165     5589     3198     3029     2974     1246 
    3203     4780     1155     2095     6042     3636     1269     2128 
    1655     3757     5617      576      818     6389     3234     2805 
    7280     3615     3738     7636     2905     1822     4488      774 
    1455     6552     5931     3339     1842     3423     6135     4004 
    3003     5065     6882     6786     1856     1861     6806     5043 
    2361     2207      795      411     2056     4876     5867     2953 
    3717     8758     4270     -737     5476     3492     -546     7974 
    6940     -927     2525     4726     2137     2821     1624     2128 
    8266     7549     3439     5526     4795     2913     4891     2722 
      89     2064     3450     3836     2608     -324     -321     2605 
    5017     5408     4121     3638     6181     6959     3900     3269 
    4039     5443     5949      915     1354     6758     4530     1198 
     673     1953     4145     1780     1679     5513     2843     -322 
    2733     1798      537     6237     5282      417     3861     5621 
    3041     5166     6770     2933     2377     4174     4321     5911 
    1895     -419     7446     7020      812     2479     3566     2037 
    3906     5678     2407     1981     5913     4676     4455     4652 
     862     3596     5952     3595     5852     5279      769     1321 
    3748     4677     5644     5701     4754     4274     1439    -1822 
