Origin Time       2024/04/02 04:24:00
Lat.              40.133
Long.             141.712
Depth. (km)       71
Mag.              6.0
Station Code      MYG017
Station Lat.      37.9760
Station Long.     140.7822
Station Height(m) 12
Record Time       2024/04/02 04:25:14
Sampling Freq(Hz) 100Hz
Duration Time(s)  135
Dir.              E-W
Scale Factor      7845(gal)/8223790
Max. Acc. (gal)   8.384
Last Correction   2024/04/02 04:25:13
Memo.             
[...]
    3460     3395     3343     3314     3361     3477     3609     3750 
    3919     4135     4375     4572     4672     4644     4534     4430 
    4351     4306     4352     4472     4594     4653     4631     4590 
    4614     4691     4768     4806     4754     4598     4386     4202 
    4104     4082     4108     4170     4218     4198     4151     4156 
    4245     4360     4444     4492     4467     4352     4251     4244 
    4317     4425     4525     4621     4722     4781     4757     4672 
    4544     4391     4266     4201     4167     4133     4117     4091 
    3998     3851     3716     3605     3539     3572     3694     3801 
    3788     3634     3420     3287     3333     3520     3723     3878 
    4006     4101     4166     4240     4305     4333     4367     4374 
    4266     4078     3906     3836     3933     4174     4477     4760 
    4947     5036     5071     5050     4972     4912     4901     4932 
    4995     5009     4936     4851     4811     4807     4815     4826 
    4847     4842     4766     4656     4550     4423     4256     4082 
    3964     3946     4009     4116     4240     4330     4344     4303 
    4199     3989     3720     3523     3457     3483     3558     3663 
    3758     3840     3946     4055     4126     4190     4261     4332 
    4448     4625     4776     4861     4928     4965     4896     4747 
    4594     4446     4305     4176     4029     3844     3697     3659 
    3680     3680     3686     3774     3923     4054     4117     4072 
    3927     3778     3708     3697     3739     3878     4117     4383 
    4617     4803     4897     4880     4810     4706     4527     4315 
    4147     4023     3906     3782     3699     3726     3832     3927 
    3959     3909     3797     3673     3564     3458     3342     3242 
    3167     3059     2909     2812     2829     2906     3010     3161 
    3326     3484     3670     3885     4068     4189     4288     4418 
    4552     4710     4945     5178     5298     5319     5277     5228 
    5263     5371     5451     5451     5364     5228     5100     4955 
    4758     4550     4410     4374     4406     4449     4477     4499 
    4569     4722     4892     5000     5050     5084     5121     5152 
    5188     5278     5412     5481     5428     5314     5232     5204 
    5184     5127     5020     4882     4776     4733     4719     4702 
    4668     4591     4453     4288     4162     4055     3896     3674 
    3453     3244     3038     2862     2733     2690     2782     2948 
    3046     3010     2863     2686     2583     2646     2839     3045 
    3246     3491     3769     4021     4220     4359     4445     4430 
    4268     4013     3775     3603     3488     3397     3304     3235 
    3235     3298     3412     3578     3748     3862     3921     3940 
    3902     3885     4023     4294     4552     4761     4934     5003 
    4973     4965     5015     5077     5140     5188     5179     5151 
    5190     5324     5478     5584     5622     5591     5535     5476 
    5368     5174     4928     4676     4472     4344     4225     4054 
    3873     3732     3645     3600     3569     3532     3481     3414 
    3354     3325     3364     3537     3828     4159     4449     4672 
    4851     4973     5007     5004     4980     4891     4774     4662 
    4514     4351     4243     4174     4095     4040     4060     4124 
    4156     4114     3983     3798     3639     3542     3483     3470 
    3531     3638     3746     3836     3885     3873     3831     3804 
    3788     3796     3888     4052     4252     4514     4788     4969 
    5059     5088     5065     5047     5062     5121     5252     5397 
    5501     5562     5530     5381     5139     4842     4561     4352 
    4163     3944     3719     3549     3465     3434     3457     3565 
    3720     3866     3975     3978     3859     3713     3572     3450 
    3423     3480     3543     3609     3711     3823     3916     4000 
    4050     4029     3983     3947     3894     3824     3761     3689 
    3593     3480     3370     3283     3208     3186     3284     3474 
    3661     3781     3804     3770     3726     3674     3659     3742 
    3924     4163     4395     4572     4688     4788     4899     4997 
    5081     5204     5385     5597     5798     5942     6027     6042 
    5985     5899     5796     5671     5557     5459     5359     5247 
    5098     4930     4773     4646     4577     4571     4596     4629 
    4627     4577     4540     4560     4604     4622     4633     4695 
    4803     4900     4942     4916     4843     4738     4633     4554 
    4472     4341     4158     3929     3677     3434     3208     3003 
    2820     2656     2531     2431     2350     2328     2349     2350 
    2327     2296     2266     2251     2261     2316     2416     2502 
    2519     2469     2404     2389     2465     2616     2805     3029 
    3307     3670     4090     4449     4675     4818     4924     5013 
    5135     5285     5405     5489     5555     5613     5687     5790 
    5919     6046     6119     6139     6108     6011     5887     5764 
    5636     5516     5414     5356     5382     5463     5512     5451 
    5251     4966     4695     4518     4464     4503     4568     4599 
    4611     4650     4695     4692     4649     4583     4513     4460 
    4403     4347     4326     4344     4361     4318     4206     4071 
    3923     3762     3642     3578     3515     3388     3188     2965 
    2767     2604     2478     2424     2502     2679     2813     2864 
    2871     2812     2708     2628     2628     2748     2933     3109 
    3271     3443     3653     3874     4023     4085     4131     4206 
    4306     4418     4567     4746     4864     4889     4884     4882 
    4878     4881     4880     4853     4830     4866     4970     5084 
    5105     4996     4846     4733     4608     4477     4444     4529 
    4676     4865     5050     5135     5093     4984     4847     4684 
    4531     4425     4342     4257     4167     4062     3974     3962 
    4040     4172     4313     4428     4476     4429     4317     4207 
    4116     3990     3794     3545     3319     3194     3183     3253 
    3389     3586     3840     4140     4471     4789     5043     5251 
    5467     5718     5975     6170     6286     6350     6330     6220 
    6124     6087     6056     6053     6103     6120     6006     5742 
    5382     4985     4623     4394     4311     4266     4185     4109 
    4060     4013     3985     3986     3966     3874     3731     3586 
    3446     3291     3113     2914     2700     2478     2284     2141 
    2050     1996     1946     1899     1868     1831     1773     1709 
    1633     1566     1572     1684     1837     1950     2037     2120 
    2172     2223     2350     2536     2706     2790     2763     2652 
    2532     2523     2687     2960     3269     3581     3851     4070 
    4275     4461     4634     4855     5123     5389     5679     6016 
    6323     6563     6777     6905     6858     6687     6523     6409 
    6339     6357     6474     6581     6600     6555     6462     6343 
    6285     6312     6354     6355     6339     6367     6469     6613 
    6751     6879     6993     7018     6891     6640     6331     6003 
    5694     5439     5251     5080     4876     4683     4569     4530 
    4480     4324     4082     3848     3658     3524     3456     3399 
    3271     3036     2772     2593     2494     2444     2463     2540 
    2650     2772     2847     2859     2882     2917     2868     2751 
    2698     2789     2990     3244     3476     3618     3727     3950 
    4291     4604     4779     4779     4595     4255     3862     3531 
    3287     3102     3002     3059     3265     3524     3802     4109 
    4398     4629     4818     4981     5146     5343     5572     5807 
    5969     6019     6056     6133     6145     6012     5757     5443 
    5127     4801     4402     3897     3318     2747     2278     1949 
    1775     1792     1972     2224     2430     2467     2299     1949 
    1406      718       48     -538    -1066    -1475    -1694    -1676 
   -1381     -842     -159      542     1134     1586     1972     2336 
    2664     2940     3190     3465     3790     4126     4442     4753 
    5070     5387     5721     6070     6322     6326     6011     5455 
    4884     4506     4401     4595     5055     5680     6367     7060 
    7715     8280     8702     8970     9104     9107     9018     8916 
    8807     8637     8440     8272     8077     7794     7504     7275 
    7137     7248     7751     8510     9215     9620     9633     9329 
    8916     8556     8213     7769     7198     6511     5767     5120 
    4693     4486     4450     4585     4950     5544     6231     6805 
    7113     7092     6739     6153     5557     5101     4750     4445 
    4171     3890     3565     3141     2462     1428      172    -1089 
   -2145    -2808    -3106    -3291    -3562    -3893    -4109    -4090 
   -3835    -3368    -2728    -2003    -1298     -727     -423     -454 
    -739    -1100    -1310    -1198     -750     -102      588     1229 
    1771     2134     2245     2155     2056     2157     2581     3384 
    4557     6037     7682     9215    10345    10983    11171    10995 
   10604    10092     9493     8864     8239     7569     6812     5961 
    5063     4205     3439     2755     2079     1378      770      500 
     780     1626     2849     4132     5182     5895     6318     6517 
    6555     6501     6453     6485     6567     6609     6524     6181 
    5485     4540     3619     3040     2932     3113     3346     3546 
    3659     3592     3291     2863     2602     2749     3373     4364 
    5359     5933     5958     5591     5073     4692     4672     5001 
    5514     6099     6760     7561     8563     9726    10801    11448 
   11448    10662     9119     7171     5281     3728     2627     2066 
    2111     2737     3817     5089     6165     6694     6501     5636 
    4502     3766     3775     4313     5054     5776     6280     6475 
    6396     6089     5659     5246     4936     4654     4201     3469 
    2494     1333       98    -1038    -1998    -2710    -2997    -2717 
   -1934     -770      722     2474     4203     5459     5995     5922 
    5445     4788     4191     3739     3354     2944     2494     2056 
    1648     1252      949      880     1096     1529     2062     2574 
    2987     3287     3538     3905     4579     5613     6828     7847 
    8286     8005     7138     5921     4629     3547     2870     2586 
    2474     2269     1856     1386     1208     1583     2489     3654 
    4760     5667     6453     7160     7746     8199     8513     8699 
    8756     8546     7971     7072     5879     4483     3172     2268 
    1937     2110     2501     2837     3021     3150     3438     3986 
    4688     5308     5629     5643     5516     5305     4909     4332 
    3747     3260     2843     2562     2585     2952     3519     4156 
    4803     5383     5854     6235     6532     6689     6617     6304 
    5821     5220     4548     3877     3223     2619     2219     2165 
    2413     2778     3049     3086     2878     2547     2200     1867 
    1534     1177      858      808     1220     2131     3464     4995 
    6369     7221     7400     7020     6270     5421     4845     4652 
    4542     4221     3681     3057     2373     1615      976      696 
     753      942     1156     1435     1764     2034     2258     2644 
    3406     4565     5925     7184     8050     8322     8046     7510 
    7024     6720     6581     6551     6575     6650     6832     7106 
    7329     7389     7339     7272     7209     7172     7172     7168 
    7180     7306     7627     8036     8217     7966     7375     6583 
    5603     4480     3380     2393     1462      533     -329    -1012 
   -1455    -1506     -923      287     1819     3322     4491     5140 
    5289     5143     5047     5319     6011     6880     7599     7952 
    7869     7400     6670     5740     4648     3570     2744     2288 
    2212     2380     2490     2312     1867     1385     1111     1150 
    1441     1852     2268     2644     3024     3422     3719     3712 
    3283     2548     1857     1532     1636     2027     2594     3356 
    4267     5077     5532     5557     5158     4365     3449     2891 
    2957     3460     3975     4114     3747     3057     2359     1950 
    2034     2539     3096     3334     3096     2511     1867     1435 
    1395     1787     2436     3226     4233     5378     6336     6941 
    7187     7009     6396     5522     4712     4278     4313     4661 
    5046     5236     5154     4851     4460     4056     3638     3294 
    3186     3329     3568     3750     3805     3720     3535     3438 
    3681     4305     5130     6041     6964     7668     7898     7631 
    7007     6157     5177     4218     3491     3096     3029     3235 
    3576     3962     4476     5167     6030     7080     8191     9063 
    9475     9358     8824     8186     7784     7830     8351     9167 
   10000    10659    11121    11385    11313    10675     9408     7784 
    6265     5217     4698     4492     4357     4116     3686     3150 
    2667     2361     2258     2273     2290     2209     1968     1522 
     832      -10     -815    -1440    -1790    -1810    -1601    -1393 
   -1394    -1710    -2355    -3229    -4068    -4553    -4488    -3836 
   -2716    -1366      -62      926     1449     1578     1490     1344 
    1289     1505     2068     2886     3838     4822     5665     6212 
    6396     6200     5744     5304     5065     5039     5188     5421 
    5583     5595     5562     5634     5911     6440     7214     8141 
    9046     9729    10039     9946     9560     9039     8502     8054 
    7678     7273     6883     6621     6447     6253     5957     5476 
    4803     4113     3663     3549     3685     3928     4145     4305 
    4444     4552     4583     4467     4174     3762     3318     2934 
    2673     2486     2211     1765     1281      972     1003     1424 
    2118     2902     3619     4041     4037     3751     3431     3238 
    3277     3600     4108     4672     5317     6096     6926     7636 
    8091     8244     8162     8020     7987     8063     8149     8156 
    8032     7839     7665     7437     7059     6509     5752     4777 
    3732     2907     2575     2781     3296     3773     3892     3534 
    2845     2058     1386      986      827      727      571      405 
     349      444      630      799      873      866      835      756 
     553      265       31      -52       52      369      900     1575 
    2236     2768     3210     3682     4221     4742     5101     5215 
    5121     4947     4801     4714     4723     4860     5044     5232 
    5474     5717     5827     5865     6092     6592     7153     7582 
    7834     7916     7928     8028     8256     8568     8916     9185 
    9238     9011     8442     7560     6535     5549     4747     4272 
    4257     4745     5578     6511     7373     8079     8577     8758 
    8500     7865     7107     6434     5903     5476     4990     4217 
    3025     1532       66    -1084    -1842    -2219    -2218    -1919 
   -1528    -1262    -1254    -1494    -1790    -1850    -1470     -665 
     341     1287     1977     2311     2320     2143     1910     1696 
    1534     1409     1310     1254     1343     1702     2232     2710 
    3086     3492     4043     4753     5566     6424     7310     8178 
    8880     9205     9005     8320     7317     6150     4963     3923 
    3130     2586     2305     2354     2685     3154     3717     4403 
    5231     6200     7284     8405     9405    10099    10426    10459 
   10308    10139    10099    10141    10137    10049     9830     9313 
    8345     6921     5167     3323     1696      591      174      314 
     658      989     1378     1885     2301     2377     2147     1865 
    1741     1814     2006     2199     2280     2239     2161     2012 
    1675     1205      855      868     1294     2007     2901     3931 
    4920     5678     6226     6644     6979     7306     7619     7851 
    7935     7807     7470     6939     6147     5150     4209     3538 
    3090     2791     2689     2700     2627     2423     2181     2023 
    2135     2677     3607     4737     5869     6847     7558     7893 
    7728     7053     6033     4930     3944     3133     2463     1867 
    1331     1005      988     1135     1310     1483     1611     1691 
    1779     1918     2138     2486     3010     3620     4113     4406 
    4540     4590     4729     5076     5464     5684     5755     5710 
    5444     4954     4434     4116     4132     4469     5027     5745 
    6569     7323     7851     8145     8241     8120     7794     7310 
    6691     5935     5088     4268     3595     3130     2890     2864 
    3046     3380     3765     4120     4363     4396     4174     3757 
    3231     2668     2155     1756     1514     1447     1494     1610 
    1815     2088     2344     2562     2779     2971     3056     3001 
    2866     2724     2605     2560     2648     2817     3001     3265 
    3693     4263     4924     5637     6258     6570     6538     6326 
    6061     5829     5725     5711     5636     5498     5474     5655 
    5960     6291     6588     6781     6841     6758     6470     5940 
    5225     4432     3647     2940     2377     2026     1929     2068 
    2334     2606     2863     3096     3246     3334     3431     3543 
    3647     3739     3820     3940     4182     4602     5163     5697 
    6021     6070     5819     5283     4610     3974     3456     3015 
    2570     2085     1591     1194     1051     1278     1921     2913 
    4023     4968     5530     5590     5213     4716     4434     4450 
    4622     4761     4742     4536     4288     4253     4584     5209 
    5940     6631     7163     7418     7391     7229     7060     6874 
    6669     6565     6646     6852     7075     7218     7217     7061 
    6782     6412     5945     5347     4618     3775     2875     2010 
    1236      619      305      382      815     1552     2532     3588 
    4509     5202     5651     5823     5728     5409     4926     4334 
    3673     2994     2362     1798     1302      936      735      623 
     446       86     -456    -1071    -1599    -1906    -1922    -1582 
    -854      118     1135     2096     2961     3709     4369     4961 
    5444     5755     5829     5679     5449     5323     5455     5904 
    6581     7307     7890     8176     8118     7777     7242     6637 
    6102     5670     5323     5086     4939     4780     4569     4378 
    4293     4348     4498     4692     4881     4997     5008     4977 
    5028     5270     5717     6319     6999     7647     8159     8494 
    8637     8586     8392     8114     7750     7222     6415     5331 
    4206     3339     2897     2855     3051     3261     3369     3410 
    3466     3546     3564     3443     3194     2863     2462     1993 
    1510     1074      729      483      313      263      419      789 
    1266     1719     2135     2600     3122     3615     4044     4433 
