Origin Time       2024/04/02 04:24:00
Lat.              40.133
Long.             141.712
Depth. (km)       71
Mag.              6.0
Station Code      MYG005
Station Lat.      38.7989
Station Long.     140.6512
Station Height(m) 304
Record Time       2024/04/02 04:25:06
Sampling Freq(Hz) 100Hz
Duration Time(s)  154
Dir.              U-D
Scale Factor      7845(gal)/8223790
Max. Acc. (gal)   3.744
Last Correction   2024/04/02 04:25:07
Memo.             
[...]
  -22432   -22185   -22312   -22893   -23201   -22874   -22727   -23198 
  -23657   -23668   -23326   -22954   -22967   -23282   -23299   -22816 
  -22264   -21953   -21759   -21744   -22072   -22351   -22122   -21644 
  -21444   -21622   -21969   -22326   -22567   -22470   -22015   -21770 
  -22292   -23055   -23107   -22638   -22427   -22397   -22171   -21978 
  -22064   -22212   -22222   -22119   -21949   -21811   -21875   -21992 
  -21864   -21652   -21559   -21436   -21397   -21579   -21582   -21343 
  -21420   -21810   -21976   -21822   -21614   -21629   -22002   -22431 
  -22485   -22114   -21655   -21683   -22354   -23014   -23078   -22744 
  -22520   -22520   -22507   -22485   -22639   -22736   -22577   -22573 
  -22890   -22972   -22682   -22603   -22781   -22774   -22828   -23122 
  -22994   -22522   -22609   -23058   -23041   -22630   -22314   -22212 
  -22253   -22427   -22767   -23075   -22998   -22735   -22855   -23202 
  -23236   -23075   -23055   -23056   -22993   -23036   -23078   -22959 
  -22923   -22877   -22387   -21755   -21494   -21535   -21805   -22083 
  -21740   -20889   -20476   -20800   -21232   -21343   -21311   -21276 
  -21189   -21228   -21489   -21667   -21593   -21458   -21404   -21393 
  -21354   -21315   -21411   -21617   -21708   -21686   -21791   -21919 
  -21716   -21259   -21024   -21130   -21254   -21317   -21358   -21201 
  -21119   -21618   -22326   -22586   -22403   -21910   -21389   -21415 
  -21938   -22372   -22576   -22806   -23241   -23683   -23612   -23159 
  -23199   -23733   -23892   -23761   -24016   -24416   -24351   -23903 
  -23588   -23618   -23689   -23450   -22940   -22719   -23172   -23672 
  -23579   -23334   -23284   -23039   -22619   -22534   -22782   -22937 
  -22781   -22353   -22018   -22222   -22824   -23294   -23332   -22994 
  -22632   -22577   -22824   -23117   -23086   -22677   -22419   -22684 
  -23161   -23434   -23394   -23152   -22948   -22756   -22280   -21690 
  -21567   -21921   -22131   -21905   -21578   -21509   -21645   -21795 
  -21844   -21625   -21238   -21174   -21471   -21728   -21938   -22081 
  -21911   -21730   -21926   -22200   -22202   -22040   -21855   -21671 
  -21575   -21598   -21587   -21485   -21433   -21500   -21546   -21402 
  -21163   -21146   -21335   -21367   -21271   -21390   -21602   -21460 
  -20972   -20664   -20738   -20845   -20934   -21153   -21296   -21394 
  -21693   -21976   -22106   -22293   -22441   -22462   -22608   -22808 
  -22810   -22666   -22404   -22225   -22532   -23010   -22962   -22626 
  -22665   -22914   -22931   -22742   -22458   -22231   -22318   -22455 
  -22180   -21681   -21489   -21883   -22605   -22906   -22539   -22094 
  -21944   -22114   -22707   -23369   -23449   -22963   -22563   -22704 
  -23236   -23747   -23866   -23406   -22736   -22558   -23022   -23654 
  -23913   -23576   -23017   -22896   -23274   -23461   -22925   -22140 
  -21876   -21963   -21825   -21633   -21755   -21925   -21841   -21818 
  -22189   -22678   -22819   -22569   -22265   -22171   -22192   -22281 
  -22561   -22781   -22697   -22632   -22721   -22748   -22785   -22855 
  -22782   -22685   -22842   -23236   -23504   -23396   -23072   -22755 
  -22569   -22604   -22693   -22538   -22169   -21875   -21722   -21456 
  -21084   -21108   -21581   -21762   -21497   -21516   -21924   -22068 
  -21988   -22302   -22896   -23186   -23113   -22963   -22885   -23013 
  -23244   -23071   -22581   -22572   -23016   -23045   -22472   -21844 
  -21539   -21597   -21756   -21585   -21173   -21147   -21594   -21944 
  -21883   -21556   -21265   -21155   -21099   -21089   -21232   -21324 
  -21257   -21309   -21524   -21633   -21639   -21779   -22111   -22418 
  -22380   -22009   -21813   -22048   -22242   -22096   -21979   -22092 
  -22229   -22324   -22442   -22439   -22149   -21890   -22245   -23047 
  -23488   -23345   -23036   -22910   -23186   -23680   -23784   -23375 
  -22905   -22655   -22717   -23087   -23441   -23402   -22998   -22576 
  -22342   -22226   -22145   -22216   -22532   -22852   -22843   -22584 
  -22454   -22476   -22320   -21965   -21753   -21834   -22018   -22068 
  -21994   -21984   -22033   -22157   -22476   -22639   -22381   -22293 
  -22719   -23045   -22908   -22829   -23188   -23610   -23738   -23688 
  -23427   -22844   -22303   -22180   -22320   -22395   -22210   -21710 
  -21250   -21440   -22108   -22320   -21816   -21304   -21312   -21598 
  -21714   -21686   -21809   -22025   -22075   -21892   -21563   -21412 
  -21670   -21903   -21832   -21847   -21946   -21811   -21724   -21944 
  -22323   -22673   -22526   -21747   -21196   -21390   -21861   -22199 
  -22208   -21930   -21871   -22108   -22189   -22279   -22684   -22913 
  -22716   -22708   -23079   -23264   -23051   -22647   -22234   -22102 
  -22268   -22269   -22019   -22017   -22416   -22752   -22778   -22850 
  -23178   -23542   -23836   -24019   -23846   -23361   -23010   -23148 
  -23753   -24182   -23747   -22850   -22459   -22789   -23292   -23313 
  -22783   -22397   -22462   -22401   -21968   -21641   -21620   -21600 
  -21431   -21192   -20974   -20857   -20787   -20664   -20572   -20603 
  -20659   -20656   -20692   -20931   -21458   -22061   -22270   -22081 
  -22050   -22389   -22846   -23107   -23029   -23028   -23386   -23599 
  -23553   -23626   -23622   -23341   -23033   -22700   -22241   -21911 
  -21987   -22341   -22462   -22133   -21795   -21743   -21739   -21668 
  -21730   -21960   -22083   -21968   -21790   -21683   -21771   -22119 
  -22383   -22283   -21879   -21203   -20657   -20821   -21282   -21269 
  -21095   -21420   -21875   -21926   -21924   -22108   -22275   -22509 
  -22732   -22631   -22443   -22419   -22318   -22049   -21814   -21833 
  -22119   -22242   -21872   -21330   -21120   -21338   -21628   -21699 
  -21789   -22158   -22636   -22940   -22864   -22558   -22522   -22798 
  -23128   -23518   -23797   -23839   -23893   -23881   -23733   -23811 
  -24019   -23917   -23599   -23311   -22890   -22265   -21868   -21872 
  -21834   -21594   -21319   -21014   -21000   -21618   -22434   -22883 
  -22843   -22534   -22611   -23359   -23994   -23955   -23827   -24036 
  -23957   -23310   -23017   -23450   -23557   -22848   -22327   -22553 
  -22690   -22275   -22091   -22535   -22724   -22072   -21366   -21308 
  -21309   -20834   -20522   -21010   -21951   -22671   -22669   -21932 
  -21300   -21508   -22262   -22939   -23197   -23037   -22847   -22882 
  -23032   -23089   -22920   -22821   -23020   -22873   -22152   -21690 
  -21629   -21402   -21213   -21385   -21462   -21189   -20903   -20852 
  -21178   -21747   -21990   -21925   -22065   -22311   -22424   -22424 
  -22187   -21882   -21837   -21945   -22019   -21928   -21629   -21648 
  -22184   -22287   -21551   -21070   -21490   -22108   -22288   -22073 
  -21604   -21114   -21020   -21315   -21562   -21627   -21730   -22154 
  -22932   -23550   -23452   -22782   -22281   -22455   -23075   -23581 
  -23622   -23195   -22698   -22582   -22800   -22959   -22866   -22702 
  -22802   -23261   -23769   -23836   -23314   -22762   -22941   -23720 
  -24071   -23635   -23305   -23664   -24270   -24475   -23861   -22801 
  -22270   -22262   -22202   -22326   -22574   -22303   -21868   -21964 
  -22188   -21940   -21400   -20918   -20653   -20787   -21066   -20860 
  -20279   -20036   -20302   -20696   -20861   -20819   -20883   -21190 
  -21478   -21433   -21359   -21709   -22111   -22214   -22399   -22646 
  -22441   -21797   -21204   -21099   -21402   -21695   -21984   -22307 
  -22185   -21687   -21667   -22161   -22233   -21847   -21820   -22071 
  -22065   -22027   -22229   -22523   -22846   -23114   -23151   -23103 
  -23201   -23133   -22654   -22403   -22962   -23753   -23907   -23400 
  -22750   -22395   -22566   -22978   -23071   -22854   -22705   -22875 
  -23511   -24077   -23649   -22538   -21938   -22057   -22285   -22512 
  -22940   -23259   -23183   -23039   -22916   -22385   -21475   -20860 
  -21174   -22179   -22685   -22196   -21581   -21529   -21903   -22434 
  -22886   -23176   -23507   -23940   -24266   -24316   -23997   -23479 
  -23364   -23843   -24229   -24209   -24216   -24156   -23575   -22796 
  -22349   -21968   -21288   -20634   -20451   -20452   -20051   -19310 
  -18871   -19207   -20164   -21045   -21467   -21775   -22225   -22775 
  -23504   -24140   -24142   -23749   -23658   -23847   -23704   -23140 
  -22781   -22955   -23280   -23109   -22117   -21070   -21123   -21953 
  -22365   -22131   -21591   -21022   -21034   -21735   -22144   -21687 
  -20983   -20885   -21717   -22982   -23580   -23163   -22729   -22974 
  -23426   -23652   -23630   -23318   -23067   -23291   -23460   -22935 
  -22126   -21728   -21813   -22018   -21952   -21660   -21517   -21583 
  -21837   -22243   -22431   -22503   -22975   -23539   -23743   -23784 
  -23653   -23275   -22939   -22682   -22392   -22164   -21857   -21354 
  -20904   -20580   -20304   -20177   -20160   -20140   -20244   -20640 
  -21128   -21328   -21531   -22324   -23194   -23226   -22550   -21905 
  -21883   -22422   -22628   -22227   -22086   -22515   -22779   -22426 
  -21807   -21369   -21224   -21483   -21975   -22091   -21860   -21802 
  -21705   -21357   -21212   -21292   -21327   -21631   -22192   -22345 
  -22156   -22249   -22549   -22877   -23398   -23691   -23298   -22759 
  -22692   -22925   -22951   -22572   -22045   -21548   -21234   -21327 
  -21388   -21045   -20938   -21242   -21236   -20873   -20726   -21023 
  -21602   -21938   -21741   -21686   -22297   -22945   -23067   -23091 
  -23430   -23812   -24116   -24673   -25230   -25004   -24185   -23770 
  -23903   -24038   -24034   -23716   -23008   -22620   -22763   -22528 
  -21709   -21227   -21641   -22474   -22767   -22330   -22150   -22850 
  -23649   -23619   -23013   -22769   -22964   -22812   -22250   -21942 
  -21986   -22030   -21903   -21668   -21681   -22106   -22469   -22342 
  -21902   -21397   -20807   -20358   -20409   -20768   -21035   -21169 
  -21103   -20738   -20306   -20171   -20406   -20659   -20576   -20394 
  -20614   -21251   -21810   -21865   -21571   -21582   -22195   -22862 
  -23051   -22886   -22767   -23035   -23608   -23722   -22914   -21991 
  -22052   -23075   -24038   -24147   -23602   -23089   -23018   -23448 
  -24050   -24186   -23838   -23807   -24220   -24078   -23012   -21919 
  -21551   -21767   -21995   -21783   -21327   -21251   -21505   -21537 
  -21394   -21296   -21143   -21186   -21702   -22295   -22617   -22754 
  -22704   -22716   -23276   -24027   -24208   -23942   -23654   -23368 
  -23180   -23107   -22887   -22547   -22223   -21936   -21963   -22408 
  -22939   -23330   -23514   -23645   -23939   -24210   -24416   -24759 
  -24900   -24553   -23965   -23236   -22518   -22304   -22589   -22860 
  -23048   -23310   -23307   -22854   -22534   -22659   -22758   -22513 
  -22198   -22032   -21879   -21762   -21832   -21775   -21338   -21031 
  -21244   -21606   -21894   -22148   -22021   -21541   -21315   -21220 
  -20899   -20736   -20719   -20425   -20270   -20742   -21510   -22038 
  -22072   -21791   -21521   -21213   -20818   -20478   -20096   -19647 
  -19502   -19765   -19975   -19835   -19641   -19820   -20279   -20632 
  -20877   -21254   -21701   -22090   -22478   -22869   -23110   -23083 
  -22870   -22667   -22511   -22524   -22864   -23043   -22639   -22346 
  -22709   -23211   -23535   -23697   -23292   -22470   -22266   -22844 
  -23170   -22677   -21743   -21122   -21487   -22464   -22885   -22520 
  -22071   -22006   -22389   -22987   -23550   -24008   -24216   -24108 
  -23958   -23938   -23872   -23774   -23951   -24187   -23951   -23616 
  -24009   -24718   -24576   -23697   -23271   -23522   -23637   -23368 
  -23197   -23382   -23718   -23832   -23440   -22617   -22026   -22347 
  -23056   -22797   -21667   -21185   -21633   -21853   -21479   -21224 
  -21324   -21296   -21095   -21220   -21631   -21820   -21825   -21926 
  -21899   -21590   -21369   -21419   -21554   -21745   -21924   -21915 
  -22046   -22519   -22643   -22210   -22172   -22837   -23307   -23263 
  -23137   -22839   -22350   -22198   -22095   -21328   -20347   -19915 
  -19820   -19753   -19916   -20089   -19831   -19556   -19650   -19687 
  -19531   -19419   -19288   -19269   -19418   -19336   -19271   -19873 
  -20727   -21200   -21489   -21797   -22127   -22526   -22719   -22611 
  -22640   -22935   -23193   -23333   -23398   -23422   -23496   -23577 
  -23581   -23364   -22735   -22046   -22000   -22619   -23209   -23355 
  -23326   -23483   -23796   -23965   -23778   -23448   -23334   -23537 
  -24019   -24551   -24788   -24746   -24568   -24321   -24232   -24262 
  -24050   -23784   -24106   -24954   -25512   -25543   -25609   -25768 
  -25621   -25402   -25447   -25348   -24787   -24277   -24355   -24683 
  -24524   -23669   -22661   -22292   -22690   -23195   -23298   -22943 
  -22269   -21690   -21524   -21612   -21817   -21968   -21639   -21101 
  -21031   -21057   -20640   -20405   -20953   -21666   -21809   -21735 
  -21963   -22246   -22256   -22019   -21620   -21255   -21197   -21415 
  -21587   -21539   -21416   -21338   -21035   -20183   -19098   -18584 
  -18852   -19352   -19770   -20301   -20831   -20961   -20825   -20976 
  -21463   -21860   -22149   -22546   -22846   -22982   -23199   -23237 
  -22951   -22978   -23436   -23496   -22885   -22230   -22006   -22196 
  -22580   -22804   -22507   -21613   -20602   -20237   -20556   -20649 
  -19915   -18974   -18856   -19526   -19880   -19295   -18446   -18387 
  -19302   -20487   -21181   -21051   -20503   -20474   -21267   -22207 
  -22815   -23103   -22928   -22419   -22396   -23274   -24385   -24846 
  -24503   -24013   -24193   -25066   -25786   -25829   -25486   -24904 
  -23998   -23198   -22985   -23253   -23730   -24162   -24260   -24025 
  -23792   -23828   -24117   -24486   -24821   -24880   -24381   -23665 
  -23332   -23450   -23930   -24403   -24035   -23032   -22833   -23753 
  -24445   -24194   -23770   -23726   -23656   -23286   -22765   -22233 
  -21933   -21887   -21586   -20854   -20231   -20170   -20574   -20885 
  -20723   -20407   -20232   -20098   -20231   -20727   -20865   -20187 
  -19365   -19313   -20047   -20645   -20457   -20002   -20086   -20634 
  -21115   -21378   -21462   -21369   -21361   -21691   -22134   -22293 
  -22311   -22578   -22836   -22702   -22346   -21855   -21442   -21493 
  -21470   -20875   -20530   -20893   -21120   -20787   -20636   -21112 
  -21633   -21767   -21724   -21687   -21930   -22572   -22994   -22869 
  -22848   -23465   -24406   -24997   -24942   -24583   -24391   -24447 
  -24578   -24613   -24413   -24125   -24136   -24305   -24155   -23826 
  -23633   -23611   -24013   -24788   -25050   -24468   -23900   -23816 
  -23793   -23610   -23387   -23144   -22792   -22225   -21666   -21564 
  -21833   -21921   -21570   -21023   -20668   -20691   -20991   -21336 
  -21421   -21263   -21355   -21579   -21305   -21011   -21504   -22302 
  -22565   -22202   -21628   -21401   -21639   -21782   -21394   -20807 
  -20664   -20992   -21120   -20779   -20494   -20440   -20183   -19773 
  -19855   -20599   -21319   -21396   -21051   -20733   -20478   -20268 
  -20245   -20336   -20403   -20642   -21170   -21705   -22104   -22384 
  -22404   -22329   -22488   -22748   -23056   -23568   -23901   -23750 
  -23680   -24047   -24314   -24205   -24152   -24200   -24019   -23942 
  -24252   -24293   -23708   -23233   -23311   -23469   -23492   -23695 
  -23988   -23953   -23623   -23392   -23491   -23874   -24268   -24322 
  -24078   -23988   -24246   -24484   -24209   -23423   -22782   -22797 
  -23206   -23471   -23373   -23099   -22968   -22901   -22566   -22081 
  -21856   -21969   -22264   -22588   -22701   -22559   -22474   -22678 
  -23178   -23652   -23518   -22898   -22702   -23141   -23400   -23094 
  -22771   -22789   -22871   -22797   -22743   -22987   -23215   -22775 
  -21891   -21352   -21259   -21199   -21061   -21035   -20945   -20282 
  -19341   -19107   -19543   -19678   -19272   -18793   -18509   -18492 
  -18728   -18935   -18921   -19068   -19568   -19901   -19804   -19565 
  -19279   -19041   -19205   -19646   -19786   -19577   -19539   -19980 
  -20646   -20945   -20652   -20304   -20398   -20844   -21497   -22191 
  -22663   -23037   -23472   -23777   -23981   -24348   -24750   -24848 
  -24929   -25386   -25643   -25355   -25400   -26007   -26142   -25520 
  -25099   -25369   -25702   -25551   -25184   -24973   -24916   -25058 
  -25357   -25377   -25170   -25463   -26107   -26206   -25810   -25558 
  -25393   -24950   -24414   -24104   -23707   -23095   -22974   -23421 
  -23603   -23433   -23283   -23072   -22928   -22879   -22446   -21741 
  -21320   -21211   -21271   -21392   -21423   -21397   -21251   -20969 
  -20799   -20629   -20478   -20858   -21404   -21312   -20919   -20833 
  -21099   -21564   -21703   -21190   -20652   -20700   -21197   -21778 
  -22037   -21837   -21620   -21666   -21699   -21400   -20702   -19962 
  -19764   -20181   -20576   -20316   -19650   -19377   -19541   -19526 
  -19365   -19570   -19962   -19905   -19465   -19427   -20016   -20564 
  -20645   -20483   -20474   -20717   -20781   -20379   -20004   -20183 
  -20574   -20578   -20491   -20862   -21421   -21736   -21811   -21797 
  -21921   -22145   -22073   -21836   -21965   -22366   -22669   -22929 
  -23217   -23360   -23333   -23403   -23777   -24228   -24368   -24209 
  -24174   -24557   -24899   -24645   -24410   -24804   -24988   -24360 
  -23760   -23661   -23533   -23411   -23734   -23988   -23603   -23109 
  -22920   -22778   -22893   -23503   -23893   -23638   -23434   -23761 
  -24154   -24198   -24098   -24051   -23899   -23562   -23298   -23233 
  -23112   -22793   -22432   -22268   -22542   -23049   -23141   -22752 
  -22462   -22481   -22528   -22578   -22837   -23107   -22978   -22503 
  -22140   -22199   -22584   -23041   -23272   -23020   -22634   -22634 
  -22627   -22154   -21647   -21385   -21085   -20844   -21058   -21466 
  -21502   -21363   -21388   -21361   -21309   -21505   -21918   -22476 
  -22914   -22850   -22553   -22499   -22523   -22518   -22756   -23005 
  -22771   -22360   -22430   -22952   -23407   -23468   -23022   -22314 
  -22033   -22262   -22030   -20953   -20119   -20286   -20781   -20979 
  -21093   -21288   -21463   -21595   -21733   -22018   -22422   -22581 
  -22434   -22399   -22650   -22900   -22887   -22665   -22505   -22492 
  -22318   -22009   -22090   -22488   -22515   -22126   -21829   -21672 
  -21654   -22129   -22779   -22887   -22597   -22443   -22566   -22657 
  -22214   -21492   -21224   -21374   -21539   -21528   -21247   -21061 
  -21195   -20997   -20289   -20000   -20544   -21122   -21026   -20529 
  -20252   -20332   -20613   -21084   -21559   -21672   -21674   -22071 
  -22557   -22702   -22642   -22354   -21786   -21388   -21432   -21578 
  -21532   -21467   -21577   -21640   -21429   -21208   -21301   -21743 
  -22459   -22954   -22692   -22297   -22489   -22923   -23508   -24317 
  -24579   -24106   -23730   -23603   -23317   -23159   -23533   -23907 
  -23723   -23350   -23107   -22998   -23333   -23908   -23893   -23299 
  -22914   -23186   -23935   -24521   -24410   -23776   -23302   -23411 
  -23755   -23800   -23426   -22713   -22079   -22100   -22449   -22468 
