Origin Time       2024/04/02 04:24:00
Lat.              40.133
Long.             141.712
Depth. (km)       71
Mag.              6.0
Station Code      MYG019
Station Lat.      38.7513
Station Long.     140.7226
Station Height(m) 144
Record Time       2024/04/02 04:25:07
Sampling Freq(Hz) 100Hz
Duration Time(s)  112
Dir.              E-W
Scale Factor      7845(gal)/8223790
Max. Acc. (gal)   9.839
Last Correction   2024/04/02 04:25:06
Memo.             
[...]
    -168      -56       31      164      261      313      305      -13 
    -535     -789     -784     -700     -477     -317     -473     -729 
    -990    -1489    -1969    -1869    -1325     -795     -337     -101 
    -314     -653     -880    -1182    -1418    -1391    -1335    -1232 
    -764     -163       76      -24     -251     -614     -992    -1061 
    -751     -299       81      357      618      849      927      719 
      66     -812    -1254    -1139     -957     -820     -637     -618 
    -805     -935     -946     -878     -641     -287     -140     -414 
    -861    -1185    -1494    -1692    -1395     -750     -167      318 
     653      530     -102     -837    -1278    -1368    -1121     -646 
    -336     -359     -494     -735    -1255    -1848    -2076    -1836 
   -1297     -669     -357     -542     -718     -430       78      480 
     805     1020      880      423      -74     -633    -1296    -1692 
   -1629    -1386    -1125     -811     -440      -44      182       71 
    -220     -507     -824    -1237    -1611    -1718    -1553    -1250 
    -849     -603     -824    -1347    -1748    -1761    -1347     -704 
     -95      252      211      -97     -368     -445     -438     -429 
    -473     -631     -625     -292       29      236      417      364 
      56     -345     -930    -1518    -1691    -1622    -1636    -1466 
   -1000     -703     -800    -1212    -1854    -2278    -1949     -897 
     380     1308     1582     1405     1135      819      297     -379 
    -997    -1386    -1246     -572      -25       72        6     -186 
    -454     -561     -553     -387      -76      -85     -503    -1063 
   -1849    -2708    -3038    -2727    -2077    -1192     -224      537 
    1042     1281     1138      824      622      319     -288     -984 
   -1513    -1748    -1587    -1070     -531     -351     -406     -378 
    -422     -669     -859     -936    -1089    -1286    -1367    -1391 
   -1409    -1144     -538       13      314      378      174     -109 
    -282     -457     -715     -904     -891     -739     -583     -468 
    -469     -627     -719     -560     -351     -318     -454     -745 
   -1190    -1640    -2060    -2525    -2736    -2297    -1375     -414 
     255      429      307      241       76     -353     -714     -789 
    -727     -618     -446     -324     -432     -712     -943    -1090 
   -1127     -851     -240      372      650      513       41     -554 
   -1007    -1263    -1499    -1707    -1718    -1560    -1266     -761 
    -251       16      160      183      -93     -445     -523     -423 
    -337     -272     -263     -271     -136       70       58     -287 
    -745     -936     -615      -43      230      118     -232     -853 
   -1402    -1479    -1277    -1028     -739     -507     -453     -610 
    -847    -1008    -1127    -1165     -949     -560     -284     -166 
      43      426      696      641      341     -159     -834    -1431 
   -1641    -1426    -1040     -770     -746     -962    -1220    -1345 
   -1374    -1262     -976     -750     -697     -625     -446     -297 
    -202      -37      148      198       72     -288     -878    -1437 
   -1705    -1626    -1209     -546       59      369      396       55 
    -665    -1351    -1737    -2030    -2219    -2045    -1606    -1154 
    -646      -59      459      920     1426     1748     1487      665 
    -342    -1269    -1872    -2020    -1987    -1844    -1343     -762 
    -449     -249     -268     -587     -653     -352     -209     -324 
    -589     -947    -1011     -688     -383     -153      120      230 
      83     -182     -589    -1167    -1691    -1980    -2020    -1749 
   -1248     -804     -454      -78      189      155     -195     -739 
   -1237    -1514    -1421     -923     -406     -176     -130     -309 
    -619     -562     -184       31      190      490      545      184 
    -221     -500     -687     -670     -531     -486     -417     -195 
    -109     -405     -877    -1135    -1061     -923    -1059    -1557 
   -2166    -2417    -2093    -1547    -1182     -909     -571     -390 
    -477     -649     -826     -837     -433      260      946     1339 
    1212      739      167     -573    -1317    -1579    -1255     -691 
    -155      222      216     -199     -715    -1251    -1842    -2131 
   -1746     -897     -236      -94     -271     -622    -1020    -1100 
    -819     -589     -653     -822     -841     -820     -889     -870 
    -757     -669     -502     -298     -226     -236     -301     -449 
    -503     -427     -557     -886     -984     -869     -838     -803 
    -720     -751     -770     -633     -454     -179      201      332 
     151      -62     -267     -446     -465     -437     -514     -522 
    -319     -236     -607    -1115    -1267    -1053     -654     -226 
       4     -101     -552    -1236    -1807    -2010    -1825    -1237 
    -571     -386     -666    -1053    -1343    -1260     -606      306 
     930      974      498     -117     -367     -143      137       62 
    -395    -1044    -1574    -1595    -1161     -723     -576     -781 
   -1109    -1240    -1232    -1198    -1031     -778     -603     -591 
    -818    -1244    -1576    -1506    -1088     -626     -191      291 
     606      656      788     1038     1004      569      -44     -680 
   -1247    -1464    -1090     -448     -120     -282     -772    -1399 
   -1852    -1876    -1718    -1641    -1359     -729     -206      -68 
    -202     -666    -1350    -1664    -1431     -932     -245      356 
     477      326      144     -156     -484     -789    -1179    -1518 
   -1501    -1007     -383     -136     -261     -427     -633     -974 
   -1148     -901     -494     -240     -282     -734    -1409    -1888 
   -1879    -1278     -353      402      855     1136     1084      545 
    -141     -602     -918    -1256    -1495    -1498    -1381    -1293 
   -1209    -1086     -990     -963     -903     -588      -12      426 
     472      302       17     -414     -776     -820     -734     -878 
   -1217    -1541    -1746    -1568     -849      124      936     1281 
    1140      777      229     -576    -1433    -2027    -2069    -1548 
    -729      288     1151     1209      504     -426    -1194    -1433 
   -1117     -826    -1057    -1593    -1760    -1341     -792     -418 
    -307     -603     -993    -1055     -835     -388      130      216 
    -391    -1294    -1723    -1351     -672     -237     -237     -680 
   -1144    -1247    -1229    -1165     -827     -457     -247      105 
     503      405     -113     -449     -384     -174      -78     -189 
    -488     -900    -1233    -1329    -1274    -1069     -558      -60 
     -14     -201     -283     -286     -189     -118     -477    -1151 
   -1561    -1695    -1904    -2008    -1669    -1102     -576       18 
     626      957     1080      963      193     -989    -1763    -1873 
   -1583    -1125     -707     -585     -823    -1120    -1285    -1453 
   -1479     -988     -164      425      550      271     -305     -943 
   -1229     -953     -500     -364     -473     -476     -361     -360 
    -360     -247     -307     -494     -526     -625     -895    -1096 
   -1297    -1588    -1636    -1192     -540     -129      -33     -170 
    -413     -283      421     1163     1405      955      -21     -927 
   -1294    -1244    -1105    -1042    -1085    -1075     -828     -537 
    -587     -982    -1232     -982     -571     -519     -793    -1036 
    -978     -581     -264     -380     -596     -652     -687     -568 
    -328     -392     -706    -1005    -1431    -1925    -2023    -1510 
    -548      607     1497     1541      637     -734    -1977    -2668 
   -2716    -2219    -1325     -432      117      398      446      301 
     464     1067     1395     1111      521     -243     -969    -1281 
   -1270    -1221    -1096     -824     -704    -1021    -1270     -831 
    -260     -325     -766    -1167    -1439    -1448    -1232     -895 
    -417     -144     -454    -1104    -1719    -2141    -2034    -1304 
    -463      267      992     1277      835       81     -687    -1235 
   -1186     -726     -481     -641     -977    -1409    -1798    -1640 
    -804       24      427      699      801      481      -20     -568 
   -1115    -1273    -1028     -735     -446     -148       82      274 
     344       79     -500    -1269    -2058    -2436    -2093    -1410 
    -934     -691     -631     -918    -1318    -1533    -1792    -2068 
   -1856    -1182     -560     -198      -52     -113     -336     -598 
    -711     -502      -24      355      363      168      -32     -326 
    -693     -961    -1132    -1323    -1497    -1414     -949     -375 
     -78     -187     -596     -982    -1120    -1212    -1480    -1764 
   -1794    -1526    -1151     -796     -317      264      715     1070 
    1201      742       68     -166     -180     -270     -162       60 
     120      124      -49     -745    -1633    -1902    -1424     -884 
    -645     -533     -454     -429     -483     -720    -1179    -1609 
   -1580    -1051     -390      218      693      865      920     1011 
     634     -392    -1290    -1568    -1543    -1436    -1281    -1170 
   -1017     -764     -621     -535     -180      357      792      992 
     718      -49     -828    -1320    -1651    -1733    -1321     -656 
    -202       18      205      333      175     -329     -865    -1271 
   -1664    -1934    -1972    -1972    -1946    -1772    -1638    -1644 
   -1597    -1431    -1121     -569       87      475      483      325 
      -9     -612    -1144    -1200     -791     -120      552      769 
     332     -356     -785     -706     -174      410      646      477 
     106     -232     -407     -510     -795    -1256    -1669    -2155 
   -2826    -3294    -3242    -2725    -1665     -128     1248     1952 
    2030     1463      209    -1196    -2107    -2268    -1706     -862 
    -328     -233     -418     -837    -1290    -1336     -870     -191 
     415      608      125     -702    -1264    -1328     -945     -201 
     673     1254     1151      430     -406    -1088    -1630    -1930 
   -1842    -1239     -356       21     -373    -1013    -1634    -2164 
   -2247    -1962    -1733    -1394     -719      -17      606     1333 
    1993     2162     1598      418     -897    -1702    -1732    -1374 
    -939     -383       54       95     -195     -715    -1296    -1852 
   -2467    -2899    -2798    -2170    -1220     -238      541      955 
     706     -217    -1260    -1841    -1825    -1516    -1217    -1134 
   -1591    -2502    -3227    -3466    -3198    -2281    -1100     -214 
     531     1233     1452     1247     1078      830      311     -205 
    -781    -1516    -1777    -1325     -803     -429       59      396 
     356      506     1075     1478     1597     1779     1915     1914 
    1921     1737     1132      303     -519    -1264    -1844    -2309 
   -2852    -3414    -3707    -3681    -3472    -2874    -1784     -859 
    -514     -297     -139     -390     -681     -666     -627     -508 
     -62      305      189     -147     -419     -557     -151     1030 
    2316     3129     3667     3843     3046     1252     -866    -2733 
   -3913    -4126    -3654    -2976    -2187    -1200     -306        6 
    -226     -665    -1166    -1389     -859      184     1066     1628 
    1869     1501      681       13     -294     -303     -193     -479 
   -1393    -2439    -2828    -1923      207     2494     3726     3406 
    1799     -302    -2224    -3742    -4691    -5112    -5470    -5865 
   -5788    -5015    -3721    -1921       63     1255     1128      191 
    -904    -1710    -1713     -746      791     2338     3392     3697 
    3441     2781     1529     -124    -1598    -2716    -3411    -3487 
   -3211    -3100    -3339    -3910    -4654    -4996    -4118    -1615 
    2130     5957     8236     7928     5467     1976    -1433    -3488 
   -3670    -2616     -891      851     1354      182    -1634    -3169 
   -4155    -4386    -4178    -4185    -4082    -3113    -1252     1039 
    3011     3789     3264     2108      745     -567    -1193     -988 
    -599     -301      -10      140      390     1235     2381     2845 
    1935     -311    -3149    -5444    -6291    -5462    -3507    -1395 
    -117     -221    -1108    -1502     -666     1273     3406     4633 
    4625     3712     2357      765    -1358    -3944    -6100    -7393 
   -7933    -7325    -5428    -3040     -872      822     1899     2320 
    2255     2178     2473     2986     3339     3244     2717     2235 
    2026     1837     1591     1131     -110    -2100    -3836    -4603 
   -4687    -4662    -4718    -4770    -4791    -4540    -3624    -2214 
    -766      657     1996     2902     3211     3010     2376     1421 
     382     -453     -854    -1001    -1397    -2151    -3036    -3786 
   -3939    -3338    -2293     -622     2057     5124     7233     7376 
    5212      993    -3869    -7241    -8167    -7096    -4649    -1583 
     957     2039     1509      -78    -1563    -1663     -372     1108 
    1900     1618      473     -446     -487      -35      452      861 
    1223     1497     1645     1642     1120        2    -1213    -2558 
   -4191    -5547    -6417    -6949    -6407    -4041     -238     3836 
    6501     6282     3291    -1020    -5294    -8610   -10168    -9564 
   -6875    -2435     2808     7299     9702     9321     6589     3028 
    -151    -2469    -3600    -3665    -3312    -3150    -3358    -3550 
   -3161    -1903      299     3141     5610     6837     6669     4908 
    1769    -1497    -3910    -5167    -5158    -4394    -3624    -3113 
   -2717    -2101    -1166     -237      368      479      -48    -1071 
   -2107    -2627    -2108     -396     1826     3685     4708     4480 
    2898      765    -1023    -2392    -3454    -4071    -4522    -5378 
   -6340    -6296    -4866    -2698      -85     2813     4824     4787 
    2737     -565    -3792    -5158    -3869    -1013     1528     2679 
    2355      735    -1564    -3516    -4723    -5143    -4342    -2416 
    -274     1382     2238     2173     1489      616     -121     -241 
     792     2830     4803     5509     4336     1705    -1100    -3119 
   -4203    -4486    -4230    -3866    -3646    -3549    -3573    -3643 
   -3262    -1903      236     2404     4001     4546     3811     2419 
    1375     1193     1615     1692      691    -1132    -2818    -3287 
   -2357    -1179     -801    -1316    -2539    -3987    -4716    -4137 
   -2374       71     2363     3715     4099     3846     3119     2189 
    1279      361     -491    -1306    -2300    -3180    -3419    -3125 
   -2704    -2367    -2365    -2839    -3438    -3600    -2933    -1478 
     224     1363     1352      495     -341     -673     -352      418 
    1073     1537     2052     2359     2380     2621     3029     2880 
    1941      465    -1251    -2675    -3388    -3632    -3888    -4351 
   -4827    -4495    -2176     2095     6297     8320     7504     3985 
   -1084    -5240    -7025    -6963    -5813    -4191    -2926    -2164 
   -1327     -186      842     1144      243    -1876    -4356    -5915 
   -5710    -3488      318     4317     6647     6385     4240     1497 
    -899    -2365    -3005    -3492    -4201    -4849    -4820    -3981 
   -3057    -2614    -2651    -3117    -3399    -2401      -18     2641 
    4364     4320     2420     -240    -2061    -2266    -1239      279 
    1613     1930      837    -1020    -2824    -4091    -4171    -2768 
    -444     2249     4750     5957     5300     3478     1476      -81 
    -681     -267      648     1644     2300     2219     1399     -261 
   -2528    -4452    -5728    -6706    -7195    -6794    -5664    -4028 
   -1953       51     1219     1225      503     -274     -815     -749 
      79     1032     1918     3013     3636     2994     1561      298 
    -233       40      661     1297     1960     2353     2326     2157 
    1633      414    -1219    -2920    -4445    -5381    -5298    -4005 
   -2025     -394      391      265     -931    -2790    -4414    -5422 
   -5763    -5329    -4236    -2752    -1044      780     2401     3279 
    3125     2189      967     -224    -1316    -2222    -2683    -2670 
   -2543    -2373    -1846    -1030     -176      627     1051     1019 
     878      483     -384    -1223    -1417     -562     1426     3732 
    4915     4056     1394    -1929    -4560    -5594    -4912    -3091 
    -940      761     1412      931     -143    -1030    -1104     -108 
    1512     2705     2704     1386     -845    -2917    -3788    -3461 
   -2647    -1842    -1128     -618     -507     -504     -120      529 
     969      981      511     -706    -2546    -3667    -3003    -1425 
    -144      588      387    -1096    -3090    -4433    -4644    -3682 
   -1607     1048     3298     4321     3875     2377      351    -1799 
   -3410    -4012    -3693    -2639    -1116      411     1483     1848 
    1501      675     -118     -360       10      409       24    -1244 
   -2620    -3260    -2602     -676     1337     2012     1044    -1032 
   -3262    -4550    -4776    -4396    -3350    -1877     -592      427 
     999      838      683     1356     2633     4113     5471     5880 
    4652     2160     -527    -2681    -4083    -4503    -3981    -3063 
   -2139    -1509    -1483    -1755    -1775    -1489    -1071     -473 
     332      886      931      791      477      186      723     1934 
    2736     2898     2928     2839     2243     1071     -471    -1968 
   -2501    -1601     -272      225     -484    -2293    -4546    -6269 
   -7107    -7083    -6073    -4383    -2771    -1669    -1304    -1769 
   -2292    -1773       24     2798     5707     7099     6143     3639 
     287    -3570    -6673    -7697    -6743    -4735    -2448     -606 
     126      -76      -49     1161     3306     5359     6299     5606 
    3805     2106     1163      727      318     -311    -1283    -2492 
   -3416    -3739    -3588    -3019    -2201    -1529    -1004     -430 
     -81     -336    -1032    -1521    -1402    -1158    -1448    -2172 
   -2770    -2616    -1360      467     1830     2124     1437      324 
    -573    -1026    -1143     -799       74      855      877       99 
   -1061    -2088    -2502    -1891     -606      333      611      488 
     152      -99     -291     -703    -1136    -1494    -2138    -2818 
   -2940    -2722    -2340    -1564    -1121    -1772    -2528    -2222 
   -1262     -359      467     1179     1838     2747     3539     3427 
    2212      390    -1021    -1198     -382      812     2097     2909 
    2347      384    -1777    -3300    -4274    -4421    -3484    -2416 
   -1957    -1389     -360      228      180      -74    -1040    -2555 
   -3026    -2115     -920      251     1464     2000     1205     -629 
   -2556    -3609    -3252    -1545      639     1831     1507      753 
     406     -117    -1452    -3249    -4527    -3996    -1332     1707 
    3258     3180     2045      390     -958    -1597    -2120    -3118 
   -4444    -5363    -4896    -2978     -804      799     1564     1063 
    -297    -1355    -1672    -1441     -796      118     1142     2292 
