Origin Time       2024/04/02 04:24:00
Lat.              40.133
Long.             141.712
Depth. (km)       71
Mag.              6.0
Station Code      MYG009
Station Lat.      38.4466
Station Long.     140.8871
Station Height(m) 29
Record Time       2024/04/02 04:25:29
Sampling Freq(Hz) 100Hz
Duration Time(s)  90
Dir.              U-D
Scale Factor      7845(gal)/8223790
Max. Acc. (gal)   2.532
Last Correction   2024/04/02 04:25:28
Memo.             
[...]
  -40032   -40058   -40127   -40116   -40080   -40080   -40254   -40554 
  -40695   -40570   -40439   -40545   -40594   -40366   -40375   -40682 
  -40628   -40355   -40383   -40466   -40392   -40390   -40501   -40578 
  -40591   -40454   -40188   -40089   -40090   -40011   -40073   -40186 
  -40185   -40231   -40225   -40100   -40004   -39972   -40000   -40018 
  -40099   -40431   -40749   -40711   -40475   -40413   -40501   -40401 
  -40316   -40497   -40468   -40275   -40369   -40343   -40096   -40176 
  -40294   -40103   -40080   -40327   -40558   -40730   -40639   -40352 
  -40385   -40618   -40616   -40694   -41083   -41152   -40830   -40732 
  -40780   -40761   -40597   -40231   -40190   -40446   -40420   -40424 
  -40626   -40598   -40420   -40346   -40315   -40236   -40113   -40173 
  -40404   -40398   -40278   -40439   -40656   -40714   -40740   -40713 
  -40662   -40782   -41050   -41085   -40666   -40383   -40647   -40770 
  -40537   -40563   -40709   -40636   -40599   -40477   -40286   -40505 
  -40790   -40667   -40369   -40143   -40177   -40312   -40289   -40409 
  -40666   -40676   -40652   -40826   -40868   -40702   -40671   -40671 
  -40490   -40327   -40171   -40014   -40007   -39982   -39926   -40016 
  -40188   -40248   -40126   -40115   -40203   -40004   -39831   -39981 
  -40126   -40155   -40170   -40390   -40734   -40601   -40293   -40494 
  -40635   -40406   -40443   -40656   -40599   -40455   -40385   -40296 
  -40171   -39981   -39854   -39960   -40031   -39912   -39935   -40142 
  -40205   -40224   -40444   -40593   -40595   -40691   -40663   -40593 
  -40892   -41108   -40929   -40878   -40972   -40853   -40717   -40834 
  -40865   -40598   -40450   -40313   -39941   -39803   -39845   -39772 
  -39845   -39904   -39870   -40038   -40119   -40019   -40096   -40194 
  -40212   -40444   -40716   -40695   -40666   -40807   -40836   -40744 
  -40821   -41064   -41133   -40946   -40932   -41130   -41021   -40752 
  -40772   -40632   -40209   -40221   -40572   -40644   -40446   -40367 
  -40551   -40621   -40474   -40475   -40560   -40668   -40869   -40845 
  -40694   -40687   -40547   -40379   -40405   -40255   -40123   -40404 
  -40572   -40382   -40265   -40209   -40096   -40163   -40269   -40286 
  -40452   -40495   -40265   -40186   -40207   -40166   -40332   -40586 
  -40581   -40467   -40556   -40733   -40597   -40348   -40599   -40882 
  -40574   -40362   -40431   -40046   -39575   -39692   -39906   -39812 
  -39823   -40050   -40174   -40201   -40293   -40327   -40153   -39981 
  -40140   -40494   -40579   -40377   -40406   -40749   -40784   -40490 
  -40479   -40591   -40466   -40474   -40570   -40348   -40201   -40378 
  -40599   -40740   -40594   -40528   -40871   -40760   -40284   -40296 
  -40263   -40014   -40149   -40383   -40451   -40543   -40609   -40635 
  -40625   -40702   -40949   -40941   -40683   -40622   -40633   -40589 
  -40560   -40473   -40486   -40660   -40660   -40452   -40319   -40374 
  -40582   -40645   -40342   -40068   -40169   -40383   -40482   -40482 
  -40347   -40224   -40356   -40545   -40482   -40367   -40540   -40666 
  -40308   -40035   -40242   -40309   -40246   -40401   -40342   -40147 
  -40362   -40589   -40410   -40290   -40416   -40338   -40169   -40301 
  -40514   -40632   -40724   -40734   -40664   -40493   -40215   -40047 
  -40161   -40328   -40231   -40188   -40549   -40648   -40263   -40266 
  -40549   -40450   -40316   -40405   -40468   -40455   -40441   -40506 
  -40495   -40408   -40509   -40637   -40653   -40639   -40502   -40437 
  -40520   -40463   -40425   -40504   -40440   -40402   -40481   -40471 
  -40554   -40760   -40852   -40887   -40751   -40489   -40587   -40784 
  -40664   -40495   -40302   -40095   -40063   -40026   -40009   -40070 
  -40053   -40117   -40162   -40043   -40116   -40293   -40243   -40254 
  -40521   -40667   -40563   -40601   -40705   -40555   -40518   -40709 
  -40555   -40342   -40643   -40775   -40491   -40500   -40487   -40173 
  -40325   -40849   -40990   -40868   -40733   -40541   -40489   -40532 
  -40443   -40397   -40362   -40139   -40066   -40254   -40216   -40086 
  -40190   -40101   -39947   -40220   -40331   -39991   -40007   -40532 
  -40828   -40666   -40525   -40653   -40775   -40753   -40783   -40895 
  -40906   -40836   -40909   -40930   -40632   -40517   -40718   -40563 
  -40235   -40294   -40447   -40419   -40348   -40329   -40285   -40115 
  -40053   -40207   -40285   -40252   -40246   -40281   -40351   -40385 
  -40327   -40265   -40306   -40362   -40312   -40293   -40290   -40188 
  -40227   -40329   -40162   -40078   -40215   -40146   -40072   -40293 
  -40456   -40363   -40282   -40383   -40460   -40316   -40165   -40285 
  -40551   -40674   -40680   -40695   -40666   -40755   -40894   -40659 
  -40390   -40502   -40544   -40392   -40386   -40485   -40502   -40386 
  -40325   -40474   -40582   -40608   -40656   -40501   -40302   -40406 
  -40549   -40477   -40374   -40410   -40451   -40444   -40587   -40695 
  -40578   -40533   -40531   -40435   -40383   -40257   -40213   -40493 
  -40626   -40570   -40655   -40560   -40387   -40463   -40373   -40204 
  -40312   -40365   -40321   -40340   -40269   -40284   -40598   -40806 
  -40693   -40732   -40922   -40764   -40491   -40451   -40362   -40235 
  -40313   -40419   -40419   -40462   -40633   -40721   -40540   -40412 
  -40444   -40367   -40424   -40648   -40628   -40590   -40687   -40558 
  -40379   -40371   -40239   -40123   -40365   -40612   -40560   -40602 
  -40799   -40717   -40682   -41004   -40983   -40711   -40891   -41035 
  -40798   -40635   -40563   -40522   -40558   -40551   -40479   -40236 
  -39968   -40146   -40464   -40342   -40100   -40143   -40192   -39988 
  -39688   -39532   -39602   -39826   -40117   -40423   -40563   -40500 
  -40450   -40409   -40352   -40529   -40714   -40459   -40163   -40163 
  -40095   -39960   -39965   -39985   -40005   -40045   -40109   -40251 
  -40263   -40074   -39949   -39791   -39580   -39846   -40333   -40338 
  -40247   -40371   -40320   -40235   -40308   -40185   -39896   -39826 
  -39835   -39708   -39711   -39784   -39696   -39827   -40058   -39792 
  -39488   -39644   -39773   -39757   -39931   -40140   -40188   -40319 
  -40522   -40432   -40292   -40437   -40448   -40235   -40236   -40328 
  -40286   -40373   -40626   -40841   -41000   -41062   -41071   -41245 
  -41418   -41326   -41235   -41351   -41424   -41436   -41519   -41544 
  -41567   -41720   -41806   -41725   -41642   -41530   -41422   -41440 
  -41233   -40861   -40913   -41168   -41141   -40983   -40945   -41037 
  -41125   -41187   -41310   -41284   -41026   -40991   -41085   -40861 
  -40720   -40747   -40459   -40215   -40300   -40290   -40090   -40014 
  -40147   -40072   -39658   -39615   -40069   -40225   -40057   -40076 
  -40041   -39711   -39445   -39488   -39771   -39987   -39953   -39868 
  -39843   -39845   -39841   -39822   -39949   -40113   -39996   -39924 
  -40173   -40346   -40423   -40545   -40500   -40428   -40521   -40622 
  -40716   -40756   -40710   -40603   -40387   -40393   -40608   -40333 
  -39943   -40185   -40352   -40024   -39842   -39735   -39522   -39613 
  -39760   -39588   -39459   -39571   -39717   -39826   -39907   -39969 
  -40289   -40768   -40822   -40587   -40518   -40552   -40698   -40963 
  -41094   -41122   -41305   -41554   -41440   -40960   -40574   -40381 
  -40317   -40417   -40570   -40788   -40937   -40829   -40618   -40333 
  -40095   -40027   -40022   -40135   -40197   -40117   -40181   -40270 
  -40244   -40231   -40321   -40695   -41080   -41108   -41081   -41075 
  -40944   -40888   -40884   -40837   -40826   -40822   -40837   -40813 
  -40643   -40452   -40325   -40236   -40221   -40321   -40494   -40535 
  -40420   -40595   -40917   -40541   -39919   -40009   -40166   -39904 
  -39908   -40213   -40242   -40100   -40265   -40468   -40279   -40153 
  -40288   -40176   -39852   -39838   -40215   -40477   -40362   -40401 
  -40663   -40532   -40248   -40329   -40437   -40371   -40433   -40587 
  -40533   -40351   -40321   -40343   -40196   -39984   -39954   -40155 
  -40327   -40228   -39943   -39777   -39826   -39771   -39563   -39637 
  -39958   -40221   -40447   -40549   -40529   -40707   -40940   -40821 
  -40537   -40533   -40873   -41142   -41015   -40938   -41180   -41238 
  -41045   -40810   -40548   -40544   -40608   -40331   -40051   -39884 
  -39733   -39829   -39957   -39933   -40046   -40277   -40370   -40263 
  -40254   -40516   -40614   -40586   -40861   -41126   -41149   -41254 
  -41374   -41184   -40975   -41083   -41141   -40941   -40803   -40906 
  -41049   -40821   -40274   -40085   -40387   -40554   -40397   -40274 
  -40324   -40441   -40520   -40591   -40612   -40489   -40614   -40942 
  -40882   -40833   -41062   -40930   -40583   -40510   -40608   -40875 
  -41273   -41453   -41233   -40824   -40595   -40494   -40297   -40251 
  -40311   -40228   -40305   -40495   -40432   -40432   -40805   -41061 
  -40917   -40837   -40932   -40918   -41002   -41242   -41108   -40571 
  -40146   -39760   -39187   -38981   -39351   -39569   -39533   -39704 
  -39899   -40009   -40294   -40444   -40181   -40057   -40331   -40417 
  -40134   -40030   -40201   -40147   -39825   -39560   -39267   -38855 
  -38622   -38665   -38750   -38929   -39511   -40232   -40547   -40768 
  -41324   -41661   -41447   -41115   -40799   -40409   -40155   -40259 
  -40531   -40474   -40228   -40423   -40699   -40505   -40455   -40714 
  -40595   -40294   -40258   -40244   -40194   -40200   -40063   -39784 
  -39610   -39568   -39555   -39714   -40205   -40764   -41073   -41291 
  -41493   -41532   -41586   -41697   -41723   -41746   -41554   -41103 
  -40802   -40473   -39887   -39433   -39336   -39421   -39599   -40144 
  -41006   -41492   -41482   -41585   -41922   -41980   -41625   -41355 
  -41206   -40655   -40069   -40158   -40363   -40134   -40095   -40448 
  -40436   -39901   -39529   -39285   -38666   -38213   -38522   -39113 
  -39583   -40089   -40644   -41112   -41341   -41088   -40594   -40370 
  -40379   -40464   -40787   -41296   -41445   -41102   -40942   -40919 
  -40423   -40104   -40428   -40360   -39752   -39540   -39591   -39487 
  -39487   -39510   -39483   -39634   -39731   -39658   -39744   -40092 
  -40431   -40439   -40405   -40803   -41285   -41561   -41871   -42003 
  -41655   -41246   -41133   -41061   -40988   -41158   -41256   -41010 
  -41103   -41839   -42175   -41508   -40582   -39930   -39598   -39934 
  -40799   -41253   -40967   -40672   -40625   -40181   -39352   -39093 
  -39622   -40073   -40281   -40875   -41505   -41397   -40795   -40400 
  -40234   -39930   -39780   -40015   -40038   -40057   -40797   -41515 
  -41677   -41999   -42175   -41592   -40833   -40255   -39881   -39657 
  -39191   -38901   -39156   -39266   -39356   -39814   -39974   -39731 
  -39559   -39430   -39391   -39564   -39814   -40130   -40528   -40842 
  -41004   -41045   -40995   -40822   -40435   -40084   -40149   -40498 
  -40748   -40668   -40284   -39970   -39989   -40153   -40134   -39926 
  -40027   -40479   -40597   -40351   -40250   -40383   -40707   -40959 
  -40770   -40506   -40444   -40238   -40023   -40082   -40134   -39892 
  -39471   -39264   -39226   -39194   -39694   -40653   -41112   -40998 
  -40903   -40706   -40167   -39619   -39461   -39892   -40761   -41439 
  -41571   -41550   -41466   -41004   -40586   -40844   -41330   -41092 
  -40362   -40146   -40325   -40378   -40697   -41083   -40759   -40321 
  -40350   -40166   -39723   -39603   -39700   -39630   -39469   -39552 
  -39723   -39872   -40293   -40529   -40150   -39968   -40176   -39993 
  -39654   -39803   -40213   -40693   -41350   -41874   -41701   -40998 
  -40689   -40795   -40536   -40069   -39884   -39946   -40174   -40413 
  -40602   -40752   -40707   -40597   -40392   -39750   -39205   -39363 
  -39822   -40500   -41575   -42257   -42017   -41656   -41743   -41688 
  -41270   -41091   -41211   -41206   -41042   -40898   -40730   -40471 
  -40329   -40242   -39914   -39444   -38996   -39137   -40429   -41640 
  -41567   -41100   -40724   -39826   -38801   -38321   -38414   -39202 
  -40068   -40045   -39852   -40383   -40965   -40946   -40467   -39947 
  -39819   -40122   -40676   -41204   -41310   -41076   -40927   -40768 
  -40348   -40185   -40366   -40073   -39783   -40270   -40513   -40246 
  -40597   -41160   -41127   -41191   -41500   -41625   -42003   -42394 
  -41902   -41149   -41133   -41237   -40520   -39336   -38547   -38252 
  -38016   -37987   -38778   -40228   -41403   -41891   -42111   -42225 
  -41905   -41249   -40814   -40744   -40711   -40705   -40757   -40698 
  -40971   -41666   -41886   -41705   -41841   -41856   -41353   -40896 
  -40721   -40633   -40779   -40983   -40605   -39752   -39252   -39388 
  -39538   -39293   -39177   -39641   -40161   -40188   -40018   -40035 
  -40139   -40213   -40332   -40458   -40359   -40028   -39675   -39511 
  -39712   -39877   -39722   -39856   -40278   -40482   -40763   -40949 
  -40567   -40057   -39715   -39677   -40066   -40294   -40171   -40101 
  -39987   -39833   -39758   -39366   -38767   -38832   -39816   -41011 
  -41781   -41997   -41590   -41053   -41104   -41246   -41002   -40954 
  -41168   -41087   -40579   -40088   -40055   -39957   -39290   -38785 
  -38782   -38781   -38969   -39582   -40014   -39961   -39949   -40432 
  -41161   -41751   -42064   -41951   -41593   -41389   -41513   -41832 
  -41650   -40809   -39982   -39139   -38129   -37778   -38593   -39868 
  -40867   -41384   -40950   -39687   -38897   -38902   -38766   -38616 
  -39229   -40149   -40695   -41211   -41639   -41385   -40882   -40872 
  -41139   -41219   -41199   -41181   -40805   -40162   -39792   -39501 
  -39213   -39456   -39969   -40350   -40852   -41305   -41536   -41777 
  -41778   -41355   -40864   -40606   -40865   -41493   -41592   -41141 
  -41177   -41453   -40959   -40207   -40028   -40099   -40149   -40323 
  -40441   -40583   -41223   -41893   -41743   -41211   -40898   -40517 
  -39874   -39357   -39440   -39804   -39833   -39895   -40289   -40312 
  -39803   -39576   -39877   -40119   -40186   -40367   -40355   -40070 
  -40058   -40123   -39927   -40278   -41565   -42661   -42803   -42407 
  -41665   -40679   -40085   -39808   -39225   -38850   -39533   -40460 
  -40365   -39958   -40243   -40319   -39710   -39600   -40030   -40020 
  -40161   -40872   -41245   -41442   -41850   -41793   -41292   -41107 
  -41337   -41227   -40740   -40703   -40591   -39950   -39911   -40359 
  -40292   -40084   -40130   -40184   -40385   -40869   -41116   -40972 
  -41056   -41169   -40869   -40732   -40629   -40212   -40207   -40581 
  -40836   -41013   -40749   -40239   -40123   -39846   -39290   -39386 
  -39640   -39285   -39374   -40204   -40556   -40315   -40085   -39946 
  -39958   -40116   -40250   -40312   -40375   -40505   -40498   -40223 
  -39958   -39976   -40311   -40570   -40440   -40547   -41089   -41133 
  -40643   -40529   -40890   -41008   -40618   -40510   -40921   -40799 
  -40246   -40402   -40790   -40610   -40398   -40404   -40396   -40252 
  -39795   -39437   -39418   -39118   -38538   -38237   -38489   -39347 
  -40317   -40736   -40628   -40321   -40061   -40311   -40896   -40747 
  -40232   -40711   -41629   -41916   -41887   -41843   -41504   -40683 
  -39584   -39056   -39402   -39478   -39021   -39213   -39970   -40354 
  -40664   -41358   -41748   -41292   -40743   -40855   -41018   -40671 
  -40429   -40551   -40601   -40608   -40630   -40513   -40377   -40177 
  -39895   -39860   -40020   -40103   -40101   -39931   -39545   -39212 
  -39259   -39711   -40235   -40606   -40899   -41004   -40836   -40736 
  -40894   -41061   -41127   -41314   -41478   -41161   -40690   -40504 
  -40166   -39718   -39726   -40063   -40497   -40900   -41049   -41073 
  -40959   -40711   -41003   -41750   -41932   -41532   -41322   -41331 
  -41123   -40765   -40620   -40593   -40516   -40683   -41067   -41126 
  -40882   -40801   -40774   -40325   -39641   -39538   -40123   -40554 
  -40551   -40682   -41006   -40882   -40273   -39843   -39877   -40209 
  -40532   -40525   -40385   -40381   -40331   -40277   -40335   -40474 
  -40640   -40494   -40255   -40257   -39798   -39085   -39214   -39633 
  -39506   -39324   -39285   -39163   -39021   -38862   -38932   -39318 
  -39565   -39784   -40230   -40378   -39985   -39619   -39530   -39355 
  -39222   -39758   -40605   -40937   -41133   -41573   -41775   -41859 
  -41874   -41423   -41008   -40730   -40124   -39868   -40136   -40107 
  -40147   -40668   -40846   -40730   -41045   -41342   -41245   -41050 
  -40699   -40346   -40246   -40180   -40329   -41014   -41727   -41736 
  -41192   -40934   -41112   -41061   -40760   -40609   -40258   -39772 
  -39847   -40149   -40228   -40477   -40790   -40803   -40556   -40039 
  -39623   -39827   -40176   -40259   -40423   -40475   -40108   -39650 
  -39194   -38938   -39563   -40446   -40547   -40795   -41736   -42187 
  -42016   -41910   -41565   -40779   -40188   -40095   -40157   -40217 
  -40243   -39895   -39455   -39690   -40181   -40359   -40585   -40784 
  -40860   -41002   -40814   -40402   -40301   -40420   -40805   -41216 
  -41081   -40830   -40675   -40298   -40135   -40039   -39722   -39874 
  -40158   -39972   -39806   -39656   -39546   -39906   -39923   -39121 
  -39000   -39910   -40227   -39988   -40285   -40682   -40875   -41057 
  -40806   -40352   -40319   -40402   -40448   -40779   -41083   -41085 
  -41137   -41116   -40818   -40687   -40633   -40427   -40390   -40289 
  -40151   -40459   -40525   -40198   -40263   -40162   -39827   -40258 
  -40649   -40140   -39838   -40197   -40406   -40298   -40342   -40578 
  -40660   -40556   -40443   -40454   -40671   -40698   -40436   -40554 
  -40995   -40956   -40520   -40354   -40311   -40135   -40220   -40598 
  -40957   -41111   -40927   -40680   -40609   -40617   -40714   -40828 
  -40992   -41224   -41168   -41006   -41067   -40915   -40591   -40510 
  -40387   -40267   -40466   -40540   -40289   -40165   -40342   -40531 
  -40541   -40824   -41354   -41193   -40798   -41083   -41146   -40871 
  -41153   -41161   -40644   -40780   -41080   -40825   -40743   -40957 
  -41150   -41312   -41112   -40682   -40566   -40521   -40419   -40659 
  -40818   -40531   -40456   -40637   -40609   -40664   -40822   -40652 
  -40486   -40664   -40794   -40728   -40471   -40074   -39965   -39827 
  -39330   -39209   -39407   -39355   -39534   -40073   -40351   -40392 
  -40420   -40115   -39467   -39124   -39401   -39904   -40259   -40459 
  -40486   -40358   -40244   -39798   -38805   -38298   -38754   -39347 
  -39788   -40076   -40041   -39887   -39617   -39278   -39137   -39231 
  -39559   -39924   -40127   -40057   -39722   -39658   -39798   -39638 
  -39565   -39831   -40177   -40525   -40706   -40633   -40690   -41022 
  -41278   -41457   -41519   -41229   -40988   -40761   -40234   -40018 
  -40274   -40555   -40652   -40487   -40571   -40914   -40702   -40209 
  -39984   -39845   -39829   -40000   -40386   -40775   -40609   -40424 
  -40829   -41034   -40973   -41270   -41323   -40882   -40832   -41015 
  -40857   -40964   -41300   -41202   -41094   -40886   -40161   -39914 
  -40347   -40366   -40046   -39880   -39714   -39739   -40049   -40343 
