Origin Time       2024/04/02 04:24:00
Lat.              40.133
Long.             141.712
Depth. (km)       71
Mag.              6.0
Station Code      MYG009
Station Lat.      38.4466
Station Long.     140.8871
Station Height(m) 29
Record Time       2024/04/02 04:25:29
Sampling Freq(Hz) 100Hz
Duration Time(s)  90
Dir.              E-W
Scale Factor      7845(gal)/8223790
Max. Acc. (gal)   6.084
Last Correction   2024/04/02 04:25:28
Memo.             
[...]
    3233     3353     3364     3260     3064     2778     2551     2606 
    2801     2727     2425     2315     2484     2725     2889     3018 
    3296     3604     3588     3311     3242     3431     3461     3199 
    2785     2371     2234     2430     2663     2802     2933     3055 
    3107     3075     2929     2774     2802     2982     3186     3330 
    3373     3380     3352     3196     2975     2918     3091     3248 
    3252     3283     3416     3408     3159     2905     2760     2663 
    2614     2628     2623     2619     2754     2940     3022     3037 
    2986     2920     2930     2907     2825     2925     3196     3327 
    3211     3028     2986     3072     3133     3137     3051     2902 
    2828     2876     3019     3114     3076     3065     3006     2763 
    2608     2639     2639     2579     2596     2748     2925     2944 
    2781     2624     2785     3267     3619     3586     3322     3117 
    3160     3315     3383     3362     3339     3314     3234     3190 
    3262     3285     3171     3049     2976     2889     2745     2566 
    2443     2467     2636     2920     3086     2898     2722     2857 
    2976     2921     2822     2767     2829     2918     2933     2967 
    3075     3160     3184     3252     3361     3341     3208     3144 
    3132     3109     3088     3113     3235     3411     3549     3597 
    3523     3415     3349     3175     2767     2353     2277     2583 
    2932     2932     2698     2632     2667     2492     2247     2295 
    2609     2911     3032     3022     3086     3307     3555     3657 
    3600     3484     3323     3141     3002     2991     3244     3557 
    3535     3242     3007     2963     2990     2890     2667     2578 
    2716     2878     2886     2779     2740     2725     2601     2550 
    2656     2818     3002     3123     3068     2893     2795     2785 
    2720     2655     2687     2825     3015     3126     3149     3168 
    3215     3258     3225     3187     3233     3318     3415     3393 
    3308     3396     3422     3167     2960     2964     2932     2756 
    2628     2631     2614     2579     2718     2905     2832     2601 
    2571     2862     3233     3418     3342     3106     2965     2999 
    3024     2941     2786     2713     2802     2857     2790     2758 
    2903     3214     3495     3595     3504     3339     3223     3063 
    2901     2990     3168     3159     3064     3094     3227     3183 
    2925     2727     2624     2575     2613     2700     2849     3030 
    3109     3096     3140     3148     2930     2691     2709     2867 
    2978     3115     3311     3419     3419     3400     3368     3307 
    3207     3136     3195     3264     3106     2725     2389     2335 
    2520     2718     2817     2832     2694     2403     2257     2485 
    2824     2943     2978     3140     3198     3009     2925     3115 
    3283     3330     3433     3657     3933     4079     3910     3515 
    3202     3080     3073     3107     3006     2722     2558     2671 
    2794     2778     2749     2747     2797     2876     2855     2841 
    2878     2763     2648     2894     3370     3662     3700     3649 
    3543     3388     3206     3007     2879     2843     2791     2752 
    2829     2883     2805     2809     3003     3183     3142     2960 
    2824     2678     2590     2732     2948     3056     3084     3086 
    2992     2775     2701     2835     2930     2982     3040     3022 
    2953     2770     2458     2313     2478     2797     3059     3136 
    3138     3141     3142     3283     3495     3578     3551     3377 
    3111     3061     3130     2992     2825     2863     2957     3026 
    3061     2886     2562     2485     2670     2778     2718     2551 
    2446     2597     2767     2751     2749     2859     2901     2793 
    2818     3137     3338     3202     3076     3105     3110     3119 
    3210     3219     3084     3006     3095     3245     3277     3127 
    3021     3154     3333     3316     3094     2802     2647     2640 
    2647     2705     2890     3080     3094     3013     3071     3226 
    3308     3231     3006     2895     2983     3028     3032     2974 
    2816     2855     3140     3389     3476     3439     3422     3469 
    3478     3339     3026     2802     2837     2947     3003     3052 
    3191     3341     3302     3164     3118     3105     2947     2709 
    2675     2828     2940     2947     2782     2515     2394     2385 
    2369     2489     2713     2906     3114     3281     3337     3387 
    3487     3559     3518     3365     3265     3285     3298     3288 
    3225     2965     2658     2623     2876     3078     3109     3222 
    3415     3456     3315     3073     2903     2894     2802     2548 
    2488     2671     2720     2718     2978     3240     3325     3396 
    3343     3096     2859     2728     2717     2762     2721     2720 
    2910     3160     3311     3275     3056     2820     2667     2577 
    2597     2771     2941     2891     2697     2627     2751     2949 
    3133     3300     3476     3572     3508     3424     3356     3194 
    2988     2793     2613     2506     2578     2813     2963     2899 
    2818     2920     3048     2909     2678     2706     2922     3100 
    3156     3113     3010     2940     2976     2984     2866     2782 
    2894     3113     3206     3141     3076     3110     3196     3125 
    2887     2799     2937     3021     2906     2739     2637     2632 
    2709     2745     2714     2748     2926     3157     3222     3127 
    3183     3438     3639     3696     3558     3188     2898     2886 
    2926     2816     2654     2740     2990     2988     2848     2852 
    2852     2816     2853     2879     2843     2937     3264     3538 
    3565     3555     3632     3690     3586     3397     3377     3404 
    3307     3222     3145     3028     2956     2901     2814     2725 
    2659     2646     2682     2736     2724     2525     2313     2317 
    2384     2409     2571     2863     3017     2936     2866     2963 
    3122     3234     3233     3191     3256     3325     3207     2967 
    2749     2621     2560     2508     2587     2905     3237     3406 
    3505     3491     3281     3113     3140     3126     3003     3032 
    3154     3069     2839     2779     2913     2979     2974     3042 
    3113     3136     3127     3032     2918     2910     2970     3045 
    3100     3019     2822     2718     2794     2949     3160     3375 
    3380     3269     3198     2968     2720     2775     2872     2759 
    2755     3079     3408     3393     3149     3055     3165     3207 
    3095     2879     2560     2362     2486     2725     2882     3034 
    3252     3427     3441     3330     3194     3057     2947     2921 
    2982     3134     3341     3406     3241     3080     3087     3164 
    3240     3330     3445     3546     3603     3659     3507     2994 
    2535     2347     2216     2218     2485     2810     3011     3156 
    3318     3391     3235     2988     2856     2733     2652     2801 
    2839     2532     2382     2678     3099     3466     3726     3624 
    3277     3118     3123     3019     2845     2790     2822     2762 
    2517     2234     2205     2457     2725     2940     3226     3522 
    3605     3472     3291     3168     3046     2791     2425     2184 
    2289     2650     2909     2929     2886     2918     3024     3145 
    3213     3198     3161     3088     2917     2755     2770     3030 
    3387     3514     3381     3277     3331     3400     3342     3175 
    2941     2712     2571     2438     2246     2166     2327     2616 
    2911     3172     3381     3564     3543     3253     3098     3187 
    3169     3017     2898     2821     2829     2960     3100     3145 
    3119     3087     3011     2863     2841     3017     3110     3082 
    3159     3237     3125     3009     3071     3230     3457     3688 
    3739     3603     3422     3277     3175     3025     2755     2544 
    2539     2544     2481     2497     2613     2797     2986     3048 
    3026     3010     2945     2859     2921     3164     3395     3437 
    3310     3105     2916     2825     2751     2623     2525     2458 
    2369     2316     2381     2606     2890     3046     3028     2901 
    2775     2714     2687     2671     2695     2855     3194     3542 
    3703     3753     3908     4029     3808     3438     3285     3265 
    3230     3233     3215     3192     3264     3231     2998     2828 
    2832     2944     3111     3192     3202     3299     3366     3179 
    2803     2485     2392     2469     2579     2681     2705     2660 
    2717     2893     3132     3507     3848     3875     3708     3545 
    3322     3064     2864     2678     2613     2828     3078     3040 
    2790     2624     2709     2906     3013     3079     3149     3144 
    3100     3078     3102     3350     3753     3874     3696     3503 
    3231     2835     2546     2455     2448     2513     2709     2884 
    2864     2778     2668     2397     2092     1968     2041     2313 
    2655     2862     3022     3261     3465     3510     3415     3329 
    3306     3218     3041     2952     2994     2999     2925     2863 
    2808     2770     2844     2967     3022     3040     3030     2999 
    2980     2905     2806     2799     2825     2791     2735     2720 
    2817     3014     3173     3291     3381     3207     2828     2682 
    2798     2866     2803     2712     2652     2567     2385     2309 
    2547     2859     2956     2848     2666     2585     2721     2899 
    2836     2578     2440     2540     2691     2735     2722     2705 
    2697     2725     2740     2852     3180     3411     3283     3059 
    2990     3024     3142     3283     3411     3647     3767     3555 
    3348     3329     3330     3399     3545     3449     3111     2955 
    3076     3235     3326     3404     3558     3750     3797     3667 
    3597     3704     3825     3820     3685     3516     3385     3268 
    3223     3311     3331     3121     2948     3055     3194     3179 
    3098     2929     2644     2317     2112     2281     2655     2772 
    2674     2701     2840     2914     2872     2855     3110     3492 
    3655     3643     3537     3292     3069     3036     3064     3009 
    2901     2741     2575     2506     2555     2706     2825     2744 
    2550     2443     2482     2569     2574     2558     2666     2840 
    2922     2920     3014     3294     3555     3642     3611     3580 
    3662     3754     3632     3291     2816     2305     1942     1848 
    1946     2096     2276     2489     2631     2735     2974     3325 
    3589     3639     3566     3520     3441     3250     3080     3065 
    3169     3253     3225     3069     2824     2686     2847     3149 
    3287     3225     3160     3275     3526     3619     3446     3168 
    2847     2547     2394     2394     2532     2733     2856     2856 
    2771     2668     2582     2511     2481     2461     2440     2485 
    2513     2474     2560     2825     3060     3153     3106     3051 
    3190     3418     3430     3160     2911     2928     2955     2801 
    2737     2830     2882     3033     3419     3673     3527     3225 
    3090     3188     3275     3156     3052     3117     3082     2841 
    2706     2841     3060     3121     2941     2716     2713     2909 
    2994     2748     2447     2486     2754     3044     3376     3640 
    3709     3643     3487     3225     2976     2932     3014     3029 
    3038     3113     3160     3087     2830     2578     2528     2515 
    2454     2494     2644     2783     2809     2683     2559     2689 
    3061     3445     3682     3719     3681     3778     3946     3942 
    3812     3805     3815     3573     3260     3227     3381     3321 
    3024     2806     2627     2358     2231     2316     2374     2398 
    2533     2698     2810     2963     3171     3352     3473     3468 
    3354     3354     3383     3233     3079     2980     2976     3240 
    3519     3523     3418     3296     3002     2655     2610     2836 
    3061     3258     3396     3275     2997     2921     2980     2937 
    2940     3056     3044     2866     2828     3082     3400     3535 
    3393     3159     3231     3651     3962     3856     3547     3271 
    2952     2574     2246     2052     2077     2297     2442     2296 
    2029     1837     1655     1470     1360     1227     1030      841 
     606      522      862     1294     1464     1516     1501     1472 
    1687     1934     1848     1773     2037     2347     2482     2454 
    2373     2378     2394     2301     2266     2575     3115     3508 
    3790     4079     4190     4175     4293     4473     4625     4882 
    5286     5791     6304     6652     6813     6728     6208     5385 
    4684     4163     3581     3175     3226     3500     3751     3862 
    3828     3901     4116     4166     4074     4199     4545     4903 
    5255     5425     5080     4311     3564     2851     1822      544 
    -437     -845     -972    -1004     -766     -140      826     1933 
    2951     3735     4044     3807     3429     3285     3249     3157 
    3092     2870     2349     1871     1564     1323     1371     1853 
    2485     2984     3260     3253     2957     2413     1759     1213 
     982     1266     2039     2952     3747     4272     4187     3569 
    3250     3788     4907     6139     7236     8174     8974     9379 
    8881     7349     5292     3341     1945     1285      946      399 
     -25      324     1436     2886     4228     5074     5333     5162 
    4774     4398     4148     3836     3253     2600     2197     2084 
    2127     2107     1671      665     -472    -1135    -1150     -731 
    -256      117      599     1437     2577     3631     4310     4617 
    4445     3682     2735     2340     2774     3631     4338     4494 
    4016     3246     2550     1995     1676     1688     1782     1779 
    1729     1686     1906     2438     2853     2840     2268     1242 
     359      163      773     2224     4275     6034     6690     6370 
    5711     5063     4407     3771     3383     3240     3068     2760 
    2351     1917     1653     1773     2193     2501     2412     2158 
    2185     2481     2866     3531     4419     5071     5182     4658 
    3769     2995     2469     2107     2014     2357     3029     3584 
    3832     4016     4124     3919     3375     2758     2430     2413 
    2451     2628     3337     4387     5116     5402     5474     5293 
    4938     4734     4644     4364     3898     3368     2808     2115 
    1163      244     -259     -373     -140      568     1676     2851 
    3717     4132     4317     4375     4070     3485     2916     2401 
    2073     2128     2439     2648     2492     1908     1182     1062 
    1884     2905     3333     3009     2250     2070     3014     4012 
    4263     4247     4283     4391     4608     4618     4140     3329 
    2320     1293      908     1321     1711     1746     1888     2397 
    3019     3289     3079     2641     2434     2798     3465     3852 
    3681     3271     3159     3172     2728     1984     1694     2138 
    2805     3397     4395     5744     6448     6018     4927     3865 
    3167     2713     2268     1879     1857     2330     3119     3820 
    3952     3669     3649     4160     4739     4644     3870     3115 
    2596     2012     1300      845     1123     2097     3241     4017 
    4027     3283     2408     1798     1335     1225     1621     2061 
    2296     2496     2929     3896     4901     4927     4112     3474 
    3370     3294     2751     1992     1520     1397     1570     1991 
    2389     2469     2192     1777     1313      932     1085     1655 
    2000     2181     2662     3433     4162     4457     4306     4167 
    4153     4143     4295     4492     4396     4098     3778     3526 
    3568     3469     2277      477     -432     -314       94      757 
    1730     2802     4008     5229     6243     7227     8078     8374 
    7986     6708     4599     2469      978      167     -201     -252 
     -24      232      432      996     2266     4054     5755     6737 
    7128     7578     8064     8093     7380     5836     3754     1753 
     467       55     -106     -471     -720     -652     -500     -130 
     872     2255     3250     3615     3896     4641     5541     5713 
    4806     3321     1825      681      284      693     1513     2452 
    3495     4368     4595     4128     3175     1921      886      637 
    1200     2239     3335     4017     4090     3870     3596     3179 
    2903     3090     3338     3338     3366     3669     4114     4202 
    3817     3672     4024     4140     3603     2817     2242     1979 
    1836     1471      934      799     1227     1769     2280     2878 
    3565     4411     5078     4959     4411     4090     3704     2862 
    1857     1246     1278     1679     2189     2691     2844     2552 
    2155     1795     1370     1059     1262     2038     3125     4212 
    4708     4380     3906     3734     3585     3231     2701     2377 
    2760     3736     4789     5621     5989     5714     4953     3811 
    2242      595     -673    -1372    -1247     -288      980     2247 
    3647     4981     5726     5941     6053     5944     5287     4348 
    3631     3258     3052     2814     2466     2101     1856     1880 
    2158     2336     2478     3056     3951     4684     4905     4353 
    3142     1894     1448     2016     2916     3754     4623     5331 
    5682     5678     5171     4164     2886     1462      264     -113 
     382     1482     3057     4615     5402     5310     4851     4533 
    4583     4858     5042     5000     4774     4287     3393     2340 
    1594     1158      612      -66     -391     -387     -510     -652 
    -440      108      838     1730     2763     3703     4307     4606 
    4691     4552     4225     3921     3925     4101     3896     3137 
    2115     1171      842     1391     2199     2644     2857     2922 
    2606     2066     1822     2154     2893     3713     4318     4500 
    4506     4824     5359     5528     5069     4382     4255     4800 
    5012     4270     3133     2131     1258      634      484      695 
    1042     1636     2659     3834     4722     5292     5610     5525 
    4942     4079     3360     2928     2593     2353     2479     3208 
    4267     4730     4263     3603     3006     2119     1150      562 
     530     1039     1925     2886     3526     3742     3997     4418 
    4514     4186     3666     2868     1822      936      490      510 
     819     1219     1834     2652     3416     4105     4545     4533 
    4330     4163     4037     3962     3716     3300     3215     3597 
    4135     4282     3485     2452     2293     2509     2381     2223 
    2034     1605     1424     1688     1950     2155     2517     2874 
    3025     2868     2189     1236      660      469      480     1077 
    2296     3431     4040     4324     4591     4977     5408     5482 
    4860     3738     2610     1760     1177      884     1146     2149 
    3470     4268     4518     5078     5979     6218     5564     4677 
