Origin Time       2024/04/02 04:24:00
Lat.              40.133
Long.             141.712
Depth. (km)       71
Mag.              6.0
Station Code      MYG016
Station Lat.      38.0079
Station Long.     140.6212
Station Height(m) 49
Record Time       2024/04/02 04:25:35
Sampling Freq(Hz) 100Hz
Duration Time(s)  100
Dir.              U-D
Scale Factor      7845(gal)/8223790
Max. Acc. (gal)   2.000
Last Correction   2024/04/02 04:25:35
Memo.             
[...]
  -49685   -49887   -50066   -49867   -49991   -50085   -49454   -49134 
  -49553   -49661   -49523   -49555   -49505   -49705   -49966   -49663 
  -49404   -49350   -49145   -49366   -49653   -49354   -49561   -50183 
  -49825   -49312   -49692   -50010   -49585   -49065   -49202   -49642 
  -49750   -49809   -49897   -49867   -49967   -49975   -49790   -49817 
  -49959   -49993   -49863   -49437   -49207   -49565   -49627   -49191 
  -49345   -49867   -49964   -49967   -49891   -49686   -49805   -49947 
  -49824   -49717   -49464   -49210   -49570   -50025   -49904   -49890 
  -49995   -49667   -49663   -49970   -49773   -49476   -49311   -49327 
  -49747   -49887   -49650   -49698   -49712   -49343   -49238   -49644 
  -49765   -49572   -49906   -50290   -50060   -49842   -49778   -49661 
  -49729   -49785   -49793   -49910   -49788   -49584   -49418   -49003 
  -48891   -49196   -49266   -49288   -49365   -49349   -49534   -49599 
  -49522   -49731   -49665   -49578   -49985   -49931   -49580   -49742 
  -50041   -50164   -49913   -49446   -49385   -49671   -49933   -49916 
  -49628   -49590   -49770   -49797   -49882   -49947   -49995   -50372 
  -50305   -49466   -49384   -50053   -49752   -49049   -49171   -49256 
  -49107   -49296   -49208   -48919   -49057   -49144   -49142   -49511 
  -49848   -49914   -49968   -49971   -49844   -49746   -49896   -50095 
  -49995   -49775   -49601   -49486   -49735   -50078   -49847   -49546 
  -49719   -49697   -49497   -49707   -50133   -50383   -50047   -49513 
  -49551   -49619   -49488   -49611   -49665   -49646   -49678   -49434 
  -49246   -49366   -49331   -49180   -49292   -49443   -49547   -49817 
  -49855   -49655   -49767   -49952   -50004   -49989   -49869   -49937 
  -50068   -50063   -50197   -50261   -50017   -49773   -49898   -50105 
  -49870   -49657   -49685   -49545   -49515   -49621   -49520   -49474 
  -49616   -49696   -49673   -49666   -49696   -49769   -49970   -50091 
  -49932   -49866   -49963   -49810   -49608   -49600   -49549   -49455 
  -49349   -49280   -49439   -49507   -49239   -48973   -48767   -48612 
  -48861   -49370   -49667   -49673   -49513   -49509   -49597   -49351 
  -49176   -49546   -49962   -49837   -49449   -49527   -49831   -49700 
  -49459   -49365   -49308   -49449   -49608   -49553   -49638   -50121 
  -50449   -50029   -49504   -49601   -49985   -50346   -50349   -49852 
  -49690   -49792   -49458   -49284   -49485   -49476   -49599   -50085 
  -50179   -49717   -49318   -49324   -49901   -50560   -50449   -50063 
  -50067   -50032   -50021   -50176   -49847   -49408   -49709   -50009 
  -49829   -49813   -49869   -49979   -50201   -49729   -49079   -49335 
  -49677   -49515   -49418   -49331   -49377   -49856   -49954   -49420 
  -49179   -49357   -49385   -49277   -49345   -49532   -49694   -49728 
  -49685   -49854   -50004   -49874   -49766   -49582   -49412   -49519 
  -49430   -49268   -49584   -49917   -49817   -49561   -49624   -50039 
  -50220   -49905   -49478   -49528   -50075   -50172   -49604   -49221 
  -49162   -49196   -49393   -49492   -49446   -49680   -49821   -49412 
  -49262   -49763   -50118   -50010   -49634   -49343   -49600   -50099 
  -50160   -49744   -49373   -49357   -49573   -49909   -49879   -49451 
  -49588   -49902   -49523   -49310   -49643   -49828   -49762   -49590 
  -49415   -49416   -49604   -49709   -49513   -49334   -49248   -49083 
  -49341   -49832   -49793   -49689   -49763   -49663   -49786   -49966 
  -49763   -49817   -50159   -50102   -49979   -50147   -50045   -49584 
  -49322   -49474   -49874   -49904   -49407   -49396   -49812   -49675 
  -49377   -49387   -49455   -49545   -49547   -49477   -49669   -50086 
  -50272   -50116   -50016   -50029   -49927   -49719   -49468   -49539 
  -49936   -49798   -49292   -49253   -49320   -49198   -49234   -49365 
  -49512   -49812   -50043   -49978   -49883   -49788   -49488   -49508 
  -49866   -49831   -49721   -49882   -49860   -49820   -49991   -49977 
  -49935   -50222   -50098   -49400   -49323   -49806   -49940   -49773 
  -49432   -49343   -49959   -50307   -49877   -49599   -49412   -48964 
  -49118   -49766   -49896   -49658   -49491   -49519   -49701   -49466 
  -49027   -49194   -49546   -49586   -49654   -49735   -49611   -49499 
  -49565   -49497   -49283   -49458   -49782   -49635   -49465   -49709 
  -49856   -49578   -49292   -49407   -49684   -49773   -49856   -50060 
  -50199   -50013   -49442   -49416   -50183   -50288   -49827   -49931 
  -49959   -49650   -49731   -49943   -49902   -49702   -49481   -49608 
  -50102   -50261   -49735   -49130   -49123   -49700   -50321   -50429 
  -50107   -49952   -50106   -49977   -49501   -49491   -49765   -49615 
  -49342   -49260   -49530   -50184   -50334   -49812   -49596   -49756 
  -49932   -50035   -49646   -49168   -49279   -49214   -48941   -49330 
  -49566   -49202   -49235   -49567   -49635   -49495   -49266   -49350 
  -49655   -49711   -49894   -50209   -50089   -49793   -49582   -49516 
  -49761   -49959   -49863   -49651   -49616   -49746   -49621   -49538 
  -49621   -49243   -48988   -49516   -49827   -49472   -49279   -49485 
  -49670   -49594   -49304   -49200   -49380   -49337   -49075   -48886 
  -48735   -48843   -49094   -48882   -48608   -49053   -49653   -49539 
  -49013   -48841   -49175   -49462   -49269   -49063   -49243   -49238 
  -49007   -49285   -49631   -49370   -49168   -49388   -49518   -49565 
  -49747   -49748   -49543   -49522   -49665   -49736   -49847   -50099 
  -50245   -50090   -49590   -49102   -49214   -49565   -49670   -49859 
  -49970   -49879   -50251   -50847   -50934   -50796   -50700   -50607 
  -50641   -50684   -50723   -50627   -50211   -49913   -49905   -49968 
  -50183   -50658   -51017   -50741   -50311   -50477   -50719   -50492 
  -50291   -50210   -49971   -50058   -50213   -49766   -49697   -50329 
  -50584   -50480   -50336   -50074   -50067   -50330   -50174   -49735 
  -49910   -50174   -49796   -49654   -49879   -49692   -49519   -49630 
  -49291   -48795   -49052   -49638   -49823   -49788   -49800   -49863 
  -49998   -49987   -49786   -49763   -49796   -49692   -49617   -49302 
  -48857   -49022   -49458   -49385   -49185   -49369   -49727   -50043 
  -50013   -49584   -49557   -49979   -49810   -49237   -48996   -48836 
  -48945   -49369   -49148   -48622   -48780   -49086   -48988   -48799 
  -48598   -48433   -48509   -48622   -48675   -48822   -48783   -48547 
  -48550   -48844   -49195   -49211   -48914   -48739   -48690   -48851 
  -49142   -49104   -49014   -49145   -49103   -48940   -48975   -49013 
  -48952   -49059   -49073   -48659   -48451   -48986   -49630   -49889 
  -50056   -50091   -49863   -49770   -50028   -50197   -49904   -49519 
  -49373   -49288   -49272   -49480   -49712   -49715   -49700   -49885 
  -50106   -50295   -50332   -50109   -50103   -50372   -50422   -50569 
  -50954   -51077   -51202   -51264   -50857   -50836   -51278   -51136 
  -50684   -50649   -50869   -50994   -51057   -51124   -51046   -50885 
  -50882   -50953   -50809   -50562   -50554   -50642   -50670   -50681 
  -50322   -49707   -49539   -49885   -50309   -50425   -50083   -49539 
  -49249   -49377   -49554   -49524   -49383   -49200   -49252   -49468 
  -49318   -49121   -49242   -49203   -49144   -49289   -49283   -49296 
  -49187   -48807   -48925   -49199   -48803   -48562   -49200   -49893 
  -49933   -49661   -49339   -49056   -49320   -49875   -49712   -49208 
  -49306   -49546   -49418   -49204   -49009   -48830   -48670   -48556 
  -48701   -48933   -49090   -49339   -49457   -49202   -48990   -49133 
  -49289   -49342   -49616   -49654   -49034   -48550   -48517   -48512 
  -48532   -48471   -48524   -48987   -49300   -49516   -49831   -49567 
  -49133   -49299   -49495   -49300   -49226   -49476   -49682   -49669 
  -49450   -49273   -49551   -50001   -50148   -50091   -49854   -49565 
  -49713   -50082   -50040   -49858   -49871   -49847   -50052   -50529 
  -50691   -50571   -50336   -50075   -50307   -50857   -51003   -50834 
  -50607   -50328   -50315   -50437   -50292   -50139   -50153   -50264 
  -50364   -50425   -50656   -50873   -50943   -51059   -51001   -50789 
  -50795   -50911   -50994   -50863   -50176   -49599   -49885   -50225 
  -50060   -50047   -50085   -49617   -49199   -49266   -49211   -48918 
  -48913   -49115   -49230   -49284   -49368   -49631   -50032   -50172 
  -49881   -49635   -49758   -49821   -49624   -49405   -49200   -49044 
  -48938   -48763   -48776   -48984   -48980   -49126   -49283   -48652 
  -48267   -48780   -48875   -48666   -48906   -48922   -48675   -48681 
  -48729   -48813   -48892   -48705   -48610   -48637   -48500   -48574 
  -48756   -48718   -48864   -49073   -48868   -48729   -49126   -49482 
  -49476   -49584   -49777   -49735   -49698   -49751   -49658   -49553 
  -49708   -49832   -49613   -49688   -50160   -50191   -50213   -50572 
  -50471   -50392   -50720   -50510   -50075   -50260   -50585   -50498 
  -50391   -50722   -50890   -50353   -49941   -50022   -50026   -49958 
  -49608   -48983   -49077   -49761   -49970   -49662   -49465   -49758 
  -50352   -50699   -50670   -50595   -50508   -50325   -50391   -50691 
  -50639   -50394   -50291   -49972   -49651   -49603   -49407   -49238 
  -49531   -49979   -50017   -49646   -49551   -49935   -50199   -50144 
  -49994   -49839   -49762   -49918   -50260   -50269   -49678   -49149 
  -49073   -48926   -48537   -48393   -48548   -48610   -48489   -48475 
  -48821   -49171   -49033   -48786   -48987   -49295   -49310   -49403 
  -49729   -49877   -49804   -49693   -49454   -49200   -49246   -49464 
  -49428   -49252   -49523   -50005   -50008   -49958   -50137   -50064 
  -50067   -50176   -49860   -49640   -49796   -50055   -50521   -50507 
  -49658   -49296   -49773   -49991   -50056   -50329   -50121   -49658 
  -49793   -50211   -50168   -49597   -49219   -49408   -49422   -49243 
  -49466   -49524   -49295   -49260   -49194   -49299   -49586   -49576 
  -49481   -49214   -48944   -49311   -49516   -49114   -49000   -49315 
  -49674   -49883   -49874   -49797   -49732   -49774   -49939   -49995 
  -49843   -49782   -50190   -50562   -50213   -49685   -49689   -49977 
  -49974   -49584   -49404   -49644   -49883   -50080   -49959   -49442 
  -49576   -50197   -50060   -49674   -49758   -49790   -49721   -49569 
  -49266   -49486   -49909   -49665   -49347   -49469   -49682   -49704 
  -49497   -49447   -49597   -49673   -49769   -49600   -49275   -49536 
  -49802   -49439   -49315   -49600   -49697   -49866   -50091   -49867 
  -49536   -49613   -49801   -49746   -49578   -49549   -49716   -49771 
  -49551   -49378   -49324   -49648   -50458   -50643   -50221   -50267 
  -50242   -49966   -50099   -50201   -50242   -50476   -50155   -49594 
  -49809   -50102   -49681   -49252   -49145   -49091   -49204   -49275 
  -49260   -49491   -49480   -49080   -49100   -49485   -49493   -49234 
  -49200   -49401   -49613   -49605   -49358   -49149   -49306   -49850 
  -50112   -49725   -49211   -48968   -49149   -49432   -49401   -49640 
  -50141   -49952   -49368   -49234   -49555   -49866   -49555   -48855 
  -48857   -49491   -49769   -49593   -49347   -49262   -49219   -48883 
  -48811   -49437   -49873   -49717   -49585   -49851   -50168   -50101 
  -50014   -50193   -50292   -50287   -50229   -50048   -49917   -49804 
  -49466   -49126   -49131   -49396   -49536   -49227   -48960   -49280 
  -49616   -49627   -49642   -49720   -49785   -49869   -50082   -50301 
  -50348   -50434   -50426   -50025   -49755   -49966   -50175   -50005 
  -49670   -49840   -50396   -50386   -50017   -50063   -50268   -50441 
  -50743   -50795   -50458   -50226   -50387   -50882   -51143   -50706 
  -50414   -50741   -50728   -50290   -50317   -50647   -50600   -50303 
  -50033   -49725   -49651   -49951   -49987   -49573   -49262   -49172 
  -49168   -49169   -49080   -49113   -49180   -49054   -49202   -49457 
  -49125   -48803   -48891   -48768   -48741   -49056   -48961   -48712 
  -48917   -49156   -49254   -49380   -49505   -49744   -49873   -49779 
  -49823   -49910   -49977   -50234   -50414   -50199   -49686   -49432 
  -49688   -49604   -49270   -49495   -49640   -49546   -49608   -49310 
  -48837   -48732   -48890   -48976   -48500   -48024   -48373   -48948 
  -49183   -49081   -48818   -48834   -48882   -48695   -48937   -49288 
  -48969   -48983   -49580   -49441   -49036   -49229   -49256   -49076 
  -49233   -49420   -49472   -49551   -49648   -49688   -49589   -49365 
  -49358   -49700   -49767   -49420   -49179   -49183   -49314   -49426 
  -49712   -50040   -49789   -49538   -49754   -49827   -49940   -50012 
  -49473   -49133   -49423   -49632   -49535   -49264   -49320   -49765 
  -49771   -49716   -50265   -50741   -50800   -50853   -51094   -51266 
  -51119   -50842   -50461   -50136   -50078   -49858   -49752   -50083 
  -50153   -50139   -50333   -50336   -50538   -51015   -51035   -50512 
  -49998   -49991   -50328   -50526   -50363   -49989   -49897   -49910 
  -49740   -50112   -50816   -50787   -50376   -50274   -50445   -50731 
  -50463   -49613   -49482   -50114   -50238   -49789   -49485   -49446 
  -49493   -49451   -49184   -48910   -48811   -48867   -49230   -49470 
  -49200   -49400   -50272   -50579   -50211   -49937   -49908   -49908 
  -49878   -49769   -49438   -49293   -49272   -48590   -48038   -48454 
  -48872   -48729   -48334   -47962   -48037   -48420   -48276   -47711 
  -47572   -47692   -47821   -48339   -48886   -48918   -48708   -48496 
  -48485   -48779   -48944   -49002   -49315   -49550   -49491   -49434 
  -49293   -49185   -49574   -49700   -49054   -48936   -49572   -49769 
  -49524   -49519   -49854   -50315   -50727   -50962   -50989   -51101 
  -51495   -51638   -51295   -51216   -51171   -50472   -50159   -50375 
  -50248   -50321   -50248   -49747   -49989   -50494   -50539   -50545 
  -50301   -50004   -50161   -50359   -50256   -50203   -50292   -50029 
  -49746   -50037   -50144   -49905   -50029   -50080   -49812   -49738 
  -49729   -49713   -49977   -50197   -50132   -50194   -50267   -49898 
  -49555   -49581   -49393   -49018   -48921   -48856   -48787   -49027 
  -49218   -48828   -48394   -48857   -49616   -49478   -49144   -49550 
  -49894   -49765   -49561   -49257   -49266   -49715   -49875   -49738 
  -49542   -49146   -48748   -48610   -48663   -48941   -49499   -49779 
  -49538   -49638   -50292   -50598   -50506   -50538   -50310   -49731 
  -49624   -49823   -49565   -49389   -49713   -49783   -49459   -49362 
  -49408   -49067   -48855   -49536   -50274   -50255   -50079   -50071 
  -50070   -49887   -49476   -49507   -49912   -50012   -50129   -50153 
  -49793   -49512   -49223   -49171   -49601   -49489   -49416   -50361 
  -50591   -49885   -50086   -50606   -50507   -50521   -50406   -49829 
  -49682   -49778   -49689   -49928   -49874   -49374   -49399   -49455 
  -49526   -50251   -50576   -50267   -50186   -49958   -49422   -49026 
  -48874   -48946   -48928   -48829   -49099   -49540   -49511   -49092 
  -49242   -49994   -50090   -49447   -49241   -49599   -49735   -49631 
  -49617   -49455   -49250   -49204   -49032   -48938   -49091   -49003 
  -48512   -48162   -48392   -48740   -49068   -49576   -49449   -48799 
  -48822   -49200   -49357   -49773   -50093   -49431   -48637   -49042 
  -50033   -50383   -49871   -48960   -48568   -48926   -49164   -49230 
  -49639   -49740   -49099   -48668   -49034   -49590   -49767   -49650 
  -49477   -49356   -49665   -50274   -50402   -50144   -49689   -49194 
  -49654   -50662   -50928   -50824   -50703   -50579   -50944   -51052 
  -50599   -50816   -51351   -51155   -50653   -50406   -50545   -50912 
  -51001   -50809   -50847   -50958   -50460   -49825   -50071   -50368 
  -49855   -49549   -49627   -49326   -49119   -49453   -49627   -49250 
  -49041   -49385   -49578   -49484   -49588   -49748   -49792   -49597 
  -49076   -49015   -49673   -49947   -49547   -49405   -49624   -49318 
  -48840   -49023   -48933   -48460   -48648   -48752   -48600   -49184 
  -49678   -49430   -49238   -49211   -49389   -49878   -49881   -49700 
  -50392   -51000   -50666   -50307   -50037   -49639   -49769   -50220 
  -50546   -50758   -50369   -49982   -50572   -50863   -50134   -49731 
  -49617   -49337   -49842   -50491   -50183   -49982   -50292   -50379 
  -50380   -50743   -51229   -51007   -50247   -50058   -50245   -50128 
  -49723   -49167   -49019   -49341   -49238   -48830   -48775   -48698 
  -48250   -47845   -47683   -47618   -47784   -48207   -48533   -48648 
  -48678   -48604   -48448   -48541   -49065   -49428   -49233   -48964 
  -48821   -48652   -48459   -48042   -47587   -47794   -48583   -49153 
  -49172   -48965   -48798   -48702   -49104   -49908   -49958   -49208 
  -48724   -48910   -49642   -50413   -50603   -50269   -50072   -50311 
  -50591   -50955   -51225   -50626   -50013   -50247   -50234   -49912 
  -50193   -50788   -51278   -51354   -51040   -51192   -51522   -51367 
  -51175   -50683   -50009   -50079   -50186   -50103   -50400   -50368 
  -50121   -50101   -49773   -49698   -50422   -50822   -50263   -49665 
  -49562   -49550   -49594   -49738   -49782   -49734   -49590   -49823 
  -50471   -50225   -49289   -49337   -49958   -50009   -49773   -49620 
  -49682   -49696   -49019   -48285   -48266   -48404   -48636   -49165 
  -49258   -48821   -48722   -49173   -49377   -49110   -48924   -48771 
  -48952   -49843   -50268   -49616   -48937   -49009   -49597   -49939 
  -49704   -49334   -49353   -49975   -50525   -50256   -49805   -49774 
  -49871   -50107   -50221   -49828   -49740   -50309   -50365   -49588 
  -49218   -49727   -50283   -50499   -50248   -49742   -50009   -50511 
  -50163   -49808   -49829   -49773   -49724   -49744   -49783   -49567 
  -49287   -49377   -49252   -48859   -48736   -48628   -48729   -49299 
  -49748   -49995   -50275   -50287   -49944   -49771   -49982   -49871 
  -49107   -48435   -48374   -48745   -49134   -49175   -48756   -48031 
  -47790   -48694   -49616   -49601   -49700   -50060   -49944   -49941 
  -50415   -50976   -51312   -51283   -51282   -51374   -51231   -51085 
  -50927   -50541   -50122   -49670   -49279   -49108   -49104   -49441 
  -49481   -48674   -48429   -49316   -49878   -49662   -49160   -48686 
  -48829   -49189   -48938   -48787   -49042   -49061   -49107   -49119 
  -48801   -48951   -49532   -49738   -49796   -49824   -49736   -49943 
  -50008   -49605   -49608   -49871   -49636   -49349   -49284   -49370 
  -49792   -50059   -49775   -49530   -49616   -49616   -49639   -50039 
  -50225   -49824   -49501   -49623   -49944   -50174   -50095   -49862 
  -49959   -50409   -50764   -50847   -50618   -50346   -50576   -51025 
  -51066   -50738   -50299   -49913   -49758   -49824   -49910   -49902 
  -49797   -49553   -49314   -49423   -49808   -50178   -50360   -50237 
  -50120   -50071   -50066   -50565   -50836   -50220   -49940   -50174 
  -50051   -49851   -49465   -48710   -48555   -48976   -48910   -48370 
  -48049   -48192   -48689   -48961   -48433   -47721   -47765   -48674 
  -49943   -50400   -49729   -49504   -50256   -50587   -50147   -49763 
  -49476   -49083   -48687   -48351   -48432   -48894   -48959   -48524 
  -48338   -48475   -48585   -48909   -49149   -48817   -48616   -48774 
