Origin Time       2024/04/02 04:24:00
Lat.              40.133
Long.             141.712
Depth. (km)       71
Mag.              6.0
Station Code      SIT003
Station Lat.      36.0721
Station Long.     139.6969
Station Height(m) 8
Record Time       2024/04/02 04:26:40
Sampling Freq(Hz) 100Hz
Duration Time(s)  136
Dir.              N-S
Scale Factor      7845(gal)/8223790
Max. Acc. (gal)   1.887
Last Correction   2024/04/02 04:26:40
Memo.             
[...]
   -2574    -2552    -2520    -2485    -2461    -2439    -2409    -2384 
   -2369    -2365    -2369    -2377    -2392    -2412    -2430    -2439 
   -2447    -2458    -2463    -2469    -2474    -2474    -2474    -2471 
   -2455    -2435    -2420    -2415    -2412    -2403    -2393    -2386 
   -2377    -2359    -2332    -2307    -2278    -2250    -2232    -2223 
   -2216    -2215    -2218    -2220    -2219    -2215    -2215    -2216 
   -2222    -2230    -2236    -2246    -2261    -2282    -2309    -2339 
   -2373    -2409    -2442    -2474    -2506    -2538    -2560    -2585 
   -2612    -2639    -2660    -2681    -2694    -2705    -2718    -2732 
   -2741    -2748    -2759    -2776    -2791    -2791    -2774    -2747 
   -2714    -2675    -2632    -2593    -2551    -2509    -2473    -2438 
   -2408    -2389    -2382    -2382    -2388    -2398    -2408    -2424 
   -2446    -2465    -2486    -2508    -2536    -2575    -2613    -2650 
   -2675    -2682    -2681    -2671    -2659    -2648    -2632    -2621 
   -2619    -2619    -2623    -2613    -2592    -2570    -2542    -2512 
   -2469    -2419    -2388    -2359    -2327    -2297    -2272    -2255 
   -2247    -2238    -2227    -2219    -2227    -2251    -2274    -2299 
   -2338    -2384    -2431    -2485    -2538    -2577    -2605    -2624 
   -2641    -2656    -2654    -2648    -2635    -2602    -2574    -2547 
   -2516    -2494    -2488    -2494    -2506    -2524    -2558    -2601 
   -2652    -2709    -2759    -2805    -2848    -2883    -2907    -2921 
   -2936    -2949    -2961    -2979    -2987    -2986    -2980    -2964 
   -2948    -2936    -2918    -2910    -2913    -2925    -2947    -2965 
   -2980    -2992    -2992    -2987    -2970    -2934    -2897    -2871 
   -2847    -2816    -2785    -2759    -2732    -2705    -2682    -2666 
   -2666    -2667    -2664    -2660    -2650    -2639    -2627    -2614 
   -2602    -2589    -2566    -2527    -2481    -2432    -2382    -2328 
   -2276    -2231    -2200    -2177    -2153    -2120    -2085    -2056 
   -2018    -1964    -1904    -1860    -1829    -1791    -1744    -1705 
   -1672    -1645    -1622    -1598    -1578    -1560    -1541    -1536 
   -1547    -1568    -1601    -1642    -1696    -1763    -1822    -1880 
   -1945    -2011    -2076    -2127    -2168    -2214    -2262    -2299 
   -2327    -2355    -2388    -2428    -2457    -2470    -2482    -2490 
   -2492    -2493    -2497    -2508    -2520    -2536    -2555    -2570 
   -2594    -2623    -2647    -2683    -2729    -2782    -2844    -2903 
   -2964    -3030    -3098    -3177    -3260    -3342    -3422    -3480 
   -3523    -3554    -3568    -3574    -3578    -3576    -3573    -3569 
   -3555    -3538    -3519    -3501    -3480    -3458    -3431    -3397 
   -3360    -3315    -3267    -3225    -3173    -3115    -3057    -3001 
   -2952    -2899    -2839    -2782    -2737    -2706    -2674    -2635 
   -2608    -2573    -2532    -2500    -2454    -2396    -2343    -2290 
   -2255    -2234    -2204    -2169    -2126    -2085    -2057    -2029 
   -2008    -2002    -2006    -2004    -1993    -1985    -1989    -1992 
   -1995    -2004    -2026    -2054    -2085    -2111    -2123    -2134 
   -2150    -2164    -2180    -2205    -2238    -2272    -2300    -2324 
   -2344    -2367    -2393    -2415    -2440    -2466    -2488    -2513 
   -2536    -2560    -2578    -2581    -2594    -2604    -2605    -2606 
   -2593    -2575    -2562    -2540    -2524    -2504    -2474    -2461 
   -2454    -2447    -2438    -2424    -2424    -2431    -2442    -2458 
   -2462    -2465    -2471    -2462    -2448    -2439    -2421    -2400 
   -2380    -2370    -2371    -2365    -2355    -2353    -2365    -2393 
   -2424    -2458    -2500    -2542    -2578    -2598    -2601    -2594 
   -2587    -2586    -2582    -2571    -2560    -2544    -2521    -2485 
   -2436    -2394    -2351    -2312    -2289    -2270    -2253    -2234 
   -2212    -2199    -2187    -2176    -2170    -2169    -2172    -2170 
   -2166    -2172    -2177    -2185    -2208    -2231    -2254    -2277 
   -2293    -2305    -2309    -2305    -2301    -2300    -2301    -2308 
   -2317    -2330    -2334    -2331    -2332    -2330    -2323    -2317 
   -2311    -2307    -2304    -2300    -2300    -2305    -2317    -2320 
   -2320    -2338    -2361    -2384    -2403    -2421    -2450    -2486 
   -2533    -2578    -2613    -2656    -2693    -2714    -2740    -2770 
   -2801    -2828    -2848    -2878    -2910    -2926    -2932    -2934 
   -2945    -2965    -2979    -2992    -3009    -3021    -3034    -3051 
   -3073    -3110    -3144    -3172    -3192    -3203    -3206    -3198 
   -3186    -3176    -3167    -3150    -3134    -3121    -3100    -3063 
   -3021    -2991    -2965    -2937    -2917    -2899    -2883    -2872 
   -2862    -2853    -2855    -2857    -2856    -2841    -2814    -2791 
   -2758    -2704    -2647    -2585    -2523    -2471    -2409    -2353 
   -2313    -2273    -2235    -2209    -2189    -2178    -2166    -2154 
   -2155    -2162    -2172    -2184    -2187    -2188    -2195    -2211 
   -2245    -2282    -2315    -2342    -2359    -2367    -2378    -2400 
   -2419    -2431    -2455    -2489    -2521    -2562    -2594    -2617 
   -2639    -2648    -2651    -2654    -2650    -2625    -2596    -2577 
   -2552    -2527    -2504    -2473    -2450    -2435    -2411    -2396 
   -2388    -2378    -2385    -2401    -2415    -2427    -2434    -2440 
   -2459    -2478    -2488    -2489    -2475    -2447    -2419    -2396 
   -2378    -2365    -2343    -2320    -2301    -2278    -2250    -2216 
   -2180    -2150    -2126    -2089    -2047    -2020    -2006    -2003 
   -2011    -2011    -1999    -2000    -2025    -2053    -2081    -2100 
   -2118    -2155    -2199    -2238    -2282    -2322    -2353    -2386 
   -2431    -2477    -2493    -2504    -2532    -2562    -2600    -2643 
   -2668    -2691    -2724    -2766    -2810    -2843    -2866    -2884 
   -2907    -2926    -2929    -2926    -2921    -2909    -2898    -2874 
   -2835    -2805    -2779    -2748    -2717    -2689    -2670    -2663 
   -2660    -2664    -2677    -2685    -2683    -2675    -2674    -2689 
   -2697    -2697    -2694    -2681    -2651    -2614    -2574    -2528 
   -2497    -2473    -2427    -2392    -2373    -2344    -2309    -2259 
   -2209    -2181    -2142    -2096    -2077    -2070    -2066    -2066 
   -2056    -2058    -2088    -2122    -2158    -2201    -2245    -2288 
   -2320    -2353    -2401    -2452    -2509    -2554    -2579    -2606 
   -2650    -2710    -2759    -2782    -2816    -2862    -2897    -2933 
   -2957    -2963    -2961    -2948    -2929    -2926    -2924    -2907 
   -2880    -2853    -2833    -2816    -2803    -2805    -2813    -2814 
   -2814    -2808    -2790    -2774    -2747    -2698    -2655    -2636 
   -2625    -2598    -2544    -2498    -2485    -2478    -2459    -2421 
   -2385    -2358    -2323    -2292    -2269    -2234    -2195    -2153 
   -2103    -2054    -2008    -1983    -1984    -1972    -1944    -1935 
   -1961    -1989    -2002    -2029    -2080    -2107    -2112    -2153 
   -2228    -2281    -2284    -2266    -2270    -2297    -2320    -2346 
   -2363    -2340    -2330    -2370    -2408    -2435    -2471    -2511 
   -2550    -2590    -2640    -2708    -2744    -2736    -2727    -2735 
   -2756    -2785    -2836    -2894    -2907    -2906    -2932    -2956 
   -2964    -2957    -2938    -2920    -2889    -2876    -2911    -2934 
   -2921    -2895    -2872    -2863    -2863    -2871    -2878    -2867 
   -2840    -2813    -2809    -2825    -2835    -2832    -2820    -2791 
   -2770    -2756    -2729    -2695    -2668    -2644    -2613    -2585 
   -2567    -2554    -2533    -2498    -2457    -2428    -2423    -2423 
   -2405    -2384    -2369    -2353    -2347    -2354    -2336    -2307 
   -2292    -2293    -2307    -2324    -2358    -2400    -2408    -2413 
   -2443    -2475    -2498    -2505    -2496    -2481    -2478    -2505 
   -2524    -2489    -2409    -2346    -2347    -2367    -2366    -2362 
   -2344    -2301    -2253    -2228    -2238    -2227    -2166    -2108 
   -2097    -2119    -2150    -2162    -2128    -2066    -2033    -2050 
   -2092    -2122    -2130    -2131    -2126    -2123    -2157    -2193 
   -2196    -2182    -2174    -2193    -2230    -2258    -2289    -2320 
   -2349    -2386    -2430    -2488    -2535    -2538    -2517    -2517 
   -2565    -2648    -2702    -2706    -2683    -2674    -2706    -2759 
   -2795    -2810    -2826    -2868    -2929    -2984    -3045    -3103 
   -3161    -3230    -3307    -3391    -3466    -3505    -3524    -3534 
   -3531    -3527    -3528    -3543    -3551    -3545    -3524    -3488 
   -3449    -3410    -3375    -3353    -3327    -3283    -3226    -3168 
   -3109    -3049    -3005    -2960    -2916    -2882    -2829    -2772 
   -2727    -2681    -2647    -2612    -2570    -2529    -2479    -2419 
   -2350    -2290    -2236    -2177    -2111    -2049    -1995    -1931 
   -1858    -1798    -1741    -1686    -1637    -1576    -1501    -1435 
   -1379    -1318    -1252    -1188    -1142    -1119    -1105    -1101 
   -1097    -1071    -1053    -1077    -1111    -1150    -1213    -1285 
   -1362    -1441    -1506    -1579    -1668    -1750    -1811    -1873 
   -1949    -2016    -2088    -2182    -2286    -2388    -2462    -2505 
   -2547    -2612    -2698    -2798    -2894    -2974    -3021    -3044 
   -3082    -3154    -3237    -3288    -3311    -3338    -3370    -3408 
   -3453    -3501    -3550    -3570    -3564    -3562    -3570    -3600 
   -3643    -3661    -3661    -3665    -3658    -3653    -3665    -3685 
   -3700    -3696    -3655    -3609    -3566    -3505    -3465    -3445 
   -3399    -3329    -3240    -3142    -3049    -2970    -2910    -2835 
   -2737    -2641    -2550    -2479    -2415    -2326    -2246    -2193 
   -2143    -2100    -2058    -2020    -2016    -2043    -2046    -2016 
   -1993    -1992    -2007    -2023    -2018    -2000    -1998    -2003 
   -2014    -2025    -2018    -2014    -2029    -2057    -2092    -2108 
   -2100    -2088    -2103    -2160    -2208    -2219    -2207    -2189 
   -2185    -2205    -2246    -2289    -2312    -2322    -2339    -2351 
   -2338    -2327    -2350    -2396    -2435    -2428    -2392    -2393 
   -2439    -2470    -2485    -2493    -2482    -2482    -2516    -2551 
   -2554    -2524    -2493    -2492    -2519    -2515    -2470    -2446 
   -2442    -2436    -2425    -2396    -2374    -2347    -2312    -2326 
   -2369    -2376    -2334    -2293    -2305    -2315    -2274    -2239 
   -2239    -2258    -2266    -2266    -2273    -2278    -2278    -2292 
   -2319    -2353    -2366    -2361    -2381    -2415    -2425    -2417 
   -2413    -2427    -2438    -2419    -2396    -2392    -2411    -2424 
   -2413    -2408    -2419    -2434    -2457    -2494    -2536    -2542 
   -2511    -2475    -2462    -2484    -2519    -2559    -2604    -2628 
   -2637    -2663    -2716    -2787    -2851    -2902    -2945    -2995 
   -3053    -3087    -3111    -3152    -3194    -3223    -3222    -3200 
   -3194    -3215    -3261    -3304    -3307    -3280    -3261    -3250 
   -3238    -3221    -3204    -3183    -3144    -3098    -3052    -3009 
   -2976    -2952    -2930    -2901    -2843    -2766    -2712    -2705 
   -2701    -2659    -2617    -2590    -2550    -2485    -2413    -2358 
   -2303    -2241    -2180    -2114    -2042    -1979    -1946    -1949 
   -1945    -1887    -1807    -1782    -1796    -1782    -1745    -1713 
   -1701    -1694    -1682    -1690    -1706    -1710    -1715    -1714 
   -1717    -1719    -1722    -1757    -1795    -1798    -1777    -1780 
   -1829    -1883    -1898    -1896    -1927    -1979    -2025    -2058 
   -2074    -2081    -2092    -2124    -2184    -2232    -2265    -2303 
   -2346    -2384    -2397    -2403    -2417    -2455    -2506    -2554 
   -2600    -2627    -2635    -2651    -2673    -2704    -2740    -2774 
   -2809    -2841    -2870    -2895    -2922    -2952    -2976    -2998 
   -3011    -3026    -3049    -3067    -3084    -3098    -3099    -3102 
   -3115    -3149    -3186    -3213    -3231    -3235    -3235    -3219 
   -3192    -3186    -3176    -3148    -3110    -3067    -3022    -2978 
   -2941    -2910    -2875    -2840    -2810    -2790    -2779    -2771 
   -2758    -2747    -2756    -2771    -2785    -2798    -2806    -2817 
   -2830    -2839    -2843    -2856    -2878    -2893    -2897    -2902 
   -2901    -2906    -2909    -2906    -2910    -2911    -2917    -2928 
   -2917    -2910    -2913    -2901    -2887    -2871    -2849    -2824 
   -2789    -2747    -2701    -2658    -2623    -2594    -2577    -2562 
   -2532    -2488    -2440    -2400    -2359    -2320    -2284    -2255 
   -2224    -2178    -2141    -2101    -2047    -1995    -1933    -1867 
   -1815    -1765    -1714    -1671    -1620    -1559    -1513    -1476 
   -1437    -1404    -1364    -1313    -1258    -1194    -1152    -1136 
   -1115    -1093    -1075    -1061    -1062    -1073    -1084    -1088 
   -1105    -1136    -1155    -1179    -1215    -1260    -1321    -1383 
   -1448    -1517    -1597    -1696    -1780    -1867    -1966    -2052 
   -2139    -2239    -2339    -2439    -2542    -2652    -2752    -2848 
   -2949    -3040    -3140    -3252    -3358    -3460    -3550    -3638 
   -3717    -3789    -3869    -3927    -3969    -4016    -4055    -4094 
   -4137    -4183    -4226    -4270    -4318    -4352    -4387    -4428 
   -4455    -4477    -4492    -4498    -4494    -4477    -4465    -4441 
   -4398    -4344    -4276    -4214    -4159    -4098    -4033    -3958 
   -3883    -3808    -3727    -3647    -3551    -3458    -3370    -3272 
   -3171    -3065    -2956    -2847    -2732    -2616    -2492    -2371 
   -2265    -2168    -2079    -1993    -1914    -1826    -1730    -1649 
   -1572    -1499    -1439    -1377    -1327    -1281    -1229    -1186 
   -1148    -1117    -1094    -1069    -1046    -1024    -1009     -997 
    -984     -969     -951     -943     -943     -946     -947     -949 
    -961     -993    -1030    -1061    -1096    -1140    -1189    -1237 
   -1286    -1336    -1398    -1462    -1524    -1601    -1678    -1756 
   -1837    -1910    -1989    -2062    -2128    -2201    -2265    -2327 
   -2394    -2454    -2515    -2566    -2609    -2660    -2714    -2772 
   -2822    -2863    -2902    -2934    -2968    -3005    -3045    -3082 
   -3103    -3125    -3141    -3145    -3156    -3164    -3172    -3176 
   -3171    -3179    -3191    -3208    -3229    -3238    -3258    -3284 
   -3304    -3331    -3356    -3376    -3393    -3418    -3439    -3445 
   -3442    -3431    -3420    -3410    -3373    -3333    -3298    -3256 
   -3221    -3179    -3136    -3092    -3042    -3006    -2974    -2933 
   -2898    -2863    -2830    -2794    -2747    -2706    -2668    -2631 
   -2593    -2546    -2493    -2443    -2393    -2353    -2313    -2262 
   -2212    -2169    -2131    -2097    -2058    -2025    -2002    -1987 
   -1980    -1969    -1954    -1945    -1934    -1923    -1912    -1894 
   -1877    -1861    -1849    -1845    -1840    -1842    -1850    -1858 
   -1873    -1884    -1891    -1899    -1904    -1915    -1931    -1941 
   -1956    -1979    -2004    -2037    -2066    -2099    -2135    -2177 
   -2222    -2257    -2288    -2317    -2339    -2365    -2393    -2419 
   -2447    -2478    -2516    -2552    -2579    -2602    -2623    -2643 
   -2662    -2679    -2704    -2725    -2749    -2779    -2801    -2821 
   -2843    -2864    -2886    -2894    -2899    -2909    -2917    -2926 
   -2940    -2953    -2964    -2978    -2995    -3011    -3022    -3032 
   -3044    -3061    -3072    -3083    -3094    -3096    -3092    -3079 
   -3063    -3048    -3036    -3029    -3018    -3017    -3019    -3007 
   -2991    -2972    -2955    -2940    -2922    -2916    -2913    -2901 
   -2898    -2893    -2878    -2867    -2857    -2855    -2856    -2855 
   -2857    -2857    -2853    -2840    -2822    -2813    -2810    -2809 
   -2810    -2817    -2826    -2829    -2828    -2821    -2810    -2798 
   -2783    -2768    -2752    -2740    -2729    -2714    -2701    -2683 
   -2662    -2641    -2612    -2577    -2543    -2512    -2486    -2455 
   -2423    -2393    -2358    -2322    -2276    -2230    -2195    -2155 
   -2116    -2080    -2041    -2010    -1977    -1942    -1910    -1877 
   -1845    -1813    -1786    -1757    -1723    -1690    -1655    -1626 
   -1601    -1568    -1545    -1534    -1529    -1525    -1518    -1521 
   -1532    -1547    -1563    -1578    -1601    -1630    -1651    -1667 
   -1683    -1707    -1736    -1752    -1771    -1799    -1829    -1861 
   -1892    -1933    -1979    -2018    -2064    -2119    -2178    -2243 
   -2312    -2385    -2458    -2528    -2589    -2639    -2694    -2752 
   -2799    -2844    -2887    -2936    -2980    -3013    -3055    -3095 
   -3129    -3167    -3199    -3231    -3264    -3281    -3299    -3318 
   -3341    -3366    -3381    -3400    -3419    -3426    -3433    -3431 
   -3427    -3424    -3411    -3391    -3364    -3335    -3308    -3268 
   -3227    -3187    -3140    -3088    -3024    -2953    -2890    -2820 
   -2748    -2679    -2612    -2551    -2493    -2435    -2377    -2323 
   -2270    -2215    -2170    -2131    -2087    -2046    -2007    -1968 
   -1927    -1887    -1857    -1829    -1800    -1779    -1763    -1755 
   -1745    -1736    -1729    -1726    -1732    -1741    -1750    -1761 
   -1765    -1776    -1791    -1802    -1821    -1844    -1864    -1892 
   -1927    -1961    -1987    -2018    -2060    -2100    -2146    -2200 
   -2255    -2317    -2380    -2444    -2511    -2570    -2631    -2691 
   -2748    -2806    -2863    -2921    -2972    -3013    -3055    -3088 
   -3121    -3159    -3183    -3203    -3223    -3237    -3254    -3269 
   -3276    -3287    -3304    -3327    -3353    -3380    -3403    -3423 
   -3449    -3465    -3474    -3483    -3483    -3487    -3489    -3484 
   -3476    -3462    -3446    -3429    -3408    -3388    -3358    -3321 
   -3276    -3222    -3176    -3129    -3073    -3015    -2949    -2876 
   -2805    -2731    -2656    -2583    -2512    -2438    -2371    -2316 
   -2263    -2216    -2164    -2112    -2070    -2031    -1996    -1965 
   -1938    -1918    -1895    -1883    -1873    -1856    -1838    -1818 
   -1799    -1780    -1755    -1729    -1699    -1668    -1648    -1633 
   -1624    -1624    -1622    -1630    -1645    -1657    -1676    -1696 
   -1717    -1748    -1783    -1825    -1869    -1918    -1975    -2033 
   -2095    -2157    -2218    -2282    -2346    -2409    -2475    -2536 
   -2600    -2660    -2712    -2759    -2802    -2841    -2880    -2910 
   -2933    -2961    -2984    -3002    -3022    -3040    -3057    -3079 
   -3099    -3121    -3142    -3159    -3171    -3177    -3183    -3187 
   -3191    -3192    -3190    -3181    -3169    -3148    -3117    -3086 
   -3057    -3029    -3002    -2975    -2940    -2903    -2864    -2825 
   -2791    -2755    -2721    -2687    -2655    -2637    -2606    -2570 
   -2543    -2505    -2470    -2442    -2408    -2380    -2350    -2319 
   -2289    -2255    -2226    -2196    -2166    -2151    -2135    -2118 
   -2110    -2104    -2099    -2096    -2101    -2107    -2101    -2095 
   -2089    -2074    -2052    -2031    -2014    -1996    -1976    -1961 
