Origin Time       2024/04/02 04:24:00
Lat.              40.133
Long.             141.712
Depth. (km)       71
Mag.              6.0
Station Code      TCG014
Station Lat.      36.5428
Station Long.     140.1804
Station Height(m) 139
Record Time       2024/04/02 04:25:34
Sampling Freq(Hz) 100Hz
Duration Time(s)  129
Dir.              U-D
Scale Factor      7845(gal)/8223790
Max. Acc. (gal)   1.742
Last Correction   2024/04/02 04:25:34
Memo.             
[...]
   17320    17466    17662    17786    17667    17329    16987    16765 
   16664    16772    17122    17463    17589    17609    17574    17323 
   16942    16754    16804    16922    17103    17373    17598    17667 
   17586    17419    17240    17080    16945    16870    16897    17038 
   17246    17437    17556    17574    17424    17138    16911    16869 
   16999    17263    17556    17732    17718    17533    17286    17122 
   17080    17077    17088    17197    17383    17508    17528    17479 
   17354    17178    17042    17014    17077    17194    17332    17452 
   17523    17520    17389    17161    17000    16997    17078    17169 
   17307    17442    17415    17251    17136    17092    17049    17031 
   17035    17028    17088    17243    17363    17388    17375    17309 
   17192    17150    17181    17165    17166    17315    17523    17616 
   17572    17459    17302    17147    17092    17162    17255    17311 
   17356    17383    17352    17309    17259    17147    17088    17232 
   17464    17604    17678    17721    17648    17439    17235    17180 
   17293    17478    17610    17586    17406    17188    17005    16853 
   16785    16864    17032    17204    17344    17397    17317    17194 
   17127    17077    17026    17026    17064    17099    17157    17239 
   17285    17280    17265    17285    17361    17406    17334    17228 
   17188    17177    17167    17201    17289    17362    17400    17473 
   17532    17463    17352    17305    17236    17136    17167    17350 
   17502    17575    17670    17733    17632    17435    17255    17084 
   16981    17051    17224    17383    17506    17582    17543    17352 
   17096    16907    16873    16970    17108    17204    17239    17261 
   17285    17274    17242    17185    17074    16973    17005    17159 
   17305    17390    17417    17367    17288    17243    17216    17196 
   17235    17313    17363    17379    17370    17338    17308    17271 
   17240    17297    17402    17382    17220    17113    17132    17150 
   17130    17199    17288    17184    17011    17028    17115    17107 
   17178    17429    17609    17544    17400    17336    17275    17123 
   17001    17081    17294    17462    17571    17662    17643    17455 
   17232    17185    17271    17282    17236    17293    17383    17358 
   17286    17320    17401    17408    17347    17269    17207    17178 
   17146    17126    17188    17271    17253    17181    17151    17105 
   17039    17077    17208    17323    17439    17506    17365    17096 
   16956    17000    17077    17140    17284    17464    17517    17431 
   17327    17209    17055    16991    17088    17227    17367    17578 
   17713    17551    17200    16864    16584    16463    16644    17049 
   17475    17801    17955    17875    17599    17307    17091    16864 
   16696    16819    17176    17493    17712    17884    17898    17609 
   17135    16711    16474    16530    16907    17393    17732    17834 
   17729    17469    17085    16676    16465    16606    17001    17467 
   17859    18096    18131    17923    17529    17112    16765    16557 
   16610    16891    17194    17404    17556    17667    17656    17478 
   17217    17004    16938    17043    17223    17375    17505    17637 
   17693    17559    17313    17176    17180    17173    17132    17170 
   17304    17460    17597    17687    17699    17622    17460    17261 
   17093    17011    17058    17242    17456    17579    17621    17633 
   17514    17208    16930    16856    16931    17068    17200    17243 
   17216    17207    17217    17201    17181    17204    17244    17248 
   17220    17200    17259    17400    17532    17608    17613    17460 
   17157    16887    16785    16827    17011    17342    17621    17651 
   17564    17514    17366    17065    16830    16775    16810    16945 
   17220    17493    17631    17639    17571    17462    17293    17089 
   16941    16852    16768    16714    16798    17066    17367    17543 
   17621    17628    17489    17296    17253    17298    17228    17096 
   17076    17151    17250    17388    17497    17469    17365    17335 
   17363    17300    17128    16978    16941    17039    17263    17510 
   17618    17552    17408    17220    16999    16838    16831    17011 
   17290    17481    17482    17359    17169    16918    16737    16791 
   17015    17267    17562    17849    17906    17649    17266    16980 
   16906    17055    17348    17649    17842    17864    17680    17344 
   17023    16839    16772    16784    16950    17311    17670    17798 
   17707    17531    17315    17054    16852    16881    17119    17334 
   17444    17547    17621    17571    17451    17324    17172    17085 
   17153    17231    17232    17320    17527    17593    17405    17157 
   17030    17047    17131    17153    17124    17174    17281    17385 
   17563    17795    17844    17620    17338    17119    16887    16714 
   16768    16966    17169    17369    17456    17273    16943    16776 
   16869    17086    17298    17482    17651    17702    17496    17130 
   16888    16914    17104    17253    17242    17123    17004    16939 
   16976    17139    17385    17614    17744    17737    17543    17123 
   16654    16436    16559    16953    17577    18226    18528    18296 
   17649    16902    16425    16370    16602    17014    17556    17963 
   17923    17564    17181    16784    16436    16444    16857    17390 
   17830    18072    18023    17710    17281    16853    16519    16461 
   16773    17320    17863    18153    18052    17705    17332    16978 
   16708    16688    16845    16946    17047    17319    17656    17887 
   17942    17747    17375    17113    17050    17010    16961    17031 
   17159    17231    17328    17479    17545    17483    17350    17142 
   16941    16949    17174    17421    17629    17852    17928    17639 
   17126    16692    16440    16465    16873    17423    17736    17795 
   17814    17842    17770    17540    17254    17073    17047    17136 
   17328    17594    17764    17662    17393    17215    17159    17130 
   17142    17248    17446    17649    17663    17386    17028    16806 
   16718    16777    17014    17290    17491    17693    17915    17955 
   17635    17104    16730    16653    16696    16788    17054    17366 
   17408    17242    17209    17355    17459    17462    17475    17466 
   17271    16927    16673    16661    16903    17327    17744    17888 
   17628    17126    16713    16640    16899    17273    17591    17798 
   17829    17602    17193    16834    16673    16692    16880    17292 
   17833    18202    18160    17790    17352    17005    16783    16719 
   16807    16976    17186    17400    17513    17505    17514    17555 
   17516    17443    17327    17001    16637    16595    16827    17173 
   17656    18127    18274    17960    17296    16595    16163    16096 
   16406    17046    17720    18067    18046    17814    17394    16875 
   16545    16541    16704    16877    17030    17192    17402    17651 
   17834    17863    17745    17547    17254    16812    16375    16270 
   16549    17007    17524    17963    18073    17802    17346    16931 
   16762    16930    17239    17436    17562    17667    17537    17126 
   16771    16737    16997    17417    17836    18054    17888    17355 
   16791    16526    16565    16794    17227    17772    18133    18188 
   17990    17531    16945    16591    16679    17026    17323    17563 
   17861    18023    17842    17501    17231    17059    17073    17319 
   17509    17355    16966    16652    16582    16810    17356    18068 
   18603    18674    18235    17409    16449    15878    16102    16808 
   17385    17734    17959    17940    17702    17458    17246    16983 
   16729    16660    16825    17014    16991    16866    16962    17355 
   17825    18126    18129    17771    17123    16459    16106    16244 
   16798    17464    17996    18373    18520    18245    17581    16783 
   16131    15844    15962    16398    17039    17643    17988    18076 
   17923    17571    17228    17062    17019    17058    17211    17356 
   17383    17435    17586    17636    17498    17267    16931    16582 
   16488    16599    16702    16922    17416    17975    18339    18465 
   18333    17913    17351    16845    16474    16367    16700    17319 
   17811    17984    17857    17440    16879    16506    16492    16769 
   17219    17663    17907    17899    17659    17282    17019    17015 
   17120    17127    17019    16883    16796    16835    17028    17328 
   17643    17841    17784    17500    17165    16877    16657    16617 
   16837    17228    17699    18135    18272    17902    17221    16690 
   16546    16642    16772    16889    16969    17000    17108    17374 
   17602    17548    17305    17158    17193    17255    17223    17140 
   17026    16875    16879    17139    17455    17655    17710    17578 
   17224    16711    16289    16352    17000    17805    18293    18423 
   18288    17865    17203    16513    16146    16355    16919    17413 
   17702    17743    17451    17031    16826    16834    16960    17290 
   17709    17818    17458    16818    16282    16299    16978    17844 
   18422    18671    18550    17918    17095    16605    16532    16711 
   17101    17618    17991    17975    17608    17163    16951    17088 
   17383    17582    17628    17531    17253    16937    16827    16873 
   16980    17281    17679    17840    17793    17740    17581    17239 
   16960    16911    16958    16926    16846    16988    17494    18037 
   18157    17840    17413    17045    16714    16515    16590    16899 
   17336    17810    18160    18193    17902    17444    16973    16722 
   16891    17221    17317    17224    17097    16869    16690    16830 
   17162    17475    17814    18076    18033    17729    17324    16988 
   16958    17170    17328    17435    17612    17730    17655    17450 
   17127    16702    16430    16498    16731    16875    16941    17080 
   17248    17344    17478    17726    17905    17890    17736    17454 
   17126    16929    16865    16864    16939    17089    17278    17463 
   17533    17389    17100    16865    16758    16668    16586    16630 
   16744    16860    17065    17321    17471    17551    17636    17568 
   17257    16907    16653    16455    16401    16630    17149    17824 
   18335    18327    17845    17269    16808    16491    16387    16472 
   16618    16829    17119    17343    17466    17637    17874    18038 
   18006    17648    17011    16448    16256    16505    17169    17959 
   18324    18119    17787    17545    17167    16688    16476    16645 
   17003    17447    17956    18351    18384    17994    17350    16741 
   16378    16325    16664    17354    17994    18300    18488    18654 
   18427    17678    16823    16181    15885    16227    17203    18185 
   18667    18720    18453    17802    16974    16403    16289    16548 
   17088    17682    17961    17849    17559    17190    16821    16626 
   16726    17163    17791    18202    18202    17959    17547    16997 
   16583    16490    16634    16978    17478    17803    17713    17470 
   17385    17352    17297    17406    17566    17410    16968    16580 
   16463    16622    16977    17410    17733    17744    17419    16985 
   16746    16777    17007    17401    17776    17874    17720    17443 
   17035    16615    16525    16846    17203    17358    17497    17651 
   17595    17413    17358    17323    17154    17014    16977    16945 
   16933    16978    17099    17398    17782    17907    17753    17582 
   17392    17122    16969    16962    16893    16833    16996    17262 
   17350    17167    16827    16599    16746    17196    17651    17977 
   18112    17937    17497    17028    16741    16715    16887    17115 
   17319    17486    17556    17400    17068    16854    16920    17115 
   17239    17221    17078    16916    16943    17253    17702    18031 
   18029    17675    17178    16787    16634    16754    17127    17598 
   17810    17486    16812    16351    16486    17030    17521    17740 
   17679    17366    16950    16680    16671    16814    16973    17209 
   17647    18134    18291    18019    17625    17207    16613    16011 
   15763    16019    16745    17733    18567    18890    18604    17957 
   17336    16846    16411    16146    16247    16706    17307    17818 
   18117    18157    17883    17397    17064    17038    17076    17059 
   17120    17294    17448    17486    17517    17695    17880    17860 
   17706    17486    17128    16783    16779    17096    17383    17545 
   17690    17694    17540    17516    17632    17570    17312    17118 
   17014    16906    16881    17031    17205    17311    17502    17807 
   17975    17848    17456    16883    16308    15979    16043    16405 
   16850    17354    17969    18476    18478    17942    17323    16961 
   16744    16584    16629    16833    17046    17362    17828    18173 
   18144    17728    17085    16511    16301    16514    16970    17440 
   17767    17824    17571    17223    17015    16978    17085    17227 
   17235    17084    16862    16692    16703    16915    17312    17933 
   18576    18808    18505    17882    17131    16468    16183    16371 
   16858    17423    17890    18179    18220    17906    17301    16623 
   16065    15901    16345    17124    17822    18393    18783    18719 
   18234    17593    16896    16276    15988    16132    16578    17190 
   17910    18535    18756    18458    17720    16690    15770    15442 
   15796    16642    17644    18272    18272    17913    17439    16954 
   16730    16829    17030    17329    17691    17778    17537    17286 
   17124    16996    16926    16845    16750    16881    17281    17616 
   17639    17393    17057    16899    17058    17348    17556    17647 
   17508    17078    16664    16551    16694    16970    17266    17412 
   17409    17385    17267    17015    16884    17004    17212    17437 
   17663    17736    17604    17385    17143    16918    16837    16891 
   16964    17111    17369    17578    17672    17733    17702    17450 
   17100    16887    16745    16571    16533    16726    16961    17096 
   17248    17523    17743    17726    17656    17757    17837    17647 
   17358    17232    17184    17069    16987    17064    17232    17350 
   17374    17378    17436    17504    17491    17460    17531    17660 
   17679    17575    17559    17672    17658    17454    17297    17178 
   16995    16924    16974    16857    16587    16534    16845    17261 
   17532    17682    17725    17496    17012    16646    16637    16830 
   17161    17803    18542    18775    18431    17988    17536    16865 
   16276    16264    16687    17065    17285    17509    17689    17651 
   17435    17216    17061    16988    16962    16883    16842    17026 
   17250    17262    17255    17409    17442    17162    16842    16772 
   16945    17258    17575    17717    17686    17633    17604    17599 
   17617    17537    17316    17169    17265    17405    17352    17157 
   16968    16914    17096    17396    17575    17604    17564    17485 
   17369    17223    17073    17004    17082    17273    17462    17570 
   17541    17271    16761    16286    16156    16409    16883    17410 
   17798    17949    17948    17848    17575    17176    16818    16659 
   16821    17204    17470    17541    17610    17624    17477    17325 
   17176    16830    16452    16393    16636    17008    17433    17766 
   17863    17699    17307    16826    16490    16422    16621    17039 
   17548    17938    17987    17621    17077    16691    16607    16811 
   17161    17396    17429    17355    17178    16974    16956    17163 
   17440    17699    17913    17968    17813    17483    17034    16653 
   16595    16869    17240    17622    18029    18198    17886    17312 
   16787    16353    16146    16370    16838    17220    17490    17710 
   17786    17645    17404    17244    17211    17261    17444    17775 
   18025    17907    17423    16845    16463    16428    16773    17367 
   17852    17983    17940    17864    17579    17150    17027    17301 
   17544    17518    17358    17150    16953    16974    17301    17686 
   17855    17807    17693    17574    17428    17209    16968    16910 
   17095    17348    17575    17752    17691    17271    16750    16467 
   16510    16803    17220    17624    17834    17671    17254    16993 
   17015    17050    17001    17103    17410    17590    17442    17224 
   17199    17265    17250    17211    17199    17097    16883    16672 
   16600    16858    17375    17725    17745    17647    17486    17226 
   17023    16984    17051    17184    17351    17424    17273    16937 
   16606    16449    16436    16468    16723    17416    18204    18509 
   18262    17744    17124    16598    16425    16633    17061    17563 
   17944    18029    17878    17628    17319    17096    17157    17358 
   17439    17481    17589    17525    17174    16850    16841    17080 
   17385    17674    17921    18077    18092    17926    17622    17328 
   17163    17099    17034    16951    16983    17234    17548    17685 
   17693    17737    17652    17261    16794    16540    16515    16742 
   17284    17855    18060    17948    17791    17591    17282    17038 
   16977    17023    17146    17275    17240    17049    16884    16816 
   16794    16787    16808    16945    17265    17609    17730    17591 
   17270    16833    16476    16460    16807    17320    17774    17929 
   17647    17150    16784    16553    16384    16460    16822    17236 
   17562    17787    17851    17722    17520    17405    17392    17371 
   17278    17131    17001    16972    17055    17123    17070    17053 
   17201    17363    17409    17396    17313    17086    16869    16916 
   17192    17404    17393    17285    17297    17442    17533    17524 
   17514    17509    17459    17412    17413    17425    17440    17547 
   17687    17647    17431    17312    17381    17448    17483    17658 
   17903    17883    17548    17232    17086    16934    16753    16727 
   16887    17107    17305    17454    17545    17574    17533    17466 
   17361    17122    16839    16783    17020    17348    17660    18025 
   18308    18195    17701    17172    16795    16591    16602    16834 
   17219    17606    17806    17699    17335    16953    16779    16789 
   16912    17197    17533    17653    17520    17328    17211    17182 
   17239    17402    17583    17537    17140    16551    16013    15790 
   16120    16910    17710    18169    18237    18029    17659    17186 
   16768    16681    17000    17444    17699    17664    17406    17096 
   16927    16970    17192    17504    17718    17680    17459    17203 
   16957    16798    16808    16900    16969    17026    17078    17147 
   17304    17541    17784    17980    18007    17760    17359    16945 
   16498    16116    16038    16344    16941    17639    18153    18241 
   17852    17182    16575    16297    16403    16811    17365    17829 
   18011    17869    17501    17120    16924    16884    16892    17026 
   17315    17514    17462    17313    17232    17196    17196    17217 
   17132    16942    16843    16841    16768    16740    16983    17382 
   17672    17775    17730    17577    17332    17041    16806    16680 
