Origin Time       2024/04/02 04:24:00
Lat.              40.133
Long.             141.712
Depth. (km)       71
Mag.              6.0
Station Code      YMT001
Station Lat.      38.9142
Station Long.     139.8123
Station Height(m) 2
Record Time       2024/04/02 04:25:35
Sampling Freq(Hz) 100Hz
Duration Time(s)  120
Dir.              E-W
Scale Factor      7845(gal)/8223790
Max. Acc. (gal)   2.089
Last Correction   2024/04/02 04:25:36
Memo.             
[...]
   15552    15457    15364    15299    15178    15029    14940    14813 
   14611    14445    14346    14233    14125    14111    14141    14116 
   14092    14130    14161    14110    14019    13976    13988    13986 
   13980    14041    14127    14175    14233    14304    14319    14326 
   14386    14459    14480    14416    14308    14206    14095    13921 
   13714    13572    13489    13432    13409    13377    13348    13425 
   13598    13724    13733    13787    13961    14046    13981    13994 
   14088    14091    14064    14122    14193    14239    14319    14430 
   14520    14607    14701    14729    14728    14810    14872    14814 
   14816    14941    14987    14921    14901    14964    15026    15017 
   14985    15040    15148    15187    15192    15261    15368    15439 
   15473    15493    15476    15391    15287    15221    15102    14916 
   14796    14743    14694    14659    14627    14636    14752    14895 
   14960    15041    15213    15352    15425    15519    15634    15722 
   15793    15893    15992    16008    15939    15836    15705    15488 
   15192    14935    14770    14628    14458    14322    14257    14211 
   14199    14223    14278    14457    14678    14809    15009    15336 
   15561    15685    15913    16190    16339    16459    16677    16838 
   16877    16965    17053    17016    16943    16860    16742    16632 
   16499    16380    16305    16168    16019    15971    15919    15784 
   15651    15538    15394    15245    15118    14979    14810    14693 
   14629    14503    14382    14442    14571    14601    14652    14872 
   15115    15259    15391    15533    15633    15734    15827    15801 
   15720    15696    15643    15520    15379    15205    15024    14863 
   14704    14547    14428    14341    14273    14269    14322    14366 
   14436    14592    14823    15037    15182    15331    15489    15568 
   15558    15506    15433    15329    15194    15020    14829    14744 
   14740    14671    14593    14589    14612    14601    14562    14554 
   14553    14508    14440    14346    14224    14111    14056    14079 
   14114    14169    14299    14451    14571    14671    14817    14982 
   15060    15125    15240    15284    15269    15294    15291    15259 
   15269    15257    15198    15230    15356    15400    15369    15439 
   15569    15576    15489    15433    15411    15329    15176    15080 
   15044    14964    14870    14818    14809    14827    14837    14858 
   14910    14956    14971    14964    14943    14929    14935    14921 
   14858    14804    14856    14925    14881    14821    14820    14778 
   14693    14635    14602    14600    14678    14837    14991    15109 
   15225    15337    15453    15518    15491    15520    15614    15566 
   15446    15448    15469    15371    15269    15249    15219    15201 
   15279    15353    15367    15421    15483    15449    15367    15303 
   15213    15064    14941    14837    14643    14438    14318    14197 
   14067    14025    14080    14152    14218    14347    14528    14674 
   14786    14947    15155    15302    15350    15412    15523    15542 
   15469    15452    15460    15394    15318    15300    15248    15106 
   14971    14850    14671    14497    14370    14243    14168    14172 
   14170    14153    14188    14261    14293    14296    14362    14488 
   14607    14708    14821    14948    15064    15167    15268    15399 
   15556    15673    15742    15827    15892    15878    15894    15998 
   16089    16158    16248    16345    16433    16517    16563    16565 
   16600    16671    16710    16740    16795    16839    16829    16771 
   16648    16483    16372    16268    16097    15962    15896    15812 
   15716    15669    15635    15573    15546    15569    15568    15515 
   15450    15422    15381    15222    14978    14789    14662    14458 
   14229    14131    14077    14006    13994    13953    13857    13855 
   13903    13884    13895    13981    14011    14014    14119    14237 
   14253    14312    14457    14508    14490    14507    14499    14481 
   14474    14420    14355    14355    14395    14395    14386    14480 
   14627    14713    14739    14747    14731    14662    14546    14453 
   14405    14355    14311    14287    14253    14230    14226    14192 
   14180    14224    14246    14243    14250    14233    14184    14162 
   14195    14196    14179    14260    14378    14473    14574    14631 
   14671    14737    14735    14670    14611    14542    14465    14424 
   14407    14362    14343    14409    14466    14454    14442    14457 
   14465    14472    14484    14422    14301    14322    14461    14476 
   14473    14682    14941    15076    15184    15340    15473    15525 
   15545    15588    15572    15518    15550    15607    15606    15630 
   15705    15759    15822    15936    16023    16021    16005    16042 
   16106    16160    16228    16301    16367    16488    16622    16642 
   16622    16715    16856    16866    16815    16870    16923    16848 
   16775    16754    16710    16650    16617    16591    16525    16429 
   16351    16245    16077    15892    15742    15641    15541    15375 
   15207    15217    15255    15070    14936    15020    15016    14883 
   14831    14858    14821    14696    14648    14673    14585    14434 
   14319    14223    14088    13852    13637    13575    13555    13501 
   13463    13470    13522    13594    13667    13756    13876    14052 
   14254    14403    14542    14733    14910    15045    15168    15230 
   15228    15245    15276    15259    15217    15201    15201    15182 
   15115    15010    14868    14766    14773    14732    14570    14493 
   14557    14623    14643    14632    14656    14746    14802    14751 
   14647    14557    14489    14409    14314    14253    14274    14386 
   14511    14566    14613    14713    14777    14778    14775    14770 
   14729    14661    14604    14505    14288    14098    14038    13968 
   13861    13813    13867    14052    14227    14300    14434    14656 
   14818    14916    15018    15129    15211    15230    15255    15349 
   15431    15481    15568    15642    15646    15628    15606    15557 
   15484    15352    15174    15067    15005    14870    14732    14696 
   14713    14746    14814    14917    15068    15267    15407    15488 
   15599    15705    15732    15672    15619    15624    15562    15458 
   15456    15418    15306    15296    15358    15377    15395    15456 
   15538    15622    15701    15745    15762    15793    15835    15857 
   15831    15780    15745    15703    15606    15461    15338    15250 
   15153    15047    14982    14953    14935    14951    15017    15064 
   15095    15168    15222    15215    15226    15275    15290    15296 
   15372    15433    15425    15442    15481    15461    15387    15317 
   15272    15169    15013    14940    14928    14874    14828    14832 
   14840    14850    14902    14948    14959    14985    14955    14866 
   14796    14693    14593    14586    14640    14706    14781    14943 
   15194    15363    15458    15674    15958    16092    16092    16114 
   16112    15947    15719    15568    15410    15218    15134    15130 
   15084    15026    14995    14943    14812    14644    14496    14328 
   14150    14023    13942    13890    13871    13915    14011    14106 
   14184    14284    14411    14488    14500    14500    14482    14446 
   14396    14303    14204    14116    14017    14015    14119    14175 
   14245    14431    14644    14836    14999    15137    15291    15414 
   15433    15446    15535    15587    15580    15615    15674    15678 
   15630    15657    15746    15695    15588    15622    15687    15650 
   15574    15581    15646    15604    15504    15479    15439    15329 
   15242    15214    15160    15059    14979    14891    14764    14675 
   14647    14625    14594    14589    14650    14688    14639    14617 
   14621    14527    14397    14300    14181    14049    13949    13923 
   13937    13899    13906    13988    13975    13867    13825    13869 
   13861    13776    13810    14014    14199    14334    14584    14916 
   15196    15468    15747    15950    16087    16221    16285    16251 
   16217    16189    16128    16082    16062    16054    16043    16001 
   16002    16024    15955    15871    15819    15701    15560    15442 
   15299    15180    15164    15188    15194    15201    15232    15280 
   15253    15151    15101    15094    15064    15075    15132    15206 
   15352    15506    15545    15561    15646    15668    15572    15500 
   15489    15435    15327    15244    15179    15067    14945    14887 
   14840    14744    14678    14713    14785    14831    14914    15090 
   15279    15449    15634    15807    15938    16031    16105    16144 
   16089    16012    16012    15970    15831    15712    15618    15476 
   15329    15194    15016    14844    14770    14743    14679    14629 
   14663    14725    14769    14848    14997    15171    15319    15479 
   15699    15888    16027    16178    16322    16445    16487    16434 
   16414    16418    16320    16158    16038    15947    15817    15658 
   15466    15233    15087    15052    14939    14782    14746    14762 
   14715    14604    14501    14438    14326    14188    14107    13941 
   13693    13558    13491    13373    13230    13109    13042    13045 
   13039    12969    12899    12873    12884    12904    12895    12908 
   12976    13058    13212    13385    13470    13590    13825    14060 
   14210    14335    14532    14719    14827    14933    15024    15072 
   15114    15129    15118    15106    15105    15156    15229    15260 
   15299    15400    15495    15557    15664    15793    15847    15869 
   15944    15981    15903    15815    15741    15614    15465    15317 
   15126    14929    14824    14798    14762    14769    14895    15028 
   15098    15182    15298    15391    15426    15438    15488    15538 
   15520    15514    15545    15498    15417    15421    15404    15284 
   15190    15169    15157    15128    15074    15048    15105    15179 
   15198    15222    15323    15448    15508    15522    15539    15556 
   15546    15530    15522    15519    15519    15511    15529    15529 
   15471    15489    15603    15653    15665    15741    15811    15826 
   15862    15904    15847    15762    15749    15699    15552    15437 
   15373    15257    15109    15039    15022    14979    14974    15010 
   15017    15055    15134    15182    15209    15242    15248    15192 
   15138    15129    15086    14968    14852    14779    14688    14507 
   14327    14233    14158    14091    14018    13948    13988    14062 
   14042    14049    14176    14318    14382    14432    14553    14679 
   14748    14816    14868    14901    14978    15053    15064    15041 
   15002    14970    14953    14917    14867    14820    14790    14778 
   14704    14590    14543    14532    14534    14547    14497    14434 
   14439    14393    14261    14173    14129    14077    14022    13919 
   13859    13938    14010    14046    14196    14413    14585    14755 
   14986    15210    15329    15403    15543    15665    15655    15615 
   15603    15552    15475    15394    15264    15099    15022    15047 
   14974    14804    14754    14817    14841    14801    14814    14955 
   15132    15284    15435    15606    15828    16048    16205    16368 
   16532    16609    16641    16715    16758    16676    16536    16444 
   16420    16316    16073    15943    15931    15777    15564    15449 
   15354    15214    15091    15028    14924    14755    14681    14651 
   14517    14419    14423    14382    14349    14400    14484    14565 
   14616    14724    14936    15064    15080    15147    15250    15341 
   15390    15357    15325    15372    15415    15391    15340    15315 
   15337    15340    15287    15234    15188    15159    15183    15172 
   15080    15026    15025    14968    14891    14882    14908    14924 
   14951    14989    14966    14895    14872    14833    14700    14585 
   14592    14632    14621    14642    14720    14773    14845    14967 
   15040    15098    15213    15296    15319    15349    15326    15207 
   15103    15033    14924    14777    14646    14574    14574    14571 
   14535    14575    14713    14810    14895    15068    15245    15373 
   15538    15716    15808    15847    15940    16048    16040    15948 
   15900    15869    15782    15651    15502    15376    15303    15210 
   15064    14924    14797    14677    14575    14458    14316    14224 
   14211    14187    14138    14152    14210    14254    14318    14378 
   14436    14547    14644    14696    14801    14944    15045    15137 
   15245    15338    15464    15634    15763    15849    15966    16100 
   16116    15997    15871    15747    15606    15495    15315    15115 
   15114    15188    15132    15078    15169    15282    15313    15329 
   15356    15388    15442    15508    15573    15611    15627    15676 
   15722    15754    15822    15877    15896    15939    15994    15975 
   15865    15808    15857    15804    15626    15526    15525    15500 
   15441    15410    15437    15475    15498    15527    15527    15485 
   15426    15307    15140    14966    14764    14573    14422    14280 
   14160    14050    13941    13864    13806    13748    13690    13603 
   13536    13500    13440    13382    13350    13325    13324    13325 
   13298    13246    13221    13242    13235    13176    13124    13101 
   13054    12973    12919    12887    12850    12865    12938    13036 
   13138    13209    13267    13343    13425    13479    13494    13513 
   13566    13605    13589    13566    13594    13652    13691    13701 
   13736    13848    13969    14048    14127    14265    14435    14584 
   14739    14918    15064    15249    15516    15696    15762    15851 
   15936    15966    15989    15993    15981    16005    16038    16020 
   15946    15885    15876    15847    15797    15789    15830    15897 
   15961    15998    16055    16125    16159    16201    16271    16306 
   16318    16352    16405    16455    16479    16490    16499    16511 
   16542    16561    16561    16557    16542    16569    16603    16551 
   16490    16453    16402    16349    16240    16104    16044    15961 
   15755    15574    15473    15322    15156    15097    15057    14990 
   15018    15128    15178    15187    15230    15282    15306    15307 
   15269    15203    15191    15210    15182    15184    15265    15306 
   15304    15360    15407    15398    15429    15495    15520    15538 
   15553    15554    15596    15662    15703    15762    15884    16051 
   16190    16248    16285    16330    16370    16364    16283    16186 
   16113    16021    15931    15851    15723    15606    15577    15526 
   15373    15268    15272    15215    15061    14952    14909    14839 
   14710    14611    14559    14457    14378    14426    14443    14392 
   14405    14454    14467    14446    14428    14442    14391    14285 
   14291    14334    14264    14203    14249    14274    14264    14312 
   14338    14301    14291    14293    14246    14176    14156    14180 
   14185    14196    14253    14322    14395    14492    14580    14615 
   14629    14683    14731    14725    14720    14747    14766    14719 
   14635    14590    14538    14480    14484    14489    14505    14615 
   14697    14723    14860    15059    15164    15257    15410    15523 
   15572    15611    15642    15677    15674    15581    15496    15456 
   15368    15265    15215    15141    15018    14933    14879    14771 
   14659    14620    14581    14509    14513    14586    14646    14719 
   14808    14858    14898    14962    14976    14918    14855    14810 
   14752    14690    14625    14573    14608    14681    14706    14763 
   14868    14906    14899    14960    14999    14936    14947    15057 
   15076    15067    15142    15214    15245    15277    15303    15290 
   15260    15282    15288    15178    15071    15066    15013    14870 
   14790    14829    14862    14808    14818    14964    15029    14994 
   15053    15168    15207    15202    15178    15126    15098    15079 
   14999    14885    14818    14813    14786    14713    14682    14720 
   14770    14836    14918    14970    14999    15067    15194    15282 
   15263    15280    15403    15479    15479    15489    15522    15545 
   15547    15519    15450    15408    15437    15442    15395    15371 
   15375    15352    15267    15169    15082    14947    14833    14786 
   14704    14605    14586    14613    14636    14631    14594    14607 
   14679    14686    14651    14719    14862    14944    14987    15090 
   15221    15300    15353    15431    15493    15507    15518    15554 
   15603    15624    15600    15583    15592    15619    15647    15623 
   15584    15604    15641    15620    15546    15484    15479    15464 
   15384    15313    15306    15331    15365    15399    15429    15433 
   15423    15471    15508    15453    15394    15410    15449    15403 
   15307    15284    15271    15198    15128    15049    14949    14859 
   14733    14575    14453    14359    14265    14160    14053    13990 
   13957    13899    13834    13819    13855    13875    13846    13833 
   13855    13841    13791    13771    13784    13740    13659    13670 
   13684    13608    13579    13629    13671    13699    13752    13869 
   14008    14115    14268    14474    14625    14723    14844    14974 
   15040    15056    15114    15207    15257    15280    15303    15290 
   15265    15295    15322    15264    15219    15290    15356    15327 
   15318    15390    15462    15516    15558    15576    15631    15727 
   15769    15769    15824    15931    16005    15990    15946    15988 
   16027    15928    15808    15789    15770    15657    15550    15507 
   15379    15221    15219    15215    15067    14953    14960    14980 
   14959    14967    15016    15072    15184    15282    15268    15288 
   15399    15480    15529    15573    15611    15696    15786    15815 
   15876    15969    15992    15975    15982    16011    15992    15893 
   15855    15905    15855    15738    15703    15711    15700    15666 
   15618    15604    15627    15650    15657    15638    15628    15647 
   15646    15604    15560    15545    15525    15445    15350    15282 
   15198    15083    14956    14797    14627    14505    14381    14223 
   14106    14038    13988    13959    13942    13960    13984    13981 
   14002    14026    13992    13954    13953    13940    13886    13824 
   13813    13857    13871    13825    13821    13891    13945    13941 
   13967    14064    14138    14176    14277    14443    14598    14742 
   14912    15102    15229    15277    15333    15422    15489    15471 
   15425    15460    15522    15534    15552    15606    15677    15761 
   15823    15862    15928    16025    16100    16143    16187    16247 
   16328    16383    16395    16459    16571    16618    16580    16534 
   16532    16505    16390    16282    16271    16264    16189    16125 
   16109    16086    16079    16094    16046    15957    15907    15849 
   15741    15619    15537    15457    15306    15182    15137    15043 
   14914    14856    14850    14835    14767    14679    14686    14760 
   14763    14704    14690    14713    14679    14611    14580    14523 
