Origin Time       2024/04/02 04:24:00
Lat.              40.133
Long.             141.712
Depth. (km)       71
Mag.              6.0
Station Code      YMT007
Station Lat.      38.4302
Station Long.     140.3902
Station Height(m) 120
Record Time       2024/04/02 04:25:10
Sampling Freq(Hz) 100Hz
Duration Time(s)  110
Dir.              E-W
Scale Factor      7845(gal)/8223790
Max. Acc. (gal)   3.169
Last Correction   2024/04/02 04:25:10
Memo.             
[...]
    5019     4997     4857     4629     4330     4135     4237     4428 
    4379     4229     4338     4712     5027     5062     4932     4762 
    4576     4556     4800     5030     5023     4900     4837     4862 
    4884     4796     4695     4750     4868     4845     4737     4656 
    4467     4162     4077     4302     4488     4438     4365     4484 
    4693     4815     4819     4762     4729     4772     4873     5005 
    5117     5166     5206     5275     5325     5267     5030     4739 
    4658     4804     4920     4819     4585     4413     4418     4634 
    4973     5251     5368     5351     5233     5011     4752     4634 
    4696     4808     4904     4953     4908     4784     4649     4630 
    4750     4861     4907     4912     4806     4561     4274     4056 
    4012     4230     4596     4787     4687     4518     4515     4741 
    5030     5201     5332     5470     5495     5420     5319     5223 
    5144     4997     4773     4684     4811     4982     5000     4861 
    4789     4881     4930     4834     4804     4984     5197     5265 
    5274     5358     5474     5517     5499     5449     5340     5208 
    5050     4812     4637     4684     4869     5027     5028     4838 
    4638     4618     4761     4854     4685     4446     4536     4877 
    5092     5078     4931     4746     4677     4834     5039     5028 
    4788     4495     4276     4147     4109     4179     4307     4428 
    4602     4808     4831     4669     4645     4882     5078     5009 
    4869     4858     4842     4662     4442     4379     4429     4403 
    4321     4382     4599     4812     4957     5027     4990     4870 
    4777     4718     4598     4482     4498     4583     4646     4696 
    4760     4857     4984     5144     5305     5340     5179     4992 
    4958     4962     4788     4529     4484     4673     4758     4580 
    4419     4509     4648     4585     4467     4492     4506     4322 
    4117     4136     4240     4166     4074     4284     4676     4869 
    4877     5011     5298     5498     5486     5314     5067     4874 
    4882     5044     5171     5219     5242     5170     4891     4522 
    4363     4515     4734     4773     4708     4708     4749     4758 
    4796     4926     5092     5178     5142     5053     4985     4970 
    5020     5050     4990     4897     4801     4689     4598     4610 
    4831     5235     5501     5362     5039     4862     4780     4691 
    4687     4753     4765     4715     4704     4781     4878     4935 
    4970     5003     5031     5030     4943     4791     4752     4955 
    5235     5273     5032     4830     4855     4951     5000     5093 
    5216     5216     5090     4922     4689     4475     4445     4585 
    4746     4849     4885     4853     4780     4752     4834     4930 
    4853     4618     4515     4669     4797     4710     4596     4622 
    4689     4671     4599     4630     4789     4950     5017     4961 
    4889     5000     5269     5445     5333     5020     4831     4931 
    5174     5331     5219     4855     4463     4206     4164     4305 
    4463     4573     4696     4769     4712     4668     4761     4885 
    4945     4978     5057     5251     5487     5551     5393     5166 
    5008     4930     4941     5088     5279     5360     5282     5035 
    4715     4461     4270     4166     4218     4311     4306     4260 
    4270     4307     4314     4333     4433     4594     4784     4993 
    5161     5205     5151     5165     5333     5508     5520     5424 
    5397     5425     5309     5020     4710     4456     4229     4054 
    4044     4137     4117     4032     4097     4324     4567     4691 
    4702     4742     4820     4807     4733     4739     4860     5036 
    5139     5035     4818     4664     4564     4496     4538     4610 
    4525     4363     4356     4502     4611     4603     4549     4488 
    4395     4338     4413     4545     4607     4619     4725     4957 
    5157     5205     5174     5186     5231     5267     5364     5594 
    5856     5915     5694     5436     5389     5489     5533     5421 
    5225     5132     5193     5239     5169     5073     5004     4901 
    4758     4693     4760     4884     5003     5088     5119     5094 
    4978     4779     4692     4869     5070     4942     4533     4255 
    4334     4519     4513     4426     4504     4731     4955     5101 
    5097     4842     4388     4066     4126     4375     4488     4407 
    4229     4099     4151     4267     4287     4326     4509     4723 
    4905     5096     5220     5152     4924     4726     4710     4757 
    4687     4637     4788     4973     4943     4783     4756     4857 
    4895     4878     4953     5121     5169     4884     4482     4369 
    4531     4688     4781     4899     4985     4962     4896     4827 
    4715     4666     4839     5132     5279     5242     5193     5186 
    5119     5046     5169     5467     5670     5661     5594     5535 
    5375     5140     4963     4849     4688     4513     4567     4884 
    5092     4972     4738     4580     4463     4302     4102     4012 
    4099     4228     4294     4340     4429     4494     4422     4260 
    4171     4209     4286     4318     4314     4322     4367     4456 
    4545     4549     4490     4502     4599     4646     4617     4681 
    4905     5035     4884     4723     4901     5236     5296     5128 
    5112     5235     5213     5066     5005     5093     5206     5163 
    4986     4895     4927     4924     4855     4857     4970     5082 
    5046     4901     4927     5224     5518     5567     5459     5391 
    5364     5254     5123     5184     5383     5391     5135     5016 
    5256     5489     5351     5046     4985     5184     5371     5447 
    5470     5472     5398     5144     4743     4448     4453     4652 
    4822     4877     4826     4691     4502     4344     4338     4503 
    4679     4666     4423     4129     4032     4167     4395     4641 
    4860     4981     4974     4847     4723     4810     5101     5286 
    5135     4801     4584     4538     4510     4468     4572     4866 
    5142     5186     5066     4997     5032     5027     4851     4569 
    4391     4425     4550     4596     4533     4498     4598     4714 
    4716     4693     4799     4996     5077     4945     4752     4668 
    4664     4661     4768     5067     5390     5547     5556     5525 
    5481     5404     5292     5101     4781     4413     4156     4113 
    4248     4378     4392     4376     4434     4558     4714     4885 
    4981     4923     4838     4824     4703     4364     4089     4113 
    4286     4394     4418     4386     4328     4356     4594     4954 
    5134     4997     4814     4864     4992     4892     4666     4623 
    4712     4683     4602     4706     4926     4934     4604     4214 
    4131     4390     4650     4703     4750     4891     4900     4762 
    4742     4959     5267     5443     5425     5332     5285     5346 
    5481     5557     5525     5481     5483     5459     5377     5371 
    5578     5892     6029     5890     5647     5481     5422     5378 
    5270     5125     4945     4656     4306     4083     4058     4135 
    4217     4236     4191     4168     4167     4120     4074     4056 
    4037     4056     4086     4017     3885     3851     3919     3919 
    3828     3811     3935     4118     4272     4371     4382     4295 
    4220     4233     4210     4005     3740     3715     3956     4131 
    4082     3967     3846     3673     3577     3701     3960     4199 
    4414     4637     4785     4838     4882     4949     5046     5162 
    5246     5278     5309     5437     5638     5763     5760     5616 
    5356     5196     5250     5451     5706     5877     5926     5971 
    6043     6057     5972     5911     6006     6160     6237     6289 
    6385     6462     6442     6362     6309     6211     5967     5709 
    5575     5502     5371     5188     5071     5100     5247     5406 
    5436     5363     5341     5408     5493     5568     5707     5921 
    5996     5823     5678     5786     6023     6164     6092     5856 
    5637     5568     5563     5418     5117     4833     4662     4584 
    4522     4426     4314     4149     3929     3809     3878     3998 
    3977     3782     3557     3381     3196     3009     3005     3356 
    3847     4017     3782     3504     3512     3881     4440     4923 
    5216     5328     5251     5020     4770     4627     4546     4364 
    4055     3781     3655     3620     3576     3551     3627     3730 
    3732     3709     3825     4052     4272     4448     4525     4491 
    4503     4726     5103     5389     5427     5321     5209     5093 
    4955     4812     4654     4504     4491     4598     4641     4646 
    4706     4644     4390     4322     4770     5440     5690     5332 
    4779     4448     4380     4430     4567     4695     4540     4129 
    3901     4008     4141     4101     4058     4228     4486     4623 
    4772     5013     5040     4689     4332     4372     4718     5144 
    5624     5985     6019     5892     5900     5991     5873     5544 
    5351     5383     5279     4877     4553     4554     4558     4365 
    4240     4318     4434     4467     4482     4645     5038     5529 
    5913     6104     6183     6269     6327     6177     5732     5111 
    4587     4328     4293     4394     4603     4945     5323     5432 
    5158     4657     4043     3424     3087     3318     4102     5031 
    5624     5722     5595     5535     5458     5246     5069     5017 
    4826     4264     3589     3329     3620     4245     5081     5958 
    6579     6871     6983     6995     6835     6420     5811     5131 
    4500     4091     4018     4279     4699     4969     5008     5113 
    5441     5726     5778     5695     5410     4795     4189     4044 
    4406     4980     5387     5470     5331     5012     4517     4149 
    4280     4779     5108     4982     4669     4698     5206     5728 
    5869     5732     5395     4733     3769     2859     2451     2667 
    3215     3645     3646     3281     2870     2787     3350     4430 
    5409     5751     5420     4951     4984     5580     6285     6785 
    7056     7033     6616     5952     5304     4824     4575     4534 
    4673     5004     5385     5544     5375     4982     4568     4386 
    4576     4953     5081     4761     4224     3727     3272     2857 
    2686     2987     3676     4375     4874     5282     5595     5628 
    5383     5004     4536     4105     3986     4232     4471     4284 
    3669     2978     2509     2346     2482     2878     3360     3670 
    3748     3829     4116     4579     5146     5832     6667     7480 
    7854     7527     6691     5846     5352     5135     4976     4873 
    4909     5011     5023     4914     4779     4710     4719     4758 
    4762     4762     4822     4912     5016     5265     5755     6359 
    6894     7221     7164     6667     5942     5175     4313     3389 
    2797     2868     3404     3948     4284     4495     4699     4860 
    4909     4966     5150     5270     5061     4646     4432     4567 
    4756     4676     4398     4213     4183     4299     4754     5502 
    6007     5918     5467     5019     4631     4178     3705     3461 
    3535     3815     4217     4739     5319     5740     5864     5795 
    5634     5432     5367     5439     5335     5012     4927     5350 
    5841     5841     5368     4739     4033     3376     3215     3696 
    4272     4469     4425     4378     4329     4329     4557     4980 
    5390     5836     6502     7207     7492     7098     6193     5177 
    4382     3943     3842     3940     3933     3527     2768     2053 
    1821     2266     3203     4270     5159     5690     5896     5949 
    5884     5683     5476     5402     5475     5667     5958     6253 
    6288     5838     5007     4098     3364     2916     2775     2907 
    3138     3234     3268     3545     4122     4808     5472     6022 
    6255     6076     5698     5448     5514     5807     5930     5544 
    4770     4018     3580     3476     3601     3948     4568     5305 
    5786     5848     5740     5730     5869     6126     6400     6524 
    6365     5917     5292     4656     4274     4302     4399     4220 
    4071     4322     4769     5055     5150     5238     5425     5587 
    5493     5134     4773     4598     4536     4482     4502     4662 
    4828     4951     5242     5684     5906     5736     5348     4930 
    4472     3913     3446     3392     3711     4122     4552     4893 
    4726     3825     2698     2170     2567     3559     4652     5479 
    5919     6096     6131     6029     5794     5458     5084     4843 
    4834     4873     4737     4498     4378     4438     4569     4671 
    4720     4704     4569     4245     3724     3198     2965     3157 
    3703     4461     5208     5659     5733     5595     5346     5015 
    4742     4631     4614     4602     4596     4563     4448     4360 
    4415     4603     5016     5637     5942     5563     4920     4602 
    4615     4587     4387     4290     4581     5196     5740     5999 
    6224     6555     6658     6332     5871     5591     5440     5254 
    5063     4918     4769     4671     4738     5039     5472     5741 
    5740     5690     5710     5749     5877     6154     6327     6065 
    5493     5081     4854     4310     3298     2292     1688     1503 
    1651     2020     2355     2463     2544     2917     3562     4237 
    4838     5355     5625     5556     5464     5695     6108     6210 
    5756     5216     5240     5701     5967     5848     5606     5309 
    4762     4047     3607     3738     4321     4972     5333     5312 
    5032     4621     4114     3601     3308     3403     3774     4135 
    4357     4542     4702     4731     4652     4515     4352     4320 
    4598     5116     5638     6087     6516     6799     6698     6292 
    5983     5944     5898     5688     5508     5313     4841     4220 
    3871     3940     4209     4386     4386     4395     4552     4680 
    4631     4627     4892     5266     5494     5571     5574     5468 
    5327     5363     5674     6133     6482     6478     6081     5624 
    5578     5954     6281     6293     6092     5737     5148     4325 
    3480     2897     2666     2666     2740     2808     2867     2922 
    2953     3045     3375     4013     4811     5571     6288     6924 
    7128     6717     6088     5699     5555     5413     5177     4887 
    4479     3898     3338     3055     3042     3105     3188     3473 
    4131     5039     5738     5782     5323     5038     5243     5590 
    5724     5674     5606     5595     5559     5377     5135     5088 
    5333     5657     5794     5701     5502     5287     5017     4619 
    4128     3532     2832     2403     2656     3383     4024     4326 
    4418     4515     4754     5098     5312     5260     5109     4988 
    4891     4919     5054     5036     4808     4546     4341     4225 
    4260     4473     4729     4789     4726     4973     5564     5841 
    5379     4564     3919     3500     3202     3202     3731     4509 
    4981     5043     5024     5111     5197     5124     4919     4804 
    4924     5085     4941     4469     4125     4315     4854     5304 
    5524     5614     5703     5825     5865     5776     5633     5462 
    5233     5051     5143     5432     5463     5044     4476     4081 
    3956     4071     4299     4419     4287     4021     3908     4075 
    4363     4599     4785     4892     4785     4448     4079     3858 
    3724     3585     3512     3657     4120     4770     5201     5224 
    5162     5323     5643     6039     6548     7038     7296     7352 
    7356     7285     6941     6243     5428     4833     4507     4275 
    4105     4174     4550     5012     5344     5528     5572     5435 
    5162     5015     5293     5830     6043     5718     5250     5047 
    5019     4779     4349     4206     4444     4644     4603     4537 
    4599     4630     4581     4765     5320     5952     6313     6336 
    6218     6118     5907     5472     4942     4488     4185     3970 
    3731     3447     3113     2751     2579     2828     3403     4010 
    4434     4612     4661     4654     4483     4183     3940     3792 
    3778     3989     4359     4671     4745     4652     4623     4630 
    4449     4186     4189     4452     4650     4675     4635     4538 
    4284     3905     3720     4075     4827     5404     5532     5494 
    5553     5517     5117     4546     4225     4222     4315     4317 
    4175     4023     4085     4329     4464     4405     4410     4648 
    4922     4972     4834     4796     4942     4914     4436     3850 
    3676     3985     4457     4776     4901     4927     4765     4378 
    4064     4070     4167     4112     4151     4611     5329     5880 
    6119     6289     6602     6856     6768     6446     6150     5907 
    5653     5460     5331     5063     4549     4010     3847     4220 
    4750     4957     4881     4864     4999     5107     5073     5022 
    5094     5248     5391     5532     5738     5853     5530     4807 
    4158     3870     3871     3955     4018     4257     4807     5351 
    5587     5645     5821     6153     6312     6023     5525     5262 
    5236     5127     4934     4959     5211     5346     5197     5015 
    5073     5189     4970     4492     4224     4297     4407     4391 
    4368     4333     4124     3819     3681     3811     4098     4453 
    4818     5049     5098     5150     5293     5437     5517     5481 
    5302     5058     4865     4745     4598     4387     4251     4364 
    4793     5421     5972     6307     6469     6373     5971     5493 
    5146     4878     4565     4110     3595     3373     3600     3936 
    4070     4170     4575     5212     5667     5859     6022     6077 
    5814     5460     5406     5613     5719     5566     5317     5100 
    4831     4518     4369     4384     4207     3649     2983     2547 
    2363     2357     2643     3348     4209     4764     4895     4920 
    5138     5462     5625     5570     5447     5341     5165     4822 
    4423     4213     4282     4504     4727     4878     4899     4723 
    4469     4402     4611     4909     5016     4862     4644     4531 
    4521     4540     4575     4704     4946     5159     5265     5389 
    5582     5576     5217     4753     4433     4318     4440     4787 
    5250     5652     5845     5776     5490     5159     4976     4887 
    4720     4464     4197     3993     3901     3831     3623     3339 
    3345     3890     4633     5022     5023     4918     4783     4572 
    4406     4473     4727     4932     5077     5371     5825     6110 
    5961     5541     5213     5113     5130     5142     5081     4936 
    4819     4818     4858     4806     4692     4727     4949     5144 
    5275     5467     5611     5460     4996     4542     4449     4610 
    4698     4768     4976     5098     4927     4629     4488     4529 
    4577     4645     4874     5146     5196     5090     5125     5239 
    5108     4873     5000     5382     5493     5310     5197     5185 
