Origin Time       2024/04/02 04:24:00
Lat.              40.133
Long.             141.712
Depth. (km)       71
Mag.              6.0
Station Code      YMT005
Station Lat.      38.6079
Station Long.     140.1627
Station Height(m) 330
Record Time       2024/04/02 04:25:12
Sampling Freq(Hz) 100Hz
Duration Time(s)  103
Dir.              E-W
Scale Factor      7845(gal)/8223790
Max. Acc. (gal)   2.199
Last Correction   2024/04/02 04:25:12
Memo.             
[...]
   -6498    -6390    -6340    -6340    -6389    -6419    -6316    -6123 
   -6012    -6027    -6103    -6176    -6196    -6197    -6239    -6326 
   -6480    -6708    -6924    -7076    -7180    -7236    -7245    -7261 
   -7271    -7214    -7152    -7167    -7199    -7156    -7015    -6820 
   -6658    -6567    -6550    -6636    -6806    -6983    -7071    -6997 
   -6794    -6532    -6257    -6060    -6000    -6046    -6200    -6435 
   -6644    -6790    -6871    -6853    -6767    -6637    -6475    -6300 
   -6081    -5871    -5817    -5896    -6004    -6142    -6323    -6551 
   -6836    -7111    -7263    -7279    -7222    -7160    -7141    -7146 
   -7160    -7175    -7134    -7045    -6963    -6863    -6725    -6569 
   -6366    -6120    -5985    -6079    -6277    -6412    -6477    -6502 
   -6493    -6431    -6312    -6177    -6068    -6037    -6126    -6246 
   -6303    -6273    -6156    -6038    -6126    -6450    -6789    -7009 
   -7152    -7142    -6868    -6478    -6216    -6061    -5863    -5675 
   -5621    -5664    -5718    -5780    -5927    -6191    -6484    -6682 
   -6733    -6671    -6617    -6666    -6781    -6890    -7006    -7115 
   -7088    -6883    -6643    -6508    -6508    -6617    -6763    -6839 
   -6816    -6744    -6696    -6791    -7053    -7267    -7272    -7169 
   -7088    -6998    -6835    -6666    -6589    -6567    -6528    -6473 
   -6421    -6397    -6394    -6351    -6293    -6351    -6546    -6714 
   -6750    -6691    -6602    -6463    -6258    -6079    -6003    -6030 
   -6176    -6411    -6639    -6821    -6941    -6899    -6670    -6500 
   -6569    -6721    -6840    -6947    -6993    -6959    -6895    -6853 
   -6863    -6890    -6906    -6939    -7011    -7105    -7165    -7191 
   -7250    -7321    -7256    -7056    -6924    -6914    -6847    -6664 
   -6519    -6466    -6421    -6365    -6323    -6251    -6137    -6081 
   -6153    -6255    -6297    -6285    -6200    -6057    -6015    -6112 
   -6177    -6164    -6197    -6299    -6350    -6331    -6316    -6315 
   -6295    -6243    -6165    -6095    -6096    -6197    -6349    -6463 
   -6527    -6563    -6624    -6693    -6681    -6612    -6552    -6501 
   -6482    -6465    -6392    -6355    -6457    -6588    -6633    -6656 
   -6673    -6547    -6269    -5996    -5837    -5834    -6008    -6282 
   -6539    -6717    -6767    -6673    -6552    -6513    -6567    -6660 
   -6739    -6804    -6841    -6802    -6712    -6643    -6717    -6925 
   -7014    -6933    -6902    -6959    -6967    -6895    -6847    -6897 
   -7002    -7084    -7099    -7042    -6920    -6714    -6450    -6232 
   -6150    -6112    -5975    -5894    -6112    -6480    -6752    -6959 
   -7219    -7485    -7646    -7708    -7668    -7458    -7163    -6891 
   -6671    -6527    -6432    -6315    -6133    -5937    -5825    -5805 
   -5784    -5756    -5810    -5946    -6103    -6281    -6448    -6558 
   -6660    -6747    -6737    -6650    -6543    -6430    -6343    -6266 
   -6115    -5895    -5697    -5537    -5432    -5378    -5267    -5081 
   -4962    -5017    -5228    -5537    -5926    -6284    -6474    -6566 
   -6669    -6793    -7013    -7329    -7577    -7677    -7696    -7682 
   -7657    -7639    -7642    -7692    -7790    -7905    -8019    -8055 
   -7958    -7805    -7661    -7511    -7329    -7068    -6767    -6523 
   -6345    -6205    -6120    -6066    -5984    -5892    -5826    -5741 
   -5656    -5616    -5626    -5753    -5957    -6123    -6286    -6444 
   -6532    -6570    -6592    -6629    -6689    -6720    -6723    -6741 
   -6778    -6798    -6820    -6858    -6847    -6785    -6713    -6644 
   -6620    -6606    -6581    -6613    -6662    -6686    -6743    -6775 
   -6677    -6512    -6399    -6309    -6183    -6072    -6006    -5960 
   -5983    -6137    -6401    -6694    -6943    -7087    -7159    -7353 
   -7769    -8228    -8534    -8617    -8453    -8152    -7889    -7701 
   -7510    -7268    -7003    -6782    -6648    -6646    -6779    -6970 
   -7109    -7083    -6840    -6481    -6158    -5941    -5822    -5761 
   -5734    -5686    -5526    -5316    -5250    -5317    -5377    -5417 
   -5413    -5246    -4953    -4749    -4768    -4958    -5204    -5460 
   -5710    -5921    -6099    -6269    -6447    -6673    -6882    -6934 
   -6918    -6991    -7067    -7028    -6961    -7003    -7141    -7261 
   -7319    -7369    -7466    -7541    -7476    -7357    -7310    -7264 
   -7177    -7142    -7204    -7260    -7167    -6974    -6806    -6701 
   -6724    -6893    -7079    -7214    -7306    -7300    -7128    -6863 
   -6656    -6517    -6444    -6453    -6423    -6362    -6350    -6281 
   -6164    -6168    -6277    -6366    -6385    -6269    -5965    -5586 
   -5308    -5148    -5051    -5039    -5139    -5293    -5436    -5530 
   -5560    -5566    -5644    -5871    -6216    -6569    -6820    -6936 
   -6925    -6836    -6700    -6561    -6556    -6675    -6764    -6837 
   -6951    -7032    -7061    -7084    -7078    -7037    -6987    -6902 
   -6790    -6655    -6448    -6192    -5987    -5907    -5954    -6084 
   -6289    -6540    -6727    -6768    -6727    -6704    -6702    -6724 
   -6820    -6963    -7084    -7190    -7337    -7534    -7696    -7769 
   -7761    -7705    -7614    -7411    -7079    -6813    -6778    -6832 
   -6751    -6561    -6357    -6138    -5945    -5829    -5790    -5861 
   -6053    -6301    -6552    -6787    -7011    -7206    -7318    -7368 
   -7411    -7357    -7119    -6856    -6716    -6623    -6500    -6443 
   -6532    -6646    -6642    -6567    -6512    -6446    -6347    -6315 
   -6392    -6481    -6505    -6427    -6192    -5883    -5632    -5455 
   -5398    -5594    -6084    -6685    -7113    -7267    -7195    -6976 
   -6731    -6496    -6253    -6019    -5821    -5746    -5832    -6008 
   -6274    -6555    -6677    -6651    -6527    -6319    -6205    -6291 
   -6430    -6538    -6654    -6751    -6717    -6492    -6205    -6050 
   -6050    -6129    -6269    -6444    -6525    -6454    -6335    -6293 
   -6431    -6748    -7082    -7331    -7549    -7659    -7550    -7342 
   -7199    -7083    -6951    -6914    -7053    -7242    -7315    -7237 
   -7072    -6952    -6980    -7064    -7094    -7137    -7173    -7045 
   -6758    -6516    -6431    -6365    -6180    -5999    -5980    -6007 
   -5934    -5865    -5887    -5895    -5856    -5845    -5944    -6123 
   -6231    -6242    -6266    -6309    -6328    -6353    -6399    -6461 
   -6596    -6806    -6997    -7132    -7252    -7331    -7317    -7199 
   -7009    -6798    -6579    -6355    -6199    -6122    -6054    -5994 
   -5971    -6003    -6147    -6432    -6798    -7146    -7342    -7322 
   -7214    -7133    -6974    -6689    -6478    -6475    -6620    -6841 
   -7111    -7379    -7551    -7580    -7573    -7624    -7641    -7526 
   -7304    -7001    -6696    -6525    -6461    -6369    -6197    -5952 
   -5710    -5584    -5563    -5578    -5664    -5853    -6037    -6092 
   -5985    -5795    -5647    -5625    -5790    -6108    -6416    -6548 
   -6488    -6358    -6274    -6251    -6261    -6254    -6197    -6099 
   -5954    -5800    -5749    -5836    -5988    -6174    -6399    -6563 
   -6578    -6520    -6496    -6515    -6575    -6682    -6821    -6971 
   -7029    -6907    -6646    -6311    -5995    -5836    -5854    -5984 
   -6176    -6315    -6345    -6413    -6686    -7190    -7750    -8135 
   -8318    -8374    -8283    -8070    -7878    -7788    -7758    -7769 
   -7813    -7831    -7755    -7526    -7161    -6779    -6454    -6245 
   -6205    -6259    -6312    -6332    -6276    -6106    -5821    -5516 
   -5346    -5336    -5366    -5355    -5321    -5279    -5228    -5200 
   -5225    -5348    -5560    -5730    -5802    -5902    -6107    -6318 
   -6474    -6646    -6856    -7034    -7173    -7327    -7492    -7636 
   -7767    -7827    -7722    -7539    -7434    -7350    -7203    -7083 
   -7067    -7107    -7172    -7288    -7457    -7582    -7545    -7352 
   -7091    -6826    -6569    -6278    -5981    -5813    -5826    -5950 
   -6120    -6247    -6250    -6168    -6061    -5985    -5985    -6019 
   -6085    -6251    -6443    -6473    -6265    -5923    -5647    -5560 
   -5632    -5783    -5969    -6085    -6035    -5854    -5634    -5482 
   -5508    -5691    -5927    -6219    -6577    -6821    -6879    -6960 
   -7190    -7492    -7774    -8027    -8276    -8402    -8268    -7996 
   -7739    -7565    -7545    -7630    -7711    -7801    -7906    -7962 
   -7952    -7975    -8039    -7950    -7672    -7377    -7088    -6737 
   -6403    -6189    -6043    -5830    -5529    -5193    -4908    -4745 
   -4661    -4627    -4660    -4739    -4864    -5130    -5594    -6079 
   -6363    -6453    -6421    -6301    -6133    -5960    -5813    -5703 
   -5682    -5786    -5915    -5996    -6138    -6423    -6764    -7084 
   -7362    -7581    -7753    -7900    -8005    -8083    -8160    -8162 
   -8033    -7863    -7784    -7788    -7784    -7763    -7722    -7568 
   -7267    -6912    -6598    -6335    -6149    -6108    -6180    -6289 
   -6403    -6412    -6223    -5960    -5814    -5790    -5825    -5935 
   -6065    -6137    -6157    -6100    -5944    -5715    -5443    -5194 
   -5097    -5200    -5371    -5483    -5595    -5764    -5907    -5979 
   -6072    -6242    -6424    -6619    -6893    -7150    -7254    -7257 
   -7319    -7507    -7717    -7759    -7534    -7126    -6736    -6505 
   -6451    -6523    -6620    -6655    -6637    -6670    -6791    -6934 
   -7029    -7017    -6895    -6789    -6720    -6627    -6571    -6578 
   -6570    -6542    -6457    -6266    -6062    -5913    -5783    -5709 
   -5779    -5935    -6006    -5919    -5798    -5767    -5780    -5737 
   -5667    -5626    -5617    -5676    -5868    -6201    -6628    -7056 
   -7403    -7607    -7607    -7429    -7231    -7118    -7105    -7250 
   -7534    -7804    -7978    -7998    -7819    -7560    -7346    -7171 
   -7009    -6895    -6843    -6783    -6667    -6558    -6486    -6393 
   -6276    -6216    -6266    -6405    -6589    -6660    -6467    -6185 
   -6073    -6108    -6241    -6467    -6637    -6640    -6556    -6486 
   -6434    -6405    -6457    -6501    -6385    -6143    -5931    -5837 
   -5837    -5898    -6038    -6195    -6250    -6210    -6131    -6042 
   -5991    -6033    -6160    -6358    -6656    -7020    -7317    -7393 
   -7202    -6944    -6836    -6862    -6963    -7133    -7294    -7366 
   -7329    -7236    -7253    -7441    -7631    -7732    -7798    -7800 
   -7663    -7425    -7171    -6976    -6898    -6880    -6762    -6481 
   -6129    -5850    -5768    -5867    -6095    -6458    -6845    -7067 
   -7118    -7152    -7192    -7140    -6963    -6697    -6374    -6045 
   -5755    -5545    -5490    -5589    -5764    -5979    -6141    -6114 
   -5903    -5698    -5697    -5860    -6031    -6146    -6107    -5881 
   -5579    -5273    -5034    -4978    -5163    -5572    -6145    -6809 
   -7415    -7738    -7726    -7530    -7269    -6976    -6704    -6502 
   -6359    -6273    -6264    -6293    -6357    -6470    -6547    -6421 
   -6069    -5692    -5470    -5424    -5560    -5880    -6261    -6520 
   -6627    -6718    -6876    -7047    -7207    -7404    -7615    -7716 
   -7647    -7483    -7345    -7302    -7341    -7430    -7565    -7763 
   -8012    -8206    -8284    -8302    -8210    -7947    -7659    -7465 
   -7353    -7327    -7329    -7236    -7048    -6777    -6363    -5884 
   -5536    -5355    -5319    -5462    -5713    -5927    -6039    -6050 
   -5998    -5884    -5722    -5579    -5463    -5300    -5066    -4862 
   -4788    -4861    -5059    -5346    -5722    -6176    -6546    -6691 
   -6675    -6593    -6432    -6208    -6048    -6052    -6204    -6431 
   -6720    -7109    -7565    -7956    -8172    -8228    -8171    -7990 
   -7663    -7248    -6901    -6767    -6824    -6945    -7048    -7128 
   -7186    -7187    -7141    -7123    -7144    -7217    -7379    -7518 
   -7495    -7348    -7171    -7002    -6853    -6677    -6428    -6196 
   -6049    -5956    -5917    -5891    -5730    -5443    -5206    -5057 
   -4923    -4800    -4704    -4680    -4792    -5022    -5323    -5686 
   -6054    -6374    -6625    -6751    -6708    -6588    -6606    -6889 
   -7291    -7569    -7647    -7592    -7485    -7399    -7317    -7144 
   -6891    -6623    -6330    -6053    -5894    -5815    -5701    -5603 
   -5670    -5940    -6339    -6716    -6964    -7098    -7177    -7290 
   -7431    -7512    -7601    -7819    -8085    -8295    -8421    -8376 
   -8114    -7812    -7670    -7612    -7476    -7279    -7101    -6963 
   -6875    -6870    -6901    -6833    -6643    -6469    -6405    -6424 
   -6454    -6486    -6561    -6666    -6704    -6616    -6453    -6197 
   -5809    -5389    -5147    -5270    -5736    -6241    -6516    -6575 
   -6521    -6374    -6170    -6006    -5975    -6018    -5964    -5822 
   -5752    -5728    -5564    -5213    -4850    -4673    -4722    -4990 
   -5456    -5972    -6377    -6640    -6804    -6845    -6677    -6284 
   -5772    -5269    -4939    -4951    -5297    -5792    -6266    -6659 
   -6983    -7284    -7566    -7762    -7897    -8046    -8112    -8008 
   -7870    -7854    -7938    -7973    -7858    -7662    -7503    -7422 
   -7410    -7425    -7446    -7487    -7587    -7803    -8058    -8136 
   -7955    -7626    -7314    -7141    -7051    -6852    -6496    -6185 
   -6122    -6208    -6196    -5980    -5614    -5188    -4784    -4479 
   -4311    -4266    -4357    -4669    -5209    -5825    -6288    -6490 
   -6507    -6428    -6272    -6064    -5838    -5606    -5440    -5406 
   -5494    -5778    -6268    -6728    -7015    -7215    -7333    -7314 
   -7230    -7138    -6994    -6860    -6926    -7150    -7245    -7128 
   -6922    -6696    -6554    -6606    -6717    -6705    -6596    -6538 
   -6589    -6691    -6841    -7134    -7581    -8021    -8280    -8299 
   -8114    -7794    -7466    -7264    -7252    -7373    -7473    -7402 
   -7074    -6567    -6119    -5948    -6089    -6412    -6718    -6782 
   -6551    -6253    -6075    -6057    -6237    -6496    -6609    -6477 
   -6139    -5733    -5389    -5150    -5051    -5098    -5225    -5332 
   -5340    -5274    -5266    -5429    -5722    -5962    -6048    -6037 
   -5988    -5954    -6046    -6226    -6296    -6285    -6346    -6512 
   -6839    -7285    -7585    -7600    -7480    -7453    -7554    -7635 
   -7612    -7554    -7512    -7488    -7504    -7618    -7817    -8027 
   -8194    -8294    -8280    -8110    -7830    -7522    -7263    -7133 
   -7107    -6960    -6496    -5821    -5205    -4822    -4754    -5012 
   -5460    -5914    -6226    -6284    -6139    -6042    -6149    -6347 
   -6511    -6674    -6859    -6939    -6795    -6470    -6070    -5738 
   -5626    -5679    -5706    -5715    -5821    -5921    -5913    -5925 
   -6033    -6154    -6201    -6115    -5999    -6064    -6280    -6397 
   -6299    -6039    -5768    -5656    -5752    -5965    -6257    -6581 
   -6767    -6693    -6443    -6203    -6093    -6158    -6396    -6812 
   -7321    -7582    -7399    -7095    -6998    -7092    -7281    -7543 
   -7869    -8132    -8209    -8154    -8002    -7723    -7395    -7172 
   -7117    -7098    -6983    -6798    -6594    -6426    -6372    -6407 
   -6415    -6330    -6251    -6357    -6655    -6995    -7241    -7353 
   -7380    -7356    -7272    -7146    -6990    -6771    -6511    -6342 
   -6423    -6735    -7071    -7248    -7246    -7126    -6876    -6488 
   -6050    -5644    -5287    -5046    -5044    -5279    -5583    -5837 
   -6007    -6062    -6015    -5935    -5868    -5809    -5826    -5956 
   -6061    -6096    -6170    -6297    -6435    -6596    -6779    -6944 
   -7065    -7117    -7034    -6859    -6727    -6724    -6835    -7044 
   -7357    -7649    -7734    -7600    -7322    -7001    -6774    -6650 
   -6558    -6492    -6485    -6531    -6547    -6442    -6220    -5962 
   -5802    -5876    -6118    -6303    -6367    -6346    -6245    -6137 
   -6046    -5877    -5625    -5476    -5557    -5728    -5795    -5755 
   -5688    -5676    -5764    -5829    -5687    -5354    -5024    -4878 
   -5036    -5506    -6084    -6507    -6673    -6647    -6543    -6407 
   -6247    -6149    -6164    -6270    -6500    -6839    -7206    -7565 
   -7819    -7889    -7848    -7766    -7690    -7693    -7765    -7851 
   -7927    -7956    -7893    -7720    -7453    -7200    -7187    -7433 
   -7635    -7595    -7360    -7083    -6878    -6790    -6920    -7238 
   -7499    -7580    -7480    -7192    -6855    -6677    -6724    -6929 
   -7241    -7608    -7869    -7857    -7565    -7114    -6604    -6133 
   -5908    -5996    -6183    -6312    -6331    -6164    -5869    -5613 
   -5483    -5456    -5471    -5539    -5636    -5656    -5618    -5586 
   -5532    -5487    -5564    -5817    -6156    -6386    -6416    -6288 
   -6052    -5742    -5397    -5115    -5070    -5356    -5907    -6539 
   -7075    -7411    -7537    -7557    -7546    -7454    -7269    -7094 
   -6974    -6871    -6786    -6808    -6993    -7229    -7375    -7418 
   -7330    -7076    -6772    -6524    -6353    -6253    -6112    -5873 
   -5699    -5684    -5742    -5841    -5964    -6053    -6058    -5961 
   -5857    -5931    -6268    -6772    -7264    -7604    -7708    -7576 
   -7312    -7037    -6759    -6496    -6361    -6407    -6575    -6762 
   -6871    -6971    -7184    -7450    -7717    -7989    -8125    -8016 
   -7763    -7504    -7306    -7223    -7215    -7134    -6951    -6767 
   -6596    -6378    -6131    -5926    -5834    -5818    -5806    -5913 
   -6262    -6704    -6984    -6987    -6772    -6470    -6192    -6093 
   -6269    -6563    -6771    -6814    -6677    -6455    -6330    -6332 
   -6355    -6315    -6242    -6212    -6191    -6124    -6068    -6068 
   -6137    -6212    -6160    -5941    -5670    -5497    -5489    -5638 
   -5929    -6266    -6542    -6721    -6829    -6887    -6921    -6957 
   -6925    -6755    -6598    -6650    -6860    -7045    -7121    -7156 
   -7314    -7632    -7915    -7977    -7861    -7642    -7314    -6952 
   -6772    -6948    -7368    -7704    -7770    -7588    -7206    -6718 
   -6282    -6002    -5834    -5687    -5570    -5481    -5409    -5454 
   -5616    -5756    -5890    -6083    -6261    -6392    -6475    -6448 
   -6289    -6080    -5898    -5748    -5640    -5636    -5715    -5759 
   -5772    -5783    -5707    -5539    -5397    -5341    -5352    -5416 
   -5486    -5459    -5400    -5539    -5871    -6177    -6351    -6507 
   -6783    -7068    -7182    -7252    -7446    -7668    -7794    -7840 
   -7840    -7850    -7920    -8023    -8122    -8267    -8432    -8467 
   -8316    -8056    -7757    -7447    -7218    -7183    -7337    -7555 
   -7740    -7884    -7970    -7894    -7576    -7076    -6596    -6280 
   -6118    -6037    -5965    -5841    -5674    -5570    -5611    -5692 
   -5724    -5856    -6110    -6277    -6326    -6345    -6291    -6180 
   -6165    -6300    -6480    -6552    -6450    -6269    -6135    -6007 
   -5815    -5609    -5470    -5406    -5367    -5314    -5286    -5354 
   -5521    -5738    -5926    -6025    -6058    -6034    -5930    -5803 
   -5684    -5572    -5587    -5790    -6038    -6160    -6172    -6147 
   -6041    -5836    -5616    -5451    -5344    -5286    -5356    -5609 
