Origin Time       2024/06/23 22:54:00
Lat.              35.645
Long.             140.060
Depth. (km)       72
Mag.              4.1
Station Code      CHB019
Station Lat.      35.1106
Station Long.     139.8360
Station Height(m) 5
Record Time       2024/06/23 22:54:49
Sampling Freq(Hz) 100Hz
Duration Time(s)  63
Dir.              U-D
Scale Factor      7845(gal)/8223790
Max. Acc. (gal)   1.418
Last Correction   2024/06/23 22:54:48
Memo.             
[...]
    6415     6470     6507     6563     6612     6571     6516     6474 
    6374     6299     6353     6428     6444     6465     6501     6496 
    6451     6442     6515     6593     6601     6565     6520     6458 
    6367     6265     6237     6328     6458     6539     6561     6527 
    6477     6486     6561     6617     6621     6608     6565     6493 
    6458     6448     6401     6350     6328     6319     6327     6338 
    6334     6362     6459     6612     6774     6863     6826     6714 
    6600     6492     6397     6332     6278     6228     6196     6181 
    6181     6212     6291     6389     6447     6511     6655     6772 
    6718     6550     6435     6417     6447     6486     6502     6501 
    6512     6484     6409     6419     6516     6567     6579     6602 
    6577     6466     6319     6226     6266     6390     6455     6399 
    6324     6327     6370     6424     6517     6604     6612     6582 
    6561     6515     6470     6497     6561     6566     6517     6485 
    6474     6419     6312     6261     6357     6521     6590     6548 
    6515     6492     6439     6466     6592     6660     6623     6532 
    6430     6354     6270     6170     6147     6227     6351     6457 
    6485     6463     6489     6539     6567     6619     6675     6648 
    6524     6404     6384     6411     6397     6370     6367     6362 
    6377     6469     6597     6658     6597     6461     6372     6409 
    6505     6566     6579     6535     6442     6382     6394     6430 
    6485     6556     6574     6550     6544     6531     6496     6484 
    6473     6434     6384     6318     6258     6276     6358     6399 
    6373     6363     6430     6536     6592     6558     6528     6556 
    6575     6550     6508     6470     6473     6515     6519     6444 
    6357     6328     6345     6351     6334     6349     6421     6496 
    6513     6504     6551     6652     6702     6662     6578     6484 
    6436     6469     6507     6463     6362     6291     6300     6376 
    6458     6500     6516     6566     6612     6575     6492     6424 
    6388     6403     6434     6434     6435     6444     6467     6513 
    6490     6392     6359     6408     6467     6502     6459     6372 
    6312     6286     6307     6382     6453     6501     6544     6519 
    6427     6420     6527     6631     6701     6723     6652     6547 
    6490     6469     6461     6459     6455     6434     6389     6363 
    6388     6401     6378     6381     6438     6509     6548     6532 
    6493     6475     6494     6524     6525     6494     6469     6465 
    6474     6488     6477     6436     6401     6384     6392     6430 
    6450     6428     6413     6417     6420     6439     6477     6489 
    6475     6481     6486     6454     6409     6404     6446     6494 
    6512     6494     6467     6486     6543     6552     6515     6480 
    6459     6457     6446     6389     6345     6367     6423     6508 
    6624     6658     6552     6421     6357     6363     6427     6481 
    6471     6448     6427     6382     6386     6484     6582     6602 
    6559     6469     6380     6373     6412     6420     6415     6412 
    6423     6477     6521     6513     6509     6525     6511     6459 
    6426     6413     6400     6427     6525     6623     6632     6551 
    6443     6362     6338     6393     6500     6577     6575     6529 
    6470     6408     6369     6359     6339     6327     6382     6471 
    6531     6569     6585     6565     6517     6475     6458     6420 
    6342     6299     6340     6415     6478     6524     6544     6544 
    6548     6558     6547     6492     6415     6377     6399     6436 
    6465     6488     6512     6543     6583     6619     6623     6594 
    6529     6411     6289     6247     6291     6365     6435     6461 
    6415     6366     6390     6466     6521     6524     6493     6451 
    6409     6400     6444     6494     6496     6474     6489     6534 
    6542     6505     6486     6492     6447     6372     6357     6412 
    6457     6448     6434     6455     6493     6528     6574     6586 
    6521     6416     6349     6349     6366     6374     6426     6523 
    6567     6515     6467     6494     6539     6569     6610     6627 
    6542     6408     6350     6386     6436     6453     6457     6490 
    6528     6508     6481     6512     6512     6415     6323     6323 
    6380     6423     6424     6394     6374     6399     6469     6554 
    6609     6597     6505     6392     6361     6385     6396     6428 
    6496     6531     6516     6485     6469     6490     6534     6565 
    6562     6511     6399     6292     6272     6318     6377     6451 
    6512     6513     6481     6470     6486     6511     6528     6523 
    6490     6453     6438     6451     6459     6435     6404     6392 
    6396     6440     6494     6474     6440     6484     6547     6586 
    6616     6593     6529     6507     6523     6535     6563     6586 
    6554     6484     6409     6334     6265     6232     6270     6397 
    6542     6601     6604     6610     6569     6496     6505     6546 
    6494     6377     6289     6266     6305     6390     6470     6489 
    6458     6438     6421     6386     6372     6405     6457     6498 
    6481     6405     6367     6392     6417     6450     6492     6493 
    6442     6386     6370     6405     6467     6519     6546     6559 
    6565     6567     6567     6554     6524     6478     6428     6416 
    6453     6485     6498     6536     6629     6712     6701     6621 
    6552     6523     6528     6538     6497     6380     6238     6147 
    6122     6169     6272     6332     6318     6332     6405     6465 
    6498     6548     6605     6651     6678     6642     6532     6431 
    6403     6442     6486     6458     6357     6285     6296     6357 
    6432     6497     6547     6588     6612     6644     6716     6754 
    6691     6598     6511     6393     6278     6238     6251     6253 
    6253     6305     6403     6490     6548     6575     6561     6528 
    6544     6600     6601     6542     6496     6490     6498     6478 
    6408     6340     6328     6322     6254     6180     6183     6265 
    6409     6592     6743     6821     6831     6767     6671     6621 
    6612     6542     6369     6201     6153     6205     6305     6450 
    6605     6679     6640     6547     6478     6444     6403     6365 
    6359     6358     6350     6345     6343     6349     6346     6308 
    6246     6201     6219     6319     6475     6609     6650     6675 
    6771     6856     6843     6767     6660     6501     6343     6288 
    6308     6315     6324     6366     6384     6382     6458     6592 
    6635     6574     6544     6578     6594     6571     6536     6486 
    6420     6361     6340     6381     6462     6519     6517     6513 
    6551     6574     6532     6485     6467     6436     6377     6300 
    6205     6135     6156     6259     6382     6489     6590     6662 
    6642     6546     6478     6457     6444     6488     6566     6565 
    6480     6384     6305     6305     6407     6478     6428     6357 
    6363     6415     6469     6531     6588     6602     6588     6602 
    6640     6632     6543     6439     6400     6436     6509     6570 
    6559     6459     6336     6262     6269     6343     6435     6494 
    6520     6538     6583     6664     6720     6669     6539     6436 
    6370     6296     6257     6295     6338     6349     6394     6478 
    6513     6489     6450     6407     6412     6481     6523     6485 
    6438     6436     6442     6412     6372     6361     6374     6386 
    6405     6436     6447     6431     6443     6492     6532     6579 
    6659     6713     6704     6681     6674     6669     6650     6621 
    6598     6586     6550     6474     6385     6288     6204     6176 
    6195     6223     6246     6246     6245     6274     6312     6354 
    6428     6489     6509     6532     6566     6597     6617     6608 
    6575     6542     6509     6484     6473     6475     6512     6555 
    6543     6474     6389     6309     6273     6319     6407     6478 
    6531     6582     6632     6662     6647     6586     6516     6485 
    6505     6554     6592     6590     6544     6467     6384     6334 
    6324     6324     6309     6293     6312     6363     6419     6466 
    6504     6527     6529     6515     6496     6469     6417     6347 
    6280     6246     6255     6259     6232     6231     6300     6432 
    6598     6766     6902     6967     6918     6790     6689     6654 
    6606     6500     6370     6243     6154     6143     6191     6246 
    6280     6274     6259     6293     6381     6471     6529     6555 
    6578     6637     6731     6793     6754     6642     6547     6504 
    6488     6470     6451     6448     6461     6478     6497     6497 
    6467     6436     6439     6488     6552     6565     6508     6420 
    6334     6281     6264     6235     6211     6231     6276     6330 
    6396     6451     6488     6508     6512     6531     6569     6569 
    6525     6475     6428     6403     6427     6463     6493     6536 
    6581     6600     6635     6708     6758     6759     6756     6737 
    6650     6513     6377     6261     6197     6204     6250     6309 
    6362     6390     6407     6424     6438     6450     6490     6569 
    6623     6598     6538     6475     6423     6397     6396     6412 
    6438     6438     6404     6367     6324     6264     6210     6176 
    6169     6193     6228     6272     6331     6377     6392     6417 
    6466     6496     6511     6554     6620     6685     6740     6759 
    6723     6651     6577     6507     6419     6328     6274     6254 
    6242     6247     6280     6330     6413     6550     6709     6849 
    6951     7010     7032     7033     7025     7010     7006     7015 
    6987     6886     6754     6637     6513     6351     6170     5987 
    5805     5647     5532     5460     5444     5483     5568     5697 
    5869     6070     6247     6365     6430     6470     6516     6598 
    6737     6901     7034     7125     7195     7257     7311     7358 
    7372     7317     7211     7121     7040     6920     6759     6585 
    6392     6184     5985     5809     5661     5556     5501     5494 
    5505     5498     5471     5467     5529     5645     5778     5915 
    6089     6326     6619     6953     7284     7534     7666     7696 
    7670     7638     7601     7527     7373     7126     6840     6575 
    6355     6176     6015     5850     5702     5613     5607     5672 
    5790     5921     6042     6157     6249     6289     6303     6305 
    6305     6328     6374     6436     6532     6660     6779     6859 
    6897     6894     6862     6818     6791     6795     6808     6805 
    6795     6786     6752     6678     6593     6528     6493     6494 
    6542     6621     6702     6772     6853     6948     6994     6941 
    6801     6601     6369     6134     5890     5640     5421     5259 
    5173     5189     5297     5459     5661     5887     6118     6331 
    6478     6515     6459     6389     6361     6408     6551     6774 
    7026     7249     7410     7515     7587     7636     7663     7662 
    7626     7547     7427     7268     7053     6794     6521     6249 
    5991     5778     5620     5503     5418     5359     5302     5255 
    5258     5304     5368     5458     5610     5844     6122     6393 
    6631     6808     6902     6930     6933     6928     6921     6913 
    6879     6806     6736     6723     6793     6955     7164     7358 
    7507     7600     7618     7566     7480     7357     7175     6924 
    6613     6277     5958     5690     5503     5394     5328     5265 
    5204     5174     5208     5328     5512     5695     5841     5967 
    6097     6232     6350     6421     6431     6405     6382     6386 
    6448     6571     6725     6862     6948     7003     7061     7110 
    7137     7156     7167     7186     7240     7307     7345     7357 
    7348     7295     7198     7076     6947     6797     6610     6404 
    6205     6035     5904     5821     5769     5725     5665     5618 
    5618     5674     5788     5954     6126     6269     6373     6457 
    6532     6577     6596     6609     6608     6582     6540     6496 
    6467     6475     6525     6597     6687     6790     6856     6867 
    6858     6828     6743     6624     6505     6386     6247     6083 
    5918     5784     5698     5664     5655     5648     5667     5737 
    5888     6137     6430     6685     6871     6987     7042     7063 
    7074     7080     7090     7117     7145     7152     7141     7123 
    7102     7053     6949     6797     6640     6492     6345     6189 
    6025     5863     5733     5660     5638     5657     5703     5764 
    5840     5946     6088     6253     6427     6593     6728     6816 
    6826     6756     6635     6481     6316     6178     6099     6107 
    6223     6421     6662     6914     7156     7379     7577     7712 
    7746     7692     7582     7406     7142     6828     6515     6222 
    5984     5844     5794     5803     5853     5929     6011     6079 
    6103     6062     5973     5880     5810     5767     5748     5764 
    5821     5884     5915     5908     5892     5903     5952     6025 
    6106     6192     6296     6431     6585     6748     6918     7106 
    7326     7562     7776     7915     7951     7917     7857     7782 
    7680     7541     7349     7107     6863     6647     6450     6254 
    6061     5884     5744     5668     5665     5691     5688     5643 
    5580     5525     5510     5559     5660     5794     5956     6143 
    6322     6453     6524     6551     6559     6555     6556     6594 
    6671     6771     6871     6967     7047     7074     7032     6939 
    6805     6647     6493     6342     6181     6021     5907     5881 
    5933     6004     6048     6039     5984     5919     5879     5873 
    5914     6010     6162     6355     6573     6793     6984     7136 
    7268     7381     7464     7510     7504     7429     7306     7191 
    7114     7047     6967     6878     6793     6744     6744     6772 
    6810     6833     6802     6694     6519     6286     6034     5805 
    5616     5482     5412     5382     5378     5408     5475     5566 
    5664     5746     5809     5872     5942     6021     6129     6259 
    6381     6480     6551     6593     6621     6648     6667     6678 
    6708     6764     6820     6880     6970     7069     7159     7213 
    7225     7196     7126     6998     6817     6598     6370     6168 
    6031     5989     6022     6103     6241     6434     6655     6890 
    7113     7300     7442     7528     7547     7495     7366     7148 
    6852     6516     6169     5859     5640     5522     5478     5486 
    5553     5664     5791     5937     6093     6222     6285     6276 
    6208     6103     5981     5883     5844     5856     5903     5981 
    6095     6239     6412     6596     6782     6974     7149     7269 
    7325     7323     7249     7109     6933     6735     6517     6301 
    6129     6022     5979     6000     6091     6218     6354     6498 
    6633     6721     6735     6677     6578     6490     6438     6412 
    6413     6440     6471     6494     6517     6542     6571     6629 
    6706     6777     6835     6876     6876     6822     6731     6612 
    6478     6353     6247     6173     6135     6122     6122     6143 
    6184     6232     6293     6366     6424     6455     6469     6480 
    6501     6535     6575     6616     6646     6650     6616     6550 
    6459     6332     6191     6072     5987     5941     5948     6006 
    6097     6210     6339     6482     6621     6745     6849     6922 
    6960     6978     6987     6984     6959     6887     6787     6686 
    6578     6467     6393     6365     6369     6412     6484     6548 
    6585     6579     6524     6439     6346     6235     6112     5988 
    5876     5794     5751     5755     5800     5872     5976     6127 
    6320     6532     6732     6903     7025     7067     7042     6997 
    6945     6880     6808     6736     6687     6671     6685     6721 
    6762     6791     6798     6785     6754     6705     6644     6579 
    6516     6450     6376     6288     6185     6070     5949     5832 
    5734     5668     5645     5676     5763     5881     6004     6124 
    6251     6385     6519     6652     6774     6863     6913     6929 
    6917     6898     6876     6844     6789     6713     6639     6596 
    6586     6598     6619     6635     6651     6675     6709     6737 
    6740     6701     6623     6511     6381     6238     6073     5902 
    5769     5702     5701     5760     5859     5967     6073     6169 
    6255     6334     6407     6485     6585     6713     6858     6993 
    7095     7168     7229     7275     7276     7218     7114     6968 
    6781     6558     6328     6122     5960     5842     5752     5687 
    5661     5670     5713     5796     5927     6115     6345     6578 
    6794     6986     7134     7234     7287     7291     7246     7163 
    7047     6899     6735     6574     6436     6332     6262     6224 
    6205     6192     6174     6141     6083     6018     5968     5962 
    6007     6073     6141     6208     6273     6334     6385     6416 
    6427     6431     6448     6486     6535     6589     6644     6693 
    6725     6740     6743     6751     6775     6806     6840     6863 
    6845     6774     6669     6556     6442     6326     6222     6143 
    6095     6088     6122     6177     6246     6328     6408     6482 
    6559     6642     6713     6760     6790     6810     6820     6810 
    6782     6733     6659     6556     6440     6320     6196     6076 
    5969     5875     5798     5752     5755     5811     5906     6011 
    6106     6185     6259     6349     6469     6606     6727     6809 
    6856     6872     6862     6831     6778     6710     6642     6574 
    6531     6529     6547     6567     6589     6604     6620     6662 
    6720     6762     6774     6754     6710     6650     6585     6521 
    6457     6389     6334     6312     6332     6370     6404     6431 
    6461     6498     6539     6582     6629     6682     6732     6764 
    6772     6756     6704     6606     6470     6312     6156     6012 
    5892     5814     5779     5782     5822     5884     5950     6023 
    6115     6222     6330     6436     6536     6621     6701     6781 
    6848     6898     6930     6925     6880     6805     6710     6616 
    6542     6488     6448     6415     6377     6357     6361     6373 
    6376     6355     6315     6276     6259     6281     6347     6442 
    6527     6590     6639     6677     6693     6678     6639     6586 
    6524     6465     6430     6412     6392     6369     6346     6342 
    6370     6427     6490     6532     6554     6569     6581     6598 
    6627     6650     6639     6594     6531     6453     6374     6316 
    6277     6254     6253     6272     6315     6385     6467     6536 
    6573     6575     6565     6538     6501     6469     6438     6408 
    6393     6385     6366     6346     6330     6319     6335     6389 
