Origin Time       2024/06/23 22:54:00
Lat.              35.645
Long.             140.060
Depth. (km)       72
Mag.              4.1
Station Code      CHB016
Station Lat.      35.2998
Station Long.     140.3866
Station Height(m) 7
Record Time       2024/06/23 22:54:48
Sampling Freq(Hz) 100Hz
Duration Time(s)  60
Dir.              U-D
Scale Factor      7845(gal)/8223790
Max. Acc. (gal)   0.972
Last Correction   2024/06/23 22:54:48
Memo.             
[...]
   18296    18403    18364    18215    18000    17740    17529    17496 
   17628    17824    18054    18306    18497    18558    18503    18432 
   18396    18311    18127    17907    17739    17651    17659    17834 
   18144    18345    18296    18166    18137    18142    18017    17795 
   17744    17930    18031    17842    17655    17836    18196    18214 
   17879    17679    17757    17884    17987    18133    18243    18225 
   18169    18210    18304    18339    18266    18152    18165    18347 
   18472    18322    18017    17925    18173    18393    18222    17820 
   17566    17513    17510    17599    17879    18220    18399    18342 
   18179    18117    18173    18096    17814    17685    17973    18414 
   18528    18231    17948    18040    18265    18158    17748    17501 
   17641    17905    18056    18210    18439    18553    18420    18173 
   18021    18018    18029    17910    17733    17730    17963    18173 
   18204    18245    18341    18210    17825    17566    17655    17888 
   18011    18079    18229    18343    18258    18072    18013    18153 
   18347    18385    18195    17934    17820    17856    17890    17874 
   17922    18111    18283    18214    17967    17818    17883    18013 
   18061    18083    18175    18253    18212    18115    18063    18033 
   17968    17890    17847    17884    18075    18364    18468    18234 
   17945    17913    18056    18100    18015    18038    18242    18373 
   18256    18067    18034    18122    18166    18063    17840    17720 
   17844    17984    17906    17817    18021    18316    18288    18019 
   17899    17941    17894    17756    17755    17964    18206    18353 
   18450    18466    18312    18080    17975    18025    18067    18045 
   18037    18000    17906    17899    18048    18192    18152    17946 
   17802    17890    18131    18241    18054    17836    17948    18246 
   18314    18087    17896    18031    18338    18384    18092    17861 
   17960    18158    18139    17967    17880    17899    17919    17929 
   17957    18022    18164    18300    18230    18003    17901    17973 
   18064    18102    18084    18052    18085    18179    18249    18238 
   18148    18042    18018    18067    18048    17917    17857    17964 
   18084    18107    18134    18219    18226    18069    17899    17959 
   18225    18350    18127    17809    17710    17813    17919    17967 
   18050    18203    18285    18198    18045    17991    18065    18158 
   18154    18104    18130    18198    18192    18117    18004    17865 
   17801    17864    17917    17909    17994    18164    18210    18098 
   18009    18052    18106    18075    18123    18318    18400    18220 
   17949    17810    17859    17972    18006    17906    17806    17922 
   18165    18219    18090    18084    18270    18370    18239    18094 
   18072    18033    17928    17906    17998    18038    17933    17822 
   17824    17837    17793    17794    17955    18289    18611    18661 
   18455    18277    18295    18328    18119    17787    17676    17840 
   18025    18057    18009    18014    18056    18045    17979    17895 
   17803    17743    17761    17872    18068    18304    18438    18365 
   18229    18258    18397    18366    18084    17822    17833    18038 
   18164    18006    17660    17509    17718    18003    18103    18122 
   18226    18327    18237    18027    17971    18084    18130    18072 
   18083    18166    18199    18142    18037    17956    17982    18102 
   18165    18076    17937    17844    17720    17577    17663    18063 
   18418    18427    18315    18392    18551    18531    18308    18021 
   17774    17610    17554    17578    17658    17865    18223    18562 
   18705    18706    18698    18578    18164    17609    17296    17359 
   17582    17770    17934    18100    18229    18304    18268    18045 
   17803    17861    18188    18393    18310    18176    18175    18218 
   18177    18072    18058    18253    18435    18219    17685    17348 
   17436    17705    17898    17959    17945    17919    17925    17992 
   18134    18291    18391    18472    18562    18535    18284    17921 
   17682    17667    17776    17856    17840    17809    17955    18281 
   18509    18520    18500    18480    18303    18007    17716    17501 
   17521    17755    17874    17828    17963    18364    18697    18685 
   18376    18007    17797    17860    18160    18476    18542    18291 
   17982    17949    18126    18091    17737    17442    17471    17685 
   17913    18153    18392    18557    18538    18243    17834    17685 
   17861    18023    17982    17911    17945    17969    17936    17994 
   18179    18326    18346    18291    18184    18029    17901    17901 
   17957    17871    17703    17752    18058    18337    18362    18195 
   18022    17953    17996    18126    18229    18160    17969    17829 
   17786    17810    17856    17878    17917    18025    18117    18115 
   18114    18230    18396    18466    18422    18333    18227    18114 
   18006    17930    17922    17984    18080    18157    18152    18049 
   17940    17919    17941    17852    17616    17409    17469    17882 
   18357    18428    18112    17948    18226    18623    18720    18544 
   18427    18469    18408    18030    17493    17247    17531    17983 
   18102    17961    17988    18215    18306    18234    18261    18333 
   18171    17884    17852    18081    18215    18010    17579    17282 
   17366    17747    18188    18492    18534    18396    18322    18404 
   18520    18512    18273    17867    17547    17498    17635    17791 
   17930    18065    18172    18247    18320    18311    18067    17632 
   17335    17454    17874    18212    18257    18206    18368    18628 
   18650    18477    18372    18346    18323    18322    18254    18010 
   17714    17610    17675    17651    17518    17554    17832    18125 
   18241    18152    17964    17923    18164    18445    18488    18389 
   18347    18354    18342    18284    18164    17964    17756    17707 
   17851    18004    18038    17959    17799    17628    17578    17740 
   18044    18320    18354    18053    17709    17729    17988    17977 
   17670    17547    17845    18324    18675    18770    18658    18492 
   18387    18333    18287    18223    18131    18040    17982    18025 
   18181    18245    18042    17755    17694    17917    18181    18196 
   17965    17837    17994    18144    18056    17942    18011    18114 
   18038    17868    17824    17925    17982    17883    17770    17836 
   18065    18233    18185    18044    18049    18226    18301    18149 
   18036    18123    18273    18403    18468    18333    18091    17980 
   17983    17922    17747    17564    17537    17709    17957    18176 
   18318    18307    18184    18171    18327    18408    18274    18081 
   17930    17747    17601    17701    18002    18215    18226    18157 
   18106    18094    18092    18036    17963    17988    18084    18141 
   18137    18137    18165    18156    18077    18048    18137    18175 
   18004    17755    17666    17739    17807    17871    18027    18210 
   18335    18447    18511    18434    18262    18111    18018    17942 
   17874    17896    18042    18141    18053    17899    17901    18063 
   18145    18004    17801    17759    17887    18023    18058    18072 
   18195    18393    18497    18378    18117    17934    17891    17856 
   17767    17675    17698    17932    18242    18337    18175    18038 
   18094    18185    18166    18144    18212    18246    18133    17972 
   17938    18042    18123    18068    17980    18014    18111    18080 
   17910    17790    17847    18045    18233    18245    18106    18004 
   17980    17902    17748    17689    17859    18122    18227    18199 
   18260    18418    18472    18350    18158    17996    17923    17980 
   18126    18243    18260    18196    18118    18073    18049    17988 
   17874    17759    17743    17849    17982    18126    18276    18253 
   18019    17815    17764    17794    17928    18220    18538    18623 
   18396    18083    17945    17955    17880    17678    17617    17871 
   18208    18322    18204    18030    17919    17872    17851    17869 
   17922    17971    18006    18040    18118    18262    18372    18347 
   18237    18157    18092    17959    17799    17756    17865    18017 
   18080    18073    18130    18269    18364    18350    18250    18095 
   17972    17987    18085    18088    17983    17963    18079    18160 
   18096    17972    17936    18050    18264    18399    18315    18103 
   17972    17952    17917    17820    17716    17685    17805    18054 
   18246    18239    18165    18241    18397    18349    18064    17801 
   17722    17771    17829    17868    17957    18110    18211    18212 
   18203    18230    18223    18181    18203    18258    18172    17964 
   17860    17914    17969    17918    17778    17698    17875    18230 
   18404    18241    18009    17984    18131    18234    18188    18125 
   18180    18247    18158    17979    17915    18036    18146    18079 
   17952    17961    18100    18234    18233    18095    17976    17969 
   17968    17888    17802    17768    17791    17922    18172    18372 
   18347    18153    18049    18191    18414    18415    18156    17921 
   17892    17957    17984    17964    17890    17760    17664    17698 
   17822    17909    17949    18038    18146    18131    17991    17865 
   17876    17998    18112    18161    18180    18212    18247    18230 
   18177    18169    18181    18150    18131    18185    18247    18272 
   18293    18311    18300    18270    18220    18134    18029    17963 
   17965    18013    18045    17964    17767    17626    17675    17864 
   18073    18203    18249    18307    18354    18211    17932    17834 
   17977    18049    17869    17679    17768    18050    18229    18216 
   18175    18218    18242    18099    17864    17759    17909    18245 
   18519    18512    18320    18216    18210    18057    17756    17587 
   17604    17604    17551    17583    17730    17892    17983    18021 
   18119    18295    18411    18408    18419    18527    18576    18415 
   18161    17995    17899    17797    17726    17784    17961    18127 
   18175    18130    18090    18077    18081    18146    18225    18154 
   17940    17794    17845    18025    18179    18210    18160    18134 
   18112    17986    17791    17725    17875    18125    18308    18360 
   18316    18243    18145    18023    18004    18146    18246    18100 
   17821    17702    17820    17986    18067    18144    18315    18519 
   18611    18553    18364    18064    17779    17637    17579    17536 
   17585    17787    18036    18165    18137    18017    17891    17787 
   17686    17631    17703    17878    18002    17994    17969    18054 
   18198    18307    18391    18445    18400    18246    18076    18037 
   18152    18219    18100    17977    18053    18257    18408    18420 
   18331    18252    18250    18256    18175    18069    18049    18058 
   17988    17899    17930    18090    18214    18177    18038    17938 
   17932    17956    17957    17952    17944    17896    17805    17729 
   17775    17921    17996    17959    17992    18241    18539    18589 
   18339    18029    17909    18002    18123    18135    18103    18095 
   18040    17898    17755    17674    17624    17586    17617    17743 
   17933    18157    18351    18442    18419    18355    18339    18374 
   18366    18249    18087    17980    17923    17899    17917    17915 
   17837    17782    17891    18148    18384    18449    18349    18220 
   18160    18138    18094    18050    18077    18153    18193    18175 
   18123    18064    18036    18050    18071    18076    18081    18048 
   17950    17868    17851    17841    17818    17806    17788    17771 
   17807    17909    18037    18172    18308    18411    18427    18341 
   18180    17996    17837    17724    17656    17648    17721    17863 
   18011    18095    18100    18110    18158    18181    18210    18355 
   18520    18546    18488    18436    18387    18300    18162    17992 
   17837    17710    17620    17633    17824    18115    18326    18391 
   18412    18416    18273    17964    17705    17653    17682    17620 
   17531    17555    17707    17918    18096    18191    18229    18247 
   18223    18114    18044    18202    18490    18597    18415    18150 
   18027    18044    18067    18094    18210    18396    18508    18404 
   18118    17863    17771    17770    17718    17608    17595    17776 
   17996    18030    17853    17660    17628    17720    17821    17945 
   18169    18445    18617    18611    18481    18351    18301    18279 
   18183    18021    17878    17775    17695    17690    17838    18145 
   18499    18706    18643    18346    17972    17713    17689    17801 
   17855    17820    17815    17910    18019    17984    17795    17635 
   17674    17898    18157    18318    18357    18339    18349    18431 
   18535    18584    18573    18523    18443    18349    18193    17910 
   17593    17464    17586    17817    18058    18297    18424    18347 
   18156    18023    18004    17994    17872    17697    17621    17678 
   17782    17882    17973    18002    17946    17926    17998    18030 
   17957    17909    17991    18160    18315    18349    18207    18000 
   17883    17859    17825    17774    17797    17925    18083    18188 
   18187    18096    18031    18091    18237    18382    18562    18829 
   19057    19078    18879    18558    18219    17955    17798    17675 
   17518    17410    17440    17543    17636    17710    17761    17783 
   17803    17832    17840    17787    17720    17757    17925    18091 
   18189    18280    18407    18528    18577    18517    18409    18368 
   18391    18330    18118    17894    17801    17822    17847    17861 
   17944    18104    18242    18243    18111    17971    17917    17913 
   17922    17973    18072    18169    18215    18208    18198    18243 
   18337    18409    18412    18351    18269    18184    18080    17941 
   17784    17648    17558    17505    17452    17385    17336    17358 
   17444    17544    17675    17895    18185    18469    18666    18711 
   18605    18434    18270    18176    18222    18403    18604    18686 
   18588    18351    18112    17990    17968    17952    17923    17949 
   18079    18291    18497    18613    18623    18524    18326    18096 
   17886    17689    17545    17528    17631    17780    17891    17921 
   17879    17767    17605    17494    17502    17574    17629    17675 
   17772    17902    17986    18021    18046    18040    18000    17979 
   18003    18053    18104    18199    18365    18531    18619    18612 
   18519    18396    18369    18508    18706    18759    18576    18252 
   17979    17849    17790    17683    17558    17527    17578    17614 
   17640    17718    17875    18045    18129    18160    18261    18412 
   18522    18592    18655    18657    18538    18366    18242    18142 
   18040    17973    17946    17921    17909    17934    17944    17860 
   17682    17452    17238    17165    17302    17539    17695    17734 
   17760    17822    17903    18007    18141    18295    18469    18646 
   18771    18765    18593    18361    18243    18295    18404    18492 
   18549    18505    18360    18269    18264    18220    18146    18090 
   17990    17795    17558    17381    17343    17437    17599    17744 
   17813    17826    17842    17883    17955    18085    18260    18358 
   18311    18204    18145    18139    18144    18118    18072    18044 
   18026    17969    17888    17864    17917    17988    18019    17986 
   17909    17884    17988    18171    18301    18327    18299    18287 
   18297    18301    18280    18235    18206    18222    18234    18180 
   18069    17957    17901    17929    18015    18073    18046    17972 
   17940    17973    18034    18080    18118    18172    18215    18175 
   18042    17887    17794    17810    17894    17929    17907    17934 
   18040    18146    18171    18083    17937    17848    17869    17938 
   17976    18007    18096    18216    18288    18303    18312    18327 
   18327    18306    18281    18281    18314    18342    18304    18165 
   17968    17807    17751    17744    17686    17581    17532    17601 
   17737    17832    17822    17745    17709    17784    17914    17988 
   18027    18160    18411    18630    18705    18694    18673    18607 
   18453    18256    18100    18042    18067    18099    18108    18129 
   18153    18134    18056    17961    17910    17926    18006    18111 
   18172    18142    18036    17918    17860    17859    17848    17815 
   17787    17747    17685    17645    17702    17836    17945    18004 
   18094    18234    18337    18335    18269    18211    18177    18131 
   18053    17992    18013    18094    18148    18115    17998    17840 
   17686    17564    17490    17500    17625    17878    18227    18542 
   18700    18744    18796    18868    18874    18790    18721    18705 
   18659    18535    18337    18107    17901    17745    17655    17626 
   17633    17656    17699    17757    17779    17726    17624    17510 
   17437    17446    17504    17586    17713    17895    18083    18188 
   18166    18072    17999    17984    18004    18052    18158    18314 
   18459    18546    18549    18463    18334    18214    18138    18129 
   18157    18157    18119    18077    18040    17994    17948    17956 
   18054    18199    18285    18260    18179    18110    18042    17952 
   17898    17946    18068    18160    18156    18115    18099    18063 
   17969    17888    17914    18056    18207    18257    18207    18130 
   18079    18083    18137    18165    18115    18046    18023    18004 
   17973    17972    17983    17967    17940    17930    17926    17887 
   17788    17674    17599    17594    17647    17728    17826    17957 
   18085    18134    18099    18049    18045    18083    18144    18239 
   18355    18438    18472    18486    18492    18488    18481    18461 
   18408    18346    18300    18264    18215    18150    18067    17973 
   17888    17817    17743    17674    17641    17653    17691    17714 
   17680    17622    17618    17685    17770    17860    17963    18033 
   18041    18041    18096    18192    18268    18293    18301    18314 
   18316    18301    18274    18265    18284    18288    18253    18200 
   18126    18034    17987    18031    18139    18257    18343    18369 
   18338    18288    18261    18246    18206    18146    18096    18048 
   17957    17826    17709    17625    17552    17486    17458    17485 
   17535    17599    17718    17894    18061    18153    18169    18172 
   18196    18219    18229    18247    18297    18354    18382    18378 
   18357    18326    18287    18247    18212    18196    18200    18183 
   18114    18022    17952    17907    17878    17852    17844    17879 
   17936    17983    18010    17988    17910    17842    17836    17872 
   17941    18052    18157    18200    18229    18297    18374    18403 
   18397    18399    18418    18427    18416    18408    18397    18323 
   18138    17895    17698    17579    17521    17506    17516    17544 
   17599    17647    17617    17513    17427    17462    17622    17826 
   18014    18177    18322    18430    18485    18501    18505    18499 
