Origin Time       2024/06/23 22:54:00
Lat.              35.645
Long.             140.060
Depth. (km)       72
Mag.              4.1
Station Code      CHB029
Station Lat.      35.6948
Station Long.     139.9176
Station Height(m) 3
Record Time       2024/06/23 22:54:44
Sampling Freq(Hz) 100Hz
Duration Time(s)  65
Dir.              E-W
Scale Factor      7845(gal)/8223790
Max. Acc. (gal)   3.582
Last Correction   2024/06/23 22:54:44
Memo.             
[...]
    -797     -780     -774     -785     -789     -788     -789     -787 
    -781     -781     -795     -804     -796     -781     -780     -787 
    -787     -792     -801     -801     -791     -774     -773     -791 
    -808     -818     -818     -811     -793     -777     -780     -788 
    -791     -795     -799     -795     -781     -781     -789     -799 
    -805     -800     -791     -789     -784     -781     -784     -783 
    -788     -805     -811     -785     -765     -769     -781     -791 
    -793     -796     -807     -805     -789     -778     -776     -777 
    -789     -799     -804     -805     -801     -801     -801     -788 
    -772     -769     -785     -803     -803     -796     -795     -795 
    -785     -777     -789     -803     -801     -797     -793     -789 
    -789     -788     -788     -792     -788     -780     -778     -785 
    -793     -799     -799     -791     -774     -768     -776     -781 
    -784     -796     -805     -804     -804     -801     -799     -800 
    -791     -784     -788     -796     -805     -801     -795     -793 
    -784     -776     -784     -796     -801     -801     -803     -799 
    -781     -770     -774     -776     -765     -765     -777     -787 
    -787     -788     -799     -805     -799     -796     -803     -807 
    -797     -780     -777     -774     -762     -770     -792     -799 
    -793     -787     -783     -791     -799     -804     -816     -811 
    -788     -783     -788     -788     -783     -780     -785     -789 
    -797     -805     -810     -807     -791     -778     -781     -783 
    -785     -795     -805     -795     -774     -773     -780     -780 
    -783     -792     -795     -789     -784     -788     -796     -793 
    -777     -770     -773     -774     -781     -791     -799     -799 
    -787     -785     -801     -805     -793     -788     -783     -777 
    -777     -780     -792     -796     -785     -777     -777     -776 
    -781     -800     -814     -804     -784     -778     -793     -799 
    -780     -770     -781     -787     -785     -784     -793     -804 
    -793     -783     -787     -791     -796     -810     -818     -805 
    -787     -784     -791     -787     -781     -780     -783     -778 
    -770     -784     -801     -793     -780     -784     -795     -797 
    -791     -785     -796     -795     -776     -774     -789     -791 
    -785     -783     -778     -787     -801     -812     -820     -808 
    -783     -777     -785     -788     -780     -781     -800     -801 
    -783     -778     -795     -805     -795     -778     -773     -766 
    -766     -783     -799     -797     -788     -787     -795     -795 
    -785     -785     -793     -792     -785     -788     -805     -820 
    -810     -788     -777     -769     -766     -776     -792     -803 
    -800     -797     -797     -788     -781     -789     -804     -800 
    -788     -789     -800     -804     -788     -778     -785     -784 
    -780     -793     -807     -801     -781     -769     -783     -788 
    -778     -789     -805     -801     -793     -788     -787     -787 
    -788     -796     -801     -787     -769     -780     -796     -792 
    -780     -777     -793     -804     -793     -788     -796     -799 
    -792     -792     -800     -795     -781     -780     -781     -778 
    -780     -791     -803     -797     -777     -780     -797     -803 
    -795     -793     -800     -791     -764     -764     -785     -792 
    -784     -789     -805     -801     -776     -770     -788     -793 
    -785     -791     -807     -808     -801     -799     -795     -780 
    -769     -788     -807     -805     -804     -807     -810     -800 
    -781     -781     -791     -785     -781     -780     -778     -788 
    -793     -785     -784     -781     -780     -793     -807     -799 
    -784     -785     -795     -792     -778     -780     -791     -792 
    -784     -784     -797     -805     -805     -808     -797     -785 
    -781     -788     -801     -799     -780     -781     -796     -797 
    -784     -783     -807     -814     -795     -789     -792     -785 
    -769     -766     -780     -787     -788     -795     -799     -789 
    -770     -768     -784     -789     -793     -808     -811     -799 
    -783     -776     -784     -789     -791     -801     -800     -785 
    -776     -780     -797     -808     -797     -791     -800     -801 
    -796     -799     -800     -789     -772     -772     -788     -787 
    -785     -800     -805     -796     -785     -784     -796     -793 
    -776     -780     -785     -778     -778     -781     -784     -781 
    -770     -772     -777     -783     -792     -801     -811     -807 
    -787     -787     -801     -799     -787     -787     -793     -795 
    -791     -795     -808     -807     -793     -788     -789     -791 
    -783     -777     -792     -793     -785     -796     -810     -814 
    -808     -799     -796     -789     -774     -780     -789     -783 
    -765     -743     -741     -768     -795     -795     -792     -826 
    -865     -876     -850     -797     -769     -791     -800     -745 
    -666     -653     -746     -846     -815     -722     -742     -877 
    -974     -922     -773     -731     -850     -923     -816     -654 
    -614     -707     -792     -804     -805     -837     -845     -822 
    -872     -892     -700     -558     -715     -888     -837     -656 
    -562     -768    -1090    -1090     -805     -666     -823     -985 
    -841     -504     -391     -649     -986    -1116    -1013     -731 
    -558     -784    -1024     -876     -585     -483     -649     -946 
   -1102    -1017     -793     -652     -766     -931     -846     -576 
    -391     -510     -792     -837     -718     -811    -1039    -1119 
    -993     -742     -535     -535     -772    -1051    -1054     -861 
    -799     -777     -641     -486     -437     -697    -1146    -1254 
    -961     -681     -616     -658     -662     -685     -776     -807 
    -857    -1005     -945     -693     -727    -1019    -1105     -908 
    -699     -607     -508     -388     -465     -741     -946     -961 
    -878     -858     -918     -900     -823     -820     -830     -754 
    -639     -587     -664     -796     -907     -982     -977     -918 
    -839     -706     -577     -526     -523     -599     -810    -1063 
   -1186    -1109     -889     -664     -581     -629     -675     -702 
    -750     -818     -889     -927     -907     -843     -766     -710 
    -653     -612     -681     -812     -862     -849     -847     -866 
    -909     -922     -850     -749     -673     -662     -760     -916 
   -1012     -967     -819     -683     -584     -490     -504     -715 
    -961    -1038     -977     -922     -878     -770     -619     -556 
    -638     -707     -645     -618     -789    -1007    -1074     -974 
    -793     -702     -758     -756     -585     -445     -517     -780 
   -1055    -1124    -1015     -955     -938     -835     -689     -608 
    -692     -884     -957     -938     -972     -893     -652     -490 
    -444     -436     -534     -739     -909     -935     -855     -819 
    -897     -973     -854     -612     -549     -661     -753     -777 
    -766     -849    -1015    -1036     -926     -799     -692     -726 
    -842     -896     -963    -1003     -918     -785     -623     -475 
    -510     -735     -928     -876     -657     -615     -820     -926 
    -834     -865    -1042    -1024     -801     -643     -595     -618 
    -727     -830     -818     -741     -716     -770     -801     -754 
    -783    -1000    -1151     -982     -664     -498     -562     -762 
    -878     -796     -708     -724     -689     -643     -718     -805 
    -912    -1138    -1277    -1069     -652     -434     -569     -715 
    -635     -553     -634     -793     -922     -961     -959    -1005 
    -999     -830     -695     -750     -801     -741     -737     -822 
    -859     -801     -707     -652     -687     -796     -905     -909 
    -787     -695     -766     -865     -804     -660     -579     -583 
    -702     -884     -962     -868     -680     -648     -908    -1140 
   -1073     -954    -1020    -1063     -830     -479     -380     -615 
    -920    -1031     -893     -646     -491     -592     -872     -996 
    -873     -702     -650     -757     -770     -521     -391     -660 
   -1020    -1121     -973     -816     -787     -828     -877     -899 
    -838     -749     -799     -870     -715     -564     -706     -957 
   -1040     -841     -526     -471     -648     -777     -884    -1028 
   -1084     -981     -814     -654     -472     -378     -548     -827 
    -972     -990     -965     -896     -791     -749     -857     -994 
    -999     -854     -648     -511     -538     -662     -742     -762 
    -838    -1020    -1205    -1202     -986     -781     -708     -699 
    -738     -807     -787     -600     -324     -251     -545     -928 
   -1066     -922     -712     -681     -811     -927     -926     -826 
    -805     -930     -967     -784     -492     -274     -263     -452 
    -715     -916     -986    -1044    -1178    -1258    -1208    -1096 
    -966     -841     -684     -479     -395     -540     -697     -704 
    -741     -927    -1035     -911     -729     -661     -708     -807 
    -870     -853     -722     -508     -425     -533     -664     -780 
    -889     -919     -842     -696     -657     -893    -1197    -1269 
   -1098     -839     -627     -496     -437     -476     -584     -750 
   -1027    -1254    -1186     -913     -772     -911    -1105    -1138 
   -1059     -928     -762     -623     -523     -510     -581     -626 
    -621     -610     -568     -475     -376     -432     -695     -939 
   -1000     -980     -949     -866     -785     -799     -847     -823 
    -845    -1004    -1074     -928     -754     -718     -776     -776 
    -718     -765     -850     -768     -637     -685     -861    -1036 
   -1102     -922     -608     -426     -441     -558     -649     -685 
    -792     -982    -1096    -1008     -735     -502     -560     -826 
    -945     -762     -522     -507     -679     -877    -1078    -1220 
   -1215    -1116     -997     -842     -660     -545     -527     -533 
    -612     -811     -973    -1032    -1023     -891     -700     -652 
    -772     -908     -963     -993     -997     -907     -815     -751 
    -611     -475     -449     -465     -526     -679     -866    -1017 
   -1048     -951     -874     -892     -880     -772     -774     -984 
   -1063     -819     -540     -442     -434     -427     -464     -585 
    -797    -1012    -1043     -909     -915    -1092    -1117     -904 
    -689     -660     -810     -926     -793     -515     -378     -477 
    -660     -750     -768     -789     -823     -907     -967     -864 
    -770     -865     -907     -734     -568     -549     -540     -487 
    -560     -811    -1066    -1215    -1287    -1270    -1131     -946 
    -853     -903     -958     -839     -599     -479     -576     -688 
    -662     -661     -841    -1075    -1111     -847     -545     -508 
    -638     -723     -742     -692     -696     -861     -942     -769 
    -594     -669     -843     -773     -550     -600     -908    -1113 
   -1138    -1034     -800     -618     -658     -784     -789     -670 
    -579     -652     -816     -877     -807     -742     -783     -946 
   -1107    -1125    -1036     -868     -619     -425     -398     -490 
    -584     -596     -576     -631     -772     -953    -1098    -1081 
    -923     -819     -831     -824     -700     -569     -587     -727 
    -901    -1055    -1139    -1090     -901     -734     -745     -801 
    -723     -595     -634     -850     -984     -922     -837     -855 
    -934     -934     -777     -589     -535     -634     -826     -997 
   -1016     -877     -735     -680     -633     -546     -546     -720 
    -882     -835     -720     -754     -877     -913     -819     -731 
    -827    -1058    -1189    -1117     -939     -801     -810     -861 
    -692     -287        1     -105     -472     -792     -945     -994 
    -977     -888     -793     -807     -897     -931     -928     -981 
   -1028    -1007     -959     -938     -881     -726     -616     -691 
    -783     -703     -557     -545     -666     -777     -866    -1011 
   -1102    -1020     -873     -750     -588     -427     -422     -577 
    -716     -739     -745     -738     -608     -461     -507     -733 
    -949    -1003     -940     -920    -1008    -1123    -1121     -970 
    -792     -668     -577     -579     -747     -978    -1132    -1193 
   -1165    -1032     -847     -711     -633     -567     -511     -464 
    -437     -444     -430     -391     -378     -421     -534     -622 
    -666     -800     -978    -1047     -966     -720     -398     -176 
    -126     -170     -136       66      336      540      608      530 
     345       97     -216     -619    -1005    -1140     -970     -706 
    -571     -654     -994    -1634    -2506    -3364    -3939    -4087 
   -3843    -3383    -2856    -2397    -2205    -2324    -2544    -2650 
   -2444    -1711     -456     1043     2347     2947     2578     1416 
    -101    -1512    -2416    -2566    -2042    -1208     -392      122 
     113     -361     -957    -1362    -1559    -1746    -1987    -2205 
   -2403    -2455    -2122    -1336     -179     1165     2316     2936 
    2965     2565     1931     1217      526     -120     -712    -1084 
   -1151    -1144    -1291    -1564    -1802    -1811    -1416     -540 
     625     1578     1900     1497      461     -913    -2192    -3063 
   -3472    -3564    -3485    -3244    -2878    -2535    -2281    -2039 
   -1664    -1085     -452       45      425      750      855      491 
    -376    -1479    -2401    -2791    -2602    -2081    -1521    -1085 
    -837     -766     -801     -855     -847     -756     -627     -444 
    -170      144      486      818      969      803      361     -110 
    -270       44      708     1425     1906     2106     2034     1499 
     445     -828    -1946    -2720    -3133    -3215    -3018    -2673 
   -2338    -2089    -1860    -1505     -958     -332      174      441 
     423      114     -378     -945    -1575    -2242    -2851    -3338 
   -3674    -3808    -3615    -3007    -2056     -927      203     1152 
    1678     1656     1227      653      193        5       -6      -86 
    -391     -892    -1366    -1661    -1857    -1962    -1775    -1185 
    -371      338      720      768      654      546      434      178 
    -224     -544     -557     -252      114      211      -28     -437 
    -859    -1215    -1520    -1803    -2007    -2097    -2123    -2177 
   -2388    -2752    -3019    -2936    -2542    -2052    -1597    -1190 
    -826     -572     -537     -707     -950    -1094    -1001     -697 
    -394     -271     -283     -332     -430     -556     -567     -309 
     279     1071     1794     2243     2396     2265     1782      896 
    -225    -1209    -1821    -2201    -2533    -2678    -2424    -1798 
   -1034     -430     -182     -329     -762    -1296    -1786    -2122 
   -2180    -1899    -1340     -680     -140      144      151     -167 
    -851    -1737    -2466    -2727    -2440    -1814    -1178     -766 
    -596     -614     -803    -1085    -1275    -1250    -1031     -685 
    -288       41      197      112     -187     -513     -666     -707 
    -783     -908    -1001    -1017    -1047    -1146    -1212    -1174 
   -1063     -892     -710     -598     -602     -693     -743     -679 
    -552     -376     -140      143      437      631      621      441 
     197      -40     -224     -326     -375     -415     -480     -607 
    -762     -878     -958    -1038    -1189    -1471    -1792    -1983 
   -1962    -1734    -1358     -954     -653     -519     -522     -637 
    -911    -1372    -1988    -2675    -3230    -3381    -3064    -2439 
   -1659     -778       94      711      886      711      460      325 
     295      290      313      349      326      240       59     -310 
    -810    -1219    -1360    -1177     -838     -621     -591     -688 
    -946    -1368    -1765    -1888    -1682    -1337    -1036     -815 
    -664     -595     -623     -696     -692     -548     -349     -264 
    -399     -702    -1047    -1314    -1370    -1201     -970     -841 
    -920    -1200    -1487    -1591    -1470    -1171     -749     -284 
      58      170       56     -301     -864    -1455    -1869    -1964 
   -1722    -1283     -822     -490     -367     -402     -445     -361 
    -125      183      483      672      587      180     -391     -954 
   -1418    -1702    -1740    -1564    -1255     -853     -405      -17 
     237      376      352      102     -313     -757    -1151    -1514 
   -1875    -2189    -2416    -2525    -2434    -2123    -1745    -1452 
   -1278    -1163    -1024     -832     -649     -527     -449     -379 
    -332     -378     -535     -770    -1030    -1223    -1282    -1237 
   -1150     -999     -704     -263      175      461      615      693 
     648      429       86     -232     -437     -556     -607     -642 
    -739     -903    -1119    -1324    -1425    -1383    -1174     -815 
    -409      -72       98       89      -81     -425     -923    -1463 
   -1879    -2049    -2003    -1872    -1719    -1579    -1497    -1433 
   -1318    -1150     -947     -719     -502     -386     -436     -549 
    -584     -526     -445     -432     -535     -707     -866     -943 
    -877     -719     -592     -514     -441     -430     -584     -915 
   -1304    -1617    -1786    -1748    -1525    -1217     -831     -342 
     143      444      433      167     -157     -388     -492     -527 
    -560     -599     -691     -938    -1306    -1611    -1698    -1483 
   -1003     -448      -44      106       20     -271     -724    -1209 
   -1524    -1584    -1516    -1503    -1617    -1826    -2043    -2131 
   -2015    -1746    -1409    -1046     -691     -379     -149      -62 
    -120     -255     -399     -499     -507     -422     -278     -114 
      78      361      710      967     1047      985      834      649 
     484      294        1     -357     -679     -969    -1329    -1779 
   -2226    -2542    -2641    -2577    -2465    -2355    -2208    -1993 
   -1741    -1468    -1171     -924     -818     -849     -961    -1097 
   -1205    -1236    -1127     -850     -481     -174      -52     -147 
    -384     -600     -684     -673     -641     -577     -481     -448 
    -540     -702     -847     -946     -997     -942     -761     -556 
    -406     -349     -433     -641     -869     -996     -936     -704 
    -411     -171      -44      -59     -205     -395     -508     -468 
    -332     -232     -198     -211     -360     -731    -1269    -1782 
   -2114    -2241    -2259    -2232    -2106    -1822    -1445    -1123 
    -961     -915     -862     -750     -589     -384     -147       75 
     236      302      275      195       95      -72     -383     -793 
   -1205    -1561    -1803    -1892    -1822    -1597    -1269     -954 
    -754     -685     -669     -642     -573     -418     -216     -116 
    -229     -567    -1048    -1539    -1895    -2037    -1989    -1776 
