Origin Time       2024/06/23 22:54:00
Lat.              35.645
Long.             140.060
Depth. (km)       72
Mag.              4.1
Station Code      CHB011
Station Lat.      35.5877
Station Long.     140.4971
Station Height(m) 2
Record Time       2024/06/23 22:54:47
Sampling Freq(Hz) 100Hz
Duration Time(s)  60
Dir.              U-D
Scale Factor      7845(gal)/8223790
Max. Acc. (gal)   1.211
Last Correction   2024/06/23 22:54:46
Memo.             
[...]
  -14195   -14057   -13818   -13780   -13941   -14038   -13914   -13720 
  -13666   -13687   -13636   -13555   -13531   -13533   -13541   -13628 
  -13811   -13927   -13855   -13693   -13552   -13416   -13315   -13329 
  -13409   -13446   -13473   -13568   -13717   -13853   -13926   -13937 
  -13900   -13794   -13672   -13644   -13648   -13564   -13436   -13413 
  -13559   -13759   -13848   -13834   -13830   -13860   -13922   -14040 
  -14145   -14122   -13932   -13616   -13277   -13070   -13113   -13342 
  -13551   -13656   -13724   -13743   -13647   -13498   -13479   -13659 
  -13856   -13905   -13880   -13841   -13730   -13586   -13504   -13487 
  -13477   -13502   -13716   -14035   -14125   -13888   -13590   -13454 
  -13460   -13549   -13701   -13794   -13749   -13699   -13770   -13834 
  -13705   -13502   -13408   -13389   -13471   -13664   -13743   -13591 
  -13375   -13274   -13358   -13556   -13720   -13853   -14003   -14058 
  -13957   -13788   -13625   -13512   -13498   -13624   -13853   -14003 
  -13956   -13799   -13633   -13528   -13554   -13640   -13629   -13568 
  -13644   -13799   -13828   -13733   -13674   -13689   -13703   -13707 
  -13709   -13643   -13521   -13471   -13517   -13589   -13648   -13680 
  -13690   -13693   -13703   -13736   -13714   -13599   -13544   -13662 
  -13863   -13963   -13878   -13761   -13765   -13832   -13792   -13540 
  -13200   -13022   -13123   -13464   -13875   -14079   -13967   -13714 
  -13522   -13460   -13500   -13579   -13684   -13857   -14041   -14060 
  -13841   -13539   -13387   -13535   -13884   -14121   -14104   -13979 
  -13830   -13620   -13381   -13221   -13234   -13396   -13566   -13620 
  -13610   -13707   -13926   -14077   -14029   -13849   -13671   -13583 
  -13594   -13645   -13709   -13764   -13722   -13612   -13551   -13486 
  -13338   -13190   -13184   -13400   -13771   -14064   -14102   -13954 
  -13806   -13612   -13316   -13163   -13275   -13440   -13598   -13856 
  -14095   -14138   -14057   -13987   -13930   -13842   -13722   -13618 
  -13582   -13570   -13518   -13423   -13323   -13278   -13385   -13707 
  -14098   -14315   -14287   -14042   -13663   -13347   -13220   -13243 
  -13352   -13525   -13717   -13776   -13605   -13392   -13409   -13590 
  -13678   -13652   -13651   -13729   -13863   -13952   -13917   -13861 
  -13898   -13948   -13905   -13787   -13690   -13617   -13455   -13219 
  -13072   -13143   -13410   -13699   -13876   -13952   -13938   -13849 
  -13767   -13732   -13745   -13840   -13915   -13836   -13703   -13660 
  -13649   -13626   -13583   -13448   -13281   -13271   -13447   -13672 
  -13842   -13902   -13864   -13821   -13807   -13747   -13640   -13535 
  -13425   -13381   -13482   -13668   -13849   -13986   -14031   -13949 
  -13760   -13625   -13676   -13771   -13787   -13770   -13670   -13490 
  -13444   -13575   -13720   -13819   -13879   -13846   -13779   -13821 
  -13911   -13840   -13609   -13410   -13363   -13463   -13679   -13927 
  -13983   -13748   -13514   -13522   -13612   -13602   -13501   -13401 
  -13479   -13756   -13990   -14029   -13929   -13763   -13583   -13462 
  -13437   -13458   -13439   -13402   -13441   -13541   -13564   -13500 
  -13487   -13628   -13842   -13884   -13652   -13381   -13302   -13387 
  -13541   -13741   -13986   -14231   -14323   -14169   -13891   -13679 
  -13589   -13555   -13502   -13448   -13451   -13525   -13633   -13706 
  -13679   -13602   -13647   -13837   -13980   -14010   -14073   -14196 
  -14160   -13894   -13621   -13474   -13375   -13271   -13246   -13408 
  -13643   -13686   -13520   -13377   -13381   -13466   -13555   -13659 
  -13763   -13798   -13787   -13817   -13856   -13837   -13829   -13899 
  -13983   -13972   -13815   -13594   -13435   -13339   -13309   -13398 
  -13517   -13555   -13571   -13672   -13842   -13948   -13902   -13775 
  -13686   -13686   -13747   -13790   -13760   -13637   -13451   -13363 
  -13452   -13576   -13659   -13732   -13697   -13545   -13479   -13564 
  -13691   -13814   -13927   -13984   -13965   -13903   -13844   -13848 
  -13906   -13856   -13616   -13358   -13281   -13354   -13425   -13477 
  -13522   -13494   -13420   -13374   -13342   -13448   -13771   -14045 
  -14061   -13950   -13891   -13863   -13763   -13648   -13641   -13667 
  -13614   -13547   -13570   -13686   -13844   -13972   -14000   -13887 
  -13632   -13332   -13123   -13076   -13240   -13603   -13927   -13972 
  -13814   -13663   -13589   -13586   -13672   -13768   -13772   -13720 
  -13622   -13443   -13306   -13359   -13541   -13743   -13915   -14002 
  -13969   -13852   -13733   -13698   -13707   -13697   -13728   -13791 
  -13749   -13624   -13563   -13567   -13533   -13505   -13625   -13861 
  -14030   -14049   -13945   -13771   -13606   -13482   -13366   -13298 
  -13352   -13485   -13612   -13684   -13649   -13591   -13637   -13689 
  -13647   -13608   -13645   -13728   -13809   -13828   -13743   -13649 
  -13694   -13872   -14071   -14161   -14056   -13814   -13602   -13497 
  -13477   -13493   -13489   -13473   -13482   -13468   -13421   -13432 
  -13531   -13645   -13690   -13694   -13761   -13869   -13915   -13868 
  -13786   -13787   -13869   -13915   -13898   -13810   -13641   -13493 
  -13459   -13491   -13532   -13599   -13705   -13770   -13721   -13622 
  -13551   -13447   -13309   -13309   -13527   -13833   -14041   -14023 
  -13814   -13597   -13495   -13489   -13521   -13582   -13656   -13697 
  -13663   -13591   -13566   -13601   -13617   -13575   -13590   -13737 
  -13840   -13745   -13555   -13446   -13532   -13757   -13913   -13949 
  -13971   -13961   -13895   -13857   -13859   -13840   -13821   -13845 
  -13840   -13751   -13625   -13502   -13392   -13325   -13317   -13346 
  -13413   -13555   -13729   -13824   -13797   -13705   -13668   -13772 
  -13956   -14080   -14058   -13883   -13599   -13321   -13180   -13220 
  -13393   -13606   -13752   -13830   -13919   -13937   -13757   -13508 
  -13420   -13516   -13664   -13775   -13817   -13774   -13672   -13630 
  -13697   -13740   -13663   -13517   -13448   -13552   -13714   -13783 
  -13814   -13855   -13830   -13716   -13560   -13456   -13486   -13587 
  -13630   -13618   -13633   -13664   -13666   -13659   -13722   -13853 
  -13926   -13919   -13946   -13999   -13950   -13764   -13539   -13419 
  -13421   -13424   -13408   -13437   -13466   -13440   -13435   -13490 
  -13528   -13552   -13726   -14062   -14296   -14251   -14057   -13853 
  -13653   -13516   -13548   -13728   -13855   -13783   -13616   -13551 
  -13626   -13690   -13606   -13464   -13400   -13417   -13493   -13564 
  -13562   -13505   -13458   -13475   -13559   -13667   -13821   -14025 
  -14172   -14204   -14143   -13988   -13806   -13698   -13643   -13571 
  -13491   -13467   -13535   -13608   -13598   -13552   -13491   -13394 
  -13363   -13478   -13629   -13698   -13672   -13556   -13448   -13487 
  -13632   -13779   -13932   -14087   -14195   -14230   -14183   -14062 
  -13932   -13834   -13745   -13637   -13543   -13470   -13351   -13180 
  -13054   -13036   -13153   -13356   -13568   -13805   -14046   -14115 
  -13948   -13729   -13628   -13659   -13757   -13818   -13753   -13559 
  -13332   -13269   -13468   -13779   -14013   -14173   -14257   -14143 
  -13886   -13680   -13566   -13524   -13587   -13683   -13701   -13656 
  -13585   -13455   -13297   -13224   -13285   -13413   -13521   -13567 
  -13574   -13608   -13693   -13706   -13544   -13333   -13284   -13416 
  -13602   -13768   -13918   -14021   -14034   -13979   -13913   -13903 
  -13942   -13907   -13718   -13486   -13369   -13392   -13509   -13671 
  -13825   -13954   -14034   -13983   -13795   -13559   -13379   -13362 
  -13498   -13629   -13682   -13713   -13768   -13805   -13745   -13608 
  -13517   -13521   -13559   -13598   -13693   -13840   -13930   -13934 
  -13910   -13814   -13641   -13540   -13554   -13579   -13564   -13566 
  -13660   -13826   -13938   -13913   -13784   -13667   -13628   -13664 
  -13706   -13686   -13635   -13598   -13540   -13475   -13467   -13493 
  -13483   -13429   -13385   -13405   -13493   -13617   -13748   -13824 
  -13824   -13829   -13887   -13929   -13868   -13709   -13552   -13487 
  -13517   -13556   -13531   -13501   -13558   -13635   -13622   -13574 
  -13616   -13748   -13859   -13896   -13914   -13911   -13792   -13598 
  -13527   -13657   -13806   -13792   -13698   -13659   -13614   -13518 
  -13460   -13471   -13527   -13630   -13738   -13760   -13701   -13686 
  -13803   -13972   -14076   -14125   -14111   -13960   -13697   -13471 
  -13408   -13500   -13621   -13660   -13613   -13525   -13436   -13396 
  -13485   -13697   -13879   -13914   -13838   -13771   -13780   -13790 
  -13687   -13531   -13478   -13521   -13531   -13483   -13485   -13579 
  -13693   -13779   -13853   -13887   -13825   -13697   -13613   -13630 
  -13695   -13678   -13509   -13294   -13184   -13228   -13385   -13562 
  -13697   -13798   -13875   -13895   -13880   -13932   -14037   -14022 
  -13819   -13549   -13323   -13182   -13143   -13225   -13408   -13562 
  -13608   -13671   -13865   -14121   -14273   -14249   -14161   -14141 
  -14179   -14195   -14095   -13852   -13558   -13308   -13169   -13174 
  -13257   -13317   -13311   -13250   -13239   -13367   -13590   -13806 
  -13983   -14108   -14116   -13996   -13886   -13892   -13945   -13910 
  -13706   -13346   -12976   -12783   -12839   -13077   -13394   -13718 
  -13983   -14130   -14170   -14161   -14146   -14106   -13996   -13844 
  -13697   -13585   -13508   -13452   -13441   -13495   -13566   -13591 
  -13548   -13491   -13502   -13589   -13701   -13771   -13737   -13637 
  -13585   -13630   -13729   -13778   -13702   -13559   -13524   -13671 
  -13907   -14085   -14108   -14007   -13918   -13905   -13911   -13876 
  -13806   -13730   -13636   -13482   -13292   -13139   -13053   -13049 
  -13134   -13313   -13612   -13965   -14208   -14272   -14243   -14230 
  -14261   -14292   -14266   -14114   -13776   -13360   -13051   -12856 
  -12706   -12645   -12722   -12901   -13150   -13458   -13774   -14041 
  -14238   -14327   -14296   -14257   -14295   -14327   -14270   -14148 
  -13984   -13792   -13612   -13477   -13390   -13342   -13306   -13225 
  -13107   -13063   -13177   -13421   -13713   -13942   -14058   -14088 
  -14046   -13903   -13639   -13328   -13109   -13059   -13176   -13412 
  -13633   -13725   -13714   -13680   -13684   -13776   -13913   -13964 
  -13907   -13824   -13760   -13729   -13728   -13736   -13759   -13771 
  -13760   -13803   -13945   -14075   -14044   -13851   -13622   -13479 
  -13464   -13544   -13618   -13597   -13504   -13460   -13531   -13664 
  -13771   -13767   -13633   -13475   -13393   -13408   -13509   -13635 
  -13724   -13838   -14056   -14307   -14427   -14338   -14111   -13830 
  -13529   -13278   -13158   -13111   -13036   -12951   -12943   -13077 
  -13348   -13643   -13818   -13842   -13814   -13846   -13879   -13784 
  -13633   -13597   -13686   -13764   -13733   -13593   -13382   -13197 
  -13174   -13383   -13770   -14166   -14397   -14403   -14254   -14081 
  -13949   -13834   -13717   -13599   -13485   -13405   -13441   -13668 
  -14010   -14269   -14339   -14276   -14145   -13944   -13695   -13504 
  -13420   -13360   -13251   -13104   -12955   -12852   -12864   -13016 
  -13227   -13397   -13524   -13636   -13745   -13872   -14035   -14241 
  -14450   -14559   -14453   -14161   -13856   -13645   -13483   -13271 
  -12988   -12739   -12671   -12839   -13169   -13518   -13824   -14080 
  -14243   -14251   -14134   -13965   -13765   -13558   -13408   -13329 
  -13305   -13329   -13342   -13335   -13379   -13505   -13698   -13968 
  -14258   -14426   -14396   -14227   -14010   -13797   -13640   -13606 
  -13671   -13711   -13630   -13450   -13278   -13262   -13493   -13913 
  -14346   -14607   -14647   -14532   -14284   -13907   -13517   -13247 
  -13084   -12954   -12897   -12918   -12912   -12856   -12827   -12910 
  -13138   -13463   -13778   -14018   -14192   -14312   -14399   -14481 
  -14507   -14393   -14169   -13932   -13741   -13591   -13435   -13246 
  -13051   -12914   -12861   -12876   -13019   -13332   -13671   -13921 
  -14131   -14335   -14466   -14440   -14241   -13972   -13782   -13720 
  -13721   -13670   -13475   -13165   -12879   -12780   -12954   -13304 
  -13629   -13822   -13925   -13995   -14060   -14143   -14215   -14153 
  -13878   -13505   -13297   -13371   -13568   -13726   -13848   -13926 
  -13896   -13768   -13643   -13587   -13589   -13624   -13705   -13834 
  -13936   -13925   -13815   -13652   -13463   -13333   -13335   -13452 
  -13624   -13761   -13792   -13707   -13549   -13362   -13200   -13127 
  -13180   -13339   -13527   -13660   -13729   -13756   -13782   -13845 
  -13945   -14034   -14056   -13999   -13937   -13940   -14013   -14081 
  -14072   -14002   -13896   -13683   -13342   -13038   -12969   -13100 
  -13209   -13216   -13238   -13342   -13467   -13572   -13728   -14017 
  -14372   -14609   -14620   -14439   -14176   -13926   -13743   -13647 
  -13612   -13559   -13424   -13224   -13019   -12838   -12739   -12834 
  -13143   -13518   -13826   -14037   -14169   -14242   -14262   -14250 
  -14238   -14235   -14239   -14207   -14087   -13890   -13645   -13377 
  -13138   -12984   -12943   -13005   -13112   -13215   -13328   -13467 
  -13610   -13748   -13898   -14058   -14177   -14185   -14073   -13890 
  -13683   -13508   -13413   -13367   -13286   -13165   -13086   -13089 
  -13144   -13257   -13474   -13832   -14266   -14640   -14870   -14941 
  -14829   -14528   -14121   -13737   -13451   -13271   -13201   -13244 
  -13359   -13455   -13455   -13358   -13217   -13103   -13068   -13144 
  -13344   -13620   -13846   -13937   -13917   -13871   -13842   -13809 
  -13732   -13608   -13491   -13464   -13541   -13690   -13833   -13848 
  -13701   -13497   -13355   -13327   -13405   -13547   -13697   -13834 
  -13979   -14116   -14196   -14145   -13932   -13626   -13355   -13177 
  -13104   -13159   -13338   -13585   -13856   -14112   -14301   -14388 
  -14337   -14152   -13930   -13772   -13679   -13608   -13545   -13493 
  -13447   -13406   -13370   -13339   -13351   -13420   -13516   -13632 
  -13765   -13842   -13787   -13655   -13587   -13653   -13801   -13961 
  -14049   -13983   -13806   -13635   -13505   -13408   -13348   -13306 
  -13234   -13154   -13159   -13278   -13464   -13680   -13887   -14038 
  -14104   -14100   -14065   -14017   -13950   -13907   -13911   -13905 
  -13855   -13818   -13794   -13741   -13659   -13575   -13543   -13572 
  -13581   -13502   -13383   -13293   -13252   -13238   -13244   -13321 
  -13479   -13678   -13872   -14027   -14114   -14110   -14042   -13973 
  -13903   -13782   -13602   -13433   -13351   -13346   -13378   -13478 
  -13651   -13836   -13986   -14057   -14035   -13999   -13986   -13909 
  -13728   -13522   -13371   -13298   -13273   -13225   -13173   -13190 
  -13297   -13466   -13651   -13787   -13851   -13861   -13851   -13883 
  -13981   -14083   -14145   -14175   -14133   -13976   -13745   -13537 
  -13419   -13410   -13467   -13493   -13444   -13367   -13306   -13278 
  -13332   -13510   -13770   -14003   -14119   -14089   -13976   -13861 
  -13765   -13667   -13566   -13490   -13454   -13421   -13358   -13274 
  -13227   -13257   -13328   -13417   -13560   -13760   -13954   -14121 
  -14247   -14278   -14181   -14013   -13822   -13643   -13518   -13468 
  -13456   -13444   -13452   -13531   -13666   -13780   -13844   -13878 
  -13913   -13952   -14013   -14118   -14214   -14206   -14048   -13783 
  -13543   -13416   -13383   -13401   -13375   -13181   -12842   -12550 
  -12474   -12644   -13020   -13547   -14079   -14440   -14581   -14567 
  -14481   -14346   -14164   -13968   -13792   -13635   -13513   -13441 
  -13398   -13346   -13298   -13302   -13354   -13447   -13606   -13805 
  -13975   -14071   -14054   -13945   -13833   -13770   -13738   -13720 
  -13693   -13587   -13386   -13189   -13086   -13081   -13177   -13350 
  -13509   -13613   -13711   -13825   -13930   -14013   -14068   -14103 
  -14099   -14040   -13953   -13876   -13788   -13666   -13539   -13466 
  -13456   -13468   -13444   -13401   -13402   -13479   -13616   -13774 
  -13919   -14014   -14006   -13876   -13684   -13540   -13490   -13458 
  -13369   -13278   -13263   -13288   -13293   -13323   -13447   -13645 
  -13832   -13953   -14021   -14077   -14137   -14143   -14072   -13965 
  -13853   -13724   -13586   -13466   -13404   -13443   -13562   -13701 
  -13817   -13882   -13886   -13838   -13782   -13778   -13841   -13921 
  -13948   -13880   -13745   -13618   -13513   -13406   -13281   -13153 
  -13078   -13122   -13290   -13539   -13779   -13938   -13990   -13945 
  -13864   -13814   -13811   -13810   -13761   -13653   -13518   -13409 
  -13373   -13440   -13591   -13730   -13778   -13745   -13707   -13707 
  -13713   -13668   -13595   -13547   -13525   -13535   -13606   -13695 
  -13736   -13752   -13787   -13834   -13872   -13890   -13861   -13775 
  -13674   -13591   -13543   -13527   -13524   -13537   -13603   -13710 
  -13801   -13878   -13965   -14035   -14058   -14033   -13923   -13716 
  -13490   -13324   -13235   -13232   -13304   -13409   -13513   -13610 
  -13725   -13836   -13886   -13882   -13875   -13882   -13849   -13751 
  -13632   -13505   -13356   -13231   -13176   -13193   -13255   -13328 
  -13428   -13576   -13748   -13894   -13990   -14018   -13979   -13905 
  -13846   -13846   -13903   -13956   -13941   -13855   -13732   -13590 
  -13460   -13396   -13424   -13524   -13660   -13803   -13914   -13950 
  -13929   -13909   -13903   -13906   -13938   -13995   -14040   -14008 
  -13867   -13653   -13454   -13305   -13216   -13186   -13209   -13255 
  -13308   -13393   -13517   -13645   -13736   -13779   -13817   -13890 
  -13967   -13986   -13921   -13784   -13599   -13406   -13246   -13154 
  -13159   -13244   -13362   -13504   -13659   -13799   -13907   -13967 
  -13976   -13990   -14030   -14080   -14127   -14131   -14062   -13938 
  -13782   -13616   -13482   -13405   -13359   -13306   -13266   -13265 
  -13289   -13321   -13347   -13373   -13455   -13613   -13767   -13867 
  -13925   -13930   -13868   -13776   -13684   -13595   -13518   -13471 
  -13464   -13509   -13579   -13641   -13713   -13797   -13855   -13879 
  -13869   -13836   -13799   -13775   -13778   -13821   -13882   -13926 
  -13929   -13883   -13807   -13745   -13717   -13722   -13747   -13755 
  -13725   -13652   -13536   -13393   -13254   -13176   -13189   -13251 
  -13309   -13370   -13456   -13525   -13539   -13548   -13626   -13786 
  -13986   -14138   -14165   -14069   -13922   -13783   -13684   -13632 
  -13617   -13656   -13764   -13880   -13942   -13948   -13914   -13876 
  -13868   -13865   -13819   -13718   -13562   -13389   -13277   -13248 
  -13290   -13385   -13490   -13578   -13670   -13790   -13894   -13910 
  -13832   -13732   -13652   -13568   -13463   -13347   -13267   -13281 
  -13377   -13509   -13641   -13736   -13774   -13757   -13702   -13640 
  -13589   -13560   -13585   -13678   -13814   -13957   -14045   -14040 
  -13979   -13913   -13853   -13780   -13686   -13590   -13522   -13486 
  -13454   -13420   -13420   -13473   -13554   -13630   -13690   -13718 
  -13724   -13755   -13829   -13922   -13996   -14015   -13963   -13876 
