Origin Time       2024/06/23 22:54:00
Lat.              35.645
Long.             140.060
Depth. (km)       72
Mag.              4.1
Station Code      CHB004
Station Lat.      35.8889
Station Long.     140.4903
Station Height(m) 36
Record Time       2024/06/23 22:54:47
Sampling Freq(Hz) 100Hz
Duration Time(s)  60
Dir.              U-D
Scale Factor      7845(gal)/8223790
Max. Acc. (gal)   1.481
Last Correction   2024/06/23 22:54:47
Memo.             
    1236     1232     1231     1228     1235     1246     1237     1221 
    1228     1239     1233     1231     1229     1235     1235     1228 
    1229     1233     1229     1231     1233     1236     1235     1228 
    1225     1236     1243     1228     1223     1237     1242     1233 
    1227     1229     1240     1244     1231     1227     1243     1243 
    1231     1228     1236     1242     1235     1231     1235     1233 
    1239     1243     1232     1227     1236     1242     1236     1232 
    1237     1239     1233     1227     1233     1244     1236     1227 
    1229     1236     1237     1233     1231     1236     1240     1236 
    1231     1232     1237     1239     1239     1237     1236     1236 
    1232     1236     1244     1237     1232     1243     1246     1235 
    1231     1233     1240     1237     1231     1235     1240     1237 
    1233     1231     1236     1243     1233     1229     1239     1240 
    1235     1235     1231     1221     1233     1250     1237     1227 
    1236     1237     1236     1244     1239     1227     1233     1243 
    1239     1233     1228     1233     1243     1239     1232     1228 
    1224     1239     1246     1227     1220     1236     1239     1228 
    1237     1252     1244     1225     1225     1240     1247     1231 
    1224     1240     1246     1231     1231     1240     1227     1221 
    1235     1237     1235     1236     1229     1228     1232     1236 
    1233     1221     1228     1242     1237     1232     1232     1231 
    1239     1242     1225     1227     1246     1243     1229     1231 
    1237     1236     1232     1235     1236     1232     1235     1233 
    1228     1231     1228     1231     1237     1233     1231     1233 
    1232     1227     1225     1240     1254     1231     1206     1228 
    1247     1232     1225     1237     1239     1237     1233     1225 
    1233     1250     1236     1221     1229     1236     1236     1231 
    1223     1227     1239     1240     1231     1229     1243     1232 
    1217     1237     1246     1228     1232     1236     1231     1239 
    1239     1231     1239     1233     1228     1242     1239     1233 
    1235     1225     1237     1251     1229     1228     1243     1232 
    1231     1237     1224     1225     1242     1239     1228     1233 
    1240     1232     1239     1250     1229     1216     1243     1248 
    1223     1232     1250     1229     1231     1255     1237     1224 
    1250     1240     1213     1240     1248     1209     1228     1273 
    1246     1206     1233     1266     1231     1206     1246     1251 
    1210     1229     1266     1228     1201     1255     1270     1212 
    1215     1269     1254     1205     1229     1269     1232     1205 
    1250     1263     1215     1215     1263     1251     1202     1232 
    1278     1232     1194     1248     1273     1215     1200     1259 
    1266     1205     1208     1271     1258     1197     1215     1270 
    1251     1197     1217     1266     1243     1201     1233     1271 
    1235     1202     1237     1262     1221     1200     1252     1277 
    1220     1188     1246     1291     1231     1177     1244     1296 
    1227     1182     1243     1282     1227     1177     1227     1287 
    1246     1186     1221     1274     1246     1205     1220     1248 
    1243     1217     1223     1248     1251     1229     1213     1233 
    1259     1233     1206     1232     1260     1244     1210     1213 
    1260     1266     1210     1202     1259     1267     1219     1202 
    1246     1273     1231     1193     1229     1264     1242     1206 
    1215     1254     1259     1225     1208     1236     1271     1242 
    1185     1217     1285     1258     1193     1216     1273     1254 
    1208     1213     1252     1271     1232     1194     1231     1273 
    1239     1201     1225     1259     1250     1220     1219     1248 
    1258     1219     1194     1233     1269     1243     1198     1206 
    1262     1269     1213     1196     1248     1274     1220     1189 
    1244     1282     1228     1188     1235     1281     1248     1192 
    1213     1274     1255     1192     1204     1270     1274     1213 
    1196     1243     1263     1227     1201     1231     1270     1248 
    1200     1212     1262     1260     1208     1200     1250     1260 
    1219     1215     1256     1255     1209     1208     1251     1262 
    1220     1202     1242     1263     1228     1200     1236     1273 
    1233     1189     1229     1278     1240     1192     1223     1266 
    1246     1210     1224     1255     1250     1220     1217     1251 
    1255     1212     1212     1258     1252     1205     1215     1269 
    1260     1212     1221     1262     1258     1224     1217     1250 
    1244     1190     1193     1256     1262     1212     1220     1281 
    1293     1255     1262     1294     1244     1175     1201     1255 
    1252     1229     1220     1228     1223     1213     1285     1372 
    1320     1227     1259     1301     1194     1040     1062     1269 
    1412     1347     1156     1026     1065     1185     1304     1441 
    1475     1374     1343     1389     1406     1441     1367     1028 
     635      492      695     1015     1119     1117     1379     1800 
    1945     1632     1131      884      973     1152     1306     1432 
    1517     1466     1048      369       21      365     1112     1674 
    1903     2203     2516     2085      876        6      190      959 
    1644     2096     2365     2236     1412      261     -238      294 
    1242     1891     2053     1772     1120      483      392      815 
    1310     1675     1867     1813     1606     1331     1070      993 
     927      703      734     1208     1637     1711     1566     1294 
     958      753      827     1085     1309     1467     1614     1632 
    1362      787      252      317      942     1656     2330     2787 
    2525     1557      558      -13      -14      612     1479     1999 
    2011     1699     1239      696      303      477     1197     1925 
    2263     2145     1688     1135      600      249      430     1004 
    1406     1545     1630     1638     1491     1271     1175     1235 
    1254     1215     1244     1279     1259     1183      930      621 
     606      868     1167     1422     1621     1803     1907     1733 
    1412     1422     1823     2101     1912     1383      760      191 
    -199     -224      218      892     1385     1540     1553     1617 
    1701     1684     1566     1405     1228     1216     1467     1660 
    1575     1316      962      683      778     1250     1636     1548 
    1186      989     1007     1088     1216     1362     1516     1628 
    1512     1255     1081      843      469      337      669     1136 
    1437     1683     1922     1975     1833     1580     1151      687 
     580      853     1161     1354     1435     1420     1320     1055 
     692      544      777     1232     1709     2091     2119     1610 
     882      441      535     1089     1722     2054     1921     1340 
     599      222      540     1343     2014     2135     1803     1192 
     491      209      599     1296     1881     2195     2101     1614 
    1061      716      630      777      972     1066     1152     1229 
    1267     1451     1728     1710     1282      733      372      392 
     831     1482     2012     2134     1776     1317     1181     1221 
    1255     1421     1613     1534     1127      630      461      703 
    1081     1449     1675     1512     1059      837     1111     1493 
    1599     1526     1386     1148      972      982     1054     1032 
     895      900     1324     1792     1757     1420     1213     1089 
    1036     1312     1734     1814     1632     1517     1301      777 
     263      193      627     1308     1894     2081     1872     1570 
    1325     1173     1201     1205     1021      958     1121     1178 
    1080     1062     1016      828      812     1073     1352     1548 
    1579     1355     1107     1147     1374     1525     1661     1687 
    1287      761      576      634      864     1297     1602     1611 
    1528     1493     1567     1597     1339      880      468      348 
     654     1194     1686     1923     1822     1551     1242      851 
     616      965     1723     2191     2111     1713     1162      580 
     241      436     1062     1602     1706     1482     1179      970 
     986     1212     1406     1381     1223     1247     1521     1642 
    1418     1127      938      822      857     1098     1263     1115 
     919      897     1030     1440     2027     2307     2052     1495 
     974      681      604      544      483      747     1354     1807 
    1838     1605     1325     1156     1144     1239     1417     1606 
    1563     1240     1013     1062     1086      899      665      523 
     603     1109     1863     2351     2386     2029     1287      498 
     256      699     1331     1655     1571     1190      795      722 
    1019     1512     1906     1929     1699     1487     1228      765 
     369      471      845      974      984     1209     1467     1444 
    1381     1679     2120     2177     1706     1016      446      199 
     499     1186     1672     1692     1374     1065     1128     1420 
    1634     1790     1742     1239      631      433      554      815 
    1285     1672     1471      837      568     1016     1645     2010 
    2223     2212     1721      908      243      238      951     1615 
    1696     1494     1248      927      677      707      985     1250 
    1350     1328     1185      994     1031     1287     1428     1487 
    1723     1985     1971     1706     1424     1128      720      419 
     449      722     1084     1440     1653     1549     1113      608 
     476      954     1709     2258     2452     2231     1613      876 
     337      236      696     1391     1721     1441      846      552 
     908     1528     1865     1830     1512     1038      737      913 
    1422     1768     1548      872      471      766     1235     1476 
    1706     1850     1609     1077      580      481      911     1498 
    1786     1661     1391     1266     1244     1236     1282     1348 
    1310     1067      672      409      653     1331     1798     1753 
    1582     1545     1483     1325     1258     1318     1248      986 
     835      924     1047     1055     1051     1183     1426     1636 
    1728     1649     1405     1182     1177     1282     1275     1198 
    1205     1140      780      413      405      635     1048     1787 
    2435     2328     1630     1166     1216     1366     1362     1252 
    1017      687      540      774     1125     1262     1270     1285 
    1080      645      612     1314     2089     2331     2250     1987 
    1348      626      432      842     1363     1570     1524     1468 
    1360     1119      982     1147     1296     1027      625      626 
     965     1302     1599     1873     1960     1729     1313      973 
     785      637      625      988     1462     1560     1308     1057 
    1021     1158     1260     1304     1483     1726     1651     1317 
    1159     1107      869      645      724     1042     1358     1564 
    1761     1984     2049     1753     1193      745      599      552 
     449      561     1090     1637     1768     1575     1300     1102 
    1101     1188     1247     1366     1463     1432     1533     1773 
    1691     1235      855      749      723      751      904      961 
     915     1108     1491     1748     1853     1863     1729     1441 
    1120      928      912      969     1043     1216     1525     1745 
    1615     1240      915      719      700     1016     1489     1692 
    1532     1221      919      684      594      716     1073     1566 
    1964     2054     1807     1437     1120      849      729      861 
    1001      874      706      959     1559     1945     1923     1769 
    1667     1537     1267      881      623      739     1069     1252 
    1269     1314     1416     1443     1410     1436     1441     1289 
    1011      731      595      688      953     1323     1702     1849 
    1649     1366     1312     1448     1474     1232      901      727 
     719      841     1094     1302     1327     1283     1275     1300 
    1341     1385     1399     1356     1375     1536     1559     1243 
     916      939     1219     1480     1552     1370     1066      893 
     946     1113     1274     1355     1267     1028      911     1119 
    1410     1462     1351     1266     1159      997      993     1266 
    1518     1483     1391     1472     1509     1310     1128     1231 
    1347     1067      639      575      826     1136     1532     1908 
    1969     1796     1683     1541     1196      788      531      542 
     769     1016     1232     1412     1494     1480     1370     1251 
    1327     1549     1622     1422     1140     1003      951      815 
     668      780     1185     1549     1620     1494     1371     1266 
    1071      911     1084     1579     1999     1973     1544     1055 
     730      665      882     1143     1201     1136     1112     1208 
    1494     1854     2039     1869     1337      777      573      653 
     776      901      986      919      796      922     1435     2041 
    2330     2239     1969     1582     1023      456      195      307 
     556      758     1019     1417     1709     1776     1833     1875 
    1636     1152      862      986     1138      969      745      808 
    1108     1480     1809     1877     1599     1237     1066     1027 
    1001     1061     1271     1521     1578     1343     1055      988 
    1070     1144     1289     1586     1784     1605     1194      864 
     677      656      900     1298     1526     1470     1313     1215 
    1150     1042      892      760      712      849     1210     1696 
    2107     2138     1710     1179      885      847     1023     1408 
    1764     1752     1425     1058      815      842     1181     1563 
    1586     1212      835      670      681      942     1443     1848 
    1877     1622     1348     1228     1283     1375     1270      923 
     518      302      454      932     1475     1834     1885     1601 
    1100      714      677      923     1395     1988     2259     1914 
    1208      612      481      851     1410     1772     1755     1489 
    1232     1115     1232     1536     1687     1564     1378     1197 
     927      641      541      650      811      970     1177     1386 
    1517     1516     1364     1155      996      874      768      851 
    1306     1821     1921     1676     1405     1127      823      743 
    1039     1475     1667     1505     1296     1321     1443     1485 
    1522     1641     1690     1474     1090      849      893     1062 
    1189     1264     1171      830      495      446      746     1158 
    1320     1358     1622     1942     2073     1965     1418      580 
      52       67      456     1074     1775     2188     1954     1404 
    1254     1516     1622     1420     1204     1051      796      584 
     777     1215     1386     1296     1285     1395     1532     1696 
    1818     1752     1526     1340     1228     1009      757      760 
     967     1113     1196     1401     1663     1752     1634     1370 
    1071      889      783      743      966     1306     1358     1263 
    1486     1863     1844     1497     1274     1088      703      418 
     519      851     1189     1382     1323     1227     1426     1718 
    1729     1552     1429     1371     1278     1100      907      819 
     841      891      874      857     1059     1395     1551     1491 
    1413     1405     1360     1294     1337     1296     1135     1123 
    1159     1109     1155     1350     1498     1464     1362     1327 
    1258     1042      795      745      985     1341     1540     1566 
    1609     1628     1405     1063      935     1057     1270     1443 
    1436     1345     1399     1382      984      530      484      695 
     865     1062     1291     1391     1433     1522     1561     1582 
    1647     1564     1399     1343     1150      868      978     1259 
    1102      743      816     1228     1479     1483     1339     1113 
    1023     1196     1485     1625     1563     1529     1548     1408 
    1193     1097      992      835      899     1139     1296     1350 
    1240     1015      916      918      932     1007     1200     1505 
    1647     1499     1436     1624     1709     1560     1404     1260 
    1107     1108     1204     1260     1449     1702     1539     1050 
     892     1084     1102      965     1044     1224     1273     1313 
    1393     1389     1159      729      441      495      805     1300 
    1777     2046     2025     1601     1051      831      868     1008 
    1237     1264      958      697      877     1351     1615     1566 
    1472     1440     1350     1138      994     1032     1107     1215 
    1377     1377     1186     1073     1246     1594     1734     1560 
    1381     1344     1236     1040     1088     1366     1441     1297 
    1236     1196     1086     1048      992      807      683      754 
    1050     1513     1846     1841     1583     1333     1270     1120 
     753      656      877      997     1135     1428     1588     1525 
    1379     1313     1402     1351      966      652      719     1042 
    1443     1757     1867     1683     1320     1170     1323     1580 
    1803     1840     1579     1044      602      575      664      715 
     993     1425     1688     1580     1250     1088     1086     1096 
    1250     1501     1576     1389     1073      793      573      515 
     777     1197     1414     1329     1278     1444     1588     1584 
    1544     1449     1208     1023     1134     1394     1549     1493 
    1282     1073      954      934     1021     1306     1732     1923 
    1795     1637     1309      877      832      855      747     1071 
    1424     1183     1048     1306     1343     1308     1458     1408 
    1147      892      787     1008     1273     1301     1229     1138 
    1119     1173     1147     1107     1178     1429     1679     1574 
    1379     1368     1287     1260     1348     1148      896     1015 
    1151     1085     1078     1119     1020      847      913     1336 
    1702     1775     1763     1674     1497     1393     1329     1216 
    1129     1084      823      433      452      830     1146     1417 
    1733     1948     1898     1680     1547     1448     1259     1104 
     977      781      738      935      974      781      881     1335 
    1614     1690     1818     1764     1409     1156     1206     1296 
    1232     1088      940      815      892     1220     1428     1436 
    1559     1541     1166      965     1125     1267     1285     1286 
    1186     1020      989     1074     1251     1467     1493     1286 
     903      600      706     1028     1289     1509     1614     1459 
    1179      996      884      949     1270     1506     1553     1526 
    1482     1590     1761     1678     1297     1058     1161     1086 
     827      889     1111     1277     1413     1339     1165     1275 
