Origin Time       2024/06/23 22:54:00
Lat.              35.645
Long.             140.060
Depth. (km)       72
Mag.              4.1
Station Code      CHB022
Station Lat.      35.3033
Station Long.     139.8555
Station Height(m) 12
Record Time       2024/06/23 22:54:46
Sampling Freq(Hz) 100Hz
Duration Time(s)  60
Dir.              E-W
Scale Factor      7845(gal)/8223790
Max. Acc. (gal)   18.911
Last Correction   2024/06/23 22:54:46
Memo.             
[...]
   -4676    -4683    -4683    -4680    -4684    -4689    -4687    -4681 
   -4684    -4687    -4683    -4680    -4680    -4677    -4675    -4676 
   -4673    -4668    -4671    -4679    -4684    -4684    -4681    -4680 
   -4685    -4685    -4683    -4684    -4683    -4683    -4676    -4675 
   -4679    -4677    -4679    -4687    -4691    -4689    -4685    -4684 
   -4684    -4679    -4680    -4681    -4673    -4668    -4666    -4665 
   -4673    -4676    -4675    -4687    -4691    -4687    -4688    -4687 
   -4685    -4689    -4683    -4683    -4687    -4680    -4673    -4675 
   -4683    -4689    -4683    -4679    -4679    -4673    -4677    -4687 
   -4680    -4676    -4677    -4669    -4673    -4687    -4685    -4680 
   -4679    -4673    -4672    -4683    -4687    -4685    -4683    -4677 
   -4677    -4679    -4679    -4685    -4684    -4671    -4676    -4684 
   -4688    -4691    -4689    -4691    -4689    -4687    -4687    -4687 
   -4685    -4683    -4677    -4676    -4683    -4681    -4675    -4676 
   -4680    -4683    -4688    -4688    -4684    -4681    -4685    -4691 
   -4687    -4685    -4684    -4681    -4681    -4681    -4681    -4683 
   -4680    -4681    -4676    -4672    -4680    -4683    -4679    -4681 
   -4684    -4685    -4688    -4687    -4684    -4685    -4687    -4687 
   -4685    -4684    -4688    -4691    -4683    -4679    -4676    -4669 
   -4677    -4683    -4672    -4669    -4676    -4679    -4677    -4675 
   -4676    -4683    -4687    -4687    -4688    -4684    -4672    -4677 
   -4696    -4685    -4677    -4687    -4680    -4672    -4679    -4680 
   -4684    -4687    -4676    -4676    -4683    -4684    -4687    -4685 
   -4681    -4684    -4684    -4688    -4689    -4677    -4675    -4680 
   -4675    -4672    -4677    -4683    -4684    -4680    -4675    -4672 
   -4676    -4680    -4673    -4675    -4687    -4691    -4684    -4684 
   -4691    -4689    -4691    -4696    -4691    -4681    -4683    -4687 
   -4685    -4683    -4683    -4685    -4687    -4683    -4681    -4687 
   -4684    -4675    -4672    -4676    -4675    -4673    -4676    -4677 
   -4679    -4681    -4685    -4689    -4693    -4695    -4693    -4687 
   -4685    -4687    -4683    -4679    -4677    -4681    -4681    -4673 
   -4677    -4684    -4680    -4677    -4681    -4687    -4689    -4691 
   -4696    -4699    -4689    -4687    -4691    -4685    -4680    -4677 
   -4672    -4675    -4675    -4666    -4672    -4681    -4685    -4688 
   -4689    -4695    -4699    -4691    -4680    -4677    -4683    -4685 
   -4681    -4679    -4680    -4679    -4676    -4672    -4671    -4679 
   -4687    -4681    -4679    -4683    -4683    -4684    -4688    -4688 
   -4684    -4680    -4684    -4689    -4685    -4681    -4683    -4683 
   -4677    -4681    -4688    -4683    -4681    -4688    -4691    -4684 
   -4679    -4679    -4681    -4679    -4681    -4691    -4687    -4680 
   -4683    -4681    -4676    -4681    -4689    -4687    -4680    -4675 
   -4673    -4679    -4683    -4683    -4685    -4683    -4676    -4677 
   -4681    -4680    -4679    -4679    -4683    -4689    -4687    -4684 
   -4683    -4675    -4672    -4676    -4673    -4672    -4680    -4683 
   -4675    -4677    -4685    -4687    -4687    -4688    -4689    -4687 
   -4683    -4681    -4683    -4672    -4668    -4677    -4677    -4676 
   -4681    -4683    -4680    -4684    -4689    -4689    -4687    -4685 
   -4684    -4681    -4679    -4676    -4676    -4680    -4679    -4668 
   -4673    -4684    -4683    -4684    -4687    -4681    -4681    -4687 
   -4685    -4683    -4680    -4681    -4688    -4688    -4684    -4684 
   -4683    -4677    -4676    -4675    -4673    -4677    -4683    -4683 
   -4687    -4689    -4689    -4684    -4673    -4671    -4676    -4679 
   -4675    -4669    -4671    -4677    -4685    -4693    -4692    -4691 
   -4692    -4688    -4684    -4679    -4680    -4691    -4685    -4679 
   -4677    -4676    -4677    -4675    -4672    -4679    -4683    -4676 
   -4675    -4680    -4680    -4679    -4679    -4672    -4673    -4681 
   -4687    -4687    -4685    -4687    -4688    -4685    -4685    -4687 
   -4684    -4683    -4684    -4680    -4679    -4684    -4680    -4672 
   -4677    -4683    -4677    -4675    -4675    -4677    -4683    -4680 
   -4679    -4677    -4672    -4672    -4675    -4676    -4681    -4685 
   -4685    -4687    -4681    -4679    -4683    -4681    -4680    -4684 
   -4689    -4691    -4680    -4671    -4671    -4671    -4673    -4683 
   -4685    -4671    -4662    -4679    -4692    -4695    -4692    -4673 
   -4649    -4648    -4672    -4693    -4692    -4687    -4679    -4652 
   -4635    -4648    -4687    -4781    -4862    -4776    -4592    -4546 
   -4664    -4772    -4770    -4711    -4654    -4629    -4614    -4529 
   -4459    -4595    -4824    -4909    -4854    -4679    -4500    -4660 
   -4997    -4897    -4503    -4490    -4710    -4625    -4456    -4560 
   -4739    -4855    -4908    -4648    -4255    -4375    -4864    -5090 
   -5053    -4895    -4577    -4419    -4658    -4807    -4525    -4390 
   -4704    -4801    -4429    -4230    -4503    -4839    -5017    -5120 
   -5024    -4804    -4760    -4750    -4602    -4476    -4437    -4500 
   -4660    -4733    -4658    -4518    -4460    -4634    -4818    -4725 
   -4558    -4699    -5112    -5314    -5074    -4729    -4523    -4410 
   -4313    -4182    -4095    -4257    -4675    -5028    -5112    -5032 
   -4909    -4843    -4822    -4723    -4575    -4525    -4777    -5170 
   -5036    -4382    -3978    -4039    -4293    -4623    -4853    -4897 
   -4885    -4849    -4835    -4884    -4872    -4812    -4799    -4706 
   -4490    -4410    -4598    -4806    -4727    -4429    -4332    -4550 
   -4739    -4776    -4791    -4768    -4760    -4816    -4779    -4712 
   -4806    -4849    -4656    -4455    -4394    -4396    -4467    -4669 
   -4869    -4891    -4865    -4919    -4780    -4394    -4230    -4488 
   -4878    -5174    -5252    -5008    -4579    -4287    -4266    -4388 
   -4541    -4715    -4861    -4896    -4799    -4556    -4326    -4488 
   -4935    -5035    -4716    -4498    -4541    -4638    -4730    -4851 
   -4941    -4965    -4878    -4641    -4406    -4307    -4432    -4835 
   -5132    -4931    -4540    -4425    -4537    -4577    -4496    -4455 
   -4526    -4723    -4912    -4787    -4460    -4418    -4666    -4892 
   -4992    -4884    -4673    -4741    -5061    -5165    -4899    -4526 
   -4338    -4432    -4585    -4588    -4585    -4711    -4738    -4475 
   -4197    -4240    -4468    -4673    -4851    -4885    -4761    -4803 
   -5088    -5293    -5285    -5185    -4961    -4594    -4353    -4321 
   -4342    -4410    -4515    -4558    -4463    -4225    -4112    -4344 
   -4665    -4822    -4938    -5100    -5171    -5042    -4868    -4880 
   -4951    -4835    -4677    -4656    -4571    -4376    -4322    -4403 
   -4487    -4558    -4641    -4777    -4808    -4642    -4584    -4723 
   -4787    -4750    -4803    -4963    -5026    -4826    -4526    -4374 
   -4293    -4168    -4256    -4677    -5051    -5159    -5171    -5124 
   -4860    -4534    -4536    -4756    -4769    -4648    -4622    -4527 
   -4303    -4160    -4125    -4218    -4569    -4976    -5140    -5124 
   -5057    -5008    -5059    -5051    -4811    -4594    -4644    -4739 
   -4621    -4307    -4004    -3897    -3935    -4118    -4662    -5285 
   -5394    -5155    -5074    -5076    -4985    -5051    -5301    -5277 
   -4872    -4475    -4202    -3920    -3680    -3647    -3902    -4290 
   -4536    -4702    -5055    -5327    -5094    -4769    -4943    -5320 
   -5367    -5189    -5013    -4729    -4347    -4117    -4124    -4282 
   -4472    -4561    -4561    -4563    -4538    -4486    -4557    -4791 
   -4942    -4922    -4978    -5077    -4941    -4692    -4580    -4588 
   -4581    -4482    -4486    -4789    -5131    -5173    -4981    -4845 
   -4834    -4731    -4487    -4369    -4394    -4313    -4198    -4207 
   -4222    -4193    -4253    -4473    -4811    -5108    -5225    -5306 
   -5458    -5395    -5081    -4924    -4909    -4681    -4307    -4135 
   -4288    -4479    -4465    -4472    -4617    -4575    -4332    -4297 
   -4511    -4669    -4735    -4870    -5070    -5167    -5066    -4905 
   -4911    -4993    -4815    -4469    -4328    -4294    -4212    -4239 
   -4337    -4479    -4801    -5005    -4876    -4784    -4716    -4455 
   -4525    -5130    -5478    -5255    -4945    -4784    -4707    -4642 
   -4514    -4417    -4500    -4585    -4392    -4008    -3797    -3979 
   -4450    -4984    -5235    -4974    -4735    -5067    -5447    -5278 
   -4970    -5053    -5124    -4677    -4153    -3991    -3939    -3994 
   -4399    -4876    -4942    -4599    -4415    -4747    -5105    -5023 
   -4769    -4708    -4842    -4947    -4766    -4365    -4214    -4503 
   -4881    -5051    -4939    -4606    -4414    -4473    -4401    -4178 
   -4240    -4649    -5004    -4989    -4761    -4801    -5125    -5128 
   -4762    -4676    -4897    -4909    -4715    -4639    -4603    -4482 
   -4507    -4615    -4465    -4263    -4401    -4673    -4653    -4502 
   -4642    -4920    -4980    -4914    -4965    -5094    -5067    -4860 
   -4665    -4475    -4205    -4048    -4158    -4387    -4509    -4523 
   -4704    -5042    -5148    -5000    -4837    -4707    -4665    -4769 
   -4920    -4946    -4745    -4518    -4538    -4630    -4426    -4102 
   -4168    -4523    -4731    -4873    -5152    -5412    -5475    -5360 
   -5223    -5101    -4739    -4156    -3935    -4194    -4311    -4166 
   -4152    -4226    -4228    -4271    -4355    -4469    -4704    -4931 
   -5005    -4942    -4812    -4955    -5464    -5676    -5328    -4970 
   -4781    -4602    -4529    -4500    -4367    -4267    -4332    -4536 
   -4720    -4683    -4541    -4599    -4854    -5044    -4966    -4683 
   -4495    -4484    -4421    -4314    -4349    -4479    -4580    -4676 
   -4806    -4895    -4958    -5128    -5297    -5179    -4788    -4502 
   -4533    -4580    -4460    -4399    -4371    -4148    -3946    -4077 
   -4506    -5003    -5235    -5123    -5065    -5279    -5409    -5220 
   -4993    -4815    -4538    -4272    -4063    -3909    -3939    -4095 
   -4282    -4509    -4704    -4766    -4722    -4837    -5219    -5472 
   -5414    -5393    -5528    -5530    -5259    -4819    -4288    -3769 
   -3514    -3636    -3827    -3878    -4055    -4418    -4626    -4631 
   -4768    -5138    -5521    -5733    -5722    -5610    -5413    -5008 
   -4617    -4384    -4064    -3773    -3778    -3840    -3769    -3834 
   -4217    -4631    -4757    -4796    -5059    -5420    -5736    -6099 
   -6372    -6227    -5691    -5104    -4577    -3920    -3169    -2710 
   -2732    -3057    -3543    -4062    -4364    -4519    -4905    -5451 
   -5728    -5834    -6069    -6216    -6034    -5665    -5216    -4598 
   -3963    -3674    -3743    -3856    -3820    -3738    -3873    -4216 
   -4455    -4571    -4800    -5080    -5171    -5070    -4986    -5055 
   -5124    -5055    -5094    -5374    -5562    -5371    -4874    -4313 
   -3916    -3763    -3848    -4105    -4336    -4391    -4340    -4344 
   -4491    -4703    -4837    -4920    -5105    -5335    -5498    -5659 
   -5710    -5435    -5008    -4657    -4309    -4060    -4047    -3989 
   -3739    -3574    -3645    -3878    -4280    -4826    -5287    -5575 
   -5832    -5929    -5583    -5084    -4922    -4908    -4669    -4351 
   -4090    -3819    -3704    -3727    -3523    -3427    -4122    -5158 
   -5595    -5494    -5424    -5479    -5475    -5356    -5202    -5067 
   -4903    -4739    -4702    -4617    -4229    -3855    -4008    -4514 
   -4687    -4391    -4160    -4201    -4244    -4251    -4379    -4585 
   -4788    -5005    -5171    -5204    -5155    -5165    -5474    -6011 
   -6085    -5433    -4661    -4066    -3496    -3141    -3161    -3376 
   -3763    -4314    -4707    -4699    -4514    -4660    -5279    -5923 
   -6178    -6143    -6081    -5954    -5571    -4993    -4382    -3751 
   -3215    -2925    -2808    -2805    -3091    -3744    -4530    -5197 
   -5722    -6073    -6183    -6122    -5960    -5725    -5494    -5304 
   -5108    -4822    -4336    -3699    -3180    -2947    -2952    -3142 
   -3461    -3892    -4491    -5182    -5751    -6120    -6397    -6504 
   -6286    -5796    -5138    -4504    -4160    -4055    -3889    -3603 
   -3464    -3639    -3932    -4089    -4224    -4540    -4924    -5359 
   -5929    -6305    -6177    -5698    -5028    -4209    -3493    -3284 
   -3712    -4322    -4588    -4621    -4746    -4865    -4791    -4673 
   -4764    -5000    -5067    -4953    -4889    -4877    -4820    -4723 
   -4653    -4680    -4669    -4448    -4139    -3927    -3937    -4286 
   -4764    -5016    -5061    -4999    -4806    -4631    -4579    -4541 
   -4554    -4738    -4955    -4974    -4851    -4815    -4881    -4862 
   -4675    -4440    -4303    -4252    -4147    -3958    -3794    -3654 
   -3518    -3524    -3677    -3809    -3927    -4214    -4742    -5404 
   -5985    -6299    -6404    -6469    -6467    -6292    -5887    -5243 
   -4491    -3935    -3819    -3944    -3889    -3684    -3667    -3811 
   -3825    -3721    -3758    -4085    -4764    -5748    -6781    -7565 
   -7966    -8071    -8024    -7701    -6755    -5155    -3411    -1887 
    -446      905     1764     1773      793    -1125    -3873    -7439 
  -11523   -15287   -17793   -18364   -16722   -12999    -7690    -1594 
    4487     9836    13622    15142    14202    11067     6191       99 
   -6583   -13046   -18397   -22010   -23723   -23670   -21843   -18200 
  -13208    -7504    -1447     4444     9189    11889    12086     9571 
    4795     -738    -5521    -8992   -11368   -13196   -14712   -15593 
  -15371   -13805   -10918    -6967    -2525     1483     4063     4695 
    3800     2405     1363      874      236    -1692    -5190    -9053 
  -11531   -11763    -9987    -6669    -2578      716     1750      213 
   -3242    -7506   -11281   -13552   -13956   -12862   -11218    -9684 
   -8050    -5911    -3175       82     3597     6925     9305     9732 
    7612     3160    -2610    -8259   -12685   -15488   -16738   -16657 
  -15448   -13329   -10569    -7353    -3699      236     3727     5871 
    6373     5501     3484      503    -3001    -6466    -9471   -11693 
  -12962   -13451   -13354   -12634   -11191    -8834    -5787    -3078 
   -1339     -180      677     1096     1223     1344     1383      990 
    -155    -2068    -4299    -6257    -7651    -8654    -9567   -10284 
  -10384    -9728    -8519    -6980    -5389    -4124    -3410    -3132 
   -2963    -2770    -2762    -3109    -3647    -4035    -4064    -3894 
   -3780    -3746    -3839    -4243    -4824    -5131    -4862    -4054 
   -3079    -2488    -2631    -3487    -4722    -5775    -6185    -5964 
   -5495    -5186    -5290    -5784    -6255    -6249    -5805    -5374 
   -5185    -5058    -4922    -4996    -5273    -5378    -5105    -4575 
   -3856    -2898    -1921    -1493    -1885    -2839    -4147    -5672 
   -6986    -7677    -7771    -7623    -7411    -6894    -5926    -4742 
   -3627    -2747    -2178    -2004    -2209    -2404    -2285    -2150 
   -2473    -3412    -4892    -6752    -8641    -9969   -10316    -9709 
   -8356    -6469    -4468    -2930    -2020    -1259     -193      966 
    1651     1425       58    -2377    -5421    -8442   -10795   -12032 
  -12127   -11360    -9946    -7904    -5314    -2523      -21     1759 
    2538     2228     1009     -816    -2934    -4980    -6783    -8425 
   -9806   -10600   -10486    -9320    -7376    -5271    -3466    -2101 
   -1228     -839     -785    -1005    -1524    -2236    -3119    -4315 
   -5815    -7392    -8706    -9472    -9694    -9525    -9011    -8176 
   -7067    -5641    -3823    -1736      206     1632     2251     1692 
    -120    -2662    -5175    -7079    -8220    -8889    -9283    -9248 
   -8611    -7350    -5528    -3339    -1237      238      903      885 
     317     -738    -2281    -4291    -6529    -8588   -10126   -11007 
  -11375   -11431   -10984    -9668    -7618    -5233    -2705     -297 
    1466     2208     1949      864     -800    -2623    -4191    -5304 
   -5913    -6151    -6200    -6122    -6022    -6019    -6000    -5813 
   -5687    -5981    -6619    -7177    -7294    -6870    -6106    -5309 
   -4662    -4163    -3619    -2810    -1763     -781     -195     -288 
   -1209    -2758    -4388    -5516    -6034    -6443    -7087    -7722 
   -8016    -7848    -7172    -6021    -4572    -3194    -2340    -2088 
   -2137    -2286    -2509    -2840    -3505    -4753    -6438    -8041 
   -9035    -9200    -8629    -7522    -6119    -4691    -3465    -2556 
   -1926    -1429    -1028     -927    -1440    -2635    -4170    -5483 
   -6177    -6330    -6300    -6268    -6230    -6222    -6199    -6003 
   -5537    -4788    -3874    -3129    -2859    -3049    -3573    -4403 
   -5381    -6203    -6646    -6496    -5676    -4533    -3632    -3331 
   -3576    -4013    -4363    -4575    -4696    -4695    -4517    -4270 
   -4202    -4417    -4746    -4972    -5011    -4914    -4846    -5031 
   -5495    -5946    -6043    -5698    -5067    -4394    -3885    -3670 
   -3700    -3771    -3770    -3805    -4050    -4507    -5012    -5421 
   -5736    -6030    -6247    -6176    -5724    -5061    -4357    -3609 
   -2901    -2513    -2538    -2768    -3137    -3777    -4639    -5441 
   -5965    -6193    -6170    -5954    -5744    -5717    -5768    -5676 
   -5339    -4827    -4355    -4102    -4070    -4212    -4482    -4761 
   -4850    -4564    -3942    -3295    -2880    -2743    -2868    -3277 
   -3936    -4756    -5614    -6336    -6783    -7051    -7318    -7460 
   -7192    -6507    -5530    -4302    -2982    -1840    -1067     -789 
   -1001    -1540    -2303    -3323    -4617    -6046    -7310    -8104 
   -8356    -8217    -7813    -7129    -6172    -5161    -4355    -3767 
   -3226    -2686    -2304    -2232    -2521    -3091    -3762    -4386 
   -4946    -5501    -6000    -6278    -6296    -6106    -5682    -5020 
   -4187    -3279    -2563    -2338    -2583    -3163    -4016    -5043 
   -6102    -6960    -7291    -7022    -6404    -5629    -4734    -3778 
   -2887    -2201    -1941    -2301    -3207    -4338    -5385    -6185 
   -6687    -6831    -6583    -6038    -5351    -4693    -4225    -3951 
   -3785    -3790    -4078    -4550    -5003    -5304    -5362    -5174 
   -4914    -4760    -4761    -4868    -4966    -4912    -4641    -4187 
   -3692    -3427    -3630    -4297    -5227    -6154    -6739    -6635 
   -5853    -4797    -3855    -3273    -3107    -3156    -3285    -3485 
   -3651    -3770    -4063    -4672    -5526    -6509    -7354    -7662 
   -7280    -6407    -5350    -4293    -3262    -2297    -1533    -1125 
   -1175    -1699    -2658    -3974    -5455    -6813    -7839    -8372 
   -8259    -7557    -6523    -5348    -4176    -3200    -2529    -2166 
   -2124    -2500    -3352    -4522    -5687    -6594    -7140    -7306 
   -7099    -6606    -5956    -5217    -4438    -3728    -3222    -2897 
   -2648    -2532    -2644    -2940    -3429    -4210    -5146    -5904 
   -6316    -6432    -6346    -6088    -5695    -5260    -4855    -4449 
   -4017    -3638    -3368    -3231    -3279    -3496    -3813    -4228 
