Origin Time       2024/06/23 22:54:00
Lat.              35.645
Long.             140.060
Depth. (km)       72
Mag.              4.1
Station Code      CHB013
Station Lat.      35.4294
Station Long.     140.2892
Station Height(m) 10
Record Time       2024/06/23 22:54:46
Sampling Freq(Hz) 100Hz
Duration Time(s)  60
Dir.              E-W
Scale Factor      7845(gal)/8223790
Max. Acc. (gal)   4.541
Last Correction   2024/06/23 22:54:45
Memo.             
[...]
  -16132   -16136   -16135   -16140   -16150   -16148   -16143   -16139 
  -16135   -16133   -16143   -16146   -16140   -16141   -16139   -16129 
  -16141   -16152   -16139   -16137   -16148   -16144   -16133   -16137 
  -16150   -16148   -16143   -16143   -16146   -16143   -16136   -16136 
  -16148   -16151   -16139   -16135   -16146   -16150   -16143   -16141 
  -16148   -16146   -16135   -16140   -16155   -16147   -16131   -16137 
  -16148   -16146   -16141   -16144   -16144   -16139   -16136   -16139 
  -16143   -16147   -16146   -16146   -16147   -16143   -16139   -16136 
  -16141   -16154   -16148   -16139   -16147   -16148   -16139   -16146 
  -16154   -16141   -16136   -16144   -16143   -16140   -16144   -16143 
  -16144   -16144   -16136   -16135   -16144   -16148   -16147   -16146 
  -16144   -16143   -16141   -16140   -16143   -16146   -16147   -16148 
  -16152   -16148   -16144   -16152   -16154   -16143   -16137   -16139 
  -16139   -16140   -16143   -16143   -16143   -16141   -16140   -16144 
  -16140   -16131   -16135   -16146   -16148   -16144   -16144   -16147 
  -16151   -16147   -16136   -16139   -16147   -16140   -16136   -16144 
  -16150   -16152   -16147   -16136   -16140   -16151   -16141   -16129 
  -16141   -16151   -16141   -16133   -16143   -16150   -16146   -16146 
  -16151   -16151   -16146   -16140   -16141   -16140   -16140   -16146 
  -16144   -16139   -16141   -16140   -16137   -16141   -16140   -16135 
  -16146   -16154   -16139   -16129   -16140   -16147   -16148   -16150 
  -16146   -16137   -16136   -16140   -16147   -16147   -16133   -16135 
  -16155   -16150   -16132   -16135   -16141   -16141   -16143   -16143 
  -16141   -16146   -16148   -16146   -16144   -16139   -16135   -16137 
  -16140   -16141   -16141   -16139   -16140   -16146   -16144   -16139 
  -16141   -16146   -16140   -16135   -16131   -16132   -16146   -16152 
  -16144   -16141   -16146   -16143   -16140   -16141   -16135   -16135 
  -16148   -16150   -16139   -16137   -16140   -16137   -16135   -16136 
  -16139   -16141   -16148   -16152   -16143   -16132   -16135   -16143 
  -16146   -16147   -16146   -16137   -16135   -16143   -16147   -16143 
  -16137   -16139   -16143   -16140   -16137   -16136   -16139   -16144 
  -16141   -16140   -16140   -16143   -16148   -16143   -16135   -16146 
  -16158   -16146   -16133   -16137   -16143   -16139   -16135   -16133 
  -16141   -16148   -16143   -16141   -16147   -16144   -16140   -16143 
  -16144   -16136   -16135   -16137   -16141   -16148   -16148   -16141 
  -16143   -16139   -16133   -16143   -16150   -16144   -16144   -16144 
  -16133   -16137   -16154   -16151   -16144   -16143   -16136   -16139 
  -16151   -16146   -16136   -16139   -16144   -16148   -16146   -16136 
  -16131   -16140   -16147   -16143   -16140   -16141   -16140   -16144 
  -16151   -16144   -16135   -16133   -16143   -16146   -16139   -16140 
  -16147   -16143   -16140   -16147   -16147   -16141   -16143   -16143 
  -16137   -16137   -16144   -16150   -16151   -16151   -16141   -16140 
  -16147   -16140   -16131   -16139   -16147   -16141   -16136   -16147 
  -16154   -16143   -16135   -16144   -16151   -16143   -16140   -16148 
  -16143   -16132   -16140   -16154   -16147   -16140   -16146   -16148 
  -16143   -16136   -16135   -16146   -16154   -16148   -16139   -16133 
  -16137   -16151   -16156   -16152   -16152   -16146   -16131   -16135 
  -16150   -16148   -16146   -16148   -16140   -16129   -16133   -16147 
  -16159   -16156   -16141   -16131   -16136   -16141   -16148   -16159 
  -16154   -16137   -16129   -16132   -16141   -16156   -16159   -16150 
  -16136   -16128   -16135   -16148   -16155   -16150   -16137   -16135 
  -16140   -16144   -16146   -16154   -16156   -16140   -16132   -16139 
  -16140   -16143   -16151   -16150   -16141   -16141   -16146   -16146 
  -16147   -16143   -16129   -16131   -16148   -16154   -16152   -16152 
  -16143   -16131   -16133   -16140   -16144   -16147   -16143   -16140 
  -16147   -16151   -16144   -16139   -16132   -16132   -16144   -16155 
  -16154   -16147   -16132   -16123   -16139   -16152   -16150   -16152 
  -16151   -16144   -16147   -16143   -16132   -16129   -16127   -16124 
  -16129   -16136   -16141   -16159   -16175   -16158   -16135   -16136 
  -16139   -16131   -16129   -16132   -16133   -16146   -16160   -16175 
  -16186   -16162   -16123   -16102   -16078   -16069   -16104   -16147 
  -16171   -16158   -16127   -16143   -16167   -16141   -16133   -16151 
  -16109   -16083   -16151   -16208   -16210   -16229   -16244   -16208 
  -16141   -16083   -16082   -16125   -16116   -16060   -16036   -16054 
  -16108   -16205   -16279   -16227   -16105   -16075   -16124   -16166 
  -16194   -16185   -16136   -16117   -16152   -16233   -16335   -16328 
  -16151   -15940   -15824   -15869   -16098   -16339   -16382   -16232 
  -16011   -15907   -16021   -16181   -16258   -16279   -16185   -16021 
  -16021   -16137   -16144   -16119   -16159   -16154   -16114   -16146 
  -16237   -16333   -16301   -16104   -15966   -16016   -16158   -16318 
  -16395   -16271   -16023   -15865   -15943   -16174   -16274   -16182 
  -16112   -16089   -15989   -15938   -16097   -16295   -16322   -16236 
  -16150   -16074   -16050   -16158   -16316   -16294   -16065   -15894 
  -15934   -16071   -16221   -16329   -16289   -16154   -16083   -16098 
  -16168   -16264   -16258   -16140   -16060   -16011   -15940   -15992 
  -16185   -16290   -16210   -16129   -16152   -16179   -16156   -16128 
  -16150   -16231   -16254   -16167   -16110   -16128   -16128   -16131 
  -16141   -16110   -16110   -16173   -16183   -16132   -16092   -16086 
  -16121   -16144   -16089   -16008   -15996   -16059   -16182   -16312 
  -16347   -16301   -16247   -16146   -16021   -16004   -16094   -16174 
  -16177   -16152   -16167   -16189   -16136   -16038   -16017   -16085 
  -16136   -16144   -16117   -16025   -15955   -16028   -16183   -16275 
  -16235   -16113   -16047   -16096   -16214   -16351   -16401   -16263 
  -16060   -15998   -16052   -16123   -16167   -16125   -16046   -16083 
  -16225   -16295   -16252   -16185   -16137   -16144   -16205   -16208 
  -16148   -16137   -16155   -16154   -16195   -16212   -16120   -16082 
  -16156   -16141   -16023   -15997   -16096   -16181   -16195   -16182 
  -16170   -16144   -16101   -16060   -16052   -16078   -16089   -16056 
  -16070   -16205   -16368   -16459   -16451   -16313   -16119   -16002 
  -15963   -15993   -16086   -16141   -16140   -16148   -16179   -16249 
  -16310   -16227   -16055   -16020   -16159   -16305   -16356   -16303 
  -16141   -15988   -16002   -16110   -16164   -16182   -16160   -16075 
  -16019   -16040   -16079   -16089   -16029   -15943   -15940   -16062 
  -16255   -16399   -16367   -16227   -16129   -16051   -15986   -16043 
  -16154   -16147   -16036   -15940   -15985   -16216   -16432   -16468 
  -16434   -16401   -16328   -16221   -16074   -15938   -15901   -15923 
  -15943   -16002   -16098   -16171   -16206   -16164   -16063   -16044 
  -16141   -16276   -16416   -16479   -16356   -16116   -15959   -15958 
  -16006   -16028   -16106   -16295   -16406   -16303   -16112   -15925 
  -15719   -15610   -15743   -16058   -16403   -16642   -16668   -16492 
  -16251   -16110   -16166   -16318   -16330   -16121   -15911   -15920 
  -16048   -16062   -15942   -15853   -15946   -16222   -16461   -16437 
  -16232   -16120   -16179   -16220   -16073   -15809   -15668   -15766 
  -16000   -16233   -16409   -16476   -16410   -16272   -16162   -16129 
  -16140   -16141   -16143   -16151   -16123   -16093   -16106   -16101 
  -16081   -16154   -16235   -16127   -15925   -15935   -16175   -16384 
  -16362   -16154   -16016   -16106   -16287   -16391   -16356   -16162 
  -15974   -16021   -16185   -16194   -16059   -15962   -15967   -15994 
  -15992   -16031   -16146   -16254   -16297   -16285   -16228   -16159 
  -16127   -16089   -16011   -15993   -16092   -16163   -16128   -16096 
  -16133   -16209   -16293   -16291   -16159   -16050   -16063   -16082 
  -16081   -16152   -16232   -16256   -16308   -16367   -16368   -16314 
  -16189   -16036   -15930   -15817   -15746   -15826   -15975   -16117 
  -16279   -16417   -16436   -16330   -16201   -16162   -16173   -16096 
  -15985   -16000   -16124   -16228   -16251   -16228   -16235   -16278 
  -16278   -16128   -15880   -15778   -15934   -16216   -16451   -16499 
  -16394   -16286   -16187   -16100   -16102   -16109   -16012   -15927 
  -15955   -16039   -16114   -16178   -16260   -16303   -16181   -15979 
  -15893   -15924   -15997   -16073   -16121   -16155   -16187   -16220 
  -16272   -16272   -16131   -15924   -15773   -15763   -15882   -15952 
  -15997   -16224   -16532   -16680   -16677   -16605   -16459   -16281 
  -16151   -16065   -16024   -16039   -16031   -15975   -15935   -15932 
  -15975   -16077   -16227   -16374   -16447   -16417   -16312   -16198 
  -16124   -16058   -16011   -16015   -16035   -16047   -16078   -16163 
  -16268   -16294   -16190   -15997   -15853   -15913   -16132   -16337 
  -16479   -16494   -16305   -16021   -15759   -15542   -15526   -15743 
  -15966   -16155   -16389   -16501   -16410   -16287   -16155   -15948 
  -15876   -16112   -16418   -16498   -16406   -16368   -16426   -16472 
  -16456   -16347   -16119   -15878   -15801   -15924   -16108   -16175 
  -16104   -16047   -16089   -16131   -16046   -15850   -15701   -15735 
  -15935   -16210   -16397   -16337   -16147   -16085   -16182   -16235 
  -16164   -16137   -16249   -16395   -16474   -16465   -16322   -16055 
  -15851   -15834   -15923   -16025   -16100   -16127   -16173   -16290 
  -16367   -16297   -16198   -16232   -16328   -16359   -16347   -16305 
  -16170   -15977   -15803   -15670   -15670   -15884   -16187   -16395 
  -16434   -16297   -16062   -15876   -15812   -15866   -15984   -16067 
  -16117   -16227   -16355   -16386   -16370   -16401   -16426   -16348 
  -16147   -15974   -16012   -16173   -16240   -16173   -16033   -15904 
  -15915   -16096   -16272   -16255   -16048   -15827   -15773   -15935 
  -16224   -16506   -16695   -16744   -16606   -16375   -16245   -16213 
  -16137   -16066   -16089   -16098   -16017   -15939   -15917   -15957 
  -16033   -16056   -16028   -16069   -16174   -16301   -16436   -16480 
  -16394   -16285   -16181   -16056   -15938   -15796   -15616   -15525 
  -15647   -15977   -16322   -16464   -16430   -16424   -16494   -16552 
  -16522   -16356   -16131   -16011   -15961   -15869   -15768   -15704 
  -15688   -15766   -15919   -16059   -16174   -16312   -16501   -16690 
  -16731   -16599   -16453   -16347   -16182   -15973   -15800   -15665 
  -15624   -15768   -16001   -16141   -16090   -15934   -15862   -15943 
  -16144   -16425   -16595   -16515   -16378   -16382   -16480   -16524 
  -16403   -16217   -16155   -16117   -15942   -15768   -15736   -15750 
  -15714   -15693   -15805   -16062   -16328   -16452   -16430   -16313 
  -16127   -15930   -15817   -15853   -16059   -16371   -16580   -16530 
  -16368   -16326   -16324   -16187   -16017   -16015   -16175   -16297 
  -16216   -16024   -15932   -15963   -15993   -15998   -16069   -16198 
  -16256   -16214   -16262   -16492   -16694   -16652   -16405   -16078 
  -15765   -15626   -15766   -16047   -16279   -16429   -16484   -16410 
  -16229   -16008   -15830   -15754   -15773   -15909   -16168   -16430 
  -16565   -16555   -16401   -16179   -16055   -16046   -16005   -15889 
  -15796   -15849   -16044   -16222   -16285   -16268   -16175   -15997 
  -15844   -15851   -16046   -16317   -16440   -16322   -16151   -16104 
  -16082   -15961   -15811   -15762   -15889   -16132   -16347   -16465 
  -16479   -16399   -16302   -16205   -16141   -16229   -16402   -16444 
  -16341   -16212   -16110   -16052   -16050   -16106   -16182   -16144 
  -15920   -15677   -15631   -15799   -16038   -16197   -16254   -16324 
  -16464   -16592   -16598   -16395   -16015   -15708   -15672   -15758 
  -15809   -15927   -16137   -16283   -16318   -16306   -16259   -16170 
  -16075   -16055   -16193   -16424   -16587   -16622   -16522   -16281 
  -16063   -16024   -16069   -16071   -16044   -16032   -16024   -15971 
  -15894   -15920   -16052   -16121   -16075   -16023   -15990   -15981 
  -16081   -16251   -16299   -16181   -16040   -16005   -16101   -16252 
  -16349   -16372   -16409   -16515   -16615   -16587   -16374   -16012 
  -15642   -15429   -15391   -15458   -15642   -15946   -16266   -16542 
  -16742   -16713   -16382   -16005   -15884   -16019   -16197   -16213 
  -16056   -15923   -15930   -15984   -16029   -16044   -15950   -15805 
  -15755   -15807   -15923   -16038   -15989   -15815   -15750   -15805 
  -15836   -15812   -15785   -15888   -16225   -16663   -16987   -17132 
  -17088   -16889   -16687   -16556   -16460   -16425   -16479   -16588 
  -16714   -16767   -16672   -16533   -16468   -16470   -16521   -16561 
  -16430   -16093   -15660   -15245   -15002   -15013   -15106   -15091 
  -15013   -14906   -14740   -14667   -14881   -15325   -15834   -16313 
  -16699   -16907   -16896   -16711   -16455   -16266   -16245   -16368 
  -16572   -16837   -17058   -17153   -17162   -17057   -16702   -16132 
  -15618   -15427   -15608   -16058   -16756   -17636   -18412   -18873 
  -19079   -19080   -18841   -18451   -18013   -17502   -16856   -15963 
  -14800   -13618   -12739   -12216   -11911   -11712   -11605   -11684 
  -12098   -12906   -14072   -15552   -17203   -18755   -19994   -20777 
  -20903   -20271   -19066   -17602   -16159   -15020   -14357   -14095 
  -14014   -13969   -13973   -14060   -14233   -14546   -15066   -15734 
  -16364   -16769   -16923   -16954   -16981   -17091   -17377   -17747 
  -17909   -17752   -17402   -16995   -16703   -16661   -16822   -17100 
  -17412   -17636   -17690   -17544   -17232   -16850   -16368   -15637 
  -14748   -14116   -14011   -14254   -14524   -14693   -14775   -14818 
  -14863   -14914   -15012   -15331   -16031   -17020   -18031   -18777 
  -19030   -18731   -18033   -17163   -16241   -15353   -14673   -14289 
  -14176   -14332   -14735   -15219   -15614   -15935   -16286   -16690 
  -17135   -17543   -17676   -17352   -16673   -15982   -15581   -15518 
  -15724   -16164   -16663   -16831   -16459   -15754   -15124   -14887 
  -15178   -15877   -16650   -17149   -17288   -17230   -17101   -16904 
  -16623   -16252   -15742   -15121   -14623   -14490   -14708   -15129 
  -15701   -16382   -17012   -17332   -17185   -16699   -16166   -15700 
  -15269   -14928   -14744   -14719   -14894   -15315   -15876   -16399 
  -16762   -16922   -16881   -16654   -16297   -16012   -16008   -16262 
  -16586   -16879   -17140   -17369   -17535   -17564   -17454   -17273 
  -16985   -16491   -15871   -15338   -15049   -14958   -14850   -14674 
  -14696   -15169   -15992   -16835   -17460   -17784   -17821   -17633 
  -17250   -16660   -15917   -15214   -14790   -14802   -15248   -15838 
  -16144   -16023   -15643   -15194   -14773   -14443   -14305   -14482 
  -15052   -15951   -16907   -17566   -17745   -17552   -17255   -17032 
  -16899   -16794   -16659   -16451   -16156   -15822   -15526   -15317 
  -15233   -15309   -15533   -15866   -16266   -16657   -16942   -17076 
  -17062   -16916   -16702   -16552   -16579   -16761   -16914   -16799 
  -16352   -15759   -15298   -15172   -15318   -15410   -15248   -14945 
  -14798   -15076   -15766   -16595   -17228   -17446   -17289   -17059 
  -16984   -16964   -16807   -16486   -16044   -15526   -15094   -15002 
  -15318   -15772   -16036   -16036   -15907   -15788   -15726   -15716 
  -15753   -15813   -15851   -15840   -15804   -15805   -15871   -15974 
  -16119   -16380   -16785   -17163   -17297   -17212   -17143   -17236 
  -17375   -17277   -16834   -16259   -15795   -15556   -15593   -15858 
  -16181   -16447   -16622   -16654   -16475   -16071   -15550   -15060 
  -14650   -14376   -14365   -14620   -15080   -15763   -16609   -17452 
  -18131   -18453   -18287   -17732   -17014   -16295   -15677   -15225 
  -14975   -14912   -15005   -15248   -15581   -15877   -16082   -16237 
  -16301   -16173   -15894   -15684   -15718   -15946   -16209   -16413 
  -16515   -16502   -16447   -16433   -16389   -16175   -15812   -15465 
  -15326   -15492   -15846   -16179   -16403   -16552   -16680   -16812 
  -16972   -17145   -17236   -17163   -16953   -16648   -16278   -15905 
  -15499   -14982   -14485   -14208   -14199   -14401   -14721   -15091 
  -15562   -16152   -16784   -17375   -17868   -18233   -18412   -18299 
  -17883   -17278   -16590   -15950   -15462   -15136   -14993   -15026 
  -15136   -15265   -15449   -15699   -16025   -16422   -16789   -17018 
  -17089   -16985   -16671   -16222   -15786   -15398   -15057   -14860 
  -14862   -15032   -15353   -15773   -16218   -16706   -17247   -17747 
  -18060   -18076   -17783   -17342   -16946   -16632   -16317   -15985 
  -15687   -15457   -15277   -15099   -14931   -14916   -15156   -15495 
  -15723   -15807   -15790   -15724   -15657   -15568   -15479   -15546 
  -15896   -16497   -17139   -17554   -17647   -17518   -17275   -16938 
  -16540   -16159   -15869   -15750   -15795   -15858   -15809   -15696 
  -15628   -15623   -15645   -15700   -15819   -15944   -15936   -15789 
  -15732   -15920   -16218   -16374   -16316   -16247   -16387   -16690 
  -16929   -16930   -16646   -16197   -15807   -15622   -15623   -15743 
  -15943   -16164   -16347   -16453   -16447   -16298   -16054   -15796 
  -15597   -15539   -15666   -15967   -16411   -16875   -17143   -17157 
  -17082   -17074   -17027   -16695   -16086   -15519   -15223   -15106 
  -14964   -14739   -14519   -14520   -14958   -15739   -16468   -16887 
  -17042   -17074   -17118   -17207   -17239   -17169   -16991   -16680 
  -16368   -16209   -16151   -16133   -16206   -16370   -16536   -16571 
  -16375   -15996   -15547   -15066   -14612   -14328   -14285   -14469 
  -14867   -15450   -16132   -16761   -17163   -17297   -17309   -17375 
  -17477   -17446   -17244   -16972   -16738   -16584   -16401   -16017 
  -15395   -14720   -14300   -14283   -14584   -15083   -15704   -16343 
  -16869   -17169   -17213   -17070   -16825   -16564   -16387   -16274 
  -16141   -16004   -15877   -15770   -15774   -15916   -16070   -16102 
  -15942   -15643   -15433   -15471   -15646   -15788   -15877   -15984 
  -16195   -16571   -17055   -17517   -17776   -17703   -17371   -16960 
  -16532   -16143   -15917   -15869   -15842   -15765   -15742   -15866 
  -16044   -16121   -16060   -15930   -15828   -15853   -15962   -16000 
  -15897   -15754   -15689   -15678   -15627   -15554   -15522   -15573 
  -15757   -16063   -16407   -16692   -16794   -16657   -16357   -16028 
  -15839   -15924   -16212   -16487   -16592   -16465   -16162   -15834 
  -15647   -15660   -15773   -15898   -16112   -16422   -16654   -16700 
  -16646   -16649   -16784   -16961   -16995   -16772   -16321   -15773 
  -15318   -15133   -15221   -15433   -15631   -15778   -15911   -16066 
  -16258   -16490   -16706   -16811   -16810   -16767   -16677   -16499 
  -16255   -16063   -16038   -16143   -16255   -16335   -16444   -16603 
  -16723   -16717   -16553   -16212   -15742   -15326   -15088   -14989 
  -14968   -15005   -15037   -15048   -15111   -15225   -15296   -15273 
  -15190   -15182   -15394   -15839   -16457   -17178   -17848   -18285 
