Origin Time       2024/06/23 22:54:00
Lat.              35.645
Long.             140.060
Depth. (km)       72
Mag.              4.1
Station Code      CHB015
Station Lat.      35.3738
Station Long.     139.9199
Station Height(m) 2
Record Time       2024/06/23 22:54:46
Sampling Freq(Hz) 100Hz
Duration Time(s)  60
Dir.              N-S
Scale Factor      7845(gal)/8223790
Max. Acc. (gal)   9.128
Last Correction   2024/06/23 22:54:46
Memo.             
[...]
   15871    15873    15859    15847    15850    15865    15861    15840 
   15851    15866    15855    15866    15888    15871    15846    15854 
   15861    15835    15824    15846    15862    15866    15882    15903 
   15893    15855    15831    15827    15827    15840    15878    15894 
   15862    15835    15840    15832    15811    15827    15863    15865 
   15855    15878    15901    15889    15857    15839    15847    15844 
   15835    15862    15890    15876    15861    15863    15867    15873 
   15865    15847    15849    15858    15849    15836    15859    15886 
   15880    15851    15844    15882    15896    15844    15826    15862 
   15880    15861    15840    15828    15838    15867    15884    15863 
   15831    15826    15842    15850    15854    15870    15889    15901 
   15894    15867    15851    15836    15815    15823    15853    15867 
   15881    15890    15862    15805    15800    15846    15871    15869 
   15873    15877    15861    15843    15866    15885    15849    15835 
   15863    15876    15871    15855    15839    15839    15842    15855 
   15880    15878    15859    15847    15839    15843    15865    15876 
   15859    15839    15842    15858    15853    15835    15839    15853 
   15869    15876    15857    15836    15831    15832    15853    15884 
   15889    15884    15878    15840    15816    15847    15858    15836 
   15846    15859    15855    15859    15854    15850    15869    15873 
   15867    15880    15866    15836    15846    15857    15844    15855 
   15873    15857    15827    15816    15834    15861    15867    15865 
   15866    15867    15870    15867    15855    15849    15853    15857 
   15847    15843    15866    15866    15830    15828    15865    15876 
   15873    15867    15849    15839    15853    15857    15853    15869 
   15888    15888    15870    15849    15846    15851    15832    15827 
   15851    15862    15870    15878    15871    15858    15836    15831 
   15854    15867    15871    15877    15867    15844    15832    15846 
   15855    15846    15853    15865    15853    15853    15871    15874 
   15861    15862    15863    15854    15866    15878    15861    15849 
   15861    15874    15861    15834    15853    15885    15857    15822 
   15855    15893    15869    15836    15834    15839    15859    15878 
   15867    15838    15830    15857    15877    15850    15822    15857 
   15909    15897    15853    15853    15867    15853    15840    15850 
   15859    15871    15873    15836    15822    15853    15861    15847 
   15855    15862    15857    15858    15866    15874    15859    15836 
   15857    15878    15869    15863    15859    15846    15846    15866 
   15870    15846    15834    15853    15880    15880    15858    15866 
   15877    15853    15838    15840    15842    15863    15880    15854 
   15840    15870    15866    15831    15835    15847    15850    15871 
   15876    15858    15865    15854    15832    15873    15894    15857 
   15844    15839    15831    15850    15855    15851    15865    15884 
   15897    15892    15880    15862    15843    15842    15855    15867 
   15876    15865    15834    15830    15858    15853    15827    15846 
   15859    15847    15859    15870    15855    15854    15849    15835 
   15854    15881    15865    15838    15847    15862    15849    15843 
   15857    15863    15874    15882    15849    15815    15855    15913 
   15877    15828    15876    15911    15858    15817    15842    15877 
   15867    15846    15861    15850    15816    15843    15854    15815 
   15838    15897    15900    15843    15807    15862    15890    15824 
   15822    15881    15880    15858    15849    15850    15854    15842 
   15859    15886    15862    15876    15903    15854    15838    15870 
   15863    15858    15854    15834    15855    15890    15867    15830 
   15832    15843    15838    15836    15849    15874    15869    15826 
   15820    15839    15840    15855    15886    15893    15866    15835 
   15842    15866    15862    15855    15870    15870    15855    15851 
   15844    15854    15884    15882    15858    15849    15857    15874 
   15885    15862    15839    15844    15851    15843    15835    15824 
   15830    15870    15880    15851    15870    15882    15851    15854 
   15862    15851    15862    15858    15844    15878    15916    15890 
   15836    15823    15842    15855    15880    15903    15873    15808 
   15784    15827    15870    15873    15888    15901    15871    15842 
   15840    15859    15885    15878    15854    15846    15844    15838 
   15832    15834    15831    15826    15846    15880    15896    15898 
   15877    15836    15817    15834    15873    15913    15911    15865 
   15831    15816    15793    15811    15884    15931    15893    15824 
   15815    15870    15890    15855    15832    15824    15795    15796 
   15912    16040    16001    15851    15761    15722    15707    15800 
   15986    16097    16009    15768    15579    15611    15807    16039 
   16200    16151    15884    15570    15415    15572    15955    16249 
   16244    15924    15541    15530    15812    15904    15889    16035 
   16083    15835    15596    15763    16124    16009    15557    15499 
   15813    16021    16063    16106    16094    15932    15709    15527 
   15530    15780    16073    16220    16100    15654    15233    15418 
   16105    16541    16440    16055    15627    15404    15433    15647 
   16101    16366    16012    15514    15360    15581    15993    16155 
   16036    15974    16009    16048    15940    15668    15476    15461 
   15712    16164    16316    15997    15653    15699    15943    15857 
   15579    15611    15885    16123    16227    16218    16135    15785 
   15248    15142    15610    16094    16248    16092    15801    15722 
   15920    16051    16019    15954    15765    15531    15580    15863 
   16035    15940    15750    15763    15990    16063    15866    15785 
   15961    16023    15844    15668    15614    15695    15835    15940 
   16124    16263    16042    15654    15480    15616    15943    16135 
   16017    15782    15616    15641    15847    16012    16070    16104 
   16047    15828    15579    15519    15658    15824    15988    16139 
   16155    15939    15639    15603    15807    15927    15904    15819 
   15786    15913    16020    15942    15808    15699    15585    15600 
   15853    16158    16258    16029    15635    15487    15688    15942 
   16098    16171    16094    15880    15641    15457    15465    15739 
   16083    16274    16262    16085    15796    15576    15561    15624 
   15796    16104    16178    15970    15749    15504    15419    15730 
   16105    16233    16163    15984    15851    15738    15541    15535 
   15813    15985    15913    15780    15695    15766    15990    16156 
   16195    16116    15859    15595    15561    15712    15862    15951 
   15996    15924    15765    15726    15916    16159    16117    15759 
   15422    15423    15812    16224    16281    16002    15647    15592 
   15865    15900    15577    15477    15828    16239    16274    15905 
   15584    15681    15947    16031    16046    16066    15913    15628 
   15431    15520    15962    16341    16209    15820    15604    15627 
   15831    15970    15857    15778    15892    15955    15935    15927 
   15863    15784    15805    15839    15800    15790    15836    15901 
   15989    16019    15975    15854    15573    15391    15603    16011 
   16309    16343    16085    15777    15638    15627    15687    15739 
   15691    15681    15943    16264    16198    15835    15643    15746 
   15877    15778    15556    15556    15849    16225    16451    16313 
   15823    15407    15495    15857    15930    15768    15757    15885 
   16002    16071    16066    15996    15796    15500    15488    15859 
   16166    16182    16033    15800    15674    15711    15627    15564 
   15871    16183    16106    15882    15718    15647    15699    15799 
   15971    16083    15873    15678    15836    15959    15882    15840 
   15757    15589    15572    15836    16267    16471    16294    16071 
   15874    15520    15246    15357    15682    15942    16112    16224 
   16256    16101    15772    15601    15612    15581    15778    16200 
   16239    15893    15614    15518    15638    15815    15793    15785 
   15884    15843    15869    16101    16129    15943    15819    15720 
   15801    16009    15839    15518    15616    15923    16067    16051 
   16031    16135    16075    15596    15253    15473    15812    15978 
   16098    16163    16090    15854    15611    15626    15835    15988 
   16070    16096    15977    15797    15670    15614    15676    15788 
   15890    15994    15938    15824    15939    16124    16139    15940 
   15570    15352    15477    15714    15935    16150    16195    16067 
   15882    15630    15493    15700    16051    16259    16312    16274 
   16039    15496    15014    15163    15822    16366    16482    16227 
   15847    15741    15955    15994    15649    15363    15487    15905 
   16328    16511    16340    15916    15573    15522    15568    15533 
   15492    15554    15792    16123    16251    15974    15583    15573 
   15835    15930    15849    15704    15520    15458    15673    16101 
   16410    16352    15965    15384    15103    15550    16173    16278 
   16073    15979    16033    16079    15997    15855    15719    15534 
   15542    15925    16210    16132    16101    16185    15988    15566 
   15406    15623    15885    15984    16051    16140    16017    15715 
   15572    15634    15790    16051    16225    16077    15778    15645 
   15606    15523    15498    15583    15784    16150    16534    16517 
   15936    15395    15520    16042    16326    16167    15778    15406 
   15152    15282    15943    16569    16541    16004    15637    15773 
   15974    15835    15608    15635    15839    15884    15776    15750 
   15581    15277    15439    16089    16517    16279    15657    15354 
   15666    16198    16502    16367    15751    15095    15105    15786 
   16416    16474    16028    15512    15380    15746    16372    16703 
   16274    15506    15183    15377    15754    16040    16081    15951 
   15804    15751    15849    15919    15784    15646    15803    16163 
   16444    16464    16124    15597    15291    15234    15261    15545 
   16023    16210    16124    16117    16124    15977    15780    15650 
   15612    15639    15730    15951    16135    15998    15843    16060 
   16177    15815    15512    15537    15496    15410    15755    16460 
   16829    16532    15985    15638    15431    15230    15241    15508 
   15734    15962    16339    16511    16235    15820    15674    15815 
   15951    15975    15927    15759    15576    15566    15753    15986 
   16005    15742    15507    15515    15703    16028    16332    16333 
   16031    15664    15584    15927    16287    16333    16127    15789 
   15601    15657    15639    15488    15414    15553    15915    16185 
   16251    16305    16137    15687    15450    15572    15765    15925 
   16056    16085    15966    15688    15304    15093    15321    15830 
   16177    16243    16291    16353    16124    15610    15340    15618 
   16102    16417    16445    16178    15858    15664    15475    15358 
   15454    15722    16132    16424    16299    16073    16133    16247 
   16054    15635    15323    15353    15665    15942    15948    15699 
   15418    15464    15851    16087    15917    15643    15634    15952 
   16244    16137    15820    15743    16012    16279    16166    15800 
   15557    15520    15566    15616    15726    15882    15838    15587 
   15484    15587    15723    15952    16291    16524    16440    16028 
   15564    15354    15492    15944    16337    16301    16043    15773 
   15552    15624    15859    15942    15952    15917    15881    16146 
   16586    16640    16102    15365    15117    15538    15942    15840 
   15637    15723    15951    16105    16046    15801    15658    15684 
   15705    15749    15867    15947    15932    15942    16011    15998 
   15917    15886    15867    15785    15622    15444    15396    15508 
   15650    15793    15985    16079    16008    15931    15896    15977 
   16264    16445    16177    15620    15202    15213    15554    15807 
   15719    15479    15433    15692    16062    16297    16205    15822 
   15569    15730    16033    16162    16086    15869    15664    15676 
   15877    16144    16371    16326    16016    15754    15588    15519 
   15815    16398    16740    16579    16132    15781    15684    15627 
   15556    15701    15959    16002    15892    15904    16077    16197 
   16105    15903    15712    15499    15365    15430    15568    15651 
   15670    15677    15776    15866    15842    15920    16167    16262 
   16031    15595    15214    15125    15273    15421    15454    15290 
   14964    14794    15026    15545    16005    16110    15894    15647 
   15480    15280    15047    14899    14898    15045    15277    15534 
   15815    16136    16590    17286    18026    18393    18212    17604 
   16776    15870    14921    14156    13891    14207    15155    16561 
   17818    18571    18859    18762    18431    17910    17288    17022 
   17351    17901    18312    18495    18308    17640    16588    15464 
   14629    14091    13684    13663    14288    15306    16343    17205 
   17918    18662    19368    19651    19133    17587    15140    12438 
   10138     8329     6957     6288     6643     8066    10057    11796 
   13036    14169    15599    17437    19155    19769    18858    16893 
   14642    12699    11299    10426    10326    11354    13235    15391 
   17597    19639    21142    21965    22207    21938    21184    20031 
   18661    17460    16818    16609    16306    15768    15472    15858 
   16811    17906    18850    19696    20744    22175    23768    24840 
   24533    22491    19152    15342    11888     9431     8189     8014 
    8726    10195    12055    13787    15074    15681    15538    14975 
   14276    13498    12783    12252    11963    12074    12661    13601 
   14758    15969    16914    17311    17112    16528    16004    15781 
   15499    14700    13462    12371    12055    12594    13423    14110 
   14945    16301    17917    19224    19926    20175    20426    20972 
   21517    21413    20401    18944    17886    17604    17556    17194 
   16734    16645    17230    18399    19473    19782    19214    17980 
   16254    14222    12178    10339     8780     7731     7601     8455 
    9919    11515    12869    14062    15653    17891    20382    22484 
   23596    23426    22100    19863    17132    14611    12688    11313 
   10488    10254    10493    11065    11880    12897    14062    15218 
   16190    16887    17223    17076    16546    15992    15700    15898 
   16652    17647    18445    18733    18507    18184    18042    17937 
   17959    18372    18956    19165    18584    17162    15368    13942 
   13266    13086    13084    13404    14293    15510    16464    16673 
   16039    14999    14208    13960    14192    14770    15653    16889 
   18318    19491    19993    19525    18049    16098    14401    13346 
   12973    13082    13414    13764    13932    14046    14439    14975 
   15330    15526    15770    16227    16854    17393    17635    17475 
   16891    16073    15317    14782    14517    14489    14521    14440 
   14312    14397    14881    15723    16711    17567    18084    18231 
   18164    18054    17855    17469    17023    16688    16465    16252 
   15897    15380    14922    14692    14675    14939    15574    16455 
   17309    17779    17559    16764    15768    14875    14343    14331 
   14797    15502    16096    16421    16657    16923    16908    16306 
   15272    14172    13332    12978    13126    13706    14621    15588 
   16298    16669    16802    16750    16437    15946    15583    15539 
   15789    16151    16356    16286    16102    15967    15861    15801 
   15880    16016    16047    15917    15751    15705    15720    15664 
   15519    15298    15095    15080    15319    15807    16533    17439 
   18373    19117    19449    19218    18389    17112    15720    14527 
   13667    13171    13054    13231    13581    13977    14224    14315 
   14559    15140    15824    16281    16432    16374    16241    16239 
   16544    17136    17778    18139    18031    17404    16341    15246 
   14586    14454    14688    15111    15444    15390    14944    14388 
   14056    14179    14791    15693    16572    17231    17637    17821 
   17821    17662    17385    17062    16690    16301    16033    15990 
   16193    16544    16845    16876    16540    15951    15296    14742 
   14482    14617    15071    15664    16175    16457    16495    16372 
   16198    16033    15905    15811    15681    15449    15098    14616 
   14081    13649    13279    12883    12588    12460    12511    12985 
   14011    15331    16590    17502    17961    18114    18081    17911 
   17766    17698    17604    17440    17199    16879    16524    16112 
   15612    15122    14814    14805    15129    15750    16528    17286 
   17883    18262    18501    18694    18848    18885    18681    18179 
   17393    16410    15360    14274    13184    12316    11919    11971 
   12276    12711    13261    13898    14492    14943    15292    15651 
   16097    16568    16864    16848    16497    15874    15183    14663 
   14497    14796    15449    16154    16669    16910    16974    17050 
   17139    17146    17109    17088    17066    17037    16987    16802 
   16362    15743    15149    14743    14578    14588    14679    14840 
   15129    15488    15777    15924    15888    15769    15711    15768 
   16019    16411    16750    17035    17352    17631    17736    17599 
   17220    16680    16012    15206    14440    13952    13753    13813 
   14175    14766    15418    15975    16328    16532    16700    16865 
   16995    16978    16714    16251    15719    15202    14818    14705 
   14872    15250    15684    15919    15785    15291    14651    14193 
   14080    14260    14677    15236    15757    16125    16301    16349 
   16459    16780    17323    17891    18189    18129    17849    17504 
   17103    16524    15734    14862    14052    13489    13379    13782 
   14548    15429    16216    16787    17100    17248    17315    17196 
   16846    16417    16128    16120    16263    16326    16262    16078 
   15736    15294    14932    14770    14779    14916    15160    15465 
   15763    16021    16197    16252    16189    15985    15691    15431 
   15207    14899    14503    14170    13999    13992    14192    14570 
   15012    15441    15803    16133    16644    17423    18345    19165 
   19504    19089    18077    16856    15749    15048    14875    15086 
   15495    15942    16301    16591    16761    16615    16243    15973 
   15916    15988    16065    15977    15700    15390    15147    14944 
   14693    14323    13890    13626    13757    14268    15002    15790 
   16391    16614    16483    16114    15626    15145    14786    14673 
   14966    15672    16530    17209    17501    17383    17043    16715 
   16532    16537    16648    16726    16810    16929    16914    16634 
   16114    15484    15016    14943    15253    15786    16362    16803 
