Origin Time       2024/06/23 22:54:00
Lat.              35.645
Long.             140.060
Depth. (km)       72
Mag.              4.1
Station Code      CHB028
Station Lat.      35.7664
Station Long.     139.9655
Station Height(m) 26
Record Time       2024/06/23 22:54:36
Sampling Freq(Hz) 100Hz
Duration Time(s)  69
Dir.              U-D
Scale Factor      7845(gal)/8223790
Max. Acc. (gal)   9.256
Last Correction   2024/06/23 22:54:36
Memo.             
[...]
   10663    10628    10488    10400    10451    10535    10582    10628 
   10643    10593    10500    10416    10417    10484    10546    10601 
   10642    10648    10619    10544    10455    10397    10415    10519 
   10601    10592    10586    10627    10638    10563    10453    10405 
   10444    10528    10608    10598    10519    10523    10615    10659 
   10611    10492    10384    10388    10467    10573    10683    10704 
   10613    10500    10431    10461    10530    10516    10488    10555 
   10635    10639    10588    10497    10449    10485    10504    10505 
   10559    10623    10625    10590    10569    10525    10432    10390 
   10484    10612    10613    10519    10501    10586    10675    10681 
   10593    10476    10382    10314    10326    10501    10724    10798 
   10728    10592    10461    10443    10481    10447    10408    10455 
   10579    10689    10697    10638    10551    10442    10403    10453 
   10486    10552    10677    10669    10515    10396    10427    10615 
   10743    10646    10503    10446    10399    10335    10376    10584 
   10806    10874    10713    10419    10239    10305    10547    10740 
   10686    10500    10399    10462    10628    10575    10260    10365 
   10935    10983    10467    10272    10467    10588    10447    10273 
   10536    10827    10604    10492    10582    10561    10729    10648 
   10180    10156    10544    10855    10878    10566    10291    10292 
   10465    10717    10831    10582    10254    10346    10665    10621 
   10318    10374    10909    11065    10370     9988    10466    10754 
   10660    10552    10400    10546    10689    10323    10270    10813 
   11038    10758    10291     9899    10152    10890    11091    10602 
   10284    10465    10581    10470    10509    10642    10648    10573 
   10488    10423    10409    10535    10717    10713    10509    10314 
   10400    10663    10721    10662    10615    10409    10233    10334 
   10559    10774    10881    10732    10392    10150    10280    10625 
   10816    10739    10525    10473    10584    10520    10262    10274 
   10771    10951    10400    10245    10717    10671    10341    10557 
   10786    10501    10238    10465    10760    10662    10503    10543 
   10470    10419    10594    10642    10662    10600    10227    10246 
   10698    10814    10670    10457    10254    10466    10870    10783 
   10266    10023    10471    11065    10899    10322    10262    10465 
   10444    10570    10864    10671    10312    10586    10789    10334 
   10145    10469    10631    10760    10891    10470    10060    10327 
   10733    10920    10828    10438    10262    10335    10173    10251 
   10937    11280    10943    10376     9774     9968    10990    11103 
   10235    10103    10719    11003    10845    10443    10022    10089 
   10609    10864    10690    10605    10636    10527    10463    10477 
   10291    10076    10497    11350    11296    10357     9956    10115 
   10138    10295    10791    11380    11572    10748     9513     9320 
   10197    10960    11070    10889    10758    10671    10554    10368 
   10139    10021    10243    10760    11094    10997    10674    10380 
   10296    10385    10426    10390    10431    10624    10791    10706 
   10557    10569    10528    10305    10153    10408    10997    11148 
   10566    10085    10141    10385    10679    10862    10727    10477 
   10377    10489    10615    10528    10447    10544    10616    10588 
   10501    10399    10463    10642    10693    10617    10516    10454 
   10450    10442    10451    10542    10670    10723    10627    10481 
   10458    10482    10422    10412    10544    10685    10716    10650 
   10530    10420    10393    10443    10517    10566    10605    10655 
   10660    10604    10480    10345    10378    10542    10627    10636 
   10629    10582    10512    10449    10438    10515    10600    10611 
   10588    10563    10519    10459    10422    10461    10604    10733 
   10689    10513    10395    10396    10466    10561    10623    10617 
   10584    10571    10565    10503    10447    10477    10512    10528 
   10574    10596    10558    10528    10557    10593    10566    10524 
   10516    10477    10423    10447    10548    10655    10692    10639 
   10552    10486    10459    10446    10426    10440    10524    10627 
   10687    10697    10644    10534    10439    10404    10411    10478 
   10574    10600    10571    10582    10621    10613    10578    10543 
   10459    10389    10439    10531    10570    10585    10601    10627 
   10636    10558    10453    10417    10438    10497    10586    10631 
   10605    10531    10451    10466    10575    10675    10677    10546 
   10382    10336    10431    10571    10643    10636    10620    10612 
   10589    10531    10431    10357    10396    10509    10608    10666 
   10656    10613    10594    10555    10469    10392    10388    10469 
   10558    10613    10654    10659    10617    10543    10446    10401 
   10462    10547    10581    10562    10524    10523    10561    10584 
   10584    10581    10555    10497    10450    10447    10480    10540 
   10612    10642    10616    10573    10530    10486    10461    10478 
   10516    10532    10534    10552    10589    10624    10629    10585 
   10492    10386    10354    10443    10585    10682    10700    10654 
   10562    10465    10408    10404    10450    10525    10597    10644 
   10651    10606    10544    10508    10486    10454    10436    10477 
   10551    10616    10658    10648    10562    10459    10419    10455 
   10532    10597    10612    10575    10515    10471    10481    10544 
   10605    10606    10578    10550    10507    10481    10500    10521 
   10519    10498    10493    10563    10669    10704    10639    10507 
   10363    10299    10380    10555    10714    10778    10720    10577 
   10428    10339    10349    10449    10575    10660    10686    10658 
   10582    10507    10476    10466    10446    10428    10467    10570 
   10692    10754    10704    10557    10380    10268    10318    10500 
   10669    10740    10716    10615    10485    10405    10420    10485 
   10543    10579    10592    10578    10552    10524    10509    10516 
   10513    10504    10534    10600    10647    10633    10551    10428 
   10338    10357    10498    10682    10790    10750    10594    10430 
   10345    10355    10439    10555    10648    10682    10656    10590 
   10511    10461    10453    10466    10494    10532    10569    10602 
   10628    10613    10552    10485    10436    10432    10492    10579 
   10638    10635    10579    10507    10459    10455    10497    10562 
   10593    10574    10542    10515    10507    10523    10542    10552 
   10544    10525    10528    10554    10567    10554    10527    10494 
   10482    10519    10577    10612    10606    10561    10492    10450 
   10465    10513    10570    10600    10585    10555    10536    10530 
   10531    10527    10512    10503    10505    10523    10550    10575 
   10586    10582    10561    10528    10489    10469    10485    10527 
   10566    10578    10562    10543    10542    10555    10569    10563 
   10527    10481    10455    10481    10554    10613    10612    10574 
   10531    10503    10505    10538    10563    10555    10521    10490 
   10490    10525    10569    10590    10589    10562    10527    10498 
   10485    10488    10505    10531    10565    10582    10582    10577 
   10554    10523    10497    10486    10493    10512    10542    10578 
   10592    10575    10546    10521    10521    10525    10523    10530 
   10540    10536    10528    10531    10546    10562    10567    10554 
   10527    10504    10501    10516    10542    10557    10552    10554 
   10555    10542    10525    10516    10515    10528    10543    10547 
   10546    10547    10552    10550    10542    10534    10517    10507 
   10524    10555    10566    10557    10548    10540    10528    10525 
   10532    10548    10565    10559    10536    10521    10517    10515 
   10525    10547    10562    10566    10558    10542    10524    10517 
   10521    10528    10540    10552    10562    10565    10554    10534 
   10508    10489    10500    10535    10569    10586    10579    10558 
   10532    10503    10488    10507    10536    10554    10574    10585 
   10562    10532    10511    10496    10501    10524    10550    10575 
   10582    10561    10530    10508    10505    10520    10538    10551 
   10563    10566    10558    10538    10511    10504    10515    10538 
   10567    10575    10559    10542    10528    10519    10516    10519 
   10535    10555    10570    10573    10552    10521    10498    10493 
   10509    10548    10582    10593    10582    10554    10524    10504 
   10490    10490    10516    10544    10569    10594    10594    10554 
   10513    10498    10501    10508    10525    10551    10566    10558 
   10544    10535    10525    10531    10544    10548    10548    10542 
   10520    10501    10503    10525    10561    10584    10588    10575 
   10547    10516    10501    10494    10497    10517    10546    10569 
   10588    10598    10579    10532    10493    10481    10490    10512 
   10530    10550    10569    10570    10565    10558    10543    10524 
   10511    10512    10521    10525    10532    10546    10555    10561 
   10561    10554    10546    10535    10517    10509    10519    10528 
   10536    10548    10555    10555    10558    10562    10551    10525 
   10512    10515    10517    10523    10534    10542    10550    10561 
   10566    10562    10542    10517    10507    10512    10521    10530 
   10540    10550    10551    10548    10538    10531    10536    10534 
   10532    10530    10523    10530    10539    10542    10551    10550 
   10534    10528    10532    10535    10540    10536    10530    10531 
   10530    10525    10531    10544    10558    10558    10544    10532 
   10528    10525    10516    10519    10535    10547    10550    10548 
   10544    10539    10532    10528    10527    10523    10532    10544 
   10543    10532    10524    10523    10531    10547    10559    10555 
   10546    10540    10528    10511    10508    10516    10532    10554 
   10565    10566    10558    10540    10523    10517    10513    10512 
   10530    10554    10563    10561    10550    10536    10521    10509 
   10509    10517    10532    10547    10552    10550    10543    10532 
   10525    10528    10531    10535    10539    10534    10527    10525 
   10531    10542    10547    10550    10554    10546    10530    10519 
   10519    10520    10527    10544    10563    10578    10575    10552 
   10528    10512    10500    10503    10515    10531    10550    10565 
   10569    10566    10558    10538    10520    10507    10501    10515 
   10536    10551    10567    10573    10563    10552    10538    10523 
   10516    10515    10520    10536    10551    10557    10558    10552 
   10548    10552    10548    10535    10525    10524    10521    10521 
   10532    10542    10548    10558    10562    10561    10551    10535 
   10519    10507    10504    10515    10535    10557    10573    10577 
   10570    10550    10530    10517    10509    10509    10521    10535 
   10547    10557    10566    10569    10565    10555    10539    10521 
   10511    10509    10520    10539    10551    10558    10567    10573 
   10566    10550    10535    10517    10501    10501    10517    10536 
   10562    10584    10581    10565    10543    10521    10508    10505 
   10513    10534    10548    10559    10566    10561    10554    10550 
   10528    10508    10505    10512    10521    10539    10559    10566 
   10561    10555    10538    10521    10517    10515    10524    10546 
   10558    10555    10550    10551    10546    10532    10524    10524 
   10528    10536    10544    10547    10546    10540    10536    10532 
   10530    10536    10544    10550    10547    10539    10535    10532 
   10528    10521    10520    10525    10534    10540    10550    10555 
   10552    10547    10546    10540    10527    10517    10517    10524 
   10535    10550    10565    10569    10557    10540    10524    10517 
   10517    10520    10531    10548    10558    10557    10550    10542 
   10534    10532    10535    10530    10524    10525    10530    10538 
   10550    10558    10561    10554    10536    10517    10509    10512 
   10523    10539    10551    10559    10561    10555    10550    10538 
   10519    10508    10512    10527    10546    10559    10561    10559 
   10555    10540    10521    10515    10521    10524    10528    10542 
   10552    10558    10559    10554    10543    10527    10516    10515 
   10520    10530    10543    10550    10552    10554    10548    10540 
   10532    10525    10525    10528    10535    10543    10546    10547 
   10546    10543    10540    10532    10528    10534    10532    10530 
   10536    10536    10534    10540    10547    10546    10535    10527 
   10525    10528    10535    10551    10589    10651    10728    10806 
   10886    10972    10991    10756    10201     9620     9373     9386 
    9421     9722    10640    11759    12309    12245    11979    11550 
   10929    10287     9729     9435     9548     9713     9344     8545 
    8372     9698    11916    13487    13626    12785    11583    10041 
    8311     7267     7902    10312    12955    13626    11963     9741 
    8471     8494     9860    11956    13350    13279    11935     9296 
    5636     2936     3801     8711    15342    20007    20241    16960 
   12380     7441     3461     2128     3516     7356    12641    16193 
   16119    13865    11662    10794    10743     9736     7778     7048 
    8537    10632    11561    11608    11966    12577    12236    10667 
    9263     9077     9637    10250    10694    10895    10723     9828 
    8506     8264    10017    12738    14764    15118    13578    10579 
    7272     5250     5597     8133    11438    13406    13066    11936 
   11601    11338    10301     9247     9100    10131    11445    11308 
    9888     9321    10165    10914    10999    11256    11715    11522 
   10442     9266     9193    10197    10881    10754    10508    10389 
   10227    10053    10345    11410    12186    11601    10357     9537 
    9429     9764     9842     9522     9899    11545    13036    12888 
   11403     9567     8383     8896    10639    11870    11935    11160 
    9983     9225     9234     9656    10446    11371    11750    11448 
   10822    10189     9833     9705     9551     9668    10530    11854 
   12818    12749    11372     9296     8052     8407     9679    11074 
   11967    12010    11676    11106     9861     8565     8425     9564 
   11103    11886    11537    10999    11029    11195    10979    10436 
    9741     9275     9578    10392    10852    10816    10798    11025 
   11217    10949    10442    10390    10677    10662    10269     9706 
    9464    10134    11056    10979    10303    10330    11082    11722 
   11680    10909    10076     9779     9736     9590     9521     9968 
   11159    12339    12395    11485    10567    10045     9774     9517 
    9289     9490    10162    10705    11088    11796    12299    11820 
   10773     9837     9219     9076     9342     9817    10633    11616 
   12037    11789    11375    10885    10330     9977     9714     9402 
    9301     9409     9694    10396    11217    11789    12297    12649 
   12383    11198     9377     8102     8170     8893     9680    10824 
   12168    13066    12999    11580     9414     7877     7358     7673 
    9050    11041    12588    13321    13113    12104    10921     9516 
    8216     8560    10476    11900    12098    11982    11727    10795 
    9278     8027     8143     9637    11125    11772    11799    11381 
   10889    10948    11272    11056    10381     9787     9397     9146 
    9070     9533    10828    12268    12779    12374    11699    10643 
    9167     8444     9184    10458    11345    11616    11082    10200 
    9855     9819     9528     9437    10112    11331    12225    11886 
   10773    10482    11068    11061    10168     9200     8754     9175 
   10249    11259    11857    12158    12129    11659    10812     9558 
    8438     8591     9886    10994    11292    11130    11164    11639 
   11577    10079     8278     8064     9819    12152    12935    11564 
    9784     9090     9244     9855    10841    11696    12127    12229 
   11765    10759     9686     8742     8257     8557     9170    10138 
   12123    14079    14046    12000     9634     8410     8391     8662 
    9019    10112    11715    12523    11965    11003    10692    10836 
   10525     9555     8842     9146    10203    11200    11421    11059 
   10905    10736    10056     9528     9639    10156    11060    12074 
   12464    11854    10547     9308     8637     8621     9549    11473 
   13282    13649    12614    11114     9791     8856     8329     8259 
    8637     9398    10605    12044    13234    13711    13028    11412 
    9679     8240     7520     7989     9123    10432    11907    12638 
   12023    10875     9906     9693    10594    11429    11276    10848 
   10359     9630     9274     9397     9686    10247    10810    11161 
   11799    12526    12252    10894     9574     8973     8800     8618 
    8645     9614    11560    13267    13590    12538    10901     9671 
    9194     9067     9360    10307    11287    11616    11113     9945 
    9043     9386    10709    11950    12329    11781    11026    10662 
   10185     9103     8201     8532     9979    11375    11680    11233 
   11427    12330    12231    10501     8604     8147     9386    10963 
   11480    11144    10631    10127     9877     9728     9356     9510 
   10840    12514    13400    13100    11750     9969     8472     7622 
    7680     8815    10860    13127    14224    13162    10974     9629 
    9389     9117     8540     8500     9999    12946    15106    14200 
   11078     8433     7426     7488     8054     9003    10300    12004 
   13568    13684    12359    10913     9652     8353     7400     7164 
    8255    10893    13393    13914    12879    11686    10716     9564 
    8318     8260    10268    12595    12673    10617     8765     8687 
    9818    10584    10476    10419    11173    12317    12862    12326 
   11091     9840     9013     8897     9535    10351    10693    10754 
   11071    11368    10956     9921     9223     9574    10404    10979 
   11576    11959    11418    10507     9882     9321     9105     9609 
   10454    11404    12118    11695    10146     8799     8540     9171 
   10492    12270    13427    12864    10828     8897     8560     9570 
   10505    10723    10592    10710    11331    11699    10982     9765 
    9180     9358     9691     9891    10492    11969    13379    13115 
   11238     9649     9413     9609     9300     8691     8631    10007 
   12340    13632    12860    10962     9396     9165    10085    10777 
   10721    10724    10797    10304     9668     9698    10407    11206 
   11329    10660    10226    10578    10832    10323     9597     9483 
   10208    11223    11851    11992    11628    10701     9859     9709 
    9761     9490     9333     9886    10785    11119    10856    10876 
   11507    11954    11425    10091     8969     8954     9634    10030 
