Origin Time       2024/06/23 22:54:00
Lat.              35.645
Long.             140.060
Depth. (km)       72
Mag.              4.1
Station Code      CHB002
Station Lat.      35.7871
Station Long.     139.9024
Station Height(m) 12
Record Time       2024/06/23 22:54:45
Sampling Freq(Hz) 100Hz
Duration Time(s)  60
Dir.              N-S
Scale Factor      7845(gal)/8223790
Max. Acc. (gal)   7.610
Last Correction   2024/06/23 22:54:44
Memo.             
[...]
    7901     7890     7838     7815     7821     7842     7893     7939 
    7902     7808     7758     7789     7842     7858     7844     7830 
    7827     7857     7900     7894     7848     7816     7803     7796 
    7831     7900     7908     7877     7850     7804     7794     7831 
    7846     7854     7858     7830     7790     7809     7881     7921 
    7911     7871     7817     7794     7821     7855     7851     7817 
    7811     7844     7874     7866     7846     7835     7821     7825 
    7848     7861     7873     7875     7859     7852     7843     7817 
    7813     7835     7846     7836     7824     7831     7859     7871 
    7859     7846     7836     7847     7866     7855     7824     7813 
    7835     7850     7843     7862     7871     7838     7816     7840 
    7870     7863     7852     7861     7847     7808     7808     7848 
    7869     7866     7858     7857     7875     7862     7800     7793 
    7842     7867     7859     7852     7855     7839     7811     7816 
    7850     7885     7890     7847     7801     7780     7790     7838 
    7889     7920     7902     7824     7776     7832     7904     7890 
    7836     7811     7827     7851     7848     7843     7844     7832 
    7821     7830     7854     7871     7859     7838     7836     7869 
    7901     7893     7843     7773     7751     7821     7902     7912 
    7857     7812     7830     7848     7836     7816     7805     7835 
    7879     7877     7848     7843     7847     7842     7843     7859 
    7885     7897     7865     7803     7766     7784     7836     7875 
    7884     7865     7832     7819     7831     7844     7852     7854 
    7846     7839     7850     7859     7863     7862     7831     7790 
    7778     7803     7857     7877     7859     7861     7869     7866 
    7862     7842     7838     7866     7858     7816     7817     7847 
    7858     7857     7832     7815     7840     7858     7846     7832 
    7819     7821     7854     7874     7867     7858     7862     7866 
    7842     7798     7798     7846     7869     7863     7850     7827 
    7825     7859     7886     7869     7835     7809     7794     7820 
    7858     7863     7869     7877     7854     7831     7828     7840 
    7858     7854     7824     7809     7832     7861     7869     7871 
    7874     7850     7809     7785     7786     7831     7886     7897 
    7900     7884     7812     7773     7825     7905     7928     7885 
    7842     7824     7804     7797     7816     7839     7848     7848 
    7854     7854     7844     7836     7835     7835     7834     7848 
    7866     7871     7875     7859     7827     7815     7836     7865 
    7866     7847     7828     7828     7840     7825     7805     7831 
    7869     7873     7854     7843     7859     7879     7865     7830 
    7832     7839     7807     7821     7892     7905     7869     7830 
    7796     7794     7824     7851     7862     7862     7866     7865 
    7861     7866     7855     7828     7834     7857     7850     7827 
    7825     7854     7863     7854     7865     7844     7800     7815 
    7846     7855     7862     7844     7823     7836     7859     7867 
    7870     7850     7815     7819     7848     7862     7863     7848 
    7840     7843     7842     7862     7867     7836     7835     7843 
    7832     7839     7840     7816     7828     7870     7871     7843 
    7848     7875     7873     7854     7850     7840     7828     7825 
    7817     7827     7857     7855     7838     7862     7893     7867 
    7825     7840     7861     7827     7812     7848     7875     7875 
    7852     7809     7800     7850     7869     7838     7854     7878 
    7834     7816     7867     7888     7857     7823     7809     7843 
    7888     7859     7816     7838     7866     7859     7846     7847 
    7852     7838     7809     7812     7851     7878     7884     7879 
    7838     7797     7790     7792     7828     7888     7901     7888 
    7886     7867     7824     7798     7821     7859     7866     7843 
    7828     7847     7869     7843     7794     7807     7865     7898 
    7900     7870     7808     7784     7820     7852     7869     7886 
    7865     7819     7831     7867     7851     7834     7839     7825 
    7809     7834     7878     7896     7873     7827     7800     7832 
    7885     7888     7846     7820     7834     7850     7852     7869 
    7878     7854     7823     7801     7785     7803     7858     7889 
    7881     7859     7838     7842     7851     7827     7788     7794 
    7862     7894     7873     7900     7946     7909     7824     7726 
    7635     7663     7865     8086     8094     7893     7750     7711 
    7604     7655     8050     8290     8059     7704     7591     7755 
    7881     7699     7557     7890     8361     8297     7794     7427 
    7330     7605     8245     8418     7877     7796     8333     8000 
    6835     6604     7477     8289     8753     8660     7780     7477 
    8595     8939     7318     6409     7312     7616     7171     7898 
    8876     8456     7811     7981     7938     7788     8552     8738 
    7065     6015     7292     8395     7649     7103     8032     9024 
    8999     8093     7240     7771     8947     8417     6457     5683 
    6743     8128     8935     8916     8333     8325     8549     7474 
    6355     7464     9120     8363     6511     6396     7439     8253 
    9108     9348     8132     7277     7820     7557     6354     7111 
    9278     9202     7072     6351     7580     8765     9040     8374 
    7236     6880     7720     8509     8252     7703     7581     7395 
    7101     7446     8407     9018     8706     7596     6455     6721 
    8378     9304     8572     7740     7925     7938     6960     6343 
    6833     7641     8514     9402     9436     8413     7393     6843 
    6554     7029     8402     9387     8984     7684     6438     6092 
    7071     8343     8710     8837     9396     9150     7425     6124 
    6619     7469     7573     7634     7858     8023     8495     8899 
    8343     7580     7731     8079     7816     7304     6860     6778 
    7580     8820     9200     8549     7969     7709     7294     7140 
    7554     7770     7537     7587     8098     8428     8352     8322 
    8390     8147     7646     7172     6901     6995     7433     7975 
    8272     8355     8527     8432     7767     7303     7535     7939 
    8128     8027     7400     6729     7146     8401     8915     8502 
    8382     8433     7763     7137     7330     7348     6933     7292 
    8214     8426     8321     8725     8731     7759     7125     7429 
    7634     7468     7492     7630     7846     8259     8357     7904 
    7642     8055     8388     7974     7614     7858     7771     7192 
    7161     7699     8122     8390     8549     8418     7924     7323 
    7136     7349     7489     7581     7889     8368     8495     7890 
    7431     7893     8421     8302     8089     8199     8118     7319 
    6326     6353     7666     9066     9367     8634     7723     7119 
    6608     6447     7477     9180     9871     9162     7970     6700 
    5783     6276     7848     8880     9089     9251     8984     7619 
    6342     6562     7423     7554     7577     8641     9760     9086 
    7238     6471     7092     7666     7717     7669     7790     8183 
    8424     8121     7900     8182     8120     7361     7103     7803 
    8318     8276     8224     7892     7199     6944     7182     7609 
    8488     9313     9027     7755     6681     6777     7713     8216 
    7965     7839     8044     7704     6922     7257     8791     9486 
    8619     7763     7600     7280     6995     7213     7168     7128 
    8378     9954     9418     7222     6124     6448     6929     7877 
    9333     9957     9150     7659     6678     6953     7996     8442 
    7578     6361     6723     8741     9745     8472     7092     7203 
    7614     7221     6905     7857     9562     9891     7925     5998 
    6434     8183     8947     8105     6840     6880     8318     9036 
    8137     7560     8197     8440     7766     7353     7357     7326 
    7650     8001     7520     7480     8916     9618     8106     6434 
    6667     7924     8197     7554     7411     8087     8919     8901 
    7577     6444     7169     8468     8282     7492     7792     8518 
    8442     7905     7476     7296     7651     7736     6737     6436 
    8136     9691     9274     8075     7516     7500     7819     8127 
    7546     6673     7265     8640     8537     7820     8529     8780 
    6700     5402     7342     9644     9625     8594     7843     6995 
    6547     6937     7082     7164     8607    10115     9410     7578 
    6731     7065     8001     8391     7642     7371     8143     7819 
    6359     6663     8841     9853     8901     7578     6650     6467 
    7445     8703     8899     8334     8209     8313     7943     7673 
    7692     7225     6744     7244     8097     8364     8290     7850 
    6813     6577     8037     9371     9256     8383     7142     6322 
    7190     8544     8603     8208     8098     7528     6675     6755 
    8182     9706     9679     8193     6812     6436     6778     7302 
    7566     7747     8463     9085     8545     7441     7117     7618 
    8025     8131     8066     7861     7893     7805     7352     7592 
    8618     9018     8181     7150     7106     7747     8075     7919 
    7566     6961     6501     7068     8384     9290     9244     8750 
    8584     8299     7125     5987     6218     7422     8291     8460 
    8542     8887     8896     8040     6880     6385     7238     8765 
    8824     7422     7047     8097     8565     7692     6818     7045 
    7932     8507     8221     7592     7744     8648     9082     8351 
    7210     6836     7101     6920     6538     7755    10268    10844 
    8602     6531     6234     6239     6168     7159     8595     9528 
    9945     8877     6590     5875     7308     8328     8237     8527 
    8888     8264     7634     7921     8106     7551     7264     7403 
    7053     6917     8059     9151     8703     7715     7264     7032 
    7233     7789     8033     8598     9228     8359     7084     7593 
    8716     8239     7160     7114     7020     6470     7164     8750 
    9250     8853     8676     8403     7685     7094     6976     7083 
    7260     7753     8475     8823     8517     7735     7028     6918 
    7144     7528     8326     8896     8467     7589     7177     7360 
    7757     8205     8667     8677     8202     7916     7642     7074 
    6961     7229     7267     7788     8815     8958     8437     8540 
    8665     7831     6720     6297     6771     7520     7614     7280 
    7514     8379     9026     8989     8579     8166     7993     7952 
    7535     6777     6394     7048     8353     8826     8183     7939 
    8606     8958     8406     7570     6880     6717     7360     7938 
    7965     8301     8629     7763     6613     6813     8091     9186 
    9112     7659     6419     7130     8507     8372     7708     8442 
    9402     8430     6683     6677     7770     8048     7647     7211 
    7022     7481     8027     7955     7789     7881     7884     7902 
    8129     8195     8013     7882     7643     7406     7947     9008 
    9116     7813     6394     6311     7591     9057     9774     9243 
    7555     6432     7195     8237     7987     7453     7219     6551 
    6053     6716     8037     9474    10575    10125     8334     7384 
    7688     7568     6980     6837     6602     6303     7067     8376 
    8726     8415     8631     8946     8496     8058     8353     8575 
    8124     7311     6569     6563     7480     8455     8849     8523 
    7620     7030     7196     7408     7435     7761     8105     7804 
    7439     7955     8698     8646     8279     8032     7330     6662 
    7203     8075     7785     7253     7831     8398     8005     7978 
    8464     7974     6967     6905     7569     8303     8888     8631 
    7616     7152     7389     7402     7392     8299     9621     9728 
    8475     7059     6222     6389     7248     7647     7790     8689 
    9562     9080     7888     7672     8559     8900     7776     6142 
    5269     5512     6654     8178     9243     9458     9267     9135 
    8947     8193     6845     5988     6419     7240     7504     7843 
    8753     9220     8433     7267     7287     8637     9678     9267 
    8066     6941     6099     6057     7051     8068     8394     8283 
    7836     7408     7704     8290     8244     7923     7983     8160 
    8291     8613     8931     8986     8842     8225     6843     5552 
    5570     6615     7851     9263    10071     9207     7794     7075 
    6270     5188     5262     6968     8897     9651     9275     8619 
    8136     7758     7155     6123     5377     5652     6276     6667 
    7589     9332    10754    10557     8569     6084     4685     4660 
    5370     6712     8734    10708    12025    12515    11611     9531 
    7970     7609     7570     8008     9610    11321    11769    10956 
    9248     7106     5347     4226     3414     3184     4104     5818 
    7541     8679     8637     7534     6550     6492     6934     7600 
    8896    10289    10557     9436     7285     4772     3094     2851 
    3696     5647     8779    12027    14072    14072    11425     7045 
    3376     1787     2209     4684     8984    13441    15823    15349 
   12885     9823     7601     6920     7369     8784    11211    13300 
   13500    12187    10204     7541     4760     2832     1760     1699 
    3403     5779     6574     5842     4815     3470     1895     1112 
    1957     4587     7998    10466    11704    12665    13024    11885 
   10126     9189     9173     9606    10153    10308     9823     8812 
    7190     5166     3900     4309     6091     8580    10966    12251 
   12255    11072     8132     3959     1046     1213     4052     8025 
   11674    14297    15255    13815    10759     7680     5058     2957 
    2250     3615     6327     9171    11117    11187     9296     6444 
    3667     1642     1147     2594     5371     8411    10430    10501 
    9495     9085     9309     9161     9096    10258    11850    12104 
   10957     9752     9171     8954     8638     7627     6022     4891 
    4684     4912     5356     6326     7839     9288    10088     9952 
    8935     7700     6727     5647     4344     3734     4550     6415 
    8726    11003    12333    11935     9944     7372     5485     4938 
    5532     6677     8055     9626    10959    11553    11310    10143 
    8287     6443     4980     4228     4679     5991     7335     8571 
    9678    10127     9792     8977     7581     5994     5482     6342 
    7653     8922     9734     9039     6891     5105     4941     5823 
    6870     7971     9036     9710     9647     8646     7376     7094 
    7823     8344     8329     8650     9421     9782     9333     8374 
    7626     7684     7959     7472     6828     7290     8403     8945 
    8783     8249     7688     7574     7780     7773     7708     7971 
    8104     7458     6285     5483     5665     6513     7254     7753 
    8268     8560     8002     6539     5240     5439     7061     8758 
    9848    10336     9799     8499     7688     7642     7879     8542 
    9351     9315     8654     8488     8839     8918     8370     7508 
    6860     6342     5667     5636     6912     8491     9529    10228 
   10332     9568     8529     7504     6370     5724     5958     6326 
    6670     7680     9027     9957    10466    10401     9451     8039 
    6620     5120     3676     3206     4592     7060     8892     9772 
   10160     9651     8060     6502     6099     6702     7724     8973 
    9984    10187     9748     8946     7773     6620     6052     6058 
    6311     6799     7668     8525     8804     8815     9227     9944 
   10326     9890     8618     6978     5902     6214     7385     8017 
    7908     7821     7570     6667     5956     6362     7385     8014 
    7905     7568     7751     8567     9324     9277     8500     7684 
    7229     7106     7290     7862     8604     8874     8341     7491 
    6971     6939     7191     7488     7731     7888     7862     7751 
    7854     8260     8834     9256     9150     8630     8064     7528 
    7186     7260     7655     8268     9043     9672     9806     9445 
    8746     7630     5995     4465     4195     5304     6423     6814 
    7383     8532     9342     9418     9138     8575     7712     6858 
    6245     5925     6110     6860     7761     8522     9198     9690 
    9880     9900     9564     8517     7227     6374     5980     6084 
    6863     7971     8954     9734    10177    10115     9643     8857 
    7848     6866     6246     6340     7167     8237     8996     9078 
    8270     6988     6149     5784     5360     5363     6328     7566 
    8463     9072     9274     9027     8548     7828     7156     7202 
    7734     7809     7396     7199     7307     7388     7506     7871 
    8413     8947     9278     9239     8969     8788     8729     8544 
    8159     7751     7338     6845     6617     6986     7554     7808 
    7858     7897     7776     7577     7561     7601     7649     8031 
    8831     9624     9811     9169     8224     7709     7688     7689 
    7528     7407     7402     7364     7132     6787     6547     6431 
    6515     7022     7720     8032     7917     7763     7483     6858 
    6407     6667     7487     8495     9261     9594     9904    10262 
   10046     9165     8270     7759     7538     7491     7551     7499 
    7265     7155     7354     7651     7634     7175     6759     6693 
    6589     6457     6895     7803     8622     9254     9705     9771 
    9394     9039     9103     9036     8316     7489     7041     6655 
    6189     5999     6215     6466     6554     6889     7696     8386 
    8392     8031     7906     7865     7465     7105     7408     8187 
    8857     9035     8613     8063     8185     8895     9306     9198 
    9227     9553     9462     8685     7840     7226     6651     6222 
    6129     6334     6874     7658     8175     8062     7611     7268 
    6818     5922     5081     4972     5595     6705     8098     9401 
   10223    10650    10986    11163    10984    10350     9067     7137 
    5159     3943     3777     4455     5852     7927    10080    11472 
   11875    11240     9636     7925     6822     6250     6012     6011 
    6273     6944     7977     9027     9647     9598     8970     7978 
    6899     6212     6269     6853     7514     8017     8255     8271 
    8307     8473     8505     8178     7690     7352     7227     7125 
    6898     6767     7002     7427     7680     7765     7923     8110 
    8124     7982     7898     8109     8554     8834     8748     8446 
    8120     7954     8008     7904     7452     7198     7565     8305 
    9024     9560     9747     9182     7879     6608     5931     5848 
    6357     7323     8110     8262     8051     7815     7466     7087 
    7138     7622     7951     8006     8187     8548     8873     9050 
    8904     8310     7526     7001     6785     6624     6563     6802 
