Origin Time       2024/06/23 22:54:00
Lat.              35.645
Long.             140.060
Depth. (km)       72
Mag.              4.1
Station Code      CHB007
Station Lat.      35.7237
Station Long.     140.2246
Station Height(m) 30
Record Time       2024/06/23 22:54:43
Sampling Freq(Hz) 100Hz
Duration Time(s)  60
Dir.              N-S
Scale Factor      7845(gal)/8223790
Max. Acc. (gal)   7.824
Last Correction   2024/06/23 22:54:43
Memo.             
[...]
     592      595      596      602      604      604      600      587 
     581      585      594      606      610      599      591      592 
     600      608      598      581      594      607      600      599 
     604      595      589      591      583      580      595      603 
     603      607      603      589      588      596      594      591 
     602      604      604      608      598      587      592      598 
     599      595      591      596      600      594      583      580 
     592      606      606      596      588      595      599      588 
     581      584      594      611      612      595      594      599 
     598      602      594      577      583      600      600      603 
     604      595      596      599      589      587      594      596 
     599      596      584      583      592      591      585      591 
     595      599      607      606      596      584      577      592 
     603      602      608      607      592      591      591      585 
     594      600      596      598      595      591      598      600 
     591      585      589      594      594      596      591      585 
     588      596      606      602      594      606      603      583 
     579      584      592      607      604      588      587      595 
     594      589      588      587      594      600      595      591 
     589      584      583      591      602      607      603      594 
     595      596      583      579      589      598      603      602 
     591      588      600      606      589      579      589      602 
     599      588      580      580      589      599      600      602 
     602      592      585      584      587      594      600      608 
     619      611      588      577      583      585      588      588 
     587      587      594      599      602      604      602      592 
     587      587      585      585      589      591      591      596 
     596      588      583      585      599      607      602      602 
     600      595      599      588      575      587      599      604 
     610      596      587      595      602      603      594      581 
     587      598      599      598      596      599      600      596 
     587      584      588      587      587      592      595      596 
     599      604      600      587      583      584      592      607 
     606      599      607      606      585      576      576      581 
     588      595      607      611      604      604      599      588 
     591      591      581      587      594      591      589      594 
     599      602      598      594      592      589      585      594 
     603      603      599      595      589      592      598      596 
     596      602      603      596      589      589      594      594 
     598      602      596      592      589      587      596      599 
     594      591      584      588      607      608      602      599 
     591      589      592      585      588      600      599      595 
     598      599      602      606      603      598      591      584 
     585      585      583      580      576      591      612      611 
     606      611      608      599      595      589      587      588 
     583      583      592      604      606      594      583      587 
     594      594      594      603      603      594      585      584 
     592      600      603      602      596      591      594      598 
     599      598      591      584      592      603      600      598 
     596      594      589      584      589      596      594      591 
     591      596      604      602      594      587      587      583 
     583      591      602      612      611      599      592      591 
     587      588      591      589      588      592      599      600 
     598      598      591      580      579      580      591      602 
     600      606      606      591      587      585      583      584 
     587      598      611      612      600      591      589      587 
     584      588      592      595      589      583      584      587 
     594      599      600      604      604      599      599      595 
     589      589      584      583      589      595      599      604 
     594      581      592      598      595      599      591      583 
     591      594      595      598      587      584      591      594 
     596      602      607      603      592      587      587      591 
     595      594      592      595      599      594      592      608 
     610      594      591      594      595      596      592      592 
     591      573      562      579      599      614      638      660 
     662      649      633      616      573      514      477      471 
     488      538      598      637      676      711      707      675 
     642      594      550      546      561      572      592      610 
     598      587      583      540      503      553      634      622 
     515      468      568      706      745      737      855     1036 
     943      498       98       58      183      236      329      634 
    1077     1393     1320      882      415      199      141       29 
     -13      253      726     1042      957      653      604      922 
    1134      973      789      789      604       54     -492     -602 
     -72      880     1576     1588     1274     1011      608       13 
    -336     -149      454     1088     1217      837      518      496 
     581      679      784      923     1009      741      112     -292 
     -71      414      789     1136     1371     1142      494     -114 
    -306       33      664     1102     1196     1129      907      445 
     -18       -4      612     1223     1244      795      313      103 
     164      288      481      907     1352     1335      731     -135 
    -716     -496      454     1385     1684     1485     1192      796 
     248     -139     -211       25      623     1170     1134      733 
     475      380      287      278      421      691     1061     1285 
    1066      565      240      243      349      392      423      481 
     639      891      934      730      715      984     1100      818 
     307     -152     -318     -145      218      695     1182     1426 
    1228      635      -24     -301      122     1054     1782     1777 
    1146      232     -616     -958     -521      496     1613     2269 
    1952      707     -603    -1030     -384      756     1628     1765 
    1139      135     -679     -851     -162     1228     2596     2972 
    2004      367     -942    -1382     -901      126     1113     1660 
    1607     1077      450       -5     -182      109      750     1158 
    1101      837      480      182      315      885     1398     1474 
    1044      166     -783    -1161     -774       39     1019     1975 
    2546     2485     1798      708     -286     -814     -866     -473 
     230      911     1368     1421      882      187       35      360 
     642      756      793      746      670      689      805      899 
     801      471      170      183      394      565      696      796 
     797      764      695      459      275      517      930     1011 
     849      707      494      143     -157     -245      -35      469 
    1074     1594     1900     1769     1069       66     -653     -653 
    -103      496      973     1317     1255      643        4      -39 
     450     1053     1414     1240      688      274       82      -14 
     211      797     1138      861      427      287      407      707 
     942      810      618      737      773      328     -260     -483 
    -137      754     1718     2038     1719     1337     1062      545 
    -379    -1256    -1448     -708      631     1825     2365     2370 
    2046     1325      238     -811    -1236     -780       78      652 
     868     1059     1233     1104      737      496      521      738 
     928      784      427      337      535      607      568      758 
    1023      962      498     -137     -406      -13      527      815 
    1189     1656     1489      441     -726    -1111     -444      787 
    1826     2286     2133     1478      649     -110     -729     -850 
    -175      838     1517     1742     1557      812     -272     -919 
    -652       86      727     1318     1833     1850     1318      666 
     236       63       -2     -124     -340     -379      118      985 
    1613     1860     2127     2272     1680      580     -336    -1017 
   -1487    -1321     -386      832     1738     1898     1271      523 
     313      486      648      772      913     1035      981      526 
    -164     -378      172      757      853      819      955     1124 
    1171     1038      830      878     1115      826     -176    -1077 
   -1240     -822      -71      977     2003     2425     2049     1088 
      33     -386        4      595     1036     1418     1435      726 
    -110     -379     -321      -45      684     1256     1027      531 
     484      869     1306     1408      851     -205     -977    -1024 
    -675      -98      943     2340     3364     3287     2035      248 
   -1090    -1413     -889      108     1204     2004     2216     1510 
      52    -1105    -1277     -769       -4      711     1105     1216 
    1055      525       59      191      719     1227     1552     1462 
     924      382      182      391     1051     1845     2095     1521 
     302    -1158    -2026    -1698     -643      544     1809     2637 
    2380     1431      481     -311     -697     -295      596     1273 
    1510     1354      799      275      187      155      -48       99 
     565      592      279      337      780     1297     1702     1551 
     622     -414     -781     -491      108      891     1659     2034 
    1772      943       52     -126      751     2010     2417     1398 
    -395    -1692    -1876    -1360     -457      920     2251     2664 
    1973      666     -477     -719       49     1040     1480     1425 
    1048      225     -650     -741      182     1499     2482     2817 
    2504     1684      571     -629    -1529    -1613     -896      -76 
     263      160      -64     -141      167      922     1779     2322 
    2452     2160     1404      355     -673    -1278    -1012      153 
    1509     2147     1890     1289      787      359      -22      -49 
     388      788      697      272     -118     -342     -357      -93 
     328      697     1024     1387     1719     1891     1807     1441 
     868      143     -666    -1185     -969      -82     1063     2116 
    2621     2172     1104      148     -472     -822     -780     -237 
     768     1846     2212     1495      294     -511     -535       45 
     841     1625     2112     1711      409     -820    -1227     -965 
    -368      400     1019     1246     1339     1512     1453     1012 
     531      260       98      -16       72      436      873     1231 
    1441     1277      710      211      122      238      399      714 
    1131     1451     1509     1102      253     -525     -764     -533 
     -39      704     1432     1652     1356      976      608       91 
    -346     -207      626     1607     2046     1888     1426      627 
    -477    -1443    -1880    -1588     -530      807     1763     2301 
    2628     2500     1794      936      186     -461     -769     -558 
     -98      399     1080     1845     2168     1853     1142      172 
    -819    -1310    -1031     -232      656     1402     1821     1570 
     696     -114     -291      114      680      963      926      946 
    1194     1456     1487     1171      714      338      -58     -433 
    -494     -178      384     1034     1548     1728     1464      816 
      62     -498     -716     -529        4      515      685      758 
    1086     1498     1714     1860     1987     1671      572    -1046 
   -2430    -2737    -1705       87     1814     2933     3199     2717 
    1934     1263      869      670      436       64     -283     -479 
    -600     -743     -676      -18     1127     2131     2376     1782 
     957      541      426       82     -531     -900     -719     -280 
       6       71      243     1046     2470     3624     3757     3113 
    2299     1471      440     -854    -1983    -2265    -1597     -657 
     -43      152       54       81      648     1314     1331      859 
     591      733     1063     1441     1846     2101     1903     1136 
     -17    -1096    -1549    -1271     -683     -133      378      984 
    1682     2052     1679      869      171     -348     -764     -957 
    -943     -877     -553      446     1895     3025     3430     3142 
    2332     1305      294     -668    -1394    -1421     -564      804 
    2099     2899     3241     3364     3121     2313     1162      -63 
   -1216    -2012    -2199    -1846    -1212     -600     -337     -433 
    -488     -117      700     1669     2486     3109     3603     3896 
    3762     3073     2046     1012      152     -454     -789     -928 
   -1020    -1190    -1548    -2185    -2913    -3175    -2594    -1456 
    -353      317      554      854     1694     2963     4272     5321 
    5941     6102     5745     4815     3539     2362     1540      959 
     207    -1046    -2636    -4125    -5379    -6426    -7068    -7020 
   -6226    -4974    -3670    -2505    -1389      -68     1663     3663 
    5414     6601     7488     8306     8796     8683     8028     7187 
    6515     5775     4284     1856     -978    -3497    -5107    -5634 
   -5691    -6062    -6650    -6837    -6385    -5375    -4021    -2633 
   -1382     -233      923     2254     3852     5520     6775     7109 
    6396     5030     3632     2704     2363     2380     2417     2182 
    1587      783     -121    -1148    -2211    -3009    -3244    -2840 
   -1964    -1074     -719     -966    -1301    -1314    -1109     -791 
     -55     1340     3046     4363     4892     4689     3843     2523 
    1215      423      301      577      741      519      190       74 
     110       64     -314    -1147    -2208    -2974    -2910    -1904 
    -426      734      993      562      291      652     1281     1653 
    1796     2268     3505     5167     6259     5983     4359     2207 
     403     -905    -1930    -2443    -2151    -1433     -986    -1058 
   -1516    -2193    -2758    -2849    -2378    -1285      499     2648 
    4336     4691     3439     1247     -561     -927      166     1848 
    3055     3186     2359     1196      336      118      461      901 
     963      569      -14     -414     -324      245      874      976 
     180    -1260    -2563    -3126    -2907    -2095     -835      837 
    2848     4710     5686     5363     3893     1875      128     -777 
    -945     -851     -791     -928    -1348    -1674    -1138      631 
    3173     5528     6686     6019     3777      955    -1475    -3059 
   -3763    -3692    -2968    -1726     -199     1181     2068     2359 
    1918      797     -425    -1134    -1206     -869     -287      484 
    1318     2131     3065     4178     5076     5200     4374     2930 
    1422      248     -616    -1601    -3001    -4557    -5649    -5683 
   -4537    -2837    -1498     -858     -469      291     1555     2853 
    3717     4193     4584     4919     4968     4563     3792     3003 
    2447     1965     1371      865      618      388     -120     -973 
   -2038    -2997    -3589    -3893    -4005    -3707    -2712    -1075 
     789     2297     2891     2570     2015     1965     2690     3878 
    4897     5227     4650     3265     1394     -635    -2463    -3666 
   -4006    -3507    -2266     -475     1371     2621     2855     2057 
     584     -963    -1999    -2224    -1636     -417      990     2065 
    2702     3109     3248     2940     2307     1679     1285     1210 
    1345     1447     1409     1212      710     -229    -1497    -2820 
   -3896    -4392    -3964    -2471     -291     1795     3076     3318 
    2898     2385     1988     1698     1678     2011     2396     2466 
    2142     1517      823      417      422      634      923     1255 
    1402     1139      619      174     -117     -433     -893    -1383 
   -1692    -1642    -1232     -619       82      746     1144     1244 
    1273     1360     1413     1324     1232     1491     2187     2947 
    3337     3098     2138      576    -1215    -2668    -3322    -3102 
   -2304    -1350     -504      261     1011     1509     1463      919 
     174     -410     -376      550     2025     3300     3805     3437 
    2597     1814     1302     1000      723      253     -471    -1171 
   -1372     -881      -29      615      604     -109     -947    -1142 
    -436      808     2023     2857     3150     2736     1687      454 
    -479     -823     -483      333     1192     1838     2295     2438 
    1917      710     -638    -1661    -2343    -2686    -2574    -2007 
   -1015      288     1530     2370     2752     2754     2504     2197 
    2050     2095     2097     1880     1441      764      -58     -737 
   -1139    -1354    -1356    -1032     -454      159      558      448 
    -259    -1188    -1755    -1621     -808      402     1552     2189 
    2169     1779     1582     2050     3127     4170     4482     3863 
    2718     1591      627     -263     -946    -1190     -974     -427 
     290      884      886      128     -947    -1687    -1707    -1085 
    -417     -267     -436     -237      602     1715     2612     3036 
    2957     2555     2085     1717     1548     1485     1134      168 
   -1144    -2025    -1912    -1055     -294     -224     -711    -1279 
   -1640    -1709    -1421     -758      102      885     1398     1637 
    1895     2543     3642     4903     5896     6133     5325     3785 
    2188      936      -49    -1050    -2085    -2876    -3261    -3326 
   -3277    -3225    -3056    -2736    -2423    -2037    -1285     -141 
     993     1764     2250     2774     3493     4318     5058     5552 
    5761     5726     5363     4557     3427     2107      577    -1055 
   -2550    -3692    -4218    -3990    -3354    -2876    -2789    -2990 
   -3225    -3172    -2700    -1891     -785      631     2311     4105 
    5795     7082     7603     7111     5640     3523     1422       75 
    -334     -279     -213     -209     -329     -753    -1494    -2353 
   -3125    -3658    -3851    -3640    -2953    -1755     -213     1306 
    2504     3284     3712     4006     4384     4741     4727     4236 
    3503     2774     2146     1575      907       55     -901    -1864 
   -2791    -3627    -4286    -4641    -4529    -3898    -2860    -1530 
     -36     1414     2573     3269     3589     3773     3963     4186 
    4306     4137     3789     3530     3423     3326     2903     1845 
     373     -997    -2083    -2909    -3441    -3688    -3701    -3510 
   -3198    -2789    -2173    -1399     -743     -329       -6      376 
     866     1487     2299     3298     4369     5359     6093     6404 
    6174     5319     3870     2083      275    -1312    -2489    -3142 
   -3289    -3019    -2471    -1834    -1305    -1071    -1156    -1273 
   -1120     -704     -149      576     1543     2573     3348     3731 
