Origin Time       2024/06/23 22:54:00
Lat.              35.645
Long.             140.060
Depth. (km)       72
Mag.              4.1
Station Code      CHB029
Station Lat.      35.6948
Station Long.     139.9176
Station Height(m) 3
Record Time       2024/06/23 22:54:44
Sampling Freq(Hz) 100Hz
Duration Time(s)  65
Dir.              N-S
Scale Factor      7845(gal)/8223790
Max. Acc. (gal)   7.099
Last Correction   2024/06/23 22:54:44
Memo.             
[...]
    4904     4914     4897     4878     4884     4897     4900     4888 
    4878     4884     4892     4897     4899     4901     4892     4870 
    4874     4891     4895     4891     4887     4895     4900     4887 
    4880     4891     4897     4895     4903     4908     4892     4877 
    4881     4884     4882     4881     4892     4918     4923     4901 
    4885     4888     4887     4889     4908     4905     4887     4877 
    4873     4877     4888     4897     4896     4885     4868     4857 
    4861     4876     4895     4905     4908     4900     4885     4881 
    4888     4899     4904     4905     4901     4885     4872     4877 
    4891     4900     4892     4866     4853     4872     4903     4915 
    4914     4912     4897     4872     4873     4896     4904     4900 
    4888     4870     4860     4865     4885     4908     4914     4896 
    4878     4881     4888     4896     4915     4914     4888     4869 
    4869     4885     4896     4893     4893     4896     4892     4891 
    4909     4916     4895     4868     4865     4892     4907     4905 
    4915     4911     4881     4865     4882     4905     4896     4874 
    4877     4887     4888     4888     4889     4892     4885     4870 
    4877     4895     4885     4869     4881     4900     4895     4882 
    4892     4911     4905     4881     4872     4880     4881     4884 
    4903     4922     4912     4888     4880     4891     4896     4899 
    4901     4900     4893     4882     4887     4901     4896     4873 
    4864     4878     4884     4874     4887     4903     4891     4870 
    4877     4901     4904     4892     4889     4891     4888     4891 
    4904     4912     4897     4876     4869     4880     4892     4901 
    4916     4923     4907     4889     4893     4907     4900     4882 
    4882     4895     4887     4881     4896     4908     4899     4880 
    4880     4896     4897     4881     4872     4873     4870     4865 
    4884     4900     4884     4870     4892     4911     4899     4884 
    4896     4909     4897     4877     4882     4907     4909     4897 
    4897     4901     4899     4893     4897     4908     4900     4887 
    4892     4900     4899     4895     4900     4912     4903     4876 
    4872     4878     4877     4884     4903     4911     4903     4895 
    4903     4915     4896     4870     4877     4885     4880     4889 
    4901     4901     4895     4878     4873     4889     4905     4909 
    4912     4905     4884     4869     4882     4900     4893     4889 
    4903     4908     4892     4880     4893     4916     4920     4912 
    4908     4900     4888     4885     4893     4907     4896     4872 
    4870     4884     4892     4891     4896     4908     4896     4870 
    4876     4899     4908     4905     4899     4900     4892     4882 
    4900     4916     4908     4896     4892     4891     4887     4889 
    4903     4901     4887     4882     4899     4909     4893     4878 
    4884     4885     4880     4884     4911     4924     4901     4884 
    4889     4895     4896     4895     4896     4904     4901     4901 
    4915     4918     4904     4899     4901     4896     4892     4893 
    4900     4903     4877     4855     4874     4899     4899     4892 
    4892     4893     4891     4896     4908     4911     4897     4880 
    4881     4888     4878     4884     4904     4896     4872     4868 
    4889     4912     4900     4885     4892     4887     4878     4882 
    4887     4881     4866     4865     4893     4911     4900     4896 
    4903     4893     4870     4866     4891     4914     4912     4903 
    4899     4892     4892     4899     4901     4900     4884     4873 
    4897     4911     4899     4893     4899     4901     4896     4876 
    4872     4892     4899     4888     4880     4882     4885     4882 
    4895     4901     4873     4864     4889     4901     4895     4885 
    4880     4884     4882     4878     4889     4900     4900     4893 
    4888     4889     4873     4861     4889     4903     4874     4855 
    4877     4909     4907     4888     4889     4895     4899     4900 
    4893     4881     4870     4865     4876     4899     4905     4897 
    4897     4882     4857     4860     4885     4903     4892     4877 
    4887     4895     4888     4885     4882     4887     4893     4887 
    4881     4881     4873     4877     4900     4915     4909     4895 
    4884     4882     4878     4885     4903     4892     4866     4862 
    4874     4891     4896     4893     4897     4896     4880     4880 
    4896     4900     4887     4869     4873     4888     4888     4893 
    4904     4903     4899     4884     4873     4878     4881     4892 
    4907     4888     4869     4877     4893     4911     4904     4884 
    4887     4892     4885     4891     4889     4877     4873     4874 
    4888     4901     4891     4878     4881     4880     4882     4888 
    4903     4919     4908     4893     4900     4892     4877     4876 
    4889     4896     4842     4795     4873     4957     4892     4837 
    4922     5005     4977     4926     4930     4927     4853     4807 
    4880     4900     4762     4719     4870     4945     4860     4880 
    5039     5076     4954     4900     4969     4931     4769     4808 
    5026     5012     4739     4614     4806     5043     5094     4930 
    4756     4912     5125     4876     4545     4657     4942     4992 
    4796     4742     5065     5244     5004     4899     4986     4803 
    4563     4773     5186     5132     4631     4332     4630     5204 
    5351     5100     4953     4914     4941     5023     4918     4681 
    4621     4866     5206     5179     4830     4614     4592     4753 
    5007     4962     4783     4814     4926     5082     5138     4846 
    4608     4822     5143     5103     4791     4718     4896     4892 
    4845     4969     4996     4942     4928     4865     4828     4761 
    4664     4872     5170     5092     4900     4901     4966     4986 
    4864     4665     4656     4866     5165     5305     5039     4649 
    4548     4711     4893     4865     4810     5076     5281     5005 
    4672     4695     4905     5023     4977     4903     4827     4700 
    4716     4938     5128     5130     4923     4677     4615     4738 
    4950     5069     4973     4938     5154     5220     4862     4515 
    4552     4752     4903     5016     5051     4966     4884     4968 
    5081     4923     4606     4546     4827     5077     5032     4954 
    5008     4939     4774     4765     4833     4901     5065     5208 
    5116     4838     4612     4592     4680     4706     4788     5039 
    5238     5204     5032     4915     4922     4934     4884     4858 
    4789     4544     4324     4446     4874     5306     5440     5238 
    5017     4966     4882     4699     4704     4905     4920     4784 
    4815     4891     4801     4710     4770     4888     4927     4864 
    4830     4931     5020     5019     5042     5030     4977     5047 
    5109     4982     4768     4612     4684     4918     4977     4900 
    4916     4895     4758     4664     4664     4741     4868     4969 
    4992     4980     5011     5020     4946     4827     4706     4696 
    4797     4922     5130     5177     4847     4625     4760     4931 
    5022     5065     5093     5088     4912     4789     4970     5154 
    5069     4835     4630     4534     4487     4471     4668     5043 
    5232     5119     4981     4888     4777     4857     5127     5258 
    5146     4942     4828     4791     4642     4513     4691     5001 
    5094     4999     4919     4888     4846     4835     4804     4648 
    4614     4835     4999     5077     5159     5065     4918     4931 
    4876     4615     4467     4671     4947     4936     4864     5008 
    5085     5028     5116     5134     4851     4580     4639     4970 
    5163     4973     4839     5096     5212     4834     4450     4434 
    4581     4727     4984     5312     5464     5306     4968     4710 
    4652     4673     4662     4652     4661     4765     5034     5101 
    4737     4552     4899     5190     5046     4861     4985     5200 
    5198     5053     4974     4942     4830     4704     4689     4661 
    4496     4513     4997     5582     5657     5130     4580     4471 
    4603     4622     4536     4679     5135     5356     5096     4891 
    4849     4584     4344     4584     5017     5152     5092     5212 
    5454     5348     4926     4793     4920     4824     4642     4573 
    4472     4384     4542     4981     5293     5154     5013     5200 
    5197     4765     4382     4477     4932     5205     5139     5003 
    4785     4531     4568     4907     5201     5250     5193     5147 
    4970     4687     4550     4603     4699     4849     5131     5373 
    5314     5019     4770     4677     4672     4795     5036     5058 
    4746     4534     4612     4746     4895     5162     5390     5263 
    4851     4608     4665     4723     4557     4361     4621     5279 
    5665     5516     5043     4579     4531     4807     4924     4866 
    4918     5097     5132     4915     4752     4742     4649     4594 
    4841     5154     5181     5016     4943     5019     5067     4931 
    4770     4777     4689     4410     4414     4752     4927     4922 
    5001     5117     5181     5196     5190     5224     5178     4955 
    4711     4550     4590     4846     4916     4644     4430     4554 
    4891     5112     5128     5134     5063     4833     4696     4691 
    4611     4622     4936     5312     5417     5265     5020     4764 
    4684     4909     5140     5142     5036     5047     5193     5151 
    4834     4687     4793     4770     4660     4753     4927     4951 
    4914     4978     5076     5042     4854     4611     4537     4634 
    4604     4523     4665     4865     4961     5020     5013     4868 
    4619     4526     4808     5169     5198     5066     5063     5054 
    4938     4835     4788     4762     4664     4548     4727     5155 
    5391     5297     5073     4923     4885     4795     4606     4558 
    4819     5112     5082     4912     4853     4675     4433     4623 
    5150     5346     5093     4926     5030     4990     4720     4688 
    5044     5329     5179     4963     5121     5279     5032     4716 
    4664     4710     4634     4569     4745     4986     5062     5113 
    5152     5027     4824     4607     4399     4371     4515     4749 
    5059     5296     5391     5385     5211     4947     4754     4625 
    4490     4417     4587     4868     4897     4764     4801     4922 
    4861     4746     4800     4888     4918     5027     5148     5217 
    5397     5553     5329     4756     4294     4356     4779     4982 
    4823     4700     4814     4981     4977     4796     4718     4853 
    4992     5096     5211     5192     5016     4872     4892     4908 
    4646     4302     4259     4434     4623     4928     5346     5582 
    5462     5186     5044     4990     4792     4558     4611     4896 
    5077     5084     5016     4839     4669     4703     4780     4766 
    4827     4935     4990     5038     5016     4878     4723     4680 
    4770     4855     4907     5016     5071     5017     4978     4847 
    4583     4517     4733     4891     4819     4676     4735     5053 
    5217     4986     4747     4779     4911     5044     5161     5169 
    5065     4887     4723     4762     5005     5209     5144     4851 
    4656     4719     4870     5012     5071     4928     4756     4703 
    4600     4465     4507     4720     4974     5181     5329     5400 
    5281     5007     4824     4853     4874     4695     4526     4583 
    4704     4752     4835     5013     5084     4930     4814     4850 
    4804     4672     4677     4881     5109     5103     4897     4795 
    4839     4858     4868     4965     5028     4893     4688     4699 
    4942     5111     5059     5057     5248     5352     5251     5161 
    5108     4903     4594     4527     4739     4781     4579     4569 
    4869     5216     5448     5528     5325     4784     4321     4342 
    4538     4537     4567     4895     5227     5121     4788     4754 
    4873     4749     4596     4725     4957     5027     5008     5047 
    4995     4727     4583     4789     4990     4923     4833     4895 
    4942     4857     4774     4822     4955     5097     5208     5229 
    5170     5100     5049     5082     5161     5139     5027     4834 
    4573     4448     4569     4791     4920     4905     4860     4924 
    5093     5229     5189     4992     4823     4706     4525     4369 
    4411     4629     4827     4857     4827     4887     4982     5046 
    5131     5296     5447     5482     5468     5385     5186     5039 
    4953     4807     4707     4742     4857     5027     5220     5301 
    5043     4573     4411     4693     5077     5328     5481     5628 
    5707     5593     5360     5148     4916     4630     4438     4440 
    4390     4005     3323     2628     2161     1914     1831     2041 
    2536     3126     3720     4172     4402     4591     4761     4870 
    5150     5678     6245     6685     6812     6354     5251     3877 
    2860     2643     3302     4563     5958     7296     8599     9644 
   10193    10350    10436    10631    10693    10343     9636     8638 
    7350     5995     4892     4240     4062     4126     4136     3971 
    3584     2887     1900      783     -340    -1429    -2273    -2551 
   -2239    -1530     -631      217      966     1857     3160     4873 
    6481     7384     7485     6957     5964     4808     3882     3507 
    3748     4375     5240     6274     7180     7758     8149     8540 
    9086     9779    10311    10443    10189     9574     8534     7091 
    5502     4206     3612     3848     4631     5533     6304     6762 
    6652     5859     4614     3391     2465     1799     1421     1486 
    1931     2479     2929     3129     2941     2420     1872     1692 
    2114     3056     4152     4922     5204     5258     5293     5321 
    5385     5508     5579     5487     5310     5158     4901     4510 
    4332     4623     5185     5721     6150     6498     6720     6700 
    6552     6669     7113     7470     7456     7060     6268     5185 
    4128     3384     3156     3450     4055     4742     5297     5505 
    5262     4680     4055     3627     3433     3385     3407     3420 
    3350     3368     3823     4704     5622     6312     6710     6771 
    6424     5628     4569     3650     3223     3429     4047     4662 
    5085     5383     5688     6006     6021     5513     4776     4187 
    3874     3858     4040     4218     4203     3881     3408     3186 
    3438     4102     5057     6127     7042     7566     7626     7385 
    7074     6723     6259     5699     5127     4729     4711     4951 
    5054     4838     4430     4004     3616     3213     2847     2710 
    2820     3051     3402     3866     4270     4417     4321     4205 
    4297     4689     5304     5891     6142     5942     5548     5374 
    5580     5996     6304     6322     6192     6137     6153     6161 
    6218     6420     6700     6845     6793     6600     6200     5547 
    4741     3924     3295     2955     2762     2462     1898     1224 
     874     1120     1894     3080     4563     6023     7106     7677 
    7677     7053     5946     4750     3942     3651     3570     3392 
    3072     2737     2637     2978     3720     4695     5678     6496 
    7179     7784     8208     8278     7908     7290     6682     6129 
    5705     5536     5525     5563     5626     5611     5441     5151 
    4799     4506     4347     4199     4002     3843     3689     3489 
    3410     3592     3997     4441     4638     4513     4234     3897 
    3569     3387     3391     3484     3499     3388     3284     3281 
    3391     3667     4081     4568     5213     6027     6793     7337 
    7686     7904     7938     7699     7179     6407     5458     4561 
    3963     3680     3547     3538     3850     4475     5055     5441 
    5795     6129     6355     6478     6426     6079     5346     4264 
    3167     2430     2245     2651     3480     4411     5162     5566 
    5656     5647     5682     5684     5495     5192     5030     4924 
    4544     3937     3499     3445     3666     4056     4700     5560 
    6301     6656     6675     6515     6158     5510     4692     3986 
    3581     3546     3832     4276     4738     5130     5451     5788 
    6069     6062     5656     4941     4116     3379     2899     2821 
    3041     3311     3653     4171     4692     5039     5275     5454 
    5529     5485     5351     5161     4912     4649     4468     4411 
    4515     4845     5325     5814     6207     6443     6544     6571 
    6477     6212     5900     5734     5778     5940     6056     5988 
    5771     5528     5310     5097     4843     4499     4059     3543 
    2956     2389     2034     1975     2166     2590     3275     4162 
    5019     5692     6249     6673     6771     6462     5891     5283 
    4779     4426     4267     4248     4187     4043     3950     3981 
    4118     4364     4764     5305     5784     6008     6006     5900 
    5768     5589     5370     5152     4900     4644     4463     4369 
    4452     4747     5077     5300     5336     5175     5009     4992 
    5065     5162     5250     5223     4939     4414     3893     3595 
    3515     3645     4012     4468     4758     4818     4845     5049 
    5362     5580     5692     5832     6008     6103     6035     5787 
    5351     4807     4403     4266     4216     4168     4307     4750 
    5355     5827     5956     5740     5324     4909     4677     4637 
    4679     4741     4769     4677     4392     3923     3484     3370 
    3623     4009     4365     4742     5188     5580     5749     5732 
    5703     5695     5647     5570     5458     5217     4881     4650 
    4600     4665     4815     5007     5148     5228     5248     5119 
    4791     4357     4002     3846     3878     4087     4536     5163 
    5722     6029     6072     5915     5610     5152     4646     4361 
    4360     4372     4256     4159     4182     4249     4291     4293 
    4249     4206     4279     4488     4707     4892     5128     5443 
    5763     6023     6234     6389     6347     5953     5340     4766 
    4271     3855     3707     3944     4444     4984     5383     5563 
    5509     5312     5154     5112     5146     5232     5305     5232 
    4946     4491     4039     3781     3813     4190     4818     5445 
    5933     6226     6176     5724     5023     4307     3716     3252 
    2922     2830     3014     3404     3952     4617     5271     5779 
    6083     6208     6195     6065     5883     5644     5275     4900 
    4733     4760     4799     4764     4702     4680     4730     4838 
    4993     5134     5159     5113     5166     5305     5350     5270 
    5157     4972     4673     4430     4320     4167     3931     3788 
    3821     4029     4409     4908     5422     5830     6039     6015 
    5730     5192     4546     4040     3828     3923     4298     4896 
    5489     5787     5756     5540     5221     4885     4704     4792 
