Origin Time       2024/06/23 22:54:00
Lat.              35.645
Long.             140.060
Depth. (km)       72
Mag.              4.1
Station Code      CHB019
Station Lat.      35.1106
Station Long.     139.8360
Station Height(m) 5
Record Time       2024/06/23 22:54:49
Sampling Freq(Hz) 100Hz
Duration Time(s)  63
Dir.              N-S
Scale Factor      7845(gal)/8223790
Max. Acc. (gal)   2.618
Last Correction   2024/06/23 22:54:48
Memo.             
[...]
    3840     3842     3840     3834     3835     3838     3838     3843 
    3843     3834     3827     3829     3834     3834     3834     3840 
    3843     3836     3834     3839     3840     3836     3835     3839 
    3836     3836     3838     3834     3835     3844     3844     3840 
    3842     3846     3847     3842     3838     3842     3843     3844 
    3847     3842     3839     3847     3848     3842     3840     3843 
    3844     3850     3852     3846     3844     3844     3844     3847 
    3848     3847     3848     3847     3847     3847     3842     3842 
    3846     3850     3851     3848     3844     3843     3842     3844 
    3848     3847     3840     3836     3842     3846     3846     3847 
    3848     3844     3840     3843     3846     3842     3840     3843 
    3843     3839     3835     3839     3840     3836     3839     3843 
    3840     3839     3838     3836     3843     3840     3834     3839 
    3843     3834     3832     3839     3838     3836     3839     3838 
    3835     3836     3839     3836     3835     3840     3844     3843 
    3842     3846     3852     3847     3836     3835     3834     3827 
    3824     3823     3827     3840     3848     3848     3854     3861 
    3865     3865     3852     3834     3821     3815     3816     3820 
    3827     3850     3871     3879     3889     3881     3851     3834 
    3820     3801     3792     3785     3777     3781     3793     3816 
    3858     3902     3935     3950     3933     3885     3820     3769 
    3747     3747     3753     3775     3827     3867     3875     3874 
    3881     3883     3878     3871     3873     3896     3919     3910 
    3885     3858     3804     3724     3684     3721     3782     3796 
    3777     3784     3802     3824     3886     3996     4094     4114 
    4039     3932     3843     3740     3639     3609     3663     3742 
    3797     3839     3881     3896     3878     3856     3843     3825 
    3815     3844     3902     3913     3861     3816     3821     3828 
    3797     3773     3821     3904     3933     3915     3901     3900 
    3873     3825     3805     3809     3798     3773     3755     3757 
    3784     3827     3879     3929     3954     3951     3932     3888 
    3827     3785     3786     3805     3786     3750     3761     3813 
    3836     3808     3780     3802     3859     3900     3929     3956 
    3952     3912     3850     3805     3828     3879     3878     3831 
    3788     3778     3801     3809     3784     3804     3892     3962 
    3970     3920     3836     3777     3784     3839     3883     3855 
    3766     3693     3676     3726     3812     3862     3866     3875 
    3905     3906     3861     3802     3770     3759     3769     3816 
    3867     3873     3854     3889     3991     4078     4079     3991 
    3855     3739     3655     3566     3504     3551     3704     3894 
    4064     4162     4137     4013     3888     3836     3859     3904 
    3908     3869     3831     3823     3840     3848     3825     3804 
    3811     3825     3820     3777     3717     3686     3726     3793 
    3815     3790     3753     3694     3634     3626     3673     3743 
    3842     3954     4028     4047     4025     3987     3966     3969 
    3970     3962     3933     3871     3797     3738     3701     3709 
    3765     3797     3771     3735     3724     3738     3773     3836 
    3939     4056     4120     4085     4004     3942     3865     3750 
    3658     3615     3599     3628     3735     3901     4058     4139 
    4135     4068     3958     3846     3781     3765     3758     3717 
    3645     3585     3572     3589     3649     3766     3931     4105 
    4217     4209     4109     3978     3863     3802     3805     3848 
    3892     3893     3824     3689     3531     3437     3470     3623 
    3821     3982     4075     4131     4172     4186     4149     4070 
    3969     3839     3680     3531     3443     3431     3480     3573 
    3705     3824     3879     3904     3944     3979     3970     3935 
    3917     3933     3960     3981     3977     3931     3843     3754 
    3711     3724     3767     3821     3877     3916     3937     3948 
    3948     3947     3928     3861     3735     3589     3477     3457 
    3546     3704     3848     3933     3970     4004     4054     4071 
    4036     3989     3952     3919     3886     3847     3797     3765 
    3767     3784     3809     3827     3827     3829     3865     3925 
    3985     3993     3931     3838     3761     3711     3681     3681 
    3721     3781     3820     3829     3823     3789     3753     3774 
    3854     3915     3900     3820     3755     3761     3823     3897 
    3977     4051     4060     3974     3866     3819     3840     3871 
    3840     3735     3626     3585     3634     3739     3879     4048 
    4171     4170     4068     3952     3863     3793     3721     3646 
    3591     3574     3595     3654     3732     3790     3815     3836 
    3874     3925     4000     4079     4097     4039     3975     3925 
    3847     3743     3674     3693     3775     3858     3890     3862 
    3816     3821     3870     3896     3890     3886     3888     3892 
    3885     3850     3792     3743     3730     3751     3775     3804 
    3867     3963     4054     4097     4078     4037     4013     3990 
    3936     3847     3738     3635     3546     3449     3361     3361 
    3477     3635     3766     3869     3951     4005     4014     3970 
    3910     3885     3893     3898     3886     3878     3879     3862 
    3820     3811     3847     3869     3850     3827     3811     3794 
    3793     3796     3804     3848     3942     4067     4187     4228 
    4147     3981     3816     3704     3659     3673     3703     3703 
    3681     3682     3716     3736     3716     3694     3727     3807 
    3875     3928     3982     4018     4006     3964     3929     3879 
    3796     3728     3719     3740     3761     3786     3828     3882 
    3927     3970     4035     4094     4099     4035     3927     3815 
    3721     3672     3674     3707     3734     3742     3736     3740 
    3761     3782     3805     3843     3882     3901     3878     3825 
    3800     3808     3798     3759     3736     3748     3773     3813 
    3879     3946     3978     3987     4002     4016     3985     3889 
    3780     3709     3689     3713     3769     3854     3971     4099 
    4194     4209     4122     3970     3813     3705     3663     3662 
    3700     3800     3912     3954     3919     3846     3765     3697 
    3654     3649     3693     3754     3765     3707     3643     3623 
    3649     3724     3831     3888     3836     3757     3736     3754 
    3751     3739     3774     3874     4006     4132     4225     4272 
    4271     4205     4075     3921     3798     3738     3740     3780 
    3824     3848     3829     3774     3712     3658     3626     3651 
    3747     3871     3958     3958     3875     3773     3713     3717 
    3778     3859     3915     3929     3904     3856     3804     3759 
    3734     3731     3759     3829     3905     3946     3964     3990 
    4001     3975     3928     3875     3825     3790     3769     3742 
    3726     3767     3859     3937     3998     4058     4083     4045 
    3959     3859     3766     3682     3608     3550     3523     3561 
    3673     3834     3983     4066     4062     4000     3921     3847 
    3755     3638     3514     3426     3443     3615     3874     4077 
    4149     4120     4032     3923     3825     3767     3740     3724 
    3723     3755     3804     3831     3829     3851     3913     3974 
    4002     4000     3985     4013     4085     4109     4017     3865 
    3759     3720     3686     3632     3595     3600     3632     3653 
    3630     3624     3735     3929     4083     4145     4137     4083 
    3996     3889     3789     3704     3624     3549     3487     3466 
    3512     3618     3754     3908     4090     4286     4449     4518 
    4461     4314     4141     4006     3950     3947     3929     3859 
    3738     3591     3476     3446     3505     3611     3705     3777 
    3859     3963     4051     4078     4031     3925     3790     3655 
    3535     3443     3403     3446     3539     3611     3643     3690 
    3815     4009     4182     4240     4180     4067     3931     3775 
    3657     3623     3658     3726     3800     3839     3819     3770 
    3753     3770     3798     3839     3898     3967     4040     4102 
    4117     4055     3931     3796     3696     3646     3650     3689 
    3735     3784     3839     3890     3944     4024     4118     4186 
    4185     4117     4039     3964     3874     3775     3680     3580 
    3495     3478     3574     3757     3936     4058     4114     4124 
    4095     4024     3906     3757     3613     3522     3515     3613 
    3781     3935     4033     4058     3993     3865     3754     3720 
    3738     3762     3797     3839     3842     3816     3794     3777 
    3738     3689     3682     3735     3807     3858     3902     3946 
    3946     3883     3820     3805     3848     3927     4006     4077 
    4101     4036     3889     3734     3622     3551     3523     3569 
    3682     3805     3898     3973     4048     4124     4171     4166 
    4101     3979     3825     3673     3564     3514     3495     3470 
    3449     3445     3464     3527     3642     3792     3943     4072 
    4160     4194     4185     4176     4189     4198     4186     4156 
    4114     4044     3950     3836     3709     3593     3515     3495 
    3539     3635     3753     3867     3973     4064     4121     4110 
    4033     3942     3881     3858     3848     3808     3726     3636 
    3585     3597     3670     3771     3881     3971     4008     3978 
    3898     3782     3657     3566     3543     3578     3622     3628 
    3616     3627     3682     3784     3893     3991     4090     4178 
    4221     4194     4102     3989     3888     3798     3723     3672 
    3658     3678     3711     3758     3838     3944     4032     4072 
    4094     4126     4151     4148     4125     4094     4037     3916 
    3736     3566     3456     3392     3358     3338     3346     3430 
    3599     3813     4040     4234     4338     4340     4264     4124 
    3954     3793     3667     3592     3569     3580     3589     3580 
    3585     3667     3855     4097     4303     4402     4374     4226 
    4008     3781     3597     3450     3292     3098     2907     2787 
    2760     2820     2961     3141     3308     3468     3638     3824 
    4017     4198     4357     4498     4610     4680     4742     4849 
    5027     5231     5379     5429     5391     5275     5077     4808 
    4503     4189     3897     3676     3527     3423     3352     3296 
    3222     3129     3080     3115     3196     3242     3229     3191 
    3157     3156     3222     3356     3510     3655     3792     3915 
    4028     4156     4288     4345     4256     4018     3707     3404 
    3165     3040     3051     3163     3325     3510     3715     3950 
    4171     4309     4318     4195     3970     3709     3481     3339 
    3327     3431     3573     3708     3866     4081     4344     4602 
    4788     4838     4695     4353     3879     3350     2821     2347 
    1977     1748     1683     1792     2083     2550     3150     3809 
    4448     4997     5406     5648     5734     5730     5697     5645 
    5571     5463     5293     5063     4816     4585     4351     4055 
    3654     3156     2625     2143     1779     1601     1655     1926 
    2381     2972     3599     4167     4633     4982     5219     5350 
    5382     5347     5260     5109     4900     4681     4523     4467 
    4482     4504     4509     4495     4449     4356     4221     4033 
    3757     3353     2820     2228     1702     1343     1202     1293 
    1578     1995     2501     3041     3542     3966     4315     4606 
    4835     5012     5148     5240     5259     5200     5081     4911 
    4706     4480     4247     4029     3865     3773     3761     3817 
    3928     4066     4174     4187     4081     3873     3612     3354 
    3142     2991     2901     2862     2870     2918     2984     3032 
    3051     3044     3032     3068     3202     3416     3640     3792 
    3819     3697     3435     3106     2841     2732     2774     2914 
    3113     3346     3612     3925     4278     4599     4792     4814 
    4714     4577     4459     4386     4375     4405     4410     4361 
    4288     4243     4240     4261     4288     4305     4291     4243 
    4195     4191     4248     4353     4455     4483     4398     4222 
    4028     3889     3871     3994     4228     4522     4823     5066 
    5197     5178     4989     4627     4125     3572     3061     2666 
    2439     2390     2506     2782     3169     3565     3874     4043 
    4064     3966     3807     3677     3645     3731     3933     4194 
    4415     4533     4509     4318     3986     3578     3159     2793 
    2532     2396     2390     2521     2789     3177     3663     4203 
    4734     5182     5474     5544     5346     4870     4209     3499 
    2836     2272     1860     1620     1541     1620     1863     2280 
    2867     3566     4286     4905     5304     5394     5139     4579 
    3852     3138     2593     2340     2438     2862     3549     4376 
    5196     5888     6369     6585     6528     6247     5841     5408 
    4977     4537     4094     3676     3308     3003     2731     2466 
    2234     2081     2038     2131     2380     2771     3258     3747 
    4129     4341     4383     4321     4234     4176     4155     4152 
    4171     4209     4225     4172     4048     3900     3788     3751 
    3786     3821     3785     3666     3514     3412     3439     3600 
    3827     4014     4082     4017     3858     3674     3554     3542 
    3640     3823     4021     4191     4322     4392     4390     4321 
    4203     4060     3931     3854     3838     3855     3865     3861 
    3850     3819     3775     3746     3740     3769     3859     4021 
    4233     4441     4579     4599     4500     4321     4112     3910 
    3744     3661     3689     3817     3991     4140     4206     4162 
    4014     3807     3596     3411     3241     3078     2911     2740 
    2581     2485     2512     2671     2924     3225     3504     3670 
    3699     3613     3456     3295     3180     3130     3156     3234 
    3314     3384     3470     3574     3716     3942     4263     4639 
    5007     5290     5439     5474     5452     5417     5389     5354 
    5293     5205     5085     4943     4806     4661     4475     4225 
    3906     3541     3186     2898     2725     2694     2798     3015 
    3304     3585     3771     3789     3639     3392     3133     2928 
    2798     2721     2681     2677     2710     2782     2886     3010 
    3160     3350     3578     3825     4086     4342     4564     4726 
    4834     4916     5001     5086     5154     5189     5184     5125 
    4976     4700     4321     3894     3489     3150     2886     2706 
    2617     2594     2606     2641     2694     2762     2849     2972 
    3130     3304     3487     3676     3851     4010     4149     4263 
    4348     4405     4430     4442     4455     4490     4565     4662 
    4756     4849     4927     4961     4947     4878     4745     4556 
    4329     4081     3839     3634     3491     3419     3420     3495 
    3623     3771     3894     3958     3964     3921     3827     3693 
    3547     3429     3366     3380     3474     3622     3777     3897 
    3943     3896     3765     3572     3388     3288     3296     3392 
    3535     3678     3797     3882     3932     3958     3958     3927 
    3854     3719     3519     3304     3130     3040     3056     3157 
    3303     3461     3600     3707     3794     3877     3950     4008 
    4031     4001     3917     3820     3750     3709     3685     3690 
    3738     3827     3948     4112     4328     4572     4796     4949 
    4993     4909     4703     4429     4170     3975     3840     3755 
    3704     3659     3605     3551     3499     3454     3435     3443 
    3446     3397     3294     3176     3087     3056     3100     3227 
    3434     3700     3998     4291     4517     4617     4579     4428 
    4205     3959     3753     3611     3526     3491     3505     3569 
    3681     3828     4001     4186     4355     4506     4656     4795 
    4892     4918     4855     4707     4482     4205     3912     3654 
    3477     3389     3380     3435     3526     3626     3708     3762 
    3804     3855     3925     4008     4058     4037     3956     3847 
    3736     3647     3600     3609     3665     3730     3766     3774 
    3771     3767     3785     3834     3885     3902     3869     3784 
    3634     3423     3176     2918     2686     2517     2419     2388 
    2438     2567     2752     2982     3258     3578     3935     4309 
    4658     4945     5131     5190     5105     4878     4542     4151 
    3754     3397     3132     2979     2940     3011     3186     3429 
    3705     3990     4264     4511     4723     4887     4996     5047 
    5024     4920     4752     4533     4279     4012     3770     3592 
    3485     3454     3516     3658     3844     4050     4252     4440 
    4590     4658     4627     4511     4329     4101     3862     3661 
    3538     3497     3530     3626     3757     3873     3935     3939 
    3916     3900     3901     3923     3964     4005     4023     3998 
    3929     3827     3689     3527     3358     3207     3090     3015 
    2990     3005     3057     3144     3244     3322     3373     3399 
    3388     3333     3245     3148     3046     2955     2913     2955 
    3087     3289     3527     3759     3958     4129     4291     4436 
    4529     4563     4542     4479     4398     4315     4228     4125 
    4012     3898     3797     3735     3726     3770     3874     4021 
    4182     4326     4418     4445     4418     4342     4237     4140 
    4099     4129     4214     4314     4383     4399     4367     4325 
    4306     4318     4361     4410     4437     4437     4403     4337 
    4240     4095     3900     3662     3396     3114     2843     2620 
    2475     2419     2462     2600     2781     2955     3096     3195 
    3252     3287     3322     3358     3404     3472     3559     3665 
    3798     3959     4126     4283     4421     4526     4604     4658 
    4676     4662     4631     4583     4518     4460     4418     4386 
    4361     4338     4315     4291     4256     4203     4128     4031 
    3904     3746     3557     3343     3134     2971     2875     2845 
    2864     2910     2980     3067     3163     3283     3447     3655 
    3892     4124     4303     4392     4376     4282     4159     4029 
    3889     3763     3681     3645     3659     3701     3744     3796 
    3861     3929     4000     4064     4124     4176     4216     4245 
    4263     4263     4253     4239     4209     4179     4155     4124 
    4083     4033     3973     3902     3832     3762     3699     3631 
    3551     3469     3384     3304     3256     3254     3294     3360 
