Origin Time       2024/06/23 22:54:00
Lat.              35.645
Long.             140.060
Depth. (km)       72
Mag.              4.1
Station Code      CHB021
Station Lat.      34.9078
Station Long.     139.8994
Station Height(m) 9
Record Time       2024/06/23 22:54:52
Sampling Freq(Hz) 100Hz
Duration Time(s)  60
Dir.              N-S
Scale Factor      7845(gal)/8223790
Max. Acc. (gal)   1.974
Last Correction   2024/06/23 22:54:51
Memo.             
[...]
  -10741   -10755   -10737   -10716   -10713   -10728   -10743   -10794 
  -10816   -10690   -10623   -10758   -10817   -10728   -10698   -10723 
  -10758   -10785   -10741   -10693   -10725   -10779   -10760   -10704 
  -10714   -10758   -10756   -10767   -10756   -10704   -10732   -10763 
  -10728   -10732   -10740   -10708   -10717   -10778   -10783   -10731 
  -10717   -10728   -10732   -10737   -10735   -10740   -10756   -10747 
  -10735   -10752   -10736   -10702   -10743   -10770   -10727   -10721 
  -10754   -10747   -10690   -10700   -10810   -10806   -10685   -10656 
  -10741   -10810   -10774   -10685   -10669   -10756   -10824   -10752 
  -10675   -10737   -10766   -10700   -10712   -10766   -10766   -10743 
  -10729   -10760   -10754   -10669   -10713   -10839   -10775   -10662 
  -10698   -10744   -10755   -10766   -10728   -10717   -10763   -10779 
  -10741   -10696   -10704   -10739   -10766   -10795   -10729   -10662 
  -10770   -10824   -10716   -10659   -10710   -10800   -10793   -10700 
  -10710   -10748   -10728   -10740   -10731   -10717   -10777   -10773 
  -10709   -10735   -10748   -10674   -10729   -10848   -10763   -10651 
  -10704   -10767   -10775   -10748   -10690   -10717   -10801   -10751 
  -10671   -10721   -10766   -10732   -10724   -10735   -10714   -10732 
  -10782   -10739   -10696   -10759   -10771   -10716   -10736   -10760 
  -10729   -10737   -10758   -10719   -10735   -10800   -10735   -10662 
  -10747   -10802   -10723   -10670   -10716   -10787   -10791   -10724 
  -10648   -10690   -10848   -10832   -10654   -10673   -10818   -10802 
  -10693   -10666   -10731   -10812   -10798   -10700   -10686   -10771 
  -10781   -10716   -10698   -10721   -10731   -10756   -10764   -10706 
  -10689   -10755   -10800   -10762   -10702   -10710   -10762   -10768 
  -10728   -10721   -10755   -10737   -10731   -10779   -10764   -10708 
  -10674   -10702   -10801   -10791   -10674   -10685   -10781   -10795 
  -10736   -10669   -10694   -10800   -10813   -10700   -10631   -10743 
  -10864   -10782   -10667   -10694   -10773   -10808   -10740   -10659 
  -10701   -10774   -10785   -10748   -10694   -10714   -10766   -10755 
  -10740   -10720   -10701   -10763   -10802   -10720   -10683   -10735 
  -10759   -10777   -10789   -10732   -10673   -10727   -10793   -10733 
  -10675   -10725   -10789   -10783   -10709   -10654   -10727   -10837 
  -10791   -10662   -10671   -10764   -10786   -10773   -10748   -10723 
  -10737   -10743   -10744   -10764   -10754   -10714   -10696   -10724 
  -10770   -10731   -10670   -10713   -10762   -10737   -10710   -10710 
  -10736   -10783   -10783   -10713   -10727   -10867   -10852   -10673 
  -10648   -10736   -10741   -10736   -10732   -10690   -10712   -10789 
  -10798   -10762   -10716   -10670   -10692   -10732   -10717   -10720 
  -10782   -10793   -10716   -10651   -10656   -10739   -10790   -10709 
  -10701   -10832   -10851   -10789   -10771   -10732   -10727   -10762 
  -10767   -10797   -10766   -10666   -10693   -10786   -10758   -10642 
  -10569   -10588   -10696   -10859   -10935   -10821   -10679   -10660 
  -10665   -10651   -10697   -10783   -10874   -10901   -10768   -10602 
  -10666   -10859   -10827   -10669   -10655   -10701   -10737   -10779 
  -10752   -10737   -10800   -10777   -10652   -10639   -10759   -10801 
  -10705   -10708   -10813   -10731   -10535   -10579   -10827   -10953 
  -10881   -10777   -10750   -10736   -10671   -10666   -10785   -10841 
  -10750   -10639   -10615   -10720   -10866   -10876   -10793   -10724 
  -10625   -10516   -10559   -10787   -10995   -11044   -10949   -10714 
  -10436   -10351   -10542   -10827   -10957   -10887   -10766   -10693 
  -10624   -10539   -10621   -10959   -11168   -10932   -10566   -10462 
  -10605   -10860   -11068   -11011   -10696   -10386   -10359   -10636 
  -10897   -10885   -10771   -10744   -10710   -10658   -10671   -10777 
  -10910   -10918   -10805   -10713   -10620   -10523   -10575   -10714 
  -10755   -10786   -10895   -10925   -10829   -10750   -10693   -10627 
  -10675   -10836   -10876   -10739   -10597   -10565   -10605   -10670 
  -10755   -10822   -10837   -10821   -10804   -10786   -10755   -10739 
  -10786   -10837   -10763   -10600   -10497   -10482   -10508   -10616 
  -10871   -11128   -11124   -10876   -10648   -10605   -10713   -10816 
  -10812   -10758   -10689   -10598   -10551   -10544   -10561   -10717 
  -10998   -11102   -10902   -10670   -10596   -10606   -10692   -10806 
  -10810   -10737   -10655   -10601   -10677   -10791   -10856   -10945 
  -10966   -10793   -10535   -10408   -10540   -10790   -10925   -10936 
  -10881   -10721   -10498   -10432   -10644   -10975   -11121   -10953 
  -10665   -10515   -10544   -10646   -10785   -10883   -10828   -10697 
  -10617   -10640   -10740   -10837   -10922   -10912   -10747   -10623 
  -10656   -10723   -10778   -10794   -10656   -10554   -10658   -10679 
  -10592   -10674   -10905   -11101   -11109   -10897   -10646   -10515 
  -10584   -10785   -10844   -10692   -10570   -10558   -10598   -10741 
  -10881   -10824   -10639   -10504   -10559   -10840   -11082   -11025 
  -10805   -10669   -10621   -10629   -10735   -10836   -10841   -10802 
  -10736   -10669   -10686   -10690   -10619   -10639   -10746   -10818 
  -10918   -10947   -10744   -10548   -10655   -10883   -10855   -10550 
  -10354   -10516   -10864   -11055   -10974   -10825   -10710   -10567 
  -10555   -10786   -10956   -10864   -10735   -10733   -10760   -10678 
  -10539   -10547   -10716   -10864   -10897   -10835   -10774   -10748 
  -10713   -10704   -10777   -10812   -10693   -10525   -10485   -10582 
  -10712   -10881   -10998   -10855   -10662   -10717   -10859   -10872 
  -10750   -10625   -10697   -10812   -10704   -10569   -10619   -10713 
  -10786   -10845   -10827   -10751   -10669   -10627   -10720   -10854 
  -10851   -10800   -10790   -10751   -10705   -10663   -10592   -10625 
  -10777   -10852   -10824   -10760   -10659   -10600   -10689   -10835 
  -10866   -10809   -10809   -10820   -10704   -10542   -10505   -10582 
  -10714   -10882   -10978   -10912   -10755   -10655   -10652   -10720 
  -10833   -10843   -10638   -10453   -10554   -10840   -11043   -11018 
  -10777   -10577   -10644   -10794   -10824   -10785   -10721   -10647 
  -10593   -10606   -10696   -10762   -10762   -10737   -10698   -10687 
  -10762   -10878   -10943   -10851   -10621   -10517   -10644   -10774 
  -10790   -10785   -10789   -10774   -10729   -10712   -10748   -10763 
  -10786   -10818   -10790   -10758   -10696   -10557   -10509   -10617 
  -10724   -10764   -10773   -10758   -10727   -10735   -10801   -10858 
  -10876   -10890   -10908   -10854   -10659   -10497   -10559   -10720 
  -10817   -10791   -10636   -10542   -10665   -10871   -10993   -10983 
  -10806   -10505   -10338   -10517   -10894   -11101   -10943   -10633 
  -10494   -10534   -10662   -10835   -10932   -10948   -10916   -10760 
  -10597   -10656   -10856   -10908   -10759   -10592   -10516   -10528 
  -10594   -10675   -10706   -10677   -10690   -10839   -11010   -11007 
  -10855   -10760   -10766   -10723   -10598   -10523   -10594   -10768 
  -10890   -10874   -10808   -10777   -10758   -10735   -10719   -10659 
  -10546   -10481   -10531   -10696   -10930   -11088   -11048   -10843 
  -10615   -10498   -10527   -10627   -10720   -10802   -10906   -11005 
  -11014   -10883   -10687   -10550   -10485   -10517   -10660   -10768 
  -10773   -10759   -10778   -10813   -10813   -10723   -10597   -10589 
  -10710   -10844   -10945   -10929   -10778   -10674   -10717   -10816 
  -10781   -10581   -10505   -10666   -10798   -10791   -10709   -10629 
  -10642   -10689   -10693   -10725   -10798   -10870   -10962   -11043 
  -10955   -10717   -10561   -10581   -10716   -10818   -10813   -10760 
  -10636   -10496   -10504   -10605   -10667   -10690   -10721   -10813 
  -10908   -10854   -10736   -10787   -10920   -10898   -10741   -10569 
  -10504   -10642   -10827   -10858   -10800   -10759   -10756   -10794 
  -10812   -10774   -10709   -10656   -10659   -10694   -10701   -10670 
  -10627   -10633   -10721   -10836   -10895   -10867   -10795   -10760 
  -10795   -10903   -10968   -10818   -10577   -10520   -10617   -10686 
  -10678   -10646   -10682   -10778   -10806   -10762   -10773   -10818 
  -10794   -10771   -10764   -10679   -10579   -10555   -10655   -10829 
  -10872   -10763   -10673   -10662   -10741   -10882   -10941   -10848 
  -10704   -10674   -10709   -10652   -10638   -10795   -10930   -10879 
  -10705   -10544   -10509   -10602   -10716   -10759   -10775   -10814 
  -10801   -10690   -10640   -10822   -11047   -10990   -10724   -10513 
  -10478   -10621   -10768   -10794   -10798   -10817   -10778   -10737 
  -10805   -10897   -10849   -10709   -10601   -10532   -10539   -10692 
  -10905   -10998   -10929   -10787   -10619   -10484   -10501   -10652 
  -10754   -10767   -10808   -10855   -10825   -10802   -10805   -10701 
  -10579   -10621   -10770   -10878   -10924   -10943   -10903   -10779 
  -10628   -10523   -10511   -10601   -10728   -10813   -10798   -10679 
  -10590   -10631   -10732   -10831   -10899   -10833   -10673   -10636 
  -10751   -10893   -10943   -10791   -10562   -10513   -10638   -10805 
  -10947   -10959   -10866   -10795   -10721   -10628   -10619   -10644 
  -10646   -10692   -10713   -10638   -10561   -10531   -10606   -10841 
  -11055   -11051   -10903   -10770   -10683   -10663   -10736   -10824 
  -10802   -10673   -10565   -10548   -10632   -10839   -11044   -11052 
  -10860   -10601   -10434   -10484   -10681   -10856   -10910   -10778 
  -10540   -10446   -10596   -10883   -11106   -11040   -10793   -10658 
  -10596   -10542   -10651   -10854   -10908   -10795   -10624   -10485 
  -10527   -10752   -10897   -10898   -10902   -10879   -10793   -10714 
  -10705   -10752   -10740   -10732   -10860   -10887   -10692   -10521 
  -10497   -10619   -10804   -10859   -10793   -10723   -10669   -10666 
  -10677   -10639   -10663   -10767   -10810   -10793   -10777   -10729 
  -10666   -10673   -10743   -10839   -10936   -10933   -10809   -10670 
  -10623   -10687   -10798   -10879   -10879   -10797   -10720   -10687 
  -10647   -10623   -10609   -10552   -10578   -10747   -10851   -10752 
  -10558   -10497   -10704   -10941   -10939   -10766   -10613   -10628 
  -10829   -10983   -10966   -10893   -10840   -10824   -10855   -10814 
  -10675   -10613   -10592   -10524   -10559   -10701   -10766   -10701 
  -10540   -10470   -10686   -10995   -11082   -10871   -10552   -10478 
  -10700   -10916   -10972   -10878   -10689   -10550   -10596   -10822 
  -11068   -11107   -10851   -10558   -10569   -10872   -11097   -10889 
  -10470   -10318   -10389   -10528   -10787   -10983   -10882   -10616 
  -10476   -10589   -10783   -10801   -10708   -10739   -10814   -10774 
  -10759   -10829   -10898   -10960   -10887   -10665   -10538   -10604 
  -10787   -10926   -10879   -10717   -10584   -10557   -10650   -10766 
  -10777   -10658   -10519   -10474   -10602   -10879   -11079   -11052 
  -10895   -10689   -10494   -10517   -10849   -11145   -11043   -10662 
  -10386   -10442   -10712   -10935   -10957   -10770   -10588   -10624 
  -10747   -10797   -10827   -10782   -10608   -10520   -10640   -10817 
  -10889   -10812   -10763   -10864   -10905   -10779   -10669   -10682 
  -10747   -10773   -10714   -10543   -10428   -10536   -10682   -10748 
  -10805   -10851   -10879   -10816   -10689   -10729   -10827   -10760 
  -10694   -10744   -10841   -10932   -10910   -10789   -10758   -10759 
  -10627   -10516   -10588   -10687   -10627   -10562   -10750   -10949 
  -10785   -10485   -10519   -10845   -11033   -10936   -10790   -10808 
  -10926   -10863   -10597   -10544   -10813   -11007   -10953   -10818 
  -10674   -10505   -10417   -10542   -10808   -10970   -10852   -10535 
  -10300   -10361   -10646   -10908   -10967   -10816   -10639   -10646 
  -10758   -10874   -11040   -11114   -10960   -10693   -10494   -10473 
  -10596   -10764   -10885   -10912   -10858   -10697   -10540   -10588 
  -10708   -10667   -10574   -10582   -10594   -10596   -10697   -10837 
  -10864   -10770   -10685   -10735   -10847   -10863   -10822   -10849 
  -10866   -10754   -10616   -10639   -10782   -10866   -10840   -10760 
  -10686   -10619   -10515   -10442   -10539   -10746   -10891   -10980 
  -11013   -10916   -10763   -10687   -10748   -10845   -10786   -10606 
  -10520   -10654   -10917   -11009   -10909   -10852   -10808   -10804 
  -10956   -11009   -10847   -10708   -10635   -10562   -10477   -10463 
  -10636   -10797   -10732   -10557   -10430   -10451   -10617   -10720 
  -10629   -10471   -10420   -10455   -10512   -10648   -10816   -10849 
  -10758   -10701   -10805   -11061   -11333   -11460   -11368   -11155 
  -10989   -10939   -10956   -10982   -10968   -10739   -10261    -9936 
  -10061   -10390   -10504   -10318   -10173   -10301   -10470   -10525 
  -10619   -10758   -10920   -11068   -10952   -10673   -10667   -10909 
  -11087   -11191   -11225   -11140   -11121   -11169   -11092   -11053 
  -11168   -11268   -11329   -11342   -11136   -10709   -10228    -9872 
   -9811    -9883    -9811    -9709    -9752    -9894   -10096   -10328 
  -10546   -10899   -11484   -11997   -12124   -11923   -11604   -11345 
  -11253   -11222   -11061   -10767   -10324    -9813    -9607    -9829 
  -10196   -10509   -10791   -11176   -11596   -11824   -11904   -11921 
  -11665   -10944    -9921    -9059    -8669    -8711    -9001    -9397 
   -9913   -10567   -11246   -11821   -12108   -12005   -11680   -11358 
  -11114   -10864   -10547   -10234   -10077   -10069    -9996    -9953 
  -10324   -11001   -11446   -11468   -11335   -11308   -11362   -11325 
  -11142   -10936   -10767   -10525   -10280   -10254   -10496   -10943 
  -11237   -11006   -10554   -10245   -10084   -10180   -10493   -10725 
  -10858   -11051   -11256   -11335   -11329   -11395   -11481   -11352 
  -10966   -10577   -10351   -10220   -10172   -10206   -10203   -10187 
  -10250   -10355   -10498   -10648   -10613   -10386   -10276   -10450 
  -10787   -11118   -11263   -11160   -10921   -10755   -10909   -11248 
  -11385   -11276   -11016   -10693   -10490   -10442   -10404   -10354 
  -10466   -10822   -11130   -10999   -10461    -9984    -9964   -10347 
  -10794   -11105   -11250   -11215   -11071   -10955   -10925   -10886 
  -10696   -10357   -10079   -10241   -10902   -11514   -11631   -11292 
  -10816   -10596   -10708   -10820   -10669   -10359   -10164   -10152 
  -10200   -10235   -10242   -10251   -10376   -10736   -11252   -11592 
  -11623   -11558   -11433   -11140   -10771   -10403   -10153   -10253 
  -10602   -10844   -10798   -10530   -10328   -10401   -10605   -10801 
  -10959   -11002   -10979   -10953   -10893   -10921   -11075   -11134 
  -10951   -10471    -9913    -9805   -10266   -10863   -11211   -11168 
  -10851   -10590   -10539   -10677   -11029   -11391   -11399   -11044 
  -10592   -10278   -10162   -10146   -10335   -10814   -11229   -11234 
  -10831   -10299   -10050   -10278   -10781   -11184   -11275   -11036 
  -10635   -10309   -10125   -10142   -10439   -10764   -10876   -10893 
  -10975   -11184   -11429   -11457   -11273   -11126   -11121   -11178 
  -11161   -10910   -10393    -9883    -9679    -9848   -10250   -10604 
  -10771   -10797   -10735   -10741   -10872   -11018   -11151   -11151 
  -10936   -10662   -10478   -10509   -10744   -10918   -10843   -10592 
  -10357   -10268   -10319   -10462   -10666   -10883   -11090   -11298 
  -11421   -11327   -11045   -10724   -10368   -10025    -9969   -10239 
  -10667   -11163   -11465   -11352   -10983   -10654   -10517   -10532 
  -10573   -10566   -10590   -10739   -10897   -10957   -10894   -10648 
  -10349   -10215   -10276   -10562   -11053   -11435   -11442   -11074 
  -10573   -10315   -10341   -10355   -10355   -10566   -10862   -10983 
  -10922   -10828   -10922   -11163   -11145   -10806   -10490   -10349 
  -10384   -10609   -10890   -10980   -10750   -10480   -10590   -11025 
  -11361   -11257   -10733   -10218   -10085   -10319   -10654   -10833 
  -10818   -10714   -10675   -10837   -11074   -11140   -11006   -10817 
  -10700   -10698   -10713   -10613   -10546   -10666   -10747   -10625 
  -10507   -10608   -10903   -11125   -11094   -10957   -10916   -10912 
  -10706   -10261    -9884    -9882   -10284   -10848   -11244   -11307 
  -11072   -10755   -10651   -10800   -10986   -11033   -10863   -10612 
  -10578   -10794   -11030   -11122   -10952   -10527   -10154   -10130 
  -10407   -10764   -11001   -10989   -10790   -10631   -10683   -10871 
  -10885   -10592   -10272   -10247   -10551   -10951   -11151   -11024 
  -10752   -10644   -10782   -10987   -11037   -10864   -10628   -10532 
  -10547   -10539   -10581   -10755   -10960   -11099   -11053   -10778 
  -10601   -10747   -10885   -10793   -10667   -10565   -10454   -10428 
  -10507   -10693   -10924   -11001   -10921   -10885   -10941   -10984 
  -10863   -10519   -10231   -10331   -10700   -11001   -11095   -10991 
  -10790   -10666   -10759   -11053   -11290   -11130   -10570   -10058 
   -9960   -10184   -10496   -10737   -10871   -11002   -11101   -11016 
  -10804   -10601   -10485   -10507   -10569   -10539   -10473   -10459 
  -10544   -10682   -10693   -10619   -10724   -11103   -11565   -11739 
  -11404   -10760   -10282   -10280   -10593   -10835   -10818   -10611 
  -10330   -10111   -10133   -10390   -10656   -10793   -10818   -10774 
  -10809   -11065   -11376   -11476   -11322   -11067   -10917   -10926 
  -10935   -10779   -10534   -10422   -10523   -10777   -11009   -10960 
  -10665   -10420   -10322   -10281   -10278   -10314   -10320   -10328 
  -10505   -10881   -11227   -11291   -11105   -10941   -10930   -11009 
  -11059   -10951   -10677   -10346   -10137   -10273   -10700   -11013 
  -10948   -10647   -10462   -10571   -10806   -10908   -10793   -10577 
  -10454   -10497   -10632   -10793   -10975   -11146   -11254   -11291 
  -11171   -10767   -10219    -9915   -10075   -10571   -11109   -11427 
  -11425   -11209   -10979   -10805   -10639   -10453   -10336   -10311 
  -10216   -10111   -10272   -10655   -10994   -11114   -10984   -10774 
  -10643   -10598   -10677   -10894   -11098   -11141   -11003   -10716 
  -10427   -10336   -10435   -10593   -10791   -11021   -11175   -11164 
  -10932   -10523   -10215   -10250   -10511   -10770   -10918   -10930 
  -10902   -10932   -11007   -11088   -11052   -10882   -10755   -10697 
  -10579   -10392   -10239   -10260   -10447   -10650   -10835   -11065 
  -11280   -11398   -11375   -11132   -10704   -10293   -10021    -9863 
   -9871   -10080   -10428   -10863   -11286   -11538   -11491   -11175 
  -10878   -10790   -10785   -10789   -10813   -10712   -10405   -10120 
  -10147   -10490   -10929   -11238   -11245   -10974   -10682   -10574 
  -10687   -10930   -11037   -10831   -10489   -10376   -10660   -11086 
  -11272   -11101   -10662   -10227   -10122   -10343   -10627   -10771 
  -10744   -10679   -10741   -10939   -11102   -11075   -10889   -10690 
  -10617   -10685   -10751   -10665   -10476   -10374   -10494   -10783 
  -11024   -11036   -10862   -10681   -10620   -10670   -10725   -10677 
  -10524   -10366   -10270   -10301   -10557   -10957   -11234   -11236 
