Origin Time       2024/06/23 22:54:00
Lat.              35.645
Long.             140.060
Depth. (km)       72
Mag.              4.1
Station Code      CHB007
Station Lat.      35.7237
Station Long.     140.2246
Station Height(m) 30
Record Time       2024/06/23 22:54:43
Sampling Freq(Hz) 100Hz
Duration Time(s)  60
Dir.              U-D
Scale Factor      7845(gal)/8223790
Max. Acc. (gal)   2.945
Last Correction   2024/06/23 22:54:43
Memo.             
[...]
   15732    15738    15743    15745    15736    15730    15732    15736 
   15735    15735    15732    15730    15732    15739    15742    15741 
   15736    15736    15739    15732    15727    15730    15728    15730 
   15735    15732    15730    15736    15741    15739    15736    15735 
   15736    15735    15734    15731    15728    15730    15732    15731 
   15731    15736    15739    15731    15727    15734    15736    15735 
   15731    15731    15734    15735    15732    15727    15726    15731 
   15736    15736    15731    15731    15735    15736    15734    15732 
   15735    15741    15741    15738    15731    15723    15724    15730 
   15732    15731    15731    15736    15739    15736    15736    15734 
   15734    15736    15734    15730    15728    15726    15726    15736 
   15741    15735    15735    15735    15732    15734    15735    15734 
   15734    15735    15731    15726    15724    15726    15730    15734 
   15734    15728    15731    15735    15738    15736    15732    15731 
   15735    15734    15728    15730    15732    15735    15735    15727 
   15728    15738    15734    15727    15727    15728    15734    15739 
   15742    15738    15730    15727    15730    15731    15728    15727 
   15731    15734    15736    15738    15731    15731    15738    15739 
   15734    15723    15720    15731    15741    15739    15735    15734 
   15728    15728    15728    15724    15724    15728    15732    15734 
   15734    15738    15743    15742    15735    15726    15723    15730 
   15736    15732    15727    15727    15731    15734    15736    15736 
   15731    15732    15735    15728    15723    15732    15734    15728 
   15730    15731    15731    15735    15734    15731    15734    15738 
   15735    15734    15735    15734    15728    15723    15724    15730 
   15731    15731    15732    15735    15741    15739    15731    15732 
   15735    15731    15730    15727    15727    15735    15739    15734 
   15732    15739    15739    15734    15738    15741    15735    15732 
   15731    15727    15726    15732    15735    15732    15728    15728 
   15732    15735    15732    15731    15730    15732    15735    15734 
   15735    15734    15731    15735    15735    15728    15726    15730 
   15735    15735    15734    15736    15738    15734    15735    15738 
   15735    15731    15726    15726    15731    15736    15735    15735 
   15738    15738    15734    15732    15734    15732    15731    15731 
   15732    15732    15735    15732    15728    15734    15738    15735 
   15734    15731    15732    15738    15739    15735    15736    15736 
   15734    15731    15732    15735    15735    15738    15736    15732 
   15730    15731    15734    15734    15732    15734    15735    15738 
   15741    15739    15735    15735    15735    15731    15727    15728 
   15734    15736    15734    15734    15732    15734    15735    15731 
   15734    15739    15741    15738    15731    15728    15732    15734 
   15731    15734    15739    15739    15738    15741    15739    15734 
   15731    15728    15726    15730    15736    15739    15739    15739 
   15734    15734    15736    15736    15736    15732    15727    15728 
   15732    15738    15738    15731    15731    15731    15728    15728 
   15731    15735    15735    15732    15731    15734    15738    15742 
   15739    15735    15734    15731    15728    15730    15731    15731 
   15731    15727    15727    15736    15743    15746    15753    15770 
   15793    15803    15800    15799    15796    15781    15746    15689 
   15646    15637    15638    15634    15643    15693    15778    15858 
   15919    15965    15984    15952    15885    15830    15823    15817 
   15722    15576    15518    15556    15556    15454    15341    15387 
   15600    15708    15587    15539    15793    16093    16085    15843 
   15805    16141    16394    16114    15601    15412    15493    15363 
   14949    14821    15356    16071    16293    16036    15754    15712 
   15782    15685    15473    15479    15753    15973    15878    15592 
   15534    15905    16335    16335    16006    15844    15900    15711 
   15156    14750    14952    15560    15978    15943    15809    16008 
   16372    16321    15715    15192    15323    15801    15965    15719 
   15472    15615    15992    16035    15813    15844    15958    15788 
   15475    15222    15209    15537    15877    16077    16395    16595 
   16183    15454    15120    15369    15784    15847    15514    15295 
   15537    15862    15824    15627    15642    15889    16139    16067 
   15722    15580    15701    15769    15785    15776    15693    15704 
   15735    15531    15211    15033    15219    15823    16271    16098 
   15851    16128    16632    16687    16093    15365    15114    15275 
   15356    15188    15190    15615    15963    15854    15654    15738 
   16031    16187    15935    15581    15657    15951    15912    15541 
   15217    15201    15543    15982    16092    15772    15394    15433 
   15892    16209    16054    15750    15681    15797    15869    15797 
   15668    15651    15654    15450    15237    15326    15657    16054 
   16348    16295    15931    15585    15426    15450    15618    15811 
   15938    15997    15998    15905    15669    15418    15456    15828 
   16168    16085    15596    15155    15091    15331    15738    16170 
   16409    16371    16116    15781    15604    15622    15538    15228 
   14922    14886    15253    15851    16186    16052    15799    15758 
   15936    16129    16075    15807    15697    15811    15831    15754 
   15820    15979    15989    15665    15101    14827    15240    15878 
   15907    15250    14724    15071    16186    17242    17487    16931 
   16146    15538    15230    15268    15403    15330    15202    15268 
   15487    15804    15971    15701    15391    15533    15951    16333 
   16463    16174    15751    15593    15684    15904    16082    15885 
   15344    14948    14953    15199    15439    15491    15429    15631 
   16249    16889    17057    16617    15805    15066    14791    15025 
   15442    15688    15664    15584    15712    16052    16368    16438 
   16210    15743    15147    14731    14920    15672    16303    16229 
   15660    15380    15801    16339    16194    15569    15245    15477 
   15975    16245    15992    15565    15403    15481    15655    15793 
   15792    15805    15970    16104    15955    15631    15580    15881 
   16027    15755    15411    15446    15897    16150    15722    15202 
   15399    16027    16206    15673    14993    14863    15184    15311 
   15255    15572    16271    16750    16677    16367    16171    15936 
   15516    15269    15473    15805    15749    15201    14764    15205 
   16313    16920    16474    15673    15263    15269    15429    15518 
   15487    15496    15631    15763    15816    15919    16146    16222 
   15909    15426    15276    15816    16571    16471    15483    14764 
   14955    15620    16056    16002    15842    15915    15957    15846 
   15913    16110    16060    15800    15556    15403    15435    15565 
   15419    15044    14975    15407    16090    16673    16857    16671 
   16293    15751    15336    15271    15167    14912    14935    15205 
   15390    15487    15624    15940    16426    16735    16668    16364 
   15970    15677    15534    15356    15218    15341    15499    15303 
   14933    15002    15719    16584    16908    16578    16201    16189 
   16222    16017    15691    15376    15147    14916    14567    14547 
   15298    16187    16302    15824    15552    15824    16352    16567 
   16255    15867    15846    15998    15984    15850    15653    15329 
   15093    15136    15252    15253    15349    15795    16359    16475 
   15947    15268    15148    15685    16208    16123    15676    15611 
   15979    15965    15476    15321    15558    15732    15745    15589 
   15556    15905    16060    15739    15616    15962    16367    16474 
   16044    15361    15111    15261    15330    15368    15606    15934 
   16054    15900    15795    15919    16127    16260    16059    15514 
   15207    15364    15556    15569    15438    15253    15364    15819 
   16159    16225    16182    16077    16036    16038    15813    15604 
   15770    15954    15826    15630    15516    15581    15919    15944 
   15191    14500    14671    15269    15816    16173    16017    15670 
   15840    16227    16244    15996    15691    15572    15804    15909 
   15592    15283    15152    15130    15380    15803    16210    16529 
   16492    16120    15770    15593    15700    16042    16124    15808 
   15518    15411    15322    15094    14729    14746    15692    17128 
   17917    17482    16295    15157    14496    14357    14581    15040 
   15763    16333    16038    15265    15191    15982    16764    16661 
   15639    14820    15184    16133    16336    15564    14832    14914 
   15576    16206    16537    16714    16834    16681    16167    15537 
   15001    14746    14848    15030    15209    15638    16185    16371 
   16032    15518    15421    15970    16660    16783    16175    15263 
   14662    14689    15018    15082    14905    15012    15595    16405 
   17116    17359    16969    16260    15607    15284    15542    16024 
   15943    15236    14597    14589    15248    16067    16391    16182 
   15917    15843    15854    15807    15665    15535    15549    15676 
   15785    15862    15928    15822    15341    14763    14770    15430 
   15948    15849    15601    15790    16337    16644    16362    15940 
   15878    15917    15784    15719    15772    15739    15584    15310 
   15097    15260    15631    15774    15781    15935    16129    16173 
   16048    15876    15907    16078    15897    15318    14817    14648 
   14870    15441    15955    16187    16395    16641    16800    16920 
   16821    16210    15377    14790    14524    14690    15271    15619 
   15350    14959    14947    15394    16063    16464    16426    16193 
   15824    15462    15496    15925    16456    16734    16326    15541 
   15284    15550    15520    14958    14374    14351    15021    16058 
   16983    17253    16699    15916    15546    15653    15940    16075 
   16004    15890    15678    15349    15334    15820    16285    16178 
   15569    15097    15210    15516    15450    15222    15368    15853 
   16236    16305    16096    15714    15433    15480    15689    15793 
   15770    15726    15776    15982    16201    16295    16332    16151 
   15433    14392    13776    14176    15345    16289    16383    15986 
   15813    16224    16873    16997    16440    15831    15637    15730 
   15672    15265    14948    15165    15612    15900    16186    16552 
   16653    16119    15045    14134    13990    14430    14890    15218 
   15696    16395    16976    17232    17282    17199    16875    16140 
   15051    14166    14042    14490    14971    15273    15558    16109 
   16803    17076    16814    16544    16538    16474    15935    14999 
   14310    14339    14821    15171    15157    15033    15175    15626 
   16071    16344    16698    17255    17583    17235    16414    15673 
   15242    14912    14482    14238    14570    15264    15835    16136 
   16131    15865    15718    15912    16131    16100    15975    15990 
   16108    16147    15982    15672    15344    15012    14770    14871 
   15272    15579    15638    15670    15927    16518    17253    17601 
   17154    16097    15059    14355    13857    13760    14492    15738 
   16556    16596    16390    16455    16690    16626    16024    15167 
   14550    14474    14862    15282    15402    15446    15863    16476 
   16540    15916    15326    15304    15790    16391    16621    16437 
   16262    16225    16113    15847    15481    15132    14877    14628 
   14481    14835    15774    16816    17400    17334    16741    15903 
   15238    15028    15021    14837    14584    14644    15203    16070 
   16807    17132    17107    16906    16645    16344    15861    15137 
   14459    14208    14470    14993    15376    15369    15009    14663 
   14901    15884    17004    17532    17379    16915    16430    16023 
   15705    15391    14920    14347    14004    14126    14683    15525 
   16401    16993    17134    16935    16680    16613    16692    16569 
   15998    15236    14781    14875    15318    15623    15525    15375 
   15645    16109    16104    15487    14825    14663    14897    15016 
   14925    14985    15280    15593    15853    16136    16533    17018 
   17250    16929    16416    16333    16661    16899    16671    15994 
   15309    14978    14755    14331    13956    14030    14600    15315 
   15676    15655    15865    16692    17757    18285    17726    16325 
   14925    14058    13802    14148    14925    15819    16552    16884 
   16785    16460    16100    15871    15855    15809    15372    14585 
   13972    14031    14683    15376    15839    16301    16818    17107 
   17026    16681    16278    16002    15822    15527    15178    15086 
   15363    15881    16370    16417    15920    15265    14813    14631 
   14646    14796    15132    15699    16244    16376    16171    16090 
   16275    16459    16401    15975    15233    14519    14145    14135 
   14505    15304    16374    17413    18080    18115    17637    16996 
   16357    15743    15182    14658    14176    13950    14238    14958 
   15728    16216    16390    16522    16776    16924    16695    16151 
   15437    14496    13389    12646    12802    13797    15202    16575 
   17552    18019    18123    18052    17898    17485    16573    15422 
   14542    14061    13872    13898    14087    14567    15344    15990 
   16335    16708    17205    17458    17170    16474    15846    15635 
   15681    15606    15291    14944    14837    15084    15601    16139 
   16409    16339    16097    15778    15367    15060    15140    15500 
   15669    15240    14369    13791    14035    14912    15842    16410 
   16723    17174    17775    18102    17855    17100    16174    15461 
   15141    15198    15543    15927    15903    15344    14659    14301 
   14386    14808    15296    15565    15614    15592    15549    15553 
   15678    15888    16171    16474    16475    15917    15128    14728 
   14909    15410    15994    16534    16841    16810    16528    16208 
   16140    16301    16258    15889    15589    15623    15828    15804 
   15384    14983    15016    15225    15219    15148    15334    15817 
   16335    16528    16272    15730    15068    14527    14462    14951 
   15627    16043    15923    15310    14731    14823    15711    16938 
   17844    18041    17633    16902    16038    15232    14671    14486 
   14682    15028    15199    15132    15101    15427    16102    16718 
   16906    16742    16549    16360    15957    15372    14971    15044 
   15460    15762    15650    15325    15214    15445    15786    15998 
   16087    16147    16140    15985    15701    15414    15265    15271 
   15307    15391    15645    15931    15948    15639    15194    14877 
   14882    15155    15564    16117    16699    17026    16954    16534 
   15994    15687    15716    15886    16019    16006    15826    15570 
   15342    15302    15589    16093    16564    16783    16563    15927 
   15198    14697    14517    14501    14409    14281    14463    15142 
   16005    16532    16521    16208    15939    15861    15857    15770 
   15616    15514    15550    15819    16320    16853    17165    17107 
   16695    16109    15500    14910    14443    14324    14663    15287 
   15846    16129    16218    16255    16267    16217    16009    15553 
   14995    14715    15032    15881    16726    16989    16518    15631 
   14856    14509    14482    14596    14978    15730    16544    16984 
   16934    16668    16395    15952    15249    14613    14419    14756 
   15403    15994    16371    16611    16696    16517    16124    15761 
   15703    15989    16286    16171    15597    14937    14612    14759 
   15221    15749    16139    16287    16182    15909    15581    15233 
   14936    14825    14922    15171    15595    16222    16846    17059 
   16702    16094    15653    15476    15480    15647    15890    15994 
   15865    15606    15458    15635    16055    16357    16213    15633 
   15022    14764    14875    15134    15349    15523    15780    16017 
   15978    15719    15581    15772    16237    16696    16858    16737 
   16495    16039    15210    14311    13953    14436    15476    16456 
   16927    16861    16438    15881    15493    15499    15800    16019 
   15778    15009    14064    13500    13676    14488    15489    16285 
   16731    16842    16721    16567    16502    16422    16146    15657 
   15271    15372    15911    16471    16714    16559    16202    15942 
   15911    16065    16216    16069    15500    14762    14272    14264 
   14611    15064    15492    15763    15743    15529    15423    15693 
   16325    16904    17023    16719    16316    16077    16021    15913 
   15573    15153    14952    15152    15700    16240    16422    16336 
   16214    15963    15427    14783    14353    14318    14585    14814 
   14794    14763    15118    15888    16667    17045    16953    16636 
   16356    16214    16194    16202    16237    16432    16686    16590 
   16004    15295    14852    14694    14596    14449    14430    14710 
   15194    15727    16239    16622    16738    16583    16351    16185 
   15986    15633    15217    15001    15174    15611    15992    16159 
   16150    16015    15855    15854    16027    16137    15992    15689 
   15491    15552    15792    15973    15958    15820    15704    15723 
   15880    16000    15873    15446    14858    14331    14126    14449 
   15186    15903    16328    16494    16511    16518    16592    16629 
   16540    16348    16035    15608    15147    14670    14274    14231 
   14628    15207    15691    16021    16301    16579    16740    16654 
   16380    16077    15799    15534    15369    15410    15587    15724 
   15755    15776    15884    16029    16106    16097    16024    15842 
   15552    15325    15400    15758    16008    15790    15213    14742 
   14747    15176    15680    16050    16330    16567    16657    16483 
   16120    15804    15670    15669    15687    15620    15414    15113 
   14877    14874    15122    15534    16017    16434    16629    16528 
   16170    15765    15576    15650    15827    15938    15855    15583 
   15323    15240    15337    15504    15570    15481    15295    15074 
   14964    15149    15635    16204    16518    16421    16132    15966 
   16002    16087    16002    15766    15658    15753    15815    15757 
   15723    15808    15979    16087    15928    15588    15437    15627 
   15967    16221    16276    16171    15967    15676    15403    15353 
   15481    15453    15121    14700    14478    14646    15161    15722 
   16039    16060    15900    15773    15888    16218    16492    16487 
   16214    15897    15739    15716    15716    15747    15828    15930 
   16067    16248    16340    16128    15565    14905    14499    14476 
   14671    14841    14985    15336    15952    16548    16860    16896 
   16783    16584    16303    15981    15736    15615    15529    15441 
   15399    15425    15483    15537    15579    15597    15514    15313 
