Origin Time       2024/06/23 22:54:00
Lat.              35.645
Long.             140.060
Depth. (km)       72
Mag.              4.1
Station Code      CHB022
Station Lat.      35.3033
Station Long.     139.8555
Station Height(m) 12
Record Time       2024/06/23 22:54:46
Sampling Freq(Hz) 100Hz
Duration Time(s)  60
Dir.              N-S
Scale Factor      7845(gal)/8223790
Max. Acc. (gal)   8.667
Last Correction   2024/06/23 22:54:46
Memo.             
[...]
  -12383   -12380   -12382   -12383   -12382   -12378   -12375   -12374 
  -12370   -12370   -12378   -12382   -12379   -12386   -12388   -12384 
  -12383   -12384   -12379   -12376   -12382   -12383   -12379   -12382 
  -12387   -12390   -12388   -12382   -12379   -12383   -12386   -12384 
  -12383   -12382   -12378   -12378   -12380   -12380   -12382   -12383 
  -12383   -12380   -12379   -12379   -12379   -12382   -12387   -12386 
  -12383   -12382   -12376   -12375   -12376   -12375   -12374   -12374 
  -12372   -12371   -12371   -12372   -12378   -12383   -12380   -12379 
  -12386   -12387   -12383   -12386   -12391   -12388   -12382   -12386 
  -12388   -12380   -12376   -12372   -12370   -12368   -12366   -12366 
  -12367   -12370   -12378   -12382   -12382   -12384   -12384   -12378 
  -12382   -12390   -12387   -12379   -12380   -12386   -12387   -12386 
  -12383   -12379   -12378   -12375   -12374   -12375   -12376   -12376 
  -12380   -12380   -12375   -12375   -12382   -12391   -12388   -12388 
  -12393   -12387   -12387   -12391   -12382   -12376   -12380   -12376 
  -12372   -12380   -12386   -12379   -12374   -12379   -12379   -12372 
  -12375   -12387   -12388   -12386   -12390   -12384   -12378   -12383 
  -12387   -12387   -12387   -12384   -12383   -12383   -12380   -12378 
  -12379   -12384   -12386   -12379   -12374   -12371   -12368   -12370 
  -12379   -12387   -12390   -12390   -12388   -12390   -12395   -12394 
  -12383   -12374   -12374   -12372   -12370   -12371   -12372   -12375 
  -12376   -12378   -12382   -12387   -12391   -12387   -12384   -12386 
  -12387   -12384   -12379   -12378   -12376   -12372   -12371   -12368 
  -12368   -12375   -12382   -12388   -12394   -12387   -12380   -12380 
  -12379   -12383   -12384   -12382   -12380   -12378   -12371   -12370 
  -12379   -12386   -12384   -12384   -12382   -12379   -12386   -12391 
  -12386   -12380   -12386   -12386   -12382   -12384   -12379   -12378 
  -12387   -12388   -12386   -12384   -12375   -12376   -12383   -12378 
  -12371   -12371   -12368   -12370   -12376   -12379   -12384   -12388 
  -12384   -12384   -12387   -12390   -12391   -12383   -12376   -12379 
  -12383   -12380   -12376   -12380   -12387   -12387   -12383   -12374 
  -12371   -12383   -12387   -12382   -12379   -12378   -12379   -12384 
  -12386   -12380   -12379   -12379   -12374   -12376   -12383   -12382 
  -12382   -12386   -12387   -12383   -12378   -12384   -12393   -12388 
  -12375   -12370   -12376   -12379   -12376   -12372   -12371   -12376 
  -12383   -12386   -12387   -12383   -12378   -12379   -12376   -12372 
  -12376   -12382   -12383   -12387   -12394   -12397   -12391   -12382 
  -12376   -12376   -12378   -12378   -12374   -12370   -12374   -12376 
  -12379   -12382   -12382   -12386   -12388   -12384   -12379   -12380 
  -12380   -12376   -12378   -12379   -12371   -12368   -12372   -12375 
  -12374   -12372   -12379   -12386   -12387   -12390   -12386   -12379 
  -12383   -12379   -12372   -12379   -12383   -12382   -12383   -12384 
  -12383   -12383   -12382   -12382   -12387   -12390   -12384   -12379 
  -12376   -12371   -12368   -12368   -12371   -12378   -12382   -12380 
  -12382   -12387   -12386   -12382   -12379   -12374   -12374   -12379 
  -12378   -12379   -12383   -12380   -12383   -12388   -12383   -12378 
  -12379   -12379   -12383   -12384   -12376   -12376   -12382   -12379 
  -12376   -12376   -12372   -12368   -12370   -12375   -12380   -12379 
  -12382   -12394   -12397   -12393   -12391   -12391   -12387   -12387 
  -12391   -12380   -12370   -12376   -12378   -12368   -12370   -12379 
  -12383   -12386   -12388   -12386   -12386   -12391   -12390   -12384 
  -12380   -12376   -12375   -12375   -12372   -12371   -12375   -12382 
  -12382   -12380   -12382   -12380   -12378   -12376   -12375   -12378 
  -12382   -12380   -12386   -12397   -12395   -12384   -12383   -12382 
  -12375   -12380   -12384   -12376   -12374   -12383   -12383   -12379 
  -12383   -12390   -12386   -12387   -12388   -12380   -12383   -12387 
  -12376   -12372   -12379   -12376   -12372   -12374   -12378   -12380 
  -12380   -12383   -12391   -12394   -12394   -12390   -12384   -12386 
  -12382   -12372   -12375   -12379   -12372   -12371   -12374   -12378 
  -12384   -12382   -12382   -12397   -12398   -12393   -12393   -12383 
  -12372   -12370   -12370   -12370   -12371   -12372   -12375   -12382 
  -12387   -12393   -12398   -12398   -12393   -12388   -12386   -12387 
  -12387   -12376   -12372   -12375   -12378   -12380   -12379   -12382 
  -12386   -12383   -12380   -12380   -12379   -12378   -12376   -12379 
  -12379   -12375   -12376   -12371   -12367   -12375   -12386   -12393 
  -12395   -12395   -12395   -12394   -12398   -12401   -12390   -12372 
  -12344   -12325   -12336   -12355   -12380   -12391   -12379   -12382 
  -12397   -12399   -12424   -12495   -12536   -12480   -12356   -12237 
  -12210   -12290   -12360   -12345   -12314   -12343   -12414   -12456 
  -12465   -12505   -12565   -12553   -12406   -12208   -12155   -12301 
  -12447   -12418   -12287   -12183   -12145   -12224   -12413   -12579 
  -12710   -12853   -12769   -12312   -11934   -12019   -12295   -12506 
  -12617   -12526   -12299   -12147   -12124   -12186   -12348   -12555 
  -12542   -12316   -12317   -12587   -12718   -12673   -12622   -12428 
  -12027   -11754   -11819   -12078   -12463   -12879   -12996   -12766 
  -12472   -12195   -11909   -11838   -12144   -12592   -12869   -12865 
  -12572   -12201   -12071   -12193   -12337   -12361   -12326   -12366 
  -12471   -12528   -12455   -12372   -12426   -12449   -12318   -12235 
  -12295   -12367   -12320   -12244   -12336   -12567   -12698   -12550 
  -12280   -12251   -12384   -12276   -12028   -12085   -12397   -12642 
  -12757   -12694   -12460   -12303   -12275   -12271   -12307   -12380 
  -12434   -12407   -12329   -12316   -12329   -12274   -12190   -12195 
  -12314   -12474   -12644   -12749   -12629   -12310   -12081   -12156 
  -12417   -12587   -12580   -12444   -12248   -12158   -12231   -12337 
  -12395   -12436   -12469   -12442   -12395   -12453   -12513   -12417 
  -12305   -12263   -12202   -12216   -12421   -12599   -12533   -12390 
  -12384   -12402   -12303   -12244   -12322   -12370   -12370   -12451 
  -12484   -12409   -12393   -12418   -12401   -12415   -12452   -12422 
  -12376   -12384   -12343   -12193   -12105   -12179   -12316   -12360 
  -12271   -12249   -12449   -12652   -12622   -12506   -12522   -12584 
  -12561   -12519   -12472   -12344   -12198   -12129   -12091   -12086 
  -12183   -12270   -12241   -12272   -12472   -12700   -12788   -12629 
  -12298   -12046   -12070   -12380   -12749   -12899   -12811   -12590 
  -12276   -11966   -11838   -12006   -12368   -12646   -12667   -12515 
  -12361   -12253   -12177   -12125   -12124   -12285   -12592   -12734 
  -12588   -12422   -12371   -12361   -12368   -12375   -12348   -12299 
  -12307   -12382   -12442   -12502   -12573   -12523   -12316   -12104 
  -12042   -12155   -12339   -12478   -12591   -12727   -12773   -12577 
  -12183   -11817   -11755   -12037   -12397   -12602   -12611   -12532 
  -12544   -12679   -12804   -12819   -12679   -12361   -11961   -11761 
  -11908   -12183   -12361   -12415   -12394   -12371   -12393   -12456 
  -12517   -12518   -12444   -12374   -12456   -12654   -12702   -12546 
  -12432   -12387   -12226   -12039   -11994   -12028   -12110   -12249 
  -12312   -12336   -12526   -12758   -12712   -12533   -12602   -12839 
  -12877   -12610   -12225   -11954   -11862   -11890   -11986   -12127 
  -12312   -12515   -12630   -12667   -12754   -12757   -12468   -12135 
  -12020   -11989   -12046   -12333   -12617   -12633   -12529   -12502 
  -12486   -12421   -12407   -12453   -12490   -12534   -12555   -12468 
  -12359   -12312   -12224   -12042   -11911   -11915   -11996   -12155 
  -12388   -12579   -12703   -12806   -12792   -12652   -12583   -12640 
  -12657   -12611   -12542   -12351   -12102   -11998   -11993   -11978 
  -11993   -12118   -12386   -12673   -12773   -12692   -12590   -12538 
  -12502   -12457   -12414   -12341   -12179   -11961   -11813   -11861 
  -12136   -12540   -12847   -12891   -12838   -12869   -12753   -12357 
  -12047   -12033   -12104   -12070   -11948   -11877   -12017   -12333 
  -12619   -12829   -13027   -13080   -12869   -12564   -12293   -11990 
  -11720   -11664   -11834   -12141   -12505   -12857   -13111   -13105 
  -12826   -12445   -12093   -11928   -11990   -12012   -11940   -12085 
  -12465   -12742   -12742   -12600   -12538   -12598   -12577   -12428 
  -12380   -12422   -12348   -12275   -12302   -12237   -12125   -12185 
  -12267   -12226   -12213   -12307   -12424   -12471   -12432   -12393 
  -12515   -12816   -12926   -12626   -12309   -12233   -12222   -12182 
  -12164   -12129   -12020   -12028   -12302   -12569   -12691   -12783 
  -12649   -12259   -12090   -12240   -12330   -12376   -12592   -12773 
  -12687   -12483   -12357   -12283   -12148   -11985   -12001   -12275 
  -12594   -12726   -12617   -12386   -12251   -12263   -12291   -12320 
  -12447   -12550   -12448   -12239   -12116   -12204   -12472   -12673 
  -12702   -12657   -12519   -12266   -11986   -11819   -11944   -12359 
  -12711   -12677   -12467   -12467   -12559   -12476   -12368   -12390 
  -12386   -12303   -12243   -12137   -12004   -12093   -12361   -12468 
  -12379   -12366   -12528   -12679   -12677   -12664   -12722   -12665 
  -12434   -12197   -12029   -11965   -12106   -12410   -12665   -12781 
  -12793   -12702   -12557   -12417   -12341   -12468   -12645   -12521 
  -12187   -11966   -11826   -11645   -11566   -11776   -12213   -12606 
  -12765   -12810   -12884   -12901   -12777   -12584   -12448   -12357 
  -12162   -11912   -11905   -12143   -12258   -12166   -12155   -12280 
  -12402   -12564   -12784   -12960   -13082   -13068   -12796   -12437 
  -12210   -12101   -11985   -11848   -11848   -11969   -11904   -11749 
  -11963   -12442   -12694   -12663   -12725   -13058   -13338   -13225 
  -12879   -12649   -12598   -12437   -12002   -11622   -11595   -11753 
  -11753   -11585   -11685   -12229   -12788   -13000   -12915   -12737 
  -12630   -12568   -12447   -12306   -12264   -12378   -12510   -12426 
  -12210   -12150   -12279   -12456   -12607   -12660   -12559   -12426 
  -12384   -12337   -12259   -12312   -12476   -12542   -12452   -12372 
  -12432   -12555   -12568   -12367   -12079   -12012   -12183   -12267 
  -12151   -12051   -12083   -12221   -12425   -12523   -12499   -12627 
  -12856   -12768   -12430   -12328   -12464   -12463   -12293   -12160 
  -12086   -12013   -12028   -12186   -12440   -12753   -12884   -12641 
  -12401   -12475   -12641   -12706   -12649   -12467   -12259   -12064 
  -11827   -11712   -11908   -12212   -12370   -12445   -12502   -12509 
  -12603   -12896   -13115   -12961   -12561   -12259   -12091   -11881 
  -11712   -11788   -11998   -12118   -12155   -12290   -12586   -12850 
  -12910   -12799   -12673   -12703   -12873   -12881   -12509   -11978 
  -11634   -11439   -11263   -11333   -11877   -12617   -13097   -13243 
  -13269   -13266   -13101   -12753   -12483   -12438   -12378   -12051 
  -11556   -11264   -11445   -11934   -12445   -12885   -13070   -12907 
  -12652   -12486   -12360   -12297   -12318   -12330   -12317   -12345 
  -12386   -12496   -12795   -13077   -13011   -12652   -12347   -12224 
  -12029   -11686   -11518   -11576   -11696   -11974   -12339   -12529 
  -12626   -12764   -12856   -12953   -13069   -12892   -12368   -11993 
  -11978   -12033   -12081   -12299   -12564   -12587   -12457   -12413 
  -12379   -12299   -12299   -12263   -12113   -12162   -12478   -12694 
  -12766   -12841   -12746   -12519   -12465   -12461   -12235   -11959 
  -11909   -11998   -12009   -12000   -12121   -12316   -12553   -12861 
  -13074   -13047   -12842   -12550   -12240   -11977   -11790   -11755 
  -11939   -12258   -12561   -12750   -12768   -12685   -12625   -12534 
  -12314   -12079   -11961   -11902   -11947   -12220   -12503   -12584 
  -12613   -12614   -12479   -12384   -12474   -12564   -12563   -12610 
  -12699   -12637   -12467   -12328   -12110   -11800   -11642   -11707 
  -11801   -11865   -12113   -12621   -13089   -13238   -13142   -13008 
  -12889   -12687   -12433   -12340   -12397   -12344   -12113   -11862 
  -11742   -11782   -11916   -12098   -12344   -12633   -12916   -13138 
  -13288   -13359   -13204   -12741   -12174   -11763   -11574   -11480 
  -11419   -11519   -11743   -11925   -12120   -12394   -12664   -12873 
  -12985   -12997   -13027   -13103   -13096   -12982   -12839   -12641 
  -12316   -11919   -11605   -11433   -11372   -11431   -11612   -11804 
  -11913   -12078   -12511   -13054   -13346   -13340   -13198   -12984 
  -12764   -12668   -12654   -12469   -12056   -11736   -11749   -11934 
  -12094   -12294   -12607   -12891   -12973   -12866   -12673   -12501 
  -12415   -12363   -12290   -12195   -12035   -11695   -11192   -10925 
  -11298   -12148   -12961   -13441   -13683   -13829   -13863   -13868 
  -13919   -13792   -13257   -12361   -11371   -10693   -10585   -10874 
  -11292   -11840   -12573   -13304   -13811   -14081   -14157   -14050 
  -13613   -12677   -11392   -10026    -8768    -7865    -7527    -7831 
   -8756   -10191   -11992   -13930   -15726   -17193   -18199   -18736 
  -18889   -18495   -17258   -15250   -12915   -10579    -8230    -5930 
   -4117    -3296    -3699    -5169    -7225    -9414   -11530   -13481 
  -15272   -16875   -17902   -17982   -17280   -16185   -14840   -13270 
  -11673   -10304    -9379    -9201    -9811   -10804   -11948   -13333 
  -14890   -16326   -17334   -17575   -16781   -15174   -13182   -10939 
   -8838    -7747    -8083    -9628   -11946   -14280   -15738   -15901 
  -14967   -13389   -11522    -9856    -8962    -8797    -9090   -10023 
  -11549   -13247   -14943   -16271   -16683   -16164   -15003   -13590 
  -12476   -11921   -11713   -11468   -10991   -10567   -10621   -11121 
  -11627   -11747   -11353   -10802   -10727   -11117   -11537   -11916 
  -12275   -12546   -12488   -11927   -11627   -12545   -14446   -16344 
  -17358   -17116   -15984   -14523   -12926   -11338   -10169    -9705 
   -9787    -9913    -9630    -8950    -8274    -8124    -8762    -9972 
  -11435   -12977   -14440   -15718   -16861   -17917   -18561   -18149 
  -16335   -13409   -10158    -7577    -6404    -6705    -8009    -9659 
  -10940   -11452   -11546   -11919   -12885   -14288   -15719   -16733 
  -17111   -16791   -15790   -14338   -12760   -11304   -10228    -9769 
   -9998   -10786   -11776   -12436   -12348   -11511   -10343    -9445 
   -9423   -10440   -12043   -13755   -15269   -16129   -15940   -14886 
  -13663   -12694   -11773   -10773    -9998    -9717    -9910   -10386 
  -10871   -11223   -11632   -12312   -13076   -13643   -14081   -14600 
  -15196   -15628   -15484   -14588   -13342   -12266   -11452   -10752 
  -10218   -10044   -10222   -10566   -10991   -11554   -12214   -12677 
  -12700   -12479   -12363   -12428   -12580   -12791   -13099   -13506 
  -13909   -14246   -14650   -15133   -15248   -14467   -12776   -10752 
   -9231    -8719    -9096   -10006   -11146   -12201   -12978   -13485 
  -13741   -13651   -13045   -11998   -10839    -9776    -8947    -8702 
   -9366   -10814   -12602   -14305   -15546   -16092   -16008   -15519 
  -14905   -14439   -14179   -13936   -13517   -12939   -12290   -11526 
  -10601    -9533    -8405    -7443    -6982    -7299    -8392    -9929 
  -11524   -13009   -14393   -15730   -16989   -17967   -18308   -17798 
  -16564   -14905   -13109   -11541   -10493    -9946    -9711    -9710 
   -9953   -10428   -11049   -11635   -12009   -12163   -12243   -12294 
  -12270   -12340   -12676   -13134   -13529   -13779   -13744   -13385 
  -12920   -12510   -12133   -11921   -12006   -12267   -12638   -13212 
  -13953   -14679   -15098   -14891   -13991   -12680   -11314   -10100 
   -9167    -8646    -8561    -8833    -9379   -10044   -10627   -11113 
  -11669   -12510   -13718   -15071   -16125   -16506   -16098   -15137 
  -13996   -12853   -11708   -10605    -9724    -9289    -9423   -10075 
  -11064   -12128   -12999   -13562   -13900   -14195   -14607   -15093 
  -15348   -15049   -14165   -12928   -11551   -10211    -9108    -8368 
   -8077    -8267    -8911   -10049   -11650   -13429   -15049   -16255 
  -16889   -17007   -16699   -15816   -14351   -12719   -11306   -10162 
   -9124    -8151    -7608    -7921    -8954   -10223   -11487   -12800 
  -14283   -15894   -17288   -17957   -17663   -16569   -15037   -13459 
  -12127   -11173   -10639   -10403   -10174    -9802    -9428    -9265 
   -9427    -9871   -10354   -10768   -11294   -11986   -12700   -13379 
  -14026   -14642   -15210   -15576   -15618   -15403   -15076   -14728 
  -14246   -13328   -11909   -10311    -8937    -8012    -7609    -7796 
   -8641    -9983   -11360   -12395   -13161   -13980   -14939   -15769 
  -16137   -15989   -15574   -15055   -14314   -13251   -11990   -10790 
   -9861    -9181    -8669    -8500    -8943   -10058   -11631   -13248 
  -14596   -15641   -16383   -16609   -16166   -15191   -13905   -12444 
  -10967    -9742    -9022    -8887    -9228    -9751   -10168   -10496 
  -11006   -11882   -13100   -14434   -15475   -15863   -15564   -14800 
  -13865   -12982   -12253   -11681   -11126   -10508   -10026    -9930 
  -10261   -10870   -11518   -12078   -12588   -13086   -13585   -14170 
  -14818   -15225   -15056   -14287   -13174   -12046   -11149   -10605 
  -10403   -10389   -10399   -10427   -10561   -10768   -10989   -11371 
  -12179   -13444   -14852   -15913   -16326   -16121   -15433   -14369 
  -13036   -11578   -10243    -9347    -9077    -9355    -9991   -10809 
  -11651   -12461   -13178   -13675   -13967   -14150   -14169   -13884 
  -13317   -12704   -12233   -11882   -11611   -11493   -11570   -11736 
  -11839   -11865   -11974   -12286   -12783   -13289   -13558   -13571 
  -13468   -13255   -12888   -12378   -11773   -11178   -10706   -10446 
  -10485   -10903   -11628   -12401   -12926   -13097   -13011   -12800 
  -12553   -12336   -12160   -12028   -12002   -12143   -12437   -12830 
  -13205   -13470   -13679   -13821   -13744   -13441   -13042   -12657 
  -12337   -12073   -11862   -11658   -11396   -11168   -11026   -10899 
  -10858   -11071   -11483   -11861   -12124   -12424   -12962   -13726 
  -14351   -14440   -14064   -13562   -13117   -12803   -12621   -12418 
  -12082   -11700   -11421   -11313   -11358   -11514   -11759   -12081 
  -12386   -12534   -12525   -12556   -12717   -12837   -12784   -12676 
  -12692   -12842   -13023   -13165   -13146   -12802   -12202   -11619 
  -11271   -11256   -11588   -12158   -12707   -12988   -12931   -12621 
  -12285   -12094   -11952   -11792   -11720   -11820   -12145   -12637 
  -13100   -13482   -13776   -13826   -13564   -13095   -12530   -11969 
  -11439   -10886   -10350    -9968    -9857   -10122   -10760   -11659 
  -12656   -13545   -14215   -14673   -14914   -14917   -14674   -14170 
  -13444   -12594   -11742   -11030   -10563   -10327   -10241   -10289 
  -10523   -10951   -11581   -12398   -13189   -13666   -13775   -13664 
  -13470   -13244   -12991   -12699   -12361   -12059   -11916   -11969 
