Origin Time       2024/06/23 22:54:00
Lat.              35.645
Long.             140.060
Depth. (km)       72
Mag.              4.1
Station Code      CHB012
Station Lat.      35.5721
Station Long.     140.3436
Station Height(m) 60
Record Time       2024/06/23 22:54:40
Sampling Freq(Hz) 100Hz
Duration Time(s)  72
Dir.              E-W
Scale Factor      7845(gal)/8223790
Max. Acc. (gal)   2.922
Last Correction   2024/06/23 22:54:40
Memo.             
[...]
    3731     3730     3728     3727     3724     3726     3726     3724 
    3723     3723     3723     3721     3719     3721     3727     3731 
    3727     3724     3728     3727     3721     3721     3721     3721 
    3726     3726     3726     3726     3726     3727     3728     3726 
    3723     3723     3723     3720     3719     3720     3728     3730 
    3724     3721     3721     3721     3723     3724     3727     3726 
    3724     3726     3723     3720     3726     3727     3721     3723 
    3726     3724     3726     3728     3726     3724     3726     3724 
    3721     3723     3728     3726     3721     3723     3720     3717 
    3720     3726     3728     3728     3730     3726     3721     3723 
    3726     3728     3730     3730     3730     3728     3727     3727 
    3724     3723     3727     3730     3727     3723     3721     3721 
    3724     3731     3732     3730     3727     3728     3734     3735 
    3727     3724     3724     3721     3726     3730     3727     3726 
    3727     3723     3716     3717     3723     3724     3726     3734 
    3732     3726     3727     3727     3723     3724     3727     3726 
    3723     3726     3726     3723     3723     3728     3730     3730 
    3730     3728     3726     3723     3723     3721     3723     3724 
    3727     3730     3728     3724     3724     3726     3728     3728 
    3730     3731     3730     3730     3727     3721     3721     3726 
    3727     3724     3726     3728     3724     3721     3726     3728 
    3726     3723     3724     3727     3727     3726     3728     3730 
    3728     3730     3728     3724     3726     3730     3724     3724 
    3727     3724     3723     3726     3730     3732     3730     3726 
    3721     3720     3724     3730     3730     3726     3728     3728 
    3724     3724     3727     3731     3734     3730     3724     3724 
    3728     3732     3731     3726     3723     3723     3723     3727 
    3730     3730     3731     3735     3735     3731     3730     3731 
    3728     3730     3730     3726     3730     3730     3726     3727 
    3730     3734     3738     3738     3734     3731     3731     3727 
    3727     3730     3728     3727     3728     3726     3723     3727 
    3734     3738     3740     3740     3735     3727     3724     3724 
    3721     3721     3728     3728     3723     3719     3717     3726 
    3734     3731     3731     3732     3730     3726     3724     3721 
    3720     3723     3728     3730     3726     3726     3731     3731 
    3728     3728     3727     3720     3719     3721     3716     3716 
    3720     3723     3730     3735     3731     3734     3730     3720 
    3721     3721     3720     3719     3711     3709     3717     3726 
    3730     3726     3723     3726     3724     3717     3715     3713 
    3717     3723     3724     3726     3723     3716     3715     3720 
    3726     3731     3732     3728     3716     3703     3690     3689 
    3707     3734     3766     3796     3807     3794     3762     3724 
    3694     3667     3626     3586     3572     3589     3657     3781 
    3905     3974     3971     3908     3811     3713     3642     3618 
    3638     3677     3685     3620     3523     3489     3565     3731 
    3917     3997     3920     3811     3755     3732     3758     3840 
    3888     3838     3715     3558     3416     3329     3276     3277 
    3407     3669     3993     4286     4436     4379     4147     3832 
    3559     3407     3345     3333     3381     3451     3457     3410 
    3408     3531     3804     4189     4540     4653     4413     3904 
    3380     3142     3296     3622     3820     3820     3703     3523 
    3362     3342     3473     3701     3990     4216     4220     4035 
    3831     3701     3666     3692     3704     3711     3784     3871 
    3842     3678     3510     3434     3462     3608     3831     3946 
    3842     3657     3588     3634     3667     3666     3699     3809 
    3962     4043     3909     3543     3165     3087     3391     3866 
    4191     4175     3910     3674     3591     3580     3605     3659 
    3682     3685     3732     3811     3867     3906     3933     3928 
    3846     3665     3476     3397     3454     3622     3815     3893 
    3869     3869     3859     3765     3685     3694     3732     3744 
    3701     3582     3496     3549     3662     3667     3578     3584 
    3782     4066     4234     4201     4039     3866     3743     3642 
    3524     3426     3356     3252     3127     3106     3318     3812 
    4428     4846     4892     4630     4237     3846     3449     3018 
    2691     2673     2987     3460     3828     3958     3993     4105 
    4198     4139     4009     3886     3738     3609     3555     3510 
    3456     3460     3496     3550     3690     3881     3982     3975 
    3944     3898     3838     3832     3869     3866     3786     3616 
    3411     3316     3415     3623     3773     3775     3705     3686 
    3750     3825     3824     3723     3630     3678     3827     3882 
    3754     3568     3501     3611     3780     3797     3608     3416 
    3439     3693     4029     4218     4074     3692     3396     3364 
    3493     3623     3696     3751     3824     3923     4024     4082 
    4094     4081     4000     3858     3775     3781     3739     3554 
    3285     3076     3073     3316     3650     3900     4058     4175 
    4226     4185     4113     4040     3844     3511     3296     3366 
    3504     3438     3234     3168     3379     3781     4168     4330 
    4203     3937     3762     3775     3889     3923     3734     3403 
    3165     3083     3082     3225     3603     4066     4361     4446 
    4421     4325     4151     3894     3573     3234     2944     2786 
    2829     3105     3577     4090     4411     4472     4419     4355 
    4213     3935     3609     3450     3553     3747     3800     3677 
    3484     3303     3186     3194     3337     3555     3794     4044 
    4271     4382     4297     4043     3751     3541     3399     3279 
    3241     3319     3450     3643     3932     4216     4374     4364 
    4203     3969     3754     3566     3319     3024     2847     2922 
    3194     3492     3696     3852     4077     4347     4531     4560 
    4459     4301     4074     3697     3248     2911     2756     2756 
    2924     3292     3804     4252     4464     4471     4410     4340 
    4217     3987     3690     3445     3346     3360     3352     3288 
    3280     3396     3592     3827     4077     4261     4318     4243 
    4051     3778     3466     3169     2998     2990     3059     3218 
    3557     3983     4271     4341     4322     4287     4094     3616 
    3038     2762     2955     3392     3727     3816     3825     3998 
    4325     4573     4538     4233     3854     3526     3280     3184 
    3238     3283     3256     3314     3565     3889     4104     4218 
    4367     4536     4523     4218     3744     3331     3111     3032 
    3017     3156     3480     3816     4041     4175     4278     4413 
    4488     4311     3927     3531     3160     2853     2828     3122 
    3483     3645     3600     3582     3704     3773     3649     3480 
    3458     3591     3807     4083     4391     4612     4577     4255 
    3902     3807     3825     3640     3275     2957     2789     2787 
    2967     3329     3859     4384     4638     4615     4557     4480 
    4125     3499     3003     2857     2901     2994     3222     3666 
    4145     4340     4133     3709     3368     3283     3389     3550 
    3716     3948     4247     4503     4579     4374     3915     3341 
    2760     2307     2201     2535     3152     3789     4291     4729 
    5179     5466     5266     4527     3643     3025     2735     2718 
    3028     3588     4102     4325     4279     4135     3981     3844 
    3732     3557     3272     3111     3343     3831     4153     4102 
    3861     3788     4008     4260     4232     3827     3202     2682 
    2535     2762     3119     3366     3520     3800     4276     4708 
    4862     4777     4630     4495     4310     3989     3586     3225 
    2872     2461     2199     2369     2870     3395     3866     4287 
    4541     4598     4596     4602     4513     4287     3987     3622 
    3254     3091     3206     3431     3582     3607     3523     3384 
    3308     3354     3487     3717     4037     4287     4320     4221 
    4187     4283     4374     4279     3956     3481     2972     2573 
    2462     2728     3140     3338     3335     3404     3582     3724 
    3838     4025     4293     4581     4795     4743     4322     3720 
    3235     3007     3064     3377     3777     4052     4104     3966 
    3817     3827     3933     3936     3769     3545     3403     3414 
    3555     3669     3585     3404     3406     3666     3978     4148 
    4156     4064     3960     3850     3667     3434     3257     3168 
    3125     3187     3397     3651     3885     4140     4406     4595 
    4600     4409     4135     3869     3588     3292     3091     3094 
    3253     3408     3439     3380     3350     3397     3584     3977 
    4410     4596     4488     4252     4008     3792     3584     3399 
    3346     3433     3491     3466     3520     3763     4050     4121 
    3904     3607     3500     3624     3827     3959     3977     3885 
    3681     3451     3366     3466     3605     3688     3700     3642 
    3593     3622     3649     3600     3564     3655     3867     4068 
    4124     4018     3855     3719     3616     3510     3396     3292 
    3206     3221     3469     3962     4553     5008     5132     4876 
    4359     3769     3180     2624     2300     2411     2894     3465 
    3815     3847     3775     3866     4120     4284     4226     4182 
    4436     4845     4901     4317     3370     2641     2446     2586 
    2686     2677     2770     3095     3639     4297     4846     5098 
    5101     4982     4733     4295     3784     3388     3086     2718 
    2347     2292     2708     3326     3796     4014     4077     4117 
    4198     4287     4382     4475     4436     4132     3638     3125 
    2721     2567     2743     3156     3674     4190     4577     4780 
    4828     4691     4355     3958     3620     3366     3217     3172 
    3215     3387     3655     3843     3840     3705     3514     3329 
    3238     3248     3291     3339     3435     3654     3983     4256 
    4310     4137     3832     3495     3204     3037     3060     3323 
    3757     4178     4465     4595     4594     4504     4356     4166 
    3985     3873     3825     3770     3626     3383     3153     3073 
    3169     3365     3568     3713     3843     4021     4205     4287 
    4193     3913     3523     3214     3152     3248     3253     3100 
    2945     2959     3190     3546     3902     4213     4484     4680 
    4734     4615     4334     3963     3620     3388     3277     3252 
    3244     3206     3172     3159     3132     3118     3248     3584 
    4002     4322     4442     4390     4293     4245     4158     3869 
    3435     3123     3132     3407     3694     3790     3809     3979 
    4271     4494     4587     4614     4560     4338     3985     3685 
    3541     3503     3495     3480     3470     3512     3586     3639 
    3705     3807     3879     3877     3828     3796     3823     3888 
    3917     3861     3709     3447     3092     2731     2448     2296 
    2300     2498     2926     3534     4172     4726     5140     5317 
    5161     4739     4240     3821     3582     3520     3511     3472 
    3456     3543     3704     3817     3816     3727     3505     3083 
    2594     2338     2515     3107     3981     4958     5826     6351 
    6444     6232     5871     5373     4692     3862     3033     2377 
    1922     1549     1177      874      819     1186     1961     2832 
    3438     3665     3666     3705     3969     4388     4698     4745 
    4648     4558     4406     4047     3514     2979     2641     2682 
    3113     3771     4464     5003     5219     5050     4569     3875 
    3038     2193     1549     1270     1420     1952     2704     3532 
    4356     5063     5578     5904     6079     6111     6018     5846 
    5682     5605     5594     5421     4826     3898     3133     2889 
    2974     2906     2434     1755     1239     1007      967     1161 
    1702     2489     3242     3805     4239     4646     4986     5146 
    5192     5362     5765     6166     6124     5382     4056     2548 
    1339      746      787     1305     2145     3150     4136     4835 
    4999     4680     4233     3940     3800     3673     3551     3628 
    4098     4838     5409     5508     5267     4992     4819     4665 
    4391     3928     3356     2868     2547     2322     2236     2404 
    2743     3021     3030     2724     2295     2025     2057     2362 
    2836     3396     4023     4684     5300     5775     6045     6119 
    5996     5655     5140     4619     4261     4094     4008     3852 
    3512     2972     2331     1740     1335     1213     1404     1850 
    2477     3196     3885     4445     4837     5055     5071     4833 
    4326     3655     3069     2818     3015     3612     4371     4957 
    5147     4914     4410     3878     3456     3060     2538     1945 
    1548     1526     1829     2295     2822     3389     3950     4490 
    5105     5827     6471     6789     6667     6250     5765     5275 
    4600     3565     2326     1310      818      869     1345     2088 
    2956     3889     4889     5844     6465     6519     6007     5131 
    4175     3353     2694     2137     1741     1617     1714     1826 
    1803     1726     1844     2377     3384     4648     5694     6089 
    5782     5070     4387     4028     3990     4062     4047     3946 
    3904     3986     4102     4179     4247     4388     4634     4895 
    5055     5038     4749     4148     3369     2628     2081     1814 
    1841     2124     2656     3376     4035     4288     4029     3558 
    3325     3522     3927     4132     3944     3522     3100     2786 
    2593     2552     2687     3001     3462     4009     4530     4932 
    5228     5485     5688     5702     5354     4603     3647     2781 
    2170     1806     1611     1575     1791     2370     3246     4120 
    4677     4884     4949     5017     5020     4783     4239     3572 
    3088     2944     3010     3068     3117     3284     3510     3684 
    3935     4410     5011     5506     5738     5663     5298     4743 
    4125     3472     2745     2050     1599     1498     1660     1894 
    2042     2081     2085     2153     2335     2629     3052     3620 
    4206     4645     4958     5250     5540     5778     5872     5756 
    5493     5232     5023     4800     4513     4207     3977     3858 
    3800     3754     3742     3820     3998     4176     4216     4055 
    3697     3191     2656     2218     1892     1611     1355     1262 
    1501     2045     2698     3326     3909     4438     4895     5317 
    5729     6018     6068     5872     5447     4833     4141     3453 
    2844     2409     2151     2038     2110     2421     2918     3453 
    3848     3931     3615     3005     2385     2050     2124     2552 
    3195     3937     4714     5478     6153     6573     6589     6273 
    5869     5540     5219     4774     4197     3605     3119     2737 
    2366     1954     1576     1447     1786     2558     3454     4129 
    4446     4533     4537     4401     3974     3298     2647     2317 
    2381     2601     2679     2531     2330     2371     2817     3507 
    4156     4692     5217     5746     6153     6254     5922     5192 
    4301     3495     2845     2361     2124     2193     2511     2988 
    3538     4070     4492     4681     4573     4266     3977     3851 
    3842     3854     3855     3827     3727     3534     3323     3226 
    3245     3217     3014     2781     2789     3113     3580     3942 
    4086     4101     4162     4387     4745     5066     5193     5113 
    4947     4783     4560     4153     3570     2970     2531     2323 
    2307     2477     2830     3273     3676     3985     4194     4301 
    4302     4178     3874     3358     2691     2026     1560     1498 
    1915     2652     3418     4059     4610     5093     5421     5478 
    5236     4808     4368     4070     4033     4272     4579     4696 
    4561     4311     4125     4062     4043     3959     3727     3350 
    2916     2515     2263     2273     2475     2686     2875     3171 
    3550     3790     3786     3674     3654     3811     4058     4229 
    4239     4148     4086     4056     3875     3426     2866     2467 
    2425     2813     3493     4185     4703     5066     5390     5728 
    5991     6026     5736     5186     4540     3924     3342     2727 
    2083     1551     1267     1266     1495     1917     2490     3100 
    3592     3878     3971     3993     4155     4506     4806     4801 
    4523     4203     4024     3977     3978     4023     4113     4170 
    4110     3898     3565     3264     3199     3418     3744     3933 
    3873     3677     3559     3596     3647     3572     3422     3318 
    3299     3385     3619     3990     4355     4464     4205     3777 
    3460     3312     3198     3009     2803     2760     2994     3439 
    3897     4185     4317     4498     4850     5217     5366     5270 
    5105     4999     4878     4603     4159     3676     3235     2829 
    2489     2304     2346     2560     2763     2821     2756     2693 
    2744     2913     3125     3354     3658     4077     4561     4988 
    5221     5171     4818     4244     3607     3091     2833     2809 
    2837     2822     2852     3028     3384     3869     4333     4644 
    4791     4818     4727     4479     4070     3597     3196     2880 
    2566     2243     2057     2160     2521     2963     3400     3910 
    4517     5082     5451     5616     5691     5748     5742     5582 
    5251     4819     4374     3987     3651     3280     2840     2371 
    1942     1652     1570     1709     2056     2571     3190     3817 
    4332     4583     4499     4151     3701     3275     2882     2506 
    2227     2184     2439     2930     3578     4341     5130     5795 
    6255     6561     6736     6673     6245     5494     4666     4052 
    3716     3489     3244     2994     2776     2554     2282     2015 
    1852     1841     1956     2151     2408     2748     3196     3713 
    4152     4309     4148     3852     3667     3723     3956     4175 
    4251     4233     4230     4266     4287     4252     4152     3989 
    3785     3578     3383     3198     3045     2978     3065     3337 
    3746     4233     4731     5140     5377     5397     5209     4903 
    4596     4295     3904     3423     3006     2771     2701     2736 
    2860     3079     3330     3518     3624     3709     3780     3728 
    3418     2882     2353     2064     2052     2173     2317     2521 
    2832     3186     3462     3642     3827     4141     4631     5220 
    5768     6146     6250     6031     5518     4783     3977     3337 
    3048     3105     3342     3553     3607     3541     3472     3445 
