Origin Time       2024/06/23 22:54:00
Lat.              35.645
Long.             140.060
Depth. (km)       72
Mag.              4.1
Station Code      CHB013
Station Lat.      35.4294
Station Long.     140.2892
Station Height(m) 10
Record Time       2024/06/23 22:54:46
Sampling Freq(Hz) 100Hz
Duration Time(s)  60
Dir.              U-D
Scale Factor      7845(gal)/8223790
Max. Acc. (gal)   1.934
Last Correction   2024/06/23 22:54:45
Memo.             
[...]
   16559    16559    16555    16560    16573    16569    16559    16560 
   16565    16568    16564    16557    16557    16561    16565    16567 
   16565    16559    16563    16569    16565    16561    16561    16560 
   16564    16571    16560    16556    16568    16568    16559    16567 
   16572    16563    16560    16563    16563    16567    16564    16561 
   16567    16563    16551    16557    16565    16559    16559    16569 
   16568    16560    16556    16555    16564    16569    16559    16556 
   16567    16567    16561    16565    16564    16559    16561    16567 
   16564    16560    16552    16552    16563    16565    16561    16561 
   16559    16552    16552    16563    16572    16571    16557    16549 
   16561    16569    16559    16557    16567    16563    16560    16565 
   16568    16563    16556    16552    16563    16571    16563    16563 
   16567    16560    16559    16565    16567    16563    16560    16559 
   16564    16567    16560    16559    16568    16565    16559    16560 
   16557    16556    16564    16568    16564    16564    16561    16557 
   16564    16568    16563    16563    16567    16563    16560    16565 
   16569    16565    16555    16553    16567    16575    16567    16563 
   16568    16564    16560    16564    16563    16561    16567    16563 
   16563    16573    16563    16553    16568    16568    16556    16560 
   16567    16565    16564    16564    16568    16573    16569    16563 
   16565    16564    16561    16567    16567    16560    16564    16564 
   16564    16571    16569    16564    16568    16564    16553    16559 
   16572    16569    16561    16559    16563    16568    16568    16559 
   16559    16565    16561    16559    16569    16568    16559    16563 
   16560    16557    16564    16568    16567    16568    16564    16563 
   16565    16567    16569    16571    16565    16563    16561    16559 
   16565    16573    16568    16560    16564    16565    16560    16561 
   16561    16556    16564    16569    16561    16563    16568    16565 
   16571    16569    16557    16567    16582    16569    16561    16563 
   16563    16567    16565    16559    16567    16569    16557    16560 
   16573    16575    16571    16572    16567    16560    16561    16565 
   16568    16568    16563    16561    16565    16563    16561    16571 
   16578    16569    16567    16572    16572    16565    16559    16557 
   16565    16572    16565    16567    16573    16569    16564    16567 
   16568    16568    16568    16564    16563    16568    16568    16569 
   16573    16567    16557    16564    16572    16572    16571    16568 
   16565    16567    16567    16567    16568    16564    16559    16563 
   16567    16565    16568    16568    16564    16567    16565    16561 
   16569    16568    16557    16563    16569    16563    16565    16571 
   16567    16565    16567    16565    16568    16569    16563    16565 
   16571    16565    16563    16567    16563    16557    16561    16565 
   16571    16572    16560    16551    16561    16563    16557    16568 
   16569    16559    16561    16564    16565    16571    16563    16556 
   16567    16568    16563    16572    16573    16557    16555    16565 
   16567    16565    16559    16553    16569    16580    16567    16561 
   16564    16553    16552    16568    16569    16556    16557    16567 
   16569    16569    16565    16561    16564    16561    16552    16556 
   16561    16564    16568    16564    16561    16565    16561    16559 
   16569    16565    16553    16561    16568    16560    16561    16565 
   16560    16560    16563    16561    16565    16563    16552    16556 
   16567    16564    16564    16568    16560    16556    16560    16561 
   16565    16568    16561    16559    16563    16560    16560    16567 
   16565    16560    16560    16555    16552    16557    16564    16568 
   16571    16560    16549    16557    16564    16557    16557    16561 
   16560    16559    16559    16563    16568    16563    16557    16564 
   16571    16565    16564    16571    16580    16598    16609    16611 
   16615    16607    16582    16560    16538    16509    16497    16513 
   16537    16567    16607    16646    16677    16695    16691    16669 
   16632    16563    16502    16498    16525    16564    16637    16692 
   16675    16602    16507    16437    16420    16410    16380    16374 
   16372    16349    16372    16480    16598    16623    16572    16565 
   16606    16591    16602    16753    16887    16846    16738    16659 
   16560    16486    16490    16451    16302    16166    16175    16329 
   16514    16638    16717    16798    16825    16738    16607    16515 
   16464    16492    16607    16704    16803    16939    16926    16627 
   16249    16150    16387    16671    16802    16748    16492    16194 
   16128    16351    16645    16788    16754    16627    16465    16241 
   16002    16032    16352    16482    16321    16349    16657    16919 
   17064    17136    17061    16861    16738    16794    16826    16675 
   16552    16571    16513    16289    16106    16200    16532    16750 
   16695    16579    16528    16487    16501    16599    16636    16514 
   16411    16422    16356    16244    16332    16537    16671    16761 
   16825    16783    16634    16538    16609    16692    16718    16831 
   16915    16729    16389    16166    16181    16417    16677    16717 
   16599    16587    16653    16602    16515    16560    16629    16573 
   16460    16426    16521    16673    16731    16621    16414    16244 
   16239    16414    16642    16784    16802    16754    16735    16698 
   16551    16425    16507    16675    16671    16528    16482    16561 
   16583    16510    16471    16479    16479    16532    16659    16704 
   16605    16534    16583    16618    16572    16536    16568    16605 
   16546    16386    16252    16321    16534    16642    16640    16690 
   16733    16653    16548    16552    16595    16536    16471    16576 
   16748    16771    16646    16499    16390    16337    16364    16456 
   16534    16542    16510    16518    16598    16687    16711    16713 
   16719    16664    16598    16615    16619    16538    16526    16640 
   16702    16622    16506    16453    16457    16437    16360    16310 
   16376    16536    16672    16718    16718    16738    16765    16761 
   16688    16549    16394    16309    16352    16464    16546    16610 
   16688    16738    16714    16646    16573    16502    16459    16471 
   16537    16609    16632    16627    16663    16696    16642    16529 
   16447    16416    16414    16457    16522    16545    16538    16529 
   16517    16573    16686    16665    16497    16383    16420    16532 
   16599    16582    16584    16633    16680    16718    16703    16690 
   16781    16848    16758    16648    16591    16498    16362    16313 
   16402    16491    16524    16573    16634    16645    16584    16495 
   16433    16383    16409    16596    16785    16783    16673    16633 
   16673    16671    16579    16501    16449    16343    16281    16359 
   16416    16348    16325    16456    16594    16618    16665    16856 
   16978    16826    16538    16339    16275    16333    16479    16640 
   16722    16668    16507    16363    16386    16629    16893    16888 
   16599    16298    16194    16276    16484    16780    17041    17120 
   17031    16880    16730    16607    16532    16474    16393    16318 
   16282    16252    16305    16549    16800    16819    16752    16800 
   16814    16598    16248    16019    16027    16195    16413    16568 
   16528    16364    16379    16632    16816    16776    16713    16741 
   16695    16545    16517    16664    16780    16722    16627    16692 
   16773    16613    16344    16229    16248    16278    16325    16424 
   16555    16673    16729    16726    16748    16869    17015    17019 
   16858    16623    16374    16187    16144    16208    16281    16336 
   16432    16630    16877    17007    16900    16653    16507    16515 
   16536    16565    16640    16638    16565    16611    16710    16615 
   16455    16495    16623    16630    16544    16488    16474    16380 
   16260    16362    16671    16916    16974    16922    16816    16609 
   16332    16216    16336    16476    16492    16484    16521    16498 
   16389    16326    16336    16349    16402    16509    16569    16563 
   16619    16789    16891    16737    16430    16263    16270    16237 
   16201    16384    16671    16727    16621    16707    16949    16981 
   16810    16703    16595    16298    15979    15986    16376    16815 
   16981    16937    16838    16660    16452    16383    16486    16681 
   16856    16895    16854    16808    16711    16590    16587    16713 
   16734    16476    16108    15884    15859    16028    16368    16764 
   17046    17130    17073    16930    16721    16567    16555    16587 
   16506    16299    16094    15981    16004    16227    16595    16870 
   16888    16722    16576    16595    16702    16738    16761    16850 
   16822    16594    16390    16340    16335    16324    16371    16461 
   16522    16607    16785    16902    16825    16710    16723    16781 
   16722    16555    16409    16299    16178    16127    16197    16298 
   16386    16492    16629    16757    16785    16730    16742    16823 
   16827    16767    16772    16764    16536    16213    16141    16324 
   16525    16657    16715    16664    16499    16336    16380    16607 
   16737    16648    16514    16534    16611    16503    16313    16344 
   16569    16706    16650    16541    16521    16569    16576    16546 
   16576    16644    16648    16622    16700    16866    16914    16718 
   16426    16275    16303    16343    16313    16335    16480    16602 
   16598    16603    16676    16710    16702    16687    16580    16425 
   16372    16413    16464    16545    16663    16775    16864    16864 
   16740    16653    16694    16733    16704    16675    16659    16630 
   16569    16432    16290    16317    16447    16421    16267    16237 
   16383    16591    16775    16848    16773    16644    16519    16441 
   16517    16692    16741    16614    16460    16368    16259    16048 
   15898    16069    16449    16667    16668    16756    16989    17047 
   16823    16653    16734    16799    16632    16432    16416    16476 
   16449    16398    16460    16592    16645    16649    16757    16946 
   17080    17107    17011    16771    16448    16186    16119    16262 
   16422    16401    16308    16318    16351    16362    16541    16926 
   17221    17135    16744    16397    16224    16086    16019    16189 
   16490    16629    16537    16364    16251    16225    16283    16453 
   16692    16872    16970    17022    16999    16938    16918    16865 
   16702    16521    16391    16289    16227    16262    16405    16567 
   16626    16568    16486    16451    16505    16615    16657    16572 
   16482    16490    16572    16696    16843    16938    16918    16814 
   16659    16460    16317    16302    16328    16344    16471    16729 
   16881    16733    16461    16374    16457    16529    16588    16675 
   16700    16657    16676    16741    16667    16393    16102    16013 
   16162    16401    16598    16704    16679    16522    16352    16294 
   16370    16537    16725    16823    16768    16613    16488    16475 
   16530    16654    16868    17011    16893    16587    16333    16282 
   16433    16733    17041    17151    17016    16767    16573    16551 
   16675    16806    16804    16641    16417    16198    16031    16086 
   16362    16522    16437    16366    16429    16472    16430    16406 
   16459    16545    16650    16787    16873    16860    16848    16883 
   16868    16781    16659    16474    16276    16170    16078    15920 
   15826    15913    16086    16200    16276    16443    16703    16919 
   17023    17061    17066    17072    17108    17096    16942    16696 
   16425    16198    16167    16340    16524    16610    16646    16669 
   16684    16695    16686    16679    16696    16649    16443    16193 
   16116    16214    16348    16455    16538    16572    16546    16524 
   16569    16663    16769    16893    17016    17080    17019    16769 
   16391    16124    16125    16270    16353    16372    16436    16549 
   16644    16719    16798    16830    16777    16665    16553    16499 
   16519    16549    16524    16464    16383    16271    16213    16287 
   16422    16545    16671    16772    16791    16715    16560    16387 
   16303    16349    16487    16660    16745    16638    16445    16355 
   16428    16600    16749    16821    16861    16807    16594    16390 
   16357    16445    16599    16788    16924    16961    16892    16715 
   16524    16438    16465    16528    16525    16445    16391    16407 
   16425    16464    16575    16654    16576    16379    16146    15888 
   15704    15743    16004    16380    16784    17157    17400    17359 
   17042    16691    16507    16478    16509    16586    16713    16818 
   16830    16762    16692    16691    16765    16852    16853    16719 
   16490    16239    16024    15928    16055    16387    16727    16860 
   16753    16533    16356    16376    16602    16856    16974    16922 
   16767    16642    16603    16588    16579    16587    16546    16397 
   16177    15940    15724    15600    15626    15778    16031    16383 
   16799    17190    17466    17575    17556    17508    17470    17401 
   17308    17199    17016    16771    16575    16403    16092    15584 
   15032    14642    14536    14785    15414    16266    17058    17589 
   17826    17907    17930    17834    17601    17327    17078    16880 
   16704    16472    16187    15975    15930    16075    16406    16757 
   16900    16825    16669    16484    16298    16216    16264    16308 
   16179    15859    15537    15446    15653    16078    16564    16866 
   16849    16687    16673    16942    17381    17716    17709    17409 
   17072    16757    16368    16012    15903    16004    16097    16113 
   16163    16301    16486    16711    16951    17111    17196    17298 
   17390    17394    17289    17086    16872    16771    16727    16548 
   16133    15557    15051    14882    15182    15925    16923    17756 
   18048    17841    17379    16761    16066    15477    15109    14939 
   14972    15283    15863    16541    17080    17424    17667    17770 
   17605    17190    16691    16282    16071    16135    16511    17069 
   17460    17447    17151    16758    16317    15973    15992    16398 
   16915    17290    17469    17454    17254    16916    16532    16197 
   15916    15645    15435    15377    15442    15541    15622    15676 
   15736    15857    16100    16510    17062    17616    17994    18112 
   17988    17685    17292    16893    16546    16320    16295    16430 
   16591    16733    16876    16939    16794    16430    15981    15615 
   15427    15458    15697    16050    16390    16630    16731    16731 
   16754    16910    17209    17513    17560    17240    16816    16661 
   16823    17020    17005    16806    16591    16443    16368    16380 
   16409    16325    16135    15959    15893    15979    16202    16476 
   16686    16714    16511    16185    15946    15880    15921    16011 
   16140    16321    16567    16837    17085    17301    17483    17609 
   17586    17356    16968    16501    16077    15843    15835    15996 
   16286    16688    17091    17259    17097    16781    16483    16209 
   15975    15867    15898    15982    16081    16240    16487    16804 
   17143    17408    17523    17481    17300    17038    16810    16675 
   16567    16379    16167    16096    16159    16248    16411    16735 
   17095    17271    17146    16749    16247    15781    15404    15205 
   15273    15550    15861    16114    16325    16518    16654    16696 
   16762    16980    17275    17471    17501    17456    17435    17393 
   17262    17091    16927    16740    16564    16525    16600    16584 
   16328    15928    15580    15354    15245    15275    15484    15889 
   16437    16938    17170    17136    17084    17196    17439    17659 
   17726    17610    17331    16919    16532    16393    16460    16438 
   16229    15984    15795    15708    15824    16113    16353    16383 
   16258    16125    16112    16305    16659    16974    17077    16934 
   16694    16568    16584    16599    16518    16384    16313    16356 
   16503    16734    16985    17184    17312    17308    17124    16881 
   16706    16606    16536    16432    16278    16152    16098    16109 
   16222    16420    16561    16541    16389    16239    16251    16460 
   16772    17065    17220    17157    16933    16663    16402    16195 
   16063    15958    15869    15873    15996    16178    16387    16627 
   16819    16866    16798    16684    16537    16409    16421    16586 
   16754    16846    16907    16939    16933    16954    17011    16985 
   16821    16595    16409    16306    16289    16362    16537    16772 
   16958    17018    16953    16833    16733    16688    16675    16641 
   16561    16479    16447    16394    16182    15824    15475    15246 
   15249    15569    16127    16699    17070    17150    17000    16733 
   16486    16479    16788    17149    17294    17257    17157    17041 
   16941    16866    16794    16734    16691    16609    16503    16429 
   16324    16147    16058    16197    16474    16691    16761    16694 
   16491    16186    15893    15728    15700    15754    15888    16121 
   16402    16645    16861    17154    17537    17856    17944    17726 
   17235    16622    16129    15898    15940    16228    16636    16953 
   17077    17058    16961    16841    16749    16660    16534    16363 
   16086    15700    15385    15315    15488    15819    16154    16363 
   16463    16528    16591    16695    16870    17020    17023    16911 
   16823    16819    16841    16841    16852    16895    16977    17124 
   17307    17408    17300    16902    16299    15743    15448    15445 
   15643    15938    16270    16606    16899    17105    17208    17201 
   17099    16981    16938    16966    17011    16999    16865    16633 
   16355    16006    15672    15554    15696    15997    16374    16707 
   16869    16835    16680    16548    16595    16829    17130    17332 
   17266    16885    16349    15866    15547    15425    15441    15506 
   15618    15816    16060    16326    16630    16916    17084    17124 
   17100    17089    17119    17158    17200    17259    17311    17277 
   17136    16972    16837    16725    16652    16626    16588    16482 
   16347    16264    16227    16162    16060    15989    16013    16136 
   16333    16569    16769    16829    16723    16552    16440    16425 
   16479    16567    16646    16660    16583    16475    16452    16607 
   16896    17145    17192    16984    16595    16189    15912    15815 
   15844    15912    15970    16013    16074    16212    16426    16672 
   16915    17116    17200    17107    16892    16684    16563    16532 
   16540    16538    16540    16578    16636    16708    16819    16927 
   16988    17008    17015    17034    17054    17045    17027    16993 
   16865    16690    16598    16567    16478    16320    16170    16075 
   16031    16025    16066    16128    16177    16197    16204    16209 
   16225    16294    16459    16681    16849    16837    16591    16164 
