Origin Time       2024/06/23 22:54:00
Lat.              35.645
Long.             140.060
Depth. (km)       72
Mag.              4.1
Station Code      CHB002
Station Lat.      35.7871
Station Long.     139.9024
Station Height(m) 12
Record Time       2024/06/23 22:54:45
Sampling Freq(Hz) 100Hz
Duration Time(s)  60
Dir.              U-D
Scale Factor      7845(gal)/8223790
Max. Acc. (gal)   3.643
Last Correction   2024/06/23 22:54:44
Memo.             
   18219    18234    18241    18226    18214    18207    18196    18206 
   18245    18262    18227    18188    18189    18214    18220    18216 
   18238    18260    18243    18214    18203    18208    18214    18222 
   18233    18238    18243    18230    18187    18180    18235    18281 
   18280    18245    18198    18172    18185    18222    18256    18266 
   18241    18195    18180    18208    18235    18231    18216    18204 
   18198    18219    18260    18269    18231    18177    18149    18172 
   18247    18324    18312    18219    18139    18119    18164    18256 
   18337    18328    18225    18104    18080    18192    18335    18373 
   18291    18173    18118    18142    18207    18287    18331    18284 
   18191    18138    18153    18206    18264    18289    18258    18200 
   18169    18181    18227    18262    18253    18218    18200    18219 
   18247    18242    18206    18185    18202    18235    18269    18276 
   18237    18181    18161    18187    18233    18260    18250    18223 
   18207    18214    18239    18249    18226    18198    18179    18191 
   18226    18245    18253    18252    18230    18208    18198    18223 
   18260    18246    18214    18210    18215    18220    18222    18212 
   18211    18229    18245    18254    18256    18234    18193    18165 
   18175    18226    18273    18274    18233    18185    18177    18211 
   18250    18268    18269    18241    18191    18179    18219    18254 
   18247    18216    18193    18191    18211    18237    18234    18210 
   18191    18196    18233    18257    18249    18225    18206    18206 
   18215    18229    18253    18254    18222    18191    18185    18225 
   18269    18261    18222    18202    18202    18211    18235    18257 
   18252    18215    18184    18203    18243    18257    18246    18225 
   18206    18206    18211    18216    18230    18243    18234    18203 
   18188    18202    18220    18230    18231    18233    18238    18243 
   18222    18184    18185    18233    18274    18276    18245    18208 
   18185    18187    18212    18241    18253    18233    18196    18177 
   18192    18231    18260    18246    18216    18202    18207    18220 
   18234    18243    18241    18215    18196    18215    18237    18233 
   18235    18245    18235    18210    18192    18204    18238    18246 
   18223    18210    18234    18252    18220    18191    18211    18239 
   18226    18215    18245    18260    18220    18179    18185    18237 
   18274    18253    18203    18184    18193    18196    18211    18247 
   18266    18241    18204    18206    18227    18218    18195    18207 
   18245    18265    18254    18225    18195    18191    18214    18229 
   18227    18225    18230    18229    18212    18193    18203    18243 
   18264    18242    18225    18226    18219    18207    18211    18229 
   18234    18233    18237    18231    18225    18219    18202    18203 
   18223    18222    18216    18234    18250    18242    18212    18179 
   18176    18218    18262    18269    18239    18204    18198    18216 
   18227    18219    18222    18229    18219    18215    18225    18219 
   18219    18227    18211    18192    18211    18242    18249    18229 
   18206    18196    18200    18215    18242    18260    18245    18216 
   18211    18225    18234    18230    18226    18231    18237    18225 
   18199    18199    18227    18246    18234    18212    18206    18207 
   18215    18230    18237    18227    18220    18225    18220    18210 
   18216    18229    18237    18242    18237    18225    18211    18207 
   18230    18250    18229    18196    18188    18200    18225    18250 
   18247    18220    18215    18227    18225    18218    18215    18218 
   18235    18252    18233    18188    18179    18214    18242    18245 
   18237    18229    18219    18210    18204    18203    18218    18239 
   18234    18218    18220    18226    18214    18212    18235    18245 
   18229    18215    18215    18227    18243    18249    18235    18208 
   18192    18196    18214    18233    18238    18230    18214    18206 
   18211    18218    18216    18211    18216    18234    18243    18237 
   18225    18216    18215    18218    18216    18218    18231    18238 
   18222    18200    18193    18202    18220    18234    18241    18243 
   18235    18211    18184    18183    18211    18243    18262    18247 
   18216    18203    18208    18215    18210    18211    18227    18238 
   18230    18211    18210    18225    18227    18212    18199    18215 
   18256    18257    18219    18200    18214    18233    18241    18231 
   18212    18216    18233    18234    18226    18208    18200    18225 
   18237    18216    18206    18216    18230    18230    18218    18207 
   18219    18246    18245    18214    18195    18214    18245    18242 
   18212    18203    18220    18231    18227    18219    18220    18234 
   18247    18239    18216    18191    18183    18208    18243    18265 
   18250    18211    18202    18207    18204    18219    18239    18243 
   18239    18230    18215    18216    18231    18229    18204    18200 
   18223    18247    18246    18227    18204    18189    18195    18222 
   18250    18254    18229    18206    18214    18223    18211    18212 
   18238    18250    18238    18220    18204    18211    18218    18212 
   18229    18256    18254    18230    18204    18195    18206    18225 
   18238    18235    18227    18225    18218    18208    18218    18238 
   18234    18230    18241    18225    18192    18192    18234    18266 
   18254    18218    18185    18175    18198    18242    18270    18258 
   18220    18187    18176    18198    18235    18258    18242    18216 
   18218    18231    18235    18241    18258    18291    18327    18354 
   18351    18307    18233    18141    18050    18023    18072    18150 
   18243    18342    18341    18188    18030    17988    18021    18107 
   18320    18593    18727    18713    18603    18247    17710    17413 
   17543    17928    18431    18858    18763    18014    17227    17216 
   18188    19450    19969    19418    18319    17173    16278    16272 
   17428    18805    19708    20275    20028    18702    17574    17552 
   17614    16992    16738    17375    18206    19145    19726    18918 
   17599    17473    18193    18588    19051    19661    18809    16812 
   16008    16780    18080    19381    20320    20206    18785    17219 
   16533    16698    17856    19381    19642    18063    15969    15587 
   17717    20746    22041    20602    18337    16789    15838    16210 
   17810    18621    18231    18184    18886    19332    19589    19975 
   18943    16348    15176    16583    18387    19510    20461    20360 
   18311    15900    15083    16033    18399    21155    21910    19863 
   17208    16175    16653    17174    17485    18515    19897    19897 
   18389    17234    17066    17271    18129    19426    19714    18519 
   17208    17188    18013    18511    18644    18732    18441    17587 
   17211    18343    19765    19543    18127    17101    16642    16669 
   17945    19977    20757    19715    18107    16765    16050    16673 
   18438    19838    19904    18898    17494    16430    16534    17986 
   19619    20341    20017    18573    16700    15989    16984    18705 
   19765    19500    18387    17355    16951    17173    18018    19198 
   19705    19226    18461    17680    16993    17010    17803    18482 
   18557    18567    18767    18740    18492    18342    18280    18038 
   17583    17340    17559    18149    18867    19163    18706    17825 
   17423    18058    18986    19292    18858    18038    17315    17005 
   17352    18204    18909    19102    18792    18203    17856    18027 
   18252    18069    17830    17938    18203    18492    18777    18623 
   18002    17759    18088    18306    18481    18987    19130    18285 
   17181    16815    17236    18057    18974    19592    19606    19028 
   18076    17254    17010    17180    17655    18566    19413    19408 
   18557    17597    17146    17359    18135    19097    19620    19317 
   18200    16902    16525    17228    18283    19292    19903    19572 
   18123    16541    16456    17783    18916    19188    19037    18620 
   17780    17184    17693    18534    18534    17956    17616    17783 
   18161    18509    19049    19615    19384    18168    17016    17004 
   17840    18409    18403    18368    18451    18154    17531    17483 
   18210    18898    19213    19219    18499    17069    16167    16767 
   18141    19109    19570    19699    19064    17757    17146    17977 
   19024    19006    18285    17721    17508    17618    18168    19052 
   19506    18717    17232    16646    17365    18083    18225    18561 
   19084    19180    19090    19170    19063    18374    17277    16380 
   16424    17624    19047    19703    19473    18206    16499    16077 
   17176    18355    18890    19230    19427    19057    18837    19252 
   19083    17705    16235    15830    16640    18473    20594    20911 
   18607    16274    16202    17420    18485    19400    19803    18905 
   17366    16794    17698    18893    19005    18266    17929    18079 
   18042    18235    18854    19012    18690    18330    17678    17028 
   17358    18682    19422    18517    17555    18072    18883    18759 
   18364    18281    17977    17446    17571    18160    18287    17983 
   17537    17211    17755    19120    19982    19657    18590    17305 
   16476    17015    18706    19932    19867    19068    18085    17165 
   16410    16487    18071    19765    19739    18696    18289    18404 
   17869    16717    16417    17761    19457    19938    19434    18566 
   17095    15712    16050    17917    19565    20428    20595    19465 
   17609    16719    16961    17651    18844    20034    20011    18821 
   17483    16399    16083    17464    19630    20147    18733    17486 
   17143    16864    17311    19268    20777    19894    17616    15957 
   15857    17234    19138    20260    20208    19153    17398    16587 
   17687    18619    18139    17888    18021    17462    17778    19674 
   20328    18742    17192    16910    17421    18181    18554    18283 
   18175    18671    18866    18246    17667    17743    18067    18239 
   18320    18495    18654    18634    18651    18511    17828    17213 
   17170    17494    18214    18960    19074    18847    18482    17702 
   17409    18447    19113    17911    16572    16780    18013    19608 
   21006    21236    19823    17350    15304    15013    16491    18667 
   20260    20247    18701    16969    16078    16395    17888    19585 
   20487    20305    19114    17331    15969    16256    17782    18867 
   19171    19292    19311    18925    18110    17533    17612    17871 
   17809    17552    17659    18260    18994    19599    19677    18878 
   17734    17212    17363    17375    17140    17625    18827    19452 
   19341    19199    18715    17514    16364    16108    16823    18447 
   20460    21236    20024    18126    16738    15970    15853    16641 
   18299    19816    20116    19610    19178    18585    17474    16677 
   16779    17104    17671    19321    21092    20748    18796    17691 
   17045    15790    15809    17971    20178    20880    20048    18131 
   16389    16089    16860    17983    19587    20717    19867    17834 
   16605    16854    17863    18472    18333    17836    17419    17788 
   18927    19687    19527    18624    17485    17151    17703    18237 
   18630    18866    18146    16902    17223    19052    19688    18580 
   17710    17663    17612    17662    18307    18985    18989    18586 
   18273    18090    17880    17729    17925    18326    18335    17972 
   18083    18690    18651    17929    17660    18052    18447    18619 
   18912    18972    18026    16922    16956    17888    18956    19488 
   18976    17847    17362    18009    18759    19132    19309    18549 
   17369    17443    18114    18192    18245    18343    17725    17015 
   17452    18508    19070    19133    18848    18532    18350    17716 
   16924    16692    16943    17744    18944    19934    20243    19612 
   18531    17649    16937    16586    17358    19105    20002    19095 
   17859    17377    17354    17906    18910    19413    19045    18137 
   17043    16536    17374    18816    19415    19080    18582    18310 
   18370    18405    17707    16629    16573    17802    19012    19592 
   19967    19589    17698    15832    16150    18180    19936    20360 
   19465    17971    16800    16375    16983    18472    19587    19402 
   18427    17455    17134    18003    19318    19672    18767    17312 
   16467    17061    18372    18978    18744    18469    18503    18855 
   19209    18948    18373    18123    17694    16949    17059    18218 
   19153    19155    18447    17504    17226    18104    19116    19360 
   18981    18025    16887    16588    17423    18557    19145    19257 
   19110    18439    17554    17204    17305    17297    17084    17231 
   18260    19483    19734    19074    18422    18030    17606    17597 
   18347    18867    18611    18312    18166    17928    18108    18859 
   19209    18728    18064    17518    16996    17086    18164    19121 
   19125    18700    18004    16956    16556    17570    18841    19097 
   18856    18863    19066    19442    19785    19499    18355    16816 
   15688    15803    17238    18835    19556    19434    18708    17695 
   17138    17328    17693    17855    18123    18279    17640    16876 
   17091    18142    19525    20596    20673    20044    19232    18274 
   17248    16584    16780    17655    18669    19534    19912    19515 
   18403    17246    16744    16777    17242    18233    19097    18927 
   17786    16977    17419    18387    19091    19611    19683    18746 
   17290    16569    16933    17855    19190    20445    20468    19230 
   17685    16455    16175    17193    18607    19251    18990    18057 
   16846    16529    17678    18933    19071    18574    17964    17459 
   17774    18787    19345    19128    18697    18216    17725    17674 
   18168    18619    18524    18044    17698    17817    18292    18778 
   19091    19102    18457    17312    16727    17328    18497    19352 
   19476    18796    17699    17057    17120    17386    17875    18831 
   19575    19408    18836    18364    17659    16991    17135    17806 
   18284    18650    19101    19184    18511    17564    17166    17563 
   18157    18405    18576    18594    18022    17554    18092    18905 
   18778    18234    18285    18387    17905    17513    17728    17971 
   18011    18401    19028    19353    19255    18638    17878    17544 
   17288    17057    17604    18806    19777    20028    19396    17987 
   16858    17134    18204    18972    19340    19267    18728    18184 
   17883    17567    17153    17037    17288    17531    17917    18493 
   18485    17830    17452    17560    17787    18187    18805    19350 
   19521    19121    18284    17658    17676    18054    18405    18436 
   17979    17640    18284    19379    19449    18511    17821    17636 
   17420    17176    17278    17855    18640    19186    19295    19153 
   18814    18249    17913    18349    19009    18966    18459    17907 
   17200    16711    17023    17859    18324    18235    18141    18291 
   18468    18362    18162    18009    17579    17327    17809    18401 
   18447    18188    18189    18613    19263    19661    19201    18237 
   17749    17857    18227    18665    18698    18241    17999    18122 
   17915    17464    17706    18654    19345    19291    18639    17755 
   17145    17209    18108    19296    19707    19103    18161    17568 
   17618    17959    18045    17837    17568    17354    17317    17631 
   18090    18274    18349    18624    18658    18130    17652    17776 
   18185    18349    18164    17852    17811    18107    18310    18435 
   18736    18808    18520    18486    18689    18563    18370    18582 
   18708    18447    18280    18285    18308    18477    18627    18620 
   18654    18522    17907    17313    17253    17535    18134    19040 
   19488    18991    17964    16860    16023    16106    17421    19056 
   19786    19492    18769    17945    17209    16881    17135    17926 
   18993    19668    19369    18409    17647    17447    17694    18262 
   18905    19386    19480    18905    17982    17459    17442    17589 
   18048    18700    18738    18250    18033    18110    18403    19001 
   19349    18901    17898    17022    16908    17734    18967    19759 
   19489    18053    16411    16052    16929    17841    18495    18850 
   18486    17888    17876    18154    18357    18711    18939    18667 
   18237    17919    17844    18104    18320    18439    18763    18833 
   18453    18484    19017    19020    18504    18420    18642    18520 
   18185    17913    17703    17620    17744    18064    18439    18357 
   17543    16788    16802    17309    17988    18584    18625    18045 
   17386    17244    17737    18473    19062    19469    19626    19291 
   18659    18193    17890    17685    17917    18662    19425    19738 
   19548    19087    18459    17625    16935    17064    18075    19093 
   19256    18497    17308    16467    16592    17466    18312    18627 
   18355    17640    16920    16945    17837    18858    19449    19454 
   18782    17840    17398    17620    18106    18611    18997    19132 
   18947    18418    17860    17718    17948    18242    18482    18604 
   18435    18060    17883    17932    17898    18031    18705    19380 
   19383    18867    18166    17388    16983    17417    18314    18949 
   19103    18959    18670    18171    17486    17100    17419    18004 
   18183    17998    17787    17734    17979    18349    18523    18436 
   18195    18067    18202    18219    17986    18014    18469    18750 
   18484    18166    18134    18160    18312    18733    19206    19530 
   19606    19345    18759    18091    17618    17362    17332    17567 
   17859    17982    17946    17809    17577    17401    17527    17976 
   18485    18715    18624    18500    18469    18458    18369    18130 
   17965    18165    18528    18728    18744    18544    18153    17896 
   17892    17917    17980    18117    18065    17919    18064    18270 
   18208    18184    18315    18314    18291    18409    18316    18022 
   18166    18735    18978    18673    18160    17730    17590    17828 
   18459    19234    19495    18998    18214    17585    17244    17367 
   17973    18557    18688    18357    17645    17124    17448    18192 
   18627    18675    18438    18138    18185    18486    18624    18513 
   18171    17776    17743    18042    18331    18438    18353    18203 
   18098    18058    18175    18411    18493    18249    17917    17760 
   17637    17632    18017    18418    18401    18156    18038    18211 
   18619    18987    19044    18817    18543    18306    18144    18311 
   18785    19043    18897    18528    17980    17451    17255    17421 
   17815    18288    18617    18619    18269    17667    17100    17065 
   17768    18666    19133    19205    19071    18662    18011    17464 
   17442    17798    18017    18153    18451    18760    18939    18847 
   18385    17797    17467    17766    18588    19172    19089    18731 
   18442    18076    17699    17768    18188    18338    18114    17925 
