Origin Time       2024/06/23 22:54:00
Lat.              35.645
Long.             140.060
Depth. (km)       72
Mag.              4.1
Station Code      CHB004
Station Lat.      35.8889
Station Long.     140.4903
Station Height(m) 36
Record Time       2024/06/23 22:54:47
Sampling Freq(Hz) 100Hz
Duration Time(s)  60
Dir.              N-S
Scale Factor      7845(gal)/8223790
Max. Acc. (gal)   2.085
Last Correction   2024/06/23 22:54:47
Memo.             
[...]
    -554     -533     -552     -571     -554     -530     -540     -558 
    -545     -538     -575     -594     -549     -517     -561     -610 
    -571     -504     -511     -562     -581     -561     -544     -537 
    -533     -558     -612     -596     -491     -465     -573     -621 
    -553     -521     -558     -604     -618     -585     -572     -565 
    -477     -388     -413     -515     -653     -745     -704     -631 
    -610     -589     -549     -445     -334     -394     -557     -599 
    -541     -556     -672     -718     -562     -392     -434     -584 
    -676     -661     -537     -491     -635     -693     -486     -217 
    -162     -364     -633     -807     -954    -1107    -1039     -594 
     -90       37     -140     -311     -495     -857    -1202    -1162 
    -730     -272      -44       -5     -163     -600    -1108    -1239 
    -880     -388      -70       51      -43     -386     -873    -1229 
   -1171     -831     -565     -391     -176      -36     -149     -442 
    -700     -888     -996     -864     -519     -284     -342     -579 
    -751     -685     -523     -463     -359     -210     -329     -654 
    -808     -706     -546     -503     -608     -754     -820     -811 
    -691     -410     -153     -106     -201     -379     -681     -913 
    -827     -607     -569     -653     -687     -716     -742     -627 
    -453     -376     -329     -322     -461     -635     -726     -706 
    -530     -368     -442     -606     -673     -719     -764     -730 
    -558     -245      -41     -229     -672    -1000    -1009     -731 
    -341      -32       89      -44     -471    -1061    -1436    -1270 
    -707     -148      238      341      -56     -792    -1325    -1360 
   -1004     -494      -91       12     -198     -616    -1026    -1136 
    -873     -467     -211     -222     -415     -649     -783     -734 
    -638     -666     -726     -704     -633     -519     -321      -79 
     -14     -344     -853    -1116    -1092     -945     -633     -164 
     159      117     -151     -445     -729     -950     -973     -808 
    -606     -419     -280     -309     -535     -796     -873     -730 
    -542     -467     -442     -413     -472     -585     -568     -467 
    -481     -648     -849     -974     -977     -788     -336      172 
     317      -28     -579    -1001    -1085     -792     -361     -155 
    -333     -737    -1065    -1123     -935     -697     -541     -383 
    -152       36       29     -168     -417     -630     -747     -669 
    -500     -448     -486     -638    -1009    -1340    -1360    -1134 
    -702     -217       17        1      -60     -144     -353     -654 
    -895     -943     -801     -637     -577     -607     -681     -700 
    -606     -498     -460     -427     -330     -213     -101       16 
     -10     -314     -720     -996    -1144    -1205    -1077     -774 
    -510     -426     -479     -499     -406     -367     -441     -409 
    -252     -245     -430     -580     -621     -689     -846     -984 
   -1026     -955     -669     -187      101     -106     -611     -957 
    -888     -554     -237      -44      -54     -303     -621     -859 
   -1028    -1080     -889     -498     -186     -156     -276     -353 
    -392     -409     -422     -542     -774    -1044    -1219    -1078 
    -670     -346     -280     -411     -618     -631     -346     -110 
    -153     -283     -346     -414     -567     -838    -1183    -1374 
   -1158     -684     -325     -210     -298     -469     -576     -600 
    -529     -251      137      247     -124     -691    -1086    -1183 
   -1001     -722     -602     -656     -750     -764     -577     -359 
    -388     -531     -530     -418     -333     -299     -213      -97 
    -248     -718    -1161    -1362    -1363    -1182     -796     -322 
      -5       33     -180     -476     -504     -180       99      -21 
    -565    -1209    -1409     -997     -394      -27        0     -263 
    -708    -1113    -1213     -919     -425      -74      -71     -332 
    -581     -692     -797     -940     -999     -938     -704     -311 
     -55     -153     -457     -714     -824     -801     -677     -546 
    -506     -529     -565     -629     -689     -654     -531     -392 
    -230      -97     -101     -241     -417     -603     -891    -1227 
   -1387    -1189     -596        8      128     -144     -414     -510 
    -461     -379     -334     -353     -506     -811    -1005     -889 
    -739     -753     -691     -453     -319     -500     -754     -783 
    -733     -726     -541     -210      -72     -264     -645     -920 
    -888     -654     -357     -120     -156     -444     -718     -874 
   -1000    -1078     -932     -607     -436     -379      -35      434 
     365     -284     -957    -1378    -1497    -1202     -689     -340 
    -265     -388     -584     -643     -460     -133      194      314 
      27     -552    -1067    -1323    -1362    -1260    -1004     -572 
    -129       41     -108     -409     -749     -955     -842     -583 
    -432     -275      -54      -41     -376     -864    -1167    -1050 
    -669     -388     -328     -454     -661     -724     -638     -577 
    -454     -199      -44     -112     -348     -673     -938    -1088 
   -1132     -965     -610     -328     -271     -279     -226     -288 
    -514     -615     -548     -594     -773     -849     -697     -429 
    -257     -221     -241     -382     -619     -710     -654     -754 
    -993     -993     -707     -511     -511     -414     -249     -263 
    -279     -132     -118     -446     -891    -1127    -1067     -938 
    -876     -672     -257       12     -118     -506     -845     -930 
    -730     -391     -172     -245     -521     -804    -1028    -1134 
    -957     -500      -91        5     -140     -399     -680     -776 
    -554     -211     -143     -463     -803     -866     -837     -818 
    -637     -386     -313     -394     -552     -770     -919     -835 
    -550     -319     -359     -531     -552     -481     -600     -866 
    -959     -679     -122      391      550      194     -604    -1471 
   -1903    -1707    -1165     -634     -148      287      324     -209 
    -837    -1044     -878     -696     -611     -454     -191      -74 
    -265     -565     -722     -758     -787     -751     -510     -108 
      89     -199     -719    -1046    -1155    -1175    -1050     -801 
    -654     -724     -824     -660     -175      314      444      166 
    -176     -294     -341     -541     -772     -912    -1104    -1317 
   -1285     -955     -506     -106      141      228       95     -330 
    -908    -1258    -1085     -557     -228     -375     -661     -756 
    -850    -1116    -1215     -851     -322      -67      -67     -110 
    -279     -637     -868     -594       37      315     -164     -922 
   -1370    -1509    -1503    -1189     -434      326      487       47 
    -498     -765     -780     -754     -670     -395     -135     -232 
    -598     -862     -908     -830     -672     -445     -151       70 
    -101     -702    -1223    -1259    -1057     -932     -769     -483 
    -324     -450     -637     -575     -261       24       14     -278 
    -603     -846    -1077    -1173     -915     -491     -268     -295 
    -472     -697     -837     -822     -602     -217       39      -78 
    -411     -616     -571     -364     -202     -279     -472     -552 
    -625     -834    -1003     -934     -720     -607     -670     -781 
    -816     -715     -419        8      267      106     -372     -855 
   -1139    -1210    -1077     -703     -286     -162     -318     -502 
    -654     -785     -801     -654     -421     -241     -252     -445 
    -665     -791     -823     -841     -822     -621     -302     -151 
    -241     -364     -391     -442     -583     -662     -639     -584 
    -421     -211     -271     -643    -1075    -1328    -1231     -920 
    -695     -592     -560     -619     -689     -619     -342       51 
     272       63     -425     -835    -1027    -1009     -832     -598 
    -395     -334     -454     -554     -454     -248      -94      -70 
    -202     -419     -664     -903    -1003     -878     -611     -392 
    -391     -581     -816     -931     -814     -488     -116      133 
     143     -176     -757    -1252    -1390    -1216     -826     -364 
    -172     -453     -919    -1040     -711     -361     -268     -309 
    -406     -575     -681     -626     -499     -407     -430     -603 
    -822     -930     -876     -715     -534     -453     -484     -427 
    -234     -155     -251     -306     -319     -535     -886     -953 
    -615     -236     -133     -260     -425     -579     -815    -1082 
   -1185    -1089     -904     -649     -348     -178     -232     -291 
     -78      240      247      -74     -452     -842    -1306    -1782 
   -2073    -1952    -1377     -550      243      695      657      351 
     129      116      202      190      -87     -627    -1229    -1688 
   -1861    -1665    -1201     -720     -357     -112      -32     -124 
    -255     -380     -579     -783     -758     -459     -216     -348 
    -746    -1070    -1190    -1210    -1205    -1192    -1271    -1480 
   -1675    -1664    -1324     -758     -282       17      261      415 
     481      542      476      229       -8     -105      -22      152 
     164      -94     -525     -951    -1088     -835     -496     -313 
    -340     -646    -1066    -1181     -853     -292      241      513 
     398      -60     -689    -1200    -1377    -1163     -635      -71 
     147     -128     -576     -768     -697     -476      -59      422 
     598      160     -696    -1351    -1560    -1478    -1089     -599 
    -533     -997    -1634    -2073    -2030    -1451     -576      224 
     518      128     -627    -1358    -1813    -1706     -957        9 
     471       72     -826    -1625    -1933    -1518     -484      630 
    1279     1277      791      137     -444     -697     -369      318 
     710      394     -526    -1675    -2565    -2663    -1933    -1015 
    -387     -108     -272     -820    -1399    -1686    -1483     -886 
    -353     -179     -175     -162     -209     -214      -70       44 
     143      321      291      -70     -388     -392     -322     -471 
    -658     -704     -839    -1107    -1067     -549       37      376 
     522      473      120     -472    -1007    -1277    -1387    -1536 
   -1822    -2111    -2096    -1668     -935      -36      812     1282 
    1135      521     -179     -750    -1004     -841     -602     -579 
    -695     -940    -1247    -1282     -943     -452      -25      153 
      33     -207     -506     -804     -846     -652     -557     -660 
    -818     -907     -838     -627     -479     -569     -808    -1080 
   -1364    -1395     -988     -477     -153      -78     -334     -661 
    -669     -425     -114      271      648      754      410     -303 
    -993    -1321    -1340    -1213    -1044     -936     -912     -947 
    -949     -714     -255      180      487      602      390      -90 
    -585     -909     -986     -862     -733     -754     -862     -972 
   -1096    -1112     -847     -468     -264     -164      -43      -36 
    -179     -405     -685     -781     -693     -793    -1055    -1209 
   -1263    -1340    -1503    -1665    -1601    -1174     -500       98 
     348      280      151      130      209      314      396      417 
     245     -275     -972    -1478    -1645    -1521    -1247     -874 
    -438     -128       27       47     -139     -344     -483     -718 
    -820     -544     -162       44        4     -291     -637     -920 
   -1270    -1518    -1371    -1001     -758     -580     -290     -180 
    -541    -1026    -1227    -1183     -886     -286      226      334 
     157     -152     -429     -546     -514     -360     -241     -355 
    -661     -943     -994     -795     -554     -417     -388     -550 
    -861    -1081    -1128    -1124    -1104     -918     -562     -267 
     -76       76      218      349      229     -279     -873    -1263 
   -1335    -1144     -912     -700     -530     -456     -325     -102 
       4      -87     -318     -623     -935    -1069     -850     -475 
    -245     -274     -630    -1121    -1371    -1381    -1244     -943 
    -683     -530     -263       40      186      240      221        1 
    -471    -1043    -1435    -1579    -1487    -1059     -499     -137 
      29      -29     -328     -568     -595     -419        5      402 
     418      179      -74     -307     -496     -602     -646     -631 
    -584     -633     -777     -916    -1053    -1077     -873     -629 
    -552     -645     -797     -831     -695     -495     -278     -207 
    -498     -989    -1297    -1229     -915     -603     -418     -379 
    -463     -556     -579     -627     -746     -811     -773     -723 
    -689     -629     -445      -86      260      371      257        6 
    -306     -580     -742     -745     -629     -518     -410     -194 
      67      209       75     -488    -1206    -1615    -1885    -2080 
   -1736    -1012     -415       40      352      409      267      -25 
    -309     -484     -699     -873    -1011    -1391    -1861    -2073 
   -1968    -1537     -965     -461       47      491      781      999 
    1070     1004      938      873      699      207     -623    -1598 
   -2427    -2739    -2571    -2203    -1532     -634      -16      237 
     422      542      461      172     -303     -862    -1293    -1555 
   -1719    -1694    -1491    -1300    -1108     -835     -491     -159 
     105      450      841      922      641      221     -182     -411 
    -549     -801    -1054    -1190    -1269    -1286    -1232    -1089 
    -784     -326       45      133      105      105      -62     -471 
    -967    -1445    -1746    -1721    -1372     -861     -430     -166 
     -13      -44     -298     -581     -726     -787     -778     -604 
    -326      -87       86      121      -86     -461     -796     -905 
    -751     -502     -360     -410     -580     -727     -830     -895 
    -810     -595     -394     -201       27      182      135     -118 
    -526     -966    -1215    -1134     -777     -333      -31       31 
     -21      -98     -270     -487     -711    -1078    -1483    -1722 
   -1840    -1775    -1331     -666     -149      101       67     -189 
    -417     -473     -467     -537     -650     -708     -677     -527 
    -303      -95       24      -40     -256     -521     -758     -859 
    -741     -415      -28      130      -76     -473     -919    -1325 
   -1439    -1194     -789     -484     -519     -735     -872     -919 
    -793     -537     -351     -313     -448     -612     -629     -502 
    -202      226      481      302     -136     -511     -803    -1053 
   -1262    -1405    -1264     -903     -581     -193      236      363 
     148     -211     -544     -764    -1005    -1244    -1247    -1138 
   -1188    -1340    -1382    -1156     -730     -291      168      589 
     714      445     -109     -654     -831     -730     -633     -538 
    -507     -657     -895    -1138    -1213     -927     -450      -55 
     190      345      479      500      257     -272     -993    -1617 
   -1927    -2034    -2000    -1786    -1494    -1170     -784     -392 
     -35      232      315      326      352      303      217      101 
    -125     -301     -368     -527     -774    -1015    -1273    -1443 
   -1431    -1362    -1282    -1042     -652     -326      -89      147 
     332      477      508      220     -221     -603    -1027    -1344 
   -1366    -1274    -1117     -881     -723     -637     -600     -556 
    -317        5      206      278      121     -234     -517     -702 
    -924    -1055    -1017    -1013    -1074    -1069    -1054    -1005 
    -804     -607     -538     -396     -110       63      -43     -272 
    -400     -453     -492     -422     -329     -301     -191     -135 
    -386     -765    -1077    -1317    -1340    -1125     -855     -560 
    -257      -67      -13     -121     -361     -554     -610     -656 
    -822    -1070    -1270    -1316    -1142     -764     -279      251 
     707      874      643       70     -604    -1027    -1086     -931 
    -684     -448     -309     -229     -205     -356     -673     -984 
   -1136    -1105     -970     -789     -645     -675     -884    -1182 
   -1478    -1547    -1220     -661     -209        0       25     -176 
    -545     -735     -635     -457     -270      -83      -81     -321 
    -649     -943    -1128    -1067     -700     -172      228      271 
     -16     -369     -672     -928     -980     -819     -669     -614 
    -666     -857    -1061    -1143    -1097     -854     -353      237 
     676      832      723      433      -20     -571     -969    -1128 
   -1286    -1570    -1795    -1784    -1494     -963     -372       95 
     481      781      832      642      341      -14     -402     -823 
   -1209    -1397    -1347    -1165     -901     -606     -415     -336 
    -298     -322     -405     -499     -652     -872     -972     -900 
    -842     -785     -648     -487     -352     -302     -252      -75 
      82      121       93      -71     -426     -847    -1188    -1350 
   -1325    -1258    -1200    -1127    -1100    -1105    -1069     -912 
    -588     -256     -152     -309     -572     -699     -545     -271 
    -114     -102     -210     -418     -669     -911    -1024     -905 
    -648     -453     -384     -325     -202     -121     -141     -228 
    -352     -418     -379     -373     -477     -538     -432     -274 
    -244     -286     -279     -329     -562     -880    -1123    -1217 
   -1108     -849     -653     -656     -753     -797     -724     -592 
    -510     -434     -295     -175     -198     -426     -729     -889 
    -876     -789     -710     -592     -351      -72       31     -109 
    -373     -631     -869    -1011     -882     -500      -79      163 
      64     -357     -916    -1440    -1763    -1753    -1468    -1015 
    -472      -75       29       10      -49     -222     -418     -534 
    -611     -676     -729     -735     -596     -348     -159      -52 
       4      -39     -201     -433     -641     -718     -621     -355 
     -41       52     -155     -468     -696     -789     -764     -679 
    -619     -598     -596     -646     -743     -837     -892     -903 
    -939    -1043    -1158    -1252    -1316    -1290    -1179    -1059 
    -954     -812     -585     -322     -113      -20      -67     -252 
    -500     -598     -371       41      373      569      588      184 
    -560    -1116    -1271    -1194     -955     -653     -369      -74 
      63      -97     -380     -608     -746     -803     -838     -838 
    -718     -537     -468     -541     -648     -724     -769     -778 
    -751     -707     -692     -739     -795     -770     -649     -457 
    -252     -132     -144     -255     -349     -288     -135      -55 
     -85     -229     -477     -731     -865     -803     -553     -272 
    -198     -461     -927    -1291    -1374    -1236    -1024     -789 
    -564     -483     -575     -598     -407     -207     -144     -179 
