Origin Time       2024/06/23 22:54:00
Lat.              35.645
Long.             140.060
Depth. (km)       72
Mag.              4.1
Station Code      CHB026
Station Lat.      35.3858
Station Long.     140.2404
Station Height(m) 46
Record Time       2024/06/23 22:54:46
Sampling Freq(Hz) 100Hz
Duration Time(s)  60
Dir.              U-D
Scale Factor      7845(gal)/8223790
Max. Acc. (gal)   2.209
Last Correction   2024/06/23 22:54:45
Memo.             
[...]
   12560    12475    12505    12542    12496    12519    12505    12476 
   12556    12533    12448    12522    12546    12488    12509    12513 
   12507    12528    12487    12492    12563    12509    12459    12528 
   12529    12507    12518    12479    12515    12565    12486    12469 
   12545    12526    12486    12514    12517    12503    12519    12505 
   12502    12533    12507    12486    12523    12526    12498    12498 
   12511    12544    12513    12463    12540    12540    12464    12521 
   12536    12491    12517    12515    12498    12528    12517    12482 
   12528    12526    12475    12533    12526    12478    12529    12510 
   12495    12542    12491    12495    12557    12476    12488    12577 
   12484    12474    12555    12496    12491    12538    12498    12495 
   12529    12506    12503    12518    12492    12510    12536    12499 
   12496    12514    12511    12532    12511    12480    12534    12519 
   12467    12541    12533    12472    12533    12517    12480    12538 
   12503    12487    12555    12501    12471    12541    12513    12499 
   12528    12475    12517    12563    12461    12494    12573    12490 
   12501    12518    12467    12559    12538    12434    12534    12549 
   12469    12515    12523    12499    12515    12495    12498    12542 
   12511    12468    12529    12533    12478    12518    12522    12484 
   12540    12511    12459    12549    12536    12451    12522    12541 
   12476    12526    12515    12472    12550    12518    12463    12540 
   12517    12478    12537    12511    12498    12536    12468    12505 
   12576    12460    12478    12564    12506    12501    12494    12494 
   12555    12509    12472    12522    12523    12513    12496    12488 
   12546    12526    12453    12509    12556    12507    12486    12502 
   12519    12523    12506    12490    12515    12522    12488    12505 
   12530    12505    12503    12514    12503    12519    12514    12479 
   12525    12534    12467    12502    12556    12510    12476    12501 
   12534    12521    12484    12490    12529    12537    12479    12484 
   12544    12510    12494    12511    12492    12528    12514    12453 
   12538    12556    12448    12490    12557    12498    12479    12517 
   12509    12522    12518    12461    12522    12560    12457    12479 
   12567    12509    12474    12514    12506    12518    12509    12464 
   12530    12537    12465    12503    12522    12501    12522    12501 
   12486    12518    12506    12506    12518    12487    12530    12537 
   12440    12503    12575    12479    12488    12533    12491    12518 
   12525    12469    12526    12548    12455    12491    12550    12492 
   12510    12519    12482    12529    12509    12471    12536    12529 
   12479    12510    12523    12503    12513    12496    12502    12537 
   12490    12490    12540    12501    12501    12518    12496    12518 
   12517    12488    12511    12525    12495    12499    12513    12514 
   12529    12498    12476    12519    12533    12503    12507    12513 
   12488    12523    12522    12474    12533    12514    12475    12552 
   12494    12476    12572    12482    12455    12569    12506    12471 
   12552    12488    12488    12571    12472    12464    12573    12501 
   12478    12544    12474    12502    12583    12461    12474    12575 
   12479    12494    12545    12465    12522    12555    12463    12495 
   12548    12509    12505    12510    12488    12511    12532    12518 
   12506    12498    12502    12515    12521    12514    12499    12503 
   12525    12518    12501    12502    12525    12530    12494    12502 
   12521    12506    12534    12559    12587    12660    12718    12765 
   12753    12606    12395    12205    12096    12121    12241    12394 
   12537    12640    12756    12908    13032    13108    13104    12911 
   12515    12046    11669    11754    12425    13088    13219    12818 
   12182    11889    11966    11649    11152    11372    12042    12671 
   13320    13726    13505    12671    12040    12515    13402    13558 
   13103    12552    12217    12178    11994    11615    11765    12352 
   12528    12372    12317    12286    12356    12503    12654    13099 
   13456    13244    12922    12606    11924    11130    11098    12303 
   13761    14099    13468    12834    12455    12251    12278    12244 
   11940    11901    12213    12322    12514    12968    13042    12750 
   12471    12484    12791    12779    12499    12428    12494    12545 
   12334    12063    12205    12324    12229    12483    12884    12941 
   12853    12739    12519    12236    11831    11526    11794    12505 
   13045    13123    12758    12186    11977    12343    12769    12862 
   12753    12677    12856    13081    12850    12432    12379    12569 
   12694    12785    12834    12563    12154    12089    12129    12006 
   11931    11875    11740    11827    12312    12702    12718    12792 
   13023    13138    13149    13042    12771    12621    12723    12819 
   12846    12818    12518    12064    11961    12190    12270    12131 
   12181    12550    12804    12753    12571    12371    12359    12448 
   12525    12718    12680    12476    12590    12685    12580    12588 
   12557    12313    12037    11952    12104    12414    12734    12804 
   12807    12892    12673    12432    12555    12611    12575    12627 
   12544    12320    12109    12090    12314    12486    12495    12498 
   12510    12513    12600    12780    12911    12949    12874    12671 
   12402    12160    12054    12002    12019    12434    13005    13163 
   12972    12486    11874    11778    12090    12262    12440    12711 
   12883    13008    12942    12683    12641    12721    12729    12727 
   12557    12312    12197    12275    12583    12599    12170    12025 
   12201    12330    12495    12617    12671    12793    12787    12541 
   12426    12569    12638    12652    12679    12437    12177    12232 
   12317    12367    12437    12417    12387    12405    12495    12619 
   12696    12802    12827    12602    12386    12468    12642    12795 
   13019    13050    12820    12596    12352    12097    11902    11804 
   12093    12604    12753    12623    12498    12372    12339    12430 
   12653    12922    12930    12776    12725    12526    12224    12109 
   12002    12021    12332    12556    12727    12974    12928    12571 
   12414    12602    12700    12614    12631    12704    12729    12664 
   12371    12208    12453    12498    12132    11858    11898    12128 
   12298    12490    12839    13062    13043    12918    12799    12721 
   12571    12482    12660    12814    12667    12499    12534    12476 
   12190    12025    12101    12144    12016    11904    12101    12529 
   12912    13074    12830    12391    12268    12467    12761    12999 
   12997    12825    12617    12282    12005    12116    12271    12114 
   12123    12475    12723    12803    12694    12438    12475    12719 
   12874    12939    12723    12494    12631    12584    12334    12456 
   12603    12586    12710    12664    12256    11867    11745    12027 
   12653    13101    13058    12722    12347    12087    11989    12128 
   12491    12807    12958    12993    12835    12550    12420    12355 
   12216    12294    12480    12426    12312    12282    12417    12739 
   12831    12610    12424    12340    12421    12603    12598    12555 
   12702    12968    13294    13347    12792    12037    11676    11750 
   11989    12222    12367    12494    12810    13039    12870    12631 
   12556    12658    12814    12744    12523    12178    11805    11983 
   12495    12669    12718    12772    12680    12557    12167    11576 
   11549    12208    12926    13247    13273    13327    13289    12880 
   12330    12037    12000    12139    12474    12679    12587    12559 
   12563    12429    12491    12663    12447    12160    12118    11988 
   11967    12285    12560    12744    12804    12773    12899    12815 
   12472    12425    12546    12623    12660    12407    12182    12409 
   12617    12541    12297    11909    11916    12324    12453    12482 
   12587    12541    12637    12870    12924    12772    12398    12118 
   12178    12312    12541    12830    12846    12827    13022    13123 
   13038    12846    12553    12383    12321    12159    12199    12460 
   12478    12383    12506    12704    12802    12769    12565    12297 
   12213    12275    12349    12410    12367    12399    12623    12676 
   12582    12618    12676    12656    12321    11701    11597    12090 
   12627    13100    13149    12780    12671    12614    12283    12086 
   12040    12055    12330    12765    13062    12988    12652    12491 
   12514    12463    12483    12621    12603    12560    12615    12456 
   12384    12721    12780    12491    12422    12245    11912    11970 
   12114    12086    12310    12695    12881    12922    12799    12658 
   12823    12973    12880    12933    13015    12861    12575    12152 
   12027    12424    12653    12511    12249    11947    11978    12301 
   12402    12448    12587    12599    12619    12606    12411    12275 
   12336    12480    12515    12532    12799    13016    12789    12432 
   12318    12405    12537    12555    12333    12054    12031    12226 
   12555    13005    13250    13147    12918    12609    12287    12213 
   12307    12248    12148    12293    12492    12399    12159    12063 
   12044    12275    12896    13400    13541    13485    13196    12731 
   12366    12222    12156    12059    12025    12218    12548    12652 
   12521    12510    12629    12498    12182    12125    12340    12615 
   12771    12820    12942    13027    13049    12960    12479    11907 
   11650    11658    11948    12307    12444    12542    12577    12393 
   12275    12318    12430    12692    12864    12785    12795    12868 
   12745    12629    12568    12426    12437    12469    12244    12204 
   12418    12492    12602    12760    12717    12754    12900    12715 
   12352    12194    12118    12079    12252    12414    12390    12546 
   12895    12988    12812    12613    12515    12479    12414    12407 
   12486    12615    12714    12660    12525    12372    12291    12322 
   12290    12226    12185    12194    12422    12718    12845    12893 
   13001    13088    12903    12610    12367    11969    11743    11943 
   12283    12654    12846    12745    12588    12451    12418    12488 
   12537    12640    12699    12615    12475    12280    12082    11970 
   11952    11982    12029    12125    12299    12506    12704    12861 
   12930    12962    12941    12880    12833    12804    12911    13062 
   13023    12829    12699    12685    12567    12390    12276    12170 
   12185    12333    12467    12476    12348    12286    12244    12064 
   12032    12329    12665    12807    12839    12835    12711    12564 
   12526    12564    12722    12972    13163    13193    12912    12502 
   12278    12209    12241    12191    12020    11979    11871    11642 
   11703    11954    12155    12316    12297    12301    12637    12973 
   13128    13149    12964    12818    12829    12908    13041    12865 
   12428    12291    12293    12245    12469    12672    12561    12491 
   12440    12353    12518    12609    12406    12379    12545    12652 
   12754    12826    12783    12573    12222    11911    11781    11865 
   12085    12278    12468    12737    12852    12712    12603    12559 
   12545    12681    12860    13030    13103    12861    12505    12305 
   12313    12501    12610    12494    12341    12351    12528    12596 
   12409    12260    12102    11809    11821    12114    12306    12492 
   12780    13100    13193    12989    12842    12779    12646    12506 
   12399    12471    12665    12587    12376    12336    12240    12128 
   12186    12280    12494    12737    12710    12657    12712    12656 
   12753    12989    12853    12587    12474    12168    11924    12028 
   12015    11971    12225    12351    12282    12348    12479    12648 
   12872    12934    12835    12872    13122    13436    13572    13375 
   13073    12789    12432    12128    11955    11870    11853    11888 
   12050    12225    12177    12039    11948    11858    11978    12245 
   12355    12445    12557    12550    12660    12934    13045    13019 
   12988    12849    12711    12676    12698    12866    13018    12969 
   13005    13054    12826    12621    12480    12129    11905    11978 
   12019    12069    12137    12036    12000    12127    12187    12210 
   12220    12183    12229    12399    12714    13078    13150    12926 
   12726    12622    12576    12611    12718    12884    13019    12974 
   12766    12661    12711    12758    12739    12451    11971    11809 
   11854    11715    11659    11801    11911    12124    12452    12734 
   12955    13053    13126    13217    13211    13293    13375    13128 
   12784    12499    12195    12136    12303    12420    12636    12811 
   12522    12109    11871    11654    11688    11928    12046    12221 
   12413    12559    12938    13212    13142    13207    13308    13019 
   12438    11736    11173    11086    11431    11956    12475    12978 
   13516    13944    13994    13691    13362    13008    12596    12299 
   11979    11647    11506    11394    11493    11998    12387    12498 
   12533    12383    12160    11989    11881    12183    12899    13497 
   13809    13894    13726    13556    13500    13390    13228    12960 
   12602    12322    11966    11400    10839    10401    10193    10304 
   10575    11029    11658    12124    12471    12973    13537    14026 
   14397    14500    14392    14289    14112    13828    13635    13452 
   13251    13134    12779    12047    11319    10813    10679    11043 
   11529    11753    11780    11689    11628    11813    12105    12395 
   12680    12788    12820    13007    13181    13181    13080    12852 
   12618    12573    12622    12811    13122    13146    12838    12482 
   12199    12082    11942    11632    11538    11664    11765    12102 
   12564    12842    13178    13495    13535    13473    13232    12812 
   12652    12638    12559    12586    12546    12386    12314    12325 
   12414    12391    12010    11539    11225    11092    11318    11832 
   12299    12685    13043    13351    13748    14156    14288    14241 
   13986    13285    12491    11905    11562    11570    11587    11514 
   11645    11740    11853    12232    12486    12685    13057    13204 
   13246    13342    13140    12816    12625    12472    12398    12325 
   12113    11924    11781    11497    11281    11341    11407    11418 
   11591    11947    12406    12887    13354    13761    14048    14204 
   14067    13649    13332    13076    12665    12355    12248    12131 
   12019    12048    12193    12402    12657    12822    12850    12903 
   12938    12841    12708    12582    12571    12749    12690    12262 
   11993    11862    11642    11612    11697    11637    11460    11240 
   11244    11553    11977    12410    12691    12870    13085    13219 
   13347    13598    13759    13659    13456    13343    13374    13590 
   13706    13463    13212    13022    12700    12444    12116    11580 
   11165    10845    10647    10789    11045    11402    11938    12256 
   12262    12271    12314    12276    12330    12517    12739    13150 
   13547    13679    13767    13701    13502    13522    13402    12968 
   12591    12212    11961    11978    11935    11952    12078    11978 
   11834    11862    11967    12251    12748    13188    13463    13601 
   13443    13096    12785    12424    12158    12175    12181    12087 
   12004    11807    11645    11595    11487    11600    11988    12411 
   12915    13147    13082    13269    13504    13545    13690    13713 
   13405    13076    12687    12160    11753    11460    11221    11109 
   11060    11169    11495    11854    12285    12773    13143    13459 
   13684    13657    13497    13366    13239    13162    13162    13062 
   12854    12680    12607    12657    12650    12540    12488    12390 
   12124    11880    11701    11578    11720    12000    12190    12436 
   12557    12459    12474    12433    12289    12266    12114    12027 
   12191    12174    12124    12293    12391    12483    12702    12823 
   12926    13131    13240    13284    13258    12942    12548    12339 
   12270    12387    12561    12631    12780    12958    12961    12884 
   12830    12750    12667    12631    12495    12226    11958    11610 
   11317    11358    11570    11844    12271    12649    12873    13019 
   13032    13078    13190    13095    12865    12630    12378    12214 
   12181    12293    12465    12563    12631    12644    12432    12136 
   12046    12073    12150    12347    12541    12753    12950    12949 
   12893    12860    12711    12471    12244    12067    11912    11867 
   11955    12074    12280    12511    12668    12860    13000    13045 
   13176    13365    13535    13666    13566    13290    13027    12722 
   12441    12237    11997    11685    11329    11021    10872    10943 
   11199    11577    11969    12294    12592    12808    12993    13161 
   13189    13331    13598    13649    13485    13230    12977    12780 
   12637    12565    12611    12719    12699    12577    12407    12155 
   12066    12135    12170    12298    12326    12124    12093    12106 
   11923    11851    11954    12182    12540    12714    12702    12742 
   12690    12541    12540    12591    12553    12538    12549    12534 
   12588    12679    12746    12874    13003    12996    12919    12880 
   12862    12853    12804    12676    12557    12442    12328    12336 
   12363    12340    12330    12275    12320    12505    12540    12503 
   12519    12495    12424    12191    11827    11600    11495    11430 
   11600    11898    12062    12201    12387    12630    12943    13119 
   13186    13347    13483    13486    13359    13045    12708    12544 
   12515    12663    12868    12927    12970    12966    12742    12496 
   12409    12383    12341    12278    12104    11893    11821    11780 
   11788    11966    12139    12267    12407    12513    12649    12812 
   12852    12746    12614    12503    12438    12521    12633    12673 
   12753    12769    12687    12615    12491    12403    12451    12540 
   12684    12854    12946    12928    12818    12773    12757    12564 
   12337    12167    11936    11749    11766    11946    12059    12091 
   12249    12467    12672    12854    12919    13031    13119    12942 
   12789    12691    12498    12405    12306    12251    12376    12341 
   12218    12235    12181    12094    12132    12309    12602    12827 
   12939    12982    12858    12621    12492    12499    12474    12388 
   12260    12110    12129    12186    12156    12307    12460    12464 
   12603    12761    12842    12920    12862    12741    12661    12514 
   12359    12349    12432    12595    12887    13142    13267    13339 
   13321    13127    12845    12613    12433    12278    12144    12046 
   11913    11762    11781    11940    12054    12133    12189    12167 
   12221    12359    12447    12676    12951    12953    12852    12690 
   12386    12235    12321    12422    12540    12719    12806    12834 
   12818    12677    12668    12815    12831    12746    12609    12405 
