Origin Time       2024/06/23 22:54:00
Lat.              35.645
Long.             140.060
Depth. (km)       72
Mag.              4.1
Station Code      CHB009
Station Lat.      35.5871
Station Long.     140.2378
Station Height(m) 41
Record Time       2024/06/23 22:54:45
Sampling Freq(Hz) 100Hz
Duration Time(s)  60
Dir.              U-D
Scale Factor      7845(gal)/8223790
Max. Acc. (gal)   6.605
Last Correction   2024/06/23 22:54:45
Memo.             
   16348    16351    16352    16355    16355    16352    16349    16345 
   16347    16352    16352    16349    16351    16352    16351    16345 
   16347    16353    16355    16352    16353    16349    16345    16348 
   16349    16352    16356    16353    16351    16352    16348    16345 
   16347    16349    16352    16352    16352    16353    16349    16347 
   16347    16347    16348    16349    16351    16351    16351    16351 
   16351    16353    16351    16347    16349    16352    16352    16351 
   16349    16351    16351    16348    16348    16348    16348    16349 
   16351    16351    16349    16352    16355    16349    16348    16351 
   16347    16344    16348    16352    16352    16352    16352    16351 
   16351    16349    16344    16343    16347    16352    16355    16353 
   16351    16352    16349    16347    16345    16348    16352    16353 
   16351    16351    16349    16348    16352    16352    16348    16349 
   16349    16348    16349    16349    16351    16353    16355    16352 
   16348    16341    16344    16347    16345    16348    16355    16355 
   16351    16348    16345    16344    16343    16343    16345    16349 
   16352    16351    16347    16347    16349    16351    16351    16347 
   16347    16349    16345    16343    16348    16352    16352    16353 
   16352    16348    16344    16343    16344    16352    16357    16353 
   16349    16347    16344    16345    16347    16348    16349    16351 
   16352    16352    16351    16348    16349    16353    16351    16348 
   16352    16355    16352    16353    16353    16349    16348    16349 
   16349    16349    16349    16349    16348    16349    16351    16352 
   16353    16353    16347    16343    16344    16348    16348    16349 
   16352    16351    16348    16347    16347    16348    16349    16351 
   16349    16348    16349    16349    16349    16349    16347    16347 
   16348    16349    16349    16349    16348    16349    16352    16352 
   16349    16344    16341    16343    16347    16353    16353    16351 
   16351    16351    16351    16351    16348    16345    16347    16349 
   16349    16348    16348    16351    16352    16348    16347    16344 
   16344    16348    16351    16351    16352    16352    16348    16347 
   16347    16348    16352    16355    16352    16349    16348    16347 
   16348    16351    16349    16345    16347    16353    16356    16352 
   16349    16349    16351    16351    16348    16348    16349    16349 
   16348    16349    16351    16351    16353    16353    16351    16349 
   16352    16352    16349    16348    16351    16352    16352    16353 
   16353    16355    16355    16352    16349    16352    16352    16352 
   16351    16348    16348    16353    16353    16353    16356    16355 
   16351    16349    16351    16356    16355    16351    16353    16357 
   16355    16351    16348    16347    16352    16353    16352    16355 
   16356    16353    16352    16353    16351    16349    16353    16355 
   16355    16355    16356    16352    16351    16353    16355    16353 
   16355    16355    16352    16351    16353    16356    16355    16355 
   16356    16352    16352    16352    16352    16355    16356    16353 
   16355    16353    16351    16349    16351    16356    16359    16356 
   16355    16352    16352    16353    16353    16353    16355    16353 
   16353    16357    16355    16349    16348    16353    16357    16357 
   16355    16352    16351    16353    16356    16356    16353    16351 
   16353    16355    16355    16355    16355    16356    16356    16355 
   16355    16353    16355    16356    16355    16353    16355    16353 
   16351    16351    16352    16353    16353    16353    16349    16345 
   16351    16357    16356    16352    16349    16349    16352    16353 
   16355    16357    16353    16349    16348    16347    16348    16351 
   16351    16352    16353    16352    16352    16348    16345    16349 
   16349    16351    16355    16355    16352    16351    16351    16349 
   16351    16351    16348    16345    16344    16349    16355    16351 
   16348    16348    16347    16345    16345    16348    16352    16349 
   16347    16345    16343    16345    16349    16349    16351    16353 
   16351    16347    16344    16345    16345    16345    16347    16349 
   16351    16349    16347    16344    16344    16348    16351    16351 
   16348    16345    16348    16348    16343    16343    16343    16344 
   16351    16349    16347    16348    16345    16340    16340    16344 
   16348    16351    16348    16348    16348    16345    16344    16344 
   16345    16345    16347    16349    16348    16344    16344    16343 
   16339    16341    16348    16349    16347    16345    16345    16343 
   16340    16343    16344    16345    16347    16347    16344    16343 
   16343    16344    16343    16345    16352    16351    16347    16345 
   16345    16347    16347    16345    16345    16345    16348    16351 
   16348    16347    16351    16349    16345    16345    16348    16345 
   16344    16344    16347    16351    16351    16351    16352    16349 
   16345    16345    16345    16348    16349    16349    16351    16349 
   16347    16347    16347    16345    16349    16352    16352    16352 
   16349    16348    16353    16362    16376    16401    16425    16434 
   16426    16417    16421    16433    16472    16551    16583    16479 
   16270    16082    16054    16206    16378    16494    16680    16788 
   16533    16187    16141    16282    16464    16756    17027    16889 
   16124    15228    15206    16289    17424    17523    16640    15499 
   14566    14103    14393    15595    17450    19024    19264    17766 
   14998    12555    12228    14250    17301    19842    21018    20661 
   18729    15322    11623     9900    11524    15462    19495    21964 
   22017    19538    15479    11708    10268    12170    16452    20779 
   22972    21913    18154    13705    10527     9686    11616    15871 
   20634    23274    22011    17621    13190    11371    12363    14724 
   16843    18076    18976    19566    18875    16903    14935    14077 
   14230    14469    14841    16380    19012    20937    20259    17069 
   13428    11326    11497    13647    16945    20208    22010    21235 
   17960    13913    11271    11049    12958    16094    19261    21155 
   20965    18655    15076    12302    12037    13894    16634    19157 
   20106    18871    16561    14840    14297    14480    14980    15946 
   17358    18249    17724    16240    14878    14569    15637    17131 
   17841    17558    16649    15638    15001    14929    15669    17172 
   18455    18594    17670    16229    14843    14031    14199    15350 
   16799    17950    18659    18504    17146    15142    13845    14197 
   15589    16870    17828    18578    18574    17238    15202    13891 
   13898    14773    15988    17230    18131    18341    17689    16376 
   15016    14137    14007    14858    16459    17852    18320    18061 
   17336    16244    15298    14867    14968    15712    16903    18075 
   18735    18242    16592    14889    14210    14674    15870    17236 
   17967    17763    17055    16121    15248    14899    15075    15658 
   16656    17552    17729    17270    16479    15577    15140    15506 
   16306    17119    17410    16726    15619    15064    15537    16769 
   17706    17622    16918    16224    15723    15299    15022    15310 
   16216    17161    17513    17004    15984    15356    15751    16815 
   17614    17637    17193    16800    16443    15741    15001    15153 
   16167    17023    17251    16958    16345    15719    15257    15203 
   15664    16113    16317    16680    17288    17817    17896    17288 
   16227    15217    14656    14823    15584    16428    17066    17467 
   17427    16753    15809    15438    16013    16789    16800    16268 
   16193    16661    16846    16542    16310    16422    16629    16555 
   16170    15932    16054    16127    15992    15961    16075    16213 
   16410    16371    15925    15844    16740    18017    18540    17802 
   16540    15647    15002    14543    14763    15569    16345    16811 
   17181    17610    17560    16448    14779    14030    14987    16595 
   17581    18118    18418    17830    16016    13768    13138    15377 
   18553    20073    19535    17517    15072    13398    12688    13082 
   15045    17975    20429    21010    18738    14750    12098    11977 
   13325    15619    18297    19993    19815    17763    15244    14162 
   14616    15804    17281    18092    17547    16252    15209    15072 
   15938    17122    17693    17317    16337    15373    14947    15026 
   15479    16538    17837    18407    17822    16406    15260    15248 
   15803    16281    16903    17706    17988    16943    14964    13662 
   14002    15446    16942    18029    18468    17718    16039    14654 
   14334    15110    16681    18428    19367    18607    16390    14191 
   13389    14131    15689    17301    18246    18060    16818    15149 
   14226    14558    15723    17397    18619    18274    17049    16224 
   16082    16186    16059    16005    16391    16664    16524    16341 
   16303    16455    16671    16480    15853    15503    15777    16367 
   17147    17716    17311    16183    15128    14609    15164    16366 
   16911    16788    16746    16795    16683    16106    15178    15098 
   16448    17905    18135    17363    16561    16248    16116    15672 
   15022    14898    15782    16916    17074    16240    15412    15391 
   16056    16528    16559    16803    17339    17543    17024    15886 
   14793    14655    15750    17448    18863    19228    18052    15842 
   13968    13556    14870    16964    18256    18011    16667    15034 
   13767    13583    15053    17539    19558    20071    18914    16860 
   14945    13837    14014    15287    16777    17815    17959    17200 
   16170    15298    14787    14983    15790    16603    17058    17250 
   17300    17130    16596    15747    15075    15105    15772    16771 
   17663    17764    17101    16386    15824    15411    15515    16236 
   17119    17605    17270    16171    15044    14531    14794    15811 
   17088    17925    18077    17405    16009    14839    14835    15943 
   17362    18079    17483    15962    14443    13680    14180    15979 
   18418    20322    20459    18551    15788    13521    12368    12864 
   15105    17930    19785    19676    17740    15512    14462    14694 
   15520    16237    16710    17145    17080    16074    14820    14391 
   15250    16719    17487    17300    16865    16592    16644    16910 
   16810    16190    15553    15130    14908    15276    16553    18242 
   19356    19164    17783    16221    15288    14651    13670    12991 
   14180    17286    20062    20488    18692    16056    13732    12345 
   12637    15090    18513    20614    20092    17491    14728    13417 
   13612    14697    16233    17567    18185    18202    17764    17023 
   16432    16113    15789    15383    14976    14724    15043    16160 
   17454    18036    17806    17162    16262    15223    14509    14690 
   15796    17140    18015    18057    17308    16460    16155    16154 
   15992    15709    15601    15840    16383    17041    17477    17244 
   16335    15461    15268    15776    16690    17501    17780    17456 
   16518    15307    14513    14445    14987    15707    16414    17361 
   18110    17986    17216    16421    16133    16185    15750    14943 
   14702    15475    16821    17574    17240    16549    15927    15430 
   15438    16087    17224    18238    18087    16826    15483    14532 
   14330    15171    16456    17447    17840    17547    16950    16459 
   16131    16089    16256    16387    16443    16254    15867    15795 
   16146    16488    16480    16237    16087    15988    15762    15691 
   16131    16962    17760    18141    17821    16869    15714    14686 
   14072    14258    15400    17022    18063    17907    17105    16349 
   15730    15307    15333    16083    17624    19170    19445    18106 
   16020    14216    13279    13250    13832    15202    17574    20034 
   21351    20942    18665    15348    12565    11299    11974    14559 
   17776    19762    19596    17878    16087    15068    14752    15219 
   16467    17663    17794    16783    15464    14611    14488    14914 
   15445    16006    16870    17782    18092    17675    16906    16131 
   15647    15565    15627    15682    15731    15703    15836    16380 
   16996    17154    16645    15847    15653    16436    17532    18231 
   18389    17868    16533    14914    14085    14673    16181    17483 
   18033    17963    17284    15896    14243    13424    14195    16081 
   17932    18825    18310    16718    15136    14431    14786    16013 
   17398    17971    17440    16151    14831    14407    15172    16671 
   18184    18854    18347    17092    15604    14515    14376    15064 
   16146    17108    17487    17346    16853    16097    15570    15589 
   15920    16322    16511    16177    15630    15704    16622    17679 
   18166    17907    17096    16040    14968    14439    15102    16480 
   17285    16842    15607    14823    15283    16459    17568    18431 
   18864    18378    16764    14696    13460    13693    14908    16344 
   17529    18139    17928    16962    15873    15450    15849    16656 
   17355    17379    16638    15739    15141    14845    14904    15546 
   16704    17653    17720    17045    16263    15916    16096    16476 
   16734    16765    16667    16368    15587    14759    14847    15965 
   17375    18299    18300    17547    16402    15268    14783    15172 
   16086    17073    17475    17024    16367    16110    16206    16282 
   16112    15984    16201    16476    16538    16468    16258    15984 
   15805    15674    15762    16333    17132    17720    17825    17313 
   16291    15086    14004    13324    13564    15105    17432    19523 
   20618    20282    18688    16702    15013    13949    13821    14571 
   15773    16858    17186    16752    16256    15979    15807    15749 
   15593    15425    15817    16600    17193    17432    17363    17378 
   17594    17498    17005    16367    15651    15030    14598    14469 
   14891    15615    16309    17170    18273    19364    19861    19003 
   16760    13949    11672    10876    11894    14287    17192    19657 
   20657    19668    17371    15275    14647    15716    17724    19381 
   19453    17718    15130    12827    11469    11341    12594    15120 
   18137    20417    21274    20779    19367    17644    16168    15253 
   14912    14908    14949    15052    15345    15877    16727    17366 
   17097    16191    15411    15439    16156    16708    16902    16943 
   16815    16607    16409    16218    16119    16220    16506    16839 
   16842    16190    15107    14046    13545    14075    15356    16738 
   18006    19068    19472    18667    16826    14967    14156    14770 
   16137    17419    18405    18631    17716    16058    14189    13104 
   13697    15502    17409    18571    18670    18061    17296    16530 
   15746    15298    15388    15743    16202    16595    16816    17034 
   17064    16636    15944    15418    15465    16023    16560    16883 
   17211    17416    17124    16297    15010    13695    13324    14216 
   15851    17648    18993    19387    18611    16868    15094    14305 
   14624    15433    16193    16661    16807    16676    16276    15992 
   16286    17015    17724    18031    17674    16476    14748    13564 
   13814    15385    17406    18713    18508    17031    15381    14554 
   14953    16309    17701    18358    18011    16780    15480    15032 
   15593    16587    17138    16816    15928    15071    14824    15457 
   16659    17830    18408    18081    17119    15961    14882    14442 
   15056    16380    17693    18199    17608    16422    15330    14773 
   14882    15456    16011    16200    16259    16438    16567    16563 
   16538    16690    17227    17875    17869    16893    15584    14754 
   14693    15246    16036    16719    17113    17115    16784    16403 
   16274    16545    17146    17612    17398    16544    15565    15007 
   15145    15801    16632    17277    17389    16916    16004    15032 
   14608    14964    15820    16710    17254    17421    17344    17032 
   16587    16291    16233    16212    16098    15831    15381    15025 
   15128    15661    16322    16954    17594    18219    18478    17941 
   16722    15402    14504    14438    15263    16387    17023    16857 
   16378    16366    16995    17729    17955    17528    16737    15974 
   15508    15369    15546    16062    16667    16893    16532    15882 
   15439    15340    15421    15561    15736    16055    16573    17027 
   17186    17193    17126    16876    16540    16355    16452    16764 
   16935    16687    16127    15454    14878    14702    15091    15920 
   16966    17973    18508    18130    16856    15256    14071    13640 
   13969    15087    16646    17902    18499    18516    18145    17686 
   17193    16536    15881    15441    15218    15219    15398    15650 
   15988    16410    16812    17035    17004    16923    17053    17312 
   17378    16985    16209    15495    15214    15450    15915    16098 
   15886    15597    15492    15738    16438    17298    17768    17613 
   16929    16063    15500    15418    15627    15793    15765    15799 
   16100    16492    16729    16806    16875    16818    16426    15908 
   15657    15867    16467    17119    17462    17313    16669    15944 
   15669    15820    16039    16123    16183    16430    16733    16789 
   16602    16428    16602    17169    17686    17713    17271    16656 
   16090    15657    15354    15286    15684    16394    16856    16789 
   16295    15722    15373    15244    15452    16170    17070    17717 
   17948    17618    16740    15658    14840    14570    14671    14868 
   15271    15944    16602    16976    17065    17032    16945    16748 
   16494    16306    16289    16565    17093    17551    17536    16830 
   15782    15156    15337    16155    17045    17320    16849    16066 
   15402    15137    15367    16047    17028    17910    18231    17755 
   16633    15464    14883    15178    16150    17190    17659    17308 
   16468    15666    15134    14962    15298    16086    16937    17297 
   16870    15942    15105    14828    15276    16205    17165    17906 
   18293    18122    17340    16212    15147    14555    14647    15219 
   15913    16519    16943    17166    17186    16992    16700    16465 
   16259    16069    16020    16197    16542    16897    17064    16853 
   16309    15813    15678    15853    16177    16545    16838    16943 
   16861    16773    16858    17031    17043    16810    16397    15938 
   15661    15689    15824    15804    15585    15286    15141    15394 
   16052    16810    17159    16881    16390    16179    16329    16764 
   17362    17859    17905    17294    16263    15238    14550    14516 
   15126    15969    16625    16781    16476    16136    16070    16363 
   16891    17255    17230    16923    16518    16147    15828    15585 
   15561    15761    16106    16617    17188    17521    17366    16740 
   15967    15471    15496    15989    16721    17448    17878    17736 
   17034    16123    15418    15103    15236    15842    16607    17011 
