Origin Time       2024/06/23 22:54:00
Lat.              35.645
Long.             140.060
Depth. (km)       72
Mag.              4.1
Station Code      CHB026
Station Lat.      35.3858
Station Long.     140.2404
Station Height(m) 46
Record Time       2024/06/23 22:54:46
Sampling Freq(Hz) 100Hz
Duration Time(s)  60
Dir.              N-S
Scale Factor      7845(gal)/8223790
Max. Acc. (gal)   4.173
Last Correction   2024/06/23 22:54:45
Memo.             
[...]
    3793     3824     3815     3788     3819     3811     3802     3817 
    3798     3805     3820     3805     3801     3808     3816     3821 
    3800     3808     3828     3794     3797     3823     3812     3805 
    3802     3807     3820     3812     3797     3807     3817     3801 
    3802     3815     3808     3809     3813     3801     3809     3816 
    3802     3805     3812     3812     3805     3796     3815     3824 
    3805     3800     3802     3817     3825     3789     3790     3831 
    3816     3794     3813     3816     3800     3802     3816     3813 
    3805     3807     3813     3815     3811     3802     3815     3825 
    3796     3792     3820     3820     3807     3801     3811     3811 
    3809     3812     3800     3813     3819     3796     3812     3816 
    3804     3816     3805     3802     3812     3807     3817     3808 
    3793     3817     3815     3798     3808     3809     3807     3805 
    3807     3815     3808     3801     3811     3813     3800     3805 
    3816     3809     3805     3804     3816     3816     3793     3804 
    3819     3808     3805     3813     3811     3801     3809     3820 
    3805     3801     3808     3807     3816     3815     3801     3813 
    3813     3801     3817     3813     3797     3823     3813     3789 
    3824     3825     3801     3807     3808     3820     3816     3782 
    3811     3840     3807     3800     3819     3812     3812     3815 
    3807     3809     3809     3808     3821     3817     3801     3805 
    3816     3821     3813     3800     3802     3813     3823     3819 
    3796     3808     3824     3808     3813     3811     3801     3823 
    3815     3800     3815     3812     3808     3823     3805     3801 
    3823     3813     3813     3811     3798     3815     3819     3820 
    3798     3784     3844     3824     3771     3828     3824     3786 
    3828     3809     3794     3829     3797     3797     3834     3807 
    3800     3811     3807     3827     3821     3786     3804     3835 
    3802     3796     3823     3807     3805     3823     3811     3811 
    3813     3796     3809     3824     3802     3807     3813     3802 
    3816     3812     3807     3824     3802     3792     3823     3834 
    3804     3784     3817     3828     3797     3816     3817     3796 
    3821     3816     3793     3816     3820     3788     3802     3846 
    3792     3774     3854     3821     3771     3813     3815     3807 
    3807     3797     3815     3813     3798     3807     3819     3816 
    3796     3801     3819     3805     3812     3819     3796     3809 
    3812     3798     3813     3813     3808     3808     3804     3812 
    3805     3811     3816     3792     3811     3823     3782     3804 
    3835     3813     3793     3794     3815     3813     3801     3819 
    3808     3789     3811     3815     3804     3811     3807     3796 
    3807     3819     3811     3801     3808     3812     3807     3802 
    3804     3815     3808     3805     3812     3809     3815     3796 
    3796     3834     3800     3777     3831     3824     3784     3816 
    3820     3781     3812     3824     3792     3816     3817     3792 
    3809     3816     3809     3812     3802     3782     3808     3839 
    3801     3797     3816     3792     3813     3825     3788     3802 
    3816     3796     3809     3819     3807     3809     3805     3792 
    3809     3824     3796     3800     3824     3804     3812     3819 
    3777     3811     3839     3792     3793     3811     3809     3821 
    3809     3798     3800     3805     3817     3807     3808     3820 
    3794     3804     3824     3796     3816     3821     3782     3816 
    3819     3780     3824     3835     3784     3800     3815     3804 
    3817     3811     3801     3816     3804     3792     3812     3802 
    3788     3805     3804     3807     3825     3819     3813     3819 
    3802     3786     3816     3817     3793     3831     3844     3809 
    3824     3850     3804     3731     3717     3716     3707     3731 
    3751     3831     3977     3983     3933     3966     3993     3991 
    3851     3635     3638     3697     3645     3704     3851     3846 
    3694     3634     3759     3848     3755     3638     3697     3900 
    4000     3947     3908     3950     4004     3970     3909     3946 
    3913     3747     3643     3607     3635     3642     3549     3674 
    3960     3967     3781     3751     3893     3967     3870     3807 
    3829     3839     3889     3867     3731     3635     3569     3620 
    3808     3973     4079     4024     3844     3762     3808     3844 
    3724     3612     3701     3811     3811     3765     3757     3824 
    3866     3854     3832     3780     3825     3985     4048     4010 
    3888     3674     3573     3592     3601     3709     3832     3758 
    3681     3777     3882     3877     3847     3939     4104     4139 
    3970     3727     3573     3469     3433     3576     3820     4052 
    4151     4124     4118     4066     3917     3758     3658     3705 
    3808     3732     3507     3469     3678     3827     3821     3736 
    3665     3770     3919     3902     3873     3917     3893     3804 
    3767     3765     3742     3766     3824     3900     4071     4139 
    4035     3932     3753     3547     3449     3435     3604     3842 
    3964     4005     3967     3959     3959     3800     3634     3555 
    3537     3632     3797     3954     4048     4036     4000     3964 
    3870     3750     3649     3566     3559     3673     3765     3726 
    3720     3852     3987     3996     3898     3869     3971     4020 
    3923     3786     3701     3694     3716     3688     3638     3688 
    3827     3897     3881     3871     3835     3773     3797     3894 
    3937     3831     3631     3488     3445     3527     3800     4124 
    4287     4294     4174     3937     3694     3539     3573     3762 
    3829     3781     3771     3738     3726     3755     3747     3784 
    3909     4059     4078     3936     3754     3543     3474     3649 
    3817     3916     3966     3913     3863     3807     3696     3636 
    3677     3767     3858     3936     3916     3761     3631     3616 
    3663     3788     3997     4072     3940     3858     3865     3832 
    3820     3827     3769     3700     3680     3788     3974     4001 
    3863     3709     3596     3573     3657     3796     3935     3998 
    3974     3959     3873     3665     3599     3680     3732     3802 
    3901     3997     4064     4048     3951     3774     3663     3686 
    3647     3636     3793     3871     3805     3773     3792     3769 
    3686     3711     3854     3964     3977     3848     3759     3782 
    3685     3542     3507     3551     3685     3827     3981     4151 
    4160     4060     4043     4086     3983     3665     3473     3626 
    3847     3913     3856     3797     3792     3713     3555     3446 
    3456     3676     4010     4199     4191     4081     3902     3662 
    3483     3508     3653     3780     3855     3940     4082     4085 
    3935     3858     3763     3580     3516     3605     3753     3931 
    4074     4132     4023     3788     3605     3516     3539     3674 
    3842     3970     3981     3882     3782     3696     3612     3632 
    3790     3990     4133     4144     4033     3873     3651     3457 
    3477     3630     3751     3848     3919     4010     4110     3994 
    3719     3570     3572     3673     3804     3774     3684     3780 
    3936     3977     3978     3951     3881     3820     3785     3852 
    3937     3870     3738     3672     3703     3724     3670     3643 
    3646     3777     4023     4085     4008     3897     3757     3716 
    3653     3541     3597     3757     3942     4131     4174     4099 
    4018     3932     3823     3643     3470     3416     3443     3546 
    3693     3777     3852     3966     4040     4087     4093     3969 
    3801     3771     3885     3970     3959     4018     4166     4125 
    3847     3564     3362     3234     3225     3333     3535     3782 
    3942     4008     4106     4175     4109     3986     3906     3928 
    3929     3789     3649     3613     3713     3890     3950     3861 
    3650     3306     3049     3026     3164     3442     3852     4364 
    4853     5061     4788     4102     3431     3190     3375     3816 
    4274     4363     4020     3510     2992     2710     2825     3171 
    3673     4251     4608     4645     4405     4008     3696     3553 
    3612     3832     4020     4114     4048     3823     3703     3762 
    3831     3846     3812     3730     3615     3588     3769     3998 
    4109     4025     3635     3196     3080     3210     3424     3689 
    3946     4158     4249     4191     4086     4010     4018     4145 
    4295     4282     4114     3964     3817     3658     3564     3445 
    3300     3276     3356     3531     3817     4072     4220     4213 
    3985     3669     3439     3279     3249     3424     3620     3771 
    3983     4141     4183     4286     4388     4337     4241     4112 
    3973     3937     3844     3608     3377     3230     3231     3348 
    3464     3622     3809     3888     3824     3727     3723     3750 
    3789     3910     3951     3896     3944     4064     4172     4198 
    4067     3939     3859     3726     3677     3720     3680     3584 
    3535     3531     3553     3595     3649     3754     3834     3808 
    3835     3925     3966     4024     4005     3832     3766     3928 
    4122     4202     4166     4083     3950     3662     3389     3357 
    3407     3400     3424     3531     3712     3873     3896     3850 
    3924     4121     4237     4152     4013     3943     3882     3850 
    3785     3609     3508     3570     3716     3862     3954     4039 
    4074     4001     3915     3781     3586     3431     3362     3456 
    3636     3742     3854     3997     4039     4010     3959     3815 
    3670     3692     3819     3886     3925     4005     4062     4089 
    4048     3829     3531     3365     3400     3605     3902     4075 
    4020     3855     3634     3485     3591     3844     4090     4260 
    4229     4005     3751     3550     3449     3505     3649     3748 
    3797     3843     3874     3881     3883     3900     4023     4153 
    4133     4098     4074     3996     3916     3781     3627     3519 
    3454     3539     3667     3662     3520     3312     3234     3272 
    3393     3731     4091     4359     4561     4537     4342     4090 
    3829     3688     3630     3651     3676     3569     3505     3553 
    3635     3793     3969     4059     4018     3858     3657     3512 
    3550     3781     3983     4044     4036     4005     3973     3919 
    3805     3640     3562     3666     3743     3726     3748     3805 
    3933     4089     4118     4047     3947     3804     3622     3478 
    3388     3322     3335     3434     3650     3959     4155     4221 
    4261     4286     4387     4465     4355     4194     3985     3750 
    3669     3612     3512     3466     3449     3472     3507     3504 
    3514     3580     3735     3920     4028     4037     3910     3680 
    3595     3703     3815     3865     3797     3684     3711     3794 
    3877     3975     3925     3813     3828     3890     3937     3974 
    3937     3797     3658     3591     3532     3520     3599     3734 
    3920     4047     4021     3929     3888     3950     4063     4128 
    4062     3832     3573     3407     3358     3481     3711     3888 
    4012     4020     3877     3798     3785     3690     3591     3480 
    3431     3613     3858     4006     4106     4143     4189     4241 
    4189     4152     4125     4024     3981     3916     3767     3734 
    3794     3839     3819     3622     3231     2814     2563     2428 
    2501     3033     3727     4193     4480     4618     4621     4594 
    4499     4430     4554     4652     4522     4286     4009     3746 
    3631     3580     3435     3295     3229     3186     3244     3431 
    3599     3699     3782     3825     3875     3986     4121     4237 
    4244     4086     3924     3929     3996     4002     4009     4008 
    4025     4144     4276     4313     4315     4361     4345     4207 
    4072     3944     3743     3478     3140     2830     2620     2369 
    2114     1937     1798     1784     2000     2500     3238     3981 
    4554     4988     5324     5516     5578     5603     5544     5343 
    5088     4745     4217     3569     2856     2135     1614     1409 
    1559     2116     2905     3775     4731     5695     6561     7103 
    7067     6490     5613     4685     3855     3137     2569     2115 
    1713     1471     1532     1937     2627     3380     3929     4071 
    3672     2959     2392     2154     2259     2736     3541     4611 
    5701     6357     6473     6300     6060     5923     5822     5422 
    4635     3672     2743     1983     1522     1506     2016     2914 
    3859     4522     4738     4583     4252     3886     3507     3087 
    2637     2195     1925     2122     2914     4129     5397     6292 
    6462     5845     4742     3646     3126     3449     4280     5100 
    5510     5341     4747     3966     3184     2577     2253     2347 
    2783     3163     3211     2952     2590     2411     2466     2654 
    2951     3284     3557     3686     3678     3819     4394     5441 
    6741     7815     8183     7600     6145     4337     2771     1691 
    1189     1239     1617     2083     2403     2431     2200     2002 
    2220     2891     3874     4930     5562     5576     5224     4791 
    4531     4429     4257     4050     3920     3786     3620     3422 
    3099     2760     2632     2690     2794     2907     3079     3333 
    3653     3966     4110     4040     3819     3527     3465     3904 
    4741     5676     6442     6862     6921     6697     6114     5062 
    3832     2801     2120     1953     2168     2347     2263     1844 
    1362     1328     1829     2710     3724     4463     4823     4916 
    4845     4791     4804     4869     5001     5040     4735     4099 
    3458     3190     3465     4025     4442     4509     4118     3362 
    2485     1680     1304     1512     2050     2667     3262     3928 
    4741     5528     6110     6340     6091     5498     4858     4417 
    4259     4162     3863     3319     2609     1941     1557     1598 
    2096     2860     3604     4206     4689     4980     4959     4882 
    4931     4950     4995     4996     4700     4224     3620     2878 
    2284     2019     2130     2604     3292     4037     4511     4527 
    4371     4247     4133     3952     3638     3319     3213     3379 
    3701     4051     4337     4453     4423     4356     4293     4220 
    3991     3566     3237     3092     2964     2907     3002     3256 
    3574     3754     3842     3927     3928     3916     4006     4148 
    4222     4174     4120     4156     4232     4237     4109     3943 
    3850     3748     3605     3565     3647     3676     3612     3618 
    3735     3886     4151     4407     4369     4197     4029     3747 
    3508     3422     3326     3167     3102     3318     3773     4253 
    4514     4382     4004     3651     3538     3693     3862     3931 
    3944     3848     3709     3616     3577     3700     3925     4055 
    4032     3792     3361     2968     2893     3152     3515     3909 
    4214     4318     4369     4418     4473     4584     4573     4378 
    4048     3542     3021     2712     2621     2729     2982     3252 
    3438     3570     3674     3677     3674     3743     3800     3920 
    4109     4293     4549     4773     4826     4738     4472     4070 
    3700     3420     3237     3179     3267     3518     3873     4240 
    4542     4630     4500     4302     4066     3848     3697     3593 
    3650     3905     4229     4545     4734     4676     4342     3742 
    3064     2496     2120     2091     2366     2764     3225     3658 
    4002     4348     4664     4853     4878     4695     4369     4017 
    3721     3554     3516     3523     3478     3422     3377     3241 
    3037     2891     2921     3194     3612     4117     4677     5080 
    5185     5111     4922     4552     4117     3739     3360     3079 
    2957     2932     3037     3186     3368     3669     3929     4066 
    4195     4341     4422     4395     4232     3947     3658     3516 
    3558     3665     3720     3746     3807     3775     3492     3045 
    2621     2355     2366     2732     3308     3908     4561     5098 
    5278     5240     5096     4919     4874     4861     4757     4594 
    4288     3819     3365     3022     2762     2643     2727     2902 
    3069     3234     3376     3507     3645     3753     3836     3867 
    3824     3758     3681     3618     3678     3882     4112     4332 
    4504     4503     4386     4271     4176     4102     3950     3766 
    3670     3580     3564     3697     3823     3886     3858     3650 
    3358     3100     2952     3028     3294     3628     3981     4255 
    4357     4303     4245     4237     4194     4117     3996     3827 
    3655     3480     3412     3522     3701     3890     4071     4171 
    4271     4480     4646     4726     4730     4490     4050     3537 
    3013     2627     2481     2571     2799     3133     3535     3896 
    4230     4473     4503     4376     4095     3824     3777     3821 
    3878     3978     4031     3983     3784     3480     3237     3087 
    3067     3238     3493     3712     3847     3904     3954     4004 
    3983     3871     3728     3593     3466     3407     3524     3846 
    4247     4622     4905     4969     4785     4506     4282     4190 
    4186     4201     4171     3943     3488     2909     2305     1875 
    1748     1981     2500     3098     3712     4228     4549     4776 
    4877     4824     4761     4773     4827     4872     4860     4687 
    4337     3870     3299     2755     2334     2064     2062     2286 
    2620     3117     3740     4334     4801     5040     5044     4938 
    4787     4676     4657     4621     4441     4109     3765     3522 
    3334     3176     2994     2727     2500     2419     2516     2782 
    3115     3375     3519     3627     3715     3774     3848     4021 
    4409     4942     5408     5593     5359     4797     4113     3555 
    3249     3136     3196     3275     3252     3285     3354     3453 
    3682     3925     4212     4576     4818     4885     4752     4459 
    4176     3882     3589     3383     3211     3148     3308     3692 
    4217     4696     5080     5364     5377     5090     4591     3960 
    3369     2897     2619     2587     2636     2659     2679     2713 
    2763     2705     2562     2575     2791     3130     3511     3831 
    4040     4120     4147     4190     4207     4252     4345     4417 
    4429     4405     4459     4565     4656     4768     4822     4699 
    4396     3975     3531     3165     2971     2975     3098     3311 
    3605     3848     3977     4101     4216     4180     3975     3566 
    3032     2694     2609     2728     3146     3699     4163     4460 
    4523     4398     4201     4108     4153     4228     4309     4288 
