Origin Time       2024/06/23 22:54:00
Lat.              35.645
Long.             140.060
Depth. (km)       72
Mag.              4.1
Station Code      CHB028
Station Lat.      35.7664
Station Long.     139.9655
Station Height(m) 26
Record Time       2024/06/23 22:54:36
Sampling Freq(Hz) 100Hz
Duration Time(s)  69
Dir.              N-S
Scale Factor      7845(gal)/8223790
Max. Acc. (gal)   8.437
Last Correction   2024/06/23 22:54:36
Memo.             
[...]
   16895    16888    16880    16866    16853    16849    16861    16881 
   16896    16899    16885    16879    16880    16883    16893    16903 
   16904    16911    16914    16892    16862    16846    16842    16852 
   16870    16881    16889    16887    16875    16879    16896    16915 
   16929    16920    16897    16880    16866    16854    16854    16857 
   16854    16866    16891    16919    16930    16916    16900    16879 
   16856    16860    16873    16865    16872    16895    16904    16912 
   16910    16883    16858    16854    16864    16872    16875    16879 
   16893    16911    16912    16897    16877    16873    16881    16883 
   16875    16868    16868    16881    16895    16891    16885    16889 
   16887    16880    16879    16873    16875    16891    16896    16887 
   16888    16895    16891    16892    16891    16866    16850    16853 
   16866    16892    16903    16895    16899    16908    16900    16884 
   16875    16862    16860    16872    16875    16873    16876    16880 
   16888    16902    16904    16897    16884    16868    16868    16875 
   16875    16881    16887    16888    16887    16877    16872    16870 
   16870    16883    16889    16885    16887    16893    16892    16887 
   16895    16899    16892    16892    16880    16857    16849    16853 
   16862    16875    16885    16893    16892    16885    16881    16885 
   16892    16883    16866    16868    16876    16884    16892    16883 
   16864    16854    16857    16879    16899    16906    16907    16902 
   16887    16866    16849    16850    16869    16892    16906    16900 
   16876    16862    16870    16876    16873    16865    16858    16870 
   16891    16896    16893    16892    16885    16880    16881    16880 
   16884    16891    16883    16868    16853    16841    16846    16864 
   16893    16914    16910    16897    16880    16868    16868    16872 
   16877    16881    16893    16899    16889    16881    16876    16866 
   16869    16875    16876    16880    16889    16892    16889    16884 
   16870    16861    16866    16875    16888    16902    16897    16891 
   16877    16860    16861    16873    16880    16892    16897    16892 
   16889    16883    16864    16854    16858    16870    16892    16902 
   16896    16891    16891    16888    16879    16875    16883    16889 
   16891    16880    16864    16852    16846    16857    16880    16899 
   16904    16903    16902    16896    16885    16868    16856    16861 
   16872    16888    16904    16907    16904    16893    16864    16848 
   16850    16857    16870    16884    16881    16875    16880    16887 
   16891    16897    16902    16903    16891    16869    16856    16857 
   16860    16866    16879    16884    16888    16899    16893    16877 
   16866    16856    16854    16870    16885    16892    16904    16912 
   16903    16887    16872    16864    16861    16862    16869    16870 
   16869    16877    16888    16892    16888    16884    16881    16864 
   16850    16853    16853    16861    16888    16911    16919    16915 
   16902    16881    16862    16860    16869    16869    16870    16870 
   16862    16857    16864    16880    16881    16870    16875    16885 
   16884    16889    16895    16891    16896    16902    16885    16865 
   16858    16854    16854    16857    16858    16872    16887    16891 
   16887    16883    16889    16907    16911    16897    16880    16869 
   16866    16868    16864    16848    16839    16854    16870    16879 
   16893    16907    16897    16885    16883    16877    16880    16885 
   16884    16883    16880    16872    16866    16869    16880    16895 
   16897    16883    16865    16854    16849    16857    16875    16892 
   16906    16900    16883    16873    16872    16873    16877    16881 
   16881    16887    16892    16891    16885    16872    16865    16866 
   16864    16862    16869    16883    16899    16902    16895    16888 
   16880    16872    16873    16875    16872    16876    16884    16892 
   16892    16881    16879    16879    16869    16868    16876    16888 
   16895    16888    16880    16879    16885    16889    16885    16887 
   16884    16875    16879    16884    16876    16868    16873    16880 
   16880    16880    16884    16881    16873    16876    16881    16884 
   16887    16892    16896    16897    16896    16889    16881    16880 
   16885    16893    16907    16933    16958    16930    16839    16772 
   16779    16811    16818    16823    16850    16866    16897    16943 
   16912    16892    17038    17189    17122    16943    16899    16912 
   16703    16340    16243    16586    17076    17331    17255    16983 
   16690    16613    16825    17054    17170    17327    17393    17010 
   16287    15858    16170    17004    17725    17863    17454    16833 
   16241    15835    15897    16472    17097    17494    17712    17585 
   17103    16600    16371    16692    17401    17686    17313    16788 
   16317    15909    15807    16187    16783    17159    17397    17694 
   17818    17594    17208    17005    16892    16263    15358    15190 
   15938    17163    18482    19268    18906    17242    15122    14242 
   15209    16806    17783    18018    17986    17739    16841    15624 
   15250    16198    17770    18798    18646    17670    16433    15268 
   14685    15045    16171    17648    18828    18878    17689    16366 
   15969    16340    16821    17172    17257    16980    16528    16168 
   16291    17016    17691    17730    17227    16605    16228    16012 
   15940    16536    17666    18357    18218    17556    16668    15704 
   15012    15287    16686    18269    18890    18264    17119    16173 
   15585    15568    16193    16943    17374    17535    17729    17972 
   17663    16618    15642    15377    15878    16943    17913    18098 
   17493    16618    15986    15903    16432    17213    17670    17664 
   17482    17309    17142    16812    16216    15763    15904    16471 
   17181    17805    17888    17255    16266    15592    15876    16931 
   17923    18303    17940    17178    16594    16363    16395    16582 
   16781    16753    16314    15940    16201    16819    17288    17377 
   17076    16776    16892    17423    18027    18225    17851    17145 
   16297    15543    15296    15724    16445    16931    17112    17192 
   17138    16904    16702    16721    16924    17101    17139    17155 
   17200    17247    17293    17255    17145    17074    17046    16916 
   16560    16135    15940    16013    16135    16224    16552    17205 
   17794    18067    17969    17564    17324    17489    17536    17003 
   16168    15608    15549    15759    15969    16328    17112    17896 
   18056    17717    17176    16640    16563    16915    17142    17043 
   16803    16715    16837    16857    16694    16638    16834    17041 
   16951    16656    16464    16511    16672    16669    16622    16945 
   17509    17861    17743    17239    16760    16394    16019    16002 
   16461    16875    17054    17224    17497    17747    17689    17155 
   16465    16204    16382    16532    16564    16702    16960    17082 
   16826    16487    16592    16992    17261    17455    17631    17413 
   16703    16160    16353    16910    17170    17047    16915    17049 
   17232    17138    16923    16750    16471    16260    16389    16467 
   16243    16434    17398    18114    17737    16914    16665    17005 
   17154    16791    16482    16560    16687    16783    16903    16781 
   16569    16825    17390    17533    17205    16991    17037    16935 
   16494    16220    16564    16958    16752    16360    16344    16569 
   16889    17423    17950    17940    17246    16433    16151    16387 
   16849    17398    17651    17158    16279    15930    16347    16941 
   17235    17158    16949    16993    17194    17108    16698    16244 
   16178    16733    17375    17558    17419    17116    16606    16190 
   16353    17049    17662    17745    17280    16397    15496    15228 
   16110    17797    18835    18315    17059    16328    16375    16541 
   16432    16472    16831    17099    17213    17286    17262    17113 
   16788    16386    16181    16374    16945    17463    17606    17604 
   17617    17462    16892    15966    15291    15400    16173    17130 
   17767    17749    17247    16791    16632    16700    17019    17502 
   17703    17274    16413    15850    16185    17035    17541    17332 
   16533    15695    15520    16187    17254    18092    18277    17802 
   16923    16017    15650    16248    17424    18180    18031    17332 
   16478    15857    15985    16730    17389    17483    17011    16519 
   16476    16625    16741    17003    17321    17410    17065    16367 
   16092    16744    17625    17923    17541    16762    16016    15662 
   15840    16457    17247    17963    18276    17923    17201    16573 
   16186    16083    16260    16654    17103    17253    17034    16738 
   16511    16449    16542    16568    16499    16498    16791    17550 
   18323    18396    17722    16803    16164    15944    15900    16011 
   16502    17325    17945    17752    16987    16540    16641    16819 
   16834    16873    17055    17122    16904    16569    16155    15840 
   16208    17234    18141    18486    18220    17365    16339    15723 
   15618    15719    15920    16411    17165    17836    18119    17865 
   17342    16942    16486    15967    16044    16742    17307    17383 
   17235    17253    17385    17178    16564    16001    15866    16152 
   16669    17209    17498    17541    17606    17481    16800    15912 
   15561    16205    17415    17925    17221    16391    16433    16993 
   17271    17185    17247    17543    17609    17346    17012    16633 
   16173    15781    15665    15996    16680    17203    17247    17107 
   17197    17633    17934    17393    16224    15499    15896    17199 
   18520    18821    17828    16479    15823    15761    15808    16054 
   16618    17332    17755    17467    16843    16465    16326    16461 
   17022    17679    17830    17128    16079    15785    16443    17136 
   17192    16753    16447    16645    17050    17262    17365    17687 
   18049    17813    16976    16220    16056    16600    17246    17089 
   16271    15703    15730    16023    16371    16838    17366    17845 
   18180    18276    18154    17683    16653    15577    15319    15908 
   16783    17463    17486    16920    16542    16760    17131    17035 
   16426    16006    16397    17146    17304    16889    16730    17086 
   17436    17347    16985    16788    16884    16997    16885    16623 
   16351    16227    16548    17278    17737    17496    17189    17413 
   17496    16746    15697    15172    15484    16366    17207    17811 
   18216    18081    17302    16529    16406    16746    16938    16789 
   16578    16754    17396    17795    17328    16416    15912    16104 
   16548    16690    16506    16411    16823    17617    18114    17980 
   17397    16683    16245    16295    16735    17261    17374    16884 
   16124    15552    15616    16505    17666    18139    17678    17124 
   16984    16884    16754    16750    16749    16804    16996    17196 
   17302    17230    16969    16476    15788    15561    16297    17347 
   17760    17415    16929    16796    16988    17340    17620    17628 
   17431    16999    16451    16244    16433    16673    16634    16146 
   15541    15384    15971    17155    18191    18482    18269    17979 
   17703    17281    16623    16109    16100    16379    16492    16328 
   16150    16212    16659    17386    17803    17563    17039    16567 
   16231    16140    16328    16767    17365    17859    17955    17577 
   16926    16413    16352    16642    16922    16937    16571    15924 
   15523    15871    16808    17761    18365    18539    18246    17604 
   17037    16772    16619    16391    16190    16357    16873    17136 
   16825    16371    16347    16708    16981    17010    16891    16586 
   16244    16198    16438    16802    17288    17793    17996    17709 
   17261    17201    17502    17501    16795    15781    15164    15248 
   15813    16568    17340    17940    18207    17930    17080    16228 
   15944    16195    16788    17447    17671    17320    16756    16324 
   16275    16718    17350    17705    17597    17131    16582    16240 
   16155    16343    16999    17918    18322    17817    16977    16557 
   16494    16259    15898    15951    16605    17432    17960    18156 
   18072    17695    17239    16978    16848    16582    16221    15916 
   15516    15191    15484    16274    16985    17559    18121    18400 
   18007    16961    15720    14793    14499    14891    15662    16383 
   16873    17211    17458    17494    17118    16375    15570    14832 
   14077    13527    13805    15304    17690    20133    21782    22277 
   22083    21519    20171    18127    16056    14287    12972    12226 
   12483    14231    16939    19411    20848    21298    21127    20507 
   19657    18343    16109    13408    11418    11214    12966    15815 
   18774    21335    23199    23890    23144    21485    19788    18376 
   17288    16599    15961    14993    13699    12293    10945     9733 
    9055     9404    10828    12999    15480    17860    19635    20418 
   20286    19643    18902    18461    18496    18694    18620    17982 
   17064    16765    17373    18063    18046    17317    15966    14154 
   12529    11746    12314    14241    16822    19390    21768    24084 
   25725    25435    22952    19269    15596    12776    11298    11011 
   11271    11749    12553    13911    15634    17193    18474    19510 
   20035    19818    18933    17783    17001    16977    17599    18613 
   19716    20297    19626    17776    15580    13589    12059    11318 
   11676    13065    14742    16170    17412    18264    18557    18453 
   17972    17450    17485    18175    19103    19481    18963    18349 
   18301    18392    17917    16750    15334    14095    13347    13491 
   14493    15784    16961    17967    18779    19248    19271    19012 
   18670    18272    17807    17186    16406    15627    14967    14631 
   14789    15318    16009    16880    17828    18482    18982    19595 
   19971    19600    18207    16139    14256    13020    12303    12036 
   12534    13817    15549    17392    18631    18898    18763    18766 
   19079    19434    19174    18087    16556    15245    14700    14897 
   15627    16753    17852    18490    18701    18486    17743    16918 
   16592    16848    17221    17134    16532    15898    15662    15676 
   15831    16422    17120    17319    17100    16980    17467    18503 
   19476    19854    19399    18249    16704    15101    13964    13709 
   14212    14904    15160    14987    15207    16405    18150    19503 
   19777    19017    17867    16934    16498    16723    17575    18401 
   18480    17977    17378    16727    16116    15863    16073    16267 
   15720    14527    13709    14023    15294    16746    17987    19025 
   19333    18620    17510    16492    15827    15716    16048    16468 
   16590    16545    16892    17753    18686    19290    19565    19449 
   18588    16999    15471    15003    15824    17209    18168    18100 
   17155    15962    15047    14636    14674    14918    15179    15385 
   15587    15920    16470    17238    18187    19129    19784    20112 
   20263    20023    18913    17050    15176    13899    13363    13487 
   14169    15326    16794    18195    18964    18868    18358    17972 
   17782    17479    16708    15581    14656    14347    14836    15948 
   17115    17887    18131    18103    18208    18334    18272    18168 
   18003    17520    16619    15786    15623    15935    16144    16113 
   16282    17099    18218    18770    18316    17050    15369    14045 
   13986    15180    16906    18485    19503    19894    19722    19202 
   18492    17320    15711    14310    13583    13545    14157    15342 
   16785    17950    18195    17459    16464    15844    15838    16430 
   17178    17462    17270    17057    16978    16977    17062    17298 
   17745    18220    18347    17922    17111    16237    15639    15597 
   15954    16353    16775    17220    17533    17509    17124    16742 
   16677    16974    17437    17614    17375    17028    16880    17131 
   17567    17772    17725    17371    16595    15715    15209    15402 
   16208    16991    17128    16668    16313    16590    17248    17755 
   17759    17107    16179    15772    16119    16870    17660    18133 
   18130    17802    17386    17200    17512    18038    18156    17678 
   16687    15456    14611    14509    15072    15881    16372    16492 
   16595    16800    16906    16953    17253    17790    18220    18207 
   17666    17039    16857    17057    17286    17388    17351    17066 
   16329    15277    14467    14403    15076    16097    17095    17718 
   17864    17933    18306    18873    19136    18701    17728    16557 
   15215    13898    13266    13608    14458    15273    15886    16461 
   17277    18322    19334    20208    20682    20422    19651    18642 
   17559    16780    16309    15776    15024    14206    13860    14542 
   15966    17201    17772    17868    17629    17176    16962    17290 
   17950    18468    18414    17857    17307    17118    17163    17031 
   16591    16023    15526    15404    15877    16800    17946    18967 
   19373    19132    18473    17524    16615    15963    15367    14729 
   14270    14156    14478    15291    16282    16946    17145    17081 
   16930    16872    17010    17051    16735    16330    16278    16754 
   17622    18501    18893    18542    17599    16517    15766    15448 
   15368    15381    15469    15660    16021    16650    17437    18084 
   18431    18515    18388    18161    17910    17460    16708    15948 
   15526    15630    16135    16382    16128    16123    16870    18033 
   19025    19458    19332    18894    18225    17277    16268    15561 
   15338    15492    15715    15836    15876    15920    16152    16684 
   17344    17844    17986    17729    17402    17416    17683    17725 
   17316    16695    15989    15273    14901    14943    15176    15334 
   15269    15427    16152    17213    18415    19522    20136    20070 
   19445    18558    17705    17014    16478    16079    15745    15444 
   15304    15570    16298    17086    17497    17498    17327    17213 
   17234    17284    17205    16989    16815    16796    16792    16598 
   16375    16448    16730    16945    16958    16713    16355    16151 
   16154    16264    16405    16583    16827    16937    16619    15923 
   15358    15577    16623    17841    18631    18760    18243    17385 
   16727    16707    17325    18108    18517    18343    17667    16862 
   16390    16302    16309    16252    16141    15981    15788    15624 
   15570    15724    16151    16804    17536    18087    18193    17905 
   17633    17628    17671    17547    17278    16903    16445    16075 
   16044    16411    16892    17161    17219    17248    17323    17373 
   17350    17273    17023    16416    15606    14979    14831    15264 
   16078    16849    17282    17348    17139    16837    16691    16823 
   17153    17444    17475    17253    16973    16880    17232    18111 
   19140    19718    19531    18682    17568    16656    16181    16009 
