Origin Time       2024/06/23 22:54:00
Lat.              35.645
Long.             140.060
Depth. (km)       72
Mag.              4.1
Station Code      CHB016
Station Lat.      35.2998
Station Long.     140.3866
Station Height(m) 7
Record Time       2024/06/23 22:54:48
Sampling Freq(Hz) 100Hz
Duration Time(s)  60
Dir.              E-W
Scale Factor      7845(gal)/8223790
Max. Acc. (gal)   1.883
Last Correction   2024/06/23 22:54:48
Memo.             
[...]
   -3998    -4012    -4021    -4009    -4000    -4000    -4001    -4004 
   -3998    -3989    -4000    -4017    -4006    -3996    -4008    -4020 
   -4006    -3981    -3985    -4013    -4012    -3981    -3981    -4012 
   -4023    -4000    -3996    -4017    -4013    -3983    -3979    -4006 
   -4023    -4005    -3982    -3989    -4017    -4023    -3996    -3986 
   -4001    -4002    -3998    -4005    -4005    -4000    -4009    -4013 
   -3997    -3993    -4014    -4016    -3989    -3989    -4016    -4023 
   -4013    -4009    -4012    -4005    -3970    -3937    -3958    -3996 
   -4013    -4035    -4045    -4032    -4027    -4024    -3990    -3952 
   -3962    -3994    -3983    -3951    -3986    -4071    -4090    -4027 
   -3983    -4020    -4063    -4012    -3900    -3874    -3946    -3994 
   -3993    -4014    -4077    -4106    -4059    -4001    -4012    -4055 
   -4039    -3958    -3900    -3932    -3990    -4000    -4002    -4031 
   -4054    -4040    -3981    -3921    -3935    -3997    -4031    -4029 
   -4013    -4000    -4010    -4027    -4020    -4035    -4090    -4074 
   -3920    -3788    -3843    -3974    -4001    -3989    -4087    -4225 
   -4213    -4031    -3873    -3908    -4044    -4058    -3940    -3882 
   -3971    -4089    -4102    -4052    -4032    -4012    -3943    -3874 
   -3881    -3956    -4016    -3989    -3921    -3942    -4064    -4126 
   -4036    -3951    -4029    -4174    -4158    -3954    -3796    -3854 
   -4009    -4078    -4072    -4087    -4086    -3978    -3832    -3825 
   -3974    -4090    -4063    -4020    -4072    -4118    -4029    -3879 
   -3854    -3975    -4074    -4017    -3871    -3827    -3969    -4164 
   -4224    -4135    -4032    -3964    -3879    -3816    -3871    -4013 
   -4113    -4112    -4056    -4008    -3963    -3948    -4006    -4072 
   -4074    -4043    -4002    -3924    -3856    -3875    -3959    -4033 
   -4037    -3959    -3888    -3940    -4074    -4124    -4052    -4005 
   -4037    -4041    -3983    -3979    -4087    -4197    -4180    -4039 
   -3867    -3770    -3834    -4018    -4164    -4183    -4126    -4039 
   -3919    -3804    -3774    -3848    -3970    -4068    -4087    -4028 
   -3969    -3978    -4013    -4008    -3998    -4035    -4056    -4016 
   -3978    -4014    -4101    -4143    -4070    -3932    -3865    -3936 
   -4032    -4006    -3920    -3942    -4051    -4095    -4044    -4004 
   -4059    -4151    -4149    -4014    -3848    -3790    -3854    -3948 
   -4052    -4172    -4228    -4158    -4000    -3875    -3877    -3919 
   -3883    -3851    -3948    -4108    -4151    -4051    -3958    -3959 
   -3991    -4010    -4058    -4125    -4110    -4023    -3985    -3966 
   -3890    -3848    -3917    -4048    -4174    -4198    -4072    -3919 
   -3859    -3881    -3902    -3912    -3967    -4082    -4148    -4104 
   -4033    -4000    -3990    -3991    -3963    -3905    -3929    -4044 
   -4071    -3940    -3852    -3955    -4104    -4117    -4040    -3979 
   -3942    -3925    -3958    -4025    -4087    -4118    -4102    -4029 
   -3940    -3919    -4009    -4121    -4089    -3931    -3847    -3893 
   -3947    -3964    -4020    -4126    -4172    -4105    -4041    -4054 
   -4045    -3954    -3883    -3950    -4068    -4064    -3919    -3797 
   -3820    -3920    -4001    -4058    -4104    -4118    -4082    -4010 
   -3986    -4047    -4082    -4002    -3920    -3939    -3974    -3962 
   -3973    -4020    -4059    -4070    -4044    -3987    -3951    -3969 
   -3990    -3933    -3852    -3909    -4062    -4072    -3947    -3917 
   -4024    -4116    -4116    -4063    -4044    -4055    -4017    -3959 
   -3966    -4035    -4110    -4137    -4064    -3916    -3836    -3920 
   -4045    -4074    -4052    -4071    -4113    -4098    -3987    -3871 
   -3870    -3951    -3973    -3913    -3902    -3974    -4027    -3996 
   -3950    -3981    -4029    -3989    -3898    -3901    -4025    -4129 
   -4105    -4036    -4040    -4141    -4284    -4348    -4267    -4112 
   -3971    -3870    -3804    -3771    -3798    -3898    -3956    -3874 
   -3770    -3809    -3939    -4016    -4048    -4118    -4187    -4143 
   -4001    -3883    -3827    -3793    -3788    -3813    -3836    -3892 
   -4027    -4191    -4310    -4360    -4326    -4216    -4066    -3935 
   -3866    -3847    -3850    -3866    -3878    -3915    -4056    -4268 
   -4337    -4149    -3877    -3774    -3858    -3956    -4001    -4047 
   -4087    -4060    -3989    -3924    -3923    -4021    -4145    -4170 
   -4125    -4145    -4205    -4148    -3966    -3824    -3834    -3925 
   -3960    -3942    -3966    -4008    -3993    -3951    -3946    -4013 
   -4164    -4280    -4212    -4018    -3901    -3925    -3946    -3874 
   -3846    -3962    -4075    -4056    -3981    -3940    -3925    -3905 
   -3896    -3931    -3996    -4029    -4052    -4159    -4298    -4253 
   -3950    -3574    -3353    -3370    -3555    -3780    -4032    -4337 
   -4519    -4401    -4122    -3933    -3854    -3807    -3823    -3932 
   -4054    -4110    -4125    -4158    -4185    -4162    -4122    -4120 
   -4185    -4293    -4287    -4072    -3827    -3773    -3888    -4006 
   -4055    -4089    -4126    -4082    -3942    -3813    -3757    -3778 
   -3920    -4155    -4341    -4359    -4244    -4118    -4027    -3925 
   -3792    -3692    -3709    -3835    -3955    -4006    -4047    -4128 
   -4214    -4207    -4045    -3859    -3832    -3946    -4045    -4024 
   -3886    -3727    -3638    -3645    -3751    -3955    -4176    -4279 
   -4199    -4060    -4044    -4128    -4167    -4144    -4093    -4010 
   -3935    -3912    -3920    -3937    -3978    -4063    -4178    -4221 
   -4117    -3986    -3962    -3963    -3906    -3904    -4002    -4044 
   -3954    -3879    -3969    -4152    -4243    -4216    -4207    -4234 
   -4168    -3929    -3643    -3568    -3761    -3951    -3946    -3878 
   -3916    -4028    -4099    -4110    -4117    -4121    -4109    -4128 
   -4151    -4081    -3952    -3937    -4063    -4152    -4085    -3927 
   -3798    -3732    -3740    -3856    -4021    -4083    -3967    -3758 
   -3595    -3562    -3693    -3929    -4097    -4104    -4051    -4060 
   -4110    -4102    -4032    -4028    -4158    -4302    -4328    -4241 
   -4149    -4132    -4141    -4079    -3910    -3705    -3611    -3723 
   -3931    -4027    -3963    -3893    -3937    -4043    -4098    -4148 
   -4244    -4270    -4145    -4018    -4017    -4059    -4035    -3994 
   -4012    -4024    -3973    -3948    -4029    -4153    -4232    -4207 
   -4085    -3970    -3915    -3829    -3736    -3793    -4016    -4209 
   -4233    -4153    -4055    -3939    -3862    -3902    -4005    -4036 
   -3959    -3861    -3835    -3883    -3946    -3932    -3794    -3627 
   -3593    -3693    -3824    -3970    -4156    -4284    -4263    -4162 
   -4070    -4013    -4059    -4189    -4186    -3996    -3905    -4083 
   -4282    -4220    -3937    -3704    -3716    -3927    -4124    -4185 
   -4191    -4203    -4135    -4002    -3971    -4025    -3996    -3863 
   -3739    -3681    -3689    -3699    -3705    -3811    -4020    -4230 
   -4396    -4471    -4437    -4368    -4237    -4010    -3871    -3919 
   -3929    -3823    -3838    -4072    -4313    -4349    -4195    -4052 
   -4074    -4197    -4213    -4059    -3923    -3910    -3882    -3771 
   -3703    -3742    -3798    -3793    -3778    -3869    -4017    -4025 
   -3916    -3939    -4102    -4136    -3963    -3811    -3827    -3902 
   -3888    -3824    -3847    -4010    -4253    -4449    -4465    -4294 
   -4083    -3966    -3947    -3962    -3964    -3924    -3823    -3705 
   -3658    -3712    -3838    -3979    -4081    -4112    -4139    -4175 
   -4140    -4099    -4213    -4384    -4367    -4133    -3879    -3746 
   -3750    -3865    -4054    -4237    -4299    -4187    -3996    -3904 
   -3948    -4025    -4121    -4233    -4257    -4158    -4020    -3902 
   -3802    -3744    -3773    -3878    -4021    -4151    -4180    -4066 
   -3892    -3786    -3773    -3762    -3761    -3878    -4066    -4174 
   -4149    -4033    -3928    -3925    -3996    -4027    -3973    -3927 
   -3955    -3962    -3886    -3846    -3928    -4048    -4101    -4093 
   -4094    -4124    -4133    -4047    -3858    -3662    -3568    -3622 
   -3821    -4062    -4195    -4191    -4104    -3991    -3906    -3850 
   -3856    -4016    -4249    -4368    -4328    -4218    -4106    -4021 
   -4020    -4147    -4311    -4338    -4183    -3997    -3951    -4058 
   -4183    -4220    -4195    -4137    -3986    -3771    -3670    -3747 
   -3855    -3886    -3902    -3974    -4010    -3921    -3844    -3952 
   -4168    -4307    -4317    -4267    -4232    -4224    -4194    -4094 
   -3927    -3732    -3591    -3542    -3503    -3484    -3642    -3906 
   -4036    -4024    -4058    -4185    -4237    -4093    -3862    -3744 
   -3804    -3944    -4035    -4043    -4044    -4085    -4132    -4156 
   -4140    -4045    -3919    -3851    -3861    -3898    -3905    -3858 
   -3763    -3646    -3562    -3605    -3809    -4052    -4143    -4052 
   -3931    -3882    -3923    -4056    -4198    -4232    -4186    -4164 
   -4171    -4129    -4041    -4028    -4104    -4152    -4135    -4137 
   -4274    -4492    -4561    -4391    -4151    -4018    -4000    -3937 
   -3716    -3480    -3470    -3673    -3902    -4078    -4228    -4394 
   -4568    -4671    -4650    -4561    -4455    -4314    -4120    -3932 
   -3862    -3908    -3943    -3898    -3823    -3754    -3673    -3565 
   -3460    -3441    -3492    -3484    -3443    -3515    -3639    -3634 
   -3489    -3380    -3430    -3585    -3726    -3811    -3912    -4112 
   -4341    -4438    -4396    -4336    -4291    -4193    -4029    -3874 
   -3719    -3530    -3445    -3607    -3982    -4459    -4954    -5397 
   -5665    -5640    -5387    -5089    -4822    -4506    -4045    -3501 
   -3117    -3121    -3480    -3877    -4052    -4014    -3913    -3874 
   -3909    -3929    -3932    -3986    -4098    -4176    -4131    -3948 
   -3701    -3483    -3384    -3468    -3696    -3915    -3942    -3766 
   -3601    -3645    -3865    -4097    -4259    -4357    -4356    -4249 
   -4170    -4206    -4267    -4229    -4058    -3839    -3705    -3730 
   -3933    -4257    -4558    -4707    -4711    -4679    -4567    -4216 
   -3721    -3385    -3279    -3218    -3092    -2999    -3080    -3303 
   -3483    -3580    -3743    -4024    -4245    -4217    -3973    -3743 
   -3697    -3727    -3620    -3423    -3414    -3703    -4141    -4575 
   -5001    -5422    -5644    -5479    -5000    -4401    -3824    -3391 
   -3242    -3442    -3809    -4031    -4082    -4144    -4237    -4302 
   -4359    -4433    -4503    -4530    -4473    -4333    -4145    -4002 
   -3967    -3991    -4028    -4112    -4212    -4176    -3869    -3329 
   -2786    -2478    -2505    -2821    -3294    -3774    -4117    -4237 
   -4216    -4217    -4236    -4113    -3821    -3573    -3577    -3794 
   -4024    -4132    -4098    -3981    -3919    -4112    -4614    -5178 
   -5470    -5395    -5094    -4698    -4248    -3805    -3508    -3510 
   -3796    -4140    -4355    -4469    -4545    -4552    -4434    -4135 
   -3676    -3240    -3033    -3082    -3256    -3462    -3688    -3858 
   -3856    -3726    -3642    -3654    -3622    -3478    -3350    -3402 
   -3618    -3802    -3850    -3913    -4183    -4579    -4841    -4839 
   -4681    -4573    -4614    -4687    -4607    -4351    -4079    -3996 
   -4170    -4463    -4649    -4658    -4534    -4239    -3811    -3437 
   -3191    -3053    -3082    -3337    -3755    -4153    -4334    -4261 
   -4090    -3963    -3892    -3844    -3834    -3875    -3939    -3981 
   -3962    -3883    -3811    -3816    -3909    -4074    -4233    -4172 
   -3766    -3215    -2918    -3046    -3399    -3759    -4112    -4437 
   -4600    -4498    -4185    -3848    -3673    -3735    -3996    -4325 
   -4571    -4675    -4676    -4639    -4514    -4191    -3754    -3439 
   -3368    -3456    -3564    -3647    -3762    -3940    -4156    -4372 
   -4592    -4801    -4905    -4826    -4588    -4237    -3836    -3511 
   -3366    -3375    -3423    -3454    -3487    -3580    -3763    -4008 
   -4248    -4405    -4500    -4590    -4631    -4596    -4509    -4311 
   -3924    -3400    -2920    -2710    -2890    -3329    -3747    -3985 
   -4156    -4428    -4711    -4827    -4788    -4699    -4603    -4495 
   -4279    -3832    -3229    -2745    -2627    -2940    -3596    -4365 
   -4996    -5333    -5325    -5016    -4595    -4322    -4313    -4378 
   -4180    -3622    -2965    -2528    -2385    -2492    -2863    -3457 
   -4144    -4742    -5003    -4814    -4375    -3979    -3771    -3750 
   -3909    -4206    -4487    -4591    -4491    -4317    -4232    -4218 
   -4136    -3983    -3902    -3971    -4141    -4293    -4301    -4167 
   -4035    -3991    -3978    -3925    -3859    -3852    -3888    -3873 
   -3817    -3839    -4013    -4287    -4531    -4703    -4814    -4700 
   -4152    -3291    -2563    -2378    -2826    -3630    -4344    -4708 
   -4752    -4575    -4218    -3796    -3476    -3348    -3404    -3570 
   -3767    -4027    -4363    -4603    -4515    -4081    -3550    -3208 
   -3144    -3314    -3672    -4098    -4410    -4519    -4476    -4371 
   -4270    -4201    -4174    -4190    -4207    -4158    -4052    -3939 
   -3834    -3771    -3817    -3916    -3906    -3744    -3564    -3492 
   -3495    -3433    -3254    -3098    -3203    -3742    -4627    -5495 
   -5971    -5976    -5697    -5351    -5050    -4815    -4617    -4386 
   -4124    -3881    -3611    -3252    -2875    -2627    -2619    -2967 
   -3689    -4561    -5179    -5223    -4666    -3765    -2878    -2284 
   -2076    -2220    -2701    -3462    -4301    -4919    -5157    -5143 
   -5152    -5239    -5181    -4828    -4315    -3817    -3314    -2747 
   -2265    -2149    -2533    -3249    -3963    -4457    -4714    -4837 
   -4922    -4990    -4978    -4845    -4652    -4514    -4482    -4453 
   -4253    -3854    -3395    -3059    -2953    -3057    -3288    -3623 
   -4039    -4423    -4625    -4579    -4417    -4347    -4442    -4569 
   -4523    -4239    -3840    -3511    -3348    -3375    -3616    -4037 
   -4463    -4702    -4708    -4530    -4156    -3607    -3099    -2889 
   -2995    -3219    -3379    -3457    -3523    -3634    -3780    -3851 
   -3804    -3813    -4082    -4525    -4835    -4801    -4498    -4187 
   -4048    -4009    -3908    -3721    -3553    -3547    -3754    -4077 
   -4378    -4567    -4610    -4583    -4563    -4531    -4495    -4446 
   -4276    -3952    -3607    -3338    -3138    -3021    -3102    -3500 
   -4091    -4538    -4661    -4561    -4428    -4418    -4596    -4864 
   -5007    -4850    -4411    -3909    -3623    -3649    -3869    -4118 
   -4315    -4425    -4398    -4183    -3828    -3462    -3188    -3098 
   -3231    -3478    -3728    -3966    -4122    -4101    -3929    -3705 
   -3496    -3350    -3334    -3441    -3538    -3531    -3522    -3638 
   -3838    -4023    -4191    -4399    -4661    -4915    -5024    -4892 
   -4606    -4360    -4252    -4245    -4232    -4097    -3793    -3399 
   -3073    -2921    -2961    -3218    -3707    -4333    -4914    -5289 
   -5395    -5256    -4963    -4610    -4264    -3974    -3765    -3627 
   -3534    -3480    -3478    -3566    -3800    -4168    -4538    -4741 
   -4712    -4509    -4229    -3970    -3785    -3667    -3535    -3339 
   -3187    -3173    -3240    -3271    -3237    -3206    -3292    -3559 
   -3898    -4118    -4136    -3977    -3699    -3400    -3203    -3196 
   -3422    -3792    -4120    -4321    -4464    -4660    -4924    -5135 
   -5179    -5080    -4935    -4854    -4864    -4853    -4722    -4507 
   -4271    -4001    -3686    -3357    -3080    -2994    -3208    -3678 
   -4212    -4598    -4680    -4430    -3971    -3500    -3187    -3150 
   -3370    -3669    -3861    -3905    -3879    -3892    -4016    -4253 
   -4523    -4733    -4808    -4719    -4523    -4334    -4225    -4162 
   -4040    -3839    -3651    -3543    -3493    -3443    -3379    -3389 
   -3561    -3840    -4091    -4263    -4410    -4567    -4665    -4612 
   -4396    -4090    -3798    -3624    -3630    -3792    -4010    -4135 
   -4058    -3843    -3673    -3639    -3700    -3807    -3947    -4081 
   -4163    -4178    -4097    -3897    -3618    -3372    -3294    -3420 
   -3673    -3969    -4290    -4581    -4719    -4626    -4355    -4043 
   -3865    -3912    -4126    -4375    -4531    -4563    -4527    -4486 
   -4411    -4297    -4203    -4155    -4093    -3983    -3867    -3789 
   -3734    -3662    -3615    -3653    -3777    -3933    -4036    -4028 
   -3932    -3774    -3576    -3396    -3296    -3296    -3387    -3558 
   -3813    -4126    -4413    -4603    -4685    -4664    -4552    -4425 
   -4368    -4391    -4409    -4311    -4068    -3789    -3591    -3497 
   -3503    -3613    -3784    -3894    -3863    -3715    -3577    -3608 
   -3831    -4094    -4236    -4228    -4132    -4010    -3908    -3888 
   -4004    -4190    -4321    -4338    -4263    -4179    -4162    -4176 
   -4135    -4048    -3998    -3998    -4017    -4039    -4052    -4040 
   -4045    -4104    -4158    -4109    -3917    -3690    -3574    -3589 
   -3639    -3639    -3570    -3456    -3345    -3321    -3446    -3701 
   -4012    -4251    -4290    -4137    -3962    -3952    -4166    -4499 
   -4792    -4946    -4924    -4711    -4391    -4129    -4010    -4014 
   -4081    -4131    -4156    -4230    -4398    -4585    -4687    -4622 
   -4363    -4004    -3704    -3547    -3522    -3585    -3697    -3790 
   -3789    -3669    -3483    -3349    -3333    -3407    -3562    -3771 
   -3952    -4058    -4077    -4018    -3948    -3947    -3994    -3993 
   -3904    -3777    -3669    -3622    -3638    -3709    -3871    -4129 
   -4359    -4423    -4328    -4143    -3908    -3701    -3650    -3757 
   -3904    -4024    -4167    -4368    -4553    -4608    -4521    -4384 
   -4279    -4228    -4233    -4282    -4342    -4398    -4457    -4544 
   -4626    -4657    -4630    -4569    -4483    -4351    -4149    -3920 
   -3731    -3607    -3515    -3419    -3310    -3245    -3289    -3437 
   -3609    -3717    -3730    -3689    -3622    -3523    -3437    -3426 
   -3496    -3601    -3711    -3805    -3893    -4002    -4117    -4197 
   -4226    -4221    -4199    -4155    -4059    -3921    -3792    -3743 
   -3797    -3912    -4035    -4110    -4135    -4175    -4245    -4295 
   -4314    -4314    -4299    -4283    -4253    -4202    -4158    -4133 
   -4122    -4129    -4121    -4058    -3978    -3946    -3971    -4059 
   -4198    -4334    -4401    -4363    -4253    -4128    -3986    -3823 
   -3696    -3643    -3636    -3657    -3704    -3765    -3856    -4018 
   -4207    -4322    -4330    -4291    -4267    -4260    -4255    -4272 
   -4334    -4418    -4468    -4446    -4360    -4213    -4029    -3877 
   -3800    -3788    -3778    -3736    -3705    -3721    -3739    -3703 
   -3632    -3600    -3639    -3704    -3762    -3835    -3921    -3960 
   -3898    -3754    -3597    -3478    -3404    -3392    -3438    -3528 
   -3682    -3889    -4059    -4117    -4059    -3947    -3874    -3879 
   -3919    -3970    -4048    -4135    -4199    -4229    -4214    -4195 
   -4213    -4244    -4259    -4266    -4276    -4279    -4274    -4266 
