Origin Time       2024/06/23 22:54:00
Lat.              35.645
Long.             140.060
Depth. (km)       72
Mag.              4.1
Station Code      CHB020
Station Lat.      35.1132
Station Long.     140.1006
Station Height(m) 9
Record Time       2024/06/23 22:54:48
Sampling Freq(Hz) 100Hz
Duration Time(s)  60
Dir.              U-D
Scale Factor      7845(gal)/8223790
Max. Acc. (gal)   0.906
Last Correction   2024/06/23 22:54:48
Memo.             
[...]
    7146     7149     7153     7149     7148     7148     7137     7141 
    7155     7145     7142     7155     7146     7144     7145     7137 
    7149     7160     7145     7142     7148     7144     7148     7153 
    7148     7148     7148     7144     7140     7141     7141     7150 
    7160     7148     7141     7150     7149     7141     7144     7150 
    7150     7149     7149     7145     7140     7141     7148     7148 
    7148     7149     7148     7150     7148     7134     7140     7160 
    7156     7142     7149     7155     7144     7140     7146     7148 
    7149     7145     7138     7146     7155     7152     7150     7148 
    7148     7149     7144     7140     7141     7145     7153     7152 
    7140     7144     7153     7149     7144     7149     7150     7146 
    7144     7145     7146     7149     7157     7152     7142     7149 
    7153     7144     7140     7148     7153     7149     7142     7142 
    7148     7150     7150     7152     7150     7149     7150     7146 
    7142     7145     7145     7141     7145     7145     7145     7152 
    7152     7148     7148     7152     7153     7149     7141     7142 
    7146     7142     7140     7150     7155     7144     7138     7146 
    7150     7144     7142     7149     7152     7152     7155     7152 
    7155     7160     7149     7142     7149     7148     7140     7144 
    7149     7150     7152     7152     7152     7153     7150     7145 
    7144     7150     7156     7153     7153     7148     7142     7146 
    7148     7146     7148     7149     7145     7144     7148     7150 
    7146     7150     7157     7144     7134     7146     7148     7140 
    7144     7152     7155     7149     7148     7152     7146     7140 
    7142     7145     7144     7149     7153     7148     7146     7145 
    7141     7152     7159     7150     7145     7149     7150     7144 
    7146     7152     7153     7153     7155     7160     7161     7160 
    7168     7168     7164     7167     7157     7138     7133     7129 
    7122     7117     7110     7110     7123     7145     7165     7180 
    7194     7206     7206     7204     7195     7160     7133     7132 
    7134     7134     7142     7141     7125     7114     7121     7134 
    7140     7125     7087     7047     7020     7011     7030     7075 
    7125     7175     7233     7291     7322     7314     7287     7260 
    7233     7199     7145     7061     6979     6926     6906     6941 
    7040     7137     7180     7202     7231     7234     7222     7229 
    7249     7268     7261     7217     7173     7146     7117     7088 
    7074     7078     7106     7134     7144     7163     7161     7107 
    7063     7059     7082     7168     7287     7341     7311     7245 
    7172     7111     7088     7105     7138     7148     7123     7122 
    7153     7153     7121     7113     7142     7155     7133     7101 
    7072     7075     7128     7191     7226     7244     7241     7206 
    7198     7236     7218     7134     7074     7074     7110     7134 
    7129     7111     7090     7078     7078     7110     7192     7231 
    7179     7122     7094     7088     7133     7217     7295     7323 
    7275     7175     7094     7074     7076     7074     7075     7078 
    7063     7026     7021     7119     7292     7426     7426     7269 
    7078     6984     6974     7001     7065     7126     7159     7157 
    7129     7137     7176     7156     7101     7105     7169     7234 
    7244     7192     7153     7172     7195     7177     7164     7161 
    7119     7079     7095     7114     7107     7113     7146     7202 
    7253     7256     7211     7138     7057     7034     7076     7122 
    7169     7199     7157     7076     7045     7106     7196     7242 
    7275     7314     7280     7180     7107     7068     7029     7002 
    7010     7055     7106     7159     7219     7234     7213     7219 
    7210     7152     7119     7133     7141     7136     7123     7126 
    7134     7113     7088     7101     7121     7106     7063     7076 
    7187     7273     7260     7227     7221     7215     7240     7281 
    7273     7184     7045     6941     6939     6990     7048     7110 
    7165     7219     7245     7240     7240     7211     7150     7113 
    7115     7157     7186     7117     7020     7002     7056     7155 
    7260     7300     7276     7236     7172     7091     7036     7040 
    7095     7140     7148     7125     7074     7056     7132     7267 
    7375     7403     7350     7242     7117     7020     6968     6921 
    6889     6925     7014     7101     7190     7292     7354     7345 
    7288     7218     7145     7071     7037     7083     7141     7141 
    7145     7188     7206     7195     7200     7200     7190     7169 
    7102     7026     6986     6948     6947     7044     7188     7300 
    7364     7349     7242     7153     7152     7161     7138     7125 
    7123     7126     7123     7109     7083     7056     7079     7145 
    7172     7180     7196     7156     7087     7082     7115     7123 
    7140     7195     7222     7179     7106     7084     7122     7161 
    7198     7260     7281     7234     7187     7149     7109     7091 
    7072     7037     7045     7111     7169     7176     7161     7159 
    7190     7231     7206     7148     7141     7155     7157     7167 
    7165     7150     7137     7146     7198     7230     7199     7161 
    7160     7168     7140     7088     7052     7038     7037     7047 
    7105     7196     7211     7153     7110     7083     7092     7168 
    7256     7288     7238     7136     7091     7129     7164     7177 
    7190     7164     7099     7074     7138     7213     7230     7234 
    7238     7218     7165     7107     7084     7074     7045     7013 
    6980     6995     7059     7105     7137     7187     7218     7200 
    7175     7199     7252     7271     7244     7215     7200     7184 
    7173     7159     7144     7167     7203     7183     7115     7063 
    7036     7018     7015     7042     7078     7099     7122     7165 
    7214     7240     7215     7149     7103     7091     7098     7149 
    7210     7202     7141     7087     7064     7080     7134     7209 
    7242     7215     7195     7183     7141     7095     7082     7106 
    7111     7090     7142     7237     7264     7272     7299     7265 
    7150     7065     7094     7157     7155     7134     7137     7125 
    7103     7133     7223     7277     7230     7173     7161     7144 
    7137     7146     7121     7107     7140     7161     7173     7195 
    7195     7161     7119     7088     7052     7026     7051     7095 
    7123     7161     7209     7233     7221     7198     7191     7173 
    7136     7117     7115     7098     7071     7052     7059     7083 
    7117     7182     7263     7281     7233     7165     7115     7105 
    7087     7060     7090     7115     7096     7125     7190     7192 
    7134     7078     7044     7032     7055     7118     7195     7265 
    7306     7300     7277     7276     7284     7277     7237     7161 
    7074     7007     6984     7009     7078     7175     7248     7257 
    7227     7198     7163     7123     7106     7129     7157     7165 
    7144     7068     6997     7037     7145     7206     7206     7192 
    7164     7114     7098     7171     7258     7241     7153     7102 
    7096     7110     7123     7126     7132     7123     7133     7179 
    7161     7078     7053     7060     7051     7103     7211     7279 
    7298     7311     7298     7221     7109     7021     6986     7006 
    7071     7137     7163     7157     7157     7175     7194     7203 
    7203     7214     7263     7314     7306     7222     7082     6963 
    6936     6993     7122     7250     7281     7250     7214     7182 
    7195     7230     7209     7175     7153     7052     6912     6849 
    6853     6912     7047     7177     7231     7264     7329     7356 
    7304     7260     7236     7138     6990     6917     6982     7138 
    7339     7511     7549     7477     7389     7308     7226     7087 
    6902     6778     6717     6716     6860     7103     7288     7356 
    7334     7272     7192     7080     6994     6968     6933     6882 
    6882     6944     7063     7233     7414     7496     7420     7311 
    7271     7269     7315     7341     7234     7096     7051     7038 
    7044     7101     7132     7082     7026     7021     7048     7113 
    7202     7254     7245     7140     6999     6941     6933     6940 
    6999     7068     7119     7183     7252     7368     7479     7425 
    7257     7125     7037     7024     7086     7132     7149     7176 
    7225     7306     7410     7492     7484     7379     7264     7160 
    7014     6889     6863     6889     6922     6964     7021     7074 
    7067     7018     7024     7076     7084     7034     7013     7052 
    7129     7265     7420     7477     7433     7361     7277     7219 
    7217     7200     7109     6988     6914     6912     6990     7111 
    7203     7254     7291     7302     7273     7184     7098     7129 
    7229     7265     7196     7026     6856     6833     6948     7075 
    7153     7209     7265     7319     7411     7507     7464     7271 
    7038     6876     6875     6993     7087     7098     7040     6978 
    6993     7091     7252     7393     7408     7350     7295     7182 
    7063     7065     7114     7087     7042     7005     6913     6821 
    6804     6844     6968     7165     7349     7476     7499     7403 
    7306     7236     7173     7176     7199     7160     7110     7082 
    7092     7175     7233     7199     7173     7173     7180     7213 
    7200     7141     7102     7079     7123     7253     7329     7281 
    7160     7030     6949     6897     6866     6889     6929     6979 
    7072     7163     7258     7372     7414     7410     7412     7341 
    7218     7130     7047     6967     6945     6961     7005     7122 
    7281     7404     7484     7497     7400     7222     7061     6980 
    6930     6890     6928     7009     7007     6941     6957     7088 
    7231     7323     7364     7338     7226     7110     7101     7167 
    7198     7169     7136     7111     7110     7169     7204     7150 
    7115     7122     7142     7183     7176     7118     7060     7022 
    7068     7156     7186     7165     7121     7096     7150     7249 
    7317     7281     7179     7087     7015     7009     7078     7102 
    7086     7123     7196     7253     7260     7250     7276     7257 
    7229     7279     7284     7192     7101     7017     6940     6912 
    6918     6957     7067     7229     7368     7449     7441     7342 
    7242     7167     7065     6991     7025     7087     7074     7021 
    6966     6924     6980     7118     7230     7269     7241     7196 
    7150     7080     7029     6997     6940     6926     7024     7188 
    7360     7469     7468     7403     7325     7265     7217     7128 
    7047     7040     7074     7136     7236     7308     7295     7233 
    7168     7090     7028     7024     7056     7067     7032     6968 
    6934     6956     7015     7118     7245     7353     7431     7479 
    7483     7419     7308     7195     7068     6932     6812     6754 
    6801     6914     7041     7177     7294     7323     7258     7180 
    7149     7149     7145     7150     7150     7061     6945     6956 
    7063     7186     7346     7503     7588     7605     7561     7419 
    7179     6921     6771     6767     6829     6902     7014     7168 
    7288     7323     7339     7361     7325     7226     7118     7047 
    7061     7117     7118     7078     7042     7015     7015     7034 
    7055     7091     7111     7055     6937     6828     6763     6763 
    6841     6952     7064     7188     7257     7227     7204     7211 
    7179     7142     7144     7171     7221     7250     7298     7441 
    7581     7619     7607     7581     7534     7489     7454     7383 
    7281     7213     7194     7210     7238     7258     7252     7211 
    7156     7092     7014     6901     6754     6623     6583     6660 
    6791     6920     7026     7074     7069     7094     7145     7175 
    7199     7215     7196     7150     7084     7020     6999     6995 
    7001     7034     7051     7038     7037     7049     7053     7029 
    6999     6967     6879     6820     6858     6910     6991     7111 
    7229     7357     7464     7596     7771     7869     7888     7847 
    7732     7603     7499     7446     7439     7454     7497     7515 
    7489     7456     7362     7210     7090     6990     6871     6768 
    6702     6659     6615     6581     6613     6663     6652     6623 
    6637     6710     6763     6756     6759     6782     6808     6860 
    6945     7083     7257     7383     7435     7464     7520     7582 
    7601     7582     7516     7385     7288     7272     7279     7321 
    7385     7389     7353     7329     7311     7288     7280     7292 
    7295     7272     7257     7273     7285     7250     7192     7149 
    7128     7145     7167     7136     7069     6994     6909     6860 
    6895     6993     7056     7044     7034     7056     7056     7036 
    7010     6959     6907     6925     7005     7056     7061     7075 
    7082     7057     7020     6974     6902     6829     6804     6836 
    6894     6953     6993     7028     7098     7229     7403     7570 
    7730     7897     8032     8098     8086     7996     7817     7569 
    7338     7182     7067     6968     6899     6852     6798     6760 
    6768     6812     6866     6893     6887     6853     6766     6631 
    6486     6409     6467     6640     6871     7150     7462     7735 
    7905     7974     7974     7905     7751     7539     7330     7130 
    6943     6793     6698     6687     6758     6853     6964     7102 
    7226     7308     7358     7384     7366     7298     7210     7122 
    7059     7082     7186     7287     7317     7261     7133     6967 
    6845     6810     6822     6851     6889     6912     6901     6870 
    6863     6930     7078     7236     7345     7416     7488     7560 
    7627     7685     7719     7734     7722     7689     7642     7541 
    7376     7184     6993     6810     6656     6544     6462     6394 
    6370     6423     6525     6594     6644     6739     6858     6971 
    7095     7218     7310     7366     7400     7406     7392     7412 
    7454     7473     7499     7560     7611     7604     7572     7535 
    7454     7349     7288     7248     7184     7126     7075     7017 
    6982     6983     7024     7075     7084     7044     6988     6947 
    6906     6843     6787     6783     6837     6922     7015     7129 
    7242     7285     7272     7265     7264     7261     7261     7237 
    7191     7177     7210     7230     7223     7253     7315     7349 
    7380     7422     7407     7337     7267     7188     7098     7022 
    6955     6893     6860     6841     6820     6809     6787     6750 
    6760     6863     6999     7076     7107     7164     7233     7281 
    7339     7411     7477     7523     7530     7518     7526     7520 
    7466     7369     7233     7090     6971     6882     6856     6880 
    6910     6952     7009     7075     7155     7253     7348     7373 
    7315     7227     7126     7010     6901     6821     6763     6723 
    6727     6801     6926     7053     7140     7191     7206     7184 
    7171     7172     7167     7199     7260     7279     7284     7352 
    7454     7539     7601     7668     7720     7712     7650     7560 
    7433     7294     7140     6960     6814     6737     6714     6717 
    6716     6763     6883     7010     7107     7190     7272     7335 
    7337     7287     7214     7107     6991     6902     6851     6851 
    6867     6856     6856     6880     6921     7017     7159     7307 
    7425     7470     7452     7408     7375     7375     7416     7477 
    7515     7518     7500     7465     7404     7323     7229     7113 
    6976     6856     6779     6748     6748     6767     6828     6936 
    7020     7057     7107     7168     7211     7230     7206     7155 
    7130     7152     7175     7179     7200     7231     7249     7267 
    7256     7184     7080     6972     6852     6758     6743     6764 
    6763     6782     6879     7013     7146     7304     7481     7627 
    7727     7788     7805     7792     7761     7688     7561     7406 
    7242     7082     6939     6825     6744     6701     6673     6648 
    6650     6675     6725     6794     6855     6912     6974     7048 
    7138     7221     7314     7433     7520     7551     7545     7503 
    7447     7387     7333     7303     7304     7325     7348     7371 
    7387     7383     7388     7396     7364     7284     7160     7007 
    6856     6731     6652     6594     6532     6502     6496     6469 
    6467     6534     6650     6793     6932     7041     7117     7159 
    7209     7296     7415     7577     7759     7875     7902     7892 
    7871     7832     7746     7624     7497     7353     7199     7057 
    6926     6813     6728     6675     6667     6679     6698     6744 
    6805     6875     6980     7096     7180     7218     7222     7207 
    7203     7236     7269     7265     7267     7298     7322     7352 
    7410     7472     7508     7479     7400     7308     7188     7069 
    6997     6957     6947     6963     6993     7021     7042     7067 
    7086     7087     7083     7067     7059     7101     7156     7180 
    7171     7107     7015     6957     6928     6932     7013     7136 
    7226     7296     7346     7344     7338     7333     7298     7268 
    7254     7236     7210     7165     7101     7018     6903     6781 
    6710     6708     6751     6828     6936     7063     7180     7265 
    7326     7376     7423     7464     7484     7477     7439     7362 
    7277     7229     7207     7204     7234     7267     7272     7254 
    7233     7213     7164     7088     7042     7029     7009     6979 
    6964     6966     6952     6941     6970     7018     7057     7086 
    7125     7169     7187     7200     7256     7327     7356     7361 
    7385     7395     7373     7354     7326     7267     7203     7141 
    7052     6951     6868     6810     6782     6790     6824     6872 
    6924     6967     7003     7026     7040     7052     7071     7101 
    7160     7269     7400     7506     7576     7585     7514     7411 
    7333     7256     7171     7106     7044     6972     6937     6953 
    6990     7024     7059     7086     7118     7179     7253     7310 
    7322     7290     7253     7226     7180     7118     7067     7047 
    7041     7045     7095     7194     7298     7389     7441     7433 
    7399     7366     7331     7304     7263     7180     7057     6926 
    6840     6795     6760     6743     6736     6720     6714     6752 
    6821     6882     6918     6934     6955     7010     7102     7180 
    7230     7287     7362     7429     7474     7506     7527     7524 
    7479     7414     7364     7333     7311     7292     7271     7248 
    7240     7252     7260     7230     7161     7084     7017     6967 
    6957     6993     7047     7082     7090     7105     7150     7211 
