Origin Time       2024/06/23 22:54:00
Lat.              35.645
Long.             140.060
Depth. (km)       72
Mag.              4.1
Station Code      CHB008
Station Lat.      35.6556
Station Long.     139.9027
Station Height(m) 0
Record Time       2024/06/23 22:54:44
Sampling Freq(Hz) 100Hz
Duration Time(s)  60
Dir.              U-D
Scale Factor      7845(gal)/8223790
Max. Acc. (gal)   3.918
Last Correction   2024/06/23 22:54:44
Memo.             
[...]
    6689     6678     6670     6670     6678     6689     6701     6713 
    6721     6717     6700     6679     6670     6666     6662     6659 
    6658     6658     6659     6658     6660     6660     6646     6631 
    6629     6646     6670     6683     6693     6685     6656     6637 
    6647     6677     6713     6732     6727     6704     6670     6655 
    6663     6679     6701     6713     6708     6700     6687     6677 
    6679     6686     6682     6678     6675     6666     6660     6663 
    6667     6670     6673     6671     6666     6660     6651     6639 
    6636     6646     6658     6669     6679     6687     6691     6687 
    6679     6673     6673     6678     6678     6677     6694     6712 
    6702     6682     6673     6662     6652     6670     6697     6704 
    6694     6682     6673     6671     6679     6686     6693     6693 
    6682     6670     6667     6671     6681     6689     6686     6670 
    6655     6660     6681     6687     6675     6663     6658     6651 
    6644     6648     6659     6670     6678     6678     6679     6689 
    6687     6670     6654     6654     6673     6698     6720     6735 
    6727     6697     6669     6658     6664     6678     6698     6717 
    6713     6686     6659     6646     6652     6677     6700     6702 
    6686     6674     6671     6667     6667     6678     6679     6666 
    6652     6648     6651     6654     6660     6670     6678     6685 
    6683     6671     6664     6662     6663     6671     6683     6702 
    6731     6740     6709     6673     6650     6639     6651     6685 
    6709     6716     6716     6712     6704     6687     6682     6681 
    6654     6628     6637     6660     6675     6689     6702     6700 
    6681     6662     6647     6640     6652     6671     6683     6701 
    6718     6718     6698     6674     6655     6654     6667     6693 
    6713     6709     6685     6664     6652     6639     6635     6651 
    6673     6686     6691     6681     6667     6670     6685     6696 
    6701     6697     6686     6678     6678     6689     6700     6694 
    6689     6701     6705     6682     6662     6654     6659     6670 
    6662     6647     6647     6654     6658     6654     6650     6666 
    6679     6682     6687     6691     6687     6682     6685     6705 
    6723     6717     6704     6694     6679     6674     6696     6723 
    6721     6690     6652     6623     6619     6656     6706     6706 
    6662     6633     6631     6635     6647     6664     6667     6656 
    6648     6655     6675     6694     6697     6696     6706     6706 
    6683     6674     6690     6697     6694     6708     6727     6716 
    6681     6660     6669     6677     6677     6681     6683     6679 
    6679     6686     6696     6691     6670     6650     6650     6666 
    6678     6678     6673     6667     6656     6654     6658     6655 
    6660     6667     6663     6652     6651     6670     6691     6693 
    6685     6683     6689     6698     6700     6691     6689     6690 
    6697     6701     6689     6675     6679     6694     6706     6704 
    6685     6669     6658     6659     6671     6674     6666     6663 
    6675     6696     6696     6671     6648     6655     6681     6696 
    6689     6675     6667     6659     6658     6674     6685     6670 
    6654     6650     6666     6697     6714     6705     6681     6663 
    6662     6673     6690     6708     6712     6702     6687     6679 
    6687     6705     6705     6689     6675     6664     6652     6636 
    6627     6652     6694     6713     6710     6691     6658     6633 
    6636     6658     6683     6694     6697     6698     6691     6682 
    6683     6687     6696     6713     6744     6781     6806     6794 
    6725     6602     6496     6475     6521     6556     6574     6627 
    6685     6667     6664     6816     6961     6905     6805     6816 
    6810     6718     6577     6413     6342     6300     6180     6303 
    6790     7075     6906     6705     6660     6644     6768     7096 
    7287     7069     6642     6324     6258     6432     6683     6922 
    7155     7109     6604     6161     6277     6593     6615     6455 
    6335     6243     6392     7020     7603     7446     6847     6400 
    6142     6174     6542     6727     6590     6563     6696     6754 
    6637     6516     6718     7040     7101     7163     7215     6790 
    6062     5668     6010     6708     7029     7260     7592     7253 
    6523     6210     6066     5984     6232     6779     7318     7329 
    6891     6555     6471     6795     7202     6925     6340     6211 
    6458     6745     6682     6193     5992     6462     7056     7291 
    7256     7163     7034     6777     6453     6211     6087     6289 
    6775     6799     6274     6189     6806     7295     7129     6646 
    6428     6535     6652     6656     6706     7005     7279     7020 
    6404     6025     6126     6532     6839     6897     6814     6639 
    6617     6880     7036     6874     6652     6550     6575     6673 
    6647     6403     6254     6492     6798     6835     6863     7037 
    6949     6511     6264     6457     6771     6960     6980     6820 
    6555     6381     6430     6496     6443     6589     6975     7173 
    6997     6639     6447     6559     6747     6808     6635     6378 
    6474     6806     6871     6662     6465     6513     6790     6895 
    6694     6558     6656     6721     6588     6481     6529     6574 
    6648     6856     6984     6872     6656     6511     6543     6735 
    6941     7080     7128     6964     6521     6130     6204     6632 
    6972     6944     6685     6529     6405     6130     6076     6551 
    7260     7668     7391     6652     6097     5996     6224     6583 
    6835     6895     6902     6928     6808     6417     6089     6234 
    6771     7321     7493     7111     6504     6201     6330     6589 
    6689     6718     6836     6859     6644     6442     6477     6677 
    6863     6951     6932     6849     6804     6747     6593     6504 
    6515     6501     6547     6573     6415     6415     6814     7109 
    6921     6713     6822     6831     6582     6494     6604     6623 
    6625     6783     6890     6709     6436     6389     6527     6662 
    6756     6856     7059     7258     7068     6567     6334     6465 
    6601     6602     6485     6286     6127     6166     6482     6909 
    7142     7172     7188     7079     6636     6065     5823     6091 
    6623     7052     7271     7433     7507     7138     6313     5748 
    5946     6497     6862     6957     6706     6160     5837     6118 
    6763     7352     7580     7294     6717     6300     6276     6579 
    6903     6987     6955     6976     7045     7132     7034     6617 
    6162     5950     6061     6443     6822     7109     7381     7353 
    6998     6912     7101     6909     6366     6025     5973     6069 
    6276     6349     6273     6521     6917     6814     6605     6916 
    7219     6859     6168     5887     6199     6631     6844     6945 
    7101     7376     7399     6663     5714     5549     6177     7090 
    7797     7769     7095     6462     6258     6326     6289     6224 
    6454     6735     6822     6918     7013     7026     7018     6871 
    6588     6332     6138     5957     5805     6030     6646     6941 
    7067     7642     7897     7280     6733     6681     6525     6203 
    6249     6654     6870     6766     6629     6583     6556     6608 
    6937     7291     7111     6493     6066     6135     6384     6500 
    6704     7117     7427     7412     7094     6644     6235     5925 
    5814     6006     6501     7132     7506     7388     7020     6736 
    6633     6650     6669     6615     6532     6494     6496     6351 
    5931     5653     5981     6658     7277     7708     7743     7472 
    7279     6944     6210     5721     5927     6373     6656     6683 
    6440     6251     6431     6798     7079     7187     7067     6775 
    6551     6473     6490     6685     6943     6943     6740     6620 
    6593     6547     6565     6658     6685     6779     7041     7134 
    6872     6512     6385     6551     6662     6409     6037     6116 
    6712     7117     7063     6944     6659     6204     6207     6640 
    7015     7337     7515     7319     6971     6682     6277     5670 
    5225     5448     6326     7306     7832     7705     7252     6895 
    6532     6203     6447     7118     7400     7102     6497     5809 
    5545     6002     6701     7231     7560     7450     6848     6280 
    6018     5819     5822     6288     6810     7091     7406     7543 
    7036     6331     6170     6444     6725     6910     6886     6670 
    6689     7041     7188     6853     6312     5841     5595     5751 
    6270     6777     6993     7138     7352     7279     6945     6868 
    6991     7013     7013     6897     6600     6345     6169     6142 
    6393     6723     6929     6975     6828     6608     6567     6685 
    6629     6400     6342     6473     6741     7109     7092     6667 
    6546     6825     6961     6840     6702     6598     6478     6381 
    6262     6080     6114     6601     7173     7303     7015     6677 
    6554     6620     6673     6728     6871     7056     7279     7304 
    6924     6563     6451     6270     6122     6296     6582     6733 
    6808     6817     6718     6666     6799     6982     7002     6702 
    6161     5944     6231     6420     6353     6451     6772     7117 
    7312     7234     6932     6473     6097     6220     6685     6920 
    6795     6550     6373     6385     6643     7030     7273     7230 
    7048     6836     6550     6318     6331     6546     6799     6914 
    6859     6798     6620     6228     6154     6655     7163     7161 
    6669     6110     5953     6216     6500     6655     7106     7900 
    8233     7751     6955     6227     5771     5744     6039     6417 
    6593     6524     6586     6820     6856     6732     6762     6995 
    7248     7342     7177     6700     6227     6291     6663     6764 
    6691     6736     6835     6786     6359     5647     5152     5260 
    5879     6573     7041     7435     7831     7830     7294     6718 
    6328     5844     5433     5578     6188     6880     7408     7481 
    7144     6907     6999     7172     7227     7219     7184     6947 
    6393     5679     5216     5427     6268     7399     8469     8819 
    8139     7171     6585     6180     5767     5713     6049     6183 
    6012     5926     5879     5977     6760     7906     8383     8021 
    7429     6802     6062     5572     5576     5725     5933     6442 
    7009     7329     7439     7250     6876     6750     6725     6467 
    6361     6708     7045     7084     7071     6949     6512     6019 
    5811     5976     6322     6478     6559     6887     7252     7429 
    7364     6979     6565     6430     6403     6332     6349     6520 
    6751     6907     6863     6632     6520     6683     6825     6729 
    6558     6517     6642     6813     6839     6558     6162     6151 
    6532     6801     6759     6627     6666     6814     6821     6832 
    7009     7113     7175     7354     7416     7225     6864     6393 
    5944     5614     5568     6021     6701     7080     6975     6629 
    6550     6924     7333     7396     7092     6559     6188     6295 
    6616     6764     6712     6484     6075     5741     5915     6658 
    7426     7757     7771     7623     7226     6608     6003     5698 
    5733     5954     6339     6741     6804     6631     6644     6810 
    6875     6897     7095     7358     7244     6689     6120     5819 
    5957     6635     7371     7483     7063     6694     6534     6401 
    6419     6729     7053     7150     7128     6991     6705     6573 
    6841     7275     7485     7269     6660     6019     5803     5934 
    5886     5721     6137     7152     7917     7855     7169     6409 
    5868     5475     5300     5553     6097     6604     7017     7372 
    7572     7589     7466     7192     6875     6623     6303     5994 
    6018     6222     6268     6282     6477     6817     7129     7287 
    7358     7380     7187     6713     6126     5741     5709     5802 
    5945     6412     7221     7940     7996     7137     5922     5239 
    5298     5616     5794     5841     5942     6336     7153     8108 
    8762     8934     8591     7923     7275     6763     6462     6548 
    6910     7160     7071     6833     6790     6822     6577     6253 
    6211     6338     6534     6832     6876     6393     5807     5556 
    5589     5880     6484     7165     7724     8121     8191     7821 
    7118     6211     5285     4614     4414     4801     5692     6789 
    7773     8456     8702     8456     7974     7510     6991     6435 
    5942     5364     4787     4757     5517     6550     7067     6895 
    6566     6373     6188     6150     6309     6185     5653     5310 
    5510     5988     6461     6871     7261     7723     8228     8577 
    8638     8313     7481     6334     5421     5213     5799     6835 
    7730     8135     8171     7947     7365     6639     6166     5980 
    5879     5829     5989     6467     7248     8182     8861     8996 
    8707     8190     7692     7352     6878     6129     5449     5020 
    4642     4307     4321     4729     5391     6443     7757     8714 
    8862     8079     6488     4587     3082     2571     3221     4677 
    6377     7855     8846     9246     9088     8559     7723     6582 
    5427     4575     4199     4453     5265     6394     7587     8544 
    9151     9413     9231     8588     7635     6704     6180     6146 
    6431     6845     7186     7307     7206     6932     6534     6214 
    6231     6447     6511     6353     6061     5703     5436     5389 
    5494     5684     6222     7310     8430     8815     8355     7472 
    6586     5941     5699     5861     6054     5961     5819     5957 
    6308     6709     7096     7308     7138     6654     6207     6060 
    6243     6633     7079     7573     8167     8696     8788     8235 
    7245     6303     5787     5778     6038     6231     6185     5930 
    5603     5359     5269     5427     5910     6589     7227     7573 
    7431     7002     6716     6752     7156     7850     8334     8143 
    7485     6839     6384     6231     6407     6548     6334     5937 
    5614     5431     5524     5969     6554     6988     7020     6577 
    6073     5973     6249     6763     7383     7727     7713     7589 
    7287     6844     6706     6990     7335     7360     6917     6269 
    5779     5640     5857     6178     6478     6922     7337     7310 
    6794     6161     5899     6237     7009     7784     8068     7817 
    7385     6988     6741     6689     6678     6551     6247     5900 
    5734     5676     5605     5652     5859     6172     6610     7005 
    7098     6933     6723     6596     6636     6798     6897     6866 
    6771     6698     6786     7057     7334     7381     7075     6571 
    6230     6216     6285     6107     5786     5740     6146     6818 
    7454     7811     7789     7441     6976     6655     6534     6501 
    6492     6502     6546     6574     6474     6234     6054     6160 
    6542     7057     7578     7874     7693     7130     6592     6353 
    6380     6538     6747     6943     7021     6843     6400     6045 
    6199     6739     7210     7450     7435     7032     6295     5589 
    5211     5177     5441     6007     6779     7558     8086     8077 
    7651     7341     7345     7450     7504     7410     7083     6710 
    6613     6721     6709     6480     6137     5815     5614     5464 
    5296     5248     5489     5995     6573     7057     7392     7510 
    7353     7044     6762     6474     6096     5879     6131     6666 
    6993     6913     6635     6427     6407     6570     6825     7083 
    7245     7183     6980     6814     6627     6408     6382     6594 
    6822     6971     7063     6995     6778     6573     6353     6112 
    6022     6064     6130     6293     6592     6960     7391     7788 
    8006     8078     8032     7813     7519     7171     6650     6181 
    6069     6122     6085     6019     6012     6058     6103     6065 
    6027     6127     6323     6504     6628     6754     6944     7110 
    7128     7060     7034     7082     7194     7327     7341     7118 
    6704     6227     5782     5474     5456     5768     6216     6516 
    6566     6527     6554     6679     6876     6957     6762     6478 
    6347     6404     6624     6851     6932     6964     7009     6993 
    6929     6890     7006     7416     7985     8232     7801     6960 
    6245     5802     5594     5695     6104     6629     7044     7298 
    7457     7460     7269     7067     7005     7053     7099     7087 
    7024     6855     6523     6083     5684     5501     5539     5601 
    5570     5544     5726     6189     6731     7060     7072     6836 
    6469     6108     5913     5925     6084     6393     6764     6924 
    6727     6365     6207     6459     6976     7457     7759     7874 
    7719     7258     6733     6470     6552     6862     7227     7473 
    7550     7534     7427     7149     6701     6230     5929     5906 
    6123     6396     6546     6616     6669     6635     6650     6887 
    7145     7249     7306     7260     7005     6706     6551     6555 
    6637     6694     6717     6733     6691     6574     6462     6423 
    6411     6363     6249     6083     5979     6021     6172     6386 
    6610     6767     6793     6624     6359     6284     6486     6759 
    6941     7038     7110     7155     7106     6952     6740     6493 
    6286     6268     6458     6713     6891     6978     7071     7167 
    7090     6768     6339     6016     5980     6223     6543     6799 
    6964     7009     6944     6833     6737     6772     6988     7234 
    7314     7182     6902     6573     6282     6111     6142     6378 
    6654     6804     6812     6677     6439     6262     6207     6212 
    6255     6323     6369     6363     6354     6435     6573     6621 
    6556     6535     6723     7096     7433     7539     7443     7246 
    6998     6794     6700     6669     6687     6826     7057     7194 
    7110     6910     6745     6639     6559     6512     6561     6720 
    6890     6951     6863     6683     6490     6324     6205     6133 
    6102     6139     6270     6489     6750     6949     7005     6976 
    6999     7074     7122     7161     7153     6983     6683     6440 
    6355     6338     6280     6205     6147     6080     6089     6265 
    6508     6687     6777     6768     6720     6727     6740     6677 
    6567     6408     6189     6049     6095     6281     6563     6883 
    7106     7168     7168     7191     7211     7245     7335     7410 
    7439     7468     7408     7167     6835     6563     6423     6413 
    6492     6593     6652     6654     6651     6637     6571     6524 
    6481     6297     6054     5952     5989     6092     6228     6340 
    6421     6538     6701     6872     6982     6952     6885     6967 
    7169     7304     7304     7190     6991     6779     6538     6235 
