Origin Time       2024/06/23 22:54:00
Lat.              35.645
Long.             140.060
Depth. (km)       72
Mag.              4.1
Station Code      CHB011
Station Lat.      35.5877
Station Long.     140.4971
Station Height(m) 2
Record Time       2024/06/23 22:54:47
Sampling Freq(Hz) 100Hz
Duration Time(s)  60
Dir.              E-W
Scale Factor      7845(gal)/8223790
Max. Acc. (gal)   3.301
Last Correction   2024/06/23 22:54:46
Memo.             
[...]
     747      749      773      769      753      753      757      757 
     756      753      756      758      760      761      761      758 
     758      756      756      756      750      754      774      774 
     754      745      764      784      774      754      760      769 
     760      751      760      764      757      762      765      751 
     751      762      760      758      765      765      757      757 
     772      778      766      760      769      772      762      761 
     770      766      761      770      773      768      768      762 
     765      769      756      754      773      770      751      760 
     780      774      754      761      781      773      761      769 
     772      754      757      785      774      742      761      787 
     765      747      766      783      768      753      769      777 
     760      761      781      778      761      761      778      777 
     760      758      764      764      762      762      773      783 
     780      789      799      781      758      753      757      756 
     745      751      778      793      800      815      812      781 
     754      739      715      706      743      776      777      784 
     795      787      754      727      734      742      727      723 
     756      808      837      832      820      799      756      706 
     677      672      681      726      816      896      912      876 
     808      718      642      646      724      797      828      823 
     778      734      731      749      769      814      855      861 
     828      761      680      630      622      661      754      855 
     889      855      820      795      731      658      666      742 
     799      835      891      938      911      815      729      670 
     619      598      618      675      777      903      977      951 
     865      766      660      553      523      650      857      989 
     988      888      753      641      588      607      699      839 
     982     1058      997      781      507      352      418      646 
     916     1127     1174     1009      727      494      429      529 
     656      726      834     1013     1121     1061      865      612 
     429      427      614      851      963      900      770      695 
     691      700      695      708      777      903     1046     1115 
    1034      830      607      496      571      756      896      909 
     823      689      598      634      811      993     1013      916 
     854      835      828      853      892      920      896      783 
     588      365      217      226      410      703      970     1077 
     982      765      564      464      460      521      622      765 
     907      947      857      714      600      581      676      827 
     966     1021      942      787      665      604      610      731 
     945     1078     1017      869      769      727      692      642 
     596      599      670      801      989     1166     1189     1016 
     758      534      392      348      387      471      607      857 
    1162     1328     1250     1042      826      630      560      669 
     801      855      847      757      602      506      541      654 
     757      811      804      723      567      415      438      687 
    1013     1232     1266     1154      932      622      360      307 
     427      622      811      888      885      911      930      909 
     920      980     1040     1050      923      591      166      -40 
     189      696     1097     1225     1173      981      704      471 
     346      372      544      769      974     1088     1023      801 
     531      337      338      527      793     1107     1389     1413 
    1134      808      635      619      757     1004     1143     1031 
     788      589      460      394      437      567      662      704 
     796      939     1003      881      599      384      425      588 
     683      731      797      843      884      949      973      900 
     765      649      595      604      737     1003     1208     1139 
     822      506      379      415      558      808     1078     1200 
    1134      990      841      697      621      641      703      760 
     760      652      496      426      523      784     1066     1188 
    1078      818      581      508      629      861     1073     1165 
    1080      831      538      340      305      448      689      897 
    1019     1051      947      703      444      346      480      743 
     957      996      859      612      342      228      473     1007 
    1463     1584     1399     1012      575      319      309      425 
     595      765      874      953     1030     1044      932      761 
     650      639      695      761      797      820      808      727 
     639      575      510      517      618      700      743      816 
     882      899      945     1063     1140     1063      866      657 
     535      572      757      985     1117     1065      870      676 
     545      442      383      425      511      571      600      527 
     391      432      743     1140     1435     1570     1509     1254 
     932      676      540      523      542      522      486      465 
     508      680      913     1116     1285     1310     1092      791 
     577      423      345      432      623      818     1004     1109 
    1008      769      544      376      332      503      830     1112 
    1248     1235      994      541      195      241      581      904 
     970      820      711      715      696      660      726      864 
     931      880      788      710      626      538      487      494 
     527      626      858     1115     1198     1093      927      797 
     778      903     1096     1182     1035      731      483      475 
     712     1000     1108      938      643      491      530      627 
     729      781      693      504      369      344      365      434 
     568      693      808      980     1158     1182      962      672 
     623      837     1042     1074     1004      981     1055     1098 
     963      715      565      614      795      970      981      766 
     429      132       71      351      803     1144     1212      980 
     641      488      557      679      784      928     1115     1200 
    1061      781      527      383      392      584      850     1031 
    1111     1098      908      610      444      519      747      986 
    1123     1140     1069      861      486      124       18      168 
     407      611      695      670      664      793     1034     1208 
    1201     1077      930      781      618      467      399      419 
     437      442      527      730     1015     1300     1476     1485 
    1318     1008      710      669      870      951      720      414 
     271      218      129      148      491     1040     1462     1556 
    1358     1007      621      294      152      236      479      793 
    1081     1217     1134      932      751      611      544      657 
     881     1000      935      781      712      857     1086     1111 
     892      677      581      548      580      652      689      719 
     742      710      708      834      994     1032      873      588 
     388      427      607      703      670      646      733      907 
    1070     1120     1007      757      527      499      619      676 
     641      708      911     1050     1054     1067     1112     1042 
     789      511      445      612      754      652      384      203 
     260      548      939     1217     1277     1171      940      599 
     272      151      303      577      789      918     1015     1066 
    1071     1088     1096     1048     1020     1054     1027      820 
     480      175       40      101      352      720     1007     1070 
     993      891      808      819      911      974     1000     1012 
     955      859      843      900      909      830      734      657 
     523      313      152      153      337      685     1082     1336 
    1355     1150      811      525      469      645      849      905 
     834      687      498      379      456      684      859      884 
     847      866      990     1178     1275     1194      989      747 
     599      616      684      691      685      675      589      483 
     502      675      845      877      874     1035     1291     1394 
    1269     1044      841      739      747      768      718      606 
     467      301      132      132      425      859     1223     1420 
    1382     1155      926      801      747      707      618      400 
      48     -275     -369     -170      253      656      822      822 
     801      747      653      615      685      784      880     1067 
    1314     1424     1324     1132      996      997     1120     1262 
    1325     1287     1174      997      792      648      596      606 
     627      598      522      496      510      418      224      126 
     222      403      550      715      963     1155     1148     1026 
     945      949     1019     1128     1213     1193     1071      864 
     622      469      486      634      764      718      553      508 
     683      872      882      816      774      726      737      837 
     847      619      298      140      189      326      483      650 
     830     1020     1194     1314     1348     1266     1101      953 
     865      820      834      939     1094     1210     1177      874 
     395       41      -29       86      232      322      349      364 
     433      541      662      835     1047     1221     1282     1208 
    1108     1070     1013      858      666      571      626      773 
     932     1031     1023      980      970      949      881      822 
     791      754      675      525      297       29     -141      -66 
     229      545      731      789      807      903     1136     1381 
    1456     1352     1208     1115     1019      859      697      583 
     510      553      814     1205     1522     1714     1840     1852 
    1702     1458     1140      719      243     -213     -602     -880 
   -1021    -1042     -957     -743     -338      291     1050     1776 
    2436     3114     3754     4025     3603     2546     1233       99 
    -627    -1043    -1339    -1545    -1656    -1668    -1432     -843 
    -113      494      950     1304     1556     1772     1998     2081 
    1868     1404      881      522      409      429      511      722 
    1094     1513     1827     1941     1779     1323      724      198 
    -101      -87      164      460      637      630      541      606 
     924     1363     1734     2006     2209     2270     2106     1742 
    1255      715      180     -306     -668     -772     -576     -264 
     -32      205      625     1139     1462     1406     1001      403 
    -197     -629     -688     -288      311      724      830      756 
     687      770     1012     1273     1412     1409     1358     1283 
    1097      789      513      445      677     1127     1587     1896 
    2008     1884     1487      920      399       71      -39       -9 
      16      -16      -24       41      124      162      203      360 
     673     1100     1587     2077     2479     2694     2675     2455 
    2084     1603     1108      669      237     -217     -612     -884 
    -990     -865     -423      307     1104     1690     1921     1813 
    1491     1090      681      315       41     -116      -67      286 
     823     1291     1578     1691     1652     1482     1197      812 
     360     -179     -845    -1533    -2000    -2033    -1611     -880 
      60     1174     2243     2884     2960     2678     2284     1876 
    1466     1075      747      456      129     -190     -364     -345 
    -135      321      920     1350     1453     1313     1055      855 
     911     1256     1752     2164     2230     1834     1143      471 
      62       36      367      893     1395     1674     1679     1520 
    1350     1264     1223     1212     1308     1458     1499     1398 
    1294     1271     1242     1165     1120     1077      874      440 
    -140     -697    -1073    -1123     -832     -426     -120       86 
     291      550      880     1259     1571     1625     1381      980 
     629      481      473      365       82     -207     -356     -372 
    -334     -265     -140       25      217      517      940     1293 
    1383     1291     1291     1483     1678     1657     1397      993 
     576      279      209      425      919     1476     1760     1668 
    1378     1054      816      808     1071     1491     1914     2187 
    2128     1653      915      236     -139     -168       55      261 
     108     -398     -870    -1017     -893     -722     -665     -723 
    -758     -594     -152      418      845     1005     1093     1414 
    1999     2613     3115     3519     3742     3572     2930     2046 
    1296      843      564      295      -16     -283     -297       99 
     843     1655     2161     2056     1296      209     -727    -1213 
   -1204     -804     -260       74      -20     -342     -454     -186 
     313      827     1219     1476     1622     1629     1525     1453 
    1534     1718     1853     1883     1846     1742     1548     1398 
    1449     1647     1880     2108     2185     1830      882     -461 
   -1730    -2521    -2695    -2297    -1433     -322      756     1610 
    2160     2326     2049     1425      645     -171     -899    -1264 
   -1078     -423      433     1183     1586     1597     1424     1360 
    1499     1694     1787     1741     1586     1347     1053      758 
     565      584      805     1001      935      657      441      383 
     342      305      398      592      704      645      496      423 
     546      846     1128     1148      880      595      581      911 
    1497     2172     2659     2701     2207     1294      268     -511 
    -791     -508      153      859     1239     1097      658      365 
     355      406      422      619     1096     1590     1800     1659 
    1269      729      129     -318     -394      -70      459      858 
     868      507       40     -234     -190       72      390      670 
     870      989     1096     1298     1642     1991     2137     1953 
    1435      727       78     -295     -330     -189      -94      -76 
     -13      197      529      847     1039     1129     1193     1250 
    1279     1254     1201     1237     1390     1516     1524     1520 
    1647     1865     1961     1790     1344      649     -172     -815 
   -1026     -853     -542     -264        4      301      529      545 
     324       24     -117       76      626     1293     1746     1814 
    1498      926      405      301      702     1289     1637     1653 
    1610     1665     1723     1703     1626     1566     1501     1304 
     870      234     -369     -649     -517      -98      500     1267 
    2018     2353     2019     1219      392     -167     -395     -309 
      32      535     1105     1602     1856     1782     1499     1239 
    1071      870      557      152     -314     -765    -1048    -1161 
   -1236    -1270    -1077     -531      292     1183     1876     2124 
    1875     1389     1067     1181     1691     2218     2347     2002 
    1391      735      265      220      557      919     1104     1252 
    1539     1960     2385     2581     2317     1568      568     -348 
    -945    -1190    -1206    -1074     -741     -167      459      843 
     954      965      915      730      459      229       54      -41 
      97      513     1066     1633     2062     2104     1676     1092 
     807      973     1306     1398     1113      693      417      298 
     245      265      336      318      187      151      383      747 
    1015     1139     1220     1293     1286     1120      823      486 
     174      -52     -128        5      410     1051     1701     2085 
    2155     2065     1923     1706     1387     1048      824      772 
     823      878      907      935      940      834      588      313 
     124        1      -97     -106       60      414      838     1166 
    1317     1232      835      214     -407     -769     -677     -186 
     469     1102     1528     1557     1248      889      658      522 
     430      437      588      841     1138     1436     1690     1852 
    1896     1790     1522     1193      924      718      486      194 
    -130     -467     -780     -961     -880     -535      -97      209 
     337      452      688      973     1165     1271     1408     1621 
    1860     2050     2138     2097     1881     1455      903      442 
     247      301      476      679      854      939      915      818 
     664      463      329      407      739     1223     1640     1761 
    1509      982      388      -91     -421     -585     -537     -342 
    -125      167      696     1410     1992     2212     2141     1912 
    1587     1259     1020      855      672      405       79     -197 
    -272      -48      341      616      676      679      788     1027 
    1308     1512     1553     1429     1215     1016      878      792 
     773      791      746      637      542      511      521      518 
     476      429      430      541      774     1007     1063      946 
     831      861     1044     1336     1682     1996     2169     2118 
    1876     1583     1366     1220     1036      711      259     -211 
    -623     -957    -1188    -1266    -1166     -935     -673     -459 
    -272      -28      291      669     1059     1347     1433     1320 
    1105      874      697      676      847     1128     1426     1721 
    2006     2203     2218     2061     1811     1522     1254     1044 
     823      515      159     -122     -232     -159       54      351 
     641      838      901      850      768      742      807      951 
    1121     1233     1194      949      571      253      133      217 
     429      668      866     1017     1120     1152     1078      864 
     530      198       -6      -63      -14       74      145      267 
     568     1046     1561     1919     1996     1858     1647     1474 
    1402     1389     1318     1131      885      715      658      619 
     496      284       48     -137     -193      -55      245      569 
     754      726      561      449      545      791      967      986 
     973     1016     1058     1051     1023      989      907      729 
     465      216       94      153      365      662      969     1256 
    1537     1749     1753     1513     1175      903      675      405 
     114      -72      -95       -2      136      357      743     1252 
    1730     2015     2025     1782     1398     1057      886      880 
     945      974      878      603      180     -230     -446     -413 
    -236      -71       17       64       87       93      135      244 
     467      832     1248     1594     1827     1960     2016     1998 
    1891     1695     1470     1320     1252     1166      988      719 
     410      130      -40      -39       95      243      324      341 
     330      291      224      207      306      503      773     1082 
