Origin Time       2024/06/23 22:54:00
Lat.              35.645
Long.             140.060
Depth. (km)       72
Mag.              4.1
Station Code      CHB018
Station Lat.      35.1520
Station Long.     140.3204
Station Height(m) 38
Record Time       2024/06/23 22:54:47
Sampling Freq(Hz) 100Hz
Duration Time(s)  60
Dir.              U-D
Scale Factor      7845(gal)/8223790
Max. Acc. (gal)   1.510
Last Correction   2024/06/23 22:54:47
Memo.             
[...]
    8208     8166     8154     8166     8203     8241     8203     8102 
    7992     7885     7882     8031     8121     8052     7969     7855 
    7680     7751     8164     8515     8590     8515     8356     8193 
    8168     8252     8365     8517     8557     8325     8054     8002 
    8075     8125     8109     8052     8009     7904     7763     7850 
    8071     8089     7996     7987     8019     8164     8417     8525 
    8437     8259     8078     8094     8320     8441     8345     8224 
    8044     7823     7900     8172     8176     8048     8051     8017 
    8036     8270     8353     8145     8016     8074     8213     8365 
    8359     8187     8100     8171     8284     8390     8411     8203 
    7835     7600     7734     8178     8478     8314     8067     8056 
    8036     8046     8266     8364     8183     8037     8050     8186 
    8402     8463     8275     8073     8004     8009     8070     8183 
    8205     8086     7950     7839     7832     8013     8178     8225 
    8344     8436     8303     8226     8298     8190     8046     8202 
    8411     8390     8256     8121     8006     8005     8091     8113 
    8048     8006     8046     8128     8197     8225     8159     7923 
    7677     7751     8128     8418     8419     8216     7927     7736 
    7865     8298     8737     8841     8506     8001     7753     7878 
    8147     8383     8483     8341     8154     8167     8237     8244 
    8239     8129     7998     8051     8055     7900     7960     8179 
    8187     8152     8236     8186     8031     8050     8158     8152 
    8120     8136     8112     8154     8379     8478     8271     8071 
    8008     7917     7889     8028     8143     8170     8222     8225 
    8121     8054     8089     8185     8298     8353     8283     8114 
    7986     8060     8271     8347     8222     8093     8028     7970 
    7962     8091     8210     8217     8345     8541     8384     7974 
    7766     7824     8031     8280     8320     8093     7919     8006 
    8218     8382     8391     8202     7975     7901     8006     8241 
    8391     8311     8220     8193     8029     7824     7850     8075 
    8314     8509     8534     8218     7813     7796     8082     8263 
    8353     8465     8364     8070     7998     8124     8125     8093 
    8108     7971     7875     8147     8456     8437     8321     8235 
    7954     7654     7786     8181     8332     8298     8303     8216 
    8060     8083     8256     8360     8229     7909     7726     7861 
    8120     8306     8376     8287     8127     8086     8114     8116 
    8264     8448     8282     8033     8136     8201     8037     8121 
    8310     8141     7928     7956     8058     8240     8433     8386 
    8213     8125     7970     7765     7847     8098     8124     8093 
    8268     8421     8376     8244     8104     8066     8179     8247 
    8198     8190     8248     8294     8262     8108     7898     7754 
    7784     7965     8174     8363     8426     8322     8256     8218 
    8077     8051     8148     8062     7989     8164     8251     8174 
    8212     8257     8122     7952     7921     8059     8275     8422 
    8395     8166     7917     7951     8194     8248     8139     8221 
    8341     8268     8326     8498     8299     7885     7666     7604 
    7778     8168     8313     8264     8403     8436     8144     7921 
    7888     7908     8041     8255     8502     8712     8546     8078 
    7885     7950     7862     7828     8152     8479     8469     8325 
    8178     7969     7946     8197     8262     8040     7960     8029 
    8066     8243     8444     8297     7971     7846     7974     8209 
    8322     8255     8209     8290     8417     8475     8344     8047 
    7796     7755     7929     8148     8222     8229     8263     8147 
    7973     8075     8297     8302     8194     8140     7986     7724 
    7792     8260     8571     8565     8409     7994     7595     7703 
    8112     8421     8604     8587     8318     8066     7986     8000 
    8033     8047     8035     8054     8187     8365     8397     8305 
    8197     7975     7738     7743     7959     8264     8542     8576 
    8330     8027     7834     7757     7801     8131     8656     8818 
    8526     8309     8187     7911     7715     7719     7755     7827 
    7888     8020     8486     8864     8608     8214     8116     7921 
    7728     8020     8418     8378     8144     8090     8139     8095 
    7973     7919     7974     8112     8398     8714     8777     8571 
    8186     7631     7213     7362     7846     8181     8465     8683 
    8476     8209     8390     8583     8363     7997     7716     7599 
    7789     8124     8267     8295     8425     8488     8368     8255 
    8108     7812     7724     7996     8201     8218     8287     8333 
    8247     8143     8127     8168     8075     7902     8058     8413 
    8514     8513     8499     8171     7716     7457     7407     7708 
    8232     8515     8561     8434     8032     7846     8216     8530 
    8419     8268     8257     8216     8162     8248     8343     8133 
    7711     7560     7766     8024     8267     8468     8442     8260 
    8093     7981     8029     8186     8172     8052     8098     8220 
    8197     8148     8191     8183     8194     8398     8565     8411 
    8001     7628     7542     7692     7908     8152     8374     8506 
    8549     8482     8371     8297     8156     7905     7716     7685 
    7784     8105     8607     8814     8503     8081     7797     7672 
    7894     8318     8484     8349     8132     7932     7871     8020 
    8237     8382     8472     8517     8433     8189     7894     7759 
    7850     8028     8263     8534     8569     8325     8120     7894 
    7553     7623     8120     8299     8256     8445     8388     7971 
    7928     8122     7933     7771     8050     8276     8289     8567 
    8926     8681     8054     7781     7840     7863     7966     8305 
    8579     8434     8014     7761     7778     7831     7944     8305 
    8586     8410     8144     8118     8027     7800     7800     8021 
    8163     8222     8397     8556     8403     8167     8224     8243 
    7982     7925     8124     8091     7975     8097     8140     8043 
    8245     8588     8559     8240     7942     7774     7873     8182 
    8343     8257     8120     7970     7866     7981     8275     8546 
    8667     8613     8375     8008     7821     7947     8086     8171 
    8201     7840     7369     7553     8199     8550     8556     8503 
    8332     8029     7881     7956     8021     7965     7939     8090 
    8297     8418     8568     8715     8626     8363     8091     7796 
    7699     7987     8295     8334     8255     8110     7831     7545 
    7566     8035     8564     8746     8627     8284     7792     7523 
    7750     8260     8576     8445     8139     7978     7942     8027 
    8248     8399     8387     8244     7963     7773     7878     8121 
    8353     8530     8542     8391     8105     7798     7850     8236 
    8419     8343     8303     8141     7812     7747     7955     8094 
    8212     8309     8193     8071     8145     8168     8112     8197 
    8245     8094     8093     8364     8459     8278     8155     8037 
    7827     7836     8082     8245     8384     8587     8580     8260 
    7859     7632     7676     7917     8286     8564     8388     7928 
    7750     7919     8181     8456     8621     8529     8270     7986 
    7781     7819     8035     8145     8189     8262     8174     8027 
    8110     8255     8328     8467     8421     7989     7597     7599 
    7894     8241     8392     8353     8338     8283     8132     8128 
    8240     8230     8187     8198     8133     7966     7732     7601 
    7863     8334     8534     8478     8441     8409     8326     8221 
    8109     8059     8060     8066     8141     8199     8046     7827 
    7828     8014     8236     8459     8538     8413     8284     8140 
    7896     7796     7958     8185     8365     8426     8217     7854 
    7726     7923     8155     8306     8425     8407     8268     8186 
    8101     7933     7862     7950     8108     8365     8594     8532 
    8321     8244     8183     8032     7932     7874     7840     7962 
    8181     8294     8299     8236     8118     8094     8166     8139 
    8044     8055     8133     8190     8210     8202     8221     8247 
    8224     8176     8077     7886     7738     7798     8114     8522 
    8723     8623     8314     7951     7836     8046     8249     8307 
    8276     8035     7734     7813     8206     8472     8490     8351 
    8102     7843     7750     7859     8000     8064     8131     8194 
    8140     8087     8263     8584     8758     8603     8186     7793 
    7654     7773     8087     8383     8329     8021     7867     7960 
    8191     8495     8660     8513     8245     8063     7967     8016 
    8183     8247     8163     8148     8225     8175     8033     8108 
    8345     8428     8410     8452     8305     7863     7516     7452 
    7449     7472     7742     8209     8519     8560     8478     8332 
    8210     8237     8364     8451     8311     7828     7368     7422 
    7848     8286     8669     8911     8914     8749     8480     8171 
    7823     7446     7331     7634     8056     8384     8633     8800 
    8900     8839     8492     8036     7632     7295     7237     7542 
    7925     8224     8421     8410     8232     8129     8203     8349 
    8463     8449     8235     7965     7836     7874     8090     8398 
    8490     8244     7890     7666     7641     7761     7975     8293 
    8644     8881     8953     8818     8401     7862     7581     7686 
    7946     8175     8347     8345     8113     7817     7580     7399 
    7445     7879     8502     8930     8993     8739     8278     7848 
    7689     7708     7776     7981     8249     8382     8372     8313 
    8326     8438     8426     8244     8139     8147     8145     8172 
    8240     8181     7928     7666     7600     7744     7955     8152 
    8383     8569     8510     8268     8135     8193     8289     8314 
    8222     8013     7866     7971     8228     8352     8233     8039 
    7983     8133     8411     8583     8407     8020     7781     7715 
    7668     7736     7954     8167     8438     8750     8810     8559 
    8268     8151     8186     8206     8159     8086     7955     7830 
    7874     8048     8232     8357     8306     8136     8039     8047 
    8140     8237     8201     8147     8185     8128     7956     7832 
    7746     7731     7869     8019     8089     8144     8175     8214 
    8368     8494     8325     8085     8203     8569     8829     8935 
    8831     8394     7855     7568     7535     7626     7846     8163 
    8359     8279     8097     8075     8181     8243     8197     8054 
    7940     7931     7932     7987     8141     8178     8095     8170 
    8291     8208     8074     8047     8031     8033     8102     8100 
    8001     8002     8182     8460     8745     8869     8770     8623 
    8463     8256     8156     8100     7869     7624     7547     7526 
    7588     7847     8114     8147     8062     8048     8037     8032 
    8233     8584     8804     8881     8888     8634     8116     7728 
    7658     7703     7793     7973     8068     8021     8056     8195 
    8284     8371     8460     8361     8098     7902     7836     7851 
    7966     8120     8151     8091     8137     8356     8627     8710 
    8498     8195     7940     7757     7830     8105     8174     8012 
    7946     8028     8159     8299     8330     8185     8012     7986 
    8113     8268     8386     8448     8397     8220     8013     7851 
    7766     7855     8159     8475     8611     8604     8483     8220 
    7951     7836     7821     7798     7796     7942     8185     8317 
    8378     8490     8483     8278     8040     7835     7693     7782 
    8135     8536     8787     8784     8467     8013     7731     7717 
    7920     8185     8266     8118     7847     7515     7356     7607 
    8073     8436     8683     8834     8783     8577     8430     8426 
    8382     8205     8083     8025     7917     7977     8247     8376 
    8251     7982     7657     7496     7666     8081     8473     8559 
    8320     8060     8002     8162     8502     8802     8699     8189 
    7673     7480     7649     7998     8233     8182     7971     7798 
    7777     7992     8364     8584     8444     8043     7723     7785 
    8195     8685     8965     8823     8317     7774     7516     7708 
    8218     8648     8739     8515     8094     7740     7697     7884 
    8145     8479     8742     8723     8518     8264     7908     7501 
    7165     6961     7064     7580     8344     9030     9277     8974 
    8368     7744     7366     7491     8060     8668     8988     8969 
    8696     8333     8100     8074     8063     7882     7657     7634 
    7825     8102     8383     8560     8548     8472     8514     8580 
    8455     8114     7665     7242     7038     7179     7609     8162 
    8569     8676     8549     8253     7908     7758     7848     8025 
    8213     8336     8322     8337     8500     8629     8611     8498 
    8301     8145     8210     8368     8355     8151     7884     7672 
    7669     7911     8235     8569     8910     8954     8440     7627 
    6920     6566     6798     7543     8340     8837     8926     8618 
    8172     7935     8029     8334     8607     8729     8712     8542 
    8289     8100     8023     8051     8147     8218     8210     8137 
    8070     8116     8230     8154     7809     7497     7460     7669 
    8075     8595     8961     8932     8567     8089     7673     7476 
    7585     7869     8102     8189     8163     8104     8059     8054 
    8133     8321     8537     8662     8615     8343     7933     7665 
    7696     7927     8178     8298     8306     8365     8464     8475 
    8451     8394     8224     8067     8050     8032     7857     7560 
    7349     7423     7738     8137     8517     8730     8727     8654 
    8553     8344     8087     7962     8009     8187     8483     8787 
    8889     8725     8376     7963     7641     7487     7437     7479 
    7662     7894     8041     8101     8109     8068     8024     8102 
    8280     8398     8502     8679     8777     8677     8390     7938 
    7493     7304     7415     7744     8164     8473     8599     8633 
    8629     8583     8459     8218     7998     7909     7838     7801 
    7923     8048     8081     8210     8442     8522     8372     8167 
    7998     7782     7596     7654     7878     8033     8159     8370 
    8522     8444     8226     8059     8000     8058     8262     8545 
    8672     8510     8213     7973     7844     7844     7938     8040 
    8149     8337     8563     8665     8571     8289     7898     7647 
    7707     7942     8143     8262     8263     8104     7901     7781 
    7722     7747     7873     7963     8035     8226     8449     8567 
    8548     8398     8267     8294     8376     8413     8414     8309 
    8098     7993     8013     7965     7865     7828     7859     7979 
    8183     8401     8523     8461     8352     8314     8201     7962 
    7793     7796     7885     8012     8155     8222     8190     8164 
    8203     8257     8282     8272     8225     8163     8131     8085 
    7996     7982     8121     8325     8495     8571     8479     8208 
    7901     7738     7753     7882     8121     8433     8604     8536 
    8376     8214     8085     8043     8040     7993     7866     7701 
    7665     7840     8054     8182     8293     8376     8343     8244 
    8197     8205     8244     8293     8294     8255     8228     8198 
    8162     8181     8217     8166     8043     7931     7855     7869 
    7987     8083     8113     8164     8210     8229     8328     8442 
    8410     8298     8216     8094     7950     7927     8010     8086 
    8172     8264     8307     8328     8293     8194     8174     8214 
    8170     8097     8077     8050     7971     7813     7632     7589 
    7750     8085     8492     8756     8754     8556     8282     8087 
    8051     8063     8063     8073     8068     8097     8197     8237 
    8164     8086     8016     7929     7925     8063     8271     8473 
    8634     8694     8553     8280     8093     7996     7873     7813 
    7861     7890     7912     8041     8264     8417     8386     8240 
    8075     7920     7852     7931     8033     8041     7975     7928 
    7971     8091     8290     8565     8760     8746     8590     8378 
    8121     7836     7619     7564     7657     7855     8145     8429 
    8568     8546     8479     8430     8334     8178     8037     7927 
    7865     7931     8064     8133     8163     8156     8063     8006 
    8060     8077     8044     8101     8230     8343     8413     8434 
    8411     8365     8306     8255     8230     8182     8066     7943 
    7923     8020     8144     8217     8222     8158     8074     8058 
    8102     8112     8052     7975     7916     7882     7913     8037 
    8195     8311     8345     8311     8245     8163     8110     8122 
    8129     8118     8175     8270     8287     8229     8148     8079 
    8058     8055     8046     8077     8135     8151     8125     8113 
    8127     8114     8050     8009     8048     8104     8149     8245 
    8341     8352     8343     8391     8425     8417     8398     8302 
    8106     7944     7904     7933     7992     8054     8039     7925 
    7816     7827     7970     8160     8326     8442     8486     8464 
    8372     8218     8121     8113     8118     8195     8334     8349 
    8222     8110     8058     8029     8037     8060     8021     7994 
    8071     8158     8171     8128     8019     7885     7863     7992 
    8136     8202     8226     8248     8270     8338     8455     8541 
    8550     8469     8286     8075     7923     7784     7686     7723 
    7780     7784     7865     8013     8085     8109     8171     8213 
    8189     8163     8182     8267     8440     8613     8649     8526 
    8321     8105     7943     7905     7994     8121     8209     8256 
    8255     8203     8209     8338     8455     8397     8159     7881 
    7712     7713     7854     8066     8252     8321     8298     8293 
    8309     8275     8251     8282     8278     8185     8029     7847 
    7731     7749     7858     8017     8213     8391     8491     8503 
    8449     8343     8171     7966     7842     7846     7902     8001 
    8176     8322     8324     8224     8110     8023     8009     8093 
    8203     8256     8240     8222     8239     8247     8195     8104 
    8048     8054     8037     8002     8055     8145     8166     8178 
    8253     8329     8361     8391     8426     8397     8260     8059 
    7870     7757     7763     7862     7967     8052     8098     8079 
    8105     8235     8361     8434     8424     8303     8181     8137 
    8140     8156     8183     8237     8299     8286     8228     8205 
    8127     7962     7867     7881     7911     7989     8145     8276 
    8320     8291     8199     8094     8083     8187     8309     8380 
