Origin Time       2024/06/23 22:54:00
Lat.              35.645
Long.             140.060
Depth. (km)       72
Mag.              4.1
Station Code      CHB011
Station Lat.      35.5877
Station Long.     140.4971
Station Height(m) 2
Record Time       2024/06/23 22:54:47
Sampling Freq(Hz) 100Hz
Duration Time(s)  60
Dir.              N-S
Scale Factor      7845(gal)/8223790
Max. Acc. (gal)   3.746
Last Correction   2024/06/23 22:54:46
Memo.             
[...]
   -7141    -7145    -7155    -7164    -7160    -7145    -7146    -7156 
   -7152    -7148    -7146    -7148    -7156    -7157    -7149    -7148 
   -7152    -7149    -7148    -7155    -7163    -7159    -7148    -7148 
   -7155    -7146    -7142    -7160    -7168    -7155    -7149    -7157 
   -7161    -7153    -7146    -7155    -7159    -7148    -7146    -7159 
   -7161    -7150    -7140    -7148    -7159    -7155    -7149    -7146 
   -7142    -7141    -7149    -7157    -7150    -7141    -7152    -7163 
   -7152    -7145    -7157    -7165    -7155    -7144    -7148    -7152 
   -7146    -7144    -7152    -7161    -7156    -7149    -7159    -7159 
   -7150    -7155    -7153    -7150    -7160    -7161    -7149    -7142 
   -7152    -7150    -7138    -7142    -7155    -7149    -7144    -7144 
   -7141    -7145    -7149    -7149    -7157    -7160    -7150    -7149 
   -7156    -7155    -7155    -7160    -7159    -7152    -7152    -7153 
   -7138    -7134    -7159    -7164    -7142    -7144    -7164    -7164 
   -7144    -7134    -7150    -7163    -7149    -7141    -7156    -7161 
   -7153    -7150    -7150    -7146    -7150    -7159    -7156    -7145 
   -7145    -7159    -7161    -7145    -7145    -7161    -7163    -7145 
   -7145    -7165    -7163    -7137    -7141    -7163    -7153    -7142 
   -7155    -7164    -7157    -7144    -7144    -7165    -7161    -7132 
   -7142    -7172    -7160    -7141    -7157    -7168    -7155    -7152 
   -7161    -7156    -7144    -7145    -7156    -7160    -7156    -7149 
   -7155    -7165    -7159    -7152    -7157    -7157    -7150    -7149 
   -7155    -7152    -7144    -7148    -7159    -7160    -7153    -7152 
   -7157    -7159    -7150    -7152    -7161    -7164    -7161    -7157 
   -7150    -7149    -7153    -7152    -7150    -7155    -7163    -7160 
   -7144    -7137    -7152    -7157    -7148    -7148    -7153    -7152 
   -7144    -7133    -7142    -7161    -7148    -7134    -7159    -7167 
   -7145    -7140    -7157    -7163    -7149    -7150    -7161    -7160 
   -7159    -7159    -7153    -7155    -7160    -7164    -7165    -7163 
   -7159    -7150    -7150    -7155    -7148    -7150    -7163    -7159 
   -7146    -7149    -7153    -7149    -7153    -7161    -7153    -7146 
   -7160    -7164    -7148    -7146    -7156    -7149    -7148    -7164 
   -7168    -7148    -7141    -7164    -7177    -7157    -7141    -7160 
   -7173    -7149    -7134    -7161    -7171    -7140    -7138    -7169 
   -7168    -7144    -7137    -7146    -7153    -7153    -7160    -7165 
   -7152    -7141    -7159    -7176    -7155    -7142    -7168    -7171 
   -7149    -7149    -7161    -7160    -7153    -7155    -7164    -7167 
   -7159    -7156    -7153    -7145    -7136    -7142    -7173    -7187 
   -7172    -7179    -7209    -7196    -7142    -7118    -7130    -7119 
   -7101    -7125    -7163    -7179    -7188    -7195    -7177    -7130 
   -7082    -7069    -7103    -7159    -7203    -7221    -7215    -7175 
   -7123    -7118    -7136    -7121    -7106    -7113    -7117    -7140 
   -7207    -7273    -7265    -7187    -7128    -7101    -7068    -7061 
   -7101    -7148    -7191    -7221    -7229    -7215    -7176    -7111 
   -7071    -7092    -7150    -7213    -7263    -7258    -7184    -7096 
   -7048    -7064    -7134    -7209    -7221    -7171    -7137    -7160 
   -7188    -7172    -7133    -7107    -7114    -7146    -7188    -7203 
   -7156    -7095    -7091    -7114    -7117    -7140    -7190    -7198 
   -7163    -7152    -7194    -7222    -7157    -7033    -6953    -6970 
   -7065    -7222    -7377    -7418    -7317    -7173    -7059    -6976 
   -6967    -7049    -7160    -7223    -7237    -7258    -7292    -7265 
   -7161    -7061    -7038    -7057    -7063    -7088    -7150    -7196 
   -7230    -7284    -7302    -7231    -7119    -7036    -7028    -7065 
   -7079    -7084    -7136    -7198    -7218    -7211    -7192    -7152 
   -7122    -7144    -7200    -7234    -7207    -7121    -7028    -7001 
   -7051    -7109    -7155    -7213    -7252    -7237    -7211    -7217 
   -7225    -7182    -7083    -6995    -6994    -7083    -7187    -7221 
   -7177    -7132    -7137    -7177    -7210    -7206    -7160    -7130 
   -7163    -7227    -7277    -7272    -7156    -6967    -6852    -6937 
   -7177    -7381    -7391    -7226    -7049    -6995    -7061    -7159 
   -7215    -7214    -7161    -7096    -7075    -7128    -7217    -7241 
   -7171    -7106    -7134    -7215    -7250    -7172    -6980    -6799 
   -6824    -7117    -7501    -7708    -7587    -7202    -6799    -6636 
   -6806    -7182    -7508    -7588    -7447    -7272    -7194    -7186 
   -7136    -6939    -6640    -6509    -6787    -7350    -7794    -7878 
   -7677    -7356    -7006    -6782    -6833    -7001    -6998    -6878 
   -6912    -7153    -7406    -7501    -7407    -7142    -6812    -6656 
   -6799    -7098    -7372    -7522    -7496    -7346    -7187    -7101 
   -7111    -7156    -7144    -7090    -7025    -6932    -6897    -7024 
   -7195    -7221    -7168    -7230    -7354    -7381    -7381    -7458 
   -7469    -7245    -6928    -6808    -6916    -7060    -7173    -7308 
   -7364    -7226    -7011    -6883    -6860    -6917    -7060    -7285 
   -7508    -7642    -7689    -7577    -7199    -6718    -6477    -6640 
   -7033    -7310    -7330    -7215    -7065    -6937    -6932    -7051 
   -7198    -7314    -7341    -7248    -7156    -7204    -7294    -7246 
   -7079    -6970    -7003    -7078    -7083    -7069    -7121    -7226 
   -7303    -7217    -6990    -6918    -7134    -7400    -7483    -7408 
   -7303    -7242    -7183    -7059    -6941    -6975    -7121    -7194 
   -7146    -7119    -7206    -7304    -7287    -7134    -6918    -6836 
   -7029    -7314    -7412    -7322    -7160    -6972    -6868    -6944 
   -7099    -7217    -7311    -7387    -7414    -7389    -7326    -7246 
   -7176    -7122    -7102    -7133    -7188    -7206    -7126    -6967 
   -6853    -6894    -7071    -7281    -7368    -7236    -7007    -6906 
   -6966    -7051    -7114    -7222    -7357    -7399    -7326    -7260 
   -7221    -7102    -6872    -6659    -6617    -6775    -7011    -7160 
   -7207    -7310    -7480    -7522    -7380    -7199    -7087    -7079 
   -7167    -7250    -7263    -7284    -7357    -7383    -7312    -7226 
   -7164    -7067    -6910    -6786    -6848    -7152    -7506    -7619 
   -7439    -7164    -6940    -6797    -6766    -6872    -7076    -7267 
   -7335    -7299    -7268    -7292    -7327    -7350    -7338    -7238 
   -7053    -6913    -6939    -7110    -7308    -7346    -7121    -6837 
   -6832    -7144    -7461    -7522    -7376    -7169    -6949    -6778 
   -6772    -6941    -7142    -7233    -7210    -7190    -7261    -7385 
   -7477    -7458    -7299    -7082    -6932    -6845    -6767    -6743 
   -6847    -7072    -7380    -7669    -7728    -7461    -7024    -6671 
   -6586    -6781    -7123    -7441    -7566    -7466    -7333    -7331 
   -7392    -7346    -7157    -6925    -6813    -6912    -7082    -7163 
   -7157    -7072    -6902    -6748    -6774    -7047    -7446    -7705 
   -7631    -7319    -7011    -6870    -6945    -7160    -7331    -7350 
   -7196    -6947    -6767    -6747    -6831    -6984    -7219    -7493 
   -7686    -7690    -7523    -7321    -7188    -7079    -6975    -6943 
   -6932    -6868    -6845    -6961    -7200    -7419    -7414    -7219 
   -7123    -7284    -7555    -7672    -7515    -7222    -7009    -6956 
   -6995    -7045    -7047    -6907    -6637    -6420    -6404    -6627 
   -7034    -7433    -7618    -7584    -7476    -7412    -7352    -7202 
   -7069    -7115    -7264    -7280    -7148    -7094    -7179    -7237 
   -7261    -7410    -7665    -7831    -7782    -7485    -6952    -6373 
   -6075    -6178    -6539    -6987    -7411    -7670    -7632    -7346 
   -7015    -6841    -6980    -7383    -7762    -7888    -7732    -7365 
   -6924    -6585    -6493    -6660    -6922    -7091    -7126    -7109 
   -7130    -7200    -7292    -7434    -7596    -7624    -7416    -7055 
   -6710    -6532    -6527    -6588    -6702    -6959    -7285    -7500 
   -7545    -7476    -7385    -7362    -7364    -7287    -7184    -7211 
   -7368    -7461    -7369    -7167    -6984    -6939    -7098    -7381 
   -7570    -7524    -7321    -7184    -7215    -7312    -7357    -7299 
   -7110    -6822    -6561    -6481    -6629    -6882    -7049    -7056 
   -6972    -6875    -6810    -6875    -7107    -7384    -7570    -7645 
   -7628    -7524    -7344    -7156    -7034    -6957    -6864    -6812 
   -6905    -7117    -7304    -7342    -7222    -7103    -7123    -7210 
   -7225    -7145    -7060    -7051    -7072    -7042    -7011    -7072 
   -7225    -7385    -7442    -7365    -7250    -7160    -7074    -7053 
   -7148    -7256    -7296    -7346    -7460    -7496    -7279    -6920 
   -6747    -6862    -7065    -7196    -7261    -7315    -7352    -7326 
   -7273    -7240    -7206    -7190    -7250    -7354    -7372    -7241 
   -7030    -6824    -6651    -6540    -6505    -6552    -6728    -7001 
   -7213    -7300    -7311    -7223    -7021    -6843    -6864    -7114 
   -7457    -7720    -7776    -7576    -7249    -7036    -7067    -7300 
   -7639    -7979    -8203    -8205    -7979    -7582    -7015    -6376 
   -5941    -5875    -6092    -6432    -6777    -7038    -7118    -6998 
   -6862    -6937    -7218    -7480    -7564    -7488    -7333    -7168 
   -7076    -7123    -7267    -7376    -7393    -7381    -7385    -7345 
   -7221    -7082    -7034    -7137    -7318    -7376    -7169    -6812 
   -6535    -6446    -6566    -6866    -7180    -7350    -7412    -7447 
   -7389    -7223    -7125    -7188    -7267    -7283    -7337    -7456 
   -7549    -7553    -7465    -7307    -7102    -6868    -6670    -6640 
   -6855    -7121    -7168    -7053    -7015    -7098    -7219    -7381 
   -7554    -7584    -7381    -7087    -6845    -6646    -6496    -6534 
   -6817    -7207    -7489    -7558    -7442    -7211    -6993    -6934 
   -7065    -7277    -7425    -7441    -7387    -7357    -7368    -7348 
   -7203    -6943    -6754    -6847    -7138    -7358    -7426    -7325 
   -7014    -6709    -6710    -6968    -7196    -7265    -7311    -7427 
   -7503    -7523    -7599    -7639    -7474    -7156    -6844    -6637 
   -6570    -6642    -6844    -7134    -7408    -7528    -7423    -7163 
   -6882    -6683    -6694    -6948    -7213    -7219    -6993    -6785 
   -6801    -7015    -7257    -7380    -7352    -7250    -7214    -7288 
   -7388    -7420    -7366    -7273    -7199    -7172    -7231    -7383 
   -7534    -7568    -7416    -7105    -6789    -6658    -6733    -6895 
   -7061    -7248    -7487    -7696    -7732    -7551    -7257    -6980 
   -6766    -6666    -6798    -7130    -7354    -7215    -6810    -6486 
   -6516    -6840    -7132    -7179    -7026    -6824    -6745    -6899 
   -7184    -7372    -7407    -7430    -7488    -7503    -7510    -7612 
   -7735    -7674    -7395    -7136    -7075    -7119    -7128    -7144 
   -7264    -7410    -7418    -7272    -7095    -7014    -7052    -7084 
   -6976    -6777    -6651    -6718    -6972    -7290    -7507    -7541 
   -7399    -7167    -6959    -6835    -6766    -6723    -6750    -6893 
   -7068    -7163    -7210    -7276    -7334    -7391    -7489    -7609 
   -7695    -7717    -7653    -7449    -7117    -6843    -6755    -6748 
   -6768    -6859    -6940    -6933    -6879    -6829    -6794    -6802 
   -6918    -7159    -7414    -7538    -7537    -7539    -7632    -7773 
   -7848    -7763    -7518    -7252    -7092    -7026    -6988    -6929 
   -6848    -6840    -6913    -6914    -6802    -6732    -6736    -6718 
   -6704    -6778    -6940    -7136    -7291    -7346    -7312    -7263 
   -7268    -7317    -7304    -7199    -7107    -7183    -7464    -7850 
   -8193    -8352    -8218    -7824    -7383    -7098    -7002    -7005 
   -6987    -6887    -6783    -6809    -6972    -7125    -7132    -6984 
   -6778    -6640    -6625    -6704    -6883    -7192    -7526    -7717 
   -7719    -7601    -7416    -7190    -7013    -6972    -7010    -7018 
   -6974    -6851    -6604    -6311    -6093    -5977    -5919    -5868 
   -5832    -5884    -6092    -6507    -7136    -7839    -8395    -8667 
   -8637    -8360    -7973    -7709    -7730    -7924    -8013    -7825 
   -7458    -7213    -7315    -7681    -8047    -8228    -8139    -7742 
   -7187    -6744    -6556    -6570    -6582    -6382    -5985    -5628 
   -5478    -5551    -5860    -6405    -7013    -7472    -7750    -7906 
   -7986    -8010    -7981    -7894    -7724    -7462    -7200    -6960 
   -6632    -6255    -6061    -6157    -6430    -6687    -6794    -6717 
   -6562    -6551    -6844    -7383    -7966    -8455    -8847    -9127 
   -9178    -8977    -8649    -8216    -7595    -6847    -6164    -5694 
   -5502    -5551    -5771    -6135    -6558    -6883    -7006    -6937 
   -6806    -6764    -6839    -6925    -6945    -6943    -7014    -7250 
   -7673    -8222    -8819    -9283    -9373    -9035    -8461    -7897 
   -7491    -7207    -6891    -6485    -6068    -5756    -5661    -5880 
   -6397    -7037    -7580    -7893    -8008    -8064    -8137    -8206 
   -8249    -8194    -7920    -7368    -6598    -5805    -5162    -4666 
   -4360    -4448    -4974    -5729    -6439    -6902    -7119    -7304 
   -7641    -8131    -8611    -8870    -8819    -8522    -8085    -7685 
   -7538    -7715    -8029    -8233    -8321    -8469    -8712    -8868 
   -8689    -8075    -7119    -5952    -4729    -3726    -3227    -3294 
   -3754    -4368    -4977    -5537    -6126    -6851    -7634    -8195 
   -8329    -8098    -7753    -7547    -7592    -7811    -8031    -8117 
   -8095    -8144    -8345    -8576    -8711    -8746    -8669    -8446 
   -8172    -8031    -8089    -8267    -8469    -8610    -8590    -8374 
   -8014    -7551    -7011    -6458    -5915    -5385    -4945    -4698 
   -4791    -5359    -6259    -7114    -7618    -7681    -7398    -6939 
   -6473    -6130    -5965    -5967    -6075    -6203    -6276    -6266 
   -6158    -6002    -5944    -6079    -6353    -6660    -6983    -7349 
   -7738    -8167    -8689    -9204    -9532    -9633    -9567    -9374 
   -9032    -8571    -8104    -7657    -7125    -6517    -6008    -5773 
   -5863    -6185    -6597    -6936    -7029    -6841    -6528    -6276 
   -6168    -6196    -6357    -6701    -7265    -7954    -8567    -8891 
   -8756    -8198    -7607    -7453    -7788    -8230    -8434    -8266 
   -7645    -6624    -5528    -4684    -4121    -3742    -3604    -3892 
   -4747    -6129    -7723    -9046    -9724    -9732    -9309    -8776 
   -8426    -8384    -8550    -8667    -8415    -7653    -6643    -5859 
   -5530    -5535    -5643    -5769    -6038    -6593    -7377    -8128 
   -8514    -8349    -7785    -7218    -6936    -6960    -7213    -7593 
   -7882    -7789    -7271    -6615    -6150    -6015    -6104    -6210 
   -6300    -6477    -6706    -6912    -7137    -7423    -7669    -7794 
   -7896    -8073    -8260    -8356    -8324    -8104    -7649    -7115 
   -6804    -6790    -6894    -6990    -7117    -7321    -7595    -7858 
   -7929    -7643    -7018    -6277    -5784    -5852    -6462    -7260 
   -7828    -7990    -7889    -7727    -7537    -7352    -7314    -7391 
   -7341    -7082    -6745    -6434    -6143    -5846    -5606    -5606 
   -5985    -6620    -7132    -7264    -7126    -6987    -7025    -7271 
   -7573    -7681    -7506    -7192    -6882    -6601    -6420    -6399 
   -6412    -6361    -6384    -6705    -7418    -8352    -9103    -9288 
   -8843    -8094    -7457    -7115    -7003    -7025    -7111    -7225 
   -7437    -7825    -8226    -8341    -8066    -7474    -6723    -6146 
   -6076    -6498    -7064    -7365    -7206    -6747    -6380    -6446 
   -6951    -7592    -8085    -8318    -8263    -7973    -7676    -7558 
   -7535    -7422    -7214    -7006    -6674    -6006    -5158    -4595 
   -4630    -5228    -6085    -6887    -7474    -7771    -7803    -7742 
   -7777    -7983    -8299    -8449    -8141    -7389    -6469    -5738 
   -5466    -5687    -6227    -6870    -7427    -7788    -7996    -8190 
   -8425    -8581    -8509    -8243    -7987    -7896    -7938    -7951 
   -7804    -7527    -7218    -6894    -6558    -6254    -6006    -5818 
   -5715    -5748    -5953    -6268    -6604    -7007    -7533    -8048 
   -8310    -8156    -7672    -7177    -7006    -7272    -7804    -8245 
   -8271    -7881    -7450    -7244    -7113    -6849    -6440    -5933 
   -5400    -5009    -4895    -5026    -5308    -5690    -6158    -6706 
   -7264    -7662    -7817    -7851    -7936    -8141    -8464    -8814 
   -8968    -8745    -8206    -7670    -7524    -7908    -8514    -8846 
   -8614    -7897    -7074    -6552    -6455    -6569    -6658    -6705 
   -6763    -6817    -6903    -7071    -7192    -7094    -6805    -6478 
   -6184    -5940    -5856    -6088    -6632    -7268    -7722    -7832 
   -7638    -7365    -7260    -7387    -7549    -7496    -7225    -6929 
   -6727    -6606    -6507    -6407    -6370    -6443    -6681    -7202 
   -7971    -8684    -9031    -8939    -8521    -7944    -7400    -7044 
   -6855    -6687    -6500    -6350    -6185    -5989    -5950    -6214 
   -6712    -7244    -7574    -7568    -7285    -6920    -6640    -6519 
   -6550    -6686    -6868    -7051    -7217    -7396    -7597    -7742 
   -7816    -7896    -7962    -7935    -7803    -7630    -7508    -7527 
   -7709    -7933    -8035    -7983    -7862    -7747    -7653    -7508 
   -7246    -6844    -6354    -5913    -5680    -5664    -5705    -5691 
   -5672    -5742    -5954    -6264    -6519    -6593    -6562    -6651 
   -6968    -7420    -7859    -8194    -8394    -8475    -8483    -8459 
   -8403    -8251    -7908    -7406    -6914    -6596    -6484    -6535 
   -6725    -7022    -7365    -7712    -8081    -8440    -8626    -8475 
   -7965    -7273    -6658    -6247    -5989    -5796    -5661    -5656 
   -5830    -6156    -6574    -7040    -7460    -7776    -8046    -8301 
   -8426    -8290    -7917    -7477    -7159    -7042    -7051    -7053 
   -6984    -6872    -6825    -6949    -7271    -7689    -7998    -8016 
   -7765    -7414    -7044    -6625    -6219    -5977    -5989    -6258 
   -6698    -7106    -7281    -7213    -7052    -6959    -6964    -6963 
   -6856    -6651    -6430    -6295    -6288    -6366    -6427    -6428 
   -6461    -6635    -6971    -7419    -7873    -8179    -8203    -7974 
   -7727    -7659    -7759    -7924    -8081    -8195    -8271    -8324 
   -8325    -8216    -8000    -7732    -7420    -7028    -6586    -6183 
   -5899    -5791    -5883    -6193    -6669    -7133    -7457    -7643 
   -7735    -7751    -7740    -7735    -7672    -7493    -7254    -7051 
   -6894    -6768    -6728    -6802    -6886    -6856    -6702    -6480 
   -6277    -6181    -6195    -6299    -6497    -6747    -7009    -7249 
   -7384    -7392    -7352    -7303    -7237    -7191    -7195    -7241 
   -7302    -7330    -7296    -7215    -7113    -7067    -7132    -7200 
   -7180    -7191    -7360    -7632    -7912    -8189    -8468    -8696 
   -8780    -8667    -8403    -8101    -7819    -7506    -7080    -6590 
   -6237    -6147    -6242    -6381    -6493    -6582    -6677    -6786 
   -6872    -6910    -6939    -6976    -6966    -6870    -6747    -6666 
