Origin Time       2024/06/23 22:54:00
Lat.              35.645
Long.             140.060
Depth. (km)       72
Mag.              4.1
Station Code      CHB028
Station Lat.      35.7664
Station Long.     139.9655
Station Height(m) 26
Record Time       2024/06/23 22:54:36
Sampling Freq(Hz) 100Hz
Duration Time(s)  69
Dir.              E-W
Scale Factor      7845(gal)/8223790
Max. Acc. (gal)   7.777
Last Correction   2024/06/23 22:54:36
Memo.             
[...]
    2227     2238     2243     2247     2247     2227     2199     2181 
    2172     2178     2209     2250     2266     2255     2232     2208 
    2192     2184     2185     2197     2222     2249     2262     2247 
    2211     2195     2201     2215     2231     2234     2222     2223 
    2236     2227     2201     2189     2192     2211     2235     2243 
    2238     2219     2201     2207     2220     2226     2228     2228 
    2230     2226     2222     2226     2220     2205     2200     2201 
    2211     2230     2235     2228     2212     2184     2177     2208 
    2235     2251     2261     2254     2241     2216     2188     2177 
    2184     2191     2201     2220     2246     2266     2265     2238 
    2208     2189     2193     2212     2226     2231     2228     2214 
    2204     2205     2204     2211     2230     2238     2227     2207 
    2181     2184     2215     2246     2266     2265     2241     2222 
    2207     2189     2195     2207     2207     2208     2209     2214 
    2236     2261     2262     2232     2187     2168     2196     2224 
    2215     2205     2216     2231     2243     2239     2223     2215 
    2215     2214     2214     2208     2199     2205     2222     2234 
    2242     2242     2226     2216     2218     2224     2226     2207 
    2187     2192     2208     2218     2226     2231     2235     2231 
    2215     2203     2200     2199     2197     2208     2226     2239 
    2246     2235     2212     2211     2227     2230     2215     2197 
    2189     2193     2204     2218     2228     2231     2232     2232 
    2224     2215     2203     2200     2212     2222     2224     2224 
    2224     2234     2235     2224     2224     2222     2209     2197 
    2185     2185     2201     2222     2241     2247     2239     2218 
    2200     2197     2200     2207     2218     2224     2224     2223 
    2224     2219     2215     2215     2214     2216     2218     2209 
    2201     2204     2216     2234     2245     2241     2232     2218 
    2212     2224     2223     2204     2191     2189     2196     2215 
    2234     2236     2234     2230     2211     2199     2200     2205 
    2219     2231     2232     2228     2219     2207     2199     2203 
    2208     2215     2226     2241     2241     2222     2205     2197 
    2199     2209     2218     2226     2234     2238     2242     2231 
    2218     2222     2222     2207     2207     2216     2218     2211 
    2208     2207     2207     2219     2230     2236     2241     2232 
    2218     2207     2196     2193     2209     2234     2243     2243 
    2242     2234     2220     2205     2196     2191     2187     2199 
    2226     2239     2241     2245     2239     2220     2205     2201 
    2212     2223     2226     2226     2214     2201     2205     2209 
    2214     2230     2239     2231     2219     2212     2204     2193 
    2204     2220     2228     2247     2259     2249     2226     2203 
    2185     2178     2188     2208     2230     2242     2243     2245 
    2242     2227     2216     2219     2222     2218     2209     2199 
    2200     2212     2220     2216     2214     2222     2223     2214 
    2219     2223     2218     2223     2222     2216     2216     2222 
    2235     2243     2236     2216     2193     2187     2197     2208 
    2222     2242     2250     2239     2227     2218     2208     2201 
    2197     2199     2195     2197     2219     2235     2239     2239 
    2231     2211     2203     2218     2228     2224     2227     2231 
    2216     2204     2201     2204     2212     2223     2230     2224 
    2212     2205     2207     2211     2224     2245     2258     2250 
    2230     2211     2203     2201     2197     2197     2200     2201 
    2204     2203     2201     2215     2230     2239     2246     2236 
    2218     2207     2205     2209     2219     2228     2224     2218 
    2212     2203     2201     2208     2211     2207     2203     2216 
    2241     2246     2242     2232     2212     2197     2199     2207 
    2218     2223     2223     2222     2214     2197     2188     2193 
    2208     2234     2257     2250     2220     2195     2187     2196 
    2215     2228     2226     2218     2215     2209     2207     2216 
    2227     2228     2223     2215     2212     2216     2219     2215 
    2204     2199     2201     2211     2224     2234     2227     2212 
    2212     2223     2220     2218     2220     2211     2197     2195 
    2200     2212     2224     2227     2224     2219     2211     2215 
    2223     2220     2226     2227     2219     2212     2204     2199 
    2211     2222     2220     2220     2228     2226     2212     2207 
    2205     2207     2216     2218     2212     2223     2227     2218 
    2220     2224     2216     2214     2218     2214     2209     2211 
    2211     2208     2211     2218     2219     2219     2222     2223 
    2220     2211     2203     2205     2197     2168     2146     2192 
    2292     2344     2328     2351     2411     2340     2138     1998 
    1957     1941     1992     2108     2219     2347     2466     2423 
    2222     2111     2288     2592     2662     2431     2135     1903 
    1737     1680     1799     2116     2556     2876     2747     2161 
    1664     1640     1877     2251     2810     3186     2988     2377 
    1680     1132     1067     1744     2890     3758     3785     2922 
    1564      514      276      743     1846     3206     4063     4205 
    3489     2003      915      837     1244     1952     2668     2922 
    2937     2840     2436     1919     1586     1603     1910     2052 
    1921     2043     2624     3168     3204     2752     2130     1695 
    1529     1314     1208     1876     3056     3686     3323     2349 
    1479     1205     1521     2253     3021     3183     2519     1544 
    1065     1462     2203     2624     2826     2986     2901     2647 
    2366     1975     1707     1717     1656     1502     1636     2084 
    2443     2467     2508     2970     3483     3273     2247     1173 
     756     1136     2010     2740     3025     3051     2736     2170 
    1988     2234     2344     2046     1483     1269     1659     2002 
    2041     2315     2960     3338     3061     2623     2403     2189 
    1857     1485     1401     1873     2389     2552     2560     2363 
    2091     2081     2176     2324     2509     2353     1950     1753 
    1830     2023     2204     2358     2512     2700     2862     2678 
    2192     1949     2011     2030     1894     1638     1529     1794 
    2110     2317     2741     3256     3361     2884     2011     1332 
    1420     1949     2268     2390     2466     2331     2006     1760 
    1795     2101     2425     2509     2477     2509     2423     2135 
    1885     1826     2050     2404     2478     2489     2932     3348 
    3007     2046     1092      785     1359     2228     2671     2520 
    1939     1441     1539     2100     2817     3443     3491     2845 
    2025     1474     1418     1911     2559     2847     2716     2350 
    1804     1362     1414     1860     2381     2770     2778     2381 
    1918     1711     1890     2388     2857     2906     2539     2052 
    1661     1513     1615     1895     2500     3242     3372     2789 
    2079     1485     1148     1264     1798     2602     3107     2732 
    1929     1489     1664     2393     3149     3283     2940     2470 
    1822     1302     1436     2073     2695     2867     2416     1827 
    1545     1409     1664     2581     3311     3132     2376     1536 
    1030     1158     1783     2670     3531     3801     3287     2488 
    1848     1485     1476     1656     1782     1972     2181     2085 
    1782     1674     1965     2579     3114     3225     3051     2785 
    2355     1803     1503     1718     2134     2331     2288     2022 
    1656     1690     2200     2578     2585     2565     2670     2675 
    2338     1829     1624     1748     1906     2207     2718     2971 
    2758     2362     1941     1636     1628     1761     1868     2010 
    2191     2354     2548     2706     2674     2633     2695     2513 
    2038     1636     1478     1709     2416     3163     3354     2778 
    1738     1051     1154     1495     1705     2072     2539     2762 
    2745     2544     2243     2139     2208     2263     2506     2934 
    3137     2984     2471     1607      918      915     1540     2458 
    2990     2639     2000     1864     2203     2556     2506     2127 
    1939     2061     2250     2556     3005     3134     2567     1638 
     989     1030     1665     2265     2479     2462     2282     2197 
    2500     2857     2890     2539     1863     1298     1356     2151 
    3353     4018     3379     1895      626      247      907     2120 
    2995     3072     2605     2128     1999     2226     2606     2835 
    2646     2235     1973     1856     1962     2328     2517     2446 
    2370     2207     2087     2127     2025     2008     2263     2286 
    2166     2224     2058     1688     1536     1586     1988     2740 
    3214     3246     3115     2781     2322     2027     1949     1968 
    1857     1490     1240     1584     2398     3079     3111     2469 
    1687     1432     1858     2685     3470     3515     2498     1150 
     426      688     1752     2901     3423     3248     2687     2108 
    1768     1691     1833     2104     2304     2336     2366     2489 
    2505     2471     2660     2713     2207     1624     1499     1736 
    2031     2122     2107     2277     2384     2241     2211     2374 
    2600     2890     2910     2439     1796     1287     1165     1563 
    2219     2872     3377     3433     2930     2137     1366      981 
    1248     1799     2014     1898     1887     2224     2860     3376 
    3163     2332     1741     1814     2266     2736     2999     2936 
    2540     1991     1517     1209     1212     1497     1664     1753 
    2180     2872     3356     3154     2407     1942     2007     2133 
    2173     2128     2072     2424     3136     3365     2706     1718 
    1146     1275     1799     2199     2351     2481     2629     2543 
    2087     1617     1555     1867     2380     3030     3483     3202 
    2236     1394     1256     1497     1599     1607     1844     2334 
    2759     2945     2907     2539     2029     1864     1976     2085 
    2235     2251     2083     2080     2226     2340     2490     2519 
    2203     1737     1574     1995     2767     3221     2910     2208 
    1795     1746     1779     1806     1896     2319     2957     3001 
    2353     1918     2074     2524     2994     3206     2945     2174 
    1154      546      803     1632     2276     2245     1933     2133 
    2984     3754     3503     2251     1190     1165     1910     2764 
    3072     2554     1764     1437     1722     2407     3159     3477 
    3049     2083     1132      831     1375     2097     2284     2069 
    1922     2002     2205     2315     2296     2246     2177     2327 
    2891     3384     3338     2956     2481     2023     1788     1796 
    1996     2376     2644     2380     1605      918      950     1642 
    2311     2581     2759     2943     2785     2432     2381     2608 
    2683     2304     1748     1628     1883     1903     1549     1212 
    1377     2189     3080     3493     3624     3609     3144     2326 
    1660     1366     1331     1291     1163     1224     1493     1748 
    2196     2905     3483     3705     3391     2627     2023     1746 
    1584     1576     1641     1656     1656     1640     1902     2683 
    3360     3294     2779     2390     2350     2558     2617     2272 
    1926     1995     2265     2425     2336     1991     1638     1343 
    1155     1507     2262     2656     2469     2076     1991     2504 
    3237     3551     3277     2625     1807     1077      792     1123 
    1710     1995     1926     1989     2340     2631     2856     3142 
    3165     2789     2334     2034     1927     1957     2035     2133 
    2108     1872     1686     1791     2089     2506     2956     3059 
    2671     2278     2313     2693     3030     2948     2373     1580 
     966      792     1019     1429     1826     2137     2533     3119 
    3562     3427     2701     1871     1439     1487     1867     2400 
    2778     2736     2300     1837     1809     2250     2740     2817 
    2295     1480      888      804     1340     2297     3057     3210 
    2945     2639     2442     2272     2087     2052     2212     2324 
    2278     2253     2401     2655     2787     2733     2631     2390 
    1875     1474     1549     1826     1981     1980     1900     1949 
    2092     2062     2041     2269     2462     2565     2836     3076 
    3098     2920     2326     1653     1696     2293     2673     2446 
    1610      793      882     1769     2637     3014     2749     2025 
    1378     1291     2050     3403     4444     4637     4207     3507 
    2816     2309     1966     1787     1753     1842     2188     2725 
    3129     3294     3287     3042     2538     2061     1858     1845 
    1738     1208      295     -375     -151     1177     3073     4511 
    5120     5297     5155     4541     3505     2092      351    -1460 
   -2878    -3335    -2637    -1210      415     2000     3352     4081 
    3861     2628      521    -1810    -3433    -3950    -3476    -2147 
     -22     2655     5401     7616     9001     9894    10370    10091 
    9116     7449     4918     1715    -1443    -3499    -3854    -2714 
    -943      473     1113      831      -24     -238      706     2035 
    3295     4251     4356     3704     2786     2083     2103     2833 
    3793     4519     4823     4797     4773     5019     5472     5863 
    5528     3758      704    -2415    -4070    -3727    -2169     -332 
    1358     2767     4110     5289     5691     5290     4288     2771 
    1286      322       18      471     1696     3372     4801     5390 
    4828     3346     1626       60    -1243    -2019    -1985    -1335 
    -297     1196     3145     5556     7674     8187     7128     5410 
    3638     2278     1190      -14    -1016    -1607    -1814    -1382 
    -363      854     1794     2263     2524     2516     2106     1853 
    2285     3025     3337     2964     2126     1286     1016     1561 
    2527     3291     3666     3825     4012     4315     4448     4209 
    3796     3406     2928     2057      851      -10      108     1093 
    2235     2949     3203     3316     3322     2920     1972      630 
    -746    -1607    -1548     -810      190     1489     3218     5130 
    6801     7905     8037     7150     5679     3855     1946      128 
   -1888    -4041    -5499    -5360    -3446     -136     3942     7616 
    9431     8661     6307     4183     2879     1890      815     -368 
   -1285    -1333      -99     2187     4630     6327     6677     5665 
    3948     2130      473     -873    -1694    -1907    -1702    -1090 
      47     1688     3603     5251     6030     5790     4977     4013 
    3138     2628     2326     1949     1675     1613     1595     1437 
     972      272     -102      376     1657     3223     4459     5019 
    4989     4696     4380     3877     2887     1269     -864    -2816 
   -3743    -3360    -1660     1050     3804     5647     6347     6250 
    5899     5568     5027     3829     1993      432      121      912 
    1907     2450     2331     1775     1221      901      939     1290 
    1439     1120      739      634      988     2056     3597     4696 
    4677     3746     2505     1433      685      332      673     1620 
    2482     2849     2845     2693     2619     2825     3176     3370 
    3395     3240     2651     1737     1161     1337     1937     2273 
    1768      403     -976    -1236       52     2316     4523     5919 
    6293     5925     5301     4745     4326     3792     2752     1198 
    -460    -1683    -2037    -1451     -193     1331     2664     3474 
    3703     3481     2965     2370     2030     2065     2313     2608 
    2708     2485     2241     2317     2701     3095     3248     3173 
    2921     2189      683    -1040    -1896    -1391      130     1952 
    3537     4583     4936     4847     4789     4976     4954     4175 
    2944     1849     1069      625      658     1194     1760     1891 
    1567      888       54     -522     -557     -166      546     1551 
    2698     3940     5152     6077     6471     6189     5428     4519 
    3470     2008      157    -1425    -1987    -1259      345     1998 
    3080     3458     3157     2343     1593     1412     1728     2290 
    2727     2605     2235     2246     2612     2956     2893     2182 
    1129      311       89      471     1264     2347     3630     4803 
    5394     5117     4118     2778     1314     -153    -1256    -1547 
    -870      599     2475     4332     5815     6648     6656     5745 
    4149     2419     1011      149     -469    -1291    -1949    -1750 
    -492     1624     3798     5031     5271     4897     4064     3256 
    2693     2168     1827     1788     1865     1896     1907     1918 
    1794     1449      955      731     1219     2200     3186     3917 
    4108     3716     3204     2867     2670     2454     2034     1456 
     918      549      398      476      778     1308     2003     2751 
    3573     4448     5171     5412     4880     3699     2303      962 
    -225     -989    -1080     -747     -337      171      850     1750 
    3005     4409     5433     5872     5782     5327     4750     4017 
    3087     2020      796     -454    -1578    -2434    -2803    -2517 
   -1534      -37     1728     3561     5193     6388     6940     6631 
    5643     4456     3241     2114     1250      598      155       83 
     584     1664     2841     3550     3682     3289     2609     2127 
    2014     2170     2428     2600     2710     2903     3142     3149 
    2783     2165     1304      346     -255     -310      143     1155 
    2540     3885     4753     4788     4160     3335     2569     1933 
    1394      942      661      669      957     1463     2131     2708 
    3002     3148     3211     2998     2430     1714     1182     1101 
    1431     1840     2049     2116     2234     2350     2451     2712 
    3087     3450     3719     3569     2890     1992     1204      749 
     619      719      969     1221     1444     1715     2081     2493 
    2874     3308     3816     4021     3569     2613     1545      811 
     656      892     1402     2180     3022     3659     3824     3326 
    2323     1323      708      561      843     1425     2193     3009 
    3655     3920     3700     3188     2677     2350     2284     2376 
    2485     2463     2182     1741     1340     1179     1310     1472 
    1416     1300     1416     1894     2759     3743     4406     4590 
    4293     3528     2593     1887     1529     1371     1138      696 
     279      203      519     1085     1813     2633     3389     3898 
    4006     3677     3175     2870     2832     2814     2502     1854 
    1236      958      900      841      824     1020     1417     1809 
    2000     1969     1960     2188     2513     2718     2673     2274 
