Origin Time       2024/06/23 22:54:00
Lat.              35.645
Long.             140.060
Depth. (km)       72
Mag.              4.1
Station Code      CHB010
Station Lat.      35.7086
Station Long.     140.5637
Station Height(m) 9
Record Time       2024/06/23 22:54:48
Sampling Freq(Hz) 100Hz
Duration Time(s)  60
Dir.              U-D
Scale Factor      7845(gal)/8223790
Max. Acc. (gal)   0.807
Last Correction   2024/06/23 22:54:47
Memo.             
   27653    27656    27668    27664    27657    27658    27661    27656 
   27657    27668    27664    27648    27649    27662    27672    27666 
   27645    27634    27649    27664    27661    27654    27660    27662 
   27657    27650    27652    27658    27660    27658    27656    27650 
   27648    27658    27669    27661    27648    27645    27649    27654 
   27657    27660    27660    27653    27653    27654    27653    27654 
   27654    27645    27642    27652    27656    27653    27650    27643 
   27650    27662    27660    27653    27648    27631    27637    27660 
   27657    27650    27656    27650    27649    27660    27657    27650 
   27649    27648    27654    27658    27654    27653    27649    27648 
   27662    27662    27650    27648    27650    27664    27670    27649 
   27633    27649    27664    27657    27656    27664    27662    27649 
   27638    27648    27666    27670    27665    27660    27652    27650 
   27658    27656    27648    27656    27664    27654    27660    27673 
   27658    27641    27656    27669    27657    27642    27646    27661 
   27660    27645    27645    27660    27672    27665    27650    27657 
   27664    27657    27650    27643    27649    27657    27646    27653 
   27675    27660    27643    27652    27656    27654    27657    27656 
   27653    27648    27648    27658    27662    27656    27656    27658 
   27656    27653    27653    27654    27665    27665    27652    27645 
   27650    27658    27661    27657    27658    27658    27646    27645 
   27660    27668    27658    27646    27649    27662    27668    27665 
   27660    27654    27654    27654    27658    27670    27662    27638 
   27642    27668    27673    27664    27658    27660    27666    27660 
   27649    27654    27661    27661    27660    27660    27669    27672 
   27658    27649    27658    27666    27662    27652    27657    27672 
   27668    27658    27658    27654    27649    27653    27656    27654 
   27662    27668    27664    27669    27665    27652    27653    27662 
   27670    27669    27649    27646    27664    27668    27661    27653 
   27649    27658    27673    27666    27654    27656    27660    27661 
   27668    27666    27652    27641    27650    27668    27670    27661 
   27654    27653    27657    27656    27661    27664    27653    27653 
   27665    27664    27650    27645    27658    27670    27670    27662 
   27653    27654    27669    27673    27660    27656    27660    27657 
   27661    27658    27646    27657    27673    27672    27661    27653 
   27650    27656    27664    27665    27654    27653    27661    27661 
   27661    27658    27653    27664    27669    27658    27657    27660 
   27652    27654    27669    27666    27650    27648    27660    27670 
   27668    27652    27648    27661    27665    27654    27649    27660 
   27668    27660    27649    27653    27664    27662    27652    27658 
   27666    27660    27656    27650    27652    27658    27650    27650 
   27670    27676    27664    27653    27645    27656    27664    27648 
   27652    27673    27662    27646    27654    27665    27669    27661 
   27649    27652    27658    27656    27657    27661    27658    27654 
   27656    27658    27660    27652    27654    27666    27662    27654 
   27657    27657    27653    27650    27649    27653    27657    27657 
   27657    27652    27645    27653    27660    27658    27658    27649 
   27641    27650    27665    27672    27669    27656    27635    27635 
   27654    27661    27653    27642    27646    27668    27669    27646 
   27638    27652    27661    27664    27662    27653    27645    27656 
   27660    27649    27648    27650    27648    27657    27662    27649 
   27637    27646    27662    27668    27653    27639    27648    27658 
   27654    27650    27649    27643    27645    27653    27654    27650 
   27658    27665    27660    27654    27648    27641    27652    27666 
   27670    27672    27668    27661    27658    27656    27656    27660 
   27660    27669    27681    27675    27661    27662    27679    27697 
   27700    27681    27664    27669    27691    27720    27751    27778 
   27785    27761    27730    27719    27692    27618    27527    27471 
   27481    27548    27614    27695    27801    27859    27909    28030 
   28123    28032    27787    27589    27533    27486    27371    27245 
   27145    27095    27090    27071    27048    27103    27298    27656 
   28066    28306    28277    28059    27783    27527    27382    27463 
   27735    27928    27832    27572    27398    27359    27309    27270 
   27436    27753    27950    27996    28031    28046    27984    27857 
   27643    27422    27441    27707    27851    27712    27627    27789 
   27830    27508    27232    27402    27770    27926    27877    27764 
   27598    27545    27734    27851    27622    27357    27484    27838 
   27959    27846    27780    27680    27399    27183    27225    27427 
   27724    27982    27946    27726    27693    27822    27773    27502 
   27334    27444    27619    27684    27724    27807    27891    27889 
   27746    27556    27465    27558    27812    27928    27703    27488 
   27562    27611    27441    27294    27315    27498    27781    27853 
   27575    27399    27634    27957    28057    28012    28028    28134 
   28140    27922    27600    27410    27508    27816    27950    27637 
   27218    27232    27596    27783    27641    27507    27546    27615 
   27730    27901    27891    27660    27486    27499    27502    27379 
   27411    27762    28003    27756    27359    27400    27839    28078 
   27888    27631    27596    27704    27781    27731    27548    27368 
   27409    27594    27513    27128    27020    27518    28147    28275 
   27900    27572    27726    28170    28313    27911    27328    27048 
   27139    27295    27434    27781    28175    28120    27684    27457 
   27618    27815    27778    27526    27307    27423    27807    28020 
   27858    27611    27594    27677    27594    27414    27342    27384 
   27523    27730    27834    27749    27657    27710    27720    27544 
   27508    27851    28155    28028    27720    27618    27707    27797 
   27831    27777    27581    27391    27406    27446    27288    27240 
   27550    27719    27396    27125    27307    27625    27839    27993 
   28061    28080    28036    27769    27430    27392    27596    27741 
   27757    27627    27396    27383    27658    27842    27787    27704 
   27735    27905    28109    28125    27924    27662    27430    27256 
   27197    27243    27369    27629    27891    27895    27710    27683 
   27899    28043    27940    27815    27793    27758    27611    27276 
   26902    26910    27384    27834    27893    27787    27895    28094 
   27859    27263    27140    27688    28058    27797    27467    27606 
   27926    27826    27390    27201    27380    27641    27865    27915 
   27633    27375    27552    27888    28011    28004    27962    27827 
   27677    27642    27673    27675    27638    27603    27554    27529 
   27616    27660    27464    27302    27444    27634    27622    27588 
   27729    27882    27832    27783    27981    28097    27781    27372 
   27284    27415    27553    27643    27642    27542    27496    27639 
   27729    27450    27191    27498    27965    27935    27673    27684 
   27849    27901    27904    27946    27811    27434    27294    27594 
   27803    27649    27521    27571    27492    27330    27488    27927 
   28159    27920    27467    27259    27483    27962    28269    28011 
   27379    27031    27183    27421    27438    27486    27872    28290 
   28204    27770    27598    27739    27745    27523    27442    27645 
   27818    27735    27557    27538    27733    27922    27870    27649 
   27529    27633    27773    27689    27402    27183    27264    27603 
   27904    28017    27993    27780    27434    27248    27294    27318 
   27234    27322    27669    27958    27993    27882    27788    27772 
   27799    27942    28193    28182    27783    27483    27503    27476 
   27353    27472    27683    27535    27230    27319    27726    27935 
   27815    27616    27495    27480    27560    27602    27588    27716 
   27981    28070    27827    27449    27211    27303    27692    27996 
   27877    27527    27426    27657    27823    27751    27676    27726 
   27839    27918    27870    27784    27766    27661    27384    27264 
   27584    28058    28150    27793    27433    27353    27429    27523 
   27629    27691    27618    27441    27390    27531    27598    27491 
   27454    27519    27556    27704    28020    28092    27729    27463 
   27724    28097    27967    27550    27487    27757    27907    27808 
   27544    27216    27102    27391    27757    27792    27627    27572 
   27571    27510    27626    28055    28375    28256    28024    27913 
   27652    27251    27156    27418    27600    27599    27703    27787 
   27480    27098    27182    27568    27866    28063    28089    27774 
   27506    27754    28105    27982    27668    27591    27538    27324 
   27268    27496    27631    27571    27702    28008    27911    27399 
   27243    27672    28019    27946    27766    27575    27314    27313 
   27660    27881    27807    27753    27761    27649    27479    27425 
   27552    27691    27568    27357    27530    27947    28040    27765 
   27525    27522    27685    27831    27805    27665    27607    27729 
   27926    27972    27793    27643    27743    27878    27753    27519 
   27450    27430    27290    27213    27384    27585    27564    27476 
   27561    27723    27720    27585    27565    27662    27781    28051 
   28377    28375    28024    27673    27579    27716    27909    28004 
   27799    27236    26811    26955    27328    27510    27638    27808 
   27747    27444    27309    27471    27660    27780    27939    28088 
   28044    27800    27604    27635    27727    27695    27642    27695 
   27749    27623    27314    27113    27332    27818    28016    27739 
   27410    27357    27440    27460    27500    27707    27946    27963 
   27816    27687    27544    27426    27557    27807    27761    27589 
   27778    28070    27924    27584    27585    27822    27855    27660 
   27511    27562    27738    27850    27857    27804    27594    27340 
   27392    27699    27845    27685    27510    27594    27710    27544 
   27384    27621    27958    27896    27515    27264    27334    27552 
   27670    27665    27662    27693    27781    27909    27922    27822 
   27811    27828    27662    27490    27619    27793    27577    27226 
   27202    27361    27440    27576    27826    27861    27592    27464 
   27718    28015    28028    27901    27892    27885    27719    27604 
   27679    27715    27569    27403    27425    27607    27722    27626 
   27477    27544    27758    27803    27653    27565    27661    27823 
   27889    27849    27733    27534    27367    27396    27600    27770 
   27774    27737    27735    27643    27523    27607    27820    27830 
   27557    27298    27351    27643    27830    27730    27519    27425 
   27469    27554    27618    27738    27962    28040    27792    27523 
   27529    27612    27572    27572    27729    27845    27719    27411 
   27194    27256    27502    27729    27804    27781    27858    28030 
   28070    27958    27888    27880    27765    27615    27681    27793 
   27625    27409    27492    27607    27430    27247    27353    27573 
   27706    27727    27600    27388    27338    27572    27851    27913 
   27812    27730    27697    27618    27483    27425    27561    27815 
   27919    27816    27787    27931    28030    27931    27689    27496 
   27534    27714    27757    27603    27517    27649    27733    27588 
   27487    27600    27708    27662    27595    27589    27527    27468 
   27626    27846    27784    27598    27625    27718    27634    27581 
   27727    27739    27448    27309    27554    27735    27661    27687 
   27828    27765    27596    27641    27747    27673    27683    27923 
   28042    27942    27886    27872    27719    27461    27322    27445 
   27664    27684    27469    27270    27267    27429    27673    27853 
   27818    27715    27750    27747    27510    27301    27427    27681 
   27715    27634    27677    27774    27826    27869    27870    27830 
   27804    27731    27634    27642    27657    27587    27584    27681 
   27675    27522    27503    27754    27962    27861    27639    27568 
   27629    27645    27572    27540    27596    27602    27475    27378 
   27483    27652    27684    27683    27788    27884    27814    27656 
   27579    27568    27571    27672    27789    27741    27650    27660 
   27648    27588    27576    27561    27545    27621    27696    27719 
   27757    27706    27549    27487    27560    27646    27658    27581 
   27481    27464    27618    27886    28044    27940    27711    27646 
   27812    27949    27851    27653    27584    27626    27634    27604 
   27614    27673    27703    27619    27459    27391    27483    27594 
   27558    27446    27481    27696    27880    27874    27758    27706 
   27742    27746    27714    27791    27980    28050    27892    27666 
   27515    27423    27386    27430    27483    27486    27553    27750 
   27897    27847    27722    27684    27697    27652    27596    27595 
   27594    27575    27561    27506    27405    27363    27452    27600 
   27684    27660    27603    27662    27839    27967    28011    28042 
   28038    27969    27810    27572    27433    27459    27476    27487 
   27631    27851    27907    27650    27302    27244    27434    27521 
   27453    27446    27557    27670    27695    27693    27793    27922 
   27893    27754    27696    27723    27760    27784    27699    27488 
   27415    27604    27749    27631    27495    27580    27726    27704 
   27591    27604    27747    27822    27743    27649    27602    27564 
   27623    27776    27797    27670    27652    27760    27762    27646 
   27661    27854    27932    27746    27544    27554    27672    27676 
   27548    27418    27373    27467    27664    27785    27719    27568 
   27499    27567    27629    27533    27417    27480    27595    27577 
   27521    27552    27660    27832    28040    28162    28100    27938 
   27845    27774    27538    27268    27291    27538    27666    27661 
   27760    27915    27866    27637    27454    27336    27238    27341 
   27648    27808    27707    27657    27803    27865    27691    27579 
   27658    27665    27599    27679    27757    27681    27666    27784 
   27774    27602    27585    27853    28077    27932    27639    27581 
   27594    27390    27252    27472    27730    27681    27508    27456 
   27417    27303    27290    27460    27627    27677    27730    27845 
   27895    27850    27823    27818    27803    27804    27807    27778 
   27766    27807    27800    27615    27382    27387    27672    27949 
   28001    27945    27940    27899    27739    27643    27710    27780 
   27757    27642    27471    27400    27465    27490    27438    27436 
   27525    27683    27804    27687    27375    27206    27287    27429 
   27526    27611    27689    27760    27851    27932    27908    27832 
   27858    27885    27635    27202    27066    27379    27695    27657 
   27531    27661    27891    28001    28093    28178    28063    27774 
   27571    27491    27399    27430    27684    27816    27633    27460 
   27535    27626    27537    27506    27662    27754    27724    27766 
   27868    27866    27700    27492    27379    27275    27129    27148 
   27394    27602    27633    27696    27931    28120    28105    28013 
   27957    27946    27980    28005    27978    27940    27874    27684 
   27436    27306    27333    27459    27600    27639    27542    27402 
   27386    27529    27650    27625    27511    27413    27383    27415 
   27486    27572    27638    27697    27761    27803    27889    28077 
   28175    27961    27599    27467    27649    27841    27783    27596 
   27530    27569    27567    27591    27756    27918    27945    28005 
   28171    28202    27981    27726    27618    27521    27261    26985 
   26960    27176    27436    27650    27785    27769    27638    27529 
   27449    27330    27279    27415    27606    27680    27699    27751 
   27764    27670    27568    27553    27661    27864    27978    27866 
   27673    27596    27629    27716    27815    27855    27862    27895 
   27927    27926    27920    27926    27850    27658    27494    27406 
   27286    27170    27176    27290    27449    27627    27784    27853 
   27766    27627    27616    27665    27558    27333    27217    27299 
   27477    27699    27886    27884    27788    27842    27961    27959 
   27939    28001    28019    27947    27919    27936    27834    27603 
   27448    27429    27363    27218    27201    27373    27585    27723 
   27812    27874    27855    27724    27558    27438    27395    27437 
   27552    27633    27592    27560    27652    27712    27650    27598 
   27588    27579    27639    27784    27900    27954    28005    28021 
   27907    27685    27513    27450    27426    27471    27627    27761 
   27804    27831    27830    27715    27523    27410    27452    27527 
   27496    27432    27496    27657    27706    27635    27658    27751 
   27677    27498    27476    27594    27656    27641    27653    27676 
   27627    27542    27549    27707    27908    28051    28159    28237 
   28243    28198    28109    27922    27703    27611    27591    27460 
   27267    27202    27279    27340    27326    27352    27479    27598 
   27591    27508    27488    27583    27746    27893    27936    27880 
   27808    27715    27533    27349    27286    27311    27373    27456 
   27533    27622    27745    27838    27816    27702    27622    27691 
   27874    28017    28039    28035    28070    28070    28030    27996 
   27924    27787    27676    27622    27534    27429    27437    27525 
   27530    27437    27365    27367    27426    27545    27626    27527 
   27332    27257    27313    27333    27322    27461    27687    27712 
   27584    27604    27826    28057    28151    28144    28125    28128 
   28189    28250    28151    27947    27832    27780    27631    27410 
   27249    27174    27143    27163    27267    27430    27602    27776 
   27938    27936    27692    27422    27342    27368    27351    27315 
   27349    27432    27486    27508    27550    27619    27673    27657 
   27618    27700    27895    28004    27976    27947    27978    28036 
   28098    28084    27904    27650    27517    27552    27623    27621 
   27518    27336    27209    27306    27575    27768    27751    27622 
   27546    27577    27673    27808    27943    27993    27912    27753 
   27575    27388    27244    27220    27271    27303    27369    27529 
   27658    27689    27749    27884    27982    28012    28063    28185 
   28317    28364    28283    28102    27851    27572    27341    27199 
   27121    27102    27175    27325    27468    27600    27799    27982 
   27949    27743    27629    27656    27650    27537    27372    27194 
   27036    26968    27001    27072    27195    27449    27787    28058 
   28175    28152    28070    28024    28008    27980    27992    28013 
   27891    27688    27596    27596    27643    27758    27823    27758 
