Origin Time       2024/06/23 22:54:00
Lat.              35.645
Long.             140.060
Depth. (km)       72
Mag.              4.1
Station Code      CHB024
Station Lat.      35.6337
Station Long.     140.0781
Station Height(m) 3
Record Time       2024/06/23 22:54:44
Sampling Freq(Hz) 100Hz
Duration Time(s)  60
Dir.              E-W
Scale Factor      7845(gal)/8223790
Max. Acc. (gal)   5.276
Last Correction   2024/06/23 22:54:44
Memo.             
[...]
    7522     7524     7539     7549     7555     7558     7550     7543 
    7545     7542     7534     7533     7543     7558     7562     7547 
    7528     7538     7561     7558     7549     7549     7541     7533 
    7535     7535     7524     7524     7549     7572     7565     7546 
    7535     7533     7528     7524     7533     7549     7553     7543 
    7534     7537     7549     7550     7546     7543     7535     7533 
    7542     7549     7549     7550     7554     7554     7549     7542 
    7535     7538     7546     7535     7524     7537     7554     7553 
    7543     7546     7560     7551     7531     7527     7531     7535 
    7547     7555     7551     7543     7533     7530     7533     7526 
    7518     7522     7531     7550     7570     7565     7550     7554 
    7549     7528     7530     7545     7543     7539     7543     7542 
    7538     7543     7551     7543     7530     7537     7550     7547 
    7543     7549     7538     7519     7524     7542     7546     7541 
    7538     7531     7527     7533     7542     7555     7555     7547 
    7549     7546     7534     7541     7551     7547     7549     7551 
    7541     7534     7535     7534     7524     7519     7526     7541 
    7543     7539     7546     7553     7554     7562     7554     7528 
    7527     7543     7547     7550     7555     7547     7534     7530 
    7537     7541     7546     7554     7551     7546     7547     7538 
    7524     7537     7554     7547     7538     7543     7549     7538 
    7520     7526     7549     7558     7560     7566     7553     7533 
    7535     7546     7545     7533     7527     7533     7538     7550 
    7557     7539     7526     7531     7535     7542     7555     7560 
    7560     7557     7546     7549     7551     7528     7520     7534 
    7538     7535     7539     7545     7547     7539     7528     7539 
    7549     7535     7535     7557     7562     7535     7508     7514 
    7535     7542     7538     7535     7542     7555     7558     7554 
    7550     7533     7522     7545     7558     7542     7541     7557 
    7545     7526     7535     7547     7542     7549     7557     7537 
    7514     7522     7542     7557     7557     7550     7550     7535 
    7515     7523     7543     7558     7568     7547     7518     7516 
    7523     7527     7546     7557     7538     7526     7543     7558 
    7550     7537     7541     7549     7542     7539     7553     7562 
    7547     7524     7518     7530     7539     7549     7561     7553 
    7528     7526     7541     7547     7547     7546     7535     7527 
    7538     7546     7554     7565     7560     7538     7519     7512 
    7526     7545     7547     7549     7553     7542     7530     7545 
    7564     7554     7539     7543     7541     7533     7539     7542 
    7538     7538     7539     7539     7543     7543     7530     7516 
    7527     7547     7554     7555     7549     7537     7527     7523 
    7528     7543     7554     7554     7538     7518     7518     7535 
    7555     7572     7566     7547     7543     7546     7538     7538 
    7541     7527     7530     7558     7560     7530     7523     7546 
    7558     7561     7557     7538     7519     7512     7515     7531 
    7543     7541     7541     7549     7547     7543     7546     7547 
    7535     7516     7516     7542     7577     7587     7561     7537 
    7534     7527     7528     7555     7573     7564     7545     7520 
    7504     7524     7566     7578     7553     7527     7520     7534 
    7553     7551     7538     7534     7538     7535     7528     7523 
    7523     7528     7543     7558     7551     7537     7542     7553 
    7537     7511     7512     7531     7546     7557     7551     7530 
    7531     7551     7562     7558     7553     7541     7520     7504 
    7511     7549     7584     7574     7541     7522     7519     7530 
    7555     7562     7531     7511     7537     7557     7551     7557 
    7558     7538     7528     7543     7553     7551     7555     7547 
    7539     7554     7555     7522     7510     7535     7558     7557 
    7535     7520     7541     7577     7580     7546     7511     7499 
    7520     7546     7554     7557     7546     7524     7533     7558 
    7551     7515     7506     7531     7560     7572     7566     7543 
    7522     7531     7547     7535     7512     7508     7520     7533 
    7533     7546     7565     7558     7549     7547     7534     7526 
    7538     7538     7542     7577     7587     7537     7504     7524 
    7542     7524     7499     7506     7564     7615     7581     7515 
    7512     7545     7539     7522     7543     7576     7584     7568 
    7533     7519     7543     7553     7528     7527     7539     7523 
    7518     7553     7576     7557     7539     7527     7526     7574 
    7612     7566     7519     7484     7395     7411     7543     7570 
    7612     7651     7511     7554     7784     7697     7543     7568 
    7443     7333     7429     7403     7393     7609     7603     7515 
    7739     7723     7391     7337     7480     7585     7623     7628 
    7739     7842     7726     7431     7215     7326     7501     7480 
    7595     7774     7569     7207     7144     7450     7813     7801 
    7628     7763     7894     7680     7339     7091     7272     7696 
    7646     7554     7792     7657     7338     7283     7279     7553 
    7834     7510     7400     7855     7807     7406     7496     7699 
    7716     7662     7290     6980     7256     7565     7560     7697 
    7950     7757     7302     7238     7504     7636     7565     7611 
    7831     7813     7528     7254     7095     7253     7682     7846 
    7705     7705     7680     7391     7182     7117     7163     7546 
    8032     8247     8100     7650     7271     7071     7041     7439 
    7846     7754     7562     7549     7510     7442     7398     7392 
    7577     7821     7797     7596     7445     7380     7447     7508 
    7485     7642     7823     7711     7537     7398     7238     7218 
    7362     7628     7894     7944     7797     7526     7210     7083 
    7207     7492     7885     8101     7884     7539     7310     7067 
    7007     7358     7851     8183     8208     7846     7264     6822 
    6785     7122     7628     8059     8170     7929     7646     7500 
    7319     7161     7276     7514     7684     7805     7777     7584 
    7445     7427     7360     7245     7298     7488     7658     7858 
    7970     7770     7435     7221     7207     7395     7612     7722 
    7732     7722     7749     7697     7511     7285     7102     7140 
    7460     7730     7823     7896     7774     7388     7156     7153 
    7200     7408     7717     8027     8324     8275     7790     7302 
    7047     7057     7364     7646     7676     7588     7325     7059 
    7132     7288     7419     7651     7817     7944     8054     7967 
    7776     7572     7327     7237     7360     7429     7450     7543 
    7573     7533     7443     7260     7113     7082     7256     7704 
    8127     8213     8085     7913     7668     7453     7404     7433 
    7561     7776     7711     7307     6964     6802     6782     7109 
    7655     7987     8129     8194     8086     7874     7555     7152 
    7064     7441     7801     7827     7653     7430     7269     7223 
    7213     7245     7406     7638     7813     7919     7915     7680 
    7356     7285     7499     7798     7931     7727     7445     7312 
    7171     7114     7312     7526     7553     7512     7539     7623 
    7728     7776     7681     7628     7747     7796     7634     7458 
    7377     7272     7198     7283     7420     7545     7661     7697 
    7650     7588     7554     7562     7732     8043     8012     7588 
    7260     7044     6983     7203     7330     7410     7719     7952 
    7947     7808     7438     7011     7017     7433     7843     8067 
    8023     7705     7257     6940     7055     7462     7797     7942 
    7923     7755     7479     7299     7356     7501     7557     7468 
    7524     7827     7812     7454     7358     7429     7407     7464 
    7495     7429     7418     7375     7419     7722     7965     7947 
    7794     7599     7447     7372     7384     7597     7820     7704 
    7480     7356     7078     6889     7113     7499     7877     8121 
    8086     7905     7732     7524     7276     7230     7457     7624 
    7611     7469     7273     7330     7549     7615     7609     7407 
    7094     7280     7700     7770     7878     8068     7786     7403 
    7389     7368     7321     7485     7555     7503     7534     7492 
    7425     7564     7782     7781     7630     7696     7879     7722 
    7273     7029     7129     7304     7473     7740     8006     8041 
    7866     7663     7366     7076     7165     7453     7682     7933 
    7919     7510     7253     7253     7047     6839     7144     7724 
    8175     8345     8074     7516     7180     7236     7368     7541 
    7875     7994     7726     7420     7218     7048     7003     7222 
    7526     7596     7537     7681     7956     8116     8145     7900 
    7357     7071     7225     7434     7676     7997     8071     7858 
    7577     7229     6937     6856     6883     7111     7641     8154 
    8401     8320     7840     7294     7165     7341     7550     7715 
    7611     7322     7215     7238     7277     7391     7503     7587 
    7771     8036     8101     7862     7464     6988     6729     7034 
    7632     8017     8151     8148     7933     7607     7273     6926 
    6885     7198     7442     7503     7487     7535     7770     7970 
    7915     7731     7577     7527     7504     7306     7099     7169 
    7331     7458     7643     7678     7483     7331     7353     7624 
    8006     8052     7870     7765     7607     7452     7365     7218 
    7198     7425     7709     7929     7896     7528     7276     7380 
    7573     7777     7842     7581     7337     7200     7075     7314 
    7866     8158     8075     7835     7447     7068     7017     7150 
    7304     7680     8116     8216     7893     7358     6984     6901 
    6968     7111     7240     7321     7546     7900     8013     7889 
    7776     7696     7726     7844     7786     7535     7350     7342 
    7376     7327     7294     7460     7763     7960     7943     7720 
    7360     7057     7022     7257     7534     7742     7871     7884 
    7897     7866     7646     7485     7501     7402     7231     7273 
    7431     7572     7689     7676     7588     7483     7283     7236 
    7481     7761     7928     7844     7539     7358     7292     7230 
    7323     7431     7437     7661     8000     7943     7588     7238 
    6945     6995     7431     7808     8032     8068     7715     7267 
    7079     7149     7460     7794     7928     8025     8117     7983 
    7607     7149     6880     6929     7110     7314     7612     7896 
    7966     7846     7619     7335     7083     6964     7110     7425 
    7663     7840     7993     8050     8012     7879     7709     7584 
    7481     7395     7296     7221     7276     7339     7296     7287 
    7418     7662     7804     7669     7501     7456     7431     7557 
    7755     7701     7543     7584     7742     7777     7570     7376 
    7555     7823     7689     7369     7337     7589     7735     7631 
    7578     7611     7470     7285     7304     7481     7647     7584 
    7403     7558     7929     7952     7585     7203     7010     7038 
    7234     7404     7523     7771     8054     8106     7871     7561 
    7439     7480     7569     7739     7900     7871     7631     7296 
    6980     6844     6997     7252     7375     7410     7473     7591 
    7713     7753     7761     7844     7817     7538     7393     7649 
    7878     7736     7391     7080     6972     7126     7492     7979 
    8302     8143     7599     7172     7207     7479     7630     7676 
    7703     7608     7400     7226     7161     7290     7542     7620 
    7481     7396     7523     7784     8040     8198     8158     7936 
    7731     7661     7623     7416     7013     6697     6782     7134 
    7315     7281     7375     7693     8010     8109     7902     7457 
    7129     7218     7542     7852     8046     7913     7501     7227 
    7136     7042     7128     7408     7647     7851     7970     7875 
    7682     7572     7726     8145     8451     8324     7774     7095 
    6737     6804     7115     7561     7870     7962     8206     8567 
    8689     8672     8675     8646     8580     8438     8247     8125 
    8094     8249     8656     9053     9238     9225     9001     8586 
    7973     7098     6143     5406     5003     4972     5250     5729 
    6216     6285     5922     5598     5481     5660     6376     7452 
    8253     8093     6844     5248     4201     4145     5071     6519 
    7695     7958     7233     5933     4675     4153     4675     5653 
    6311     6575     6843     7542     8942    10747    12108    12371 
   11507     9883     8087     6813     6532     7285     8770    10427 
   11488    11611    11222    10837    10631    10627    10597    10142 
    9192     8019     6891     5992     5440     5290     5394     5420 
    5389     5710     6366     6967     7356     7425     7159     7026 
    7555     8730    10021    10798    10655     9587     7912     5930 
    3944     2496     2011     2466     3586     5143     7013     8829 
   10007    10331     9864     8757     7489     6482     5713     5054 
    4641     4743     5367     6210     6991     7595     8156     8923 
    9859    10650    11055    11118    11036    10654     9667     8384 
    7452     6966     6633     6416     6443     6739     7306     7994 
    8545     8866     8950     8847     8704     8505     8120     7601 
    7206     7130     7234     7219     7074     6903     6669     6502 
    6709     7237     7619     7503     6986     6478     6424     6971 
    7784     8301     8143     7354     6349     5528     5040     4936 
    5409     6640     8387     9979    10686    10234     9073     7824 
    6709     5833     5375     5385     5780     6374     6889     7240 
    7634     8163     8563     8525     8106     7684     7562     7735 
    7996     8289     8675     8912     8712     8283     8006     7897 
    7765     7577     7491     7627     7890     8005     7726     7088 
    6485     6367     6939     7893     8586     8788     8711     8434 
    7901     7198     6700     6829     7580     8490     9022     8908 
    8267     7493     6999     6812     6697     6670     6790     6867 
    6710     6276     5736     5479     5678     6077     6443     6693 
    6755     6754     6855     7036     7299     7597     7830     8263 
    9100     9965    10378    10218     9682     9018     8380     7902 
    7587     7321     7183     7240     7345     7449     7612     7749 
    7731     7561     7353     7200     6978     6471     5819     5589 
    6191     7411     8592     9112     8773     7879     7048     6835 
    7360     8229     8851     8866     8243     7241     6488     6575 
    7362     7997     7896     7443     7350     7686     8052     8160 
    7925     7461     6967     6565     6451     6828     7565     8286 
    8633     8395     7639     6701     6011     5826     6099     6650 
    7249     7771     8213     8452     8401     8163     7782     7296 
    6939     6893     7103     7430     7715     7882     8085     8455 
    8876     9144     9099     8745     8364     8137     7931     7662 
    7366     7061     6845     6745     6597     6400     6258     6141 
    6142     6458     6963     7312     7430     7520     7747     8127 
    8487     8534     8270     8063     8125     8299     8399     8328 
    7998     7458     6862     6338     5971     5788     5769     5967 
    6489     7260     8047     8688     9085     9182     9059     8877 
    8684     8380     7916     7337     6779     6481     6521     6794 
    7157     7396     7411     7291     7257     7569     8203     8858 
    9209     9058     8438     7514     6538     5815     5428     5360 
    5684     6307     6955     7372     7514     7620     7960     8521 
    9034     9254     9072     8452     7611     6979     6785     7013 
    7568     8203     8715     9120     9432     9603     9603     9327 
    8708     7797     6609     5383     4627     4521     4935     5711 
    6480     6959     7249     7426     7425     7287     7271     7631 
    8241     8718     8839     8567     8068     7603     7187     6849 
    6774     6872     6890     6855     6901     7115     7560     8051 
    8295     8306     8266     8213     8077     7884     7789     7909 
    8241     8627     8808     8729     8505     8229     7981     7724 
    7348     6893     6474     6174     5992     5880     5926     6220 
    6678     7186     7593     7758     7693     7404     6910     6502 
    6493     6883     7488     8132     8676     9020     9040     8712 
    8217     7753     7416     7256     7300     7547     7824     7912 
    7825     7654     7464     7369     7334     7285     7292     7264 
    7072     6937     7098     7491     7888     8073     8029     7924 
    7928     8136     8515     8876     8953     8588     7871     7069 
    6462     6235     6448     6982     7572     8017     8286     8378 
    8243     7932     7608     7426     7395     7375     7285     7096 
    6785     6528     6512     6594     6605     6598     6631     6669 
    6691     6744     6866     6997     7052     7060     7184     7593 
    8252     8877     9215     9244     9097     8862     8595     8394 
    8305     8289     8352     8457     8405     8027     7362     6598 
    5996     5755     5918     6389     6921     7310     7549     7636 
    7535     7275     6920     6585     6470     6683     7106     7592 
    8112     8658     9181     9575     9740     9609     9085     8198 
    7250     6511     6083     6107     6674     7549     8291     8595 
    8482     8205     8050     8116     8252     8218     7902     7345 
    6683     6120     5760     5564     5501     5540     5644     5791 
    5946     6138     6475     7002     7650     8297     8802     9065 
    9050     8768     8262     7631     7086     6849     7018     7504 
    8081     8577     8954     9163     9177     9046     8837     8706 
    8787     8930     8874     8545     8025     7488     7076     6755 
    6463     6192     5886     5568     5408     5502     5877     6486 
    7123     7615     7985     8278     8518     8737     8892     8911 
    8752     8394     7915     7506     7291     7222     7222     7300 
    7416     7523     7686     7857     7821     7528     7148     6845 
    6696     6717     6928     7354     7952     8576     9074     9374 
    9493     9441     9169     8650     7956     7252     6705     6345 
    6033     5622     5139     4793     4741     4953     5381     5979 
    6643     7261     7789     8185     8376     8340     8141     7862 
    7523     7164     6878     6748     6841     7218     7896     8761 
    9531     9946     9952     9593     9043     8596     8442     8568 
    8768     8780     8521     8109     7700     7321     6940     6643 
