Origin Time       2024/06/23 22:54:00
Lat.              35.645
Long.             140.060
Depth. (km)       72
Mag.              4.1
Station Code      CHB002
Station Lat.      35.7871
Station Long.     139.9024
Station Height(m) 12
Record Time       2024/06/23 22:54:45
Sampling Freq(Hz) 100Hz
Duration Time(s)  60
Dir.              E-W
Scale Factor      7845(gal)/8223790
Max. Acc. (gal)   5.841
Last Correction   2024/06/23 22:54:44
Memo.             
[...]
   -9490    -9509    -9504    -9533    -9564    -9509    -9443    -9463 
   -9510    -9548    -9587    -9566    -9505    -9497    -9493    -9466 
   -9472    -9497    -9520    -9536    -9532    -9514    -9499    -9505 
   -9529    -9563    -9558    -9501    -9460    -9482    -9524    -9537 
   -9528    -9531    -9532    -9518    -9487    -9468    -9504    -9532 
   -9531    -9537    -9531    -9506    -9491    -9504    -9536    -9540 
   -9510    -9478    -9467    -9494    -9521    -9521    -9522    -9528 
   -9518    -9524    -9556    -9564    -9547    -9517    -9464    -9437 
   -9463    -9513    -9559    -9558    -9522    -9508    -9516    -9529 
   -9526    -9522    -9513    -9491    -9487    -9508    -9540    -9553 
   -9528    -9498    -9478    -9482    -9509    -9524    -9533    -9528 
   -9510    -9506    -9520    -9552    -9558    -9517    -9483    -9478 
   -9493    -9514    -9531    -9535    -9528    -9520    -9506    -9499 
   -9501    -9498    -9514    -9537    -9528    -9516    -9525    -9525 
   -9487    -9445    -9491    -9579    -9571    -9499    -9490    -9509 
   -9493    -9479    -9518    -9605    -9625    -9509    -9405    -9437 
   -9531    -9566    -9540    -9525    -9526    -9485    -9435    -9483 
   -9598    -9629    -9528    -9404    -9409    -9535    -9590    -9539 
   -9520    -9525    -9475    -9429    -9493    -9634    -9666    -9513 
   -9354    -9377    -9536    -9617    -9572    -9532    -9526    -9514 
   -9487    -9475    -9494    -9517    -9529    -9544    -9540    -9493 
   -9458    -9504    -9571    -9564    -9487    -9428    -9464    -9543 
   -9562    -9528    -9509    -9512    -9517    -9526    -9517    -9497 
   -9524    -9559    -9540    -9494    -9471    -9490    -9533    -9559 
   -9532    -9466    -9459    -9524    -9549    -9526    -9518    -9528 
   -9533    -9528    -9498    -9468    -9482    -9513    -9536    -9558 
   -9533    -9486    -9505    -9544    -9529    -9486    -9481    -9524 
   -9539    -9514    -9513    -9510    -9483    -9495    -9537    -9532 
   -9506    -9502    -9509    -9532    -9544    -9520    -9499    -9505 
   -9516    -9516    -9513    -9526    -9545    -9553    -9516    -9455 
   -9445    -9491    -9558    -9579    -9533    -9501    -9502    -9485 
   -9482    -9529    -9568    -9553    -9509    -9472    -9482    -9526 
   -9535    -9529    -9552    -9541    -9489    -9460    -9483    -9531 
   -9566    -9558    -9502    -9470    -9493    -9504    -9508    -9539 
   -9549    -9517    -9508    -9540    -9525    -9472    -9475    -9517 
   -9547    -9529    -9477    -9481    -9548    -9580    -9532    -9470 
   -9471    -9498    -9517    -9547    -9548    -9522    -9516    -9514 
   -9502    -9493    -9497    -9518    -9539    -9524    -9504    -9508 
   -9514    -9528    -9526    -9483    -9460    -9491    -9543    -9567 
   -9548    -9524    -9532    -9535    -9481    -9439    -9477    -9517 
   -9533    -9566    -9563    -9522    -9504    -9493    -9495    -9544 
   -9559    -9478    -9427    -9485    -9547    -9544    -9531    -9535 
   -9525    -9493    -9475    -9494    -9520    -9520    -9498    -9495 
   -9502    -9501    -9516    -9547    -9572    -9544    -9479    -9470 
   -9506    -9518    -9513    -9521    -9532    -9526    -9522    -9529 
   -9526    -9518    -9508    -9495    -9491    -9501    -9516    -9526 
   -9531    -9501    -9463    -9483    -9533    -9549    -9522    -9494 
   -9512    -9553    -9562    -9514    -9454    -9463    -9549    -9593 
   -9517    -9432    -9463    -9535    -9548    -9518    -9493    -9512 
   -9540    -9525    -9491    -9483    -9520    -9545    -9509    -9474 
   -9486    -9524    -9552    -9543    -9508    -9486    -9497    -9526 
   -9547    -9520    -9464    -9472    -9541    -9564    -9510    -9458 
   -9474    -9506    -9501    -9508    -9535    -9566    -9579    -9531 
   -9459    -9460    -9533    -9572    -9526    -9493    -9508    -9509 
   -9491    -9499    -9532    -9535    -9495    -9467    -9487    -9526 
   -9513    -9502    -9562    -9587    -9516    -9437    -9440    -9509 
   -9566    -9551    -9477    -9463    -9528    -9544    -9540    -9549 
   -9512    -9481    -9494    -9493    -9493    -9533    -9552    -9520 
   -9499    -9486    -9475    -9513    -9548    -9533    -9497    -9478 
   -9512    -9559    -9555    -9509    -9478    -9505    -9551    -9552 
   -9498    -9458    -9485    -9520    -9524    -9528    -9531    -9512 
   -9472    -9462    -9502    -9545    -9562    -9549    -9510    -9466 
   -9472    -9539    -9567    -9545    -9522    -9493    -9498    -9540 
   -9522    -9464    -9452    -9472    -9478    -9512    -9587    -9609 
   -9551    -9497    -9518    -9513    -9409    -9424    -9572    -9614 
   -9664    -9769    -9589    -9209    -9112    -9267    -9400    -9616 
   -9917    -9945    -9597    -9201    -9194    -9698   -10134    -9742 
   -8901    -8812    -9459    -9786    -9648    -9455    -9184    -9177 
  -10010   -10843   -10332    -9243    -8958    -8891    -8523    -8681 
   -9119    -9350   -10390   -11569   -10586    -8688    -8820    -9846 
   -9475    -8953    -9340    -9046    -8440    -9644   -11232   -10507 
   -8727    -8457    -9495   -10439   -10704    -9740    -8035    -8017 
   -9848   -10422    -9190    -8715    -9582   -10381   -10848   -10733 
   -9117    -7673    -8509    -9918   -10234   -10003    -8991    -7697 
   -8527   -11299   -12307   -10392    -8484    -8004    -8457    -9917 
  -10714    -9120    -7524    -8541   -10569   -11452   -11510   -10463 
   -7827    -6507    -8602   -10893   -10736    -9956    -9769    -9321 
   -8860    -9215    -9622    -9069    -8733    -9776   -10720   -10238 
   -9290    -9154    -9752   -10112    -9501    -8170    -7932    -9979 
  -11724   -10369    -7950    -7870    -9454   -10474   -10932   -10787 
   -9475    -8252    -8294    -8901    -9427    -9832    -9803    -9548 
   -9991   -10706   -10157    -8815    -8325    -8523    -8977   -10227 
  -11412   -10677    -8646    -7909    -8910    -9794    -9994   -10299 
  -10323    -9541    -8905    -8856    -8833    -8946    -9336    -9552 
   -9832   -10646   -10925    -9841    -8834    -8903    -9352    -9747 
   -9652    -8660    -7960    -8880   -10312   -10415    -9772    -9937 
  -10648   -10775   -10007    -8797    -7840    -7751    -8479    -9235 
   -9794   -10578   -11025   -10369    -9452    -9366    -9823    -9936 
   -9418    -8671    -8160    -8316    -9185   -10018   -10080    -9688 
   -9803   -10358   -10501   -10183    -9566    -8619    -8077    -8488 
   -9022    -9080    -9494   -10476   -10801   -10357   -10330   -10288 
   -9078    -7865    -8244    -9398    -9933    -9869    -9529    -9019 
   -9057    -9836   -10315   -10300   -10455   -10349    -9359    -8394 
   -8394    -8613    -8529    -8980   -10004   -10489   -10300   -10150 
   -9958    -9512    -9342    -9710    -9867    -9061    -8066    -8271 
   -9475   -10312   -10081    -9393    -9501   -10363   -10648   -10168 
   -9470    -8537    -7776    -8048    -9350   -10465   -10593   -10262 
   -9764    -9130    -9001    -9544   -10192   -10219    -9285    -8557 
   -9385   -10728   -10404    -8568    -7595    -8533    -9817    -9906 
   -9666   -10307   -10615    -9609    -9015    -9576    -9474    -8506 
   -8521    -9688   -10508   -10160    -9297    -9184    -9926   -10315 
   -9564    -8596    -8754    -9637    -9927    -9466    -9170    -9331 
   -9347    -9502   -10345   -10813    -9934    -8721    -8368    -8746 
   -9555   -10386   -10089    -8865    -8689    -9896   -10697   -10179 
   -9302    -9198    -9431    -9040    -8498    -8838    -9819   -10254 
   -9883    -9644    -9863    -9902    -9691    -9412    -8924    -8645 
   -8883    -9304   -10019   -11051   -11183    -9552    -7838    -8047 
   -9182    -9302    -9173   -10369   -11195    -9864    -8816    -9709 
  -10359    -9498    -8248    -7782    -8494    -9953   -10916   -10601 
   -9626    -8534    -7933    -9431   -12220   -12441    -9266    -6528 
   -7294   -10400   -11927    -9995    -7425    -7271    -8953   -10444 
  -10908   -10716   -10118    -9182    -8797    -9621   -10292    -9246 
   -7867    -8398   -10048   -10778   -10324    -9425    -9251   -10378 
  -10833    -9197    -7642    -8139    -9371    -9505    -9266   -10134 
  -11171   -10539    -8878    -8282    -9026    -9589    -9332    -9138 
   -9493    -9940   -10031    -9963   -10291   -10378    -9022    -7524 
   -8384   -10417   -10319    -8986    -9607   -10913   -10104    -8603 
   -8510    -9182    -9660    -9653    -9485   -10269   -11446   -10563 
   -7948    -7249    -9013    -9747    -8980    -9362   -10408   -10125 
   -9529    -9794    -9487    -8557    -9140   -10363    -9976    -9381 
   -9907    -9663    -8410    -8428    -9428    -9788   -10261   -10771 
   -9988    -9200    -9675    -9867    -9174    -8942    -8905    -8298 
   -8530    -9980   -10771   -10631   -10357    -9471    -8661    -9418 
  -10314    -9717    -8883    -8468    -7928    -8455   -10898   -12722 
  -11291    -8136    -6775    -8031    -9921   -10835   -10605    -9478 
   -8591    -9271   -10436   -10459    -9599    -8222    -7384    -9061 
  -11704   -11568    -9256    -8079    -8592    -9933   -11399   -11083 
   -8384    -6349    -7326    -9856   -11781   -12094   -10908    -9679 
   -9059    -8546    -8322    -8545    -8764    -8727    -8908   -10100 
  -11681   -11452    -9223    -7977    -8829    -9652    -9597    -9383 
   -9111    -8872    -9193    -9965   -10355   -10004    -9275    -9139 
  -10168   -11083   -10515    -8946    -7946    -8229    -8707    -8827 
   -9323    -9983   -10278   -10469   -10720   -10528    -9571    -8680 
   -8403    -8611    -9590   -10585   -10200    -9215    -9223    -9802 
   -9902    -9598    -9067    -8378    -8409    -9512   -10246    -9987 
   -9999   -10373    -9772    -8436    -8174    -9431   -10469   -10093 
   -9466    -9748   -10066    -9518    -8860    -8831    -8966    -9028 
   -9350    -9626    -9802   -10557   -11380   -10692    -8905    -8317 
   -8935    -9009    -9090   -10052   -10230    -9335    -9532    -9995 
   -8604    -7747    -9544   -11056   -10158    -9094    -9645   -10226 
   -9485    -8675    -8892    -9576   -10022    -9751    -8856    -8656 
   -9568   -10141   -10010   -10062    -9915    -9003    -8347    -8743 
   -9444   -10019   -10446    -9968    -9147    -9545   -10632   -10762 
   -9471    -7692    -7003    -8343   -10925   -12360   -11140    -8986 
   -8291    -8800    -9347    -9778    -9659    -8749    -8505    -9760 
  -10980   -10860    -9894    -9024    -8657    -8835    -9337    -9539 
   -9335    -9242    -9348    -9771   -10251    -9582    -8197    -8395 
  -10096   -10868   -10342    -9691    -8999    -8988   -10309   -10727 
   -9121    -8216    -9009    -9436    -9471   -10239   -10335    -8980 
   -8216    -8995   -10156   -10501    -9522    -8428    -8604    -9366 
   -9999   -10538   -10651   -10233    -9425    -8820    -9124    -9549 
   -8765    -7522    -8137   -10358   -11610   -11527   -10793    -9518 
   -8834    -9070    -9225    -9119    -8845    -8476    -8806   -10072 
  -10616    -9217    -7993    -9155   -11188   -11713   -10585    -8968 
   -7947    -8209    -9382    -9887    -9464    -9379    -9425    -9140 
   -9782   -11330   -11190    -8745    -7110    -8087    -9783   -10320 
   -9967    -9522    -9343    -9437    -9456    -9292    -9355    -9753 
   -9865    -9266    -8878    -9574   -10080    -9441    -9018    -9504 
   -9967   -10027    -9930    -9921   -10396   -10505    -8785    -7107 
   -8210   -10131   -10177    -9645    -9807    -9868    -9981   -10478 
  -10282    -9336    -8695    -8360    -8399    -9342   -10200    -9675 
   -8868    -9455   -10304    -9606    -8723    -9559   -10681   -10295 
   -9288    -8775    -8748    -9258   -10048   -10447   -10311    -9841 
   -9165    -8750    -9009    -9294    -9007    -8799    -9173    -9945 
  -10663   -10574    -9938    -9703    -9389    -8441    -8257    -9860 
  -11141    -9913    -8098    -8438    -9906   -10384   -10003    -9278 
   -8352    -8498    -9846   -10231    -9382    -9436   -10453   -10709 
  -10486   -10390    -9342    -7643    -6967    -7443    -8499    -9995 
  -11041   -10789   -10415   -11038   -11358   -10071    -7919    -6547 
   -6990    -8791   -10540   -11256   -11072   -10706   -10307    -9838 
   -9563    -9263    -8594    -7894    -8075    -9347   -10376   -10250 
   -9737    -9699   -10022    -9968    -9298    -8600    -8554    -9333 
  -10010    -9830    -9479    -9690   -10228   -10397   -10018    -9400 
   -8567    -8106    -8862    -9991   -10035    -9351    -9208    -9340 
   -8924    -8604    -9045    -9814   -10407   -10404    -9818    -9578 
   -9828    -9402    -8297    -7925    -8569    -9162    -9644   -10588 
  -10824    -9378    -7835    -7732    -8681    -9610    -9709    -8973 
   -8425    -8978    -9856    -9651    -8947    -9039    -9567    -9995 
  -10508   -10693    -9880    -8726    -8588    -9555   -10643   -11161 
  -11115   -10903   -10720   -10404    -9659    -8410    -7331    -7445 
   -8789   -10122   -10671   -11126   -11799   -11971   -11631   -11322 
  -10760    -9474    -8306    -8694   -10547   -12312   -12893   -12455 
  -11560   -10300    -8689    -7226    -6322    -5714    -5233    -5611 
   -7250    -8986    -9624    -9248    -8399    -7503    -7180    -7950 
   -9223    -9923    -9958    -9876   -10419   -11884   -13057   -12544 
  -10828    -9429    -8965    -9256   -10022   -10696   -11033   -11491 
  -11865   -11121    -8989    -6180    -3817    -3391    -5377    -8179 
  -10490   -12648   -14243   -14287   -13475   -12603   -11025    -8731 
   -7256    -7415    -8414    -9805   -11541   -12505   -12143   -11434 
  -10674    -9454    -8214    -7408    -6809    -6438    -6421    -6540 
   -6790    -7356    -7913    -8112    -8203    -8602    -9587   -10870 
  -11488   -11205   -10874   -10964   -10929   -10471    -9987    -9517 
   -9055    -9072    -9412    -9231    -8641    -8614    -9202   -10025 
  -11051   -11611   -11071   -10064    -9456    -8874    -7442    -5545 
   -4637    -5660    -8367   -11573   -13730   -14079   -13065   -11205 
   -9013    -7492    -7326    -8301    -9564   -10477   -11126   -11672 
  -11843   -11063    -9031    -6478    -4945    -5248    -6716    -8638 
  -10694   -11950   -11938   -11551   -11172    -9931    -7836    -6330 
   -6207    -6972    -8044    -9148   -10139   -11352   -12893   -13632 
  -12537   -10266    -8488    -8035    -8367    -9019    -9933   -10663 
  -10994   -11222   -11277   -10898   -10297    -9579    -8507    -7654 
   -7889    -8579    -8599    -8343    -8793    -9902   -10781   -10660 
   -9536    -8364    -8135    -8711    -9672   -10859   -11191   -10034 
   -8876    -8901    -9394    -9340    -8471    -7327    -7129    -8446 
  -10223   -11396   -11890   -11304    -9711    -8529    -8073    -7377 
   -6916    -7943   -10058   -11904   -12850   -12771   -11924   -11283 
  -11156   -10767    -9876    -8775    -7584    -6721    -6889    -8187 
   -9740   -10544   -10428    -9802    -9076    -8590    -8475    -8650 
   -9302   -10369   -10820   -10011    -8641    -7515    -6883    -6988 
   -8070    -9927   -11595   -11923   -11296   -11160   -11646   -11596 
  -10451    -8850    -7747    -7672    -8294    -8799    -9050    -9317 
   -9607   -10103   -10835   -11340   -11307   -10816   -10111    -9675 
   -9587    -8815    -7192    -6596    -7645    -8887    -9950   -10781 
  -10287    -9047    -8915    -9778   -10392   -10417   -10012    -9470 
   -9217    -9300    -9490    -9313    -8240    -7069    -7294    -8509 
   -9401   -10145   -10951   -11151   -11172   -11743   -11862   -10804 
   -9398    -8178    -7558    -8189    -9300    -9655    -9629    -9976 
  -10326   -10224    -9975    -9919    -9860    -9520    -9238    -9155 
   -8568    -7416    -6910    -7770    -9063    -9444    -8797    -7925 
   -7739    -8850   -10740   -12199   -12582   -11816   -10287    -8876 
   -8364    -8677    -9084    -9436   -10212   -11267   -11916   -11857 
  -11213   -10187    -8930    -7823    -7464    -7943    -8870   -10196 
  -11749   -12471   -11637   -10012    -8571    -7342    -6558    -6860 
   -7767    -8392    -9148   -10453   -11487   -11508   -10584    -9201 
   -8058    -7533    -7580    -8221    -9281   -10276   -11103   -11958 
  -12336   -11415    -9510    -7755    -6952    -7308    -8195    -8559 
   -8445    -9040   -10729   -12430   -12870   -11684    -9593    -7939 
   -7605    -8307    -9254   -10084   -10789   -11192   -11003   -10385 
   -9747    -9032    -8185    -7866    -8532    -9494   -10037   -10234 
  -10066    -9359    -8637    -8505    -8580    -8245    -7801    -7994 
   -9022   -10474   -11475   -11306   -10357    -9518    -9235    -9423 
   -9553    -9134    -8473    -8617    -9760   -10729   -10790   -10336 
   -9927    -9666    -9267    -8799    -8590    -8579    -8618    -8714 
   -8968    -9459    -9909    -9898    -9599    -9742   -10471   -10939 
  -10735   -10461   -10268    -9822    -9510    -9510    -9185    -8664 
   -8541    -8552    -8552    -8854    -8965    -8368    -7944    -8622 
  -10021   -11337   -12009   -11738   -10918   -10233    -9656    -8802 
   -7854    -7445    -8019    -9420   -10805   -11421   -11290   -10856 
  -10554   -10342    -9607    -8353    -7434    -7311    -7884    -9080 
  -10319   -10592   -10164   -10031    -9852    -9292    -9166    -9539 
   -9667    -9479    -9202    -8785    -8401    -8534    -9248   -10030 
  -10393   -10191    -9567    -8953    -8922    -9401    -9435    -8708 
   -8297    -8865    -9725   -10210   -10261    -9907    -9463    -9468 
   -9876   -10247   -10335   -10129    -9971   -10037    -9810    -8830 
   -7560    -7053    -7628    -8518    -9221    -9886   -10532   -11017 
  -11179   -10891   -10377   -10029    -9996    -9977    -9543    -8989 
   -8912    -9235    -9468    -9387    -9387    -9786   -10196   -10368 
  -10384   -10106    -9371    -8456    -8035    -8303    -8571    -8529 
   -8793    -9529   -10125   -10265    -9888    -9032    -8460    -9082 
  -10547   -11458   -11186   -10547   -10407   -10444    -9745    -8341 
   -7326    -7229    -7723    -8650    -9695   -10201   -10035    -9575 
   -9184    -9034    -9127    -9202    -8935    -8777    -9477   -10605 
  -11045   -10615   -10146   -10158   -10319   -10403   -10605   -10825 
  -10709   -10269    -9760    -9325    -9101    -9047    -8846    -8410 
   -8144    -8309    -8517    -8557    -8752    -9094    -9270    -9266 
   -9333    -9582    -9984   -10655   -11286   -11196   -10602   -10369 
  -10563   -10338    -9315    -8247    -7890    -8190    -8665    -8953 
   -8903    -8766    -9121    -9911   -10415   -10273    -9683    -9188 
   -9308    -9860   -10173   -10052    -9906    -9875    -9732    -9556 
   -9562    -9613    -9566    -9744   -10524   -11354   -11286   -10293 
   -9020    -7975    -7389    -7249    -7495    -8068    -8598    -8797 
   -9050    -9564    -9911    -9888    -9649    -9298    -8918    -8770 
   -9251   -10197   -10724   -10359    -9687    -9364    -9281    -9217 
   -9323    -9585    -9741    -9756    -9738    -9693    -9799   -10282 
  -10898   -11094   -10674   -10088    -9679    -9255    -8900    -8920 
   -9028    -8802    -8498    -8595    -9001    -9414    -9865   -10195 
   -9933    -9185    -8638    -8580    -8727    -8907    -9103    -9198 
