Origin Time       2024/06/23 22:54:00
Lat.              35.645
Long.             140.060
Depth. (km)       72
Mag.              4.1
Station Code      CHB018
Station Lat.      35.1520
Station Long.     140.3204
Station Height(m) 38
Record Time       2024/06/23 22:54:47
Sampling Freq(Hz) 100Hz
Duration Time(s)  60
Dir.              E-W
Scale Factor      7845(gal)/8223790
Max. Acc. (gal)   2.156
Last Correction   2024/06/23 22:54:47
Memo.             
[...]
   14222    14235    14226    14214    14215    14214    14216    14222 
   14218    14220    14222    14212    14218    14231    14229    14223 
   14222    14215    14214    14222    14222    14214    14215    14222 
   14223    14229    14227    14211    14214    14224    14222    14222 
   14227    14226    14219    14216    14219    14219    14218    14227 
   14233    14220    14219    14223    14215    14224    14241    14224 
   14196    14189    14187    14197    14238    14274    14256    14208 
   14206    14220    14220    14234    14243    14237    14231    14210 
   14181    14177    14195    14242    14270    14207    14126    14111 
   14102    14123    14262    14386    14334    14192    14089    14064 
   14188    14397    14463    14368    14322    14318    14227    14143 
   14172    14222    14200    14110    14015    14046    14188    14257 
   14230    14206    14227    14297    14327    14304    14351    14366 
   14200    14048    14095    14253    14391    14382    14192    14025 
   14019    14094    14199    14301    14227    14014    13992    14191 
   14351    14449    14462    14249    14007    14054    14291    14494 
   14562    14401    14106    14004    14214    14462    14470    14223 
   13933    13852    14027    14277    14391    14287    14062    13915 
   13948    14123    14311    14322    14137    14042    14196    14419 
   14601    14715    14540    14056    13728    13909    14372    14644 
   14528    14258    14116    14103    14112    14157    14268    14305 
   14115    13833    13730    13945    14357    14569    14388    14177 
   14261    14469    14582    14509    14156    13786    13840    14166 
   14341    14324    14303    14335    14310    14181    14072    14091 
   14197    14264    14242    14234    14281    14328    14305    14189 
   14081    14091    14203    14301    14245    14014    13880    14130 
   14578    14754    14527    14199    14080    14181    14276    14220 
   14135    14130    14108    14050    14067    14143    14262    14430 
   14481    14358    14285    14281    14184    14089    14115    14156 
   14189    14272    14276    14133    14058    14137    14129    14019 
   14072    14242    14295    14284    14280    14265    14384    14577 
   14499    14177    13994    14062    14241    14389    14382    14237 
   14162    14238    14328    14330    14246    14138    14038    13965 
   13995    14142    14256    14220    14126    14129    14253    14350 
   14351    14323    14268    14261    14369    14372    14193    14131 
   14264    14303    14112    13860    13776    13981    14377    14658 
   14651    14443    14218    14114    14058    13957    13969    14154 
   14339    14416    14362    14180    14003    14038    14296    14480 
   14404    14268    14210    14133    14107    14250    14361    14328 
   14338    14316    14125    14026    14122    14100    13961    14014 
   14227    14369    14450    14527    14520    14439    14335    14138 
   13895    13852    14004    14100    14157    14320    14418    14331 
   14274    14323    14318    14200    14081    14146    14372    14467 
   14361    14262    14176    13998    13923    14107    14285    14283 
   14195    14018    13894    14118    14504    14679    14639    14343 
   13809    13508    13717    14135    14503    14731    14705    14478 
   14280    14154    14025    14007    14127    14179    14206    14372 
   14443    14208    13936    13948    14170    14339    14357    14322 
   14355    14438    14397    14185    14013    14026    14106    14118 
   14071    14110    14385    14631    14499    14246    14157    14100 
   14107    14268    14349    14242    14116    14014    13921    13937 
   14064    14158    14168    14191    14338    14470    14403    14304 
   14359    14458    14543    14571    14297    13830    13711    13963 
   14188    14384    14526    14345    14071    14076    14165    14145 
   14130    14119    14165    14324    14362    14245    14230    14261 
   14191    14187    14319    14439    14458    14316    14062    13933 
   13998    14077    14158    14389    14600    14445    14123    14110 
   14269    14250    14123    13980    13856    13994    14380    14598 
   14473    14152    13826    13747    14029    14428    14617    14490 
   14280    14268    14408    14528    14547    14418    14185    13945 
   13767    13795    14044    14189    14085    14017    14139    14330 
   14577    14801    14717    14314    13927    13757    13801    14149 
   14632    14659    14172    13798    13838    14118    14432    14543 
   14369    14192    14210    14308    14370    14350    14206    14007 
   13894    13945    14100    14261    14347    14256    14076    14088 
   14283    14459    14531    14422    14188    14102    14278    14458 
   14320    14025    13938    14007    14071    14202    14346    14416 
   14458    14328    13987    13849    14037    14162    14131    14100 
   14125    14335    14607    14581    14455    14566    14636    14405 
   14079    13838    13662    13612    13895    14395    14571    14323 
   14153    14189    14152    14154    14401    14648    14642    14397 
   13988    13616    13605    13873    14046    14197    14515    14742 
   14782    14805    14666    14234    13859    13856    14033    14119 
   14122    14057    13945    13953    14071    14141    14270    14538 
   14629    14445    14281    14191    14079    14080    14222    14339 
   14364    14359    14364    14241    13975    13857    13940    14014 
   14164    14395    14419    14280    14154    14089    14297    14629 
   14580    14246    14018    13888    13861    14030    14196    14188 
   14189    14427    14798    14902    14580    14083    13626    13428 
   13725    14189    14389    14504    14665    14640    14442    14257 
   14175    14220    14241    14017    13711    13730    14058    14215 
   14033    13878    14046    14489    14949    15128    14913    14492 
   14112    13787    13491    13455    13797    14254    14531    14547 
   14455    14482    14600    14499    14030    13537    13500    13910 
   14440    14843    14844    14442    14135    14179    14323    14342 
   14185    13913    13717    13752    13942    14157    14381    14567 
   14624    14567    14461    14353    14250    14084    13899    13834 
   13884    14064    14412    14605    14359    14045    14029    14130 
   14287    14519    14473    14188    14196    14405    14374    14312 
   14463    14399    13930    13593    13663    13903    14223    14554 
   14521    14148    14033    14312    14524    14469    14322    14234 
   14208    14172    14131    14173    14243    14212    14169    14203 
   14168    14098    14179    14250    14088    13921    14095    14432 
   14461    14262    14203    14131    14010    14269    14694    14620 
   14222    14038    13979    13878    13968    14280    14547    14694 
   14694    14426    14037    13892    14040    14219    14253    14154 
   14050    14033    14035    14002    14034    14204    14385    14432 
   14412    14366    14187    14072    14288    14500    14392    14175 
   13965    13830    14015    14399    14530    14355    14269    14389 
   14388    14222    14202    14285    14161    13915    13856    13899 
   13892    14061    14462    14716    14635    14420    14304    14328 
   14347    14214    13967    13782    13774    13923    14071    14176 
   14407    14678    14744    14651    14457    14137    13887    13900 
   14123    14300    14216    14076    14139    14195    14095    14041 
   14075    14157    14316    14400    14326    14243    14289    14530 
   14797    14754    14428    14115    13965    14062    14261    14161 
   13826    13725    13852    13919    14033    14241    14324    14345 
   14418    14404    14338    14358    14353    14226    14114    14115 
   14173    14337    14588    14546    14168    13992    14143    14251 
   14239    14206    14127    14069    14154    14310    14327    14218 
   14203    14308    14327    14234    14154    14076    14011    14035 
   14046    14015    14138    14400    14586    14592    14407    14196 
   14185    14218    14010    13782    13872    14130    14335    14565 
   14778    14796    14604    14257    13867    13655    13701    13886 
   14076    14191    14326    14616    14858    14769    14413    14033 
   13830    13932    14157    14238    14185    14137    14141    14162 
   14083    13957    14044    14327    14476    14332    14091    14053 
   14307    14584    14589    14426    14345    14318    14243    14146 
   14027    13888    13828    13873    13991    14239    14480    14447 
   14285    14242    14206    14072    14013    14125    14269    14386 
   14504    14515    14403    14389    14490    14486    14341    14102 
   13765    13532    13593    13817    14092    14403    14602    14686 
   14737    14602    14266    14021    13999    14104    14257    14347 
   14230    13967    13801    13813    13906    13988    14077    14264 
   14523    14629    14418    14056    13919    14166    14546    14763 
   14770    14598    14297    13964    13760    13921    14382    14716 
   14760    14685    14542    14381    14319    14284    14254    14303 
   14291    14121    13957    13890    13842    13815    13902    14130 
   14393    14580    14717    14782    14685    14485    14262    14029 
   13859    13788    13760    13741    13729    13737    13923    14318 
   14584    14528    14253    13818    13401    13281    13396    13522 
   13689    13967    14303    14693    15113    15388    15433    15268 
   14877    14251    13536    13028    12880    13028    13502    14212 
   14758    14948    14963    14899    14708    14438    14192    13986 
   13852    13917    14234    14656    14975    15122    15168    15174 
   15006    14492    13801    13266    13001    13061    13405    13725 
   13898    14087    14305    14497    14635    14638    14519    14347 
   14187    14222    14454    14593    14528    14331    14107    14115 
   14349    14440    14295    14054    13801    13714    13899    14103 
   14091    13894    13632    13517    13728    14192    14671    14972 
   14993    14769    14540    14501    14530    14439    14206    13927 
   13765    13752    13803    13894    13968    13948    13892    13894 
   13979    14180    14453    14640    14651    14524    14378    14291 
   14257    14303    14439    14580    14678    14729    14628    14365 
   14130    14031    14015    14130    14467    14840    14893    14515 
   13864    13252    13053    13336    13764    13975    13845    13579 
   13620    14158    14939    15614    15961    15873    15345    14486 
   13559    12892    12688    12953    13483    13983    14322    14593 
   14824    14931    14931    14914    14839    14507    13864    13170 
   12738    12757    13284    14179    15126    15862    16256    16197 
   15639    14785    13903    13119    12576    12449    12664    13009 
   13425    13892    14278    14494    14562    14539    14543    14667 
   14808    14721    14355    14021    14052    14381    14692    14731 
   14385    13806    13350    13275    13644    14253    14744    15016 
   15141    15093    14894    14605    14230    13913    13836    13872 
   13829    13787    13865    14089    14400    14554    14382    14068 
   13855    13751    13736    13927    14297    14575    14648    14611 
   14501    14391    14397    14466    14436    14345    14345    14420 
   14482    14544    14565    14436    14177    13829    13358    12968 
   12985    13309    13683    14110    14511    14777    15044    15244 
   15080    14652    14272    13965    13663    13427    13296    13329 
   13716    14449    15188    15627    15635    15232    14611    13945 
   13362    13097    13259    13613    13886    14048    14188    14319 
   14461    14627    14625    14369    14166    14237    14423    14646 
   14890    14841    14320    13682    13263    13143    13433    14050 
   14536    14617    14458    14226    13991    13933    14129    14432 
   14721    14931    14909    14627    14322    14187    14187    14208 
   14107    13792    13423    13231    13297    13659    14285    14947 
   15408    15561    15381    15043    14751    14496    14241    14030 
   13857    13722    13639    13595    13648    13851    14146    14426 
   14563    14519    14377    14188    13969    13818    13844    14017 
   14241    14450    14528    14415    14256    14241    14364    14415 
   14305    14195    14179    14172    14141    14089    14013    14046 
   14295    14535    14535    14324    13960    13513    13262    13447 
   13995    14574    14758    14401    13872    13691    14053    14785 
   15445    15546    14995    14135    13336    12930    13212    14088 
   14999    15404    15225    14767    14299    13954    13803    13666 
   13354    13161    13360    13797    14368    15007    15426    15431 
   15072    14542    14156    14046    14003    13760    13279    12804 
   12722    13240    14218    15299    16094    16302    15854    14998 
   14135    13516    13184    13130    13284    13462    13560    13763 
   14324    15142    15697    15545    14769    13849    13207    12991 
   13162    13579    14049    14507    14931    15160    15034    14465 
   13502    12552    12168    12580    13621    14867    15768    15989 
   15682    15222    14879    14755    14709    14519    14138    13690 
   13398    13536    14204    15153    15842    15684    14573    13100 
   12081    11961    12613    13560    14365    14801    14860    14744 
   14708    14851    15017    14877    14206    13216    12460    12287 
   12669    13444    14357    15140    15746    16117    16017    15418 
   14632    13960    13483    13188    13116    13385    14017    14737 
   15118    15026    14700    14431    14339    14262    13971    13585 
   13462    13714    14161    14609    14975    15229    15276    14952 
   14337    13764    13397    13147    12950    12835    12901    13312 
   14127    15090    15819    16121    15934    15342    14671    14179 
   13828    13520    13293    13259    13471    13864    14272    14517 
   14521    14364    14219    14158    14133    14116    14102    14154 
   14330    14523    14643    14654    14476    14152    13811    13451 
   13120    13061    13347    13753    14137    14494    14781    14968 
   15002    14794    14458    14238    14233    14303    14266    14110 
   13949    13894    13926    13971    14064    14272    14501    14663 
   14806    14913    14866    14648    14331    14121    14276    14709 
   15014    14883    14289    13522    13001    12923    13254    13814 
   14324    14617    14720    14678    14527    14345    14226    14243 
   14296    14106    13637    13208    13031    13115    13485    14083 
   14700    15210    15596    15726    15444    14816    14098    13583 
   13429    13560    13778    13965    14139    14289    14315    14191 
   14007    13790    13614    13682    13979    14280    14565    14886 
   15144    15327    15442    15323    14952    14486    13977    13498 
   13219    13180    13271    13398    13582    13929    14411    14806 
   14898    14621    14142    13819    13882    14197    14551    14841 
   15003    14967    14713    14362    14073    13845    13633    13500 
   13495    13614    13857    14211    14586    14874    15048    15055 
   14782    14246    13684    13402    13560    14098    14716    14994 
   14752    14207    13680    13405    13500    13902    14370    14651 
   14682    14567    14364    14092    13807    13512    13285    13279 
   13505    13859    14264    14609    14778    14829    14887    14908 
   14851    14733    14511    14304    14370    14640    14813    14777 
   14597    14382    14230    14122    13975    13811    13672    13467 
   13203    13112    13285    13645    14166    14697    15007    15021 
   14829    14590    14332    14116    14122    14261    14303    14250 
   14158    14022    13925    13925    13983    14064    14210    14399 
   14508    14494    14438    14350    14165    13896    13620    13437 
   13524    13945    14472    14864    15066    15067    14891    14624 
   14295    13938    13625    13428    13444    13707    14130    14602 
   15007    15268    15337    15138    14720    14224    13736    13387 
   13313    13393    13529    13792    14103    14295    14419    14612 
   14867    15049    15025    14789    14449    14096    13778    13567 
   13537    13618    13679    13718    13822    13998    14211    14434 
   14575    14538    14409    14274    14103    14033    14207    14493 
   14712    14800    14706    14457    14189    14037    14026    14102 
   14197    14238    14197    14150    14139    14126    14095    14083 
   14131    14222    14258    14118    13797    13556    13667    14033 
   14393    14590    14554    14388    14296    14370    14584    14786 
   14767    14542    14295    14123    14058    14100    14137    14099 
   14045    14011    13991    13994    14035    14076    14046    13994 
   14069    14327    14673    14972    15056    14748    14156    13649 
   13479    13649    14027    14427    14702    14806    14770    14605 
   14273    13872    13606    13527    13543    13585    13651    13810 
   14094    14457    14816    15056    15090    14921    14621    14326 
   14149    14103    14134    14137    14021    13844    13759    13830 
   14029    14293    14512    14504    14295    14141    14103    14081 
   14129    14251    14318    14323    14380    14439    14407    14300 
   14125    13898    13761    13807    13977    14189    14426    14620 
   14674    14582    14388    14125    13940    13975    14154    14326 
   14391    14260    14037    13977    14112    14265    14343    14334 
   14227    14061    13953    13979    14071    14169    14283    14386 
   14458    14511    14547    14581    14588    14485    14258    13942 
   13625    13474    13536    13703    13917    14154    14422    14717 
   14918    14904    14719    14445    14148    13952    13894    13948 
   14121    14346    14543    14673    14667    14553    14419    14237 
   13960    13668    13537    13674    13977    14274    14438    14413 
   14316    14289    14320    14293    14149    13956    13809    13775 
   13899    14129    14392    14666    14850    14832    14654    14428 
   14195    13994    13884    13879    14018    14311    14605    14743 
   14708    14563    14366    14141    13917    13711    13566    13599 
   13815    14041    14196    14300    14331    14270    14170    14092 
   14015    13944    13964    14092    14283    14488    14646    14750 
   14785    14673    14420    14161    13980    13898    13910    13944 
   13944    13984    14146    14403    14646    14755    14673    14443 
   14212    14106    14118    14148    14145    14142    14181    14246 
   14310    14346    14308    14202    14053    13842    13660    13683 
   13964    14409    14829    15051    15005    14689    14203    13745 
   13474    13423    13537    13749    14019    14308    14577    14791 
   14917    14947    14867    14620    14238    13864    13617    13532 
   13572    13689    13876    14164    14469    14635    14635    14532 
   14416    14393    14430    14416    14359    14287    14238    14269 
   14346    14409    14430    14399    14342    14243    14084    13937 
