Origin Time       2024/06/23 22:54:00
Lat.              35.645
Long.             140.060
Depth. (km)       72
Mag.              4.1
Station Code      CHB017
Station Lat.      35.2976
Station Long.     140.0734
Station Height(m) 38
Record Time       2024/06/23 22:54:37
Sampling Freq(Hz) 100Hz
Duration Time(s)  79
Dir.              U-D
Scale Factor      7845(gal)/8223790
Max. Acc. (gal)   3.165
Last Correction   2024/06/23 22:54:37
Memo.             
[...]
   16028    16032    16033    16028    16027    16028    16029    16027 
   16020    16020    16024    16021    16023    16031    16028    16023 
   16028    16028    16025    16027    16029    16032    16029    16027 
   16027    16025    16023    16024    16027    16029    16032    16028 
   16023    16024    16028    16029    16028    16032    16035    16028 
   16020    16020    16025    16031    16028    16025    16028    16028 
   16024    16021    16024    16027    16025    16029    16035    16032 
   16024    16021    16025    16027    16024    16024    16029    16031 
   16027    16023    16023    16019    16021    16033    16035    16027 
   16025    16024    16020    16024    16031    16029    16025    16025 
   16028    16027    16024    16025    16025    16023    16025    16027 
   16027    16024    16019    16021    16029    16028    16024    16028 
   16025    16021    16023    16025    16027    16028    16029    16025 
   16021    16025    16028    16024    16023    16025    16028    16028 
   16025    16025    16027    16029    16029    16025    16020    16020 
   16027    16029    16027    16025    16023    16024    16024    16023 
   16027    16028    16027    16029    16033    16031    16024    16024 
   16025    16021    16024    16031    16031    16028    16024    16020 
   16024    16028    16025    16024    16027    16029    16024    16024 
   16025    16023    16025    16032    16032    16027    16021    16024 
   16024    16023    16032    16035    16025    16027    16028    16021 
   16027    16032    16024    16023    16031    16028    16024    16025 
   16024    16025    16031    16031    16028    16024    16024    16025 
   16027    16031    16028    16027    16031    16029    16023    16023 
   16027    16031    16032    16031    16027    16021    16021    16023 
   16025    16033    16039    16033    16025    16023    16023    16027 
   16031    16029    16027    16028    16027    16023    16019    16023 
   16029    16032    16032    16027    16025    16029    16027    16021 
   16021    16027    16032    16031    16024    16025    16024    16019 
   16024    16035    16035    16025    16020    16024    16025    16024 
   16029    16032    16024    16020    16023    16023    16025    16029 
   16031    16031    16031    16027    16023    16024    16032    16032 
   16027    16028    16028    16028    16027    16027    16038    16065 
   16093    16110    16116    16105    16085    16063    16035    16008 
   15981    15948    15917    15892    15884    15905    15944    15994 
   16067    16151    16202    16179    16113    16089    16124    16168 
   16183    16159    16078    15940    15822    15849    15992    16046 
   15997    16004    15982    15811    15661    15701    15874    16020 
   16113    16191    16106    15894    15970    16322    16444    16240 
   16105    16179    16082    15747    15664    15759    15735    15994 
   16592    16719    16051    15372    15238    15176    15236    16193 
   17451    17456    16263    15363    15363    15678    16097    16754 
   17070    16514    15568    14794    14415    14920    16278    17405 
   17579    17166    16618    15994    15426    15210    15360    15653 
   16012    16313    16274    15970    15801    16024    16510    16690 
   16174    15357    14949    15250    15815    16193    16691    17429 
   17668    16935    15859    15267    15206    15268    15259    15349 
   15795    16402    16721    16725    16633    16291    15610    15086 
   15083    15402    15869    16470    16981    17000    16401    15839 
   15997    16471    16430    15801    15183    15120    15523    15965 
   16325    16726    16880    16271    15304    14976    15422    16011 
   16389    16713    16884    16362    15446    15155    15515    15758 
   15820    16117    16470    16482    16281    16073    15871    15828 
   16083    16460    16599    16321    15920    15755    15684    15624 
   15857    16235    16294    16093    15946    15843    15757    15831 
   15974    15928    15747    15750    16098    16605    16957    16895 
   16340    15643    15309    15415    15668    15940    16293    16507 
   16339    16042    15955    15979    15869    15666    15565    15604 
   15734    16046    16538    16872    16818    16465    15923    15446 
   15345    15506    15720    16065    16479    16660    16573    16434 
   16210    15789    15439    15433    15568    15665    15820    15989 
   16106    16310    16654    16902    16645    15971    15468    15271 
   15259    15603    16275    16814    16785    16340    15957    15651 
   15345    15317    15712    16328    16742    16676    16322    15951 
   15732    15749    15816    15785    15870    16298    16783    16780 
   16247    15662    15422    15552    15795    15967    16042    15928 
   15658    15601    15998    16436    16416    16240    16359    16448 
   16110    15647    15539    15734    15876    15873    15850    15923 
   16132    16367    16533    16621    16560    16352    16141    15967 
   15736    15514    15462    15562    15718    15874    15930    15905 
   16019    16291    16475    16501    16556    16576    16281    15804 
   15520    15469    15491    15514    15599    15855    16256    16598 
   16687    16559    16468    16448    16186    15624    15214    15252 
   15560    16035    16679    16993    16506    15745    15439    15461 
   15427    15388    15519    15758    16017    16376    16815    17262 
   17604    17359    16339    15250    14704    14611    14933    15714 
   16459    16637    16486    16544    16722    16546    16042    15668 
   15457    15053    14629    14810    15633    16452    16852    17010 
   17194    17267    16868    16047    15331    15125    15387    15820 
   16201    16576    17001    17273    17194    16754    16063    15349 
   14856    14775    15061    15340    15314    15157    15246    15523 
   15680    15917    16553    17172    17027    16232    15695    15738 
   15901    15961    16098    16349    16521    16657    16907    16951 
   16449    15754    15465    15607    15747    15746    15722    15606 
   15410    15444    15938    16659    16962    16561    15901    15485 
   15404    15484    15736    16341    17012    17205    16877    16509 
   16573    16738    16258    15442    15229    15464    15294    14781 
   14717    15225    15623    15701    15938    16428    16762    16634 
   16131    15727    15660    15762    16032    16565    17158    17496 
   17570    17433    16715    15408    14446    14434    14975    15511 
   15930    16430    16875    16752    16109    15516    15222    15134 
   15144    15215    15442    15889    16420    16939    17470    17656 
   16941    15736    15142    15275    15522    15913    16567    17053 
   17163    16892    15975    14705    14199    14848    15577    15655 
   15739    16298    16864    17108    17221    17320    17139    16528 
   15682    14891    14756    15523    16182    15970    15479    15391 
   15587    15693    15809    15947    15758    15473    15522    15692 
   15873    16349    16961    16997    16328    15892    16291    16723 
   16313    15507    15218    15477    15778    15992    16308    16889 
   17674    18018    17346    16244    15638    15491    15394    15313 
   15360    15596    15888    15862    15396    14983    15237    16120 
   16924    17076    16760    16526    16429    16102    15564    15341 
   15638    15992    15947    15688    15800    16262    16198    15268 
   14432    14659    15591    16267    16525    16734    16930    16969 
   16926    16819    16457    15912    15607    15712    15961    16147 
   16348    16476    16225    15680    15307    15372    15770    16322 
   16868    17073    16681    16005    15618    15712    15982    15897 
   15292    14692    14665    15010    15134    15180    15792    16690 
   17032    16933    16977    17116    17065    16945    16972    16843 
   16187    15365    14966    14960    14918    14867    15309    16108 
   16548    16474    16318    16402    16452    15982    15373    15437 
   16012    16359    16393    16532    16819    16939    16698    16146 
   15569    15188    14928    14891    15394    16297    16989    17078 
   16761    16305    15618    14885    14720    15255    16012    16605 
   16895    16856    16513    16006    15585    15412    15485    15669 
   15870    16102    16363    16726    17186    17401    17128    16600 
   16222    16029    15705    15222    14925    14866    14744    14528 
   14688    15538    16627    17336    17398    16756    15782    15275 
   15623    16417    16968    16950    16573    16171    15784    15421 
   15338    15649    16027    16117    16002    15897    15866    16046 
   16538    17082    17074    16209    15198    14875    15060    15344 
   15854    16507    16756    16421    15920    15693    15816    16051 
   16193    16322    16546    16663    16422    16100    15994    15747 
   15286    15314    15927    16235    15940    15772    16023    16116 
   15877    15800    16019    16216    16164    15800    15381    15484 
   16175    16613    16295    15880    15957    16239    16421    16660 
   16984    17095    16826    16351    15867    15450    15256    15346 
   15423    15265    15029    15021    15412    16136    16927    17392 
   17143    16212    15179    14797    15299    16155    16815    17226 
   17307    16796    15919    15348    15298    15412    15437    15466 
   15757    16378    16888    16702    15988    15502    15506    15531 
   15371    15564    16328    16961    17031    16891    16718    16340 
   15900    15681    15610    15480    15360    15498    15996    16590 
   16749    16298    15736    15624    15869    15975    15890    15888 
   15880    15658    15410    15541    16140    16773    17004    16875 
   16595    16173    15762    15758    16102    16210    15844    15403 
   15306    15556    15880    16067    16141    16156    16040    15784 
   15499    15341    15475    15940    16559    17005    17077    16939 
   16852    16675    16279    16046    16120    16017    15580    15309 
   15434    15669    15912    16220    16368    16148    15687    15307 
   15209    15387    15812    16339    16714    16780    16525    16075 
   15642    15391    15291    15264    15441    15815    16194    16676 
   17339    17807    17720    17270    16846    16258    15175    14002 
   13520    14027    15059    15982    16645    17024    16965    16573 
   16160    15850    15624    15514    15569    15781    16139    16642 
   17111    17157    16622    15840    15352    15375    15746    16179 
   16297    16069    15943    15965    15820    15612    15581    15588 
   15456    15385    15554    15793    16033    16378    16723    16856 
   16784    16737    16737    16613    16447    16368    16195    15898 
   15741    15693    15488    15207    15156    15368    15580    15660 
   15743    15915    16089    16206    16326    16533    16714    16708 
   16653    16726    16842    16868    16737    16357    15722    15059 
   14683    14767    15226    15714    15889    15817    15774    15796 
   15785    15741    15776    15967    16222    16403    16455    16430 
   16471    16583    16649    16596    16389    15990    15481    15152 
   15294    15834    16482    17037    17302    17139    16777    16632 
   16734    16754    16406    15607    14669    14193    14369    14800 
   15169    15554    15859    15593    14724    14007    14002    14554 
   15327    16137    16783    16958    16623    16270    16451    17221 
   18226    18983    19157    18894    18574    18242    17656    16748 
   15861    15425    15380    15309    15032    14688    14388    14100 
   13799    13556    13432    13455    13662    14107    14794    15595 
   16275    16661    16810    16974    17339    17861    18405    18810 
   18895    18513    17629    16402    15209    14373    13890    13702 
   13957    14625    15383    16005    16444    16821    17343    17976 
   18387    18212    17433    16518    15867    15398    14983    14747 
   14746    14789    14791    14983    15476    16000    16291    16345 
   16328    16353    16360    16308    16175    15823    15356    15138 
   15195    15310    15561    16148    16984    17653    17679    16954 
   15897    15109    14875    14987    15226    15643    16124    16343 
   16217    16090    16258    16471    16336    16017    15912    16063 
   16393    16821    17177    17512    17965    18292    18084    17250 
   16086    14963    14053    13387    13001    13020    13486    14073 
   14396    14501    14754    15330    16096    16924    17797    18563 
   18981    19016    18824    18499    18011    17301    16420    15444 
   14405    13583    13302    13425    13606    13856    14382    15215 
   16229    17246    17975    18254    18168    17745    17086    16557 
   16317    16106    15687    15232    15076    15302    15755    16182 
   16422    16514    16433    16128    15793    15735    16004    16263 
   16139    15635    15032    14611    14555    14881    15449    15986 
   16266    16386    16536    16669    16708    16713    16788    16910 
   16887    16703    16644    16862    17082    16947    16510    16013 
   15439    14731    14029    13491    13185    13150    13427    14143 
   15325    16575    17442    17932    18216    18308    18322    18507 
   18808    18847    18418    17625    16673    15728    14883    14187 
   13664    13257    12933    12798    12947    13400    14211    15412 
   16857    18237    19152    19345    18895    18085    17143    16227 
   15438    14787    14274    13980    14054    14584    15384    16075 
   16494    16811    17122    17282    17278    17254    17138    16785 
   16302    15881    15573    15337    15245    15419    15792    16212 
   16623    17007    17213    17070    16680    16278    15795    15055 
   14220    13616    13400    13581    14091    14766    15464    16124 
   16700    17178    17548    17718    17620    17312    16935    16640 
   16487    16434    16444    16546    16740    16902    16852    16514 
   15940    15245    14619    14249    14121    14123    14291    14739 
   15431    16233    17059    17729    18000    17790    17190    16472 
   15974    15803    15855    16059    16414    16833    17151    17275 
   17146    16707    15943    14968    14064    13421    13055    13034 
   13482    14405    15543    16474    16978    17143    17177    17255 
   17392    17506    17562    17512    17267    16768    16086    15516 
   15330    15477    15746    16002    16116    16013    15800    15666 
   15643    15557    15357    15179    15047    14929    14924    15072 
   15295    15585    16085    16899    17817    18434    18532    18118 
   17277    16262    15510    15334    15600    15880    15990    16042 
   16082    16033    15827    15535    15327    15183    14995    14862 
   14931    15190    15585    16146    16884    17591    17929    17752 
   17257    16721    16224    15816    15570    15387    15161    14958 
   14866    14895    14985    15090    15237    15442    15714    16047 
   16378    16610    16695    16683    16652    16686    16877    17154 
   17235    16984    16499    15882    15276    14963    15082    15408 
   15646    15822    16071    16290    16303    16155    16008    15886 
   15736    15642    15695    15907    16275    16686    16937    16924 
   16668    16244    15819    15645    15782    16029    16231    16321 
   16235    15970    15595    15206    14987    15086    15426    15817 
   16120    16232    16129    15925    15776    15672    15518    15387 
   15412    15606    15913    16294    16717    17120    17443    17649 
   17658    17437    17162    17015    16885    16536    15988    15429 
   14940    14505    14083    13687    13413    13367    13668    14303 
   15182    16306    17544    18555    19109    19176    18827    18164 
   17347    16555    15813    15098    14496    14158    14137    14301 
   14553    14971    15556    16119    16534    16807    16939    16884 
   16648    16417    16383    16509    16671    16829    16972    17035 
   16961    16807    16600    16240    15730    15225    14777    14368 
   14126    14220    14619    15049    15280    15329    15360    15516 
   15842    16266    16672    16951    17041    17028    17037    17043 
   17066    17190    17294    17165    16839    16515    16185    15707 
   15140    14728    14675    14994    15502    15973    16263    16303 
   16066    15645    15319    15300    15471    15569    15504    15417 
   15458    15604    15747    15888    16098    16394    16717    17010 
   17239    17388    17436    17352    17153    16926    16753    16683 
   16668    16532    16151    15631    15106    14628    14297    14208 
   14372    14674    14994    15371    15817    16264    16725    17153 
   17343    17181    16764    16328    16021    15824    15705    15610 
   15418    15110    14825    14710    14813    15113    15569    16131 
   16749    17327    17697    17786    17716    17644    17541    17247 
   16731    16160    15695    15346    15063    14789    14476    14170 
   14034    14118    14327    14673    15314    16233    17076    17554 
   17752    17820    17678    17231    16664    16278    16158    16224 
   16367    16414    16283    16074    15835    15495    15093    14823 
   14683    14485    14311    14426    14847    15398    15939    16445 
   16964    17498    18017    18442    18628    18504    18088    17432 
   16627    15808    15174    14805    14555    14292    14018    13834 
   13891    14251    14805    15379    15932    16503    17022    17367 
   17524    17523    17361    17070    16722    16401    16163    16000 
   15861    15701    15557    15461    15346    15232    15268    15491 
   15782    16062    16330    16532    16542    16406    16308    16291 
   16231    16021    15780    15711    15774    15789    15735    15697 
   15716    15757    15793    15885    16015    16059    15982    15863 
   15803    15799    15820    15913    16027    16047    16031    16108 
   16306    16576    16849    17032    17031    16849    16564    16233 
   15932    15751    15687    15664    15678    15718    15668    15538 
   15522    15718    16008    16214    16341    16514    16694    16756 
   16726    16735    16789    16748    16515    16135    15699    15294 
   14980    14813    14813    14909    15001    15020    14990    15033 
   15241    15595    16000    16293    16325    16131    15946    15958 
   16162    16484    16884    17319    17645    17693    17510    17309 
   17153    16923    16575    16208    15863    15477    15028    14617 
   14415    14477    14700    14990    15350    15772    16144    16368 
   16511    16657    16700    16503    16140    15761    15418    15194 
   15259    15631    16128    16634    17153    17544    17572    17224 
   16700    16177    15749    15522    15561    15770    15998    16201 
   16399    16573    16629    16470    16098    15633    15225    14931 
   14735    14643    14662    14747    14902    15138    15419    15741 
   16098    16425    16688    16895    17030    17070    17049    17053 
   17074    17046    17000    16947    16731    16224    15599    15145 
   14912    14805    14867    15172    15583    15888    16124    16468 
   16861    17057    16973    16734    16437    16114    15870    15797 
