Origin Time       2024/06/23 22:54:00
Lat.              35.645
Long.             140.060
Depth. (km)       72
Mag.              4.1
Station Code      CHB020
Station Lat.      35.1132
Station Long.     140.1006
Station Height(m) 9
Record Time       2024/06/23 22:54:48
Sampling Freq(Hz) 100Hz
Duration Time(s)  60
Dir.              N-S
Scale Factor      7845(gal)/8223790
Max. Acc. (gal)   1.347
Last Correction   2024/06/23 22:54:48
Memo.             
[...]
     507      511      508      510      510      502      492      495 
     507      513      510      513      511      498      498      507 
     506      506      504      503      510      514      510      504 
     504      502      504      515      514      504      503      511 
     510      504      510      514      513      513      508      504 
     502      500      503      510      517      518      511      506 
     511      513      500      496      506      513      514      513 
     511      502      495      499      511      513      504      504 
     507      504      507      508      506      510      513      507 
     503      506      507      500      500      513      508      502 
     510      511      504      502      503      510      513      506 
     506      511      510      506      500      502      508      514 
     514      507      502      507      504      506      517      513 
     504      507      507      510      514      504      500      511 
     514      510      511      506      500      502      503      506 
     513      513      503      498      498      500      504      508 
     510      508      506      507      504      500      506      504 
     499      506      504      498      506      507      503      508 
     503      503      511      510      504      500      498      499 
     496      500      510      517      521      511      503      503 
     506      508      508      504      502      499      499      511 
     514      506      506      507      510      515      507      500 
     502      500      503      508      508      513      517      513 
     506      507      514      510      506      504      504      503 
     498      499      510      519      514      506      503      499 
     500      507      507      510      511      504      504      504 
     499      503      511      513      514      514      510      508 
     510      504      500      504      513      517      515      508 
     503      504      506      508      513      514      510      506 
     504      499      498      504      511      508      506      515 
     514      499      500      502      498      504      514      508 
     500      502      508      508      511      513      504      500 
     508      513      511      508      507      508      504      504 
     511      510      514      519      508      503      503      506 
     510      508      502      503      510      508      506      510 
     514      510      507      504      496      500      513      513 
     503      504      514      511      506      506      504      508 
     514      510      504      510      514      508      502      502 
     504      513      521      515      504      503      503      504 
     508      513      517      513      502      498      500      504 
     503      504      507      506      506      504      506      515 
     518      510      506      504      500      498      500      500 
     500      503      502      502      506      503      500      513 
     518      506      496      498      506      513      513      507 
     506      513      518      514      510      510      504      487 
     477      484      483      488      496      491      496      522 
     534      533      535      533      527      530      534      534 
     527      523      518      511      511      517      521      518 
     498      476      468      473      488      498      495      503 
     526      549      560      553      540      522      500      492 
     504      518      517      488      452      441      442      450 
     481      506      498      490      507      522      511      499 
     504      515      525      530      522      510      494      477 
     475      457      436      456      490      502      521      534 
     508      471      472      502      541      585      604      580 
     546      523      498      480      480      477      468      469 
     486      513      517      499      476      457      472      521 
     569      619      626      571      530      521      507      510 
     523      518      492      472      488      526      541      523 
     475      430      421      430      450      481      495      494 
     496      521      577      611      598      573      549      519 
     495      475      456      457      479      503      499      467 
     436      423      460      561      653      660      599      506 
     415      387      432      503      554      572      565      530 
     475      444      448      456      476      519      552      534 
     476      440      454      488      521      550      556      526 
     492      502      534      544      535      518      479      453 
     460      483      492      487      496      526      550      569 
     577      558      531      526      542      562      561      534 
     511      500      484      465      445      421      421      460 
     533      599      611      571      498      425      400      433 
     484      514      521      541      585      602      556      479 
     417      376      369      427      537      595      556      494 
     476      496      523      538      569      618      633      598 
     540      471      413      388      407      452      475      472 
     476      488      513      560      606      625      616      581 
     535      500      494      513      525      517      499      454 
     391      379      426      494      549      557      517      479 
     472      496      526      522      490      468      480      522 
     569      575      530      491      487      495      502      491 
     449      396      375      407      491      580      610      573 
     538      534      513      483      494      535      568      581 
     579      544      480      433      423      446      500      557 
     577      557      521      499      500      519      540      546 
     545      552      562      562      562      557      527      481 
     446      444      464      469      468      480      471      449 
     460      488      496      479      464      491      550      581 
     579      569      544      504      490      517      546      541 
     537      531      500      476      461      441      448      476 
     500      526      546      533      492      475      477      476 
     473      459      440      453      496      545      577      583 
     565      537      514      515      554      589      558      494 
     459      449      453      490      538      557      510      438 
     414      419      429      464      508      541      568      577 
     550      508      487      499      534      557      533      479 
     445      437      438      479      569      648      666      634 
     568      507      452      399      407      473      517      531 
     554      575      564      531      510      507      507      504 
     490      464      464      494      535      575      576      542 
     508      479      457      463      495      529      537      526 
     506      496      521      558      556      515      486      473 
     449      415      407      436      467      495      534      565 
     565      546      522      500      476      463      494      534 
     544      533      529      519      476      434      430      429 
     421      430      442      453      479      508      522      526 
     523      511      521      557      585      595      589      544 
     472      441      475      531      571      581      572      562 
     553      526      488      454      440      477      554      610 
     606      558      513      480      444      392      357      359 
     383      441      527      584      576      526      475      463 
     514      606      670      672      616      545      491      465 
     481      530      564      571      560      541      515      468 
     414      388      396      433      480      525      552      522 
     452      411      409      429      480      542      589      616 
     619      598      567      540      519      498      463      445 
     437      396      357      367      405      460      530      592 
     608      561      494      467      463      461      484      499 
     465      434      469      535      573      577      573      569 
     561      558      561      556      560      602      626      577 
     500      448      444      484      511      507      504      504 
     507      508      492      475      446      423      434      449 
     473      531      573      583      564      514      483      488 
     521      565      567      534      510      469      442      454 
     454      453      496      535      513      445      379      330 
     315      352      426      508      554      552      517      472 
     468      499      515      522      537      544      552      569 
     579      592      608      595      565      550      550      569 
     594      611      607      552      475      448      469      513 
     564      589      549      472      422      415      438      468 
     481      496      537      588      627      657      672      643 
     589      538      476      419      380      353      351      357 
     384      450      490      480      460      430      386      359 
     409      546      696      769      749      696      649      589 
     525      473      422      400      421      429      413      400 
     388      384      392      415      464      525      567      557 
     480      402      406      490      581      615      596      572 
     571      622      710      764      729      633      540      476 
     441      417      390      372      349      322      345      423 
     517      598      626      596      560      558      599      646 
     650      589      510      463      442      421      402      396 
     399      436      522      611      649      627      560      475 
     421      425      476      513      490      436      388      379 
     426      499      560      575      525      432      380      445 
     580      697      765      746      631      508      441      413 
     406      430      468      494      519      531      503      469 
     459      480      535      584      589      552      476      407 
     390      413      441      459      448      444      486      540 
     602      680      715      695      638      534      442      423 
     452      492      515      487      425      419      495      552 
     546      504      423      330      306      364      444      511 
     560      564      529      476      438      481      581      656 
     695      716      706      672      638      600      557      519 
     495      480      457      427      384      325      292      319 
     388      475      583      677      707      676      607      534 
     461      378      322      302      268      233      260      342 
     419      495      577      646      688      693      680      638 
     562      515      515      533      533      484      440      440 
     475      541      602      639      664      664      668      699 
     691      619      538      460      376      306      275      283 
     292      324      407      495      572      672      747      747 
     684      589      494      417      394      434      510      575 
     568      481      372      288      267      324      410      449 
     437      419      418      436      469      496      488      461 
     460      454      434      434      433      423      444      507 
     594      676      742      768      747      729      723      700 
     672      649      621      569      488      419      418      445 
     461      498      541      568      603      652      703      723 
     703      631      508      400      365      391      453      533 
     596      619      599      546      494      448      390      344 
     368      450      534      583      596      587      588      641 
     738      824      850      818      765      703      607      519 
     467      402      284      132      -13     -147     -257     -340 
    -414     -475     -491     -440     -324     -190      -86       -4 
      85      224      423      634      776      791      734      722 
     819     1015     1256     1485     1652     1732     1740     1715 
    1688     1660     1609     1506     1347     1121      832      518 
     225      -10     -155     -222     -245     -243     -249     -228 
    -133      -10      121      268      396      506      606      703 
     811      889      899      862      788      687      618      583 
     534      486      464      422      315      156      -36     -244 
    -444     -587     -625     -550     -411     -240      -51      126 
     268      387      542      780     1057     1304     1497     1609 
    1634     1622     1584     1494     1320     1050      722      414 
     198       93       87      153      259      398      568      749 
     923     1038     1005      803      502      152     -194     -440 
    -562     -548     -378      -76      384      931     1402     1746 
    1919     1876     1663     1316      893      463       56     -243 
    -392     -426     -342     -198      -37      130      234      255 
     214       97      -83     -287     -415     -344     -118      164 
     471      707      826      900      988     1108     1250     1359 
    1394     1355     1252     1132     1084     1119     1182     1197 
    1066      781      432      113      -64      -56       82      284 
     533      820     1062     1197     1219     1067      734      326 
     -51     -338     -526     -657     -747     -792     -757     -569 
    -236      163      599     1008     1300     1466     1503     1424 
    1291     1127      940      761      611      542      546      575 
     627      695      750      761      706      604      471      319 
     175       36      -56      -27      136      378      665      973 
    1236     1364     1306     1082      743      356      -14     -298 
    -468     -568     -616     -598     -492     -272       58      460 
     884     1259     1525     1645     1583     1332      947      519 
     140     -143     -332     -434     -426     -283      -14      349 
     758     1132     1370     1416     1309     1121      922      753 
     622      525      448      359      257      179      137      136 
     176      241      310      367      410      463      548      677 
     841     1009     1147     1213     1188     1086      930      738 
     525      319      178      106       60       18       -1       22 
     114      290      531      778      978     1090     1090      996 
     854      715      587      441      253        8     -260     -471 
    -569     -530     -340      -60      207      421      591      703 
     739      723      702      718      787      903     1054     1227 
    1428     1641     1817     1902     1848     1644     1354     1015 
     657      344       87     -121     -251     -282     -244     -163 
     -62       21       67       85       98      113      113       99 
      91       64       17      -24      -74     -136     -190     -228 
    -230     -167      -43      121      313      548      815     1066 
    1240     1305     1279     1189     1054      911      760      583 
     396      233      126      141      292      515      762      994 
    1166     1275     1344     1372     1360     1305     1225     1127 
     989      826      672      525      407      360      384      444 
     481      453      353      206       82       33       70      197 
     391      572      684      683      562      403      287      225 
     210      240      274      257      211      176      141      121 
     152      210      249      280      303      288      244      202 
     175      189      268      410      588      777      947     1071 
    1128     1109     1024      880      681      453      253      129 
      79      101      198      351      531      735      912     1003 
    1030     1035     1001      920      793      608      403      238 
     137      101      122      193      306      427      525      634 
     778      909     1009     1093     1140     1143     1098      986 
     811      604      395      203       28     -117     -203     -240 
    -260     -256     -218     -156      -72       37      191      386 
     618      865     1073     1224     1313     1293     1173      992 
     778      577      417      280      155       60       22       33 
      89      207      371      553      737      909     1066     1169 
    1174     1098      978      842      696      553      423      307 
     207      140      114      113      105       71       72      155 
     282      427      569      643      642      612      568      519 
     495      508      552      603      634      623      571      507 
     430      328      255      251      270      292      357      436 
     475      510      595      712      830      920      957      928 
     854      780      714      642      573      507      429      346 
     270      199      145      116      110      135      191      279 
     407      567      733      878      967      972      916      832 
     726      615      540      506      490      496      538      596 
     685      816      949     1058     1120     1093      969      773 
     517      225      -52     -306     -538     -712     -784     -742 
    -608     -414     -211      -43       78      168      265      390 
     549      747      942     1082     1159     1165     1115     1051 
     992      943      918      901      888      872      828      795 
     803      819      818      781      712      637      556      477 
     436      430      453      500      538      546      537      515 
     498      506      541      579      580      531      476      441 
     422      413      398      353      290      236      201      194 
     230      314      425      533      619      664      653      604 
     558      540      541      553      580      598      579      535 
     514      529      541      525      486      419      337      251 
     170       93       20      -20      -24       -4       51      125 
     203      306      434      567      689      793      878      936 
     958      945      899      831      760      708      687      680 
     661      614      540      456      382      333      310      290 
     256      217      197      220      288      392      514      639 
     756      845      884      870      843      816      768      718 
     708      727      746      765      783      781      735      664 
     606      552      491      438      399      372      325      255 
     206      186      183      237      382      577      754      866 
     895      819      648      436      229       62      -25      -44 
