Origin Time       2024/06/23 22:54:00
Lat.              35.645
Long.             140.060
Depth. (km)       72
Mag.              4.1
Station Code      CHB012
Station Lat.      35.5721
Station Long.     140.3436
Station Height(m) 60
Record Time       2024/06/23 22:54:40
Sampling Freq(Hz) 100Hz
Duration Time(s)  72
Dir.              U-D
Scale Factor      7845(gal)/8223790
Max. Acc. (gal)   2.270
Last Correction   2024/06/23 22:54:40
Memo.             
[...]
   16032    16032    16029    16027    16024    16025    16028    16028 
   16027    16028    16028    16027    16027    16028    16025    16025 
   16028    16029    16029    16029    16028    16025    16025    16027 
   16025    16025    16027    16028    16031    16032    16031    16028 
   16025    16025    16027    16028    16027    16027    16028    16027 
   16027    16029    16025    16021    16027    16031    16029    16029 
   16031    16029    16027    16027    16028    16028    16027    16025 
   16025    16027    16029    16029    16028    16028    16028    16031 
   16031    16027    16025    16027    16028    16027    16027    16028 
   16031    16031    16031    16032    16029    16028    16029    16028 
   16025    16028    16028    16027    16029    16028    16029    16032 
   16032    16028    16029    16029    16025    16025    16027    16029 
   16032    16031    16028    16028    16031    16035    16032    16028 
   16027    16028    16028    16029    16028    16027    16028    16027 
   16028    16029    16028    16027    16027    16028    16029    16029 
   16027    16028    16027    16025    16027    16028    16029    16028 
   16023    16025    16029    16027    16025    16027    16027    16028 
   16029    16028    16028    16028    16025    16024    16027    16027 
   16027    16028    16028    16025    16025    16025    16027    16027 
   16025    16025    16025    16024    16024    16025    16025    16024 
   16023    16027    16028    16025    16027    16027    16027    16027 
   16027    16029    16029    16024    16020    16024    16028    16025 
   16021    16024    16028    16029    16028    16024    16023    16023 
   16023    16024    16027    16027    16024    16025    16028    16027 
   16028    16029    16025    16025    16027    16025    16024    16024 
   16024    16023    16021    16025    16029    16029    16028    16027 
   16027    16025    16027    16029    16029    16027    16025    16027 
   16028    16024    16024    16025    16025    16024    16024    16028 
   16027    16024    16027    16028    16027    16029    16028    16025 
   16024    16025    16025    16024    16024    16024    16025    16028 
   16029    16029    16027    16027    16029    16029    16027    16027 
   16027    16024    16025    16025    16025    16028    16029    16031 
   16027    16020    16023    16027    16028    16029    16031    16029 
   16025    16027    16027    16025    16025    16025    16027    16027 
   16024    16027    16031    16029    16027    16027    16029    16028 
   16023    16024    16029    16028    16031    16033    16028    16025 
   16027    16025    16027    16029    16028    16027    16028    16029 
   16029    16027    16027    16029    16032    16029    16027    16027 
   16027    16027    16028    16031    16029    16028    16031    16033 
   16032    16028    16027    16031    16032    16028    16027    16029 
   16029    16028    16028    16032    16032    16027    16027    16028 
   16028    16029    16032    16033    16032    16032    16031    16027 
   16025    16028    16032    16033    16029    16025    16027    16027 
   16025    16028    16032    16031    16031    16029    16028    16027 
   16025    16027    16028    16029    16028    16025    16024    16028 
   16029    16028    16028    16031    16031    16027    16025    16028 
   16031    16033    16033    16031    16028    16028    16025    16024 
   16028    16029    16028    16027    16024    16024    16028    16028 
   16029    16035    16035    16029    16028    16028    16027    16028 
   16031    16031    16029    16029    16027    16024    16025    16028 
   16025    16025    16029    16029    16028    16029    16029    16028 
   16028    16031    16029    16028    16027    16028    16028    16027 
   16027    16029    16029    16028    16029    16029    16027    16028 
   16031    16031    16028    16028    16031    16029    16027    16028 
   16032    16032    16029    16032    16031    16031    16032    16031 
   16028    16032    16033    16027    16020    16020    16028    16035 
   16038    16035    16031    16025    16024    16025    16027    16029 
   16032    16033    16032    16029    16031    16029    16027    16031 
   16031    16027    16028    16031    16024    16024    16028    16027 
   16025    16031    16031    16028    16028    16031    16031    16029 
   16029    16028    16027    16025    16025    16024    16025    16029 
   16028    16025    16025    16027    16028    16027    16023    16023 
   16027    16029    16028    16027    16027    16024    16024    16025 
   16027    16025    16024    16025    16024    16023    16025    16027 
   16024    16028    16029    16025    16025    16028    16027    16027 
   16028    16027    16024    16023    16025    16028    16028    16027 
   16025    16024    16025    16027    16027    16027    16027    16029 
   16029    16027    16027    16028    16027    16027    16029    16031 
   16029    16027    16021    16021    16027    16033    16035    16031 
   16027    16027    16025    16027    16028    16027    16027    16028 
   16028    16031    16029    16025    16025    16027    16027    16027 
   16028    16028    16028    16025    16027    16027    16025    16027 
   16029    16028    16028    16027    16025    16028    16027    16023 
   16024    16027    16025    16025    16029    16028    16025    16024 
   16021    16020    16020    16021    16023    16024    16024    16024 
   16025    16028    16027    16024    16025    16025    16021    16020 
   16020    16024    16028    16027    16028    16031    16029    16029 
   16027    16021    16021    16025    16027    16028    16029    16031 
   16029    16024    16023    16025    16027    16027    16027    16028 
   16029    16031    16027    16023    16028    16031    16025    16024 
   16028    16027    16027    16032    16029    16024    16024    16024 
   16025    16028    16032    16035    16035    16031    16027    16028 
   16029    16029    16031    16028    16028    16031    16032    16031 
   16028    16028    16028    16027    16029    16032    16028    16025 
   16027    16024    16024    16027    16029    16031    16032    16028 
   16024    16028    16031    16027    16028    16032    16031    16027 
   16027    16027    16027    16029    16027    16025    16028    16028 
   16027    16029    16031    16028    16027    16025    16025    16029 
   16032    16029    16029    16029    16027    16025    16028    16028 
   16027    16027    16029    16029    16029    16029    16028    16028 
   16028    16029    16028    16025    16025    16029    16029    16028 
   16028    16029    16031    16029    16025    16027    16027    16025 
   16027    16027    16027    16029    16027    16025    16029    16032 
   16033    16031    16025    16024    16029    16032    16031    16031 
   16028    16025    16027    16028    16027    16025    16028    16031 
   16029    16027    16025    16028    16031    16031    16028    16029 
   16029    16028    16025    16025    16027    16028    16028    16028 
   16028    16028    16029    16031    16031    16031    16029    16028 
   16028    16029    16029    16028    16028    16028    16028    16028 
   16028    16027    16027    16028    16027    16025    16029    16031 
   16028    16028    16028    16028    16025    16024    16027    16029 
   16029    16029    16027    16025    16027    16028    16027    16029 
   16031    16028    16025    16027    16025    16027    16029    16031 
   16031    16029    16025    16025    16028    16025    16024    16027 
   16027    16027    16031    16032    16029    16029    16027    16023 
   16023    16024    16027    16028    16024    16023    16025    16024 
   16023    16027    16027    16025    16029    16031    16024    16024 
   16027    16027    16025    16025    16025    16027    16028    16023 
   16020    16023    16024    16025    16024    16021    16024    16028 
   16028    16028    16028    16027    16024    16024    16025    16024 
   16027    16029    16028    16027    16027    16027    16028    16027 
   16028    16029    16029    16031    16028    16025    16024    16025 
   16028    16028    16027    16028    16029    16028    16028    16027 
   16025    16028    16031    16032    16032    16032    16032    16029 
   16028    16028    16027    16028    16029    16025    16025    16025 
   16028    16029    16029    16031    16033    16033    16032    16029 
   16028    16029    16027    16027    16029    16032    16031    16029 
   16027    16025    16027    16031    16033    16033    16028    16027 
   16031    16027    16023    16024    16024    16025    16029    16028 
   16028    16031    16031    16029    16031    16031    16031    16031 
   16031    16027    16021    16023    16024    16024    16027    16031 
   16033    16035    16035    16031    16029    16031    16029    16025 
   16024    16027    16028    16028    16031    16029    16031    16032 
   16031    16028    16028    16027    16025    16027    16027    16024 
   16027    16029    16027    16027    16028    16031    16035    16035 
   16033    16042    16060    16087    16120    16139    16127    16083 
   16013    15930    15857    15831    15874    15973    16087    16195 
   16293    16362    16378    16362    16317    16178    15928    15703 
   15624    15691    15847    16042    16204    16271    16206    16023 
   15811    15714    15849    16151    16410    16457    16263    15959 
   15784    15782    15824    15908    15990    15842    15493    15283 
   15372    15670    16035    16378    16680    16881    16865    16609 
   16166    15589    15016    14674    14731    15211    15970    16668 
   16978    16819    16305    15747    15558    15859    16368    16733 
   16775    16534    16137    15687    15407    15531    16015    16541 
   16737    16490    16078    15699    15319    15184    15624    16425 
   17073    17285    17020    16437    15930    15778    15866    15967 
   16039    16035    15880    15678    15623    15719    15803    15753 
   15591    15469    15552    15817    16024    15967    15801    15801 
   15935    16077    16220    16279    16093    15704    15475    15643 
   15962    16179    16395    16579    16441    16012    15638    15498 
   15601    15951    16441    16900    17104    16849    16360    16070 
   15992    15930    15842    15726    15647    15665    15757    15994 
   16403    16744    16787    16515    16073    15720    15584    15483 
   15380    15584    16083    16416    16383    16178    15966    15838 
   15817    15831    15912    16197    16641    16949    16783    16135 
   15402    14976    14963    15195    15473    15801    16222    16609 
   16780    16731    16659    16672    16622    16316    15761    15202 
   14908    14964    15307    15770    16210    16638    16942    16823 
   16332    15854    15574    15520    15680    15878    16056    16344 
   16613    16557    16236    15961    15827    15750    15741    15867 
   16085    16245    16252    16164    16148    16268    16345    16210 
   15940    15672    15465    15361    15398    15614    15967    16266 
   16322    16139    15907    15874    16094    16367    16475    16359 
   16101    15861    15758    15759    15788    15890    16132    16324 
   16244    16004    15863    15913    16073    16179    16147    16028 
   15882    15711    15584    15685    16087    16599    16912    16848 
   16464    16011    15726    15700    15884    16135    16324    16394 
   16291    16002    15635    15333    15269    15527    15913    16236 
   16499    16690    16788    16788    16586    16159    15669    15318 
   15248    15403    15601    15809    16055    16264    16395    16482 
   16472    16279    15915    15527    15333    15472    15889    16322 
   16441    16168    15781    15493    15344    15498    16089    16861 
   17361    17323    16819    16166    15616    15221    15002    15040 
   15280    15545    15785    16063    16413    16783    16970    16798 
   16349    15859    15607    15751    16079    16251    16162    15940 
   15801    15817    15827    15716    15541    15368    15294    15454 
   15882    16447    16857    16877    16584    16256    16069    16020 
   16028    16073    16229    16524    16800    16911    16888    16710 
   16297    15790    15399    15125    14901    14742    14802    15179 
   15650    15994    16290    16615    16843    16841    16683    16578 
   16537    16428    16248    16060    15800    15367    14843    14558 
   14773    15392    16112    16694    17026    17109    17026    16803 
   16411    15928    15593    15553    15631    15593    15492    15508 
   15727    16124    16571    16854    16872    16748    16587    16248 
   15723    15357    15287    15249    15147    15192    15546    16120 
   16699    17126    17221    16896    16410    16024    15601    15115 
   14898    15086    15461    15830    16217    16737    17273    17446 
   17084    16390    15711    15323    15199    15174    15340    15758 
   16156    16290    16243    16254    16348    16254    15805    15255 
   15007    15198    15681    16229    16668    16857    16690    16255 
   15897    15916    16267    16603    16594    16303    16096    16070 
   16027    15946    15948    15950    15831    15654    15499    15411 
   15379    15333    15364    15676    16231    16760    17034    16961 
   16605    16136    15742    15658    16058    16686    17042    17019 
   16835    16517    15969    15309    14771    14465    14304    14195 
   14343    15075    16260    17390    18135    18407    18092    17212 
   16097    15155    14667    14744    15217    15820    16434    16885 
   16920    16513    15846    15155    14710    14651    14886    15365 
   16148    17103    17841    18071    17844    17294    16357    15140 
   14149    13765    13921    14482    15435    16582    17514    18013 
   18077    17639    16708    15647    14891    14616    14715    14914 
   15079    15327    15773    16368    16961    17362    17420    17068 
   16370    15579    15052    14947    15156    15572    16151    16818 
   17424    17713    17505    16912    16194    15507    14947    14662 
   14747    15022    15237    15489    16002    16684    17226    17351 
   17001    16443    16027    15834    15723    15615    15579    15591 
   15515    15398    15408    15545    15734    15923    16032    16154 
   16375    16497    16416    16326    16324    16326    16309    16348 
   16459    16483    16333    16125    15890    15573    15330    15295 
   15361    15488    15711    15917    16081    16303    16542    16665 
   16613    16330    15884    15580    15692    16113    16484    16526 
   16190    15623    15080    14867    15190    15931    16762    17389 
   17543    17138    16424    15682    15079    14779    14820    15094 
   15533    16033    16510    16937    17151    17051    16825    16630 
   16355    15817    15125    14674    14701    15172    15928    16656 
   17051    16985    16432    15631    15071    15052    15503    16087 
   16457    16563    16534    16376    16125    15932    15832    15789 
   15811    15880    15986    16108    16146    16089    16102    16200 
   16141    15842    15537    15422    15488    15716    16069    16426 
   16700    16802    16708    16603    16582    16514    16316    16035 
   15790    15680    15678    15754    15923    16144    16313    16347 
   16200    15867    15458    15071    14774    14709    14932    15288 
   15712    16255    16823    17158    17073    16717    16418    16232 
   16082    16063    16191    16328    16367    16268    16093    15985 
   15981    15971    15878    15826    15935    16069    16011    15761 
   15539    15553    15780    16085    16349    16424    16309    16235 
   16278    16236    15944    15475    15057    14878    15018    15507 
   16241    16931    17350    17447    17209    16668    15954    15222 
   14696    14589    14895    15480    16231    16914    17211    17049 
   16699    16486    16455    16374    16105    15755    15395    15034 
   14836    14991    15477    16050    16482    16733    16821    16700 
   16413    16125    16015    16151    16368    16376    16101    15708 
   15342    15055    14944    15128    15593    16143    16514    16568 
   16398    16189    16024    15916    15942    16181    16511    16650 
   16447    15997    15523    15250    15253    15477    15908    16511 
   17046    17227    16993    16536    16092    15727    15414    15272 
   15433    15730    15939    16059    16140    16171    16160    16083 
   15913    15753    15753    15939    16287    16727    17022    17000 
   16745    16345    15920    15712    15699    15627    15500    15516 
   15695    15931    16168    16378    16463    16321    16016    15758 
   15723    15911    16112    16171    16187    16245    16286    16263 
   16121    15805    15411    15072    14852    14812    15014    15472 
   16075    16617    16958    17099    17104    17043    16866    16482 
   15998    15604    15329    15190    15244    15435    15672    15928 
   16194    16421    16563    16571    16380    16065    15835    15759 
   15778    15896    16135    16447    16695    16733    16600    16457 
   16302    16055    15762    15503    15310    15210    15232    15412 
   15762    16148    16368    16283    15944    15606    15522    15723 
   16047    16297    16428    16563    16725    16796    16721    16471 
   16047    15596    15288    15230    15503    15975    16285    16260 
   16106    16073    16154    16210    16206    16214    16245    16262 
   16308    16436    16537    16409    15986    15493    15226    15215 
   15298    15449    15738    16075    16270    16252    16133    16065 
   16083    16098    16067    16009    15909    15803    15758    15799 
   15935    16101    16170    16106    16017    16055    16267    16528 
   16695    16711    16576    16339    16075    15878    15811    15827 
   15849    15870    15834    15681    15549    15624    15855    16048 
   16116    16109    16056    15890    15603    15319    15186    15342 
   15854    16559    17192    17604    17729    17547    17109    16530 
   15973    15583    15319    15045    14794    14702    14760    14848 
   14991    15354    15855    16135    16148    16271    16684    17204 
   17594    17744    17660    17354    16787    16044    15377    15018 
   15024    15253    15489    15611    15624    15612    15589    15453 
   15190    14948    14926    15295    16069    16995    17706    17945 
   17643    16981    16302    15830    15607    15662    15893    16066 
   16133    16229    16335    16306    16128    15905    15708    15558 
   15446    15342    15323    15496    15758    15911    15912    15811 
   15628    15437    15395    15539    15723    15835    15889    15971 
   16201    16582    16953    17136    17057    16800    16525    16306 
   16162    16078    16027    16013    16020    16001    15986    16035 
   16173    16366    16465    16332    16031    15731    15488    15353 
   15429    15622    15724    15709    15647    15561    15530    15664 
   15971    16394    16780    16935    16799    16487    16148    15854 
   15618    15493    15554    15780    16074    16309    16397    16356 
   16303    16308    16302    16186    16021    15971    16055    16144 
   16160    16146    16150    16129    15971    15643    15241    14962 
