Origin Time       2024/06/23 22:54:00
Lat.              35.645
Long.             140.060
Depth. (km)       72
Mag.              4.1
Station Code      CHB009
Station Lat.      35.5871
Station Long.     140.2378
Station Height(m) 41
Record Time       2024/06/23 22:54:45
Sampling Freq(Hz) 100Hz
Duration Time(s)  60
Dir.              E-W
Scale Factor      7845(gal)/8223790
Max. Acc. (gal)   25.701
Last Correction   2024/06/23 22:54:45
Memo.             
[...]
    7373     7372     7368     7362     7364     7368     7372     7373 
    7372     7371     7368     7371     7371     7371     7371     7368 
    7368     7371     7371     7368     7369     7368     7365     7368 
    7369     7368     7371     7373     7373     7377     7375     7366 
    7369     7371     7368     7372     7375     7368     7366     7372 
    7375     7372     7368     7366     7368     7372     7376     7375 
    7369     7364     7366     7371     7371     7369     7368     7369 
    7372     7373     7375     7371     7368     7371     7372     7372 
    7369     7368     7368     7368     7369     7369     7372     7373 
    7373     7375     7375     7369     7364     7364     7369     7372 
    7368     7368     7372     7372     7368     7372     7377     7372 
    7366     7368     7369     7371     7368     7362     7365     7368 
    7369     7375     7379     7373     7369     7368     7369     7371 
    7371     7371     7372     7371     7368     7368     7368     7369 
    7373     7376     7376     7377     7372     7365     7365     7365 
    7366     7373     7376     7376     7373     7369     7368     7371 
    7373     7375     7373     7371     7368     7368     7369     7368 
    7368     7372     7373     7376     7375     7371     7371     7373 
    7368     7368     7371     7366     7369     7376     7372     7369 
    7372     7369     7369     7369     7369     7373     7372     7369 
    7372     7372     7372     7376     7373     7368     7365     7366 
    7371     7375     7375     7371     7372     7373     7372     7372 
    7375     7375     7375     7371     7369     7373     7375     7373 
    7376     7377     7376     7376     7375     7372     7372     7371 
    7366     7371     7376     7372     7369     7373     7375     7373 
    7372     7369     7368     7371     7376     7375     7369     7366 
    7368     7375     7380     7379     7373     7369     7373     7377 
    7376     7377     7379     7376     7372     7369     7369     7371 
    7372     7373     7372     7373     7373     7372     7372     7376 
    7379     7379     7376     7373     7372     7372     7375     7377 
    7373     7375     7377     7372     7368     7369     7371     7375 
    7377     7375     7376     7379     7376     7373     7373     7375 
    7377     7376     7376     7375     7371     7368     7369     7371 
    7375     7373     7373     7373     7371     7371     7372     7372 
    7376     7377     7372     7371     7373     7371     7369     7372 
    7372     7373     7376     7379     7376     7372     7372     7371 
    7372     7375     7376     7372     7368     7366     7368     7371 
    7371     7369     7372     7375     7372     7368     7366     7362 
    7364     7372     7372     7372     7377     7372     7369     7375 
    7372     7368     7371     7372     7372     7368     7366     7368 
    7366     7368     7373     7368     7365     7368     7368     7365 
    7365     7369     7372     7371     7369     7371     7369     7369 
    7369     7368     7371     7372     7369     7366     7368     7371 
    7369     7368     7372     7371     7364     7364     7368     7372 
    7371     7373     7375     7371     7368     7368     7365     7365 
    7369     7371     7372     7373     7375     7372     7368     7368 
    7366     7362     7365     7371     7372     7369     7371     7369 
    7365     7365     7365     7366     7372     7375     7369     7366 
    7366     7366     7369     7373     7372     7369     7371     7371 
    7373     7375     7372     7372     7375     7373     7371     7372 
    7373     7375     7372     7369     7369     7366     7365     7368 
    7368     7368     7372     7375     7372     7366     7362     7364 
    7368     7369     7372     7376     7376     7369     7365     7365 
    7366     7369     7372     7376     7376     7377     7377     7376 
    7375     7371     7371     7373     7371     7369     7371     7371 
    7371     7372     7369     7372     7375     7373     7373     7375 
    7369     7362     7364     7368     7371     7373     7376     7375 
    7373     7371     7368     7368     7368     7369     7372     7373 
    7372     7369     7365     7364     7371     7379     7379     7376 
    7373     7371     7368     7368     7369     7371     7372     7373 
    7371     7369     7372     7372     7372     7372     7369     7365 
    7365     7369     7369     7365     7366     7369     7368     7368 
    7372     7372     7369     7369     7368     7365     7366     7368 
    7368     7371     7372     7368     7365     7369     7373     7373 
    7375     7373     7371     7369     7368     7362     7361     7365 
    7368     7371     7371     7366     7361     7361     7361     7362 
    7368     7369     7369     7369     7368     7368     7369     7368 
    7365     7366     7366     7365     7369     7372     7366     7371 
    7380     7375     7357     7345     7346     7368     7381     7383 
    7410     7425     7380     7335     7348     7376     7383     7375 
    7379     7372     7315     7256     7290     7434     7547     7507 
    7391     7308     7238     7175     7219     7407     7592     7623 
    7512     7335     7175     7172     7379     7574     7512     7288 
    7186     7295     7461     7458     7254     7065     7034     7134 
    7393     7761     7989     7901     7539     7110     6883     6952 
    7215     7550     7827     7917     7736     7272     6677     6289 
    6439     7168     8073     8556     8390     7917     7574     7304 
    6740     5967     5686     6396     7769     9020     9553     9202 
    8175     6841     5560     4756     4997     6593     8868    10315 
    9865     7893     5894     5144     5764     7119     8554     9428 
    9231     8017     6511     5692     5913     6562     6945     7117 
    7689     8779     9443     8718     6956     5537     5445     6474 
    7686     8399     8546     8344     7965     7341     6423     5768 
    6073     7211     8363     8810     8472     7778     7117     6648 
    6446     6648     7240     7688     7582     7299     7362     7857 
    8405     8375     7518     6347     5767     6268     7312     7990 
    8090     7927     7682     7400     7214     7303     7484     7323 
    6945     6906     7327     7848     8155     8043     7418     6629 
    6334     6772     7481     7757     7511     7346     7609     7966 
    8004     7693     7238     6763     6408     6459     6947     7607 
    8344     8908     8677     7542     6266     5613     5799     6689 
    7929     8918     9062     8272     7042     6112     6012     6673 
    7597     8280     8391     8023     7589     7291     7010     6655 
    6431     6693     7439     8168     8378     8058     7545     7121 
    6863     6774     6867     7080     7323     7599     7839     7942 
    7924     7716     7294     6924     6795     6847     7003     7265 
    7619     7929     8062     7916     7392     6760     6565     6947 
    7545     7865     7658     7177     6894     6944     7106     7209 
    7304     7402     7441     7510     7703     7979     8183     8040 
    7508     6897     6480     6359     6556     6998     7626     8291 
    8572     8182     7364     6623     6415     6880     7515     7695 
    7495     7402     7530     7612     7476     7304     7333     7415 
    7288     7092     7096     7257     7350     7254     7101     7098 
    7358     7890     8480     8719     8329     7385     6347     5705 
    5611     6097     7119     8294     9066     9161     8704     7902 
    6839     5834     5478     5958     6849     7668     8218     8488 
    8472     8235     7982     7732     7244     6539     6004     5988 
    6457     7105     7746     8167     8167     8002     7952     7890 
    7707     7481     7238     6953     6646     6471     6643     7133 
    7595     7722     7508     7203     7213     7643     8033     8094 
    7958     7557     6867     6284     6245     6809     7595     8307 
    8862     8849     7929     6523     5470     5367     6110     7132 
    8067     8630     8483     7735     7028     6843     7059     7497 
    8249     8893     8525     7161     6037     6014     6640     7138 
    7380     7611     7996     8401     8461     7951     6960     5992 
    5718     6224     7040     7788     8280     8482     8527     8444 
    8125     7593     6886     6111     5674     5904     6708     7711 
    8361     8318     7877     7522     7322     7087     6731     6435 
    6528     7152     8077     8729     8733     8276     7716     7229 
    6837     6558     6466     6554     6759     7101     7523     7789 
    7811     7825     8033     8230     8051     7539     7142     6916 
    6532     6250     6624     7425     8025     8172     7906     7450 
    7084     6880     6678     6457     6710     7769     8957     9294 
    8590     7472     6723     6628     6853     6949     6818     6721 
    6903     7213     7317     7349     7690     8181     8361     8168 
    7746     7215     6785     6590     6642     6993     7572     8004 
    8006     7670     7211     6832     6747     6940     7110     7047 
    6872     6864     7260     8091     8958     9211     8600     7489 
    6548     6278     6604     7022     7223     7333     7465     7412 
    7107     6824     6840     7281     7866     8013     7689     7404 
    7528     8055     8502     8263     7388     6512     6062     6025 
    6320     6891     7477     7788     7734     7469     7335     7561 
    8029     8422     8428     7919     7061     6149     5543     5651 
    6528     7639     8407     8722     8743     8577     8226     7627 
    6820     6166     6129     6791     7699     8232     8108     7577 
    7177     7137     7169     7001     6802     6934     7354     7597 
    7485     7360     7524     7851     7923     7477     6772     6394 
    6678     7435     8183     8519     8341     7811     7300     7196 
    7460     7632     7319     6637     6166     6274     6801     7369 
    7639     7636     7739     7983     8091     8043     7963     7836 
    7566     7052     6334     5664     5391     5796     6820     8048 
    9049     9543     9374     8599     7493     6401     5668     5454 
    5730     6582     7939     9202     9741     9404     8467     7388 
    6505     5985     5972     6462     7074     7180     6578     5887 
    5908     6833     8158     9169     9491     9282     8946     8568 
    7824     6659     5529     4878     4870     5553     6955     8770 
   10180    10420     9416     7661     5922     4949     4996     5813 
    7132     8677     9855     9979     8870     7113     5705     5328 
    5840     6546     7005     7317     7642     7917     8074     8152 
    8037     7553     6925     6696     7180     8168     8889     8594 
    7452     6323     5823     5996     6583     7291     7736     7646 
    7275     7061     7167     7496     7750     7717     7550     7479 
    7597     7875     8097     7966     7360     6601     6362     6909 
    7739     8203     8120     7739     7391     7132     6725     6162 
    5841     6037     6770     7983     9261     9875     9475     8353 
    7060     6012     5486     5593     6092     6639     7183     7886 
    8708     9223     9011     8222     7312     6524     6015     5937 
    6235     6733     7319     7921     8371     8399     8094     7892 
    7812     7533     7105     6824     6790     6831     6729     6601 
    6755     7218     7717     7994     8082     8257     8586     8640 
    7967     6922     6304     6282     6519     6762     6882     6988 
    7349     7898     8217     8066     7612     7142     6810     6790 
    7187     7890     8611     8752     7942     6798     6211     6355 
    6879     7317     7412     7331     7267     7157     6952     6750 
    6737     7115     7840     8622     9138     9131     8568     7665 
    6609     5622     5097     5255     6019     7173     8368     9248 
    9563     9144     8052     6637     5387     4839     5336     6670 
    8186     9266     9684     9568     8988     7975     6936     6359 
    6207     6214     6351     6636     6957     7184     7315     7480 
    7655     7709     7697     7719     7728     7668     7519     7318 
    7182     7231     7533     7983     8220     7881     6991     6038 
    5667     6106     6943     7655     8054     8167     8228     8440 
    8499     8021     7264     6700     6462     6501     6751     7125 
    7506     7782     7956     8000     7701     6979     6211     5888 
    6133     6721     7416     8052     8490     8610     8390     8013 
    7792     7804     7611     6875     6133     6188     7075     8121 
    8581     8229     7534     7030     6794     6625     6354     6019 
    5927     6435     7534     8743     9482     9466     8765     7630 
    6421     5574     5391     5908     6791     7526     7971     8326 
    8714     9148     9363     8880     7673     6332     5562     5625 
    6197     6839     7454     8224     9092     9652     9688     9288 
    8509     7608     7022     6804     6879     7546     8959    10567 
   11481    11215     9904     7967     5806     3897     2775     2566 
    2836     3144     3468     4062     5015     6088     7001     7704 
    8407     9290    10161    10732    11040    11053    10478     9293 
    7662     5420     2290    -1544    -5377    -8248    -9001    -6413 
     -83     8966    18881    27649    33284    34312    30465    22743 
   12889     2755    -5980   -11901   -14162   -12600    -7848    -1155 
    6427    13914    20079    24030    24823    21621    14998     6539 
   -1814    -7530    -8515    -4399     3323    11873    18453    21347 
   20212    15993    10262     4473      -45    -2026     -951     2087 
    5012     6409     6266     5562     5464     6679     9069    11745 
   13706    14295    13165    10519     7337     4822     3632     3639 
    4244     4999     5544     5485     5007     4800     5374     6816 
    8826    10872    12329    12515    11102     8452     5331     2577 
    1107     1721     4432     8112    11273    12987    13005    11605 
    9367     7113     5710     5539     6345     7317     7518     6694 
    5456     4716     4965     6131     8058    10408    12279    12727 
   11403     8607     5128     1953       -9     -151     1306     3469 
    5780     7987     9798    11408    13234    15041    16077    15739 
   13936    10844     6789     2412    -1458    -4090    -4943    -3535 
     305     5945    12047    17096    19845    19634    16672    12118 
    7434     3599     1135      148      209      935     2253     4118 
    6554     9324    11585    12575    12272    11052     9331     7476 
    5779     4793     5089     6419     7932     8953     9227     8896 
    8236     7376     6347     5292     4564     4591     5557     7186 
    8837     9734     9331     7886     6339     5571     5926     7020 
    8071     8653     8854     8904     8999     9019     8498     7469 
    6673     6492     6620     6621     6168     5390     5076     6000 
    8164    10701    12264    11924     9926     7335     5194     4060 
    3824     4050     4536     5211     5876     6376     6789     7425 
    8556    10069    11348    11520    10172     7992     6197     5432 
    5485     5794     6104     6660     7696     8899     9602     9386 
    8422     7258     6377     5933     5767     5697     5787     6281 
    7268     8449     9244     9209     8460     7491     6643     6173 
    6328     6960     7588     7816     7504     6851     6309     6223 
    6710     7669     8766     9667    10093     9780     8645     6990 
    5518     4853     5051     5794     6785     7836     8689     8961 
    8494     7564     6675     6261     6428     6956     7504     7778 
    7676     7353     7044     6856     6705     6544     6536     6756 
    7057     7350     7609     7873     8370     9134     9782     9868 
    9135     7605     5786     4460     4074     4548     5652     7173 
    8712     9701     9844     9378     8714     8068     7512     6991 
    6421     6011     6104     6681     7246     7310     6891     6295 
    5674     5157     4976     5436     6787     8822    10804    12064 
   12339    11622    10176     8490     6945     5633     4530     3819 
    3828     4630     5931     7395     8895    10307    11188    11010 
    9730     7866     6052     4753     4232     4545     5535     6832 
    8025     8800     9055     8915     8502     7847     6972     5968 
    5152     4968     5458     6153     6527     6413     6135     6207 
    6791     7603     8272     8733     9220     9794    10189    10193 
    9826     9270     8743     8336     7900     7273     6604     6278 
    6466     6832     6889     6443     5611     4812     4548     4931 
    5728     6675     7722     8969    10316    11330    11569    10962 
    9830     8573     7357     6093     4789     3767     3365     3586 
    4167     4860     5684     6750     7859     8677     9115     9173 
    8764     7916     6858     5952     5525     5606     5961     6390 
    6903     7669     8772     9998    10994    11535    11461    10629 
    9136     7389     5991     5297     5090     4969     4777     4673 
    4981     5863     7175     8519     9381     9578     9451     9279 
    8937     8255     7275     6158     5103     4407     4496     5555 
    7252     8981    10224    10640    10085     8761     7245     6188 
    5867     6139     6704     7292     7684     7740     7496     7068 
    6561     6111     5945     6268     7003     7817     8403     8586 
    8276     7653     7180     7230     7732     8253     8388     8031 
    7362     6860     6993     7773     8799     9520     9514     8669 
    7157     5421     4062     3403     3314     3551     4099     5104 
    6589     8397    10238    11646    12179    11784    10752     9479 
    8332     7528     7018     6551     5921     5174     4627     4606 
    5216     6318     7508     8221     8201     7766     7356     7118 
    6939     6690     6517     6747     7581     8899    10196    10879 
   10689     9751     8384     6890     5472     4348     3754     3781 
    4305     5085     6027     7226     8702    10170    11182    11399 
   10689     9231     7578     6251     5429     5084     5123     5481 
    6151     7042     7954     8599     8715     8386     8031     8036 
    8433     8802     8652     7902     6825     5790     5167     5179 
    5717     6378     6775     6841     6789     6916     7474     8375 
    9138     9362     9072     8586     8171     7844     7569     7402 
    7314     7132     6655     5853     5000     4580     4911     5819 
    6821     7604     8167     8637     9051     9271     9131     8681 
    8176     7821     7654     7593     7504     7280     6928     6520 
    6127     5795     5517     5304     5271     5530     6122     7053 
    8252     9540    10686    11427    11465    10681     9327     7879 
    6736     6079     5806     5664     5497     5341     5364     5692 
    6274     6953     7592     8128     8510     8662     8598     8422 
    8167     7793     7322     6862     6592     6727     7276     7923 
    8278     8181     7728     7159     6731     6609     6732     6817 
