Origin Time       2024/06/23 22:54:00
Lat.              35.645
Long.             140.060
Depth. (km)       72
Mag.              4.1
Station Code      CHB003
Station Lat.      35.7926
Station Long.     140.0577
Station Height(m) 21
Record Time       2024/06/23 22:54:36
Sampling Freq(Hz) 100Hz
Duration Time(s)  62
Dir.              U-D
Scale Factor      7845(gal)/8223790
Max. Acc. (gal)   14.817
Last Correction   2024/06/23 22:54:36
Memo.             
[...]
   14000    14002    14007    14011    14010    14006    14002    14002 
   14006    14010    14014    14015    14015    14013    14004    13999 
   14000    14002    14000    13996    13998    14002    14007    14013 
   14013    14007    14004    14004    14000    13999    14006    14011 
   14014    14011    14006    14000    13998    13996    13998    14003 
   14010    14018    14019    14014    14011    14010    14008    14010 
   14008    14007    14008    14008    14002    13994    13998    14008 
   14015    14013    14007    14002    14002    14004    14007    14010 
   14008    14003    13998    13998    14004    14013    14013    14010 
   14006    14003    14002    14000    14006    14013    14013    14007 
   14002    13996    14000    14008    14013    14014    14013    14003 
   13999    14002    14002    14003    14007    14008    14008    14004 
   14004    14007    14003    13999    14002    14007    14007    14007 
   14006    14002    14002    14006    14006    14010    14015    14011 
   14004    14002    14002    14006    14011    14010    14008    14003 
   13996    13995    13998    14004    14010    14008    14004    14000 
   13998    14006    14015    14010    14006    14007    13998    13994 
   14002    14000    13996    13999    14002    14000    14003    14013 
   14018    14015    14015    14015    14002    13988    13987    13995 
   14006    14008    13999    13995    14000    14004    14007    14011 
   14013    14014    14013    14004    14002    14003    14002    13999 
   13999    14000    14003    14003    14000    14002    14008    14013 
   14013    14011    14003    13998    13999    14002    14003    14008 
   14013    14007    13999    13998    13994    13994    14002    14008 
   14011    14010    14004    13999    14002    14003    13998    14000 
   14007    14008    14007    14003    14000    13998    13995    13994 
   14000    14008    14013    14011    14011    14008    14004    14004 
   14008    14008    14004    13995    13991    13996    14002    14003 
   14003    14004    14011    14011    14000    13996    14003    14007 
   14010    14014    14011    14006    14000    13996    13995    13998 
   14004    14008    14007    14004    14007    14011    14013    14014 
   14013    14008    14007    14000    13991    13988    13991    13995 
   14002    14008    14008    14003    14000    14007    14017    14017 
   14010    14004    14002    14000    14000    14006    14003    13996 
   13999    14006    14006    14004    14002    14006    14015    14017 
   14010    14004    14000    13999    13999    13996    13996    14002 
   14006    14006    14004    14003    14004    14010    14010    14007 
   14006    14007    14006    14002    13999    14002    14004    14003 
   14000    14000    14007    14015    14017    14011    14008    14008 
   14007    14004    14008    14008    14004    14002    14006    14002 
   13995    13995    14000    14007    14013    14015    14017    14014 
   14008    14007    14008    14004    14006    14007    13999    13996 
   13996    13996    14002    14013    14019    14017    14010    14013 
   14013    14004    14002    14006    14007    14003    13999    13999 
   14003    14008    14011    14008    14002    14004    14010    14007 
   14004    14007    14011    14013    14011    14006    14004    14002 
   13999    14004    14008    14011    14018    14017    14008    14008 
   14007    14000    13999    14002    14004    14008    14007    14006 
   14006    14004    14002    14002    14004    14003    13998    13999 
   14007    14011    14013    14008    14006    14011    14013    14004 
   14004    14010    14010    14007    14004    14000    14002    14002 
   14000    14002    14003    14002    14004    14008    14013    14014 
   14013    14007    13999    13995    13994    13994    13998    14010 
   14014    14010    14010    14006    14003    14006    14007    14007 
   14011    14011    14004    13996    13992    13996    14002    14003 
   14006    14010    14013    14014    14013    14006    14002    14000 
   14000    14000    13995    13987    13987    13991    13999    14007 
   14014    14025    14026    14017    14007    14004    14004    14006 
   14002    13995    13988    13981    13980    13987    13998    14011 
   14018    14018    14021    14026    14017    14007    14007    14000 
   13986    13972    13976    13999    14010    14002    14002    14010 
   14011    14008    14004    14007    14007    13998    13992    14000 
   14004    14006    14010    14010    14004    13999    14002    14010 
   14006    13996    13996    14003    14006    13998    13994    13999 
   14000    13999    14006    14017    14023    14015    13999    13992 
   13995    13995    13996    13999    13999    14002    14002    13999 
   14004    14018    14022    14011    13999    13999    14002    13996 
   13994    14000    14008    14011    14003    13995    13998    14003 
   14002    14002    14006    14004    14010    14019    14011    13999 
   13995    13992    13998    14018    14022    13992    13975    14000 
   14041    14040    13998    13971    13990    14021    14025    14006 
   13977    13960    13996    14058    14068    14025    13977    13960 
   13980    14006    14010    14003    13996    13992    14011    14037 
   14045    14048    14033    13980    13940    13971    14023    14019 
   13967    13953    14019    14084    14065    13995    13946    13954 
   14030    14102    14073    13977    13927    13954    13995    14015 
   14025    14021    13999    13990    14017    14042    14027    14003 
   14007    14007    13979    13963    13995    14033    14030    14006 
   14013    14037    14027    13990    13972    13992    14023    14021 
   13994    13979    13990    14011    14031    14042    14046    14034 
   13999    13967    13964    13983    14010    14027    14023    14013 
   14006    14000    13998    14000    14002    14004    14013    14021 
   14023    14018    14014    14021    14022    13998    13965    13957 
   13975    14000    14026    14046    14053    14045    14025    13994 
   13973    13979    13998    14010    14011    14006    13998    13990 
   13994    14003    14006    14013    14021    14015    14011    14015 
   14019    14018    14010    13994    13980    13976    13983    14000 
   14013    14018    14027    14031    14023    14011    14002    13998 
   14003    14008    14008    14007    14003    13996    13991    13983 
   13980    13991    14006    14018    14029    14026    14019    14018 
   14013    14004    13998    13988    13986    13991    14000    14011 
   14010    13994    13986    13996    14014    14022    14023    14021 
   14018    14017    14007    13996    13986    13977    13981    13995 
   14008    14015    14010    14000    13998    14000    14004    14011 
   14013    14011    14011    14011    14011    14010    14003    13996 
   13994    13992    13998    14006    14008    14006    14007    14010 
   14006    14000    14003    14014    14017    14008    14003    13995 
   13988    13990    13995    14000    14007    14008    14004    14002 
   14010    14019    14013    13996    13994    14003    14010    14010 
   14004    13995    13991    13994    14000    14008    14004    13998 
   14011    14027    14017    14003    14004    14006    14000    13995 
   13994    13999    13996    13992    14000    14007    14013    14023 
   14019    13988    13973    13995    14021    14027    14019    14010 
   14006    14000    13986    13979    13987    14000    14019    14035 
   14037    14026    14002    13975    13969    13986    13999    14006 
   14013    14015    14007    14003    14022    14049    14048    13998 
   13954    13965    13984    13992    14013    14030    14031    14018 
   13998    13995    14010    14014    14015    14025    14025    14008 
   13992    13975    13965    13987    14023    14033    14018    13998 
   13988    13998    14017    14037    14045    14019    13971    13946 
   13969    14003    14029    14053    14053    14033    14010    13987 
   13976    13986    14000    14011    14008    14000    14003    14013 
   14015    14014    14018    14018    14004    13992    13984    13991 
   14017    14025    14010    14000    13991    13984    14000    14010 
   14014    14025    14023    14019    14015    13998    13983    13987 
   13999    14008    14004    13995    14002    14023    14033    14025 
   14010    13995    13991    13998    14004    14010    14002    13996 
   14011    14017    14007    13996    13991    14002    14013    14007 
   14004    14013    14021    14027    14023    14002    13991    13998 
   13996    13992    13999    13999    14003    14017    14018    14010 
   14000    13995    14006    14018    14018    14019    14013    14002 
   14003    14000    13987    13986    13995    13996    13999    14008 
   14017    14023    14025    14022    14021    14010    13991    13981 
   13977    13980    13984    13988    14010    14038    14038    14026 
   14019    14013    14014    14007    13988    13984    13992    13995 
   14000    14010    14017    14011    13991    13981    13986    13992 
   14004    14025    14042    14049    14027    13998    13994    13992 
   13992    13995    13983    13976    13987    13994    14015    14046 
   14040    14018    13995    13967    13976    14007    14015    14022 
   14021    14004    13999    13994    13992    14011    14010    13984 
   13999    14035    14031    14010    13996    13973    13971    13995 
   14003    14015    14037    14004    13981    14014    14003    13998 
   14037    14021    13987    13992    13980    13971    13996    14025 
   14046    14058    14037    13984    13930    13925    13984    14040 
   14038    14021    14007    13995    14014    14045    14025    14000 
   14002    13963    13952    13992    13988    14015    14077    14048 
   13987    13980    14000    14013    13998    13996    14021    14025 
   14003    13971    13946    13975    14038    14060    14040    14027 
   14026    14002    13975    13983    14004    14004    13992    13987 
   13986    13988    13999    14018    14033    14037    14031    14018 
   14007    13987    13971    13991    14013    14008    14003    13996 
   13999    14017    14022    14019    14015    13998    13987    13991 
   13994    14007    14017    14006    14003    14010    14011    14008 
   14002    14000    14000    14002    14011    14013    14008    14017 
   14023    14006    13988    13998    14013    14006    13995    13994 
   13990    13998    14022    14025    14007    14000    14004    14010 
   14008    14002    14002    14008    14006    13988    13975    13990 
   14015    14027    14021    14003    14010    14033    14033    14008 
   13991    13981    13968    13971    14006    14026    14017    14025 
   14044    14034    14002    13976    13976    13995    13999    13986 
   13998    14037    14057    14034    13988    13954    13964    13998 
   14011    14011    14017    14015    13999    13987    13999    14033 
   14050    14021    13969    13952    13979    14025    14053    14026 
   13976    13968    13991    13999    13996    14007    14035    14067 
   14064    14015    13981    13992    13975    13914    13906    13987 
   14079    14083    14021    14008    14050    14045    13984    13952 
   13981    14014    14004    13973    13952    13971    14019    14056 
   14060    14034    14014    14040    14061    14014    13925    13886 
   13929    14002    14052    14062    14058    14041    13998    13973 
   13999    14027    14022    14000    13994    14002    13996    13979 
   13963    13972    14018    14060    14072    14058    14026    14000 
   13980    13945    13933    13977    14037    14052    14019    13987 
   13983    14004    14027    14037    14034    14019    13987    13959 
   13969    14004    14029    14037    14026    14003    13986    13976 
   13977    14000    14029    14038    14025    14007    13990    13979 
   13991    14018    14033    14019    13999    14002    14017    14007 
   13984    13979    13987    13996    14017    14029    14027    14023 
   14013    13999    14000    14002    13994    13992    13998    14004 
   14014    14017    14006    13990    13990    14017    14034    14010 
   13987    14003    14017    13998    13973    13977    14008    14038 
   14038    14007    13987    13996    14006    14006    14002    13991 
   13992    14008    14007    14000    14004    14007    14007    14011 
   14007    14006    14019    14023    14011    13992    13980    13983 
   13995    14004    14006    14004    14002    14000    14006    14021 
   14030    14021    13999    13981    13991    14013    14010    13996 
   13998    14002    14003    14000    13999    14010    14018    14017 
   14008    13998    13998    14003    13994    13980    13994    14025 
   14034    14021    14003    13996    14000    14002    14000    14006 
   14011    14013    14003    13988    13990    14006    14019    14029 
   14061    14129    14216    14297    14354    14374    14359    14265 
   14007    13659    13373    13151    12980    12972    13282    13952 
   14650    15057    15427    15723    15342    14550    13995    13370 
   12951    13587    14192    13576    12737    12317    12171    13134 
   15098    16241    15917    14704    12538     9979     9132    11557 
   16433    20875    22134    19442    13678     7123     3582     5869 
   12800    20540    25498    24880    17872     7715      373      193 
    7237    18060    27224    29538    23809    13586     4020     -355 
    2648    10918    19872    25686    25809    20385    13024     6933 
    3676     4966    10147    15697    19865    22549    22252    18314 
   12861     7975     5054     6014    11036    17539    22408    23360 
   19799    13478     7531     4698     6095    10835    16600    20993 
   22326    19970    15049    10039     7348     8083    11244    14766 
   17528    18948    18060    15171    12241    10513    10139    11483 
   14283    16816    17625    16632    14293    11785    10968    12181 
   13896    15026    15298    14499    13328    13020    13558    14382 
   15603    16390    15074    12521    11437    12159    13369    14990 
   16808    16962    14563    11754    10898    11816    13532    15560 
   16754    16221    14706    13323    12414    12135    12598    13545 
   14490    14859    14507    14187    14550    15111    14978    14139 
   13213    12406    12067    12974    14767    15973    15917    15003 
   13570    11993    11341    12355    14454    16452    17269    16407 
   14492    12653    11639    11800    13142    14935    16082    16075 
   15028    13455    12108    11611    12282    13643    14918    15869 
   15992    14845    13356    12654    12684    13153    14048    14824 
   14958    14710    14191    13454    13207    13599    13921    14134 
   14616    14871    14380    13635    13169    13000    13208    13807 
   14478    14980    15280    15152    14357    13269    12465    12133 
   12437    13446    14797    15984    16325    15391    13923    12885 
   12341    12498    13636    14943    15668    15959    15511    13802 
   11804    11144    11828    12980    14540    16158    16696    15986 
   14743    13248    11939    11811    12995    14593    15935    16583 
   16133    14624    12604    11076    10858    11824    13424    15206 
   16502    16600    15427    13629    12253    12028    12738    13844 
   15024    15931    16197    15429    13815    12442    11843    11743 
   12553    14539    16221    16341    15449    14010    12060    10717 
   11269    13412    15730    17178    17338    15911    13221    11029 
   11007    12579    14332    15955    16870    16016    14046    12579 
   11934    12063    13329    14940    15653    15634    15376    14638 
   13471    12557    12321    12717    13572    14681    15645    15757 
   14836    13648    12483    11253    10889    12388    15115    17262 
   17761    16858    15014    12633    10808    10770    12299    14156 
   15564    16017    15367    14265    13246    12424    12194    12980 
   14372    15457    15658    14989    14179    13984    14079    13629 
   12943    13201    14168    14609    14701    15191    15514    14674 
   13132    12282    12280    12556    13366    14719    15750    16074 
   15931    15022    12951    10746    10270    11917    14157    15831 
   16893    16772    15161    13186    11724    11153    12222    14697 
   16675    16735    15535    14334    13306    12270    11735    12241 
   13618    15286    16202    15635    14469    13541    12384    11557 
   12472    14418    15904    16904    16729    14359    11603    10833 
   11677    13068    14939    16560    16634    15071    12916    11549 
   11777    13136    14882    16599    17289    16055    13747    11927 
   11292    11990    13695    15461    16313    15768    14305    12888 
   11875    11418    12074    13932    15819    16762    17109    16837 
   15175    12603    10832    10535    11206    12919    15275    16513 
   16066    14755    13032    11587    11564    13086    14991    16367 
   17101    16738    14729    12121    10743    10979    12556    14974 
   16341    16016    15448    14381    12475    12010    13428    14436 
   14906    15731    15803    14683    13705    13329    13031    12847 
   13053    13286    13099    12930    13568    14719    15392    15329 
   14964    14656    14268    13644    13293    13464    13670    13668 
   13635    13657    13668    13711    13903    14289    14812    14953 
   14446    13913    13686    13617    13753    13965    13913    13626 
   13602    14137    14862    15120    14716    14037    13298    12696 
   12977    14277    15476    15780    15449    14651    13378    12121 
   11623    12213    13356    14257    14708    14719    14337    14045 
   14315    14848    15051    14812    14301    13795    13400    13009 
   12951    13417    13864    14170    14682    14970    14558    13992 
   13743    13510    13151    13209    14119    15122    15084    14318 
   13716    13041    12258    12507    13838    14808    14998    15083 
   15024    14488    13963    13946    14121    14017    13729    13721 
   14081    14369    14504    14755    14592    13448    12217    11993 
   12768    14153    15526    16102    15615    14365    12970    12059 
   12070    13108    14619    15769    16040    15182    13396    11812 
   11597    12565    14058    15930    17348    17088    15390    13374 
   11637    10712    11314    13331    15498    16529    16085    14670 
   13096    11986    11763    12676    14249    15514    16177    16308 
   15385    13440    11967    11983    12891    13896    14659    14974 
   14944    14692    14077    13373    13308    13950    14550    14652 
   14368    13775    13130    13108    13765    14222    14200    14115 
   13734    12953    12499    12795    13694    14866    15904    16518 
   16248    14812    12907    11647    11612    12650    14161    15545 
   16144    15449    14129    13362    13031    12680    12922    14023 
   15121    15492    15206    14686    14145    13404    12563    12302 
   12730    13269    13938    14918    15507    15192    14629    14266 
   13678    13149    13424    14071    14291    14266    14364    14133 
   13458    13335    13998    14593    14889    14854    14152    13359 
