Origin Time       2024/06/23 22:54:00
Lat.              35.645
Long.             140.060
Depth. (km)       72
Mag.              4.1
Station Code      CHB003
Station Lat.      35.7926
Station Long.     140.0577
Station Height(m) 21
Record Time       2024/06/23 22:54:36
Sampling Freq(Hz) 100Hz
Duration Time(s)  62
Dir.              E-W
Scale Factor      7845(gal)/8223790
Max. Acc. (gal)   17.260
Last Correction   2024/06/23 22:54:36
Memo.             
[...]
   -9906    -9909    -9921    -9940    -9949    -9945    -9938    -9936 
   -9929    -9923    -9938    -9949    -9942    -9938    -9925    -9925 
   -9948    -9942    -9925    -9933    -9945    -9944    -9923    -9917 
   -9936    -9945    -9948    -9949    -9934    -9917    -9917    -9938 
   -9952    -9936    -9917    -9915    -9922    -9933    -9937    -9933 
   -9931    -9950    -9971    -9954    -9937    -9942    -9933    -9930 
   -9931    -9913    -9915    -9944    -9948    -9940    -9936    -9927 
   -9930    -9933    -9925    -9933    -9929    -9910    -9936    -9961 
   -9941    -9933    -9946    -9945    -9940    -9937    -9927    -9931 
   -9944    -9945    -9941    -9927    -9923    -9940    -9934    -9918 
   -9926    -9934    -9944    -9960    -9948    -9936    -9941    -9938 
   -9930    -9919    -9921    -9942    -9940    -9922    -9936    -9944 
   -9936    -9946    -9944    -9922    -9921    -9925    -9930    -9942 
   -9944    -9952    -9964    -9949    -9937    -9930    -9906    -9914 
   -9938    -9937    -9941    -9945    -9923    -9926    -9953    -9958 
   -9946    -9929    -9919    -9927    -9930    -9938    -9958    -9946 
   -9921    -9922    -9923    -9918    -9925    -9927    -9921    -9930 
   -9950    -9953    -9942    -9940    -9941    -9940    -9938    -9940 
   -9934    -9929    -9940    -9944    -9945    -9953    -9936    -9910 
   -9910    -9926    -9953    -9938    -9880    -9906    -9968    -9938 
   -9936    -9996    -9941    -9876    -9956    -9969    -9884    -9904 
   -9969    -9967    -9949    -9934    -9919    -9914    -9918    -9934 
   -9944    -9945    -9950    -9948    -9933    -9922    -9938    -9949 
   -9929    -9906    -9891    -9910    -9958    -9957    -9927    -9934 
   -9913    -9899    -9961    -9965    -9894    -9895    -9948    -9961 
   -9938    -9914    -9921    -9941    -9940    -9941    -9950    -9953 
   -9948    -9933    -9917    -9906    -9911    -9925    -9921    -9925 
   -9949    -9950    -9931    -9921    -9915    -9922    -9946    -9958 
   -9945    -9926    -9911    -9907    -9922    -9941    -9938    -9922 
   -9925    -9937    -9944    -9952    -9949    -9934    -9927    -9925 
   -9923    -9923    -9923    -9929    -9936    -9936    -9938    -9933 
   -9917    -9918    -9929    -9934    -9940    -9938    -9929    -9921 
   -9919    -9933    -9948    -9944    -9931    -9925    -9925    -9936 
   -9941    -9940    -9940    -9934    -9926    -9918    -9921    -9938 
   -9944    -9931    -9927    -9931    -9937    -9941    -9936    -9931 
   -9927    -9923    -9936    -9950    -9946    -9936    -9930    -9927 
   -9926    -9925    -9931    -9937    -9931    -9925    -9922    -9929 
   -9942    -9942    -9933    -9925    -9927    -9941    -9936    -9922 
   -9929    -9942    -9952    -9938    -9911    -9917    -9942    -9950 
   -9942    -9927    -9921    -9930    -9938    -9938    -9934    -9937 
   -9944    -9934    -9923    -9933    -9945    -9942    -9917    -9902 
   -9929    -9960    -9961    -9931    -9886    -9882    -9944    -9992 
   -9968    -9926    -9937    -9972    -9968    -9931    -9906    -9914 
   -9937    -9936    -9922    -9925    -9948    -9946    -9904    -9892 
   -9934    -9956    -9913    -9864    -9904    -9995   -10011    -9971 
   -9927    -9922    -9968    -9994    -9953    -9886    -9852    -9895 
   -9956    -9948    -9904    -9890    -9926    -9983   -10004    -9975 
   -9922    -9890    -9884    -9895    -9944    -9988    -9960    -9899 
   -9884    -9936    -9984    -9977    -9933    -9903    -9933    -9972 
   -9949    -9909    -9892    -9898    -9926    -9942    -9937    -9940 
   -9948    -9958    -9952    -9933    -9927    -9922    -9921    -9926 
   -9927    -9938    -9941    -9927    -9919    -9918    -9934    -9949 
   -9942    -9931    -9927    -9933    -9934    -9926    -9923    -9918 
   -9917    -9929    -9940    -9949    -9948    -9930    -9917    -9919 
   -9937    -9945    -9946    -9942    -9919    -9913    -9936    -9956 
   -9941    -9909    -9907    -9923    -9927    -9933    -9940    -9937 
   -9921    -9919    -9952    -9964    -9944    -9927    -9919    -9910 
   -9910    -9933    -9952    -9941    -9926    -9921    -9930    -9946 
   -9938    -9927    -9940    -9946    -9923    -9910    -9933    -9948 
   -9933    -9922    -9925    -9927    -9917    -9929    -9957    -9941 
   -9915    -9933    -9946    -9925    -9913    -9948    -9968    -9944 
   -9919    -9917    -9933    -9945    -9940    -9933    -9927    -9923 
   -9926    -9937    -9938    -9930    -9926    -9926    -9931    -9942 
   -9944    -9934    -9934    -9942    -9946    -9950    -9944    -9921 
   -9915    -9934    -9945    -9938    -9925    -9922    -9926    -9929 
   -9937    -9945    -9941    -9936    -9946    -9952    -9931    -9918 
   -9922    -9927    -9929    -9923    -9925    -9934    -9940    -9937 
   -9936    -9941    -9941    -9936    -9936    -9937    -9938    -9937 
   -9931    -9929    -9926    -9927    -9927    -9926    -9936    -9952 
   -9954    -9941    -9941    -9958    -9958    -9946    -9936    -9940 
   -9942    -9887    -9848    -9907    -9922    -9869    -9930   -10023 
   -9977    -9969   -10019    -9886    -9783    -9934   -10031    -9992 
  -10038   -10076   -10014   -10042   -10050    -9709    -9323    -9458 
   -9942   -10238   -10199    -9919    -9532    -9317    -9593   -10347 
  -11161   -11437   -10879    -9772    -8596    -7852    -8222    -9791 
  -11574   -12523   -12070   -10197    -7975    -6799    -7121    -8876 
  -11583   -13609   -13401   -11178    -8336    -6367    -6566    -8980 
  -11898   -13579   -13250   -10808    -7670    -6230    -7204    -9432 
  -11580   -12549   -11704    -9678    -8118    -8174    -9606   -11317 
  -12071   -11272    -9579    -8186    -7847    -8885   -10835   -12289 
  -12144   -10515    -8395    -7186    -7755    -9571   -11303   -11890 
  -11183    -9956    -9103    -8986    -9493   -10161   -10358   -10057 
  -10048   -10473   -10524   -10134    -9855    -9640    -9460    -9525 
   -9590    -9578    -9791   -10085   -10243   -10326   -10142    -9602 
   -9377    -9952   -10517   -10260    -9648    -9379    -9639   -10373 
  -11088   -10978    -9877    -8769    -8660    -9360   -10269   -11064 
  -11169   -10277    -9104    -8563    -8845    -9655   -10605   -11180 
  -10993   -10192    -9265    -8721    -9018   -10048   -10872   -10828 
  -10278    -9706    -9282    -9323    -9945   -10621   -10700   -10174 
   -9520    -9115    -9188    -9694   -10276   -10612   -10559   -10126 
   -9562    -9217    -9240    -9609   -10243   -10810   -10808   -10185 
   -9475    -9173    -9310    -9652   -10045   -10415   -10562   -10301 
   -9724    -9178    -9161    -9813   -10542   -10822   -10714   -10276 
   -9585    -9153    -9304    -9714   -10077   -10365   -10422   -10233 
  -10060    -9875    -9529    -9369    -9774   -10354   -10409    -9922 
   -9440    -9367    -9729   -10219   -10444   -10308   -10003    -9753 
   -9736    -9933   -10060    -9977    -9855    -9810    -9863    -9977 
   -9960    -9829    -9871   -10010   -10019    -9992    -9902    -9632 
   -9491    -9782   -10176   -10226   -10093   -10103   -10125   -10017 
   -9887    -9736    -9595    -9630    -9819   -10021   -10260   -10524 
  -10539   -10238    -9898    -9639    -9450    -9412    -9585    -9948 
  -10250   -10149    -9768    -9520    -9513    -9625    -9760    -9942 
  -10234   -10512   -10509   -10208    -9999   -10102   -10174    -9925 
   -9651    -9745    -9998   -10026   -10018   -10142    -9987    -9414 
   -9004    -9177    -9702   -10189   -10489   -10513   -10184    -9751 
   -9663   -10022   -10481   -10663   -10497   -10115    -9751    -9639 
   -9649    -9564    -9602    -9790    -9694    -9378    -9381    -9699 
  -10019   -10471   -10993   -11005   -10353    -9489    -8922    -9046 
   -9825   -10613   -10767   -10220    -9459    -9093    -9279    -9617 
   -9813    -9967   -10111   -10157   -10174   -10196   -10145   -10126 
  -10265   -10403   -10280    -9882    -9541    -9597   -10006   -10374 
  -10316    -9813    -9242    -8996    -9167    -9660   -10262   -10523 
  -10216    -9865    -9896   -10089   -10318   -10554   -10523   -10120 
   -9643    -9433    -9436    -9385    -9491    -9980   -10395   -10349 
  -10031    -9659    -9370    -9495   -10196   -10952   -11029   -10378 
   -9570    -9157    -9286    -9640    -9857   -10003   -10269   -10485 
  -10328    -9786    -9131    -8733    -8927    -9709   -10647   -11180 
  -10974   -10287    -9675    -9398    -9579   -10129   -10519   -10431 
  -10137    -9837    -9553    -9539    -9772    -9725    -9486    -9734 
  -10239   -10193    -9776    -9624    -9633    -9568    -9582    -9710 
   -9958   -10401   -10752   -10720   -10395    -9915    -9540    -9659 
  -10276   -10935   -11136   -10700    -9803    -8856    -8363    -8557 
   -9216    -9809    -9950    -9818    -9649    -9412    -9367    -9811 
  -10378   -10692   -10957   -11163   -10912   -10416   -10146    -9977 
   -9888   -10065   -10058    -9558    -9027    -8807    -8973    -9522 
   -9992    -9880    -9285    -8928    -9483   -10601   -11423   -11603 
  -11092   -10247    -9856   -10007   -10087   -10116   -10303   -10079 
   -9337    -8891    -8904    -8986    -9336   -10018   -10368   -10083 
   -9659    -9499    -9586    -9949   -10600   -11094   -10995   -10469 
   -9892    -9574    -9574    -9630    -9703    -9856    -9965   -10000 
   -9837    -9374    -9072    -9356   -10037   -10820   -11380   -11130 
  -10227    -9599    -9452    -9510    -9769    -9915    -9657    -9340 
   -9402    -9886   -10368   -10459   -10284   -10045    -9836    -9755 
   -9721    -9752    -9945   -10083    -9990    -9801    -9686    -9748 
  -10011   -10353   -10454   -10153    -9713    -9397    -9333    -9551 
   -9857   -10084   -10179   -10100    -9990   -10012   -10089   -10152 
  -10241   -10342   -10347   -10131    -9759    -9393    -9202    -9479 
  -10223   -10832   -10665    -9806    -8988    -8750    -9104    -9803 
  -10442   -10581   -10199    -9863   -10039   -10482   -10713   -10650 
  -10368    -9795    -9180    -9082    -9514    -9946   -10060    -9846 
   -9509    -9363    -9501    -9855   -10378   -10758   -10633   -10187 
   -9855    -9828    -9961    -9911    -9639    -9463    -9504    -9640 
   -9875   -10312   -10779   -10937   -10633    -9946    -9331    -9340 
   -9883   -10396   -10449   -10031    -9441    -8849    -8554    -9009 
   -9875   -10331   -10230    -9965    -9814    -9895   -10237   -10601 
  -10744   -10686   -10447   -10127    -9948    -9801    -9459    -9135 
   -9146    -9424    -9717    -9917    -9992    -9906    -9748    -9737 
  -10076   -10690   -11056   -10783   -10183    -9694    -9406    -9369 
   -9586    -9856    -9991   -10039   -10119   -10072    -9775    -9462 
   -9331    -9429    -9814   -10380   -10802   -10752   -10265    -9771 
   -9525    -9478    -9568    -9757   -10079   -10516   -10794   -10650 
  -10137    -9512    -9088    -9155    -9701   -10273   -10478   -10388 
  -10122    -9647    -9286    -9450    -9940   -10278   -10278   -10075 
   -9833    -9616    -9566    -9774    -9948    -9726    -9362    -9495 
  -10075   -10488   -10554   -10386   -10012    -9610    -9479    -9671 
   -9979   -10278   -10490   -10497   -10470   -10513   -10216    -9537 
   -9099    -9148    -9475    -9949   -10357   -10431   -10223   -10003 
   -9915   -10075   -10515   -10840   -10675   -10192    -9579    -8845 
   -8345    -8480    -8964    -9238    -9297    -9391    -9610   -10154 
  -10924   -11234   -10825   -10203    -9829    -9852   -10280   -10837 
  -11022   -10617    -9987    -9644    -9625    -9671    -9732    -9886 
  -10133   -10319   -10134    -9613    -9252    -9224    -9194    -9143 
   -9366    -9688    -9802    -9887   -10114   -10287   -10218   -10061 
  -10083   -10210   -10233   -10134   -10039   -10191   -10550   -10760 
  -10740   -10575   -10102    -9355    -8947    -9223    -9620    -9576 
   -9285    -9073    -9096    -9493   -10081   -10512   -10679   -10646 
  -10516   -10258    -9864    -9597    -9585    -9768   -10126   -10420 
  -10330   -10010    -9859    -9883    -9988   -10300   -10621   -10481 
   -9926    -9454    -9315    -9420    -9671    -9879    -9711    -9273 
   -9175    -9624   -10245   -10732   -10891   -10592    -9940    -9252 
   -8914    -9157    -9846   -10430   -10417   -10038    -9842    -9837 
   -9842   -10045   -10424   -10601   -10558   -10532   -10416   -10075 
   -9713    -9421    -9080    -8970    -9354    -9752    -9756    -9587 
   -9386    -9134    -9209    -9931   -10836   -11221   -10975   -10478 
  -10077    -9898   -10025   -10453   -10855   -10786   -10138    -9335 
   -8954    -9076    -9313    -9444    -9606    -9848    -9915    -9694 
   -9433    -9363    -9548    -9940   -10160    -9888    -9522    -9585 
   -9963   -10393   -10727   -10659   -10099    -9516    -9444    -9904 
  -10220    -9659    -8370    -7128    -6431    -6466    -7264    -8392 
   -9173    -9458    -9649   -10114   -11051   -12479   -14018   -15140 
  -15496   -14791   -13227   -11843   -11245   -10968   -10511    -9718 
   -8575    -7315    -6215    -5386    -4996    -5174    -5783    -6714 
   -7982    -9410   -10767   -12082   -13527   -15209   -17107   -18971 
  -20437   -21142   -20587   -18509   -15417   -11970    -8222    -4264 
    -895     1227     2381     3132     3699     4010     3769     2473 
    -364    -4723    -9829   -14675   -18582   -21373   -23406   -25267 
  -27035   -28027   -27495   -25161   -21234   -16437   -11570    -6984 
   -2824      777     3781     6045     7331     7465     6246     3667 
      58    -4163    -8330   -11550   -13441   -14361   -15094   -16495 
  -18715   -20841   -21645   -20463   -17585   -14076   -11057    -9194 
   -8658    -9036    -9512    -9432    -8523    -6944    -5378    -4739 
   -5510    -7292    -9213   -10629   -11149   -10737    -9887    -9100 
   -8669    -8842    -9531   -10395   -11298   -12124   -12506   -12125 
  -11141   -10143    -9591    -9402    -9112    -8371    -7464    -7103 
   -7538    -8457    -9582   -10756   -11842   -12683   -13113   -13140 
  -12860   -12271   -11391   -10342    -9309    -8469    -7977    -7812 
   -7700    -7619    -7875    -8472    -9186    -9994   -10808   -11298 
  -11217   -10640    -9818    -9117    -9035    -9742   -10859   -11755 
  -11749   -10539    -8750    -7558    -7624    -8796   -10602   -12158 
  -12402   -11238    -9529    -8239    -8128    -9452   -11632   -13462 
  -13817   -12399    -9921    -7650    -6401    -5958    -5837    -6011 
   -6505    -7184    -8122    -9414   -10646   -11306   -11493   -11624 
  -12101   -13273   -15012   -16665   -17606   -17397   -15765   -12914 
   -9528    -6255    -3534    -1837    -1622    -2853    -4752    -6411 
   -7504    -8133    -8532    -9070    -9983   -11087   -12139   -13038 
  -13717   -14156   -14254   -13794   -12787   -11564   -10546   -10180 
  -10716   -11726   -12283   -11881   -10767    -9328    -7782    -6469 
   -5655    -5316    -5543    -6550    -8168    -9767   -10671   -10513 
   -9460    -8298    -8001    -8938   -10754   -12761   -14170   -14494 
  -13973   -13140   -12316   -11634   -10979   -10052    -8927    -8094 
   -7677    -7269    -6577    -5707    -5215    -5803    -7476    -9297 
  -10401   -10813   -10987   -11188   -11599   -12276   -13076   -13788 
  -14041   -13509   -12332   -10881    -9460    -8402    -7971    -8110 
   -8437    -8627    -8718    -8742    -8584    -8367    -8364    -8640 
   -9018    -9250    -9246    -9211    -9510   -10322   -11435   -12368 
  -12727   -12314   -11118    -9730    -9186    -9887   -11124   -11886 
  -11759   -10978   -10037    -9235    -8577    -8160    -8104    -8294 
   -8599    -9015    -9470    -9799   -10069   -10505   -11070   -11497 
  -11604   -11385   -11102   -11030   -11009   -10702   -10098    -9283 
   -8311    -7384    -6682    -6274    -6346    -7069    -8213    -9340 
  -10380   -11462   -12436   -13031   -13216   -13085   -12636   -11866 
  -10993   -10426   -10297   -10253    -9999    -9655    -9370    -9134 
   -8874    -8571    -8328    -8155    -7869    -7647    -8013    -8876 
   -9493    -9517    -9315    -9350    -9807   -10665   -11685   -12402 
  -12599   -12595   -12802   -13328   -13838   -13657   -12464   -10608 
   -8667    -7153    -6428    -6509    -6928    -6971    -6629    -6606 
   -7172    -7987    -8607    -8775    -8694    -8854    -9555   -10721 
  -11983   -12903   -13190   -12802   -12059   -11475   -11263   -11178 
  -10976   -10760   -10602   -10261    -9701    -9425    -9792   -10455 
  -10852   -10883   -10794   -10716   -10492    -9940    -9178    -8422 
   -7628    -6739    -6000    -5755    -6172    -7106    -8160    -9143 
  -10179   -11348   -12569   -13694   -14632   -15327   -15581   -15164 
  -13959   -12062    -9969    -8316    -7425    -7221    -7254    -7096 
   -6795    -6561    -6575    -7086    -8043    -8989    -9560    -9740 
   -9728    -9809   -10176   -10798   -11441   -11812   -11767   -11400 
  -10987   -10736   -10561   -10319   -10004    -9620    -9266    -9154 
   -9313    -9545    -9610    -9381    -8969    -8685    -8718    -9003 
   -9475   -10037   -10504   -10835   -10982   -10862   -10640   -10366 
   -9792    -9008    -8573    -8846    -9590   -10342   -10909   -11263 
  -11257   -10894   -10505   -10366   -10381   -10358   -10358   -10390 
  -10253    -9988    -9740    -9301    -8617    -8009    -7627    -7542 
   -7896    -8564    -9283   -10007   -10797   -11627   -12425   -13190 
  -13853   -14235   -14210   -13653   -12529   -11111    -9802    -8788 
   -7925    -6984    -6108    -5617    -5647    -6231    -7202    -8152 
   -8769    -8911    -8685    -8664    -9319   -10428   -11531   -12418 
  -13032   -13351   -13423   -13402   -13446   -13540   -13425   -12814 
  -11727   -10451    -9180    -7959    -6874    -5957    -5159    -4592 
   -4407    -4615    -5340    -6655    -8334   -10142   -11859   -13049 
  -13473   -13479   -13456   -13347   -12996   -12433   -11643   -10624 
   -9687    -9182    -9078    -9162    -9283    -9424    -9764   -10370 
  -10898   -10899   -10297    -9458    -8820    -8577    -8661    -8802 
   -8783    -8707    -8788    -9073    -9479    -9909   -10312   -10650 
  -10883   -11065   -11303   -11568   -11616   -11178   -10303    -9464 
   -9100    -9200    -9583   -10098   -10430   -10319    -9933    -9595 
   -9431    -9479    -9680    -9632    -9043    -8329    -8091    -8317 
   -8656    -8989    -9285    -9459    -9552    -9749   -10174   -10735 
  -11168   -11229   -10979   -10894   -11340   -12121   -12783   -12910 
  -12278   -11088    -9795    -8753    -8114    -7761    -7530    -7516 
   -7850    -8468    -9159    -9675    -9938   -10007   -10038   -10339 
  -10962   -11541   -11763   -11568   -11098   -10677   -10547   -10627 
  -10636   -10435   -10085    -9622    -9039    -8357    -7680    -7141 
   -6862    -6974    -7462    -8199    -9188   -10320   -11321   -12074 
  -12553   -12784   -12935   -13015   -12815   -12243   -11446   -10670 
   -9957    -9216    -8530    -7993    -7576    -7329    -7381    -7749 
   -8241    -8615    -8843    -9135    -9629   -10152   -10454   -10573 
  -10731   -10982   -11190   -11288   -11340   -11398   -11360   -11105 
  -10848   -10859   -10948   -10775   -10349    -9871    -9425    -9055 
