Origin Time       2024/06/23 22:54:00
Lat.              35.645
Long.             140.060
Depth. (km)       72
Mag.              4.1
Station Code      CHB017
Station Lat.      35.2976
Station Long.     140.0734
Station Height(m) 38
Record Time       2024/06/23 22:54:37
Sampling Freq(Hz) 100Hz
Duration Time(s)  79
Dir.              E-W
Scale Factor      7845(gal)/8223790
Max. Acc. (gal)   5.264
Last Correction   2024/06/23 22:54:37
Memo.             
[...]
  -14573   -14561   -14557   -14563   -14563   -14558   -14562   -14571 
  -14567   -14555   -14558   -14565   -14561   -14562   -14569   -14566 
  -14563   -14558   -14557   -14570   -14569   -14554   -14561   -14570 
  -14565   -14559   -14559   -14561   -14563   -14566   -14570   -14567 
  -14557   -14561   -14571   -14558   -14555   -14573   -14567   -14557 
  -14566   -14567   -14558   -14561   -14569   -14565   -14557   -14561 
  -14569   -14563   -14559   -14562   -14563   -14565   -14563   -14563 
  -14559   -14555   -14563   -14567   -14558   -14563   -14571   -14561 
  -14558   -14569   -14567   -14561   -14562   -14562   -14561   -14558 
  -14561   -14573   -14569   -14554   -14562   -14570   -14555   -14551 
  -14565   -14567   -14562   -14559   -14557   -14561   -14563   -14553 
  -14551   -14565   -14566   -14561   -14563   -14559   -14547   -14557 
  -14574   -14567   -14559   -14565   -14565   -14559   -14562   -14563 
  -14562   -14561   -14562   -14569   -14562   -14551   -14559   -14569 
  -14563   -14559   -14562   -14567   -14565   -14555   -14558   -14563 
  -14566   -14566   -14561   -14562   -14558   -14554   -14562   -14566 
  -14558   -14563   -14571   -14561   -14550   -14558   -14566   -14562 
  -14561   -14570   -14565   -14550   -14558   -14567   -14563   -14566 
  -14563   -14557   -14558   -14561   -14565   -14565   -14557   -14558 
  -14561   -14557   -14563   -14566   -14554   -14559   -14569   -14558 
  -14553   -14566   -14569   -14558   -14558   -14563   -14557   -14553 
  -14567   -14567   -14550   -14551   -14566   -14566   -14562   -14558 
  -14554   -14561   -14565   -14555   -14553   -14565   -14569   -14559 
  -14553   -14555   -14562   -14563   -14562   -14562   -14558   -14557 
  -14567   -14565   -14553   -14557   -14565   -14561   -14563   -14566 
  -14557   -14557   -14562   -14559   -14561   -14562   -14557   -14555 
  -14561   -14562   -14557   -14558   -14562   -14559   -14557   -14559 
  -14559   -14559   -14563   -14562   -14557   -14557   -14555   -14559 
  -14565   -14559   -14558   -14559   -14548   -14551   -14569   -14569 
  -14555   -14554   -14557   -14557   -14561   -14562   -14555   -14558 
  -14565   -14563   -14557   -14550   -14559   -14566   -14553   -14554 
  -14562   -14558   -14557   -14559   -14558   -14562   -14563   -14558 
  -14553   -14550   -14559   -14569   -14567   -14562   -14555   -14547 
  -14555   -14563   -14558   -14558   -14567   -14563   -14555   -14554 
  -14555   -14558   -14562   -14562   -14557   -14555   -14559   -14559 
  -14553   -14553   -14558   -14558   -14562   -14567   -14562   -14557 
  -14561   -14561   -14559   -14559   -14562   -14562   -14559   -14557 
  -14558   -14562   -14563   -14559   -14565   -14566   -14557   -14557 
  -14562   -14562   -14562   -14566   -14559   -14551   -14561   -14569 
  -14554   -14553   -14569   -14565   -14558   -14561   -14559   -14558 
  -14562   -14565   -14563   -14561   -14563   -14562   -14554   -14555 
  -14561   -14559   -14562   -14563   -14558   -14558   -14563   -14562 
  -14562   -14565   -14567   -14567   -14562   -14558   -14561   -14563 
  -14563   -14561   -14561   -14562   -14559   -14562   -14569   -14562 
  -14557   -14562   -14567   -14566   -14565   -14563   -14563   -14561 
  -14557   -14557   -14569   -14573   -14562   -14554   -14563   -14566 
  -14558   -14565   -14571   -14563   -14563   -14565   -14561   -14558 
  -14565   -14570   -14563   -14565   -14571   -14559   -14557   -14569 
  -14562   -14555   -14566   -14570   -14565   -14559   -14559   -14561 
  -14566   -14574   -14570   -14561   -14559   -14566   -14571   -14562 
  -14557   -14565   -14565   -14561   -14562   -14561   -14562   -14566 
  -14563   -14565   -14566   -14561   -14558   -14561   -14558   -14553 
  -14559   -14567   -14562   -14557   -14558   -14558   -14559   -14565 
  -14567   -14565   -14565   -14567   -14561   -14550   -14555   -14567 
  -14570   -14566   -14562   -14561   -14555   -14557   -14565   -14566 
  -14567   -14566   -14558   -14561   -14566   -14561   -14561   -14562 
  -14559   -14566   -14569   -14559   -14557   -14561   -14562   -14566 
  -14566   -14558   -14557   -14562   -14562   -14559   -14558   -14562 
  -14565   -14566   -14561   -14554   -14557   -14567   -14571   -14563 
  -14553   -14561   -14569   -14559   -14555   -14557   -14558   -14574 
  -14575   -14553   -14551   -14562   -14559   -14563   -14570   -14567 
  -14561   -14561   -14562   -14559   -14558   -14563   -14570   -14569 
  -14558   -14559   -14561   -14553   -14558   -14574   -14569   -14559 
  -14565   -14558   -14554   -14569   -14567   -14555   -14559   -14561 
  -14547   -14540   -14544   -14553   -14559   -14562   -14569   -14575 
  -14575   -14582   -14589   -14569   -14553   -14563   -14575   -14561 
  -14538   -14543   -14563   -14543   -14511   -14567   -14608   -14531 
  -14550   -14642   -14589   -14534   -14555   -14570   -14601   -14555 
  -14524   -14620   -14555   -14459   -14596   -14638   -14543   -14500 
  -14515   -14608   -14526   -14396   -14594   -14652   -14486   -14646 
  -14810   -14561   -14324   -14490   -14748   -14609   -14408   -14642 
  -14748   -14454   -14466   -14731   -14609   -14378   -14470   -14570 
  -14439   -14416   -14590   -14547   -14422   -14673   -14850   -14562 
  -14439   -14656   -14688   -14531   -14547   -14750   -14716   -14400 
  -14408   -14580   -14399   -14349   -14605   -14723   -14732   -14677 
  -14477   -14320   -14372   -14565   -14617   -14543   -14677   -14839 
  -14677   -14455   -14434   -14472   -14542   -14574   -14450   -14477 
  -14677   -14585   -14457   -14705   -14859   -14593   -14337   -14382 
  -14593   -14652   -14393   -14296   -14723   -14953   -14665   -14578 
  -14681   -14496   -14291   -14278   -14397   -14665   -14813   -14674 
  -14577   -14643   -14557   -14359   -14373   -14473   -14453   -14351 
  -14370   -14921   -15504   -15082   -14288   -14173   -14273   -14233 
  -14349   -14534   -14729   -14901   -14767   -14422   -14299   -14528 
  -14769   -14681   -14404   -14268   -14334   -14501   -14778   -15080 
  -15030   -14604   -14322   -14299   -14323   -14473   -14650   -14625 
  -14558   -14516   -14422   -14435   -14569   -14651   -14628   -14449 
  -14311   -14561   -14850   -14661   -14407   -14589   -14874   -14817 
  -14512   -14365   -14484   -14562   -14539   -14611   -14665   -14527 
  -14372   -14419   -14496   -14470   -14593   -14713   -14590   -14616 
  -14685   -14376   -14262   -14625   -14778   -14608   -14507   -14546 
  -14566   -14453   -14523   -14855   -14871   -14619   -14485   -14376 
  -14466   -14766   -14766   -14431   -14119   -14170   -14536   -14712 
  -14709   -14764   -14635   -14330   -14261   -14607   -14972   -14879 
  -14601   -14520   -14497   -14458   -14404   -14407   -14644   -14844 
  -14731   -14581   -14593   -14565   -14377   -14238   -14273   -14415 
  -14638   -14836   -14886   -14750   -14424   -14184   -14266   -14472 
  -14665   -14916   -15118   -15016   -14612   -14289   -14243   -14237 
  -14139   -14172   -14439   -14713   -14847   -14882   -14794   -14671 
  -14690   -14742   -14625   -14393   -14246   -14334   -14575   -14751 
  -14698   -14494   -14424   -14509   -14507   -14396   -14323   -14385 
  -14681   -15053   -15132   -14912   -14646   -14432   -14373   -14494 
  -14538   -14426   -14346   -14312   -14283   -14326   -14445   -14605 
  -14710   -14659   -14586   -14582   -14539   -14528   -14709   -14905 
  -14837   -14677   -14689   -14623   -14380   -14351   -14496   -14540 
  -14608   -14739   -14759   -14674   -14612   -14513   -14345   -14426 
  -14652   -14492   -14276   -14366   -14243   -14114   -14569   -15030 
  -15041   -14887   -14671   -14543   -14516   -14351   -14376   -14747 
  -14843   -14557   -14308   -14216   -14397   -14723   -14794   -14744 
  -14800   -14746   -14532   -14311   -14187   -14260   -14466   -14598 
  -14578   -14517   -14563   -14665   -14694   -14735   -14824   -14823 
  -14724   -14536   -14268   -14173   -14354   -14600   -14786   -14800 
  -14515   -14204   -14345   -14732   -14696   -14427   -14554   -14785 
  -14600   -14288   -14222   -14246   -14285   -14578   -14968   -15029 
  -14862   -14805   -14912   -14986   -14778   -14401   -14202   -14245 
  -14386   -14521   -14683   -14786   -14644   -14527   -14594   -14413 
  -14011   -13907   -14096   -14262   -14413   -14582   -14647   -14750 
  -15003   -14979   -14617   -14534   -14693   -14581   -14343   -14381 
  -14732   -14983   -14800   -14621   -14733   -14796   -14843   -14881 
  -14659   -14463   -14455   -14368   -14265   -14331   -14384   -14247 
  -14189   -14365   -14477   -14620   -14920   -14909   -14632   -14455 
  -14347   -14544   -14939   -14948   -14686   -14436   -14258   -14293 
  -14339   -14332   -14496   -14548   -14426   -14623   -15003   -14976 
  -14589   -14389   -14557   -14729   -14704   -14523   -14210   -14193 
  -14635   -14767   -14287   -13922   -14234   -14860   -15016   -14769 
  -14769   -14939   -14959   -14926   -14895   -14635   -14195   -14100 
  -14210   -14127   -14384   -14805   -14615   -14405   -14593   -14617 
  -14423   -14262   -14354   -14643   -14661   -14616   -14770   -14654 
  -14515   -14850   -15041   -14612   -14068   -13960   -14168   -14273 
  -14492   -15121   -15539   -15269   -14725   -14247   -13957   -14141 
  -14634   -14891   -14939   -14945   -14702   -14361   -14288   -14349 
  -14346   -14338   -14354   -14463   -14601   -14565   -14527   -14671 
  -14816   -14921   -14937   -14623   -14188   -14173   -14462   -14465 
  -14211   -14088   -14044   -14160   -14584   -14867   -14922   -15213 
  -15476   -15240   -14809   -14571   -14573   -14808   -14964   -14559 
  -13886   -13716   -14046   -14382   -14594   -14681   -14666   -14721 
  -14665   -14266   -14010   -14211   -14374   -14330   -14469   -14763 
  -14897   -14781   -14565   -14565   -14736   -14804   -14783   -14592 
  -14331   -14592   -15288   -15537   -15030   -14476   -14431   -14486 
  -14277   -14041   -13857   -13759   -13948   -14331   -14616   -14636 
  -14569   -14701   -14820   -14658   -14513   -14624   -14887   -15218 
  -15381   -15130   -14759   -14661   -14605   -14412   -14355   -14369 
  -14206   -14085   -14192   -14326   -14276   -14184   -14274   -14418 
  -14403   -14297   -14331   -14557   -14671   -14674   -14808   -14856 
  -14828   -14926   -14843   -14588   -14551   -14700   -14882   -14910 
  -14723   -14658   -14744   -14764   -14640   -14138   -13594   -13802 
  -14443   -14717   -14679   -14638   -14669   -14754   -14716   -14601 
  -14700   -14867   -14804   -14665   -14607   -14551   -14478   -14382 
  -14311   -14316   -14288   -14304   -14473   -14578   -14597   -14640 
  -14651   -14775   -14912   -14647   -14230   -14087   -14118   -14300 
  -14665   -15025   -15263   -15194   -14787   -14462   -14424   -14451 
  -14512   -14561   -14332   -14118   -14439   -14948   -15033   -14789 
  -14629   -14698   -14719   -14368   -13914   -13782   -13934   -14334 
  -14810   -14852   -14554   -14372   -14332   -14542   -14904   -14870 
  -14647   -14809   -14990   -14748   -14571   -14872   -15145   -15047 
  -14995   -14945   -14519   -14127   -14018   -13768   -13535   -13686 
  -13923   -14022   -14165   -14427   -14702   -14870   -14874   -14797 
  -14793   -14851   -14886   -14983   -15068   -14920   -14712   -14736 
  -14872   -14835   -14609   -14445   -14520   -14708   -14732   -14571 
  -14370   -14152   -14025   -14152   -14293   -14277   -14416   -14769 
  -14874   -14505   -14081   -14143   -14601   -14841   -14574   -14156 
  -14139   -14621   -15095   -15084   -14659   -14326   -14381   -14562 
  -14727   -15093   -15418   -15345   -15186   -15138   -14916   -14605 
  -14442   -14234   -13930   -13791   -13880   -14121   -14393   -14530 
  -14523   -14439   -14403   -14523   -14488   -14192   -14188   -14511 
  -14712   -14841   -14881   -14689   -14557   -14574   -14566   -14530 
  -14427   -14415   -14697   -14917   -14835   -14647   -14442   -14451 
  -14791   -14963   -14764   -14543   -14465   -14574   -14756   -14739 
  -14632   -14639   -14601   -14470   -14377   -14237   -14038   -14139 
  -14566   -14706   -14346   -13999   -13899   -13878   -14052   -14530 
  -14953   -15109   -15148   -15103   -14940   -14736   -14558   -14500 
  -14631   -14862   -15014   -14993   -14893   -14878   -14901   -14794 
  -14597   -14430   -14253   -14165   -14260   -14253   -14118   -14177 
  -14404   -14570   -14589   -14602   -14731   -14639   -14301   -14250 
  -14415   -14432   -14431   -14548   -14847   -15209   -15304   -15147 
  -14794   -14216   -13763   -13694   -13941   -14393   -14731   -14759 
  -14743   -14796   -14769   -14654   -14362   -13967   -14114   -14802 
  -15148   -15130   -15205   -15188   -15080   -14983   -14690   -14412 
  -14351   -14238   -14119   -14219   -14477   -14843   -15120   -14998 
  -14567   -14088   -13699   -13547   -13606   -13524   -13149   -12883 
  -12984   -13189   -13421   -13819   -14301   -14739   -15030   -15079 
  -14878   -14345   -13518   -12887   -12819   -13163   -13706   -14358 
  -15076   -15876   -16595   -16977   -17076   -17050   -16870   -16502 
  -16017   -15695   -15921   -16617   -17354   -17888   -18014   -17859 
  -17952   -18145   -17809   -16849   -15399   -13477   -11367    -9840 
   -9533   -10107   -10692   -10948   -11013   -10943   -10794   -10767 
  -10920   -11087   -11200   -11481   -12264   -13648   -15406   -17043 
  -17957   -18146   -18193   -18389   -18812   -19543   -20079   -19654 
  -18225   -16336   -14357   -12540   -11371   -11092   -11334   -11792 
  -12561   -13470   -13832   -13189   -11924   -11002   -11196   -12515 
  -14247   -15688   -16781   -17772   -18520   -18704   -18393   -17868 
  -17172   -16310   -15558   -15156   -14994   -14971   -15053   -14929 
  -14412   -13676   -12799   -11898   -11492   -11925   -12980   -14296 
  -15619   -16606   -16806   -15897   -14166   -12567   -11677   -11148 
  -10771   -10843   -11361   -12105   -13007   -13886   -14548   -15095 
  -15581   -15955   -16445   -17065   -17316   -17159   -16912   -16424 
  -15654   -15075   -15018   -15264   -15245   -14922   -14820   -14878 
  -14716   -14319   -13639   -12841   -12425   -12309   -12141   -12116 
  -12496   -13252   -14276   -15186   -15508   -15414   -15471   -15739 
  -15915   -16058   -16314   -16515   -16652   -16958   -17401   -17552 
  -16999   -15822   -14546   -13674   -13320   -13200   -12860   -12010 
  -10971   -10359   -10297   -10652   -11476   -12602   -13666   -14563 
  -15319   -15898   -16374   -16821   -17150   -17235   -16831   -15804 
  -14531   -13452   -12838   -13034   -14057   -15438   -16603   -17035 
  -16576   -15639   -14783   -14218   -13779   -13520   -13888   -14820 
  -15626   -15965   -15898   -15487   -14796   -14002   -13398   -13162 
  -13390   -14181   -15151   -15601   -15471   -15165   -14724   -14031 
  -13346   -13066   -13381   -14040   -14494   -14466   -14046   -13397 
  -12838   -12731   -13068   -13621   -14300   -15196   -16379   -17536 
  -18204   -18235   -17685   -16650   -15354   -14152   -13385   -13162 
  -13354   -13632   -13556   -13023   -12270   -11495   -10947   -10847 
  -11109   -11685   -12618   -13590   -14362   -15210   -16243   -17095 
  -17506   -17510   -17316   -17112   -16795   -16363   -16097   -15950 
  -15730   -15545   -15396   -15174   -15102   -15341   -15711   -16079 
  -16267   -16016   -15442   -14781   -13890   -12618   -11261   -10349 
  -10247   -10918   -11959   -12980   -13814   -14434   -14959   -15412 
  -15537   -15326   -15184   -15272   -15350   -15103   -14427   -13649 
  -13190   -13068   -13166   -13544   -14011   -14278   -14551   -14989 
  -15205   -15071   -14875   -14678   -14546   -14667   -15034   -15719 
  -16750   -17571   -17672   -17317   -16906   -16390   -15680   -14901 
  -14161   -13567   -13294   -13382   -13653   -13844   -13811   -13693 
  -13679   -13657   -13435   -13069   -12827   -12987   -13527   -14150 
  -14771   -15496   -16152   -16348   -15893   -14990   -14065   -13331 
  -12777   -12529   -12738   -13351   -14219   -15207   -16193   -16966 
  -17255   -16999   -16376   -15678   -15136   -14665   -14130   -13639 
  -13203   -12765   -12542   -12694   -13078   -13585   -14096   -14349 
  -14202   -13824   -13555   -13616   -14018   -14624   -15192   -15637 
  -16110   -16609   -17001   -17398   -17838   -18030   -17776   -17143 
  -16155   -14818   -13327   -12042   -11261   -11001   -11109   -11523 
  -12170   -12811   -13228   -13409   -13522   -13721   -14021   -14334 
  -14542   -14612   -14608   -14582   -14656   -14978   -15479   -16079 
  -16785   -17406   -17768   -17929   -17855   -17487   -16989   -16456 
  -15747   -14786   -13759   -12884   -12194   -11759   -11832   -12438 
  -13262   -13998   -14405   -14381   -14126   -13859   -13552   -13216 
  -13018   -13023   -13227   -13693   -14307   -14817   -15202   -15546 
  -15786   -15807   -15615   -15358   -15076   -14705   -14397   -14285 
  -14208   -14119   -14143   -14188   -14072   -13815   -13589   -13578 
  -13805   -14007   -14027   -14121   -14457   -14812   -15032   -15114 
  -15007   -14841   -14868   -15064   -15271   -15502   -15890   -16444 
  -16915   -17041   -16825   -16387   -15803   -15267   -14924   -14616 
  -14261   -13990   -13844   -13815   -13954   -14204   -14408   -14438 
  -14341   -14328   -14370   -14211   -13872   -13544   -13238   -12968 
  -12910   -13111   -13359   -13518   -13603   -13552   -13371   -13228 
  -13203   -13266   -13392   -13595   -13941   -14404   -14851   -15241 
  -15637   -15948   -16000   -15843   -15666   -15581   -15591   -15581 
  -15523   -15597   -15877   -16191   -16448   -16575   -16434   -16051 
  -15576   -15045   -14424   -13836   -13545   -13660   -14037   -14440 
  -14644   -14539   -14238   -13922   -13598   -13265   -13093   -13134 
  -13176   -13039   -12841   -12825   -12981   -13288   -13810   -14314 
  -14646   -14968   -15252   -15458   -15647   -15674   -15493   -15272 
  -15115   -15152   -15423   -15807   -16212   -16510   -16536   -16251 
  -15745   -15164   -14627   -14154   -13675   -13193   -12883   -12799 
  -12903   -13254   -13649   -13730   -13633   -13701   -13969   -14366 
  -14832   -15269   -15527   -15473   -15203   -14945   -14758   -14604 
  -14509   -14486   -14466   -14337   -14053   -13749   -13566   -13518 
  -13678   -14176   -14898   -15535   -15993   -16306   -16302   -15948 
  -15557   -15300   -15084   -14831   -14546   -14238   -13884   -13556 
  -13462   -13707   -14138   -14515   -14710   -14708   -14636   -14631 
  -14602   -14470   -14272   -14002   -13730   -13598   -13640   -13783 
  -13925   -14026   -14180   -14426   -14709   -15020   -15290   -15456 
  -15661   -15970   -16243   -16465   -16663   -16648   -16294   -15685 
  -14935   -14165   -13551   -13211   -13117   -13108   -13034   -12972 
  -13024   -12985   -12800   -12738   -12765   -12748   -12892   -13262 
  -13729   -14322   -15013   -15650   -16135   -16411   -16484   -16364 
  -16052   -15674   -15442   -15361   -15241   -15049   -14910   -14878 
  -14974   -15191   -15427   -15597   -15655   -15502   -15068   -14481 
  -13961   -13609   -13354   -13069   -12750   -12463   -12205   -12136 
  -12496   -13138   -13741   -14292   -14844   -15280   -15543   -15757 
