Origin Time       2024/06/23 22:54:00
Lat.              35.645
Long.             140.060
Depth. (km)       72
Mag.              4.1
Station Code      CHB013
Station Lat.      35.4294
Station Long.     140.2892
Station Height(m) 10
Record Time       2024/06/23 22:54:46
Sampling Freq(Hz) 100Hz
Duration Time(s)  60
Dir.              N-S
Scale Factor      7845(gal)/8223790
Max. Acc. (gal)   2.503
Last Correction   2024/06/23 22:54:45
Memo.             
[...]
   -5113    -5098    -5098    -5117    -5119    -5103    -5096    -5108 
   -5121    -5113    -5098    -5111    -5125    -5112    -5097    -5111 
   -5124    -5113    -5098    -5104    -5112    -5105    -5097    -5108 
   -5120    -5112    -5098    -5103    -5117    -5112    -5094    -5098 
   -5115    -5113    -5098    -5101    -5119    -5117    -5101    -5100 
   -5107    -5108    -5112    -5112    -5109    -5107    -5103    -5109 
   -5123    -5113    -5096    -5103    -5115    -5104    -5098    -5116 
   -5120    -5103    -5093    -5101    -5115    -5112    -5100    -5104 
   -5116    -5109    -5104    -5113    -5116    -5097    -5085    -5101 
   -5120    -5108    -5094    -5117    -5136    -5109    -5089    -5104 
   -5113    -5107    -5103    -5111    -5116    -5107    -5103    -5119 
   -5128    -5115    -5097    -5098    -5109    -5107    -5097    -5104 
   -5123    -5116    -5098    -5107    -5116    -5104    -5100    -5109 
   -5115    -5108    -5100    -5107    -5116    -5107    -5101    -5112 
   -5116    -5108    -5111    -5119    -5117    -5105    -5098    -5109 
   -5117    -5113    -5104    -5103    -5113    -5120    -5108    -5105 
   -5117    -5109    -5090    -5090    -5098    -5109    -5117    -5119 
   -5119    -5111    -5097    -5100    -5115    -5115    -5103    -5105 
   -5113    -5105    -5101    -5117    -5117    -5101    -5098    -5107 
   -5112    -5103    -5094    -5108    -5120    -5115    -5108    -5113 
   -5116    -5104    -5096    -5109    -5121    -5112    -5103    -5107 
   -5115    -5112    -5104    -5107    -5116    -5105    -5093    -5111 
   -5125    -5111    -5100    -5113    -5119    -5097    -5088    -5113 
   -5127    -5112    -5098    -5111    -5123    -5108    -5093    -5111 
   -5128    -5113    -5097    -5109    -5121    -5111    -5107    -5117 
   -5121    -5111    -5101    -5105    -5117    -5119    -5113    -5115 
   -5115    -5107    -5105    -5116    -5119    -5105    -5100    -5108 
   -5116    -5117    -5112    -5115    -5123    -5109    -5093    -5107 
   -5125    -5123    -5116    -5124    -5127    -5112    -5101    -5109 
   -5120    -5120    -5113    -5111    -5111    -5107    -5109    -5121 
   -5121    -5105    -5097    -5111    -5127    -5120    -5111    -5125 
   -5131    -5105    -5094    -5111    -5119    -5112    -5107    -5113 
   -5121    -5117    -5111    -5116    -5121    -5109    -5096    -5107 
   -5121    -5108    -5101    -5123    -5132    -5109    -5096    -5113 
   -5123    -5105    -5101    -5120    -5125    -5109    -5103    -5115 
   -5123    -5108    -5094    -5108    -5119    -5108    -5104    -5120 
   -5121    -5107    -5107    -5115    -5113    -5105    -5097    -5101 
   -5116    -5113    -5108    -5121    -5128    -5105    -5090    -5103 
   -5109    -5108    -5119    -5128    -5117    -5092    -5086    -5112 
   -5128    -5111    -5100    -5115    -5117    -5100    -5100    -5115 
   -5116    -5109    -5105    -5109    -5112    -5101    -5092    -5107 
   -5125    -5123    -5113    -5115    -5113    -5098    -5098    -5115 
   -5124    -5119    -5105    -5103    -5111    -5107    -5103    -5113 
   -5112    -5098    -5100    -5116    -5116    -5103    -5103    -5113 
   -5115    -5101    -5092    -5108    -5123    -5113    -5104    -5112 
   -5113    -5104    -5100    -5107    -5112    -5111    -5108    -5113 
   -5115    -5101    -5094    -5109    -5120    -5112    -5107    -5112 
   -5112    -5104    -5100    -5109    -5120    -5104    -5082    -5092 
   -5109    -5109    -5115    -5138    -5147    -5134    -5119    -5113 
   -5101    -5071    -5057    -5078    -5094    -5094    -5112    -5136 
   -5142    -5131    -5127    -5136    -5120    -5063    -5034    -5058 
   -5086    -5105    -5144    -5184    -5177    -5121    -5076    -5085 
   -5109    -5113    -5123    -5124    -5081    -5044    -5069    -5115 
   -5138    -5134    -5094    -5024    -4980    -5012    -5098    -5185 
   -5229    -5196    -5128    -5136    -5198    -5212    -5175    -5111 
   -4989    -4878    -4882    -4985    -5139    -5275    -5310    -5246 
   -5130    -5038    -5036    -5058    -5026    -4970    -4985    -5150 
   -5341    -5348    -5213    -5065    -4926    -4893    -5059    -5302 
   -5395    -5246    -4970    -4741    -4714    -4969    -5346    -5576 
   -5513    -5204    -4911    -4833    -4897    -5015    -5139    -5178 
   -5100    -4999    -5053    -5254    -5340    -5238    -5078    -4903 
   -4822    -4988    -5294    -5524    -5499    -5190    -4858    -4764 
   -4878    -5065    -5206    -5240    -5159    -4996    -4930    -5053 
   -5201    -5282    -5300    -5205    -5076    -5043    -5094    -5093 
   -4965    -4889    -5022    -5197    -5262    -5256    -5223    -5150 
   -5058    -5028    -5092    -5155    -5159    -5088    -4949    -4870 
   -4935    -5116    -5348    -5428    -5235    -5003    -4953    -5031 
   -5131    -5200    -5197    -5125    -5078    -5111    -5163    -5170 
   -5134    -5093    -5067    -5015    -4955    -5001    -5150    -5244 
   -5174    -5030    -5009    -5131    -5209    -5192    -5171    -5152 
   -5105    -5065    -5080    -5158    -5205    -5146    -5086    -5081 
   -5016    -4901    -4934    -5161    -5309    -5169    -4992    -5067 
   -5212    -5175    -5069    -5082    -5200    -5302    -5298    -5166 
   -4986    -4888    -4927    -5044    -5123    -5112    -5059    -5019 
   -5003    -5043    -5139    -5196    -5205    -5250    -5279    -5215 
   -5112    -5047    -5039    -5039    -5003    -5005    -5084    -5188 
   -5269    -5260    -5155    -5028    -4962    -5008    -5134    -5242 
   -5242    -5147    -5051    -5000    -4976    -4951    -4943    -5003 
   -5112    -5221    -5271    -5233    -5246    -5328    -5304    -5202 
   -5113    -4990    -4876    -4822    -4839    -5015    -5331    -5591 
   -5584    -5267    -4847    -4622    -4683    -4924    -5170    -5255 
   -5205    -5182    -5229    -5301    -5355    -5300    -5151    -5073 
   -5086    -5084    -5070    -5101    -5147    -5061    -4843    -4799 
   -5020    -5212    -5250    -5236    -5221    -5193    -5115    -5028 
   -5012    -5050    -5131    -5221    -5220    -5201    -5236    -5154 
   -4887    -4660    -4720    -5013    -5269    -5432    -5532    -5402 
   -5073    -4853    -4865    -4997    -5143    -5256    -5306    -5294 
   -5293    -5248    -5011    -4702    -4618    -4870    -5250    -5386 
   -5209    -5032    -5016    -5065    -5138    -5217    -5252    -5227 
   -5127    -5016    -5024    -5136    -5225    -5209    -5036    -4757 
   -4638    -4874    -5213    -5300    -5182    -5119    -5170    -5254 
   -5278    -5216    -5165    -5202    -5255    -5194    -5013    -4907 
   -5055    -5293    -5331    -5215    -5130    -5084    -5016    -4936 
   -4922    -5000    -5050    -5008    -5015    -5148    -5254    -5182 
   -5012    -4955    -5062    -5194    -5252    -5258    -5251    -5177 
   -5024    -4961    -5061    -5163    -5198    -5227    -5196    -5044 
   -4947    -5062    -5165    -5016    -4834    -4878    -5043    -5138 
   -5165    -5244    -5416    -5476    -5260    -4988    -4920    -4989 
   -5059    -5112    -5148    -5177    -5209    -5215    -5150    -5069 
   -5039    -5028    -5061    -5204    -5283    -5121    -4895    -4882 
   -5086    -5275    -5297    -5212    -5138    -5098    -5078    -5086 
   -5143    -5219    -5194    -4995    -4779    -4800    -5067    -5329 
   -5410    -5300    -5053    -4860    -4895    -5036    -5076    -5009 
   -4916    -4845    -4888    -5127    -5443    -5597    -5524    -5341 
   -5167    -5038    -4903    -4795    -4807    -4884    -4978    -5140 
   -5290    -5312    -5200    -5020    -4868    -4804    -4876    -5081 
   -5266    -5324    -5310    -5239    -5098    -5005    -5026    -5024 
   -4955    -5004    -5228    -5413    -5379    -5220    -5142    -5146 
   -5081    -4949    -4950    -5159    -5346    -5301    -5157    -5063 
   -4972    -4970    -5182    -5373    -5300    -5098    -4919    -4730 
   -4596    -4703    -5028    -5313    -5417    -5456    -5509    -5433 
   -5161    -4949    -4950    -4955    -4884    -4931    -5148    -5373 
   -5420    -5317    -5325    -5427    -5324    -5070    -4920    -4850 
   -4741    -4612    -4646    -5017    -5506    -5710    -5553    -5225 
   -4957    -4893    -4961    -5001    -4928    -4787    -4783    -5019 
   -5274    -5332    -5287    -5325    -5427    -5418    -5254    -5040 
   -4862    -4788    -4881    -5097    -5271    -5244    -5051    -4884 
   -4849    -4909    -5004    -5067    -5059    -5024    -5044    -5170 
   -5347    -5374    -5233    -5208    -5359    -5445    -5366    -5163 
   -4965    -4897    -4891    -4860    -4864    -4947    -5088    -5193 
   -5161    -5020    -4914    -4995    -5265    -5509    -5530    -5319 
   -5024    -4851    -4827    -4820    -4847    -5040    -5327    -5420 
   -5215    -4997    -5042    -5242    -5290    -5082    -4895    -4999 
   -5225    -5337    -5374    -5405    -5366    -5219    -5090    -5092 
   -5074    -4953    -4895    -4965    -5109    -5308    -5445    -5358 
   -5067    -4781    -4668    -4745    -4931    -5096    -5155    -5135 
   -5103    -5105    -5090    -4985    -4907    -4974    -5088    -5185 
   -5347    -5522    -5495    -5192    -4819    -4649    -4741    -4939 
   -5092    -5198    -5316    -5383    -5300    -5125    -5023    -5032 
   -5081    -5103    -5094    -5071    -5031    -5020    -5112    -5290 
   -5416    -5323    -5086    -4970    -4919    -4760    -4715    -4942 
   -5152    -5162    -5194    -5425    -5645    -5621    -5427    -5216 
   -5011    -4851    -4876    -5049    -5128    -5031    -4951    -5000 
   -5053    -5055    -5121    -5233    -5232    -5115    -5030    -5024 
   -5085    -5235    -5431    -5497    -5302    -4953    -4710    -4734 
   -4992    -5300    -5414    -5279    -5084    -5011    -5082    -5198 
   -5243    -5216    -5217    -5251    -5250    -5216    -5143    -5004 
   -4862    -4760    -4681    -4688    -4803    -4955    -5143    -5366 
   -5429    -5224    -4980    -4924    -5050    -5239    -5328    -5240 
   -5061    -4923    -4963    -5166    -5368    -5501    -5528    -5327 
   -4887    -4460    -4349    -4576    -4972    -5393    -5676    -5725 
   -5629    -5498    -5259    -4876    -4585    -4621    -4878    -5105 
   -5161    -5082    -5039    -5163    -5381    -5508    -5449    -5175 
   -4776    -4553    -4760    -5243    -5568    -5510    -5275    -5130 
   -5071    -4990    -4880    -4765    -4666    -4700    -4935    -5209 
   -5324    -5259    -5125    -5084    -5167    -5224    -5167    -5097 
   -5061    -4968    -4849    -4874    -5092    -5373    -5575    -5602 
   -5433    -5201    -5089    -5092    -5078    -5031    -5074    -5215 
   -5265    -5151    -5035    -5017    -5066    -5123    -5146    -5182 
   -5235    -5166    -4951    -4742    -4679    -4789    -4969    -5132 
   -5269    -5313    -5265    -5233    -5286    -5385    -5416    -5312 
   -5112    -4891    -4793    -4900    -5047    -5090    -5069    -4997 
   -4882    -4831    -4887    -4950    -4989    -5101    -5267    -5321 
   -5193    -4968    -4799    -4864    -5184    -5526    -5665    -5576 
   -5385    -5255    -5263    -5323    -5292    -5138    -4969    -4869 
   -4812    -4843    -5031    -5259    -5359    -5348    -5285    -5132 
   -4899    -4745    -4800    -4959    -5078    -5155    -5213    -5228 
   -5182    -5120    -5103    -5094    -4996    -4816    -4707    -4812 
   -5098    -5381    -5494    -5367    -5053    -4773    -4764    -5017 
   -5314    -5428    -5302    -5081    -4891    -4765    -4765    -4900 
   -5089    -5300    -5489    -5497    -5232    -4861    -4675    -4815 
   -5185    -5512    -5541    -5260    -4911    -4799    -4992    -5233 
   -5323    -5327    -5306    -5209    -5076    -5036    -5132    -5256 
   -5317    -5260    -5019    -4683    -4529    -4665    -4899    -5066 
   -5213    -5355    -5348    -5151    -4962    -5043    -5452    -5931 
   -6137    -5976    -5638    -5389    -5341    -5374    -5242    -4822 
   -4249    -3823    -3775    -4052    -4406    -4715    -5013    -5278 
   -5427    -5454    -5386    -5177    -4814    -4482    -4421    -4675 
   -5116    -5574    -5838    -5745    -5387    -5092    -5077    -5219 
   -5267    -5130    -4882    -4689    -4677    -4920    -5483    -6250 
   -6833    -6791    -6061    -5152    -4704    -4922    -5621    -6374 
   -6652    -6319    -5742    -5287    -5026    -4901    -4812    -4610 
   -4306    -4104    -4086    -4132    -4086    -3897    -3638    -3379 
   -3156    -3025    -3002    -3152    -3634    -4444    -5278    -5791 
   -5907    -5799    -5634    -5490    -5467    -5657    -6033    -6399 
   -6531    -6435    -6307    -6212    -6120    -6119    -6335    -6674 
   -6808    -6481    -5784    -5024    -4410    -4047    -4031    -4251 
   -4363    -4276    -4295    -4561    -4865    -5065    -5250    -5418 
   -5363    -4990    -4488    -4126    -4108    -4499    -5043    -5374 
   -5498    -5748    -6281    -6870    -7159    -7047    -6632    -5935 
   -4989    -4020    -3353    -3154    -3322    -3599    -3811    -4013 
   -4337    -4792    -5240    -5470    -5339    -4942    -4553    -4398 
   -4565    -5023    -5602    -6022    -6106    -5913    -5605    -5285 
   -5020    -4810    -4588    -4407    -4487    -5013    -5884    -6670 
   -6960    -6705    -6161    -5613    -5190    -4972    -5076    -5439 
   -5695    -5575    -5185    -4692    -4091    -3435    -2878    -2521 
   -2486    -2945    -3925    -5174    -6343    -7217    -7655    -7534 
   -6893    -5968    -5074    -4460    -4186    -4145    -4239    -4438 
   -4698    -4904    -4941    -4733    -4330    -3985    -3997    -4479 
   -5283    -6064    -6458    -6386    -6042    -5664    -5386    -5178 
   -4969    -4796    -4738    -4923    -5454    -6185    -6778    -6952 
   -6628    -5977    -5298    -4801    -4545    -4446    -4415    -4544 
   -4916    -5344    -5497    -5169    -4500    -3881    -3609    -3775 
   -4303    -4955    -5520    -5907    -6025    -5779    -5221    -4580 
   -4156    -4072    -4241    -4509    -4689    -4649    -4534    -4633 
   -4932    -5116    -4995    -4735    -4714    -5158    -5842    -6312 
   -6399    -6269    -6102    -5906    -5667    -5494    -5490    -5580 
   -5663    -5728    -5752    -5722    -5713    -5742    -5699    -5485 
   -5090    -4557    -3966    -3437    -3106    -3114    -3534    -4263 
   -5000    -5447    -5544    -5400    -5144    -4957    -4997    -5189 
   -5366    -5533    -5751    -5976    -6115    -6081    -5898    -5657 
   -5400    -5184    -5078    -5016    -4851    -4499    -4014    -3616 
   -3469    -3593    -3943    -4414    -4887    -5306    -5620    -5800 
   -5891    -5898    -5815    -5645    -5385    -5127    -5047    -5229 
   -5609    -6000    -6199    -6156    -5964    -5734    -5587    -5578 
   -5584    -5435    -5130    -4760    -4357    -3946    -3619    -3526 
   -3742    -4125    -4449    -4648    -4799    -5015    -5308    -5567 
   -5767    -5975    -6147    -6176    -6064    -5883    -5633    -5281 
   -4841    -4359    -3915    -3628    -3618    -3924    -4413    -4858 
   -5171    -5391    -5530    -5553    -5418    -5171    -4943    -4816 
   -4854    -5132    -5578    -5971    -6200    -6328    -6367    -6204 
   -5860    -5532    -5321    -5144    -4961    -4845    -4826    -4858 
   -4927    -5070    -5320    -5548    -5499    -5089    -4488    -3901 
   -3451    -3267    -3460    -3966    -4557    -5062    -5478    -5807 
   -5998    -6099    -6250    -6421    -6345    -5902    -5393    -5170 
   -5215    -5275    -5223    -5070    -4783    -4280    -3612    -2961 
   -2548    -2511    -2849    -3481    -4359    -5444    -6550    -7352 
   -7620    -7403    -6961    -6538    -6214    -5956    -5697    -5402 
   -5124    -4941    -4865    -4841    -4846    -4938    -5094    -5123 
   -4895    -4608    -4561    -4745    -4888    -4857    -4764    -4785 
   -5000    -5305    -5506    -5498    -5293    -4959    -4618    -4426 
   -4492    -4749    -4963    -4899    -4523    -4089    -3904    -4018 
   -4264    -4552    -4939    -5470    -6064    -6629    -7101    -7338 
   -7256    -6936    -6480    -5952    -5458    -5061    -4731    -4348 
   -3767    -3114    -2776    -2965    -3523    -4155    -4692    -5166 
   -5636    -6060    -6380    -6531    -6440    -6134    -5771    -5553 
   -5611    -5852    -5984    -5806    -5356    -4853    -4542    -4477 
   -4526    -4545    -4473    -4406    -4487    -4635    -4657    -4571 
   -4521    -4595    -4789    -4986    -5136    -5382    -5798    -6192 
   -6246    -5718    -4633    -3403    -2610    -2612    -3318    -4303 
   -5193    -5883    -6354    -6574    -6640    -6737    -6902    -6924 
   -6589    -5950    -5279    -4858    -4793    -4934    -5039    -5004 
   -4882    -4727    -4488    -4117    -3724    -3534    -3709    -4210 
   -4743    -4989    -4958    -4928    -5101    -5428    -5657    -5630 
   -5462    -5301    -5165    -5111    -5235    -5455    -5556    -5454 
   -5286    -5320    -5725    -6354    -6853    -6953    -6569    -5854 
   -5148    -4669    -4407    -4288    -4255    -4279    -4315    -4263 
   -4140    -4117    -4240    -4376    -4455    -4563    -4800    -5108 
   -5301    -5281    -5155    -5131    -5344    -5730    -6058    -6115 
   -5923    -5764    -5849    -6053    -6111    -5887    -5401    -4855 
   -4540    -4529    -4612    -4564    -4374    -4240    -4359    -4789 
   -5404    -5879    -5907    -5436    -4695    -4114    -4033    -4365 
   -4770    -5074    -5270    -5331    -5246    -5146    -5219    -5445 
   -5598    -5571    -5472    -5425    -5414    -5337    -5123    -4753 
   -4251    -3735    -3403    -3461    -3959    -4731    -5599    -6384 
   -6794    -6704    -6340    -6012    -5856    -5830    -5790    -5616 
   -5306    -4935    -4590    -4268    -3905    -3557    -3407    -3574 
   -4056    -4741    -5440    -6038    -6463    -6610    -6517    -6373 
   -6255    -6091    -5811    -5406    -4926    -4476    -4198    -4206 
   -4510    -5005    -5478    -5729    -5724    -5579    -5394    -5190 
   -5024    -4942    -4842    -4596    -4287    -4124    -4148    -4229 
   -4282    -4324    -4364    -4341    -4279    -4330    -4557    -4881 
   -5256    -5684    -6111    -6388    -6411    -6232    -5931    -5503 
   -4977    -4521    -4320    -4349    -4437    -4536    -4696    -4861 
   -4981    -5125    -5377    -5742    -6114    -6318    -6338    -6320 
   -6365    -6455    -6505    -6381    -5964    -5271    -4504    -3897 
   -3566    -3465    -3481    -3596    -3846    -4175    -4437    -4519 
   -4486    -4534    -4779    -5124    -5373    -5445    -5475    -5620 
   -5849    -6034    -6106    -6097    -6076    -6062    -6019    -5900 
   -5757    -5721    -5783    -5757    -5517    -5121    -4723    -4504 
   -4572    -4795    -4919    -4808    -4491    -4068    -3609    -3195 
   -2967    -2999    -3267    -3717    -4305    -4954    -5575    -6038 
   -6253    -6281    -6278    -6339    -6454    -6554    -6601    -6581 
   -6450    -6196    -5872    -5497    -5050    -4583    -4206    -3960 
   -3815    -3786    -3920    -4172    -4438    -4692    -4968    -5198 
   -5265    -5216    -5259    -5486    -5767    -5930    -5894    -5706 
   -5495    -5373    -5371    -5428    -5429    -5346    -5205    -5016 
