Origin Time       2024/06/23 22:54:00
Lat.              35.645
Long.             140.060
Depth. (km)       72
Mag.              4.1
Station Code      CHB024
Station Lat.      35.6337
Station Long.     140.0781
Station Height(m) 3
Record Time       2024/06/23 22:54:44
Sampling Freq(Hz) 100Hz
Duration Time(s)  60
Dir.              U-D
Scale Factor      7845(gal)/8223790
Max. Acc. (gal)   3.020
Last Correction   2024/06/23 22:54:44
Memo.             
    9759     9774     9772     9763     9759     9756     9748     9741 
    9737     9734     9736     9741     9749     9768     9788     9791 
    9782     9776     9774     9765     9756     9760     9769     9767 
    9761     9760     9757     9751     9751     9753     9753     9749 
    9744     9742     9747     9756     9764     9764     9753     9749 
    9765     9772     9768     9768     9767     9761     9767     9771 
    9760     9751     9752     9757     9767     9771     9763     9753 
    9749     9752     9752     9749     9752     9756     9765     9778 
    9784     9780     9769     9755     9745     9740     9738     9744 
    9753     9760     9765     9771     9768     9763     9756     9744 
    9741     9753     9760     9757     9759     9767     9774     9771 
    9761     9759     9756     9752     9755     9769     9776     9769 
    9765     9763     9749     9747     9759     9764     9760     9759 
    9751     9742     9744     9749     9748     9745     9756     9771 
    9775     9776     9774     9771     9774     9767     9748     9733 
    9729     9734     9748     9755     9756     9772     9795     9792 
    9764     9738     9734     9740     9745     9755     9767     9775 
    9782     9782     9772     9755     9738     9729     9732     9744 
    9755     9765     9780     9780     9765     9759     9759     9753 
    9745     9749     9753     9748     9741     9733     9740     9763 
    9774     9765     9759     9755     9753     9755     9749     9744 
    9747     9751     9751     9755     9761     9767     9769     9769 
    9768     9765     9760     9753     9744     9733     9737     9748 
    9757     9764     9768     9771     9771     9759     9738     9725 
    9724     9737     9760     9775     9779     9780     9771     9757 
    9753     9744     9733     9736     9751     9772     9790     9788 
    9778     9767     9752     9740     9738     9740     9745     9756 
    9760     9760     9767     9772     9761     9748     9748     9749 
    9747     9756     9764     9760     9761     9772     9775     9768 
    9765     9761     9745     9744     9759     9760     9757     9760 
    9759     9763     9764     9753     9751     9760     9771     9778 
    9769     9757     9752     9755     9761     9761     9756     9757 
    9761     9763     9767     9775     9771     9753     9745     9748 
    9744     9741     9755     9772     9771     9760     9765     9776 
    9769     9756     9761     9764     9742     9728     9751     9776 
    9771     9757     9757     9769     9780     9779     9763     9748 
    9755     9765     9761     9752     9749     9755     9763     9768 
    9774     9769     9755     9753     9765     9763     9753     9760 
    9767     9756     9749     9761     9774     9771     9759     9756 
    9763     9763     9753     9744     9736     9745     9765     9769 
    9756     9749     9756     9763     9768     9772     9772     9763 
    9744     9738     9755     9764     9752     9747     9752     9757 
    9764     9772     9772     9768     9765     9752     9747     9761 
    9769     9760     9748     9744     9753     9769     9771     9763 
    9753     9740     9741     9755     9764     9771     9779     9772 
    9749     9736     9734     9738     9753     9767     9769     9783 
    9792     9779     9763     9759     9751     9738     9734     9744 
    9756     9760     9761     9767     9771     9757     9745     9747 
    9745     9747     9767     9776     9768     9763     9764     9763 
    9752     9744     9749     9761     9768     9771     9774     9761 
    9741     9742     9763     9768     9751     9741     9753     9764 
    9757     9753     9760     9768     9769     9765     9757     9747 
    9736     9733     9741     9763     9786     9790     9771     9752 
    9751     9751     9742     9748     9759     9760     9764     9780 
    9783     9772     9768     9752     9729     9734     9756     9759 
    9753     9755     9755     9765     9787     9792     9769     9738 
    9729     9745     9756     9768     9798     9807     9782     9753 
    9736     9728     9728     9740     9759     9767     9759     9755 
    9764     9771     9765     9752     9738     9740     9760     9768 
    9759     9763     9775     9771     9759     9748     9741     9736 
    9740     9755     9761     9763     9775     9780     9764     9755 
    9757     9749     9745     9752     9752     9760     9782     9792 
    9783     9760     9738     9733     9751     9771     9767     9755 
    9751     9749     9759     9775     9771     9761     9759     9753 
    9745     9742     9744     9748     9748     9749     9760     9779 
    9786     9764     9736     9740     9747     9738     9752     9772 
    9769     9764     9764     9765     9774     9778     9776     9765 
    9752     9755     9752     9742     9757     9778     9776     9768 
    9765     9753     9733     9737     9761     9764     9747     9740 
    9763     9784     9768     9734     9724     9744     9775     9786 
    9771     9763     9765     9764     9763     9756     9747     9747 
    9744     9752     9776     9778     9751     9748     9774     9782 
    9760     9734     9715     9724     9761     9791     9792     9783 
    9748     9709     9729     9779     9776     9737     9733     9769 
    9809     9813     9764     9695     9688     9752     9805     9788 
    9729     9703     9744     9792     9799     9780     9756     9730 
    9726     9747     9756     9749     9751     9749     9761     9806 
    9829     9783     9710     9684     9720     9760     9765     9757 
    9769     9780     9765     9753     9757     9757     9757     9755 
    9749     9751     9747     9740     9756     9782     9772     9749 
    9742     9744     9757     9776     9772     9752     9752     9769 
    9763     9736     9734     9749     9763     9792     9814     9802 
    9798     9864    10004    10162    10253    10203    10030     9815 
    9595     9350     9078     8893     8980     9286     9513     9706 
   10139    10440    10320    10476    11013    10995    10266     9373 
    8834     9094     9513     9373     9587    10280     9880     8737 
    8386     8062     7369     8143    10465    12221    12124    10478 
    8993     9107     9963    10270    10724    11881    11998    10007 
    7627     6592     7045     8403     9768    10862    11815    11588 
    9614     8019     8653    10034    10153     9722    10462    11888 
   11858    10096     8610     8484     8854     8729     8869    10457 
   11646    10269     8556     8915     9828    10000    10048    10141 
   10530    10894     9752     8235     8707     9698     9537     9782 
   10494     9980     9100     9354     9988    10366    10723    10432 
    9387     8984     9683    10303    10219     9949     9728     9394 
    9140     9213     9359     9239     9292     9860    10133     9715 
    9478     9904    10463    10724    10794    10435     9540     8985 
    9105     9350     9682     9948     9629     9069     8957     9363 
    9996    10401    10357    10247    10164     9729     9238     9232 
    9520     9663     9518     9325     9464     9815    10152    10613 
   10909    10550     9856     9369     9140     9150     9509     9891 
    9757     9525     9863    10305    10230     9915     9691     9489 
    9363     9445     9707     9922     9753     9355     9242     9497 
    9964    10413    10503    10242     9876     9532     9342     9375 
    9514     9684     9849     9906     9949     9949     9618     9336 
    9645     9967     9711     9464     9663     9825     9788     9942 
   10080     9864     9722     9846     9798     9612     9567     9587 
    9652     9729     9725     9815    10011     9952     9606     9463 
    9576     9489     9386     9697     9938     9772     9747    10008 
   10153    10133     9976     9747     9724     9738     9570     9505 
    9671     9969    10296    10265     9748     9248     9058     9181 
    9760    10432    10511     9953     9271     9024     9286     9717 
   10181    10422    10131     9698     9571     9544     9482     9622 
    9823     9805     9745     9840     9977     9888     9639     9745 
   10089    10068     9767     9445     9113     9162     9811    10417 
   10476    10133     9475     8820     8873     9559    10048    10142 
   10301    10569    10505     9840     9059     9031     9504     9580 
    9605    10126    10384     9942     9548     9537     9549     9481 
    9413     9493     9838    10184    10285    10224     9879     9279 
    9186     9900    10624    10789    10439     9744     9197     9063 
    8949     8869     9089     9216     9261     9771    10300    10177 
    9981    10137    10012     9668     9821    10125     9969     9714 
    9742     9676     9165     8635     8750     9564    10469    10947 
   11099    10929    10185     9351     9153     9400     9702    10162 
   10363     9648     8939     9379    10157    10378    10361    10115 
    9450     8749     8452     8815     9699    10150     9583     9000 
    9216     9705    10161    10608    10724    10488    10107     9636 
    9352     9648    10131    10161    10160    10422    10042     8932 
    8459     8986     9483     9734    10177    10535    10520    10133 
    9362     8856     9184     9617     9518     9427     9664     9826 
    9805     9929    10166    10077     9801    10026    10613    10627 
    9904     9158     8737     8621     8835     9343    10138    10783 
   10585     9894     9545     9541     9574     9657     9759     9726 
    9705     9971    10315    10316    10076    10010     9995     9620 
    9378     9671     9517     8903     9408    10623    10674     9964 
    9660     9352     9080     9329     9452     9594    10454    10800 
    9772     8846     8881     9085     9325    10149    10953    10723 
    9737     8965     8926     9472    10002    10147    10126    10231 
   10327    10060     9512     9313     9643     9688     9359     9589 
   10106    10137    10061     9952     9531     9451     9834     9693 
    9192     9370    10017    10513    10678    10069     9023     8892 
    9626     9813     9568     9963    10534    10486    10018     9424 
    9013     9046     9308     9599     9968    10215    10026     9447 
    8823     8700     9269     9976    10430    10692    10671    10305 
    9729     9194     9107     9475     9823    10080    10274    10064 
    9705     9726     9910    10011     9976     9621     9362     9614 
    9648     9171     9147     9732    10174    10265    10000     9504 
    9310     9454     9487     9566     9892     9971     9778     9888 
   10106    10071    10064    10106     9965     9877     9944     9819 
    9522     9297     9142     9324     9873    10196    10104     9838 
    9599     9603     9742     9760     9680     9591     9693    10153 
   10478    10180     9705     9576     9672     9782     9902    10022 
    9845     9359     9255     9517     9339     9117     9625    10231 
   10184     9688     9265     9182     9231     9209     9354     9779 
   10160    10235     9985     9672     9782    10116    10146    10207 
   10458    10431    10245    10041     9533     9146     9470     9967 
   10176    10521    10754    10142     9155     8627     8499     8583 
    9135    10058    10651    10579    10214     9895     9660     9583 
    9603     9309     8692     8360     8568     9004     9423     9930 
   10542    10804    10555    10307    10287    10180     9902     9682 
    9602     9647     9768     9880     9985    10079    10161    10293 
   10362    10114     9666     9487     9594     9647     9690     9795 
    9738     9564     9491     9408     9252     9228     9328     9509 
    9779     9913     9894     9799     9443     9003     8927     9347 
   10050    10497    10543    10624    10652    10219     9567     9081 
    8907     9211     9668     9780     9860    10080     9979     9729 
    9801    10030    10299    10566    10457     9999     9709     9659 
    9520     9256     9140     9298     9622     9859     9792     9691 
    9913    10196    10201     9980     9598     9108     8768     8834 
    9286     9857    10153    10046     9945     9984     9748     9356 
    9397     9845    10197    10300    10282    10089     9641     9211 
    9170     9406     9477     9439     9748    10154    10019     9590 
    9420     9374     9310     9533    10119    10697    10926    10839 
   10773    10818    10647    10200     9833     9707     9641     9319 
    8769     8581     9073     9660     9686     9335     9135     9128 
    9285     9814    10404    10519    10309    10031     9613     9288 
    9277     9248     9074     9093     9412    10069    10968    11340 
   10832    10107     9690     9607     9684     9667     9416     9159 
    9320     9751     9941     9853     9670     9472     9350     9440 
    9814    10125    10002     9722     9609     9424     9094     8988 
    9174     9462     9828    10247    10651    10820    10388     9548 
    9011     9001     9286     9801    10327    10382    10018     9683 
    9501     9504     9711     9823     9828    10153    10561    10324 
    9661     9343     9445     9703     9968    10141    10288    10315 
    9945     9391     9175     9306     9379     9394     9666    10049 
   10056     9675     9373     9348     9483     9774    10095    10134 
    9965     9933    10041    10114    10021     9707     9477     9609 
    9741     9609     9602     9822     9860     9709     9585     9475 
    9452     9559     9672     9729     9597     9238     8973     9065 
    9441     9948    10455    10752    10577    10084     9814     9871 
    9883     9717     9518     9431     9429     9324     9189     9352 
    9694     9860     9949    10075    10027     9822     9792    10080 
   10423    10471    10169     9767     9625     9815    10048    10138 
   10146    10058     9963    10129    10393    10368    10008     9445 
    9001     8969     9184     9562    10065    10266    10127    10068 
    9915     9486     9443     9960    10230    10077     9919     9643 
    9134     8748     8608     8654     9009     9445     9567     9564 
    9466     8834     8046     8039     8726     9420     9983    10231 
    9826     9250     9154     9236     9186     9450    10035    10251 
   10073    10112    10473    10814    11025    11168    11205    11110 
   10964    10812    10686    10824    11310    11645    11391    10821 
   10341    10066    10039    10076     9801     9182     8552     8201 
    8198     8452     8861     9385     9926    10212    10103     9748 
    9224     8627     8197     7932     7788     7879     8170     8514 
    8858     9208     9518     9695     9837    10085    10392    10686 
   10818    10619    10184     9814     9751     9894     9960    10037 
   10301    10601    10894    11246    11477    11545    11539    11229 
   10447     9505     8677     8005     7728     8093     8872     9647 
   10204    10443    10220     9531     8752     8333     8361     8761 
    9431    10017    10227    10157     9948     9630     9427     9567 
    9895    10245    10694    11105    11167    10762    10045     9513 
    9633    10199    10606    10669    10570    10323     9979     9823 
   10000    10324    10385     9873     8989     8131     7418     6936 
    6906     7257     7723     8276     8862     9362     9946    10665 
   11236    11593    11832    11792    11360    10782    10285     9906 
    9819    10146    10481    10308     9711     9189     9053     9363 
   10029    10731    11005    10508     9331     8149     7510     7325 
    7510     8152     9094     9991    10501    10520    10303    10206 
   10353    10547    10644    10729    10720    10440    10066    10033 
   10511    11076    11196    10852    10214     9321     8460     8036 
    8158     8781     9605    10107    10165     9936     9486     9024 
    8918     9378    10238    10935    10921    10222     9354     8568 
    7831     7468     7830     8673     9468     9937    10188    10389 
   10507    10424    10152     9981    10187    10566    10763    10724 
   10476    10010     9580     9539     9956    10519    10725    10408 
    9840     9350     9204     9460     9817     9868     9540     9250 
    9397     9741     9822     9698     9594     9497     9364     9163 
    8959     9032     9359     9517     9436     9456     9603     9625 
    9501     9347     9371     9798    10454    11024    11399    11371 
   10750     9871     9310     9231     9412     9687    10025    10345 
   10524    10524    10471    10581    10733    10544    10027     9477 
    9001     8679     8561     8568     8660     8769     8718     8530 
    8397     8414     8752     9508    10350    10906    11090    10899 
   10480    10022     9493     8962     8768     9005     9425     9887 
   10308    10478    10442    10431    10384    10253    10308    10638 
   10945    10987    10705    10161     9659     9456     9423     9312 
    9076     8837     8746     8839     9045     9347     9711     9976 
   10071    10133    10282    10439    10389    10118     9856     9698 
    9501     9170     8862     8795     8961     9312     9805    10220 
   10385    10315    10091     9892     9894    10026    10052     9990 
    9969     9763     9243     8818     8761     8870     8893     8799 
    8700     8804     9197     9580     9782    10126    10714    11196 
   11295    10975    10508    10247    10193    10218    10278    10210 
    9915     9567     9379     9474     9809    10100    10169    10080 
    9761     9309     9219     9524     9672     9529     9495     9806 
   10266    10530    10444    10238    10220    10176     9722     9185 
    9024     8988     8814     8806     9115     9420     9452     9262 
    9050     8954     8989     9184     9553     9910    10033     9994 
    9983     9987     9933     9917     9969     9990    10065    10282 
   10551    10822    10947    10828    10701    10650    10477    10122 
    9722     9354     8958     8640     8598     8800     9119     9408 
    9455     9262     9069     9070     9327     9779    10174    10188 
    9834     9483     9386     9509     9745    10065    10438    10705 
   10670    10338     9950     9675     9516     9553     9823    10077 
   10085     9840     9402     8916     8656     8784     9184     9637 
    9968    10100    10142    10220    10211    10066    10007    10107 
   10231    10323    10332    10246    10187    10152    10015     9807 
    9660     9634     9733     9907     9996     9910     9818     9776 
    9543     9121     8799     8660     8677     8842     8968     8946 
    8958     9150     9441     9711     9890     9975    10044    10139 
   10219    10311    10496    10681    10736    10639    10349     9918 
    9543     9238     8977     8932     9204     9595     9883    10034 
   10080    10068    10108    10187    10210    10216    10219    10153 
   10060     9917     9633     9394     9431     9679     9994    10307 
   10532    10569    10423    10234    10046     9778     9464     9217 
    9088     9005     8862     8702     8634     8665     8749     8851 
    8970     9131     9364     9637     9790     9778     9803     9937 
