Origin Time       2024/06/23 22:54:00
Lat.              35.645
Long.             140.060
Depth. (km)       72
Mag.              4.1
Station Code      CHB007
Station Lat.      35.7237
Station Long.     140.2246
Station Height(m) 30
Record Time       2024/06/23 22:54:43
Sampling Freq(Hz) 100Hz
Duration Time(s)  60
Dir.              E-W
Scale Factor      7845(gal)/8223790
Max. Acc. (gal)   6.306
Last Correction   2024/06/23 22:54:43
Memo.             
[...]
    3703     3696     3685     3676     3681     3704     3720     3723 
    3712     3694     3689     3692     3701     3715     3717     3711 
    3711     3705     3688     3688     3694     3694     3705     3716 
    3707     3693     3692     3696     3693     3693     3700     3694 
    3696     3715     3716     3700     3696     3694     3690     3701 
    3700     3680     3682     3707     3720     3719     3705     3693 
    3693     3696     3696     3696     3703     3708     3700     3689 
    3692     3701     3705     3701     3696     3697     3696     3694 
    3705     3713     3708     3701     3696     3689     3693     3696 
    3693     3703     3707     3701     3703     3707     3699     3692 
    3689     3686     3688     3689     3690     3703     3717     3716 
    3694     3678     3681     3696     3700     3696     3700     3708 
    3713     3712     3696     3680     3682     3694     3701     3700 
    3697     3701     3708     3705     3697     3696     3690     3688 
    3697     3709     3715     3709     3694     3686     3689     3689 
    3684     3688     3704     3715     3713     3709     3700     3692 
    3693     3697     3693     3689     3701     3707     3690     3686 
    3701     3700     3692     3699     3704     3703     3699     3688 
    3678     3682     3699     3712     3711     3705     3699     3686 
    3686     3694     3697     3699     3705     3711     3713     3711 
    3696     3677     3682     3699     3705     3707     3713     3715 
    3704     3685     3674     3677     3690     3705     3717     3711 
    3699     3696     3696     3700     3696     3685     3694     3711 
    3704     3686     3681     3693     3712     3713     3694     3677 
    3682     3697     3701     3700     3711     3713     3694     3685 
    3690     3690     3693     3701     3705     3704     3701     3697 
    3696     3699     3696     3693     3700     3699     3696     3699 
    3697     3689     3690     3701     3701     3689     3688     3701 
    3705     3699     3696     3694     3692     3689     3686     3682 
    3689     3704     3703     3694     3697     3699     3699     3703 
    3697     3688     3692     3704     3703     3693     3690     3690 
    3693     3701     3699     3688     3688     3699     3703     3697 
    3692     3693     3703     3711     3708     3692     3677     3680 
    3696     3703     3697     3688     3690     3696     3694     3692 
    3694     3704     3709     3699     3685     3685     3689     3694 
    3703     3701     3697     3697     3699     3703     3699     3686 
    3688     3701     3708     3704     3699     3699     3700     3689 
    3682     3690     3699     3700     3694     3692     3699     3703 
    3705     3707     3705     3704     3700     3696     3689     3688 
    3697     3705     3707     3704     3699     3692     3690     3697 
    3703     3696     3690     3692     3689     3694     3704     3703 
    3707     3705     3690     3692     3709     3713     3705     3700 
    3699     3692     3685     3685     3684     3688     3705     3713 
    3708     3711     3713     3701     3686     3678     3674     3686 
    3707     3712     3715     3719     3712     3693     3682     3689 
    3692     3686     3692     3700     3699     3700     3705     3700 
    3693     3692     3690     3696     3707     3709     3707     3703 
    3696     3690     3688     3689     3692     3692     3696     3699 
    3704     3719     3721     3704     3682     3674     3684     3692 
    3699     3708     3712     3712     3708     3696     3690     3694 
    3693     3693     3697     3696     3697     3709     3717     3711 
    3697     3686     3681     3689     3704     3712     3711     3708 
    3700     3690     3693     3701     3699     3697     3699     3694 
    3693     3701     3703     3692     3690     3700     3703     3694 
    3701     3713     3712     3704     3696     3689     3692     3700 
    3700     3697     3701     3707     3705     3699     3694     3693 
    3699     3704     3696     3689     3701     3713     3703     3692 
    3694     3689     3684     3701     3711     3703     3700     3707 
    3711     3705     3689     3676     3682     3694     3696     3699 
    3708     3716     3713     3697     3682     3684     3693     3701 
    3697     3685     3692     3711     3709     3703     3696     3685 
    3682     3690     3697     3704     3708     3707     3707     3705 
    3704     3696     3689     3699     3703     3697     3699     3697 
    3696     3697     3692     3685     3690     3703     3703     3696 
    3694     3688     3678     3676     3676     3681     3697     3716 
    3727     3734     3735     3717     3699     3700     3712     3711 
    3694     3677     3662     3657     3665     3669     3670     3678 
    3676     3663     3685     3723     3728     3738     3792     3835 
    3815     3743     3678     3699     3759     3736     3619     3534 
    3574     3649     3620     3527     3527     3661     3773     3747 
    3699     3797     3987     3956     3599     3292     3362     3666 
    3892     3951     3991     4033     3879     3483     3152     3237 
    3685     4064     4067     3785     3491     3337     3316     3408 
    3669     4078     4355     4179     3624     3177     3235     3628 
    3898     3937     3910     3950     4021     3869     3466     3277 
    3473     3665     3600     3395     3358     3694     4072     4082 
    3894     3789     3699     3577     3576     3716     3813     3750 
    3550     3412     3564     3846     3859     3635     3577     3805 
    4077     4094     3753     3399     3388     3522     3516     3411 
    3433     3758     4156     4163     3817     3578     3632     3811 
    3879     3717     3507     3458     3508     3580     3686     3762 
    3731     3634     3601     3684     3812     3952     3989     3789 
    3510     3360     3358     3460     3623     3840     4144     4413 
    4364     3921     3422     3217     3262     3253     3156     3341 
    3892     4349     4378     4114     3861     3757     3653     3431 
    3254     3253     3362     3592     3906     4020     3798     3559 
    3613     3865     4027     3987     3900     3894     3805     3430 
    2965     2808     3053     3595     4241     4693     4726     4310 
    3661     3148     2952     3001     3183     3500     3991     4448 
    4496     4052     3474     3169     3176     3279     3437     3704 
    3924     3986     4037     4045     3817     3461     3258     3403 
    3902     4422     4592     4324     3696     2949     2515     2659 
    3237     3932     4519     4716     4270     3423     2810     2895 
    3582     4178     4085     3535     3225     3435     3950     4423 
    4511     4122     3597     3264     3115     3129     3399     3793 
    3985     3863     3615     3541     3744     3990     4094     4056 
    3815     3445     3310     3545     3865     3963     3712     3221 
    2895     3110     3763     4359     4519     4249     3802     3507 
    3520     3736     3974     4036     3811     3496     3315     3238 
    3280     3491     3686     3731     3686     3573     3492     3681 
    4183     4638     4554     3943     3369     3210     3362     3550 
    3557     3426     3381     3465     3559     3603     3592     3661 
    3959     4318     4476     4272     3703     3221     3348     3784 
    3854     3480     3086     3002     3233     3623     3956     4058 
    4001     3920     3797     3720     3832     4008     4012     3746 
    3262     2928     3210     3951     4444     4411     4087     3647 
    3244     3002     2932     3211     3931     4617     4743     4367 
    3816     3306     3030     3107     3376     3634     3793     3820 
    3817     3970     4198     4125     3596     3003     2867     3267 
    3743     3789     3473     3395     3879     4504     4696     4464 
    4201     3933     3380     2721     2504     2967     3848     4522 
    4518     3947     3221     2843     3171     3902     4344     4276 
    3989     3673     3356     3194     3269     3399     3457     3599 
    4023     4477     4351     3626     3153     3365     3711     3740 
    3605     3558     3708     3886     3894     3869     3950     4064 
    4040     3682     3199     3149     3627     4176     4390     4087 
    3331     2636     2650     3424     4325     4696     4530     4168 
    3651     3019     2650     2759     3129     3510     3915     4344 
    4676     4845     4695     4051     3083     2232     2006     2623 
    3672     4510     4799     4457     3670     3105     3311     3948 
    4288     4094     3639     3362     3492     3771     3767     3478 
    3322     3527     3893     4105     4062     3916     3763     3550 
    3314     3142     3140     3454     4056     4580     4599     4071 
    3385     3046     3211     3460     3493     3546     3689     3850 
    4137     4363     4229     3978     3902     3840     3518     2982 
    2651     2729     2936     3196     3732     4406     4758     4619 
    4243     3921     3595     3103     2810     3200     3902     4147 
    3819     3350     3140     3283     3576     3828     4099     4430 
    4618     4483     4050     3582     3418     3504     3512     3330 
    3098     3167     3731     4270     4190     3738     3433     3393 
    3589     3879     3863     3523     3291     3229     3257     3586 
    4152     4665     5017     4855     3897     2762     2249     2438 
    3110     3944     4488     4610     4455     4000     3258     2531 
    2182     2500     3483     4716     5578     5443     4367     3327 
    2920     2984     3353     3753     3846     3719     3667     3757 
    3798     3622     3403     3558     4139     4714     4889     4577 
    3890     2953     2000     1566     2076     3321     4592     5186 
    4860     3852     2783     2569     3499     4560     4719     4232 
    3915     4004     4112     3832     3223     2722     2660     2886 
    3086     3341     3836     4376     4608     4469     4213     4094 
    4050     3758     3172     2664     2556     2901     3570     4306 
    4850     5065     4843     4164     3323     2709     2440     2443 
    2740     3435     4314     4857     4892     4564     3933     3268 
    3040     3368     3923     4297     4270     3851     3258     2655 
    2110     1961     2563     3650     4638     5233     5387     5092 
    4409     3601     3160     3407     4044     4338     3832     2891 
    2361     2616     3357     4081     4415     4376     4338     4487 
    4541     4180     3501     2857     2531     2621     3002     3501 
    4091     4598     4610     4091     3528     3242     3136     3030 
    2964     3130     3402     3501     3669     4272     4973     5094 
    4563     3811     3148     2729     2706     3126     3786     4318 
    4548     4558     4356     3801     3005     2409     2289     2587 
    3180     3851     4341     4611     4654     4406     4000     3593 
    3300     3334     3658     4039     4409     4541     4176     3480 
    2770     2496     3102     4206     4865     4594     3543     2488 
    2378     3244     4216     4645     4564     4220     3645     2956 
    2586     2820     3449     4074     4414     4301     3771     3215 
    3034     3192     3368     3457     3638     4008     4477     4824 
    4781     4365     3889     3559     3402     3346     3265     3061 
    2841     2975     3574     4114     4194     4033     3827     3545 
    3346     3433     3697     3978     4259     4415     4199     3580 
    3001     3080     3759     4255     4091     3569     3211     3262 
    3604     3889     3923     3840     3785     3681     3392     2976 
    2705     2824     3357     4068     4568     4610     4298     3958 
    3790     3713     3701     3950     4347     4467     4229     3804 
    3235     2616     2169     2208     3038     4386     5293     5053 
    3937     2870     2470     2620     3001     3538     4175     4683 
    4758     4313     3697     3424     3607     3958     4257     4364 
    4098     3526     2975     2740     2957     3561     4195     4434 
    4255     4002     3831     3601     3254     2909     2700     2677 
    2848     3250     3893     4590     4970     4781     4145     3549 
    3449     3755     4012     4052     4012     3915     3607     3041 
    2523     2479     3046     3979     4814     5200     5201     5053 
    4853     4692     4638     4591     4360     3809     3053     2466 
    2451     3065     3813     4199     4171     3828     3354     2970 
    2548     1942     1561     1841     2597     3414     4081     4392 
    4041     3069     2115     1838     2326     3129     3912     4693 
    5386     5865     6207     6243     5613     4326     2875     1890 
    1640     1931     2492     3168     3811     4209     4247     4001 
    3647     3411     3546     4067     4623     4972     5097     4833 
    4091     3257     2814     3026     3977     5458     6797     7125 
    6092     4268     2602     1609     1216     1051      596     -319 
   -1057     -872      159     1382     2300     2894     3381     3886 
    4448     5117     5799     6250     6477     6724     7099     7658 
    8459     9262     9532     8857     7333     5518     4045     3264 
    3096     3122     2781     1846      660     -437    -1471    -2390 
   -2913    -2797    -1975     -612      999     2687     4372     5996 
    7516     8649     9009     8625     7781     6689     5661     4928 
    4336     3742     3157     2415     1447      513     -287     -928 
   -1003     -156     1324     2794     3850     4654     5641     6841 
    7758     7905     7284     6285     5348     4804     4788     5310 
    6269     7215     7457     6513     4423     1822     -340    -1377 
   -1279     -677     -237      -49       89      213      332      645 
    1464     3017     5128     7196     8646     9225     8974     8187 
    7179     6081     5024     4275     4086     4523     5287     5676 
    5155     3939     2619     1462      484      -63      168     1147 
    2297     2818     2216      703     -828    -1289      -55     2612 
    5679     7938     8700     8098     6791     5420     4483     4410 
    5162     6085     6547     6448     5944     4982     3407     1360 
    -507    -1368     -932      349     1838     3105     4045     4757 
    5247     5444     5344     4996     4517     4137     4051     4193 
    4338     4365     4330     4229     3823     3011     2232     2120 
    2772     3640     4178     4311     4324     4413     4441     4191 
    3672     3038     2416     1887     1549     1490     1773     2636 
    4337     6652     8788     9706     8573     5557     2110     -170 
    -693      260     2004     3657     4592     4812     4696     4437 
    3969     3279     2587     2164     1983     1807     1572     1459 
    1671     2292     3299     4569     5904     7075     7842     7973 
    7271     5822     4311     3523     3569     4021     4446     4576 
    4175     3053     1459      234      137     1142     2560     3600 
    3851     3446     2802     2239     1849     1637     1811     2776 
    4638     6805     8329     8563     7530     5868     4411     3600 
    3304     3180     2998     2835     2906     3075     2968     2425 
    1466      392      -45      634     2131     3875     5456     6416 
    6362     5481     4510     4087     4324     4834     5055     4772 
    4225     3767     3635     3808     4112     4502     4887     4989 
    4644     4060     3605     3291     2790     1938      908      112 
     -10      746     2311     4229     5690     6130     5634     4706 
    3975     3873     4324     4919     5325     5362     4837     3744 
    2532     1763     1767     2647     4121     5494     6114     5790 
    4757     3377     1927      670       43      444     1719     3192 
    4270     4785     4876     4765     4618     4510     4590     5066 
    5856     6562     6833     6420     5238     3523     1734      405 
     -45      487     1788     3299     4286     4348     3564     2208 
     629     -625     -882      259     2533     5008     6733     7327 
    6959     6039     4986     4152     3896     4333     5086     5626 
    5755     5617     5486     5556     5682     5389     4360     2848 
    1517      939     1233     2058     2917     3441     3462     3019 
    2439     2185     2459     3164     4064     4787     4965     4530 
    3699     2713     1786     1239     1432     2466     4114     5929 
    7288     7553     6513     4733     3203     2581     2778     3289 
    3704     3852     3796     3650     3353     2845     2377     2282 
    2621     3280     4166     5081     5653     5547     4733     3527 
    2371     1584     1298     1618     2582     3986     5444     6484 
    6696     6050     4897     3694     2959     3068     3921     4981 
    5633     5487     4500     2928     1174     -332    -1054     -521 
    1134     3092     4521     5154     5189     4784     3979     3105 
    2693     2944     3620     4330     4777     4911     4949     5093 
    5239     5111     4730     4495     4723     5281     5733     5717 
    5053     3723     2089      838      472      923     1664     2203 
    2411     2407     2377     2552     3068     3773     4415     4943 
    5441     5845     5969     5741     5166     4241     3172     2428 
    2322     2775     3526     4230     4491     4121     3368     2627 
    2058     1595     1259     1285     1834     2782     3906     5055 
    5975     6278     5807     4900     4191     4132     4685     5444 
    5946     5871     5182     4163     3121     2203     1534     1320 
    1718     2668     3883     5007     5670     5537     4646     3426 
    2323     1706     1738     2281     3129     4020     4617     4797 
    4641     4233     3750     3326     2852     2230     1642     1453 
    1931     3013     4324     5395     5948     6054     5944     5726 
    5455     5177     4774     4097     3217     2300     1525     1155 
    1314     1890     2741     3600     4116     4274     4294     4197 
    3835     3210     2660     2627     3215     4074     4723     4977 
    4927     4618     4033     3306     2748     2633     3059     4050 
    5305     6053     5790     4745     3465     2417     1900     1971 
    2390     2776     2874     2704     2528     2606     3046     3877 
    4942     5778     5946     5499     4912     4619     4777     5211 
    5400     4907     3753     2327     1163      637      772     1437 
    2462     3527     4311     4741     4873     4754     4417     3897 
    3377     3145     3249     3451     3546     3574     3674     3912 
    4261     4615     4776     4537     3897     3244     3014     3307 
    3939     4540     4698     4257     3402     2469     1810     1617 
    1968     2964     4396     5517     5728     5224     4607     4217 
    4036     3954     3875     3721     3412     2960     2593     2528 
    2760     3181     3670     4059     4182     3985     3616     3337 
    3357     3774     4506     5270     5702     5514     4661     3470 
    2517     2216     2539     3126     3501     3358     2845     2380 
