Origin Time       2024/06/23 22:54:00
Lat.              35.645
Long.             140.060
Depth. (km)       72
Mag.              4.1
Station Code      CHB009
Station Lat.      35.5871
Station Long.     140.2378
Station Height(m) 41
Record Time       2024/06/23 22:54:45
Sampling Freq(Hz) 100Hz
Duration Time(s)  60
Dir.              N-S
Scale Factor      7845(gal)/8223790
Max. Acc. (gal)   20.906
Last Correction   2024/06/23 22:54:45
Memo.             
[...]
     195      194      193      193      189      187      190      190 
     191      197      194      190      193      194      193      194 
     194      191      187      187      189      190      191      194 
     197      194      190      189      187      187      189      190 
     191      193      191      191      193      197      197      193 
     189      186      184      186      189      190      191      191 
     194      194      195      197      191      187      191      191 
     191      190      189      186      186      191      197      193 
     190      193      190      184      186      187      186      190 
     195      194      191      190      186      187      187      187 
     190      190      189      191      191      189      189      187 
     186      189      187      187      189      186      184      190 
     191      189      190      193      190      187      184      184 
     187      190      191      193      191      189      190      189 
     184      187      189      187      189      190      187      190 
     194      191      189      186      184      186      184      183 
     187      190      193      193      187      184      189      189 
     189      190      186      184      187      189      187      186 
     190      195      195      193      191      193      190      184 
     184      187      187      189      190      193      193      191 
     189      190      191      190      187      189      190      186 
     187      194      195      194      194      191      187      184 
     189      190      189      190      191      191      193      191 
     187      187      190      193      190      189      193      197 
     194      194      194      187      186      191      194      193 
     193      191      189      190      191      191      197      197 
     191      191      193      195      197      194      191      189 
     184      189      197      195      190      187      190      193 
     194      194      193      191      190      190      190      191 
     193      193      191      193      193      190      189      190 
     191      194      195      193      193      194      198      194 
     190      191      191      190      191      195      198      197 
     191      189      189      190      195      197      197      197 
     194      193      194      194      195      195      194      197 
     195      191      191      190      190      194      195      194 
     193      191      190      191      191      193      197      198 
     197      195      190      187      190      189      190      197 
     195      193      195      198      195      193      193      194 
     194      194      195      195      194      194      195      191 
     189      190      190      190      190      190      190      190 
     191      191      191      195      197      194      191      193 
     191      191      193      193      191      191      190      187 
     190      194      194      194      194      193      189      190 
     194      193      193      195      190      189      191      187 
     183      187      191      189      183      184      189      187 
     189      190      193      193      189      183      183      183 
     187      193      193      191      187      182      183      187 
     191      191      191      193      191      190      191      189 
     189      193      187      184      191      191      189      189 
     187      186      187      186      186      184      183      187 
     187      184      187      189      184      186      187      186 
     189      187      186      187      186      186      187      187 
     190      191      189      191      194      186      183      191 
     191      186      189      190      190      189      187      189 
     186      184      186      186      186      189      190      190 
     189      186      186      187      187      186      187      190 
     190      190      193      191      187      189      190      190 
     190      190      190      193      193      191      191      187 
     184      184      184      189      193      191      190      190 
     189      190      190      184      184      187      187      189 
     189      190      193      191      189      190      189      187 
     190      190      187      190      193      195      199      198 
     195      193      189      186      187      190      191      195 
     197      193      193      193      194      195      193      193 
     194      193      193      197      195      190      187      189 
     194      194      193      194      193      191      194      195 
     198      198      194      194      198      197      195      190 
     183      182      183      183      189      197      198      190 
     182      186      202      213      211      201      175      141 
     137      176      218      237      244      248      217      129 
      72      130      230      265      244      191       91        6 
      79      321      538      545      342       90      -60     -125 
    -128       59      426      665      587      319       -6     -280 
    -305      -60      230      438      642      801      697      297 
    -217     -599     -607     -229      292      760     1027      891 
     361     -190     -486     -522     -275      290      901     1134 
     865      275     -410     -843     -730     -141      641     1220 
    1188      629       49     -329     -629     -749     -414      251 
     835     1120     1071      702      117     -411     -665     -639 
    -248      572     1452     1719      862     -746    -1892    -1786 
    -675      781     2056     2625     1992      411    -1117    -1860 
   -1701     -812      513     1783     2317     1715      238    -1339 
   -2100    -1539      -17     1494     2072     1541      544     -396 
   -1111    -1171     -346      784     1436     1416      943      157 
    -703    -1205    -1059     -260      823     1518     1451      847 
      16     -861    -1298     -849      159     1070     1541     1399 
     681     -118     -533     -672     -684     -338      330      822 
     851      664      519      233     -280     -565     -288      238 
     511      438      340      348      344      367      414      172 
    -383     -660     -267      467     1026     1101      626     -102 
    -564     -518     -116      375      652      579      356      125 
    -117     -141      241      689      765      525      110     -518 
   -1031     -839       81     1089     1525     1216      476     -232 
    -692     -815     -436      240      700      845      819      607 
     236     -132     -315     -236        8      222      313      353 
     395      340      193      133      230      364      425      386 
     232       37     -113     -203     -133       81      244      334 
     363      259      101      -20      -56      145      598      959 
     930      511     -166     -838    -1104     -791      -93      615 
    1001     1034      884      595      170     -176     -251     -145 
     -12      157      372      471      328      167      299      584 
     607      252     -193     -450     -479     -279       76      326 
     433      656      973     1020      598      -62     -552     -726 
    -684     -421      180      918     1237      870      203     -228 
    -325     -194      182      666      903      756      353     -139 
    -561     -800     -735     -209      595     1185     1366     1117 
     291     -808    -1375    -1016      -87      889     1611     1871 
    1516      552     -670    -1425    -1236     -465      240      703 
     950      727      -14     -646     -575       59      764     1213 
    1228      799      228     -230     -569     -648     -253      495 
    1113     1156      579     -306     -908     -845     -432      -33 
     438      928     1048      749      440      330      216      -22 
    -143      101      448      421       95     -129     -275     -581 
    -893     -652      357     1433     1753     1287      346     -680 
   -1048     -407      564     1032      945      683      299     -336 
    -859     -583      391     1094     1013      352     -549    -1240 
   -1247     -419      876     1921     2220     1683      507     -788 
   -1620    -1656     -908      244     1205     1536     1293      785 
     162     -394     -635     -581     -340       62      545      936 
    1000      687      259      -87     -375     -400      114      695 
     611       49     -348     -407     -238      259     1062     1552 
    1225      334     -635    -1213    -1053     -369      415     1078 
    1217      583     -279     -660     -511      -16      784     1431 
    1351      712      -17     -623     -859     -504      194      666 
     611      234      -79     -130      -20       41       85      251 
     464      562      530      342       39      -76       81      211 
     309      573      857      947      789      183     -907    -1767 
   -1526     -287     1112     1887     1659      823      166      -76 
    -112      -87      -83     -149     -230      -78      328      648 
     843     1092     1162      656     -288    -1058    -1301    -1070 
    -448      325      877     1034      858      558      276       47 
     -28      147      448      502      191        0      291      749 
     872      473     -216     -801    -1057     -854     -201      567 
    1034     1069      722      164     -249     -230      117      392 
     291     -110     -459     -402      201     1085     1691     1642 
     938     -102    -1031    -1595    -1740    -1374     -456      710 
    1510     1559     1071      584      453      657      915      959 
     639      -36     -760    -1136    -1154    -1015     -765     -392 
     140      873     1545     1715     1324      660     -108     -726 
    -677      141     1200     1869     1721      683     -791    -2000 
   -2371    -1671     -236     1165     1811     1486      676       -5 
    -353     -286      234      980     1567     1611      919     -232 
   -1212    -1536    -1174     -398      445     1019     1154      857 
     186     -553     -774     -260      581     1281     1632     1533 
     881     -260    -1483    -2119    -1698     -469      834     1723 
    1989     1474      384     -519     -629     -156      317      538 
     392     -220     -915    -1090     -689       21      949     1813 
    2006     1371      410     -383     -743     -564     -105      259 
     423      321      -47     -240       85      495      425       22 
    -236     -230      -55      267      654     1000     1131      785 
      91     -418     -548     -463     -193      272      635      523 
      -9     -426     -373     -114       59      171      279      541 
     992     1244     1034      498      -49     -355     -491     -619 
    -652     -379      198      708      784      453        8      -89 
     449     1196     1350      645     -375     -966     -876     -228 
     758     1533     1436      442     -723    -1233     -896     -194 
     396      750      822      568       67     -450     -660     -353 
     313      990     1328     1178      773      453      280      103 
    -157     -459     -743     -827     -409      403     1059     1252 
    1100      693      116     -333     -459     -402     -310     -211 
     -79      157      430      603      661      583      395      163 
    -195     -540     -410      268     1024     1448     1433      920 
      28     -770    -1123    -1058     -668      -72      454      680 
     577      255     -143     -369     -228      216      778     1239 
    1360     1155      805      357     -217     -838    -1256    -1081 
    -224      681      919      587      255      155      218      382 
     541      498      221      -13       20      238      537      861 
     990      776      355     -202     -974    -1719    -1875    -1197 
     -22     1116     1948     2450     2450     1640      194    -1148 
   -1756    -1617    -1146     -544      255     1097     1567     1486 
    1092      585       52     -191      -44       87       -8     -140 
    -160       47      496      785      541      -31     -518     -742 
    -727     -599     -365      156      965     1688     1942     1746 
    1283      592     -194     -791    -1003     -770     -234      244 
     332      -56     -711    -1206    -1081     -280      638     1093 
    1040      765      540      519      708      965     1063      803 
     252     -230     -437     -511     -515     -278      110      221 
     -74     -334     -132      461     1048     1283     1088      704 
     449      324      103     -172     -253     -194     -220     -243 
    -184     -292     -549     -548     -182      268      533      510 
     313      143       94       22     -329     -859    -1197    -1247 
   -1143     -996     -824     -530     -120      328      834     1286 
    1440     1205      751      384      224      220      415      885 
    1683     2736     3607     3850     3294     1845     -365    -2812 
   -4885    -6077    -5964    -4268     -980     3503     8409    12842 
   15916    16777    14790     9815     2377    -6239   -14254   -19900 
  -21725   -19109   -12669    -3805     5605    13132    16549    14978 
    9265     1498    -5903   -10984   -12862   -11832    -8806    -4903 
   -1107     1806     3026     2285      379    -1390    -2060    -1534 
    -168     1995     5019     8679    12244    14308    13475     9269 
    2280    -6064   -13763   -18713   -19276   -14648    -5410     5946 
   15944    21749    21945    16750     7927    -1744    -9239   -12522 
  -11352    -7113    -2214      931     1275     -399    -2656    -4394 
   -4770    -3466    -1063     1421     3065     3580     3663     4116 
    5027     6008     6097     3962     -568    -6108   -11045   -14022 
  -13965   -10393    -3659     4297    10586    13359    12361     8819 
    4768     1607      -94     -318      329     1031     1044     -303 
   -3073    -6223    -8338    -8563    -6694    -3208      959     4808 
    7361     8148     7493     5927     3962     2007       28    -2084 
   -3956    -5181    -5769    -5667    -4423    -1757     1836     5221 
    7222     7146     5135     2034    -1194    -3844    -5416    -5610 
   -4286    -1507     1917     4513     5256     4228     2249      279 
   -1212    -2434    -3507    -3963    -3341    -1819       22     1717 
    2979     3715     3888     3291     1902       71    -1728    -2853 
   -2776    -1575      238     1996     2889     2370      626    -1561 
   -3322    -4028    -3456    -1834      405     2905     5215     6524 
    6184     4266     1297    -2085    -5090    -6833    -6814    -5212 
   -2637      190     2610     4104     4498     4056     3242     2447 
    1807     1287      895      531      -31     -819    -1652    -2324 
   -2633    -2471    -1895    -1000       94     1305     2417     2891 
    2420     1337      270     -221      -44      163     -274    -1279 
   -2201    -2311    -1259      502     1929     2362     1915      959 
    -182    -1109    -1433     -970      278     1952     3244     3435 
    2394      626    -1016    -1853    -1777    -1154     -364      363 
     785      677      -17    -1120    -2150    -2548    -1969     -382 
    1833     3901     5026     4749     3175      982     -970    -2209 
   -2709    -2691    -2403    -1804     -720      660     1728     1825 
     697    -1250    -3075    -3842    -3141    -1159     1525     4166 
    6087     6847     6189     4167     1445    -1026    -2736    -3693 
   -4048    -3921    -3298    -2145     -675      758     1879     2489 
    2515     2033     1219      457      153      270      364      108 
    -436     -999    -1393    -1607    -1688    -1464     -519     1282 
    3373     4922     5346     4407     2400       78    -1956    -3415 
   -4001    -3620    -2620    -1482     -545      -28       75      140 
     526     1200     1991     2812     3539     3942     3612     2273 
     130    -2222    -4121    -5158    -5312    -4723    -3472    -1552 
     864     3203     4765     5108     4225     2571      769     -700 
   -1567    -1746    -1363     -702       41      832     1580     2012 
    1740      522    -1459    -3501    -4631    -4183    -2265      508 
    3585     6457     8441     8922     7631     4765     1069    -2412 
   -4895    -6146    -6285    -5535    -4202    -2731    -1580     -955 
    -715     -706     -868     -904     -309     1108     2980     4752 
    5925     6081     5151     3377      990    -1729    -4248    -6006 
   -6627    -5879    -3859    -1128     1607     3786     5031     5217 
    4502     3241     1884      822      257       25     -243     -648 
    -962    -1004     -939    -1031    -1206    -1254    -1129     -838 
    -445      -66      423     1233     2165     2709     2664     2359 
    2145     1998     1659      830     -558    -2135    -3345    -3827 
   -3562    -2849    -2043    -1250     -303      985     2573     4091 
    4984     4800     3445     1223    -1289    -3411    -4526    -4405 
   -3373    -1952     -476      853     1818     2231     2081     1584 
    1047      642      388      355      550      726      668      436 
     162      -28      -17      132      217       56     -449    -1088 
   -1444    -1404    -1088     -531      233     1055     1755     2184 
    2332     2359     2404     2458     2328     1719      571     -830 
   -2058    -2768    -2910    -2716    -2380    -1962    -1437     -726 
     164     1108     1952     2621     3103     3397     3538     3477 
    3009     1898       87    -2187    -4426    -5983    -6370    -5526 
   -3781    -1583      672     2702     4349     5417     5630     4900 
    3402     1428     -584    -2110    -2801    -2555    -1517      -89 
    1232     2066     2161     1433      145    -1177    -2066    -2250 
   -1661     -522      715     1615     1961     1730     1165      703 
     569      641      598      140     -675    -1445    -1836    -1756 
   -1335     -853     -525     -334     -147      157      642     1179 
    1609     1975     2242     2126     1480      494     -459     -965 
    -816     -237      310      548      433       54     -378     -680 
    -797     -704     -342      373     1428     2471     2941     2481 
    1225     -342    -1736    -2610    -2785    -2269    -1192      255 
    1763     2921     3358     2901     1657       70    -1259    -1927 
   -1888    -1286     -264     1023     2255     2970     2848     1998 
     882      -82     -750    -1163    -1428    -1628    -1746    -1719 
   -1615    -1663    -1914    -2018    -1557     -432     1115     2627 
    3663     4055     3842     3065     1817      372     -970    -2056 
   -2754    -2938    -2655    -2169    -1772    -1462     -980     -238 
     480      818      750      702     1146     2076     3011     3514 
    3414     2731     1656      469     -621    -1483    -2018    -2189 
   -2062    -1764    -1441    -1174     -896     -386      500     1642 
