Origin Time       2024/06/23 22:54:00
Lat.              35.645
Long.             140.060
Depth. (km)       72
Mag.              4.1
Station Code      CHB008
Station Lat.      35.6556
Station Long.     139.9027
Station Height(m) 0
Record Time       2024/06/23 22:54:44
Sampling Freq(Hz) 100Hz
Duration Time(s)  60
Dir.              N-S
Scale Factor      7845(gal)/8223790
Max. Acc. (gal)   3.637
Last Correction   2024/06/23 22:54:44
Memo.             
[...]
    7356     7358     7352     7346     7342     7327     7321     7333 
    7344     7342     7339     7335     7322     7308     7314     7337 
    7352     7341     7327     7322     7317     7310     7314     7334 
    7362     7368     7344     7326     7321     7312     7312     7317 
    7325     7337     7346     7352     7349     7335     7315     7306 
    7317     7331     7342     7354     7353     7342     7338     7335 
    7330     7331     7331     7334     7348     7358     7356     7348 
    7331     7311     7307     7319     7333     7348     7349     7326 
    7307     7304     7304     7312     7326     7338     7345     7342 
    7333     7334     7349     7364     7358     7338     7325     7330 
    7345     7348     7339     7338     7334     7325     7323     7322 
    7317     7322     7329     7330     7338     7345     7346     7346 
    7339     7329     7325     7323     7323     7331     7342     7349 
    7348     7338     7321     7304     7317     7344     7354     7354 
    7349     7334     7330     7333     7335     7348     7361     7361 
    7356     7348     7341     7330     7310     7295     7302     7323 
    7346     7358     7356     7338     7312     7298     7307     7326 
    7337     7338     7335     7339     7350     7360     7354     7344 
    7338     7325     7308     7306     7317     7329     7335     7341 
    7345     7337     7321     7304     7300     7308     7325     7345 
    7361     7362     7352     7337     7326     7323     7331     7345 
    7357     7362     7352     7333     7314     7300     7300     7308 
    7318     7331     7335     7329     7326     7325     7317     7321 
    7335     7342     7341     7341     7331     7323     7330     7338 
    7342     7342     7335     7330     7319     7303     7310     7325 
    7322     7319     7329     7335     7335     7331     7329     7319 
    7322     7344     7354     7349     7341     7329     7325     7335 
    7342     7338     7330     7325     7326     7330     7325     7315 
    7319     7330     7329     7318     7317     7326     7335     7342 
    7344     7331     7327     7337     7345     7350     7346     7323 
    7304     7308     7322     7330     7335     7337     7335     7338 
    7338     7323     7308     7304     7311     7329     7345     7348 
    7345     7342     7333     7329     7326     7321     7327     7349 
    7356     7348     7342     7339     7326     7314     7311     7311 
    7312     7306     7299     7312     7334     7354     7369     7361 
    7331     7307     7298     7307     7327     7346     7364     7373 
    7365     7341     7311     7290     7288     7315     7348     7362 
    7364     7360     7342     7321     7315     7315     7307     7300 
    7312     7345     7369     7365     7349     7327     7296     7284 
    7303     7334     7375     7391     7360     7325     7303     7294 
    7318     7346     7353     7353     7331     7306     7314     7330 
    7330     7339     7356     7356     7338     7318     7310     7317 
    7329     7341     7345     7339     7326     7314     7322     7339 
    7349     7341     7325     7326     7329     7314     7310     7342 
    7372     7368     7346     7327     7311     7311     7330     7342 
    7337     7339     7346     7327     7312     7330     7342     7334 
    7338     7356     7350     7317     7299     7317     7342     7358 
    7360     7345     7326     7323     7330     7331     7323     7314 
    7321     7335     7337     7329     7323     7326     7333     7333 
    7341     7353     7346     7346     7345     7319     7314     7334 
    7344     7357     7368     7339     7300     7299     7330     7339 
    7327     7330     7334     7334     7354     7364     7350     7342 
    7334     7314     7302     7319     7362     7384     7357     7319 
    7303     7308     7331     7352     7352     7331     7307     7302 
    7322     7346     7354     7350     7346     7339     7321     7308 
    7308     7315     7330     7349     7354     7353     7341     7326 
    7315     7314     7334     7360     7361     7341     7323     7315 
    7318     7334     7353     7350     7331     7322     7326     7325 
    7321     7323     7334     7344     7349     7349     7339     7334 
    7335     7337     7333     7322     7312     7314     7322     7327 
    7330     7329     7329     7338     7341     7333     7329     7334 
    7333     7318     7307     7317     7331     7341     7341     7337 
    7335     7341     7344     7341     7337     7333     7327     7334 
    7360     7375     7348     7298     7276     7300     7333     7337 
    7323     7311     7304     7310     7333     7353     7358     7348 
    7329     7327     7354     7373     7364     7330     7300     7299 
    7322     7344     7353     7350     7339     7329     7319     7314 
    7314     7319     7333     7342     7342     7337     7330     7331 
    7338     7334     7325     7326     7326     7322     7334     7357 
    7365     7353     7329     7311     7315     7327     7335     7344 
    7339     7326     7322     7323     7325     7327     7330     7329 
    7329     7335     7330     7321     7330     7341     7339     7338 
    7339     7341     7341     7344     7366     7365     7312     7285 
    7315     7327     7321     7329     7333     7337     7334     7298 
    7310     7396     7400     7310     7295     7334     7317     7318 
    7377     7388     7331     7280     7276     7311     7341     7326 
    7326     7356     7323     7256     7300     7406     7410     7345 
    7335     7364     7334     7307     7385     7469     7403     7275 
    7219     7180     7169     7258     7344     7346     7349     7362 
    7361     7348     7325     7357     7400     7334     7315     7419 
    7377     7245     7308     7452     7407     7234     7192     7285 
    7291     7285     7422     7457     7304     7218     7245     7292 
    7364     7465     7569     7520     7304     7146     7065     7088 
    7317     7527     7519     7375     7199     7153     7264     7396 
    7546     7593     7380     7145     7084     7114     7246     7480 
    7599     7452     7150     7061     7373     7696     7641     7408 
    7244     7088     6951     6987     7271     7612     7719     7547 
    7280     7165     7325     7530     7477     7195     7018     7149 
    7303     7311     7446     7600     7473     7330     7348     7299 
    7238     7300     7311     7211     7160     7200     7318     7479 
    7539     7449     7350     7348     7416     7425     7250     7048 
    7059     7226     7399     7507     7468     7354     7373     7460 
    7393     7273     7284     7329     7267     7155     7128     7253 
    7442     7531     7458     7310     7290     7419     7462     7368 
    7298     7271     7230     7173     7153     7250     7435     7530 
    7474     7427     7439     7392     7310     7250     7159     7080 
    7141     7315     7458     7492     7476     7499     7519     7431 
    7277     7192     7186     7234     7315     7242     7047     7150 
    7541     7676     7457     7254     7260     7385     7442     7365 
    7265     7221     7269     7379     7406     7325     7256     7258 
    7288     7272     7250     7344     7500     7565     7468     7273 
    7167     7195     7265     7376     7495     7541     7512     7391 
    7204     7110     7148     7213     7279     7335     7300     7246 
    7335     7495     7522     7418     7326     7299     7321     7354 
    7327     7302     7399     7458     7261     6983     6968     7264 
    7611     7744     7616     7368     7146     7056     7146     7312 
    7431     7533     7574     7464     7271     7107     7055     7204 
    7425     7429     7279     7264     7354     7383     7429     7520 
    7504     7346     7215     7225     7246     7195     7250     7481 
    7668     7611     7346     7105     7068     7200     7321     7368 
    7449     7537     7464     7269     7138     7110     7144     7241 
    7368     7477     7566     7618     7569     7408     7256     7254 
    7312     7221     7036     6972     7029     7084     7171     7342 
    7527     7626     7591     7488     7453     7456     7433     7431 
    7412     7379     7462     7500     7295     7150     7303     7426 
    7300     7122     7030     7049     7179     7242     7191     7312 
    7645     7824     7672     7341     7087     7055     7095     7090 
    7246     7555     7722     7690     7542     7339     7219     7145 
    7037     7028     7130     7249     7402     7528     7562     7578 
    7581     7496     7338     7223     7244     7252     7090     6970 
    7128     7422     7591     7603     7539     7402     7291     7292 
    7217     7128     7325     7589     7560     7400     7253     7006 
    6866     7086     7443     7605     7564     7528     7506     7322 
    7164     7344     7632     7666     7543     7392     7114     6858 
    6901     7149     7304     7285     7279     7438     7591     7515 
    7335     7296     7342     7283     7190     7213     7294     7379 
    7429     7372     7308     7327     7380     7411     7354     7260 
    7240     7246     7295     7472     7569     7430     7303     7292 
    7261     7245     7233     7187     7261     7412     7457     7469 
    7460     7377     7342     7346     7287     7312     7449     7416 
    7225     7150     7237     7408     7588     7561     7294     7088 
    7074     7110     7145     7187     7249     7403     7620     7753 
    7757     7623     7350     7118     7048     7052     7107     7246 
    7384     7391     7256     7160     7290     7484     7491     7420 
    7384     7353     7416     7425     7161     6929     6982     7149 
    7334     7562     7797     7970     7917     7566     7169     6963 
    6882     6858     6960     7190     7407     7531     7576     7493 
    7263     7055     7026     7207     7569     7866     7767     7377 
    7102     7026     7030     7199     7530     7680     7503     7263 
    7071     6895     6905     7175     7473     7603     7543     7392 
    7334     7404     7487     7553     7628     7634     7443     7110 
    6949     7171     7551     7705     7527     7125     6682     6528 
    6832     7333     7717     7890     7857     7673     7388     7069 
    6895     6941     7105     7306     7472     7549     7631     7754 
    7686     7354     7087     7052     7071     7107     7245     7398 
    7577     7807     7761     7415     7238     7261     7173     7010 
    6906     6886     6972     7118     7265     7450     7662     7766 
    7704     7550     7418     7395     7415     7360     7277     7207 
    7056     6910     7032     7348     7484     7422     7453     7561 
    7500     7254     6999     6952     7136     7260     7214     7237 
    7414     7565     7604     7589     7553     7497     7380     7207 
    7182     7330     7377     7304     7249     7182     7202     7361 
    7485     7609     7798     7827     7620     7362     7101     6849 
    6774     6925     7175     7389     7499     7566     7693     7782 
    7659     7364     7052     6786     6678     6885     7326     7730 
    7894     7713     7321     7101     7150     7180     7155     7304 
    7570     7631     7426     7223     7160     7169     7237     7327 
    7407     7452     7345     7171     7141     7253     7439     7566 
    7491     7366     7357     7354     7308     7333     7395     7292 
    7017     6813     6837     7025     7258     7487     7716     7924 
    7974     7792     7554     7425     7319     7149     6961     6845 
    6899     7084     7176     7169     7331     7655     7847     7739 
    7388     7115     7213     7483     7562     7488     7468     7512 
    7445     7149     6871     6980     7339     7491     7419     7430 
    7524     7520     7385     7177     7020     7090     7376     7618 
    7578     7337     7176     7186     7281     7437     7535     7426 
    7263     7281     7341     7187     7007     7126     7419     7603 
    7639     7581     7480     7360     7149     6868     6750     6899 
    7140     7307     7460     7651     7766     7672     7418     7246 
    7267     7331     7333     7245     7084     7071     7331     7591 
    7634     7528     7318     7153     7211     7322     7348     7414 
    7447     7310     7159     7094     7038     7103     7364     7551 
    7501     7410     7441     7537     7551     7452     7391     7422 
    7474     7566     7672     7639     7461     7284     7126     6897 
    6713     6740     6914     7146     7358     7437     7458     7537 
    7636     7751     7821     7697     7395     7109     6998     7056 
    7186     7376     7593     7646     7506     7361     7238     7010 
    6702     6534     6689     7068     7411     7608     7717     7801 
    7827     7716     7488     7296     7226     7183     7088     6986 
    7018     7268     7582     7792     7948     8100     8160     8000 
    7574     7083     6762     6592     6412     6139     5946     6133 
    6694     7372     8028     8572     8847     8775     8382     7767 
    7141     6782     6794     6967     7069     7105     7206     7430 
    7654     7636     7299     6876     6602     6453     6335     6292 
    6366     6392     6259     6299     6783     7335     7516     7410 
    7230     6990     6673     6334     6034     5842     5952     6578 
    7685     8999    10185    10928    11144    11117    11040    10756 
   10157     9386     8633     8019     7527     7080     6898     7349 
    8189     8611     8206     7260     6266     5618     5474     5657 
    5890     6089     6296     6466     6457     6146     5536     4785 
    4155     3925     4299     5238     6451     7677     8758     9450 
    9450     8749     7616     6376     5455     5154     5281     5564 
    6075     6925     7997     8995     9585     9659     9402     9142 
    9120     9132     8742     8031     7438     6995     6577     6484 
    6929     7654     8436     9197     9684     9555     8656     7245 
    5965     5305     5339     6023     7087     7965     8275     8087 
    7672     7226     6650     5683     4541     3933     4221     5140 
    6207     7009     7407     7600     7835     8164     8473     8631 
    8637     8511     8091     7346     6741     6663     6967     7407 
    7821     7985     7970     8226     8887     9593    10046    10152 
    9849     9154     8193     7184     6330     5663     5177     5001 
    5235     5761     6443     7195     7830     8237     8532     8680 
    8453     7889     7294     6793     6296     5850     5701     6027 
    6747     7465     7689     7302     6602     5911     5526     5769 
    6625     7755     8811     9445     9505     9215     8873     8567 
    8183     7557     6681     5736     4990     4641     4789     5464 
    6508     7554     8229     8348     8064     7763     7717     7897 
    8062     7966     7549     7074     6966     7384     8114     8746 
    8931     8653     8118     7385     6529     5860     5579     5607 
    5890     6490     7298     7848     7805     7429     7226     7379 
    7755     8062     7875     7090     6251     6045     6651     7800 
    9030     9845    10015     9725     9279     8777     8136     7365 
    6585     5799     4957     4266     4209     5022     6451     8087 
    9482    10118     9717     8502     7074     6100     5923     6331 
    6770     6933     7001     7271     7776     8237     8348     8105 
    7762     7461     7118     6655     6165     5767     5493     5467 
    5944     6960     8097     8815     8942     8669     8209     7645 
    7055     6652     6620     6782     6822     6779     6897     7203 
    7636     8187     8608     8519     7940     7230     6667     6435 
    6636     7132     7645     8019     8203     8210     8135     8043 
    7947     7916     7897     7670     7163     6486     5779     5240 
    4984     4988     5394     6270     7167     7623     7740     7803 
    7933     8226     8764     9466    10003    10026     9562     8910 
    8208     7411     6577     5880     5427     5144     4892     4695 
    4896     5719     6814     7711     8328     8696     8796     8714 
    8544     8232     7638     6802     6131     6031     6523     7356 
    8164     8591     8514     8050     7469     7098     7078     7296 
    7630     8008     8351     8645     8816     8637     7989     6986 
    5926     5223     5055     5223     5535     6033     6778     7635 
    8375     8888     9215     9428     9499     9271     8664     7763 
    6747     5926     5568     5674     6130     6768     7348     7749 
    7928     7781     7362     6940     6674     6578     6658     6841 
    6986     7082     7209     7358     7479     7537     7483     7331 
    7238     7285     7381     7445     7484     7446     7246     6930 
    6637     6416     6226     6107     6210     6629     7294     7973 
    8407     8445     8083     7468     6906     6691     6821     7059 
    7242     7412     7638     7890     8082     8164     8127     7942 
    7627     7365     7383     7689     8114     8473     8564     8321 
    7908     7539     7376     7481     7730     7927     7990     7931 
    7730     7393     7014     6669     6351     6092     5989     6120 
    6508     7084     7659     8051     8152     7900     7398     6936 
    6712     6731     6875     6926     6751     6527     6509     6733 
    7105     7476     7655     7639     7589     7489     7268     7015 
    6747     6444     6264     6295     6542     7061     7715     8168 
    8317     8239     8001     7766     7734     7882     8073     8166 
    8032     7707     7285     6791     6442     6515     6898     7198 
    7134     6748     6386     6417     6883     7595     8332     8849 
    9032     9011     8839     8430     7813     7103     6393     5790 
    5359     5174     5327     5757     6361     7161     8120     9013 
    9671    10012     9933     9414     8573     7601     6772     6250 
    5987     5962     6220     6660     7090     7339     7356     7296 
    7345     7388     7129     6589     6180     6245     6768     7534 
    8334     8977     9180     8730     7790     6751     5930     5491 
    5440     5670     6064     6524     6998     7442     7805     8025 
    8075     7979     7805     7704     7825     8073     8203     8179 
    8120     8095     8075     7965     7715     7430     7280     7298 
    7353     7371     7366     7292     7123     6984     7013     7227 
    7500     7666     7650     7435     7034     6547     6156     5996 
    6048     6216     6444     6704     6953     7188     7454     7747 
    7919     7812     7477     7168     7110     7334     7715     8160 
    8669     9150     9452     9512     9261     8657     7834     6986 
    6268     5795     5611     5738     6176     6706     7056     7192 
    7211     7138     7005     6832     6633     6498     6486     6517 
    6556     6656     6828     7036     7267     7523     7811     8037 
    8029     7801     7546     7371     7271     7260     7395     7705 
    8108     8424     8517     8375     8020     7472     6790     6058 
    5449     5193     5401     6066     7096     8289     9370    10080 
