Origin Time       2024/06/23 22:54:00
Lat.              35.645
Long.             140.060
Depth. (km)       72
Mag.              4.1
Station Code      CHB015
Station Lat.      35.3738
Station Long.     139.9199
Station Height(m) 2
Record Time       2024/06/23 22:54:46
Sampling Freq(Hz) 100Hz
Duration Time(s)  60
Dir.              U-D
Scale Factor      7845(gal)/8223790
Max. Acc. (gal)   7.638
Last Correction   2024/06/23 22:54:46
Memo.             
[...]
   31550    31550    31561    31568    31573    31576    31576    31577 
   31573    31571    31573    31577    31576    31573    31573    31565 
   31567    31579    31576    31580    31600    31588    31549    31549 
   31579    31587    31573    31575    31579    31575    31563    31554 
   31563    31569    31571    31585    31577    31558    31569    31579 
   31572    31568    31569    31575    31587    31594    31583    31563 
   31563    31581    31583    31568    31567    31581    31595    31576 
   31544    31541    31564    31573    31572    31568    31565    31583 
   31598    31579    31563    31568    31575    31573    31565    31563 
   31580    31596    31581    31556    31557    31573    31583    31596 
   31592    31575    31585    31590    31565    31556    31565    31560 
   31544    31549    31569    31580    31580    31569    31558    31558 
   31564    31571    31572    31581    31588    31575    31563    31572 
   31583    31580    31576    31569    31567    31577    31581    31573 
   31556    31553    31567    31561    31548    31557    31580    31581 
   31568    31572    31579    31576    31572    31561    31565    31590 
   31596    31584    31572    31564    31553    31549    31563    31571 
   31571    31585    31585    31571    31564    31561    31560    31549 
   31550    31588    31608    31594    31569    31546    31554    31573 
   31568    31572    31598    31607    31588    31563    31558    31572 
   31577    31568    31557    31565    31590    31604    31598    31573 
   31549    31550    31583    31591    31557    31549    31581    31598 
   31588    31594    31604    31579    31538    31518    31558    31617 
   31591    31564    31585    31576    31556    31550    31554    31561 
   31544    31571    31630    31606    31567    31587    31585    31549 
   31538    31560    31584    31588    31581    31577    31561    31553 
   31577    31571    31558    31584    31592    31580    31571    31572 
   31590    31573    31545    31568    31585    31572    31581    31595 
   31571    31544    31565    31602    31600    31585    31575    31564 
   31553    31546    31556    31573    31580    31577    31571    31563 
   31571    31583    31571    31560    31568    31581    31583    31579 
   31576    31571    31568    31579    31584    31584    31572    31563 
   31588    31600    31585    31595    31590    31552    31542    31558 
   31561    31554    31569    31590    31585    31584    31579    31568 
   31573    31560    31531    31536    31548    31565    31618    31665 
   31618    31519    31517    31580    31598    31591    31587    31567 
   31549    31546    31557    31587    31595    31575    31569    31580 
   31584    31585    31577    31577    31591    31607    31639    31675 
   31660    31592    31514    31465    31480    31552    31617    31631 
   31600    31518    31438    31444    31518    31592    31621    31595 
   31567    31595    31700    31815    31784    31540    31194    30952 
   30997    31376    31869    32078    31861    31444    31221    31531 
   32229    32742    32692    32080    31035    29972    29690    30559 
   31922    32810    32798    32043    31112    30708    31104    31939 
   32626    32653    31855    30746    30237    30703    31558    31860 
   31341    30869    31303    32074    32193    32027    32229    32216 
   31546    31217    31884    32401    31679    30424    29998    30670 
   31556    31878    31792    31824    32161    32467    32250    31527 
   30997    31274    32020    32503    32296    31314    30192    29848 
   30516    31749    32763    32871    32038    31063    30846    31378 
   31920    32001    31766    31693    31997    32136    31545    30611 
   30213    30682    31538    32205    32510    32335    31706    31101 
   31051    31517    31861    31743    31514    31394    31330    31419 
   31648    31769    31700    31622    31669    31700    31492    31168 
   31182    31656    32152    32347    32260    31911    31274    30582 
   30373    30975    31934    32263    31695    31144    31340    31845 
   31992    31839    31680    31486    31091    30551    30423    31195 
   32347    32922    32649    31849    30994    30603    30973    31791 
   32329    32229    31729    31279    31151    31284    31503    31691 
   31811    31853    31708    31367    31185    31492    32074    32414 
   32244    31684    31082    30769    30823    31078    31361    31564 
   31676    31811    31988    32012    31750    31394    31284    31491 
   31725    31758    31761    31959    31999    31353    30450    30335 
   31203    32188    32481    32150    31838    31866    31849    31452 
   31032    30978    31172    31422    31623    31662    31634    31653 
   31614    31645    31999    32298    32046    31415    30940    30948 
   31218    31394    31669    32082    32000    31306    30963    31494 
   32120    32059    31480    30979    30973    31333    31558    31545 
   31652    31922    32024    31772    31315    31117    31468    32013 
   32201    31927    31433    31021    30943    31239    31754    32170 
   32134    31704    31298    31222    31479    31845    32104    32085 
   31716    31240    31024    31144    31252    31179    31263    31548 
   31623    31538    31693    31914    31800    31654    31839    32017 
   31882    31542    31158    31052    31448    31919    31928    31580 
   31338    31375    31491    31499    31523    31735    31978    32005 
   31887    31791    31666    31405    31060    30881    31016    31151 
   31113    31367    32001    32335    32092    31711    31518    31577 
   31942    32281    31953    31033    30450    30811    31707    32269 
   32167    31741    31337    31102    31132    31410    31773    32020 
   32148    32167    31806    31087    30672    30917    31403    31708 
   31869    31824    31477    31224    31407    31837    32154    32050 
   31639    31558    31922    32051    31653    31207    31082    31122 
   31143    31232    31506    31855    32001    31864    31711    31719 
   31704    31425    30943    30704    31014    31449    31495    31409 
   31563    31776    31891    32081    32358    32433    32198    31833 
   31419    31001    30796    30931    31186    31382    31585    31750 
   31734    31698    31837    31865    31482    31158    31363    31743 
   31884    31811    31499    30977    30870    31588    32336    32275 
   31702    31322    31392    31584    31511    31320    31387    31641 
   31845    32093    32286    32028    31382    30850    30921    31637 
   32309    32238    31579    31097    31152    31291    31245    31503 
   32185    32482    31951    31263    30815    30168    29566    29883 
   31033    32213    32933    33080    32875    32722    32678    32481 
   32081    31592    31036    30412    29963    30154    30981    31801 
   32142    31989    31422    30676    30429    31193    32559    33571 
   33517    32460    31195    30566    30758    31136    31132    30927 
   30966    31364    31708    31487    30877    30734    31614    32991 
   33729    33189    31834    30753    30518    30890    31394    31465 
   30847    30150    30306    31490    32946    33675    33145    31720 
   30619    30755    31676    32366    32486    32213    31716    31239 
   31155    31561    32077    32232    31916    31482    31143    30523 
   29700    29782    31307    33093    33654    32946    31961    31351 
   31110    30958    30800    30909    31428    31974    31915    31194 
   30651    30827    31348    32023    32925    33312    32437    31128 
   30616    30782    31083    31542    32008    31899    31164    30672 
   30996    31619    31904    31935    31984    31877    31584    31564 
   31801    31749    31476    31652    32221    32312    31662    30905 
   30488    30489    31035    31769    31772    31145    31031    31641 
   32221    32325    31922    31261    31002    31455    31941    31833 
   31361    30954    30906    31487    32539    33384    33201    31749 
   30141    29871    30821    31683    31912    31872    31808    31791 
   31885    31974    31976    31846    31592    31648    32059    31824 
   30562    29558    29880    31004    31988    32418    32227    31862 
   31938    32271    32151    31457    30883    31023    31726    32458 
   32719    32281    31322    30375    30056    30446    30970    31325 
   31826    32497    32738    32324    31808    31560    31341    31040 
   30854    31032    31671    32347    32476    32117    31696    31375 
   31195    31270    31552    31762    31680    31411    31413    31976 
   32629    32657    32036    31244    30748    30802    31078    30963 
   30520    30429    30964    31730    32211    32171    31687    31020 
   30716    31355    32544    33076    32593    31738    30960    30580 
   31036    31986    32437    32147    31722    31642    31824    31963 
   31988    31800    31143    30407    30504    31310    31781    31877 
   32139    32148    31519    30836    30677    30985    31441    31820 
   32051    32170    32119    31777    31321    31144    31569    32363 
   32694    32154    31205    30588    30634    31058    31468    31712 
   31731    31549    31419    31718    32281    32190    31149    30334 
   30705    31627    32134    32244    32239    32016    31583    31226 
   31185    31403    31494    31194    30954    31490    32489    32672 
   31675    30700    30812    31704    32456    32634    32320    31793 
   31390    31147    30929    30916    31240    31614    31652    31224 
   30653    30551    31178    32059    32657    32815    32379    31487 
   30925    31140    31726    32165    32247    31988    31604    31213 
   30661    30299    30782    31677    32098    32042    31876    31785 
   31839    31831    31548    31247    31348    31754    31901    31534 
   31043    30827    30916    31202    31460    31545    31669    31923 
   32008    31869    31841    32003    32071    31803    31266    30811 
   30751    31291    32181    32494    31788    30866    30646    31244 
   32097    32375    31914    31519    31693    31942    31785    31430 
   31222    31118    30951    30948    31446    32193    32503    32136 
   31510    31132    31236    31738    32188    32130    31600    30885 
   30331    30429    31135    31729    31882    31845    31866    32121 
   32505    32539    32081    31618    31471    31530    31657    31627 
   31318    31044    31109    31356    31513    31617    31766    31849 
   31774    31541    31270    31241    31476    31612    31533    31399 
   31140    30746    30715    31345    32132    32413    32117    31735 
   31688    31851    31908    31857    31843    31818    31602    31195 
   30871    30904    31230    31661    31982    31851    31305    31029 
   31460    32131    32427    32175    31483    30738    30460    30786 
   31414    31970    32192    32047    31803    31675    31577    31438 
   31409    31554    31784    31954    31947    31850    31764    31691 
   31723    31851    31808    31500    31244    31293    31467    31511 
   31444    31411    31468    31563    31598    31534    31491    31476 
   31299    31067    31155    31538    31864    32044    32144    32081 
   31816    31542    31487    31534    31338    30910    30654    30815 
   31255    31781    32285    32516    32351    32046    31780    31450 
   31078    30873    30836    30846    31018    31442    31816    31819 
   31602    31569    31815    32047    32009    31785    31654    31664 
   31645    31575    31571    31642    31714    31835    31984    31882 
   31563    31487    31769    32051    32024    31484    30499    29671 
   29535    29917    30408    30993    31772    32597    33295    33741 
   33725    33297    32838    32509    32165    31708    31151    30623 
   30338    30360    30597    30932    31286    31648    32049    32406 
   32559    32478    32232    31820    31272    30713    30345    30426 
   30901    31342    31604    31847    31901    31472    30812    30461 
   30618    30919    30766    30092    29467    29270    29427    29914 
   30797    32020    33458    34746    35405    35402    34987    34265 
   33408    32715    32179    31625    31114    30738    30460    30319 
   30284    30186    30133    30400    30870    31225    31409    31572 
   31936    32625    33315    33461    33027    32467    32050    31702 
   31261    30755    30447    30447    30650    31075    31797    32593 
   32979    32699    32062    31596    31421    31151    30483    29678 
   29147    28888    28798    29025    29685    30593    31414    31984 
   32351    32583    32746    32821    32655    32273    31870    31491 
   31101    30808    30816    31212    31787    32250    32572    32904 
   33289    33627    33874    34042    34049    33816    33338    32690 
   32061    31626    31386    31159    30712    30015    29301    28856 
   28845    29228    29874    30753    31776    32572    32817    32547 
   31989    31293    30523    29766    29104    28599    28372    28649 
   29565    30960    32563    34152    35476    36312    36614    36531 
   36138    35313    34022    32425    30724    29192    28085    27471 
   27288    27504    28065    28764    29340    29760    30281    31013 
   31722    32185    32452    32691    32918    33069    33137    33118 
   33127    33318    33604    33754    33679    33554    33555    33652 
   33862    34295    34703    34506    33440    31776    29975    28364 
   26982    25759    24696    23928    23768    24417    25699    27326 
   29196    31364    33752    36013    37840    39073    39579    39414 
   38873    38109    36988    35455    33732    32078    30566    29262 
   28308    27653    27051    26369    25720    25299    25184    25461 
   26214    27338    28745    30407    32085    33534    34720    35608 
   36169    36636    37296    37955    38099    37516    36410    35105 
   33831    32645    31527    30495    29550    28598    27656    26890 
   26357    25996    25834    26065    26877    28117    29436    30647 
   31711    32617    33519    34560    35563    36219    36502    36564 
   36324    35684    34819    33818    32611    31315    30167    29326 
   28799    28474    28274    28201    28258    28391    28579    28996 
   29849    31013    32196    33293    34169    34520    34283    33728 
   33150    32690    32373    32152    31884    31463    30998    30699 
   30724    31102    31662    32131    32304    32121    31704    31209 
   30688    30168    29783    29702    29967    30439    30875    31071 
   31029    31017    31388    32232    33168    33671    33590    33174 
   32660    32107    31662    31544    31681    31834    31932    32011 
   32108    32246    32333    32229    31888    31422    31040    30838 
   30732    30646    30574    30497    30442    30578    30942    31341 
   31654    31904    32148    32354    32379    32174    31812    31409 
   31056    30804    30748    30960    31306    31571    31672    31683 
   31641    31507    31378    31465    31837    32336    32684    32656 
   32263    31708    31212    30888    30730    30715    30878    31224 
   31627    31855    31854    31841    31915    31953    31895    31816 
   31814    31914    32123    32425    32644    32555    32205    31874 
   31743    31715    31575    31255    30883    30618    30550    30619 
   30530    30114    29598    29295    29415    30051    31001    31870 
   32422    32634    32606    32533    32601    32872    33201    33295 
   33085    32768    32436    32055    31687    31444    31310    31182 
   31066    31068    31236    31510    31762    31831    31719    31615 
   31598    31504    31185    30665    30152    29832    29776    30048 
   30607    31202    31608    31799    31866    31905    31945    32027 
   32277    32660    32960    33079    33100    33130    33166    33110 
   32922    32582    32070    31440    30842    30423    30132    29862 
   29635    29515    29547    29708    29924    30134    30426    30978 
   31703    32324    32740    33030    33274    33458    33528    33489 
   33313    32981    32574    32094    31465    30793    30314    30103 
   30041    30068    30314    30828    31356    31684    31866    31996 
   32077    32120    32146    32117    32028    31927    31696    31159 
   30449    29944    29890    30160    30481    30835    31298    31734 
   32027    32247    32462    32636    32782    32995    33174    33097 
   32822    32514    32115    31595    31094    30689    30396    30316 
   30478    30663    30632    30426    30358    30693    31305    31839 
   32103    32143    32119    32171    32364    32586    32648    32562 
   32437    32258    31935    31467    31036    30839    30780    30674 
   30600    30717    30967    31155    31274    31484    31787    32065 
   32289    32445    32508    32441    32273    32131    32092    32078 
   31934    31596    31220    30990    30939    30923    30796    30624 
   30566    30640    30801    30996    31207    31433    31621    31729 
   31749    31698    31673    31729    31785    31830    31982    32208 
   32316    32300    32341    32475    32570    32501    32213    31747 
   31279    30947    30715    30505    30335    30225    30171    30264 
   30585    31018    31413    31762    32112    32440    32670    32684 
   32439    32101    31938    31959    32007    32050    32030    31807 
   31483    31270    31174    31126    31153    31279    31428    31522 
   31565    31553    31460    31288    31085    30978    31017    31064 
   31028    31043    31197    31375    31506    31639    31819    32022 
   32224    32463    32701    32757    32616    32479    32382    32243 
   32123    32008    31761    31395    31016    30677    30438    30361 
   30435    30607    30842    31132    31488    31884    32190    32287 
   32201    32054    31907    31707    31448    31195    30977    30832 
   30815    30881    31013    31309    31756    32196    32517    32664 
   32598    32324    31892    31437    31056    30736    30530    30569 
   30869    31280    31673    32011    32273    32451    32549    32533 
   32332    31938    31488    31117    30813    30528    30254    30033 
   29914    29953    30260    30879    31684    32530    33303    33826 
   34026    34017    33939    33779    33405    32799    32138    31563 
   31079    30730    30553    30438    30312    30273    30291    30177 
   29976    29930    30122    30447    30735    30850    30831    30854 
   31043    31430    31914    32259    32341    32310    32409    32649 
   32860    32950    32927    32795    32548    32228    31949    31801 
   31742    31638    31423    31135    30858    30667    30570    30551 
   30640    30871    31201    31523    31710    31716    31657    31600 
   31517    31467    31554    31734    31887    32017    32213    32418 
   32460    32302    32105    31993    31908    31814    31691    31414 
   31020    30769    30705    30639    30551    30568    30708    30874 
   30987    31090    31244    31398    31544    31766    32040    32247 
   32387    32524    32610    32648    32686    32649    32476    32265 
   32085    31877    31625    31368    31135    30990    30967    31005 
   31032    30966    30797    30653    30631    30703    30815    30927 
   31040    31198    31402    31600    31731    31747    31696    31737 
   31924    32147    32277    32217    31950    31621    31402    31361 
