Origin Time       2024/06/23 22:54:00
Lat.              35.645
Long.             140.060
Depth. (km)       72
Mag.              4.1
Station Code      CHB019
Station Lat.      35.1106
Station Long.     139.8360
Station Height(m) 5
Record Time       2024/06/23 22:54:49
Sampling Freq(Hz) 100Hz
Duration Time(s)  63
Dir.              E-W
Scale Factor      7845(gal)/8223790
Max. Acc. (gal)   2.524
Last Correction   2024/06/23 22:54:48
Memo.             
[...]
    4359     4364     4369     4365     4365     4363     4359     4360 
    4363     4369     4371     4364     4363     4357     4363     4378 
    4372     4365     4367     4359     4364     4372     4364     4367 
    4369     4365     4372     4368     4357     4360     4359     4363 
    4374     4365     4368     4379     4364     4359     4367     4360 
    4363     4372     4367     4361     4367     4375     4371     4369 
    4372     4364     4364     4371     4364     4364     4369     4363 
    4367     4374     4367     4361     4364     4369     4369     4364 
    4364     4371     4368     4367     4371     4371     4371     4371 
    4368     4367     4365     4360     4360     4371     4378     4365 
    4356     4369     4379     4374     4367     4367     4369     4363 
    4360     4371     4375     4368     4368     4368     4365     4364 
    4367     4365     4363     4365     4368     4363     4361     4363 
    4363     4363     4365     4368     4367     4357     4361     4376 
    4374     4363     4365     4374     4367     4357     4364     4369 
    4363     4364     4371     4365     4365     4369     4367     4363 
    4359     4357     4365     4372     4374     4375     4371     4365 
    4363     4364     4365     4365     4368     4371     4365     4364 
    4369     4368     4363     4361     4369     4374     4368     4365 
    4367     4365     4368     4371     4371     4368     4364     4365 
    4372     4372     4369     4369     4372     4374     4375     4368 
    4360     4367     4371     4367     4365     4367     4369     4372 
    4374     4372     4367     4367     4374     4368     4357     4357 
    4365     4374     4380     4378     4371     4369     4372     4372 
    4367     4359     4356     4352     4349     4359     4368     4369 
    4375     4379     4367     4356     4361     4367     4356     4347 
    4342     4340     4340     4337     4336     4348     4359     4360 
    4368     4375     4372     4375     4379     4376     4369     4367 
    4379     4401     4414     4415     4410     4379     4330     4310 
    4318     4334     4357     4371     4378     4390     4394     4382 
    4371     4382     4386     4361     4337     4334     4321     4279 
    4251     4261     4282     4314     4387     4490     4557     4549 
    4498     4457     4429     4375     4305     4276     4293     4301 
    4282     4279     4309     4367     4449     4514     4522     4475 
    4401     4344     4317     4291     4287     4329     4372     4384 
    4390     4399     4405     4403     4391     4392     4409     4405 
    4368     4320     4278     4278     4320     4337     4295     4248 
    4247     4298     4372     4421     4426     4414     4415     4421 
    4409     4386     4380     4395     4410     4386     4332     4314 
    4345     4383     4403     4396     4384     4411     4450     4430 
    4353     4293     4302     4380     4469     4492     4452     4405 
    4376     4344     4288     4230     4193     4201     4264     4348 
    4415     4452     4460     4467     4461     4423     4367     4311 
    4256     4198     4164     4203     4311     4411     4460     4499 
    4536     4525     4479     4434     4387     4352     4367     4391 
    4360     4294     4263     4315     4414     4469     4456     4423 
    4379     4297     4209     4189     4260     4360     4429     4465 
    4465     4430     4380     4326     4299     4321     4345     4344 
    4338     4347     4349     4332     4310     4311     4332     4355 
    4384     4429     4467     4465     4409     4314     4239     4233 
    4299     4398     4472     4496     4495     4487     4468     4430 
    4361     4313     4325     4347     4344     4330     4305     4263 
    4220     4190     4205     4276     4368     4425     4430     4414 
    4399     4398     4417     4442     4434     4383     4340     4342 
    4369     4390     4379     4359     4376     4414     4445     4473 
    4459     4391     4329     4315     4347     4388     4417     4445 
    4492     4538     4529     4433     4287     4158     4087     4094 
    4178     4321     4463     4542     4552     4509     4419     4330 
    4278     4237     4207     4218     4272     4334     4379     4410 
    4434     4463     4476     4428     4309     4213     4205     4234 
    4256     4307     4411     4533     4634     4685     4645     4521 
    4392     4333     4330     4314     4263     4220     4212     4226 
    4255     4276     4286     4321     4390     4418     4372     4321 
    4334     4414     4498     4515     4482     4449     4446     4457 
    4441     4364     4259     4187     4158     4152     4172     4190 
    4190     4222     4322     4419     4433     4398     4398     4460 
    4552     4623     4671     4700     4698     4658     4598     4504 
    4376     4230     4116     4106     4210     4353     4453     4471 
    4422     4349     4295     4286     4293     4283     4279     4299 
    4336     4367     4355     4307     4298     4340     4360     4322 
    4276     4263     4288     4326     4318     4225     4126     4116 
    4163     4197     4234     4332     4480     4619     4716     4785 
    4819     4796     4702     4542     4383     4272     4185     4108 
    4095     4153     4222     4295     4405     4517     4575     4571 
    4517     4425     4340     4295     4270     4222     4182     4195 
    4249     4279     4274     4272     4278     4287     4324     4375 
    4419     4473     4549     4611     4623     4591     4540     4472 
    4387     4283     4176     4099     4093     4175     4305     4379 
    4383     4411     4476     4514     4504     4461     4392     4326 
    4294     4290     4298     4320     4379     4456     4498     4486 
    4456     4445     4445     4413     4344     4290     4284     4294 
    4271     4218     4180     4197     4267     4341     4371     4360 
    4371     4429     4498     4560     4599     4595     4534     4407 
    4267     4203     4241     4321     4374     4371     4330     4284 
    4264     4291     4329     4307     4239     4213     4256     4310 
    4344     4367     4392     4421     4421     4413     4456     4514 
    4503     4429     4344     4275     4218     4178     4182     4241 
    4330     4428     4503     4533     4519     4492     4473     4459 
    4430     4391     4369     4382     4430     4509     4588     4607 
    4546     4476     4437     4394     4317     4252     4260     4306 
    4297     4234     4216     4280     4375     4437     4449     4415 
    4352     4272     4191     4121     4086     4091     4147     4249 
    4349     4395     4410     4438     4472     4459     4384     4305 
    4266     4255     4251     4253     4271     4322     4419     4533 
    4604     4621     4612     4590     4529     4441     4355     4303 
    4309     4365     4453     4538     4569     4534     4475     4415 
    4359     4276     4151     4040     4037     4132     4233     4290 
    4311     4330     4368     4386     4361     4332     4348     4413 
    4453     4407     4317     4248     4228     4252     4301     4360 
    4418     4482     4549     4591     4576     4519     4473     4471 
    4499     4526     4517     4461     4399     4368     4340     4263 
    4166     4126     4164     4248     4326     4363     4368     4378 
    4425     4496     4544     4534     4496     4468     4445     4411 
    4365     4311     4240     4159     4089     4051     4078     4168 
    4278     4379     4468     4514     4495     4438     4376     4318 
    4283     4288     4344     4432     4487     4476     4423     4392 
    4415     4461     4495     4504     4467     4387     4297     4213 
    4159     4162     4221     4311     4409     4488     4513     4483 
    4452     4429     4379     4302     4244     4221     4230     4255 
    4253     4228     4210     4228     4270     4305     4328     4371 
    4448     4518     4548     4550     4553     4561     4561     4542 
    4503     4426     4333     4320     4415     4518     4526     4446 
    4367     4341     4341     4324     4310     4355     4445     4517 
    4542     4511     4446     4387     4336     4288     4251     4218 
    4199     4197     4178     4118     4066     4090     4197     4320 
    4388     4401     4407     4426     4432     4409     4382     4395 
    4464     4549     4581     4515     4391     4303     4301     4333 
    4332     4309     4322     4379     4444     4468     4437     4391 
    4357     4344     4347     4340     4340     4378     4429     4457 
    4457     4448     4450     4459     4453     4391     4247     4083 
    3998     4016     4124     4293     4425     4477     4506     4529 
    4509     4442     4376     4334     4320     4332     4364     4383 
    4383     4398     4448     4504     4534     4531     4494     4399 
    4259     4153     4151     4230     4318     4378     4409     4406 
    4357     4278     4212     4182     4182     4230     4357     4531 
    4664     4687     4618     4517     4428     4355     4301     4274 
    4266     4286     4347     4423     4482     4525     4557     4545 
    4463     4344     4267     4276     4334     4369     4359     4318 
    4276     4282     4344     4402     4396     4361     4348     4341 
    4311     4249     4174     4133     4155     4203     4251     4303 
    4344     4341     4329     4341     4337     4287     4234     4228 
    4278     4371     4483     4572     4622     4652     4688     4702 
    4615     4438     4282     4212     4198     4197     4205     4233 
    4272     4326     4390     4441     4468     4475     4475     4479 
    4484     4479     4465     4456     4438     4394     4338     4330 
    4375     4402     4364     4307     4268     4251     4255     4290 
    4359     4455     4553     4626     4645     4584     4477     4384 
    4302     4195     4082     4017     4036     4129     4240     4337 
    4423     4479     4473     4434     4405     4390     4392     4414 
    4428     4401     4315     4206     4126     4099     4122     4176 
    4210     4218     4239     4286     4349     4429     4503     4529 
    4484     4403     4361     4402     4504     4600     4637     4633 
    4634     4642     4617     4545     4460     4388     4326     4259 
    4187     4121     4083     4085     4129     4207     4311     4429 
    4531     4596     4608     4561     4459     4322     4202     4147 
    4162     4214     4283     4365     4448     4514     4550     4544 
    4475     4341     4189     4068     4010     4041     4155     4314 
    4504     4700     4845     4896     4855     4762     4656     4531 
    4386     4247     4126     4043     4037     4110     4214     4317 
    4407     4482     4545     4596     4626     4625     4603     4567 
    4503     4410     4326     4276     4263     4288     4349     4436 
    4545     4668     4784     4878     4941     4950     4895     4768 
    4596     4423     4256     4071     3866     3647     3406     3153 
    2963     2903     2974     3121     3299     3500     3716     3910 
    4054     4144     4226     4337     4486     4665     4850     5030 
    5201     5347     5447     5490     5458     5339     5134     4864 
    4618     4484     4463     4506     4588     4703     4822     4889 
    4869     4777     4646     4491     4306     4072     3804     3545 
    3311     3107     2951     2883     2965     3204     3530     3871 
    4202     4500     4731     4853     4869     4842     4833     4857 
    4904     4970     5044     5074     5031     4942     4828     4710 
    4635     4630     4661     4671     4623     4527     4428     4355 
    4297     4233     4191     4225     4352     4538     4691     4719 
    4625     4486     4356     4259     4209     4193     4179     4155 
    4131     4114     4116     4114     4054     3917     3747     3578 
    3429     3331     3331     3441     3624     3844     4067     4276 
    4460     4614     4739     4837     4922     5011     5080     5065 
    4922     4685     4463     4371     4456     4680     4989     5309 
    5540     5605     5487     5252     4986     4733     4477     4205 
    3928     3701     3561     3501     3500     3530     3584     3676 
    3808     3969     4113     4186     4156     4043     3908     3821 
    3825     3936     4156     4465     4810     5115     5312     5385 
    5337     5178     4950     4711     4495     4336     4257     4251 
    4278     4282     4228     4126     4009     3902     3862     3915 
    4040     4191     4291     4267     4104     3846     3581     3379 
    3254     3222     3331     3615     4051     4571     5097     5582 
    5991     6280     6434     6458     6355     6124     5749     5252 
    4702     4183     3763     3480     3339     3327     3424     3593 
    3784     3950     4054     4093     4114     4171     4284     4442 
    4575     4598     4465     4201     3879     3588     3375     3268 
    3312     3520     3858     4266     4657     4972     5208     5368 
    5458     5493     5474     5378     5206     5003     4834     4741 
    4720     4746     4780     4779     4718     4590     4396     4178 
    3971     3757     3524     3296     3103     2987     2980     3088 
    3300     3586     3912     4237     4522     4723     4793     4712 
    4495     4187     3844     3514     3244     3091     3109     3325 
    3743     4340     5058     5805     6443     6863     7013     6883 
    6492     5902     5190     4438     3723     3114     2685     2471 
    2466     2620     2856     3134     3465     3869     4340     4824 
    5252     5591     5833     5958     5941     5779     5506     5162 
    4770     4347     3935     3611     3435     3416     3519     3727 
    4020     4360     4743     5178     5641     6052     6307     6328 
    6081     5609     5013     4396     3870     3516     3346     3310 
    3319     3304     3253     3184     3133     3153     3296     3572 
    3939     4314     4595     4723     4708     4599     4441     4255 
    4050     3821     3564     3310     3125     3053     3102     3235 
    3399     3565     3761     4021     4374     4799     5217     5570 
    5830     5954     5915     5707     5352     4920     4496     4145 
    3893     3731     3654     3658     3720     3838     4052     4391 
    4814     5246     5607     5837     5910     5840     5647     5362 
    5035     4708     4405     4132     3896     3723     3630     3608 
    3632     3689     3800     4006     4317     4699     5093     5439 
    5683     5795     5748     5536     5197     4791     4383     4017 
    3700     3426     3194     3029     2976     3055     3242     3500 
    3784     4071     4345     4599     4835     5042     5163     5150 
    4985     4700     4348     3985     3654     3373     3157     3048 
    3082     3271     3585     3977     4406     4841     5224     5503 
    5648     5633     5460     5144     4734     4306     3924     3631 
    3431     3310     3273     3329     3468     3676     3921     4159 
    4351     4473     4533     4552     4550     4548     4561     4608 
    4712     4891     5120     5359     5574     5733     5786     5709 
    5522     5260     4962     4668     4411     4216     4091     4027 
    3991     3944     3855     3713     3526     3322     3134     2995 
    2944     2991     3125     3327     3554     3782     3996     4180 
    4340     4484     4617     4720     4773     4768     4742     4741 
    4780     4854     4978     5175     5441     5738     6018     6239 
    6369     6380     6250     5983     5601     5136     4630     4141 
    3719     3384     3161     3068     3082     3169     3316     3505 
    3724     3958     4191     4413     4595     4695     4681     4565 
    4391     4195     3994     3825     3724     3699     3734     3812 
    3908     3994     4047     4054     4014     3946     3888     3881 
    3947     4087     4271     4436     4533     4542     4471     4340 
    4183     4025     3888     3797     3754     3732     3716     3676 
    3618     3585     3604     3655     3723     3812     3936     4101 
    4324     4615     4978     5398     5836     6238     6558     6775 
    6894     6898     6779     6559     6258     5906     5535     5175 
    4855     4611     4449     4349     4282     4206     4098     3950 
    3773     3593     3443     3346     3300     3302     3348     3422 
    3496     3564     3628     3690     3740     3775     3785     3770 
    3754     3754     3773     3802     3827     3825     3786     3716 
    3639     3580     3568     3619     3728     3893     4108     4380 
    4692     4990     5224     5359     5379     5308     5184     5027 
    4866     4739     4665     4654     4714     4828     4968     5111 
    5232     5305     5313     5258     5167     5065     4961     4866 
    4796     4750     4723     4707     4681     4623     4527     4392 
    4212     3998     3792     3623     3532     3564     3731     4012 
    4341     4614     4733     4666     4448     4118     3732     3365 
    3065     2847     2718     2686     2758     2932     3188     3505 
    3850     4168     4417     4568     4611     4564     4459     4334 
    4221     4135     4089     4098     4168     4290     4441     4604 
    4779     4958     5135     5313     5491     5667     5833     5962 
    6012     5942     5732     5400     4965     4476     4031     3721 
    3599     3673     3915     4272     4685     5089     5428     5661 
    5749     5672     5448     5109     4715     4338     4018     3773 
    3611     3538     3543     3592     3643     3674     3693     3715 
    3746     3786     3838     3889     3928     3943     3912     3816 
    3661     3477     3318     3217     3198     3283     3461     3688 
    3905     4071     4183     4259     4309     4355     4425     4525 
    4642     4776     4923     5062     5165     5217     5221     5190 
    5142     5080     5013     4963     4955     4992     5059     5131 
    5173     5151     5070     4970     4895     4849     4801     4725 
    4600     4425     4222     4036     3898     3832     3827     3850 
    3867     3866     3839     3790     3748     3744     3781     3834 
    3865     3862     3852     3862     3893     3937     3987     4041 
    4097     4140     4166     4185     4214     4252     4291     4329 
    4365     4405     4468     4572     4720     4899     5077     5219 
    5293     5294     5229     5115     4970     4806     4629     4463 
    4334     4253     4229     4260     4325     4399     4460     4486 
    4475     4449     4414     4375     4336     4291     4248     4210 
    4170     4126     4087     4058     4036     4025     4025     4056 
    4125     4225     4342     4459     4553     4610     4635     4646 
    4648     4631     4599     4568     4554     4538     4503     4457 
    4418     4407     4422     4449     4469     4465     4433     4380 
    4314     4241     4163     4079     3986     3898     3828     3780 
    3767     3789     3834     3892     3951     3998     4013     3990 
    3946     3900     3877     3890     3937     4012     4093     4155 
    4186     4190     4168     4131     4085     4054     4059     4110 
