Origin Time       2024/06/23 22:54:00
Lat.              35.645
Long.             140.060
Depth. (km)       72
Mag.              4.1
Station Code      CHB010
Station Lat.      35.7086
Station Long.     140.5637
Station Height(m) 9
Record Time       2024/06/23 22:54:48
Sampling Freq(Hz) 100Hz
Duration Time(s)  60
Dir.              N-S
Scale Factor      7845(gal)/8223790
Max. Acc. (gal)   1.522
Last Correction   2024/06/23 22:54:47
Memo.             
[...]
   -6099    -6099    -6089    -6088    -6100    -6106    -6091    -6091 
   -6100    -6088    -6089    -6099    -6087    -6089    -6104    -6095 
   -6088    -6100    -6099    -6088    -6089    -6087    -6088    -6107 
   -6111    -6092    -6080    -6084    -6095    -6102    -6100    -6093 
   -6097    -6103    -6093    -6084    -6087    -6093    -6106    -6110 
   -6095    -6085    -6095    -6099    -6095    -6092    -6087    -6092 
   -6097    -6096    -6107    -6104    -6079    -6085    -6110    -6095 
   -6085    -6099    -6097    -6104    -6108    -6093    -6092    -6091 
   -6093    -6102    -6088    -6087    -6106    -6096    -6092    -6111 
   -6096    -6076    -6096    -6114    -6103    -6099    -6097    -6085 
   -6079    -6088    -6110    -6122    -6102    -6073    -6076    -6103 
   -6120    -6111    -6097    -6088    -6080    -6083    -6092    -6097 
   -6111    -6116    -6104    -6107    -6093    -6065    -6087    -6114 
   -6108    -6087    -6062    -6075    -6115    -6145    -6142    -6102 
   -6081    -6091    -6083    -6091    -6133    -6139    -6091    -6056 
   -6079    -6104    -6073    -6031    -6025    -6064    -6141    -6197 
   -6200    -6131    -6041    -6033    -6114    -6181    -6156    -6062 
   -6025    -6072    -6095    -6062    -6077    -6146    -6122    -6023 
   -6025    -6107    -6119    -6099    -6147    -6184    -6150    -6107 
   -6064    -5994    -5967    -6057    -6177    -6151    -6038    -6065 
   -6168    -6138    -6046    -6052    -6122    -6154    -6127    -6089 
   -6102    -6153    -6158    -6091    -5984    -5930    -6046    -6237 
   -6257    -6092    -5988    -6075    -6187    -6158    -6043    -5991 
   -6046    -6124    -6173    -6185    -6143    -6097    -6085    -6038 
   -5981    -6039    -6119    -6111    -6137    -6199    -6180    -6134 
   -6072    -5958    -5950    -6087    -6199    -6230    -6174    -6075 
   -6069    -6131    -6108    -6022    -6002    -6088    -6160    -6088 
   -5969    -5961    -6083    -6232    -6231    -6103    -6087    -6183 
   -6234    -6220    -6150    -6060    -6046    -6100    -6112    -6037 
   -5969    -6034    -6169    -6173    -6023    -5969    -6130    -6296 
   -6291    -6174    -6070    -6023    -6006    -6053    -6160    -6147 
   -6031    -6062    -6228    -6250    -6081    -5937    -5907    -5915 
   -5960    -6099    -6265    -6291    -6180    -6127    -6142    -6022 
   -5833    -5833    -5971    -6023    -6034    -6166    -6328    -6308 
   -6131    -6031    -6122    -6214    -6097    -5886    -5848    -6058 
   -6303    -6289    -6048    -5896    -5958    -6108    -6231    -6243 
   -6195    -6211    -6212    -6102    -5964    -5926    -6019    -6137 
   -6178    -6196    -6258    -6247    -6045    -5809    -5759    -5929 
   -6181    -6299    -6210    -6131    -6223    -6319    -6227    -5989 
   -5822    -5931    -6135    -6130    -6065    -6172    -6278    -6219 
   -6126    -6088    -6080    -6164    -6300    -6330    -6204    -6003 
   -5915    -6029    -6100    -6018    -6026    -6119    -6068    -5900 
   -5751    -5713    -5873    -6122    -6309    -6482    -6602    -6459 
   -6068    -5765    -5765    -5964    -6189    -6285    -6203    -6107 
   -6134    -6178    -6043    -5811    -5821    -6089    -6295    -6281 
   -6085    -5856    -5841    -6027    -6189    -6285    -6316    -6210 
   -6035    -5923    -5892    -5872    -5848    -5967    -6242    -6427 
   -6390    -6237    -6104    -6016    -5954    -5935    -6066    -6355 
   -6489    -6277    -6008    -5927    -5913    -5802    -5740    -5995 
   -6363    -6397    -6204    -6133    -6149    -6093    -5967    -5853 
   -5857    -6018    -6282    -6481    -6340    -5972    -5886    -6160 
   -6370    -6316    -6161    -6087    -6083    -5985    -5787    -5715 
   -5871    -6057    -6204    -6463    -6700    -6579    -6130    -5721 
   -5709    -6039    -6207    -6072    -6014    -6061    -6006    -5914 
   -5845    -5786    -5827    -6006    -6257    -6462    -6497    -6426 
   -6374    -6286    -6095    -5953    -6003    -6084    -6048    -6034 
   -6103    -6056    -5805    -5603    -5695    -5933    -6146    -6400 
   -6566    -6423    -6133    -5953    -5871    -5830    -5950    -6268 
   -6520    -6497    -6307    -6099    -5887    -5730    -5771    -5984 
   -6180    -6280    -6351    -6381    -6258    -6023    -5898    -5985 
   -6104    -6080    -6046    -6146    -6178    -5942    -5655    -5672 
   -5995    -6328    -6496    -6478    -6322    -6156    -6060    -5989 
   -5934    -5991    -6172    -6255    -6129    -6035    -6115    -6170 
   -6015    -5721    -5594    -5834    -6188    -6327    -6311    -6340 
   -6417    -6412    -6303    -6146    -5954    -5846    -5946    -6107 
   -6126    -6061    -6030    -5973    -5902    -5988    -6210    -6312 
   -6204    -6095    -6170    -6291    -6251    -6134    -6050    -5931 
   -5810    -5867    -6104    -6292    -6269    -6122    -5996    -5875 
   -5759    -5772    -5923    -6150    -6357    -6397    -6355    -6347 
   -6242    -6046    -5968    -5969    -5919    -5875    -5931    -6095 
   -6284    -6340    -6218    -6068    -6022    -6111    -6238    -6214 
   -6095    -6031    -5941    -5852    -5927    -6088    -6201    -6274 
   -6296    -6274    -6285    -6376    -6448    -6315    -6018    -5853 
   -5902    -5961    -5838    -5679    -5822    -6127    -6168    -6026 
   -6058    -6205    -6180    -6033    -6099    -6392    -6480    -6222 
   -5957    -5871    -5930    -6102    -6208    -6104    -5944    -5926 
   -6011    -6012    -5900    -5849    -5971    -6130    -6205    -6285 
   -6385    -6394    -6380    -6434    -6380    -6157    -6004    -5979 
   -5960    -6000    -6079    -6046    -5980    -5994    -5996    -5946 
   -5919    -5992    -6172    -6262    -6178    -6138    -6135    -5980 
   -5883    -6083    -6304    -6299    -6242    -6247    -6214    -6160 
   -6203    -6330    -6327    -6057    -5753    -5703    -5798    -5845 
   -5908    -6002    -5995    -5931    -5975    -6062    -6011    -5871 
   -5872    -6129    -6405    -6404    -6281    -6289    -6257    -6077 
   -6041    -6212    -6238    -6080    -6076    -6270    -6381    -6347 
   -6291    -6149    -5907    -5810    -5960    -6137    -6112    -5961 
   -5938    -6075    -6138    -6015    -5871    -5854    -5923    -6019 
   -6174    -6357    -6405    -6247    -6077    -6070    -6124    -6164 
   -6207    -6199    -6196    -6335    -6455    -6245    -5822    -5602 
   -5641    -5746    -5890    -6083    -6245    -6301    -6230    -6135 
   -6151    -6118    -5925    -5873    -6048    -6116    -6066    -6084 
   -6093    -6104    -6239    -6372    -6380    -6286    -6120    -5965 
   -5910    -5927    -6012    -6162    -6231    -6192    -6185    -6174 
   -6091    -6061    -6104    -6023    -5810    -5659    -5644    -5782 
   -6031    -6197    -6218    -6255    -6369    -6430    -6318    -6091 
   -6093    -6423    -6598    -6390    -6153    -6057    -5954    -5844 
   -5896    -6160    -6354    -6191    -5844    -5643    -5624    -5719 
   -5915    -6184    -6376    -6316    -6102    -6007    -6043    -5995 
   -5911    -6081    -6408    -6508    -6334    -6111    -5984    -5983 
   -6110    -6349    -6561    -6581    -6451    -6278    -6050    -5769 
   -5594    -5697    -5945    -6023    -5948    -5983    -6133    -6200 
   -6207    -6289    -6312    -6127    -5935    -5919    -5961    -6003 
   -6093    -6131    -6083    -6080    -6124    -6139    -6097    -6002 
   -5952    -6046    -6160    -6108    -6007    -6053    -6158    -6169 
   -6135    -6133    -6126    -6077    -6038    -6138    -6342    -6363 
   -6124    -5887    -5795    -5857    -6068    -6232    -6224    -6157 
   -6056    -5922    -5884    -5935    -5944    -5954    -6072    -6196 
   -6191    -6160    -6268    -6392    -6336    -6185    -6149    -6251 
   -6331    -6230    -5981    -5788    -5827    -6035    -6191    -6224 
   -6162    -6025    -5933    -5971    -6011    -5968    -5945    -5999 
   -6091    -6176    -6231    -6264    -6247    -6189    -6242    -6385 
   -6394    -6280    -6200    -6123    -6012    -5942    -5908    -5872 
   -5844    -5859    -5991    -6153    -6150    -6077    -6088    -6127 
   -6126    -6119    -6185    -6282    -6292    -6246    -6207    -6091 
   -5875    -5752    -5813    -5900    -5902    -5906    -6046    -6285 
   -6411    -6367    -6316    -6308    -6242    -6072    -5890    -5759 
   -5632    -5559    -5675    -5917    -6168    -6458    -6651    -6534 
   -6276    -6134    -6060    -6007    -6043    -6172    -6365    -6544 
   -6567    -6407    -6134    -5876    -5800    -5861    -5811    -5687 
   -5773    -6002    -6092    -6085    -6134    -6172    -6096    -5965 
   -5915    -5964    -6015    -6061    -6134    -6120    -5995    -5917 
   -5937    -6006    -6196    -6535    -6787    -6721    -6411    -6139 
   -6048    -6007    -5921    -5903    -5985    -5969    -5792    -5648 
   -5698    -5926    -6228    -6481    -6542    -6384    -6192    -6100 
   -6041    -5961    -5964    -6141    -6334    -6305    -6120    -5991 
   -5945    -5973    -6096    -6259    -6377    -6377    -6242    -6072 
   -5944    -5811    -5722    -5840    -6070    -6165    -6139    -6143 
   -6156    -6072    -5907    -5788    -5775    -5809    -5854    -5950 
   -6156    -6376    -6453    -6447    -6446    -6376    -6223    -6083 
   -6068    -6193    -6292    -6243    -6134    -6048    -5961    -5907 
   -5899    -5834    -5740    -5767    -5965    -6222    -6365    -6355 
   -6295    -6291    -6320    -6255    -6137    -6088    -6070    -6050 
   -6068    -6075    -6016    -5980    -6085    -6277    -6400    -6409 
   -6309    -6116    -5898    -5748    -5782    -5977    -6142    -6188 
   -6161    -6099    -6050    -6026    -5999    -6014    -6115    -6259 
   -6388    -6420    -6262    -6031    -5933    -5931    -5942    -5994 
   -6118    -6316    -6480    -6520    -6542    -6546    -6399    -6191 
   -6096    -6061    -6030    -6077    -6177    -6226    -6187    -6049 
   -5848    -5687    -5593    -5559    -5645    -5832    -6033    -6249 
   -6457    -6502    -6373    -6241    -6170    -6133    -6131    -6177 
   -6266    -6291    -6207    -6147    -6131    -6012    -5753    -5444 
   -5221    -5163    -5152    -5066    -5030    -5186    -5471    -5769 
   -6087    -6450    -6760    -6906    -6882    -6736    -6534    -6270 
   -5975    -5868    -6053    -6289    -6328    -6235    -6193    -6172 
   -6065    -5923    -5807    -5742    -5818    -6039    -6257    -6385 
   -6482    -6619    -6737    -6674    -6494    -6465    -6524    -6408 
   -6185    -6012    -5790    -5455    -5197    -5182    -5398    -5711 
   -5999    -6238    -6393    -6434    -6481    -6658    -6886    -7030 
   -7113    -7153    -7029    -6671    -6176    -5711    -5348    -5061 
   -4893    -4920    -5121    -5346    -5530    -5791    -6110    -6399 
   -6651    -6798    -6782    -6620    -6393    -6289    -6343    -6320 
   -6143    -5996    -5903    -5733    -5570    -5536    -5557    -5599 
   -5771    -6019    -6135    -6089    -6002    -5958    -5971    -5926 
   -5826    -5825    -5903    -5975    -6097    -6261    -6399    -6532 
   -6652    -6716    -6744    -6727    -6608    -6420    -6228    -6095 
   -6072    -5998    -5725    -5428    -5304    -5336    -5491    -5768 
   -6106    -6407    -6655    -6836    -6847    -6598    -6207    -5857 
   -5590    -5366    -5283    -5503    -5922    -6224    -6376    -6592 
   -6858    -6982    -6936    -6790    -6579    -6354    -6177    -6065 
   -5950    -5784    -5638    -5614    -5725    -5891    -6100    -6378 
   -6513    -6327    -5950    -5582    -5359    -5324    -5454    -5706 
   -6012    -6323    -6589    -6713    -6639    -6384    -6004    -5591 
   -5310    -5282    -5502    -5848    -6210    -6586    -6894    -6920 
   -6660    -6361    -6189    -6114    -6046    -6019    -6089    -6092 
   -5904    -5767    -5891    -6127    -6339    -6542    -6654    -6575 
   -6390    -6269    -6259    -6247    -6196    -6170    -6054    -5746 
   -5421    -5290    -5323    -5339    -5381    -5705    -6270    -6735 
   -6939    -6897    -6581    -6100    -5779    -5823    -6104    -6419 
   -6729    -6928    -6789    -6332    -5865    -5568    -5370    -5350 
   -5656    -6045    -6176    -6119    -6077    -6027    -5890    -5760 
   -5800    -5925    -5856    -5606    -5440    -5454    -5536    -5679 
   -5983    -6338    -6458    -6278    -6033    -5968    -6058    -6176 
   -6280    -6322    -6295    -6313    -6416    -6498    -6455    -6346 
   -6326    -6380    -6436    -6536    -6758    -7094    -7338    -7308 
   -7080    -6777    -6443    -6108    -5763    -5355    -4899    -4568 
   -4537    -4806    -5250    -5706    -6075    -6347    -6477    -6442 
   -6359    -6285    -6203    -6224    -6399    -6588    -6691    -6644 
   -6427    -6150    -5834    -5516    -5341    -5290    -5213    -5111 
   -5121    -5293    -5553    -5887    -6288    -6637    -6837    -6895 
   -6871    -6786    -6608    -6385    -6228    -6102    -5900    -5718 
   -5711    -5907    -6177    -6363    -6448    -6470    -6436    -6380 
   -6339    -6303    -6259    -6210    -6204    -6343    -6600    -6778 
   -6744    -6486    -6097    -5699    -5309    -4950    -4795    -4955 
   -5275    -5495    -5575    -5697    -5934    -6185    -6453    -6804 
   -7119    -7264    -7198    -6930    -6555    -6191    -5890    -5672 
   -5499    -5327    -5175    -5084    -5073    -5169    -5374    -5637 
   -5929    -6305    -6795    -7281    -7597    -7692    -7604    -7369 
   -6999    -6525    -6008    -5508    -5123    -4970    -5036    -5161 
   -5265    -5409    -5614    -5854    -6064    -6191    -6282    -6350 
   -6397    -6504    -6627    -6610    -6426    -6264    -6289    -6412 
   -6486    -6501    -6434    -6234    -6027    -5985    -6052    -6158 
   -6297    -6367    -6326    -6188    -5934    -5645    -5429    -5344 
   -5412    -5568    -5755    -5887    -5825    -5613    -5444    -5352 
   -5302    -5458    -5903    -6393    -6631    -6532    -6254    -6031 
   -5926    -5890    -5962    -6214    -6527    -6767    -6955    -7048 
   -6913    -6625    -6485    -6651    -6986    -7223    -7173    -6839 
   -6330    -5737    -5217    -4966    -5051    -5355    -5738    -6153 
   -6478    -6571    -6531    -6548    -6600    -6569    -6517    -6538 
   -6520    -6319    -5985    -5688    -5479    -5287    -5093    -4976 
   -5007    -5163    -5390    -5741    -6199    -6521    -6532    -6293 
   -5954    -5626    -5368    -5238    -5232    -5333    -5616    -6084 
   -6602    -7032    -7321    -7452    -7396    -7155    -6804    -6462 
   -6161    -5880    -5699    -5665    -5706    -5798    -5952    -6092 
   -6170    -6230    -6288    -6326    -6362    -6388    -6370    -6319 
   -6201    -6018    -5840    -5641    -5382    -5166    -5109    -5225 
   -5410    -5628    -5923    -6161    -6291    -6546    -6967    -7319 
   -7462    -7317    -6858    -6237    -5674    -5319    -5179    -5177 
   -5347    -5725    -6142    -6407    -6457    -6311    -6077    -5934 
   -5972    -6157    -6431    -6663    -6640    -6295    -5733    -5134 
   -4770    -4839    -5255    -5822    -6390    -6840    -7069    -7047 
   -6872    -6696    -6546    -6376    -6232    -6162    -6081    -5945 
   -5871    -5933    -6060    -6165    -6192    -6073    -5833    -5625 
   -5625    -5884    -6246    -6498    -6596    -6578    -6454    -6295 
   -6178    -6088    -5999    -5921    -5877    -5890    -5911    -5942 
   -6045    -6224    -6470    -6750    -6984    -7088    -6988    -6690 
   -6319    -5968    -5664    -5474    -5400    -5293    -5077    -4858 
   -4757    -4810    -4985    -5231    -5516    -5822    -6072    -6215 
   -6289    -6342    -6405    -6457    -6478    -6525    -6660    -6852 
   -6982    -6974    -6903    -6856    -6745    -6484    -6111    -5721 
   -5401    -5202    -5194    -5375    -5621    -5868    -6134    -6338 
   -6399    -6419    -6543    -6713    -6808    -6843    -6824    -6643 
   -6307    -5965    -5679    -5414    -5184    -5040    -5035    -5170 
   -5351    -5518    -5717    -5935    -6093    -6205    -6332    -6420 
   -6426    -6462    -6608    -6794    -6953    -7003    -6939    -6839 
   -6660    -6403    -6161    -5964    -5798    -5680    -5651    -5702 
   -5752    -5745    -5752    -5868    -5999    -6048    -6014    -5857 
   -5661    -5610    -5707    -5895    -6130    -6312    -6451    -6631 
   -6772    -6813    -6824    -6843    -6866    -6856    -6723    -6454 
   -6166    -5919    -5676    -5467    -5308    -5103    -4834    -4642 
   -4618    -4752    -5050    -5454    -5875    -6257    -6513    -6663 
   -6820    -6990    -7103    -7141    -7177    -7218    -7179    -7047 
   -6862    -6627    -6339    -6057    -5845    -5684    -5497    -5260 
   -5082    -5031    -5051    -5142    -5313    -5510    -5711    -5937 
   -6161    -6316    -6405    -6475    -6521    -6532    -6527    -6570 
   -6663    -6681    -6581    -6428    -6259    -6115    -6025    -5985 
   -6023    -6153    -6281    -6276    -6095    -5822    -5624    -5590 
   -5633    -5686    -5772    -5883    -6012    -6168    -6307    -6377 
   -6405    -6469    -6551    -6574    -6532    -6434    -6218    -5898 
   -5607    -5416    -5350    -5468    -5738    -6049    -6309    -6408 
   -6289    -6077    -5854    -5601    -5389    -5323    -5395    -5568 
   -5813    -6066    -6312    -6574    -6825    -7047    -7172    -7142 
   -7056    -6988    -6897    -6731    -6471    -6123    -5780    -5586 
   -5556    -5640    -5799    -5962    -6043    -6023    -5949    -5833 
   -5682    -5598    -5644    -5796    -6021    -6231    -6392    -6485 
   -6458    -6351    -6259    -6227    -6250    -6230    -6085    -5906 
   -5764    -5624    -5501    -5483    -5575    -5746    -6014    -6347 
   -6617    -6690    -6615    -6555    -6507    -6389    -6272    -6242 
   -6251    -6258    -6285    -6238    -6046    -5811    -5622    -5485 
   -5408    -5425    -5572    -5822    -6091    -6249    -6285    -6319 
   -6376    -6401    -6428    -6494    -6542    -6493    -6359    -6204 
   -6039    -5871    -5751    -5698    -5665    -5645    -5647    -5629 
   -5609    -5664    -5834    -6096    -6372    -6590    -6748    -6809 
   -6727    -6567    -6407    -6249    -6099    -5981    -5902    -5845 
   -5779    -5717    -5703    -5744    -5829    -5952    -6046    -6053 
   -6008    -5962    -5949    -5971    -6006    -6107    -6265    -6367 
   -6355    -6188    -5956    -5863    -5918    -6000    -6100    -6239 
   -6388    -6519    -6589    -6582    -6544    -6504    -6450    -6380 
   -6273    -6112    -5930    -5790    -5680    -5529    -5424    -5494 
   -5667    -5884    -6189    -6535    -6798    -6883    -6791    -6647 
   -6554    -6436    -6253    -6119    -6018    -5818    -5572    -5381 
   -5283    -5332    -5518    -5798    -6124    -6385    -6515    -6569 
   -6554    -6403    -6246    -6282    -6404    -6431    -6399    -6351 
   -6253    -6161    -6122    -6054    -5923    -5784    -5648    -5556 
   -5555    -5579    -5617    -5713    -5776    -5719    -5664    -5719 
   -5840    -5971    -6123    -6322    -6513    -6585    -6569    -6562 
   -6517    -6451    -6459    -6516    -6529    -6473    -6354    -6193 
   -6048    -5919    -5742    -5571    -5525    -5591    -5701    -5841 
