Origin Time       2024/06/23 22:54:00
Lat.              35.645
Long.             140.060
Depth. (km)       72
Mag.              4.1
Station Code      CHB003
Station Lat.      35.7926
Station Long.     140.0577
Station Height(m) 21
Record Time       2024/06/23 22:54:36
Sampling Freq(Hz) 100Hz
Duration Time(s)  62
Dir.              N-S
Scale Factor      7845(gal)/8223790
Max. Acc. (gal)   12.230
Last Correction   2024/06/23 22:54:36
Memo.             
[...]
    4008     3994     3998     4014     4023     4020     4020     4025 
    4032     4032     4010     3994     4009     4018     4010     4010 
    4010     4014     4036     4052     4039     4012     4002     4004 
    4005     4018     4027     4014     4013     4020     4021     4023 
    4009     4008     4029     4029     4014     4010     4008     4020 
    4035     4032     4009     3986     4000     4029     4029     4017 
    4014     4028     4039     4032     4010     3989     3991     4012 
    4018     4021     4020     4021     4035     4031     4012     4009 
    4002     4009     4025     4016     4012     4016     4008     4014 
    4024     4006     4005     4028     4024     4005     4004     4009 
    4027     4036     4005     3997     4021     4028     4023     4014 
    4005     4012     4013     4009     4024     4024     4000     3998 
    4000     4002     4029     4028     4006     4010     4014     4018 
    4033     4028     4018     4010     3990     3996     4017     4004 
    3998     4028     4055     4066     4027     3963     3970     4004 
    4008     4021     4031     4017     4020     4016     4009     4025 
    4014     3998     4018     4018     4010     4017     4009     4023 
    4037     4005     3998     4010     3982     3981     4008     4016 
    4032     4033     4009     4006     4002     4004     4032     4029 
    4012     4018     4014     4017     4031     4016     4005     4006 
    3993     4008     4033     4039     4045     3996     3937     4010 
    4066     3998     4001     4047     3991     3986     4055     4024 
    3989     4029     4037     4023     4010     3986     3981     3991 
    4018     4047     4044     4025     4016     4016     4013     4006 
    4014     4031     4013     3977     3978     4035     4062     4010 
    4006     4052     4004     3969     4028     4033     4010     4027 
    4013     4005     4024     4023     4023     4027     4028     4036 
    4025     4000     3991     3989     3994     4024     4039     4023 
    4012     4014     4020     4009     4000     4023     4035     4016 
    4004     4005     4010     4018     4020     4018     4024     4023 
    4020     4023     4027     4031     4027     4014     4010     4009 
    4005     4006     4020     4035     4033     4014     4006     4013 
    4021     4017     4013     4021     4023     4013     4016     4023 
    4023     4014     4005     4008     4012     4008     4014     4031 
    4033     4021     4013     4021     4027     4020     4010     4014 
    4020     4018     4014     4014     4018     4017     4006     4001 
    4013     4031     4029     4018     4018     4023     4017     4002 
    4004     4017     4024     4023     4021     4020     4023     4020 
    4016     4014     4006     4000     4005     4016     4021     4018 
    4021     4033     4039     4025     4006     4008     4016     4013 
    4012     4020     4027     4025     4020     4012     4004     4012 
    4024     4014     4012     4021     4018     4016     4016     4017 
    4025     4021     4009     3993     3987     4018     4055     4052 
    4017     3990     4005     4025     4024     4024     4027     4028 
    4025     4009     4005     4025     4028     3997     3973     3985 
    4001     3997     4000     4012     4024     4047     4055     4029 
    4016     4025     4027     4028     4023     3997     4001     4035 
    4040     4018     4002     4009     4033     4029     3994     3993 
    4013     3996     3982     4016     4043     4027     3998     3996 
    4017     4051     4060     4017     3996     4018     4010     4004 
    4033     4035     4012     4005     4004     4000     4006     4027 
    4039     4028     4006     3991     3996     4010     4018     4024 
    4031     4025     4009     4005     4012     4023     4028     4013 
    4006     4020     4016     4010     4020     4021     4016     4010 
    4008     4010     4018     4027     4010     4002     4020     4024 
    4018     4017     4012     4006     4009     4023     4027     4018 
    4010     4012     4033     4033     4008     4004     4012     4023 
    4027     4018     4014     4012     4010     4008     4014     4025 
    4012     4004     4018     4025     4020     4012     4009     4013 
    4023     4035     4028     4012     4006     4014     4027     4010 
    3986     3996     4021     4036     4027     4004     3998     4016 
    4035     4029     4020     4016     4001     4006     4020     4016 
    4005     4006     4024     4031     4023     4017     4013     4024 
    4032     4021     4008     4004     4012     4017     4013     4013 
    4016     4020     4017     4021     4027     4020     4014     4021 
    4024     4017     4010     4012     4008     4016     4031     4027 
    4013     4009     4025     4043     4031     4008     3994     4001 
    4020     4031     4035     4032     4025     4017     4008     4013 
    4018     4017     4013     4005     4012     4027     4027     4012 
    4002     4006     4012     4021     4036     4045     4048     4036 
    4021     4010     4004     4006     4010     4020     4029     4036 
    4045     4036     4032     4021     3966     3952     3967     3940 
    3993     4075     4035     4097     4259     4124     3931     3990 
    3902     3823     4121     4137     3793     3870     4081     3966 
    4013     4179     4072     4113     4372     4222     3734     3369 
    3223     3470     4216     5007     5340     5023     4081     3034 
    2575     2813     3650     4928     5869     5711     4604     3238 
    2180     1872     2651     4114     5389     6100     5969     4723 
    3072     2033     1890     2790     4537     5784     5649     4842 
    4027     3491     3663     3967     3473     2902     3233     3982 
    4846     5890     6093     4907     3171     1674     1138     2149 
    4144     5967     6829     6361     4729     2775     1521     1510 
    2640     4303     5796     6606     6313     4912     3213     1949 
    1414     2131     3940     5579     6319     6079     4746     2968 
    2000     2278     3226     4213     4858     4814     4364     4352 
    4656     4465     3932     3519     3130     3034     3690     4580 
    4869     4656     4341     3869     3481     3534     3653     3645 
    3928     4452     4722     4687     4563     4217     3568     3117 
    3215     3650     4295     4922     4858     4085     3415     3227 
    3392     3812     4230     4392     4374     4383     4414     4293 
    4078     3929     3859     3940     4108     4045     3751     3564 
    3626     3804     4056     4371     4378     3900     3495     3474 
    3584     3923     4546     4854     4576     4149     3821     3600 
    3582     3730     3943     4212     4456     4580     4467     4113 
    3754     3443     3233     3450     4001     4411     4642     4737 
    4383     3747     3553     3780     3879     3931     4055     4001 
    3947     4155     4294     4078     3747     3612     3773     4095 
    4253     4152     4101     4272     4421     4414     4401     4261 
    3798     3383     3372     3618     3936     4118     4085     4152 
    4264     4054     3774     3732     3743     3762     3923     4168 
    4371     4552     4698     4463     3766     3226     3256     3708 
    4428     5123     5227     4626     3740     2913     2524     2878 
    3626     4349     5009     5283     4776     3807     3033     2866 
    3314     3952     4483     4896     5116     5086     4639     3699 
    2824     2636     3268     4349     4989     4733     4205     3912 
    3659     3543     3815     4114     4190     4240     4236     4121 
    4071     4058     3986     3939     3917     3989     4225     4310 
    4105     3896     3699     3501     3495     3512     3472     3784 
    4326     4541     4614     4772     4513     3925     3751     4035 
    4367     4484     4255     3888     3681     3534     3365     3369 
    3524     3712     3948     4075     4047     4079     4191     4298 
    4361     4374     4526     4796     4707     4229     3840     3608 
    3468     3663     4041     4137     3960     3662     3275     3145 
    3460     3848     4112     4368     4611     4785     4876     4783 
    4414     3996     3871     3964     4062     4144     4205     4145 
    3755     3194     3010     3161     3262     3407     3767     4363 
    5074     5371     4976     4353     3885     3705     3898     4160 
    4220     4113     3910     3839     3935     3828     3514     3414 
    3577     3740     3960     4414     4780     4545     3969     3824 
    4077     4143     4016     3855     3743     4077     4666     4587 
    3883     3269     2667     2386     3289     4777     5607     5563 
    4696     3362     2771     3407     4376     5015     5266     4927 
    4093     3399     3175     3264     3532     3844     4018     4008 
    3889     3889     4014     3904     3694     3842     4283     4714 
    4793     4395     3920     3717     3673     3623     3740     4156 
    4515     4536     4402     4291     4000     3465     3186     3395 
    3815     4411     5007     5036     4436     3640     3057     2940 
    3380     4236     4839     4610     4147     4023     3823     3650 
    3777     3622     3572     4445     5117     4781     4322     3747 
    2910     2852     3572     3998     4045     4095     4063     4002 
    4151     4405     4487     4311     4086     4009     4058     4295 
    4594     4571     4255     3813     3289     3011     3257     3778 
    4091     4141     4198     4244     4167     4068     4095     4233 
    4249     4151     4167     4310     4442     4301     3792     3364 
    3416     3778     4163     4382     4249     3882     3677     3748 
    3834     3820     3816     3869     4133     4602     4847     4642 
    4067     3412     3163     3370     3773     4284     4693     4703 
    4375     3958     3632     3604     3851     4064     4178     4191 
    3929     3665     3742     3897     3986     4055     3886     3630 
    3766     4244     4662     4731     4337     3804     3643     3844 
    4171     4484     4484     4168     3923     3798     3753     3956 
    4162     3951     3618     3619     3793     3974     4234     4305 
    3947     3601     3746     4329     4936     4926     4251     3638 
    3352     3348     3703     4106     4320     4352     4093     3723 
    3574     3707     4052     4340     4321     4253     4446     4584 
    4283     3770     3360     3211     3550     4194     4669     4789 
    4495     3916     3480     3412     3635     4041     4449     4482 
    4059     3815     4060     4060     3466     3105     3547     4356 
    4769     4523     4131     3994     3824     3526     3547     3931 
    4233     4414     4650     4753     4580     4342     4132     3786 
    3411     3372     3636     3796     3801     3875     4054     4333 
    4557     4401     4070     3919     3742     3483     3565     4071 
    4503     4490     4216     3900     3593     3557     3767     3824 
    3946     4418     4761     4695     4328     3707     3279     3449 
    3867     4197     4491     4619     4484     4371     4336     4128 
    3743     3357     3129     3173     3476     3950     4444     4648 
    4332     3777     3489     3570     3755     3923     4251     4693 
    4784     4546     4383     4004     3296     3134     3681     4164 
    4558     4968     4833     4191     3661     3387     3379     3716 
    4009     4000     4091     4279     4093     3800     3825     3885 
    3843     4072     4479     4460     4033     3731     3622     3645 
    3986     4438     4546     4345     4156     4090     4179     4344 
    4163     3603     3337     3627     4016     4245     4306     4036 
    3601     3493     3696     3763     3588     3526     3780     4175 
    4583     4881     4861     4571     4226     3935     3811     3979 
    4229     4201     4102     4159     4029     3754     3676     3604 
    3453     3508     3699     3758     3699     3716     3987     4430 
    4711     4602     4091     3477     3167     3285     3815     4622 
    5355     5606     5157     4299     3586     3207     3075     3157 
    3389     3734     4234     4642     4671     4487     4220     3838 
    3573     3585     3692     3688     3653     3792     4037     4245 
    4488     4680     4579     4264     3987     3829     3802     3951 
    4195     4279     4206     4209     4136     3862     3825     4145 
    4298     4121     3832     3422     3075     3234     3832     4415 
    4722     4595     4014     3423     3299     3566     3985     4459 
    4685     4348     3870     3939     4372     4603     4506     4047 
    3375     3102     3549     4237     4548     4401     4066     3735 
    3569     3707     3975     4035     3820     3626     3747     4176 
    4608     4610     4180     3906     3993     4129     4315     4450 
    4085     3438     3148     3213     3419     3707     3873     3950 
    4104     4125     3933     3728     3532     3423     3403     3121 
    2594     2401     2662     2867     2770     2592     2659     3199 
    4044     4660     4760     4572     4549     4997     5809     6590 
    7194     7743     8012     7649     7028     6768     6790     6795 
    6826     6851     6685     6362     6003     5709     5702     5864 
    5614     4680     3134      926    -1794    -4426    -6575    -8179 
   -8804    -7898    -5547    -2253     1347     4591     7144     8930 
   10030    10810    11677    12919    14420    15381    15045    13344 
   10393     6480     2486     -866    -3526    -5350    -6023    -5713 
   -4931    -4037    -3172    -2116     -336     2263     5066     7339 
    8654     9055     9138     9661    10719    11504    11369    10457 
    9045     7339     5652     4149     2853     1779      832     -167 
   -1115    -1521    -1301    -1028     -996     -828      -85     1344 
    3219     5055     6517     7677     8714     9499     9616     8908 
    7762     6778     6401     6490     6386     5690     4421     2643 
     579    -1193    -2126    -2096    -1221      264     1857     3208 
    4365     5382     6139     6277     5487     4305     3870     4750 
    6513     8156     8702     7873     6068     3778     1791      986 
    1339     2193     3172     4041     4530     4471     3719     2139 
     -16    -1857    -2411    -1136     1948     5840     9015    10867 
   11576    11063     9441     7568     6072     4873     4028     3873 
    4329     4901     5061     4294     2494      259    -1679    -2778 
   -2454     -666     1459     2828     3542     3942     4001     3993 
    4190     4533     5121     5956     6686     7165     7435     7398 
    7056     6504     5645     4417     3037     1819      966      589 
     873     1999     3666     4984     5250     4618     3773     3380 
    3893     5158     6345     6774     6382     5564     4981     4882 
    4804     4351     3705     3164     2708     2273     2006     1852 
    1436      803      575     1162     2361     3423     3631     3341 
    3716     5316     7720     9868    10438     9100     7132     5836 
    5433     5643     5926     5638     4702     3500     2180      846 
     -94     -522     -710     -700     -337      328     1097     1809 
    2390     3040     4270     6141     7781     8340     7913     7229 
    6889     7072     7623     8023     7635     6180     3986     2053 
    1227     1185     1167      877      193     -699    -1227     -888 
     461     2262     3739     4928     6253     7709     9026     9728 
    9382     8371     7518     6995     6502     5759     4486     2809 
    1416      831      969     1402     1555      967      -90     -550 
     351     2268     4374     5981     6674     6667     6548     6547 
    6666     7009     7326     6948     5718     4209     2857     1688 
     696      -55     -433     -191      630     1680     2839     4067 
    5089     5840     6451     6689     6220     5317     4747     4970 
    5764     6643     7261     7422     6898     5601     4036     2983 
    2704     2876     3071     3068     2905     2609     2095     1332 
     392     -383     -309     1027     3141     5044     6104     6262 
    5902     5560     5463     5479     5435     5474     5898     6432 
    6659     6810     6860     6092     4353     2324      611     -356 
    -249      726     1864     2598     2975     3373     3882     4322 
    4610     4723     4684     4608     4556     4544     4673     4877 
    4857     4536     4129     3963     4415     5313     5823     5567 
    4955     4352     3765     3092     2411     2019     2065     2427 
    2965     3510     3835     3859     3794     3959     4407     4928 
    5233     5124     4737     4276     3808     3592     3879     4530 
    5235     5636     5483     4968     4329     3522     2751     2488 
    2988     4085     4986     4912     4014     3017     2439     2485 
    3105     4021     4860     5298     5170     4699     4476     4818 
    5308     5274     4546     3603     3063     3090     3384     3539 
    3343     2898     2378     2016     2126     2586     3026     3392 
    3624     3659     3649     3576     3416     3389     3558     3923 
    4585     5368     5899     6068     5929     5433     4664     4055 
    4064     4579     5012     5127     5154     5132     4876     4452 
    4050     3612     3110     2760     2713     3030     3739     4531 
    4945     4823     4247     3465     2967     3106     3654     4163 
    4490     4599     4423     4148     4072     4206     4382     4610 
    5027     5447     5408     4718     3450     1794      301     -391 
    -113      900     2255     3520     4411     4877     5073     5296 
    5814     6624     7389     7755     7618     7059     6382     5934 
    5629     5112     4423     3885     3434     2737     1756      658 
    -394    -1135    -1286     -789      197     1258     1965     2493 
    3269     4224     5233     6380     7420     8047     8424     8714 
    8698     8324     7881     7392     6671     5810     4909     3883 
    2860     2010     1134      206     -260      -40      517     1194 
    1996     2763     3391     3959     4425     4726     4995     5278 
    5481     5478     5142     4666     4511     4710     4797     4540 
    4230     4122     3989     3636     3350     3365     3504     3547 
    3507     3411     3218     3102     3308     3746     4260     4911 
    5559     5800     5501     4845     4074     3531     3497     3834 
    4206     4463     4549     4500     4500     4600     4629     4564 
    4553     4577     4519     4419     4320     4018     3377     2565 
    1750     1109      946     1371     2174     3100     3924     4448 
    4623     4483     4054     3543     3323     3576     4230     5215 
    6253     6727     6386     5702     5221     5082     5163     5409 
    5819     6165     6025     5138     3649     2039      818      251 
     388     1177     2323     3253     3599     3447     3083     2897 
    3138     3613     4170     4962     5873     6386     6170     5470 
    4891     4772     4845     4653     4108     3499     3136     3006 
    2905     2866     3040     3415     3939     4527     4997     5155 
