Origin Time       2024/06/23 22:54:00
Lat.              35.645
Long.             140.060
Depth. (km)       72
Mag.              4.1
Station Code      CHB020
Station Lat.      35.1132
Station Long.     140.1006
Station Height(m) 9
Record Time       2024/06/23 22:54:48
Sampling Freq(Hz) 100Hz
Duration Time(s)  60
Dir.              E-W
Scale Factor      7845(gal)/8223790
Max. Acc. (gal)   1.595
Last Correction   2024/06/23 22:54:48
Memo.             
[...]
   -4355    -4359    -4360    -4351    -4345    -4347    -4344    -4347 
   -4353    -4344    -4344    -4356    -4353    -4345    -4347    -4351 
   -4349    -4342    -4344    -4349    -4351    -4347    -4348    -4347 
   -4345    -4348    -4344    -4342    -4348    -4351    -4349    -4349 
   -4347    -4348    -4356    -4356    -4348    -4344    -4341    -4344 
   -4356    -4347    -4338    -4351    -4355    -4352    -4351    -4345 
   -4349    -4345    -4340    -4345    -4347    -4349    -4357    -4349 
   -4340    -4345    -4349    -4352    -4351    -4344    -4348    -4351 
   -4349    -4353    -4341    -4340    -4359    -4357    -4351    -4357 
   -4356    -4348    -4353    -4356    -4347    -4353    -4363    -4348 
   -4341    -4353    -4344    -4340    -4352    -4351    -4351    -4355 
   -4351    -4347    -4341    -4344    -4348    -4345    -4352    -4356 
   -4353    -4365    -4364    -4342    -4345    -4353    -4344    -4349 
   -4367    -4359    -4349    -4357    -4353    -4349    -4353    -4353 
   -4360    -4357    -4345    -4349    -4353    -4348    -4348    -4351 
   -4357    -4361    -4351    -4348    -4359    -4352    -4336    -4342 
   -4353    -4342    -4345    -4360    -4357    -4348    -4348    -4353 
   -4353    -4353    -4348    -4341    -4344    -4345    -4347    -4352 
   -4353    -4355    -4353    -4342    -4345    -4353    -4345    -4345 
   -4355    -4356    -4347    -4342    -4341    -4345    -4356    -4348 
   -4341    -4355    -4353    -4337    -4340    -4352    -4344    -4336 
   -4355    -4368    -4361    -4349    -4345    -4353    -4353    -4342 
   -4344    -4351    -4341    -4333    -4347    -4352    -4341    -4357 
   -4375    -4363    -4356    -4357    -4345    -4340    -4340    -4328 
   -4340    -4357    -4348    -4340    -4345    -4355    -4364    -4364 
   -4361    -4360    -4355    -4326    -4311    -4326    -4326    -4320 
   -4344    -4369    -4382    -4392    -4380    -4363    -4363    -4364 
   -4361    -4367    -4357    -4332    -4318    -4313    -4326    -4356 
   -4357    -4351    -4359    -4352    -4345    -4351    -4348    -4356 
   -4368    -4364    -4375    -4383    -4376    -4387    -4392    -4367 
   -4336    -4306    -4291    -4295    -4306    -4320    -4314    -4309 
   -4340    -4380    -4414    -4428    -4407    -4390    -4365    -4322 
   -4313    -4332    -4334    -4332    -4338    -4348    -4353    -4364 
   -4356    -4326    -4317    -4315    -4314    -4330    -4337    -4332 
   -4326    -4328    -4357    -4380    -4387    -4418    -4445    -4425 
   -4378    -4318    -4283    -4298    -4328    -4345    -4344    -4330 
   -4329    -4341    -4356    -4392    -4417    -4388    -4351    -4340 
   -4342    -4355    -4368    -4359    -4363    -4407    -4437    -4419 
   -4372    -4313    -4279    -4278    -4306    -4363    -4390    -4356 
   -4313    -4297    -4329    -4394    -4415    -4380    -4347    -4326 
   -4313    -4321    -4348    -4376    -4369    -4329    -4303    -4311 
   -4326    -4314    -4282    -4282    -4325    -4371    -4401    -4411 
   -4398    -4368    -4330    -4293    -4290    -4325    -4352    -4355 
   -4364    -4383    -4372    -4336    -4329    -4356    -4390    -4417 
   -4392    -4341    -4320    -4302    -4283    -4302    -4340    -4353 
   -4330    -4303    -4307    -4324    -4356    -4405    -4440    -4459 
   -4436    -4363    -4305    -4287    -4288    -4313    -4349    -4365 
   -4363    -4340    -4294    -4284    -4341    -4388    -4390    -4388 
   -4396    -4391    -4375    -4342    -4317    -4342    -4379    -4367 
   -4336    -4337    -4336    -4302    -4287    -4306    -4315    -4320 
   -4325    -4336    -4380    -4426    -4430    -4410    -4391    -4380 
   -4371    -4349    -4329    -4320    -4294    -4275    -4294    -4337 
   -4390    -4413    -4399    -4378    -4337    -4317    -4342    -4364 
   -4367    -4351    -4326    -4313    -4291    -4290    -4317    -4333 
   -4356    -4382    -4390    -4396    -4380    -4347    -4341    -4342 
   -4348    -4357    -4337    -4311    -4314    -4338    -4383    -4418 
   -4399    -4341    -4286    -4257    -4279    -4337    -4380    -4398 
   -4392    -4365    -4337    -4317    -4321    -4356    -4405    -4432 
   -4402    -4345    -4310    -4278    -4274    -4326    -4378    -4406 
   -4422    -4421    -4414    -4380    -4318    -4270    -4251    -4268 
   -4313    -4357    -4388    -4401    -4383    -4357    -4349    -4325 
   -4299    -4324    -4367    -4374    -4348    -4326    -4337    -4364 
   -4380    -4399    -4406    -4383    -4352    -4328    -4336    -4382 
   -4423    -4423    -4407    -4399    -4376    -4337    -4326    -4341 
   -4349    -4336    -4314    -4305    -4291    -4264    -4271    -4322 
   -4364    -4376    -4380    -4387    -4386    -4360    -4351    -4371 
   -4379    -4367    -4333    -4287    -4271    -4279    -4288    -4318 
   -4359    -4395    -4422    -4405    -4376    -4376    -4367    -4353 
   -4342    -4330    -4353    -4374    -4349    -4325    -4298    -4278 
   -4299    -4340    -4361    -4371    -4376    -4378    -4388    -4422 
   -4452    -4428    -4364    -4313    -4287    -4295    -4333    -4364 
   -4368    -4360    -4357    -4352    -4338    -4347    -4367    -4367 
   -4349    -4337    -4337    -4328    -4305    -4301    -4341    -4398 
   -4422    -4422    -4407    -4371    -4342    -4326    -4317    -4326 
   -4328    -4315    -4320    -4330    -4338    -4342    -4353    -4375 
   -4387    -4378    -4351    -4313    -4276    -4253    -4239    -4244 
   -4288    -4326    -4341    -4376    -4407    -4388    -4351    -4352 
   -4399    -4425    -4422    -4430    -4392    -4326    -4311    -4318 
   -4326    -4340    -4337    -4341    -4357    -4379    -4405    -4414 
   -4419    -4413    -4382    -4361    -4344    -4303    -4272    -4255 
   -4248    -4253    -4263    -4288    -4341    -4399    -4440    -4456 
   -4452    -4442    -4429    -4415    -4409    -4364    -4268    -4217 
   -4216    -4214    -4236    -4275    -4306    -4333    -4352    -4383 
   -4445    -4500    -4498    -4452    -4409    -4361    -4313    -4310 
   -4336    -4360    -4383    -4378    -4342    -4309    -4280    -4266 
   -4286    -4313    -4326    -4326    -4320    -4341    -4364    -4364 
   -4363    -4359    -4361    -4361    -4334    -4311    -4302    -4302 
   -4322    -4340    -4365    -4394    -4394    -4396    -4407    -4409 
   -4421    -4410    -4364    -4326    -4287    -4251    -4278    -4328 
   -4345    -4360    -4364    -4359    -4378    -4390    -4382    -4365 
   -4336    -4313    -4320    -4349    -4402    -4461    -4486    -4446 
   -4374    -4320    -4286    -4275    -4290    -4301    -4307    -4305 
   -4270    -4244    -4263    -4317    -4384    -4437    -4446    -4417 
   -4378    -4349    -4330    -4332    -4365    -4390    -4349    -4286 
   -4263    -4276    -4303    -4340    -4380    -4391    -4368    -4347 
   -4314    -4303    -4364    -4422    -4432    -4425    -4386    -4344 
   -4330    -4313    -4320    -4371    -4399    -4392    -4396    -4382 
   -4336    -4315    -4306    -4293    -4297    -4278    -4239    -4241 
   -4276    -4321    -4342    -4329    -4321    -4326    -4360    -4417 
   -4422    -4398    -4391    -4376    -4359    -4356    -4345    -4344 
   -4368    -4409    -4456    -4475    -4448    -4391    -4338    -4345 
   -4388    -4410    -4417    -4403    -4369    -4349    -4340    -4333 
   -4352    -4371    -4338    -4283    -4259    -4240    -4236    -4293 
   -4349    -4368    -4365    -4333    -4305    -4321    -4342    -4361 
   -4401    -4407    -4360    -4306    -4264    -4280    -4338    -4376 
   -4429    -4453    -4391    -4321    -4288    -4283    -4288    -4313 
   -4372    -4410    -4423    -4471    -4472    -4403    -4376    -4364 
   -4276    -4203    -4232    -4263    -4280    -4337    -4363    -4349 
   -4349    -4348    -4341    -4345    -4372    -4379    -4349    -4334 
   -4333    -4342    -4379    -4417    -4437    -4450    -4471    -4484 
   -4492    -4491    -4418    -4287    -4189    -4163    -4198    -4260 
   -4322    -4392    -4429    -4417    -4396    -4388    -4395    -4410 
   -4380    -4315    -4286    -4278    -4270    -4287    -4288    -4274 
   -4290    -4325    -4353    -4355    -4337    -4320    -4291    -4297 
   -4344    -4357    -4341    -4309    -4279    -4301    -4314    -4291 
   -4298    -4349    -4415    -4469    -4514    -4545    -4527    -4468 
   -4403    -4352    -4337    -4311    -4232    -4206    -4255    -4314 
   -4402    -4455    -4444    -4423    -4386    -4324    -4267    -4264 
   -4295    -4322    -4333    -4309    -4286    -4297    -4318    -4353 
   -4409    -4463    -4476    -4436    -4382    -4348    -4364    -4382 
   -4353    -4309    -4275    -4291    -4337    -4344    -4318    -4266 
   -4202    -4197    -4261    -4349    -4406    -4418    -4394    -4359 
   -4380    -4467    -4502    -4452    -4384    -4295    -4202    -4162 
   -4174    -4234    -4315    -4380    -4434    -4465    -4480    -4491 
   -4476    -4461    -4468    -4482    -4499    -4484    -4413    -4347 
   -4297    -4274    -4295    -4272    -4209    -4164    -4122    -4126 
   -4194    -4295    -4402    -4437    -4417    -4394    -4387    -4395 
   -4363    -4298    -4251    -4245    -4293    -4336    -4383    -4453 
   -4471    -4479    -4490    -4459    -4441    -4415    -4359    -4320 
   -4261    -4186    -4156    -4168    -4174    -4175    -4218    -4278 
   -4340    -4414    -4461    -4491    -4499    -4464    -4425    -4405 
   -4390    -4369    -4345    -4325    -4298    -4294    -4295    -4280 
   -4320    -4392    -4419    -4425    -4430    -4453    -4482    -4486 
   -4490    -4475    -4392    -4293    -4266    -4311    -4359    -4414 
   -4471    -4468    -4414    -4342    -4287    -4270    -4280    -4324 
   -4355    -4325    -4278    -4229    -4159    -4109    -4083    -4072 
   -4131    -4221    -4279    -4347    -4410    -4445    -4507    -4561 
   -4540    -4482    -4396    -4280    -4216    -4216    -4199    -4190 
   -4244    -4314    -4383    -4459    -4480    -4467    -4460    -4430 
   -4430    -4457    -4460    -4475    -4519    -4552    -4568    -4556 
   -4473    -4361    -4286    -4229    -4198    -4198    -4156    -4087 
   -4074    -4132    -4228    -4321    -4396    -4433    -4430    -4440 
   -4453    -4461    -4496    -4534    -4533    -4510    -4477    -4438 
   -4409    -4390    -4390    -4394    -4403    -4409    -4364    -4279 
   -4217    -4190    -4158    -4117    -4109    -4097    -4062    -4056 
   -4077    -4122    -4234    -4386    -4487    -4531    -4540    -4506 
   -4437    -4394    -4401    -4395    -4384    -4384    -4344    -4305 
   -4294    -4297    -4347    -4417    -4452    -4442    -4394    -4311 
   -4206    -4113    -4028    -3932    -3839    -3727    -3592    -3503 
   -3465    -3457    -3514    -3613    -3704    -3815    -3963    -4139 
   -4334    -4567    -4826    -5055    -5225    -5350    -5459    -5575 
   -5644    -5624    -5555    -5459    -5320    -5159    -5043    -4963 
   -4851    -4714    -4579    -4433    -4284    -4149    -4050    -4016 
   -4040    -4112    -4224    -4347    -4467    -4588    -4679    -4707 
   -4715    -4703    -4649    -4568    -4440    -4261    -4093    -3940 
   -3792    -3705    -3676    -3663    -3662    -3643    -3632    -3674 
   -3723    -3784    -3870    -3964    -4081    -4207    -4318    -4432 
   -4576    -4693    -4735    -4720    -4646    -4526    -4369    -4187 
   -4043    -3971    -3940    -3916    -3947    -4027    -4087    -4139 
   -4189    -4220    -4226    -4201    -4160    -4116    -4095    -4163 
   -4310    -4477    -4619    -4700    -4737    -4747    -4753    -4792 
   -4878    -4930    -4891    -4806    -4696    -4568    -4441    -4297 
   -4153    -4047    -3964    -3942    -4036    -4224    -4449    -4681 
   -4934    -5147    -5258    -5344    -5360    -5283    -5197    -4989 
   -4688    -4430    -4186    -4021    -4004    -4101    -4284    -4456 
   -4585    -4691    -4687    -4611    -4527    -4380    -4185    -3958 
   -3704    -3515    -3385    -3277    -3230    -3238    -3299    -3447 
   -3650    -3886    -4143    -4336    -4421    -4383    -4224    -4032 
   -3882    -3827    -3905    -4052    -4207    -4394    -4590    -4758 
   -4920    -5059    -5140    -5132    -5003    -4800    -4563    -4303 
   -4075    -3902    -3802    -3786    -3850    -4020    -4271    -4549 
   -4833    -5055    -5198    -5314    -5385    -5385    -5331    -5197 
   -4996    -4758    -4486    -4237    -4058    -3946    -3919    -3942 
   -3993    -4079    -4135    -4131    -4093    -4001    -3856    -3707 
   -3592    -3577    -3674    -3870    -4139    -4406    -4639    -4810 
   -4834    -4704    -4441    -4078    -3728    -3472    -3318    -3276 
   -3311    -3385    -3532    -3750    -3986    -4240    -4494    -4703 
   -4904    -5130    -5346    -5539    -5707    -5826    -5886    -5908 
   -5859    -5728    -5594    -5428    -5220    -5067    -4958    -4822 
   -4666    -4510    -4363    -4229    -4113    -3963    -3744    -3511 
   -3272    -3044    -2890    -2851    -2963    -3218    -3570    -3936 
   -4252    -4514    -4669    -4699    -4671    -4610    -4519    -4426 
   -4307    -4156    -4020    -3915    -3829    -3755    -3690    -3635 
   -3604    -3599    -3616    -3662    -3738    -3861    -4025    -4194 
   -4388    -4592    -4749    -4855    -4874    -4793    -4660    -4465 
   -4243    -4078    -3983    -3942    -3951    -4001    -4106    -4299 
   -4588    -4959    -5360    -5709    -5935    -6022    -5981    -5823 
   -5634    -5486    -5360    -5283    -5243    -5167    -5071    -4962 
   -4810    -4653    -4527    -4426    -4336    -4221    -4077    -3927 
   -3766    -3618    -3539    -3511    -3481    -3453    -3443    -3470 
   -3538    -3624    -3713    -3775    -3785    -3788    -3807    -3809 
   -3820    -3846    -3807    -3731    -3686    -3635    -3611    -3655 
   -3724    -3828    -3973    -4136    -4301    -4445    -4594    -4714 
   -4772    -4826    -4866    -4887    -4943    -5020    -5092    -5179 
   -5277    -5346    -5352    -5289    -5162    -4950    -4669    -4391 
   -4152    -3971    -3874    -3848    -3866    -3896    -3921    -3971 
   -4045    -4129    -4222    -4314    -4403    -4513    -4658    -4822 
   -4965    -5097    -5227    -5285    -5220    -5062    -4834    -4552 
   -4263    -4029    -3909    -3886    -3905    -3951    -3987    -4004 
   -4023    -4028    -4006    -3952    -3846    -3715    -3615    -3559 
   -3582    -3707    -3889    -4118    -4384    -4612    -4807    -5009 
   -5152    -5224    -5260    -5192    -5005    -4789    -4553    -4313 
   -4108    -3960    -3897    -3909    -3967    -4041    -4122    -4206 
   -4255    -4249    -4210    -4139    -4025    -3912    -3850    -3839 
   -3886    -3996    -4114    -4220    -4298    -4333    -4395    -4490 
   -4561    -4652    -4758    -4843    -4924    -4989    -5000    -4959 
   -4868    -4719    -4571    -4459    -4379    -4356    -4353    -4315 
   -4266    -4216    -4136    -4055    -4033    -4066    -4125    -4201 
   -4260    -4301    -4349    -4365    -4349    -4371    -4425    -4457 
   -4469    -4484    -4496    -4488    -4461    -4428    -4403    -4407 
   -4407    -4383    -4384    -4398    -4379    -4384    -4428    -4472 
   -4517    -4567    -4577    -4527    -4467    -4390    -4276    -4178 
   -4109    -4067    -4058    -4062    -4091    -4128    -4174    -4263 
   -4336    -4359    -4371    -4345    -4267    -4191    -4118    -4051 
   -4028    -4028    -4031    -4039    -4048    -4036    -3998    -3996 
   -4077    -4226    -4402    -4583    -4758    -4891    -4932    -4901 
   -4826    -4707    -4594    -4502    -4403    -4315    -4257    -4207 
   -4166    -4145    -4133    -4125    -4125    -4139    -4168    -4195 
   -4230    -4276    -4324    -4386    -4453    -4504    -4514    -4490 
   -4463    -4422    -4401    -4456    -4554    -4675    -4820    -4954 
   -5081    -5198    -5263    -5260    -5194    -5066    -4891    -4685 
   -4469    -4290    -4160    -4052    -3993    -3959    -3909    -3854 
   -3786    -3717    -3659    -3645    -3707    -3797    -3869    -3917 
   -3962    -3983    -3966    -3954    -3975    -4037    -4155    -4309 
   -4503    -4704    -4841    -4920    -4957    -4934    -4887    -4816 
   -4699    -4577    -4463    -4345    -4256    -4185    -4117    -4074 
   -4041    -4008    -3986    -3969    -3937    -3896    -3854    -3824 
   -3824    -3869    -3967    -4099    -4206    -4264    -4297    -4314 
   -4311    -4284    -4247    -4220    -4198    -4190    -4220    -4332 
   -4546    -4837    -5132    -5393    -5617    -5775    -5823    -5775 
   -5630    -5389    -5104    -4806    -4506    -4248    -4041    -3889 
   -3813    -3812    -3861    -3928    -3989    -4037    -4066    -4074 
   -4077    -4089    -4114    -4168    -4255    -4337    -4417    -4498 
   -4518    -4461    -4376    -4282    -4202    -4185    -4234    -4334 
   -4457    -4549    -4596    -4612    -4614    -4595    -4540    -4473 
   -4378    -4214    -4047    -3900    -3778    -3727    -3730    -3781 
   -3867    -3932    -3987    -4048    -4087    -4114    -4125    -4108 
   -4074    -4032    -4009    -4023    -4071    -4171    -4305    -4422 
   -4531    -4614    -4639    -4649    -4661    -4662    -4677    -4693 
   -4664    -4600    -4522    -4423    -4309    -4191    -4099    -4031 
   -3987    -4000    -4051    -4113    -4190    -4263    -4341    -4429 
   -4517    -4635    -4785    -4920    -5020    -5085    -5103    -5059 
   -4984    -4908    -4857    -4839    -4837    -4855    -4885    -4874 
   -4811    -4711    -4572    -4414    -4271    -4155    -4083    -4056 
   -4066    -4109    -4164    -4190    -4170    -4135    -4087    -4008 
   -3913    -3817    -3708    -3596    -3524    -3507    -3520    -3573 
   -3659    -3754    -3861    -3978    -4091    -4210    -4330    -4417 
   -4445    -4438    -4394    -4325    -4302    -4341    -4403    -4488 
   -4577    -4656    -4719    -4741    -4722    -4704    -4677    -4638 
   -4611    -4604    -4621    -4630    -4615    -4583    -4515    -4419 
   -4330    -4263    -4236    -4259    -4325    -4441    -4598    -4762 
   -4919    -5035    -5082    -5084    -5039    -4935    -4806    -4649 
   -4460    -4255    -4035    -3805    -3589    -3423    -3341    -3341 
   -3435    -3646    -3936    -4237    -4522    -4747    -4849    -4846 
   -4770    -4629    -4461    -4302    -4137    -4004    -3919    -3870 
   -3865    -3898    -3958    -4045    -4156    -4274    -4380    -4465 
   -4525    -4544    -4540    -4549    -4581    -4633    -4681    -4693 
   -4684    -4662    -4622    -4583    -4545    -4499    -4456    -4418 
   -4380    -4359    -4353    -4359    -4364    -4352    -4349    -4368 
   -4383    -4410    -4463    -4529    -4587    -4621    -4630    -4614 
   -4569    -4504    -4407    -4291    -4197    -4109    -4021    -3960 
   -3932    -3921    -3909    -3889    -3875    -3882    -3893    -3905 
   -3929    -3928    -3901    -3881    -3859    -3855    -3906    -4004 
   -4144    -4324    -4510    -4685    -4847    -4984    -5100    -5185 
   -5213    -5174    -5053    -4862    -4635    -4410    -4222    -4079 
   -3986    -3951    -3962    -3996    -4021    -4017    -4025    -4068 
   -4118    -4191    -4291    -4356    -4383    -4399    -4387    -4361 
