Origin Time       2024/06/23 22:54:00
Lat.              35.645
Long.             140.060
Depth. (km)       72
Mag.              4.1
Station Code      CHB008
Station Lat.      35.6556
Station Long.     139.9027
Station Height(m) 0
Record Time       2024/06/23 22:54:44
Sampling Freq(Hz) 100Hz
Duration Time(s)  60
Dir.              E-W
Scale Factor      7845(gal)/8223790
Max. Acc. (gal)   5.029
Last Correction   2024/06/23 22:54:44
Memo.             
[...]
    9483     9477     9493     9516     9525     9524     9509     9495 
    9499     9505     9509     9513     9513     9508     9504     9509 
    9516     9514     9509     9498     9485     9489     9510     9526 
    9535     9526     9504     9493     9499     9516     9532     9533 
    9528     9524     9513     9502     9491     9482     9489     9499 
    9504     9512     9508     9491     9490     9494     9491     9491 
    9494     9501     9518     9532     9541     9544     9532     9520 
    9520     9520     9513     9499     9493     9491     9486     9489 
    9505     9518     9518     9514     9513     9514     9508     9501 
    9504     9501     9498     9513     9525     9525     9520     9506 
    9490     9486     9495     9510     9509     9494     9493     9512 
    9526     9522     9504     9494     9494     9494     9512     9536 
    9547     9551     9533     9506     9512     9524     9525     9532 
    9525     9506     9504     9497     9489     9495     9497     9490 
    9490     9493     9506     9521     9520     9508     9498     9505 
    9516     9512     9502     9495     9495     9510     9525     9525 
    9526     9522     9509     9498     9486     9474     9474     9482 
    9501     9521     9528     9520     9508     9504     9502     9499 
    9509     9528     9539     9541     9535     9518     9506     9502 
    9495     9493     9501     9516     9522     9518     9514     9508 
    9494     9477     9467     9479     9505     9528     9543     9541 
    9517     9483     9467     9475     9495     9525     9540     9529 
    9521     9521     9512     9499     9491     9486     9489     9497 
    9510     9524     9521     9513     9504     9498     9504     9505 
    9502     9508     9512     9509     9506     9506     9512     9522 
    9522     9513     9499     9487     9489     9491     9497     9510 
    9512     9498     9486     9478     9483     9497     9491     9495 
    9517     9517     9513     9536     9555     9549     9529     9491 
    9467     9483     9521     9551     9563     9548     9510     9466 
    9441     9474     9526     9528     9498     9502     9516     9489 
    9471     9505     9529     9518     9498     9490     9501     9508 
    9494     9498     9518     9522     9513     9497     9494     9510 
    9520     9522     9512     9498     9512     9509     9475     9483 
    9524     9544     9551     9535     9497     9478     9477     9489 
    9513     9525     9526     9528     9516     9497     9486     9491 
    9501     9487     9467     9482     9520     9549     9560     9559 
    9551     9513     9467     9462     9489     9506     9509     9508 
    9517     9529     9531     9510     9471     9456     9482     9509 
    9525     9537     9536     9521     9504     9499     9497     9495 
    9522     9536     9499     9489     9520     9509     9478     9478 
    9493     9518     9545     9544     9532     9520     9491     9472 
    9483     9517     9536     9520     9506     9520     9529     9529 
    9518     9491     9475     9479     9482     9493     9512     9517 
    9504     9483     9481     9494     9493     9489     9505     9517 
    9521     9520     9509     9510     9521     9517     9517     9521 
    9505     9491     9498     9497     9489     9501     9522     9531 
    9532     9528     9512     9494     9491     9490     9490     9498 
    9506     9510     9509     9495     9498     9524     9531     9506 
    9487     9482     9485     9495     9502     9508     9517     9525 
    9528     9524     9521     9522     9513     9502     9502     9504 
    9508     9510     9516     9525     9525     9518     9509     9491 
    9487     9490     9486     9494     9520     9541     9544     9525 
    9510     9524     9524     9494     9474     9478     9505     9528 
    9517     9502     9502     9498     9495     9510     9535     9547 
    9524     9487     9485     9505     9520     9524     9520     9514 
    9516     9516     9517     9521     9510     9489     9478     9493 
    9514     9514     9504     9510     9513     9501     9499     9501 
    9501     9512     9516     9522     9531     9516     9497     9497 
    9504     9522     9536     9521     9504     9502     9506     9504 
    9505     9517     9531     9533     9526     9504     9472     9470 
    9485     9502     9531     9545     9540     9539     9533     9521 
    9517     9512     9502     9498     9505     9509     9495     9498 
    9508     9482     9475     9509     9516     9536     9575     9548 
    9518     9551     9535     9478     9472     9463     9436     9478 
    9535     9528     9533     9568     9533     9468     9489     9537 
    9552     9576     9563     9483     9424     9423     9458     9520 
    9566     9567     9562     9582     9595     9533     9433     9420 
    9441     9378     9385     9537     9617     9628     9680     9606 
    9409     9331     9379     9483     9598     9580     9477     9433 
    9454     9549     9659     9679     9621     9514     9470     9462 
    9358     9358     9459     9417     9431     9609     9682     9624 
    9630     9667     9506     9263     9244     9348     9416     9562 
    9741     9732     9544     9421     9477     9606     9676     9587 
    9369     9181     9148     9354     9653     9729     9647     9678 
    9744     9672     9512     9441     9497     9447     9227     9109 
    9209     9420     9682     9860     9756     9518     9481     9605 
    9663     9625     9524     9389     9250     9138     9209     9529 
    9826     9871     9711     9448     9235     9292     9551     9664 
    9567     9463     9367     9300     9471     9771     9857     9711 
    9540     9425     9298     9171     9217     9459     9693     9703 
    9464     9231     9304     9648     9875     9775     9576     9464 
    9410     9406     9435     9463     9466     9400     9352     9433 
    9597     9721     9702     9540     9423     9460     9535     9555 
    9524     9429     9366     9428     9490     9485     9504     9568 
    9602     9536     9412     9385     9482     9540     9498     9475 
    9520     9590     9656     9664     9564     9425     9366     9348 
    9354     9501     9668     9632     9514     9433     9347     9364 
    9543     9729     9769     9620     9451     9447     9521     9544 
    9493     9412     9389     9454     9520     9495     9459     9537 
    9639     9674     9637     9445     9181     9130     9285     9433 
    9575     9779     9907     9836     9579     9262     9109     9244 
    9566     9836     9836     9603     9409     9400     9459     9490 
    9532     9514     9409     9383     9456     9548     9672     9737 
    9602     9377     9281     9336     9485     9703     9815     9706 
    9559     9479     9378     9262     9270     9414     9537     9607 
    9675     9647     9531     9481     9490     9450     9364     9302 
    9300     9375     9514     9664     9791     9864     9798     9602 
    9427     9336     9328     9429     9537     9509     9394     9278 
    9209     9297     9514     9661     9698     9707     9684     9609 
    9576     9636     9636     9483     9302     9243     9404     9726 
    9922     9845     9659     9450     9201     9074     9209     9482 
    9706     9761     9659     9553     9514     9485     9450     9394 
    9336     9342     9382     9429     9567     9794     9914     9742 
    9358     9061     9116     9428     9664     9721     9660     9481 
    9386     9559     9702     9643     9637     9620     9374     9209 
    9335     9447     9408     9396     9475     9563     9612     9629 
    9629     9609     9585     9513     9306     9166     9346     9605 
    9694     9755     9802     9755     9676     9522     9259     9117 
    9244     9470     9648     9738     9666     9501     9451     9555 
    9636     9585     9466     9346     9248     9234     9382     9636 
    9709     9580     9544     9583     9531     9443     9404     9433 
    9525     9591     9524     9445     9489     9516     9477     9472 
    9582     9778     9779     9514     9317     9308     9381     9489 
    9585     9653     9628     9475     9308     9162     9127     9401 
    9796     9860     9616     9490     9574     9633     9636     9645 
    9556     9348     9158     9085     9212     9517     9713     9697 
    9671     9653     9572     9493     9432     9428     9501     9459 
    9339     9447     9656     9674     9626     9593     9495     9477 
    9541     9529     9517     9535     9460     9333     9244     9227 
    9375     9630     9705     9593     9560     9575     9529     9553 
    9614     9599     9609     9657     9633     9532     9455     9459 
    9497     9479     9360     9275     9418     9702     9828     9680 
    9462     9385     9401     9479     9697     9867     9759     9463 
    9127     8931     9099     9400     9456     9463     9632     9755 
    9810     9873     9806     9657     9597     9494     9301     9251 
    9366     9451     9472     9417     9239     9078     9128     9352 
    9618     9933    10142     9971     9612     9371     9138     8926 
    8992     9279     9545     9802    10081    10164     9999     9751 
    9367     8904     8733     8883     9092     9351     9640     9725 
    9621     9616     9745     9767     9645     9586     9641     9695 
    9707     9674     9589     9498     9459     9522     9680     9832 
    9842     9622     9289     9042     8947     9082     9382     9517 
    9424     9339     9437     9768    10100    10077     9722     9374 
    9212     9236     9531     9923    10004     9861     9775     9593 
    9289     9123     9080     8985     8937     9072     9315     9645 
    9983    10071     9934     9722     9393     9020     8818     8856 
    9042     9294     9617     9896     9957     9818     9663     9597 
    9497     9320     9315     9514     9639     9578     9386     9167 
    9171     9458     9775    10000    10138     9971     9471     9103 
    9061     9049     8984     9022     9259     9747    10206    10274 
   10084     9821     9421     9040     8908     8997     9244     9613 
   10004    10289    10235     9697     8978     8561     8587     8985 
    9636    10218    10451    10359    10102     9755     9373     9130 
    9146     9358     9648     9837     9837     9786     9715     9559 
    9381     9231     9108     9109     9300     9483     9479     9429 
    9405     9269     9072     8984     9119     9539    10075    10390 
   10432    10373    10147     9621     8970     8538     8537     8876 
    9246     9495     9693     9769     9634     9505     9455     9193 
    8880     8993     9437     9792     9886     9741     9528     9450 
    9513     9587     9644     9763     9950    10073     9963     9648 
    9350     9148     9020     9013     9138     9352     9694    10002 
    9936     9598     9389     9297     9166     9170     9474     9918 
   10226    10195     9810     9398     9323     9548     9841     9953 
    9680     9244     8986     8887     8961     9396    10011    10291 
   10048     9624     9313     9096     9058     9308     9582     9624 
    9579     9567     9482     9374     9435     9579     9590     9512 
    9408     9219     9085     9144     9256     9356     9547     9774 
    9884     9873     9790     9612     9378     9161     8955     8892 
    9032     9159     9320     9733    10158    10282    10145     9887 
    9633     9463     9331     9208     9151     9107     9057     9227 
    9678    10091    10224    10106     9864     9556     9112     8626 
    8424     8652     9171     9737    10115    10234    10108     9741 
    9304     9085     9188     9464     9726     9892     9898     9760 
    9679     9683     9618     9566     9544     9356     9148     9161 
    9309     9498     9617     9512     9285     9220     9477     9923 
   10228    10200     9954     9680     9401     9092     8866     8862 
    9061     9256     9379     9612     9940    10102     9996     9761 
    9553     9374     9151     8868     8653     8730     9127     9610 
   10035    10447    10821    10936    10590     9952     9433     9153 
    8904     8599     8330     8198     8268     8559     9099     9938 
   10974    11875    12260    11971    11225    10399     9726     9227 
    8984     9184     9732    10339    10894    11296    11384    11184 
   10743    10006     9113     8434     8159     8148     8191     8194 
    8109     7948     7874     8085     8567     9082     9439     9591 
    9439     8891     8086     7356     7084     7487     8403     9402 
   10006     9887     9134     8086     6956     6025     5692     5972 
    6605     7497     8595     9825    11017    11720    11614    10875 
    9919     9148     8802     8823     9038     9428    10123    11115 
   12077    12606    12506    11839    10895    10035     9474     9177 
    8991     8968     9382    10308    11497    12588    13292    13559 
   13520    13327    13003    12405    11452    10126     8434     6702 
    5602     5652     6879     8845    10859    12291    12726    12042 
   10470     8383     6280     4951     4932     5948     7468     9143 
   10511    11106    10967    10412     9707     9184     9073     9248 
    9462     9526     9378     9185     9104     9074     9000     8796 
    8403     8087     8341     9302    10567    11469    11369    10069 
    8086     6133     4710     4236     4914     6544     8716    10871 
   12357    12779    12231    11209    10276     9633     9163     8946 
    9127     9543     9987    10309    10250     9888     9803    10315 
   11184    12006    12394    12160    11443    10455     9364     8417 
    7902     7975     8576     9589    10690    11245    10845     9714 
    8425     7457     7076     7456     8544     9934    11133    11828 
   12089    12140    11874    11105     9945     8635     7435     6636 
    6431     6790     7489     8301     9117     9868    10403    10550 
   10314     9842     9279     8787     8540     8592     8946     9649 
   10647    11627    12213    12239    11659    10462     8857     7375 
    6579     6647     7199     7817     8415     8970     9418     9767 
   10110    10617    11292    11878    12031    11492    10342     8989 
    7840     7114     6867     7130     7909     9090    10438    11542 
   12042    11870    11087     9877     8676     7898     7708     7992 
    8509     9146     9875    10543    10930    10868    10377     9767 
    9482     9748    10316    10647    10407     9697     8857     8205 
    7962     8232     8849     9352     9414     9229     9235     9585 
   10125    10650    10882    10547     9667     8596     7794     7520 
    7722     8225     8829     9350     9737     9990    10115    10138 
   10071     9942     9771     9517     9217     8955     8807     8901 
    9227     9548     9786    10103    10557    10994    11222    11125 
   10723    10203     9706     9147     8498     7936     7651     7765 
    8260     8923     9539    10006    10211    10185    10145    10214 
   10385    10669    10924    10875    10473     9929     9401     8932 
    8559     8243     7997     7983     8221     8621     9208     9887 
   10505    11041    11388    11372    10960    10309     9682     9250 
    9054     9063     9115     8950     8463     7847     7450     7588 
    8453     9801    10936    11317    10898    10056     9298     8904 
    8820     8947     9247     9674    10176    10636    10868    10789 
   10354     9467     8283     7261     6735     6720     7034     7531 
    8271     9317    10508    11593    12278    12312    11728    10744 
    9526     8249     7182     6565     6524     7102     8183     9510 
   10806    11745    12082    11892    11379    10678    10031     9687 
    9647     9725     9715     9514     9198     8881     8610     8559 
    8954     9776    10704    11304    11259    10623     9821     9274 
    9093     9101     9035     8811     8630     8757     9236     9818 
   10189    10272    10137     9779     9227     8630     8112     7734 
    7562     7657     8060     8816     9822    10812    11588    11994 
   11869    11358    10941    10913    11118    11146    10690     9740 
    8580     7651     7295     7577     8248     8842     9053     9018 
    9019     9174     9418     9578     9521     9263     8926     8700 
    8749     9063     9495     9936    10320    10505    10354     9875 
    9175     8434     7846     7497     7348     7419     7800     8464 
    9271    10026    10497    10608    10512    10419    10399    10395 
   10296    10044     9755     9598     9575     9643     9726     9695 
    9633     9753     9999    10149    10058     9676     9211     9023 
    9228     9726    10351    10790    10783    10386     9756     9065 
    8638     8712     9216     9976    10723    11032    10708     9979 
    9220     8727     8590     8635     8704     8797     8951     9201 
    9524     9803    10030    10280    10463    10463    10318    10096 
    9819     9521     9209     8868     8541     8284     8073     7890 
    7847     8077     8596     9271     9946    10582    11078    11145 
   10665     9875     9130     8714     8671     8753     8743     8615 
    8463     8465     8769     9336     9937    10303    10332    10139 
    9913     9749     9624     9504     9437     9537     9837    10204 
   10509    10762    10995    11070    10755    10048     9274     8776 
    8629     8699     8853     8991     9031     8993     8962     8962 
    8986     9027     9067     9196     9499     9909    10257    10358 
   10116     9690     9348     9236     9351     9580     9742     9748 
    9675     9593     9489     9418     9420     9352     9090     8691 
    8298     8077     8117     8383     8823     9329     9747    10066 
   10385    10673    10747    10467     9865     9117     8449     8098 
    8181     8630     9302    10037    10683    11157    11418    11457 
   11276    10883    10422    10076     9792     9423     9004     8640 
    8399     8388     8672     9194     9845    10486    10918    10975 
   10633    10019     9332     8768     8434     8341     8401     8433 
    8330     8194     8260     8665     9359    10208    11049    11681 
   11901    11639    11003    10206     9474     8935     8603     8522 
    8656     8823     8885     8777     8507     8264     8262     8515 
    8901     9273     9512     9601     9647     9729     9792     9803 
    9844     9922     9949     9890     9734     9445     9054     8676 
    8452     8541     9009     9691    10258    10484    10341     9918 
    9382     8942     8756     8849     9104     9404     9749    10146 
   10521    10791    10876    10754    10511    10246    10011     9814 
    9602     9333     9015     8680     8410     8309     8415     8692 
    9026     9234     9239     9142     9117     9275     9574     9861 
   10042    10116    10119    10072    10006     9972     9969     9909 
    9774     9667     9657     9707     9741     9684     9499     9182 
    8783     8440     8313     8456     8797     9188     9486     9645 
    9699     9732     9796     9926    10110    10183     9995     9613 
    9192     8862     8706     8719     8893     9247     9740    10268 
