Origin Time       2024/06/23 22:54:00
Lat.              35.645
Long.             140.060
Depth. (km)       72
Mag.              4.1
Station Code      CHB024
Station Lat.      35.6337
Station Long.     140.0781
Station Height(m) 3
Record Time       2024/06/23 22:54:44
Sampling Freq(Hz) 100Hz
Duration Time(s)  60
Dir.              N-S
Scale Factor      7845(gal)/8223790
Max. Acc. (gal)   6.119
Last Correction   2024/06/23 22:54:44
Memo.             
[...]
  -18549   -18546   -18523   -18504   -18495   -18499   -18519   -18523 
  -18509   -18512   -18526   -18530   -18531   -18530   -18515   -18503 
  -18503   -18507   -18519   -18534   -18534   -18522   -18527   -18549 
  -18553   -18534   -18511   -18490   -18488   -18505   -18519   -18520 
  -18528   -18538   -18532   -18522   -18519   -18522   -18520   -18513 
  -18507   -18511   -18523   -18527   -18517   -18511   -18509   -18507 
  -18503   -18501   -18507   -18511   -18515   -18520   -18519   -18509 
  -18503   -18507   -18524   -18546   -18554   -18535   -18512   -18509 
  -18516   -18517   -18511   -18500   -18496   -18508   -18524   -18536 
  -18539   -18524   -18508   -18517   -18530   -18523   -18513   -18509 
  -18509   -18524   -18543   -18536   -18520   -18524   -18540   -18534 
  -18513   -18503   -18503   -18507   -18517   -18530   -18530   -18523 
  -18516   -18509   -18508   -18511   -18513   -18519   -18520   -18517 
  -18523   -18530   -18526   -18528   -18544   -18538   -18511   -18509 
  -18523   -18522   -18513   -18515   -18517   -18516   -18526   -18542 
  -18534   -18511   -18505   -18512   -18515   -18515   -18516   -18522 
  -18532   -18534   -18531   -18542   -18551   -18538   -18515   -18505 
  -18511   -18515   -18519   -18519   -18513   -18523   -18538   -18542 
  -18536   -18532   -18523   -18505   -18499   -18508   -18513   -18519 
  -18536   -18540   -18528   -18528   -18534   -18534   -18528   -18512 
  -18501   -18503   -18501   -18496   -18504   -18531   -18549   -18538 
  -18524   -18516   -18519   -18543   -18549   -18515   -18503   -18522 
  -18528   -18527   -18542   -18547   -18538   -18531   -18528   -18520 
  -18508   -18513   -18536   -18538   -18512   -18503   -18513   -18526 
  -18542   -18544   -18526   -18516   -18528   -18528   -18523   -18531 
  -18516   -18489   -18503   -18527   -18532   -18535   -18532   -18530 
  -18528   -18524   -18524   -18523   -18520   -18519   -18523   -18531 
  -18528   -18524   -18538   -18544   -18534   -18528   -18528   -18511 
  -18504   -18531   -18539   -18522   -18523   -18528   -18526   -18530 
  -18519   -18500   -18507   -18520   -18523   -18531   -18536   -18513 
  -18499   -18512   -18509   -18501   -18532   -18555   -18539   -18528 
  -18522   -18499   -18501   -18531   -18539   -18534   -18532   -18526 
  -18513   -18511   -18520   -18532   -18536   -18531   -18513   -18499 
  -18512   -18536   -18531   -18508   -18509   -18520   -18516   -18522 
  -18538   -18523   -18493   -18497   -18519   -18523   -18523   -18530 
  -18526   -18509   -18503   -18511   -18523   -18530   -18519   -18504 
  -18511   -18522   -18522   -18531   -18535   -18524   -18523   -18517 
  -18503   -18512   -18534   -18535   -18530   -18523   -18509   -18520 
  -18544   -18534   -18501   -18501   -18517   -18519   -18520   -18522 
  -18516   -18515   -18517   -18523   -18523   -18508   -18505   -18516 
  -18509   -18493   -18512   -18547   -18547   -18508   -18476   -18489 
  -18523   -18544   -18551   -18534   -18505   -18489   -18490   -18511 
  -18538   -18538   -18520   -18507   -18499   -18499   -18516   -18526 
  -18524   -18522   -18512   -18513   -18531   -18535   -18522   -18507 
  -18492   -18499   -18523   -18535   -18532   -18523   -18511   -18509 
  -18522   -18528   -18515   -18507   -18511   -18512   -18520   -18543 
  -18557   -18543   -18520   -18508   -18513   -18523   -18522   -18511 
  -18503   -18511   -18523   -18519   -18517   -18519   -18519   -18522 
  -18526   -18528   -18527   -18523   -18523   -18524   -18515   -18505 
  -18507   -18519   -18540   -18539   -18501   -18476   -18499   -18538 
  -18538   -18519   -18524   -18530   -18517   -18512   -18524   -18532 
  -18524   -18517   -18530   -18544   -18534   -18504   -18496   -18507 
  -18520   -18539   -18553   -18539   -18508   -18488   -18486   -18508 
  -18531   -18530   -18532   -18544   -18517   -18478   -18490   -18528 
  -18542   -18542   -18538   -18519   -18500   -18504   -18517   -18531 
  -18540   -18520   -18493   -18507   -18531   -18524   -18505   -18508 
  -18527   -18535   -18526   -18524   -18536   -18544   -18535   -18511 
  -18497   -18505   -18520   -18531   -18532   -18519   -18519   -18538 
  -18534   -18508   -18490   -18495   -18517   -18542   -18531   -18507 
  -18522   -18555   -18555   -18520   -18481   -18481   -18517   -18543 
  -18551   -18544   -18519   -18505   -18524   -18535   -18528   -18526 
  -18517   -18497   -18501   -18530   -18547   -18540   -18519   -18488 
  -18484   -18526   -18555   -18535   -18492   -18465   -18486   -18543 
  -18573   -18551   -18511   -18484   -18500   -18546   -18557   -18516 
  -18486   -18505   -18532   -18532   -18526   -18524   -18519   -18527 
  -18534   -18515   -18515   -18555   -18551   -18499   -18478   -18505 
  -18543   -18570   -18551   -18507   -18485   -18486   -18508   -18544 
  -18549   -18520   -18519   -18527   -18509   -18505   -18527   -18528 
  -18516   -18508   -18509   -18524   -18532   -18517   -18507   -18515 
  -18515   -18512   -18532   -18551   -18540   -18513   -18493   -18495 
  -18516   -18534   -18527   -18517   -18538   -18559   -18532   -18477 
  -18451   -18482   -18550   -18588   -18573   -18549   -18531   -18517 
  -18508   -18480   -18457   -18492   -18569   -18615   -18573   -18457 
  -18400   -18476   -18578   -18596   -18546   -18519   -18523   -18465 
  -18438   -18544   -18584   -18522   -18515   -18493   -18490   -18611 
  -18624   -18501   -18476   -18451   -18409   -18558   -18630   -18436 
  -18404   -18559   -18581   -18526   -18446   -18385   -18509   -18679 
  -18644   -18501   -18478   -18567   -18611   -18584   -18557   -18549 
  -18553   -18516   -18453   -18435   -18400   -18349   -18442   -18663 
  -18750   -18584   -18372   -18323   -18432   -18532   -18555   -18607 
  -18627   -18596   -18621   -18576   -18449   -18430   -18466   -18549 
  -18678   -18642   -18546   -18594   -18451   -18040   -18011   -18504 
  -18924   -19017   -18828   -18490   -18324   -18237   -18007   -18112 
  -18752   -19125   -18846   -18481   -18411   -18470   -18428   -18420 
  -18665   -18870   -18762   -18486   -18241   -18265   -18526   -18562 
  -18353   -18372   -18608   -18609   -18411   -18427   -18596   -18570 
  -18423   -18519   -18804   -18839   -18621   -18420   -18299   -18436 
  -18767   -18809   -18588   -18468   -18358   -18184   -18134   -18198 
  -18341   -18619   -18820   -18786   -18671   -18528   -18389   -18405 
  -18549   -18715   -18779   -18630   -18493   -18526   -18527   -18490 
  -18459   -18320   -18246   -18445   -18630   -18563   -18516   -18640 
  -18675   -18513   -18343   -18333   -18469   -18652   -18848   -18966 
  -18854   -18530   -18153   -17913   -17988   -18372   -18775   -18947 
  -18920   -18770   -18478   -18146   -18014   -18196   -18517   -18751 
  -18881   -18920   -18793   -18512   -18258   -18234   -18412   -18570 
  -18631   -18634   -18577   -18535   -18539   -18441   -18283   -18311 
  -18496   -18632   -18686   -18651   -18554   -18550   -18647   -18640 
  -18422   -18172   -18166   -18370   -18577   -18747   -18823   -18706 
  -18488   -18318   -18252   -18318   -18497   -18702   -18929   -19084 
  -18917   -18492   -18144   -18014   -18077   -18227   -18396   -18635 
  -18832   -18754   -18436   -18126   -18079   -18400   -18804   -19041 
  -19253   -19327   -18998   -18470   -18084   -17967   -18091   -18295 
  -18485   -18651   -18612   -18272   -17945   -17957   -18308   -18777 
  -19076   -19130   -19044   -18763   -18346   -18146   -18262   -18496 
  -18702   -18802   -18835   -18813   -18492   -17946   -17701   -17845 
  -18088   -18426   -18864   -19180   -19219   -18970   -18569   -18346 
  -18458   -18652   -18665   -18461   -18212   -18094   -18011   -17923 
  -18183   -18875   -19373   -19249   -18878   -18632   -18400   -18137 
  -18119   -18458   -18832   -18864   -18558   -18260   -18226   -18269 
  -18189   -18238   -18551   -18770   -18639   -18337   -18231   -18438 
  -18611   -18627   -18809   -19172   -19275   -18889   -18331   -17979 
  -17902   -18088   -18439   -18702   -18719   -18565   -18431   -18377 
  -18333   -18337   -18500   -18750   -18918   -18933   -18760   -18562 
  -18571   -18625   -18562   -18513   -18445   -18334   -18350   -18511 
  -18665   -18584   -18326   -18274   -18480   -18684   -18742   -18605 
  -18350   -18191   -18280   -18554   -18789   -18794   -18581   -18407 
  -18389   -18424   -18513   -18588   -18466   -18257   -18198   -18272 
  -18347   -18430   -18513   -18547   -18582   -18652   -18735   -18759 
  -18678   -18616   -18612   -18581   -18571   -18528   -18393   -18389 
  -18513   -18562   -18603   -18644   -18559   -18397   -18315   -18423 
  -18573   -18550   -18528   -18696   -18728   -18441   -18283   -18497 
  -18766   -18863   -18752   -18504   -18370   -18391   -18361   -18293 
  -18308   -18324   -18320   -18393   -18473   -18563   -18766   -18895 
  -18800   -18630   -18472   -18358   -18342   -18508   -18874   -19035 
  -18771   -18509   -18346   -18050   -17937   -18219   -18497   -18650 
  -18835   -18705   -18188   -17973   -18247   -18555   -18781   -19010 
  -19155   -19041   -18669   -18307   -18150   -18179   -18418   -18783 
  -18939   -18804   -18592   -18285   -17891   -17697   -17811   -18111 
  -18462   -18787   -19053   -19151   -19035   -18819   -18625   -18526 
  -18420   -18265   -18355   -18706   -18750   -18355   -18100   -18165 
  -18276   -18389   -18534   -18694   -18939   -19129   -18983   -18667 
  -18555   -18526   -18427   -18461   -18627   -18743   -18744   -18585 
  -18307   -18058   -17973   -18067   -18157   -18193   -18419   -18775 
  -18874   -18663   -18404   -18245   -18274   -18505   -18770   -18945 
  -18963   -18642   -18125   -17937   -18171   -18497   -18724   -18779 
  -18700   -18594   -18462   -18373   -18463   -18580   -18620   -18751 
  -18844   -18712   -18538   -18439   -18412   -18443   -18330   -18079 
  -18048   -18327   -18601   -18723   -18847   -18949   -18866   -18706 
  -18623   -18509   -18328   -18245   -18335   -18547   -18739   -18720 
  -18553   -18508   -18567   -18512   -18384   -18376   -18391   -18301 
  -18347   -18657   -18873   -18744   -18554   -18630   -18870   -18990 
  -18893   -18644   -18409   -18314   -18270   -18257   -18355   -18488 
  -18520   -18430   -18326   -18262   -18095   -17928   -18088   -18530 
  -19005   -19334   -19299   -18956   -18723   -18688   -18531   -18200 
  -17925   -17874   -18041   -18242   -18466   -18787   -18979   -18886 
  -18688   -18493   -18293   -18192   -18264   -18457   -18748   -18935 
  -18777   -18570   -18604   -18677   -18634   -18508   -18323   -18161 
  -18161   -18380   -18650   -18754   -18738   -18673   -18500   -18380 
  -18461   -18488   -18374   -18339   -18347   -18315   -18385   -18578 
  -18769   -18900   -18970   -18998   -18858   -18416   -17971   -17961 
  -18301   -18571   -18611   -18517   -18427   -18474   -18511   -18262 
  -17964   -17988   -18272   -18666   -19080   -19307   -19267   -19093 
  -18925   -18859   -18812   -18543   -18157   -17999   -18056   -18108 
  -18114   -18198   -18531   -18974   -19174   -19067   -18740   -18308 
  -18088   -18148   -18183   -18211   -18434   -18624   -18619   -18617 
  -18536   -18311   -18218   -18242   -18303   -18553   -18839   -18877 
  -18693   -18455   -18404   -18600   -18681   -18522   -18427   -18447 
  -18454   -18499   -18536   -18441   -18322   -18387   -18607   -18763 
  -18743   -18646   -18523   -18420   -18519   -18796   -18975   -19020 
  -19078   -19094   -18814   -18222   -17751   -17736   -17984   -18231 
  -18458   -18574   -18459   -18303   -18293   -18320   -18310   -18349 
  -18488   -18778   -19160   -19317   -19062   -18605   -18260   -18184 
  -18307   -18442   -18524   -18500   -18300   -18188   -18368   -18555 
  -18638   -18855   -19117   -19118   -18823   -18405   -18056   -17965 
  -18208   -18567   -18755   -18705   -18566   -18526   -18615   -18630 
  -18434   -18218   -18203   -18347   -18576   -18868   -19052   -18912 
  -18509   -18114   -17983   -18199   -18466   -18526   -18546   -18584 
  -18495   -18389   -18376   -18395   -18445   -18474   -18473   -18569 
  -18700   -18662   -18558   -18573   -18592   -18562   -18597   -18642 
  -18608   -18492   -18327   -18262   -18349   -18431   -18472   -18565 
  -18596   -18493   -18465   -18601   -18763   -18742   -18426   -18103 
  -18206   -18692   -19059   -19022   -18825   -18642   -18426   -18338 
  -18451   -18561   -18539   -18368   -18126   -17996   -18018   -18193 
  -18547   -18941   -19143   -18990   -18569   -18215   -18169   -18304 
  -18362   -18395   -18601   -18873   -19002   -18981   -18852   -18666 
  -18528   -18534   -18636   -18625   -18396   -18075   -17868   -17883 
  -18073   -18327   -18509   -18592   -18704   -18797   -18713   -18690 
  -18982   -19271   -19183   -18796   -18361   -18052   -17867   -17747 
  -17759   -17874   -17961   -18099   -18355   -18601   -18825   -19062 
  -19188   -19118   -18882   -18627   -18492   -18373   -18191   -18148 
  -18360   -18647   -18863   -19025   -19163   -19234   -19222   -19245 
  -19380   -19399   -19032   -18354   -17695   -17379   -17555   -18007 
  -18401   -18635   -18792   -18998   -19338   -19746   -20081   -20237 
  -20152   -19827   -19435   -19178   -19037   -19014   -19194   -19403 
  -19340   -18954   -18322   -17497   -16565   -15564   -14546   -13937 
  -14277   -15495   -16924   -17817   -17614   -16233   -14210   -12488 
  -12106   -13566   -16224   -18843   -20586   -21340   -21386   -21024 
  -20611   -20425   -20321   -20241   -20507   -21267   -22423   -23639 
  -24340   -24398   -24158   -23715   -22874   -21554   -19930   -18260 
  -16706   -15408   -14635   -14762   -15944   -17744   -19257   -19704 
  -18905   -17280   -15546   -14516   -14841   -16352   -18083   -19191 
  -19404   -18898   -18119   -17386   -16699   -16194   -16243   -16872 
  -17686   -18481   -19294   -19950   -20151   -19870   -19273   -18454 
  -17548   -16933   -16960   -17609   -18607   -19835   -21330   -22855 
  -23885   -24043   -23271   -21717   -19688   -17621   -15954   -15072 
  -15265   -16436   -17822   -18489   -18171   -17244   -16162   -15253 
  -14837   -15195   -16294   -17786   -19219   -20186   -20493   -20020 
  -18642   -16750   -15298   -15020   -15975   -17709   -19479   -20605 
  -20947   -20802   -20397   -19926   -19723   -19940   -20285   -20421 
  -20295   -19984   -19635   -19608   -20043   -20405   -20119   -19249 
  -18153   -17270   -17027   -17396   -18112   -19072   -20098   -20829 
  -20989   -20511   -19404   -17860   -16364   -15257   -14581   -14296 
  -14270   -14430   -14895   -15761   -16987   -18276   -19032   -19020 
  -18706   -18547   -18554   -18717   -19136   -19774   -20437   -20715 
  -20146   -18870   -17680   -17123   -17134   -17552   -18346   -19333 
  -20229   -20893   -21189   -20927   -20251   -19616   -19268   -19063 
  -18812   -18531   -18274   -18015   -17863   -17940   -18146   -18355 
  -18526   -18621   -18746   -19082   -19618   -20213   -20683   -20769 
  -20274   -19167   -17701   -16445   -15897   -16155   -16962   -17841 
  -18428   -18648   -18501   -18095   -17662   -17261   -16848   -16545 
  -16556   -16919   -17545   -18341   -19183   -19905   -20399   -20750 
  -20993   -20736   -19616   -17917   -16275   -15353   -15526   -16519 
  -17805   -19010   -19803   -19978   -19658   -19238   -19005   -18949 
  -19001   -19052   -18833   -18191   -17487   -17265   -17559   -17999 
  -18380   -18742   -19157   -19622   -20017   -20171   -20005   -19523 
  -18766   -17963   -17501   -17548   -17863   -18148   -18343   -18522 
  -18723   -18931   -19152   -19414   -19557   -19286   -18558   -17631 
  -16888   -16816   -17574   -18667   -19515   -19946   -20020   -19847 
  -19584   -19360   -19198   -19037   -18847   -18638   -18392   -18106 
  -17834   -17649   -17562   -17447   -17157   -16673   -16181   -15961 
  -16171   -16723   -17442   -18165   -18755   -19129   -19291   -19329 
  -19341   -19286   -19012   -18570   -18283   -18436   -18974   -19597 
  -20136   -20587   -20844   -20754   -20328   -19714   -19111   -18631 
  -18288   -18123   -18079   -17996   -17848   -17675   -17435   -17165 
  -16989   -17038   -17544   -18578   -19673   -20274   -20278   -19903 
  -19357   -18663   -17825   -17041   -16522   -16393   -16725   -17456 
  -18403   -19299   -19805   -19781   -19454   -19124   -18840   -18555 
  -18382   -18472   -18814   -19237   -19444   -19198   -18508   -17659 
  -17038   -16800   -16922   -17366   -17932   -18349   -18582   -18828 
  -19178   -19494   -19588   -19296   -18611   -17753   -16953   -16413 
  -16430   -17167   -18403   -19680   -20659   -21149   -21030   -20417 
  -19651   -19059   -18821   -18918   -19121   -19198   -19066   -18777 
  -18480   -18312   -18338   -18449   -18366   -18061   -17833   -17795 
  -17824   -17853   -17864   -17826   -17643   -17172   -16552   -16221 
  -16403   -16930   -17614   -18360   -19006   -19417   -19599   -19665 
  -19757   -19903   -19992   -20012   -20156   -20445   -20520   -20159 
  -19634   -19265   -18991   -18616   -18223   -17963   -17795   -17730 
  -17790   -17895   -17991   -17987   -17806   -17589   -17431   -17319 
  -17346   -17504   -17606   -17609   -17656   -17913   -18422   -18998 
  -19433   -19703   -19792   -19546   -18877   -18009   -17388   -17297 
  -17649   -18141   -18553   -18902   -19234   -19458   -19541   -19553 
  -19522   -19433   -19230   -18862   -18350   -17817   -17456   -17412 
  -17690   -18234   -18928   -19548   -19842   -19662   -19056   -18315 
  -17805   -17663   -17749   -17871   -17965   -18088   -18283   -18486 
  -18605   -18630   -18617   -18659   -18833   -19106   -19271   -19225 
  -19093   -18947   -18786   -18715   -18824   -19072   -19248   -19110 
  -18698   -18214   -17797   -17554   -17479   -17506   -17644   -17906 
  -18254   -18616   -18882   -19014   -18971   -18628   -18023   -17448 
  -17172   -17242   -17487   -17693   -17764   -17824   -18083   -18567 
  -19062   -19371   -19445   -19387   -19336   -19287   -19230   -19282 
  -19489   -19735   -19849   -19707   -19345   -18901   -18484   -18237 
  -18274   -18581   -19021   -19341   -19271   -18778   -18129   -17683 
  -17582   -17717   -17937   -18125   -18184   -18057   -17788   -17586 
  -17664   -18027   -18496   -18805   -18806   -18642   -18497   -18403 
  -18376   -18393   -18364   -18293   -18279   -18355   -18484   -18657 
  -18927   -19205   -19292   -19174   -18970   -18711   -18416   -18157 
  -17975   -17863   -17766   -17648   -17523   -17401   -17331   -17371 
  -17529   -17826   -18261   -18765   -19206   -19442   -19435   -19226 
  -18908   -18708   -18786   -19056   -19348   -19568   -19754   -19965 
  -20187   -20402   -20540   -20483   -20228   -19816   -19263   -18585 
  -17791   -16966   -16322   -16029   -16152   -16659   -17363   -17995 
  -18370   -18535   -18642   -18716   -18688   -18550   -18341   -18106 
  -17894   -17764   -17782   -17915   -18015   -17929   -17691   -17554 
  -17686   -18034   -18473   -18847   -19059   -19160   -19198   -19230 
  -19363   -19573   -19707   -19642   -19422   -19213   -19110   -19084 
  -19043   -18893   -18661   -18436   -18262   -18204   -18253   -18279 
  -18287   -18415   -18685   -18999   -19257   -19344   -19197   -18912 
