Origin Time       2024/06/23 22:54:00
Lat.              35.645
Long.             140.060
Depth. (km)       72
Mag.              4.1
Station Code      CHB012
Station Lat.      35.5721
Station Long.     140.3436
Station Height(m) 60
Record Time       2024/06/23 22:54:40
Sampling Freq(Hz) 100Hz
Duration Time(s)  72
Dir.              N-S
Scale Factor      7845(gal)/8223790
Max. Acc. (gal)   4.996
Last Correction   2024/06/23 22:54:40
Memo.             
[...]
   -9603    -9601    -9601    -9602    -9603    -9599    -9597    -9602 
   -9609    -9610    -9607    -9602    -9599    -9603    -9607    -9603 
   -9597    -9598    -9601    -9605    -9607    -9605    -9601    -9605 
   -9606    -9605    -9607    -9610    -9609    -9609    -9605    -9601 
   -9603    -9605    -9602    -9605    -9607    -9607    -9606    -9606 
   -9602    -9599    -9606    -9610    -9607    -9605    -9605    -9607 
   -9607    -9612    -9616    -9613    -9614    -9613    -9609    -9606 
   -9602    -9599    -9603    -9605    -9602    -9606    -9612    -9613 
   -9609    -9606    -9610    -9616    -9614    -9609    -9601    -9598 
   -9601    -9603    -9605    -9603    -9605    -9610    -9614    -9614 
   -9609    -9607    -9616    -9616    -9605    -9597    -9594    -9595 
   -9598    -9595    -9597    -9603    -9607    -9610    -9610    -9610 
   -9613    -9610    -9605    -9602    -9597    -9598    -9602    -9599 
   -9598    -9599    -9603    -9614    -9621    -9620    -9613    -9602 
   -9580    -9555    -9547    -9562    -9591    -9634    -9683    -9713 
   -9707    -9666    -9607    -9553    -9509    -9487    -9499    -9514 
   -9520    -9559    -9660    -9775    -9825    -9791    -9713    -9599 
   -9450    -9328    -9333    -9490    -9722    -9910    -9934    -9767 
   -9509    -9316    -9297    -9441    -9613    -9717    -9732    -9617 
   -9441    -9417    -9617    -9877   -10004    -9981    -9891    -9693 
   -9321    -8947    -8849    -9097    -9529    -9945   -10204   -10235 
  -10081    -9833    -9535    -9239    -9027    -9004    -9263    -9744 
  -10168   -10273   -10022    -9599    -9248    -9115    -9235    -9531 
   -9803    -9855    -9652    -9369    -9239    -9321    -9536    -9906 
  -10409   -10704   -10396    -9574    -8785    -8475    -8662    -9139 
   -9645    -9973   -10058    -9933    -9659    -9374    -9305    -9590 
  -10026   -10227   -10046    -9632    -9221    -9054    -9265    -9710 
  -10065   -10095    -9738    -9220    -8958    -9104    -9406    -9578 
   -9641    -9795   -10004   -10068    -9960    -9732    -9379    -9051 
   -9070    -9506   -10002   -10169    -9980    -9678    -9440    -9275 
   -9244    -9386    -9518    -9524    -9590    -9848   -10091   -10015 
   -9614    -9239    -9208    -9470    -9718    -9709    -9475    -9243 
   -9205    -9409    -9799   -10273   -10550   -10295    -9616    -9022 
   -8815    -8924    -9217    -9620   -10037   -10278   -10188    -9832 
   -9398    -9078    -9034    -9285    -9695   -10073   -10281   -10255 
   -9952    -9452    -9036    -8968    -9251    -9576    -9603    -9374 
   -9239    -9414    -9769   -10027   -10093   -10091   -10075    -9944 
   -9572    -9018    -8629    -8742    -9293    -9949   -10404   -10480 
  -10242    -9883    -9468    -9047    -8851    -9054    -9437    -9640 
   -9645    -9706    -9919   -10091   -10046    -9869    -9691    -9539 
   -9404    -9275    -9132    -9011    -9036    -9298    -9698   -10023 
  -10099    -9917    -9671    -9544    -9553    -9610    -9622    -9580 
   -9579    -9678    -9753    -9613    -9339    -9221    -9355    -9626 
   -9880    -9900    -9599    -9269    -9247    -9508    -9782    -9922 
   -9984   -10023    -9983    -9844    -9705    -9667    -9688    -9613 
   -9373    -9124    -9066    -9225    -9490    -9730    -9900   -10017 
  -10039    -9875    -9579    -9371    -9367    -9516    -9756    -9981 
   -9956    -9636    -9304    -9161    -9193    -9363    -9609    -9779 
   -9736    -9541    -9398    -9393    -9499    -9672    -9763    -9625 
   -9342    -9139    -9130    -9275    -9525    -9813   -10039   -10143 
  -10129    -9977    -9651    -9285    -9189    -9466    -9830   -10006 
   -9999    -9882    -9649    -9306    -8946    -8785    -9000    -9540 
  -10150   -10540   -10538   -10228    -9899    -9729    -9644    -9567 
   -9466    -9285    -9123    -9177    -9428    -9647    -9680    -9655 
   -9769    -9930    -9844    -9410    -8877    -8660    -8992    -9641 
  -10118   -10193   -10065    -9972    -9883    -9659    -9304    -8985 
   -8950    -9332    -9940   -10422   -10525   -10173    -9491    -8796 
   -8486    -8714    -9186    -9535    -9701    -9818    -9967   -10057 
  -10007    -9896    -9792    -9707    -9679    -9686    -9624    -9409 
   -9123    -9043    -9286    -9649    -9884    -9868    -9609    -9273 
   -9155    -9485   -10127   -10586   -10486    -9981    -9513    -9332 
   -9336    -9327    -9315    -9472    -9842   -10226   -10297    -9956 
   -9482    -9180    -9047    -8968    -8997    -9215    -9477    -9570 
   -9520    -9516    -9659    -9926   -10133   -10022    -9653    -9401 
   -9460    -9621    -9620    -9524    -9464    -9332    -9131    -9162 
   -9551   -10065   -10477   -10642   -10372    -9713    -9113    -8942 
   -9012    -8970    -8905    -9097    -9470    -9792   -10045   -10320 
  -10575   -10582   -10133    -9359    -8733    -8642    -8992    -9364 
   -9566    -9795   -10224   -10625   -10648   -10272    -9745    -9261 
   -8919    -8824    -8964    -9159    -9313    -9466    -9603    -9661 
   -9668    -9629    -9486    -9375    -9535    -9875   -10068   -10039 
   -9938    -9803    -9583    -9366    -9351    -9513    -9575    -9381 
   -9028    -8737    -8694    -8916    -9248    -9605   -10037   -10458 
  -10638   -10554   -10378   -10138    -9779    -9495    -9586    -9983 
  -10215    -9979    -9599    -9560    -9725    -9559    -8964    -8361 
   -8087    -8108    -8340    -8862    -9656   -10451   -10968   -11159 
  -11056   -10584    -9823    -9201    -9032    -9143    -9215    -9229 
   -9397    -9742   -10037   -10099    -9915    -9526    -9007    -8459 
   -8044    -8060    -8727    -9845   -10920   -11566   -11680   -11333 
  -10620    -9684    -8793    -8193    -7966    -8083    -8452    -8954 
   -9537   -10129   -10608   -10859   -10767   -10281    -9541    -8816 
   -8384    -8478    -9148   -10119   -10937   -11298   -11179   -10756 
  -10187    -9477    -8619    -7785    -7276    -7366    -8104    -9188 
  -10211   -10925   -11261   -11272   -11057   -10705   -10222    -9549 
   -8781    -8194    -8020    -8334    -8992    -9661   -10131   -10474 
  -10764   -10802   -10347    -9594    -9093    -9142    -9563    -9983 
  -10152   -10053    -9784    -9413    -9082    -8966    -9030    -9093 
   -9140    -9366    -9809   -10099    -9917    -9433    -9009    -8857 
   -9100    -9698   -10276   -10401   -10072    -9672    -9489    -9506 
   -9541    -9410    -9112    -8889    -8997    -9458   -10066   -10501 
  -10501   -10126    -9698    -9429    -9316    -9404    -9767   -10189 
  -10308   -10068    -9714    -9417    -9174    -8959    -8861    -9040 
   -9458    -9802    -9811    -9489    -9076    -8877    -9011    -9327 
   -9590    -9630    -9410    -9111    -9134    -9757   -10678   -11290 
  -11341   -10953   -10397    -9899    -9456    -9070    -8978    -9316 
   -9780    -9834    -9321    -8723    -8502    -8575    -8718    -8961 
   -9294    -9531    -9636    -9786   -10084   -10427   -10585   -10484 
  -10303   -10088    -9629    -8980    -8699    -9169    -9994   -10443 
  -10249    -9726    -9297    -9062    -8899    -8830    -9034    -9537 
  -10058   -10208    -9911    -9508    -9377    -9571    -9838    -9895 
   -9670    -9336    -9132    -9134    -9332    -9691   -10008   -10075 
   -9967    -9887    -9925   -10031   -10052    -9846    -9420    -8991 
   -8857    -9049    -9297    -9429    -9509    -9585    -9595    -9558 
   -9575    -9648    -9693    -9747    -9860   -10026   -10219   -10297 
  -10114    -9774    -9568    -9634    -9730    -9514    -9067    -8784 
   -8789    -8930    -9105    -9275    -9355    -9301    -9167    -9024 
   -8957    -9167    -9765   -10444   -10728   -10531   -10181   -10011 
  -10068   -10218   -10415   -10662   -10756   -10440    -9734    -8938 
   -8378    -8214    -8426    -8883    -9379    -9652    -9599    -9436 
   -9342    -9277    -9252    -9382    -9649    -9887    -9956    -9832 
   -9540    -9208    -9109    -9396    -9826    -9991    -9763    -9408 
   -9300    -9570    -9992   -10228   -10214   -10173   -10261   -10345 
  -10172    -9707    -9238    -9049    -9126    -9250    -9292    -9321 
   -9417    -9483    -9352    -9063    -8916    -9177    -9733   -10183 
  -10296   -10135    -9779    -9258    -8730    -8487    -8715    -9298 
   -9961   -10569   -11061   -11229   -10862   -10130    -9501    -9262 
   -9274    -9265    -9190    -9184    -9294    -9452    -9602    -9729 
   -9788    -9748    -9609    -9319    -8984    -8953    -9356    -9886 
  -10169   -10165   -10066    -9972    -9741    -9232    -8613    -8275 
   -8445    -8923    -9321    -9506    -9660    -9914   -10119   -10066 
   -9884    -9911   -10157   -10291   -10156    -9950    -9846    -9787 
   -9701    -9690    -9823    -9972    -9913    -9552    -9086    -8861 
   -8973    -9185    -9327    -9487    -9784   -10130   -10280   -10135 
   -9837    -9529    -9235    -8941    -8684    -8586    -8743    -9117 
   -9559    -9931   -10222   -10423   -10465   -10345   -10114    -9813 
   -9556    -9502    -9659    -9833    -9832    -9656    -9454    -9305 
   -9178    -9051    -8976    -8984    -9035    -9105    -9258    -9579 
  -10025   -10416   -10598   -10534   -10311    -9957    -9369    -8660 
   -8267    -8382    -8734    -9084    -9467    -9875   -10108   -10052 
   -9795    -9517    -9397    -9505    -9753   -10058   -10484   -11047 
  -11529   -11616   -11232   -10617   -10041    -9499    -8891    -8314 
   -8036    -8208    -8723    -9350    -9909   -10289   -10422   -10319 
  -10081    -9817    -9572    -9283    -8877    -8397    -7952    -7685 
   -7754    -8131    -8549    -8843    -9103    -9509   -10118   -10859 
  -11578   -12078   -12240   -12028   -11380   -10353    -9337    -8816 
   -8818    -8905    -8816    -8687    -8653    -8694    -8849    -9246 
   -9890   -10594   -11156   -11438   -11333   -10812    -9998    -9089 
   -8278    -7689    -7327    -7125    -7047    -7164    -7609    -8444 
   -9458   -10293   -10832   -11215   -11479   -11480   -11171   -10740 
  -10400   -10127    -9737    -9113    -8264    -7280    -6363    -5833 
   -5829    -6231    -7042    -8399   -10139   -11739   -12788   -13383 
  -13938   -14551   -14813   -14365   -13387   -12394   -11696   -11226 
  -10710    -9931    -8988    -8212    -7816    -7699    -7568    -7257 
   -6868    -6558    -6417    -6558    -7109    -8046    -9127   -10102 
  -10863   -11223   -10901    -9907    -8719    -7920    -7722    -7942 
   -8351    -8862    -9498   -10223   -10836   -11200   -11429   -11618 
  -11631   -11315   -10740   -10116    -9617    -9306    -9158    -9139 
   -9263    -9541    -9936   -10319   -10562   -10604   -10466   -10219 
   -9877    -9369    -8757    -8334    -8313    -8496    -8465    -8143 
   -7917    -8079    -8482    -8824    -9019    -9186    -9423    -9632 
   -9633    -9501    -9606   -10119   -10674   -10843   -10750   -10872 
  -11426   -12179   -12733   -12833   -12479   -11754   -10673    -9243 
   -7615    -6218    -5614    -5980    -6887    -7789    -8565    -9490 
  -10697   -11808   -12256   -11955   -11408   -11056   -10789   -10174 
   -9055    -7815    -7010    -6825    -7057    -7442    -7816    -8131 
   -8464    -8919    -9478    -9956   -10131   -10022    -9964   -10260 
  -10867   -11514   -11983   -12204   -12114   -11664   -10957   -10201 
   -9460    -8644    -7776    -7141    -7025    -7419    -8029    -8540 
   -8899    -9286    -9782   -10246   -10546   -10763   -11006   -11132 
  -10856   -10143    -9382    -8946    -8777    -8699    -8810    -9262 
   -9914   -10451   -10714   -10814   -10926   -11010   -10816   -10181 
   -9261    -8371    -7659    -7078    -6683    -6720    -7315    -8264 
   -9202    -9963   -10608   -11157   -11506   -11655   -11709   -11685 
  -11518   -11140   -10548    -9894    -9385    -9072    -8884    -8884 
   -9189    -9676    -9983    -9742    -8899    -7873    -7165    -6820 
   -6677    -6847    -7585    -8862   -10265   -11396   -12186   -12738 
  -13104   -13257   -13086   -12413   -11196    -9736    -8444    -7487 
   -6863    -6674    -7025    -7797    -8761    -9776   -10741   -11495 
  -11909   -11931   -11473   -10532    -9324    -8222    -7549    -7345 
   -7380    -7493    -7820    -8584    -9703   -10771   -11412   -11556 
  -11383   -11025   -10428    -9605    -8766    -8132    -7767    -7670 
   -7843    -8243    -8814    -9487   -10075   -10409   -10577   -10768 
  -10991   -11070   -10867   -10428    -9934    -9601    -9603   -10007 
  -10674   -11287   -11531   -11338   -10901   -10444    -9992    -9351 
   -8344    -7105    -6010    -5344    -5166    -5517    -6482    -7971 
   -9614   -10936   -11623   -11696   -11402   -10898   -10206    -9458 
   -8977    -9057    -9744   -10731   -11523   -11819   -11713   -11515 
  -11372   -11171   -10778   -10241    -9741    -9471    -9508    -9706 
   -9749    -9394    -8677    -7861    -7230    -6883    -6662    -6413 
   -6257    -6473    -7210    -8424    -9948   -11491   -12696   -13425 
  -13767   -13725   -13166   -12094   -10771    -9543    -8675    -8302 
   -8417    -8885    -9367    -9418    -8939    -8272    -7704    -7253 
   -6960    -7006    -7510    -8370    -9373   -10381   -11315   -12012 
  -12275   -12087   -11642   -11095   -10466    -9823    -9350    -9143 
   -9174    -9386    -9706    -9999   -10045    -9613    -8650    -7426 
   -6385    -5819    -5724    -6041    -6887    -8345   -10179   -11966 
  -13408   -14393   -14841   -14619   -13718   -12398   -11053    -9963 
   -9151    -8487    -7924    -7542    -7366    -7294    -7250    -7339 
   -7728    -8370    -9027    -9571   -10026   -10399   -10608   -10604 
  -10512   -10490   -10494   -10436   -10411   -10574   -10902   -11207 
  -11287   -11002   -10339    -9431    -8509    -7776    -7252    -6875 
   -6666    -6658    -6804    -7040    -7404    -8005    -8866    -9883 
  -10920   -11842   -12541   -12958   -13007   -12611   -11877   -11105 
  -10544   -10220    -9944    -9518    -8941    -8372    -7933    -7587 
   -7296    -7240    -7680    -8630    -9775   -10696   -11136   -11048 
  -10590   -10048    -9639    -9352    -9063    -8754    -8650    -9015 
   -9806   -10659   -11182   -11213   -10870   -10377    -9884    -9401 
   -8919    -8579    -8581    -8938    -9450    -9915   -10243   -10384 
  -10223    -9678    -8877    -8175    -7905    -8116    -8559    -8974 
   -9321    -9610    -9742    -9640    -9425    -9342    -9539   -10004 
  -10596   -11156   -11680   -12164   -12382   -12046   -11160   -10033 
   -8951    -8020    -7248    -6640    -6272    -6237    -6517    -7029 
   -7674    -8359    -9046    -9749   -10450   -11075   -11539   -11788 
  -11908   -12162   -12668   -13163   -13325   -13135   -12710   -12074 
  -11237   -10260    -9169    -8064    -7186    -6691    -6523    -6609 
   -6972    -7568    -8214    -8722    -9003    -9094    -9126    -9192 
   -9231    -9076    -8745    -8479    -8386    -8322    -8197    -8174 
   -8490    -9107    -9718   -10079   -10192   -10276   -10562   -11065 
  -11601   -12050   -12441   -12754   -12874   -12799   -12564   -12048 
  -11088    -9734    -8314    -7191    -6451    -5957    -5687    -5840 
   -6525    -7551    -8607    -9518   -10247   -10759   -11043   -11249 
  -11550   -11866   -11921   -11562   -10883   -10134    -9578    -9300 
   -9139    -8846    -8375    -8004    -8050    -8526    -9192    -9857 
  -10458   -10928   -11145   -11026   -10613   -10064    -9552    -9196 
   -9023    -8995    -9005    -8914    -8611    -8101    -7569    -7264 
   -7290    -7581    -8037    -8598    -9227    -9899   -10581   -11210 
  -11688   -11913   -11858   -11620   -11329   -11030   -10690   -10281 
   -9832    -9386    -8912    -8314    -7601    -7014    -6870    -7234 
   -7963    -8997   -10285   -11612   -12722   -13396   -13454   -12906 
  -12040   -11200   -10490    -9838    -9215    -8649    -8154    -7711 
   -7349    -7123    -7071    -7192    -7422    -7674    -7951    -8318 
   -8793    -9266    -9597    -9787    -9984   -10349   -10913   -11583 
  -12224   -12683   -12811   -12553   -11965   -11128   -10072    -8888 
   -7828    -7109    -6795    -6903    -7425    -8279    -9286   -10177 
  -10729   -10889   -10768   -10531   -10268   -10011    -9819    -9763 
   -9764    -9602    -9173    -8648    -8266    -8062    -7933    -7898 
   -8098    -8621    -9371   -10099   -10570   -10706   -10589   -10322 
   -9919    -9397    -8908    -8658    -8710    -8954    -9273    -9648 
  -10091   -10516   -10801   -10928   -11029   -11219   -11434   -11510 
  -11372   -11067   -10646   -10139    -9593    -9074    -8653    -8336 
   -8090    -7912    -7798    -7728    -7700    -7767    -8032    -8553 
   -9252    -9981   -10671   -11327   -11908   -12294   -12372   -12133 
  -11641   -10944   -10102    -9250    -8500    -7831    -7186    -6633 
   -6362    -6534    -7133    -8014    -9000    -9863   -10465   -10897 
  -11310   -11666   -11828   -11761   -11495   -11048   -10478    -9836 
   -9113    -8375    -7846    -7688    -7794    -7936    -8058    -8301 
   -8766    -9317    -9667    -9711    -9641    -9694    -9911   -10156 
  -10322   -10417   -10461   -10446   -10450   -10619   -10971   -11326 
  -11473   -11334   -10993   -10600   -10245    -9900    -9525    -9175 
   -8954    -8818    -8591    -8228    -7933    -7885    -8028    -8230 
   -8434    -8619    -8775    -8889    -8937    -8927    -8995    -9286 
   -9757   -10185   -10382   -10326   -10141    -9958    -9844    -9852 
  -10003   -10192   -10254   -10139    -9952    -9836    -9861    -9967 
  -10030   -10019   -10003    -9977    -9855    -9644    -9479    -9487 
   -9684   -10010   -10378   -10677   -10763   -10569   -10134    -9566 
   -8977    -8441    -7997    -7672    -7456    -7312    -7263    -7408 
   -7882    -8737    -9834   -10899   -11740   -12349   -12733   -12792 
  -12513   -12052   -11566   -11086   -10575   -10026    -9450    -8847 
   -8220    -7657    -7353    -7465    -7920    -8411    -8657    -8618 
   -8479    -8432    -8513    -8641    -8749    -8865    -9097    -9491 
   -9938   -10305   -10592   -10859   -11090   -11182   -11038   -10660 
  -10193    -9840    -9691    -9630    -9447    -9093    -8753    -8623 
   -8726    -8919    -9111    -9346    -9678   -10030   -10268   -10323 
  -10208   -10015    -9892    -9944   -10168   -10478   -10758   -10903 
  -10854   -10578   -10120    -9571    -8992    -8425    -7963    -7742 
   -7844    -8212    -8668    -9049    -9293    -9451    -9614    -9803 
   -9963   -10114   -10305   -10442   -10359   -10079    -9807    -9697 
   -9626    -9350    -8881    -8507    -8434    -8587    -8756    -8851 
   -8980    -9286    -9794   -10430   -11109   -11724   -12140   -12252 
  -12075   -11707   -11227   -10639    -9957    -9328    -8881    -8564 
   -8216    -7724    -7111    -6555    -6289    -6413    -6822    -7354 
   -7987    -8819    -9865   -10995   -12029   -12796   -13144   -13018 
  -12486   -11635   -10552    -9413    -8430    -7708    -7175    -6777 
   -6659    -7021    -7839    -8866    -9844   -10650   -11229   -11518 
  -11493   -11242   -10976   -10899   -11002   -11106   -11076   -10899 
  -10623   -10289    -9913    -9481    -9004    -8563    -8251    -8079 
   -8017    -8055    -8191    -8384    -8594    -8826    -9076    -9269 
