Origin Time       2024/06/23 22:54:00
Lat.              35.645
Long.             140.060
Depth. (km)       72
Mag.              4.1
Station Code      CHB010
Station Lat.      35.7086
Station Long.     140.5637
Station Height(m) 9
Record Time       2024/06/23 22:54:48
Sampling Freq(Hz) 100Hz
Duration Time(s)  60
Dir.              E-W
Scale Factor      7845(gal)/8223790
Max. Acc. (gal)   2.710
Last Correction   2024/06/23 22:54:47
Memo.             
[...]
    9265     9243     9250     9270     9266     9254     9255     9261 
    9265     9262     9256     9263     9262     9250     9250     9261 
    9269     9269     9266     9263     9259     9258     9262     9263 
    9267     9275     9274     9263     9251     9246     9255     9267 
    9269     9262     9269     9274     9266     9263     9279     9285 
    9274     9269     9270     9258     9251     9267     9283     9275 
    9258     9248     9229     9223     9243     9236     9220     9238 
    9262     9273     9296     9312     9274     9201     9169     9197 
    9263     9337     9371     9329     9236     9180     9200     9223 
    9217     9256     9337     9360     9310     9261     9234     9219 
    9224     9246     9267     9277     9290     9283     9234     9242 
    9332     9354     9258     9166     9169     9236     9289     9294 
    9290     9310     9300     9239     9212     9239     9258     9248 
    9259     9315     9355     9335     9281     9211     9127     9124 
    9244     9336     9336     9335     9302     9231     9232     9238 
    9159     9174     9313     9374     9351     9333     9279     9216 
    9212     9213     9196     9211     9240     9259     9302     9371 
    9385     9297     9212     9200     9216     9277     9360     9385 
    9355     9289     9221     9251     9333     9327     9278     9275 
    9259     9213     9220     9247     9211     9201     9310     9425 
    9475     9504     9481     9441     9425     9312     9134     9059 
    9036     8959     8926     8991     9040     9032     9016     9020 
    9080     9185     9325     9475     9513     9429     9371     9333 
    9213     9077     9076     9246     9417     9379     9204     9132 
    9150     9121     9121     9175     9169     9185     9344     9513 
    9553     9475     9356     9251     9151     9107     9184     9321 
    9416     9410     9313     9248     9277     9296     9256     9190 
    9138     9212     9379     9414     9292     9209     9221     9271 
    9328     9336     9316     9324     9285     9174     9126     9135 
    9123     9161     9286     9387     9374     9286     9250     9288 
    9304     9271     9232     9173     9084     9019     9057     9212 
    9401     9499     9486     9421     9344     9275     9246     9274 
    9323     9400     9493     9458     9294     9139     8988     8892 
    8997     9174     9200     9151     9124     9077     9150     9402 
    9575     9562     9508     9397     9192     9131     9290     9347 
    9248     9261     9274     9105     8976     8989     8989     9050 
    9298     9555     9595     9456     9317     9227     9154     9153 
    9244     9367     9440     9375     9217     9155     9197     9169 
    9069     9094     9286     9464     9487     9386     9289     9262 
    9250     9213     9177     9178     9227     9223     9062     8907 
    8981     9162     9235     9256     9377     9610     9776     9701 
    9486     9350     9288     9213     9140     9050     8980     9062 
    9188     9217     9320     9491     9448     9269     9213     9211 
    9202     9277     9352     9363     9355     9296     9209     9136 
    9061     9043     9109     9216     9340     9362     9186     8993 
    8966     9074     9258     9405     9390     9315     9294     9301 
    9320     9328     9266     9220     9315     9423     9364     9207 
    9120     9151     9180     9169     9320     9621     9663     9333 
    9084     9140     9177     9054     9043     9204     9354     9440 
    9487     9485     9428     9351     9323     9340     9340     9286 
    9194     9146     9157     9165     9216     9324     9328     9227 
    9219     9248     9112     8928     8922     9023     9123     9340 
    9660     9760     9562     9405     9447     9501     9447     9286 
    9009     8739     8691     8868     9081     9242     9339     9313 
    9220     9227     9337     9387     9308     9219     9261     9437 
    9551     9398     9146     9085     9144     9120     9085     9163 
    9242     9242     9288     9452     9647     9670     9428     9181 
    9162     9240     9292     9310     9198     9004     8991     9193 
    9390     9428     9339     9242     9175     9078     8988     9036 
    9263     9532     9637     9509     9308     9181     9096     9039 
    9107     9262     9340     9321     9250     9113     9040     9158 
    9323     9405     9454     9459     9342     9136     9008     9036 
    9143     9288     9478     9563     9459     9352     9297     9154 
    8968     8897     8942     9045     9201     9369     9525     9679 
    9711     9564     9452     9486     9478     9373     9335     9390 
    9428     9425     9383     9231     8982     8792     8766     8878 
    9092     9294     9306     9204     9240     9423     9570     9641 
    9632     9478     9271     9200     9250     9259     9132     8930 
    8842     8961     9169     9335     9447     9508     9512     9436 
    9274     9143     9109     9147     9259     9350     9263     9007 
    8702     8532     8691     9117     9490     9630     9659     9649 
    9541     9455     9495     9522     9504     9552     9571     9429 
    9229     9069     8954     8930     8903     8799     8748     8753 
    8764     8927     9267     9590     9753     9707     9506     9324 
    9279     9329     9390     9405     9317     9190     9158     9144 
    9027     8989     9193     9444     9549     9516     9375     9198 
    9112     9207     9391     9410     9225     9132     9247     9413 
    9545     9562     9414     9238     9155     9162     9157     9022 
    8842     8810     8949     9154     9347     9520     9687     9756 
    9625     9409     9246     9077     8939     9005     9227     9463 
    9666     9711     9508     9211     9018     8961     8991     9130 
    9342     9387     9181     8946     8808     8761     8849     9046 
    9266     9436     9471     9381     9323     9423     9613     9693 
    9644     9590     9470     9308     9296     9342     9275     9161 
    9032     8922     8941     8995     9003     9107     9259     9229 
    9063     8976     9057     9251     9417     9432     9383     9412 
    9408     9246     9074     9031     9061     9158     9317     9420 
    9429     9406     9362     9304     9228     9111     9070     9190 
    9389     9639     9852     9788     9463     9146     9012     9024 
    9054     9103     9259     9374     9178     8761     8544     8723 
    9097     9505     9892    10110    10091     9848     9351     8830 
    8621     8757     9078     9398     9555     9529     9359     9090 
    8849     8822     9035     9242     9294     9346     9406     9294 
    9139     9207     9348     9285     9084     8997     9089     9208 
    9240     9243     9329     9471     9483     9343     9275     9350 
    9436     9567     9801     9869     9501     8922     8607     8669 
    8920     9239     9458     9359     9058     8858     8831     8982 
    9328     9648     9765     9767     9701     9566     9493     9451 
    9270     9027     8914     8970     9055     8993     8877     8912 
    9058     9225     9444     9593     9545     9443     9370     9221 
    9066     9081     9178     9184     9192     9335     9490     9518 
    9435     9313     9256     9328     9421     9402     9320     9270 
    9229     9205     9293     9421     9427     9363     9342     9336 
    9275     9134     8950     8865     8928     9000     8978     8939 
    9007     9198     9451     9728     9900     9811     9539     9258 
    9040     8953     9034     9181     9271     9269     9157     8984 
    8903     9032     9281     9482     9593     9529     9269     9043 
    9004     9049     9163     9362     9450     9374     9302     9227 
    9063     8942     8999     9138     9194     9254     9490     9755 
    9786     9639     9478     9305     9148     9096     9117     9158 
    9234     9323     9401     9436     9360     9234     9165     9117 
    9040     9019     9059     9034     8997     9065     9115     9062 
    9058     9173     9289     9374     9472     9548     9575     9594 
    9618     9668     9765     9807     9691     9481     9202     8864 
    8680     8793     8978     9031     9050     9080     9028     8965 
    9061     9246     9350     9414     9516     9544     9458     9387 
    9360     9313     9292     9286     9217     9165     9200     9270 
    9389     9549     9570     9431     9310     9208     9065     9013 
    9105     9223     9298     9364     9447     9493     9445     9339 
    9221     9157     9224     9370     9412     9328     9202     9016 
    8845     8826     8892     8950     9066     9261     9396     9383 
    9310     9236     9175     9213     9323     9344     9296     9321 
    9421     9427     9273     9067     8957     9032     9193     9263 
    9290     9331     9279     9146     9097     9153     9177     9167 
    9273     9508     9645     9568     9440     9386     9363     9371 
    9417     9428     9412     9448     9459     9360     9256     9177 
    9059     9023     9144     9251     9243     9167     9058     8991 
    9005     9046     9090     9170     9308     9458     9528     9518 
    9490     9401     9238     9140     9178     9275     9367     9340 
    9159     9036     9055     9082     9112     9192     9294     9431 
    9559     9574     9472     9308     9104     8954     8930     8997 
    9173     9406     9521     9478     9371     9219     9040     8957 
    9016     9139     9243     9302     9371     9474     9471     9312 
    9182     9197     9266     9290     9275     9267     9282     9269 
    9247     9274     9285     9297     9417     9564     9624     9607 
    9552     9468     9370     9316     9437     9736    10041    10216 
   10187     9900     9431     8915     8434     8033     7769     7651 
    7631     7742     8036     8429     8831     9259     9690    10056 
   10307    10407    10354    10184     9902     9543     9244     9101 
    9062     9046     8997     8845     8619     8463     8472     8584 
    8657     8706     8861     9142     9532     9988    10324    10444 
   10430    10281     9990     9659     9352     9063     8838     8756 
    8762     8741     8684     8577     8419     8382     8573     8870 
    9157     9416     9613     9690     9675     9734     9934    10092 
   10093    10072    10048     9867     9522     9185     8966     8889 
    8937     9080     9313     9552     9713     9801     9752     9478 
    9121     8972     9096     9259     9275     9215     9096     8858 
    8625     8567     8667     8824     8945     8955     8865     8733 
    8694     8877     9154     9400     9684     9956    10008     9805 
    9559     9478     9514     9483     9375     9255     9094     8949 
    8969     9147     9306     9288     9103     8911     8877     9100 
    9548    10030    10327    10281     9864     9198     8522     8062 
    7939     8106     8419     8735     8942     9019     9140     9421 
    9680     9702     9539     9387     9356     9410     9460     9489 
    9576     9792    10041    10177    10135     9853     9385     8966 
    8787     8856     9085     9321     9364     9193     8989     8842 
    8823     9111     9656    10093    10212    10100     9922     9755 
    9583     9444     9337     9138     8824     8521     8310     8232 
    8286     8461     8750     9057     9235     9262     9225     9198 
    9208     9283     9424     9541     9612     9702     9764     9703 
    9574     9460     9360     9246     9158     9140     9157     9132 
    9019     8905     8907     8926     8804     8583     8387     8278 
    8351     8665     9061     9350     9487     9522     9537     9620 
    9806    10071    10281    10269     9985     9540     9103     8838 
    8891     9308     9923    10481    10818    10856    10543     9948 
    9259     8633     8140     7850     7835     8039     8286     8557 
    8922     9235     9343     9324     9308     9288     9161     8897 
    8648     8611     8776     8905     8878     8838     8870     8874 
    8843     8943     9236     9521     9697     9938    10260    10457 
   10473    10419    10357    10231    10002     9836     9900    10087 
   10192    10183    10065     9806     9410     8916     8364     7861 
    7562     7537     7709     7962     8248     8579     8942     9266 
    9474     9541     9504     9401     9269     9143     9030     8932 
    8964     9243     9649     9895     9867     9624     9242     8888 
    8779     8893     9009     9047     9112     9231     9350     9495 
    9674     9790     9772     9667     9582     9535     9493     9560 
    9768     9968    10095    10185    10222    10199    10150    10056 
    9818     9336     8607     7793     7153     6878     7011     7416 
    7819     8114     8440     8851     9277     9643     9857     9857 
    9697     9502     9409     9494     9699     9898    10017    10026 
    9875     9543     9167     8896     8669     8413     8224     8217 
    8425     8811     9238     9568     9741     9765     9707     9660 
    9706     9864    10054    10181    10197    10092     9880     9536 
    9036     8436     7843     7460     7470     7909     8677     9533 
   10172    10470    10505    10424    10380    10466    10710    11083 
   11462    11638    11472    11030    10446     9801     9258     9013 
    9030     9049     8858     8452     7890     7242     6687     6419 
    6484     6794     7209     7618     7981     8303     8580     8776 
    8873     8955     9178     9529     9788     9869     9906    10006 
   10149    10223    10141     9960     9738     9458     9211     9158 
    9308     9552     9783     9936     9945     9736     9362     8947 
    8576     8360     8352     8515     8810     9162     9512     9867 
   10177    10303    10226    10119    10112    10149    10184    10241 
   10272    10191     9917     9439     8868     8317     7888     7753 
    8020     8541     9046     9364     9405     9144     8729     8368 
    8226     8422     8881     9371     9771    10110    10384    10450 
   10137     9466     8677     8044     7723     7766     8201     8926 
    9678    10238    10498    10401     9988     9482     9059     8739 
    8577     8634     8780     8854     8911     9026     9094     9088 
    9082     9047     8996     9004     8988     8959     9124     9450 
    9776    10126    10449    10570    10443    10150     9796     9474 
    9251     9202     9351     9548     9602     9481     9270     9113 
    9086     9109     9082     8897     8487     8050     7874     7979 
    8232     8572     8947     9285     9566     9799     9992    10116 
   10130    10021     9788     9468     9142     8895     8739     8623 
    8588     8737     9023     9286     9450     9555     9620     9603 
    9506     9397     9319     9297     9373     9508     9591     9586 
    9499     9363     9255     9202     9159     9140     9186     9298 
    9493     9786    10081    10210    10083     9730     9251     8791 
    8487     8406     8513     8718     8947     9151     9240     9161 
    9015     8901     8864     8932     9040     9081     9035     8965 
    8942     9020     9211     9416     9547     9655     9819    10006 
   10133    10133     9925     9517     9051     8644     8359     8249 
    8289     8426     8703     9078     9370     9521     9618     9724 
    9838     9937     9956     9886     9780     9651     9545     9531 
    9504     9373     9228     9167     9213     9321     9410     9431 
    9317     9027     8727     8637     8707     8741     8699     8630 
    8534     8486     8629     8996     9487     9940    10146    10017 
    9636     9173     8791     8600     8637     8822     8999     9094 
    9143     9148     9181     9351     9585     9721     9732     9691 
    9745     9996    10370    10694    10845    10793    10534    10135 
    9729     9377     9078     8814     8533     8209     7931     7816 
    7911     8205     8625     9055     9423     9675     9747     9634 
    9499     9486     9564     9648     9726     9756     9632     9373 
    9111     8943     8864     8784     8638     8438     8217     8037 
    7996     8127     8402     8746     9057     9290     9463     9601 
    9694     9671     9558     9501     9531     9586     9684     9840 
    9991    10058     9977     9701     9255     8802     8532     8536 
    8765     9089     9362     9490     9475     9410     9373     9346 
    9352     9486     9713     9832     9745     9531     9262     8993 
    8791     8722     8856     9143     9425     9632     9757     9736 
    9540     9266     9057     9039     9227     9495     9683     9690 
    9585     9483     9354     9182     9093     9059     8955     8804 
    8699     8712     8869     9096     9250     9238     9093     8916 
    8789     8787     8961     9262     9531     9686     9768     9761 
    9670     9591     9537     9440     9317     9186     9004     8810 
    8660     8534     8473     8577     8838     9147     9445     9705 
    9860     9868     9794     9732     9641     9428     9184     9070 
    9072     9084     9097     9151     9279     9501     9732     9861 
    9919     9965     9941     9818     9607     9296     8943     8653 
    8479     8403     8359     8348     8433     8613     8858     9201 
    9586     9861     9996     9996     9857     9666     9497     9369 
    9304     9315     9346     9335     9319     9309     9238     9181 
    9270     9463     9624     9653     9552     9417     9300     9192 
    9109     9045     8953     8806     8614     8442     8356     8397 
    8608     8962     9333     9657     9895     9977     9952     9923 
    9876     9776     9622     9398     9188     9073     8997     8919 
    8868     8820     8727     8635     8662     8802     8941     9039 
    9113     9130     9082     9032     9015     9030     9108     9255 
    9413     9562     9678     9701     9670     9680     9718     9730 
    9730     9710     9626     9533     9522     9558     9528     9418 
    9248     9016     8784     8662     8704     8837     8997     9186 
    9315     9240     9009     8846     8866     9072     9405     9753 
   10053    10269    10331    10219     9990     9701     9393     9105 
    8884     8766     8760     8874     9053     9165     9131     8973 
    8770     8599     8499     8475     8523     8596     8658     8789 
    9008     9223     9408     9556     9640     9690     9729     9728 
    9703     9706     9703     9674     9643     9586     9491     9435 
    9440     9424     9343     9247     9196     9173     9127     9045 
    8961     8887     8816     8802     8914     9159     9451     9684 
    9814     9844     9784     9657     9545     9509     9499     9443 
    9310     9100     8877     8756     8756     8804     8865     8966 
    9061     9051     8969     8915     8937     9018     9103     9173 
    9244     9277     9261     9240     9212     9177     9192     9232 
    9235     9220     9227     9273     9360     9435     9482     9551 
    9607     9609     9595     9624     9688     9728     9663     9477 
    9242     8996     8776     8699     8789     8923     9057     9192 
