Origin Time       2024/06/23 22:54:00
Lat.              35.645
Long.             140.060
Depth. (km)       72
Mag.              4.1
Station Code      CHB021
Station Lat.      34.9078
Station Long.     139.8994
Station Height(m) 9
Record Time       2024/06/23 22:54:52
Sampling Freq(Hz) 100Hz
Duration Time(s)  60
Dir.              E-W
Scale Factor      7845(gal)/8223790
Max. Acc. (gal)   1.230
Last Correction   2024/06/23 22:54:51
Memo.             
[...]
   10296    10243    10285    10341    10312    10223    10223    10324 
   10327    10245    10247    10314    10341    10295    10239    10255 
   10305    10309    10287    10288    10309    10289    10254    10284 
   10305    10276    10287    10318    10287    10265    10272    10261 
   10295    10330    10304    10272    10254    10281    10319    10282 
   10249    10265    10301    10355    10318    10216    10261    10350 
   10308    10245    10251    10322    10343    10249    10223    10299 
   10297    10272    10297    10297    10280    10292    10278    10242 
   10270    10322    10311    10287    10281    10280    10297    10280 
   10258    10316    10332    10265    10235    10270    10335    10336 
   10235    10211    10320    10343    10261    10251    10282    10311 
   10326    10260    10239    10327    10347    10268    10249    10288 
   10266    10288    10347    10278    10245    10304    10291    10280 
   10287    10276    10289    10291    10289    10269    10258    10314 
   10311    10282    10282    10247    10303    10343    10243    10249 
   10312    10297    10305    10280    10241    10289    10308    10292 
   10296    10246    10219    10331    10357    10237    10250    10295 
   10291    10324    10253    10237    10363    10326    10233    10264 
   10280    10303    10324    10272    10255    10299    10304    10277 
   10281    10280    10277    10300    10284    10262    10295    10309 
   10281    10266    10272    10297    10312    10299    10276    10269 
   10305    10305    10251    10281    10323    10258    10253    10336 
   10320    10258    10260    10281    10320    10315    10242    10242 
   10297    10312    10291    10273    10300    10323    10293    10260 
   10274    10305    10295    10274    10264    10274    10334    10315 
   10243    10281    10307    10250    10266    10297    10261    10289 
   10328    10262    10254    10328    10292    10257    10322    10291 
   10238    10300    10299    10269    10324    10289    10231    10305 
   10320    10270    10277    10265    10291    10353    10272    10210 
   10292    10330    10322    10274    10223    10312    10357    10261 
   10253    10296    10276    10292    10336    10292    10234    10274 
   10308    10296    10296    10254    10264    10343    10285    10247 
   10322    10293    10266    10291    10272    10304    10305    10257 
   10304    10311    10257    10277    10292    10299    10309    10266 
   10260    10303    10303    10282    10272    10273    10304    10312 
   10254    10230    10300    10331    10296    10270    10254    10301 
   10324    10239    10264    10315    10258    10300    10339    10269 
   10281    10300    10269    10285    10276    10274    10334    10315 
   10251    10249    10272    10316    10331    10270    10235    10292 
   10319    10282    10258    10238    10276    10362    10326    10254 
   10309    10314    10219    10224    10309    10338    10292    10251 
   10304    10368    10289    10162    10189    10334    10373    10273 
   10253    10349    10362    10233    10166    10260    10328    10316 
   10305    10304    10322    10312    10251    10262    10299    10239 
   10226    10319    10361    10354    10349    10250    10141    10208 
   10320    10336    10346    10303    10208    10230    10316    10315 
   10264    10254    10292    10323    10334    10347    10320    10261 
   10266    10276    10193    10185    10293    10289    10246    10297 
   10323    10345    10341    10262    10300    10412    10366    10216 
   10169    10215    10237    10303    10385    10297    10169    10156 
   10187    10345    10575    10540    10304    10174    10161    10183 
   10250    10365    10422    10287    10107    10133    10288    10359 
   10315    10246    10260    10372    10439    10378    10312    10258 
   10166    10192    10304    10320    10285    10230    10168    10226 
   10342    10350    10281    10251    10284    10396    10471    10334 
   10143    10158    10331    10396    10200    10022    10196    10503 
   10524    10303    10157    10197    10270    10280    10362    10496 
   10400    10172    10123    10169    10176    10219    10301    10370 
   10417    10408    10342    10335    10395    10376    10269    10180 
   10134    10127    10173    10254    10300    10268    10224    10311 
   10462    10446    10322    10293    10293    10245    10241    10266 
   10255    10222    10187    10231    10368    10407    10309    10285 
   10358    10349    10274    10273    10291    10249    10170    10115 
   10183    10332    10389    10349    10314    10295    10316    10401 
   10469    10422    10270    10134    10115    10157    10177    10196 
   10239    10300    10350    10322    10249    10274    10396    10501 
   10579    10524    10223     9911     9903    10114    10287    10350 
   10365    10362    10287    10215    10346    10544    10542    10423 
   10315    10154     9950     9904    10119    10390    10486    10376 
   10212    10207    10322    10434    10570    10573    10295    10066 
   10116    10195    10234    10342    10326    10149    10093    10146 
   10199    10403    10636    10586    10405    10318    10177    10049 
   10139    10249    10278    10393    10453    10292    10118    10104 
   10211    10377    10442    10300    10138    10184    10436    10613 
   10470    10153     9942     9968    10214    10449    10463    10395 
   10353    10308    10318    10327    10233    10168    10237    10323 
   10314    10251    10245    10292    10297    10212    10195    10389 
   10520    10353    10166    10185    10285    10388    10417    10318 
   10265    10314    10274    10181    10201    10269    10231    10138 
   10169    10282    10307    10300    10365    10446    10438    10289 
   10174    10255    10350    10327    10299    10282    10226    10191 
   10247    10330    10353    10341    10295    10255    10303    10355 
   10338    10292    10227    10153    10138    10216    10354    10407 
   10243    10088    10176    10316    10397    10544    10551    10291 
   10114    10139    10247    10392    10373    10223    10233    10339 
   10363    10297    10161    10098    10162    10222    10297    10405 
   10408    10334    10296    10320    10396    10417    10287    10111 
   10095    10234    10324    10278    10231    10277    10343    10374 
   10339    10243    10270    10431    10442    10278    10200    10272 
   10349    10281    10106    10015    10120    10366    10519    10424 
   10285    10270    10281    10274    10293    10320    10350    10372 
   10301    10156    10112    10228    10369    10420    10345    10180 
   10096    10177    10305    10359    10357    10351    10363    10407 
   10430    10369    10234    10060    10011    10200    10419    10416 
   10197    10046    10215    10496    10516    10331    10211    10220 
   10307    10366    10284    10206    10289    10365    10303    10196 
   10173    10238    10292    10338    10422    10469    10381    10204 
   10153    10262    10301    10210    10110    10147    10327    10403 
   10311    10264    10299    10349    10403    10413    10361    10308 
   10261    10214    10238    10308    10293    10173    10065    10096 
   10260    10430    10509    10462    10361    10292    10214    10161 
   10204    10282    10320    10285    10220    10251    10328    10299 
   10238    10274    10350    10395    10370    10318    10319    10305 
   10254    10199    10084    10045    10231    10461    10536    10446 
   10273    10174    10191    10169    10114    10165    10318    10465 
   10457    10305    10264    10335    10358    10373    10377    10336 
   10285    10206    10173    10249    10312    10280    10177    10062 
   10025    10156    10431    10638    10546    10262    10122    10214 
   10409    10567    10528    10281    10037     9967    10081    10274 
   10407    10447    10408    10301    10241    10274    10345    10404 
   10377    10270    10173    10081    10044    10187    10378    10397 
   10319    10280    10247    10219    10251    10330    10438    10523 
   10427    10191    10081    10158    10278    10331    10316    10335 
   10345    10251    10181    10187    10245    10378    10442    10376 
   10305    10226    10137    10150    10220    10249    10284    10331 
   10330    10316    10330    10308    10245    10270    10400    10471 
   10405    10322    10347    10407    10318    10081     9915     9988 
   10239    10462    10492    10354    10222    10187    10212    10305 
   10422    10389    10285    10295    10372    10422    10339    10122 
   10075    10288    10449    10411    10274    10164    10170    10208 
   10181    10189    10257    10295    10328    10401    10454    10443 
   10374    10254    10157    10127    10158    10255    10343    10355 
   10311    10262    10312    10359    10245    10168    10301    10423 
   10311    10095    10042    10196    10347    10370    10347    10399 
   10488    10454    10292    10177    10189    10282    10370    10368 
   10293    10242    10250    10314    10358    10261    10122    10108 
   10156    10215    10299    10330    10322    10322    10323    10335 
   10335    10331    10289    10222    10338    10571    10559    10307 
   10120    10123    10231    10303    10258    10143    10108    10220 
   10334    10331    10285    10216    10122    10143    10319    10485 
   10528    10454    10320    10199    10147    10189    10270    10320 
   10334    10318    10293    10288    10277    10293    10354    10349 
   10264    10193    10222    10334    10378    10336    10322    10289 
   10234    10249    10312    10386    10368    10165     9983    10041 
   10278    10484    10489    10368    10311    10327    10324    10301 
   10266    10204    10179    10254    10330    10264    10158    10233 
   10415    10423    10251    10168    10284    10461    10519    10396 
   10218    10169    10249    10307    10247    10158    10187    10276 
   10296    10292    10309    10282    10255    10301    10350    10366 
   10377    10358    10305    10250    10185    10112    10120    10257 
   10386    10361    10299    10399    10525    10471    10276    10038 
    9918    10045    10268    10407    10459    10457    10396    10268 
   10174    10260    10395    10390    10315    10223    10166    10274 
   10378    10281    10185    10257    10343    10277    10064     9945 
   10139    10474    10620    10548    10426    10319    10223    10177 
   10219    10261    10189    10156    10315    10465    10411    10261 
   10183    10276    10478    10519    10361    10203    10065    10002 
   10137    10363    10481    10395    10210    10145    10227    10266 
   10238    10276    10273    10183    10253    10449    10516    10432 
   10210    10046    10266    10606    10611    10308    10031    10037 
   10203    10347    10461    10372    10145    10130    10211    10234 
   10346    10435    10328    10169    10184    10331    10404    10401 
   10393    10243     9987     9958    10226    10516    10606    10423 
   10137    10084    10269    10411    10384    10246    10142    10142 
   10234    10378    10423    10336    10228    10135    10162    10345 
   10498    10471    10336    10253    10257    10305    10326    10254 
   10142    10056    10072    10224    10307    10291    10400    10478 
   10363    10292    10305    10335    10382    10312    10243    10287 
   10184    10083    10269    10461    10426    10287    10161    10141 
   10238    10357    10408    10381    10339    10296    10314    10469 
   10540    10324    10010     9882     9960    10053    10142    10285 
   10397    10489    10620    10679    10563    10327    10145    10083 
   10068    10064    10127    10257    10299    10308    10422    10507 
   10492    10401    10264    10197    10224    10314    10399    10262 
   10054    10137    10291    10215    10127    10211    10382    10488 
   10370    10139    10145    10365    10473    10377    10208    10139 
   10230    10343    10395    10407    10346    10242    10219    10272 
   10355    10422    10326    10110    10025    10134    10289    10346 
   10315    10299    10324    10361    10366    10319    10268    10235 
   10238    10327    10435    10419    10245    10081    10168    10377 
   10416    10370    10355    10300    10223    10119    10061    10193 
   10332    10336    10366    10376    10262    10165    10137    10192 
   10330    10355    10278    10307    10373    10381    10343    10224 
   10166    10261    10335    10368    10385    10328    10327    10427 
   10415    10307    10268    10327    10508    10646    10509    10320 
   10260    10189    10164    10245    10326    10326    10192    10142 
   10330    10470    10457    10376    10265    10276    10349    10284 
   10143    10072    10116    10233    10273    10195    10127    10115 
   10207    10373    10390    10287    10233    10235    10312    10404 
   10392    10245    10042    10062    10381    10692    10789    10671 
   10409    10156    10064    10134    10177    10122    10160    10284 
   10270    10108     9981     9987    10021    10015    10118    10395 
   10629    10554    10153     9718     9613     9838    10025     9984 
    9856     9834     9926     9954     9902    10048    10489    10963 
   11213    11140    10905    10845    10926    10916    10917    11009 
   11030    10924    10723    10480    10314    10211    10096    10011 
    9888     9663     9468     9354     9278     9177     8999     8996 
    9390     9973    10399    10597    10827    11191    11385    11210 
   10962    10994    11141    11036    10696    10399    10330    10401 
   10354    10147     9987     9963     9902     9694     9512     9447 
    9471     9679    10004    10314    10621    10767    10690    10709 
   10921    11070    11037    10895    10751    10667    10500    10180 
    9971     9979    10075    10211    10207     9925     9634     9649 
    9895    10119    10216    10152    10068    10233    10438    10342 
   10188    10300    10528    10575    10397    10233    10253    10312 
   10295    10324    10417    10420    10372    10435    10585    10665 
   10581    10403    10320    10345    10282    10060     9873     9973 
   10327    10665    10729    10457    10088     9949    10091    10285 
   10268     9994     9659     9458     9427     9560     9883    10255 
   10431    10409    10444    10659    10867    10899    10847    10871 
   10986    10912    10471    10017     9902    10072    10381    10666 
   10766    10692    10530    10365    10166     9886     9763     9937 
   10180    10311    10251    10062    10025    10146    10235    10277 
   10246    10201    10234    10237    10289    10392    10278    10120 
   10160    10235    10216    10118    10007     9980    10079    10245 
   10399    10548    10612    10544    10566    10692    10731    10633 
   10454    10417    10534    10363     9801     9342     9379     9752 
   10076    10284    10471    10532    10447    10511    10810    11010 
   10905    10705    10590    10427    10115     9796     9664     9715 
    9737     9651     9636     9745     9822     9917    10189    10547 
   10856    10941    10679    10409    10525    10908    11159    11052 
   10841    10795    10706    10419    10177    10187    10257    10083 
    9690     9273     9047     9198     9599     9988    10308    10515 
   10513    10424    10488    10758    11106    11302    11213    10949 
   10579    10130     9752     9567     9562     9586     9589     9660 
    9729     9778    10066    10601    10943    10847    10558    10422 
   10562    10854    10959    10712    10407    10274    10245    10314 
   10423    10308     9907     9544     9486     9710    10071    10363 
   10440    10341    10176    10091    10118    10180    10351    10621 
   10809    10836    10721    10592    10598    10613    10455    10199 
   10085    10172    10184    10004     9865     9958    10237    10450 
   10382    10156    10017    10111    10403    10604    10542    10354 
   10215    10214    10312    10457    10669    10737    10411     9967 
    9857    10081    10250    10147    10085    10362    10665    10534 
   10044     9687     9682     9771     9842    10019    10277    10477 
   10575    10652    10724    10755    10724    10534    10242    10042 
    9957     9964    10062    10172    10141     9969     9925    10160 
   10462    10638    10831    11136    11261    11059    10790    10605 
   10476    10419    10366    10241    10080     9894     9684     9467 
    9304     9343     9560     9798     9960    10033    10195    10497 
   10679    10748    10859    10849    10687    10577    10528    10476 
   10385    10274    10304    10490    10662    10700    10573    10362 
   10185     9988     9775     9702     9798     9911     9904     9832 
    9853     9956    10042    10189    10489    10764    10782    10635 
   10561    10531    10482    10515    10647    10805    10843    10584 
   10222    10068    10015     9936     9927    10037    10251    10451 
   10405    10137     9877     9768     9895    10231    10558    10719 
   10650    10373    10153    10129    10103    10004     9973    10123 
   10388    10538    10465    10324    10288    10311    10336    10416 
   10505    10484    10377    10355    10420    10392    10316    10357 
   10435    10403    10245    10080    10022    10035    10041    10071 
   10179    10299    10354    10322    10226    10164    10118    10027 
    9995    10044    10157    10339    10408    10345    10416    10663 
   10895    10963    10797    10490    10215    10056    10017    10045 
   10106    10184    10214    10204    10274    10440    10557    10520 
   10362    10087     9745     9651    10007    10484    10636    10521 
   10423    10338    10154     9941     9907    10204    10658    10951 
   10972    10787    10508    10223    10034     9992    10015    10042 
   10114    10210    10264    10338    10470    10542    10478    10247 
    9917     9761     9856    10015    10107    10107    10114    10212 
   10372    10501    10509    10466    10540    10659    10627    10492 
   10386    10334    10350    10424    10481    10492    10466    10388 
   10276    10177    10049     9826     9595     9526     9705    10010 
   10183    10122    10035    10152    10488    10866    11003    10818 
   10585    10554    10647    10639    10500    10396    10369    10297 
   10145    10004     9969    10044    10164    10222    10199    10212 
   10323    10454    10524    10490    10374    10251    10169    10162 
   10266    10426    10474    10300     9960     9672     9653     9876 
   10129    10309    10439    10507    10505    10511    10544    10517 
   10397    10266    10250    10354    10417    10359    10293    10350 
   10520    10663    10682    10577    10345    10049     9842     9740 
    9667     9687     9836    10042    10308    10588    10697    10612 
   10436    10226    10083    10081    10162    10269    10322    10272 
   10215    10227    10354    10631    10898    10967    10812    10505 
   10166     9981    10033    10161    10187    10062     9888     9918 
   10239    10569    10565    10258    10023    10099    10354    10512 
   10484    10343    10162    10066    10133    10251    10320    10245 
