Origin Time       2024/06/23 22:54:00
Lat.              35.645
Long.             140.060
Depth. (km)       72
Mag.              4.1
Station Code      CHB018
Station Lat.      35.1520
Station Long.     140.3204
Station Height(m) 38
Record Time       2024/06/23 22:54:47
Sampling Freq(Hz) 100Hz
Duration Time(s)  60
Dir.              N-S
Scale Factor      7845(gal)/8223790
Max. Acc. (gal)   3.100
Last Correction   2024/06/23 22:54:47
Memo.             
[...]
    1354     1354     1351     1355     1354     1348     1356     1354 
    1341     1352     1359     1351     1355     1359     1352     1345 
    1355     1360     1350     1343     1344     1347     1355     1356 
    1348     1359     1360     1339     1343     1362     1355     1347 
    1352     1356     1355     1345     1344     1355     1356     1350 
    1348     1354     1355     1352     1355     1358     1355     1351 
    1343     1348     1355     1339     1337     1364     1364     1348 
    1351     1356     1348     1347     1354     1358     1354     1348 
    1347     1347     1356     1360     1352     1355     1354     1345 
    1345     1347     1358     1358     1344     1352     1362     1352 
    1345     1345     1351     1359     1359     1354     1350     1341 
    1341     1355     1360     1364     1358     1344     1354     1360 
    1348     1351     1359     1352     1341     1340     1354     1363 
    1351     1344     1358     1360     1355     1351     1345     1352 
    1355     1348     1359     1363     1345     1339     1350     1358 
    1359     1356     1355     1354     1354     1350     1345     1356 
    1362     1352     1354     1363     1358     1347     1350     1355 
    1354     1358     1354     1347     1355     1350     1340     1354 
    1359     1351     1352     1355     1358     1359     1354     1352 
    1362     1356     1347     1350     1352     1347     1348     1362 
    1362     1348     1344     1351     1356     1356     1354     1355 
    1356     1358     1354     1348     1354     1355     1347     1355 
    1366     1350     1341     1354     1352     1348     1355     1356 
    1356     1354     1345     1345     1351     1354     1358     1360 
    1360     1356     1348     1347     1356     1359     1350     1348 
    1350     1348     1350     1347     1350     1359     1360     1356 
    1362     1359     1345     1340     1345     1351     1356     1360 
    1364     1368     1356     1340     1350     1351     1340     1347 
    1356     1359     1355     1341     1345     1360     1359     1348 
    1351     1363     1358     1348     1354     1354     1350     1348 
    1350     1356     1351     1343     1354     1363     1359     1350 
    1341     1344     1355     1360     1359     1362     1359     1345 
    1341     1351     1352     1347     1350     1358     1359     1359 
    1356     1352     1355     1350     1339     1345     1356     1354 
    1358     1360     1355     1352     1350     1351     1350     1345 
    1350     1351     1354     1359     1350     1347     1354     1345 
    1350     1360     1359     1354     1345     1343     1352     1355 
    1345     1351     1363     1354     1347     1354     1348     1344 
    1351     1351     1355     1362     1350     1345     1359     1358 
    1343     1344     1359     1358     1344     1345     1356     1354 
    1348     1350     1354     1354     1347     1348     1358     1356 
    1351     1348     1340     1345     1358     1350     1351     1363 
    1345     1333     1355     1364     1355     1352     1348     1344 
    1348     1351     1363     1367     1355     1347     1341     1340 
    1350     1354     1352     1355     1354     1343     1341     1359 
    1366     1351     1344     1347     1348     1355     1358     1359 
    1360     1351     1343     1345     1348     1350     1350     1356 
    1359     1354     1350     1348     1359     1364     1351     1351 
    1358     1351     1348     1351     1345     1333     1336     1358 
    1359     1335     1321     1335     1367     1395     1395     1355 
    1304     1296     1332     1370     1409     1428     1385     1323 
    1297     1304     1345     1382     1367     1347     1340     1309 
    1258     1229     1309     1498     1586     1437     1210     1139 
    1298     1549     1692     1669     1537     1332     1113     1036 
    1219     1545     1687     1490     1192     1078     1146     1210 
    1215     1256     1336     1324     1189     1116     1304     1570 
    1556     1340     1273     1458     1694     1752     1593     1359 
    1210     1188     1244     1429     1679     1671     1305      919 
     841     1139     1561     1668     1329      897      804     1162 
    1617     1726     1468     1183     1155     1383     1668     1765 
    1580     1282     1101     1159     1431     1661     1552     1151 
     834      935     1447     1945     1931     1379      799      706 
    1181     1799     1927     1449      985     1070     1524     1784 
    1617     1301     1127     1038      939     1054     1544     1944 
    1663      916      517      885     1657     2107     1934     1495 
    1243     1331     1549     1544     1332     1197     1229     1314 
    1305     1188     1093     1094     1107     1113     1231     1447 
    1571     1505     1389     1397     1487     1549     1576     1540 
    1455     1439     1513     1606     1534     1129      665      668 
    1208     1772     1827     1367      866      751     1047     1455 
    1683     1674     1489     1290     1297     1494     1651     1568 
    1279     1104     1175     1282     1309     1259     1171     1221 
    1422     1530     1471     1394     1360     1321     1285     1308 
    1412     1551     1630     1548     1364     1271     1308     1350 
    1337     1321     1335     1328     1225     1088     1092     1231 
    1327     1325     1360     1532     1725     1717     1417     1054 
    1039     1421     1752     1718     1441     1185     1174     1416 
    1543     1332     1081     1108     1233     1109      837      810 
    1179     1761     2110     1944     1536     1296     1331     1529 
    1674     1597     1316     1035      996     1158     1277     1286 
    1262     1244     1197     1119     1096     1175     1360     1606 
    1772     1792     1668     1453     1266     1166     1220     1431 
    1555     1445     1258     1150     1152     1190     1174     1182 
    1300     1445     1507     1494     1516     1559     1452     1235 
    1181     1375     1594     1614     1475     1323     1169     1051 
    1115     1329     1433     1310     1159     1190     1356     1525 
    1563     1414     1285     1277     1277     1398     1669     1732 
    1470     1186     1093     1119     1154     1314     1602     1628 
    1223      769      679     1044     1624     2004     1931     1501 
    1097     1030     1273     1609     1744     1530     1291     1386 
    1630     1632     1309      988      954     1039     1073     1210 
    1433     1501     1371     1186     1094     1205     1428     1536 
    1513     1540     1610     1575     1448     1406     1456     1435 
    1296     1169     1231     1426     1440     1206     1038     1150 
    1378     1370     1080      931     1270     1852     2120     1865 
    1417     1197     1266     1360     1317     1201     1124     1134 
    1220     1386     1540     1426     1067      854     1034     1517 
    1941     1926     1513     1080      896     1035     1386     1688 
    1715     1536     1459     1552     1549     1348     1206     1256 
    1260     1117     1092     1277     1410     1279      986      858 
    1100     1567     1906     1875     1584     1278     1128     1306 
    1690     1740     1260      781      811     1270     1718     1787 
    1463     1069      893     1011     1279     1470     1487     1358 
    1206     1262     1568     1860     1876     1648     1378     1167 
    1097     1275     1587     1698     1362      760      464      850 
    1675     2191     1927     1297      915      873     1011     1279 
    1663     1966     1938     1556     1147     1138     1437     1475 
    1105      824     1020     1509     1792     1548      957      561 
     699     1233     1795     2065     2012     1772     1478     1314 
    1275     1200     1204     1355     1420     1325     1254     1305 
    1306     1032      639      598     1129     1850     2127     1876 
    1617     1651     1703     1472     1097      891      943     1155 
    1410     1582     1526     1270     1104     1201     1327     1255 
    1134     1181     1355     1483     1578     1709     1728     1480 
    1097      892     1081     1539     1927     2000     1626      945 
     540      785     1298     1540     1472     1429     1584     1748 
    1776     1698     1491     1186      904      783      896     1066 
    1080     1031     1209     1683     2107     2111     1815     1541 
    1328     1105      928      818      850     1155     1480     1476 
    1385     1525     1671     1566     1242      911      981     1536 
    2029     1985     1475      963      857     1129     1489     1584 
    1337     1151     1339     1663     1732     1463     1100      862 
     812      996     1366     1736     1949     1827     1341      912 
    1015     1526     1819     1502      907      723     1174     1668 
    1567     1101      849      972     1350     1738     1902     1912 
    1934     1937     1794     1534     1356     1254     1011      637 
     361      398      776     1237     1480     1475     1408     1479 
    1777     2155     2216     1671      814      352      676     1471 
    2065     2112     1750     1318     1115     1167     1344     1582 
    1710     1534     1135      800      792     1050     1202     1089 
     986     1270     1842     2111     1786     1209      839      858 
    1186     1629     1966     2042     1788     1271      830      888 
    1387     1811     1804     1439     1090     1117     1367     1381 
    1075      754      702      977     1389     1725     1895     1852 
    1582     1213      957      961     1263     1634     1694     1448 
    1266     1255     1337     1501     1552     1291     1071     1343 
    1794     1890     1695     1406     1059      885     1004     1156 
    1167     1227     1501     1745     1657     1354     1154     1169 
    1202     1007      723      746     1205     1860     2243     2034 
    1509     1208     1260     1426     1512     1490     1370     1198 
    1131     1185     1109      912     1009     1502     1952     1945 
    1463      966      958     1397     1777     1710     1370     1156 
    1044      953     1026     1229     1486     1765     1921     1863 
    1594     1300     1239     1212      913      557      585     1151 
    1863     2106     1811     1420     1162     1039     1097     1262 
    1355     1394     1495     1555     1374     1107     1073     1362 
    1861     2166     1918     1372     1024     1039     1227     1308 
    1277     1251     1189     1169     1263     1244     1136     1300 
    1710     1902     1552      892      535      712     1093     1387 
    1576     1753     1929     1894     1582     1387     1559     1780 
    1698     1275      760      533      751     1169     1402     1389 
    1429     1682     1915     1826     1409     1040     1046     1358 
    1683     1744     1514     1192      939      847      885      938 
    1026     1185     1382     1568     1633     1526     1390     1333 
    1308     1332     1528     1769     1728     1436     1252     1298 
    1426     1536     1545     1487     1543     1632     1437     1013 
     789      904     1036      961      884     1101     1618     2123 
    2234     1864     1375     1169     1221     1213     1007      772 
     720      905     1259     1590     1709     1706     1803     1945 
    1942     1798     1611     1410     1147      803      565      629 
     918     1273     1574     1732     1714     1478     1115      969 
    1213     1544     1614     1482     1387     1386     1331     1182 
    1166     1371     1576     1587     1363     1089     1001     1123 
    1435     1831     2023     1910     1637     1381     1252     1182 
    1063      930      899     1053     1271     1310     1146      976 
    1008     1328     1701     1788     1624     1455     1374     1410 
    1544     1633     1618     1561     1497     1391     1223     1073 
    1035     1094     1206     1320     1356     1297     1190     1132 
    1246     1467     1561     1478     1385     1462     1701     1848 
    1715     1385     1034      820      849     1078     1329     1344 
    1108      953     1165     1661     2079     2107     1815     1528 
    1426     1493     1603     1586     1416     1231     1123     1143 
    1316     1537     1653     1555     1278      978      750      711 
     986     1455     1931     2258     2234     1962     1798     1759 
    1460      762       56     -207      121      870     1615     2029 
    2100     1988     1794     1476      977      330     -311     -742 
    -760     -236      760     1971     3125     3993     4378     4131 
    3276     2169     1193      405     -187     -429     -228      411 
    1340     2173     2620     2639     2254     1647     1113      723 
     330     -168     -639     -760     -328      608     1764     2598 
    2763     2504     2223     2029     1792     1399      988      773 
     824     1107     1460     1717     1921     2154     2370     2504 
    2400     1856      978      153     -224      126     1140     2262 
    2849     2650     1973     1401     1159     1032      812      442 
      18     -206       17      823     2031     3105     3543     3240 
    2443     1471      430     -679    -1602    -1842    -1136      263 
    1869     3291     4251     4602     4261     3219     1838      723 
     149      -35      -95     -136       37      598     1325     1879 
    2112     2099     2042     2014     1929     1765     1566     1367 
    1228     1209     1316     1428     1370     1115      722      267 
      37      346     1166     2123     2705     2629     2103     1518 
    1036      599      255      270      770     1494     2035     2196 
    2047     1809     1656     1610     1564     1359      969      638 
     607      854     1185     1399     1441     1471     1634     1864 
    1996     1937     1707     1467     1393     1437     1409     1209 
     878      557      355      321      542     1007     1605     2222 
    2641     2646     2242     1640     1129      889      853      851 
     789      697      672      738      953     1409     1960     2382 
    2623     2691     2596     2430     2258     2027     1683     1227 
     615     -124     -747     -994     -846     -456       55      641 
    1266     1908     2458     2739     2745     2577     2324     2069 
    1803     1549     1472     1591     1687     1534     1124      797 
     985     1629     2176     2170     1674     1125      853      889 
    1101     1300     1455     1613     1633     1439     1215     1055 
     892      714      560      486      464      427      445      603 
     981     1667     2490     3068     3105     2533     1705     1175 
    1129     1366     1615     1690     1630     1576     1506     1305 
     977      681      510      468      634      993     1359     1584 
    1629     1606     1748     2092     2384     2377     2012     1453 
     936      525      175      -33       91      623     1371     2027 
    2353     2214     1696     1138      834      858     1124     1390 
    1367     1075      904     1193     1769     2172     2235     2092 
    1934     1908     1875     1563     1067      757      815     1059 
    1165     1042      827      653      673      901     1156     1399 
    1661     1833     1792     1533     1224     1038      981      989 
     974      935      978     1078     1108     1097     1247     1695 
    2238     2502     2396     2093     1792     1624     1572     1541 
    1491     1374     1098      669      318      410     1016     1806 
    2411     2586     2286     1730     1232     1031     1165     1401 
    1455     1181      639      178      162      602     1202     1664 
    1853     1795     1576     1298     1081     1073     1390     1894 
    2204     2216     2160     2135     2080     1872     1437      905 
     434      157      283      773     1300     1622     1679     1590 
    1536     1525     1445     1237      999      954     1171     1472 
    1756     1969     1919     1541     1063      769      768      992 
    1264     1398     1327     1178     1116     1181     1375     1655 
    1850     1830     1637     1436     1345     1320     1312     1350 
    1382     1331     1167      970      938     1166     1528     1826 
    1899     1765     1634     1653     1736     1609     1105      473 
     153      329      851     1382     1580     1251      484     -272 
    -476      199     1578     2932     3577     3422     2855     2332 
    1983     1630     1175      761      587      589      479      214 
     110      433     1119     1907     2610     3106     3240     2926 
    2207     1286      533      216      279      459      567      670 
     901     1221     1536     1763     1814     1691     1443     1121 
     924     1044     1371     1669     1854     1937     1938     1838 
    1582     1196      819      623      688      951     1354     1854 
    2361     2733     2812     2551     2076     1520      957      461 
     159      167      457      819     1026     1036      992     1040 
    1204     1390     1567     1722     1741     1494     1051      776 
     963     1479     1968     2143     1883     1397     1036      915 
     899      857      805      845     1027     1312     1615     1894 
    2157     2366     2382     2146     1806     1513     1263     1003 
     731      575      673      923     1156     1393     1688     2023 
    2238     2110     1624     1007      602      683     1148     1593 
    1680     1358      826      406      228      236      476     1036 
    1838     2629     3073     2998     2540     1976     1494     1158 
     976      947     1019     1062      928      646      444      507 
     816     1161     1325     1279     1175     1197     1424     1829 
    2257     2490     2442     2130     1614     1080      784      824 
    1013     1088     1028     1034     1196     1377     1462     1528 
    1640     1748     1729     1472     1131     1038     1262     1560 
    1636     1362      864      457      457      903     1568     2173 
    2428     2239     1822     1468     1309     1231     1082      900 
     841     1101     1671     2184     2299     1957     1370      853 
     560      433      379      429      700     1163     1609     1852 
    1830     1591     1302     1142     1151     1293     1513     1676 
    1657     1512     1394     1351     1363     1377     1339     1305 
    1317     1344     1385     1378     1273     1159     1165     1333 
    1595     1806     1857     1761     1636     1552     1456     1306 
    1151      970      731      603      770     1170     1528     1598 
    1431     1296     1383     1637     1852     1922     1910     1861 
    1733     1490     1159      880      812      950     1138     1227 
    1219     1266     1385     1458     1495     1543     1583     1584 
    1451     1166      936      962     1239     1540     1576     1317 
    1003      847      886     1047     1256     1458     1620     1759 
    1892     2020     2089     1977     1622     1107      634      371 
