Origin Time       2024/06/23 22:54:00
Lat.              35.645
Long.             140.060
Depth. (km)       72
Mag.              4.1
Station Code      CHB004
Station Lat.      35.8889
Station Long.     140.4903
Station Height(m) 36
Record Time       2024/06/23 22:54:47
Sampling Freq(Hz) 100Hz
Duration Time(s)  60
Dir.              E-W
Scale Factor      7845(gal)/8223790
Max. Acc. (gal)   2.086
Last Correction   2024/06/23 22:54:47
Memo.             
[...]
   -2771    -2646    -2208    -1761    -1459    -1352    -1566    -2114 
   -2704    -2948    -2754    -2295    -1734    -1325    -1347    -1715 
   -2092    -2282    -2254    -2080    -1917    -1841    -1838    -1996 
   -2245    -2266    -2106    -2114    -2232    -2196    -2060    -1948 
   -1869    -1829    -1804    -1865    -2106    -2330    -2309    -2139 
   -1984    -1804    -1593    -1601    -1950    -2289    -2330    -2259 
   -2185    -1952    -1695    -1706    -1956    -2295    -2556    -2573 
   -2367    -2010    -1561    -1302    -1443    -1817    -2195    -2506 
   -2631    -2455    -2054    -1652    -1503    -1665    -1976    -2300 
   -2512    -2484    -2228    -1899    -1709    -1726    -1792    -1850 
   -2022    -2274    -2425    -2442    -2416    -2335    -2074    -1684 
   -1466    -1548    -1752    -1976    -2207    -2344    -2317    -2120 
   -1827    -1622    -1630    -1858    -2216    -2502    -2571    -2469 
   -2278    -2035    -1841    -1783    -1849    -1987    -2087    -2038 
   -1894    -1730    -1582    -1559    -1707    -1964    -2301    -2571 
   -2528    -2195    -1775    -1510    -1659    -2164    -2637    -2799 
   -2574    -2092    -1667    -1507    -1611    -1880    -2146    -2220 
   -2023    -1705    -1530    -1626    -1903    -2247    -2587    -2751 
   -2575    -2160    -1742    -1524    -1628    -1979    -2292    -2382 
   -2303    -2177    -2053    -1942    -1872    -1826    -1760    -1740 
   -1853    -2011    -2135    -2251    -2295    -2196    -2000    -1819 
   -1791    -1898    -2015    -2195    -2394    -2369    -2088    -1765 
   -1580    -1617    -1865    -2215    -2438    -2330    -2020    -1790 
   -1718    -1861    -2277    -2687    -2667    -2230    -1714    -1320 
   -1206    -1502    -2045    -2548    -2787    -2648    -2305    -2003 
   -1752    -1591    -1641    -1813    -1934    -2006    -2085    -2220 
   -2409    -2447    -2209    -1881    -1540    -1224    -1250    -1717 
   -2270    -2610    -2620    -2350    -2072    -1933    -1910    -2092 
   -2398    -2471    -2251    -1914    -1506    -1235    -1391    -1887 
   -2389    -2641    -2552    -2257    -2004    -1907    -1911    -1977 
   -2015    -1935    -1892    -2010    -2133    -2154    -2157    -2127 
   -1950    -1764    -1823    -2029    -2147    -2162    -2074    -1939 
   -1906    -1976    -2091    -2230    -2346    -2311    -2011    -1615 
   -1449    -1574    -1902    -2319    -2566    -2535    -2373    -2162 
   -1958    -1837    -1773    -1769    -1890    -2046    -2092    -2049 
   -1983    -1850    -1717    -1806    -2107    -2272    -2177    -2085 
   -2062    -1988    -2011    -2219    -2378    -2388    -2293    -2042 
   -1633    -1275    -1301    -1783    -2307    -2439    -2238    -2052 
   -2041    -2091    -2074    -2000    -1911    -1826    -1821    -1989 
   -2230    -2327    -2241    -2080    -1960    -1939    -1987    -2027 
   -2069    -2139    -2234    -2323    -2258    -1996    -1776    -1786 
   -2026    -2328    -2354    -2018    -1637    -1509    -1713    -2093 
   -2320    -2247    -2050    -1864    -1741    -1884    -2269    -2505 
   -2471    -2288    -2002    -1745    -1597    -1502    -1509    -1699 
   -2018    -2365    -2674    -2783    -2511    -2010    -1656    -1587 
   -1737    -1999    -2197    -2230    -2111    -1877    -1734    -1868 
   -2061    -2053    -1999    -2092    -2178    -2083    -1912    -1884 
   -2035    -2238    -2401    -2436    -2207    -1777    -1501    -1615 
   -2002    -2382    -2562    -2486    -2222    -1861    -1495    -1333 
   -1557    -1989    -2255    -2253    -2091    -1857    -1732    -1884 
   -2219    -2527    -2706    -2695    -2427    -2012    -1709    -1599 
   -1624    -1756    -1939    -2041    -1995    -1977    -2114    -2165 
   -2092    -2178    -2282    -2103    -1823    -1709    -1769    -1914 
   -1988    -2022    -2204    -2371    -2305    -2227    -2226    -2020 
   -1661    -1497    -1561    -1626    -1723    -2095    -2610    -2816 
   -2614    -2251    -1830    -1447    -1329    -1584    -2092    -2485 
   -2466    -2177    -1890    -1702    -1760    -2185    -2741    -2971 
   -2712    -2176    -1595    -1105     -912    -1224    -1845    -2265 
   -2307    -2172    -1972    -1750    -1729    -2093    -2635    -2897 
   -2732    -2401    -2089    -1788    -1560    -1478    -1502    -1632 
   -1933    -2363    -2727    -2767    -2403    -1850    -1449    -1410 
   -1749    -2263    -2654    -2752    -2539    -2081    -1517    -1069 
    -994    -1347    -1934    -2521    -2851    -2745    -2327    -1981 
   -1968    -2176    -2359    -2351    -2072    -1660    -1367    -1301 
   -1483    -1817    -2089    -2239    -2327    -2396    -2454    -2407 
   -2181    -1895    -1661    -1520    -1563    -1804    -2053    -2241 
   -2413    -2440    -2308    -2166    -2062    -2123    -2365    -2363 
   -1925    -1408    -1127    -1219    -1648    -2164    -2605    -2759 
   -2370    -1838    -1771    -2004    -2204    -2457    -2690    -2639 
   -2324    -1923    -1522    -1209    -1161    -1467    -1938    -2292 
   -2444    -2405    -2114    -1679    -1563    -1973    -2467    -2670 
   -2609    -2272    -1734    -1371    -1398    -1763    -2319    -2698 
   -2596    -2173    -1803    -1676    -1722    -1811    -1906    -1958 
   -1935    -1962    -2118    -2340    -2579    -2663    -2430    -2038 
   -1651    -1297    -1162    -1405    -1917    -2434    -2633    -2411 
   -2080    -1918    -1791    -1701    -1933    -2339    -2439    -2228 
   -2085    -2092    -2031    -1865    -1807    -1977    -2200    -2243 
   -2158    -2057    -1872    -1641    -1551    -1683    -1962    -2174 
   -2226    -2366    -2647    -2663    -2284    -1918    -1741    -1583 
   -1516    -1675    -1872    -1977    -2119    -2351    -2562    -2612 
   -2416    -1998    -1509    -1194    -1225    -1540    -1991    -2532 
   -2963    -2948    -2525    -2022    -1653    -1532    -1688    -1958 
   -2170    -2259    -2139    -1876    -1691    -1645    -1780    -2119 
   -2390    -2369    -2191    -2012    -1868    -1848    -1993    -2174 
   -2246    -2251    -2305    -2299    -2053    -1676    -1413    -1398 
   -1651    -2060    -2420    -2560    -2413    -2015    -1598    -1506 
   -1782    -2128    -2274    -2196    -2112    -2169    -2257    -2274 
   -2235    -2168    -2064    -1899    -1772    -1838    -2030    -2099 
   -1962    -1749    -1545    -1377    -1432    -1888    -2547    -3021 
   -3094    -2724    -2092    -1586    -1428    -1537    -1842    -2228 
   -2322    -1975    -1552    -1355    -1460    -1883    -2405    -2704 
   -2631    -2307    -2111    -2145    -2060    -1790    -1632    -1694 
   -1890    -2133    -2322    -2366    -2236    -2046    -1977    -1976 
   -1887    -1815    -1883    -1988    -2069    -2065    -1902    -1788 
   -1934    -2162    -2266    -2280    -2262    -2184    -2054    -1975 
   -2045    -2204    -2269    -2157    -2007    -1981    -2047    -2084 
   -2088    -2066    -1960    -1846    -1853    -1869    -1777    -1742 
   -1992    -2450    -2799    -2812    -2466    -1923    -1433    -1221 
   -1329    -1509    -1560    -1632    -1864    -2131    -2324    -2486 
   -2627    -2639    -2447    -2181    -1965    -1749    -1557    -1520 
   -1629    -1823    -2135    -2536    -2816    -2790    -2498    -2083 
   -1642    -1382    -1472    -1776    -2073    -2273    -2338    -2315 
   -2251    -2089    -1838    -1671    -1638    -1570    -1410    -1409 
   -1769    -2300    -2620    -2693    -2716    -2620    -2290    -1966 
   -1876    -1934    -2011    -2100    -2185    -2155    -1949    -1736 
   -1691    -1740    -1768    -1871    -2097    -2245    -2181    -2027 
   -1900    -1811    -1849    -2084    -2320    -2308    -2073    -1838 
   -1765    -1863    -2014    -2058    -2006    -2053    -2227    -2365 
   -2397    -2324    -2096    -1765    -1547    -1593    -1863    -2192 
   -2393    -2369    -2157    -1875    -1695    -1815    -2222    -2613 
   -2729    -2536    -2130    -1634    -1175     -922    -1063    -1607 
   -2216    -2459    -2273    -2037    -2053    -2204    -2312    -2457 
   -2662    -2628    -2219    -1790    -1644    -1745    -2096    -2629 
   -2970    -2845    -2301    -1564     -915     -538     -573    -1140 
   -2080    -2911    -3180    -2799    -2111    -1506    -1179    -1262 
   -1717    -2220    -2463    -2327    -1952    -1719    -1806    -2053 
   -2361    -2625    -2671    -2551    -2432    -2313    -2230    -2251 
   -2269    -2234    -2165    -1968    -1691    -1514    -1482    -1620 
   -1879    -2118    -2262    -2226    -2023    -1872    -1844    -1823 
   -1771    -1709    -1691    -1730    -1702    -1625    -1772    -2173 
   -2470    -2461    -2280    -2038    -1737    -1483    -1416    -1506 
   -1593    -1574    -1559    -1694    -1961    -2343    -2762    -2930 
   -2783    -2581    -2485    -2440    -2377    -2313    -2209    -1937 
   -1606    -1551    -1767    -1894    -1849    -1948    -2335    -2866 
   -3373    -3618    -3423    -2957    -2527    -2273    -2208    -2255 
   -2268    -2108    -1737    -1254     -855     -665     -666     -823 
   -1161    -1549    -1695    -1463     -976     -533     -499     -978 
   -1746    -2550    -3237    -3649    -3649    -3434    -3422    -3576 
   -3488    -3069    -2512    -1958    -1475    -1080     -903    -1090 
   -1372    -1421    -1398    -1555    -1814    -2064    -2331    -2531 
   -2450    -2103    -1776    -1649    -1696    -1966    -2469    -2816 
   -2628    -2096    -1655    -1463    -1514    -1763    -2039    -2133 
   -1954    -1609    -1337    -1323    -1555    -1892    -2181    -2382 
   -2619    -2967    -3264    -3341    -3276    -3144    -2837    -2281 
   -1561     -858     -403     -375     -773    -1458    -2224    -2797 
   -2922    -2664    -2277    -1911    -1696    -1636    -1521    -1310 
   -1224    -1433    -1900    -2408    -2758    -2917    -2970    -3007 
   -3003    -2806    -2295    -1622    -1190    -1070     -945     -791 
    -922    -1328    -1698    -1996    -2349    -2656    -2762    -2644 
   -2497    -2515    -2529    -2313    -2004    -1829    -1783    -1830 
   -1917    -1910    -1834    -1838    -2010    -2328    -2644    -2755 
   -2528    -2081    -1703    -1553    -1742    -2157    -2376    -2357 
   -2300    -2123    -1791    -1524    -1572    -1898    -2107    -2057 
   -2070    -2247    -2261    -1954    -1556    -1296    -1196    -1301 
   -1779    -2525    -3034    -3015    -2698    -2299    -1863    -1517 
   -1360    -1383    -1566    -1827    -2046    -2239    -2539    -2921 
   -3188    -3273    -3204    -2875    -2219    -1456     -904     -708 
    -880    -1201    -1405    -1611    -1879    -1896    -1725    -1818 
   -2220    -2552    -2647    -2693    -2705    -2427    -1902    -1482 
   -1323    -1383    -1682    -2146    -2438    -2323    -2018    -1821 
   -1776    -1845    -1977    -2077    -2143    -2219    -2247    -2251 
   -2293    -2230    -2065    -1988    -2031    -2155    -2297    -2384 
   -2424    -2305    -1895    -1422    -1233    -1379    -1773    -2347 
   -2872    -3029    -2801    -2359    -1804    -1456    -1626    -2029 
   -2285    -2419    -2365    -1910    -1247     -843     -885    -1243 
   -1706    -2164    -2515    -2539    -2277    -2137    -2344    -2727 
   -2956    -2845    -2517    -2093    -1584    -1340    -1665    -2253 
   -2728    -2963    -2798    -2114    -1111     -382     -400    -1090 
   -2050    -2787    -2987    -2662    -2002    -1417    -1197    -1293 
   -1653    -2124    -2488    -2598    -2286    -1809    -1615    -1642 
   -1750    -1996    -2301    -2479    -2357    -1968    -1652    -1615 
   -1765    -1992    -2177    -2214    -2103    -1817    -1518    -1570 
   -1856    -2047    -2205    -2327    -2282    -2138    -2093    -2385 
   -2833    -3005    -2860    -2451    -1840    -1394    -1414    -1879 
   -2516    -2948    -3037    -2911    -2592    -2049    -1574    -1405 
   -1456    -1634    -1823    -1879    -1752    -1530    -1409    -1462 
   -1679    -2018    -2416    -2775    -2741    -2334    -2124    -2199 
   -2349    -2567    -2702    -2635    -2330    -1757    -1154     -672 
    -367     -477     -981    -1528    -1872    -2058    -2238    -2376 
   -2384    -2370    -2494    -2683    -2695    -2521    -2423    -2434 
   -2305    -2068    -1962    -1952    -1938    -1871    -1664    -1416 
   -1271    -1243    -1370    -1744    -2331    -2849    -2987    -2701 
   -2180    -1792    -1786    -1930    -2096    -2371    -2425    -2173 
   -2006    -1728    -1155     -992    -1418    -1810    -2122    -2423 
   -2454    -2359    -2289    -2284    -2563    -2955    -3037    -2670 
   -1989    -1360    -1017     -919    -1011    -1210    -1498    -1907 
   -2382    -2887    -3219    -3160    -2911    -2616    -2123    -1659 
   -1595    -1749    -1769    -1795    -2089    -2465    -2528    -2322 
   -2176    -1987    -1545    -1107     -904     -949    -1235    -1615 
   -1904    -2118    -2262    -2236    -2178    -2278    -2411    -2504 
   -2593    -2560    -2389    -2143    -1892    -1767    -1744    -1686 
   -1549    -1364    -1263    -1425    -1877    -2350    -2502    -2479 
   -2559    -2574    -2520    -2701    -3032    -3240    -3306    -3199 
   -2744    -2003    -1401    -1223    -1332    -1549    -1796    -1791 
   -1363     -815     -499     -565    -1073    -1887    -2567    -2766 
   -2612    -2347    -2099    -2101    -2450    -2883    -3014    -2705 
   -2035    -1053     -121      157     -322    -1242    -2276    -3141 
   -3619    -3732    -3605    -3173    -2536    -1964    -1572    -1533 
   -1799    -2052    -2226    -2421    -2479    -2070    -1368     -930 
    -838    -1059    -1537    -1888    -2073    -2419    -2809    -2902 
   -2767    -2558    -2193    -1750    -1448    -1331    -1414    -1852 
   -2501    -2835    -2708    -2400    -2061    -1750    -1533    -1470 
   -1588    -1830    -2077    -2235    -2308    -2373    -2470    -2555 
   -2577    -2359    -1798    -1278    -1066    -1044    -1328    -1938 
   -2516    -2810    -2814    -2646    -2450    -2288    -2199    -2177 
   -2141    -2035    -1838    -1560    -1351    -1432    -1775    -2172 
   -2405    -2266    -1956    -1879    -2038    -2316    -2601    -2656 
   -2401    -1933    -1409    -1148    -1316    -1671    -2124    -2751 
   -3226    -3202    -2655    -1768    -1013     -661     -525     -626 
   -1113    -1837    -2512    -2825    -2772    -2713    -2731    -2673 
   -2496    -2153    -1767    -1499    -1213    -1017    -1256    -1780 
   -2262    -2636    -2764    -2597    -2350    -2146    -2077    -2203 
   -2309    -2219    -1991    -1678    -1372    -1262    -1377    -1564 
   -1714    -1929    -2346    -2747    -2833    -2712    -2529    -2263 
   -2003    -1877    -1854    -1796    -1656    -1494    -1383    -1425 
   -1605    -1713    -1813    -2195    -2771    -3191    -3250    -2876 
   -2180    -1590    -1440    -1487    -1514    -1669    -1885    -2087 
   -2331    -2440    -2424    -2488    -2463    -2253    -2061    -1836 
   -1498    -1219    -1053    -1082    -1433    -2025    -2664    -3049 
   -2971    -2629    -2281    -1972    -1776    -1730    -1763    -1977 
   -2463    -2832    -2704    -2262    -1791    -1417    -1344    -1628 
   -2011    -2277    -2413    -2430    -2320    -2231    -2342    -2467 
   -2326    -2083    -1868    -1543    -1290    -1314    -1443    -1637 
   -1856    -1894    -1892    -2041    -2170    -2269    -2435    -2566 
   -2632    -2644    -2523    -2404    -2470    -2532    -2338    -1915 
   -1367     -828     -591     -804    -1271    -1775    -2228    -2493 
   -2511    -2431    -2358    -2357    -2489    -2594    -2448    -2072 
   -1570    -1094     -912    -1090    -1478    -1950    -2311    -2378 
   -2150    -1767    -1539    -1690    -2045    -2316    -2494    -2660 
   -2697    -2577    -2485    -2455    -2430    -2357    -2130    -1827 
   -1597    -1398    -1314    -1487    -1736    -1902    -2158    -2465 
   -2573    -2600    -2671    -2587    -2344    -2138    -1934    -1760 
   -1734    -1702    -1609    -1606    -1630    -1706    -1999    -2292 
   -2340    -2309    -2326    -2300    -2234    -2191    -2177    -2178 
   -2079    -1749    -1367    -1190    -1254    -1501    -1818    -2091 
   -2274    -2301    -2261    -2286    -2332    -2384    -2461    -2498 
   -2466    -2401    -2346    -2234    -1993    -1683    -1398    -1231 
   -1217    -1336    -1578    -1875    -2130    -2332    -2554    -2714 
   -2701    -2635    -2511    -2176    -1815    -1613    -1501    -1530 
   -1799    -2181    -2482    -2543    -2362    -2188    -2147    -2083 
   -1988    -1935    -1803    -1547    -1297    -1159    -1178    -1355 
   -1638    -1894    -2046    -2222    -2455    -2620    -2668    -2573 
   -2320    -2007    -1740    -1603    -1726    -2097    -2502    -2782 
   -2855    -2690    -2401    -2093    -1772    -1447    -1198    -1086 
   -1111    -1290    -1618    -1975    -2209    -2347    -2521    -2689 
   -2731    -2629    -2405    -2133    -1933    -1895    -2025    -2293 
   -2639    -2905    -2963    -2821    -2486    -1979    -1497    -1209 
   -1120    -1188    -1337    -1509    -1746    -2072    -2398    -2641 
   -2732    -2569    -2173    -1722    -1416    -1371    -1560    -1881 
   -2180    -2269    -2164    -1992    -1818    -1718    -1737    -1833 
   -1954    -2108    -2327    -2527    -2581    -2544    -2513    -2469 
   -2349    -2095    -1752    -1432    -1116     -853     -838    -1111 
   -1543    -2057    -2554    -2856    -2909    -2814    -2654    -2444 
   -2207    -2029    -1995    -2008    -1887    -1630    -1368    -1174 
   -1117    -1270    -1588    -1992    -2380    -2610    -2627    -2498 
   -2331    -2211    -2193    -2251    -2290    -2263    -2214    -2193 
   -2164    -2114    -2147    -2269    -2365    -2363    -2212    -1966 
   -1755    -1566    -1439    -1507    -1760    -2091    -2417    -2700 
   -2884    -2801    -2403    -1917    -1516    -1236    -1147    -1281 
   -1543    -1787    -1961    -2069    -2073    -2030    -2069    -2192 
   -2284    -2195    -1926    -1707    -1660    -1792    -2108    -2416 
   -2547    -2523    -2323    -2031    -1895    -1946    -2053    -2150 
   -2181    -2142    -2120    -2177    -2273    -2330    -2344    -2312 
   -2145    -1896    -1769    -1822    -1981    -2124    -2084    -1829 
   -1497    -1227    -1088    -1088    -1205    -1401    -1661    -1960 
   -2220    -2428    -2668    -2899    -2978    -2901    -2764    -2563 
   -2203    -1725    -1347    -1175    -1151    -1224    -1389    -1652 
   -1962    -2270    -2524    -2606    -2556    -2585    -2693    -2727 
   -2671    -2566    -2350    -2002    -1678    -1553    -1613    -1728 
   -1780    -1752    -1752    -1825    -1911    -1984    -2049    -2091 
   -2030    -1873    -1740    -1632    -1503    -1433    -1574    -1954 
   -2419    -2736    -2794    -2652    -2409    -2155    -1992    -1956 
   -2060    -2284    -2478    -2583    -2660    -2631    -2430    -2174 
   -2003    -1950    -1941    -1884    -1786    -1678    -1590    -1572 
   -1632    -1755    -1902    -1946    -1856    -1745    -1703    -1761 
   -1899    -2070    -2238    -2331    -2338    -2351    -2398    -2377 
   -2280    -2254    -2241    -2035    -1741    -1595    -1598    -1652 
