Origin Time       2024/06/23 22:54:00
Lat.              35.645
Long.             140.060
Depth. (km)       72
Mag.              4.1
Station Code      CHB022
Station Lat.      35.3033
Station Long.     139.8555
Station Height(m) 12
Record Time       2024/06/23 22:54:46
Sampling Freq(Hz) 100Hz
Duration Time(s)  60
Dir.              U-D
Scale Factor      7845(gal)/8223790
Max. Acc. (gal)   3.870
Last Correction   2024/06/23 22:54:46
Memo.             
[...]
   12356    12353    12349    12352    12352    12348    12351    12357 
   12356    12355    12353    12347    12349    12357    12355    12353 
   12356    12351    12353    12357    12351    12351    12357    12356 
   12356    12356    12349    12353    12361    12353    12351    12356 
   12353    12352    12351    12341    12347    12355    12352    12351 
   12353    12351    12349    12348    12349    12353    12352    12352 
   12361    12367    12355    12345    12348    12351    12353    12359 
   12359    12357    12356    12355    12357    12360    12353    12351 
   12352    12352    12356    12361    12359    12356    12355    12353 
   12357    12355    12348    12349    12353    12353    12353    12356 
   12359    12360    12355    12347    12347    12349    12351    12355 
   12356    12356    12357    12359    12353    12348    12347    12349 
   12355    12357    12356    12353    12353    12355    12355    12352 
   12352    12353    12353    12356    12357    12353    12356    12359 
   12356    12353    12348    12347    12356    12359    12353    12356 
   12359    12352    12347    12351    12351    12355    12363    12361 
   12359    12361    12355    12347    12352    12353    12348    12351 
   12356    12359    12360    12357    12356    12353    12348    12351 
   12355    12356    12356    12355    12355    12359    12357    12352 
   12355    12357    12345    12344    12353    12360    12366    12363 
   12351    12348    12352    12348    12348    12357    12353    12349 
   12361    12366    12356    12353    12351    12351    12356    12357 
   12356    12360    12357    12353    12353    12353    12352    12352 
   12355    12356    12353    12353    12355    12355    12353    12351 
   12352    12353    12352    12351    12349    12348    12351    12352 
   12355    12356    12348    12343    12352    12356    12353    12359 
   12363    12357    12359    12357    12352    12352    12351    12351 
   12356    12360    12360    12355    12349    12351    12348    12345 
   12352    12359    12357    12353    12353    12355    12356    12357 
   12356    12353    12352    12351    12351    12353    12353    12352 
   12352    12353    12353    12353    12356    12356    12352    12351 
   12353    12353    12353    12353    12352    12351    12352    12355 
   12357    12356    12356    12357    12347    12340    12347    12352 
   12356    12366    12363    12352    12347    12343    12344    12351 
   12349    12351    12359    12356    12353    12356    12355    12352 
   12359    12359    12351    12355    12360    12352    12347    12352 
   12355    12357    12359    12352    12351    12353    12351    12352 
   12357    12355    12356    12360    12357    12355    12355    12351 
   12353    12360    12357    12356    12363    12363    12353    12347 
   12347    12352    12357    12353    12349    12353    12359    12356 
   12352    12357    12357    12347    12348    12359    12356    12352 
   12359    12363    12357    12355    12356    12356    12353    12351 
   12351    12359    12361    12348    12349    12360    12351    12348 
   12356    12353    12349    12353    12353    12355    12353    12347 
   12347    12352    12353    12352    12355    12355    12356    12356 
   12349    12349    12355    12351    12352    12357    12357    12355 
   12355    12356    12356    12355    12355    12355    12353    12348 
   12351    12359    12360    12359    12357    12355    12351    12349 
   12355    12356    12352    12352    12353    12357    12359    12355 
   12353    12353    12353    12352    12355    12356    12356    12355 
   12356    12361    12370    12375    12376    12375    12370    12356 
   12344    12341    12343    12348    12357    12349    12313    12286 
   12294    12316    12332    12343    12345    12351    12384    12447 
   12492    12480    12390    12233    12074    12033    12133    12226 
   12248    12322    12433    12453    12452    12557    12757    13012 
   13090    12610    11840    11596    11890    12060    12025    12121 
   12436    12883    13086    12810    12660    13007    13022    12258 
   11524    11341    11614    12434    13105    12526    11655    12019 
   12487    11696    11091    12043    13423    13867    13352    12387 
   11854    12418    12961    12183    11341    11657    11912    11781 
   12455    13354    13251    12702    12402    12002    11719    12375 
   13265    12849    11730    11569    12216    12669    12641    12256 
   11996    12150    12210    11978    12031    12583    13146    13200 
   12775    12502    12518    12208    11697    11735    12318    12729 
   12461    12037    12205    12532    12437    12309    12314    12136 
   11958    12077    12433    12908    13085    12610    12069    12062 
   12198    12202    12414    12785    12815    12320    11777    11772 
   12166    12448    12515    12521    12530    12501    12502    12661 
   12706    12370    12067    12078    11986    11857    12237    12742 
   12668    12355    12317    12333    12209    12175    12279    12274 
   12155    12137    12237    12382    12627    12834    12696    12375 
   12212    12102    12078    12376    12587    12316    12124    12424 
   12626    12322    12151    12542    12768    12457    12289    12397 
   12349    12260    12201    12074    12231    12564    12502    12334 
   12425    12294    11961    12229    12939    12879    12044    11804 
   12328    12506    12229    12195    12523    12795    12557    12079 
   12114    12407    12321    12204    12312    12360    12503    12777 
   12738    12475    12278    11989    11731    11970    12530    12699 
   12432    12340    12472    12478    12409    12290    12074    12081 
   12363    12533    12583    12623    12403    12129    12249    12343 
   12106    12109    12330    12224    12150    12510    12742    12550 
   12383    12349    12241    12221    12384    12469    12436    12555 
   12745    12592    12266    12276    12321    12001    11830    12117 
   12442    12515    12536    12825    13008    12407    11616    11692 
   12247    12440    12488    12712    12704    12237    11857    12020 
   12302    12209    12162    12553    12829    12685    12587    12663 
   12573    12170    11781    11847    12139    12247    12411    12679 
   12582    12278    12336    12621    12611    12255    12043    12287 
   12438    12139    12193    12725    12606    12037    12159    12533 
   12361    12127    12221    12428    12691    12841    12603    12266 
   12271    12499    12521    12155    11720    11800    12356    12577 
   12245    12141    12510    12688    12384    12085    12324    12810 
   12700    12255    12514    12970    12387    11568    11832    12386 
   12274    12232    12685    12807    12275    11848    12044    12442 
   12422    12108    12266    12838    12757    12124    12247    12919 
   12766    12029    11944    12437    12694    12665    12576    12287 
   11874    11709    11865    12217    12629    12804    12629    12401 
   12275    12174    12226    12461    12540    12328    12170    12275 
   12317    12205    12336    12546    12422    12287    12484    12795 
   12930    12609    12021    11986    12434    12395    12060    12291 
   12710    12557    12129    12055    12348    12475    12167    12046 
   12519    12727    12096    11628    12058    12467    12140    11912 
   12440    12919    12623    12210    12483    12798    12182    11449 
   11908    12775    12727    12291    12375    12691    12584    12021 
   11778    12314    12764    12584    12615    13039    13051    12677 
   12282    11811    11670    11983    12055    12071    12552    12749 
   12460    12560    12610    11929    11778    12765    13204    12382 
   11794    12271    12869    12672    11921    11553    12147    12970 
   12808    12013    11873    12356    12631    12680    12691    12326 
   11970    12488    12941    12208    11828    12676    12833    11846 
   11543    12321    12897    12532    11874    11973    12480    12433 
   12286    12617    12739    12460    12294    12116    11970    12235 
   12463    12326    12235    12243    12314    12577    12690    12461 
   12222    11970    11650    11668    12143    12687    12987    12861 
   12420    12279    12619    12714    12437    12545    12746    12137 
   11384    11603    12229    12329    12252    12448    12463    12191 
   12372    12865    12645    12071    12299    12800    12513    12079 
   12391    12819    12577    12087    12131    12559    12491    11940 
   11917    12518    12853    12793    12877    13084    13043    12735 
   12332    12056    12102    12245    12313    12428    12255    11859 
   12127    12611    12199    11639    11853    12270    12441    12356 
   12127    12275    12629    12526    12525    12972    12734    11765 
   11530    12131    12425    12232    12154    12372    12482    12171 
   11861    11982    12272    12550    12758    12571    12328    12641 
   12835    12199    11593    11847    12417    12602    12606    12853 
   12957    12415    11962    12468    13232    13138    12326    11709 
   11790    12216    12347    12193    12249    12507    12488    12263 
   12360    12676    12625    12127    11726    11850    12201    12318 
   12329    12388    12464    12761    13072    12825    12310    12106 
   12032    11885    11896    12093    12208    12293    12507    12654 
   12769    13022    13041    12688    12441    12318    12029    11873 
   11975    11916    11739    11751    11913    12267    12749    12914 
   12704    12617    12761    12629    12110    12028    12649    12942 
   12598    12452    12391    11766    11286    11770    12306    12060 
   11923    12577    13296    13258    12704    12548    12792    12545 
   12032    12166    12498    12285    12021    12016    11823    11692 
   12128    12548    12413    12384    12789    12877    12444    12312 
   12719    12653    11781    11475    12262    12742    12411    12332 
   12727    12811    12464    12213    12152    12028    11982    12187 
   12253    12112    12348    12834    12814    12480    12494    12583 
   12297    12032    12274    12703    12692    12255    12047    12237 
   12249    12050    12297    12815    12703    12101    12012    12465 
   12590    12194    11919    12087    12260    12113    12050    12459 
   12961    12958    12609    12510    12618    12449    12054    11865 
   12046    12421    12591    12433    12432    12609    12347    11990 
   12220    12460    12253    12116    12216    12361    12465    12309 
   12021    12145    12553    12488    11959    11967    12772    13213 
   12781    12430    12505    12445    12317    12217    11824    11676 
   12302    12820    12739    12760    12796    12360    12110    12270 
   11954    11512    12127    13088    12958    12259    12305    12876 
   12796    11965    11527    11985    12426    12193    12025    12537 
   12904    12536    12293    12591    12567    12085    11992    12290 
   12357    12259    12263    12178    11971    11877    11965    12253 
   12567    12631    12818    13377    13539    12988    12492    12275 
   11939    11622    11550    11561    11758    12236    12502    12424 
   12521    12725    12528    12023    11700    11867    12290    12433 
   12501    12972    13369    13089    12505    12235    12212    12005 
   11739    11896    12356    12694    12888    12897    12623    12355 
   12177    11778    11408    11668    12367    12862    13028    13042 
   12914    12626    12297    12123    12093    12064    12154    12447 
   12618    12471    12287    12183    11897    11542    11537    11865 
   12326    12872    13257    13203    12889    12768    12843    12700 
   12371    12209    12051    11765    11803    12170    12241    12073 
   12214    12468    12359    12248    12629    12950    12503    11836 
   11884    12409    12637    12602    12750    12860    12386    11573 
   11200    11479    12021    12483    12769    12987    13123    12928 
   12420    11969    11896    12187    12390    12310    12506    12997 
   12962    12479    12256    12069    11670    11550    11836    12314 
   12830    12974    12685    12447    12395    12401    12426    12312 
   12073    11959    11925    11836    11965    12526    13099    13126 
   12735    12542    12731    12865    12657    12348    12213    12237 
   12209    12024    11971    12190    12206    11947    12074    12536 
   12550    12228    12403    12935    12919    12372    12027    11916 
   11619    11315    11587    12414    13090    13235    13239    13289 
   12861    11853    11203    11574    12312    12498    12239    12121 
   12275    12418    12231    11950    12306    13184    13741    13791 
   13441    12515    11275    10386    10039    10087    10631    11728 
   13012    14130    14993    15384    15165    14624    13790    12328 
   10746     9869     9433     9201     9814    11200    12537    13621 
   14372    14397    13788    12910    12047    11759    12195    12834 
   13437    13798    13385    12081    10353     9031     8949    10173 
   12005    13734    15102    15905    15583    14060    12347    11151 
   10181     9470     9526    10226    11226    12622    14192    15157 
   15211    14841    14254    13107    11610    10551    10354    10839 
   11485    12021    12557    12726    11981    10810    10349    11164 
   12865    14569    15651    15939    15315    13636    11223     9120 
    8297     8758     9930    11616    13656    15124    15269    14497 
   13435    12306    11572    11691    12272    12704    12903    12889 
   12663    12231    11460    10654    10482    10883    11364    12033 
   12988    13629    13620    13271    12654    11792    11271    11407 
   11724    11961    12409    12953    13015    12633    12510    12930 
   13486    13911    14234    14084    13058    11689    10733    10037 
    9396     9454    10590    12124    13277    13977    14391    14319 
   13487    12128    11007    10855    11512    11989    11921    11994 
   12428    12692    12773    13116    13691    14058    13968    13626 
   13369    13011    12248    11650    11712    11728    11232    10941 
   11253    11576    11587    11765    12403    12962    12965    12780 
   12704    12290    11596    11511    12008    12101    11777    11842 
   12370    12779    12931    13374    14196    14520    13941    13046 
   12258    11604    11134    10917    11064    11626    12384    13113 
   13652    13718    13274    12753    12405    12078    11637    11049 
   10500    10331    10654    11466    12660    13660    13975    13787 
   13354    12665    11975    11661    11562    11308    11044    11107 
   11496    12051    12648    13185    13591    13825    13944    13942 
   13614    12958    12297    11900    11773    11689    11616    11874 
   12295    12332    12186    12272    12263    11929    11599    11446 
   11535    11931    12318    12432    12525    12815    13116    13243 
   13278    13294    13171    12822    12367    12121    12293    12523 
   12379    12055    11763    11442    11348    11593    11846    12168 
   12804    13414    13533    13046    12236    11649    11450    11439 
   11708    12402    13142    13420    13296    13230    13279    13039 
   12482    12060    11901    11793    11747    11880    12125    12359 
   12390    12160    11948    11832    11713    11908    12366    12478 
   12387    12530    12505    12175    12040    12013    11838    11900 
   12383    12966    13356    13333    12947    12555    12172    11684 
   11487    11939    12671    13068    12955    12660    12490    12302 
   11997    11915    12162    12351    12248    11986    11804    11909 
   12287    12684    12908    12919    12748    12565    12444    12235 
   12098    12326    12649    12725    12784    13027    13220    13042 
   12425    11809    11620    11649    11672    11878    12141    11998 
   11483    11187    11492    12127    12640    13035    13549    14004 
   13953    13363    12669    12243    12078    11908    11643    11534 
   11697    11977    12255    12426    12395    12309    12291    12237 
   12224    12405    12571    12561    12561    12537    12307    12008 
   11757    11450    11217    11373    11884    12422    12933    13463 
   13744    13560    13078    12563    12163    11839    11445    11168 
   11372    11925    12436    12829    13108    13104    12712    12181 
   11978    12191    12428    12645    13103    13504    13302    12561 
   11805    11392    11291    11419    11897    12707    13405    13583 
   13301    12908    12629    12345    11844    11292    11099    11263 
   11452    11703    12285    12951    13309    13505    13695    13595 
   13130    12663    12401    12178    11890    11688    11659    11754 
   11912    12064    12252    12559    12798    12723    12434    12205 
   12093    11983    11862    11847    11944    11983    11894    11871 
   12031    12198    12298    12438    12564    12611    12744    12947 
   12985    12912    12924    12904    12675    12402    12266    12124 
   11890    11789    11915    12104    12337    12587    12641    12525 
   12453    12398    12275    12091    11931    11989    12233    12299 
   12185    12260    12514    12672    12723    12737    12712    12625 
   12425    12266    12307    12313    12249    12568    13162    13439 
   13352    13092    12708    12406    12124    11587    11121    11179 
   11479    11576    11522    11584    11851    12145    12224    12186 
   12361    12696    12937    13207    13601    13809    13590    13053 
   12398    11769    11232    10858    10818    11168    11689    12241 
   12814    13269    13560    13687    13486    13109    12949    12870 
   12591    12295    12113    11851    11469    11179    11222    11666 
   12285    12835    13294    13535    13312    12731    12077    11376 
   10793    10750    11287    12042    12687    13024    13101    13015 
   12595    11871    11394    11541    12027    12478    12931    13374 
   13485    13203    12799    12386    12025    11920    12056    12202 
   12330    12536    12785    12939    12798    12333    11834    11562 
   11493    11581    11893    12328    12603    12679    12757    12800 
   12569    12127    11786    11657    11638    11781    12214    12780 
   13150    13284    13374    13440    13294    12910    12521    12251 
   11961    11637    11549    11743    11952    12167    12546    12860 
   12870    12766    12715    12606    12374    12162    12114    12112 
   11990    11932    12091    12190    12096    12051    12125    12256 
   12428    12526    12619    12845    12907    12596    12239    12006 
   11739    11492    11431    11615    12113    12822    13379    13522 
   13321    12973    12501    11935    11578    11628    11847    11962 
   12073    12333    12615    12788    12881    12985    13111    13090 
   12874    12684    12515    12151    11766    11701    11844    11936 
   12004    12059    12025    12046    12168    12212    12259    12451 
   12598    12627    12644    12569    12448    12433    12417    12399 
   12545    12687    12676    12672    12602    12329    12133    12162 
   12125    11923    11778    11820    12015    12302    12607    12833 
   12874    12683    12316    11952    11778    11789    11915    12133 
