Origin Time       2024/06/23 22:54:00
Lat.              35.645
Long.             140.060
Depth. (km)       72
Mag.              4.1
Station Code      CHB015
Station Lat.      35.3738
Station Long.     139.9199
Station Height(m) 2
Record Time       2024/06/23 22:54:46
Sampling Freq(Hz) 100Hz
Duration Time(s)  60
Dir.              E-W
Scale Factor      7845(gal)/8223790
Max. Acc. (gal)   5.531
Last Correction   2024/06/23 22:54:46
Memo.             
[...]
   -8803    -8797    -8793    -8803    -8846    -8857    -8824    -8808 
   -8797    -8784    -8799    -8830    -8837    -8837    -8851    -8849 
   -8812    -8785    -8799    -8826    -8830    -8818    -8829    -8856 
   -8842    -8806    -8807    -8831    -8831    -8822    -8818    -8814 
   -8819    -8835    -8835    -8815    -8812    -8838    -8849    -8838 
   -8829    -8819    -8819    -8827    -8831    -8834    -8826    -8800 
   -8775    -8775    -8804    -8834    -8845    -8850    -8846    -8816 
   -8777    -8761    -8775    -8804    -8837    -8847    -8827    -8803 
   -8797    -8792    -8789    -8820    -8853    -8850    -8845    -8838 
   -8819    -8808    -8807    -8811    -8834    -8842    -8814    -8804 
   -8815    -8818    -8838    -8872    -8866    -8831    -8811    -8797 
   -8802    -8830    -8843    -8839    -8837    -8827    -8808    -8808 
   -8823    -8804    -8775    -8796    -8829    -8837    -8853    -8861 
   -8835    -8807    -8804    -8804    -8810    -8826    -8829    -8824 
   -8824    -8830    -8829    -8816    -8814    -8810    -8823    -8854 
   -8849    -8824    -8814    -8820    -8830    -8820    -8810    -8820 
   -8826    -8816    -8811    -8811    -8815    -8829    -8834    -8820 
   -8824    -8833    -8820    -8807    -8804    -8818    -8835    -8829 
   -8820    -8827    -8829    -8818    -8810    -8806    -8808    -8824 
   -8829    -8800    -8807    -8851    -8849    -8819    -8818    -8830 
   -8837    -8835    -8818    -8816    -8847    -8846    -8811    -8810 
   -8814    -8795    -8791    -8793    -8799    -8842    -8883    -8869 
   -8822    -8791    -8796    -8803    -8802    -8815    -8837    -8849 
   -8841    -8824    -8819    -8812    -8816    -8834    -8830    -8812 
   -8823    -8853    -8843    -8814    -8814    -8811    -8802    -8819 
   -8834    -8838    -8849    -8850    -8829    -8816    -8827    -8815 
   -8781    -8781    -8823    -8854    -8843    -8810    -8802    -8819 
   -8827    -8824    -8824    -8829    -8831    -8843    -8843    -8804 
   -8784    -8802    -8796    -8781    -8814    -8858    -8866    -8845 
   -8812    -8796    -8816    -8830    -8819    -8810    -8814    -8820 
   -8823    -8807    -8799    -8822    -8837    -8810    -8807    -8853 
   -8880    -8861    -8824    -8799    -8793    -8802    -8807    -8807 
   -8814    -8830    -8826    -8814    -8834    -8853    -8822    -8791 
   -8797    -8812    -8829    -8837    -8824    -8820    -8823    -8814 
   -8803    -8806    -8812    -8823    -8829    -8816    -8823    -8846 
   -8842    -8820    -8804    -8807    -8820    -8835    -8849    -8839 
   -8823    -8830    -8842    -8837    -8831    -8824    -8803    -8808 
   -8822    -8814    -8816    -8818    -8804    -8808    -8829    -8842 
   -8835    -8814    -8810    -8831    -8835    -8822    -8831    -8845 
   -8847    -8853    -8837    -8810    -8804    -8804    -8807    -8820 
   -8820    -8830    -8851    -8842    -8803    -8784    -8789    -8791 
   -8799    -8826    -8835    -8822    -8818    -8827    -8839    -8830 
   -8789    -8783    -8822    -8839    -8843    -8866    -8865    -8812 
   -8775    -8785    -8812    -8827    -8826    -8829    -8847    -8858 
   -8850    -8830    -8784    -8766    -8811    -8838    -8834    -8849 
   -8842    -8814    -8822    -8829    -8814    -8819    -8837    -8841 
   -8823    -8803    -8808    -8820    -8822    -8831    -8842    -8831 
   -8811    -8799    -8803    -8816    -8820    -8824    -8834    -8830 
   -8830    -8827    -8806    -8802    -8818    -8818    -8823    -8847 
   -8861    -8851    -8816    -8769    -8752    -8793    -8866    -8877 
   -8819    -8803    -8841    -8847    -8811    -8769    -8781    -8842 
   -8851    -8835    -8856    -8851    -8812    -8796    -8787    -8788 
   -8819    -8838    -8827    -8830    -8838    -8823    -8804    -8797 
   -8816    -8835    -8835    -8846    -8864    -8846    -8799    -8783 
   -8803    -8819    -8833    -8833    -8814    -8807    -8820    -8835 
   -8824    -8797    -8797    -8819    -8839    -8860    -8857    -8797 
   -8742    -8776    -8820    -8799    -8799    -8841    -8860    -8860 
   -8857    -8837    -8811    -8803    -8810    -8845    -8896    -8864 
   -8749    -8687    -8704    -8754    -8861    -9032    -9117    -8976 
   -8738    -8590    -8549    -8642    -8899    -9119    -9076    -8866 
   -8664    -8544    -8634    -8872    -9016    -9059    -8957    -8656 
   -8519    -8745    -8977    -9019    -9003    -8918    -8657    -8451 
   -8638    -8976    -9012    -8850    -8760    -8685    -8644    -8851 
   -9158    -9161    -8862    -8545    -8440    -8654    -8984    -9062 
   -8876    -8795    -8877    -8802    -8631    -8673    -8845    -8965 
   -8982    -8874    -8773    -8776    -8819    -8807    -8714    -8800 
   -9115    -9135    -8718    -8386    -8418    -8694    -9024    -9201 
   -9124    -8932    -8808    -8708    -8513    -8428    -8752    -9177 
   -9127    -8816    -8781    -8908    -8891    -8718    -8571    -8669 
   -8943    -9015    -8846    -8797    -8877    -8800    -8653    -8614 
   -8638    -8816    -9113    -9169    -8958    -8712    -8482    -8460 
   -8779    -9107    -9169    -9013    -8783    -8608    -8571    -8649 
   -8775    -8908    -8982    -8947    -8938    -9001    -8931    -8726 
   -8607    -8652    -8766    -8749    -8681    -8901    -9181    -9046 
   -8691    -8553    -8708    -8957    -9003    -8833    -8719    -8708 
   -8694    -8752    -8980    -9196    -9103    -8707    -8357    -8341 
   -8630    -9009    -9221    -9136    -8927    -8851    -8880    -8860 
   -8739    -8572    -8491    -8587    -8872    -9174    -9132    -8729 
   -8473    -8684    -9036    -9112    -8937    -8718    -8604    -8723 
   -8973    -9022    -8796    -8567    -8515    -8696    -9054    -9225 
   -8991    -8691    -8652    -8731    -8808    -8943    -9020    -8970 
   -8874    -8672    -8453    -8496    -8758    -9000    -9085    -8976 
   -8874    -8962    -8959    -8681    -8437    -8483    -8772    -9036 
   -9050    -8965    -8946    -8872    -8722    -8625    -8665    -8781 
   -8822    -8827    -8892    -8901    -8900    -9005    -9030    -8857 
   -8689    -8641    -8645    -8700    -8829    -8851    -8712    -8770 
   -9108    -9247    -9022    -8737    -8518    -8429    -8617    -8885 
   -8954    -8950    -8969    -8830    -8637    -8702    -8865    -8822 
   -8770    -8861    -8895    -8899    -8966    -8938    -8827    -8799 
   -8829    -8810    -8699    -8610    -8672    -8784    -8854    -8920 
   -8897    -8820    -8926    -9093    -9067    -8945    -8806    -8572 
   -8409    -8510    -8726    -8930    -9166    -9265    -9026    -8661 
   -8488    -8515    -8631    -8861    -9109    -9047    -8815    -8923 
   -9131    -8878    -8484    -8505    -8777    -8943    -8953    -8814 
   -8594    -8560    -8823    -9124    -9228    -9093    -8806    -8590 
   -8565    -8606    -8642    -8733    -8829    -8854    -8884    -8947 
   -8989    -9026    -8991    -8785    -8573    -8533    -8671    -8915 
   -9067    -9005    -8876    -8780    -8654    -8600    -8742    -8939 
   -9057    -9031    -8808    -8587    -8559    -8667    -8937    -9269 
   -9254    -8889    -8567    -8365    -8290    -8494    -8845    -9096 
   -9166    -9061    -8951    -8881    -8735    -8689    -8827    -8922 
   -8966    -8941    -8729    -8607    -8775    -8932    -8874    -8743 
   -8785    -8984    -8959    -8711    -8695    -8866    -8868    -8858 
   -8959    -8870    -8668    -8687    -8776    -8770    -8764    -8727 
   -8648    -8615    -8685    -8951    -9293    -9331    -9034    -8734 
   -8560    -8533    -8681    -8866    -8986    -8972    -8760    -8683 
   -8903    -8988    -8807    -8608    -8527    -8752    -9151    -9167 
   -8723    -8357    -8411    -8700    -8993    -9297    -9459    -9170 
   -8660    -8464    -8545    -8613    -8622    -8573    -8608    -8907 
   -9196    -9139    -8949    -8908    -8870    -8711    -8625    -8753 
   -8900    -8838    -8738    -8803    -8937    -9045    -9015    -8754 
   -8519    -8523    -8642    -8843    -9108    -9170    -8973    -8749 
   -8673    -8803    -8943    -8861    -8730    -8694    -8637    -8661 
   -8816    -8927    -8966    -8937    -8829    -8829    -8947    -8993 
   -8961    -8799    -8413    -8135    -8336    -8845    -9178    -9119 
   -8926    -8911    -9042    -9039    -8673    -8287    -8456    -8935 
   -9166    -9063    -8687    -8328    -8382    -8769    -9227    -9540 
   -9540    -9270    -8777    -8216    -8073    -8469    -8962    -9208 
   -9153    -8901    -8654    -8621    -8833    -8946    -8800    -8675 
   -8592    -8540    -8858    -9285    -9212    -8962    -9023    -9094 
   -8869    -8552    -8456    -8506    -8442    -8479    -8884    -9305 
   -9404    -9246    -8869    -8461    -8419    -8712    -8954    -8961 
   -8706    -8434    -8560    -8935    -9082    -9012    -8877    -8577 
   -8329    -8557    -9053    -9267    -9074    -8734    -8561    -8706 
   -8969    -9058    -9023    -9019    -8968    -8779    -8614    -8654 
   -8775    -8754    -8695    -8814    -8942    -8752    -8398    -8356 
   -8739    -9231    -9544    -9571    -9242    -8677    -8259    -8256 
   -8621    -8985    -8939    -8661    -8641    -8780    -8652    -8457 
   -8711    -9182    -9344    -9335    -9337    -9119    -8710    -8475 
   -8538    -8718    -8924    -9073    -8910    -8568    -8472    -8519 
   -8522    -8633    -8834    -9047    -9239    -9204    -8954    -8741 
   -8603    -8523    -8598    -8802    -8996    -9070    -8954    -8773 
   -8726    -8757    -8727    -8730    -8914    -9121    -9116    -9018 
   -8992    -8958    -8860    -8679    -8506    -8607    -8862    -8970 
   -9009    -8980    -8795    -8660    -8615    -8494    -8309    -8233 
   -8486    -8977    -9215    -9104    -9046    -9067    -8911    -8731 
   -8742    -8818    -8849    -8895    -8892    -8662    -8289    -8079 
   -8182    -8576    -9092    -9379    -9321    -9215    -9375    -9648 
   -9499    -8834    -8230    -8167    -8487    -8777    -8839    -8633 
   -8301    -8253    -8637    -9143    -9524    -9625    -9389    -9015 
   -8742    -8753    -8993    -9026    -8710    -8388    -8271    -8425 
   -8748    -8865    -8700    -8503    -8425    -8611    -9058    -9416 
   -9424    -9198    -9039    -8989    -8815    -8600    -8598    -8607 
   -8486    -8507    -8658    -8631    -8545    -8685    -8954    -9121 
   -9190    -9286    -9304    -9074    -8741    -8544    -8646    -9070 
   -9377    -9138    -8621    -8364    -8425    -8511    -8611    -8792 
   -8837    -8731    -8688    -8676    -8721    -8939    -9140    -9178 
   -9170    -9108    -8901    -8556    -8257    -8341    -8789    -9144 
   -9177    -8945    -8548    -8293    -8379    -8646    -8932    -9153 
   -9271    -9247    -8923    -8468    -8353    -8563    -8723    -8704 
   -8614    -8622    -8781    -9020    -9212    -9184    -8964    -8791 
   -8723    -8719    -8806    -8862    -8842    -8988    -9309    -9477 
   -9273    -8835    -8613    -8772    -9001    -9040    -8781    -8430 
   -8428    -8635    -8687    -8766    -8926    -8895    -8808    -8833 
   -8797    -8753    -8835    -8961    -9022    -8918    -8745    -8703 
   -8677    -8550    -8425    -8338    -8434    -8827    -9138    -9055 
   -8796    -8668    -8764    -8922    -8943    -8843    -8737    -8816 
   -9111    -9279    -9165    -8885    -8465    -8091    -8140    -8567 
   -8950    -9080    -8959    -8698    -8576    -8756    -9065    -9205 
   -9127    -9134    -9300    -9277    -8935    -8506    -8228    -8260 
   -8564    -8896    -9077    -9136    -9174    -9169    -9032    -8854 
   -8814    -8897    -8964    -8989    -9015    -9054    -9055    -8951 
   -8826    -8737    -8600    -8428    -8321    -8365    -8619    -8932 
   -9013    -8919    -8949    -9055    -9046    -9045    -9138    -9088 
   -8810    -8576    -8607    -8787    -8876    -8770    -8565    -8449 
   -8510    -8658    -8770    -8854    -8915    -8870    -8795    -8807 
   -8826    -8815    -8838    -8820    -8749    -8715    -8688    -8602 
   -8475    -8376    -8449    -8712    -8915    -8878    -8653    -8337 
   -8151    -8337    -8823    -9250    -9304    -8966    -8472    -8014 
   -7681    -7501    -7447    -7595    -7974    -8326    -8411    -8402 
   -8619    -9040    -9370    -9425    -9273    -9057    -8866    -8738 
   -8614    -8390    -8181    -8171    -8337    -8704    -9423   -10415 
  -11268   -11566   -11303   -10762   -10027    -9101    -8272    -7816 
   -7785    -8209    -8938    -9610   -10023   -10219   -10297   -10392 
  -10478   -10300    -9730    -8946    -8149    -7375    -6745    -6759 
   -7753    -9315   -10732   -11601   -11782   -11399   -10843   -10327 
   -9725    -9059    -8594    -8456    -8591    -8731    -8473    -7766 
   -6982    -6338    -5803    -5533    -5760    -6367    -6945    -7264 
   -7489    -7674    -7562    -7275    -7117    -6947    -6685    -6600 
   -6837    -7500    -8777   -10581   -12430   -13834   -14512   -14357 
  -13612   -12831   -12320   -11874   -11161   -10231    -9548    -9373 
   -9409    -9229    -8735    -8109    -7612    -7429    -7360    -7053 
   -6578    -6133    -5813    -5948    -6663    -7403    -7599    -7318 
   -6979    -6886    -7225    -8067    -9077    -9787   -10183   -10454 
  -10524   -10169    -9331    -8216    -7110    -6266    -5796    -5584 
   -5486    -5344    -5067    -4845    -4972    -5660    -7025    -8910 
  -10783   -12172   -13162   -14042   -14620   -14454   -13591   -12513 
  -11610   -11038   -10712   -10341    -9763    -9049    -8332    -7861 
   -8027    -9076   -10717   -12190   -12892   -12846   -12429   -11745 
  -10659    -9296    -8005    -7083    -6604    -6463    -6478    -6322 
   -5737    -4957    -4577    -4865    -5510    -6151    -6762    -7410 
   -8035    -8576    -9015    -9279    -9298    -9082    -8726    -8295 
   -7771    -7084    -6142    -5019    -4168    -4206    -5382    -7265 
   -8988    -9948   -10243   -10372   -10692   -11322   -12283   -13262 
  -13586   -12876   -11442    -9868    -8645    -8143    -8451    -9331 
  -10542   -11762   -12436   -12290   -11601   -10693    -9844    -9499 
   -9822   -10412   -10812   -10835   -10446    -9670    -8576    -7321 
   -6164    -5336    -4980    -5275    -6204    -7358    -8440    -9462 
  -10338   -10778   -10481    -9373    -7734    -6031    -4711    -4087 
   -4257    -5119    -6335    -7411    -8041    -8156    -7923    -7805 
   -8024    -8465    -9212   -10264   -11367   -12243   -12476   -11743 
  -10281    -8689    -7527    -7028    -7003    -7194    -7557    -8105 
   -8845    -9778   -10774   -11592   -11992   -11813   -11144   -10289 
   -9423    -8480    -7528    -6947    -7115    -7938    -8856    -9409 
   -9513    -9374    -9278    -9202    -8997    -8873    -9092    -9541 
   -9965   -10196   -10161    -9929    -9634    -9201    -8452    -7555 
   -6976    -6951    -7310    -7804    -8299    -8692    -8868    -8762 
   -8441    -8058    -7792    -7892    -8311    -8603    -8591    -8529 
   -8595    -8846    -9207    -9360    -9212    -9011    -8874    -8704 
   -8495    -8398    -8442    -8457    -8430    -8478    -8541    -8407 
   -7983    -7465    -7176    -7280    -7777    -8538    -9382   -10242 
  -11075   -11705   -12010   -11977   -11583   -10989   -10534   -10272 
   -9896    -9207    -8321    -7441    -6781    -6670    -7192    -7938 
   -8482    -8718    -8679    -8413    -8009    -7623    -7447    -7647 
   -8236    -9104   -10053   -10775   -10974   -10570    -9757    -8926 
   -8442    -8496    -8973    -9501    -9751    -9628    -9185    -8526 
   -7763    -6997    -6411    -6216    -6511    -7323    -8502    -9582 
  -10118   -10041    -9598    -9053    -8461    -7827    -7261    -6849 
   -6674    -6912    -7597    -8503    -9327    -9799    -9884    -9829 
   -9829    -9923   -10103   -10224   -10119    -9783    -9369    -9127 
   -9202    -9491    -9817   -10037   -10027    -9745    -9283    -8824 
   -8525    -8536    -8965    -9624   -10064    -9958    -9306    -8392 
   -7676    -7415    -7461    -7565    -7626    -7608    -7581    -7740 
   -8171    -8684    -9100    -9406    -9544    -9470    -9293    -9085 
   -8799    -8399    -7929    -7493    -7192    -7068    -7180    -7657 
   -8536    -9667   -10787   -11553   -11670   -11109   -10102    -8995 
   -8116    -7677    -7658    -7890    -8156    -8309    -8387    -8530 
   -8807    -9155    -9486    -9767    -9910    -9775    -9348    -8772 
   -8237    -7843    -7582    -7470    -7542    -7744    -7981    -8266 
   -8638    -9022    -9300    -9448    -9531    -9556    -9460    -9323 
   -9281    -9288    -9363    -9589    -9856   -10111   -10382   -10524 
  -10390   -10012    -9548    -9192    -8985    -8833    -8679    -8437 
   -8028    -7636    -7580    -7927    -8428    -8756    -8748    -8424 
   -7898    -7389    -7109    -7047    -7056    -7103    -7256    -7487 
   -7654    -7715    -7797    -8047    -8502    -9061    -9568    -9902 
   -9948    -9728    -9474    -9375    -9427    -9602    -9857   -10023 
   -9992    -9806    -9536    -9267    -9019    -8762    -8608    -8694 
   -9074    -9752   -10503   -10968   -11061   -10890   -10500    -9929 
   -9221    -8397    -7538    -6836    -6443    -6377    -6569    -6956 
   -7393    -7641    -7663    -7673    -7874    -8321    -8912    -9490 
   -9976   -10324   -10486   -10416   -10049    -9398    -8668    -8132 
   -7896    -7904    -8097    -8483    -9011    -9445    -9651    -9759 
   -9822    -9759    -9568    -9240    -8760    -8271    -7959    -7815 
   -7750    -7771    -7832    -7830    -7835    -7951    -8102    -8256 
   -8498    -8857    -9274    -9622    -9730    -9490    -8946    -8334 
   -7983    -8033    -8402    -9005    -9744   -10346   -10520   -10215 
   -9571    -8734    -7854    -7083    -6605    -6628    -7163    -7975 
   -8811    -9549   -10162   -10678   -11138   -11465   -11493   -11210 
  -10782   -10341    -9879    -9435    -9138    -9040    -9061    -9036 
   -8866    -8644    -8434    -8154    -7786    -7420    -7163    -7117 
   -7317    -7682    -8081    -8391    -8592    -8779    -8996    -9196 
   -9377    -9485    -9402    -9161    -8865    -8480    -7994    -7550 
   -7292    -7245    -7376    -7630    -7884    -8087    -8365    -8749 
   -9128    -9463    -9664    -9567    -9166    -8599    -8002    -7515 
   -7253    -7230    -7391    -7774    -8424    -9178    -9783   -10158 
  -10365   -10408   -10327   -10222   -10044    -9686    -9228    -8806 
   -8438    -8179    -8193    -8530    -9077    -9711   -10273   -10581 
  -10625   -10567   -10501   -10403   -10282   -10108    -9809    -9455 
   -9143    -8797    -8378    -7996    -7686    -7372    -7090    -6944 
   -6970    -7215    -7767    -8588    -9416    -9999   -10262   -10203 
   -9913    -9521    -9051    -8536    -8040    -7545    -7121    -6983 
   -7177    -7526    -7848    -8056    -8083    -7939    -7793    -7780 
   -7850    -7943    -8100    -8386    -8760    -9121    -9487    -9899 
  -10274   -10559   -10755   -10743   -10481   -10115    -9751    -9435 
   -9167    -8899    -8611    -8320    -8114    -8113    -8278    -8502 
   -8768    -9039    -9243    -9374    -9416    -9275    -8959    -8608 
   -8355    -8252    -8299    -8433    -8541    -8588    -8654    -8820 
