Origin Time       2024/06/23 22:54:00
Lat.              35.645
Long.             140.060
Depth. (km)       72
Mag.              4.1
Station Code      CHB016
Station Lat.      35.2998
Station Long.     140.3866
Station Height(m) 7
Record Time       2024/06/23 22:54:48
Sampling Freq(Hz) 100Hz
Duration Time(s)  60
Dir.              N-S
Scale Factor      7845(gal)/8223790
Max. Acc. (gal)   1.557
Last Correction   2024/06/23 22:54:48
Memo.             
[...]
    -783     -781     -777     -781     -792     -791     -781     -783 
    -789     -784     -774     -777     -788     -793     -793     -788 
    -777     -773     -783     -789     -788     -789     -795     -795 
    -787     -777     -784     -791     -795     -795     -783     -776 
    -795     -801     -784     -776     -785     -796     -793     -780 
    -781     -796     -793     -774     -770     -784     -793     -795 
    -787     -773     -774     -788     -792     -792     -793     -780 
    -761     -777     -801     -799     -787     -772     -765     -787 
    -807     -795     -784     -784     -768     -760     -780     -800 
    -801     -787     -762     -751     -774     -797     -797     -795 
    -788     -772     -769     -792     -814     -792     -757     -764 
    -796     -804     -788     -778     -780     -769     -772     -816 
    -834     -793     -764     -774     -783     -769     -769     -807 
    -832     -808     -778     -795     -822     -810     -770     -745 
    -749     -777     -807     -805     -784     -792     -827     -835 
    -811     -792     -773     -743     -720     -718     -730     -753 
    -788     -831     -858     -862     -854     -823     -768     -714 
    -697     -731     -777     -787     -793     -843     -874     -841 
    -804     -811     -830     -808     -741     -684     -689     -735 
    -764     -765     -772     -801     -842     -862     -849     -801 
    -738     -697     -697     -719     -761     -788     -788     -823 
    -884     -857     -754     -712     -780     -851     -834     -760 
    -739     -818     -886     -832     -739     -741     -807     -835 
    -791     -697     -619     -642     -757     -851     -870     -864 
    -858     -846     -834     -810     -768     -758     -785     -789 
    -785     -831     -864     -800     -742     -814     -911     -884 
    -761     -658     -650     -716     -745     -712     -696     -722 
    -780     -888     -982     -942     -789     -662     -643     -708 
    -766     -756     -707     -719     -824     -926     -909     -820 
    -788     -811     -815     -789     -787     -846     -884     -815 
    -750     -791     -853     -842     -768     -696     -638     -615 
    -696     -800     -799     -770     -808     -851     -828     -753 
    -699     -751     -858     -878     -792     -706     -689     -754 
    -830     -816     -742     -745     -824     -857     -834     -827 
    -812     -768     -760     -787     -783     -783     -842     -899 
    -882     -801     -695     -649     -723     -849     -880     -781 
    -688     -703     -761     -784     -780     -772     -776     -812 
    -830     -801     -768     -718     -656     -652     -704     -788 
    -920     -990     -872     -722     -749     -847     -838     -756 
    -707     -696     -716     -807     -922     -935     -838     -753 
    -731     -746     -789     -835     -832     -803     -799     -811 
    -827     -853     -843     -751     -634     -612     -722     -839 
    -851     -787     -726     -737     -845     -935     -864     -735 
    -770     -913     -923     -743     -577     -576     -665     -750 
    -851     -923     -886     -819     -804     -793     -768     -764 
    -758     -746     -788     -847     -824     -783     -810     -814 
    -751     -742     -804     -832     -795     -720     -662     -669 
    -711     -731     -751     -803     -855     -893     -915     -892 
    -801     -692     -633     -645     -700     -768     -831     -839 
    -772     -707     -735     -822     -865     -854     -862     -899 
    -897     -839     -758     -673     -623     -657     -747     -784 
    -731     -708     -800     -924     -976     -950     -869     -756 
    -672     -646     -685     -816     -943     -931     -824     -769 
    -804     -828     -739     -604     -587     -711     -846     -889 
    -905     -950     -930     -815     -737     -737     -727     -692 
    -646     -557     -521     -661     -831     -841     -803     -870 
    -962     -962     -868     -762     -733     -761     -756     -742 
    -787     -849     -854     -789     -680     -619     -656     -711 
    -769     -859     -922     -922     -900     -857     -812     -801 
    -765     -703     -719     -787     -791     -729     -675     -677 
    -730     -769     -735     -646     -606     -712     -877     -870 
    -675     -515     -511     -592     -668     -700     -733     -834 
    -947     -982     -981    -1008    -1021     -961     -892     -930 
   -1007     -970     -845     -796     -868     -965    -1011    -1000 
    -967     -969     -988     -942     -834     -742     -699     -675 
    -621     -544     -540     -637     -731     -738     -679     -626 
    -639     -697     -762     -862    -1012    -1155    -1194    -1047 
    -789     -596     -514     -500     -538     -569     -561     -606 
    -719     -791     -830     -915     -966     -903     -805     -747 
    -691     -606     -550     -579     -639     -666     -681     -711 
    -707     -696     -765     -857     -846     -797     -820     -849 
    -808     -773     -814     -853     -846     -842     -857     -872 
    -876     -862     -874     -926     -912     -793     -703     -729 
    -780     -780     -762     -706     -611     -592     -687     -814 
    -911     -928     -880     -873     -963    -1059    -1077    -1039 
    -978     -895     -830     -832     -884     -963    -1071    -1113 
    -976     -722     -517     -437     -484     -592     -669     -673 
    -656     -695     -756     -733     -615     -481     -419     -488 
    -649     -793     -853     -837     -801     -814     -846     -858 
    -926    -1050    -1046     -838     -603     -488     -508     -622 
    -734     -784     -823     -905     -970     -901     -689     -480 
    -413     -499     -683     -886     -988     -920     -770     -658 
    -669     -803     -950     -994     -899     -745     -702     -834 
    -981     -976     -864     -812     -908    -1094    -1254    -1259 
   -1067     -801     -638     -614     -648     -707     -784     -819 
    -805     -769     -658     -504     -477     -596     -697     -727 
    -770     -828     -858     -886     -918     -862     -699     -580 
    -661     -862     -985    -1016    -1035    -1044    -1020     -919 
    -749     -630     -629     -653     -622     -571     -594     -702 
    -820     -846     -702     -487     -441     -583     -662     -583 
    -499     -572     -816    -1107    -1223    -1070     -801     -649 
    -696     -842     -918     -878     -835     -857     -881     -868 
    -864     -908     -949     -889     -765     -716     -724     -645 
    -500     -487     -666     -896    -1016    -1020     -962     -842 
    -684     -589     -607     -687     -783     -878     -949    -1011 
   -1090    -1113    -1007     -843     -750     -765     -819     -808 
    -729     -666     -649     -653     -672     -716     -814     -934 
   -1008     -999     -877     -658     -446     -349     -388     -507 
    -658     -831    -1001    -1073     -993     -839     -751     -773 
    -793     -696     -537     -432     -394     -442     -606     -793 
    -903     -961    -1016    -1065    -1070     -990     -838     -719 
    -710     -765     -795     -783     -784     -819     -853     -846 
    -795     -760     -756     -712     -661     -712     -842     -938 
    -932     -826     -722     -743     -869     -969     -951     -837 
    -762     -810     -886     -884     -847     -847     -868     -920 
    -963     -847     -604     -454     -423     -400     -436     -610 
    -797     -868     -869     -862     -822     -750     -691     -645 
    -602     -626     -777     -959    -1036     -963     -822     -773 
    -847     -888     -824     -757     -761     -801     -812     -737 
    -562     -441     -558     -822     -969     -957     -918     -868 
    -780     -751     -828     -932    -1008    -1005     -885     -756 
    -730     -729     -666     -585     -548     -569     -618     -630 
    -603     -631     -754     -880     -969    -1057    -1085     -981 
    -820     -723     -739     -832     -881     -824     -743     -723 
    -749     -769     -773     -772     -781     -820     -851     -820 
    -789     -841     -901     -870     -795     -726     -623     -535 
    -587     -749     -839     -774     -675     -675     -773     -877 
    -962    -1011     -957     -803     -615     -440     -376     -473 
    -610     -699     -791     -900    -1008    -1120    -1185    -1138 
   -1019     -909     -808     -675     -538     -499     -599     -727 
    -769     -801     -926    -1034    -1030     -985     -950     -905 
    -851     -803     -803     -901    -1050    -1101     -984     -826 
    -760     -742     -696     -616     -535     -519     -585     -661 
    -703     -747     -792     -778     -714     -623     -515     -484 
    -573     -680     -750     -814     -838     -826     -868     -932 
    -888     -784     -784     -918    -1050     -993     -738     -533 
    -541     -621     -629     -627     -689     -762     -819     -851 
    -797     -712     -706     -724     -711     -733     -780     -778 
    -768     -805     -843     -874     -958    -1085    -1166    -1109 
    -896     -666     -604     -714     -881    -1012    -1028     -931 
    -827     -766     -665     -507     -430     -523     -681     -750 
    -702     -615     -545     -488     -436     -425     -483     -527 
    -534     -604     -764     -916    -1005    -1080    -1181    -1239 
   -1166    -1026     -943    -1007    -1209    -1389    -1341    -1071 
    -792     -665     -666     -724     -766     -745     -733     -789 
    -820     -720     -558     -492     -521     -531     -499     -464 
    -453     -496     -568     -572     -498     -504     -753    -1163 
   -1468    -1547    -1548    -1603    -1575    -1333    -1008     -776 
    -723     -842     -970     -985     -958     -961     -957     -935 
    -935     -930     -866     -805     -801     -760     -603     -394 
    -240     -218     -337     -438     -336      -66      201      410 
     534      502      291     -113     -635    -1019    -1097    -1007 
    -951     -946     -893     -784     -737     -864    -1129    -1390 
   -1555    -1647    -1710    -1744    -1729    -1663    -1499    -1163 
    -706     -301      -58       39       21     -118     -330     -498 
    -619     -799    -1017    -1177    -1262    -1310    -1313    -1262 
   -1209    -1208    -1252    -1271    -1173     -961     -795     -792 
    -869     -913     -951    -1028    -1116    -1151    -1127    -1119 
   -1152    -1163    -1125    -1012     -784     -518     -380     -429 
    -533     -460     -124      267      421      234     -168     -541 
    -665     -568     -471     -450     -378     -211     -117     -210 
    -375     -456     -506     -697    -1113    -1642    -2027    -2070 
   -1769    -1273     -780     -406     -112      178      394      352 
      41     -326     -596     -774     -934    -1140    -1372    -1556 
   -1691    -1769    -1732    -1571    -1308     -970     -683     -591 
    -664     -783     -924    -1080    -1132     -993     -750     -564 
    -499     -483     -418     -353     -427     -598     -670     -604 
    -517     -495     -579     -804    -1155    -1493    -1625    -1471 
   -1181     -989     -945     -897     -758     -602     -499     -449 
    -468     -531     -557     -607     -804    -1084    -1321    -1459 
   -1428    -1179     -853     -695     -751     -788     -639     -429 
    -314     -274     -228     -202     -286     -454     -561     -571 
    -621     -746     -814     -769     -715     -743     -799     -770 
    -634     -511     -550     -770    -1028    -1190    -1290    -1449 
   -1647    -1706    -1497    -1054     -591     -271      -81      -21 
    -137     -394     -720     -990    -1039     -884     -716     -584 
    -461     -453     -561     -571     -421     -284     -256     -324 
    -465     -649     -897    -1287    -1775    -2103    -2076    -1748 
   -1277     -834     -560     -429     -342     -301     -359     -460 
    -521     -580     -661     -747     -895    -1147    -1436    -1633 
   -1575    -1150     -518      -35      139       74     -184     -594 
   -1011    -1332    -1578    -1741    -1703    -1412    -1036     -826 
    -886    -1135    -1358    -1385    -1235    -1059     -965     -946 
    -945     -900     -793     -616     -349        1      378      697 
     808      553       37     -409     -608     -658     -706     -831 
   -1061    -1331    -1507    -1501    -1354    -1229    -1233    -1301 
   -1313    -1221    -1043     -846     -693     -600     -592     -630 
    -595     -453     -282     -120       22      147      230      234 
     156       91      126      201      167      -56     -463     -954 
   -1414    -1764    -1979    -2052    -1999    -1923    -1917    -1914 
   -1782    -1476    -1081     -765     -615     -589     -703    -1009 
   -1375    -1599    -1593    -1350     -963     -610     -390     -333 
    -433     -589     -658     -564     -375     -253     -287     -402 
    -503     -631     -858    -1066    -1098    -1048    -1131    -1339 
   -1499    -1532    -1433    -1175     -781     -348       18      233 
     295      252       59     -326     -795    -1154    -1240     -984 
    -460      149      639      847      712      307     -180     -531 
    -618     -546     -631    -1097    -1756    -2201    -2263    -2060 
   -1723    -1305     -866     -540     -430     -518     -762    -1155 
   -1545    -1664    -1437    -1121    -1023    -1143    -1267    -1275 
   -1213    -1188    -1269    -1368    -1255     -820     -233      263 
     523      487      190     -271     -766    -1150    -1347    -1370 
   -1277    -1152    -1078    -1128    -1289    -1426    -1451    -1368 
   -1178     -918     -735     -739     -957    -1332    -1630    -1580 
   -1165     -584      -54      297      419      349      182       -6 
    -162     -182      -58       28      -91     -382     -633     -707 
    -676     -687     -723     -639     -386     -113      -24     -202 
    -533     -819     -972    -1009     -966     -872     -754     -662 
    -670     -757     -827     -919    -1154    -1474    -1614    -1453 
   -1190    -1096    -1205    -1368    -1453    -1435    -1317    -1129 
    -993    -1013    -1101    -1088     -950     -769     -587     -407 
    -257     -229     -437     -872    -1362    -1701    -1733    -1437 
    -972     -562     -319     -232     -307     -537     -796     -955 
    -986     -912     -773     -594     -406     -309     -395     -645 
    -926    -1086    -1067     -903     -650     -423     -376     -572 
    -855     -949     -708     -251      197      494      569      394 
      25     -441     -885    -1134    -1152    -1097    -1059    -1042 
   -1077    -1169    -1247    -1251    -1174    -1054     -961     -959 
   -1017    -1047    -1031    -1005     -982     -959     -980    -1077 
   -1170    -1154    -1053     -912     -692     -453     -367     -500 
    -815    -1221    -1557    -1674    -1559    -1312    -1034     -757 
    -488     -272     -132      -89     -187     -383     -572     -707 
    -768     -773     -737     -634     -469     -303     -198     -174 
    -197     -234     -257     -226     -198     -325     -681    -1208 
   -1767    -2155    -2243    -2068    -1756    -1405    -1054     -718 
    -423     -205     -112     -151     -297     -542     -835    -1102 
   -1339    -1580    -1788    -1849    -1721    -1521    -1341    -1167 
    -946     -627     -252       -6      -18     -211     -419     -565 
    -687     -850    -1031    -1080     -900     -595     -301      -40 
     203      406      503      471      372      272      130     -139 
    -529     -897    -1102    -1161    -1183    -1228    -1310    -1449 
   -1618    -1722    -1644    -1382    -1101     -967    -1039    -1278 
   -1568    -1796    -1871    -1715    -1354     -911     -522     -298 
    -290     -421     -521     -430     -137      183      338      220 
    -152     -579     -808     -781     -607     -419     -322     -406 
    -627     -831     -957    -1065    -1179    -1275    -1296    -1224 
   -1113    -1009     -958    -1023    -1154    -1212    -1150    -1027 
    -916     -893     -980    -1084    -1098    -1030     -935     -816 
    -677     -623     -714     -823     -818     -685     -457     -175 
      54       68     -186     -591     -974    -1193    -1186    -1016 
    -756     -434     -163     -114     -332     -680     -989    -1178 
   -1270    -1327    -1387    -1482    -1593    -1606    -1416    -1050 
    -607     -164      193      371      349      157     -137     -418 
    -592     -677     -749     -841     -931     -996    -1023     -992 
    -938     -916     -931     -990    -1082    -1096     -973     -805 
    -727     -810    -1065    -1429    -1719    -1756    -1555    -1259 
    -935     -585     -251       16      198      237       64     -251 
    -525     -646     -616     -510     -444     -530     -797    -1144 
   -1406    -1474    -1364    -1215    -1135    -1140    -1210    -1344 
   -1507    -1637    -1675    -1532    -1198     -839     -602     -500 
    -541     -700     -837     -769     -490     -179       21      125 
     195      255      301      326      322      279      147     -130 
    -508     -858    -1078    -1135    -1032     -828     -656     -646 
    -795     -985    -1150    -1286    -1387    -1485    -1601    -1659 
   -1603    -1455    -1247    -1078    -1070    -1198    -1327    -1345 
   -1232    -1067     -966     -946     -958     -936     -843     -714 
    -610     -557     -571     -622     -672     -737     -837     -932 
    -958     -881     -726     -584     -533     -592     -729     -903 
   -1085    -1227    -1301    -1348    -1356    -1239     -973     -626 
    -271       52      325      541      687      776      801      720 
     523      228     -174     -643    -1059    -1296    -1306    -1158 
    -982     -882     -865     -892     -990    -1166    -1333    -1424 
   -1444    -1433    -1445    -1503    -1537    -1445    -1210     -912 
    -680     -619     -741     -965    -1151    -1185    -1075     -891 
    -687     -523     -434     -423     -472     -517     -502     -444 
    -394     -383     -460     -660     -889    -1036    -1102    -1098 
   -1017     -919     -857     -812     -741     -627     -525     -511 
    -600     -724     -827     -905     -966     -999     -972     -841 
    -623     -440     -409     -523     -687     -812     -877     -903 
    -949    -1074    -1279    -1509    -1699    -1791    -1761    -1610 
   -1359    -1053     -742     -498     -392     -413     -479     -518 
    -507     -491     -513     -557     -606     -673     -764     -823 
    -797     -688     -511     -267      -52       -6     -163     -469 
    -853    -1221    -1455    -1479    -1359    -1186     -989     -789 
    -611     -446     -288     -164      -94      -74      -98     -135 
    -139     -118     -135     -240     -430     -658     -868    -1004 
   -1051    -1084    -1193    -1366    -1494    -1520    -1476    -1397 
