Origin Time       2024/06/23 22:54:00
Lat.              35.645
Long.             140.060
Depth. (km)       72
Mag.              4.1
Station Code      CHB029
Station Lat.      35.6948
Station Long.     139.9176
Station Height(m) 3
Record Time       2024/06/23 22:54:44
Sampling Freq(Hz) 100Hz
Duration Time(s)  65
Dir.              U-D
Scale Factor      7845(gal)/8223790
Max. Acc. (gal)   2.447
Last Correction   2024/06/23 22:54:44
Memo.             
    2710     2722     2729     2717     2706     2713     2725     2721 
    2713     2724     2720     2698     2708     2731     2731     2725 
    2724     2717     2706     2694     2697     2713     2717     2712 
    2717     2735     2743     2722     2709     2721     2724     2722 
    2735     2740     2728     2708     2706     2721     2717     2700 
    2695     2706     2710     2701     2710     2732     2729     2716 
    2720     2729     2732     2729     2736     2747     2729     2708 
    2710     2717     2713     2702     2708     2725     2720     2705 
    2706     2720     2728     2718     2713     2721     2718     2706 
    2717     2735     2728     2709     2710     2716     2709     2702 
    2705     2713     2718     2712     2717     2739     2740     2724 
    2721     2728     2728     2712     2714     2739     2736     2712 
    2706     2720     2721     2702     2702     2713     2709     2710 
    2722     2725     2718     2716     2725     2732     2718     2701 
    2701     2714     2722     2714     2721     2743     2731     2698 
    2697     2716     2720     2716     2718     2725     2721     2709 
    2718     2739     2729     2708     2708     2717     2720     2714 
    2720     2728     2713     2695     2702     2713     2714     2710 
    2713     2721     2713     2713     2725     2728     2724     2718 
    2714     2724     2728     2717     2710     2714     2709     2700 
    2710     2724     2727     2720     2712     2708     2716     2727 
    2735     2736     2716     2695     2708     2732     2736     2727 
    2720     2716     2709     2701     2704     2717     2728     2725 
    2729     2731     2706     2689     2705     2728     2728     2704 
    2689     2698     2718     2731     2732     2728     2718     2708 
    2710     2718     2720     2722     2727     2722     2712     2709 
    2721     2736     2733     2717     2709     2708     2702     2705 
    2720     2727     2720     2708     2698     2706     2716     2710 
    2714     2728     2724     2717     2724     2735     2732     2724 
    2725     2722     2709     2705     2716     2724     2718     2705 
    2708     2724     2725     2716     2721     2724     2709     2701 
    2709     2714     2712     2712     2724     2732     2721     2714 
    2718     2721     2720     2712     2713     2725     2720     2706 
    2717     2728     2721     2712     2722     2732     2714     2702 
    2709     2713     2713     2716     2729     2739     2727     2716 
    2727     2735     2724     2708     2714     2737     2737     2718 
    2714     2716     2701     2690     2704     2731     2737     2724 
    2720     2724     2708     2701     2728     2745     2735     2724 
    2721     2725     2721     2712     2717     2728     2727     2714 
    2708     2720     2727     2713     2716     2722     2708     2695 
    2717     2744     2741     2720     2710     2716     2718     2720 
    2731     2739     2729     2717     2722     2737     2732     2710 
    2708     2720     2720     2710     2713     2727     2720     2698 
    2704     2720     2716     2713     2722     2728     2724     2724 
    2737     2745     2733     2720     2722     2733     2728     2712 
    2720     2737     2722     2702     2710     2722     2713     2705 
    2709     2713     2712     2708     2714     2728     2722     2721 
    2732     2737     2728     2712     2718     2736     2722     2706 
    2712     2720     2727     2725     2718     2727     2724     2706 
    2712     2731     2729     2710     2705     2716     2718     2710 
    2717     2731     2716     2697     2709     2727     2729     2727 
    2731     2733     2724     2718     2725     2732     2733     2724 
    2713     2724     2729     2714     2714     2718     2708     2702 
    2706     2714     2709     2700     2708     2710     2705     2710 
    2714     2716     2720     2718     2725     2743     2739     2714 
    2713     2732     2731     2709     2706     2722     2721     2706 
    2705     2708     2704     2695     2702     2725     2731     2717 
    2720     2729     2724     2710     2704     2712     2716     2708 
    2713     2728     2724     2716     2724     2731     2718     2706 
    2712     2724     2720     2709     2718     2727     2717     2712 
    2706     2709     2718     2713     2718     2729     2717     2709 
    2721     2729     2722     2710     2716     2724     2716     2710 
    2716     2717     2714     2710     2713     2722     2717     2708 
    2710     2710     2709     2712     2713     2722     2728     2721 
    2725     2732     2720     2710     2714     2720     2717     2709 
    2713     2724     2717     2708     2713     2720     2721     2713 
    2710     2718     2716     2712     2721     2725     2716     2713 
    2720     2722     2718     2718     2728     2729     2716     2714 
    2727     2728     2720     2709     2716     2731     2717     2698 
    2698     2701     2708     2717     2714     2714     2721     2716 
    2713     2720     2724     2716     2709     2717     2716     2704 
    2712     2727     2718     2714     2725     2732     2727     2720 
    2718     2720     2714     2714     2718     2720     2713     2702 
    2706     2721     2721     2708     2709     2721     2713     2701 
    2717     2735     2732     2731     2728     2728     2725     2722 
    2721     2717     2709     2700     2702     2714     2708     2693 
    2705     2714     2705     2714     2731     2728     2713     2714 
    2727     2725     2720     2725     2722     2722     2727     2713 
    2705     2713     2713     2712     2717     2714     2710     2717 
    2727     2725     2714     2713     2724     2720     2716     2720 
    2720     2722     2720     2714     2721     2724     2717     2721 
    2725     2724     2717     2713     2728     2735     2717     2709 
    2713     2713     2714     2709     2709     2716     2716     2721 
    2728     2720     2709     2708     2716     2728     2722     2720 
    2729     2721     2709     2712     2717     2716     2714     2713 
    2713     2717     2721     2736     2763     2794     2825     2855 
    2882     2879     2841     2791     2708     2565     2408     2338 
    2384     2396     2304     2415     2909     3294     3161     2964 
    3141     3350     3184     2779     2462     2349     2377     2447 
    2332     1861     1547     2104     3040     3226     2906     3229 
    4001     3962     2972     2170     2200     2551     2744     2840 
    2760     2382     2049     2224     2917     3731     4056     3383 
    2393     2216     2026      827      360     2149     4338     4449 
    2929     2300     3393     4194     3245     1642      862     1301 
    2760     4328     4558     3303     2049     1782     2270     2776 
    2774     2770     3180     3362     2949     2238     1745     2189 
    3635     4831     4207     1915      153      349     1752     3307 
    4244     4155     3721     3181     2107     1404     1988     3028 
    3703     4083     3780     2413     1179     1364     1999     1960 
    2285     3465     4166     3709     2605     1810     2172     3169 
    3635     3427     2803     2034     1799     2208     2562     2644 
    2818     3075     2922     2419     2459     3115     3310     2729 
    2215     2436     2991     3014     2802     3153     3373     2610 
    1694     1744     2633     3460     3569     3053     2482     2263 
    2269     2224     2424     3105     3603     3281     2455     1929 
    2108     2623     3015     3318     3510     3234     2556     2096 
    2123     2431     2914     3335     3227     2575     2014     2092 
    2629     3033     3044     2878     2756     2620     2436     2398 
    2531     2778     3296     3762     3424     2478     1919     2035 
    2323     2438     2454     2579     2795     2899     2959     3123 
    3265     3160     2758     2374     2343     2465     2532     2816 
    3167     2910     2219     2087     2789     3514     3384     2563 
    2176     2660     3040     2687     2394     2679     2933     2851 
    2600     2115     1840     2463     3411     3581     3069     2709 
    2754     2801     2559     2428     2716     2878     2619     2439 
    2556     2714     2770     2813     3009     3199     3017     2613 
    2361     2259     2309     2600     2948     3133     3109     2809 
    2328     2219     2675     3092     3133     3006     2829     2569 
    2200     2150     2812     3357     3106     2760     2728     2656 
    2498     2493     2731     2937     2911     2883     2760     2295 
    2016     2427     3034     3177     2880     2598     2573     2570 
    2338     2359     3126     3808     3508     2786     2312     1985 
    1815     1973     2336     2650     2830     3028     3275     3292 
    2988     2779     2930     3013     2678     2286     2153     2276 
    2701     2995     2651     2204     2207     2355     2587     2995 
    3057     2793     3107     3775     3391     2104     1660     2265 
    2579     2596     3156     3784     3619     3022     2945     3493 
    3585     2614     1875     2498     3339     3092     2336     1972 
    1998     2290     2652     2637     2373     2497     2929     2982 
    2614     2444     2652     2782     2550     2381     2560     2403 
    1848     2272     3734     4287     3203     1998     1896     2500 
    2884     2704     2458     2863     3522     3358     2465     1798 
    1764     2430     3686     4572     3909     2146     1229     1972 
    3040     3006     2234     2300     3342     3499     2261     1448 
    1895     2620     3127     3582     3647     3199     2924     3026 
    2775     1988     1813     2758     3334     2735     2284     2679 
    3079     2994     2887     3114     3150     2697     2489     2743 
    2651     2014     1663     2235     3241     3672     3262     2361 
    1432     1312     2473     4006     4533     3889     2957     2232 
    1714     1678     2280     2955     3148     3059     3024     2964 
    2868     2891     2830     2416     2088     2512     3226     3076 
    2259     2110     2902     3541     3115     2061     1630     2296 
    3316     3678     3190     2594     2378     2432     2705     2988 
    3006     2870     2578     2164     2083     2270     2161     2015 
    2577     3495     3681     3221     3028     2897     2277     1927 
    2597     3487     3527     2840     2270     2354     2882     3176 
    3053     2852     2493     1980     1935     2390     2785     3129 
    3522     3634     3321     2729     2188     2026     2099     2139 
    2250     2631     3330     3881     3603     2826     2451     2543 
    2465     1980     1814     2475     3206     3354     3171     2685 
    1998     1966     2818     3527     3437     2983     2539     2176 
    2404     3283     3742     3140     2187     1925     2331     2434 
    2146     2440     3316     3742     3464     3044     2662     2251 
    2060     2099     2016     1926     2172     2663     3132     3225 
    2802     2443     2529     2636     2632     2986     3707     3890 
    2974     2004     2304     3326     3518     2736     2053     2080 
    2702     3375     3476     2922     2191     1930     2377     2910 
    2929     2727     2859     3299     3424     2752     1761     1582 
    2505     3298     3037     2641     2859     2859     2452     2624 
    3196     3037     2355     2276     2679     2606     2107     2080 
    2839     3615     3604     3163     2960     2683     2072     1760 
    2158     2855     3368     3551     3230     2378     1740     1926 
    2423     2798     3203     3299     2922     2786     3051     3086 
    2791     2631     2789     2920     2685     2346     2435     2907 
    2997     2359     1857     2242     3069     3547     3283     2421 
    1879     2444     3258     2992     2388     2840     3585     3321 
    2450     1867     1764     2099     2706     3145     3094     2702 
    2365     2322     2579     2971     3159     3028     2874     2855 
    2936     3223     3518     3294     2538     1902     1881     2150 
    2222     2408     2971     3260     2984     2836     2974     2732 
    2174     2257     3169     3778     3163     2047     1846     2605 
    3164     3059     2752     2671     2968     3234     2810     2085 
    2023     2551     2891     2806     2690     2821     2880     2532 
    2079     2107     2816     3628     3708     3137     2609     2284 
    2160     2594     3411     3713     3103     2239     2123     2829 
    3176     2540     1926     2177     2839     3213     3048     2539 
    2174     2205     2466     2772     3075     3246     3079     2655 
    2396     2415     2505     2629     2686     2604     2674     2799 
    2455     1915     1945     2492     2895     2903     2787     2702 
    2589     2600     3038     3689     3717     2961     2451     2717 
    2976     2656     2326     2659     3349     3739     3669     3115 
    2276     1825     2069     2612     2941     2739     2215     1968 
    2101     2220     2319     2695     3084     2980     2733     3160 
    4041     4093     2886     1690     1609     2200     2636     2735 
    2529     2122     2050     2783     3646     3531     2810     2602 
    2775     2629     2411     2592     2694     2226     1956     2575 
    3214     3038     2706     2929     3145     2737     2362     2664 
    3021     2974     3014     3187     2916     2272     2002     2370 
    2863     3078     3154     3202     3052     2700     2424     2413 
    2566     2687     2633     2390     2246     2542     3105     3410 
    3225     2728     2386     2596     3022     3040     2705     2457 
    2444     2540     2551     2470     2575     2965     3213     3005 
    2636     2412     2223     2153     2528     3055     3115     2782 
    2515     2455     2515     2651     2844     3013     3067     2948 
    2832     2956     3110     3013     2762     2511     2533     2970 
    3191     2718     2070     1854     2039     2452     3133     3742 
    3524     2629     2146     2431     2741     2587     2408     2664 
    3021     3044     2872     2766     2740     2708     2600     2462 
    2497     2744     2825     2598     2520     2722     2903     3015 
    3032     2813     2397     1907     1688     2030     2459     2523 
    2631     3017     3287     3350     3411     3399     3311     3402 
    3576     3501     3276     3017     2484     1830     1499     1428 
    1389     1510     1992     2597     2749     2400     2135     2253 
    2544     2835     3129     3457     3751     3890     3831     3676 
    3588     3628     3713     3717     3456     2853     2257     1952 
    1788     1783     2050     2223     1903     1341     1170     1593 
    2162     2569     2949     3353     3711     3944     3792     3203 
    2546     2212     2416     2964     3234     2884     2208     1791 
    2076     2872     3424     3294     2787     2444     2540     2943 
    3217     3179     3241     3704     4094     3902     3420     3191 
    3146     2802     2084     1493     1331     1379     1389     1348 
    1387     1711     2350     2925     3021     2785     2745     3073 
    3480     3759     3859     3731     3515     3319     2924     2312 
    1927     1962     1983     1741     1732     2169     2376     2037 
    1877     2424     3194     3597     3682     3707     3701     3484 
    3056     2874     3118     3325     3306     3307     3299     3141 
    2879     2520     2065     1656     1533     1903     2681     3388 
    3550     3153     2673     2648     3106     3535     3558     3181 
    2548     1999     1857     1917     1845     1845     2142     2390 
    2142     1512     1070     1247     1981     2882     3505     3642 
    3458     3294     3434     3817     3881     3358     2766     2627 
    2835     2902     2517     1895     1611     1952     2555     2848 
    2706     2540     2752     3213     3511     3496     3353     3325 
    3393     3314     3068     2944     3059     3260     3415     3399 
    3053     2519     2158     2046     1883     1514     1375     1914 
    2663     2863     2656     2701     3095     3362     3191     2770 
    2501     2496     2409     2029     1645     1553     1698     1904 
    2104     2349     2598     2733     2860     3157     3492     3580 
    3387     3148     2924     2601     2427     2717     3271     3734 
    3970     3946     3755     3562     3314     2795     2043     1475 
    1426     1738     2081     2430     2839     3119     3289     3682 
    4171     4147     3411     2511     2153     2344     2408     1961 
    1328     1057     1410     2089     2617     2922     3082     3073 
    2998     3015     3107     3071     2813     2560     2400     2150 
    1961     2134     2540     2890     3084     3148     3098     2895 
    2567     2308     2220     2226     2384     2747     2980     2916 
    2893     3141     3550     3832     3640     3053     2544     2339 
    2370     2587     2921     3173     3160     2917     2628     2338 
    2038     1802     1703     1872     2359     2795     2776     2562 
    2747     3326     3707     3619     3364     3159     2925     2741 
    2818     2979     2762     2281     2193     2544     2756     2782 
    2953     3136     3129     3038     2932     2895     2934     2756 
    2253     1814     1806     2052     2176     2290     2658     2967 
    2803     2458     2532     2902     2866     2409     2276     2597 
    2710     2409     2254     2646     3303     3731     3802     3658 
    3402     3069     2721     2459     2323     2200     1977     1671 
    1455     1520     1848     2366     3003     3469     3572     3545 
    3564     3439     3053     2639     2463     2511     2758     3311 
    3927     4158     4099     4070     3871     3222     2421     1910 
    1718     1698     1833     2065     2174     2115     2065     2058 
    2056     2149     2373     2628     2852     3072     3304     3450 
    3294     2782     2239     2034     2180     2435     2610     2619 
    2517     2508     2629     2679     2594     2585     2782     3063 
    3190     3063     2859     2833     2995     3061     2832     2478 
    2307     2513     3037     3456     3404     3001     2548     2219 
    2011     1899     2046     2492     2938     3176     3265     3323 
    3343     3292     3329     3492     3437     2986     2427     2039 
    1845     1787     1911     2147     2257     2231     2205     2196 
    2311     2635     3026     3339     3449     3353     3288     3292 
    3141     2917     2960     3202     3173     2835     2670     2863 
    3118     3294     3451     3457     3138     2656     2367     2332 
    2203     1736     1185      980     1206     1636     2077     2504 
    2910     3307     3728     4006     3885     3505     3240     3169 
    3115     2922     2620     2358     2135     1884     1674     1632 
    1798     2049     2274     2566     2938     3183     3219     3214 
    3206     2995     2585     2331     2405     2560     2627     2770 
    3068     3273     3234     3141     3103     3041     3003     3065 
