Origin Time       2024/06/23 22:54:00
Lat.              35.645
Long.             140.060
Depth. (km)       72
Mag.              4.1
Station Code      CHB017
Station Lat.      35.2976
Station Long.     140.0734
Station Height(m) 38
Record Time       2024/06/23 22:54:37
Sampling Freq(Hz) 100Hz
Duration Time(s)  79
Dir.              N-S
Scale Factor      7845(gal)/8223790
Max. Acc. (gal)   7.049
Last Correction   2024/06/23 22:54:37
Memo.             
[...]
   -6918    -6914    -6914    -6922    -6922    -6917    -6924    -6922 
   -6917    -6922    -6917    -6910    -6924    -6925    -6917    -6920 
   -6917    -6910    -6917    -6922    -6921    -6921    -6918    -6918 
   -6920    -6913    -6917    -6928    -6918    -6912    -6925    -6922 
   -6914    -6922    -6922    -6917    -6921    -6924    -6918    -6910 
   -6916    -6922    -6916    -6914    -6920    -6916    -6918    -6925 
   -6910    -6910    -6929    -6921    -6909    -6916    -6917    -6912 
   -6921    -6930    -6914    -6906    -6918    -6925    -6920    -6917 
   -6917    -6918    -6920    -6922    -6918    -6912    -6920    -6922 
   -6913    -6913    -6918    -6918    -6922    -6924    -6916    -6909 
   -6916    -6921    -6920    -6913    -6913    -6925    -6922    -6909 
   -6917    -6925    -6913    -6909    -6918    -6921    -6920    -6917 
   -6916    -6921    -6926    -6916    -6910    -6916    -6918    -6924 
   -6926    -6917    -6907    -6909    -6920    -6925    -6916    -6910 
   -6921    -6925    -6917    -6916    -6922    -6921    -6918    -6920 
   -6918    -6912    -6917    -6928    -6922    -6912    -6916    -6922 
   -6920    -6917    -6917    -6916    -6920    -6926    -6917    -6909 
   -6921    -6929    -6922    -6910    -6912    -6920    -6920    -6924 
   -6925    -6914    -6913    -6921    -6918    -6914    -6918    -6924 
   -6922    -6916    -6912    -6920    -6924    -6922    -6924    -6914 
   -6910    -6922    -6921    -6914    -6921    -6920    -6914    -6921 
   -6916    -6906    -6918    -6926    -6916    -6920    -6925    -6910 
   -6910    -6921    -6920    -6918    -6918    -6917    -6918    -6916 
   -6920    -6929    -6922    -6910    -6916    -6924    -6917    -6918 
   -6921    -6917    -6921    -6924    -6917    -6917    -6922    -6921 
   -6920    -6922    -6924    -6914    -6910    -6926    -6932    -6913 
   -6914    -6930    -6920    -6906    -6922    -6928    -6910    -6914 
   -6929    -6922    -6914    -6918    -6918    -6916    -6916    -6921 
   -6924    -6917    -6916    -6928    -6926    -6913    -6912    -6920 
   -6920    -6924    -6922    -6914    -6916    -6920    -6921    -6924 
   -6924    -6921    -6921    -6917    -6914    -6918    -6928    -6930 
   -6922    -6916    -6916    -6925    -6924    -6917    -6918    -6921 
   -6920    -6924    -6921    -6910    -6913    -6926    -6925    -6920 
   -6918    -6912    -6918    -6934    -6928    -6914    -6921    -6924 
   -6913    -6916    -6925    -6918    -6914    -6925    -6925    -6910 
   -6909    -6922    -6926    -6918    -6921    -6929    -6921    -6907 
   -6917    -6929    -6922    -6920    -6921    -6916    -6917    -6916 
   -6913    -6920    -6921    -6922    -6924    -6914    -6918    -6926 
   -6920    -6916    -6922    -6918    -6913    -6922    -6929    -6917 
   -6913    -6924    -6924    -6912    -6912    -6920    -6924    -6922 
   -6917    -6912    -6914    -6918    -6918    -6920    -6920    -6916 
   -6918    -6925    -6920    -6917    -6924    -6924    -6920    -6913 
   -6913    -6924    -6924    -6920    -6920    -6914    -6917    -6930 
   -6925    -6913    -6917    -6917    -6917    -6926    -6916    -6910 
   -6926    -6922    -6910    -6917    -6918    -6914    -6921    -6924 
   -6918    -6920    -6924    -6917    -6913    -6917    -6924    -6920 
   -6914    -6922    -6922    -6916    -6918    -6920    -6917    -6914 
   -6916    -6918    -6924    -6924    -6916    -6914    -6922    -6916 
   -6912    -6920    -6922    -6916    -6914    -6918    -6918    -6913 
   -6917    -6920    -6914    -6922    -6926    -6914    -6910    -6917 
   -6921    -6920    -6918    -6918    -6916    -6914    -6920    -6922 
   -6916    -6912    -6921    -6925    -6912    -6914    -6926    -6916 
   -6913    -6922    -6914    -6914    -6922    -6914    -6910    -6921 
   -6921    -6913    -6918    -6921    -6914    -6917    -6921    -6914 
   -6914    -6922    -6924    -6917    -6917    -6920    -6916    -6916 
   -6925    -6922    -6912    -6913    -6921    -6917    -6914    -6921 
   -6926    -6920    -6913    -6913    -6917    -6921    -6921    -6917 
   -6916    -6916    -6920    -6918    -6910    -6918    -6926    -6921 
   -6914    -6914    -6917    -6918    -6917    -6924    -6922    -6913 
   -6921    -6930    -6916    -6909    -6918    -6921    -6913    -6914 
   -6917    -6913    -6914    -6925    -6920    -6907    -6921    -6928 
   -6914    -6917    -6928    -6924    -6917    -6917    -6922    -6916 
   -6909    -6925    -6925    -6903    -6914    -6930    -6922    -6917 
   -6918    -6918    -6917    -6918    -6921    -6916    -6917    -6926 
   -6925    -6910    -6912    -6929    -6926    -6913    -6913    -6925 
   -6932    -6921    -6912    -6918    -6917    -6914    -6925    -6926 
   -6920    -6922    -6928    -6929    -6921    -6912    -6920    -6921 
   -6909    -6913    -6914    -6903    -6905    -6912    -6912    -6917 
   -6928    -6934    -6936    -6937    -6940    -6940    -6918    -6893 
   -6917    -6961    -6940    -6889    -6895    -6921    -6899    -6898 
   -6951    -6939    -6867    -6885    -6963    -6936    -6821    -6818 
   -6940    -6956    -6887    -6947    -6993    -6874    -6849    -7025 
   -7090    -6894    -6793    -7017    -7075    -6764    -6744    -7030 
   -6967    -6790    -6978    -7136    -6839    -6511    -6694    -6978 
   -6878    -6918    -7261    -7172    -6740    -6758    -7067    -7044 
   -6920    -7059    -7065    -6816    -6808    -6912    -6702    -6625 
   -7028    -7294    -7130    -6987    -6979    -6821    -6529    -6423 
   -6617    -6928    -7245    -7410    -7165    -6767    -6714    -6960 
   -7167    -7202    -7121    -6902    -6598    -6535    -6717    -6791 
   -6898    -7258    -7464    -7203    -6740    -6412    -6411    -6713 
   -6995    -7078    -7199    -7393    -7314    -6941    -6604    -6524 
   -6718    -6936    -6949    -6922    -7003    -6979    -6762    -6698 
   -6934    -7132    -7107    -7069    -7082    -6933    -6697    -6736 
   -6987    -7105    -7005    -6875    -6889    -6856    -6655    -6627 
   -6829    -6970    -7010    -7028    -7042    -6993    -6799    -6662 
   -6751    -6875    -6998    -7272    -7497    -7407    -7122    -6754 
   -6362    -6242    -6500    -6909    -7242    -7312    -7137    -6917 
   -6656    -6459    -6601    -6959    -7221    -7360    -7353    -7084 
   -6775    -6751    -6824    -6733    -6751    -7040    -7209    -7045 
   -6810    -6687    -6625    -6697    -7101    -7537    -7337    -6687 
   -6446    -6582    -6625    -6853    -7345    -7527    -7366    -7199 
   -6897    -6454    -6261    -6432    -6750    -7055    -7304    -7380 
   -7130    -6778    -6732    -6909    -6994    -6988    -6978    -6959 
   -6951    -6924    -6782    -6592    -6693    -7098    -7267    -7056 
   -6804    -6617    -6512    -6543    -6736    -7188    -7587    -7530 
   -7276    -6986    -6594    -6504    -6806    -7036    -7037    -6955 
   -6879    -6768    -6617    -6674    -6997    -7237    -7187    -7001 
   -6864    -6754    -6644    -6646    -6822    -7079    -7225    -7198 
   -7033    -6720    -6431    -6474    -6832    -7241    -7477    -7360 
   -6952    -6608    -6567    -6797    -7115    -7272    -7157    -6953 
   -6866    -6813    -6723    -6727    -6863    -7005    -7022    -6909 
   -6833    -6855    -6921    -7091    -7281    -7222    -6934    -6681 
   -6593    -6600    -6627    -6705    -6817    -6894    -6951    -7020 
   -7071    -7075    -7068    -7145    -7240    -7153    -6978    -6928 
   -6833    -6606    -6615    -6853    -6936    -6947    -7146    -7284 
   -7083    -6813    -6714    -6608    -6558    -6833    -7137    -7088 
   -6945    -6952    -6836    -6571    -6642    -7003    -7098    -7015 
   -7064    -6951    -6666    -6713    -6988    -7036    -7025    -7169 
   -7094    -6812    -6928    -7190    -6905    -6554    -6772    -7086 
   -7069    -6993    -6991    -6880    -6718    -6853    -7165    -7163 
   -6951    -6874    -6793    -6624    -6481    -6394    -6569    -7045 
   -7400    -7443    -7408    -7337    -7061    -6620    -6353    -6486 
   -6809    -7092    -7225    -7017    -6779    -7022    -7358    -7277 
   -6987    -6648    -6366    -6443    -6717    -6810    -6837    -6926 
   -6947    -7007    -7233    -7326    -7122    -6945    -6903    -6737 
   -6644    -6907    -7094    -6847    -6567    -6627    -6871    -7025 
   -7011    -6859    -6747    -6860    -7009    -6980    -6910    -6907 
   -6894    -6852    -6922    -7053    -7022    -6976    -7056    -7024 
   -6894    -6921    -7095    -7202    -7149    -7079    -7095    -7214 
   -7319    -7107    -6781    -6832    -6907    -6608    -6408    -6582 
   -6748    -6747    -6802    -6936    -7022    -7137    -7173    -6899 
   -6616    -6631    -6735    -6880    -7221    -7410    -7088    -6704 
   -6712    -6772    -6793    -7183    -7446    -6997    -6678    -6944 
   -6920    -6502    -6527    -6944    -7064    -6949    -6978    -6866 
   -6507    -6447    -6721    -6860    -6936    -7152    -7253    -7146 
   -7165    -7296    -7142    -6945    -7191    -7345    -6952    -6718 
   -6879    -6818    -6590    -6651    -6843    -6826    -6724    -6816 
   -6941    -6813    -6812    -7280    -7542    -7149    -6817    -6871 
   -6744    -6563    -6766    -6770    -6400    -6471    -6818    -6743 
   -6659    -7006    -7300    -7204    -7098    -7192    -7150    -7048 
   -7231    -7379    -7183    -6818    -6504    -6505    -6795    -7088 
   -7381    -7458    -7091    -6798    -6835    -6705    -6462    -6643 
   -7036    -7157    -7246    -7468    -7284    -6650    -6280    -6270 
   -6134    -6073    -6623    -7403    -7672    -7520    -7376    -7188 
   -6936    -6907    -7055    -7037    -6939    -7044    -7196    -7134 
   -7036    -7064    -7042    -6976    -6887    -6566    -6265    -6322 
   -6442    -6501    -6674    -6883    -7196    -7543    -7345    -6596 
   -6026    -5931    -6216    -6818    -7277    -7246    -7288    -7684 
   -7690    -7145    -6841    -6902    -6867    -6870    -7005    -6930 
   -6794    -6970    -7206    -7137    -6895    -6683    -6440    -6258 
   -6423    -6808    -7001    -7005    -7186    -7605    -7766    -7435 
   -7194    -7222    -7002    -6693    -6767    -6978    -7033    -7045 
   -7011    -6849    -6650    -6508    -6363    -6276    -6516    -6943 
   -7094    -7059    -7173    -7141    -6693    -6392    -6540    -6671 
   -6774    -7044    -7091    -6837    -6658    -6615    -6659    -6845 
   -7083    -7188    -7129    -7145    -7431    -7723    -7704    -7514 
   -7381    -7236    -6987    -6766    -6646    -6529    -6423    -6443 
   -6667    -7005    -7190    -7118    -6893    -6621    -6416    -6359 
   -6556    -6971    -7156    -6937    -6732    -6740    -6844    -6920 
   -6840    -6768    -6939    -7122    -7055    -6933    -6947    -6939 
   -6862    -6886    -7033    -7284    -7615    -7784    -7560    -7119 
   -6944    -6988    -6697    -6254    -6243    -6359    -6326    -6594 
   -7020    -7015    -6903    -7230    -7669    -7636    -7133    -6602 
   -6411    -6486    -6582    -6696    -6852    -6856    -6628    -6308 
   -6019    -5925    -6172    -6689    -7330    -7946    -8266    -8136 
   -7879    -7824    -7658    -7192    -6999    -7244    -7283    -6975 
   -6787    -6696    -6457    -6390    -6690    -6779    -6394    -6212 
   -6486    -6588    -6450    -6570    -6845    -7080    -7391    -7491 
   -7115    -6717    -6610    -6502    -6388    -6567    -6839    -6912 
   -6974    -7065    -7072    -7245    -7587    -7601    -7244    -6949 
   -6860    -6856    -6936    -7095    -7177    -7118    -6972    -6748 
   -6540    -6461    -6431    -6427    -6613    -7067    -7501    -7495 
   -7145    -6916    -6794    -6664    -6821    -7192    -7322    -7242 
   -7146    -6907    -6582    -6377    -6270    -6242    -6331    -6529 
   -6894    -7283    -7338    -7144    -7129    -7250    -7234    -7159 
   -7136    -7123    -7141    -7165    -7056    -6812    -6700    -6875 
   -7078    -7136    -7226    -7231    -6790    -6203    -6127    -6528 
   -6947    -7209    -7281    -7059    -6516    -6068    -6216    -6716 
   -7047    -7321    -7630    -7519    -6885    -6309    -6176    -6280 
   -6471    -6878    -7334    -7488    -7464    -7553    -7578    -7375 
   -7183    -7072    -6882    -6704    -6652    -6624    -6664    -7044 
   -7673    -7960    -7696    -7219    -6669    -6203    -6207    -6508 
   -6632    -6739    -7076    -7273    -6997    -6527    -6335    -6507 
   -6764    -6907    -6878    -6677    -6551    -6646    -6732    -6741 
   -6770    -6763    -6754    -6893    -7064    -7032    -7013    -7327 
   -7678    -7828    -8005    -8120    -7839    -7253    -6666    -6087 
   -5526    -5340    -5697    -6278    -6716    -6887    -6974    -7080 
   -7015    -6849    -6887    -7009    -6982    -6945    -7086    -7279 
   -7192    -6858    -6740    -6912    -6998    -6975    -7002    -7014 
   -7076    -7323    -7522    -7572    -7731    -7823    -7480    -6914 
   -6427    -6037    -5908    -6204    -6625    -6853    -7138    -7638 
   -7971    -8162    -8536    -8749    -8402    -7695    -6845    -5960 
   -5333    -5197    -5543    -6172    -6758    -7183    -7681    -8336 
   -8788    -8640    -7985    -7159    -6185    -5011    -3978    -3539 
   -3707    -4172    -4650    -4869    -4799    -4625    -4139    -3083 
   -1976    -1574    -2088    -3447    -5543    -7998   -10353   -12343 
  -13720   -14308   -14292   -13926   -13274   -12475   -11755   -11167 
  -10508    -9748    -9396    -9752   -10116    -9633    -8260    -6633 
   -5486    -4985    -4676    -4117    -3383    -3060    -3453    -4133 
   -4602    -4549    -3804    -2714    -1962    -1817    -2092    -2625 
   -3226    -3616    -3908    -4691    -6353    -8451   -10122   -10976 
  -11142   -10797   -10046    -8950    -7635    -6504    -6106    -6640 
   -7801    -9201   -10581   -11585   -11776   -10982    -9316    -7059 
   -4851    -3411    -2895    -2820    -2586    -2199    -2241    -3207 
   -5182    -7680    -9917   -11381   -11832   -11377   -10466    -9382 
   -8341    -7673    -7376    -7362    -7882    -8858    -9436    -8889 
   -7406    -5734    -4684    -4611    -5019    -5335    -5583    -5776 
   -5841    -6130    -6880    -7558    -7458    -6631    -5598    -4580 
   -3686    -3285    -3716    -4953    -6579    -8028    -8822    -8684 
   -7824    -6903    -6473    -6609    -6986    -7236    -7204    -6856 
   -6313    -5945    -5983    -6173    -6168    -6199    -6777    -7769 
   -8657    -9350    -9787    -9714    -9335    -9004    -8637    -8158 
   -7705    -7361    -7130    -7059    -7261    -7677    -7890    -7649 
   -7237    -6848    -6226    -5289    -4423    -3981    -4025    -4472 
   -5158    -5871    -6548    -7229    -7712    -7801    -7608    -7211 
   -6601    -5931    -5572    -5958    -7014    -8036    -8451    -8384 
   -8391    -8586    -8577    -8208    -7615    -6910    -6189    -5603 
   -5340    -5358    -5367    -5354    -5501    -5714    -5938    -6457 
   -7492    -8893   -10143   -10601   -10010    -8615    -6883    -5375 
   -4469    -4220    -4689    -5830    -7006    -7600    -7728    -7636 
   -7273    -6739    -6299    -5979    -5584    -5116    -4853    -4980 
   -5418    -6057    -6864    -7765    -8521    -8999    -9373    -9787 
  -10192   -10496   -10497   -10006    -9107    -7983    -6875    -6093 
   -5648    -5324    -5103    -4936    -4665    -4379    -4297    -4399 
   -4506    -4634    -4993    -5572    -6203    -6902    -7634    -8129 
   -8217    -8097    -8063    -8035    -7838    -7716    -7904    -8113 
   -7998    -7654    -7322    -6971    -6420    -5765    -5370    -5382 
   -5641    -6110    -6863    -7689    -8241    -8434    -8259    -7653 
   -6835    -6274    -6228    -6636    -7345    -8167    -8766    -8843 
   -8434    -7858    -7429    -7125    -6619    -5954    -5582    -5602 
   -5775    -6066    -6525    -6934    -7079    -7010    -6797    -6511 
   -6237    -5860    -5413    -5302    -5713    -6363    -6975    -7568 
   -8112    -8340    -8206    -7950    -7576    -6964    -6253    -5698 
   -5421    -5374    -5406    -5497    -5771    -6297    -7052    -7955 
   -8758    -9130    -9019    -8737    -8583    -8596    -8735    -9043 
   -9475    -9757    -9595    -8912    -7769    -6366    -5031    -4005 
   -3348    -3026    -2949    -3044    -3356    -3946    -4737    -5543 
   -6261    -6940    -7574    -8035    -8337    -8569    -8638    -8418 
   -7981    -7538    -7180    -6920    -6899    -7180    -7577    -7890 
   -8010    -7963    -7858    -7668    -7369    -7121    -7017    -6984 
   -6971    -6966    -6912    -6696    -6232    -5641    -5283    -5383 
   -5755    -6110    -6389    -6705    -7098    -7487    -7875    -8252 
   -8436    -8359    -8187    -8079    -8040    -8014    -8009    -7989 
   -7747    -7156    -6396    -5719    -5236    -5066    -5220    -5401 
   -5373    -5211    -5098    -5132    -5274    -5513    -6011    -6902 
   -8074    -9244   -10107   -10428   -10166    -9445    -8355    -6960 
   -5555    -4581    -4259    -4495    -5101    -5830    -6367    -6570 
   -6620    -6691    -6727    -6666    -6555    -6500    -6683    -7132 
   -7647    -8097    -8421    -8573    -8536    -8232    -7743    -7358 
   -7221    -7219    -7204    -7110    -6913    -6663    -6516    -6507 
   -6507    -6480    -6536    -6727    -6909    -6970    -6952    -6797 
   -6477    -6210    -6145    -6188    -6280    -6488    -6799    -7067 
   -7277    -7592    -8019    -8392    -8608    -8662    -8538    -8144 
   -7477    -6705    -5925    -5148    -4580    -4442    -4644    -4965 
   -5452    -6215    -7067    -7786    -8338    -8694    -8820    -8672 
   -8187    -7503    -6864    -6455    -6381    -6558    -6735    -6829 
   -6943    -7055    -6988    -6651    -6134    -5626    -5354    -5463 
   -5910    -6567    -7288    -7830    -8008    -7898    -7646    -7230 
   -6656    -6141    -5811    -5659    -5832    -6417    -7157    -7712 
   -7956    -7947    -7790    -7584    -7399    -7215    -6910    -6480 
   -6180    -6231    -6616    -7198    -7773    -8206    -8451    -8410 
   -8181    -7969    -7727    -7439    -7261    -7191    -7163    -7182 
   -7188    -7074    -6789    -6389    -5948    -5536    -5254    -5134 
   -5178    -5317    -5402    -5512    -5867    -6388    -6833    -7115 
   -7222    -7136    -6957    -6835    -6752    -6632    -6554    -6596 
   -6732    -6939    -7172    -7360    -7431    -7349    -7157    -6988 
   -6956    -7107    -7391    -7723    -8081    -8352    -8357    -8166 
   -8037    -8036    -7981    -7759    -7492    -7348    -7287    -7186 
   -7014    -6712    -6246    -5814    -5594    -5529    -5524    -5583 
   -5783    -6172    -6646    -7067    -7408    -7645    -7690    -7516 
   -7141    -6629    -6165    -5935    -5995    -6246    -6493    -6613 
   -6604    -6562    -6606    -6756    -6966    -7207    -7447    -7657 
   -7824    -7936    -7929    -7794    -7647    -7550    -7476    -7464 
   -7530    -7558    -7454    -7223    -6848    -6320    -5769    -5400 
   -5273    -5317    -5447    -5589    -5729    -5983    -6416    -6910 
   -7339    -7614    -7663    -7568    -7464    -7416    -7427    -7437 
   -7446    -7519    -7618    -7701    -7792    -7825    -7669    -7288 
