Origin Time       2024/06/23 22:54:00
Lat.              35.645
Long.             140.060
Depth. (km)       72
Mag.              4.1
Station Code      CHB021
Station Lat.      34.9078
Station Long.     139.8994
Station Height(m) 9
Record Time       2024/06/23 22:54:52
Sampling Freq(Hz) 100Hz
Duration Time(s)  60
Dir.              U-D
Scale Factor      7845(gal)/8223790
Max. Acc. (gal)   0.458
Last Correction   2024/06/23 22:54:51
Memo.             
[...]
    2286     2317     2365     2319     2319     2353     2316     2319 
    2353     2324     2316     2343     2344     2317     2316     2350 
    2323     2299     2358     2349     2307     2351     2344     2292 
    2326     2355     2317     2322     2362     2326     2300     2354 
    2347     2289     2330     2367     2307     2309     2369     2326 
    2297     2365     2339     2282     2350     2363     2305     2344 
    2354     2289     2327     2371     2313     2315     2361     2323 
    2312     2357     2331     2305     2349     2344     2308     2334 
    2349     2324     2334     2339     2313     2319     2349     2343 
    2320     2342     2362     2316     2292     2339     2347     2311 
    2340     2365     2317     2317     2342     2309     2331     2367 
    2304     2312     2384     2319     2284     2361     2335     2311 
    2362     2316     2304     2377     2328     2281     2344     2349 
    2315     2334     2349     2332     2313     2317     2334     2331 
    2326     2336     2332     2328     2342     2316     2296     2355 
    2357     2288     2331     2373     2301     2311     2361     2316 
    2320     2351     2316     2323     2340     2316     2331     2346 
    2323     2322     2339     2338     2320     2315     2330     2316 
    2304     2327     2324     2316     2350     2349     2309     2328 
    2353     2308     2301     2327     2297     2312     2358     2340 
    2366     2396     2359     2354     2339     2311     2342     2331 
    2286     2304     2301     2277     2326     2396     2408     2362 
    2312     2297     2284     2273     2319     2366     2381     2421 
    2416     2305     2245     2288     2296     2300     2363     2385 
    2369     2385     2376     2330     2308     2316     2343     2358 
    2320     2280     2301     2309     2242     2197     2231     2280 
    2334     2388     2413     2401     2339     2286     2319     2409 
    2482     2462     2370     2296     2220     2209     2351     2400 
    2251     2238     2346     2358     2412     2502     2415     2281 
    2305     2335     2222     2141     2234     2365     2384     2338 
    2362     2436     2409     2344     2359     2361     2347     2354 
    2282     2220     2299     2378     2330     2277     2334     2316 
    2189     2269     2467     2386     2208     2265     2412     2496 
    2512     2384     2187     2143     2236     2307     2354     2380 
    2338     2295     2311     2342     2381     2415     2351     2263 
    2281     2357     2421     2434     2363     2301     2259     2161 
    2158     2353     2489     2421     2323     2303     2305     2327 
    2378     2297     2072     1998     2146     2315     2467     2617 
    2627     2492     2403     2401     2381     2312     2247     2207 
    2143     2097     2155     2276     2389     2462     2454     2367 
    2299     2411     2608     2600     2451     2357     2176     1935 
    2003     2313     2365     2203     2254     2365     2324     2425 
    2633     2608     2477     2430     2353     2266     2235     2172 
    2074     2020     2043     2200     2489     2686     2629     2527 
    2532     2447     2246     2149     2195     2261     2247     2146 
    2079     2157     2353     2512     2555     2563     2508     2342 
    2253     2307     2309     2274     2311     2255     2096     2135 
    2381     2546     2555     2450     2280     2253     2412     2471 
    2336     2212     2181     2215     2273     2311     2355     2397 
    2396     2382     2346     2343     2458     2527     2397     2234 
    2226     2274     2188     2141     2317     2386     2231     2228 
    2413     2479     2423     2427     2442     2326     2254     2354 
    2392     2311     2269     2214     2200     2343     2413     2349 
    2404     2466     2285     2103     2176     2286     2285     2320 
    2403     2415     2412     2444     2420     2381     2415     2421 
    2350     2238     2139     2192     2343     2376     2363     2428 
    2400     2243     2154     2170     2231     2353     2431     2371 
    2358     2455     2436     2303     2253     2236     2208     2330 
    2496     2467     2370     2355     2332     2269     2193     2153 
    2288     2484     2419     2230     2290     2424     2349     2377 
    2596     2550     2296     2185     2147     2160     2246     2227 
    2187     2358     2571     2543     2447     2509     2485     2265 
    2124     2068     2010     2154     2408     2432     2386     2542 
    2660     2536     2339     2199     2099     2058     2068     2089 
    2219     2475     2624     2620     2621     2548     2384     2293 
    2195     2035     2015     2153     2272     2322     2373     2462 
    2524     2497     2447     2438     2401     2295     2196     2201 
    2270     2262     2241     2369     2490     2419     2328     2305 
    2250     2253     2362     2359     2218     2199     2338     2405 
    2385     2461     2583     2556     2407     2223     2046     2008 
    2123     2212     2231     2315     2474     2558     2542     2533 
    2488     2358     2259     2209     2169     2230     2367     2367 
    2223     2137     2212     2411     2594     2592     2409     2258 
    2246     2257     2254     2319     2417     2417     2290     2205 
    2268     2350     2350     2288     2184     2138     2246     2412 
    2509     2520     2465     2388     2322     2263     2266     2334 
    2342     2313     2362     2393     2343     2330     2313     2257 
    2311     2384     2269     2176     2311     2436     2359     2269 
    2355     2444     2381     2300     2250     2182     2193     2332 
    2501     2606     2598     2443     2180     2033     2133     2258 
    2268     2277     2327     2448     2643     2671     2443     2216 
    2095     1991     1953     2091     2350     2559     2624     2592 
    2550     2542     2539     2440     2220     2038     2006     2034 
    2073     2196     2366     2493     2566     2565     2481     2373 
    2301     2247     2193     2165     2180     2245     2339     2394 
    2424     2455     2435     2420     2469     2417     2261     2227 
    2295     2295     2277     2358     2415     2300     2208     2297 
    2346     2289     2305     2343     2336     2367     2401     2420 
    2489     2551     2498     2357     2223     2111     2052     2115 
    2227     2276     2328     2417     2452     2459     2465     2378 
    2265     2261     2309     2361     2413     2373     2269     2273 
    2331     2273     2203     2280     2378     2367     2355     2390 
    2328     2204     2208     2228     2157     2218     2423     2525 
    2520     2496     2423     2312     2235     2214     2242     2295 
    2319     2344     2411     2408     2322     2311     2382     2389 
    2295     2208     2193     2246     2403     2528     2419     2285 
    2385     2471     2354     2253     2258     2208     2158     2286 
    2385     2285     2323     2550     2547     2328     2270     2346 
    2326     2263     2259     2265     2278     2303     2266     2226 
    2296     2430     2497     2455     2359     2290     2304     2355 
    2307     2222     2292     2423     2415     2327     2292     2301 
    2290     2274     2323     2365     2354     2439     2570     2454 
    2165     2026     2053     2187     2451     2623     2532     2389 
    2335     2254     2135     2130     2269     2380     2392     2407 
    2419     2405     2474     2527     2362     2161     2161     2216 
    2208     2254     2336     2330     2282     2343     2524     2635 
    2513     2307     2204     2170     2169     2215     2250     2286 
    2438     2598     2569     2466     2394     2265     2165     2180 
    2193     2180     2235     2362     2481     2536     2506     2400 
    2253     2149     2134     2170     2266     2401     2463     2448 
    2412     2386     2386     2363     2280     2176     2169     2304 
    2401     2374     2416     2521     2452     2270     2207     2261 
    2316     2303     2251     2273     2367     2412     2365     2304 
    2285     2300     2358     2366     2258     2191     2222     2259 
    2362     2532     2566     2421     2330     2384     2415     2342 
    2263     2203     2131     2145     2203     2181     2227     2376 
    2419     2423     2485     2461     2393     2423     2435     2332 
    2269     2317     2346     2303     2263     2239     2239     2324 
    2405     2342     2273     2350     2454     2494     2523     2473 
    2286     2111     2064     2112     2230     2370     2447     2435 
    2380     2334     2290     2278     2353     2420     2382     2326 
    2347     2371     2316     2262     2259     2246     2228     2301 
    2431     2442     2366     2430     2516     2408     2286     2239 
    2173     2282     2502     2459     2269     2257     2365     2419 
    2388     2289     2165     2181     2299     2249     2215     2470 
    2586     2301     2096     2226     2369     2327     2274     2319 
    2355     2340     2308     2305     2390     2455     2370     2235 
    2223     2365     2508     2524     2451     2342     2228     2135 
    2091     2172     2308     2355     2317     2290     2336     2396 
    2409     2378     2326     2288     2284     2324     2424     2484 
    2436     2423     2419     2249     2130     2289     2461     2458 
    2403     2328     2245     2257     2297     2205     2141     2288 
    2394     2311     2266     2288     2305     2446     2544     2334 
    2120     2255     2450     2397     2394     2602     2579     2299 
    2232     2250     2104     2178     2466     2469     2307     2332 
    2411     2353     2265     2259     2255     2205     2232     2369 
    2496     2508     2384     2270     2331     2443     2384     2204 
    2138     2255     2396     2463     2493     2443     2292     2187 
    2189     2193     2160     2164     2224     2292     2389     2528 
    2579     2496     2440     2448     2384     2277     2278     2323 
    2280     2269     2361     2389     2265     2095     2099     2249 
    2269     2262     2416     2475     2362     2381     2571     2628 
    2457     2292     2209     2093     2018     2108     2297     2511 
    2641     2533     2331     2301     2378     2312     2143     2119 
    2174     2155     2231     2436     2552     2500     2389     2350 
    2347     2327     2359     2330     2208     2284     2430     2317 
    2262     2452     2439     2223     2180     2241     2280     2338 
    2343     2255     2166     2227     2392     2405     2315     2363 
    2504     2508     2324     2166     2239     2431     2515     2478 
    2409     2319     2253     2246     2242     2317     2497     2486 
    2259     2174     2284     2377     2376     2284     2191     2184 
    2226     2254     2326     2517     2679     2606     2440     2367 
    2277     2180     2218     2299     2263     2139     2158     2386 
    2558     2594     2551     2349     2138     2108     2130     2116 
    2176     2366     2513     2419     2254     2239     2276     2354 
    2486     2482     2358     2347     2473     2565     2492     2304 
    2168     2149     2184     2174     2178     2315     2451     2382 
    2218     2215     2350     2415     2427     2381     2201     2155 
    2370     2538     2550     2493     2380     2277     2268     2396 
    2535     2436     2258     2214     2110     2033     2181     2350 
    2430     2416     2274     2181     2234     2340     2435     2385 
    2193     2106     2216     2398     2604     2783     2755     2501 
    2338     2380     2334     2193     2176     2192     2170     2242 
    2328     2263     2165     2193     2261     2253     2262     2344 
    2357     2322     2390     2436     2397     2486     2635     2558 
    2322     2176     2197     2290     2316     2288     2272     2249 
    2324     2538     2600     2435     2408     2565     2520     2290 
    2164     2107     2070     2154     2272     2262     2197     2193 
    2191     2155     2212     2346     2358     2307     2398     2533 
    2529     2512     2616     2648     2478     2340     2344     2354 
    2334     2300     2243     2178     2124     2116     2200     2363 
    2463     2354     2220     2277     2349     2305     2224     2104 
    2006     2084     2232     2284     2370     2573     2683     2624 
    2573     2592     2560     2546     2633     2577     2305     2154 
    2158     2087     1965     1931     2000     2149     2319     2452 
    2547     2508     2365     2366     2438     2393     2409     2489 
    2396     2249     2212     2172     2095     2120     2247     2359 
    2369     2277     2238     2327     2416     2423     2366     2316 
    2313     2327     2320     2296     2274     2265     2282     2351 
    2403     2347     2270     2309     2408     2450     2461     2511 
    2523     2451     2409     2384     2300     2285     2312     2208 
    2101     2177     2289     2320     2390     2502     2512     2409 
    2340     2331     2257     2196     2336     2527     2428     2143 
    2065     2142     2127     2191     2332     2277     2231     2362 
    2374     2309     2479     2681     2552     2295     2246     2239 
    2116     2165     2366     2371     2300     2385     2505     2497 
    2444     2538     2583     2234     1850     1927     2178     2269 
    2370     2525     2585     2604     2610     2479     2322     2363 
    2459     2358     2185     2142     2141     2103     2155     2246 
    2193     2182     2355     2434     2369     2423     2554     2589 
    2504     2326     2216     2292     2365     2303     2230     2278 
    2384     2411     2404     2420     2370     2245     2123     2061 
    2119     2305     2466     2446     2343     2367     2448     2369 
    2205     2188     2313     2398     2365     2290     2304     2413 
    2469     2404     2317     2297     2377     2511     2569     2492 
    2371     2299     2241     2187     2200     2269     2297     2232 
    2207     2323     2369     2259     2197     2211     2218     2266 
    2332     2388     2450     2450     2396     2382     2413     2400 
    2277     2166     2215     2323     2384     2452     2519     2470 
    2319     2166     2089     2169     2305     2303     2246     2255 
    2261     2266     2347     2439     2466     2517     2571     2488 
    2373     2336     2282     2266     2355     2370     2243     2130 
    2160     2269     2254     2214     2328     2381     2342     2404 
    2470     2446     2358     2251     2200     2160     2146     2266 
    2415     2416     2315     2263     2322     2470     2628     2635 
    2467     2351     2373     2343     2201     2104     2147     2250 
    2303     2361     2486     2515     2407     2386     2440     2390 
    2281     2176     2119     2196     2396     2617     2678     2520 
    2349     2224     2106     2111     2187     2168     2157     2295 
    2474     2512     2463     2508     2592     2520     2332     2232 
    2220     2165     2110     2124     2166     2226     2297     2342 
    2371     2370     2300     2270     2354     2389     2338     2380 
    2467     2430     2353     2371     2400     2327     2304     2431 
    2457     2354     2358     2386     2303     2188     2085     2058 
    2143     2266     2393     2415     2255     2118     2147     2257 
    2339     2343     2324     2322     2316     2386     2532     2596 
    2500     2320     2209     2241     2328     2401     2477     2517 
    2486     2440     2358     2182     2070     2165     2308     2342 
    2332     2316     2250     2211     2299     2417     2413     2334 
    2369     2519     2550     2412     2343     2405     2417     2346 
    2289     2272     2266     2297     2403     2485     2455     2430 
    2419     2265     2126     2211     2308     2250     2212     2266 
    2315     2357     2419     2420     2343     2280     2232     2195 
    2265     2400     2412     2299     2280     2386     2428     2405 
    2404     2301     2141     2155     2278     2346     2386     2431 
    2450     2439     2439     2440     2381     2371     2469     2457 
    2293     2172     2143     2141     2119     2114     2160     2184 
    2246     2420     2500     2439     2432     2434     2354     2320 
    2374     2408     2384     2380     2370     2285     2243     2263 
    2211     2115     2108     2216     2309     2336     2394     2430 
    2389     2362     2359     2389     2471     2497     2400     2288 
    2288     2371     2424     2354     2170     2089     2250     2425 
    2457     2428     2336     2188     2162     2324     2465     2469 
    2469     2474     2400     2353     2389     2374     2286     2245 
    2216     2131     2128     2247     2323     2308     2290     2346 
    2469     2565     2581     2511     2389     2319     2299     2262 
    2263     2367     2482     2486     2397     2312     2259     2226 
    2195     2153     2126     2160     2249     2343     2354     2330 
    2401     2481     2444     2384     2382     2384     2349     2308 
    2280     2262     2266     2304     2328     2273     2197     2234 
    2339     2355     2304     2326     2398     2425     2401     2340 
    2280     2297     2366     2362     2282     2235     2238     2243 
    2235     2215     2231     2324     2392     2355     2355     2447 
    2452     2336     2273     2277     2215     2128     2178     2305 
    2374     2413     2442     2450     2478     2486     2450     2470 
    2546     2513     2343     2207     2169     2151     2153     2211 
    2320     2398     2371     2343     2408     2447     2359     2245 
    2205     2218     2226     2255     2339     2451     2562     2609 
    2529     2394     2313     2334     2424     2455     2351     2214 
    2142     2115     2123     2223     2380     2458     2451     2425 
    2398     2390     2404     2367     2238     2120     2147     2273 
    2336     2317     2317     2353     2385     2420     2401     2272 
    2165     2196     2250     2246     2278     2380     2455     2459 
    2450     2466     2469     2435     2404     2380     2326     2262 
    2245     2301     2369     2336     2251     2232     2253     2253 
    2269     2322     2388     2408     2335     2246     2262     2304 
    2238     2201     2349     2486     2409     2270     2239     2259 
    2313     2405     2427     2365     2300     2246     2232     2301 
    2405     2455     2463     2470     2403     2261     2216     2290 
    2330     2316     2320     2353     2369     2327     2282     2273 
    2251     2249     2309     2357     2361     2384     2404     2404 
    2448     2471     2365     2246     2254     2303     2308     2344 
    2412     2381     2297     2324     2413     2447     2451     2416 
    2303     2219     2243     2288     2296     2274     2223     2199 
    2216     2247     2305     2349     2347     2380     2435     2407 
    2323     2316     2409     2442     2344     2243     2242     2300 
    2320     2316     2347     2385     2411     2389     2268     2185 
