Origin Time       2024/06/23 22:54:00
Lat.              35.645
Long.             140.060
Depth. (km)       72
Mag.              4.1
Station Code      CHB026
Station Lat.      35.3858
Station Long.     140.2404
Station Height(m) 46
Record Time       2024/06/23 22:54:46
Sampling Freq(Hz) 100Hz
Duration Time(s)  60
Dir.              E-W
Scale Factor      7845(gal)/8223790
Max. Acc. (gal)   4.241
Last Correction   2024/06/23 22:54:45
Memo.             
[...]
   15643    15682    15645    15641    15699    15634    15642    15696 
   15645    15658    15674    15639    15680    15666    15615    15684 
   15696    15606    15661    15732    15599    15620    15770    15620 
   15583    15753    15665    15593    15687    15695    15650    15624 
   15680    15695    15611    15670    15701    15593    15674    15732 
   15593    15641    15735    15633    15619    15707    15661    15611 
   15692    15691    15611    15672    15707    15606    15637    15736 
   15647    15607    15700    15676    15633    15661    15668    15676 
   15651    15637    15677    15666    15654    15661    15645    15689 
   15677    15604    15665    15699    15649    15660    15647    15650 
   15693    15650    15631    15684    15655    15635    15692    15657 
   15615    15695    15674    15607    15687    15695    15611    15651 
   15703    15649    15634    15689    15673    15627    15650    15691 
   15670    15635    15666    15651    15643    15707    15649    15619 
   15701    15661    15622    15677    15673    15642    15661    15665 
   15649    15673    15674    15635    15651    15684    15651    15642 
   15685    15664    15630    15673    15677    15637    15658    15668 
   15658    15662    15643    15669    15670    15631    15691    15670 
   15610    15685    15668    15631    15691    15650    15649    15688 
   15637    15660    15677    15637    15672    15670    15642    15658 
   15662    15676    15660    15634    15669    15680    15645    15633 
   15678    15689    15633    15638    15682    15673    15642    15654 
   15676    15643    15664    15680    15634    15665    15669    15653 
   15661    15619    15689    15701    15584    15681    15705    15593 
   15693    15687    15615    15689    15642    15646    15703    15628 
   15653    15668    15646    15704    15634    15616    15719    15650 
   15620    15704    15651    15622    15703    15673    15620    15676 
   15662    15634    15684    15665    15635    15661    15687    15668 
   15610    15666    15705    15628    15651    15672    15650    15677 
   15647    15658    15676    15630    15695    15665    15592    15732 
   15670    15561    15734    15695    15581    15699    15673    15628 
   15697    15637    15637    15697    15641    15668    15681    15614 
   15687    15689    15610    15682    15688    15607    15666    15699 
   15633    15654    15687    15637    15655    15682    15645    15668 
   15664    15627    15687    15672    15624    15696    15657    15607 
   15709    15677    15607    15684    15672    15628    15669    15668 
   15655    15641    15662    15707    15615    15634    15735    15608 
   15623    15735    15620    15615    15726    15684    15580    15651 
   15766    15599    15579    15780    15639    15579    15732    15641 
   15650    15714    15600    15669    15700    15616    15670    15655 
   15665    15695    15608    15665    15689    15630    15680    15657 
   15653    15682    15624    15662    15705    15653    15642    15673 
   15657    15626    15704    15696    15585    15681    15714    15588 
   15661    15735    15622    15608    15712    15674    15614    15692 
   15687    15627    15669    15669    15647    15666    15662    15674 
   15653    15642    15693    15650    15634    15708    15653    15618 
   15699    15662    15620    15714    15668    15568    15719    15716 
   15554    15701    15722    15564    15677    15705    15618    15674 
   15674    15638    15646    15672    15692    15646    15637    15676 
   15664    15655    15665    15657    15653    15668    15668    15643 
   15668    15682    15638    15654    15668    15645    15682    15661 
   15628    15676    15684    15649    15631    15672    15693    15642 
   15657    15655    15631    15696    15681    15633    15657    15650 
   15669    15666    15641    15691    15639    15624    15723    15641 
   15615    15722    15646    15620    15707    15628    15634    15734 
   15626    15627    15711    15603    15666    15730    15600    15650 
   15689    15635    15677    15653    15655    15687    15624    15668 
   15699    15631    15661    15678    15637    15668    15707    15666 
   15649    15685    15624    15576    15666    15691    15660    15722 
   15720    15623    15661    15727    15651    15651    15718    15593 
   15452    15504    15628    15769    15842    15770    15761    15778 
   15651    15587    15577    15434    15390    15556    15719    15789 
   15796    15769    15639    15502    15565    15596    15542    15695 
   15854    15855    15839    15755    15682    15759    15786    15642 
   15533    15504    15379    15364    15620    15700    15592    15715 
   15763    15587    15619    15673    15527    15493    15597    15749 
   15951    16094    16089    15870    15593    15484    15414    15435 
   15574    15499    15426    15585    15726    15961    16131    15907 
   15687    15566    15384    15399    15503    15525    15604    15557 
   15438    15631    15912    15930    15823    15714    15662    15796 
   15946    15969    15866    15481    15194    15364    15495    15533 
   15664    15572    15525    15743    15789    15657    15537    15526 
   15709    15853    15936    15957    15762    15711    15773    15574 
   15479    15622    15647    15502    15449    15603    15642    15606 
   15668    15599    15601    15687    15547    15475    15461    15379 
   15651    16073    16069    15897    15880    15751    15583    15770 
   15957    15773    15653    15645    15480    15449    15535    15368 
   15284    15558    15749    15788    15830    15741    15564    15406 
   15481    15699    15627    15583    15742    15836    15938    15823 
   15661    15793    15773    15731    15836    15678    15477    15479 
   15611    15692    15488    15331    15402    15499    15735    15935 
   15935    15931    15822    15707    15778    15638    15290    15233 
   15434    15685    15894    15901    15816    15778    15749    15700 
   15542    15395    15437    15550    15700    15823    15795    15651 
   15493    15510    15589    15552    15630    15811    15866    15835 
   15768    15653    15531    15535    15645    15741    15824    15773 
   15669    15705    15697    15607    15488    15334    15368    15542 
   15661    15692    15668    15792    15867    15746    15754    15712 
   15600    15722    15782    15735    15763    15624    15492    15762 
   15986    15780    15593    15562    15417    15410    15651    15746 
   15668    15643    15649    15696    15877    15973    15724    15506 
   15589    15576    15516    15666    15688    15596    15574    15431 
   15333    15395    15561    15923    16101    15947    15682    15431 
   15574    15831    15855    15975    15867    15574    15672    15765 
   15673    15606    15429    15360    15502    15682    15923    15908 
   15628    15510    15400    15303    15462    15597    15611    15739 
   15871    15827    15761    15785    15773    15772    15874    15869 
   15724    15596    15449    15468    15672    15714    15720    15758 
   15643    15529    15445    15407    15539    15708    15809    15785 
   15664    15668    15677    15464    15314    15456    15700    15955 
   16137    16042    15780    15597    15516    15624    15736    15530 
   15349    15429    15485    15515    15645    15824    15871    15742 
   15731    15854    15844    15786    15773    15597    15321    15300 
   15499    15657    15768    15758    15624    15568    15662    15790 
   15761    15666    15618    15492    15407    15431    15564    15785 
   15898    15957    15888    15651    15587    15529    15442    15628 
   15700    15676    15930    16050    15901    15730    15493    15311 
   15288    15304    15361    15530    15736    15954    16147    16012 
   15650    15531    15507    15406    15407    15433    15541    15840 
   16090    16200    16189    15998    15716    15444    15280    15279 
   15376    15579    15708    15624    15668    15831    15792    15670 
   15531    15334    15250    15442    15808    15873    15645    15547 
   15472    15538    15871    15959    15828    15768    15724    15699 
   15597    15592    15796    15881    15934    16044    15946    15773 
   15707    15631    15539    15507    15484    15402    15354    15464 
   15570    15402    15161    15223    15403    15541    15878    16110 
   15921    15835    15919    15793    15715    15724    15502    15303 
   15448    15753    15890    15766    15592    15547    15587    15560 
   15384    15230    15233    15272    15357    15576    15790    15971 
   16285    16521    16413    16232    16116    15886    15797    15994 
   16059    15915    15863    15749    15425    15213    15125    15040 
   15165    15348    15337    15354    15449    15419    15313    15363 
   15574    15747    15959    16243    16317    16281    16231    15836 
   15365    15250    15188    15268    15813    16191    16070    15900 
   15665    15399    15446    15595    15535    15400    15360    15410 
   15546    15755    15831    15685    15537    15485    15450    15479 
   15651    15739    15665    15781    16008    16112    16151    15903 
   15456    15257    15315    15504    15658    15637    15566    15553 
   15607    15633    15537    15498    15677    15955    16042    15912 
   15741    15597    15611    15666    15591    15564    15518    15460 
   15619    15741    15700    15739    15718    15620    15720    15854 
   15741    15496    15360    15369    15491    15731    15888    15839 
   15805    15822    15797    15765    15682    15628    15677    15670 
   15641    15634    15589    15649    15708    15539    15427    15506 
   15507    15525    15680    15788    15784    15641    15557    15758 
   15831    15618    15492    15464    15549    15847    16040    15975 
   15863    15741    15676    15673    15611    15699    15835    15649 
   15349    15153    15075    15265    15604    15846    16023    16117 
   16004    15832    15850    15992    16028    15904    15727    15526 
   15383    15423    15464    15368    15384    15600    15770    15658 
   15344    15134    15184    15465    15786    15924    15908    15768 
   15554    15538    15647    15722    15907    15967    15789    15805 
   15827    15525    15257    15207    15294    15496    15709    15893 
   15925    15817    15846    15880    15866    16039    16051    15727 
   15512    15399    15190    15194    15454    15618    15700    15687 
   15487    15477    15678    15782    15979    16147    15931    15695 
   15657    15619    15684    15754    15642    15553    15493    15450 
   15587    15749    15796    15749    15565    15394    15363    15429 
   15638    15921    16040    15940    15824    15780    15726    15785 
   15869    15736    15581    15527    15483    15400    15299    15412 
   15623    15705    15846    15866    15724    15801    15839    15649 
   15581    15496    15279    15373    15658    15776    15857    15849 
   15697    15619    15665    15739    15776    15765    15747    15741 
   15650    15572    15608    15489    15390    15592    15736    15816 
   15919    15704    15460    15529    15611    15642    15731    15743 
   15549    15325    15252    15145    15043    15172    15412    15643 
   15793    15886    15942    15952    16301    16695    16546    16410 
   16255    15601    15237    15265    15141    15223    15387    15330 
   15331    15361    15417    15456    15437    15561    15681    15840 
   16031    15766    15414    15514    15734    15985    16322    16324 
   15997    15799    15699    15487    15356    15376    15364    15391 
   15595    15859    15963    15919    15807    15622    15473    15341 
   15202    15176    15217    15437    15849    16108    16191    16085 
   15826    15809    15944    15877    15738    15580    15384    15479 
   15736    15862    16002    15871    15481    15450    15580    15631 
   15681    15442    15226    15403    15560    15664    15784    15660 
   15562    15593    15492    15431    15379    15210    15229    15425 
   15662    16025    16243    16109    16020    16086    15961    15750 
   15676    15500    15290    15449    15712    15693    15584    15422 
   15311    15506    15723    15807    15894    15913    15912    15855 
   15700    15715    15816    15809    15770    15688    15661    15727 
   15734    15633    15377    15163    15275    15496    15572    15627 
   15682    15588    15475    15448    15358    15326    15484    15603 
   15681    15854    15927    15993    16209    16241    16178    16282 
   16276    16160    16090    15813    15430    15275    15219    15137 
   15195    15438    15711    15957    16171    16222    16155    16227 
   16344    16262    16210    16282    16233    16190    16309    16494 
   16691    16814    16737    16306    15534    14739    14089    13541 
   13108    12765    12517    12480    12677    13051    13601    14296 
   15088    16008    16884    17487    17855    17938    17799    17799 
   18049    18414    18534    18015    17093    16164    15314    14669 
   14245    14067    14328    14924    15453    15425    14570    13417 
   12609    12393    12923    13779    14310    14569    14917    15724 
   17058    18223    18635    18327    17474    16511    15758    15074 
   14530    14377    14812    15809    16776    17361    17694    17481 
   16429    14936    13563    12692    12530    13073    14287    15917 
   17544    19071    20105    20007    19102    17937    16605    15493 
   15002    15084    15422    15824    16264    16348    15973    15387 
   14478    13587    13027    12495    12363    12901    13601    14175 
   14412    14439    14810    15716    17095    18365    18779    18419 
   17647    16841    16445    16402    16484    16641    16741    16741 
   16617    16186    15380    14443    13782    13652    14046    14594 
   14661    14308    14245    14434    14696    15321    15853    15911 
   15962    16042    16173    16482    16576    16526    16559    16530 
   16505    16290    15807    15407    15148    15113    15269    15402 
   15623    15866    15959    15965    15921    15961    16100    16158 
   16050    15824    15770    16066    16494    16773    16729    16476 
   16175    15677    14931    14002    12981    12289    12209    12502 
   13119    14165    15279    16185    16887    17209    17145    16848 
   16524    16340    16042    15755    15873    16136    16568    17161 
   17271    17085    17007    16762    16471    16013    15120    14504 
   14462    14539    14582    14488    14377    14527    14928    15442 
   15766    15823    15835    15944    16322    16839    17130    17161 
   16969    16633    16229    15600    14932    14473    14310    14646 
   15068    15118    15044    14928    14848    15007    15202    15264 
   15203    15153    15430    15886    16343    16789    16841    16775 
   17010    17032    16843    16684    16224    15637    15322    15334 
   15572    15693    15581    15283    14746    14345    14191    13980 
   14077    14570    15051    15724    16571    17190    17560    17541 
   17111    16629    16210    15946    15897    15803    15672    15726 
   15838    15768    15503    15055    14555    14399    14574    14990 
   15701    16162    16182    16132    15898    15538    15141    14634 
   14364    14346    14461    14827    15163    15417    15735    15838 
   15758    15847    16015    16009    16163    16686    16996    17194 
   17543    17274    16560    16187    15917    15639    15435    15152 
   14832    14496    14459    14828    15093    15290    15584    15789 
   15928    16019    15944    15580    15110    14858    14652    14530 
   14723    14917    15057    15263    15346    15495    15897    16410 
   16872    17070    17068    16889    16514    16235    15971    15573 
   15295    15272    15516    15855    16163    16672    17149    17231 
   17178    16935    16244    15449    14874    14561    14615    14963 
   15263    15434    15508    15215    14716    14381    14138    14131 
   14374    14602    14806    14843    14810    14871    14860    15006 
   15296    15519    15962    16470    16742    17012    17378    17891 
   18382    18389    17994    17428    16783    16217    15703    15331 
   15144    14887    14635    14349    13734    13058    12575    12240 
   12286    12835    13738    14870    15965    16695    17080    17273 
   17251    17147    16972    16614    16368    16328    16389    16544 
   16479    16181    15932    15801    15965    16270    16403    16441 
   16318    16078    15924    15812    15774    15770    15751    15739 
   15587    15399    15327    15279    15275    15155    14889    14854 
   14944    15072    15450    15753    15793    15732    15502    15248 
   15045    14814    14863    15140    15321    15539    15749    15797 
   15803    15840    16031    16348    16542    16571    16417    16005 
   15649    15565    15454    15415    15515    15387    15250    15252 
   15126    15101    15230    15240    15259    15402    15507    15616 
   15901    16151    16129    16012    15996    15998    16001    16170 
   16389    16514    16665    16789    16744    16424    16005    15745 
   15503    15453    15630    15484    15273    15290    15242    15336 
   15510    15539    15695    15780    15735    15870    15846    15506 
   15130    14742    14443    14385    14508    14740    15044    15337 
   15611    15884    15905    15696    15487    15261    15300    15637 
   16017    16590    17050    17065    16939    16704    16316    15958 
   15534    15055    14835    14879    15006    15209    15358    15249 
   15075    15061    15070    15156    15423    15592    15662    15754 
   15722    15697    15839    16050    16274    16301    16043    15770 
   15650    15746    15969    16136    16252    16222    16002    15778 
   15535    15263    15203    15422    15587    15608    15746    15664 
   15317    15381    15612    15696    15955    16100    15962    15780 
   15506    15379    15464    15403    15282    15148    14889    14755 
   14845    15074    15398    15653    15774    15807    15692    15554 
   15600    15803    16132    16534    16856    17030    17043    16798 
   16316    15917    15730    15588    15588    15746    15789    15692 
   15516    15203    14952    14889    14813    14797    14809    14678 
   14740    14998    15233    15676    16090    16209    16195    16021 
   15766    15519    15317    15421    15801    16301    16904    17354 
   17513    17420    16981    16362    15797    15161    14476    14095 
   14076    14264    14702    15121    15228    15411    15799    16040 
   16210    16243    15979    15805    15817    15813    15781    15566 
   15137    14735    14605    14882    15415    15958    16356    16557 
   16482    16090    15722    15465    15141    15030    14994    14798 
   14762    14704    14685    14997    15333    15823    16366    16671 
   17097    17377    17321    17288    17139    16987    16903    16644 
   16368    16031    15514    14956    14439    14256    14374    14526 
   14791    15057    15184    15153    14949    14913    15029    15024 
   15156    15369    15342    15295    15392    15516    15681    15934 
   16220    16456    16630    16740    16706    16505    16236    16101 
