Origin Time       2024/06/23 22:54:00
Lat.              35.645
Long.             140.060
Depth. (km)       72
Mag.              4.1
Station Code      GNM009
Station Lat.      36.4105
Station Long.     139.3253
Station Height(m) 114
Record Time       2024/06/23 22:54:57
Sampling Freq(Hz) 100Hz
Duration Time(s)  60
Dir.              E-W
Scale Factor      7845(gal)/8223790
Max. Acc. (gal)   2.724
Last Correction   2024/06/23 22:54:56
Memo.             
[...]
    5212     5119     4965     4866     4575     4382     4761     5223 
    5170     4858     4635     4637     4920     5147     5038     4787 
    4573     4611     5067     5435     5178     4747     4693     4637 
    4325     4461     5194     5525     5082     4599     4612     4969 
    5092     4787     4668     4845     4758     4693     4962     4988 
    4791     4846     4942     4899     4887     4893     4784     4602 
    4764     5286     5336     4738     4372     4599     4923     4985 
    5016     5159     4978     4517     4475     4781     4969     5092 
    5007     4722     4823     5047     4735     4456     4772     5216 
    5293     4905     4503     4630     4909     4963     5055     5004 
    4594     4398     4715     5103     5166     4889     4650     4792 
    4997     4996     4996     4938     4795     4873     5073     5023 
    4781     4652     4661     4754     4972     4976     4564     4432 
    4924     5389     5301     4718     4278     4592     5097     5020 
    4795     4978     5217     4986     4399     4187     4806     5572 
    5478     4679     4121     4245     4812     5373     5541     5243 
    4698     4325     4463     4865     5098     5161     5105     4923 
    4784     4760     4791     4822     4769     4699     4671     4727 
    5062     5355     4993     4440     4529     4951     5093     5076 
    5011     4765     4599     4766     4981     4943     4769     4733 
    4911     5015     4800     4691     4927     4939     4746     4880 
    5039     4914     4703     4549     4725     5131     5208     5038 
    4934     4768     4572     4523     4671     5086     5476     5308 
    4693     4251     4298     4669     5062     5279     5147     4723 
    4504     4762     5063     5031     4870     4799     4750     4688 
    4735     4972     5146     5001     4692     4519     4688     5057 
    5174     5105     5065     4803     4533     4689     4945     5067 
    5139     4943     4638     4720     4968     4914     4693     4602 
    4726     4974     5070     5012     4966     4854     4725     4621 
    4473     4621     5096     5256     4976     4725     4702     4819 
    4938     4931     4791     4665     4747     4981     5080     5008 
    4903     4718     4580     4830     5314     5383     4831     4266 
    4337     4893     5290     5238     4885     4599     4677     4924 
    4997     4858     4665     4676     4926     5136     5078     4685 
    4341     4602     5135     5139     4750     4719     5040     5136 
    4903     4644     4603     4806     5028     5139     5084     4797 
    4565     4608     4760     4999     5190     4970     4653     4747 
    4977     4996     4893     4752     4703     4838     4949     4972 
    5001     4957     4903     4822     4534     4374     4654     5076 
    5313     5165     4702     4498     4753     4955     4870     4815 
    4962     5059     4907     4841     5028     4897     4509     4627 
    4927     4869     4916     5112     5008     4762     4656     4753 
    5011     5054     4768     4521     4533     4969     5540     5332 
    4471     4125     4525     5084     5413     5208     4590     4294 
    4584     4936     5054     5157     5256     5035     4607     4565 
    4920     5046     4912     4861     4769     4762     5051     5128 
    4820     4606     4630     4816     4972     4891     4793     4807 
    4752     4723     4808     4834     4895     5211     5421     5007 
    4325     4255     4868     5297     5022     4552     4521     4858 
    5115     5042     4855     4905     4970     4696     4564     5026 
    5455     5221     4600     4283     4619     5131     5142     4683 
    4382     4722     5174     5093     4976     5047     4734     4264 
    4395     5081     5503     5240     4904     4869     4626     4249 
    4432     5007     5320     5323     5108     4635     4353     4572 
    4911     5206     5329     4907     4399     4571     5096     5189 
    4722     4392     4754     5163     5059     4966     5039     4974 
    4861     4668     4425     4588     5067     5239     4950     4533 
    4450     4885     5243     5061     4869     4912     4839     4816 
    4945     4896     4784     4772     4691     4652     4773     4904 
    5093     5219     4919     4506     4577     4982     5085     4749 
    4583     4878     5140     5093     4905     4749     4768     4892 
    4858     4719     4691     4648     4631     5077     5645     5437 
    4626     4166     4384     4961     5432     5379     4824     4347 
    4433     4855     5019     4905     4873     4839     4774     4966 
    5119     4738     4342     4708     5316     5159     4641     4688 
    4955     4855     4746     4920     5057     4891     4650     4641 
    4756     4961     5281     5219     4715     4515     4788     5073 
    5119     4931     4729     4610     4546     4793     5213     5233 
    5040     4968     4718     4406     4407     4588     4934     5390 
    5474     5086     4583     4280     4432     4881     5034     4787 
    4687     4903     5117     5135     4928     4650     4560     4719 
    5017     5209     5032     4675     4614     4877     5022     4916 
    4882     4990     5013     4892     4623     4365     4599     5296 
    5705     5445     4815     4236     4136     4584     5024     5140 
    5074     4870     4685     4679     4745     4939     5147     4958 
    4637     4695     4876     4868     4820     4795     4766     4818 
    4945     5011     4872     4677     4791     5044     4951     4847 
    5269     5553     4908     4036     4032     4746     5232     5067 
    4711     4710     4989     5136     4916     4594     4680     5035 
    5159     5115     4974     4581     4364     4692     5130     5216 
    4959     4739     4839     4968     4864     4696     4626     4785 
    5151     5325     5046     4537     4234     4413     4887     5109 
    4968     4949     5054     4850     4537     4595     4981     5242 
    5081     4839     4839     4793     4696     4776     4857     4966 
    5100     4876     4594     4808     5084     4904     4623     4700 
    4970     5077     4999     4847     4739     4845     5094     5073 
    4654     4379     4656     5143     5329     5084     4683     4430 
    4453     4873     5302     5069     4592     4595     4758     4835 
    5028     5134     5039     4924     4764     4638     4658     4757 
    4888     4927     4965     5194     5088     4449     4248     4772 
    5227     5238     4900     4649     4966     5351     5093     4471 
    4118     4455     5225     5483     5077     4752     4692     4730 
    4901     4955     4649     4440     4831     5356     5333     5019 
    4827     4598     4398     4549     4872     4978     4835     4806 
    5100     5206     4865     4700     4734     4468     4465     5134 
    5525     5134     4602     4428     4584     4833     5034     5159 
    4985     4641     4677     4892     4853     4922     5173     5128 
    4816     4515     4448     4766     5146     5216     5036     4818 
    4796     4935     4945     4912     4869     4550     4378     4841 
    5310     5208     5003     4978     4684     4251     4452     5101 
    5287     5022     4931     4963     4826     4687     4600     4494 
    4658     5130     5312     4915     4461     4538     4977     5073 
    4743     4702     4997     5004     4789     4855     5042     4916 
    4657     4644     4812     4982     5055     5050     5074     4962 
    4700     4727     4985     4928     4625     4641     5024     5082 
    4622     4521     5117     5424     4936     4558     4787     4934 
    4828     4942     5026     4666     4248     4414     5165     5653 
    5254     4484     4272     4730     5100     4927     4634     4703 
    5019     5190     5074     4796     4484     4500     5074     5427 
    4920     4271     4280     4897     5489     5328     4653     4411 
    4773     5184     5229     4947     4764     4789     4776     4850 
    4958     4737     4563     4833     5085     5032     4877     4761 
    4804     4950     4936     4834     4828     4773     4741     4916 
    5003     4779     4553     4622     4901     5086     5080     5020 
    4868     4696     4889     5171     4896     4575     4860     5084 
    4851     4696     4679     4672     4780     4803     4777     4955 
    5027     4880     4796     4737     4834     5171     5144     4746 
    4680     4868     4919     4901     4780     4599     4665     4885 
    4984     5030     5082     5032     4838     4608     4571     4743 
    4896     5027     5258     5331     5053     4669     4441     4475 
    4733     4962     4981     4899     4934     5020     4870     4654 
    4760     4860     4660     4685     5120     5368     5017     4425 
    4399     4862     4976     4928     5101     4943     4540     4544 
    4772     4947     5159     5273     5217     5088     4783     4422 
    4361     4629     4969     5069     4884     4806     4872     4785 
    4758     4970     5124     5036     4710     4464     4681     5053 
    5194     5150     4858     4542     4591     4730     4753     4901 
    5147     5310     5128     4405     3879     4280     5003     5383 
    5537     5495     5206     4768     4324     4272     4689     5001 
    4978     4908     4965     5096     4973     4564     4498     4834 
    4909     4819     5057     5293     5090     4683     4456     4469 
    4621     4951     5364     5371     4931     4629     4571     4527 
    4699     5055     5166     5030     4793     4550     4704     5124 
    5130     4807     4656     4696     4849     5113     5250     4985 
    4588     4623     4895     4792     4626     4893     5070     4866 
    4885     5120     4984     4580     4486     4799     4973     4838 
    4970     5286     5074     4595     4517     4703     4833     4881 
    4877     4984     5124     4965     4630     4492     4679     5061 
    5170     4920     4895     4969     4577     4237     4529     4922 
    5109     5332     5418     5174     4735     4359     4434     4814 
    4939     4976     5105     4958     4760     4795     4629     4452 
    4768     5152     5196     5080     4939     4806     4718     4718 
    4842     5013     5093     5062     4935     4704     4563     4666 
    4811     4843     4900     5053     5147     4977     4608     4340 
    4442     4988     5549     5478     4968     4730     4661     4396 
    4336     4814     5358     5329     4730     4322     4534     4841 
    4977     5196     5269     4922     4486     4332     4556     5034 
    5373     5319     5086     4896     4615     4256     4305     4835 
    5169     5069     4986     5067     5049     4846     4666     4668 
    4754     4968     5386     5520     5012     4418     4209     4313 
    4742     5259     5381     5166     4885     4521     4230     4476 
    5186     5533     5181     4681     4449     4569     5027     5383 
    5243     4947     4831     4741     4673     4576     4367     4429 
    4793     5009     5036     4959     4876     5007     4976     4507 
    4421     5036     5572     5703     5444     4766     4351     4611 
    4950     4959     4819     4835     4997     4922     4749     4820 
    4799     4569     4414     4290     4384     4905     5219     4958 
    4722     4826     4901     4683     4356     4333     4666     4980 
    4977     4742     4671     4904     4996     4662     4268     4352 
    4905     5255     4995     4557     4372     4467     4797     5188 
    5443     5526     5371     5109     5139     5533     5898     5827 
    5387     5077     5130     5371     5644     5686     5286     4733 
    4409     4471     4837     5009     4725     4491     4702     5094 
    5231     4799     4083     3905     4357     4689     4477     4094 
    4310     5140     5481     4758     3720     3230     3495     4199 
    4930     5455     5408     4645     3754     3289     3566     4708 
    5864     6126     5736     5135     4495     4220     4629     5435 
    6053     6228     5960     5402     5113     5324     5462     5227 
    4950     4968     5289     5557     5594     5505     5159     4612 
    4244     4048     4036     4641     5707     6166     5417     4245 
    3790     4341     5351     5837     5211     4041     3221     3009 
    3450     4398     5352     5940     5717     4376     3002     3092 
    4448     5776     6108     5300     4409     4433     4726     4245 
    3418     3505     4749     6052     6513     6273     5699     4958 
    4510     4673     4854     4672     4808     5393     5449     4564 
    3665     4035     5622     6666     6073     4893     4310     4348 
    4715     5162     5537     5805     5759     5297     4787     4622 
    4745     4784     4569     4445     4733     5148     5363     5346 
    5017     4460     4014     3823     3823     4121     4804     5540 
    5740     5128     4293     4233     4911     5107     4364     3851 
    4207     4592     4766     5232     5586     5154     4194     3554 
    3923     5125     6120     6196     5643     5016     4526     4159 
    4162     4828     5464     5302     5054     5279     5281     4796 
    4348     4333     4839     5543     5934     5823     5447     5148 
    4861     4371     4060     4448     5155     5332     4897     4351 
    4012     4116     4637     5188     5634     5760     4827     2991 
    2003     3248     5791     7339     6918     5647     4799     4237 
    3466     3113     4039     5837     7075     6775     5452     4253 
    3620     3505     3982     4961     5728     5626     5026     4415 
    3878     3951     4768     5517     5961     6045     5182     3912 
    3514     3969     4661     5435     5984     5944     5391     4615 
    3952     3793     4205     4868     5387     5483     5356     5377 
    5100     4267     3809     4247     5101     5938     6270     5702 
    4576     3654     3677     4803     6027     6173     5232     4193 
    4054     4761     5108     4576     4126     4342     4735     4874 
    4828     5038     5544     5528     4756     4145     4205     4706 
    5416     5744     5142     4432     4661     5066     4595     4028 
    4368     5043     5167     4830     4700     5092     5487     5394 
    4966     4378     4006     4410     5119     5282     5044     4815 
    4627     4455     4311     4522     5298     5950     5757     4957 
    4422     4864     5745     5778     4943     4299     4351     4822 
    4968     4419     4028     4482     5254     5745     5537     4419 
    3395     3549     4345     4950     5327     5441     5408     5429 
    5049     4243     3977     4419     4747     4791     4963     5196 
    5163     4990     4954     4899     4708     4714     5005     5269 
    5440     5448     4905     4060     3854     4554     5570     6116 
    5674     4711     4294     4517     4696     4756     5008     5495 
    5898     5532     4476     3948     4333     4865     5081     4857 
    4425     4384     4581     4448     4368     4919     5562     5539 
    5246     5352     5331     4461     3464     3518     4527     5547 
    5899     5553     4961     4390     3955     4008     4572     5206 
    5520     5382     5065     4918     4893     4791     4693     4823 
    4939     4761     4845     5490     5841     5352     4590     4297 
    4546     4797     4657     4306     4155     4378     4876     5296 
    5305     5306     5598     5382     4533     3947     3778     4170 
    5613     7045     6625     4534     2887     3248     4981     5969 
    5204     4070     4209     5251     5744     5209     4347     3901 
    4056     4590     5076     5061     4571     4396     5073     5890 
    5998     5582     5004     4149     3352     3659     5120     6154 
    5852     4830     3740     3252     3909     5063     5868     6253 
    6100     5333     4401     3759     3754     4602     5838     6623 
    6434     5242     3832     3480     4469     5618     5796     5285 
    5123     5435     5277     4256     3257     3357     4561     5656 
    5589     4726     4024     3964     4564     5196     5123     4569 
    4294     4575     4951     4811     4414     4453     4780     4811 
    4560     4587     5158     5680     5611     5448     5663     5711 
    5158     4500     4463     5046     5348     4768     4066     4320 
    5220     5721     5738     5553     4892     4054     4033     4897 
    5510     5216     4679     4445     4337     4471     5032     5517 
    5449     5005     4414     3901     3896     4333     4847     5283 
    5170     4398     3854     4048     4646     5204     5352     5109 
    4839     4641     4519     4695     5119     5493     5769     5675 
    4974     4433     4522     4464     4152     4411     5235     5962 
    6281     6135     5571     4631     3611     3377     4261     5379 
    6015     6087     5516     4538     3680     3294     3781     5027 
    5972     5940     5333     4745     4459     4510     4633     4511 
    4267     4380     4897     5259     5155     4799     4502     4469 
    4727     5086     5186     4644     3750     3519     4309     5431 
    6085     5906     5340     5169     5205     4807     4228     4170 
    4702     5309     5607     5530     5116     4719     4830     5147 
    4945     4423     4191     4224     4449     4830     4981     4850 
    4749     4873     5340     5904     6031     5493     4494     3593 
    3364     4040     5373     6432     6214     4923     3766     3493 
    3940     4558     4974     5220     5355     5254     4928     4571 
    4521     5034     5516     5154     4441     4357     4880     5485 
    5732     5350     4722     4515     4795     5169     5312     5053 
    4473     4129     4399     4843     4953     4768     4591     4812 
    5394     5586     5047     4392     4136     4205     4348     4530 
    4919     5389     5607     5541     5193     4533     3801     3456 
    3971     5113     5841     5645     4901     4232     4248     4904 
    5428     5479     5305     5159     5209     5298     5098     4727 
    4429     4314     4723     5532     5736     5015     4197     3869 
    4068     4703     5408     5736     5652     5339     4827     4355 
    4338     4665     4880     4868     4757     4730     4835     4835 
    4634     4460     4449     4610     4978     5485     5767     5420 
    4608     4033     4082     4518     4992     5314     5310     4992 
    4784     4899     4995     4841     4549     4348     4545     5074 
    5294     4819     4166     4094     4637     5383     5983     5949 
    5154     4230     3767     3991     4857     5721     5984     5687 
    4954     4118     3840     4199     4823     5505     5892     5633 
    4970     4499     4436     4564     4622     4527     4542     4927 
    5429     5498     4939     4306     4332     4915     5305     5161 
    4796     4541     4517     4811     5240     5242     4588     4001 
    4240     4901     5166     5061     4980     4965     5049     5283 
    5408     5135     4540     4045     4121     4819     5545     5564 
    4860     4193     4148     4567     5030     5339     5466     5316 
    4718     3951     3828     4600     5509     5822     5483     4831 
