Origin Time       2024/06/23 22:54:00
Lat.              35.645
Long.             140.060
Depth. (km)       72
Mag.              4.1
Station Code      GNM001
Station Lat.      36.7719
Station Long.     139.2246
Station Height(m) 804
Record Time       2024/06/23 22:55:09
Sampling Freq(Hz) 100Hz
Duration Time(s)  60
Dir.              U-D
Scale Factor      7845(gal)/8223790
Max. Acc. (gal)   0.995
Last Correction   2024/06/23 22:55:08
Memo.             
    4812     5275     5688     5564     5162     4954     4966     5061 
    5182     5278     5333     5331     5213     5046     4978     5049 
    5186     5312     5383     5382     5219     4908     4793     5080 
    5406     5385     5155     5097     5296     5475     5331     4941 
    4729     4916     5251     5432     5462     5416     5273     5096 
    4970     4909     4961     5159     5400     5518     5421     5148 
    4915     4918     5066     5193     5343     5445     5309     5050 
    4970     5107     5232     5193     5117     5184     5321     5337 
    5251     5206     5143     4938     4768     4926     5389     5763 
    5660     5205     4873     4835     4974     5174     5282     5262 
    5208     5147     5121     5178     5302     5425     5385     5125 
    4838     4760     4954     5279     5564     5679     5476     5044 
    4761     4754     4885     5166     5545     5707     5495     5157 
    4990     4962     4912     4949     5155     5323     5348     5324 
    5255     5167     5146     5124     5038     5069     5309     5436 
    5223     4993     5066     5209     5182     5147     5250     5383 
    5368     5166     4974     4981     5140     5267     5252     5146 
    5089     5185     5327     5289     5103     4999     5030     5146 
    5329     5416     5277     5097     5047     5034     5019     5144 
    5421     5599     5460     5119     4850     4769     4877     5148 
    5414     5490     5412     5292     5144     5028     5003     5001 
    5050     5212     5373     5429     5405     5247     4973     4777 
    4818     5138     5564     5726     5483     5101     4818     4687 
    4831     5274     5709     5771     5374     4812     4549     4752 
    5192     5591     5769     5601     5151     4761     4685     4847 
    5093     5368     5580     5582     5364     5080     4849     4752 
    4907     5306     5633     5580     5221     4866     4796     5080 
    5393     5449     5400     5362     5192     4878     4660     4780 
    5190     5579     5697     5490     5162     5023     5093     5111 
    4980     4891     5004     5246     5439     5475     5347     5184 
    5116     5076     5012     5061     5205     5236     5147     5116 
    5221     5339     5286     5100     5016     5152     5362     5377 
    5201     5116     5142     5084     5026     5108     5196     5232 
    5319     5323     5154     5108     5252     5224     5019     5034 
    5248     5290     5119     4976     4997     5213     5514     5594 
    5331     4968     4777     4841     5104     5405     5529     5418 
    5204     5040     5011     5059     5069     5105     5285     5451 
    5387     5157     4984     4955     5000     5130     5402     5614 
    5487     5084     4749     4752     5058     5398     5547     5456 
    5200     4938     4892     5116     5306     5225     5049     5024 
    5239     5537     5489     5028     4750     4972     5294     5421 
    5471     5410     5116     4839     4831     4988     5215     5479 
    5633     5524     5147     4716     4538     4745     5208     5636 
    5778     5587     5229     4911     4726     4760     5074     5485 
    5641     5420     5055     4877     5003     5238     5309     5212 
    5157     5247     5356     5306     5104     4912     4877     5051 
    5339     5497     5385     5171     5123     5197     5165     5015 
    4919     5016     5258     5425     5441     5360     5192     4982 
    4847     4932     5236     5479     5472     5309     5101     4949 
    4941     5035     5175     5324     5395     5386     5346     5196 
    4899     4700     4911     5374     5611     5486     5271     5127 
    4992     4926     5020     5125     5157     5300     5521     5444 
    5063     4804     4893     5235     5568     5595     5271     4872 
    4730     4889     5154     5390     5503     5416     5247     5151 
    5088     5013     5005     5105     5256     5347     5296     5162 
    5088     5090     5116     5215     5374     5387     5171     4946 
    4950     5127     5270     5316     5309     5267     5213     5132 
    5028     5008     5115     5285     5400     5336     5121     4924 
    4928     5192     5444     5391     5151     5005     5055     5213 
    5324     5286     5162     5093     5088     5094     5155     5259 
    5337     5382     5329     5124     4888     4831     4999     5243 
    5467     5586     5422     5022     4749     4824     5073     5269 
    5428     5549     5451     5161     4958     4945     5024     5147 
    5266     5265     5186     5246     5387     5314     5023     4897 
    5119     5335     5289     5166     5107     5073     5138     5317 
    5424     5313     5071     4914     4957     5119     5287     5394 
    5343     5143     4999     5105     5337     5370     5165     4966 
    4922     5092     5390     5516     5355     5097     4930     4961 
    5155     5319     5312     5205     5135     5147     5182     5171 
    5152     5189     5246     5273     5281     5196     4972     4830 
    5011     5398     5653     5566     5185     4800     4733     4974 
    5254     5410     5467     5443     5277     5013     4850     4878 
    5035     5267     5474     5479     5254     5022     4984     5088 
    5189     5238     5240     5220     5190     5162     5146     5144 
    5200     5296     5309     5248     5213     5142     4972     4866 
    5008     5305     5478     5437     5293     5071     4877     4935 
    5189     5335     5305     5286     5283     5144     5028     5131 
    5255     5270     5251     5148     5013     5059     5221     5269 
    5223     5211     5221     5194     5116     5050     5112     5282 
    5364     5250     5092     5065     5135     5235     5343     5352 
    5177     4953     4882     5023     5269     5422     5379     5260 
    5198     5132     5024     5024     5201     5335     5228     5042 
    5059     5258     5390     5317     5123     4978     4997     5151 
    5293     5352     5328     5179     5015     4986     5022     5089 
    5281     5475     5491     5371     5194     4996     4881     4947 
    5120     5220     5227     5298     5454     5468     5204     4873 
    4785     4988     5328     5560     5428     5035     4858     5032 
    5233     5289     5308     5324     5233     5082     5044     5080 
    5088     5157     5305     5378     5279     5115     5066     5143 
    5208     5221     5217     5193     5184     5177     5117     5088 
    5178     5297     5289     5138     5039     5121     5217     5219 
    5244     5262     5159     5054     5051     5057     5096     5293 
    5485     5436     5239     5070     4939     4920     5119     5350 
    5377     5290     5244     5178     5053     4984     5081     5244 
    5319     5301     5206     5054     5011     5143     5260     5278 
    5258     5190     5090     5070     5171     5302     5298     5155 
    5124     5223     5193     5078     5090     5182     5236     5251 
    5270     5286     5221     5065     4957     5036     5242     5370 
    5331     5213     5121     5092     5096     5093     5124     5227 
    5306     5283     5239     5229     5188     5077     5012     5107 
    5217     5190     5179     5278     5285     5197     5216     5269 
    5162     5008     4997     5097     5243     5383     5381     5238 
    5150     5173     5150     4990     4884     5043     5319     5455 
    5449     5328     5065     4833     4874     5165     5405     5390 
    5209     5104     5154     5192     5135     5124     5201     5242 
    5221     5211     5196     5143     5066     5051     5179     5355 
    5397     5262     5035     4880     4986     5324     5560     5448 
    5130     4912     4911     5031     5177     5324     5444     5462 
    5335     5108     4904     4862     5005     5231     5470     5583 
    5355     4923     4722     4881     5186     5435     5537     5447 
    5184     4915     4837     4989     5265     5468     5451     5243 
    5016     4958     5049     5136     5224     5325     5355     5308 
    5193     5023     4954     5086     5266     5293     5189     5143 
    5219     5267     5188     5092     5100     5179     5224     5201 
    5196     5242     5238     5211     5250     5244     5119     5028 
    5061     5128     5173     5219     5250     5228     5189     5140 
    5066     5096     5263     5317     5190     5154     5293     5364 
    5188     4918     4864     5073     5333     5494     5471     5236 
    4961     4868     4982     5209     5439     5516     5331     4989 
    4770     4872     5192     5433     5440     5354     5308     5205 
    5000     4851     4899     5092     5313     5512     5641     5551 
    5147     4680     4568     4889     5327     5603     5655     5436 
    5019     4714     4714     4963     5337     5599     5591     5433 
    5211     4903     4706     4838     5171     5409     5486     5489 
    5367     5097     4881     4889     5050     5236     5377     5414 
    5309     5105     4958     4992     5125     5232     5298     5313 
    5262     5173     5082     5026     5061     5196     5305     5289 
    5217     5174     5167     5208     5247     5217     5134     5049 
    5043     5177     5341     5320     5139     5054     5116     5182 
    5179     5150     5208     5335     5333     5201     5089     5047 
    5076     5135     5188     5251     5309     5317     5251     5134 
    5040     5003     5000     5090     5302     5485     5455     5186 
    4876     4827     5112     5459     5593     5449     5128     4820 
    4735     4934     5270     5517     5533     5366     5140     4939 
    4884     5063     5319     5433     5386     5243     5057     4919 
    4909     5038     5242     5387     5375     5300     5246     5105 
    4932     4985     5236     5400     5316     5124     5088     5215 
    5292     5236     5111     5035     5103     5217     5211     5131 
    5135     5197     5250     5302     5275     5132     5080     5200 
    5262     5165     5073     5062     5100     5213     5340     5279 
    5065     5001     5170     5296     5209     5123     5246     5418 
    5348     5040     4857     5062     5424     5520     5302     5049 
    4976     5085     5225     5252     5116     4965     5096     5471 
    5640     5402     5022     4769     4739     4978     5405     5661 
    5481     5098     4851     4787     4949     5363     5707     5606 
    5144     4743     4689     4949     5285     5510     5557     5429 
    5197     4954     4826     4938     5197     5362     5364     5296 
    5211     5130     5089     5097     5125     5179     5306     5413 
    5314     5047     4796     4727     5001     5462     5644     5425 
    5116     5005     5198     5490     5462     5082     4765     4783 
    5011     5238     5431     5591     5589     5351     4999     4733 
    4689     4905     5321     5637     5539     5169     4941     4996 
    5236     5479     5436     5084     4830     4872     4993     5051 
    5163     5454     5776     5780     5341     4752     4398     4500 
    5054     5730     6011     5697     5082     4580     4482     4851 
    5431     5825     5844     5529     4981     4419     4216     4679 
    5622     6224     5915     5175     4737     4661     4739     4997 
    5418     5697     5539     5067     4773     4950     5298     5373 
    5266     5298     5371     5197     4866     4681     4793     5224 
    5761     5918     5530     4993     4681     4695     4999     5350 
    5431     5271     5154     5174     5192     5150     5171     5294 
    5346     5213     5020     4919     4927     5065     5370     5641 
    5560     5165     4814     4756     4986     5346     5571     5486 
    5202     4966     4868     4891     5044     5344     5668     5717 
    5278     4580     4275     4762     5603     6018     5817     5325 
    4808     4518     4708     5167     5449     5522     5533     5404 
    5130     4833     4615     4702     5211     5746     5788     5413 
    5101     5023     5039     5074     5078     5063     5170     5381 
    5478     5283     4868     4614     4845     5421     5861     5760 
    5169     4588     4499     4891     5343     5562     5555     5354 
    5035     4853     4996     5310     5486     5463     5355     5200 
    4989     4762     4722     5104     5663     5787     5371     4891 
    4715     4908     5304     5498     5289     5005     5036     5350 
    5560     5389     4995     4714     4743     5069     5455     5583 
    5317     4926     4930     5394     5703     5397     4797     4548 
    4858     5355     5574     5467     5287     5165     5096     5074 
    5028     5004     5150     5386     5479     5354     5127     4923 
    4855     5046     5375     5502     5333     5128     5093     5119 
    5054     4984     5038     5225     5474     5568     5336     5008 
    4905     4958     5069     5302     5486     5416     5184     4953 
    4834     4895     5120     5435     5640     5541     5221     4932 
    4812     4823     4973     5346     5733     5706     5239     4745 
    4573     4842     5414     5800     5616     5128     4868     4947 
    5124     5184     5059     4874     4986     5502     5871     5613 
    5026     4644     4673     5059     5498     5614     5382     5069 
    4919     4986     5147     5285     5332     5229     5092     5101 
    5242     5402     5431     5177     4804     4671     4861     5223 
    5599     5794     5595     5047     4568     4598     5085     5532 
    5579     5351     5193     5227     5244     5047     4819     4932 
    5309     5435     5211     5076     5206     5364     5371     5239 
    5039     4818     4719     4992     5520     5791     5574     5116 
    4845     4977     5271     5351     5128     4811     4742     5080 
    5517     5609     5356     5096     5020     5128     5263     5142 
    4835     4787     5148     5641     5871     5603     5013     4621 
    4797     5327     5618     5420     5054     4838     4792     4955 
    5383     5737     5598     5127     4803     4731     4760     4916 
    5248     5586     5778     5792     5587     5184     4761     4506 
    4517     4828     5321     5721     5827     5633     5265     4927 
    4810     4896     4973     4959     5031     5273     5503     5505 
    5329     5232     5224     5108     4926     4862     4943     5088 
    5254     5429     5547     5533     5428     5260     5001     4730 
    4658     4893     5243     5445     5481     5421     5306     5197 
    5096     4968     4866     4868     5066     5416     5663     5653 
    5405     4986     4668     4784     5255     5590     5487     5128 
    4854     4873     5150     5421     5476     5332     5132     5028 
    5047     5154     5327     5401     5232     4965     4810     4835 
    5032     5331     5533     5454     5198     5057     5098     5228 
    5346     5321     5146     4950     4864     5020     5383     5610 
    5440     5049     4839     4986     5255     5332     5173     5026 
    5119     5340     5433     5355     5223     5130     5054     4934 
    4878     5042     5352     5536     5375     4982     4803     5117 
    5597     5674     5220     4684     4614     5051     5549     5729 
    5482     4985     4661     4774     5158     5448     5437     5217 
    5113     5259     5417     5327     4980     4673     4808     5305 
    5636     5555     5277     5055     4966     4957     5004     5169 
    5400     5514     5495     5383     5050     4600     4527     4997 
    5564     5745     5487     5121     4989     5063     5111     5128 
    5252     5382     5398     5368     5247     4988     4779     4806 
    5088     5467     5657     5489     5050     4666     4666     5023 
    5410     5583     5489     5213     4976     4968     5094     5152 
    5177     5193     5120     5107     5267     5360     5275     5178 
    5146     5148     5159     5163     5201     5225     5138     5065 
    5140     5225     5211     5202     5236     5250     5316     5427 
    5374     5115     4808     4623     4720     5159     5736     6010 
    5649     4935     4545     4703     5038     5250     5364     5440 
    5439     5366     5274     5109     4845     4708     4920     5339 
    5629     5601     5296     4892     4630     4731     5161     5580 
    5676     5490     5281     5113     4914     4780     4868     5166 
    5498     5621     5367     4873     4602     4891     5489     5794 
    5586     5186     4907     4833     4992     5217     5228     5105 
    5190     5491     5606     5270     4757     4612     5049     5644 
    5798     5378     4760     4484     4822     5437     5772     5649 
    5242     4864     4745     4900     5194     5390     5356     5220 
    5111     5059     5140     5320     5390     5259     5089     5009 
    4990     5027     5128     5247     5347     5385     5293     5063 
    4812     4795     5134     5557     5680     5495     5236     4981 
    4826     4936     5213     5385     5367     5254     5148     5073 
    4984     4969     5178     5493     5620     5459     5128     4810 
    4692     4868     5240     5590     5686     5452     5082     4841 
    4797     4947     5275     5597     5647     5383     4989     4693 
    4692     5008     5397     5587     5530     5306     5012     4807 
    4841     5097     5390     5503     5378     5159     5023     5001 
    5050     5158     5271     5314     5286     5181     5022     4954 
    5081     5335     5559     5552     5236     4837     4661     4841 
    5250     5575     5616     5389     5046     4827     4849     4982 
    5146     5368     5575     5590     5371     5078     4841     4754 
    4939     5319     5574     5491     5178     4905     4869     5039 
    5205     5223     5200     5285     5389     5350     5198     5013 
    4868     4965     5354     5648     5552     5190     4820     4698 
    4959     5401     5661     5570     5231     4900     4785     4924 
    5170     5313     5297     5250     5304     5383     5305     5049 
    4806     4773     4993     5324     5540     5526     5341     5112 
    4977     5023     5174     5273     5227     5101     5059     5148 
    5278     5374     5385     5281     5120     4963     4857     4880 
    5070     5374     5634     5606     5252     4943     4978     5116 
    5086     5035     5103     5225     5378     5468     5359     5130 
    4973     4957     5077     5285     5427     5344     5112     4976 
    4993     5071     5209     5355     5339     5179     5058     5051 
    5157     5310     5362     5250     5090     4982     4969     5081 
    5242     5300     5283     5301     5293     5206     5150     5186 
    5213     5109     4972     5050     5316     5458     5325     5057 
    4889     4962     5217     5468     5548     5377     5005     4699 
    4750     5081     5358     5475     5497     5379     5165     4984 
    4876     4919     5157     5397     5441     5312     5140     5032 
    5031     5143     5323     5429     5344     5132     4986     4957 
    4980     5100     5328     5508     5505     5292     4931     4672 
    4789     5211     5543     5586     5439     5174     4857     4703 
