Origin Time       2024/06/23 22:54:00
Lat.              35.645
Long.             140.060
Depth. (km)       72
Mag.              4.1
Station Code      GNM001
Station Lat.      36.7719
Station Long.     139.2246
Station Height(m) 804
Record Time       2024/06/23 22:55:09
Sampling Freq(Hz) 100Hz
Duration Time(s)  60
Dir.              E-W
Scale Factor      7845(gal)/8223790
Max. Acc. (gal)   1.348
Last Correction   2024/06/23 22:55:08
Memo.             
[...]
   -4947    -5013    -5062    -5047    -4986    -4976    -4927    -4780 
   -4639    -4598    -4730    -4989    -5174    -5181    -5076    -4926 
   -4722    -4523    -4523    -4777    -5085    -5240    -5147    -4897 
   -4760    -4791    -4824    -4824    -4830    -4842    -4885    -4938 
   -4950    -4916    -4877    -4908    -4996    -4963    -4757    -4656 
   -4831    -5034    -5069    -4981    -4827    -4723    -4752    -4866 
   -5011    -5067    -4945    -4741    -4645    -4797    -5103    -5216 
   -5038    -4783    -4591    -4595    -4838    -5073    -5140    -5042 
   -4808    -4660    -4718    -4860    -5020    -5071    -4953    -4884 
   -4930    -4931    -4834    -4703    -4638    -4723    -4892    -5046 
   -5144    -5090    -4893    -4756    -4739    -4779    -4882    -5003 
   -4973    -4814    -4797    -4970    -5051    -4945    -4768    -4595 
   -4565    -4811    -5148    -5296    -5229    -5031    -4770    -4599 
   -4608    -4725    -4846    -4916    -4954    -5039    -5101    -5009 
   -4891    -4864    -4789    -4680    -4684    -4760    -4888    -5101 
   -5238    -5131    -4851    -4581    -4461    -4544    -4765    -5080 
   -5401    -5448    -5104    -4687    -4463    -4453    -4683    -5009 
   -5104    -4974    -4915    -4981    -5054    -5039    -4887    -4729 
   -4706    -4766    -4862    -4942    -4908    -4849    -4873    -4892 
   -4872    -4938    -5053    -5013    -4815    -4652    -4676    -4885 
   -5082    -5082    -4968    -4884    -4847    -4835    -4806    -4741 
   -4750    -4891    -5028    -5073    -5038    -4903    -4722    -4639 
   -4715    -4908    -5066    -5040    -4926    -4866    -4800    -4760 
   -4872    -5015    -5044    -4981    -4885    -4811    -4739    -4714 
   -4855    -5017    -5020    -4982    -4930    -4822    -4774    -4777 
   -4769    -4857    -4997    -5009    -4899    -4816    -4860    -4916 
   -4864    -4860    -4965    -4999    -4950    -4846    -4699    -4726 
   -4972    -5135    -5061    -4887    -4779    -4770    -4770    -4735 
   -4742    -4846    -5034    -5174    -5090    -4887    -4799    -4787 
   -4745    -4765    -4877    -4996    -5105    -5128    -4924    -4637 
   -4573    -4710    -4843    -4981    -5124    -5134    -4988    -4816 
   -4679    -4606    -4760    -5076    -5146    -4928    -4808    -4892 
   -4989    -4954    -4800    -4696    -4700    -4761    -4927    -5134 
   -5179    -5057    -4842    -4627    -4614    -4784    -4941    -5027 
   -5023    -4935    -4881    -4888    -4893    -4893    -4895    -4858 
   -4812    -4834    -4862    -4834    -4858    -4974    -5062    -4996 
   -4762    -4576    -4677    -4954    -5098    -5084    -5067    -4997 
   -4843    -4781    -4769    -4710    -4754    -4869    -4900    -4945 
   -5024    -5036    -5003    -4938    -4828    -4718    -4671    -4780 
   -4931    -4928    -4893    -4970    -5032    -5004    -4935    -4842 
   -4777    -4797    -4857    -4899    -4888    -4830    -4824    -4896 
   -4955    -4977    -4919    -4766    -4688    -4788    -4961    -5109 
   -5146    -5005    -4800    -4658    -4619    -4730    -4961    -5131 
   -5121    -4985    -4873    -4842    -4816    -4743    -4707    -4818 
   -4990    -5032    -4968    -4891    -4801    -4785    -4881    -4973 
   -5026    -4996    -4862    -4818    -4891    -4858    -4754    -4741 
   -4820    -4945    -5013    -4968    -4899    -4861    -4845    -4869 
   -4874    -4841    -4905    -5036    -5050    -4950    -4831    -4698 
   -4625    -4749    -4985    -5108    -5092    -5012    -4847    -4642 
   -4588    -4784    -5040    -5113    -5030    -4919    -4828    -4808 
   -4828    -4799    -4766    -4862    -5057    -5189    -5125    -4851 
   -4565    -4509    -4673    -4896    -5030    -5026    -4988    -4993 
   -4997    -4945    -4820    -4738    -4806    -4909    -4950    -4932 
   -4823    -4745    -4869    -5054    -5117    -5015    -4789    -4653 
   -4723    -4866    -5019    -5108    -4999    -4800    -4685    -4676 
   -4780    -4959    -5059    -5023    -4936    -4870    -4872    -4909 
   -4884    -4806    -4781    -4816    -4864    -4900    -4932    -4963 
   -4972    -4909    -4822    -4814    -4882    -4955    -4980    -4912 
   -4822    -4847    -4922    -4884    -4800    -4793    -4839    -4934 
   -5066    -5077    -4907    -4706    -4637    -4735    -4892    -5027 
   -5136    -5085    -4800    -4580    -4653    -4891    -5124    -5223 
   -5104    -4888    -4733    -4662    -4648    -4695    -4862    -5081 
   -5138    -5031    -4911    -4797    -4722    -4729    -4808    -4978 
   -5109    -5038    -4899    -4812    -4729    -4734    -4851    -4884 
   -4828    -4878    -5065    -5215    -5151    -4905    -4673    -4563 
   -4580    -4735    -4984    -5204    -5225    -4997    -4722    -4606 
   -4684    -4892    -5044    -5013    -4900    -4818    -4838    -4962 
   -5005    -4882    -4769    -4791    -4864    -4860    -4822    -4887 
   -4996    -5026    -5008    -4978    -4926    -4845    -4704    -4579 
   -4656    -4922    -5143    -5130    -4938    -4806    -4839    -4909 
   -4899    -4835    -4799    -4814    -4885    -4988    -5032    -5007 
   -4962    -4864    -4735    -4718    -4814    -4899    -4918    -4877 
   -4828    -4919    -5120    -5175    -5020    -4760    -4541    -4558 
   -4752    -4884    -5023    -5194    -5132    -4873    -4720    -4704 
   -4731    -4823    -4927    -4931    -4876    -4916    -5070    -5131 
   -4978    -4788    -4719    -4745    -4827    -4895    -4897    -4931 
   -5022    -5073    -5015    -4837    -4650    -4630    -4753    -4858 
   -4891    -4930    -5030    -5089    -5030    -4947    -4891    -4808 
   -4754    -4781    -4815    -4839    -4904    -4957    -4950    -4945 
   -4935    -4873    -4828    -4828    -4806    -4812    -4899    -4970 
   -4996    -4968    -4865    -4808    -4850    -4857    -4787    -4765 
   -4887    -5070    -5143    -5047    -4860    -4723    -4730    -4803 
   -4851    -4888    -4909    -4918    -4923    -4900    -4926    -5011 
   -4981    -4849    -4774    -4758    -4762    -4812    -4904    -4973 
   -4981    -4992    -5036    -5023    -4897    -4729    -4625    -4630 
   -4727    -4957    -5212    -5190    -4936    -4765    -4702    -4684 
   -4797    -4995    -5109    -5092    -4966    -4814    -4727    -4725 
   -4822    -4995    -5069    -4974    -4849    -4773    -4768    -4866 
   -4980    -4976    -4891    -4824    -4807    -4793    -4801    -4909 
   -5028    -5028    -4974    -4924    -4855    -4810    -4803    -4815 
   -4830    -4823    -4830    -4869    -4888    -4946    -5053    -5038 
   -4936    -4899    -4839    -4733    -4725    -4826    -4951    -5031 
   -5031    -4989    -4887    -4742    -4729    -4828    -4881    -4946 
   -5020    -4949    -4831    -4816    -4831    -4837    -4851    -4873 
   -4954    -5028    -4984    -4908    -4868    -4795    -4754    -4847 
   -4941    -4914    -4873    -4866    -4847    -4893    -4982    -4965 
   -4904    -4896    -4861    -4819    -4857    -4881    -4847    -4842 
   -4830    -4822    -4936    -5054    -4997    -4896    -4868    -4845 
   -4835    -4878    -4889    -4812    -4722    -4760    -4928    -5054 
   -5077    -5050    -4946    -4812    -4754    -4749    -4800    -4957 
   -5090    -5054    -4899    -4770    -4719    -4702    -4735    -4869 
   -5043    -5100    -5007    -4895    -4833    -4816    -4868    -4908 
   -4873    -4834    -4839    -4870    -4896    -4907    -4953    -5011 
   -4996    -4891    -4706    -4560    -4621    -4870    -5144    -5267 
   -5179    -4970    -4720    -4538    -4577    -4783    -4976    -5097 
   -5090    -4959    -4860    -4862    -4901    -4891    -4819    -4797 
   -4870    -4928    -4920    -4868    -4826    -4851    -4920    -4966 
   -4932    -4834    -4773    -4772    -4826    -4957    -5059    -5017 
   -4889    -4783    -4762    -4842    -4949    -4999    -4978    -4916 
   -4896    -4896    -4797    -4711    -4793    -4930    -5019    -5038 
   -4928    -4810    -4792    -4780    -4791    -4915    -5066    -5136 
   -5071    -4896    -4756    -4698    -4662    -4681    -4785    -4963 
   -5147    -5139    -4947    -4800    -4756    -4777    -4878    -4949 
   -4896    -4822    -4833    -4931    -5031    -4992    -4820    -4693 
   -4708    -4808    -4918    -4996    -5046    -5067    -5022    -4935 
   -4877    -4822    -4716    -4631    -4716    -4963    -5169    -5170 
   -4980    -4735    -4631    -4743    -4945    -5067    -5022    -4853 
   -4711    -4656    -4661    -4803    -5069    -5225    -5150    -4939 
   -4723    -4666    -4795    -4908    -4984    -5097    -5097    -4920 
   -4733    -4649    -4683    -4758    -4822    -4934    -5032    -5009 
   -4961    -4927    -4868    -4885    -4938    -4919    -4918    -4899 
   -4769    -4676    -4722    -4866    -5028    -5073    -5016    -4959 
   -4865    -4764    -4788    -4893    -4988    -5070    -5061    -4897 
   -4707    -4618    -4634    -4731    -4877    -5043    -5194    -5215 
   -5061    -4833    -4635    -4537    -4581    -4738    -4923    -5065 
   -5138    -5111    -4984    -4824    -4700    -4677    -4791    -4949 
   -5055    -5073    -4999    -4904    -4835    -4777    -4749    -4787 
   -4893    -4990    -4955    -4851    -4843    -4922    -4980    -4963 
   -4866    -4793    -4860    -4954    -4922    -4834    -4830    -4896 
   -4951    -4926    -4822    -4779    -4870    -4945    -4905    -4846 
   -4823    -4838    -4889    -4918    -4923    -4962    -4946    -4834 
   -4765    -4783    -4822    -4928    -5066    -5067    -4953    -4839 
   -4766    -4803    -4922    -4997    -5003    -4936    -4824    -4789 
   -4834    -4862    -4872    -4877    -4876    -4895    -4896    -4843 
   -4810    -4854    -4912    -4936    -4968    -4996    -4949    -4831 
   -4757    -4773    -4849    -4961    -5022    -4943    -4818    -4764 
   -4758    -4762    -4827    -4959    -5081    -5136    -5076    -4845 
   -4621    -4654    -4843    -4935    -4935    -4958    -5038    -5111 
   -5085    -4972    -4783    -4526    -4379    -4460    -4671    -4966 
   -5279    -5401    -5297    -5092    -4915    -4872    -4866    -4738 
   -4525    -4386    -4513    -4897    -5273    -5460    -5412    -5071 
   -4563    -4201    -4179    -4495    -5035    -5487    -5541    -5242 
   -4843    -4585    -4606    -4784    -4961    -5138    -5221    -5100 
   -4918    -4747    -4522    -4445    -4692    -4989    -5084    -5016 
   -4846    -4727    -4853    -5097    -5184    -5062    -4857    -4699 
   -4645    -4638    -4660    -4765    -4896    -4966    -5008    -5080 
   -5174    -5244    -5231    -5054    -4675    -4334    -4334    -4556 
   -4764    -4963    -5094    -5088    -5096    -5148    -5100    -4938 
   -4731    -4594    -4629    -4738    -4819    -4915    -4986    -4996 
   -5047    -5144    -5139    -4997    -4816    -4660    -4557    -4594 
   -4807    -5036    -5119    -5112    -5076    -4953    -4769    -4658 
   -4745    -4982    -5080    -4853    -4507    -4415    -4772    -5385 
   -5802    -5733    -5219    -4499    -3906    -3728    -4051    -4714 
   -5347    -5622    -5557    -5341    -5026    -4699    -4567    -4645 
   -4770    -4881    -4934    -4861    -4753    -4752    -4885    -5101 
   -5252    -5167    -4881    -4664    -4712    -4828    -4734    -4607 
   -4731    -4984    -5171    -5320    -5362    -5109    -4642    -4268 
   -4195    -4473    -4977    -5402    -5479    -5204    -4873    -4797 
   -4915    -4901    -4688    -4545    -4635    -4880    -5139    -5212 
   -4976    -4626    -4438    -4519    -4838    -5236    -5482    -5397 
   -5003    -4604    -4491    -4648    -4903    -5061    -4972    -4761 
   -4662    -4639    -4630    -4770    -5070    -5348    -5440    -5256 
   -4945    -4787    -4839    -4934    -4918    -4773    -4591    -4401 
   -4299    -4468    -4807    -5104    -5379    -5574    -5521    -5274 
   -4922    -4492    -4234    -4364    -4719    -5058    -5273    -5192 
   -4769    -4367    -4314    -4584    -5005    -5336    -5425    -5329 
   -5132    -4969    -4949    -4946    -4843    -4692    -4503    -4303 
   -4286    -4576    -5013    -5359    -5549    -5647    -5602    -5281 
   -4784    -4372    -4143    -4114    -4298    -4590    -4911    -5235 
   -5424    -5397    -5258    -5076    -4882    -4791    -4757    -4630 
   -4499    -4503    -4633    -4831    -4955    -4934    -4891    -4909 
   -4989    -5103    -5215    -5328    -5362    -5158    -4706    -4205 
   -3979    -4245    -4864    -5445    -5678    -5514    -5134    -4779 
   -4612    -4634    -4699    -4664    -4575    -4568    -4645    -4738 
   -4877    -5139    -5479    -5668    -5503    -5030    -4456    -4054 
   -4090    -4594    -5190    -5454    -5312    -4986    -4729    -4629 
   -4665    -4851    -5084    -5157    -5042    -4861    -4742    -4722 
   -4745    -4766    -4792    -4857    -4976    -5081    -5097    -5007 
   -4914    -4961    -5043    -4945    -4752    -4675    -4718    -4750 
   -4672    -4564    -4644    -4949    -5258    -5405    -5325    -4996 
   -4623    -4526    -4695    -4865    -4930    -4954    -4928    -4866 
   -4918    -5078    -5143    -5076    -4947    -4727    -4453    -4344 
   -4499    -4762    -5022    -5294    -5444    -5328    -5138    -5024 
   -4868    -4666    -4433    -4180    -4221    -4662    -5192    -5568 
   -5614    -5283    -4900    -4681    -4561    -4534    -4577    -4653 
   -4860    -5107    -5101    -4981    -5115    -5413    -5464    -5049 
   -4384    -3919    -3888    -4251    -4872    -5556    -6119    -6299 
   -5854    -4988    -4162    -3651    -3554    -3890    -4534    -5227 
   -5717    -5907    -5771    -5335    -4789    -4291    -3920    -3854 
   -4248    -4990    -5713    -6000    -5760    -5275    -4797    -4429 
   -4228    -4179    -4295    -4619    -5058    -5435    -5610    -5539 
   -5309    -5024    -4739    -4540    -4415    -4244    -4118    -4330 
   -4905    -5497    -5742    -5559    -5078    -4499    -4160    -4364 
   -4882    -5219    -5313    -5362    -5285    -5039    -4853    -4776 
   -4625    -4391    -4233    -4270    -4540    -4962    -5382    -5643 
   -5638    -5390    -5016    -4610    -4276    -4147    -4275    -4592 
   -4974    -5331    -5601    -5706    -5579    -5193    -4612    -4056 
   -3829    -4089    -4692    -5366    -5894    -6058    -5730    -5113 
   -4523    -4114    -3989    -4118    -4340    -4625    -4976    -5302 
   -5537    -5586    -5436    -5151    -4683    -4136    -3896    -4174 
   -4801    -5458    -5832    -5732    -5285    -4857    -4623    -4492 
   -4355    -4216    -4270    -4650    -5177    -5541    -5632    -5516 
   -5204    -4681    -4230    -4149    -4336    -4629    -4949    -5165 
   -5281    -5309    -5123    -4766    -4445    -4356    -4622    -5084 
   -5454    -5640    -5617    -5337    -4877    -4411    -4118    -4129 
   -4441    -4841    -5055    -5063    -5003    -4974    -5078    -5277 
   -5387    -5289    -4932    -4482    -4282    -4484    -4935    -5296 
   -5274    -4950    -4610    -4459    -4591    -4857    -5003    -4986 
   -4882    -4812    -4966    -5294    -5472    -5324    -4903    -4425 
   -4168    -4151    -4282    -4608    -5036    -5339    -5474    -5470 
   -5273    -4939    -4658    -4567    -4645    -4764    -4841    -4892 
   -4996    -5224    -5437    -5366    -4959    -4437    -4098    -4117 
   -4452    -4919    -5283    -5347    -5162    -4982    -4970    -5105 
   -5205    -5065    -4739    -4428    -4268    -4402    -4854    -5340 
   -5574    -5490    -5063    -4469    -4144    -4282    -4693    -5090 
   -5275    -5265    -5143    -4862    -4467    -4287    -4556    -5028 
   -5359    -5456    -5290    -4957    -4780    -4837    -4932    -4993 
   -4923    -4630    -4338    -4338    -4623    -5043    -5424    -5529 
   -5281    -4864    -4521    -4432    -4623    -4935    -5186    -5225 
   -4965    -4575    -4388    -4554    -4939    -5266    -5327    -5155 
   -4895    -4611    -4444    -4540    -4760    -4941    -5108    -5247 
   -5304    -5292    -5175    -4885    -4521    -4337    -4398    -4518 
   -4676    -4965    -5233    -5293    -5229    -5190    -5146    -4982 
   -4715    -4495    -4367    -4322    -4473    -4851    -5279    -5574 
   -5602    -5281    -4734    -4317    -4313    -4691    -5178    -5451 
   -5341    -4923    -4409    -4086    -4194    -4673    -5194    -5486 
   -5487    -5211    -4793    -4561    -4712    -5080    -5325    -5219 
   -4769    -4218    -3979    -4337    -5138    -5832    -5953    -5499 
   -4773    -4098    -3816    -4055    -4621    -5247    -5633    -5599 
   -5289    -4965    -4843    -4958    -5050    -4858    -4468    -4226 
   -4347    -4719    -5146    -5432    -5366    -4959    -4521    -4368 
   -4631    -5132    -5429    -5296    -4982    -4714    -4504    -4498 
   -4769    -5032    -5035    -4868    -4720    -4710    -4881    -5115 
   -5252    -5304    -5255    -4985    -4569    -4268    -4199    -4328 
   -4671    -5159    -5482    -5394    -5092    -4866    -4723    -4638 
   -4664    -4752    -4891    -5101    -5240    -5200    -5066    -4901 
   -4754    -4708    -4762    -4845    -4888    -4857    -4803    -4772 
   -4765    -4792    -4831    -4899    -5044    -5158    -5086    -4900 
   -4795    -4842    -4976    -5059    -4984    -4781    -4583    -4496 
   -4560    -4747    -4989    -5185    -5255    -5171    -4990    -4851 
   -4837    -4842    -4765    -4679    -4668    -4754    -4981    -5256 
   -5356    -5190    -4834    -4394    -4110    -4234    -4683    -5152 
   -5462    -5535    -5395    -5185    -4961    -4758    -4676    -4654 
   -4575    -4465    -4403    -4495    -4777    -5038    -5136    -5196 
   -5287    -5328    -5252    -5066    -4826    -4639    -4603    -4731 
   -4927    -5074    -5089    -4961    -4787    -4649    -4558    -4557 
   -4696    -4945    -5175    -5238    -5108    -4900    -4689    -4519 
   -4511    -4725    -4986    -5105    -5094    -5093    -5171    -5239 
   -5154    -4880    -4522    -4270    -4276    -4521    -4850    -5158 
   -5352    -5340    -5197    -5055    -4938    -4819    -4656    -4477 
   -4460    -4695    -5059    -5366    -5436    -5197    -4826    -4527 
   -4325    -4287    -4567    -5059    -5439    -5490    -5254    -4946 
   -4770    -4739    -4711    -4602    -4492    -4519    -4706    -5015 
   -5400    -5672    -5605    -5225    -4747    -4363    -4230    -4369 
   -4627    -4901    -5135    -5213    -5077    -4801    -4560    -4517 
   -4739    -5132    -5425    -5431    -5228    -4947    -4644    -4445 
   -4432    -4530    -4688    -4891    -5054    -5179    -5327    -5340 
   -5107    -4774    -4544    -4503    -4595    -4666    -4665    -4625 
   -4680    -4968    -5340    -5533    -5486    -5193    -4730    -4376 
   -4303    -4484    -4843    -5194    -5329    -5236    -5039    -4866 
   -4780    -4793    -4891    -4962    -4908    -4761    -4602    -4526 
   -4646    -4953    -5252    -5332    -5155    -4880    -4714    -4741 
   -4857    -4931    -4885    -4675    -4449    -4453    -4687    -4961 
   -5142    -5223    -5248    -5231    -5128    -4915    -4669    -4561 
   -4649    -4814    -4973    -5096    -5094    -4963    -4791    -4660 
   -4653    -4760    -4891    -5008    -5092    -5096    -5013    -4927 
   -4914    -4866    -4726    -4625    -4635    -4739    -4911    -5078 
