Origin Time       2024/06/23 22:54:00
Lat.              35.645
Long.             140.060
Depth. (km)       72
Mag.              4.1
Station Code      GNM009
Station Lat.      36.4105
Station Long.     139.3253
Station Height(m) 114
Record Time       2024/06/23 22:54:57
Sampling Freq(Hz) 100Hz
Duration Time(s)  60
Dir.              N-S
Scale Factor      7845(gal)/8223790
Max. Acc. (gal)   2.442
Last Correction   2024/06/23 22:54:56
Memo.             
[...]
   -8243    -8233    -8222    -8216    -8245    -8272    -8236    -8208 
   -8209    -8209    -8244    -8267    -8212    -8170    -8193    -8225 
   -8235    -8217    -8216    -8262    -8280    -8241    -8201    -8176 
   -8199    -8274    -8286    -8210    -8194    -8284    -8314    -8193 
   -8101    -8217    -8361    -8289    -8133    -8155    -8310    -8332 
   -8108    -7960    -8208    -8521    -8398    -7998    -7890    -8189 
   -8483    -8444    -8198    -8135    -8324    -8329    -7983    -7774 
   -8095    -8640    -8743    -8260    -7831    -7956    -8360    -8484 
   -8187    -7954    -8141    -8329    -8235    -8186    -8313    -8479 
   -8579    -8357    -7896    -7875    -8380    -8560    -8190    -7994 
   -8203    -8328    -8206    -8122    -8189    -8271    -8287    -8297 
   -8198    -7902    -7950    -8577    -8888    -8386    -7811    -7813 
   -8199    -8413    -8275    -8249    -8446    -8352    -7994    -7836 
   -7966    -8262    -8556    -8495    -8004    -7789    -8226    -8519 
   -8303    -8251    -8542    -8658    -8419    -8055    -7742    -7728 
   -8168    -8610    -8518    -8060    -7869    -8125    -8337    -8348 
   -8446    -8491    -8248    -7884    -7809    -8274    -8698    -8473 
   -7989    -7908    -8352    -8680    -8370    -7938    -7912    -8136 
   -8259    -8148    -8175    -8424    -8353    -8060    -8135    -8469 
   -8433    -8025    -8016    -8467    -8722    -8598    -8160    -7738 
   -7871    -8249    -8189    -7965    -8209    -8500    -8247    -8020 
   -8224    -8360    -8249    -8182    -8326    -8446    -8253    -7928 
   -7909    -8363    -8733    -8464    -8041    -7950    -7985    -8035 
   -8141    -8253    -8299    -8347    -8468    -8401    -8091    -7905 
   -8033    -8340    -8536    -8510    -8294    -7974    -7927    -8251 
   -8545    -8499    -8203    -8114    -8217    -8064    -7955    -8218 
   -8514    -8527    -8166    -7820    -8020    -8486    -8598    -8318 
   -8143    -8237    -8191    -8029    -8158    -8419    -8433    -8228 
   -8144    -8279    -8249    -7942    -7894    -8279    -8469    -8256 
   -8116    -8172    -8226    -8248    -8208    -8144    -8240    -8437 
   -8370    -8071    -8067    -8316    -8324    -8171    -8158    -8225 
   -8224    -8168    -8182    -8276    -8311    -8198    -8012    -7973 
   -8284    -8706    -8635    -8104    -7842    -8095    -8372    -8403 
   -8392    -8357    -8226    -8167    -8137    -8070    -8171    -8289 
   -8172    -8025    -8036    -8286    -8649    -8604    -8195    -8029 
   -8086    -7990    -7977    -8409    -8819    -8564    -7985    -7776 
   -7983    -8294    -8509    -8499    -8263    -7979    -7830    -7943 
   -8272    -8491    -8468    -8303    -8037    -7938    -8222    -8505 
   -8478    -8322    -8102    -7923    -8079    -8456    -8552    -8147 
   -7757    -7956    -8463    -8704    -8455    -7920    -7804    -8272 
   -8549    -8291    -8047    -8175    -8430    -8507    -8201    -7792 
   -8004    -8495    -8444    -8270    -8343    -8222    -8027    -8172 
   -8441    -8391    -8016    -7804    -8133    -8669    -8748    -8237 
   -7724    -7892    -8586    -8792    -8178    -7708    -7994    -8502 
   -8505    -7939    -7668    -8263    -8831    -8467    -7780    -7731 
   -8171    -8548    -8692    -8429    -7929    -7730    -7886    -8249 
   -8627    -8627    -8318    -8036    -7921    -8054    -8275    -8410 
   -8538    -8507    -8094    -7732    -7977    -8444    -8488    -8332 
   -8326    -8271    -8094    -8079    -8291    -8472    -8411    -8191 
   -8090    -8217    -8309    -8128    -7987    -8240    -8502    -8340 
   -7982    -7874    -8101    -8313    -8345    -8378    -8357    -8174 
   -8035    -8114    -8307    -8391    -8280    -8178    -8298    -8418 
   -8236    -7989    -8001    -8116    -8202    -8301    -8301    -8232 
   -8279    -8401    -8282    -7902    -7924    -8515    -8820    -8428 
   -7821    -7581    -7897    -8464    -8762    -8513    -8068    -8054 
   -8378    -8364    -8000    -7954    -8320    -8577    -8419    -7982 
   -7824    -8247    -8652    -8545    -8289    -8214    -8190    -8105 
   -8013    -8025    -8244    -8457    -8297    -8004    -8078    -8359 
   -8383    -8147    -7965    -8033    -8351    -8668    -8619    -8241 
   -7846    -7624    -7862    -8586    -9063    -8644    -7754    -7512 
   -8218    -8841    -8571    -7927    -7776    -8135    -8380    -8226 
   -8039    -8182    -8395    -8351    -8325    -8529    -8581    -8181 
   -7717    -7812    -8363    -8696    -8445    -7909    -7682    -7939 
   -8424    -8714    -8513    -8221    -8100    -7927    -7973    -8302 
   -8401    -8305    -8375    -8395    -8043    -7786    -8106    -8506 
   -8571    -8480    -8229    -7862    -7824    -8251    -8594    -8495 
   -8257    -8058    -7969    -8195    -8410    -8284    -8116    -8185 
   -8487    -8604    -8137    -7713    -7973    -8329    -8267    -8194 
   -8375    -8527    -8406    -7996    -7568    -7680    -8440    -8974 
   -8602    -7979    -7994    -8421    -8533    -8102    -7662    -7919 
   -8669    -8985    -8446    -7624    -7506    -8199    -8772    -8615 
   -8020    -7740    -8158    -8573    -8410    -8185    -8206    -8210 
   -8311    -8567    -8444    -7836    -7576    -8005    -8460    -8673 
   -8694    -8276    -7759    -7804    -8298    -8473    -8058    -7854 
   -8330    -8791    -8557    -7929    -7801    -8202    -8343    -8224 
   -8210    -8274    -8527    -8665    -8202    -7763    -7896    -8160 
   -8409    -8675    -8505    -7912    -7658    -8062    -8567    -8553 
   -8081    -7916    -8486    -8907    -8239    -7273    -7514    -8715 
   -9232    -8583    -7784    -7663    -8095    -8384    -8237    -8162 
   -8228    -7924    -7738    -8367    -8903    -8449    -7908    -8186 
   -8631    -8523    -8133    -7873    -7986    -8383    -8487    -8233 
   -8172    -8330    -8264    -7950    -7913    -8311    -8436    -8067 
   -8006    -8357    -8428    -8251    -8279    -8472    -8467    -8113 
   -7831    -8110    -8629    -8603    -7956    -7603    -8162    -8815 
   -8580    -7940    -7758    -8017    -8311    -8291    -8079    -8185 
   -8452    -8456    -8322    -8158    -8064    -8185    -8290    -8343 
   -8495    -8633    -8503    -7997    -7641    -7885    -8205    -8243 
   -8320    -8444    -8317    -8058    -7901    -7909    -8314    -8818 
   -8576    -7929    -7861    -8230    -8418    -8351    -8334    -8410 
   -8298    -8048    -7867    -7816    -8124    -8618    -8581    -8108 
   -7986    -8175    -8294    -8499    -8617    -8309    -7924    -7913 
   -8187    -8307    -8232    -8321    -8494    -8413    -8106    -8012 
   -8357    -8500    -8093    -7862    -8127    -8457    -8523    -8168 
   -7784    -7990    -8498    -8623    -8332    -8035    -7994    -8060 
   -8240    -8544    -8394    -7839    -7805    -8357    -8777    -8608 
   -7962    -7662    -7979    -8125    -8091    -8527    -8922    -8449 
   -7796    -7990    -8444    -8239    -7754    -7722    -8293    -8938 
   -8996    -8491    -7830    -7474    -7790    -8326    -8395    -8251 
   -8345    -8406    -8318    -8417    -8469    -8071    -7696    -7944 
   -8472    -8584    -8351    -8239    -8131    -7954    -8148    -8483 
   -8422    -8374    -8538    -8340    -7884    -7792    -8104    -8567 
   -8793    -8352    -7611    -7492    -8127    -8723    -8695    -8290 
   -8071    -8149    -8299    -8355    -8278    -8082    -7913    -8159 
   -8621    -8515    -8005    -7919    -8217    -8355    -8293    -8120 
   -7793    -7685    -8104    -8613    -8702    -8486    -8378    -8229 
   -7785    -7627    -8149    -8700    -8656    -8299    -8156    -8125 
   -8095    -8280    -8425    -8175    -7932    -8257    -8768    -8564 
   -7931    -7927    -8371    -8336    -7993    -7975    -8085    -8181 
   -8472    -8596    -8333    -8191    -8274    -8135    -7848    -7955 
   -8378    -8446    -8073    -7832    -8063    -8587    -8858    -8523 
   -7978    -7843    -8162    -8376    -8175    -7929    -7951    -8279 
   -8780    -8895    -8368    -7713    -7569    -8063    -8588    -8522 
   -8079    -7893    -8112    -8418    -8607    -8448    -7936    -7777 
   -8162    -8432    -8533    -8588    -8233    -7847    -8220    -8858 
   -8642    -7780    -7510    -8071    -8503    -8316    -8105    -8403 
   -8711    -8429    -7983    -7847    -7838    -8002    -8370    -8473 
   -8262    -8137    -8221    -8352    -8311    -8135    -8043    -8127 
   -8405    -8590    -8399    -8159    -8108    -8040    -7951    -8116 
   -8421    -8334    -7932    -7881    -8243    -8526    -8506    -8353 
   -8243    -8152    -8075    -8074    -8240    -8434    -8417    -8388 
   -8274    -7851    -7743    -8202    -8614    -8656    -8295    -7843 
   -7933    -8499    -8676    -8172    -7824    -8162    -8490    -8198 
   -7900    -8248    -8644    -8357    -7789    -7823    -8506    -8785 
   -8278    -7987    -8233    -8352    -8212    -8098    -8212    -8487 
   -8376    -7815    -7773    -8549    -8889    -8279    -7782    -7819 
   -7929    -8172    -8588    -8680    -8295    -7987    -8106    -8299 
   -8286    -8166    -8014    -8059    -8444    -8648    -8302    -7939 
   -8001    -8286    -8430    -8148    -7857    -8309    -8785    -8267 
   -7731    -8143    -8725    -8658    -8008    -7457    -7711    -8441 
   -8714    -8419    -8209    -8303    -8287    -8064    -8156    -8565 
   -8500    -7940    -7744    -8073    -8495    -8642    -8272    -7844 
   -7978    -8388    -8448    -8122    -7967    -8167    -8243    -8095 
   -8094    -8418    -8764    -8559    -8016    -8021    -8575    -8657 
   -8010    -7636    -7912    -8235    -8440    -8580    -8442    -8077 
   -7751    -7758    -8244    -8687    -8487    -8052    -8023    -8182 
   -8187    -8256    -8471    -8469    -8239    -8190    -8321    -8241 
   -7969    -7874    -8135    -8590    -8730    -8257    -7805    -8070 
   -8619    -8538    -7840    -7487    -7946    -8603    -8824    -8679 
   -8391    -8019    -7830    -8040    -8244    -8147    -8137    -8414 
   -8511    -8109    -7731    -7932    -8370    -8548    -8538    -8533 
   -8367    -7825    -7439    -7970    -8870    -8891    -8071    -7619 
   -8016    -8496    -8406    -8097    -8181    -8456    -8291    -7915 
   -8156    -8802    -8702    -7861    -7481    -7889    -8353    -8451 
   -8384    -8503    -8688    -8429    -7838    -7668    -8154    -8608 
   -8513    -8245    -8114    -7956    -8029    -8556    -8896    -8505 
   -7830    -7651    -8029    -8305    -8224    -8201    -8390    -8522 
   -8336    -7946    -7846    -8174    -8522    -8507    -8199    -8101 
   -8309    -8311    -8012    -7905    -8122    -8341    -8433    -8363 
   -8140    -8004    -7981    -8013    -8235    -8507    -8517    -8326 
   -8268    -8317    -8139    -7808    -7735    -8122    -8641    -8731 
   -8500    -8289    -8019    -7836    -8035    -8320    -8311    -8326 
   -8707    -8870    -8367    -7905    -7971    -7940    -7599    -7782 
   -8640    -9070    -8586    -7923    -7742    -7989    -8278    -8410 
   -8440    -8338    -8143    -8027    -8052    -8253    -8511    -8428 
   -8024    -7892    -8247    -8538    -8367    -8081    -7954    -7944 
   -8293    -8823    -8704    -7911    -7420    -7722    -8325    -8703 
   -8722    -8360    -7919    -7951    -8417    -8667    -8398    -7959 
   -7817    -8051    -8336    -8382    -8284    -8218    -8170    -8208 
   -8333    -8341    -8334    -8403    -8202    -7871    -7997    -8351 
   -8343    -8144    -8183    -8370    -8437    -8407    -8334    -8102 
   -7819    -7843    -8260    -8656    -8567    -8133    -7900    -8132 
   -8503    -8376    -7789    -7676    -8307    -8683    -8255    -7815 
   -8037    -8587    -8769    -8325    -7820    -7912    -8370    -8576 
   -8326    -7971    -8087    -8564    -8630    -8140    -7866    -8085 
   -8230    -8247    -8467    -8488    -8074    -7919    -8228    -8278 
   -7966    -7881    -8216    -8773    -9026    -8560    -7932    -7790 
   -7882    -7839    -7749    -7782    -8027    -8453    -8638    -8448 
   -8398    -8430    -8195    -8055    -8203    -8421    -8515    -8291 
   -8004    -8129    -8465    -8478    -8185    -7990    -8062    -8289 
   -8409    -8244    -7911    -7715    -7981    -8546    -8753    -8521 
   -8459    -8734    -8753    -8163    -7578    -7701    -8298    -8611 
   -8310    -7927    -8086    -8525    -8683    -8503    -8228    -8124 
   -8174    -8071    -7855    -7947    -8406    -8618    -8203    -7813 
   -8062    -8533    -8602    -8244    -7842    -7738    -7944    -8143 
   -8137    -8097    -8129    -8256    -8523    -8463    -7627    -6783 
   -7146    -8704   -10096   -10185    -9283    -8341    -7754    -7461 
   -7335    -7276    -7339    -7601    -7825    -7821    -7943    -8526 
   -9074    -8846    -8179    -7990    -8468    -9262    -9850    -9840 
   -9360    -8599    -7857    -7589    -7584    -7578    -7886    -8479 
   -8951    -8919    -8051    -6839    -6488    -7354    -8505    -8907 
   -8559    -8291    -8656    -9158    -8858    -7740    -6804    -7003 
   -8406    -9906   -10203    -9121    -7414    -6052    -5859    -6775 
   -7761    -8189    -8391    -8530    -8299    -7724    -7435    -7983 
   -9045    -9811    -9707    -8661    -7546    -7476    -8162    -8525 
   -8486    -8530    -8602    -8536    -8355    -8089    -8100    -8561 
   -8820    -8318    -7537    -7555    -8727   -10091   -10396    -9162 
   -7044    -5667    -6189    -8062    -9628    -9825    -9232    -8819 
   -8598    -8294    -7889    -7689    -8006    -8241    -7628    -6685 
   -6594    -7404    -8023    -8105    -8237    -8586    -8830    -8635 
   -8048    -7624    -7757    -8310    -8726    -8490    -7936    -7785 
   -7967    -8021    -8179    -8780    -9289    -9076    -8280    -7504 
   -7362    -8010    -8976    -9603    -9382    -8503    -7797    -7545 
   -7670    -8262    -8677    -8260    -7869    -8491    -9364    -9211 
   -8286    -7663    -7507    -7484    -7642    -7939    -8114    -8247 
   -8357    -8152    -7946    -8353    -8783    -8236    -7298    -7339 
   -8313    -8907    -8541    -7956    -7925    -8444    -8951    -8982 
   -8802    -8594    -7848    -6968    -7253    -8494    -9212    -8884 
   -8074    -7572    -7956    -8760    -8688    -7742    -7308    -7908 
   -8757    -8804    -7848    -7246    -7855    -8496    -8314    -8028 
   -8283    -8791    -8789    -8029    -7472    -7994    -8899    -9076 
   -8575    -7982    -7614    -7597    -7985    -8719    -9221    -8700 
   -7530    -7030    -7657    -8711    -9510    -9688    -8935    -7447 
   -6498    -7295    -9127   -10269    -9925    -8430    -6967    -6605 
   -7281    -8421    -9346    -9347    -8514    -7612    -7096    -7153 
   -7901    -8729    -8608    -7774    -7662    -8642    -9278    -8494 
   -7203    -6897    -7859    -9042    -9058    -8021    -7506    -8077 
   -8692    -8550    -8082    -7901    -7840    -7740    -7851    -8338 
   -8910    -8912    -8430    -8282    -8378    -8297    -8542    -9140 
   -9103    -8309    -7682    -7580    -7825    -8368    -8903    -8924 
   -8291    -7591    -7570    -7987    -8249    -8436    -8487    -8124 
   -7819    -8094    -8452    -8253    -7767    -7663    -8083    -8419 
   -8233    -8002    -8210    -8576    -8580    -8112    -7600    -7627 
   -8232    -8533    -7925    -7497    -8421    -9563    -9040    -7399 
   -6835    -7790    -8723    -8738    -8495    -8614    -8792    -8802 
   -8762    -8521    -8074    -7906    -8253    -8729    -8787    -8415 
   -8154    -8195    -8217    -8201    -8372    -8549    -8310    -7635 
   -7032    -6936    -7516    -8564    -9109    -8641    -7966    -7728 
   -7844    -8174    -8523    -8662    -8492    -8149    -7858    -7776 
   -8029    -8428    -8561    -8248    -7697    -7472    -7836    -8387 
   -8430    -7797    -7430    -8248    -9761   -10426    -9273    -7314 
   -6454    -7163    -8511    -9706   -10154    -9115    -7126    -6326 
   -7527    -9121    -9543    -8820    -7781    -7200    -7685    -9069 
  -10012    -9348    -7636    -6759    -7526    -8571    -8672    -8058 
   -7356    -7234    -7832    -8503    -8885    -8869    -8311    -7649 
   -7651    -8306    -8743    -8533    -8090    -7931    -8253    -8677 
   -8498    -7727    -7276    -7719    -8552    -8910    -8361    -7408 
   -7196    -8006    -8947    -9225    -8568    -7387    -6906    -7776 
   -8955    -9035    -8100    -7506    -7901    -8526    -8824    -9136 
   -9479    -9217    -8132    -7165    -7522    -8833    -9509    -9059 
   -8415    -8324    -8634    -8784    -8451    -7500    -6286    -6288 
   -8089    -9603    -9030    -7335    -6454    -7133    -8567    -9324 
   -8997    -8537    -8615    -8787    -8554    -8104    -7778    -7638 
   -7526    -7399    -7572    -8167    -8727    -8924    -8569    -7561 
   -6906    -7696    -8957    -8947    -7843    -7335    -8108    -9147 
   -9459    -9132    -8772    -8719    -8733    -8406    -7865    -7634 
   -7882    -8256    -8473    -8545    -8386    -7928    -7508    -7484 
   -7753    -8090    -8496    -8752    -8352    -7452    -7080    -7933 
   -9344    -9903    -9182    -8276    -8162    -8337    -8016    -7578 
   -7755    -8456    -8989    -8810    -8116    -7596    -7599    -8077 
   -8773    -8947    -8063    -7096    -7314    -8012    -7751    -6966 
   -7268    -8858    -9994    -9485    -8232    -7338    -7053    -7551 
   -8599    -9437    -9651    -9247    -8295    -7281    -7198    -8313 
   -9408    -9200    -7969    -7065    -7317    -8507    -9718    -9771 
   -8455    -7172    -7200    -8095    -8449    -7731    -7059    -7612 
   -8897    -9520    -8947    -7852    -7219    -7512    -8280    -8629 
   -8368    -8050    -8078    -8365    -8564    -8567    -8560    -8506 
   -8050    -7184    -6689    -7133    -8090    -9047    -9788    -9849 
   -8962    -7614    -6720    -7011    -8194    -8977    -8641    -7946 
   -8010    -8804    -9290    -8860    -7975    -7609    -8145    -8811 
   -8745    -8132    -7762    -7835    -7854    -7834    -8206    -8708 
   -8791    -8441    -8154    -8212    -8256    -8133    -8105    -8008 
   -7786    -8132    -9139    -9574    -8649    -7152    -6365    -6918 
   -8252    -9100    -8962    -8445    -8283    -8588    -8810    -8371 
   -7488    -7051    -7407    -8029    -8472    -8613    -8465    -8348 
   -8623    -9070    -8981    -8290    -7726    -7612    -7677    -7761 
   -8046    -8514    -8623    -8181    -7727    -7643    -7832    -8101 
   -8426    -8897    -9305    -9181    -8460    -7713    -7518    -7830 
   -8244    -8575    -8811    -8814    -8580    -8455    -8465    -8124 
   -7399    -6979    -7306    -8132    -8865    -9000    -8587    -8124 
   -8058    -8498    -8962    -8739    -7867    -7132    -7067    -7581 
   -8330    -9007    -9328    -8951    -7993    -7244    -7277    -8037 
   -9040    -9352    -8565    -7611    -7458    -7911    -8333    -8649 
   -8947    -8775    -7865    -6925    -6876    -7751    -8654    -8911 
   -8630    -8160    -7893    -8118    -8556    -8730    -8565    -8217 
   -7893    -7875    -8213    -8581    -8584    -8175    -7952    -8414 
   -9069    -9165    -8650    -7808    -7059    -7052    -7874    -8756 
   -9107    -8999    -8564    -7973    -7697    -7875    -8021    -7933 
