Origin Time       2024/06/23 22:54:00
Lat.              35.645
Long.             140.060
Depth. (km)       72
Mag.              4.1
Station Code      GNM009
Station Lat.      36.4105
Station Long.     139.3253
Station Height(m) 114
Record Time       2024/06/23 22:54:57
Sampling Freq(Hz) 100Hz
Duration Time(s)  60
Dir.              U-D
Scale Factor      7845(gal)/8223790
Max. Acc. (gal)   1.023
Last Correction   2024/06/23 22:54:56
Memo.             
[...]
    6822     6866     6918     7005     7084     6997     6890     7032 
    7114     6771     6439     6704     7242     7210     6646     6562 
    7203     7530     7072     6701     6928     7074     6775     6642 
    6898     7032     6953     7074     7191     6802     6551     7217 
    7690     6940     6239     6706     7387     7272     6766     6685 
    7034     7186     6988     6808     6755     6856     7159     7231 
    6772     6547     7210     7676     6947     6253     6698     7254 
    7021     6662     6871     7258     7233     7040     6951     6689 
    6519     6949     7398     7103     6600     6777     7314     7287 
    6750     6480     6790     7236     7098     6569     6714     7431 
    7481     6829     6598     7094     7419     6991     6563     6806 
    7036     6833     6816     7078     7141     6979     6891     6914 
    6868     6920     7150     7007     6643     6837     7144     6876 
    6667     7099     7483     6994     6386     6879     7609     7125 
    6342     6718     7501     7302     6578     6581     7136     7211 
    6764     6600     6959     7249     7072     6771     6781     7042 
    7238     7176     6868     6643     6903     7312     7157     6724 
    6758     7041     7010     6828     6835     6922     6937     7011 
    7184     7099     6748     6702     7011     7221     7128     6763 
    6651     7129     7325     6748     6436     6984     7407     6922 
    6421     6864     7453     7194     6690     6783     7123     7045 
    6791     6921     7145     6998     6853     7015     7078     6924 
    6933     7061     6976     6826     6849     6898     6918     6957 
    6944     6906     6905     7040     7261     7088     6598     6616 
    7155     7330     6926     6662     6934     7248     7045     6556 
    6517     7048     7366     7076     6802     6894     6920     6895 
    7068     7072     6866     6913     7149     7167     6880     6682 
    6963     7256     6979     6646     6833     7095     6957     6813 
    7042     7173     6918     6799     6943     7028     7076     7029 
    6875     6878     6956     6980     6995     6836     6713     6945 
    7121     7033     7047     7071     6866     6739     6899     7057 
    7021     6990     7064     7028     6851     6778     6774     6799 
    7018     7148     6947     6845     6998     7069     6987     6895 
    6917     7055     7056     6840     6841     7129     7040     6636 
    6797     7369     7330     6741     6596     6993     7159     6991 
    6886     6832     6843     7040     7141     6968     6810     6845 
    6934     6899     6836     6982     7171     7088     6875     6848 
    7041     7119     6813     6536     6797     7272     7344     7010 
    6791     6906     6975     6845     6832     6984     7137     7163 
    6948     6763     6889     7051     7107     7226     7145     6714 
    6540     6951     7265     6917     6466     6702     7244     7179 
    6663     6624     7155     7415     7038     6675     6944     7352 
    7049     6504     6675     7113     7029     6828     6970     7129 
    7052     6998     7083     7028     6813     6723     6808     6959 
    7038     6978     6943     6964     6868     6804     6975     7142 
    7086     7005     7038     6999     6894     6899     6902     6821 
    6820     6980     7126     7021     6899     7134     7327     7011 
    6643     6723     7015     7140     7011     6778     6727     6949 
    7200     7214     6941     6619     6655     7024     7136     6814 
    6596     6843     7226     7225     6895     6791     7121     7434 
    7217     6689     6567     6932     7207     7090     6779     6655 
    6866     7045     6843     6585     6798     7338     7599     7213 
    6588     6601     7144     7214     6845     6828     7047     6939 
    6655     6782     7138     6952     6571     6917     7450     7225 
    6704     6777     7229     7192     6689     6600     7009     7195 
    7044     6994     7020     6867     6804     6988     7032     7021 
    7214     7051     6489     6494     7090     7353     7111     6876 
    6829     6768     6809     7103     7206     6959     6849     6975 
    7107     7180     7040     6716     6724     7177     7261     6656 
    6409     6943     7215     6913     6814     7009     7018     6932 
    7036     7069     6870     6882     7129     7164     7113     7119 
    6878     6531     6605     6947     6905     6674     6983     7480 
    7296     6720     6623     7001     7194     7045     6918     6914 
    6925     7021     7075     6828     6610     6913     7430     7407 
    6779     6424     6804     7141     6910     6759     7047     7213 
    7063     6972     6867     6639     6790     7269     7234     6700 
    6521     6932     7272     7140     7078     7257     7072     6696 
    6681     6813     6862     6882     6833     6804     7014     7326 
    7223     6782     6781     7222     7304     6889     6604     6853 
    7195     7095     6887     6893     6843     6750     6905     7264 
    7350     6910     6609     6933     7123     6651     6350     6948 
    7690     7479     6620     6335     6901     7439     7264     6750 
    6679     6993     7076     6828     6592     6732     7163     7194 
    6821     6858     7202     7128     6847     6956     7288     7123 
    6562     6697     7368     7246     6639     6700     7030     6951 
    6894     7159     7291     7021     6724     6771     6949     6944 
    6801     6677     6723     6928     7057     7026     6991     7156 
    7468     7348     6635     6362     7025     7474     6956     6361 
    6609     7285     7368     6786     6539     7033     7402     7044 
    6605     6740     7125     7307     7213     6879     6644     6775 
    6979     6948     6770     6794     7110     7230     6975     6794 
    6843     7017     7327     7391     6835     6311     6627     7214 
    7088     6735     6964     7254     7142     7014     6914     6710 
    6708     7044     7252     6956     6710     7003     7173     6812 
    6579     6813     6988     6856     6907     7242     7304     7083 
    6957     7013     7177     7051     6608     6701     7202     7028 
    6531     6785     7415     7400     6818     6577     6841     6953 
    6844     6944     7126     7052     6853     6957     7276     7119 
    6635     6713     7096     6963     6681     6898     7203     7129 
    7052     7074     6797     6559     6826     7076     6913     6835 
    7138     7264     6832     6585     7052     7315     6779     6507 
    7109     7484     7007     6685     6963     6986     6775     7083 
    7296     6770     6593     7226     7319     6658     6594     7190 
    7323     6853     6593     6921     7231     6968     6693     6955 
    7229     7063     6801     6755     6797     6835     7013     7308 
    7348     6943     6629     6960     7288     6772     6305     6901 
    7362     6771     6520     7202     7435     6891     6724     7121 
    7122     6600     6581     7203     7388     7040     7017     7195 
    7007     6745     6893     7138     6836     6435     6825     7229 
    6763     6548     7159     7344     6875     6847     7214     7040 
    6650     6972     7383     6940     6546     7094     7483     6889 
    6507     7034     7281     6735     6519     6999     7175     6775 
    6667     7067     7317     7165     6910     6883     7098     7140 
    6866     6670     6777     7099     7389     7172     6569     6474 
    6924     7092     6870     6727     6880     7163     7236     7101 
    6930     6740     6758     7071     7179     6812     6542     6922 
    7341     6980     6593     7075     7585     7230     6624     6640 
    7061     7123     6821     6731     6929     7055     6967     6782 
    6691     6917     7342     7348     6860     6745     7221     7322 
    6724     6407     6817     7080     6821     6804     7159     7203 
    6924     6868     7119     7184     6856     6737     7149     7389 
    6970     6490     6597     6933     6934     6870     7074     7206 
    7010     6862     7074     7250     6918     6477     6658     7211 
    7209     6775     6875     7319     7144     6600     6686     7173 
    7113     6783     6914     7098     6878     6731     7048     7395 
    7083     6492     6791     7570     7252     6201     6162     7222 
    7785     7083     6411     6907     7526     7078     6369     6602 
    7276     7175     6596     6663     7133     7230     7248     7308 
    6880     6416     6694     7138     6976     6735     7082     7385 
    6978     6644     6990     7229     6914     6640     6717     6826 
    6814     6979     7288     7128     6616     6720     7426     7605 
    6898     6386     6956     7727     7349     6358     6265     7052 
    7422     6867     6315     6683     7411     7445     6963     6716 
    6866     7172     7268     6906     6451     6598     7227     7342 
    6831     6662     6936     7018     6920     6860     6844     6966 
    7145     7179     7103     6998     6875     6872     6974     6891 
    6671     6735     7136     7419     7218     6817     6829     7128 
    7053     6712     6667     6843     6889     6843     6867     6936 
    6983     7061     7122     7055     7115     7350     7156     6601 
    6628     7106     6982     6458     6613     7273     7299     6752 
    6763     7252     7240     6837     6758     7063     7233     6922 
    6629     6804     6980     6963     7065     7051     6809     6887 
    7192     7096     6771     6748     7003     7128     6895     6667 
    6831     7123     7169     7002     6853     6901     7098     7137 
    6898     6808     7079     7168     6799     6678     7138     7318 
    6898     6705     6932     7029     6944     6922     6997     6968 
    6664     6547     7009     7327     7020     6880     7191     7164 
    6763     6694     6922     6998     6980     7032     7013     6874 
    6889     7079     6995     6718     6914     7356     7164     6673 
    6817     7118     6736     6374     6917     7608     7362     6654 
    6566     7034     7261     6953     6625     6870     7248     6997 
    6597     6826     7222     7114     6855     6905     6997     6917 
    6916     7080     7168     7011     6799     6835     6940     6847 
    6831     7080     7248     7041     6705     6728     7029     7101 
    6980     6937     6891     6886     7063     7196     7038     6808 
    6841     7055     7133     6995     6863     6955     7094     6987 
    6739     6642     6797     6982     6975     6988     7133     7125 
    6947     6882     6876     6747     6817     7256     7300     6675 
    6471     7084     7393     6906     6558     6933     7345     7183 
    6928     7045     7099     6794     6671     6933     6916     6604 
    6848     7385     7219     6744     6831     7134     7126     6980 
    6882     6856     6933     6949     6791     6667     6808     7102 
    7168     6974     6972     7222     7269     7028     6813     6737 
    6716     6802     6959     6917     6824     7018     7121     6968 
    7107     7264     6866     6547     6775     7026     7065     7009 
    6879     6859     6988     7099     7102     6997     6951     7052 
    7030     6778     6691     7060     7433     7215     6745     6716 
    6975     7018     6831     6693     6808     7040     7095     6902 
    6643     6713     7219     7514     7217     6886     6860     6852 
    6812     6872     6887     6862     7041     7250     7059     6616 
    6507     6926     7396     7318     6883     6835     7128     7069 
    6690     6612     6906     7115     7101     7025     6940     6898 
    6943     6951     6889     6825     6805     6909     7005     6840 
    6667     6872     7267     7404     7122     6785     6895     7182 
    7106     6889     6843     6890     7010     6995     6675     6511 
    6809     7160     7053     6617     6597     7161     7547     7329 
    6952     7042     7485     7442     6787     6489     6906     7179 
    6794     6436     6640     6903     6893     6971     7121     6970 
    6716     6741     6906     6945     6864     6786     6967     7402 
    7489     7056     6855     7190     7371     6963     6447     6457 
    6894     7173     7111     6998     7091     7159     6828     6512 
    6654     6848     6822     6723     6731     7107     7565     7526 
    7199     7123     7311     7322     6848     6440     6766     7317 
    7250     6664     6392     6822     7148     6782     6473     6700 
    7030     7252     7341     7153     6809     6660     6895     7225 
    7118     6655     6583     7045     7117     6573     6442     6851 
    7037     7145     7290     6949     6559     6955     7546     7307 
    6620     6485     6863     7029     6889     6982     7331     7383 
    7237     7312     7187     6702     6642     7044     7032     6582 
    6550     7130     7620     7508     7020     6741     6882     6940 
    6712     6728     7017     7096     7015     7037     7029     6801 
    6527     6381     6300     6369     6613     6762     6860     7111 
    7271     7157     7098     7350     7495     7055     6644     7083 
    7680     7381     6721     6787     7384     7553     7072     6589 
    6627     6924     6899     6563     6546     7036     7269     6886 
    6718     7045     7020     6620     6677     7080     7165     7113 
    7383     7599     7164     6608     6835     7137     6470     5881 
    6515     7242     6939     6498     6855     7329     7253     7179 
    7377     7134     6497     6517     7188     7434     7068     6878 
    7194     7416     7106     6790     6937     7194     7179     6894 
    6529     6370     6443     6500     6511     6704     7025     7118 
    7013     7061     7192     7148     7076     7231     7431     7223 
    6751     6763     7275     7371     6814     6421     6708     7226 
    7199     6647     6547     7217     7523     6930     6563     6983 
    7136     6536     6223     6678     7051     6984     7015     7267 
    7308     6948     6667     6979     7402     7292     6963     6913 
    7132     7204     6876     6566     6748     7283     7476     6870 
    6232     6485     7011     6879     6534     6790     7362     7534 
    7353     7133     6866     6755     6966     6967     6500     6311 
    6814     7252     7069     6794     6929     7125     7065     7086 
    7290     7273     6918     6615     6806     7275     7291     6957 
    6956     7137     7001     6721     6694     6848     6862     6737 
    6748     6894     7003     7037     7003     6980     7011     6963 
    6943     7130     7204     6980     6875     7007     6944     6624 
    6519     6760     6916     6893     7140     7503     7287     6789 
    6898     7349     7171     6454     6351     7005     7119     6575 
    6696     7338     7300     6847     6871     7090     6912     6721 
    7067     7457     7186     6687     6771     7175     7203     6999 
    6974     6939     6791     6889     7173     7111     6725     6697 
    7047     6955     6507     6656     7261     7376     6995     6875 
    7115     7095     6724     6507     6606     6862     6976     6740 
    6562     6870     7238     7134     6856     7011     7362     7215 
    6859     6967     7198     7086     6968     7013     6874     6669 
    6913     7388     7233     6581     6573     7238     7364     6787 
    6592     6951     7098     6987     7021     7072     6949     6804 
    6775     6914     7171     7227     7013     7038     7279     6994 
    6378     6469     7219     7488     6886     6363     6586     6945 
    6956     6991     7190     7202     6949     6781     6903     7049 
    7045     7006     6847     6673     6917     7250     7020     6671 
    6940     7425     7292     6802     6956     7506     7202     6381 
    6436     7014     6870     6428     6860     7724     7612     6635 
    6304     6929     7190     6588     6153     6524     7059     7068 
    6963     7380     7807     7526     6971     6725     6785     7010 
    7017     6720     6790     7253     7261     6771     6652     7141 
    7418     6945     6419     6633     7110     6905     6361     6517 
    7086     7052     6608     6554     6979     7369     7330     7244 
    7535     7580     7042     6762     6906     6767     6467     6635 
    7165     7431     7231     7076     7234     7173     6619     6215 
    6546     7141     7230     6979     6956     7056     6906     6632 
    6639     6933     7024     6743     6720     7283     7535     6870 
    6362     6922     7595     7290     6500     6299     6804     7156 
    6959     6910     7315     7438     7063     6889     7049     7037 
    6876     6948     7136     7028     6670     6687     7186     7311 
    6768     6423     6772     7240     7129     6542     6312     6859 
    7404     7145     6559     6619     7223     7423     7042     6828 
    7003     7107     7038     7021     6971     6786     6756     7110 
    7446     7218     6798     7009     7476     7190     6489     6408 
    6840     7053     6912     6685     6651     6918     7177     7122 
    6943     6966     7155     7094     6613     6289     6635     7241 
    7426     7238     7140     7160     7103     7042     6986     6829 
    6745     6870     6998     6948     6733     6633     6928     7191 
    6862     6448     6781     7442     7365     6673     6490     7079 
    7484     7060     6489     6687     7277     7373     7022     6732 
    6786     7176     7414     7072     6625     6816     7388     7414 
    6862     6690     7106     7225     6841     6644     6767     6758 
    6525     6401     6543     6747     6961     7263     7426     7298 
    7122     7134     7161     6879     6542     6747     7273     7335 
    6943     6785     6983     6999     6713     6548     6597     6637 
    6686     6806     6997     7349     7612     7395     7015     6887 
    6785     6650     6785     7030     7059     7080     7321     7407 
    7083     6797     6860     6922     6832     6926     7225     7311 
    7091     6968     7079     6991     6654     6628     6858     6710 
    6413     6659     7129     7022     6543     6573     7146     7393 
    7051     6852     7072     7137     6947     6929     6964     6828 
    6841     7047     7021     6920     7176     7330     6897     6586 
    6975     7431     7346     6913     6554     6488     6656     6832 
    6862     6860     7020     7168     7102     7088     7268     7290 
    7052     6804     6713     6822     7028     7163     7183     7126 
    7042     6918     6785     6805     6906     6848     6794     6930 
    6934     6690     6575     6712     6905     7099     7226     7125 
    6893     6821     6907     6886     6747     6786     7114     7388 
    7234     6907     6959     7194     7036     6732     6852     7177 
    7167     6921     6895     7042     6982     6786     6748     6766 
    6737     6833     6997     7037     6987     6947     7020     7279 
    7422     7049     6600     6833     7326     7082     6386     6444 
    7317     7696     7109     6640     6893     7169     7047     6833 
    6631     6481     6723     7199     7144     6586     6566     7214 
