Origin Time       2024/06/23 22:54:00
Lat.              35.645
Long.             140.060
Depth. (km)       72
Mag.              4.1
Station Code      GNM001
Station Lat.      36.7719
Station Long.     139.2246
Station Height(m) 804
Record Time       2024/06/23 22:55:09
Sampling Freq(Hz) 100Hz
Duration Time(s)  60
Dir.              N-S
Scale Factor      7845(gal)/8223790
Max. Acc. (gal)   1.811
Last Correction   2024/06/23 22:55:08
Memo.             
[...]
   -2787    -2720    -2756    -2932    -3087    -3041    -2785    -2554 
   -2565    -2717    -2883    -3049    -3034    -2716    -2439    -2590 
   -2988    -3200    -3076    -2776    -2542    -2508    -2677    -2957 
   -3149    -3087    -2870    -2682    -2525    -2481    -2721    -3024 
   -3006    -2779    -2695    -2799    -2945    -3028    -2978    -2829 
   -2686    -2562    -2484    -2593    -2874    -3076    -3069    -2956 
   -2860    -2787    -2706    -2706    -2855    -2947    -2808    -2623 
   -2616    -2801    -3080    -3218    -3009    -2613    -2384    -2484 
   -2795    -3011    -2944    -2782    -2766    -2824    -2883    -3003 
   -3032    -2837    -2624    -2533    -2562    -2785    -3038    -3013 
   -2821    -2747    -2783    -2866    -2906    -2789    -2678    -2754 
   -2897    -2974    -2925    -2714    -2547    -2662    -2921    -3072 
   -3034    -2822    -2559    -2440    -2535    -2828    -3199    -3352 
   -3132    -2721    -2373    -2281    -2525    -2932    -3222    -3253 
   -3024    -2694    -2505    -2529    -2721    -3003    -3125    -2959 
   -2760    -2675    -2637    -2706    -2856    -2916    -2886    -2841 
   -2782    -2733    -2690    -2673    -2764    -2917    -3032    -3072 
   -2960    -2727    -2589    -2650    -2808    -2924    -2868    -2678 
   -2610    -2760    -2910    -2930    -2948    -3024    -3017    -2857 
   -2643    -2519    -2562    -2740    -2932    -2968    -2845    -2809 
   -2933    -2960    -2795    -2651    -2682    -2802    -2851    -2793 
   -2763    -2864    -2938    -2793    -2596    -2656    -2926    -3095 
   -3002    -2725    -2543    -2731    -3090    -3103    -2747    -2470 
   -2505    -2740    -3006    -3175    -3159    -2970    -2728    -2501 
   -2367    -2529    -2941    -3184    -3057    -2810    -2702    -2714 
   -2706    -2709    -2859    -3067    -3087    -2839    -2481    -2323 
   -2548    -2986    -3306    -3281    -2921    -2535    -2470    -2671 
   -2837    -2899    -2910    -2843    -2774    -2825    -2937    -2984 
   -2905    -2720    -2539    -2479    -2640    -2988    -3233    -3107 
   -2751    -2555    -2655    -2866    -3011    -2992    -2760    -2532 
   -2566    -2763    -2893    -2926    -2921    -2916    -2928    -2889 
   -2747    -2579    -2540    -2706    -2944    -3087    -3114    -2988 
   -2678    -2446    -2596    -2956    -3095    -2914    -2658    -2548 
   -2620    -2837    -3088    -3145    -2913    -2635    -2554    -2662 
   -2820    -2895    -2898    -2911    -2872    -2745    -2704    -2789 
   -2855    -2872    -2862    -2786    -2704    -2728    -2845    -2938 
   -2899    -2755    -2724    -2879    -2963    -2880    -2797    -2700 
   -2567    -2636    -2922    -3117    -3049    -2785    -2560    -2612 
   -2817    -2952    -3022    -2955    -2677    -2482    -2651    -2994 
   -3148    -3019    -2736    -2490    -2443    -2662    -3046    -3248 
   -3014    -2677    -2646    -2790    -2828    -2747    -2673    -2748 
   -2990    -3163    -3045    -2720    -2452    -2396    -2544    -2839 
   -3136    -3242    -3130    -2940    -2758    -2571    -2439    -2516 
   -2790    -3026    -3055    -2898    -2710    -2641    -2743    -2917 
   -3015    -2987    -2859    -2675    -2585    -2670    -2820    -2930 
   -2963    -2868    -2731    -2693    -2763    -2889    -2986    -2959 
   -2840    -2729    -2664    -2644    -2664    -2774    -2959    -3034 
   -2947    -2857    -2810    -2741    -2706    -2751    -2790    -2799 
   -2836    -2872    -2855    -2782    -2739    -2829    -2979    -2967 
   -2766    -2567    -2512    -2643    -2921    -3168    -3168    -2905 
   -2608    -2529    -2664    -2849    -3049    -3172    -2978    -2586 
   -2451    -2656    -2880    -2975    -2944    -2786    -2629    -2646 
   -2794    -2889    -2868    -2880    -2995    -3014    -2821    -2600 
   -2520    -2577    -2737    -2960    -3148    -3154    -2913    -2583 
   -2424    -2542    -2843    -3073    -3052    -2898    -2781    -2758 
   -2848    -2937    -2878    -2714    -2538    -2489    -2747    -3134 
   -3245    -3022    -2695    -2466    -2516    -2821    -3052    -2999 
   -2820    -2727    -2735    -2752    -2745    -2776    -2870    -2951 
   -2965    -2917    -2806    -2648    -2536    -2571    -2797    -3123 
   -3268    -3068    -2729    -2498    -2474    -2678    -2933    -2976 
   -2817    -2717    -2809    -2930    -2903    -2805    -2795    -2825 
   -2768    -2704    -2776    -2922    -2974    -2906    -2781    -2640 
   -2604    -2758    -2926    -2903    -2794    -2820    -2952    -3010 
   -2918    -2718    -2521    -2458    -2583    -2862    -3164    -3287 
   -3075    -2635    -2350    -2490    -2899    -3215    -3195    -2880 
   -2566    -2486    -2644    -2876    -2948    -2866    -2870    -2928 
   -2843    -2725    -2736    -2775    -2760    -2745    -2754    -2797 
   -2891    -2965    -2945    -2844    -2732    -2671    -2690    -2775 
   -2879    -2940    -2933    -2894    -2845    -2766    -2670    -2639 
   -2713    -2795    -2837    -2940    -3059    -3010    -2808    -2639 
   -2641    -2816    -2933    -2809    -2659    -2705    -2833    -2953 
   -3025    -2902    -2671    -2606    -2721    -2878    -2991    -2933 
   -2735    -2632    -2671    -2752    -2901    -3049    -3036    -2916 
   -2803    -2700    -2623    -2601    -2633    -2727    -2839    -2928 
   -3019    -3095    -3041    -2832    -2614    -2528    -2602    -2772 
   -2891    -2903    -2889    -2860    -2775    -2743    -2871    -3019 
   -2998    -2855    -2729    -2644    -2614    -2708    -2878    -2978 
   -2932    -2797    -2695    -2679    -2766    -2971    -3071    -2874 
   -2614    -2546    -2610    -2759    -2947    -3025    -2975    -2884 
   -2782    -2713    -2708    -2741    -2833    -2945    -2955    -2862 
   -2770    -2706    -2695    -2776    -2890    -2968    -2970    -2876 
   -2731    -2606    -2606    -2751    -2875    -2878    -2860    -2844 
   -2790    -2794    -2880    -2913    -2889    -2870    -2785    -2613 
   -2546    -2702    -2926    -3068    -3090    -2921    -2652    -2558 
   -2682    -2840    -2918    -2902    -2852    -2849    -2841    -2809 
   -2808    -2754    -2655    -2727    -2902    -2943    -2894    -2829 
   -2698    -2616    -2708    -2878    -2988    -2972    -2839    -2729 
   -2744    -2793    -2816    -2840    -2809    -2745    -2802    -2925 
   -2932    -2835    -2752    -2735    -2770    -2809    -2867    -2941 
   -2897    -2713    -2593    -2637    -2783    -2976    -3069    -2918 
   -2674    -2589    -2671    -2821    -2965    -3009    -2929    -2774 
   -2612    -2604    -2791    -2983    -3055    -2995    -2783    -2583 
   -2651    -2857    -2887    -2755    -2686    -2785    -2984    -3069 
   -2889    -2650    -2646    -2802    -2897    -2913    -2890    -2768 
   -2586    -2574    -2820    -3090    -3154    -2999    -2702    -2416 
   -2382    -2702    -3117    -3256    -3052    -2751    -2610    -2668 
   -2751    -2767    -2821    -2921    -2937    -2866    -2786    -2694 
   -2631    -2691    -2855    -2995    -2994    -2845    -2674    -2620 
   -2709    -2883    -3060    -3083    -2874    -2609    -2506    -2620 
   -2866    -3067    -3060    -2845    -2604    -2535    -2654    -2832 
   -3018    -3148    -3091    -2871    -2641    -2493    -2509    -2718 
   -2936    -2974    -2878    -2833    -2909    -2963    -2875    -2717 
   -2593    -2555    -2685    -2934    -3102    -3060    -2839    -2601 
   -2596    -2820    -2982    -2936    -2760    -2609    -2647    -2830 
   -2945    -2944    -2910    -2882    -2866    -2871    -2871    -2813 
   -2681    -2590    -2659    -2809    -2893    -2897    -2871    -2801 
   -2736    -2781    -2884    -2894    -2791    -2710    -2729    -2782 
   -2817    -2879    -2965    -2967    -2820    -2621    -2521    -2598 
   -2833    -3100    -3234    -3141    -2856    -2579    -2533    -2627 
   -2660    -2717    -2909    -3076    -3056    -2870    -2675    -2650 
   -2747    -2781    -2785    -2855    -2907    -2872    -2758    -2644 
   -2705    -2920    -3061    -3040    -2878    -2651    -2543    -2647 
   -2839    -2978    -2998    -2907    -2752    -2592    -2581    -2794 
   -3032    -3094    -2990    -2821    -2683    -2602    -2558    -2577 
   -2677    -2851    -3076    -3202    -3091    -2870    -2724    -2641 
   -2625    -2716    -2797    -2813    -2852    -2902    -2906    -2883 
   -2825    -2767    -2766    -2755    -2710    -2775    -2938    -2963 
   -2806    -2681    -2689    -2774    -2872    -2934    -2930    -2839 
   -2694    -2636    -2741    -2902    -2937    -2824    -2749    -2802 
   -2859    -2879    -2893    -2825    -2695    -2632    -2670    -2812 
   -2995    -3055    -2940    -2759    -2606    -2575    -2716    -2891 
   -2952    -2952    -2944    -2809    -2556    -2428    -2565    -2898 
   -3226    -3302    -3086    -2758    -2538    -2587    -2828    -2967 
   -2887    -2717    -2582    -2593    -2793    -2995    -3045    -3005 
   -2905    -2770    -2697    -2666    -2651    -2759    -2936    -2983 
   -2883    -2764    -2708    -2722    -2752    -2791    -2895    -3005 
   -3009    -2947    -2906    -2863    -2766    -2604    -2430    -2408 
   -2606    -2847    -2991    -3036    -2959    -2837    -2866    -3017 
   -3060    -2918    -2749    -2687    -2725    -2824    -2925    -2906 
   -2747    -2587    -2532    -2578    -2695    -2844    -2986    -3071 
   -3007    -2822    -2731    -2814    -2893    -2813    -2632    -2555 
   -2705    -2991    -3215    -3180    -2818    -2421    -2322    -2463 
   -2705    -3029    -3299    -3357    -3183    -2841    -2497    -2334 
   -2397    -2663    -2999    -3156    -3056    -2853    -2658    -2555 
   -2663    -2952    -3198    -3199    -2920    -2543    -2343    -2392 
   -2565    -2772    -2990    -3137    -3118    -2956    -2778    -2690 
   -2700    -2794    -2938    -2976    -2843    -2708    -2677    -2690 
   -2745    -2833    -2921    -3022    -3065    -2959    -2786    -2594 
   -2378    -2288    -2403    -2659    -3021    -3387    -3591    -3550 
   -3199    -2601    -2081    -1915    -2118    -2560    -3065    -3437 
   -3564    -3445    -3094    -2582    -2155    -2060    -2342    -2887 
   -3379    -3419    -3006    -2585    -2505    -2718    -2971    -3015 
   -2802    -2540    -2440    -2554    -2856    -3218    -3418    -3302 
   -2853    -2250    -1895    -2143    -2870    -3543    -3694    -3226 
   -2489    -2052    -2224    -2812    -3311    -3353    -3030    -2748 
   -2722    -2776    -2713    -2651    -2732    -2839    -2874    -2918 
   -2949    -2826    -2597    -2497    -2668    -3007    -3222    -3115 
   -2806    -2548    -2506    -2702    -2965    -3053    -2929    -2748 
   -2610    -2485    -2446    -2671    -3086    -3343    -3306    -3127 
   -2905    -2689    -2624    -2641    -2477    -2199    -2169    -2485 
   -2945    -3406    -3784    -3869    -3446    -2632    -1869    -1582 
   -1914    -2667    -3437    -3840    -3689    -3094    -2448    -2193 
   -2469    -2984    -3294    -3149    -2654    -2173    -2034    -2293 
   -2772    -3214    -3466    -3476    -3194    -2754    -2458    -2405 
   -2523    -2821    -3171    -3271    -3057    -2701    -2376    -2285 
   -2502    -2810    -3001    -3063    -3014    -2859    -2646    -2485 
   -2556    -2914    -3281    -3357    -3157    -2836    -2550    -2458 
   -2504    -2538    -2652    -2903    -3063    -2997    -2862    -2812 
   -2830    -2872    -2925    -2903    -2735    -2566    -2601    -2799 
   -2984    -3032    -2889    -2671    -2554    -2539    -2612    -2855 
   -3160    -3248    -3121    -2994    -2866    -2654    -2490    -2512 
   -2623    -2732    -2901    -3038    -2920    -2660    -2608    -2775 
   -2949    -3084    -3132    -2968    -2693    -2571    -2744    -3048 
   -3096    -2748    -2324    -2155    -2273    -2601    -3063    -3507 
   -3704    -3516    -3022    -2444    -2060    -2084    -2451    -2855 
   -3033    -2968    -2840    -2797    -2817    -2922    -3173    -3364 
   -3254    -2943    -2640    -2390    -2209    -2203    -2435    -2840 
   -3279    -3550    -3469    -3080    -2600    -2222    -2099    -2312 
   -2720    -3017    -3067    -3014    -3037    -3078    -2953    -2698 
   -2575    -2706    -2903    -2920    -2743    -2582    -2678    -3091 
   -3500    -3445    -2887    -2255    -1954    -2087    -2505    -2944 
   -3181    -3184    -3095    -2998    -2847    -2709    -2714    -2776 
   -2809    -2876    -2918    -2853    -2772    -2708    -2647    -2685 
   -2813    -2920    -3007    -3063    -2960    -2712    -2524    -2556 
   -2770    -2971    -3005    -2913    -2852    -2893    -2925    -2809 
   -2544    -2293    -2290    -2616    -3098    -3495    -3588    -3233 
   -2596    -2126    -2111    -2454    -2889    -3187    -3202    -2987 
   -2791    -2755    -2820    -2932    -3009    -2872    -2598    -2552 
   -2805    -2992    -2933    -2829    -2832    -2833    -2747    -2655 
   -2641    -2709    -2805    -2851    -2868    -2921    -2886    -2683 
   -2516    -2556    -2752    -3014    -3235    -3250    -3064    -2894 
   -2844    -2793    -2648    -2461    -2339    -2382    -2612    -2978 
   -3337    -3431    -3080    -2523    -2230    -2405    -2857    -3242 
   -3323    -3071    -2641    -2371    -2547    -2983    -3207    -3102 
   -2828    -2471    -2254    -2469    -3009    -3464    -3542    -3177 
   -2525    -1952    -1788    -2066    -2570    -3125    -3649    -4008 
   -4027    -3573    -2655    -1578     -915    -1089    -1975    -3092 
   -4024    -4486    -4333    -3666    -2843    -2257    -2016    -1965 
   -2019    -2265    -2720    -3223    -3576    -3670    -3485    -3055 
   -2533    -2139    -2007    -2176    -2616    -3132    -3456    -3483 
   -3257    -2876    -2550    -2478    -2585    -2687    -2771    -2840 
   -2879    -2940    -2965    -2795    -2448    -2153    -2151    -2562 
   -3280    -3915    -4050    -3601    -2802    -2000    -1560    -1711 
   -2322    -2964    -3277    -3253    -3144    -3133    -3149    -2999 
   -2663    -2370    -2320    -2579    -3092    -3582    -3711    -3397 
   -2791    -2134    -1728    -1796    -2334    -3028    -3400    -3277 
   -2974    -2889    -3084    -3299    -3258    -2964    -2596    -2253 
   -2012    -2010    -2296    -2774    -3260    -3561    -3582    -3400 
   -3153    -2849    -2465    -2161    -2133    -2349    -2694    -3069 
   -3277    -3230    -3060    -2847    -2666    -2667    -2821    -2945 
   -2936    -2781    -2589    -2547    -2612    -2598    -2569    -2695 
   -2963    -3233    -3366    -3326    -3156    -2836    -2436    -2205 
   -2227    -2417    -2776    -3179    -3368    -3341    -3234    -2999 
   -2605    -2253    -2178    -2409    -2767    -3032    -3057    -2866 
   -2610    -2448    -2544    -2986    -3514    -3744    -3584    -3087 
   -2393    -1871    -1772    -2053    -2589    -3105    -3312    -3287 
   -3198    -3040    -2875    -2816    -2835    -2835    -2752    -2616 
   -2529    -2538    -2639    -2849    -3092    -3249    -3249    -3048 
   -2708    -2412    -2277    -2343    -2621    -2934    -3032    -3021 
   -3165    -3358    -3338    -3051    -2570    -2038    -1759    -2054 
   -2841    -3581    -3838    -3607    -3111    -2586    -2222    -2120 
   -2250    -2477    -2673    -2844    -3065    -3245    -3194    -2947 
   -2751    -2762    -2947    -3168    -3240    -3034    -2547    -1965 
   -1711    -2096    -2929    -3670    -3848    -3396    -2743    -2332 
   -2207    -2330    -2756    -3314    -3647    -3550    -3098    -2573 
   -2205    -2058    -2178    -2559    -2999    -3285    -3364    -3208 
   -2853    -2521    -2455    -2673    -2947    -3011    -2837    -2623 
   -2559    -2728    -3014    -3157    -3029    -2735    -2469    -2417 
   -2652    -3037    -3300    -3260    -2970    -2597    -2316    -2327 
   -2673    -3088    -3264    -3133    -2859    -2640    -2555    -2548 
   -2567    -2659    -2875    -3096    -3125    -2947    -2716    -2652 
   -2889    -3180    -3123    -2767    -2458    -2347    -2473    -2756 
   -2971    -3037    -3006    -2886    -2771    -2802    -2921    -2984 
   -2970    -2878    -2743    -2698    -2778    -2826    -2756    -2643 
   -2548    -2506    -2581    -2735    -2843    -2916    -3030    -3146 
   -3167    -3064    -2859    -2577    -2331    -2317    -2600    -2988 
   -3241    -3226    -3003    -2776    -2686    -2710    -2795    -2922 
   -3010    -2932    -2721    -2544    -2471    -2508    -2695    -2988 
   -3184    -3160    -3003    -2830    -2698    -2681    -2785    -2911 
   -2928    -2758    -2515    -2434    -2604    -2910    -3172    -3265 
   -3136    -2816    -2417    -2123    -2145    -2554    -3125    -3505 
   -3549    -3329    -3024    -2820    -2713    -2552    -2355    -2255 
   -2286    -2488    -2884    -3319    -3593    -3582    -3214    -2627 
   -2154    -2026    -2263    -2724    -3146    -3358    -3352    -3167 
   -2845    -2496    -2211    -2074    -2223    -2690    -3249    -3609 
   -3597    -3225    -2710    -2357    -2347    -2604    -2880    -3026 
   -3051    -2991    -2907    -2824    -2712    -2637    -2685    -2756 
   -2741    -2689    -2656    -2627    -2628    -2725    -2907    -3072 
   -3106    -3002    -2862    -2794    -2835    -2889    -2855    -2790 
   -2793    -2839    -2841    -2770    -2683    -2644    -2670    -2785 
   -2951    -3046    -3007    -2821    -2565    -2462    -2623    -2886 
   -3051    -3080    -3017    -2882    -2702    -2552    -2506    -2573 
   -2689    -2772    -2847    -2979    -3164    -3334    -3366    -3144 
   -2718    -2344    -2196    -2211    -2339    -2652    -3118    -3501 
   -3581    -3326    -2870    -2396    -2091    -2138    -2538    -3007 
   -3262    -3225    -2965    -2693    -2596    -2689    -2876    -3006 
   -2963    -2832    -2772    -2778    -2782    -2806    -2840    -2816 
   -2743    -2704    -2758    -2903    -3063    -3109    -3028    -2884 
   -2690    -2498    -2436    -2501    -2587    -2651    -2712    -2818 
   -3009    -3221    -3304    -3167    -2883    -2613    -2486    -2540 
   -2701    -2813    -2771    -2652    -2655    -2847    -3107    -3308 
   -3356    -3172    -2786    -2371    -2178    -2326    -2614    -2766 
   -2767    -2841    -3103    -3361    -3329    -2994    -2620    -2412 
   -2385    -2504    -2717    -2890    -2968    -3061    -3177    -3168 
   -2982    -2690    -2373    -2188    -2330    -2770    -3213    -3426 
   -3345    -2984    -2523    -2261    -2369    -2764    -3187    -3360 
   -3163    -2748    -2403    -2312    -2509    -2880    -3184    -3249 
   -3110    -2901    -2710    -2569    -2461    -2404    -2479    -2701 
   -3009    -3322    -3458    -3318    -3025    -2722    -2465    -2280 
   -2215    -2334    -2643    -3002    -3230    -3294    -3240    -3088 
   -2867    -2670    -2617    -2674    -2690    -2662    -2664    -2664 
   -2629    -2646    -2817    -3111    -3341    -3342    -3140    -2830 
   -2493    -2277    -2308    -2509    -2710    -2870    -3019    -3136 
   -3163    -3072    -2883    -2662    -2498    -2466    -2596    -2859 
   -3103    -3145    -2984    -2760    -2569    -2504    -2673    -2951 
   -3084    -3032    -2868    -2670    -2606    -2762    -2971    -3030 
   -2901    -2728    -2701    -2820    -2957    -2988    -2806    -2493 
