Origin Time       2024/06/23 22:54:00
Lat.              35.645
Long.             140.060
Depth. (km)       72
Mag.              4.1
Station Code      IBR014
Station Lat.      36.0729
Station Long.     140.1948
Station Height(m) 18
Record Time       2024/06/23 22:54:47
Sampling Freq(Hz) 100Hz
Duration Time(s)  60
Dir.              U-D
Scale Factor      7845(gal)/8223790
Max. Acc. (gal)   1.238
Last Correction   2024/06/23 22:54:46
Memo.             
[...]
   12213    12235    12249    12255    12253    12243    12218    12194 
   12193    12214    12251    12283    12283    12252    12217    12197 
   12201    12226    12272    12309    12302    12255    12202    12181 
   12202    12241    12268    12268    12252    12231    12217    12213 
   12209    12208    12225    12249    12260    12260    12255    12237 
   12209    12185    12187    12216    12252    12271    12267    12251 
   12231    12217    12220    12239    12264    12280    12283    12259 
   12214    12186    12193    12226    12267    12294    12298    12271 
   12217    12172    12168    12195    12226    12245    12255    12259 
   12253    12235    12218    12214    12213    12213    12216    12231 
   12248    12248    12233    12226    12232    12247    12264    12272 
   12259    12232    12218    12220    12224    12236    12253    12263 
   12264    12251    12229    12220    12216    12213    12216    12224 
   12233    12244    12258    12263    12251    12226    12201    12187 
   12201    12231    12260    12274    12260    12239    12224    12216 
   12221    12232    12239    12243    12245    12244    12244    12244 
   12235    12226    12222    12225    12232    12244    12259    12262 
   12244    12216    12193    12198    12226    12253    12271    12272 
   12251    12225    12208    12208    12225    12244    12251    12247 
   12243    12240    12237    12236    12233    12232    12226    12216 
   12218    12237    12253    12255    12232    12205    12208    12222 
   12226    12233    12239    12239    12233    12224    12217    12231 
   12248    12251    12248    12240    12225    12224    12235    12248 
   12252    12247    12241    12237    12236    12237    12233    12233 
   12240    12241    12237    12235    12235    12245    12247    12228 
   12212    12209    12217    12232    12237    12232    12226    12228 
   12235    12236    12232    12232    12231    12221    12220    12239 
   12260    12262    12243    12226    12226    12235    12237    12237 
   12244    12252    12247    12237    12236    12237    12235    12235 
   12236    12231    12225    12228    12239    12251    12252    12240 
   12224    12204    12195    12206    12226    12248    12259    12259 
   12256    12240    12210    12193    12195    12218    12251    12272 
   12275    12263    12241    12225    12216    12208    12209    12225 
   12241    12255    12262    12253    12239    12221    12205    12202 
   12226    12258    12272    12262    12239    12224    12212    12209 
   12225    12244    12252    12243    12229    12228    12237    12247 
   12244    12231    12221    12217    12217    12235    12266    12276 
   12247    12206    12193    12210    12240    12263    12274    12268 
   12236    12195    12181    12198    12232    12260    12271    12266 
   12245    12222    12212    12210    12213    12221    12236    12258 
   12275    12275    12255    12225    12204    12202    12216    12236 
   12258    12274    12270    12245    12217    12205    12214    12231 
   12244    12249    12244    12237    12235    12236    12240    12239 
   12232    12225    12222    12224    12228    12229    12226    12229 
   12237    12241    12237    12236    12229    12224    12233    12247 
   12248    12244    12231    12216    12222    12245    12259    12260 
   12251    12226    12209    12214    12231    12245    12251    12243 
   12232    12229    12236    12239    12231    12221    12218    12221 
   12233    12247    12251    12249    12237    12224    12221    12235 
   12251    12259    12258    12256    12255    12253    12247    12237 
   12229    12229    12229    12213    12191    12201    12237    12247 
   12233    12233    12249    12260    12256    12233    12224    12260 
   12282    12263    12267    12252    12193    12220    12294    12264 
   12186    12147    12151    12164    12129    12114    12174    12294 
   12482    12545    12394    12268    12205    12093    12013    12028 
   12083    12159    12256    12318    12309    12375    12464    12279 
   12006    12060    12320    12459    12422    12271    12031    11739 
   11562    11828    12586    13169    13059    12606    11992    11311 
   11394    12306    12924    12903    12559    11923    11476    11735 
   12158    12272    12499    12754    12496    12216    12336    12231 
   11861    11769    12066    12658    12946    12630    12279    12032 
   11815    11631    11531    12247    13340    13120    12002    11584 
   11886    12345    12586    12372    12086    11961    12005    12441 
   12739    12349    11974    12131    12334    12413    12559    12367 
   11739    11584    12085    12461    12469    12314    12229    12294 
   12205    12042    12139    12262    12433    12679    12256    11631 
   11944    12453    12474    12459    12282    12028    12145    12252 
   12140    12094    12077    12133    12337    12505    12644    12599 
   12073    11620    11902    12363    12465    12530    12441    12082 
   11892    11796    11931    12627    13014    12703    12351    11809 
   11207    11472    12386    12985    12939    12390    11866    11881 
   12218    12518    12657    12326    11792    11898    12397    12415 
   12129    12089    12217    12298    12425    12517    12198    11731 
   11778    12271    12645    12679    12553    12278    11892    11913 
   12185    12143    12208    12503    12433    12123    11952    11970 
   12175    12312    12295    12399    12529    12521    12399    12097 
   11896    12063    12179    12174    12368    12483    12411    12301 
   11985    11843    12167    12341    12297    12387    12305    12048 
   12075    12253    12259    12287    12407    12279    12098    12275 
   12399    12201    12116    12168    12243    12471    12487    12228 
   12193    12117    11823    11834    12091    12401    12706    12540 
   12163    12177    12235    12168    12183    12158    12197    12267 
   12145    12110    12266    12361    12471    12614    12522    12241 
   12040    11894    11766    11897    12248    12397    12402    12576 
   12488    11978    11865    12231    12464    12617    12584    12204 
   12017    12013    11817    11896    12305    12424    12318    12213 
   11986    11853    12131    12573    12629    12380    12372    12420 
   12191    12029    11983    11889    11997    12307    12506    12532 
   12483    12415    12451    12591    12563    12228    11888    11907 
   12062    12015    12000    12066    12040    12208    12465    12371 
   12225    12259    12263    12421    12733    12710    12399    12112 
   11666    11399    11832    12301    12472    12645    12363    11979 
   12225    12359    12174    12201    12278    12429    12478    12113 
   11942    12147    12222    12298    12595    12645    12255    11947 
   11865    11939    12330    12515    12028    11619    11907    12455 
   12673    12476    12271    12217    12028    11970    12302    12600 
   12700    12572    12202    11938    11905    11898    11946    12395 
   12922    12723    12244    12155    11983    11735    11905    12313 
   12730    12800    12183    11677    11851    12124    12368    12569 
   12333    11994    11997    12240    12611    12815    12498    12019 
   12058    12314    12105    11794    11790    12013    12534    12874 
   12505    11886    11560    11767    12390    12765    12835    12884 
   12476    11861    11793    11836    11901    12378    12488    12328 
   12675    12619    11846    11519    11804    12118    12154    11959 
   12172    12690    12586    12309    12617    12711    12274    12020 
   11893    11767    12016    12437    12691    12757    12398    11838 
   11782    12039    12098    12218    12372    12171    12031    12205 
   12162    12120    12494    12757    12748    12607    12177    11839 
   11844    11867    11970    12267    12460    12432    12483    12595 
   12345    12001    11939    11880    11985    12472    12734    12433 
   12043    12073    12361    12332    11977    11867    11985    12027 
   12371    12835    12618    12039    11677    11708    12420    13045 
   12748    12475    12649    12349    11824    11705    11612    11651 
   12141    12552    12735    13034    12982    12185    11601    11828 
   11936    11797    12141    12383    12163    12351    12625    12282 
   12073    12177    12046    12109    12388    12388    12550    12746 
   12341    11955    11975    11954    11925    12131    12572    12749 
   12291    11907    11959    12109    12262    12258    12255    12479 
   12491    12251    12096    11965    11880    11913    12024    12218 
   12479    12826    12877    12267    11691    11697    11882    12179 
   12753    13034    12595    11939    11700    11998    12341    12291 
   12330    12684    12771    12579    12263    11704    11396    11657 
   12073    12364    12414    12295    12399    12606    12336    11808 
   11745    12193    12738    12984    12748    12313    11934    11626 
   11622    12036    12370    12407    12626    12927    12799    12333 
   11808    11530    11772    12201    12355    12175    11928    12029 
   12360    12376    12253    12425    12529    12409    12530    12637 
   12264    11929    11907    11831    11892    12258    12452    12388 
   12309    12194    12109    12125    12224    12483    12699    12559 
   12181    11911    11861    11797    11780    12187    12603    12510 
   12283    12159    12197    12361    12263    12145    12178    11943 
   11839    12255    12652    12671    12310    11848    11839    12295 
   12729    12869    12648    12186    11896    12008    12274    12357 
   12280    12222    12158    12085    11977    11777    11778    12054 
   12415    12831    12934    12692    12486    12178    12050    12418 
   12575    12228    11758    11421    11466    11693    11898    12413 
   12927    12874    12622    12484    12248    12077    12124    12113 
   12008    12051    12318    12577    12550    12340    12226    12233 
   12198    12109    12071    12078    12251    12517    12343    11884 
   11790    12051    12430    12695    12528    12174    12164    12348 
   12244    11998    12009    12183    12329    12556    12663    12172 
   11488    11491    12085    12595    12734    12582    12394    12212 
   11946    11925    12195    12201    12040    12248    12550    12480 
   12145    11923    11996    12101    12085    12202    12351    12282 
   12332    12606    12726    12677    12463    12031    11743    11790 
   12008    12132    11944    11823    12159    12544    12737    12908 
   12883    12545    12110    11947    12175    12212    11924    11936 
   12120    12220    12478    12530    12100    11696    11647    11898 
   12189    12294    12429    12684    12719    12475    12468    12793 
   12698    12114    11807    11854    11900    11938    12079    12272 
   12287    12177    12305    12550    12445    12102    12042    12347 
   12533    12309    11982    11950    12248    12441    12214    11978 
   11892    11789    12000    12474    12636    12529    12451    12302 
   12078    12028    12148    12249    12376    12564    12583    12340 
   12118    12106    12155    12162    12118    12078    12193    12193 
   11920    12093    12648    12695    12414    12052    11551    11615 
   12144    12394    12576    12691    12528    12444    12413    12341 
   12387    12297    12037    11934    11996    12164    12395    12494 
   12347    12050    11800    11823    12096    12226    12202    12417 
   12707    12737    12573    12209    11782    11746    12081    12314 
   12347    12310    12015    11618    11723    12108    12299    12544 
   12769    12680    12641    12726    12461    12051    11959    11939 
   11853    11981    12252    12398    12360    12271    12279    12320 
   12322    12307    12303    12357    12286    12070    12052    12083 
   12040    12186    12195    12021    12160    12286    12374    12931 
   13126    12353    11608    11333    11408    12077    12695    12538 
   12212    12210    12340    12529    12726    12673    12137    11476 
   11539    12263    12542    12066    11796    12206    12577    12572 
   12586    12509    12110    11809    11844    12070    12522    12946 
   12853    12430    12116    11967    11967    12015    12004    11982 
   11794    11649    12148    12788    12768    12495    12380    12174 
   12005    12343    12927    13022    12557    11979    11666    11816 
   12183    12418    12472    12403    12239    12013    11973    12205 
   12152    11591    11354    11861    12359    12421    12394    12348 
   12274    12395    12488    12441    12525    12442    12009    11692 
   11689    11877    12093    12280    12599    12825    12742    12768 
   12819    12483    12132    11977    11823    11904    12171    12255 
   12285    12318    12017    11689    11913    12307    12525    12884 
   13043    12603    12175    12005    11727    11680    12002    12179 
   12356    12609    12491    12156    11828    11564    11620    11869 
   12210    12700    12992    12987    12831    12476    12102    11897 
   11848    12048    12328    12290    11946    11605    11546    11859 
   12233    12372    12511    12787    12891    12758    12496    12154 
   11985    11979    11871    11893    12148    12326    12484    12619 
   12604    12611    12421    11881    11587    11664    11789    12259 
   13004    13177    12602    11820    11291    11427    12079    12533 
   12623    12455    12019    11808    12189    12823    13333    13532 
   13297    12625    11788    11325    11333    11539    11836    11969 
   11904    11971    12101    12143    12158    12077    11912    11888 
   12120    12322    12340    12438    12599    12711    12943    13154 
   13001    12550    12121    11915    11958    12058    11978    11848 
   11786    11578    11469    11936    12615    12889    12815    12694 
   12688    12722    12565    12175    11749    11599    11651    11535 
   11561    12124    12796    13193    13259    12831    12177    11805 
   11642    11653    12085    12599    12775    12623    12066    11388 
   11264    11637    12048    12347    12475    12433    12279    12225 
   12588    13007    12869    12503    12401    12548    12756    12586 
   12087    11925    12004    11934    11824    11493    11092    11479 
   12355    12549    12175    12077    12433    12897    13035    12912 
   12837    12657    12372    12151    11889    11724    11676    11650 
   11843    11938    11696    11565    11677    12071    12625    12873 
   12874    12865    12900    12874    12519    12258    12595    12992 
   12761    11994    11295    10979    11051    11616    12195    12137 
   11790    11772    12262    12966    13355    13419    13279    12870 
   12316    11715    11396    11576    11838    12156    12498    12403 
   12220    12278    12278    12247    12098    11961    12359    12769 
   12529    12114    12032    12206    12302    12271    12291    12168 
   11855    11682    11726    11936    12179    12286    12513    12869 
   12795    12479    12491    12378    11835    11560    11736    11882 
   12059    12360    12301    11921    11816    11935    12077    12452 
   12895    13149    13389    13466    12997    12209    11542    11165 
   11157    11465    11946    12313    12208    11920    11920    12037 
   12170    12523    12930    12976    12692    12433    12247    12081 
   12106    12279    12313    12241    12231    12229    12272    12479 
   12606    12406    12089    11862    11808    12055    12429    12577 
   12410    12079    11905    12039    12245    12198    11970    12047 
   12424    12557    12441    12275    12009    11974    12305    12555 
   12631    12644    12469    12113    11790    11772    11993    12050 
   11865    11785    11942    12158    12407    12679    12760    12514 
   11967    11566    11832    12363    12668    12854    12762    12405 
   12199    12171    12259    12441    12490    12330    12136    12067 
   12029    12040    12251    12302    11951    11673    11820    12144 
   12259    12162    12054    12043    12321    12804    13035    12857 
   12387    11801    11446    11492    11728    11924    12240    12784 
   13026    12660    12145    11915    11936    11932    11965    12307 
   12737    12988    12991    12604    12123    11993    12164    12307 
   12297    12220    12040    11840    11884    12059    12112    12117 
   12237    12522    12796    12742    12475    12393    12384    12294 
   12299    12372    12468    12357    11692    11114    11115    11209 
   11556    12353    12820    12781    12749    12692    12513    12476 
   12567    12495    12263    12079    12104    12249    12182    12048 
   12162    12187    12024    12047    12178    12185    12123    12058 
   12152    12453    12688    12731    12571    12190    11816    11649 
   11789    12226    12583    12630    12561    12434    12275    12271 
   12386    12405    12271    12133    12077    12101    12240    12252 
   11905    11479    11240    11302    11761    12291    12515    12591 
   12706    12746    12741    12690    12379    11940    11731    11840 
   12183    12561    12777    12776    12619    12453    12356    12258 
   12141    12190    12378    12232    11796    11707    11853    11794 
   11851    12272    12604    12532    12395    12370    12221    12197 
   12483    12710    12820    12753    12390    12086    11838    11600 
   11769    12143    12307    12341    12249    12163    12295    12347 
   12206    12124    11923    11682    11965    12514    12622    12441 
   12464    12606    12564    12387    12244    12141    12131    12159 
   11992    11740    11728    11905    12091    12248    12330    12339 
   12320    12302    12291    12317    12432    12528    12482    12290 
   11969    11796    12021    12334    12433    12492    12609    12545 
   12355    12259    12055    11780    11788    11951    12190    12529 
   12599    12440    12442    12461    12336    12228    12090    11971 
   12081    12124    11956    11897    11965    12129    12465    12729 
   12673    12421    12185    11998    11931    12093    12260    12178 
   11971    11781    11740    11969    12280    12571    12846    12964 
   13012    13045    12719    12085    11668    11631    11786    11902 
   11808    11688    11838    12113    12231    12330    12573    12745 
   12768    12769    12625    12253    11961    11959    12129    12364 
   12518    12409    12225    12145    12096    12220    12455    12436 
   12343    12351    12143    11912    12054    12303    12280    12013 
   11778    11738    11808    11853    11886    12085    12395    12511 
   12509    12648    12669    12421    12244    12264    12382    12453 
   12359    12302    12384    12411    12387    12297    11956    11576 
   11677    12133    12287    12156    12195    12402    12490    12285 
   12079    12114    11997    11766    12059    12688    12907    12722 
   12521    12378    12289    12168    11936    11851    12097    12349 
   12312    12132    12042    12100    12305    12472    12421    12364 
   12437    12421    12333    12326    12295    12217    12172    12135 
   12097    12001    11823    11786    12001    12222    12240    12232 
   12375    12455    12382    12415    12503    12374    12109    11936 
