Origin Time       2024/06/23 22:54:00
Lat.              35.645
Long.             140.060
Depth. (km)       72
Mag.              4.1
Station Code      IBR001
Station Lat.      36.7763
Station Long.     140.3582
Station Height(m) 106
Record Time       2024/06/23 22:55:03
Sampling Freq(Hz) 100Hz
Duration Time(s)  60
Dir.              N-S
Scale Factor      7845(gal)/8223790
Max. Acc. (gal)   0.768
Last Correction   2024/06/23 22:55:02
Memo.             
[...]
   -2701    -2683    -2673    -2666    -2656    -2623    -2567    -2547 
   -2559    -2567    -2585    -2605    -2623    -2623    -2569    -2523 
   -2535    -2529    -2497    -2533    -2604    -2627    -2648    -2683 
   -2686    -2673    -2675    -2709    -2744    -2729    -2674    -2609 
   -2547    -2538    -2589    -2623    -2609    -2594    -2583    -2566 
   -2521    -2439    -2385    -2417    -2506    -2613    -2713    -2789 
   -2829    -2818    -2755    -2674    -2614    -2589    -2605    -2655 
   -2712    -2728    -2678    -2589    -2497    -2439    -2430    -2443 
   -2466    -2523    -2589    -2624    -2643    -2664    -2686    -2691 
   -2663    -2629    -2623    -2614    -2587    -2575    -2601    -2660 
   -2736    -2785    -2768    -2689    -2577    -2488    -2471    -2516 
   -2574    -2593    -2579    -2574    -2567    -2542    -2519    -2513 
   -2502    -2494    -2563    -2716    -2825    -2814    -2754    -2725 
   -2708    -2670    -2656    -2667    -2632    -2548    -2475    -2478 
   -2571    -2656    -2640    -2566    -2506    -2482    -2494    -2527 
   -2550    -2565    -2602    -2674    -2754    -2803    -2809    -2760 
   -2659    -2548    -2494    -2511    -2571    -2652    -2705    -2686 
   -2621    -2551    -2500    -2474    -2467    -2482    -2535    -2621 
   -2686    -2691    -2677    -2683    -2710    -2720    -2698    -2683 
   -2705    -2714    -2640    -2517    -2454    -2463    -2490    -2542 
   -2624    -2660    -2623    -2589    -2573    -2554    -2560    -2589 
   -2623    -2685    -2745    -2737    -2662    -2582    -2566    -2586 
   -2558    -2544    -2629    -2724    -2737    -2679    -2592    -2521 
   -2513    -2562    -2613    -2627    -2602    -2566    -2546    -2565 
   -2614    -2640    -2609    -2590    -2628    -2671    -2678    -2647 
   -2606    -2577    -2563    -2592    -2637    -2654    -2643    -2620 
   -2597    -2558    -2512    -2517    -2590    -2664    -2677    -2658 
   -2660    -2668    -2682    -2698    -2663    -2585    -2538    -2569 
   -2637    -2658    -2601    -2529    -2516    -2559    -2597    -2625 
   -2651    -2644    -2605    -2579    -2596    -2610    -2579    -2538 
   -2542    -2601    -2671    -2683    -2635    -2593    -2569    -2563 
   -2614    -2697    -2722    -2698    -2685    -2685    -2671    -2636 
   -2594    -2567    -2559    -2574    -2601    -2617    -2597    -2542 
   -2475    -2438    -2482    -2583    -2629    -2610    -2613    -2662 
   -2705    -2698    -2658    -2654    -2714    -2770    -2740    -2631 
   -2540    -2547    -2609    -2650    -2662    -2635    -2558    -2493 
   -2486    -2532    -2577    -2577    -2565    -2592    -2646    -2689 
   -2681    -2597    -2489    -2434    -2462    -2571    -2679    -2705 
   -2677    -2636    -2623    -2664    -2712    -2713    -2686    -2673 
   -2706    -2737    -2701    -2636    -2598    -2586    -2583    -2570 
   -2536    -2497    -2461    -2430    -2415    -2439    -2500    -2586 
   -2681    -2714    -2670    -2619    -2600    -2596    -2609    -2660 
   -2739    -2786    -2781    -2751    -2716    -2673    -2614    -2559 
   -2529    -2523    -2552    -2604    -2600    -2539    -2486    -2466 
   -2496    -2551    -2577    -2581    -2598    -2631    -2667    -2716 
   -2756    -2743    -2671    -2602    -2573    -2571    -2601    -2650 
   -2663    -2631    -2623    -2668    -2704    -2663    -2581    -2524 
   -2517    -2567    -2624    -2631    -2604    -2606    -2635    -2624 
   -2566    -2520    -2497    -2498    -2533    -2583    -2629    -2629 
   -2604    -2632    -2695    -2727    -2716    -2678    -2620    -2586 
   -2617    -2666    -2712    -2756    -2728    -2641    -2581    -2523 
   -2451    -2390    -2355    -2396    -2519    -2663    -2774    -2789 
   -2709    -2636    -2639    -2659    -2650    -2621    -2596    -2610 
   -2644    -2624    -2597    -2606    -2609    -2598    -2590    -2556 
   -2488    -2428    -2443    -2556    -2722    -2849    -2879    -2826 
   -2739    -2655    -2586    -2511    -2430    -2442    -2562    -2664 
   -2700    -2682    -2609    -2527    -2470    -2448    -2479    -2543 
   -2609    -2651    -2659    -2664    -2681    -2673    -2631    -2623 
   -2667    -2686    -2691    -2729    -2743    -2712    -2673    -2654 
   -2662    -2664    -2631    -2523    -2378    -2327    -2389    -2475 
   -2532    -2536    -2527    -2552    -2593    -2621    -2640    -2652 
   -2674    -2713    -2762    -2776    -2755    -2731    -2705    -2683 
   -2663    -2624    -2570    -2532    -2547    -2583    -2579    -2578 
   -2625    -2664    -2659    -2606    -2533    -2493    -2475    -2470 
   -2498    -2544    -2602    -2655    -2667    -2659    -2675    -2700 
   -2685    -2639    -2627    -2646    -2633    -2613    -2663    -2748 
   -2758    -2673    -2571    -2515    -2512    -2540    -2571    -2598 
   -2612    -2586    -2558    -2574    -2594    -2562    -2517    -2533 
   -2593    -2629    -2633    -2629    -2623    -2629    -2663    -2695 
   -2687    -2647    -2623    -2628    -2619    -2587    -2581    -2616 
   -2639    -2631    -2647    -2664    -2614    -2551    -2538    -2562 
   -2620    -2666    -2671    -2683    -2687    -2633    -2546    -2474 
   -2446    -2466    -2525    -2609    -2681    -2700    -2674    -2636 
   -2602    -2587    -2587    -2579    -2598    -2664    -2702    -2644 
   -2559    -2538    -2575    -2635    -2687    -2702    -2674    -2640 
   -2619    -2589    -2569    -2587    -2600    -2592    -2609    -2624 
   -2593    -2538    -2506    -2528    -2590    -2663    -2705    -2681 
   -2639    -2619    -2605    -2610    -2639    -2656    -2643    -2613 
   -2586    -2581    -2587    -2573    -2542    -2525    -2544    -2610 
   -2687    -2728    -2717    -2656    -2604    -2621    -2650    -2612 
   -2536    -2490    -2511    -2582    -2629    -2598    -2515    -2455 
   -2488    -2589    -2705    -2832    -2901    -2820    -2685    -2632 
   -2643    -2659    -2639    -2554    -2462    -2428    -2448    -2505 
   -2559    -2558    -2520    -2501    -2516    -2579    -2666    -2698 
   -2704    -2745    -2778    -2760    -2710    -2639    -2535    -2442 
   -2448    -2558    -2651    -2670    -2679    -2702    -2677    -2606 
   -2575    -2581    -2601    -2658    -2698    -2673    -2590    -2440 
   -2309    -2339    -2496    -2637    -2685    -2673    -2704    -2768 
   -2756    -2693    -2675    -2677    -2658    -2663    -2690    -2675 
   -2571    -2452    -2425    -2447    -2458    -2501    -2579    -2685 
   -2797    -2822    -2767    -2728    -2689    -2597    -2481    -2397 
   -2398    -2498    -2629    -2731    -2772    -2714    -2596    -2529 
   -2559    -2627    -2671    -2697    -2721    -2690    -2570    -2492 
   -2524    -2533    -2475    -2492    -2583    -2636    -2666    -2720 
   -2729    -2678    -2648    -2682    -2714    -2666    -2556    -2435 
   -2334    -2351    -2525    -2735    -2857    -2874    -2818    -2759 
   -2728    -2705    -2674    -2627    -2600    -2635    -2640    -2540 
   -2416    -2315    -2214    -2139    -2166    -2353    -2614    -2806 
   -2901    -2929    -2933    -2964    -3002    -2978    -2862    -2677 
   -2501    -2428    -2474    -2563    -2587    -2497    -2366    -2307 
   -2324    -2362    -2434    -2558    -2695    -2816    -2901    -2917 
   -2797    -2571    -2409    -2390    -2461    -2547    -2574    -2528 
   -2515    -2609    -2745    -2783    -2720    -2686    -2728    -2764 
   -2721    -2621    -2560    -2566    -2592    -2619    -2655    -2659 
   -2577    -2446    -2388    -2462    -2566    -2602    -2616    -2674 
   -2744    -2743    -2646    -2527    -2497    -2567    -2656    -2722 
   -2755    -2722    -2629    -2540    -2517    -2565    -2617    -2628 
   -2613    -2604    -2587    -2533    -2486    -2504    -2551    -2585 
   -2636    -2713    -2775    -2759    -2644    -2508    -2442    -2478 
   -2571    -2631    -2650    -2664    -2694    -2751    -2772    -2701 
   -2616    -2586    -2589    -2600    -2581    -2542    -2519    -2516 
   -2521    -2524    -2539    -2605    -2717    -2812    -2799    -2666 
   -2527    -2513    -2594    -2650    -2681    -2706    -2656    -2563 
   -2590    -2690    -2602    -2362    -2259    -2334    -2450    -2578 
   -2700    -2758    -2760    -2771    -2817    -2852    -2860    -2859 
   -2783    -2647    -2604    -2636    -2614    -2562    -2498    -2354 
   -2158    -2054    -2110    -2282    -2516    -2736    -2866    -2849 
   -2740    -2695    -2791    -2941    -3026    -3013    -2936    -2828 
   -2740    -2702    -2632    -2469    -2303    -2243    -2258    -2241 
   -2195    -2173    -2173    -2219    -2365    -2604    -2856    -3005 
   -2992    -2933    -2947    -3005    -3049    -3046    -2968    -2828 
   -2668    -2542    -2479    -2465    -2454    -2394    -2262    -2111 
   -2034    -2057    -2158    -2400    -2740    -2983    -3026    -2878 
   -2644    -2529    -2594    -2751    -2937    -3068    -3071    -2984 
   -2856    -2697    -2511    -2307    -2169    -2160    -2254    -2436 
   -2632    -2705    -2654    -2559    -2496    -2536    -2655    -2749 
   -2771    -2648    -2390    -2226    -2286    -2455    -2639    -2872 
   -3130    -3250    -3157    -2959    -2745    -2567    -2546    -2674 
   -2745    -2695    -2625    -2516    -2320    -2139    -2012    -1922 
   -1961    -2177    -2405    -2486    -2470    -2506    -2648    -2864 
   -3148    -3406    -3410    -3156    -2944    -2914    -2920    -2871 
   -2810    -2727    -2577    -2393    -2220    -2039    -1872    -1841 
   -2002    -2259    -2527    -2714    -2732    -2631    -2571    -2658 
   -2868    -3080    -3150    -3053    -2901    -2818    -2785    -2712 
   -2627    -2601    -2587    -2535    -2524    -2575    -2571    -2489 
   -2397    -2317    -2253    -2219    -2212    -2250    -2365    -2542 
   -2731    -2856    -2899    -2949    -2997    -2943    -2826    -2716 
   -2608    -2519    -2497    -2517    -2502    -2497    -2608    -2749 
   -2749    -2668    -2660    -2650    -2551    -2527    -2647    -2747 
   -2768    -2790    -2802    -2700    -2450    -2192    -2053    -2006 
   -2031    -2155    -2355    -2632    -2926    -3087    -3095    -3051 
   -2988    -2929    -2899    -2875    -2844    -2829    -2781    -2610 
   -2327    -2072    -1949    -1908    -1881    -1945    -2154    -2423 
   -2704    -2995    -3253    -3368    -3289    -3141    -3042    -2960 
   -2824    -2647    -2502    -2459    -2516    -2602    -2639    -2593 
   -2475    -2344    -2272    -2269    -2317    -2401    -2478    -2552 
   -2659    -2743    -2756    -2737    -2701    -2647    -2610    -2605 
   -2624    -2694    -2790    -2826    -2778    -2662    -2520    -2424 
   -2350    -2266    -2250    -2308    -2401    -2550    -2690    -2687 
   -2597    -2594    -2674    -2751    -2828    -2862    -2856    -2907 
   -2990    -2987    -2902    -2783    -2628    -2450    -2301    -2222 
   -2241    -2326    -2443    -2610    -2751    -2756    -2637    -2447 
   -2274    -2242    -2373    -2587    -2798    -2971    -3076    -3086 
   -3014    -2891    -2743    -2614    -2523    -2470    -2479    -2538 
   -2610    -2670    -2651    -2512    -2307    -2124    -2010    -1972 
   -2020    -2177    -2462    -2829    -3152    -3318    -3300    -3126 
   -2860    -2623    -2533    -2606    -2736    -2822    -2859    -2856 
   -2740    -2465    -2180    -2042    -2019    -2103    -2340    -2633 
   -2871    -3026    -3022    -2844    -2639    -2559    -2601    -2656 
   -2673    -2674    -2659    -2602    -2523    -2455    -2415    -2431 
   -2502    -2567    -2573    -2550    -2556    -2566    -2538    -2552 
   -2648    -2771    -2917    -3051    -3009    -2725    -2403    -2273 
   -2367    -2567    -2728    -2781    -2770    -2717    -2590    -2434 
   -2319    -2268    -2270    -2339    -2469    -2601    -2681    -2733 
   -2771    -2756    -2743    -2814    -2910    -2955    -2991    -3021 
   -2952    -2775    -2589    -2442    -2288    -2127    -2057    -2077 
   -2089    -2085    -2162    -2381    -2677    -2918    -3103    -3265 
   -3291    -3149    -3002    -2937    -2925    -2874    -2714    -2502 
   -2335    -2242    -2197    -2143    -2047    -1942    -1927    -2079 
   -2358    -2633    -2751    -2689    -2648    -2812    -3091    -3315 
   -3392    -3322    -3211    -3144    -3055    -2920    -2781    -2589 
   -2339    -2155    -2131    -2197    -2203    -2104    -1996    -1948 
   -1954    -2033    -2220    -2493    -2733    -2857    -2876    -2880 
   -2964    -3103    -3179    -3144    -3068    -3010    -2949    -2876 
   -2791    -2671    -2520    -2382    -2308    -2319    -2362    -2308 
   -2111    -1949    -2000    -2232    -2508    -2751    -2930    -2990 
   -2940    -2894    -2916    -2936    -2878    -2785    -2764    -2813 
   -2836    -2789    -2697    -2636    -2617    -2536    -2386    -2315 
   -2343    -2380    -2405    -2398    -2307    -2184    -2141    -2219 
   -2363    -2494    -2620    -2778    -2925    -3024    -3092    -3068 
   -2913    -2793    -2828    -2891    -2895    -2898    -2872    -2733 
   -2512    -2295    -2151    -2133    -2184    -2228    -2317    -2431 
   -2409    -2293    -2300    -2469    -2640    -2725    -2802    -2883 
   -2894    -2878    -2905    -2933    -2917    -2875    -2870    -2893 
   -2890    -2828    -2720    -2617    -2542    -2452    -2353    -2284 
   -2211    -2115    -2045    -1987    -1948    -2019    -2222    -2508 
   -2797    -2970    -3028    -3086    -3169    -3265    -3379    -3416 
   -3289    -3051    -2793    -2590    -2447    -2285    -2108    -2011 
   -2015    -2104    -2234    -2295    -2284    -2317    -2409    -2493 
   -2562    -2620    -2623    -2601    -2655    -2814    -2974    -3001 
   -2911    -2843    -2857    -2921    -2987    -3032    -3029    -2930 
   -2768    -2608    -2458    -2285    -2096    -2015    -2106    -2247 
   -2346    -2358    -2296    -2299    -2428    -2613    -2779    -2905 
   -3028    -3119    -3086    -2984    -2922    -2880    -2851    -2848 
   -2797    -2639    -2459    -2340    -2284    -2259    -2281    -2374 
   -2427    -2370    -2326    -2371    -2442    -2459    -2458    -2578 
   -2785    -2883    -2841    -2749    -2686    -2682    -2710    -2783 
   -2917    -2990    -2921    -2810    -2743    -2643    -2448    -2259 
   -2172    -2165    -2219    -2342    -2519    -2704    -2795    -2718 
   -2596    -2579    -2598    -2569    -2585    -2690    -2791    -2818 
   -2828    -2872    -2876    -2785    -2666    -2563    -2511    -2570 
   -2662    -2623    -2501    -2465    -2497    -2458    -2350    -2296 
   -2304    -2300    -2361    -2560    -2756    -2822    -2803    -2749 
   -2698    -2690    -2694    -2691    -2740    -2795    -2762    -2695 
   -2736    -2870    -2902    -2755    -2570    -2447    -2326    -2258 
   -2340    -2450    -2494    -2548    -2643    -2762    -2824    -2717 
   -2529    -2462    -2538    -2644    -2760    -2909    -2995    -2922 
   -2709    -2466    -2342    -2396    -2527    -2562    -2430    -2312 
   -2376    -2489    -2498    -2477    -2509    -2521    -2490    -2524 
   -2673    -2851    -2948    -2938    -2924    -2926    -2840    -2671 
   -2562    -2558    -2550    -2457    -2392    -2477    -2602    -2586 
   -2461    -2384    -2374    -2363    -2417    -2598    -2766    -2818 
   -2816    -2810    -2783    -2745    -2729    -2716    -2671    -2628 
   -2624    -2635    -2641    -2648    -2621    -2555    -2509    -2515 
   -2563    -2620    -2614    -2523    -2436    -2446    -2531    -2633 
   -2717    -2729    -2617    -2481    -2485    -2613    -2729    -2797 
   -2837    -2826    -2787    -2758    -2700    -2616    -2565    -2508 
   -2440    -2455    -2552    -2593    -2511    -2438    -2467    -2478 
   -2398    -2365    -2459    -2616    -2737    -2766    -2740    -2733 
   -2739    -2731    -2744    -2791    -2813    -2767    -2714    -2717 
   -2718    -2623    -2436    -2263    -2200    -2250    -2365    -2497 
   -2548    -2540    -2650    -2848    -2926    -2845    -2710    -2619 
   -2597    -2620    -2678    -2760    -2830    -2825    -2709    -2566 
   -2452    -2330    -2247    -2316    -2494    -2646    -2731    -2776 
   -2754    -2652    -2559    -2517    -2485    -2489    -2589    -2720 
   -2781    -2754    -2677    -2617    -2620    -2647    -2673    -2690 
   -2690    -2712    -2755    -2768    -2736    -2647    -2532    -2443 
   -2354    -2270    -2270    -2340    -2401    -2435    -2497    -2623 
   -2767    -2883    -2937    -2876    -2739    -2654    -2693    -2785 
   -2806    -2743    -2674    -2613    -2569    -2602    -2670    -2646 
   -2528    -2423    -2390    -2403    -2390    -2350    -2334    -2366 
   -2442    -2508    -2517    -2509    -2532    -2597    -2722    -2911 
   -3072    -3110    -3028    -2883    -2768    -2717    -2667    -2640 
   -2687    -2722    -2690    -2650    -2583    -2436    -2258    -2139 
   -2154    -2326    -2548    -2668    -2640    -2529    -2454    -2492 
   -2585    -2640    -2652    -2624    -2620    -2700    -2755    -2714 
   -2716    -2818    -2916    -2936    -2903    -2833    -2704    -2539 
   -2430    -2425    -2488    -2543    -2550    -2508    -2398    -2253 
   -2170    -2199    -2278    -2366    -2517    -2764    -2984    -3009 
   -2837    -2681    -2714    -2868    -2982    -2988    -2961    -2990 
   -3005    -2887    -2655    -2419    -2224    -2110    -2151    -2296 
   -2355    -2274    -2195    -2241    -2365    -2470    -2543    -2610 
   -2713    -2851    -2945    -2948    -2893    -2853    -2855    -2852 
   -2851    -2890    -2920    -2880    -2732    -2477    -2269    -2242 
   -2305    -2351    -2389    -2419    -2436    -2471    -2532    -2598 
   -2617    -2571    -2558    -2632    -2736    -2812    -2841    -2828 
   -2810    -2837    -2884    -2876    -2791    -2667    -2554    -2512 
   -2566    -2625    -2596    -2492    -2361    -2232    -2153    -2133 
   -2110    -2092    -2200    -2457    -2731    -2905    -2979    -3019 
   -3033    -3006    -3011    -3045    -2995    -2897    -2825    -2735 
   -2639    -2583    -2516    -2381    -2214    -2087    -2041    -2079 
   -2195    -2342    -2478    -2594    -2694    -2785    -2829    -2812 
   -2821    -2901    -2951    -2955    -2960    -2910    -2797    -2714 
   -2664    -2610    -2535    -2424    -2327    -2292    -2313    -2389 
   -2450    -2421    -2396    -2479    -2620    -2721    -2736    -2668 
   -2602    -2604    -2648    -2686    -2721    -2779    -2818    -2785 
   -2732    -2720    -2704    -2640    -2546    -2474    -2475    -2533 
   -2597    -2646    -2646    -2577    -2482    -2432    -2458    -2512 
   -2536    -2528    -2506    -2494    -2490    -2511    -2623    -2794 
   -2880    -2822    -2728    -2721    -2790    -2860    -2922    -2930 
   -2821    -2679    -2632    -2654    -2612    -2466    -2336    -2269 
   -2199    -2164    -2226    -2313    -2381    -2471    -2550    -2567 
   -2578    -2609    -2633    -2681    -2782    -2894    -3001    -3130 
   -3223    -3169    -2984    -2771    -2582    -2452    -2446    -2519 
   -2527    -2447    -2351    -2258    -2174    -2149    -2222    -2343 
   -2436    -2521    -2643    -2759    -2821    -2829    -2832    -2860 
   -2913    -2979    -2987    -2898    -2759    -2605    -2490    -2455 
