Origin Time       2024/06/23 22:54:00
Lat.              35.645
Long.             140.060
Depth. (km)       72
Mag.              4.1
Station Code      IBR013
Station Lat.      36.1587
Station Long.     140.4892
Station Height(m) 29
Record Time       2024/06/23 22:54:49
Sampling Freq(Hz) 100Hz
Duration Time(s)  60
Dir.              U-D
Scale Factor      7845(gal)/8223790
Max. Acc. (gal)   2.972
Last Correction   2024/06/23 22:54:49
Memo.             
   12260    12266    12259    12248    12248    12255    12255    12252 
   12252    12253    12253    12258    12264    12262    12253    12249 
   12252    12252    12249    12252    12263    12264    12259    12259 
   12256    12244    12240    12252    12266    12263    12256    12253 
   12251    12249    12258    12262    12258    12253    12249    12247 
   12249    12256    12267    12268    12255    12248    12249    12249 
   12255    12264    12266    12258    12245    12244    12253    12260 
   12258    12256    12252    12248    12253    12263    12260    12255 
   12252    12249    12248    12251    12255    12255    12255    12260 
   12260    12258    12252    12251    12253    12252    12255    12260 
   12262    12262    12258    12252    12247    12244    12253    12264 
   12262    12255    12256    12256    12251    12248    12255    12256 
   12253    12255    12259    12258    12255    12253    12248    12249 
   12259    12263    12262    12256    12251    12249    12248    12253 
   12263    12264    12262    12258    12247    12245    12256    12262 
   12262    12260    12258    12251    12248    12252    12255    12255 
   12256    12260    12260    12256    12255    12256    12258    12255 
   12252    12252    12249    12252    12255    12252    12253    12260 
   12255    12245    12247    12258    12266    12262    12256    12253 
   12249    12249    12255    12258    12253    12252    12256    12260 
   12258    12252    12253    12253    12248    12255    12262    12256 
   12253    12252    12251    12256    12260    12258    12253    12251 
   12249    12251    12256    12258    12253    12251    12251    12251 
   12256    12260    12255    12253    12258    12255    12255    12256 
   12252    12255    12256    12253    12258    12262    12258    12255 
   12258    12255    12244    12244    12256    12263    12259    12258 
   12259    12255    12252    12253    12249    12247    12249    12255 
   12256    12255    12256    12258    12258    12258    12252    12244 
   12241    12247    12253    12259    12259    12258    12256    12253 
   12249    12251    12260    12262    12258    12253    12251    12247 
   12247    12255    12256    12253    12256    12259    12253    12249 
   12249    12251    12252    12255    12259    12256    12249    12249 
   12252    12249    12248    12253    12256    12252    12251    12252 
   12256    12258    12256    12255    12252    12249    12249    12252 
   12256    12255    12256    12258    12252    12249    12252    12251 
   12249    12251    12255    12259    12255    12252    12256    12255 
   12249    12251    12255    12252    12251    12258    12260    12253 
   12249    12251    12252    12256    12260    12259    12256    12253 
   12255    12258    12256    12256    12255    12251    12253    12258 
   12260    12260    12258    12253    12249    12249    12255    12259 
   12256    12253    12253    12253    12256    12262    12260    12255 
   12255    12253    12255    12256    12251    12249    12255    12259 
   12258    12248    12244    12253    12259    12255    12255    12259 
   12252    12244    12252    12260    12258    12252    12249    12248 
   12249    12255    12259    12255    12249    12252    12253    12245 
   12248    12260    12262    12253    12252    12253    12247    12244 
   12251    12256    12253    12253    12256    12252    12248    12255 
   12259    12253    12248    12256    12259    12253    12255    12262 
   12259    12251    12249    12249    12253    12258    12259    12260 
   12263    12255    12248    12252    12255    12252    12255    12260 
   12259    12256    12255    12255    12256    12255    12258    12260 
   12259    12258    12255    12252    12256    12260    12256    12253 
   12252    12253    12258    12259    12259    12260    12258    12249 
   12244    12249    12260    12263    12263    12260    12253    12249 
   12251    12251    12248    12249    12256    12260    12255    12253 
   12255    12252    12248    12251    12255    12253    12253    12260 
   12260    12255    12252    12248    12247    12256    12262    12264 
   12264    12255    12245    12240    12241    12252    12264    12266 
   12258    12249    12251    12255    12259    12258    12255    12252 
   12247    12241    12249    12264    12271    12267    12255    12244 
   12245    12251    12253    12259    12262    12262    12259    12252 
   12252    12264    12280    12298    12317    12330    12326    12303 
   12271    12235    12197    12151    12093    12048    12033    12058 
   12171    12391    12568    12599    12599    12598    12522    12457 
   12417    12198    11824    11500    11310    11407    11892    12441 
   12692    12718    12748    12839    12911    12915    12806    12388 
   11739    11369    11441    11612    11722    11751    11661    11657 
   11990    12748    13795    14507    14229    13100    11777    10785 
   10423    10731    11443    12181    12692    12954    12999    12772 
   12249    11632    11487    12415    13923    14265    12823    11182 
   10446    10274    10760    11990    13004    13348    13540    13733 
   13679    13181    12044    10665    10035    10573    11767    12896 
   13363    12949    12163    11838    12339    13136    13335    12688 
   11723    11125    11304    12110    12954    13158    12463    11612 
   11601    12278    12660    12421    12019    11708    11736    12347 
   12874    12895    12887    12619    11963    11998    12577    12302 
   11577    11483    11516    11524    12274    13263    13404    12856 
   12469    12501    12475    12212    12079    11902    11250    10621 
   10897    12226    13822    14492    13810    12441    11205    10820 
   11603    12579    12590    11919    11425    11553    12422    13463 
   13617    12600    11383    11152    11998    13042    13599    13402 
   12413    11172    10508    10813    11843    12833    13155    12849 
   12314    12006    12247    12915    13385    12950    11722    10767 
   10920    11959    13082    13495    12729    11207    10386    11337 
   13290    14489    14237    13061    11610    10616    10818    11817 
   12421    12414    12402    12518    12556    12420    12021    11659 
   11900    12617    13143    13177    12731    11838    10955    10874 
   11657    12644    13387    13636    13243    12487    11761    11340 
   11292    11446    11866    12569    13028    12872    12333    11738 
   11246    11043    11461    12528    13536    13732    13252    12761 
   12569    12631    12663    12201    11271    10489    10381    11075 
   12197    13095    13525    13659    13489    12910    12179    11769 
   11684    11550    11357    11402    11796    12474    13324    14069 
   14165    13351    12222    11531    11302    11261    11342    11392 
   11304    11518    12438    13497    13794    13220    12307    11493 
   10963    10976    11705    12650    13092    12987    12594    12015 
   11743    12272    12896    12761    12175    11639    11379    11581 
   12008    12422    12891    13281    13448    13398    12945    11847 
   10449     9807    10497    11747    12599    12911    12811    12717 
   13311    14177    14195    13417    12491    11527    10779    10643 
   10902    11242    11797    12617    13235    13132    12397    11682 
   11542    12047    12637    12582    12162    12235    12829    13483 
   13699    12819    11003     9695    10210    12204    13963    14111 
   12838    11385    10800    11600    13464    14669    13764    11639 
   10210    10228    11233    12532    13473    13316    12291    11697 
   11853    12035    12055    12220    12598    12880    12811    12564 
   12260    11736    11367    11801    12555    12793    12923    13113 
   12511    11299    10721    11272    12490    13579    13797    12784 
   11049    10108    11075    13169    14461    14037    12839    12082 
   11993    12266    12357    11877    11138    10577    10503    11273 
   12382    12842    12893    13225    13527    13552    13671    13583 
   12712    11481    10608    10134     9931    10295    11412    12694 
   13359    13435    13473    13643    13761    13784    13545    12422 
   10427     9139     9771    11468    13008    13786    13221    11674 
   10755    11554    13300    14289    14010    13182    12297    11696 
   11718    11967    11815    11237    10729    10874    11713    12754 
   13578    13830    13234    12263    11839    12096    12621    13178 
   13189    12213    10963    10365    10693    11943    13471    13861 
   12688    11439    11344    11870    12476    13196    13390    12604 
   11662    11408    11809    12445    12823    12640    12329    12484 
   12876    13036    12842    12202    11411    11065    11115    11137 
   11194    11476    11863    12448    13362    14079    14007    13174 
   11978    11061    10993    11631    12397    12960    13120    12780 
   12309    12091    12159    12357    12293    11889    11628    11699 
   12052    12615    12873    12332    11321    10874    11554    12795 
   13919    14470    13926    12510    11291    10975    11338    11819 
   11924    11460    11067    11496    12463    13252    13468    13132 
   12676    12298    12016    12073    12270    12316    12609    13131 
   13058    12181    11240    10856    11045    11681    12591    13224 
   13151    12696    12444    12391    12202    12032    12162    12359 
   12344    12020    11408    10944    11198    12294    13751    14611 
   14056    12351    10860    10752    11649    12262    12237    12086 
   11966    11867    11963    12214    12384    12526    12977    13722 
   14044    13213    11592    10478    10535    11272    12082    12545 
   12429    12089    12073    12525    13115    13223    12615    11888 
   11807    12363    12869    12808    12133    11295    10967    11329 
   12116    12768    12617    12074    12047    12299    12529    13178 
   13892    13680    12625    11484    10567    10192    10787    12024 
   13008    13273    13038    12717    12598    12703    12625    12114 
   11577    11500    12046    12908    13198    12390    11194    10758 
   11404    12658    13788    13999    13103    11947    11458    11668 
   11861    11647    11507    11803    12278    12712    12996    12928 
   12506    12156    12294    12688    12731    12160    11272    10732 
   10994    11897    13045    13992    14115    13224    11969    11011 
   10585    11013    12248    13336    13513    12939    12171    11681 
   11746    12343    12966    12973    12306    11491    11045    11091 
   11375    11769    12334    12865    13227    13641    13891    13338 
   12158    11377    11429    11781    11948    11874    11749    11827 
   12035    12236    12510    12675    12702    12873    12874    12375 
   11800    11453    11296    11418    11811    12317    12860    13323 
   13482    13224    12722    12280    12004    11836    11834    11920 
   11817    11655    11773    12042    12235    12325    12263    12183 
   12267    12530    12946    13123    12667    11944    11551    11749 
   12468    13128    13101    12532    11908    11236    10639    10860 
   11974    12943    13167    13042    12893    12663    12530    12766 
   13034    12569    11307    10303    10404    11357    12694    13996 
   14485    13772    12479    11564    11404    11570    11569    11372 
   11079    10866    11222    12388    13729    14362    14054    13134 
   12177    11685    11696    11992    12287    12151    11608    11394 
   11920    12753    13224    13016    12361    11781    11589    11866 
   12445    12656    12097    11542    11789    12425    12748    12729 
   12526    12163    11850    11881    12198    12484    12556    12559 
   12731    12999    13031    12615    11840    11165    11057    11427 
   11767    11862    12051    12602    13284    13783    13976    13589 
   12415    11024    10210    10054    10384    11222    12314    13208 
   13713    13803    13599    13369    13139    12806    12286    11408 
   10504    10262    10743    11596    12448    12891    12995    13103 
   13213    13211    13124    12881    12298    11601    11344    11622 
   12023    12116    11776    11317    11138    11327    12051    13398 
   14472    14370    13587    12843    12112    11462    11159    11092 
   11037    11040    11245    11699    12376    13198    13884    14031 
   13497    12474    11373    10794    11083    11958    12750    12912 
   12571    12232    12082    12210    12604    12841    12656    12145 
   11533    11263    11533    11981    12313    12501    12490    12386 
   12434    12579    12723    12910    12779    12055    11345    11253 
   11676    12471    13321    13436    12546    11392    10874    11314 
   12320    13147    13232    12530    11658    11470    12209    13242 
   13601    12812    11533    10885    11106    11847    12830    13298 
   12735    12033    12113    12633    12937    12772    12159    11308 
   10642    10700    11689    13007    13662    13382    12722    12016 
   11430    11585    12614    13558    13522    12607    11519    10912 
   11106    11919    12656    12735    12324    12012    12075    12395 
   12780    13011    12927    12665    12452    12272    11942    11489 
   11209    11365    11915    12413    12515    12456    12552    12748 
   12903    12965    12852    12383    11707    11400    11651    12023 
   12204    12233    12144    11990    12028    12295    12464    12496 
   12560    12556    12452    12372    12279    12210    12263    12259 
   12195    12399    12669    12483    11986    11661    11624    11836 
   12171    12274    12085    12028    12205    12430    12692    12834 
   12766    12708    12636    12312    11885    11773    12012    12194 
   12139    12035    11897    11711    11835    12357    12775    12760 
   12496    12359    12575    12910    12939    12515    11749    11055 
   10893    11178    11658    12345    12880    12834    12675    12911 
   13184    13099    12750    12372    12050    11672    11402    11543 
   11770    11731    11786    12150    12546    12955    13481    13632 
   12808    11512    10901    11218    11921    12606    12924    12640 
   11998    11480    11443    11874    12229    12318    12700    13382 
   13764    13641    12949    11892    11164    11080    11375    11703 
   11929    12135    12364    12644    12857    12711    12317    12136 
   12231    12249    12054    11840    11755    11958    12486    12938 
   13034    12843    12509    12312    12295    12144    11738    11342 
   11348    11803    12463    13120    13296    12656    11799    11439 
   11696    12340    12820    12691    12236    11943    11915    12237 
   12731    12729    12233    11904    11967    12467    13126    13243 
   12779    12070    11172    10525    10681    11438    12345    13171 
   13549    13267    12692    12175    11832    11924    12325    12474 
   12321    12199    12220    12286    12282    12178    11988    11927 
   12287    12748    12800    12488    11985    11480    11470    12144 
   12883    12972    12451    12001    12112    12432    12330    11836 
   11350    11153    11511    12279    12895    13109    12988    12737 
   12617    12432    11983    11763    12009    12274    12490    12903 
   13262    13221    12820    12139    11260    10557    10392    10832 
   11753    12842    13863    14538    14256    12973    11551    10712 
   10662    11195    11730    11985    12168    12245    12008    11785 
   12054    12733    13576    14345    14426    13473    11990    10623 
    9742     9684    10493    11790    13143    14154    14550    14392 
   13759    12687    11651    11192    11203    11372    11697    12137 
   12430    12368    12083    11942    12001    12085    12370    12858 
   12950    12483    11954    11489    11063    11113    11850    12783 
   13200    12877    12380    12190    12253    12630    13097    13045 
   12436    11728    11408    11777    12464    12857    12769    12245 
   11576    11360    11839    12449    12649    12571    12374    12056 
   11961    12297    12546    12243    11731    11577    11929    12644 
   13458    14030    13873    12754    11360    10708    10964    11502 
   11785    11739    11518    11492    12124    13316    14156    13859 
   12806    11961    11634    11743    12333    13049    13070    12112 
   10980    10593    10879    11450    12293    13216    13702    13481 
   12923    12536    12206    11789    11681    11893    11917    11703 
   11634    11896    12282    12498    12700    13122    13375    13117 
   12610    12090    11608    11373    11557    11954    12212    12316 
   12312    12024    11662    11788    12428    13113    13505    13425 
   12915    12222    11504    11021    11159    11863    12721    13315 
   13198    12402    11659    11349    11260    11480    12199    13004 
   13228    12769    12129    11740    11650    11877    12402    12838 
   12795    12460    12329    12530    12780    12742    12251    11583 
   11349    11743    12324    12556    12399    12266    12262    12228 
   12287    12442    12432    12291    12171    12074    12110    12320 
   12356    12085    11896    11993    12222    12434    12483    12343 
   12143    11994    12070    12283    12306    12159    11938    11688 
   11773    12337    13036    13490    13373    12753    12272    12158 
   12036    11916    11901    11726    11554    11784    12266    12721 
   12865    12478    11961    11815    12048    12594    13086    12837 
   11988    11431    11489    11915    12483    12893    12757    12042 
   11402    11592    12417    13151    13529    13316    12366    11457 
   11306    11618    11990    12239    12194    12020    11973    12137 
   12588    13144    13286    12791    12093    11796    11994    12270 
   12233    11840    11302    10993    11240    11898    12502    12849 
   12937    12920    13122    13435    13315    12544    11452    10565 
   10389    11187    12523    13439    13458    12977    12567    12406 
   12459    12687    12831    12482    11746    11338    11596    11988 
   12085    12171    12387    12415    12197    11993    11943    12005 
   12194    12650    13188    13200    12553    11848    11458    11307 
   11589    12411    13104    13166    12861    12430    12056    11994 
   12063    12006    11897    11677    11352    11391    12037    12953 
   13720    13965    13498    12638    11944    11668    11631    11526 
   11238    11010    11203    11796    12461    13023    13456    13690 
   13554    12939    12033    11133    10535    10601    11445    12660 
   13559    13738    13366    12792    12168    11701    11639    11793 
   11915    12175    12653    13081    13144    12648    11934    11604 
   11522    11326    11241    11391    11658    12198    12980    13473 
   13385    12931    12388    12010    11916    11948    11967    11888 
   11716    11757    12199    12776    13163    13327    13288    12880 
   12028    11134    10760    10978    11439    11911    12422    13066 
   13639    13818    13657    13198    12379    11595    11232    11138 
   11090    11105    11317    11696    12151    12766    13379    13528 
   13057    12312    11839    11866    12104    12155    11978    11808 
   11815    12097    12668    13360    13822    13575    12607    11553 
