Origin Time       2024/06/23 22:54:00
Lat.              35.645
Long.             140.060
Depth. (km)       72
Mag.              4.1
Station Code      IBR014
Station Lat.      36.0729
Station Long.     140.1948
Station Height(m) 18
Record Time       2024/06/23 22:54:47
Sampling Freq(Hz) 100Hz
Duration Time(s)  60
Dir.              E-W
Scale Factor      7845(gal)/8223790
Max. Acc. (gal)   2.571
Last Correction   2024/06/23 22:54:46
Memo.             
[...]
   -1356    -1355    -1337    -1310    -1301    -1317    -1350    -1370 
   -1367    -1359    -1345    -1314    -1293    -1298    -1325    -1366 
   -1387    -1375    -1344    -1316    -1304    -1297    -1294    -1324 
   -1368    -1390    -1386    -1370    -1351    -1324    -1275    -1242 
   -1266    -1333    -1395    -1410    -1389    -1359    -1329    -1297 
   -1274    -1285    -1327    -1363    -1378    -1379    -1371    -1345 
   -1308    -1287    -1298    -1323    -1356    -1379    -1370    -1347 
   -1331    -1324    -1324    -1332    -1350    -1363    -1348    -1320 
   -1301    -1298    -1313    -1345    -1377    -1386    -1368    -1337 
   -1308    -1287    -1289    -1310    -1333    -1355    -1370    -1371 
   -1359    -1345    -1336    -1331    -1321    -1323    -1336    -1340 
   -1335    -1332    -1332    -1341    -1351    -1350    -1343    -1336 
   -1331    -1324    -1316    -1310    -1313    -1324    -1337    -1356 
   -1371    -1371    -1344    -1304    -1281    -1285    -1314    -1358 
   -1385    -1375    -1344    -1320    -1312    -1320    -1333    -1347 
   -1358    -1355    -1345    -1345    -1347    -1335    -1316    -1304 
   -1312    -1339    -1366    -1378    -1375    -1352    -1318    -1290 
   -1285    -1306    -1333    -1352    -1354    -1337    -1327    -1328 
   -1328    -1333    -1339    -1339    -1341    -1354    -1356    -1340 
   -1321    -1314    -1313    -1317    -1332    -1363    -1394    -1398 
   -1364    -1312    -1277    -1277    -1310    -1355    -1377    -1372 
   -1356    -1332    -1312    -1308    -1313    -1320    -1329    -1341 
   -1352    -1359    -1356    -1339    -1313    -1293    -1291    -1318 
   -1356    -1379    -1375    -1355    -1332    -1316    -1306    -1308 
   -1318    -1332    -1347    -1358    -1367    -1368    -1352    -1324 
   -1301    -1301    -1327    -1352    -1359    -1352    -1333    -1317 
   -1317    -1331    -1347    -1352    -1343    -1333    -1324    -1318 
   -1320    -1324    -1325    -1332    -1345    -1352    -1355    -1356 
   -1351    -1332    -1313    -1309    -1318    -1333    -1345    -1358 
   -1364    -1363    -1354    -1336    -1310    -1296    -1298    -1310 
   -1335    -1364    -1374    -1360    -1340    -1308    -1293    -1318 
   -1350    -1368    -1381    -1372    -1363    -1350    -1327    -1313 
   -1302    -1316    -1358    -1354    -1321    -1305    -1270    -1255 
   -1294    -1339    -1387    -1452    -1495    -1479    -1397    -1304 
   -1225    -1150    -1134    -1204    -1305    -1414    -1491    -1478 
   -1424    -1377    -1302    -1251    -1273    -1317    -1368    -1405 
   -1331    -1225    -1235    -1277    -1314    -1404    -1447    -1387 
   -1366    -1390    -1343    -1283    -1331    -1393    -1379    -1372 
   -1328    -1189    -1138    -1220    -1309    -1370    -1393    -1418 
   -1444    -1460    -1510    -1417    -1175    -1108    -1175    -1281 
   -1510    -1536    -1293    -1216    -1264    -1273    -1341    -1341 
   -1314    -1413    -1408    -1371    -1506    -1582    -1462    -1158 
    -784     -687     -984    -1566    -2162    -2292    -1818    -1086 
    -592     -675    -1131    -1494    -1567    -1464    -1440    -1440 
   -1275    -1206    -1260    -1163    -1201    -1447    -1528    -1501 
   -1425    -1285    -1275    -1339    -1371    -1394    -1323    -1227 
   -1185    -1129    -1131    -1290    -1497    -1586    -1547    -1463 
   -1422    -1422    -1300    -1040     -980    -1232    -1509    -1624 
   -1509    -1251    -1105    -1053    -1115    -1520    -1935    -1811 
   -1305     -916     -849    -1051    -1340    -1552    -1641    -1587 
   -1406    -1170     -986    -1035    -1331    -1642    -1773    -1645 
   -1379    -1150     -891     -749    -1023    -1557    -1926    -1869 
   -1582    -1327     -966     -639     -773    -1225    -1710    -2107 
   -2104    -1695    -1228     -816     -542     -573     -974    -1651 
   -2149    -2072    -1629    -1192     -949     -963    -1015    -1053 
   -1350    -1671    -1649    -1547    -1567    -1513    -1278     -988 
    -912    -1159    -1466    -1605    -1574    -1433    -1198     -962 
   -1015    -1337    -1522    -1548    -1574    -1418    -1228    -1275 
   -1269    -1162    -1250    -1439    -1590    -1613    -1453    -1301 
   -1173    -1092    -1266    -1381    -1242    -1237    -1278    -1229 
   -1362    -1541    -1579    -1537    -1385    -1314    -1406    -1343 
   -1155    -1015     -920    -1119    -1552    -1765    -1749    -1647 
   -1422    -1225    -1115    -1027    -1030    -1117    -1340    -1632 
   -1682    -1541    -1401    -1202    -1040    -1030    -1125    -1363 
   -1602    -1647    -1613    -1540    -1398    -1306    -1233    -1161 
   -1119     -930     -783    -1012    -1402    -1734    -1938    -1867 
   -1642    -1439    -1189     -981     -994    -1154    -1255    -1196 
   -1170    -1339    -1502    -1607    -1687    -1560    -1416    -1464 
   -1351    -1044     -880     -916    -1210    -1642    -1825    -1686 
   -1386     -984     -673     -760    -1185    -1687    -2168    -2367 
   -2045    -1475     -908     -446     -351     -657    -1177    -1628 
   -1732    -1707    -1695    -1444    -1221    -1391    -1614    -1567 
   -1345    -1050     -861    -1013    -1368    -1533    -1391    -1210 
   -1210    -1331    -1445    -1462    -1420    -1439    -1463    -1443 
   -1390    -1246    -1129    -1152    -1143    -1073    -1113    -1225 
   -1347    -1578    -1829    -1926    -1865    -1606    -1236     -958 
    -702     -541     -765    -1267    -1750    -2034    -1942    -1622 
   -1337     -962     -642     -751    -1143    -1653    -2160    -2255 
   -1869    -1236     -604     -284     -395     -846    -1480    -2030 
   -2253    -2184    -1912    -1389     -847     -676     -738     -819 
   -1135    -1649    -1969    -2019    -1733    -1150     -854     -891 
    -955    -1275    -1590    -1539    -1456    -1399    -1352    -1467 
   -1451    -1220    -1012     -934    -1221    -1683    -1684    -1432 
   -1449    -1426    -1135     -882     -876    -1186    -1624    -1842 
   -1794    -1576    -1232     -928     -889    -1100    -1351    -1545 
   -1676    -1622    -1398    -1233    -1131    -1048    -1131    -1225 
   -1196    -1312    -1580    -1744    -1753    -1598    -1340    -1156 
   -1046     -972    -1055    -1247    -1340    -1363    -1402    -1480 
   -1613    -1601    -1405    -1278    -1255    -1243    -1220    -1138 
   -1111    -1375    -1752    -1883    -1869    -1744    -1289     -827 
    -646     -580     -819    -1393    -1775    -1861    -1829    -1560 
   -1104     -778     -822    -1247    -1651    -1761    -1782    -1694 
   -1402    -1078     -824     -819    -1031    -1198    -1575    -2133 
   -2151    -1588     -918     -365     -292     -707    -1093    -1490 
   -2061    -2405    -2315    -1873    -1318     -934     -564     -410 
    -931    -1636    -2027    -2111    -1748    -1255     -967     -615 
    -423     -780    -1316    -1711    -1938    -1939    -1794    -1597 
   -1463    -1401    -1250    -1074     -900     -729     -885    -1343 
   -1740    -2010    -1975    -1571    -1240    -1009     -749     -824 
   -1188    -1459    -1594    -1594    -1595    -1630    -1343     -907 
    -818    -1047    -1421    -1696    -1679    -1629    -1634    -1468 
   -1237    -1120    -1016     -926     -939    -1058    -1240    -1355 
   -1378    -1499    -1753    -1906    -1776    -1520    -1394    -1355 
   -1283    -1163     -989     -940    -1158    -1352    -1269    -1092 
   -1077    -1262    -1549    -1763    -1788    -1618    -1328    -1167 
   -1212    -1232    -1193    -1202    -1298    -1507    -1664    -1568 
   -1371    -1255    -1189    -1213    -1290    -1223    -1155    -1264 
   -1344    -1340    -1298    -1175    -1102    -1152    -1312    -1543 
   -1695    -1768    -1703    -1455    -1379    -1478    -1340     -969 
    -639     -557     -776    -1159    -1656    -2120    -2231    -2047 
   -1707    -1200     -905    -1007    -1075    -1000    -1016    -1175 
   -1416    -1567    -1586    -1566    -1389    -1140    -1100    -1259 
   -1518    -1690    -1632    -1439    -1132     -868     -846     -970 
   -1167    -1356    -1501    -1722    -1902    -1910    -1818    -1543 
   -1104     -766     -629     -731    -1039    -1200    -1236    -1482 
   -1688    -1606    -1476    -1513    -1664    -1710    -1644    -1543 
   -1252     -919     -834     -912    -1020    -1146    -1277    -1404 
   -1545    -1725    -1786    -1584    -1335    -1235    -1161    -1089 
   -1259    -1648    -1821    -1513    -1030     -826     -931    -1154 
   -1377    -1524    -1613    -1682    -1683    -1576    -1405    -1263 
   -1159    -1012     -893     -905     -981    -1162    -1540    -1864 
   -1873    -1599    -1215    -1003    -1078    -1274    -1489    -1672 
   -1713    -1640    -1463    -1093     -708     -572     -626     -751 
    -969    -1340    -1838    -2184    -2253    -2207    -1934    -1401 
    -962     -735     -719     -963    -1302    -1591    -1699    -1467 
   -1116     -834     -661     -972    -1659    -2031    -2038    -1904 
   -1615    -1331    -1140     -997     -926     -936    -1065    -1237 
   -1390    -1606    -1760    -1705    -1537    -1251     -923     -866 
   -1031    -1196    -1443    -1698    -1678    -1393    -1150    -1163 
   -1383    -1620    -1707    -1580    -1273     -939     -745     -822 
   -1158    -1451    -1522    -1636    -1910    -2043    -1817    -1293 
    -756     -513     -572     -862    -1413    -1961    -2092    -1772 
   -1316    -1063    -1085    -1108    -1051    -1138    -1251    -1310 
   -1595    -1914    -1930    -1784    -1559    -1333    -1213    -1001 
    -749     -769    -1035    -1394    -1599    -1493    -1355    -1232 
   -1024    -1004    -1186    -1368    -1651    -1985    -2149    -2022 
   -1489     -796     -477     -526     -716    -1086    -1495    -1776 
   -1891    -1718    -1431    -1314    -1270    -1200    -1200    -1275 
   -1343    -1418    -1609    -1784    -1742    -1575    -1329     -955 
    -718     -800    -1009    -1267    -1560    -1721    -1702    -1514 
   -1152     -861     -881    -1146    -1482    -1694    -1749    -1830 
   -1760    -1350     -949     -753     -708     -886    -1108    -1239 
   -1410    -1543    -1611    -1726    -1705    -1487    -1273    -1100 
    -973     -905     -872     -943    -1047    -1208    -1683    -2223 
   -2474    -2501    -2151    -1371     -600     -106      -20     -355 
    -737    -1043    -1335    -1324    -1116    -1152    -1471    -1977 
   -2502    -2674    -2403    -1908    -1453    -1312    -1499    -1674 
   -1501    -1101     -963    -1111    -1046     -764     -649     -769 
   -1119    -1725    -2396    -2856    -2837    -2340    -1777    -1208 
    -405      307      403     -143     -950    -1602    -1952    -2027 
   -1860    -1628    -1476    -1328    -1155     -999     -884     -922 
   -1120    -1317    -1466    -1490    -1219     -812     -638     -827 
   -1228    -1529    -1615    -1567    -1451    -1370    -1335    -1317 
   -1367    -1390    -1336    -1437    -1794    -2133    -2230    -2128 
   -1953    -1692    -1205     -626     -222       59      189      -55 
    -673    -1613    -2732    -3576    -3879    -3696    -2891    -1445 
      91     1080     1225      554     -549    -1395    -1536    -1147 
    -691     -587     -973    -1632    -2303    -2632    -2384    -1938 
   -1578    -1121     -615     -203      -25     -321     -999    -1854 
   -2724    -3083    -2720    -2160    -1806    -1645    -1533    -1259 
    -885     -707     -681     -615     -704    -1232    -1915    -2119 
   -1825    -1566    -1422    -1225    -1150    -1255    -1350    -1387 
   -1205     -738     -463     -615     -919    -1350    -2023    -2637 
   -2762    -2254    -1306     -349      302      633      573      -67 
   -1170    -2322    -3171    -3516    -3244    -2289     -958       56 
     380        6     -901    -1771    -2127    -2092    -1858    -1494 
   -1139     -886     -781     -897    -1310    -1929    -2501    -2924 
   -3082    -2739    -1931    -1030     -363      -14       17     -278 
    -734    -1063    -1161    -1231    -1494    -1827    -1968    -1844 
   -1598    -1439    -1331    -1113     -873     -781     -901    -1125 
   -1196    -1073     -911     -769     -765    -1055    -1590    -2034 
   -1923    -1269     -575      -94       -5     -697    -1931    -2928 
   -3321    -2997    -1988     -850     -201     -187     -619    -1138 
   -1397    -1285    -1003     -993    -1443    -2104    -2740    -3068 
   -2852    -2359    -1887    -1370     -885     -521     -236     -317 
    -880    -1408    -1622    -1749    -1846    -1752    -1302     -587 
    -163     -409    -1063    -1752    -2249    -2397    -2203    -1787 
   -1341     -978     -648     -600    -1026    -1408    -1304     -751 
      22      449      160     -695    -1821    -2597    -2745    -2643 
   -2390    -2002    -1642    -1262     -982     -897     -762     -642 
    -781    -1038    -1301    -1587    -1777    -1956    -2262    -2525 
   -2600    -2447    -2011    -1485    -1090     -814     -650     -572 
    -595     -868    -1142    -1117    -1004     -884     -741     -868 
   -1231    -1586    -2016    -2425    -2529    -2193    -1356     -337 
     352      602      390     -351    -1368    -2224    -2592    -2436 
   -1895    -1034     -216        2     -436    -1405    -2668    -3634 
   -4031    -3727    -2506     -901      357     1108     1213      652 
    -226    -1138    -2018    -2825    -3331    -3273    -2749    -2016 
   -1318     -920     -810     -920    -1200    -1217     -839     -602 
    -621     -606     -697    -1131    -1742    -2160    -2199    -1958 
   -1605    -1186     -710     -376     -510    -1121    -1768    -1979 
   -1684    -1163     -714     -504     -607     -935    -1259    -1533 
   -1927    -2385    -2627    -2563    -2235    -1701    -1142     -700 
    -519     -768    -1169    -1246    -1053     -869     -746     -702 
    -796    -1058    -1417    -1686    -1798    -1842    -1840    -1794 
   -1830    -2014    -2146    -2103    -1952    -1563     -859     -128 
     233      -12     -801    -1772    -2536    -2871    -2521    -1517 
    -544     -130     -201     -683    -1386    -1857    -1937    -1675 
   -1206     -855     -735     -749     -812     -872    -1032    -1290 
   -1413    -1341    -1162    -1086    -1418    -1904    -2070    -2058 
   -2056    -1881    -1526    -1105     -677     -481     -615     -884 
   -1215    -1543    -1790    -2069    -2420    -2678    -2513    -1780 
    -905     -345     -183     -383     -783    -1228    -1684    -2056 
   -2162    -1856    -1340    -1011     -889     -878    -1065    -1356 
   -1518    -1522    -1420    -1318    -1352    -1350    -1174    -1142 
   -1339    -1404    -1178     -900     -850     -942     -892     -801 
    -951    -1269    -1449    -1412    -1412    -1586    -1845    -2089 
   -2128    -2033    -2088    -2034    -1621    -1165     -757     -336 
    -139     -256     -700    -1483    -2161    -2361    -2359    -2420 
   -2407    -2079    -1336     -521      -43      140      -27     -760 
   -1684    -2266    -2385    -2035    -1412     -945     -799     -980 
   -1441    -1849    -1852    -1498    -1020     -525      -66      172 
      13     -557    -1466    -2334    -2637    -2490    -2312    -2096 
   -1809    -1648    -1706    -1814    -1706    -1347     -973     -718 
    -530     -414     -526     -936    -1382    -1583    -1711    -1902 
   -1941    -1857    -1838    -1821    -1764    -1599    -1204     -838 
    -814     -967    -1074    -1057     -877     -706     -684     -675 
    -729    -1046    -1406    -1574    -1733    -1949    -1965    -1711 
   -1431    -1270    -1148    -1151    -1390    -1665    -1755    -1603 
   -1321    -1202    -1350    -1642    -1923    -1848    -1297     -729 
    -529     -625     -724     -702     -920    -1557    -2043    -2074 
   -1972    -1788    -1552    -1544    -1676    -1726    -1617    -1243 
    -818     -619     -645     -934    -1386    -1725    -1873    -1818 
   -1556    -1204     -916     -931    -1317    -1669    -1660    -1431 
   -1144     -838     -757    -1119    -1713    -2153    -2274    -2165 
   -1849    -1270     -688     -341     -133     -216     -745    -1414 
   -1914    -2012    -1633    -1123     -905    -1150    -1678    -2039 
   -2068    -2014    -1907    -1614    -1242     -904     -723     -718 
    -641     -481     -491     -699    -1007    -1302    -1561    -1838 
   -2016    -2080    -2197    -2320    -2311    -2074    -1548     -911 
    -406     -153     -230     -475     -629     -687     -710     -819 
   -1304    -2195    -3051    -3391    -3122    -2502    -1761     -974 
    -237      348      677      518     -148     -936    -1566    -2050 
   -2415    -2574    -2421    -2016    -1578    -1204     -984     -997 
    -997     -878     -994    -1474    -2062    -2454    -2463    -2123 
   -1537     -928     -639     -619     -587     -587     -673     -796 
    -954    -1023    -1096    -1507    -2246    -2901    -3007    -2461 
   -1607     -695      139      533      275     -557    -1692    -2493 
   -2548    -2097    -1489     -953     -689     -750     -969    -1092 
   -1053    -1132    -1572    -2104    -2363    -2365    -2193    -1779 
   -1169     -653     -510     -822    -1389    -1838    -1918    -1663 
   -1375    -1290    -1279    -1260    -1260    -1116     -870     -778 
    -838     -966    -1121    -1270    -1460    -1669    -1795    -1755 
   -1422     -873     -542     -715    -1188    -1628    -1907    -1973 
   -1657     -981     -369     -189     -429     -901    -1435    -1988 
   -2556    -2995    -3060    -2577    -1701     -847     -334     -295 
    -579     -859    -1094    -1264    -1250    -1286    -1517    -1653 
   -1597    -1424    -1254    -1389    -1750    -1949    -1961    -1804 
   -1443    -1125     -934     -714     -499     -302     -174     -338 
    -780    -1317    -1787    -2008    -1993    -1895    -1755    -1582 
   -1406    -1242    -1224    -1433    -1690    -1876    -2058    -2269 
   -2438    -2461    -2276    -1822    -1158     -495      -12      159 
       5     -332     -822    -1394    -1844    -2214    -2363    -1879 
   -1123     -812     -915    -1162    -1385    -1383    -1189     -862 
    -378      -27     -157     -676    -1237    -1759    -2338    -2793 
   -2847    -2475    -1780     -970     -305       62        4     -427 
   -1005    -1634    -2223    -2646    -2960    -3021    -2529    -1661 
    -869     -454     -467     -673     -938    -1217    -1323    -1290 
   -1298    -1394    -1609    -1811    -1871    -1853    -1659    -1239 
    -818     -378       17     -125     -827    -1545    -2035    -2172 
   -1765    -1046     -469     -363     -816    -1548    -2181    -2509 
   -2421    -1938    -1273     -712     -427     -513     -950    -1514 
   -2037    -2444    -2485    -2099    -1594    -1038     -425      -76 
     -28      -36     -241     -791    -1510    -2166    -2609    -2821 
   -2775    -2509    -2236    -1887    -1259     -653     -402     -450 
    -683    -1031    -1455    -1898    -2236    -2323    -1995    -1351 
    -706     -220      -36     -318     -934    -1530    -1887    -1944 
