Origin Time       2024/06/23 22:54:00
Lat.              35.645
Long.             140.060
Depth. (km)       72
Mag.              4.1
Station Code      IBR003
Station Lat.      36.5914
Station Long.     140.6453
Station Height(m) 58
Record Time       2024/06/23 22:55:02
Sampling Freq(Hz) 100Hz
Duration Time(s)  60
Dir.              N-S
Scale Factor      7845(gal)/8223790
Max. Acc. (gal)   1.483
Last Correction   2024/06/23 22:55:02
Memo.             
[...]
   -6134    -5962    -5884    -6085    -6367    -6474    -6552    -6571 
   -6303    -5938    -5832    -5914    -5969    -5998    -5953    -5906 
   -6023    -6038    -5832    -5827    -6045    -6150    -6226    -6416 
   -6485    -6343    -6291    -6303    -6087    -5845    -5832    -5950 
   -6173    -6378    -6309    -6137    -6114    -5994    -5697    -5660 
   -5958    -6227    -6373    -6399    -6226    -6070    -6138    -6215 
   -6120    -6018    -6049    -6131    -6156    -6039    -5819    -5823 
   -6126    -6270    -6172    -6303    -6604    -6481    -6070    -5895 
   -5775    -5575    -5652    -5921    -6115    -6343    -6481    -6312 
   -6153    -6200    -6200    -6184    -6246    -6153    -6004    -6045 
   -6079    -6012    -6070    -6230    -6220    -6062    -6075    -6115 
   -5814    -5597    -5876    -6181    -6273    -6318    -6235    -6201 
   -6382    -6363    -6095    -6049    -6139    -6037    -5941    -6077 
   -6184    -6012    -5859    -6023    -6284    -6388    -6308    -6000 
   -5745    -5906    -6178    -6197    -6187    -6269    -6139    -5792 
   -5671    -5869    -6093    -6386    -6670    -6474    -5929    -5645 
   -5718    -5984    -6404    -6623    -6347    -6072    -6242    -6359 
   -5967    -5551    -5714    -6262    -6624    -6602    -6312    -5929 
   -5761    -5926    -6118    -6158    -6126    -6027    -5833    -5611 
   -5547    -5865    -6511    -6953    -6740    -6173    -5877    -5857 
   -5798    -5761    -5788    -5826    -6177    -6729    -6756    -6297 
   -5989    -5867    -5884    -6191    -6409    -6272    -6120    -6029 
   -5841    -5815    -6130    -6485    -6588    -6384    -5989    -5641 
   -5521    -5760    -6292    -6620    -6365    -5940    -5863    -6043 
   -6274    -6377    -6156    -5898    -5818    -5687    -5680    -6138 
   -6650    -6646    -6308    -6039    -5895    -5877    -5888    -5910 
   -6237    -6624    -6585    -6358    -6197    -5941    -5741    -5836 
   -5918    -5814    -5949    -6282    -6258    -6118    -6301    -6434 
   -6324    -6316    -6299    -6008    -5745    -5729    -5741    -5760 
   -5923    -6104    -6219    -6347    -6385    -6234    -6042    -5996 
   -6134    -6297    -6340    -6322    -6304    -6274    -6150    -5879 
   -5764    -6030    -6246    -6100    -5953    -5935    -5857    -6008 
   -6370    -6282    -5914    -5877    -6011    -6138    -6327    -6384 
   -6237    -6129    -6166    -6210    -6131    -5950    -5778    -5709 
   -5832    -6215    -6585    -6523    -6160    -5887    -5798    -5942 
   -6274    -6427    -6305    -6237    -6250    -6093    -5922    -5965 
   -6062    -6187    -6332    -6127    -5690    -5641    -5987    -6320 
   -6435    -6207    -5784    -5648    -5903    -6169    -6251    -6218 
   -6197    -6453    -6777    -6627    -6197    -5907    -5679    -5583 
   -5838    -6230    -6466    -6516    -6291    -5784    -5482    -5733 
   -6199    -6407    -6272    -5983    -5818    -5903    -6080    -6311 
   -6644    -6696    -6241    -5772    -5620    -5672    -5930    -6304 
   -6471    -6276    -5980    -5950    -6119    -6268    -6313    -6146 
   -5846    -5764    -6014    -6305    -6400    -6381    -6308    -6146 
   -6106    -6300    -6359    -6023    -5551    -5329    -5524    -5952 
   -6277    -6426    -6475    -6339    -5989    -5765    -5975    -6330 
   -6332    -6100    -6093    -6347    -6555    -6489    -6133    -5729 
   -5647    -5952    -6309    -6361    -6131    -5933    -5884    -5850 
   -5869    -6154    -6605    -6729    -6332    -5814    -5544    -5566 
   -5877    -6291    -6432    -6334    -6226    -6026    -5903    -6134 
   -6372    -6231    -5907    -5846    -6096    -6151    -5876    -5806 
   -6153    -6575    -6825    -6759    -6296    -5802    -5675    -5734 
   -5800    -5958    -6062    -6057    -6083    -6000    -5811    -5923 
   -6319    -6489    -6419    -6324    -6058    -5877    -6161    -6466 
   -6413    -6303    -6276    -6170    -5969    -5707    -5582    -5860 
   -6174    -6034    -5776    -5860    -6061    -6126    -6205    -6313 
   -6346    -6378    -6324    -6091    -5989    -6172    -6277    -6189 
   -6203    -6300    -6197    -5895    -5647    -5633    -5790    -5994 
   -6241    -6424    -6381    -6220    -6119    -6137    -6332    -6561 
   -6528    -6174    -5702    -5402    -5502    -5965    -6381    -6401 
   -6226    -6173    -6153    -6075    -6081    -6118    -6008    -5941 
   -6134    -6359    -6343    -6220    -6149    -5984    -5791    -5904 
   -6274    -6500    -6384    -6041    -5699    -5575    -5694    -5864 
   -6025    -6269    -6442    -6273    -5886    -5788    -6183    -6561 
   -6593    -6540    -6320    -5852    -5764    -6135    -6258    -6143 
   -6195    -6170    -5967    -5944    -5984    -5910    -6081    -6386 
   -6299    -6099    -6243    -6394    -6261    -6052    -5832    -5672 
   -5806    -5968    -5840    -5871    -6226    -6313    -6172    -6201 
   -6100    -5787    -5795    -6149    -6367    -6365    -6374    -6444 
   -6438    -6305    -6178    -6122    -6003    -5884    -5908    -5972 
   -6056    -6207    -6255    -6178    -6080    -5917    -5784    -5842 
   -5987    -6143    -6362    -6527    -6454    -6211    -6027    -5883 
   -5663    -5628    -5929    -6177    -6259    -6405    -6400    -6122 
   -6042    -6305    -6427    -6223    -6007    -5995    -6107    -6139 
   -6092    -6093    -5960    -5691    -5798    -6214    -6231    -5868 
   -5760    -6026    -6381    -6629    -6575    -6208    -5859    -5734 
   -5764    -5952    -6262    -6413    -6349    -6316    -6277    -6102 
   -6029    -6147    -6168    -6033    -6007    -6099    -6066    -5940 
   -5864    -5845    -6027    -6439    -6615    -6362    -6018    -5672 
   -5468    -5848    -6444    -6501    -6254    -6139    -6023    -5948 
   -6087    -6277    -6394    -6376    -6118    -5871    -5899    -5985 
   -6034    -6276    -6484    -6216    -5859    -5949    -6083    -5965 
   -5935    -5975    -5971    -6062    -6137    -6178    -6303    -6285 
   -6154    -6216    -6222    -5971    -5860    -5900    -5906    -6196 
   -6574    -6455    -6227    -6370    -6384    -6034    -5817    -5814 
   -5853    -6070    -6286    -6168    -5948    -5881    -5829    -5763 
   -5850    -6023    -6158    -6370    -6569    -6552    -6412    -6195 
   -6003    -6112    -6304    -6189    -5977    -5923    -5845    -5730 
   -5854    -6154    -6326    -6268    -6073    -5935    -5922    -5998 
   -6242    -6477    -6349    -6126    -6201    -6313    -6214    -6089 
   -5957    -5779    -5806    -6076    -6334    -6376    -6093    -5830 
   -6025    -6272    -6077    -5786    -5805    -6014    -6253    -6451 
   -6419    -6227    -6111    -6033    -5979    -6003    -5958    -5895 
   -6065    -6281    -6265    -6201    -6187    -6141    -6203    -6308 
   -6232    -6131    -6096    -6014    -6030    -6183    -6207    -6012 
   -5791    -5765    -5946    -6174    -6238    -6015    -5780    -5848 
   -6029    -6100    -6232    -6525    -6637    -6318    -5988    -6065 
   -6291    -6408    -6407    -6091    -5587    -5444    -5798    -6342 
   -6682    -6516    -6102    -5996    -6069    -5930    -5827    -5891 
   -5800    -5740    -6060    -6380    -6291    -6108    -6139    -6178 
   -6127    -6196    -6280    -6187    -6172    -6249    -6265    -6427 
   -6421    -5892    -5464    -5491    -5624    -5927    -6454    -6627 
   -6285    -6027    -6079    -6162    -6273    -6409    -6349    -6170 
   -6073    -5979    -5845    -5806    -5934    -6049    -6000    -6033 
   -6288    -6489    -6430    -6222    -6061    -5923    -5755    -5748 
   -6025    -6478    -6739    -6465    -5985    -5640    -5321    -5320 
   -5946    -6697    -6916    -6569    -6120    -6014    -6210    -6346 
   -6276    -6087    -5902    -5778    -5656    -5706    -6119    -6484 
   -6478    -6342    -6095    -5736    -5682    -6039    -6411    -6536 
   -6399    -6052    -5792    -5915    -6165    -6092    -5764    -5579 
   -5767    -6151    -6238    -6000    -6077    -6478    -6671    -6706 
   -6651    -6346    -6076    -6003    -5910    -5879    -6019    -6116 
   -6034    -5837    -5653    -5702    -5976    -6096    -6064    -6214 
   -6403    -6369    -6231    -6151    -6107    -6150    -6419    -6650 
   -6477    -6126    -5937    -5810    -5655    -5540    -5424    -5431 
   -5768    -6208    -6513    -6783    -6851    -6497    -6192    -6276 
   -6262    -5981    -5890    -6010    -6122    -6320    -6416    -6100 
   -5751    -5796    -6060    -6218    -6089    -5721    -5533    -5722 
   -5881    -5907    -6226    -6706    -6790    -6508    -6161    -5871 
   -5841    -6035    -6096    -6019    -6052    -6166    -6259    -6361 
   -6474    -6596    -6608    -6270    -5644    -5134    -5229    -5953 
   -6555    -6546    -6367    -6454    -6478    -6156    -5895    -5890 
   -5859    -5786    -5678    -5537    -5590    -5896    -6403    -6843 
   -6704    -6114    -5759    -5867    -6118    -6195    -6181    -6300 
   -6428    -6463    -6567    -6604    -6259    -5734    -5481    -5583 
   -5845    -6000    -6041    -6261    -6512    -6554    -6678    -6754 
   -6365    -5837    -5586    -5553    -5510    -5321    -5256    -5597 
   -6026    -6286    -6513    -6539    -6241    -6031    -6018    -6060 
   -6350    -6729    -6775    -6615    -6515    -6535    -6515    -6153 
   -5703    -5641    -5698    -5530    -5413    -5583    -5992    -6485 
   -6654    -6350    -6065    -6034    -6065    -6146    -6207    -6085 
   -5971    -5998    -6084    -6277    -6455    -6405    -6293    -6161 
   -5769    -5290    -5235    -5621    -5998    -6350    -6814    -6988 
   -6682    -6311    -6073    -5954    -6147    -6519    -6467    -5964 
   -5578    -5454    -5485    -5751    -6080    -6205    -6232    -6195 
   -5960    -5768    -5902    -6218    -6596    -6945    -6967    -6662 
   -6299    -5931    -5651    -5578    -5652    -5832    -5950    -5769 
   -5535    -5667    -6062    -6498    -6913    -6970    -6454    -5865 
   -5746    -5991    -6291    -6558    -6586    -6258    -6065    -6258 
   -6355    -6106    -5707    -5374    -5197    -5163    -5370    -5834 
   -6200    -6407    -6683    -6745    -6369    -6077    -6278    -6567 
   -6539    -6350    -6161    -6096    -6274    -6307    -5989    -5740 
   -5606    -5435    -5509    -5930    -6332    -6555    -6748    -6764 
   -6362    -5960    -5941    -6042    -6161    -6447    -6563    -6099 
   -5449    -5251    -5440    -5765    -6180    -6370    -6058    -5593 
   -5590    -6129    -6729    -7076    -7051    -6578    -6027    -5919 
   -6111    -6126    -5984    -5940    -5981    -6002    -5918    -5661 
   -5378    -5449    -5921    -6327    -6471    -6504    -6401    -6185 
   -6111    -6261    -6362    -6273    -6272    -6405    -6277    -5933 
   -5941    -6355    -6605    -6513    -6388    -6199    -5840    -5597 
   -5667    -5902    -5942    -5543    -5111    -5229    -5823    -6440 
   -6694    -6440    -6116    -6154    -6269    -6187    -6199    -6485 
   -6806    -6921    -6799    -6493    -6056    -5657    -5455    -5436 
   -5582    -5699    -5583    -5683    -6243    -6535    -6421    -6462 
   -6377    -5911    -5595    -5593    -5788    -6305    -6772    -6562 
   -5956    -5656    -5705    -5935    -6308    -6569    -6612    -6615 
   -6682    -6783    -6741    -6500    -6251    -6097    -6030    -5984 
   -5802    -5498    -5256    -5081    -4911    -4909    -5111    -5454 
   -6099    -6799    -6982    -6843    -6943    -7168    -7130    -6902 
   -6690    -6343    -5846    -5524    -5373    -5274    -5449    -5846 
   -6054    -5960    -5742    -5713    -6084    -6465    -6513    -6636 
   -6995    -7098    -6870    -6650    -6373    -5962    -5629    -5344 
   -5148    -5258    -5499    -5663    -5683    -5568    -5784    -6539 
   -7117    -6975    -6389    -5884    -5969    -6486    -6671    -6444 
   -6172    -5903    -5865    -6093    -6087    -5772    -5499    -5435 
   -5629    -5895    -5994    -6146    -6482    -6673    -6744    -6889 
   -6775    -6413    -6192    -6025    -5908    -5991    -6072    -5991 
   -5753    -5595    -5872    -6235    -6151    -5881    -5718    -5719 
   -6043    -6332    -6234    -6211    -6377    -6187    -5857    -6018 
   -6496    -6836    -6785    -6246    -5621    -5371    -5525    -6022 
   -6469    -6220    -5684    -5678    -5825    -5746    -6010    -6582 
   -6663    -6346    -6330    -6516    -6467    -6075    -5674    -5845 
   -6264    -6192    -5895    -5753    -5664    -5752    -6085    -6513 
   -6777    -6498    -5960    -5908    -6228    -6245    -5992    -5987 
   -6180    -6088    -5748    -5652    -5887    -6138    -6319    -6494 
   -6520    -6327    -6193    -6288    -6480    -6570    -6353    -6041 
   -5987    -5810    -5416    -5603    -6307    -6477    -5933    -5458 
   -5464    -5651    -5837    -6311    -6843    -6689    -6072    -5859 
   -6212    -6733    -6944    -6651    -6138    -5634    -5227    -5262 
   -5741    -6135    -6216    -6126    -6058    -6146    -6102    -5728 
   -5657    -6251    -6798    -6860    -6712    -6366    -5823    -5643 
   -6022    -6347    -6309    -6181    -6030    -5946    -6242    -6633 
   -6471    -5765    -5023    -4749    -5335    -6454    -7281    -7570 
   -7326    -6482    -5591    -5206    -5046    -4961    -5325    -5923 
   -6188    -6246    -6351    -6269    -6011    -6073    -6484    -6651 
   -6469    -6435    -6743    -7044    -6868    -6351    -6259    -6601 
   -6492    -5687    -4842    -4553    -4700    -4799    -4951    -5694 
   -6797    -7221    -6685    -6195    -6388    -6814    -7036    -7009 
   -6740    -6355    -6075    -5867    -5672    -5602    -5586    -5570 
   -5597    -5490    -5267    -5297    -5710    -6324    -6897    -7149 
   -6998    -6659    -6353    -6208    -6304    -6471    -6424    -6172 
   -5994    -6054    -6134    -5969    -5718    -5694    -5941    -6077 
   -5795    -5634    -6097    -6686    -6903    -6697    -6050    -5328 
   -5124    -5524    -6173    -6677    -6698    -6158    -5447    -5154 
   -5472    -6038    -6396    -6370    -6111    -5898    -5832    -5962 
   -6303    -6700    -7105    -7249    -6802    -6324    -6409    -6673 
   -6490    -5871    -5404    -5421    -5621    -5745    -5844    -5948 
   -5908    -5632    -5489    -5927    -6467    -6355    -6016    -6035 
   -6026    -5944    -6288    -6845    -6902    -6327    -5659    -5374 
   -5491    -5819    -6195    -6354    -6174    -6129    -6620    -7163 
   -7103    -6623    -6307    -6095    -5740    -5752    -6237    -6291 
   -5776    -5487    -5551    -5497    -5219    -5098    -5432    -5971 
   -6353    -6540    -6581    -6454    -6446    -6867    -7087    -6582 
   -6108    -6048    -5910    -5753    -5880    -6103    -6268    -6367 
   -6141    -5663    -5444    -5481    -5683    -6215    -6662    -6648 
   -6523    -6448    -6115    -5568    -5452    -5910    -6170    -6008 
   -6012    -6212    -6170    -6008    -6112    -6255    -6012    -5687 
   -5957    -6787    -7326    -7150    -6783    -6413    -5778    -5360 
   -5598    -5846    -5752    -5749    -5840    -5786    -5637    -5445 
   -5595    -6424    -7229    -7165    -6404    -5641    -5478    -6075 
   -6866    -7125    -6725    -6022    -5547    -5564    -5690    -5629 
   -5602    -5746    -6008    -6169    -5976    -5757    -6049    -6597 
   -6805    -6673    -6588    -6704    -6733    -6357    -5852    -5718 
   -5829    -5767    -5549    -5425    -5476    -5570    -5668    -5908 
   -6200    -6426    -6704    -6913    -6729    -6316    -6234    -6583 
   -6947    -6984    -6700    -6304    -5775    -5035    -4648    -4950 
   -5173    -4961    -5086    -5860    -6650    -6840    -6500    -6355 
   -6687    -6818    -6536    -6660    -7334    -7535    -6851    -5973 
   -5443    -5171    -5007    -5157    -5778    -6415    -6442    -5937 
   -5537    -5606    -5946    -6154    -6246    -6462    -6498    -6149 
   -6056    -6486    -6750    -6575    -6253    -5675    -4914    -4622 
   -5012    -5674    -6396    -7173    -7578    -7204    -6655    -6590 
   -6461    -5921    -5505    -5479    -5967    -6813    -7036    -6126 
   -4993    -4692    -5227    -6008    -6453    -6185    -5672    -5697 
   -6246    -6826    -6920    -6330    -5768    -6027    -6577    -6374 
   -5814    -5877    -6145    -6041    -6019    -6239    -6390    -6336 
   -6084    -5992    -6278    -6539    -6555    -6378    -5868    -5375 
   -5535    -6073    -6353    -6261    -5948    -5748    -5845    -5827 
   -5640    -5892    -6361    -6181    -5643    -5683    -6300    -6878 
   -7068    -6855    -6466    -6023    -5443    -5098    -5514    -6409 
   -6986    -6743    -6091    -5879    -6064    -6162    -6165    -5906 
   -5381    -5389    -6177    -6885    -6995    -6713    -6255    -5833 
   -5638    -5753    -6199    -6628    -6443    -5656    -5003    -4978 
   -5375    -5925    -6480    -6729    -6689    -6712    -6733    -6455 
   -5995    -5792    -5962    -6237    -6417    -6408    -6323    -6459 
   -6496    -5883    -5085    -4873    -5177    -5699    -6262    -6515 
   -6529    -6660    -6678    -6416    -6211    -6157    -6022    -5746 
   -5684    -6162    -6632    -6389    -5856    -5611    -5474    -5395 
   -5616    -6168    -6902    -7327    -7075    -6466    -5834    -5366 
   -5470    -6030    -6442    -6639    -6702    -6486    -6131    -5593 
   -4801    -4591    -5390    -6230    -6585    -6890    -7049    -6744 
   -6241    -5767    -5501    -5665    -6026    -6322    -6581    -6597 
   -6332    -6207    -6293    -6251    -5972    -5718    -5840    -6216 
   -6215    -5768    -5630    -6016    -6180    -5768    -5458    -5755 
   -6299    -6750    -7001    -6821    -6304    -5896    -5817    -5989 
   -6227    -6264    -6135    -6075    -5933    -5759    -5958    -6139 
   -5803    -5513    -5734    -6173    -6513    -6659    -6694    -6725 
   -6616    -6218    -5768    -5663    -5802    -5732    -5470    -5466 
   -5837    -6183    -6254    -6351    -6671    -6871    -6632    -6228 
   -6161    -6404    -6480    -6174    -5761    -5544    -5579    -5907 
   -6253    -6062    -5580    -5545    -5877    -6022    -5952    -6079 
   -6467    -6673    -6517    -6214    -5991    -6164    -6527    -6450 
   -6122    -6061    -6127    -6103    -5956    -5682    -5580    -5834 
   -6142    -6353    -6461    -6278    -5962    -5933    -6200    -6386 
   -6147    -5756    -5800    -6025    -5945    -5940    -6289    -6517 
   -6215    -5692    -5651    -6081    -6357    -6513    -6855    -6945 
   -6496    -6031    -5941    -5991    -5863    -5688    -5834    -6049 
   -5881    -5757    -6070    -6327    -6308    -6312    -6204    -5752 
   -5414    -5757    -6385    -6451    -6076    -5918    -5981    -5979 
   -6070    -6427    -6567    -6166    -5880    -6173    -6466    -6239 
   -5856    -5915    -6377    -6674    -6633    -6582    -6403    -5788 
   -5163    -5049    -5364    -5945    -6527    -6597    -6138    -5756 
   -5863    -6214    -6366    -6300    -6214    -6088    -6045    -6326 
   -6548    -6370    -6291    -6396    -6147    -5884    -6134    -6216 
   -5632    -5171    -5387    -5875    -6265    -6411    -6288    -6312 
   -6613    -6536    -5854    -5327    -5458    -5890    -6311    -6772 
   -6983    -6559    -5968    -6006    -6435    -6378    -5877    -5645 
