Origin Time       2024/06/23 22:54:00
Lat.              35.645
Long.             140.060
Depth. (km)       72
Mag.              4.1
Station Code      IBR011
Station Lat.      36.1256
Station Long.     140.0901
Station Height(m) 27
Record Time       2024/06/23 22:54:47
Sampling Freq(Hz) 100Hz
Duration Time(s)  64
Dir.              N-S
Scale Factor      7845(gal)/8223790
Max. Acc. (gal)   1.968
Last Correction   2024/06/23 22:54:47
Memo.             
[...]
   -5456    -5448    -5466    -5493    -5508    -5505    -5495    -5489 
   -5479    -5470    -5467    -5476    -5493    -5501    -5499    -5491 
   -5482    -5472    -5471    -5475    -5487    -5501    -5505    -5499 
   -5483    -5466    -5462    -5475    -5490    -5502    -5510    -5503 
   -5481    -5462    -5460    -5476    -5495    -5509    -5510    -5494 
   -5476    -5472    -5475    -5475    -5482    -5498    -5508    -5501 
   -5483    -5474    -5474    -5478    -5485    -5491    -5498    -5501 
   -5494    -5478    -5466    -5470    -5485    -5494    -5502    -5503 
   -5491    -5476    -5472    -5478    -5483    -5487    -5494    -5494 
   -5486    -5486    -5487    -5486    -5486    -5491    -5497    -5495 
   -5485    -5475    -5478    -5486    -5491    -5497    -5493    -5482 
   -5479    -5483    -5487    -5493    -5497    -5494    -5487    -5483 
   -5482    -5483    -5486    -5485    -5483    -5487    -5491    -5491 
   -5486    -5482    -5485    -5489    -5489    -5490    -5495    -5493 
   -5485    -5479    -5479    -5483    -5490    -5493    -5490    -5487 
   -5482    -5481    -5483    -5486    -5487    -5486    -5485    -5487 
   -5487    -5487    -5491    -5491    -5487    -5485    -5483    -5485 
   -5490    -5489    -5483    -5485    -5490    -5487    -5482    -5490 
   -5494    -5489    -5491    -5493    -5483    -5479    -5485    -5487 
   -5487    -5489    -5490    -5494    -5494    -5485    -5478    -5482 
   -5490    -5493    -5490    -5490    -5494    -5490    -5479    -5476 
   -5486    -5493    -5494    -5489    -5487    -5491    -5485    -5475 
   -5481    -5494    -5498    -5493    -5483    -5478    -5482    -5489 
   -5487    -5487    -5493    -5497    -5491    -5483    -5483    -5489 
   -5486    -5486    -5491    -5493    -5486    -5482    -5483    -5486 
   -5487    -5487    -5487    -5487    -5487    -5486    -5486    -5489 
   -5485    -5478    -5483    -5493    -5497    -5495    -5487    -5478 
   -5481    -5491    -5494    -5493    -5490    -5482    -5478    -5485 
   -5487    -5487    -5490    -5490    -5486    -5486    -5487    -5487 
   -5489    -5490    -5489    -5486    -5483    -5485    -5485    -5482 
   -5483    -5485    -5487    -5491    -5489    -5483    -5485    -5490 
   -5495    -5493    -5482    -5483    -5487    -5485    -5483    -5487 
   -5486    -5483    -5483    -5483    -5486    -5490    -5487    -5483 
   -5482    -5486    -5494    -5495    -5486    -5476    -5481    -5489 
   -5490    -5490    -5490    -5485    -5481    -5487    -5491    -5487 
   -5486    -5483    -5481    -5485    -5489    -5486    -5489    -5489 
   -5485    -5486    -5481    -5478    -5486    -5489    -5487    -5491 
   -5489    -5483    -5487    -5489    -5483    -5483    -5489    -5490 
   -5489    -5487    -5486    -5486    -5487    -5487    -5491    -5493 
   -5489    -5482    -5474    -5472    -5483    -5494    -5498    -5497 
   -5491    -5486    -5483    -5479    -5478    -5479    -5486    -5495 
   -5498    -5491    -5481    -5474    -5475    -5491    -5502    -5497 
   -5486    -5475    -5474    -5485    -5494    -5495    -5491    -5485 
   -5483    -5487    -5482    -5478    -5490    -5498    -5490    -5482 
   -5483    -5486    -5479    -5474    -5482    -5495    -5499    -5490 
   -5475    -5475    -5482    -5475    -5476    -5498    -5506    -5493 
   -5485    -5482    -5476    -5481    -5487    -5486    -5493    -5497 
   -5491    -5485    -5479    -5483    -5490    -5485    -5482    -5485 
   -5494    -5497    -5487    -5483    -5490    -5493    -5482    -5468 
   -5474    -5494    -5498    -5489    -5487    -5490    -5483    -5476 
   -5476    -5489    -5490    -5486    -5497    -5501    -5489    -5482 
   -5483    -5482    -5482    -5490    -5502    -5498    -5483    -5486 
   -5489    -5481    -5478    -5486    -5495    -5497    -5491    -5489 
   -5485    -5476    -5472    -5481    -5494    -5499    -5493    -5486 
   -5483    -5487    -5489    -5490    -5487    -5475    -5475    -5489 
   -5498    -5493    -5486    -5481    -5479    -5487    -5494    -5487 
   -5482    -5487    -5493    -5491    -5486    -5485    -5489    -5486 
   -5481    -5475    -5479    -5493    -5497    -5493    -5489    -5479 
   -5476    -5486    -5497    -5497    -5491    -5485    -5476    -5472 
   -5481    -5497    -5506    -5497    -5481    -5474    -5476    -5485 
   -5490    -5490    -5487    -5486    -5486    -5490    -5493    -5487 
   -5481    -5479    -5483    -5489    -5497    -5501    -5490    -5471 
   -5468    -5478    -5486    -5499    -5508    -5499    -5479    -5463 
   -5464    -5487    -5505    -5508    -5509    -5506    -5481    -5451 
   -5447    -5475    -5506    -5517    -5513    -5502    -5483    -5463 
   -5460    -5481    -5491    -5481    -5475    -5497    -5540    -5553 
   -5489    -5398    -5391    -5481    -5547    -5524    -5476    -5474 
   -5506    -5522    -5485    -5437    -5422    -5464    -5551    -5575 
   -5510    -5474    -5490    -5478    -5428    -5406    -5454    -5513 
   -5552    -5572    -5521    -5422    -5389    -5472    -5557    -5510 
   -5444    -5475    -5560    -5595    -5435    -5267    -5381    -5566 
   -5572    -5502    -5490    -5533    -5516    -5447    -5466    -5530 
   -5509    -5439    -5418    -5439    -5509    -5597    -5537    -5422 
   -5470    -5509    -5421    -5374    -5389    -5483    -5697    -5761 
   -5557    -5355    -5336    -5382    -5373    -5467    -5695    -5733 
   -5598    -5503    -5282    -5050    -5255    -5686    -5787    -5637 
   -5630    -5643    -5362    -5076    -5158    -5509    -5842    -5886 
   -5630    -5314    -5150    -5251    -5510    -5752    -5794    -5568 
   -5354    -5281    -5317    -5421    -5493    -5660    -5769    -5498 
   -5273    -5341    -5347    -5362    -5587    -5786    -5779    -5614 
   -5364    -5178    -5167    -5329    -5613    -5845    -5907    -5737 
   -5282    -4938    -5101    -5420    -5610    -5879    -6002    -5659 
   -5223    -5005    -4922    -5166    -5856    -6323    -6066    -5566 
   -5211    -4931    -4923    -5312    -5800    -6069    -5950    -5555 
   -5119    -4857    -4996    -5390    -5694    -5852    -5833    -5706 
   -5637    -5463    -5150    -5017    -5206    -5536    -5800    -5942 
   -5848    -5458    -5147    -5144    -5189    -5300    -5648    -5859 
   -5718    -5609    -5579    -5436    -5306    -5251    -5273    -5437 
   -5644    -5763    -5753    -5665    -5521    -5267    -5100    -5216 
   -5394    -5549    -5798    -5898    -5698    -5397    -5143    -5039 
   -5197    -5549    -5822    -5802    -5601    -5417    -5352    -5410 
   -5471    -5463    -5389    -5332    -5486    -5741    -5767    -5601 
   -5418    -5220    -5161    -5378    -5686    -5845    -5786    -5580 
   -5367    -5239    -5258    -5424    -5632    -5675    -5510    -5400 
   -5437    -5455    -5464    -5528    -5575    -5562    -5493    -5406 
   -5355    -5378    -5525    -5679    -5599    -5400    -5343    -5350 
   -5364    -5540    -5733    -5718    -5579    -5383    -5229    -5313 
   -5483    -5510    -5529    -5594    -5579    -5524    -5510    -5475 
   -5404    -5389    -5439    -5501    -5564    -5606    -5593    -5502 
   -5410    -5422    -5451    -5439    -5530    -5603    -5483    -5390 
   -5422    -5471    -5536    -5532    -5471    -5498    -5502    -5416 
   -5370    -5428    -5620    -5730    -5514    -5269    -5346    -5526 
   -5516    -5463    -5471    -5410    -5406    -5495    -5509    -5625 
   -5782    -5610    -5282    -5131    -5269    -5624    -5829    -5788 
   -5647    -5373    -5209    -5292    -5333    -5371    -5499    -5564 
   -5656    -5765    -5636    -5360    -5242    -5317    -5459    -5606 
   -5701    -5659    -5559    -5462    -5292    -5154    -5306    -5714 
   -5942    -5756    -5394    -5130    -5139    -5416    -5676    -5718 
   -5559    -5367    -5263    -5263    -5425    -5595    -5634    -5738 
   -5803    -5536    -5189    -5188    -5471    -5655    -5695    -5715 
   -5530    -5236    -5151    -5200    -5296    -5520    -5764    -5788 
   -5625    -5525    -5444    -5316    -5362    -5574    -5748    -5821 
   -5659    -5290    -5080    -5100    -5244    -5589    -5903    -5848 
   -5580    -5304    -5058    -5058    -5414    -5841    -5972    -5799 
   -5522    -5181    -4966    -5166    -5532    -5755    -5856    -5746 
   -5414    -5135    -5142    -5428    -5779    -6012    -6018    -5633 
   -5058    -4854    -5111    -5482    -5849    -6075    -5799    -5248 
   -5019    -5050    -5236    -5678    -5954    -5834    -5617    -5356 
   -5059    -4943    -5186    -5796    -6312    -6127    -5454    -5012 
   -4973    -5147    -5481    -5818    -5984    -5887    -5508    -5100 
   -4876    -4915    -5351    -5971    -6254    -5918    -5260    -4907 
   -5078    -5540    -5931    -5925    -5580    -5186    -4990    -5186 
   -5602    -5860    -5846    -5622    -5329    -5163    -5157    -5246 
   -5470    -5856    -6137    -5941    -5368    -4882    -4727    -4969 
   -5502    -6031    -6336    -6188    -5598    -4996    -4668    -4720 
   -5266    -6031    -6453    -6220    -5483    -4830    -4765    -5092 
   -5418    -5769    -6072    -6064    -5726    -5178    -4781    -4935 
   -5456    -5867    -5899    -5620    -5313    -5215    -5394    -5663 
   -5786    -5761    -5580    -5255    -5057    -5159    -5393    -5536 
   -5564    -5575    -5610    -5601    -5502    -5393    -5341    -5370 
   -5548    -5780    -5784    -5652    -5613    -5447    -5157    -5136 
   -5393    -5721    -5935    -5825    -5498    -5205    -5084    -5223 
   -5486    -5648    -5602    -5470    -5462    -5427    -5289    -5238 
   -5294    -5449    -5618    -5665    -5688    -5763    -5746    -5497 
   -5146    -4996    -5135    -5482    -5873    -6057    -5892    -5512 
   -5243    -5213    -5274    -5406    -5698    -5880    -5734    -5522 
   -5331    -5089    -5076    -5293    -5437    -5513    -5578    -5583 
   -5575    -5653    -5767    -5707    -5462    -5213    -5147    -5382 
   -5694    -5736    -5582    -5474    -5364    -5209    -5174    -5313 
   -5587    -5892    -5923    -5605    -5294    -5244    -5327    -5414 
   -5543    -5616    -5582    -5637    -5719    -5605    -5404    -5216 
   -5082    -5242    -5626    -5827    -5759    -5598    -5364    -5177 
   -5286    -5505    -5513    -5503    -5692    -5861    -5732    -5329 
   -5027    -5111    -5389    -5599    -5684    -5653    -5655    -5724 
   -5598    -5281    -5116    -5189    -5383    -5660    -5840    -5773 
   -5594    -5351    -5071    -5042    -5362    -5782    -6048    -5989 
   -5575    -5101    -4912    -5061    -5428    -5780    -5845    -5728 
   -5641    -5530    -5437    -5440    -5391    -5292    -5397    -5676 
   -5668    -5282    -5092    -5323    -5535    -5530    -5475    -5391 
   -5333    -5451    -5703    -5913    -5942    -5780    -5468    -5138 
   -5040    -5219    -5505    -5742    -5768    -5610    -5462    -5373 
   -5323    -5374    -5549    -5668    -5584    -5433    -5377    -5408 
   -5464    -5544    -5653    -5702    -5640    -5443    -5128    -4962 
   -5196    -5692    -6081    -6048    -5618    -5239    -5147    -5144 
   -5216    -5502    -5802    -5817    -5586    -5397    -5331    -5292 
   -5373    -5493    -5497    -5487    -5397    -5279    -5455    -5807 
   -5954    -5772    -5464    -5258    -5142    -5152    -5343    -5557 
   -5736    -5864    -5817    -5539    -5150    -4923    -5096    -5514 
   -5794    -5806    -5707    -5636    -5545    -5335    -5117    -5115 
   -5368    -5721    -5973    -6037    -5850    -5441    -5043    -4864 
   -4988    -5400    -5844    -6018    -5849    -5454    -5109    -5065 
   -5258    -5524    -5788    -5890    -5740    -5479    -5282    -5263 
   -5386    -5459    -5428    -5482    -5659    -5694    -5526    -5437 
   -5529    -5552    -5364    -5146    -5089    -5271    -5629    -5894 
   -5926    -5791    -5536    -5305    -5227    -5196    -5173    -5317 
   -5599    -5776    -5760    -5628    -5427    -5248    -5239    -5389 
   -5607    -5846    -5972    -5791    -5391    -5121    -5108    -5213 
   -5391    -5633    -5810    -5796    -5589    -5332    -5232    -5296 
   -5300    -5211    -5252    -5448    -5664    -5823    -5821    -5649 
   -5485    -5370    -5281    -5310    -5418    -5505    -5601    -5668 
   -5626    -5470    -5273    -5248    -5444    -5620    -5686    -5738 
   -5760    -5671    -5443    -5158    -5044    -5167    -5379    -5598 
   -5755    -5741    -5544    -5292    -5136    -5125    -5290    -5617 
   -5883    -5886    -5715    -5571    -5490    -5397    -5293    -5238 
   -5294    -5489    -5647    -5668    -5656    -5586    -5482    -5429 
   -5377    -5386    -5501    -5595    -5678    -5795    -5836    -5676 
   -5335    -4958    -4823    -5159    -5745    -6085    -6023    -5683 
   -5323    -5202    -5248    -5302    -5386    -5506    -5614    -5643 
   -5552    -5401    -5281    -5240    -5248    -5239    -5297    -5547 
   -5829    -5884    -5756    -5595    -5393    -5159    -4995    -5058 
   -5463    -5979    -6246    -6177    -5817    -5294    -4912    -4932 
   -5377    -5927    -6200    -6173    -5961    -5540    -5049    -4872 
   -5231    -5803    -6062    -5925    -5610    -5219    -4891    -4900 
   -5228    -5533    -5611    -5485    -5274    -5155    -5200    -5316 
   -5456    -5628    -5652    -5397    -5206    -5387    -5709    -5846 
   -5674    -5208    -4629    -4266    -4396    -4946    -5570    -5925 
   -5715    -4992    -4347    -4356    -5042    -6089    -7105    -7550 
   -6995    -5736    -4668    -4445    -5104    -6197    -7096    -7334 
   -6783    -5846    -5163    -5032    -5514    -6361    -6875    -6567 
   -5618    -4644    -4201    -4455    -5104    -5589    -5609    -5259 
   -4662    -4128    -4191    -4954    -5938    -6632    -6744    -6250 
   -5456    -4760    -4391    -4518    -5174    -5894    -6161    -5973 
   -5474    -4808    -4334    -4374    -4950    -5676    -6079    -6052 
   -5636    -5070    -4874    -5173    -5692    -6254    -6615    -6582 
   -6245    -5664    -4999    -4762    -5185    -5738    -5898    -5692 
   -5381    -5116    -4931    -4927    -5184    -5524    -5694    -5489 
   -4974    -4650    -4820    -5335    -5952    -6388    -6513    -6373 
   -6052    -5776    -5694    -5695    -5633    -5420    -5090    -4772 
   -4611    -4734    -5132    -5738    -6313    -6471    -6242    -5883 
   -5432    -5130    -5209    -5429    -5582    -5701    -5726    -5548 
   -5248    -5080    -5192    -5428    -5393    -5008    -4668    -4611 
   -4814    -5150    -5386    -5518    -5568    -5370    -5146    -5273 
   -5668    -6068    -6291    -6116    -5559    -5107    -5179    -5621 
   -6095    -6409    -6451    -6174    -5633    -5031    -4707    -4915 
   -5509    -6011    -6157    -5991    -5566    -5092    -4935    -5173 
   -5563    -5842    -5907    -5772    -5547    -5335    -5063    -4847 
   -5086    -5691    -6097    -6122    -5948    -5697    -5429    -5236 
   -5194    -5333    -5613    -5961    -6211    -6099    -5678    -5301 
   -4961    -4545    -4394    -4656    -5020    -5250    -5155    -4777 
   -4579    -4789    -5216    -5698    -5977    -5768    -5293    -5031 
   -5103    -5371    -5815    -6366    -6594    -6178    -5433    -4947 
   -5003    -5483    -6165    -6720    -6756    -6289    -5579    -4834 
   -4550    -4996    -5706    -6177    -6266    -6030    -5620    -5094 
   -4492    -4183    -4537    -5265    -5867    -6272    -6407    -6106 
   -5584    -5233    -5188    -5385    -5699    -5881    -5676    -5225 
   -4918    -4927    -5332    -5972    -6347    -6180    -5670    -5179 
   -5008    -5359    -6070    -6489    -6259    -5591    -4750    -4194 
   -4307    -4808    -5246    -5418    -5279    -5009    -4896    -5120 
   -5653    -6095    -6053    -5625    -5089    -4681    -4739    -5254 
   -5738    -5933    -5926    -5767    -5591    -5647    -5880    -6111 
   -6245    -6093    -5617    -5003    -4542    -4614    -5233    -5983 
   -6520    -6596    -6112    -5427    -5008    -4954    -5144    -5427 
   -5647    -5746    -5601    -5161    -4908    -5196    -5641    -5935 
   -6100    -6030    -5705    -5382    -5355    -5556    -5617    -5478 
   -5247    -4923    -4669    -4688    -5011    -5425    -5560    -5379 
   -4990    -4540    -4482    -4891    -5427    -5973    -6349    -6326 
   -5960    -5462    -5231    -5545    -6174    -6643    -6644    -6232 
   -5653    -5121    -4835    -4903    -5269    -5744    -6033    -6014 
   -5863    -5695    -5440    -5146    -4949    -4827    -4834    -5098 
   -5413    -5529    -5568    -5701    -5961    -6285    -6388    -6069 
   -5497    -4903    -4456    -4372    -4738    -5381    -5983    -6168 
   -5746    -4943    -4190    -3979    -4762    -6192    -7207    -7276 
   -6604    -5513    -4521    -4229    -4735    -5641    -6389    -6430 
   -5806    -5246    -5082    -5111    -5387    -5883    -6097    -5784 
   -5185    -4637    -4407    -4644    -5221    -5772    -6077    -6149 
   -6021    -5786    -5647    -5752    -6091    -6501    -6615    -6057 
   -4959    -3915    -3510    -4020    -5082    -5896    -6099    -5788 
   -5084    -4363    -4217    -4800    -5707    -6417    -6691    -6613 
   -6258    -5637    -5044    -4919    -5274    -5809    -6285    -6424 
   -6042    -5374    -4889    -4953    -5391    -5701    -5787    -5753 
   -5528    -5259    -5212    -5360    -5574    -5799    -5913    -5733 
   -5300    -4908    -4745    -4803    -4981    -5094    -5066    -4981 
   -4915    -5009    -5337    -5756    -6112    -6237    -6042    -5718 
   -5444    -5321    -5489    -5887    -6273    -6485    -6389    -5935 
   -5406    -5067    -4893    -4962    -5343    -5813    -6191    -6424 
   -6454    -6189    -5567    -4842    -4396    -4267    -4417    -4864 
   -5300    -5382    -5188    -4959    -4838    -5004    -5462    -5922 
   -6223    -6300    -6039    -5643    -5394    -5283    -5269    -5383 
   -5559    -5725    -5887    -6026    -6119    -6118    -5902    -5521 
   -5236    -5200    -5296    -5224    -4908    -4760    -5070    -5522 
   -5745    -5648    -5298    -4954    -4876    -5134    -5660    -6238 
   -6678    -6845    -6494    -5640    -4723    -4133    -4063    -4495 
   -5084    -5625    -6227    -6685    -6644    -6297    -5969    -5707 
   -5582    -5560    -5391    -5089    -4874    -4793    -4851    -5001 
   -5107    -5263    -5637    -6034    -6134    -5864    -5421    -5080 
   -4930    -4938    -5104    -5355    -5556    -5668    -5682    -5571 
   -5416    -5331    -5323    -5352    -5431    -5614    -5859    -6003 
   -5994    -5894    -5718    -5464    -5233    -5204    -5351    -5467 
   -5463    -5354    -5170    -5054    -5150    -5437    -5815    -6195 
   -6423    -6339    -5918    -5250    -4599    -4310    -4534    -5152 
   -5852    -6521    -7082    -7028    -6185    -5120    -4332    -4033 
   -4263    -4712    -5120    -5590    -6070    -6199    -5941    -5715 
   -5719    -5751    -5643    -5418    -5185    -5088    -5182    -5297 
   -5224    -5042    -4977    -5104    -5397    -5821    -6243    -6434 
   -6164    -5470    -4733    -4306    -4347    -4905    -5737    -6373 
   -6544    -6243    -5649    -5107    -4909    -5057    -5378    -5745 
   -6004    -6033    -5888    -5659    -5491    -5490    -5460    -5263 
