Origin Time       2024/06/23 22:54:00
Lat.              35.645
Long.             140.060
Depth. (km)       72
Mag.              4.1
Station Code      IBR003
Station Lat.      36.5914
Station Long.     140.6453
Station Height(m) 58
Record Time       2024/06/23 22:55:02
Sampling Freq(Hz) 100Hz
Duration Time(s)  60
Dir.              E-W
Scale Factor      7845(gal)/8223790
Max. Acc. (gal)   1.851
Last Correction   2024/06/23 22:55:02
Memo.             
[...]
     214      298      469      583      429      186      163      405 
     695      880      889      691      475      383      333      190 
     -48      -54      233      432      473      475      456      552 
     722      672      363      178      407      882     1170      877 
     248      -58      -35       71      328      553      533      525 
     557      249     -140      -27      340      587      827      839 
     508      383      518      513      550      688      550      333 
     380      369      117        6      114      193      382      747 
     878      689      554      643      750      607      314      159 
     168      237      297      286      248      306      384      274 
     148      378      777      916      800      618      387      299 
     606      945      789      292     -140     -337     -232       79 
     355      488      510      508      637      869      870      607 
     535      712      726      554      457      395      294      318 
     378      174      -86       13      325      450      348      241 
     340      643      872      781      533      430      511      598 
     610      638      600      303        6      -21      -99     -210 
     114      562      691      878     1115      869      414      291 
     418      723     1084      927      197     -338     -325     -135 
      32      190      317      568      766      548      390      761 
    1078      920      676      630      693      673      330     -197 
    -413     -256     -105       -4      238      530      648      598 
     629      882     1124     1182     1070      745      249     -179 
    -180      203      414      313      211      209      280      380 
     388      384      542      668      581      514      530      564 
     673      679      484      292      114      -67        9      371 
     637      693      712      626      434      349      361      402 
     521      616      561      467      356      159      101      288 
     373      253      330      658      807      669      459      265 
     172      275      488      591      531      507      579      588 
     480      313      241      375      445      328      363      440 
     255      182      398      544      673      878      810      523 
     405      340      230      298      351      220      280      415 
     180      -28      194      414      525      872     1098      868 
     564      336      243      508      695      442      247      305 
     305      271      284      187      174      383      364      157 
     252      503      750     1048     1028      571      193      153 
     348      695      915      726      380      193       17     -152 
      40      473      668      702      630      228      -68       90 
     292      507      846      841      499      402      507      417 
     290      403      538      448      298      348      530      511 
     330      328      465      592      730      807      730      480 
     157       33      141      166       64      145      379      511 
     615      781      838      707      479      279      359      695 
     753      456      328      290       82       45      160      108 
     145      383      496      518      598      664      760      830 
     638      388      427      564      557      507      395      184 
     133      336      471      348      220      247      292      409 
     594      487      216      307      607      793      976      961 
     437     -140     -128      224      429      603      754      670 
     550      506      326      167      283      423      352      162 
      -8      120      591      868      711      504      410      351 
     469      761      739      299      149      398      467      558 
     768      436      -51      148      525      558      642      733 
     450        4     -191       72      622      905      768      579 
     409      203      205      413      569      550      365      251 
     345      459      508      546      606      650      541      278 
      41       39      332      622      688      707      699      445 
      93        4      162      375      642      935     1031      761 
     259     -128     -114      203      376      314      471      851 
     814      263     -133      -83      248      756     1102      965 
     599      436      569      807      819      502      224      170 
      74       85      353      382      106      -18       74      383 
     839     1051      869      400     -172     -348       89      646 
     986     1081      757      157     -106      176      576      735 
     691      490      264      346      714      911      742      427 
     159      105      284      325      211      286      315      175 
     303      592      511      282      328      355      311      622 
     957      881      811      834      491      -13     -144      112 
     544      854      634       87     -120      -54     -121       -6 
     523     1035     1289     1305      997      565      334      271 
     363      600      550       25     -480     -560     -209      398 
     873      993      859      533      241      260      390      441 
     499      576      683      873      951      719      446      330 
     244      218      195       98       97      160      245      454 
     724      909      816      442       82     -118      -74      325 
     789      842      486      118       39      267      568      781 
     943      868      430      112      272      585      758      849 
     835      627      280       49       21     -110     -255        2 
     441      676      777      789      662      460      220       43 
     124      434      816     1116     1057      564       -2     -276 
    -159      193      421      481      635      730      537      274 
     213      452      864     1084      926      546      149      -45 
     253      807      899      569      336      163      -27     -137 
    -221     -243      -43      405      837     1024     1080     1034 
     730      260      -35       89      504      795      766      585 
     390      278      423      787      907      463     -166     -515 
    -445      232     1158     1394      872      245      -70      225 
     789      777      463      568      695      450      162     -140 
    -400     -225      299      765      961      737      224      -10 
     230      538      826     1182     1134      691      556      545 
     198       16      163       40     -135      203      638      772 
     757      534      287      444      685      622      533      502 
     378      345      356      213      214      388      291       49 
      68      141       31       94      591     1119     1267     1171 
    1058      822      326     -125      -75      291      450      346 
      66     -276     -225      340      818      707      345      263 
     414      778     1358     1557     1082      406      -86     -207 
      -8      108      163      387      487      386      417      432 
     257      340      756      837      560      643      912      692 
     243       67      126      315      530      710      799      496 
      28      117      639      855      519        9     -179      -29 
     140      261      278       40      -85      340      994     1348 
    1285      881      444      337      311      124      237      648 
     702      477      511      630      521      546      691      306 
    -274     -346     -247      -86      564     1152      986      441 
     -27     -160      211      653      830     1023     1233     1084 
     710      606      507      -72     -600     -534     -172      213 
     452      488      656     1032     1181      904      602      522 
     452      388      415      388      379      587      853      811 
     410       51      -40     -160     -364     -256       59      172 
     267      627      954      828      367       87      256      630 
     973     1237     1120      599      287      353      498      723 
     842      456     -155     -321       60      581      761      314 
    -368     -540      -78      603     1127     1232      864      255 
    -260     -365       83      724     1067     1147     1233     1348 
    1327     1097      877      738      437       43     -315     -693 
    -857     -700     -530     -348       -1      229      151        1 
     133      662     1246     1584     1802     1860     1732     1661 
    1332      463     -205     -311     -305      -97      342      371 
    -102     -415     -222      183      445      463      279      118 
     291      729      970      865      739      765      654      189 
    -206     -121      149      340      580      876     1127     1128 
     614     -110     -400     -238      130      677     1015      827 
     529      454      503      673      904      845      365     -110 
    -149      174      588      924     1008      773      483      363 
     306      176       41       58      225      283      101      -90 
     -35      291      573      399       78      267      762      955 
     815      677      749      877      796      540      306      237 
     430      757      838      515      117        0       14      -58 
      99      584      808      730      834      739      -74     -838 
    -627      263     1107     1539     1422      992      510     -114 
    -562     -324      292      774      981      634     -190     -591 
    -247      176      540     1036     1150      793      795     1169 
    1279     1171      861      315      224      688      697       13 
    -540     -654     -438       94      407      113     -207      -78 
     221      619     1381     1977     1667      777       90      -78 
     132      368      414      430      623      756      627      456 
     260       25       83      465      720      589      415      553 
     627      141     -567     -742     -247      476     1061     1316 
    1166      747      311       97      309      864     1142      710 
      94     -118      -27      128      120      -72     -114       54 
     206      526     1044     1174      891      800      926      940 
     760      612      784      885      488      129      102     -139 
    -507     -307      253      425      333      406      418      318 
     305      155       12      344      942     1316     1239      911 
     749      621      280       55      195      457      544      475 
     291      -64     -282        9      560      959     1154      967 
     213     -472     -373      175      588      845     1042      996 
     660      260        4      186      727      834      419      252 
     319      280      380      569      538      392      241      117 
     148      311      413      322      319      677     1154     1466 
    1290      502     -260     -615     -745     -510      135      796 
    1378     1848     1696      849        6     -349     -264      -62 
      -5      128      525      820      804      726      565      148 
     -87       71      191      480     1212     1476      689     -228 
    -457     -322     -103      352      865      981      494     -194 
    -342      144      722     1182     1576     1534     1001      607 
     494      341      413      816      737      -89     -654     -573 
    -452     -230      353      735      679      650      707      599 
     465      449      542      727      685      363      318      487 
     437      468      503       91     -157      271      670      577 
     445      522      670      897     1117     1171     1080      773 
     187     -378     -572     -445     -163      260      604      533 
     178     -149     -399     -256      523     1422     1907     2002 
    1728      926      -64     -541     -364      118      545      584 
     174     -314     -378      -13      346      585      758      818 
     900     1050     1031     1030     1287     1202      453     -278 
    -572     -438       76      467      394      261      190      -40 
    -105      144      328      639     1348     1687     1017      -28 
    -486     -284       76      490     1003     1200      831      384 
     406      764      842      390     -163     -400     -284      209 
     976     1441     1200      546     -109     -508     -417      126 
     801     1177     1054      653      234       25      201      476 
     406       97      -82      -40      301      723      589      153 
     437     1316     1795     1644     1123      342     -329     -446 
    -193       97      564      984      706       -6     -372     -264 
      70      286      180      216      639      873      908     1102 
     815       64      -87      130      183      642     1283     1081 
     240     -238       16      672      990      738      634      753 
     387      -97       87      506      703     1063     1273      688 
    -132     -538     -743     -727     -194      608     1140     1067 
     552      135       68      371      858      926      550      525 
     932     1090      808      456      236       36     -209     -176 
     387      892      720      294      255      631     1024      919 
     265     -353     -322      387     1148     1302      735     -182 
    -862    -1023     -828     -160     1136     2315     2370     1441 
     526       37     -352     -710     -602      156      999     1391 
    1436     1124      303     -548     -749     -334      372     1240 
    1780     1526      843      357      211      124      -87     -249 
    -260     -179       60      324      338      314      522      799 
     939      810      550      648      957      807      442      437 
     519      507      562      319     -265     -392       99      481 
     530      550      561      432      193      120      554     1148 
    1102      607      392      275      -37     -171       45      456 
     892      900      226     -445     -432       89      788     1367 
    1375     1013      781      475      130      253      565      627 
     587      510      421      488      503      175     -149     -172 
     -87      201      718      880      611      407      253        1 
    -205     -252        9      591     1112     1337     1294      842 
     203      -25       24      159      776     1506     1479      889 
     426      -13     -695     -982     -328      610     1019     1030 
     981      664       75     -201       66      481      675      621 
     367      -56     -187      325      877      938      720      491 
     406      553      874     1107      780       95      -10      419 
     441      141      216      360      220      159      234      309 
     437      410      292      402      429      247      315      625 
     818      872      905      928      781      367      -48     -216 
     -74      364      804      932      666       85     -283       44 
     684      984      816      525      514      635      410       89 
     166      252       58       82      436      727      886      777 
     170     -378     -174      549     1163     1244      814      427 
     417      558      600      500      364      291      276      294 
     206     -117     -229      232      683      714      585      445 
     353      319      271      341      564      718      737      677 
     372     -157     -234      487     1193     1237     1020      858 
     544      195      276      631      723      540      329      270 
     330       28     -691    -1084     -799     -238      275      865 
    1533     1833     1483      815      423      419      333      132 
     234      550      731      714      523      380      421      168 
    -396     -464       25      544     1028     1277      973      491 
     286      253      349      594      627      376      211      217 
     305      382      297      172      206      280      195       78 
     190      398      525      865     1258      970      376      467 
     818      685      533      595      372      -24       39      641 
     988      429     -244      -93      252      184      310      679 
     538      163      409      966     1026      592      139     -174 
    -410     -303      427     1242     1339      978      977      989 
     275     -352     -151      -33     -241      211     1143     1395 
     957      608      383       45     -287     -386      -37      430 
     716     1174     1552     1165      279     -410     -683     -502 
      93      658      985     1335     1321      592       -4      191 
     691      816      390      -16      282      766      610      194 
      49      -43     -141       58      508      793      791      695 
     565      376      230      364      741      885      643      351 
     108      -41      205      742      909      479       17      103 
     637      903      479      -68     -110      140      391      783 
    1243     1275      684      -39     -376     -299      180     1044 
    1541      947      -62     -411      -87      341      642      909 
     994      629       82       28      545      828      564      303 
      90     -284     -373       60      545      772      841      823 
     835      886      688      207     -144      -27      472      959 
    1102      896      479      -64     -418     -222      313      799 
     974      623      172      298      679      688      533      523 
     486      298       72      -59      148      703      985      652 
     162      -71      -66      143      560      918      868      496 
     342      630      918      959      831      390     -118      -72 
     313      329       40     -132     -137       89      527      803 
     760      533      321      449      849      955      751      784 
     916      594       99       25      210      303      243      -39 
    -357     -203      504     1177     1264      936      780      891 
     758      211     -291     -391       25      781     1032      330 
    -407     -328      217      652      882      962      951      864 
     584      243      172      283      287      294      422      481 
     363      193      282      672      850      700      602      517 
     349      280      263      140       12       82      299      441 
     487      561      622      606      502      261      248      787 
    1185     1015      877      750      325       41      -64     -313 
    -261      209      287       -9      197      708      826      675 
     533      498      637      711      611      584      685      703 
     552      429      440      341       55     -130      -49      253 
     669      881      623      157      -82       -1      324      776 
     990      680      210      106      270      529     1019     1364 
    1013      284     -201     -221      252      827      847      391 
      95       -6     -167     -155      103      399      706      846 
     621      302      205      360      619      704      646      796 
    1011      899      592      387      286      309      513      688 
