Origin Time       2024/06/23 22:54:00
Lat.              35.645
Long.             140.060
Depth. (km)       72
Mag.              4.1
Station Code      IBR016
Station Lat.      35.9114
Station Long.     140.0494
Station Height(m) 20
Record Time       2024/06/23 22:54:46
Sampling Freq(Hz) 100Hz
Duration Time(s)  60
Dir.              N-S
Scale Factor      7845(gal)/8223790
Max. Acc. (gal)   4.288
Last Correction   2024/06/23 22:54:45
Memo.             
[...]
    2220     2232     2249     2246     2231     2230     2245     2250 
    2238     2228     2236     2247     2239     2226     2235     2246 
    2235     2227     2234     2245     2246     2230     2224     2241 
    2246     2234     2226     2238     2250     2242     2228     2236 
    2250     2243     2224     2223     2243     2249     2231     2227 
    2243     2250     2236     2223     2234     2250     2243     2228 
    2235     2253     2249     2228     2223     2241     2253     2236 
    2222     2235     2249     2239     2230     2236     2253     2251 
    2232     2226     2243     2246     2227     2220     2239     2253 
    2239     2222     2232     2249     2243     2230     2231     2247 
    2250     2234     2224     2239     2253     2238     2218     2232 
    2254     2243     2223     2230     2250     2249     2224     2218 
    2243     2255     2235     2222     2238     2253     2239     2219 
    2230     2255     2251     2230     2226     2246     2257     2236 
    2218     2235     2251     2241     2223     2232     2249     2239 
    2219     2226     2246     2247     2231     2226     2243     2255 
    2236     2219     2235     2255     2245     2223     2228     2251 
    2247     2224     2222     2243     2257     2242     2226     2239 
    2255     2242     2216     2223     2247     2245     2226     2226 
    2246     2253     2232     2223     2242     2253     2236     2222 
    2234     2254     2247     2227     2227     2247     2250     2231 
    2227     2246     2253     2235     2222     2234     2249     2242 
    2224     2231     2254     2251     2228     2228     2247     2249 
    2231     2222     2236     2254     2243     2227     2238     2254 
    2246     2230     2232     2250     2249     2227     2223     2245 
    2255     2239     2226     2236     2254     2246     2226     2228 
    2247     2251     2238     2234     2249     2251     2228     2219 
    2242     2258     2246     2223     2228     2254     2251     2230 
    2232     2254     2255     2234     2228     2249     2258     2239 
    2223     2239     2255     2243     2223     2230     2255     2254 
    2230     2227     2250     2257     2236     2223     2239     2255 
    2243     2226     2235     2258     2253     2230     2231     2249 
    2249     2228     2224     2247     2257     2238     2223     2235 
    2254     2247     2226     2230     2254     2253     2231     2227 
    2246     2253     2234     2224     2246     2259     2241     2223 
    2235     2255     2253     2232     2227     2247     2257     2238 
    2230     2245     2254     2241     2230     2239     2253     2242 
    2220     2223     2245     2251     2231     2223     2246     2255 
    2236     2227     2242     2253     2239     2222     2228     2251 
    2250     2223     2219     2242     2251     2236     2227     2243 
    2257     2241     2222     2231     2250     2246     2226     2224 
    2243     2246     2227     2218     2234     2249     2238     2226 
    2236     2250     2242     2226     2228     2246     2250     2232 
    2226     2243     2253     2232     2219     2235     2250     2242 
    2228     2232     2246     2243     2226     2222     2241     2247 
    2234     2227     2239     2249     2238     2223     2232     2249 
    2242     2227     2227     2242     2250     2235     2223     2234 
    2239     2226     2222     2239     2251     2242     2227     2230 
    2242     2242     2232     2228     2236     2241     2232     2228 
    2236     2241     2234     2228     2232     2243     2243     2228 
    2224     2241     2250     2238     2230     2238     2245     2238 
    2228     2228     2238     2235     2227     2231     2242     2243 
    2234     2230     2243     2250     2236     2227     2236     2243 
    2232     2223     2230     2239     2238     2231     2231     2238 
    2243     2235     2226     2235     2247     2238     2228     2234 
    2243     2243     2232     2227     2236     2243     2236     2230 
    2235     2243     2241     2234     2239     2246     2239     2228 
    2230     2238     2238     2227     2224     2238     2245     2241 
    2234     2238     2247     2245     2236     2241     2245     2236 
    2230     2230     2239     2243     2234     2224     2231     2243 
    2241     2232     2238     2246     2243     2232     2235     2246 
    2245     2235     2234     2241     2246     2243     2235     2238 
    2250     2243     2228     2230     2242     2246     2238     2236 
    2249     2255     2241     2227     2232     2245     2243     2230 
    2230     2250     2253     2226     2224     2262     2284     2268 
    2235     2215     2215     2193     2176     2216     2261     2273 
    2284     2285     2272     2242     2214     2239     2266     2215 
    2147     2185     2297     2308     2241     2254     2313     2316 
    2220     2085     2070     2172     2284     2384     2380     2236 
    2176     2243     2230     2191     2277     2420     2459     2099 
    1601     1807     2466     2712     2608     2529     2489     2137 
    1440     1408     2313     2929     2770     2421     2193     1946 
    1633     1721     2447     3100     3006     2371     1836     1595 
    1464     1750     2662     3335     3001     2204     1838     1769 
    1568     1771     2716     3330     2781     1768     1404     1818 
    2235     2381     2747     3063     2623     1806     1456     1732 
    2204     2470     2620     2666     2259     1804     1991     2393 
    2494     2533     2504     2242     1819     1463     1748     2556 
    2941     2779     2479     2153     1810     1518     1786     2620 
    2976     2563     2123     2072     2131     1989     2081     2493 
    2417     1929     1767     2031     2482     2739     2682     2554 
    2128     1436     1287     1863     2586     2995     2845     2359 
    1949     1710     1811     2323     2835     2980     2585     1719 
    1109     1368     2180     2928     3249     3055     2482     1760 
    1286     1503     2307     2938     2852     2327     1911     1883 
    2145     2316     2450     2790     2801     2157     1548     1498 
    1946     2501     2686     2639     2516     2070     1740     1915 
    2172     2462     2710     2470     2184     2262     2208     1999 
    2027     2141     2145     2201     2328     2354     2293     2304 
    2380     2411     2301     2022     1853     2035     2274     2326 
    2331     2355     2349     2301     2228     2146     2022     1977 
    2192     2385     2251     2022     1983     2118     2293     2535 
    2825     2762     2254     1938     2054     2099     1931     1911 
    2074     2295     2560     2664     2473     2191     2008     2010 
    2203     2380     2317     2226     2378     2457     2245     2089 
    2130     2216     2164     1961     2004     2323     2492     2574 
    2624     2331     1956     1999     2300     2443     2350     2166 
    1922     1640     1738     2412     2903     2641     2134     1918 
    2047     2381     2600     2520     2269     1962     1787     1953 
    2253     2401     2434     2411     2438     2439     2085     1696 
    1868     2304     2531     2517     2301     2100     2031     1958 
    2058     2463     2797     2698     2238     1883     1977     2223 
    2138     1895     2035     2466     2644     2452     2251     2253 
    2176     1899     1895     2293     2587     2616     2552     2369 
    2141     1953     1691     1614     2124     2882     3110     2682 
    2218     1960     1761     1860     2259     2405     2193     2095 
    2174     1983     1726     2108     2830     3018     2632     2184 
    1892     1745     1984     2621     2875     2489     2231     2149 
    1742     1479     1906     2625     3003     2725     2012     1464 
    1412     1908     2708     3204     3146     2637     1881     1517 
    1777     2010     2015     2214     2502     2555     2577     2709 
    2627     2188     1798     1806     1910     1773     1767     2255 
    2876     3014     2620     2145     1857     1826     1929     2014 
    2334     2631     2319     1948     2123     2587     3014     3028 
    2521     1962     1680     1742     1969     2045     2143     2412 
    2431     2139     1977     2093     2227     2166     2243     2604 
    2648     2238     1872     1911     2328     2690     2824     2628 
    1849     1313     1744     2299     2513     2678     2589     2276 
    2108     2019     1881     1836     2052     2421     2582     2558 
    2593     2463     2201     2312     2540     2365     2014     1798 
    1729     1842     2215     2617     2494     1973     1736     1918 
    2412     2880     2894     2732     2556     2083     1549     1413 
    1787     2322     2461     2385     2585     2786     2547     2084 
    1915     2100     2168     1988     1935     2092     2303     2551 
    2683     2548     2226     1837     1690     2011     2515     2766 
    2502     2079     2192     2524     2451     2346     2288     1818 
    1262     1146     1579     2467     3213     3362     3204     2886 
    2335     1765     1437     1475     1738     2027     2357     2488 
    2286     2184     2358     2671     2953     2841     2269     1540 
    1011     1090     1798     2770     3507     3497     2890     2223 
    1644     1304     1394     1695     1884     2022     2421     2947 
    3033     2716     2416     2135     2080     2536     2832     2511 
    2126     1827     1567     1733     2168     2384     2397     2394 
    2315     1981     1583     1557     1949     2543     3214     3708 
    3665     2905     1695      837      955     1728     2461     2828 
    2740     2272     1875     2112     2737     2910     2485     1868 
    1391     1405     1807     2107     2261     2508     2924     3187 
    2818     1987     1298     1015     1205     1941     2970     3682 
    3647     2979     2128     1478     1156     1143     1513     2205 
    2820     3091     3028     2571     1880     1387     1351     1863 
    2660     3053     2856     2544     2262     1952     1861     2079 
    2277     2143     1973     2158     2338     2261     2176     2173 
    2388     2690     2694     2644     2640     2261     1829     1939 
    2316     2467     2327     2103     1933     1710     1617     1958 
    2336     2407     2496     2656     2574     2304     2150     2145 
    2091     2043     2127     2199     2193     2103     2069     2398 
    2741     2671     2515     2404     2230     2060     1869     1953 
    2492     2864     2674     2220     1875     1857     1984     2012 
    2088     2153     2058     2025     2058     2034     2092     2274 
    2519     2625     2281     1713     1512     1841     2448     2964 
    3061     2759     2269     1827     1813     2134     2361     2627 
    2941     2909     2624     2289     1969     1890     1964     1962 
    1922     1768     1563     1717     2265     2697     2732     2585 
    2390     2164     2054     2106     2292     2408     2111     1734 
    1898     2382     2698     2943     3285     3330     2697     1818 
    1339     1244     1309     1586     2085     2621     2857     2583 
    2204     2192     2247     2049     1929     2074     2247     2369 
    2516     2515     2174     1755     1738     2150     2543     2666 
    2714     2801     2678     2289     1952     1845     1961     2174 
    2224     2072     1861     1776     1973     2242     2431     2847 
    3391     3377     2612     1630     1067     1134     1502     1927 
    2377     2575     2444     2241     2095     2056     2110     2232 
    2452     2695     2814     2721     2532     2490     2574     2432 
    1942     1537     1471     1526     1775     2289     2697     2798 
    2772     2778     2708     2389     2014     1845     1803     1813 
    1925     2035     2096     2304     2617     2598     2164     1845 
    2004     2324     2442     2558     2883     2997     2513     1906 
    1752     1815     1864     2101     2419     2592     2573     2288 
    1966     1960     2146     2223     2108     1911     1790     1892 
    2276     2770     3060     3017     2741     2251     1607     1221 
    1432     2031     2408     2290     2100     2133     2331     2739 
    3132     3107     2643     1984     1572     1620     1709     1761 
    2130     2473     2407     2214     1992     1721     1753     2212 
    2691     2700     2191     1794     2018     2563     2986     3173 
    2924     2084     1063      584     1036     2018     2628     2627 
    2571     2602     2413     2165     2064     1821     1372     1146 
    1414     2115     2938     3392     3358     3235     3264     3586 
    4413     5290     5401     4568     2987     1005     -722    -1615 
   -1273      456     2824     4379     4190     2451       91    -1651 
   -1746     -101     2369     4395     5100     4472     3067     1528 
     552      596     1653     3439     5167     5788     5128     3843 
    2254      642       17      905     2373     3141     2768     1742 
     772      174      176      873     1779     2286     2236     1953 
    1941     2218     2301     2115     2054     2334     2853     3375 
    3596     3231     2555     2662     4052     5560     5736     4388 
    2234      249     -553      137     1551     2639     2767     1972 
     916      113     -275      166     1768     4067     6026     6733 
    5864     3677      904    -1264    -1768     -531     1525     3198 
    3577     2573     1143      263        5       99      344      530 
     770     1237     1757     2172     2509     3028     4056     5238 
    5629     4650     2783     1657     2389     4203     5728     6270 
    5535     3596     1151     -855    -1644     -886      874     2528 
    3198     2586     1030     -649    -1493     -946      637     2416 
    3748     4303     4245     4070     3994     4002     4272     4793 
    4920     4182     2829     1248      -33     -383      211     1331 
    2539     3240     3163     2640     2019     1532     1356     1512 
    1950     2323     2216     1921     1845     1783     1587     1514 
    1690     1898     1910     1817     1765     1776     2215     3391 
    4534     4450     3010     1289      452      832     2072     3631 
    4986     5552     4893     3287     1394     -494    -1977    -2246 
   -1023     1070     3037     4029     4040     3875     3901     3748 
    3352     2825     2016     1117      544      360      541     1105 
    1977     2963     3623     3499     2613     1493      832      959 
    1620     2531     3456     3921     3627     2778     1831     1206 
    1107     1555     2440     3310     3577     3265     2893     2668 
    2455     2208     2130     2374     2531     2087     1339      993 
    1328     2074     2675     2893     2879     2485     1480      367 
     -78      407     1702     3473     5097     5922     5719     4769 
    3564     2486     1772     1561     1753     1939     1706     1011 
     328      213      804     1872     2825     2964     2168      984 
     232      456     1517     2694     3241     3160     2893     2392 
    1656     1216     1471     2365     3356     3682     3180     2378 
    1861     1879     2334     2882     3132     2897     2432     2309 
    2569     2673     2625     2717     2610     1930      965      349 
     355      723     1278     2029     2737     3107     3113     2930 
    2814     2810     2612     2205     2188     2689     2934     2517 
    1844     1385     1278     1421     1767     2351     3046     3526 
    3438     2797     2093     1773     1944     2532     3271     3649 
    3233     2018      599     -230     -209      511     1698     2921 
    3694     3742     3113     2295     1775     1539     1534     1883 
    2313     2432     2188     1755     1549     1848     2416     2965 
    3291     3099     2403     1691     1402     1571     2100     2944 
    3751     4151     4255     4036     3288     2417     1941     1691 
    1358     1120     1243     1544     1703     1671     1548     1458 
    1444     1412     1425     1711     2200     2587     2840     3045 
    3042     2776     2524     2398     2178     1827     1595     1684 
    2184     2916     3415     3233     2224      955      421      966 
    2034     2816     2955     2752     2663     2821     3103     3312 
    3352     3303     3187     2816     2079     1109      333      353 
    1239     2305     2916     2928     2451     1737     1210     1125 
    1291     1568     2081     2712     3061     2871     2228     1597 
    1459     1907     2709     3615     4307     4322     3645     2878 
    2403     2165     2093     2097     2200     2365     2099     1255 
     525      390      726     1397     2253     2934     3075     2648 
    2091     1794     1729     1738     1672     1422     1169     1200 
    1567     2246     3122     3834     4176     4268     4151     3807 
    3451     3319     3206     2771     2077     1382      862      637 
     719     1008     1375     1819     2282     2376     1904     1305 
    1116     1510     2281     2959     3146     2737     1971     1480 
    1730     2388     2855     3038     3211     3483     3681     3673 
    3370     2655     1740     1030      623      495      695     1128 
    1587     1896     2038     2160     2263     2315     2438     2625 
    2786     3025     3441     3809     3782     3337     2828     2494 
    2257     1945     1517     1213     1298     1637     1929     2027 
    1818     1317      893      993     1695     2559     3013     2884 
    2509     2250     2197     2451     3053     3639     3825     3461 
    2604     1767     1503     1780     2242     2533     2346     1772 
    1318     1309     1706     2284     2632     2417     1741     1070 
     957     1517     2270     2826     3210     3550     3820     3707 
    3079     2432     2157     2045     1891     1876     2182     2467 
    2265     1864     1736     1605     1267     1105     1290     1684 
    2073     2057     1609     1250     1239     1553     2259     3199 
    4028     4545     4576     4160     3724     3411     2840     1888 
     982      616      982     1759     2284     2261     1968     1672 
    1413     1321     1391     1290     1088     1341     2033     2643 
    3040     3267     3307     3292     3161     2697     2149     1965 
    2116     2451     2902     2975     2253     1300      900     1046 
    1424     1956     2575     3177     3485     3168     2540     2158 
    2058     2146     2253     2162     2064     2164     2374     2579 
    2749     3056     3504     3619     3152     2369     1476      625 
     180      356      972     1783     2608     3195     3298     2961 
    2492     2038     1651     1555     1899     2457     2808     2825 
    2785     2837     2803     2604     2447     2463     2393     1946 
    1320      865      603      545      959     1915     2949     3392 
    3123     2575     1921     1275     1155     1741     2602     3315 
    3601     3379     2845     2370     2347     2820     3377     3574 
    3272     2686     2107     1593     1078      585      252      271 
