Origin Time       2024/06/23 22:54:00
Lat.              35.645
Long.             140.060
Depth. (km)       72
Mag.              4.1
Station Code      IBR004
Station Lat.      36.5516
Station Long.     140.4102
Station Height(m) 57
Record Time       2024/06/23 22:55:02
Sampling Freq(Hz) 100Hz
Duration Time(s)  60
Dir.              U-D
Scale Factor      7845(gal)/8223790
Max. Acc. (gal)   0.677
Last Correction   2024/06/23 22:55:02
Memo.             
   15932    15766    15894    16058    16025    15920    15842    15795 
   15849    16021    16154    16108    15939    15715    15489    15471 
   15803    16248    16417    16252    15962    15695    15583    15703 
   15935    16117    16229    16303    16262    15975    15597    15485 
   15696    15986    16171    16147    15909    15692    15672    15772 
   15975    16247    16335    16132    15777    15545    15669    15890 
   15854    15819    16081    16333    16256    16005    15786    15630 
   15601    15722    15884    16016    16128    16243    16254    15990 
   15618    15488    15596    15781    16124    16541    16549    16004 
   15427    15286    15596    16146    16537    16387    15822    15418 
   15506    15811    16001    16132    16228    16089    15780    15633 
   15723    15915    16151    16353    16352    16046    15604    15406 
   15618    16056    16386    16318    15896    15506    15437    15643 
   15930    16121    16120    16032    16051    16159    16171    15966 
   15697    15678    15890    16029    16000    15862    15655    15593 
   15927    16444    16524    15979    15383    15329    15844    16406 
   16470    16071    15662    15564    15777    16029    16098    16013 
   15878    15801    15850    15939    15965    15959    15982    15989 
   15917    15844    15894    15978    15934    15839    15855    15930 
   16016    16147    16189    16011    15746    15627    15762    16031 
   16147    16046    15844    15595    15529    15884    16298    16321 
   16051    15776    15682    15835    16069    16160    16078    15901 
   15750    15803    16027    16102    15928    15782    15777    15805 
   15851    15876    15832    15847    15998    16158    16106    15850 
   15732    15894    16063    16071    16032    15974    15812    15668 
   15743    15940    16012    15981    16011    16020    15919    15874 
   15994    16150    16185    16039    15866    15866    15934    15859 
   15647    15473    15620    16096    16409    16235    15831    15618 
   15703    15925    16171    16351    16251    15844    15492    15492 
   15805    16233    16479    16256    15684    15291    15418    15896 
   16335    16459    16231    15835    15589    15622    15722    15781 
   15973    16268    16360    16119    15719    15461    15530    15826 
   16150    16359    16287    15912    15599    15720    16105    16258 
   16005    15674    15581    15699    15952    16252    16326    16096 
   15759    15512    15569    15959    16290    16285    16105    15921 
   15738    15642    15746    15967    16062    15920    15739    15732 
   15916    16178    16283    16092    15781    15689    15977    16340 
   16239    15719    15369    15430    15763    16202    16430    16194 
   15754    15574    15649    15732    15915    16248    16362    16123 
   15873    15796    15831    15919    16001    16043    15979    15788 
   15680    15777    15938    16082    16135    16032    15954    15997 
   15986    15877    15769    15719    15807    15989    16067    16000 
   15877    15811    15884    15966    15888    15780    15839    15996 
   16065    16055    16060    15986    15788    15700    15874    16105 
   16164    16063    15886    15716    15693    15847    15988    15925 
   15792    15884    16155    16260    16046    15739    15685    15830 
   15904    15986    16147    16139    15911    15695    15657    15824 
   16093    16240    16129    15942    15913    15981    15966    15870 
   15762    15678    15730    15951    16094    16023    15903    15797 
   15718    15793    16012    16204    16232    16043    15807    15746 
   15809    15916    16101    16181    15958    15665    15639    15797 
   15924    16112    16321    16200    15747    15438    15610    16116 
   16482    16368    15881    15446    15434    15797    16156    16291 
   16256    16075    15759    15541    15585    15812    16063    16152 
   16047    15948    15940    15942    15917    15900    15923    15935 
   15893    15840    15804    15835    16035    16244    16108    15704 
   15565    15886    16243    16205    15907    15765    15824    15840 
   15828    15916    15975    15938    15965    16015    15866    15688 
   15816    16063    16059    15916    15886    15958    16075    16177 
   16106    15840    15588    15535    15693    16001    16325    16401 
   16127    15789    15695    15822    15948    15950    15912    15930 
   15920    15830    15795    15862    15919    15946    15936    15831 
   15778    15952    16177    16190    16001    15773    15657    15774 
   16128    16443    16333    15854    15541    15631    15797    15869 
   16012    16113    15912    15650    15712    15966    16092    16078 
   16086    16112    16008    15778    15650    15796    16090    16210 
   16032    15743    15623    15804    16078    16119    15952    15894 
   16036    16155    16096    15920    15735    15678    15861    16155 
   16291    16078    15619    15334    15485    15911    16294    16386 
   16124    15735    15583    15770    16020    16110    16046    15842 
   15647    15731    16040    16227    16125    15889    15786    15912 
   16052    15975    15745    15630    15803    16100    16233    16106 
   15838    15689    15796    16016    16164    16097    15827    15700 
   15893    16066    16024    15981    15935    15745    15662    15894 
   16131    16110    15973    15862    15785    15763    15839    15978 
   16070    16078    16075    16040    15901    15765    15762    15854 
   15923    15885    15838    15948    16096    16048    15869    15777 
   15857    16038    16168    16121    15939    15812    15820    15838 
   15820    15897    15996    15942    15870    15935    15986    15959 
   15986    16028    15942    15812    15835    15940    15923    15853 
   15863    15905    15988    16151    16186    15943    15624    15515 
   15711    16051    16266    16227    15988    15720    15641    15816 
   16094    16237    16083    15719    15518    15772    16221    16294 
   15924    15615    15696    16020    16259    16191    15890    15647 
   15661    15888    16106    16110    15969    15843    15700    15611 
   15789    16135    16322    16197    15888    15727    15850    16027 
   16106    16074    15854    15573    15556    15865    16249    16375 
   16117    15769    15637    15676    15826    16069    16186    16008 
   15745    15730    16017    16340    16348    15963    15561    15465 
   15620    15920    16186    16197    16056    15913    15724    15610 
   15731    15977    16133    16121    16013    15900    15811    15811 
   15963    16187    16295    16136    15815    15650    15731    15867 
   15982    16035    15916    15734    15708    15824    15944    15978 
   15930    15901    15947    16002    16006    15946    15859    15873 
   16024    16151    16141    16005    15770    15593    15691    15975 
   16162    16171    16079    15884    15688    15736    15969    16058 
   15986    15942    15871    15765    15807    15957    16012    15962 
   15917    15927    15973    16001    15982    15935    15867    15795 
   15786    15896    16081    16183    16036    15780    15707    15773 
   15809    15904    16098    16132    15915    15769    15862    15961 
   15966    15998    15993    15853    15765    15931    16178    16245 
   16144    15946    15722    15654    15765    15893    15978    16002 
   15928    15865    15961    16133    16155    15959    15722    15653 
   15770    15920    15986    15973    15936    15921    15944    16004 
   16078    16092    15969    15799    15735    15809    16001    16155 
   16042    15728    15527    15651    16015    16227    16096    15870 
   15788    15859    16008    16125    16125    15935    15647    15599 
   15920    16282    16339    16104    15805    15634    15678    15935 
   16167    16058    15722    15577    15758    16058    16262    16263 
   16033    15707    15565    15712    15977    16182    16175    15909 
   15680    15773    15996    16081    16100    16074    15880    15666 
   15689    15869    15969    15925    15873    15925    16001    16042 
   16117    16167    16058    15840    15666    15631    15801    16077 
   16228    16166    15942    15736    15781    15973    16063    16033 
   15888    15643    15508    15643    15913    16073    16113    16167 
   16193    16093    15909    15758    15758    15946    16167    16183 
   15957    15700    15611    15716    15889    15967    15973    16023 
   16078    16013    15889    15858    15874    15855    15904    16035 
   16096    16005    15801    15674    15851    16151    16183    15915 
   15658    15699    15984    16185    16139    15955    15826    15873 
   16021    16069    15943    15747    15665    15750    15865    15965 
   16055    16027    15957    16009    16081    16042    15951    15886 
   15834    15707    15603    15754    16035    16102    15969    15873 
   15851    15826    15861    16056    16244    16120    15724    15439 
   15496    15838    16245    16398    16175    15876    15774    15873 
   16066    16164    16000    15722    15649    15862    16193    16378 
   16231    15840    15472    15336    15556    16036    16436    16551 
   16378    15901    15345    15217    15633    16179    16447    16281 
   15835    15489    15510    15843    16121    16040    15817    15808 
   15966    16167    16383    16375    15952    15477    15372    15552 
   15855    16213    16370    16183    15866    15677    15745    15958 
   16105    16139    16078    15957    15861    15816    15805    15824 
   15881    15989    16036    15900    15758    15823    15969    15985 
   15878    15786    15839    16073    16343    16414    16171    15751 
   15511    15619    15828    15948    16021    16025    15973    15951 
   15935    15880    15807    15800    15923    16054    16085    16128 
   16128    15896    15603    15526    15608    15727    15905    16129 
   16271    16178    15907    15728    15757    15858    15973    16093 
   16070    15876    15781    15913    16060    16090    16066    15981 
   15871    15930    16089    15974    15643    15552    15763    16006 
   16090    15994    15931    16029    16100    16047    15959    15849 
   15696    15626    15788    16070    16206    16124    15943    15812 
   15820    15916    15996    16001    15897    15754    15699    15778 
   15961    16108    16119    16043    15938    15824    15738    15746 
   15923    16125    16087    15897    15817    15844    15931    16073 
   16096    15981    15909    15898    15954    16085    16173    16147 
   16029    15861    15745    15716    15718    15745    15817    15888 
   15920    15950    16021    16121    16135    15936    15657    15639 
   15942    16216    16193    15944    15704    15643    15790    16075 
   16263    16100    15720    15553    15711    15907    15969    15989 
   16021    16020    16023    16079    16098    16043    15974    15812 
   15560    15488    15707    16024    16237    16278    16191    16060 
   15915    15789    15797    15948    16004    15859    15769    15871 
   15954    15889    15788    15747    15822    16015    16147    16065 
   15896    15863    15966    16065    16101    16070    16000    15930 
   15827    15697    15642    15776    16124    16401    16227    15742 
   15484    15620    15863    15992    16020    15962    15822    15749 
   15853    16082    16282    16279    16078    15838    15681    15669 
   15734    15781    15874    16023    16129    16148    15982    15714 
   15672    15913    16197    16322    16171    15857    15645    15584 
   15635    15858    16108    16121    15935    15812    15894    16096 
   16164    16011    15788    15610    15552    15723    16013    16171 
   16195    16170    16000    15693    15553    15759    16129    16364 
   16281    15967    15749    15780    15912    16044    16137    16065 
   15861    15784    15888    15936    15793    15577    15543    15846 
   16278    16430    16177    15786    15573    15610    15786    15978 
   16117    16236    16286    16069    15666    15458    15616    15967 
   16194    16081    15826    15816    15994    16055    16006    15957 
   15871    15813    15928    16140    16198    16042    15820    15682 
   15761    16006    16166    16137    16008    15901    15912    15942 
   15809    15615    15595    15753    15946    16086    16128    16078 
   16020    15981    15865    15681    15628    15807    16042    16144 
   16109    15988    15859    15862    15986    16051    15993    15963 
   16032    16036    15870    15665    15570    15639    15877    16185 
   16349    16241    15943    15661    15560    15638    15831    16108 
   16276    16140    15911    15858    15893    15946    16075    16110 
   15913    15754    15853    16011    16015    15913    15793    15707 
   15726    15828    15954    16127    16216    16011    15696    15634 
   15822    16025    16125    16150    16102    15971    15831    15738 
   15728    15878    16110    16241    16194    15984    15732    15643 
   15728    15809    15830    15898    16019    16106    16127    16012 
   15809    15761    15867    15905    15878    15911    15913    15820 
   15800    15947    16090    16081    15966    15838    15778    15847 
   15939    15905    15828    15853    15947    16031    16074    16047 
   15954    15869    15850    15916    16028    16059    15958    15884 
   15944    16052    16127    16106    15931    15719    15655    15772 
   15946    16025    15998    15955    15924    15865    15804    15886 
   16073    16089    15921    15839    15886    15959    16055    16102 
   15982    15739    15543    15546    15758    16024    16151    16051 
   15836    15773    16011    16313    16332    16056    15730    15542 
   15587    15858    16171    16224    15940    15655    15682    15916 
   16097    16117    15971    15754    15672    15811    16017    16131 
   16112    15993    15894    15896    15870    15766    15761    15917 
   16070    16113    16048    15881    15723    15769    16013    16216 
   16208    16047    15903    15867    15936    16046    16066    15901 
   15685    15681    15909    16093    16046    15859    15691    15704 
   15943    16151    16119    15967    15847    15751    15699    15757 
   15896    16056    16198    16225    16109    15897    15674    15627 
   15762    15834    15816    15913    16146    16336    16339    16148 
   15876    15689    15709    15824    15824    15741    15728    15832 
   16086    16359    16281    15849    15564    15750    16190    16355 
   15992    15434    15230    15562    16092    16393    16374    16152 
   15905    15828    15912    15969    15943    15898    15892    15966 
   16071    16069    15957    15855    15827    15888    15973    15932 
   15781    15759    15993    16266    16224    15801    15356    15336 
   15711    16071    16177    16074    15919    15850    15858    15835 
   15816    15939    16136    16187    16067    15909    15822    15826 
   15874    15969    16085    16070    15896    15797    15925    16093 
   16031    15812    15687    15726    15919    16174    16228    16008 
   15780    15759    15886    15977    15923    15793    15776    15923 
   16036    16002    16013    16109    16074    15934    15836    15739 
   15684    15745    15830    15900    15957    15936    15927    15997 
   16035    16025    16025    15971    15878    15842    15816    15750 
   15745    15861    16011    16112    16124    16047    15954    15911 
   15896    15894    15919    15936    15932    15969    16085    16155 
   16024    15819    15741    15766    15826    15903    15994    16112 
   16173    16071    15896    15799    15754    15751    15838    15886 
   15816    15773    15781    15774    15850    16058    16247    16259 
   16093    15876    15724    15731    15970    16287    16362    16140 
   15862    15720    15765    15923    15988    15866    15734    15750 
   15892    16046    16043    15874    15772    15828    15931    16021 
   16043    15975    15971    16044    15979    15813    15781    15905 
   16039    16067    15943    15758    15693    15812    15989    16058 
   16035    16051    16127    16164    16108    15965    15817    15768 
   15790    15800    15828    15923    15970    15867    15768    15874 
   16036    15984    15823    15788    15792    15769    15867    16031 
   16100    16110    16066    15934    15812    15769    15789    15853 
   15924    16006    16105    16132    16024    15907    15966    16116 
   16083    15892    15763    15716    15731    15889    16051    15984 
   15797    15751    15812    15881    16048    16267    16264    15982 
   15676    15601    15820    16135    16278    16173    15939    15808 
   15900    16017    15927    15693    15565    15693    15940    16087 
   16120    16038    15823    15697    15813    15939    15911    15871 
   15911    15992    16081    16089    15913    15662    15606    15846 
   16163    16262    16077    15858    15873    16006    15973    15811 
   15723    15776    15969    16202    16259    16063    15817    15743 
   15823    15871    15757    15592    15650    15942    16179    16171 
   15996    15863    15908    16047    16087    15981    15900    15974 
   16082    16097    16083    16023    15811    15628    15711    15912 
   16000    15975    15897    15817    15826    15889    15935    15979 
   15969    15846    15772    15844    15912    15952    16078    16198 
   16173    16015    15811    15736    15873    16024    16024    15943 
   15900    15920    15950    15936    15903    15901    15927    15942 
   15966    16000    15930    15780    15762    15876    15930    15911 
   15866    15799    15772    15830    15901    15955    16046    16154 
   16160    16082    16055    16055    15975    15861    15830    15881 
   15950    16029    16056    15947    15831    15831    15844    15842 
   15915    16013    16043    16000    15920    15844    15811    15847 
   15944    15997    15940    15853    15801    15773    15799    15908 
   15989    15978    15952    15942    15930    15947    15979    15982 
   15912    15790    15780    15969    16198    16237    16017    15755 
   15735    15880    15916    15822    15738    15747    15827    15886 
   15892    15911    15998    16087    16102    16058    15958    15805 
   15722    15817    15973    15992    15901    15867    15924    16002 
   16081    16137    16083    15909    15747    15736    15859    16005 
   16124    16144    16024    15881    15749    15591    15592    15890 
   16209    16264    16109    15907    15770    15789    15915    16002 
   15967    15844    15780    15847    15950    15974    15913    15907 
   16043    16136    16005    15784    15673    15704    15843    16033 
   16110    16005    15901    15925    15971    15973    15975    15958 
   15919    15975    16082    16055    15936    15884    15908    15993 
   16062    15988    15796    15618    15546    15628    15813    15993 
   16102    16100    15993    15919    15993    16108    16102    16023 
   15946    15850    15780    15812    15874    15903    15963    16044 
   16024    15917    15886    15925    15931    15942    15994    16028 
   16020    15982    15930    15904    15957    16082    16143    15990 
   15745    15700    15888    16071    16069    15890    15728    15738 
