Origin Time       2024/06/23 22:54:00
Lat.              35.645
Long.             140.060
Depth. (km)       72
Mag.              4.1
Station Code      IBR013
Station Lat.      36.1587
Station Long.     140.4892
Station Height(m) 29
Record Time       2024/06/23 22:54:49
Sampling Freq(Hz) 100Hz
Duration Time(s)  60
Dir.              E-W
Scale Factor      7845(gal)/8223790
Max. Acc. (gal)   6.465
Last Correction   2024/06/23 22:54:49
Memo.             
[...]
   13466    13468    13462    13458    13455    13459    13473    13482 
   13474    13460    13451    13451    13459    13466    13464    13462 
   13460    13464    13468    13467    13462    13460    13463    13463 
   13462    13460    13460    13459    13456    13458    13463    13467 
   13467    13468    13470    13467    13459    13454    13456    13462 
   13464    13462    13459    13460    13463    13464    13464    13463 
   13462    13460    13462    13463    13459    13456    13459    13459 
   13459    13462    13460    13456    13462    13468    13468    13464 
   13458    13450    13448    13455    13464    13468    13466    13459 
   13451    13451    13452    13459    13464    13464    13460    13460 
   13459    13455    13451    13447    13450    13460    13467    13462 
   13456    13459    13460    13458    13456    13458    13456    13454 
   13452    13452    13454    13455    13455    13458    13466    13467 
   13460    13458    13459    13459    13458    13459    13456    13455 
   13458    13458    13459    13459    13454    13458    13462    13459 
   13459    13459    13455    13454    13458    13462    13462    13462 
   13459    13455    13455    13460    13462    13460    13459    13460 
   13455    13448    13452    13459    13463    13467    13468    13467 
   13464    13455    13441    13443    13456    13464    13467    13464 
   13456    13452    13455    13462    13463    13459    13462    13464 
   13460    13455    13451    13452    13455    13459    13462    13464 
   13466    13462    13456    13456    13458    13464    13467    13460 
   13455    13452    13452    13456    13462    13462    13458    13456 
   13459    13456    13455    13458    13464    13467    13460    13459 
   13460    13458    13455    13458    13459    13459    13458    13459 
   13456    13455    13459    13463    13459    13455    13456    13458 
   13463    13471    13470    13462    13460    13459    13459    13463 
   13462    13451    13448    13458    13468    13471    13468    13464 
   13459    13455    13456    13456    13458    13462    13462    13463 
   13464    13462    13459    13458    13462    13466    13463    13456 
   13455    13459    13462    13462    13460    13456    13452    13456 
   13467    13474    13473    13468    13458    13448    13450    13464 
   13477    13470    13459    13456    13456    13459    13466    13470 
   13463    13458    13459    13464    13468    13467    13466    13462 
   13455    13452    13456    13463    13467    13466    13460    13456 
   13454    13458    13466    13473    13470    13467    13463    13454 
   13451    13450    13447    13447    13447    13448    13460    13479 
   13504    13529    13516    13466    13448    13451    13419    13417 
   13437    13379    13342    13401    13448    13508    13630    13656 
   13559    13489    13454    13421    13432    13421    13323    13219 
   13235    13423    13630    13641    13520    13470    13494    13531 
   13563    13570    13594    13595    13432    13189    13058    13063 
   13224    13462    13562    13568    13709    13925    13988    13768 
   13298    12962    13143    13570    13691    13365    12950    12978 
   13346    13535    13617    13664    13521    13595    14069    14328 
   14011    13338    12684    12511    12903    13203    13170    13387 
   13799    13844    13724    13764    13879    14056    13910    13123 
   12468    12690    13470    14014    13841    13193    12744    13054 
   13772    13865    13323    13153    13784    14536    14519    13694 
   12664    12195    12576    12964    13057    13717    14512    14315 
   13860    13907    13626    13068    13046    13111    13051    13371 
   13639    13396    13054    12891    12999    13528    14227    14665 
   14697    14287    13559    12914    12453    11998    11801    12318 
   13448    14600    15205    15041    14403    13825    13427    12842 
   12078    11839    12461    13350    13952    14289    14422    14327 
   14015    13489    12958    12815    13136    13394    13181    12978 
   13130    13394    13853    14346    14226    13606    13216    13246 
   13294    13147    13039    13128    13336    13645    13975    14116 
   14006    13645    13150    12795    12653    12765    13173    13670 
   14038    14150    14052    13930    13818    13652    13221    12587 
   12380    12818    13463    13922    13987    13759    13558    13481 
   13397    13258    13219    13269    13275    13386    13670    14023 
   14334    14210    13618    13050    12615    12343    12456    12914 
   13551    14166    14526    14500    14125    13676    13306    12964 
   12777    12874    13116    13246    13269    13379    13493    13589 
   13872    14181    14283    14188    13705    12812    12089    11966 
   12432    13371    14432    14982    14779    14247    13801    13423 
   12945    12432    12280    12657    13117    13301    13425    13747 
   14197    14557    14508    13917    13286    13074    12976    12781 
   12749    13057    13674    14223    14280    13900    13393    13004 
   12843    12862    12904    12980    13355    13887    14237    14466 
   14343    13761    13352    13162    12733    12225    12016    12347 
   13370    14689    15392    15076    14373    13887    13459    12874 
   12216    11680    11635    12355    13471    14323    14852    15201 
   15009    14359    13829    13248    12479    12085    12044    12064 
   12459    13374    14534    15434    15631    15117    14071    12969 
   12216    11637    11468    12154    13369    14505    15003    14561 
   13702    13192    13181    13443    13532    12858    11869    11975 
   13355    14771    15381    15194    14528    13687    12972    12521 
   12191    12105    12468    13042    13738    14577    15033    14632 
   13679    12937    12729    12820    12941    12939    13026    13398 
   13711    13882    14154    14388    14412    14002    12927    11875 
   11681    12160    12988    14044    14805    15022    14998    14625 
   13703    12710    12029    11709    12012    12738    13394    14172 
   14931    15029    14650    14088    13207    12519    12602    12881 
   12769    12629    12765    13306    14485    15583    15565    14671 
   13555    12451    11770    11653    11824    12522    13730    14477 
   14230    13662    13579    13979    14280    13849    12800    12480 
   13393    14212    14276    14022    13640    13290    13022    12721 
   12596    12746    12995    13216    13344    13663    14346    14829 
   14733    14354    13822    13000    12178    11904    12214    12681 
   12947    13188    14053    15211    15507    15007    14316    13393 
   12490    11917    11537    11580    12567    14049    14796    14573 
   14197    14018    13859    13527    13022    12812    13155    13409 
   13077    12749    13077    13764    14266    14507    14446    13968 
   13230    12506    12155    12546    13404    13988    14072    13880 
   13701    13803    13929    13575    12984    12726    12703    12622 
   12918    13872    14781    15097    14658    13535    12615    12434 
   12582    12837    13176    13564    13954    14094    13910    13641 
   13595    13641    13294    12781    12672    12991    13483    13745 
   13528    13171    13174    13678    14384    14640    14030    13042 
   12544    12721    13167    13595    13867    13984    14126    13994 
   13254    12606    12685    13122    13355    13290    13343    13732 
   14085    14057    13575    12938    12664    12865    13221    13424 
   13582    13927    14241    14258    14098    14015    14114    14038 
   13282    12139    11570    11986    12812    13338    13721    14311 
   14667    14558    14300    13832    13108    12556    12548    12920 
   13220    13316    13360    13555    13902    14095    14091    13886 
   13363    12985    12977    12899    12769    12823    13051    13637 
   14466    14894    14590    13824    12906    12232    12393    13217 
   13902    14084    13682    13161    13381    13994    14158    13963 
   13581    13045    12754    12846    13036    13302    13635    13791 
   13876    13925    13582    13030    12815    12953    13171    13371 
   13460    13491    13871    14470    14527    14064    13726    13648 
   13549    13242    12772    12360    12334    12785    13378    13814 
   14029    14026    13860    13505    13053    12911    13221    13608 
   13784    13768    13694    13589    13335    12997    12887    13217 
   13792    14153    14077    13701    13274    12984    12965    13174 
   13186    12988    13134    13593    13944    14072    14008    13915 
   13869    13703    13421    13197    13096    13086    13132    13289 
   13549    13734    13703    13428    13131    13219    13462    13352 
   13100    13054    13255    13707    14218    14376    14085    13668 
   13269    12939    12903    12934    12788    12861    13240    13652 
   14110    14411    14314    14013    13633    13311    13400    13699 
   13518    12896    12509    12577    12950    13478    13917    14108 
   14003    13597    13154    12955    13039    13335    13643    13765 
   13676    13520    13571    13757    13718    13444    13144    13018 
   13216    13616    13969    14153    14089    13671    13167    13119 
   13313    13213    12933    12633    12337    12371    12966    13890 
   14615    14832    14712    14447    14099    13701    13266    12869 
   12507    12266    12418    12899    13405    13861    14138    14166 
   14212    14284    14108    13706    13131    12472    12102    12220 
   12798    13564    13972    14006    14131    14307    14208    13949 
   13761    13514    12965    12206    11762    12127    13081    13986 
   14521    14616    14237    13664    13243    12935    12776    13030 
   13540    13853    13815    13533    13255    13309    13694    14013 
   14031    13790    13424    13146    13047    13082    13243    13505 
   13668    13471    13039    12810    12903    13080    13174    13331 
   13803    14578    15144    14859    13809    12761    12303    12536 
   13194    13780    13937    13849    13716    13386    13043    12977 
   13153    13539    13878    13886    13648    13239    12934    13126 
   13590    13896    14061    14044    13510    12669    12172    12282 
   12941    13855    14450    14497    14229    13872    13590    13482 
   13311    12862    12480    12411    12519    12883    13517    14089 
   14494    14823    14821    14385    13863    13351    12955    12903 
   12941    12933    13042    13192    13325    13451    13405    13154 
   12884    12681    12622    12977    13745    14451    14868    15010 
   14638    13779    12997    12615    12626    12880    12953    12773 
   12826    13151    13485    13891    14227    14303    14316    14127 
   13618    13400    13582    13509    13181    12968    12893    13184 
   13797    14076    13741    13090    12596    12653    13154    13482 
   13293    13059    13328    13990    14565    14710    14538    14188 
   13517    12775    12245    11844    11836    12364    13080    13865 
   14596    14998    15044    14736    14102    13437    13078    12928 
   12707    12692    13158    13670    13807    13510    12969    12694 
   12964    13529    14004    14054    13590    13085    13018    13182 
   13247    13317    13548    13833    13998    14030    14011    13942 
   13728    13325    13019    13007    13081    13167    13209    13092 
   13045    13135    13224    13425    13822    14374    14837    14740 
   14056    13274    12681    12259    12156    12548    13162    13620 
   13873    14080    14432    14754    14395    13281    12309    12016 
   12270    12974    13691    13968    14052    14112    13968    13656 
   13306    12982    12847    12934    12997    13042    13247    13432 
   13657    14203    14694    14731    14443    13995    13509    13076 
   12679    12420    12468    12746    13080    13433    13722    13898 
   14021    14044    13918    13645    13284    13003    12846    12802 
   13003    13474    14041    14467    14465    13936    13215    12650 
   12325    12359    12703    13050    13479    14254    15045    15155 
   14289    13007    12249    12201    12363    12671    13328    14085 
   14575    14710    14586    14434    14486    14589    14359    13819 
   13238    12773    12532    12351    11815    11021    10700    11044 
   11751    12901    14195    15124    15803    15927    15125    14076 
   13566    13666    13864    13617    12988    12698    13293    14231 
   14638    14386    13726    12934    12334    12104    12120    12206 
   12494    12991    13309    13414    13767    14647    15788    16510 
   16266    15044    13409    12067    11157    10478    10170    10427 
   11319    12704    13871    14469    14990    15553    15799    15758 
   15589    15232    14752    14053    12748    11245    10370    10235 
   10982    12677    14536    15915    16580    16222    15053    13710 
   12388    11195    10685    11090    11961    12800    13159    12987 
   12987    13481    14192    15107    15898    15927    15245    14320 
   13441    12738    12297    12096    12005    12177    12779    13556 
   14249    14644    14581    14192    13660    13158    12987    13309 
   13852    14262    14593    14762    14397    13734    13262    12897 
   12490    12074    11615    11368    11561    11839    12062    12405 
   12739    13171    14116    15655    17478    18902    19138    17860 
   15319    12028     8812     6863     6683     7896    10181    12978 
   15477    17332    18270    18072    17219    16214    15072    13957 
   12918    11600    10353     9931    10080    10323    11076    12660 
   14643    16382    17143    16603    15319    13830    12390    11507 
   11331    11596    12312    13104    13354    13521    14233    14970 
   15168    14982    14697    14497    14254    13610    12668    11950 
   11728    11861    12016    11916    11743    12114    13163    14517 
   15921    16722    16391    15361    14110    13032    12340    11673 
   11241    11568    12351    13132    13768    14289    14825    15317 
   15468    14917    13668    12231    11260    11310    12233    13312 
   14277    15002    15111    14675    14033    13288    12706    12424 
   12027    11597    11701    12317    13224    14164    14767    15273 
   15974    16464    16170    14952    13136    11206     9634     8787 
    9005    10562    12865    14754    15843    16390    16609    16617 
   16283    15398    14091    12710    11634    11070    10813    10679 
   10960    11831    12955    14080    15144    15851    16044    15934 
   15537    14782    13813    12721    11747    11310    11435    12025 
   13093    14180    14642    14357    13583    12711    12233    12461 
   13223    13969    14265    14010    13475    13177    13319    13707 
   14191    14581    14569    14096    13389    12730    12305    12097 
   11904    11638    11659    12282    13261    14337    15375    16069 
   16189    15657    14634    13655    13140    13005    12710    11817 
   10779    10509    11284    12631    13863    14635    15130    15633 
   16056    15931    15165    14257    13406    12541    11770    11280 
   11375    12042    12847    13555    14092    14368    14392    14254 
   13925    13289    12588    12287    12660    13691    14643    14646 
   13918    13227    13012    13351    13909    14319    14509    14470 
   14253    13896    13259    12401    11623    11094    10962    11434 
   12503    14062    15689    16416    15897    14790    13732    13140 
   12991    12795    12533    12440    12414    12533    12939    13354 
   13675    14076    14380    14435    14384    14130    13621    13250 
   13225    13248    13107    12934    12942    13157    13359    13527 
   13832    14065    14041    13905    13672    13378    13059    12572 
   12117    12051    12310    12869    13837    14886    15387    14991 
   13807    12387    11614    11947    12933    13788    14116    14134 
   14184    14277    14461    14693    14600    14058    13248    12460 
   12199    12685    13374    13590    13327    12987    12799    12810 
   12924    12993    13049    13278    13794    14463    14918    14740 
   13933    13030    12413    12046    12067    12695    13653    14420 
   14605    14179    13606    13239    13173    13525    14000    14142 
   13976    13594    12995    12530    12645    13193    13738    14181 
   14553    14926    15241    14887    13697    12549    11929    11623 
   11674    11988    12217    12468    12862    13278    13832    14558 
   15213    15628    15619    14949    13806    12734    12019    11812 
   12276    13024    13471    13500    13186    12737    12614    13086 
   13942    14793    15345    15473    15298    14868    14087    13140 
   12449    12199    12170    12047    11843    11823    12282    13263 
   14261    14756    14665    14076    13309    12810    12721    12999 
   13729    14750    15426    15458    15043    14219    13217    12384 
   11546    10735    10449    10891    11966    13247    14137    14566 
   14782    14918    15160    15472    15427    14856    13992    13122 
   12483    12114    12012    12114    12177    12210    12426    12865 
   13441    13925    14234    14446    14501    14558    14818    15048 
   14943    14494    13883    13252    12850    12951    13360    13531 
   13144    12395    11689    11128    10708    10570    10939    11989 
   13477    15032    16382    17132    17081    16308    15164    14170 
   13435    12742    11939    11117    10709    10967    11750    12835 
   13972    14904    15302    14941    14142    13393    12807    12453 
   12557    13001    13419    13724    13902    13841    13628    13513 
   13583    13706    13745    13629    13532    13699    14044    14427 
   14710    14677    14288    13620    12901    12496    12449    12487 
   12464    12426    12414    12669    13440    14257    14613    14634 
   14242    13560    13138    12869    12604    12588    12696    12845 
   13265    13855    14364    14850    15202    15002    14231    13107 
   11692    10611    10625    11557    12872    14215    15176    15650 
   15792    15576    15064    14435    13741    13088    12596    12417 
   12712    13267    13603    13444    12849    12118    11561    11400 
   11726    12397    13305    14435    15458    15962    15911    15357 
   14274    13049    12340    12245    12388    12490    12359    12155 
   12271    12642    13258    14393    15614    16120    15881    15196 
   14199    13269    12748    12480    12468    12825    13009    12661 
   12359    12426    12573    12649    12613    12684    13329    14295 
   14810    14802    14789    15002    15291    15375    14995    14133 
   13059    11944    10912    10509    11095    12235    13389    14318 
   14793    14646    14038    13406    13104    13163    13369    13522 
   13590    13598    13558    13471    13462    13644    13794    13628 
   13220    12864    12727    12866    13242    13639    13840    13852 
   13817    13836    13826    13612    13198    12891    13011    13558 
   14265    14878    15103    14669    13798    12982    12313    11732 
   11437    11691    12384    13101    13771    14476    15013    15299 
   15352    15156    14755    13934    12555    11057     9996     9655 
