Origin Time       2024/06/23 22:54:00
Lat.              35.645
Long.             140.060
Depth. (km)       72
Mag.              4.1
Station Code      IBR013
Station Lat.      36.1587
Station Long.     140.4892
Station Height(m) 29
Record Time       2024/06/23 22:54:49
Sampling Freq(Hz) 100Hz
Duration Time(s)  60
Dir.              N-S
Scale Factor      7845(gal)/8223790
Max. Acc. (gal)   4.644
Last Correction   2024/06/23 22:54:49
Memo.             
[...]
   17608    17613    17616    17614    17610    17608    17609    17613 
   17616    17616    17614    17613    17610    17608    17609    17612 
   17610    17610    17613    17616    17616    17616    17621    17621 
   17612    17605    17602    17601    17608    17617    17617    17614 
   17613    17609    17606    17613    17622    17622    17617    17613 
   17609    17610    17620    17620    17610    17605    17605    17612 
   17620    17622    17624    17621    17613    17608    17608    17608 
   17612    17618    17617    17610    17609    17616    17621    17618 
   17613    17613    17613    17609    17610    17616    17617    17613 
   17609    17610    17610    17614    17620    17614    17612    17613 
   17612    17614    17620    17621    17622    17621    17614    17609 
   17608    17609    17613    17617    17617    17614    17617    17616 
   17609    17613    17616    17613    17613    17612    17613    17620 
   17620    17616    17614    17610    17606    17609    17618    17620 
   17616    17613    17610    17606    17609    17614    17613    17608 
   17608    17613    17614    17614    17618    17620    17612    17606 
   17608    17605    17605    17609    17610    17608    17614    17621 
   17617    17610    17609    17610    17612    17610    17612    17613 
   17610    17608    17610    17613    17612    17609    17610    17612 
   17610    17613    17613    17606    17601    17608    17618    17621 
   17617    17614    17608    17601    17604    17616    17618    17612 
   17609    17612    17609    17606    17610    17616    17621    17621 
   17614    17610    17609    17604    17605    17609    17612    17613 
   17614    17612    17605    17606    17614    17618    17614    17610 
   17614    17614    17608    17606    17606    17606    17613    17617 
   17616    17613    17609    17609    17610    17616    17624    17621 
   17612    17608    17604    17599    17605    17614    17617    17618 
   17616    17610    17610    17605    17604    17616    17622    17620 
   17617    17613    17605    17605    17609    17612    17610    17612 
   17614    17612    17605    17608    17617    17620    17616    17609 
   17601    17599    17612    17616    17614    17620    17620    17614 
   17613    17610    17610    17613    17613    17610    17608    17608 
   17614    17620    17616    17608    17604    17604    17599    17605 
   17621    17624    17618    17617    17609    17601    17610    17621 
   17614    17608    17609    17605    17605    17614    17620    17620 
   17616    17606    17602    17608    17616    17622    17622    17616 
   17610    17606    17606    17612    17617    17616    17610    17605 
   17608    17613    17616    17622    17622    17613    17602    17602 
   17614    17624    17620    17614    17612    17606    17605    17610 
   17618    17624    17621    17612    17609    17617    17626    17631 
   17625    17614    17609    17606    17599    17593    17586    17582 
   17583    17587    17613    17658    17683    17676    17662    17660 
   17670    17658    17609    17544    17490    17447    17440    17518 
   17647    17717    17689    17644    17680    17780    17828    17749 
   17605    17513    17475    17428    17455    17594    17643    17524 
   17431    17466    17583    17760    17964    18052    17896    17614 
   17469    17512    17552    17454    17267    17223    17469    17770 
   17874    17902    17918    17732    17394    17323    17604    17707 
   17428    17369    17861    18310    18044    17263    16852    17172 
   17556    17641    17987    18573    18441    17447    16596    16507 
   16976    17563    17902    18087    18438    18615    18142    17474 
   17194    16999    16605    16623    17475    18419    18647    18237 
   17567    17015    16997    17442    17756    17755    17760    17865 
   17980    18048    17770    17120    16757    17011    17470    17799 
   17917    17857    17841    17896    17879    17748    17471    17230 
   17292    17506    17641    17787    17884    17675    17363    17366 
   17514    17591    17810    18019    17890    17645    17475    17369 
   17486    17663    17459    17043    17078    17767    18539    18647 
   18023    17383    17115    16908    16776    17136    17875    18389 
   18489    18415    18061    17340    16787    16752    16960    17163 
   17410    17775    18153    18342    18334    18234    17936    17334 
   16734    16672    17227    17840    18036    17824    17518    17560 
   17950    18087    17672    17231    17205    17285    17298    17555 
   17994    18284    18258    17832    17178    16711    16849    17679 
   18570    18736    18106    17176    16552    16542    16954    17470 
   17892    18123    18291    18484    18451    18050    17452    16837 
   16464    16588    17115    17801    18424    18682    18404    17722 
   16957    16506    16594    17126    17875    18538    18759    18462 
   18002    17695    17442    17054    16634    16499    16912    17764 
   18531    18670    18115    17402    17059    17108    17431    17961 
   18366    18222    17616    17055    16827    16964    17477    18072 
   18268    17979    17586    17496    17717    17898    17764    17325 
   16816    16638    17105    17973    18601    18716    18405    17653 
   16826    16663    17080    17433    17691    17973    17998    17721 
   17493    17459    17548    17759    17878    17601    17230    17275 
   17724    18208    18349    18088    17783    17536    17113    16642 
   16528    16748    17070    17697    18631    19144    18819    18088 
   17455    17100    16978    16879    16838    17248    18067    18600 
   18438    17845    17351    17371    17682    17605    17140    16899 
   17082    17533    17917    17901    17702    17730    18004    18349 
   18530    18262    17563    16864    16538    16526    16738    17339 
   18083    18279    17946    17814    18114    18473    18513    18057 
   17111    15997    15574    16453    18009    19070    19028    18164 
   17307    16930    17028    17446    17818    17845    17514    17105 
   17097    17595    18242    18679    18684    18304    17761    17108 
   16524    16432    16734    17030    17497    18250    18751    18555 
   17825    17158    16889    16916    17289    17905    18293    18449 
   18530    18208    17574    17247    17217    17122    17012    16984 
   16981    17074    17456    18099    18441    18129    17748    17928 
   18384    18408    17833    17126    16575    16209    16359    17146 
   18056    18570    18419    17836    17647    18053    18249    17901 
   17567    17568    17613    17370    16900    16690    17045    17532 
   17610    17478    17640    18148    18619    18611    18068    17448 
   17074    16935    17101    17605    18006    17739    17051    16848 
   17362    17980    18234    18146    17932    17756    17560    17390 
   17545    17837    17701    17174    16830    17145    18022    18706 
   18594    17865    17065    16634    16762    17267    17726    17902 
   17940    18013    17940    17585    17383    17636    17872    17717 
   17467    17486    17721    17829    17626    17302    17146    17304 
   17571    17572    17401    17435    17729    18018    18038    17888 
   17766    17543    17317    17393    17609    17720    17676    17400 
   16972    16803    17248    18157    18949    19111    18585    17748 
   17000    16575    16586    16920    17319    17604    17726    17749 
   17814    17999    18141    17991    17616    17373    17429    17678 
   18029    18208    17867    17244    16846    16822    17149    17795 
   18408    18307    17450    16673    16586    17184    18061    18515 
   18350    18080    18042    17938    17463    16956    16816    16891 
   16997    17307    17923    18555    18774    18501    17953    17378 
   17112    17197    17170    16893    16862    17270    17697    17892 
   17961    17988    18076    18288    18391    18139    17587    16916 
   16308    16117    16552    17332    18184    18990    19394    19043 
   18031    16931    16459    16760    17188    17273    17235    17340 
   17501    17524    17537    17896    18416    18532    18327    18200 
   17982    17459    17011    16989    17220    17328    17199    17018 
   16941    17059    17539    18299    18829    18765    18374    18015 
   17706    17442    17097    16606    16401    16838    17675    18373 
   18557    18287    17764    17136    16663    16642    17184    18002 
   18624    18828    18534    17852    17211    16879    16884    17282 
   17859    18080    17703    17105    16895    17147    17435    17598 
   17737    17896    18198    18495    18412    18176    18077    17712 
   16991    16491    16470    16749    17188    17656    17999    18184 
   18239    18127    17922    17826    17675    17081    16366    16372 
   17335    18621    19434    19433    18646    17293    16036    15637 
   16148    17061    17849    18245    18470    18727    18693    18202 
   17626    17265    17008    16827    16949    17340    17732    17984 
   18046    17971    17859    17659    17420    17343    17443    17578 
   17610    17446    17197    17212    17682    18279    18443    18102 
   17598    17182    17085    17419    17779    17794    17605    17321 
   16974    16869    17228    17837    18319    18505    18463    18219 
   17791    17427    17281    17122    16892    16969    17344    17604 
   17813    18090    18058    17749    17636    17693    17620    17489 
   17479    17475    17331    17147    17126    17490    18130    18496 
   18405    18180    17948    17725    17604    17435    17103    16777 
   16530    16386    16671    17517    18395    18735    18597    18376 
   18172    17915    17713    17555    17339    17116    17011    17150 
   17342    17236    17069    17235    17629    18009    18322    18476 
   18247    17701    17253    17194    17451    17716    17739    17508 
   17251    17199    17339    17564    17830    18075    18229    18166 
   17824    17494    17440    17482    17342    17030    16800    16875 
   17231    17729    18191    18454    18497    18292    17822    17379 
   17236    17289    17351    17280    17065    16966    17081    17244 
   17485    17878    18266    18492    18586    18605    18431    18023 
   17632    17329    16912    16467    16363    16754    17281    17527 
   17640    17930    18351    18708    18836    18628    18088    17356 
   16784    16656    16780    16869    16957    17138    17440    17838 
   18183    18369    18369    18212    18029    17799    17358    16827 
   16656    17028    17612    17994    18018    17791    17581    17567 
   17699    17890    18107    18202    17972    17578    17362    17281 
   17100    16885    16941    17383    17952    18381    18625    18576 
   18103    17392    16812    16565    16648    16891    17089    17246 
   17444    17685    18098    18751    19221    18940    18014    17216 
   17028    17211    17388    17475    17505    17342    16891    16468 
   16579    17219    17830    18212    18617    18920    18850    18630 
   18492    18141    17309    16390    15894    15940    16511    17374 
   18100    18501    18477    17919    17311    17347    17821    18068 
   18017    17902    17753    17433    16987    16865    17301    17855 
   17980    17566    17088    17145    17617    18029    18216    18098 
   17725    17466    17556    17845    18081    18103    17752    17005 
   16353    16487    17447    18585    19221    18979    18021    16997 
   16495    16553    16761    16934    17201    17402    17421    17620 
   18157    18814    19275    19192    18526    17537    16656    16394 
   16723    17085    17197    17174    17097    17068    17339    17976 
   18540    18615    18393    18254    18175    18044    17919    17737 
   17305    16687    16258    16282    16676    17230    17709    17965 
   18095    18127    18022    17942    18064    18378    18634    18486 
   17853    17042    16455    16140    15984    16173    16877    17868 
   18793    19406    19519    18985    17946    16923    16374    16325 
   16575    16950    17401    17996    18590    18832    18725    18453 
   17932    17188    16652    16568    16703    16950    17307    17447 
   17436    17683    18011    18231    18516    18724    18642    18241 
   17571    16961    16594    16220    15954    16326    17275    18017 
   18112    17950    17940    17937    17755    17552    17574    17825 
   18172    18604    18874    18392    17111    15716    14922    15063 
   15950    17105    18238    19117    19475    19460    19384    19172 
   18765    18322    17952    17818    18063    18474    18663    18407 
   17520    15938    14278    13625    14392    15997    17810    19516 
   20675    21084    20960    20331    19110    17415    15502    13883 
   13163    13505    14532    15888    17340    18511    19222    19684 
   20063    20252    20061    19441    18470    17267    16147    15615 
   15986    17011    17971    18299    18042    17655    17548    17802 
   18142    18310    18423    18565    18432    17840    16923    15993 
   15445    15407    15912    17158    18800    19873    19867    19087 
   18050    16970    15955    15530    16155    17324    18312    19161 
   19776    19491    18273    16912    16038    15817    16235    17084 
   17942    18490    18640    18484    18349    18512    18711    18362 
   17416    16563    16241    16081    15643    15043    14770    15163 
   16240    17987    20056    21658    22418    22480    21606    19515 
   16972    15152    14300    14027    14195    14845    16039    17756 
   19307    19653    18917    18320    18377    18600    18742    19024 
   19234    18648    17113    15385    14322    14287    15122    16521 
   18177    19674    20690    20942    20027    17973    15619    14008 
   13672    14435    15924    17946    20097    21693    22135    21186 
   19205    16946    15137    14324    14597    15576    16883    18091 
   18613    18480    18630    19568    20393    19950    18346    16605 
   15477    15245    15815    16669    17273    17505    17625    17852 
   18107    18223    18023    17552    17309    17599    18269    18958 
   19039    18301    17286    16511    16374    16868    17167    16799 
   16247    16012    16402    17606    19093    19788    19203    17901 
   16841    16725    17709    19226    20271    20131    18787    16860 
   15175    14327    14477    15381    16575    17621    18531    19724 
   21041    21448    20329    18292    16249    14666    13964    14503 
   15876    17132    17914    18584    19352    20016    20206    19595 
   18112    16173    14825    15006    16406    17984    19012    19040 
   18057    16791    16136    16434    17396    18449    19053    18920 
   18339    17902    17761    17697    17508    17266    17460    18215 
   18723    18403    17643    16927    16266    15766    16055    17339 
   18642    18933    18385    17788    17494    17497    17672    17652 
   17361    17286    17528    17595    17425    17524    17906    17834 
   17153    16756    16996    17226    17199    17354    17841    18338 
   18635    18813    18800    18345    17732    17463    17309    16869 
   16395    16317    16592    16907    17170    17562    18071    18445 
   18673    18874    18895    18590    18046    17369    16713    16349 
   16380    16731    17335    17942    18246    18291    18416    18820 
   19157    18823    17687    16314    15390    15148    15658    16922 
   18283    18941    18960    18787    18609    18594    18751    18620 
   17884    16870    16137    15965    16224    16627    16992    17285 
   17640    18090    18314    18011    17446    17200    17356    17555 
   17810    18270    18623    18569    18226    17766    17334    17116 
   17061    16895    16652    16606    16745    17101    17964    19057 
   19475    18901    18115    17936    18102    17817    17089    16568 
   16379    16173    15889    15858    16380    17396    18621    19720 
   20322    20281    19738    18827    17599    16345    15699    15989 
   16684    17109    17255    17320    17271    17045    16780    16860 
   17456    18252    18929    19419    19552    19102    18095    16810 
   15746    15475    16131    17232    18266    19024    19450    19507 
   19090    18198    17076    16017    15346    15348    15928    16760 
   17593    18161    18338    18339    18411    18644    18967    19124 
   18917    18415    17771    17076    16337    15535    14899    14967 
   16128    18036    19618    20038    19406    18323    17359    16825 
   16606    16510    16555    16745    17037    17629    18719    19905 
   20553    20336    19098    17038    14980    13865    14107    15322 
   16764    18129    19462    20548    21003    20704    19857    18643 
   17065    15481    14634    14697    15111    15580    16328    17459 
   18756    19934    20664    20637    19961    19129    18376    17694 
   17220    16960    16638    16078    15481    15302    15688    16337 
   17062    17767    18149    18172    18233    18497    18708    18770 
   18824    18715    18279    17814    17625    17594    17340    16614 
   15620    14877    14860    15757    17226    18716    19881    20410 
   20065    19071    18072    17493    17086    16583    16349    16723 
   17369    17847    17986    17709    17091    16335    15808    16013 
   17038    18489    19809    20472    20403    19799    18725    17456 
   16283    15241    14588    14717    15591    16843    18076    18908 
   19184    18955    18324    17605    17188    17242    17555    17635 
   17518    17878    18720    19284    19194    18638    17859    17077 
   16511    16254    16320    16605    16798    16723    16595    16761 
   17300    17972    18727    19708    20578    20630    19661    18171 
   16698    15429    14655    14829    15884    17181    18123    18569 
   18797    19056    19263    19361    19322    18690    17304    15859 
   15036    14993    15537    16303    17046    17751    18470    19070 
   19276    18921    18084    17213    16744    16598    16636    16947 
   17374    17690    18071    18624    19059    19110    18758    18102 
   17320    16714    16603    16957    17273    17173    16752    16402 
   16513    17091    17923    18847    19492    19554    19190    18712 
   18268    17776    17127    16389    15711    15317    15534    16452 
   17672    18681    19174    19084    18636    18091    17624    17475 
   17679    17977    18121    17945    17420    16788    16383    16310 
   16588    17301    18223    18829    19024    19151    19134    18581 
   17509    16295    15323    14871    15025    15789    17173    18831 
   19996    20131    19419    18503    17856    17470    17185    16950 
   16733    16588    16563    16699    17184    17911    18472    18867 
   19179    19029    18287    17537    17313    17517    17722    17640 
   17409    17300    17367    17487    17309    16660    16013    15994 
   16812    18153    19421    20039    19585    18204    16798    16187 
   16303    16618    16968    17359    17478    17217    17193    17793 
   18578    18987    18790    18111    17267    16499    16123    16532 
   17525    18200    18138    17884    17876    17996    18057    18042 
   18196    18590    18731    18316    17737    17397    17161    16733 
