Origin Time       2024/06/23 22:54:00
Lat.              35.645
Long.             140.060
Depth. (km)       72
Mag.              4.1
Station Code      IBR003
Station Lat.      36.5914
Station Long.     140.6453
Station Height(m) 58
Record Time       2024/06/23 22:55:02
Sampling Freq(Hz) 100Hz
Duration Time(s)  60
Dir.              U-D
Scale Factor      7845(gal)/8223790
Max. Acc. (gal)   0.846
Last Correction   2024/06/23 22:55:02
Memo.             
[...]
   19955    19975    19691    19357    19458    19888    20096    19977 
   19803    19701    19791    20058    20167    19989    19836    19861 
   19785    19553    19510    19699    19863    19986    20054    20017 
   19958    19781    19647    19959    20254    19963    19631    19650 
   19637    19543    19610    19755    19863    19947    19958    19828 
   19732    19931    20235    20248    20079    19953    19743    19522 
   19553    19683    19611    19615    19975    20125    19738    19608 
   20028    20225    20051    19966    19889    19615    19344    19386 
   19773    20147    20151    19861    19716    19971    20285    20151 
   19672    19464    19627    19627    19495    19777    20228    20183 
   19885    19928    20036    19791    19658    19903    19944    19689 
   19641    19676    19573    19726    20050    20009    19850    19950 
   20032    20023    20106    20101    19843    19592    19549    19499 
   19337    19423    19758    19913    19989    20147    20142    20071 
   20137    20125    20001    19920    19799    19699    19782    19722 
   19341    19226    19600    19867    19850    19947    20163    20187 
   20023    19900    19889    19938    20000    19934    19647    19475 
   19684    19953    20005    19978    19865    19593    19477    19730 
   19971    19843    19647    19759    19965    20039    20077    20019 
   19870    19855    19867    19797    19867    19955    19772    19545 
   19643    19994    20137    19872    19599    19612    19705    19761 
   19892    19998    19938    19857    19811    19703    19714    19921 
   19971    19899    20024    20040    19703    19561    19857    20073 
   20016    19958    19939    19845    19726    19653    19624    19622 
   19619    19658    19866    20119    20081    19889    19882    19862 
   19696    19735    19996    20079    19908    19707    19620    19691 
   19924    20035    19712    19415    19716    20146    20148    20015 
   19932    19773    19757    20000    20094    19840    19592    19591 
   19670    19701    19751    19881    20029    20096    20004    19818 
   19715    19660    19591    19691    19866    19847    19786    19885 
   20023    20042    19894    19805    19957    20116    20100    19930 
   19680    19569    19666    19780    19776    19651    19539    19639 
   19843    19939    20061    20254    20267    20115    19939    19762 
   19691    19749    19793    19691    19417    19264    19484    19749 
   19809    19904    20098    20266    20347    20231    19975    19866 
   19957    20011    19896    19759    19653    19444    19313    19433 
   19602    19782    19905    19793    19807    20105    20171    19900 
   19727    19854    20177    20374    20185    19909    19886    19885 
   19681    19468    19441    19504    19521    19541    19576    19661 
   19948    20233    20244    20186    20175    20083    19931    19830 
   19878    19977    19904    19691    19457    19255    19341    19747 
   19924    19707    19670    19990    20208    20164    20098    20096 
   20081    20043    19982    19827    19611    19560    19669    19595 
   19367    19373    19619    19900    20205    20382    20267    20066 
   19992    20024    20039    19861    19561    19429    19476    19537 
   19620    19728    19761    19766    19908    20129    20117    19874 
   19835    20092    20209    19973    19700    19699    19826    19812 
   19693    19618    19674    19855    19877    19738    19958    20304 
   20013    19510    19550    19704    19549    19603    20004    20125 
   19934    19971    20096    20008    20029    20096    19843    19630 
   19683    19610    19454    19523    19708    19913    20121    20116 
   19994    20032    20008    19808    19801    20000    19912    19446 
   19210    19496    19815    19908    20044    20150    20058    19997 
   19989    19884    19842    19901    19854    19747    19757    19777 
   19656    19603    19768    19791    19620    19730    20052    20115 
   19962    19826    19749    19903    20204    20189    19899    19732 
   19651    19521    19494    19662    19888    19993    20008    20017 
   19838    19489    19476    19830    19984    19954    20140    20287 
   20004    19666    19808    20133    20056    19726    19572    19561 
   19589    19672    19668    19618    19758    19973    19959    19880 
   20092    20302    20050    19781    19915    19935    19641    19495 
   19549    19620    19727    19857    20046    20170    19939    19704 
   19936    20140    19920    19749    19745    19603    19556    19755 
   19893    19920    19881    19734    19801    20173    20263    19908 
   19629    19588    19606    19784    20067    20096    19923    19797 
   19624    19472    19676    20062    20096    19846    19845    20063 
   20019    19687    19521    19687    19881    20046    20237    20100 
   19738    19680    19677    19487    19560    19869    19849    19583 
   19691    20151    20298    20070    19985    20004    19869    19819 
   19847    19657    19518    19602    19526    19462    19857    20282 
   20200    19878    19762    19847    19948    20066    20140    19923 
   19550    19521    19835    20044    19951    19680    19537    19676 
   19769    19778    20082    20335    20059    19718    19660    19622 
   19619    19789    19926    19934    19940    19894    19764    19745 
   19812    19840    20012    20231    20028    19638    19593    19704 
   19615    19440    19504    19950    20376    20345    20061    19889 
   19830    19784    19764    19755    19673    19521    19425    19597 
   20061    20325    20124    19984    20115    20019    19647    19553 
   19815    19880    19649    19692    19966    19936    19762    19731 
   19712    19701    19753    19853    20035    20155    20005    19746 
   19739    19935    19980    19899    19866    19719    19460    19500 
   19892    20163    20116    19908    19697    19699    19873    19831 
   19653    19773    20019    20034    19981    20012    19888    19602 
   19543    19745    19897    19965    19913    19746    19754    19832 
   19684    19633    19803    19870    19990    20233    20191    19923 
   19807    19731    19537    19568    19923    20024    19753    19695 
   19901    19923    19805    19804    19809    19765    19784    19795 
   19820    20058    20191    19870    19616    19826    20019    19909 
   19816    19865    19846    19739    19726    19804    19801    19741 
   19761    19739    19660    19796    20027    20065    20042    19958 
   19749    19764    20000    20055    19940    19700    19354    19365 
   19827    20133    20055    19911    19881    19880    19807    19759 
   19831    19873    19896    20007    20023    19948    19915    19812 
   19761    19865    19805    19553    19415    19462    19614    19766 
   19911    20098    20128    19989    20050    20248    20186    19946 
   19805    19720    19570    19473    19572    19712    19726    19751 
   19835    19845    19861    19957    19992    20001    20051    19954 
   19799    19843    19892    19815    19863    19962    19936    19890 
   19705    19435    19533    19778    19770    19788    19816    19645 
   19683    20059    20189    19962    19943    20129    19997    19704 
   19746    19930    19928    19884    19946    19990    19812    19429 
   19190    19341    19707    20005    20183    20243    20194    20071 
   19901    19870    19992    19942    19670    19484    19495    19525 
   19518    19699    20147    20445    20179    19728    19707    19866 
   19741    19614    19768    19939    19917    19828    19828    19940 
   20086    20127    19957    19692    19561    19612    19770    19959 
   20021    19876    19719    19705    19707    19666    19753    19986 
   20132    19971    19626    19581    19975    20186    19843    19538 
   19716    19986    19977    19768    19635    19823    20106    20113 
   19971    19899    19822    19695    19739    19978    19861    19431 
   19502    19885    19849    19703    19903    20066    19908    19778 
   19932    20044    19857    19745    19897    19869    19672    19836 
   20148    20031    19769    19726    19653    19618    19799    19854 
   19728    19805    20058    20083    19830    19685    19751    19766 
   19795    20032    20196    19970    19654    19668    19845    19845 
   19764    19835    19932    19839    19734    19741    19681    19693 
   19913    19957    19815    19951    20202    20062    19695    19633 
   19816    19818    19684    19650    19700    19827    20054    20287 
   20289    19877    19491    19600    19755    19647    19728    20044 
   20159    19884    19453    19449    19967    20282    20082    19857 
   19797    19711    19732    19930    19935    19726    19700    19777 
   19705    19743    19919    19872    19842    20061    20002    19672 
   19731    20013    19927    19673    19700    19932    20046    19917 
   19785    19804    19747    19626    19765    19986    19934    19799 
   19826    19932    19993    19932    19795    19774    19861    19830 
   19692    19651    19684    19699    19772    19924    20013    19913 
   19789    19939    20209    20132    19781    19678    19944    20198 
   20052    19541    19248    19506    19789    19761    19781    19963 
   19971    19811    19893    20178    20101    19707    19638    19843 
   19827    19696    19724    19766    19797    19947    19984    19809 
   19788    19885    19789    19812    20094    20109    19865    19770 
   19773    19743    19688    19657    19676    19624    19672    19943 
   19947    19691    19831    20217    20290    20171    20063    19858 
   19688    19797    20001    19957    19665    19413    19479    19730 
   19759    19746    19986    20115    19920    19669    19579    19755 
   20055    20104    19828    19643    19836    20056    20066    20143 
   20144    19840    19669    19683    19580    19700    20000    19834 
   19379    19264    19516    19838    20015    20090    20210    20271 
   20135    19888    19830    20016    19986    19660    19508    19639 
   19743    19627    19534    19716    19926    19944    19873    19816 
   19900    20058    20024    19953    20074    20067    19766    19572 
   19657    19757    19780    19892    19965    19765    19608    19796 
   19954    19881    19903    19917    19646    19425    19606    20052 
   20382    20267    20012    20005    19946    19781    19719    19476 
   19234    19496    19811    19708    19656    19986    20343    20358 
   20142    20067    20193    20185    19827    19348    19183    19526 
   20009    19957    19472    19298    19403    19537    19986    20397 
   20169    19770    19786    20116    20470    20463    20024    19637 
   19543    19561    19622    19708    19742    19758    19765    19776 
   19889    20039    20105    20056    19930    19803    19562    19288 
   19454    19836    19809    19774    20116    20266    20098    20029 
   20085    20132    20065    19850    19714    19661    19460    19260 
   19404    19784    19884    19608    19537    19904    20245    20174 
   19876    19884    20191    20196    19917    19880    19943    19788 
   19657    19665    19596    19530    19638    19792    19845    19820 
   19926    20214    20290    20027    19743    19565    19696    20051 
   20002    19683    19581    19473    19460    19853    20115    20005 
   20017    20169    20032    19637    19565    19965    20105    19765 
   19669    19928    19946    19778    19722    19641    19766    20201 
   20154    19545    19430    19861    19899    19714    20043    20398 
   20078    19624    19619    19727    19715    19791    19880    19846 
   19839    19876    19862    19809    19739    19741    19766    19745 
   19934    20233    20151    19831    19680    19604    19538    19568 
   19523    19456    19703    20181    20439    20325    20151    20139 
   20065    19854    19811    19859    19647    19309    19186    19446 
   19961    20175    19962    19904    20105    20174    20125    20004 
   19661    19421    19614    19830    19728    19647    19724    19627 
   19556    19927    20263    20105    20015    20170    19998    19776 
   19971    20024    19676    19364    19278    19475    19800    19884 
   19805    19923    20312    20591    20322    19834    19789    20070 
   20096    19792    19426    19126    19045    19303    19678    19867 
   19928    20123    20325    20212    19967    19996    20235    20348 
   20167    19747    19360    19313    19402    19263    19278    19805 
   20271    20272    20128    19953    19722    19726    19901    19866 
   19758    19872    20061    20065    19920    19896    20094    20236 
   19994    19515    19255    19356    19552    19554    19492    19786 
   20263    20321    20085    20089    20263    20201    19894    19657 
   19562    19558    19678    19695    19452    19348    19602    19818 
   19799    19816    19961    20185    20443    20416    20136    20078 
   20147    19973    19630    19377    19379    19450    19429    19592 
   19843    19831    19872    20133    20216    20110    19966    19737 
   19633    19762    19839    19742    19688    19845    19903    19672 
   19739    20345    20645    20214    19712    19569    19542    19543 
   19638    19666    19495    19313    19465    19870    20055    20152 
   20522    20646    20220    19973    20075    19932    19653    19623 
   19533    19211    19214    19701    19940    19584    19299    19581 
   20042    20355    20636    20727    20371    19850    19587    19510 
   19438    19491    19651    19678    19619    19683    19862    20101 
   20332    20250    19886    19737    19747    19634    19681    19889 
   19782    19556    19757    20105    20034    19759    19764    19950 
   19927    19696    19672    19867    19849    19714    19901    20193 
   20127    19905    19878    19859    19782    19786    19629    19349 
   19445    19832    20046    20050    20047    20058    20007    19934 
   19863    19772    19776    19867    19772    19562    19662    19959 
   19951    19735    19704    19788    19823    19803    19772    19888 
   19997    19874    19880    20177    20268    19911    19498    19542 
   19954    20173    20001    19656    19398    19471    19708    19780 
   19858    20007    19953    19834    19876    19966    20104    20302 
   20348    20201    19916    19430    19063    19245    19681    19882 
   19893    19823    19678    19672    19800    19835    19899    20061 
   20089    19978    19839    19835    20094    20245    20058    19786 
   19549    19560    19800    19677    19427    19738    20038    19780 
   19641    19932    20160    20151    19943    19708    19884    20233 
   20055    19634    19591    19705    19620    19495    19684    20034 
   19917    19511    19681    20197    20148    19770    19697    19818 
   19967    20056    19926    19820    19953    19997    19731    19538 
   19762    20097    20175    20110    19953    19581    19171    19055 
   19386    19923    20166    20069    19943    19831    19924    20356 
   20517    20139    19778    19627    19635    19896    20066    19801 
   19292    18960    19233    19935    20259    20086    19915    19743 
   19629    19924    20370    20525    20461    20236    19813    19421 
   19375    19542    19449    19199    19368    19893    20124    19947 
   19961    20235    20189    19963    20028    20019    19701    19514 
   19570    19635    19677    19738    19907    20193    20237    19903 
   19630    19676    19812    19792    19707    19818    19905    19689 
   19683    20109    20290    20059    19831    19673    19626    19774 
   19881    19820    19780    19839    19973    20051    19917    19839 
   19936    19724    19309    19280    19560    19893    20237    20278 
   19931    19722    19969    20313    20301    20015    19785    19592 
   19373    19340    19460    19577    19791    19988    19951    19878 
   19877    19936    20258    20542    20236    19728    19714    19901 
   19751    19575    19678    19662    19318    19079    19392    20050 
   20341    20183    20073    20038    19959    19953    19939    19980 
   20121    19919    19453    19430    19726    19724    19562    19683 
   20001    20120    19989    20042    20263    20035    19611    19751 
   19985    19654    19336    19472    19606    19608    19753    20007 
   20217    20268    20089    19824    19724    19905    20092    19957 
   19766    19795    19797    19774    19892    19869    19592    19472 
   19707    19936    19936    19934    19917    19747    19715    19961 
   20123    20055    19988    19944    19751    19561    19579    19631 
   19687    19904    19970    19688    19566    19831    20112    20237 
   20223    20070    19886    19720    19626    19646    19588    19529 
   19754    19946    19792    19660    19772    19996    20223    20263 
   20096    19970    19921    19813    19700    19746    19865    19777 
   19584    19592    19616    19479    19576    19996    20201    20055 
   19966    20155    20293    19959    19512    19591    19916    19948 
   19819    19708    19585    19587    19766    19944    19917    19747 
   19813    20028    19889    19618    19731    20015    20046    19855 
   19720    19789    19939    19988    19947    19859    19749    19768 
   19939    19982    19785    19620    19660    19791    19930    20036 
   20054    19997    19842    19615    19577    19739    19791    19757 
   19823    19901    19931    19980    19998    19861    19627    19643 
   19975    20112    19901    19793    19809    19619    19435    19595 
   19811    19832    19958    20252    20240    19878    19774    19989 
   19936    19701    19768    19896    19755    19585    19623    19797 
   19904    19959    20182    20263    19840    19508    19662    19761 
   19646    19638    19738    19859    20009    20071    19973    19885 
   19996    20113    19931    19708    19789    19920    19799    19573 
   19538    19622    19568    19579    19927    20318    20380    20104 
   19793    19822    19915    19579    19338    19719    19994    19696 
   19525    19831    20110    20158    20205    20150    19759    19350 
   19391    19832    20223    20260    20110    20021    19961    19797 
   19500    19267    19317    19506    19691    20039    20407    20345 
   19974    19750    19742    19831    19934    19915    19808    19816 
   19869    19689    19456    19638    19993    19951    19809    19963 
   19903    19546    19615    19903    19850    19878    20032    19896 
   19866    20127    20194    20028    19828    19591    19444    19507 
   19661    19718    19689    19807    20139    20313    20097    19800 
   19711    19845    20073    20090    19921    19872    19807    19696 
   19851    19959    19570    19106    19132    19461    19691    19942 
   20352    20563    20358    20043    19957    20009    19921    19849 
   19992    19931    19514    19390    19693    19739    19487    19537 
   19853    19938    19769    19782    20109    20197    19813    19585 
   19789    19998    20020    19996    19980    19892    19731    19645 
   19678    19749    19770    19697    19669    19805    19866    19795 
   19950    20243    20208    19951    19874    19928    19903    19792 
   19697    19728    19747    19583    19552    19831    19981    19850 
