Origin Time       2024/06/23 22:54:00
Lat.              35.645
Long.             140.060
Depth. (km)       72
Mag.              4.1
Station Code      IBR011
Station Lat.      36.1256
Station Long.     140.0901
Station Height(m) 27
Record Time       2024/06/23 22:54:47
Sampling Freq(Hz) 100Hz
Duration Time(s)  64
Dir.              E-W
Scale Factor      7845(gal)/8223790
Max. Acc. (gal)   1.971
Last Correction   2024/06/23 22:54:47
Memo.             
[...]
  -14773   -14779   -14774   -14766   -14756   -14760   -14767   -14767 
  -14773   -14777   -14766   -14755   -14756   -14762   -14766   -14770 
  -14773   -14771   -14764   -14763   -14762   -14762   -14769   -14774 
  -14774   -14767   -14760   -14763   -14769   -14764   -14762   -14766 
  -14767   -14767   -14764   -14764   -14764   -14767   -14764   -14760 
  -14766   -14774   -14770   -14760   -14759   -14766   -14773   -14767 
  -14760   -14763   -14767   -14763   -14756   -14760   -14769   -14767 
  -14763   -14760   -14764   -14767   -14763   -14760   -14763   -14769 
  -14767   -14763   -14762   -14759   -14759   -14766   -14769   -14770 
  -14769   -14763   -14756   -14758   -14760   -14766   -14773   -14769 
  -14760   -14763   -14764   -14760   -14762   -14766   -14770   -14774 
  -14766   -14758   -14760   -14767   -14766   -14764   -14766   -14769 
  -14767   -14762   -14762   -14764   -14764   -14767   -14767   -14763 
  -14760   -14759   -14760   -14764   -14766   -14771   -14771   -14760 
  -14755   -14758   -14763   -14773   -14769   -14760   -14764   -14767 
  -14770   -14773   -14763   -14755   -14758   -14763   -14766   -14770 
  -14769   -14762   -14760   -14764   -14767   -14770   -14767   -14760 
  -14760   -14763   -14762   -14766   -14766   -14759   -14758   -14763 
  -14771   -14775   -14767   -14764   -14764   -14760   -14762   -14764 
  -14760   -14762   -14766   -14762   -14764   -14771   -14771   -14764 
  -14754   -14754   -14766   -14773   -14773   -14770   -14767   -14760 
  -14755   -14758   -14759   -14762   -14767   -14769   -14770   -14769 
  -14759   -14755   -14759   -14760   -14762   -14769   -14770   -14766 
  -14764   -14762   -14764   -14767   -14764   -14762   -14762   -14760 
  -14758   -14760   -14763   -14762   -14762   -14766   -14771   -14771 
  -14766   -14764   -14767   -14766   -14763   -14758   -14763   -14771 
  -14769   -14763   -14766   -14767   -14763   -14759   -14763   -14766 
  -14764   -14763   -14767   -14774   -14771   -14764   -14763   -14763 
  -14760   -14759   -14764   -14769   -14767   -14766   -14764   -14764 
  -14767   -14769   -14771   -14773   -14764   -14759   -14762   -14767 
  -14770   -14771   -14770   -14769   -14766   -14760   -14759   -14762 
  -14763   -14767   -14771   -14764   -14759   -14758   -14763   -14778 
  -14783   -14775   -14767   -14754   -14746   -14755   -14767   -14777 
  -14779   -14771   -14763   -14766   -14769   -14758   -14751   -14752 
  -14764   -14781   -14782   -14769   -14759   -14754   -14754   -14763 
  -14769   -14773   -14771   -14755   -14747   -14766   -14782   -14775 
  -14755   -14746   -14754   -14770   -14787   -14786   -14760   -14740 
  -14740   -14760   -14782   -14781   -14774   -14771   -14755   -14743 
  -14758   -14774   -14774   -14770   -14763   -14756   -14763   -14775 
  -14771   -14758   -14760   -14771   -14769   -14755   -14755   -14763 
  -14770   -14779   -14779   -14773   -14763   -14751   -14752   -14763 
  -14773   -14770   -14760   -14760   -14770   -14771   -14771   -14764 
  -14758   -14760   -14766   -14769   -14769   -14763   -14759   -14767 
  -14777   -14773   -14763   -14759   -14756   -14762   -14769   -14775 
  -14778   -14763   -14751   -14760   -14770   -14773   -14769   -14759 
  -14759   -14764   -14764   -14769   -14769   -14758   -14758   -14767 
  -14770   -14774   -14770   -14755   -14750   -14752   -14759   -14773 
  -14779   -14778   -14771   -14759   -14747   -14744   -14752   -14770 
  -14782   -14777   -14770   -14767   -14760   -14756   -14767   -14773 
  -14764   -14754   -14752   -14760   -14773   -14774   -14770   -14763 
  -14758   -14766   -14777   -14773   -14764   -14759   -14752   -14756 
  -14769   -14778   -14775   -14769   -14762   -14755   -14759   -14767 
  -14774   -14771   -14759   -14754   -14759   -14763   -14766   -14770 
  -14769   -14763   -14760   -14760   -14764   -14766   -14763   -14766 
  -14764   -14758   -14762   -14766   -14767   -14770   -14758   -14747 
  -14751   -14760   -14781   -14798   -14782   -14754   -14743   -14754 
  -14781   -14781   -14750   -14739   -14773   -14804   -14774   -14733 
  -14754   -14775   -14747   -14715   -14743   -14816   -14841   -14814 
  -14777   -14702   -14663   -14717   -14796   -14867   -14850   -14733 
  -14704   -14760   -14759   -14725   -14733   -14774   -14808   -14828 
  -14817   -14769   -14698   -14640   -14739   -14862   -14775   -14747 
  -14883   -14887   -14715   -14547   -14612   -14836   -14879   -14773 
  -14786   -14920   -14901   -14662   -14577   -14747   -14779   -14621 
  -14673   -14966   -15030   -14748   -14559   -14656   -14787   -14820 
  -14759   -14693   -14813   -14972   -14871   -14665   -14628   -14673 
  -14665   -14751   -14939   -14955   -14821   -14719   -14615   -14596 
  -14720   -14818   -14860   -14843   -14816   -14841   -14754   -14636 
  -14643   -14694   -14837   -14959   -14928   -14781   -14546   -14486 
  -14697   -14929   -15083   -15007   -14615   -14280   -14426   -14836 
  -15025   -15076   -15075   -14824   -14554   -14508   -14558   -14652 
  -14843   -15009   -14979   -14891   -14778   -14474   -14347   -14690 
  -15026   -15013   -14879   -14791   -14719   -14629   -14592   -14674 
  -14779   -14906   -14947   -14736   -14654   -14783   -14743   -14646 
  -14683   -14851   -15051   -15016   -14732   -14396   -14345   -14748 
  -15052   -14971   -14902   -14863   -14663   -14423   -14451   -14805 
  -15029   -14985   -14935   -14878   -14781   -14632   -14450   -14527 
  -14886   -15052   -14885   -14739   -14706   -14655   -14586   -14573 
  -14736   -15005   -15064   -14848   -14667   -14698   -14702   -14632 
  -14729   -14866   -14878   -14886   -14885   -14786   -14557   -14362 
  -14512   -14870   -15072   -15056   -14879   -14658   -14521   -14534 
  -14760   -14998   -14982   -14875   -14789   -14627   -14573   -14694 
  -14775   -14804   -14843   -14864   -14863   -14789   -14616   -14463 
  -14566   -14922   -15090   -14924   -14767   -14678   -14621   -14677 
  -14721   -14747   -14785   -14758   -14770   -14912   -14985   -14770 
  -14500   -14520   -14706   -14856   -14924   -14860   -14786   -14778 
  -14744   -14712   -14724   -14746   -14779   -14808   -14817   -14773 
  -14677   -14709   -14882   -14935   -14802   -14655   -14563   -14536 
  -14642   -14837   -15034   -15176   -15090   -14739   -14418   -14299 
  -14385   -14709   -15084   -15201   -15034   -14777   -14554   -14451 
  -14516   -14675   -14858   -15043   -15117   -14994   -14762   -14494 
  -14365   -14492   -14670   -14868   -15025   -14893   -14782   -14895 
  -14920   -14804   -14598   -14450   -14548   -14674   -14832   -15128 
  -15182   -14874   -14466   -14272   -14519   -14906   -15036   -14922 
  -14820   -14845   -14740   -14553   -14669   -14886   -14882   -14771 
  -14692   -14747   -14875   -14893   -14850   -14740   -14544   -14424 
  -14492   -14786   -15098   -15117   -14902   -14651   -14538   -14662 
  -14835   -14845   -14725   -14708   -14875   -14893   -14679   -14627 
  -14804   -14858   -14720   -14678   -14742   -14720   -14690   -14693 
  -14733   -14929   -15084   -14914   -14635   -14619   -14678   -14577 
  -14697   -15028   -15066   -14908   -14724   -14532   -14584   -14719 
  -14651   -14642   -14864   -15043   -14974   -14779   -14608   -14558 
  -14662   -14787   -14871   -14936   -14899   -14789   -14716   -14620 
  -14446   -14418   -14740   -15130   -15195   -14986   -14731   -14526 
  -14458   -14623   -14895   -15001   -14895   -14735   -14708   -14805 
  -14820   -14833   -14878   -14728   -14547   -14573   -14755   -15025 
  -15057   -14743   -14540   -14543   -14547   -14635   -14837   -15025 
  -15013   -14847   -14823   -14785   -14528   -14411   -14590   -14786 
  -14837   -14854   -14958   -15009   -14854   -14635   -14567   -14656 
  -14770   -14844   -14845   -14813   -14817   -14796   -14750   -14737 
  -14791   -14852   -14717   -14571   -14678   -14801   -14893   -15048 
  -15024   -14715   -14366   -14304   -14565   -14910   -15182   -15142 
  -14808   -14613   -14596   -14574   -14575   -14635   -14864   -15095 
  -14997   -14791   -14724   -14616   -14548   -14719   -14945   -14951 
  -14683   -14477   -14588   -14824   -14985   -14963   -14793   -14667 
  -14681   -14755   -14700   -14700   -15012   -15152   -14886   -14615 
  -14431   -14407   -14661   -14921   -14970   -14847   -14715   -14747 
  -14866   -14889   -14789   -14646   -14639   -14805   -14852   -14743 
  -14667   -14608   -14647   -14746   -14762   -14844   -14914   -14856 
  -14818   -14794   -14779   -14743   -14728   -14920   -14935   -14507 
  -14207   -14401   -14867   -15246   -15272   -15049   -14805   -14551 
  -14428   -14555   -14742   -14895   -14998   -14962   -14742   -14435 
  -14411   -14696   -14937   -15086   -14994   -14652   -14422   -14378 
  -14598   -15009   -15203   -15088   -14751   -14500   -14639   -14825 
  -14827   -14787   -14774   -14841   -14837   -14698   -14689   -14742 
  -14650   -14563   -14655   -14817   -14870   -14859   -14931   -14972 
  -14824   -14646   -14511   -14462   -14685   -14964   -15082   -15078 
  -14862   -14544   -14362   -14418   -14723   -14995   -15041   -15036 
  -15059   -14859   -14407   -14207   -14436   -14724   -14932   -15105 
  -15120   -14924   -14679   -14530   -14486   -14605   -14863   -15083 
  -15111   -14974   -14820   -14627   -14405   -14374   -14588   -14899 
  -15095   -15040   -14829   -14674   -14671   -14706   -14737   -14793 
  -14721   -14598   -14663   -14785   -14872   -14994   -14947   -14752 
  -14686   -14636   -14539   -14597   -14806   -14974   -14929   -14724 
  -14578   -14507   -14535   -14804   -15118   -15088   -14740   -14505 
  -14571   -14704   -14770   -14841   -14920   -14933   -14883   -14802 
  -14663   -14588   -14766   -15029   -15072   -14862   -14592   -14470 
  -14538   -14729   -14902   -14856   -14655   -14593   -14652   -14694 
  -14936   -15341   -15381   -14951   -14532   -14381   -14305   -14326 
  -14611   -14850   -14809   -14746   -14835   -15032   -15137   -14962 
  -14693   -14592   -14570   -14551   -14669   -14837   -14885   -14812 
  -14674   -14659   -14804   -14899   -14986   -15045   -14905   -14716 
  -14602   -14538   -14567   -14623   -14679   -14770   -14797   -14797 
  -14912   -15013   -14881   -14639   -14562   -14585   -14546   -14569 
  -14740   -14904   -14959   -14956   -14924   -14855   -14793   -14797 
  -14812   -14736   -14666   -14659   -14651   -14686   -14742   -14785 
  -14852   -14906   -14895   -14783   -14677   -14643   -14636   -14794 
  -15021   -14991   -14774   -14577   -14519   -14600   -14690   -14837 
  -14956   -14847   -14739   -14750   -14670   -14608   -14750   -14962 
  -14990   -14787   -14620   -14655   -14760   -14836   -14894   -14910 
  -14796   -14535   -14395   -14571   -14852   -14991   -14910   -14708 
  -14689   -14854   -14879   -14790   -14801   -14858   -14840   -14732 
  -14598   -14548   -14636   -14823   -14940   -14914   -14843   -14731 
  -14623   -14627   -14698   -14755   -14778   -14759   -14735   -14785 
  -14881   -14947   -14991   -14978   -14862   -14759   -14769   -14804 
  -14706   -14547   -14490   -14489   -14500   -14607   -14782   -14887 
  -14916   -15002   -15061   -14928   -14786   -14715   -14584   -14532 
  -14646   -14771   -14854   -14899   -14891   -14806   -14628   -14503 
  -14600   -14820   -14932   -14893   -14836   -14816   -14755   -14727 
  -14808   -14797   -14629   -14528   -14616   -14843   -15036   -15044 
  -14909   -14759   -14623   -14562   -14694   -14852   -14858   -14867 
  -14829   -14675   -14670   -14735   -14669   -14688   -14839   -14887 
  -14736   -14454   -14265   -14373   -14712   -15080   -15340   -15406 
  -15238   -14850   -14401   -14242   -14499   -14820   -14871   -14743 
  -14678   -14674   -14631   -14613   -14655   -14740   -14854   -14920 
  -14944   -14924   -14832   -14793   -14817   -14794   -14769   -14877 
  -15087   -15126   -14902   -14678   -14590   -14534   -14438   -14436 
  -14617   -14701   -14607   -14729   -15061   -15172   -14966   -14688 
  -14598   -14648   -14605   -14531   -14632   -14897   -15080   -15039 
  -14928   -14800   -14547   -14269   -14219   -14528   -14987   -15219 
  -15153   -14964   -14752   -14621   -14667   -14724   -14580   -14459 
  -14655   -14951   -14991   -14769   -14505   -14492   -14742   -14928 
  -14980   -15017   -14955   -14785   -14661   -14601   -14540   -14484 
  -14582   -14924   -15130   -14968   -14775   -14620   -14415   -14380 
  -14536   -14669   -14683   -14670   -14632   -14472   -14347   -14400 
  -14644   -15063   -15454   -15619   -15516   -15336   -15219   -15047 
  -14851   -14828   -14945   -15022   -14998   -14875   -14592   -14266 
  -14172   -14351   -14634   -14843   -14928   -14920   -14832   -14781 
  -14920   -15203   -15453   -15631   -15696   -15471   -14998   -14472 
  -14077   -14010   -14202   -14408   -14531   -14625   -14623   -14385 
  -14119   -14023   -14102   -14469   -14989   -15234   -15082   -14739 
  -14462   -14400   -14519   -14740   -14982   -15051   -14864   -14446 
  -13886   -13551   -13659   -14150   -14994   -15824   -16040   -15577 
  -14931   -14574   -14644   -15060   -15557   -15766   -15520   -14891 
  -14189   -13925   -14377   -15156   -15530   -15321   -14858   -14311 
  -13968   -14276   -15138   -16008   -16425   -16154   -15236   -14110 
  -13367   -13300   -13860   -14632   -15045   -14945   -14419   -13672 
  -13236   -13339   -13880   -14926   -16148   -16831   -16660   -15861 
  -15017   -14585   -14511   -14566   -14619   -14647   -14677   -14729 
  -14814   -14893   -14980   -14974   -14547   -13838   -13325   -13257 
  -13848   -14890   -15651   -15762   -15338   -14740   -14293   -14129 
  -14474   -15385   -16382   -16734   -16139   -15133   -14284   -13613 
  -13180   -13211   -13698   -14300   -14820   -15334   -15620   -15519 
  -15322   -15012   -14505   -14334   -14728   -15161   -15396   -15580 
  -15543   -14997   -14092   -13464   -13628   -14389   -15186   -15728 
  -15955   -15827   -15338   -14613   -14022   -13907   -14239   -14774 
  -15153   -15013   -14442   -13879   -13606   -13751   -14338   -15037 
  -15434   -15493   -15184   -14440   -13713   -13544   -13961   -14659 
  -15323   -15651   -15298   -14372   -13680   -13757   -14381   -15071 
  -15360   -15178   -14747   -14177   -13860   -14265   -15219   -16062 
  -16258   -15881   -15279   -14577   -14116   -14235   -14791   -15541 
  -15989   -15661   -14922   -14377   -14301   -14823   -15546   -15765 
  -15259   -14526   -14253   -14370   -14388   -14403   -14631   -14848 
  -14797   -14566   -14507   -14760   -15086   -15219   -15141   -14956 
  -14689   -14374   -14207   -14331   -14667   -15002   -15218   -15322 
  -15269   -15040   -14701   -14372   -14219   -14184   -14073   -14014 
  -14065   -14027   -13861   -13792   -14226   -15091   -15735   -15757 
  -15126   -14143   -13463   -13490   -14084   -14897   -15619   -15985 
  -15917   -15541   -14982   -14547   -14656   -15161   -15525   -15588 
  -15418   -14997   -14508   -14304   -14508   -14854   -14995   -14872 
  -14593   -14254   -13957   -13923   -14364   -15121   -15780   -15947 
  -15560   -15040   -14733   -14643   -14777   -15048   -15161   -14932 
  -14467   -14029   -13844   -14057   -14581   -15029   -15153   -15003 
  -14752   -14650   -14818   -15142   -15385   -15288   -14867   -14311 
  -13797   -13668   -14013   -14469   -14785   -14881   -14805   -14713 
  -14656   -14716   -14933   -15174   -15174   -14746   -14274   -14187 
  -14314   -14585   -15037   -15346   -15291   -14963   -14604   -14477 
  -14611   -14898   -15286   -15687   -15813   -15491   -14978   -14486 
  -14192   -14386   -14824   -15012   -14913   -14698   -14589   -14727 
  -15001   -15252   -15290   -15024   -14736   -14670   -14632   -14470 
  -14345   -14409   -14673   -14991   -15075   -14786   -14364   -14126 
  -14025   -13991   -14277   -14791   -15040   -14918   -14625   -14389 
  -14458   -14808   -15194   -15465   -15591   -15560   -15327   -14905 
  -14474   -14214   -14219   -14554   -14948   -14960   -14527   -13940 
  -13632   -13833   -14277   -14648   -14870   -14948   -14905   -14767 
  -14690   -14821   -15074   -15295   -15425   -15438   -15296   -15040 
  -14854   -14816   -14872   -14979   -15017   -14926   -14775   -14578 
  -14330   -14157   -14119   -14157   -14374   -14828   -15230   -15357 
  -15309   -15279   -15388   -15576   -15562   -15322   -15144   -14998 
  -14744   -14504   -14324   -14148   -14006   -13972   -13979   -13969 
  -14077   -14319   -14554   -14679   -14702   -14782   -14990   -15255 
  -15439   -15406   -15126   -14716   -14508   -14759   -15182   -15295 
  -14999   -14605   -14462   -14615   -14840   -14920   -14758   -14370 
  -13948   -13726   -13894   -14496   -15145   -15442   -15344   -14959 
  -14577   -14368   -14366   -14750   -15272   -15418   -15157   -14709 
  -14278   -14123   -14400   -14941   -15348   -15394   -15093   -14705 
  -14528   -14501   -14597   -14877   -15084   -15039   -14790   -14430 
  -14191   -14250   -14548   -15003   -15488   -15835   -15958   -15785 
  -15311   -14720   -14212   -13886   -13894   -14276   -14654   -14728 
  -14621   -14424   -14219   -14229   -14507   -14924   -15256   -15279 
  -15067   -14843   -14720   -14766   -14858   -14754   -14499   -14311 
  -14315   -14503   -14721   -14874   -14978   -14967   -14844   -14787 
  -14790   -14770   -14866   -15076   -15306   -15550   -15603   -15348 
  -14999   -14636   -14224   -13917   -13811   -14000   -14656   -15461 
  -15846   -15746   -15236   -14373   -13497   -13028   -13178   -13772 
  -14397   -14945   -15430   -15585   -15507   -15591   -15623   -15313 
  -14925   -14715   -14661   -14682   -14696   -14710   -14816   -14932 
  -14820   -14482   -14295   -14512   -15013   -15585   -15915   -15655 
  -14875   -13915   -13147   -12865   -13077   -13774   -14874   -15873 
  -16299   -16124   -15557   -14922   -14563   -14605   -14935   -15276 
  -15334   -15057   -14643   -14319   -14180   -14235   -14521   -14894 
  -15152   -15299   -15311   -15140   -14839   -14457   -14126   -13996 
  -14053   -14166   -14208   -14234   -14446   -14801   -15014   -15016 
  -14925   -14723   -14428   -14266   -14334   -14534   -14794   -15086 
  -15396   -15620   -15514   -15137   -14894   -14893   -14995   -15098 
  -15094   -15025   -14989   -14979   -14982   -14960   -14862   -14673 
  -14405   -14102   -13923   -14130   -14607   -14885   -14970   -15234 
  -15562   -15504   -15007   -14461   -14199   -14247   -14408   -14450 
  -14326   -14103   -13844   -13855   -14311   -14810   -15103   -15398 
  -15867   -16395   -16633   -16360   -15595   -14548   -13702   -13362 
  -13443   -13853   -14436   -14835   -14777   -14361   -13994   -13991 
  -14374   -14921   -15326   -15525   -15534   -15211   -14667   -14269 
  -14164   -14372   -14779   -15057   -15091   -15009   -14833   -14655 
  -14690   -15007   -15390   -15466   -15111   -14596   -14242   -14219 
  -14439   -14671   -14979   -15372   -15515   -15361   -15161   -14947 
  -14616   -14219   -14014   -14224   -14635   -14824   -14638   -14276 
  -14122   -14307   -14702   -15214   -15577   -15577   -15368   -15082 
  -14875   -14991   -15210   -15098   -14756   -14512   -14451   -14520 
