Origin Time       2024/06/23 22:54:00
Lat.              35.645
Long.             140.060
Depth. (km)       72
Mag.              4.1
Station Code      IBR001
Station Lat.      36.7763
Station Long.     140.3582
Station Height(m) 106
Record Time       2024/06/23 22:55:03
Sampling Freq(Hz) 100Hz
Duration Time(s)  60
Dir.              E-W
Scale Factor      7845(gal)/8223790
Max. Acc. (gal)   1.237
Last Correction   2024/06/23 22:55:02
Memo.             
[...]
     144      125       71        9      -32      -36        5       70 
     126      152      141      124      135      155      136       85 
      55       78      130      160      148      116       82       54 
      37       44       51       24       -8       -5       22       56 
      93      141      190      220      209      163      106       63 
      51       85      145      155       97       45       22       14 
      20       25       44       90      118       89       39       32 
      87      172      221      191      133       95       67       62 
      78       93      109      114       85       58       41        1 
     -18       45      141      175      135       49      -14        5 
     103      209      255      220      141       76       32        8 
      20       64      106      112       72       20        9       59 
     117      137      139      130       99       43      -14      -10 
      81      191      243      216      130       20      -35       12 
      94      136      141      148      156      128       58        2 
      -2       33       82      118      125      112       86       51 
      47      109      189      198      102      -16      -48        8 
      98      183      211      167      103       63       43       33 
      43       93      168      190      108       -5      -40       20 
     108      148      136      105       81       59       48       78 
     133      174      175      120       20      -59      -20      117 
     210      199      152      103       40      -12       -6       67 
     166      224      201      112       12      -47      -36       22 
      89      140      157      137       93       52       44       87 
     162      207      182       87      -21      -43       48      174 
     245      221      113       -2      -67      -70      -14       62 
     120      157      167      126       56       -4       -8       76 
     201      263      226      132       51       29       44       75 
     136      163      114       36      -29      -63      -21       98 
     210      234      176       87       12      -20        4       78 
     144      149      128      124      132      133      112       67 
      43       79      120       81       16       21       59       59 
      55       79       91       78       85      133      202      253 
     226      109       -2       -9       58       81       39       31 
      83       99       54       29       48       79      113      129 
     109       94      144      195      145       40       12       62 
      94       98      102       91       68       81      140      159 
      99       44       33       51       79       81       29      -10 
      48      172      233      175       75       29       51       98 
     132      121       79       62       89      109       87       70 
      71       60       41       45       71       89       85       87 
     122      152      147      112       64       29       36       86 
     151      186      176      130       71       35        9      -10 
      -1       36       79      106      108      118      152      160 
     129       95       79       70       81      113      122      102 
     105      129      133       99       35      -17      -18       16 
      56       95      103      106      148      190      162       87 
      37       41       85      139      172      168      120       43 
       9       25        8      -10       27       74      103      117 
      98      101      168      225      195      110       36       24 
      67       90       64       39       40       78      139      156 
      99       43       47       83      125      175      182       98 
      12       -1       25       48       55       75      135      168 
     136      101      103      109      110      116      112      109 
     105       68       12      -28      -20       40      105      106 
      43        4       45      116      187      261      290      248 
     180      113       55       18       -5      -21        6       85 
     144      116       13      -86      -99      -10      102      155 
     143      120      148      221      257      209      139      120 
     139      132       67      -36      -94      -44       62      129 
     106       14      -56      -25       86      183      210      191 
     166      135      102       91      106      136      167      182 
     135       27      -60      -56       31      126      166      128 
      24      -78      -82       21      117      145      162      183 
     179      159      140      108       89      113      168      211 
     175       54      -45      -54        4       70       68       -4 
     -40        0       79      168      211      187      157      157 
     151      120       90       94      121      133      118       98 
      76       33      -22      -48      -28       21       79       93 
      56       40       75      117      124      105       97      114 
     139      153      160      163      168      163      140      106 
      76       52       20       -4        8       31       60      109 
     135      106       63       58       71       72       87      128 
     145      120       99      110      124      120      103       81 
      67       75       81       58       40       70      121      143 
     120       71       37       32       56       95       94       44 
      17       60      128      162      153      113       76       97 
     135      125       97      105      151      201      214      162 
      62      -37      -86      -66      -10       22       27       29 
      35       51       95      126      117      122      176      224 
     226      216      214      193      145      109       76       24 
     -22      -36      -33      -28        4       67      124      145 
     122       74       43       52       93      116       93       81 
     137      201      186      103       21      -12       16       90 
     147      143      122      126      106       58       52       90 
     124      143      152      137       72       -5      -27       -5 
      21       66       91       39      -48      -44       94      247 
     299      298      311      290      178       54       22       47 
      37        4      -28      -70      -98      -82      -54      -35 
      12       94      156      149      121      164      264      326 
     322      288      241      162       58      -17      -52      -49 
      -1       29      -14      -70      -79      -27       93      184 
     159       91       75      139      241      253      155       97 
     124      159      163      125       54       10       41       97 
      90       10      -58      -33       63      135      137       82 
      21       32      112      170      157      116       93      109 
     156      183      162      113       56       18       39      102 
     120       55       13       74      132       89        0      -41 
     -13       68      166      217      190      132      120      144 
     125       64       45       87      122      106       51       13 
      28       64       71       40       13        4        8       60 
     143      186      199      211      198      168      147      126 
     105       78       49       44       58       40      -13      -59 
     -62      -29       36      136      217      228      193      170 
     166      164      148      133      155      202      198       93 
     -59     -151     -121      -22       45       49       39       64 
     124      159      129       81       94      149      182      187 
     170      136      120      125       99       48       39       72 
      90       60       25       35       66       81       76       62 
      58       67       60       40       37       58      103      157 
     194      221      224      168       76        8       -4       41 
     122      184      174      122       97       74        6      -66 
     -86      -33       49      101      106      112      137      168 
     179      153      113      102      130      155      153      145 
     155      152      102       27      -41      -71      -47        8 
      64      109      128      140      139       87       25       24 
      68       90       95      139      205      244      237      175 
      72        8       33       81       79       72       91       71 
      -6      -75      -71       10      103      162      190      182 
     155      151      152      151      171      171      103       20 
      -6       18       47       43        0      -48      -54        4 
      90      137      141      163      220      264      263      205 
     117       82      109      117       54      -29      -55       -4 
      68       76        1      -54       -8       95      180      221 
     220      184      126       62       32       66      112      140 
     171      178      126       37      -45      -82      -43       44 
     116      132      113       98      113      129      118      109 
     117      109       59       13       55      175      276      294 
     209       75       -6      -32      -60      -87      -52       36 
     105      122      114       89       37       14       82      194 
     243      202      168      194      222      213      167       95 
      -2      -94     -118      -60       17       52       51       66 
     110      139      106       37        5       36       97      157 
     202      218      220      236      226      137       36       33 
      95      121       94       40      -16      -43      -31      -16 
       9       93      189      191      114       43       28       64 
     114      148      164      168      164      149       89      -14 
     -72      -28       45       94      141      167      141      122 
     144      151      105       44       21       48       79       86 
      58        9       13      103      195      214      183      148 
     118       91       89      135      190      178       86       -9 
     -55      -91     -140     -133      -32      116      229      226 
     116       18       32      149      294      355      298      228 
     199      130       -5     -128     -167     -128      -66      -17 
      33       87      130      167      186      186      189      195 
     182      148      126      135      141      133      105       45 
       8       17        6      -39      -37       24       70       58 
      35       41       52       47       37       28       28       59 
     117      179      241      295      292      218      160      175 
     193      155      101       78       70       36      -39     -149 
    -248     -264     -148       67      256      321      265      178 
     162      230      276      236      153       89       55       43 
      21      -29      -89      -99      -52        4       47      118 
     221      328      405      392      278      116      -37     -129 
    -144     -132     -124      -91      -40        2       48       91 
     129      184      210      193      228      333      413      392 
     257       87      -17      -68     -122     -153     -117      -39 
      48      139      195      186      118       21      -49      -58 
     -22       37      112      155      160      164      149       99 
      79      133      207      257      310      372      353      198 
     -48     -261     -307     -194      -40       93      176      176 
     125       31     -101     -166     -106       27      183      302 
     322      245      137       94      163      260      290      249 
     157       70       68      126      129       60      -54     -210 
    -342     -383     -326     -183       20      249      452      531 
     457      303      174      164      290      448      487      359 
     157      -27     -178     -302     -363     -325     -237     -159 
     -97      -28       67      186      287      341      342      310 
     260      167       62       48      157      310      403      313 
      12     -313     -432     -306      -95       40      112      179 
     207      166      112      106      126      137      155      191 
     216      210      198      199      178       71      -95     -240 
    -288     -216      -55      133      310      438      457      315 
     101       10       86      179      183      116       49       16 
       9       -2      -72     -168     -176      -81       56      199 
     341      459      459      287       59      -87     -129     -113 
     -93      -76      -35       32       78       68       32       71 
     214      345      356      282      240      272      326      321 
     225       83      -29     -108     -199     -274     -224      -72 
      13       10       43      114      144      135      117       85 
      44       16        8       28       54       60       67      109 
     206      363      513      607      670      677      481       54 
    -348     -463     -324     -148     -110     -240     -427     -554 
    -538     -359      -78      202      417      575      718      814 
     805      738      716      734      664      388      -82     -618 
   -1032    -1147     -966     -702     -506     -352     -209      -83 
      83      328      610      892     1158     1352     1386     1181 
     777      329      -41     -325     -556     -766     -942    -1020 
    -988     -847     -600     -313      -40      248      572      847 
     969      947      857      670      353       45      -63       22 
     116       52     -148     -344     -400     -282      -72       87 
     153      187      243      276      240      164      112      126 
     183      203      176      164      149       43     -143     -265 
    -198      -24       55       31       58      171      267      226 
      59      -94     -126      -33      135      276      314      303 
     314      303      236      125        9      -44       10      151 
     311      372      238      -17     -261     -414     -422     -291 
    -125        1      113      211      240      184      151      205 
     276      301      299      314      359      369      313      271 
     243      156       51      -45     -193     -326     -333     -240 
    -136     -105     -176     -284     -317     -209      -22      148 
     337      606      895     1051      950      652      371      222 
     159       98      -31     -255     -521     -747     -884     -901 
    -785     -575     -310       17      375      656      835      953 
     994      985      990      958      800      518      152     -211 
    -500     -708     -832     -847     -760     -608     -429     -226 
     -32       91      163      274      438      591      672      650 
     529      341      152       37        0       39      176      338 
     421      418      334      145      -64     -199     -259     -298 
    -383     -522     -612     -571     -410     -166      132      419 
     619      710      733      727      724      739      730      603 
     333       -9     -357     -656     -818     -815     -714     -588 
    -473     -356     -182      106      465      768      915      896 
     804      733      668      548      375      209       94      -28 
    -238     -483     -615     -584     -467     -368     -345     -402 
    -473     -417     -147      216      498      649      735      822 
     868      800      668      589      594      588      460      176 
    -202     -589     -908    -1055     -985     -803     -621     -433 
    -217       44      346      585      684      745      888     1075 
    1136      963      683      477      305       31     -310     -619 
    -838     -932     -904     -796     -625     -375      -83      166 
     303      342      356      378      407      490      654      810 
     818      670      456      209      -41     -217     -261     -224 
    -202     -240     -310     -357     -337     -244     -108       12 
      52       41       81      205      363      461      481      527 
     630      668      544      287       52        8      120      194 
     124      -68     -349     -666     -878     -854     -631     -378 
    -178       39      310      549      685      737      769      819 
     827      714      515      333      190       49      -90     -211 
    -317     -459     -666     -859     -892     -697     -321      110 
     460      623      627      622      643      594      468      391 
     400      372      237       79      -37     -163     -348     -521 
    -572     -503     -384     -264     -153       -2      207      402 
     534      614      639      625      595      523      355      137 
       6      -43     -139     -272     -321     -274     -199     -166 
    -209     -238     -149       22      195      337      444      498 
     477      407      375      415      453      409      315      224 
     101      -76     -256     -380     -409     -352     -287     -283 
    -342     -380     -256       43      369      573      603      527 
     494      531      531      461      429      457      398      125 
    -280     -594     -683     -629     -537     -398     -233     -122 
     -33       91      198      268      361      507      653      648 
     461      303      310      391      402      309      130     -117 
    -355     -479     -452     -283      -59       48      -36     -202 
    -295     -264     -157      -27      145      396      669      812 
     720      469      229       99       98      171      180       58 
    -148     -340     -395     -325     -286     -291     -224      -54 
     130      233      252      324      550      822      903      706 
     360       54      -94     -112     -117     -149     -174     -193 
    -228     -249     -232     -199     -144       -4      206      352 
     353      274      221      222      211      164      126       97 
      47       52      160      283      346      349      270       89 
    -118     -217     -170      -55       39       48      -13      -83 
    -156     -191     -130      -12      145      382      612      689 
     587      396      251      190      102      -79     -264     -369 
    -398     -360     -268     -189     -162     -136       -8      256 
     525      625      556      473      437      398      349      274 
     116      -81     -232     -309     -311     -263     -195     -143 
    -116      -54       54      132      183      255      345      456 
     503      383      195       68        1      -10        9        6 
     -25      -76     -130     -125      -59        4       93      248 
     371      341      182       49       32       70      103      120 
     110       94       89       66       22        1       18       40 
      71      149      220      201      126       70       95      193 
     222      113      -44     -125      -94       -6       76      136 
     174      211      252      267      234      143       58       60 
      70      -24     -143     -187     -178     -137      -62       49 
