Origin Time       2024/06/23 22:54:00
Lat.              35.645
Long.             140.060
Depth. (km)       72
Mag.              4.1
Station Code      IBR014
Station Lat.      36.0729
Station Long.     140.1948
Station Height(m) 18
Record Time       2024/06/23 22:54:47
Sampling Freq(Hz) 100Hz
Duration Time(s)  60
Dir.              N-S
Scale Factor      7845(gal)/8223790
Max. Acc. (gal)   3.653
Last Correction   2024/06/23 22:54:46
Memo.             
[...]
     615      608      585      553      526      522      548      596 
     646      662      639      594      546      522      525      549 
     587      622      643      638      602      562      550      553 
     565      592      618      629      621      591      553      530 
     526      550      602      641      642      612      562      523 
     518      538      579      626      639      616      577      542 
     540      565      592      610      616      606      588      569 
     558      568      591      602      602      606      610      600 
     576      552      541      545      565      594      616      627 
     621      587      540      521      541      572      591      607 
     622      618      584      549      540      552      571      600 
     625      623      606      583      564      560      575      600 
     621      611      585      567      552      534      544      595 
     645      658      642      588      511      469      496      568 
     641      684      680      626      549      486      468      511 
     585      645      668      648      604      567      540      530 
     548      575      596      616      634      641      623      568 
     504      484      513      575      653      704      692      614 
     513      454      475      554      639      684      668      607 
     545      529      556      580      576      564      565      581 
     608      629      635      621      569      518      518      554 
     594      616      615      599      575      548      554      598 
     627      614      575      540      531      550      581      615 
     642      641      611      577      552      531      534      564 
     599      630      656      648      600      556      530      519 
     535      571      615      652      648      606      561      537 
     537      562      596      612      606      592      579      571 
     572      573      569      577      602      614      600      580 
     565      564      579      599      616      619      599      565 
     550      564      583      595      607      615      600      576 
     573      573      565      565      569      576      594      608 
     606      589      569      550      544      553      584      623 
     643      629      599      562      540      545      569      596 
     615      615      604      600      600      591      572      561 
     565      569      577      592      599      596      591      577 
     554      546      554      575      611      626      611      606 
     599      568      549      560      589      621      630      618 
     580      544      544      537      511      531      584      633 
     696      734      689      610      562      513      440      436 
     511      567      610      666      680      679      699      646 
     517      449      460      479      541      602      591      603 
     626      589      646      764      707      587      552      460 
     400      583      730      611      527      548      460      479 
     715      795      718      670      506      287      306      560 
     803      889      851      643      334      264      399      522 
     762     1003      901      571      271       71      126      490 
     916     1151     1019      534       95       76      376      734 
    1032     1086      842      550      307      126      179      406 
     611      770      877      874      746      549      464      467 
     315      251      599      885      734      513      453      502 
     662      810      791      756      800      656      256      -22 
      35      341      778     1196     1327      992      392      -59 
    -152      240      981     1362     1124      761      373      -52 
     -59      419      939     1255     1231      811      292      -41 
    -153       54      518      957     1277     1372     1019      368 
    -105      -64      423      873      970      889      780      553 
     294      301      540      650      502      317      422      710 
     758      680      743      746      645      599      526      399 
     368      438      491      540      708      886      781      492 
     433      562      606      621      611      533      523      517 
     560      818      903      629      437      419      398      494 
     715      780      668      579      527      540      561      373 
     247      534      816      783      720      612      391      422 
     643      662      656      811      872      700      437      302 
     367      405      355      434      635      816      884      774 
     607      544      576      634      603      460      396      429 
     405      510      891     1171     1031      634      247       58 
     164      440      669      784      803      696      530      488 
     488      446      629      935      884      627      540      480 
     450      643      816      710      502      345      179      114 
     284      525      801     1148     1206      866      541      326 
     108      125      445      726      868      959      927      764 
     568      426      425      521      568      496      352      317 
     464      619      731      834      835      741      616      413 
     244      311      498      691      954     1111     1000      673 
     226       47      294      571      722      739      538      346 
     363      585      916     1043      826      483      295      328 
     459      639      791      795      685      475      260      284 
     476      535      469      518      670      712      722      800 
     684      429      413      490      467      541      716      808 
     804      778      619      314      257      545      858     1113 
    1132      676      199      129      221      427      796      953 
     797      498      133       54      498     1081     1262      951 
     531      319      288      315      414      629      770      689 
     488      279      247      503      832      984      899      616 
     310      162      214      483      874     1119     1165     1030 
     535      -75     -236       99      537      742      675      616 
     750      874      865      811      645      371      213      255 
     502      850      950      826      808      724      418      303 
     486      653      797      870      652      344      322      615 
    1004     1139      835      346     -152     -625     -552      309 
    1277     1802     1926     1579      648     -328     -634     -326 
     211      799     1188     1242     1015      531       48      -45 
     232      548      730      823      823      760      796      892 
     824      614      446      282      105      167      486      787 
     936      880      683      556      464      334      418      743 
     897      764      646      564      348      256      440      573 
     726     1054     1084      774      637      488      108        5 
     226      351      527      793      845      870      882      538 
     228      340      467      494      692      912      915      815 
     710      461      175      120      191      298      504      675 
     857     1147     1147      735      469      610      816      826 
     621      283       82      164      314      519      862     1043 
     958      758      445      187      156      234      427      768 
     999     1039     1089      980      506       98      139      426 
     722      915      927      843      719      460      214      182 
     172      187      492      828      869      739      508      232 
     284      739     1054      992      893      839      622      290 
      31       24      353      762      967     1020      967      681 
     328      193      168      155      315      548      711      980 
    1193      957      581      600      726      499      211      259 
     504      747      853      626      233      116      387      761 
     913      797      560      384      441      637      723      737 
     772      784      769      619      334      251      426      500 
     390      498      962     1208      808      162     -198     -149 
     237      801     1252     1397     1254      888      500      349 
     329      311      429      664      789      652      345      238 
     463      658      630      530      518      685      810      656 
     508      561      639      699      730      633      434      330 
     448      607      567      430      476      723      849      642 
     361      315      475      693      881      967      876      561 
     191       76      315      685      942     1011      908      615 
     205       20      207      453      629      874      976      676 
     311      279      492      753      924     1009     1174     1221 
     747       59     -141      183      502      535      471      507 
     633      749      739      637      610      616      557      504 
     508      649      969     1131      793      225      -86      -16 
     291      660      967     1078      896      581      301       97 
     144      480      849     1048     1048      873      531      157 
      81      334      545      521      413      457      722      918 
     892      873      864      793      776      637      291       87 
     121      171      282      596      949     1080      949      662 
     415      369      500      710      842      780      650      579 
     546      548      576      621      662      661      653      577 
     369      251      450      801      926      712      440      328 
     319      407      638      814      741      544      411      379 
     432      534      600      643      703      724      753      774 
     611      380      355      383      338      541      955     1081 
     931      849      853      793      533      225      260      391 
     178       41      345      712      918     1044      999      642 
     147      -51      195      672     1178     1485     1335      846 
     344      -59     -278     -164      140      384      550      704 
     891     1069     1073      927      789      700      733      895 
     943      642      141     -108       40      328      575      688 
     591      367       99      -33      253      828     1188     1217 
    1075      722      382      517      940     1086      874      562 
     294      228      453      641      567      444      291       45 
     -17      263      745     1140     1147      939      854      650 
     234      -27     -126      -81      264      577      646      811 
     959      718      372      230      105      -10      164      685 
    1225     1520     1641     1584     1178      560      102      -66 
     -21      197      521      716      618      430      459      679 
     976     1371     1721     1814     1684     1502     1521     1736 
    1657     1062      224     -631    -1378    -1879    -1823    -1004 
      70      783     1179     1354     1088      503      143      249 
     621      970     1062      911      751      654      467      171 
    -117     -486     -858     -660      237     1155     1672     2027 
    2381     2442     2080     1539      823     -148    -1054    -1421 
    -990       27     1038     1641     1680     1131      356     -147 
    -145      346     1034     1529     1699     1556     1275     1148 
    1011      415     -486    -1183    -1466    -1100      -41      982 
    1397     1393     1124      756      797     1302     1880     2261 
    1894      414    -1418    -2551    -2523    -1367      310     1663 
    2328     2374     1964     1408     1084      985      757      328 
      -1       24      421      915     1058      639       67      -99 
      60      203      387      602      469       39      -59      382 
     888     1262     1713     2031     1858     1422     1040      664 
     263     -183     -727    -1057     -766      120     1188     1798 
    1698     1321      981      623      414      537      637      349 
    -151     -564     -704     -363      472     1367     1671     1204 
     449     -140     -341       63      926     1665     1915     1780 
    1339      544     -164     -228      257      858     1170      981 
     540      276      284      257        6     -247     -245      206 
    1129     1996     2235     1912     1348      627      -56     -216 
     369     1209     1517     1026      172     -535     -897     -756 
    -124      510      675      523      427      292      -56     -314 
    -191      190      731     1310     1559     1331      939      689 
     557      390      251      379      741     1071     1339     1591 
    1583     1111      369     -179     -315     -334     -456     -438 
     -55      676     1471     1853     1713     1413     1181      973 
     828      789      822      959     1092      961      598      214 
     -94     -290     -400     -456     -307      201      946     1548 
    1672     1332      834      498      537      838      958      625 
     -10     -634    -1105    -1366    -1070      -39     1188     1917 
    1854     1152      351       14      295      841     1379     1858 
    1903     1416      895      388     -318    -1024    -1505    -1644 
   -1183      145     2139     3904     4413     3316     1358     -353 
   -1462    -1984    -1703     -502     1335     2940     3429     2906 
    1840      376    -1067    -1976    -2172    -1498      -18     1636 
    2651     2639     1876      899      217       97      260      260 
       0     -313     -372       40      938     2007     2633     2389 
    1371      -81    -1522    -2195    -1545     -136      876     1212 
    1397     1478     1077      307     -392     -733     -515      368 
    1637     2546     2546     1867     1009      157     -548     -672 
      54     1225     2197     2598     2155      857     -653    -1588 
   -1602     -711      606     1579     1777     1313      627      139 
     -43       40      288      460      417      297      151     -102 
    -211      184      808     1173     1325     1371     1250     1158 
    1227     1225     1020      730      430       55     -364     -594 
    -522     -332     -102      311      939     1674     2394     2786 
    2506     1763     1107      706      423      193      -95     -463 
    -535      -44      600      869      776      530      159     -206 
    -125      621     1437     1664     1393      872      199     -376 
    -751    -1043    -1124     -614      469     1541     2120     2046 
    1371      557      171      436     1128     1730     1942     1669 
     730     -614    -1460    -1223     -328      469      988     1235 
    1055      606      291      295      522      761      796      576 
     322      288      467      714      810      642      467      542 
     877     1266     1298      870      391      311      791     1520 
    1987     1945     1329      240     -932    -1732    -1885    -1316 
     -99     1372     2419     2664     2265     1493      653      114 
      83      513      992      977      426     -387    -1260    -1680 
   -1217     -220      753     1398     1526     1247      882      504 
      91      -56      299      923     1478     1814     1807     1485 
    1165     1078     1044      789      414      253      411      727 
    1134     1593     1692     1097      148     -670    -1135    -1051 
    -508      126      661     1067     1266     1196      881      533 
     544      873     1013     1047     1343     1514     1198      749 
     303     -372    -1058    -1306    -1030     -434       95      267 
     255      372      645      950     1210     1313     1217     1115 
    1030      811      595      490      274      -93     -341     -248 
     202      729     1078     1395     1742     1795     1487     1196 
    1119     1086      980      851      687      448      251      203 
     324      619      770      398     -157     -340     -128      291 
     754     1038      943      533      209      166      178      128 
      59      -44     -120        0      434     1171     1935     2222 
    1911     1490     1229      919      452      -25     -324     -433 
    -467     -409     -279       -1      634     1317     1451     1032 
     527      329      576     1067     1464     1686     1713     1414 
     912      392     -182     -560     -301      494     1283     1653 
    1495      904      187     -267     -360      -81      639     1399 
    1588     1178      623      237       43      -66     -198     -260 
     -99      222      627     1044     1233     1040      614      157 
    -171     -151      299      940     1320     1027      211     -383 
    -356      -21      265      457      616      768      899      970 
     969     1001     1021      810      637      877     1158     1120 
     950      730      552      758     1352     1941     2232     1984 
    1057     -133     -884     -924     -525     -101      108      117 
      72       35      -10      141      645     1077     1062      920 
     945      843      449       66     -125     -228     -207      198 
    1030     1806     2016     1656      985      213     -382     -560 
    -442     -271        4      403      812     1206     1296      822 
     314      332      657      951     1136     1158     1077      972 
     854      826      984     1217     1351     1383     1323     1158 
     931      642      407      319      236      205      444      830 
    1070     1086      962      801      650      456      156     -172 
    -403     -521     -513     -380     -302     -382     -396     -101 
     410      873     1196     1402     1363      985      556      321 
     114     -157     -307     -178      279      869     1301     1588 
    1680     1394      915      481      106      -67      155      722 
    1313     1489     1082      515      191       -1     -144       58 
     726     1447     1830     1914     1676     1132      669      360 
      25     -147       51      554     1088     1256      973      484 
     -47     -382     -182      382      819      992      943      692 
     417      253       47     -261     -421     -336     -135      184 
     572      804      873      924      885      677      508      637 
    1066     1601     1879     1545      810      210     -199     -533 
    -568     -264      214      827     1317     1421     1351     1372 
    1551     1831     1944     1703     1252      669     -105     -776 
    -978     -901     -720     -178      687     1356     1495     1219 
     780      373      139       48       16      140      467      741 
     788      685      533      342       99       18      410     1028 
    1283     1073      737      507      371      211      108      322 
     692      747      606      623      610      517      727     1162 
    1327     1189     1090     1089      981      743      487      236 
      66      124      315      387      378      621     1138     1436 
    1271      965      751      641      596      511      337      168 
