Origin Time       2024/06/23 22:54:00
Lat.              35.645
Long.             140.060
Depth. (km)       72
Mag.              4.1
Station Code      IBR016
Station Lat.      35.9114
Station Long.     140.0494
Station Height(m) 20
Record Time       2024/06/23 22:54:46
Sampling Freq(Hz) 100Hz
Duration Time(s)  60
Dir.              U-D
Scale Factor      7845(gal)/8223790
Max. Acc. (gal)   2.916
Last Correction   2024/06/23 22:54:45
Memo.             
[...]
    4355     4315     4351     4398     4376     4321     4332     4391 
    4392     4333     4321     4376     4399     4351     4318     4359 
    4401     4372     4322     4338     4392     4386     4330     4324 
    4380     4399     4349     4318     4360     4398     4361     4320 
    4349     4398     4379     4326     4329     4382     4390     4342 
    4329     4376     4401     4353     4314     4355     4403     4375 
    4325     4337     4384     4384     4338     4326     4372     4395 
    4347     4317     4360     4399     4367     4324     4344     4391 
    4380     4328     4326     4380     4395     4351     4329     4367 
    4392     4355     4315     4342     4388     4376     4336     4342 
    4383     4380     4338     4329     4368     4390     4355     4328 
    4361     4395     4367     4326     4341     4382     4378     4341 
    4338     4372     4379     4344     4330     4367     4394     4364 
    4330     4347     4378     4363     4334     4349     4386     4380 
    4342     4332     4364     4378     4347     4329     4360     4388 
    4365     4333     4349     4383     4372     4338     4347     4380 
    4382     4345     4329     4360     4383     4357     4333     4353 
    4382     4367     4337     4347     4379     4375     4342     4340 
    4369     4376     4347     4334     4364     4390     4365     4332 
    4348     4382     4371     4337     4340     4374     4380     4345 
    4336     4368     4382     4352     4328     4353     4390     4372 
    4336     4342     4374     4374     4341     4334     4374     4390 
    4352     4329     4356     4386     4367     4332     4345     4379 
    4369     4337     4338     4371     4382     4355     4340     4365 
    4384     4357     4329     4348     4382     4369     4336     4340 
    4372     4374     4344     4334     4367     4387     4359     4333 
    4353     4384     4375     4340     4344     4379     4382     4348 
    4338     4368     4382     4356     4337     4359     4384     4371 
    4340     4345     4375     4375     4344     4341     4369     4378 
    4352     4337     4359     4379     4364     4341     4347     4374 
    4375     4349     4344     4368     4376     4357     4348     4363 
    4375     4364     4344     4351     4375     4372     4349     4348 
    4369     4376     4357     4349     4363     4367     4356     4347 
    4359     4374     4368     4349     4348     4364     4371     4357 
    4349     4361     4378     4369     4353     4356     4368     4365 
    4352     4353     4368     4372     4357     4351     4360     4372 
    4367     4352     4356     4369     4368     4357     4352     4359 
    4364     4357     4352     4356     4367     4367     4351     4351 
    4364     4365     4352     4347     4357     4368     4363     4353 
    4355     4367     4365     4351     4351     4371     4374     4356 
    4352     4363     4369     4359     4344     4349     4365     4363 
    4349     4352     4368     4369     4352     4345     4359     4368 
    4359     4349     4353     4361     4356     4345     4353     4367 
    4363     4348     4348     4361     4368     4361     4352     4356 
    4364     4361     4351     4352     4365     4368     4356     4353 
    4368     4367     4349     4345     4361     4371     4361     4349 
    4352     4365     4364     4352     4353     4368     4367     4351 
    4352     4372     4372     4355     4345     4360     4372     4359 
    4347     4355     4367     4363     4348     4351     4371     4374 
    4355     4348     4364     4375     4360     4344     4353     4369 
    4361     4342     4348     4372     4374     4352     4344     4361 
    4375     4357     4341     4359     4379     4367     4342     4349 
    4378     4378     4349     4344     4368     4379     4357     4347 
    4382     4418     4411     4390     4405     4429     4401     4334 
    4298     4301     4298     4272     4282     4365     4468     4499 
    4475     4465     4468     4419     4318     4239     4230     4253 
    4225     4136     4141     4345     4606     4774     4827     4756 
    4577     4278     3923     3732     3715     3761     4006     4457 
    4762     4743     4675     4850     5034     4699     3892     3514 
    3978     4280     3875     3715     4278     5015     5300     4723 
    3852     3823     4529     5078     4992     4156     3445     3867 
    4294     3651     3512     5089     6921     6562     3701     1694 
    2925     4854     4877     4480     5517     6197     4147     1544 
    1952     4550     6208     5962     5328     5229     4302     2351 
    1865     3746     5836     6218     5255     4325     3846     3480 
    3381     3936     4810     5116     4666     4172     4124     4457 
    4746     4557     4361     4419     3908     3302     3794     4731 
    5352     5503     4652     3704     4051     4522     3747     2961 
    3546     4885     5483     4903     4563     5283     5340     3805 
    2736     3670     4957     4564     3534     3735     4591     4947 
    4772     4691     5175     5151     3979     3280     3672     3996 
    4039     4534     5451     5751     4903     3564     2870     3599 
    4654     4623     4529     5097     5161     4642     4055     3268 
    3200     4342     5119     4892     4606     4523     4581     4557 
    3952     3480     3946     4591     4877     4881     4297     3754 
    4226     4738     4255     3720     4024     4853     5283     4652 
    4031     4529     4752     3742     2967     3395     4515     5227 
    4783     4411     5119     5262     4136     3550     4232     4976 
    4741     3762     3291     3832     4356     4379     4685     5197 
    4919     4116     3959     4432     4450     3813     3646     4627 
    5663     5397     4267     3532     3443     3508     3554     4158 
    5567     6426     5483     3863     3346     3693     3759     3663 
    4118     4950     5391     5032     4203     3861     4409     4720 
    4048     3605     4155     4619     4297     3885     4186     4999 
    5346     4816     4256     4322     4372     3958     3769     4102 
    4341     4255     4218     4423     4646     4515     4035     3889 
    4472     5081     4914     4239     4121     4738     4889     4202 
    3802     4093     4369     4357     4266     4267     4437     4405 
    4106     4245     4668     4658     4436     4194     4037     4475 
    4947     4612     4050     3685     3388     3543     4063     4660 
    5563     5937     5023     4070     3946     4006     4005     4102 
    4149     4189     4509     4922     4738     4085     3971     4488 
    4742     4257     3524     3670     4827     5594     5313     4765 
    4388     4006     3605     3407     3736     4565     5035     4365 
    3395     3685     4855     5127     4509     4537     5123     4884 
    4002     3642     3816     3971     4140     4482     4935     5243 
    4872     3933     3503     4135     5016     4980     4176     3743 
    3819     3971     4515     5514     5886     4841     3435     2901 
    3073     3522     3759     4024     5455     6894     6126     4105 
    3051     3383     4143     4158     3732     4263     5016     4301 
    3333     4272     6359     6906     4968     2824     2697     3623 
    3842     3688     4328     5547     5941     5107     4255     4054 
    3913     3717     3770     3859     4117     4561     4421     4113 
    4723     5395     5015     4360     4086     3827     3773     3993 
    4045     4347     4962     5204     5163     4820     4239     4234 
    4348     3622     2849     3190     4357     5162     5077     4646 
    4544     4909     5105     4510     3731     3592     3932     4241 
    4205     4183     4699     4932     4433     4148     4051     3900 
    4266     4750     4737     4429     4198     4450     4850     4746 
    4538     4693     4861     4486     3395     2336     2435     3721 
    5139     5836     5807     5524     5098     4329     3582     3429 
    3771     4109     4156     4337     4932     5092     4513     4202 
    4579     5007     4858     4159     3576     3546     3954     4444 
    4617     4715     5208     5431     4414     2984     3073     4336 
    4445     3492     3636     4988     5908     5548     4517     4112 
    4271     3754     2922     2960     3665     4596     5346     5405 
    5383     5319     4356     3600     4110     4521     3950     3302 
    3592     4561     4876     4599     5125     6115     5859     4079 
    2427     2308     3063     3589     4120     4955     5826     6312 
    5809     4653     4004     3906     3839     4010     4433     4203 
    3038     2493     3724     5444     6068     5665     5090     4693 
    4081     3360     3284     3707     4166     4590     4671     4533 
    4692     4893     4615     3977     3605     4089     5065     5216 
    4324     3642     3686     4228     5112     5586     4973     3759 
    3092     3549     4232     4159     4078     4839     5493     5159 
    4537     4077     3528     3202     3419     4144     5254     5948 
    5564     4762     4217     3834     3639     3665     3786     4008 
    4095     4013     4336     5139     5598     5186     4502     4305 
    4229     3844     3657     3982     4450     4703     4726     4656 
    4446     4164     4048     3991     4098     4703     5004     4217 
    3446     3690     4360     4904     5147     4985     4722     4380 
    3890     3928     4537     4545     3886     3896     4433     4180 
    3628     4055     5097     5767     5621     4731     3821     3396 
    3385     3829     4293     4349     4779     5459     5022     3986 
    3690     3790     3801     3948     4251     4712     5201     5202 
    4797     4563     4263     3519     3010     3352     4178     4969 
    5367     5177     4896     4884     4606     4044     3950     4301 
    4348     4020     4004     4305     4182     3823     4056     4785 
    5148     4706     4164     4236     4239     3757     3716     4279 
    4656     4692     4607     4617     4699     4360     3969     4342 
    4770     4403     3713     3276     3499     4326     4889     5054 
    5323     5441     5019     4140     3457     3881     4741     4488 
    3685     3659     4075     4259     4279     4563     5270     5629 
    4866     3570     3025     3601     4639     5526     5942     5640 
    4573     3087     2137     2398     3283     4233     5458     6561 
    6546     5459     4376     3771     3215     2689     2694     3321 
    4266     5173     5679     5670     5181     4450     4147     4446 
    4537     3969     3250     2937     3262     4085     4892     5439 
    5840     5834     4941     3480     2424     2521     3842     5454 
    6141     5755     4851     3780     3048     3181     3834     4388 
    4901     5401     5336     4510     3700     3763     4567     5030 
    4352     3408     3731     4845     5015     4305     4205     5001 
    5404     4618     3742     4020     4588     4112     3287     3391 
    4163     4676     4774     4911     5165     5044     4260     3269 
    2756     2835     3361     4369     5614     6578     6685     5580 
    3877     2748     2624     3055     3950     5485     6648     6301 
    4881     3461     2766     2798     3005     3538     4689     5567 
    5448     4974     5015     5432     5043     3429     2281     2839 
    3692     3392     2972     3987     5788     6673     6463     5998 
    5499     4529     3038     2200     2909     4152     4565     4222 
    4056     4581     5313     5409     4855     4309     3863     3294 
    3148     3854     4656     4830     4704     4874     5086     4681 
    4001     3888     4176     4158     3869     4029     4797     5260 
    4893     4534     4700     4787     4610     4509     4313     3812 
    3424     3626     4171     4507     4619     4895     5503     5672 
    4311     2290     1706     2764     4109     4977     5422     5668 
    5490     4525     3523     3667     4577     4926     4530     4359 
    4827     5046     4425     3978     4349     4440     3738     3407 
    4264     5780     6663     5852     3991     2829     2571     2207 
    2146     3481     5460     6386     6022     5339     4895     4546 
    4160     3843     3647     3488     3407     3472     3628     4023 
    4942     6089     6656     6184     4986     3955     3512     3069 
    2527     2741     3754     4711     5225     5472     5536     5117 
    4240     3642     3703     4041     4355     4719     5063     4851 
    3956     3204     3219     3835     4638     5181     5370     5447 
    5174     4369     3684     3535     3599     3750     4104     4453 
    4673     4681     4228     3940     4623     5433     5343     4720 
    4062     3483     3235     3618     4770     6088     6280     5154 
    3931     3242     2751     2539     3009     4010     4985     5425 
    5265     5024     5008     4704     3773     2971     3069     3720 
    4376     4958     5323     5489     5601     5386     4893     4571 
    4318     4166     4299     4014     3103     2547     2725     3569 
    5097     6413     6550     5713     4432     3154     2367     2091 
    2309     3348     4861     5925     6357     6471     6112     5144 
    4045     3391     3426     3762     3654     3415     3910     4646 
    4945     5373     6003     5786     4352     2566     1475     1583 
    2677     4122     5674     7132     7416     5996     4082     2809 
    2303     2556     3272     4166     5437     6554     6588     5861 
    5135     4545     3987     3480     3451     4090     4567     4255 
    3654     3418     3620     3986     4241     4232     4028     3890 
    3854     3858     4152     4730     5227     5584     5834     5833 
    5416     4660     4106     4052     4179     4160     3981     3973 
    4141     3771     2951     2884     3758     4484     4622     4619 
    4808     5020     4765     4251     4446     5289     5536     4716 
    3719     3399     3546     3511     3380     3847     4830     5256 
    4830     4499     4653     4888     5154     5412     5344     4966 
    4468     3904     3257     2586     2407     3280     4788     5796 
    5778     5223     4722     4180     3400     2845     3157     4147 
    4788     4626     4610     5386     5927     5223     3948     3338 
    3535     3958     4361     4745     5008     4989     4511     3859 
    3565     3601     3813     4288     4739     4774     4537     4415 
    4521     4569     4317     4131     4432     4816     4687     4118 
    3738     4187     5071     5269     4734     4186     3719     3261 
    3069     3190     3599     4384     5178     5535     5710     5775 
    5216     4185     3406     3040     2944     3373     4476     5697 
    6339     6133     5229     4206     3458     3001     3163     4077 
    5023     5409     5240     4549     3507     2674     2693     3852 
    5517     6423     6068     4953     3813     3188     3034     3129 
    3674     4494     4634     3827     3204     3708     4750     5304 
    5405     5536     5417     4676     3970     3952     4087     3804 
    3520     3759     4352     4880     5325     5686     5533     4693 
    3654     3088     3271     3997     4907     5424     5131     4564 
    4395     4422     4278     4048     4072     4414     4541     4240 
    4166     4425     4336     3966     3966     4375     4665     4398 
    3855     3673     3636     3319     3464     4653     5890     6210 
    5769     4868     3967     3662     3734     3809     4102     4585 
    4860     4791     4579     4548     4650     4357     3649     3207 
    3331     3532     3435     3539     4407     5449     5715     5242 
    4702     4445     4101     3465     3510     4731     5894     6154 
    5957     5665     5231     4399     3285     2911     3596     4148 
    3935     3530     3254     3057     3044     3375     4253     5371 
    5844     5567     5142     4600     3844     3408     3697     4291 
    4526     4444     4712     5382     5552     4819     4047     4008 
    4306     4317     4179     4244     4315     4205     4282     4754 
    5113     4710     3696     3017     3103     3531     4122     4920 
    5606     5799     5285     4287     3580     3558     3805     3889 
    3861     4009     4450     4851     4831     4460     4048     3896 
    4137     4548     4833     4914     4773     4542     4446     4456 
    4437     4531     4918     5405     5447     4708     3738     3327 
    3326     3269     3381     3954     4708     5200     5252     5046 
    4808     4355     3457     2733     2975     3839     4576     5246 
    6131     6801     6480     5028     3315     2479     2650     2990 
    3168     3523     4121     4878     5562     5711     5289     4396 
    3144     2388     2798     3811     4749     5435     5690     5591 
    5497     5410     5128     4726     4444     4344     4136     3580 
    3051     3103     3608     4059     4347     4558     4523     4105 
    3504     3165     3568     4669     5665     5825     5386     5130 
    5051     4436     3426     3045     3700     4693     5069     4849 
    4959     5439     5200     4110     3256     3183     3572     3971 
    4113     4145     4270     4298     3978     3438     3393     4469 
    5922     6362     5672     4760     4206     4064     4149     4391 
    4849     5173     4870     4102     3518     3508     3789     3855 
    3861     4294     4877     4818     4152     3936     4614     5148 
    4788     4305     4437     4714     4499     3919     3619     3819 
    3892     3622     3589     3902     4302     4642     4622     4417 
    4656     5100     5066     4750     4648     4577     4270     3902 
    3708     3753     4021     4348     4592     4830     5032     4943 
    4575     4251     4175     4394     4761     4927     4700     4147 
    3566     3403     3659     3893     3983     4175     4645     5250 
    5333     4637     4012     4029     4274     4499     4841     5162 
    5197     4865     4417     4359     4716     4810     4320     3721 
    3381     3271     3373     3619     3898     4222     4407     4224 
    3801     3473     3585     4203     4826     5081     5255     5495 
    5486     5084     4430     3909     3874     4129     4492     5062 
    5413     4990     4135     3661     3682     3708     3747     4070 
    4328     4286     4158     3878     3700     4145     4838     5166 
    5100     4734     4287     3985     3856     4039     4538     5042 
    5362     5390     4977     4287     3811     3809     4085     4210 
    3936     3612     3842     4538     4923     4590     4117     4128 
    4174     3685     3257     3680     4618     5209     5356     5495 
    5533     5124     4487     4153     4326     4594     4298     3690 
    3801     4557     4812     4301     3792     3798     4054     3998 
    3758     3936     4459     4787     4810     4675     4463     4294 
    4209     4241     4546     4912     4842     4399     3921     3532 
    3447     3681     4035     4731     5575     5509     4463     3669 
    3775     4376     4923     5132     5009     4708     4167     3333 
    2933     3727     4999     5421     4922     4315     4043     4031 
