Origin Time       2024/06/23 22:54:00
Lat.              35.645
Long.             140.060
Depth. (km)       72
Mag.              4.1
Station Code      IBR001
Station Lat.      36.7763
Station Long.     140.3582
Station Height(m) 106
Record Time       2024/06/23 22:55:03
Sampling Freq(Hz) 100Hz
Duration Time(s)  60
Dir.              U-D
Scale Factor      7845(gal)/8223790
Max. Acc. (gal)   0.439
Last Correction   2024/06/23 22:55:02
Memo.             
[...]
   15607    15665    15700    15699    15695    15701    15668    15573 
   15487    15502    15619    15753    15785    15680    15541    15500 
   15595    15765    15892    15861    15687    15510    15444    15484 
   15558    15623    15688    15761    15804    15758    15601    15423 
   15383    15534    15758    15876    15803    15595    15419    15439 
   15626    15800    15855    15778    15611    15461    15433    15550 
   15722    15808    15768    15681    15630    15642    15666    15631 
   15537    15491    15588    15766    15869    15804    15607    15414 
   15371    15504    15684    15757    15731    15709    15716    15692 
   15612    15538    15543    15620    15696    15723    15695    15624 
   15554    15537    15616    15753    15801    15700    15557    15506 
   15587    15723    15793    15734    15591    15479    15472    15561 
   15672    15711    15681    15664    15688    15714    15684    15587 
   15518    15557    15653    15711    15704    15682    15676    15665 
   15647    15622    15596    15612    15642    15623    15576    15562 
   15628    15751    15815    15758    15626    15520    15515    15572 
   15628    15695    15749    15719    15618    15549    15569    15623 
   15662    15664    15614    15566    15587    15669    15749    15762 
   15700    15616    15585    15610    15611    15565    15520    15542 
   15660    15792    15817    15695    15525    15460    15550    15718 
   15820    15765    15642    15593    15641    15691    15672    15595 
   15523    15533    15635    15736    15727    15635    15569    15558 
   15574    15634    15734    15778    15701    15587    15552    15593 
   15650    15693    15681    15581    15468    15480    15657    15857 
   15905    15788    15611    15489    15515    15649    15735    15681 
   15512    15363    15408    15669    15943    16005    15808    15526 
   15400    15476    15618    15728    15770    15697    15549    15502 
   15631    15751    15688    15512    15404    15484    15739    15981 
   15993    15790    15570    15461    15468    15558    15672    15680 
   15542    15435    15499    15677    15858    15943    15830    15572 
   15417    15515    15724    15786    15668    15525    15464    15520 
   15676    15781    15709    15554    15522    15647    15776    15781 
   15666    15519    15481    15618    15797    15834    15712    15557 
   15475    15485    15576    15697    15763    15741    15678    15612 
   15573    15611    15699    15720    15631    15525    15516    15601 
   15709    15784    15777    15664    15510    15454    15537    15662 
   15715    15682    15643    15637    15660    15703    15727    15693 
   15607    15527    15527    15618    15695    15676    15631    15633 
   15660    15674    15655    15633    15638    15645    15655    15681 
   15684    15657    15633    15646    15672    15634    15537    15483 
   15545    15665    15741    15738    15668    15579    15568    15646 
   15711    15687    15634    15631    15661    15684    15677    15607 
   15514    15500    15622    15789    15827    15715    15604    15580 
   15614    15651    15646    15612    15597    15612    15620    15606 
   15612    15680    15757    15753    15642    15530    15546    15660 
   15739    15723    15599    15462    15487    15664    15809    15815 
   15684    15510    15450    15573    15772    15842    15715    15529 
   15464    15539    15658    15743    15739    15631    15520    15549 
   15704    15817    15780    15624    15458    15429    15596    15846 
   15975    15855    15558    15323    15325    15539    15768    15804 
   15670    15547    15546    15676    15826    15819    15616    15402 
   15390    15597    15854    15955    15795    15508    15373    15503 
   15745    15844    15708    15487    15403    15530    15719    15788 
   15749    15714    15691    15651    15626    15651    15708    15730 
   15693    15614    15491    15385    15417    15592    15776    15808 
   15689    15572    15553    15630    15726    15743    15684    15638 
   15634    15646    15639    15595    15553    15581    15695    15792 
   15757    15623    15493    15431    15512    15697    15799    15719 
   15606    15634    15745    15747    15639    15545    15498    15507 
   15610    15747    15778    15672    15570    15608    15736    15788 
   15696    15560    15512    15595    15718    15757    15657    15500 
   15435    15531    15709    15797    15720    15622    15624    15650 
   15637    15658    15719    15712    15616    15541    15558    15624 
   15682    15685    15610    15535    15562    15668    15751    15749 
   15689    15623    15553    15507    15538    15623    15689    15681 
   15626    15608    15666    15732    15719    15635    15581    15607 
   15673    15718    15692    15611    15556    15581    15672    15749 
   15728    15646    15591    15556    15552    15634    15742    15739 
   15628    15545    15549    15585    15614    15635    15647    15637 
   15646    15712    15765    15742    15670    15603    15581    15603 
   15608    15573    15564    15627    15708    15719    15658    15606 
   15595    15604    15626    15637    15616    15591    15616    15703 
   15738    15658    15570    15572    15641    15719    15747    15689 
   15604    15588    15650    15735    15777    15726    15566    15398 
   15379    15541    15720    15796    15786    15705    15587    15533 
   15593    15682    15689    15635    15597    15593    15623    15696 
   15758    15718    15577    15475    15504    15624    15735    15741 
   15646    15583    15642    15754    15777    15685    15565    15506 
   15541    15638    15714    15684    15570    15503    15579    15746 
   15839    15765    15610    15496    15495    15614    15742    15761 
   15708    15664    15628    15591    15572    15569    15546    15512 
   15568    15718    15801    15749    15688    15682    15654    15596 
   15596    15660    15701    15669    15604    15593    15653    15714 
   15704    15634    15573    15577    15641    15672    15606    15534 
   15547    15592    15626    15684    15766    15795    15726    15626 
   15554    15535    15593    15687    15705    15637    15576    15579 
   15614    15634    15616    15599    15654    15769    15827    15743 
   15553    15448    15553    15753    15854    15772    15591    15488 
   15520    15618    15653    15558    15460    15533    15738    15859 
   15763    15556    15430    15496    15707    15894    15889    15684 
   15487    15496    15682    15839    15799    15592    15419    15421 
   15574    15753    15816    15731    15592    15543    15651    15782 
   15777    15654    15533    15476    15495    15573    15646    15665 
   15646    15638    15669    15705    15727    15731    15670    15557 
   15498    15546    15657    15743    15749    15684    15596    15564 
   15622    15699    15719    15651    15554    15539    15611    15705 
   15768    15732    15614    15507    15496    15616    15778    15811 
   15682    15547    15526    15612    15727    15792    15742    15554 
   15365    15388    15619    15835    15850    15703    15595    15628 
   15723    15742    15643    15523    15492    15553    15639    15697 
   15709    15692    15653    15596    15542    15519    15549    15626 
   15689    15687    15626    15585    15638    15726    15754    15707 
   15646    15662    15728    15728    15666    15624    15627    15631 
   15614    15627    15691    15711    15658    15595    15519    15471 
   15549    15693    15738    15655    15576    15583    15615    15619 
   15635    15681    15707    15674    15618    15630    15709    15746 
   15689    15606    15587    15645    15695    15688    15660    15626 
   15577    15530    15531    15585    15655    15705    15699    15627 
   15550    15539    15611    15723    15793    15758    15645    15564 
   15579    15627    15642    15624    15606    15642    15731    15778 
   15715    15599    15541    15562    15600    15651    15714    15726 
   15672    15612    15599    15618    15638    15655    15651    15619 
   15608    15630    15615    15562    15561    15622    15684    15707 
   15677    15618    15570    15573    15637    15716    15776    15789 
   15724    15607    15531    15554    15597    15597    15633    15735 
   15797    15758    15657    15545    15448    15429    15525    15676 
   15766    15738    15665    15633    15645    15695    15723    15664 
   15587    15587    15623    15614    15577    15595    15674    15741 
   15746    15673    15569    15523    15547    15614    15700    15750 
   15716    15643    15624    15654    15662    15647    15623    15589 
   15580    15597    15600    15579    15574    15631    15712    15720 
   15651    15600    15615    15681    15732    15728    15687    15630 
   15603    15624    15665    15699    15703    15666    15597    15518 
   15499    15579    15691    15747    15716    15628    15557    15549 
   15607    15680    15680    15580    15512    15616    15785    15831 
   15742    15579    15457    15511    15709    15865    15808    15604 
   15496    15579    15732    15792    15677    15487    15396    15475 
   15653    15784    15769    15678    15619    15618    15627    15614 
   15610    15662    15755    15778    15677    15534    15442    15446 
   15545    15684    15781    15766    15691    15649    15627    15612 
   15630    15655    15661    15645    15633    15646    15642    15600 
   15561    15550    15630    15786    15854    15754    15597    15537 
   15589    15668    15714    15715    15645    15546    15523    15630 
   15782    15801    15642    15462    15437    15597    15792    15811 
   15645    15468    15426    15537    15723    15893    15942    15789 
   15538    15418    15496    15618    15661    15660    15654    15645 
   15633    15600    15562    15561    15587    15618    15647    15660 
   15647    15642    15696    15781    15793    15720    15653    15631 
   15628    15620    15607    15599    15619    15662    15691    15680 
   15634    15597    15610    15616    15583    15584    15643    15682 
   15676    15682    15732    15757    15695    15612    15580    15573 
   15549    15502    15489    15591    15741    15780    15705    15654 
   15660    15649    15624    15627    15628    15606    15577    15552 
   15538    15568    15637    15672    15658    15678    15749    15797 
   15782    15684    15512    15400    15504    15754    15882    15758 
   15534    15445    15570    15761    15830    15736    15577    15514 
   15595    15714    15777    15758    15664    15580    15597    15657 
   15646    15558    15464    15433    15508    15672    15834    15870 
   15763    15634    15577    15579    15628    15734    15808    15759 
   15646    15568    15533    15498    15430    15353    15349    15473 
   15662    15777    15789    15782    15790    15786    15765    15755 
   15746    15676    15565    15512    15539    15581    15566    15510 
   15537    15669    15768    15753    15665    15614    15665    15770 
   15854    15843    15689    15479    15354    15385    15545    15714 
   15772    15700    15574    15500    15557    15708    15859    15932 
   15858    15680    15537    15479    15489    15529    15545    15549 
   15573    15585    15576    15573    15588    15631    15695    15745 
   15776    15788    15765    15724    15689    15658    15612    15541 
   15489    15498    15499    15465    15484    15610    15765    15826 
   15785    15735    15720    15722    15715    15672    15587    15525 
   15558    15650    15677    15610    15542    15535    15591    15699 
   15781    15750    15643    15577    15616    15711    15766    15745 
   15681    15641    15643    15627    15552    15480    15507    15642 
   15774    15801    15754    15701    15664    15635    15606    15560 
   15503    15518    15637    15727    15674    15550    15480    15507 
   15603    15703    15751    15750    15730    15722    15724    15684 
   15580    15477    15441    15473    15557    15655    15697    15701 
   15770    15888    15905    15770    15611    15534    15520    15550 
   15616    15695    15738    15692    15562    15422    15376    15498 
   15703    15831    15835    15768    15645    15542    15610    15827 
   15950    15800    15519    15376    15441    15615    15745    15691 
   15476    15346    15502    15803    15915    15757    15537    15426 
   15466    15638    15839    15903    15749    15498    15341    15364 
   15543    15774    15870    15765    15620    15623    15772    15901 
   15889    15751    15581    15483    15527    15661    15688    15561 
   15457    15469    15538    15641    15774    15870    15847    15722 
   15550    15395    15380    15542    15718    15746    15619    15464 
   15461    15633    15830    15913    15835    15643    15487    15506 
   15645    15691    15576    15464    15489    15624    15780    15881 
   15862    15742    15653    15660    15699    15714    15685    15606 
   15518    15483    15498    15525    15554    15573    15576    15606 
   15650    15641    15607    15620    15689    15774    15817    15788 
   15709    15641    15599    15570    15562    15580    15584    15552 
   15539    15565    15569    15596    15731    15916    16005    15934 
   15817    15777    15750    15627    15427    15255    15198    15292 
   15484    15637    15658    15610    15604    15637    15655    15688 
   15772    15889    16015    16100    16055    15838    15558    15354 
   15232    15225    15369    15533    15562    15514    15549    15716 
   15905    15982    15890    15692    15512    15458    15549    15668 
   15680    15595    15534    15580    15709    15801    15765    15651 
   15552    15545    15643    15718    15637    15457    15373    15489 
   15688    15830    15917    15943    15861    15704    15543    15435 
   15454    15626    15790    15730    15483    15352    15473    15678 
   15804    15824    15742    15607    15545    15615    15699    15688 
   15626    15566    15502    15479    15556    15684    15755    15738 
   15689    15660    15624    15593    15642    15755    15793    15701 
   15595    15570    15624    15701    15720    15662    15610    15587 
   15560    15553    15603    15647    15607    15527    15527    15611 
   15650    15581    15503    15553    15757    15992    16065    15923 
   15689    15522    15526    15626    15660    15591    15479    15373 
   15349    15465    15633    15680    15573    15473    15552    15777 
   15959    15967    15840    15711    15668    15726    15832    15866 
   15778    15639    15519    15422    15349    15333    15357    15360 
   15380    15488    15654    15830    15979    16043    15994    15877 
   15709    15507    15352    15331    15442    15579    15650    15643 
   15601    15583    15627    15758    15900    15934    15882    15854 
   15853    15757    15503    15252    15191    15306    15504    15687 
   15730    15626    15547    15642    15839    15952    15927    15820 
   15692    15587    15522    15499    15529    15592    15614    15549 
   15492    15526    15593    15631    15633    15619    15612    15624 
   15691    15813    15920    15927    15792    15573    15452    15507 
   15612    15615    15506    15379    15363    15539    15830    16015 
   15984    15815    15658    15597    15581    15541    15495    15473 
   15491    15570    15691    15758    15746    15743    15800    15817 
   15730    15646    15657    15700    15699    15638    15560    15523 
   15518    15473    15372    15310    15377    15526    15638    15689 
   15763    15882    15962    15950    15862    15732    15566    15444 
   15491    15638    15720    15696    15556    15380    15354    15503 
   15684    15759    15701    15631    15700    15886    16015    15961 
   15800    15668    15595    15549    15502    15421    15348    15381 
   15558    15790    15904    15830    15665    15527    15489    15580 
   15696    15699    15608    15560    15616    15689    15661    15538 
   15425    15396    15479    15651    15838    15917    15853    15766 
   15776    15824    15781    15666    15573    15507    15430    15373 
   15408    15527    15634    15654    15580    15500    15549    15722 
   15884    15966    15971    15905    15803    15735    15696    15608 
   15439    15307    15346    15519    15696    15754    15619    15404 
   15323    15462    15692    15816    15838    15885    15921    15827 
   15650    15545    15550    15589    15620    15638    15626    15622 
   15647    15631    15574    15585    15704    15843    15850    15697 
   15526    15431    15392    15388    15437    15577    15770    15893 
   15904    15863    15811    15728    15599    15449    15337    15323 
   15442    15627    15747    15778    15780    15751    15660    15538 
   15469    15498    15553    15573    15618    15709    15801    15892 
   15944    15880    15715    15593    15620    15723    15724    15564 
   15356    15286    15421    15614    15693    15645    15566    15581 
   15716    15846    15839    15723    15633    15641    15691    15707 
   15646    15498    15375    15415    15589    15757    15816    15782 
   15734    15688    15642    15622    15620    15597    15561    15554 
   15566    15561    15552    15579    15622    15642    15687    15792 
   15876    15855    15747    15626    15562    15561    15573    15558 
   15552    15607    15678    15682    15616    15542    15547    15677 
   15840    15874    15736    15569    15508    15554    15627    15658 
   15647    15657    15715    15774    15762    15666    15549    15462 
   15445    15529    15647    15680    15603    15502    15487    15603 
   15786    15884    15811    15665    15593    15650    15754    15784 
   15691    15518    15354    15325    15484    15697    15827    15846 
   15796    15770    15786    15773    15687    15539    15431    15460 
   15587    15720    15782    15718    15554    15381    15325    15442 
   15618    15704    15705    15731    15851    15965    15892    15630 
   15404    15387    15514    15623    15633    15565    15502    15533 
   15668    15809    15855    15813    15772    15754    15700    15587 
   15502    15534    15623    15661    15618    15534    15471    15500 
   15628    15750    15778    15772    15799    15819    15795    15751 
   15709    15633    15512    15412    15381    15390    15417    15496 
   15641    15803    15859    15772    15670    15669    15731    15768 
   15761    15739    15687    15601    15541    15530    15534    15512 
   15465    15411    15406    15514    15680    15785    15772    15680 
   15664    15800    15965    16005    15858    15595    15403    15381 
   15468    15561    15596    15585    15550    15529    15603    15734 
   15824    15908    15974    15905    15730    15600    15554    15508 
   15399    15307    15338    15493    15722    15897    15880    15719 
   15593    15622    15747    15796    15715    15607    15511    15439 
   15448    15542    15655    15680    15593    15531    15580    15665 
   15705    15673    15611    15618    15726    15866    15908    15774 
   15566    15441    15464    15587    15657    15603    15539    15557 
   15631    15722    15811    15847    15753    15591    15535    15620 
