Origin Time       2024/06/23 22:54:00
Lat.              35.645
Long.             140.060
Depth. (km)       72
Mag.              4.1
Station Code      IBR017
Station Lat.      35.9538
Station Long.     140.3196
Station Height(m) 14
Record Time       2024/06/23 22:54:37
Sampling Freq(Hz) 100Hz
Duration Time(s)  68
Dir.              U-D
Scale Factor      7845(gal)/8223790
Max. Acc. (gal)   3.274
Last Correction   2024/06/23 22:54:37
Memo.             
[...]
   18241    18238    18235    18235    18238    18238    18233    18234 
   18237    18234    18234    18239    18241    18239    18238    18234 
   18233    18235    18237    18238    18239    18238    18237    18237 
   18235    18235    18237    18238    18239    18241    18239    18237 
   18235    18237    18237    18235    18233    18237    18239    18237 
   18237    18241    18238    18233    18231    18234    18237    18239 
   18237    18230    18230    18237    18242    18241    18237    18234 
   18235    18238    18238    18238    18237    18231    18233    18239 
   18238    18233    18233    18237    18239    18238    18233    18229 
   18233    18237    18235    18238    18235    18231    18235    18237 
   18234    18237    18238    18231    18225    18231    18238    18241 
   18239    18235    18229    18230    18237    18238    18231    18227 
   18230    18237    18238    18234    18229    18231    18235    18238 
   18238    18233    18229    18234    18238    18234    18233    18237 
   18237    18237    18238    18234    18231    18231    18233    18237 
   18237    18231    18231    18235    18238    18235    18233    18234 
   18233    18231    18234    18237    18234    18233    18233    18233 
   18235    18241    18241    18234    18231    18234    18234    18237 
   18239    18234    18229    18230    18237    18241    18238    18234 
   18234    18237    18238    18238    18235    18231    18230    18234 
   18237    18237    18233    18233    18233    18234    18242    18243 
   18237    18231    18231    18234    18237    18237    18235    18237 
   18238    18237    18235    18235    18237    18237    18237    18237 
   18237    18234    18231    18233    18237    18239    18238    18237 
   18238    18238    18238    18237    18233    18229    18234    18241 
   18241    18241    18241    18237    18234    18231    18231    18239 
   18242    18235    18233    18233    18233    18235    18241    18239 
   18238    18241    18239    18238    18238    18235    18233    18235 
   18242    18243    18242    18238    18237    18237    18237    18237 
   18235    18238    18239    18237    18237    18239    18237    18233 
   18238    18243    18243    18241    18238    18227    18227    18241 
   18246    18241    18235    18234    18234    18235    18235    18235 
   18239    18245    18243    18239    18237    18233    18237    18241 
   18235    18231    18237    18241    18238    18235    18234    18237 
   18241    18237    18230    18233    18238    18241    18239    18237 
   18234    18231    18234    18241    18238    18233    18235    18238 
   18234    18235    18237    18239    18238    18234    18234    18238 
   18235    18234    18235    18237    18239    18242    18239    18234 
   18234    18234    18231    18234    18237    18237    18235    18235 
   18238    18238    18238    18238    18235    18238    18239    18238 
   18238    18234    18227    18230    18238    18239    18238    18239 
   18239    18237    18237    18237    18233    18233    18239    18239 
   18231    18230    18234    18237    18241    18241    18237    18234 
   18235    18235    18234    18235    18237    18235    18233    18235 
   18241    18241    18234    18233    18234    18233    18235    18238 
   18233    18233    18237    18238    18238    18239    18238    18238 
   18241    18239    18233    18227    18230    18234    18235    18235 
   18238    18238    18238    18235    18233    18235    18239    18239 
   18235    18229    18225    18231    18242    18242    18237    18235 
   18238    18239    18237    18233    18229    18230    18235    18239 
   18238    18234    18234    18238    18241    18238    18233    18231 
   18234    18237    18233    18231    18237    18239    18237    18238 
   18238    18233    18231    18234    18234    18234    18237    18239 
   18237    18233    18231    18234    18238    18242    18238    18231 
   18233    18238    18239    18237    18235    18234    18235    18237 
   18237    18234    18233    18231    18233    18238    18242    18241 
   18237    18235    18234    18234    18234    18234    18235    18238 
   18235    18234    18237    18238    18238    18237    18237    18234 
   18230    18231    18237    18238    18235    18238    18241    18237 
   18234    18235    18237    18239    18239    18238    18237    18237 
   18237    18235    18234    18235    18239    18242    18239    18234 
   18235    18239    18238    18235    18235    18233    18234    18239 
   18237    18231    18234    18238    18239    18241    18237    18234 
   18237    18234    18230    18231    18237    18242    18242    18235 
   18235    18238    18235    18231    18231    18233    18235    18239 
   18241    18239    18237    18238    18239    18233    18231    18238 
   18238    18239    18239    18234    18231    18234    18235    18238 
   18242    18239    18235    18235    18235    18233    18233    18237 
   18239    18239    18233    18231    18237    18239    18238    18237 
   18237    18234    18231    18234    18234    18234    18241    18238 
   18235    18238    18238    18235    18238    18237    18233    18237 
   18239    18237    18238    18238    18234    18235    18239    18238 
   18237    18241    18238    18235    18239    18241    18234    18233 
   18237    18239    18239    18239    18238    18237    18237    18238 
   18235    18233    18235    18239    18238    18235    18234    18237 
   18239    18239    18239    18237    18235    18235    18234    18234 
   18237    18237    18233    18233    18235    18235    18238    18241 
   18239    18237    18235    18234    18234    18235    18237    18233 
   18234    18237    18237    18237    18234    18229    18234    18239 
   18234    18233    18235    18237    18237    18235    18238    18237 
   18237    18238    18237    18235    18238    18237    18231    18237 
   18238    18234    18237    18239    18234    18235    18238    18234 
   18233    18237    18238    18239    18237    18234    18235    18237 
   18233    18231    18235    18239    18235    18237    18239    18234 
   18231    18235    18237    18238    18239    18237    18231    18233 
   18235    18235    18239    18242    18238    18235    18233    18230 
   18233    18237    18239    18242    18243    18238    18235    18235 
   18237    18237    18235    18235    18235    18239    18241    18237 
   18234    18234    18234    18237    18238    18237    18242    18243 
   18233    18230    18237    18238    18237    18238    18237    18233 
   18234    18237    18237    18239    18238    18233    18235    18237 
   18235    18237    18239    18238    18235    18235    18241    18242 
   18238    18237    18235    18235    18237    18234    18234    18237 
   18238    18238    18241    18239    18234    18231    18233    18235 
   18239    18241    18239    18235    18234    18237    18239    18238 
   18235    18233    18234    18235    18237    18237    18235    18234 
   18237    18237    18235    18237    18235    18233    18231    18233 
   18234    18234    18237    18238    18237    18235    18235    18235 
   18235    18235    18234    18237    18239    18237    18233    18233 
   18235    18237    18234    18233    18230    18230    18235    18241 
   18241    18237    18235    18235    18231    18227    18231    18239 
   18238    18234    18234    18234    18230    18231    18234    18235 
   18235    18237    18234    18234    18235    18233    18233    18235 
   18237    18238    18238    18234    18231    18234    18234    18234 
   18235    18235    18234    18235    18237    18237    18238    18239 
   18238    18235    18235    18235    18235    18233    18233    18235 
   18238    18241    18238    18234    18233    18237    18241    18238 
   18231    18230    18234    18238    18237    18237    18237    18237 
   18242    18241    18235    18239    18242    18237    18238    18238 
   18233    18233    18238    18238    18234    18234    18239    18242 
   18238    18235    18237    18239    18241    18241    18237    18234 
   18241    18242    18234    18233    18241    18241    18234    18233 
   18233    18231    18237    18241    18238    18237    18241    18239 
   18237    18238    18239    18238    18237    18237    18235    18235 
   18237    18237    18235    18237    18237    18235    18235    18239 
   18241    18239    18237    18239    18241    18237    18233    18238 
   18242    18239    18239    18238    18237    18235    18234    18234 
   18238    18238    18235    18237    18238    18237    18239    18238 
   18234    18234    18237    18237    18238    18237    18234    18231 
   18234    18238    18235    18233    18234    18235    18238    18238 
   18239    18243    18238    18233    18237    18238    18234    18231 
   18234    18237    18235    18235    18238    18235    18234    18237 
   18238    18238    18237    18233    18230    18230    18233    18237 
   18239    18239    18235    18234    18235    18234    18234    18231 
   18231    18237    18239    18238    18235    18234    18237    18237 
   18234    18234    18239    18239    18235    18235    18237    18235 
   18238    18241    18235    18230    18233    18237    18237    18235 
   18234    18234    18235    18239    18238    18229    18229    18235 
   18239    18239    18241    18238    18233    18230    18231    18233 
   18237    18239    18237    18235    18237    18237    18235    18235 
   18234    18234    18234    18238    18239    18237    18235    18237 
   18235    18235    18238    18241    18238    18234    18233    18235 
   18238    18238    18235    18234    18234    18237    18237    18233 
   18235    18238    18238    18238    18239    18235    18233    18235 
   18238    18238    18237    18233    18233    18234    18234    18239 
   18243    18237    18231    18230    18230    18235    18237    18234 
   18234    18237    18239    18239    18237    18235    18235    18235 
   18238    18238    18233    18233    18239    18241    18239    18237 
   18231    18233    18237    18235    18233    18235    18238    18235 
   18235    18234    18233    18235    18238    18237    18237    18235 
   18233    18234    18235    18237    18239    18239    18234    18231 
   18233    18231    18235    18241    18241    18238    18235    18233 
   18231    18231    18231    18230    18234    18241    18238    18233 
   18234    18235    18237    18241    18242    18241    18234    18230 
   18233    18235    18238    18239    18241    18239    18237    18234 
   18233    18234    18237    18241    18245    18239    18233    18233 
   18237    18237    18238    18241    18239    18235    18235    18235 
   18237    18237    18238    18242    18239    18234    18233    18234 
   18235    18237    18238    18238    18239    18238    18237    18238 
   18237    18233    18234    18238    18239    18237    18235    18237 
   18238    18239    18241    18238    18235    18235    18235    18237 
   18237    18238    18239    18238    18237    18235    18237    18238 
   18241    18241    18238    18234    18234    18235    18235    18237 
   18239    18242    18239    18235    18237    18235    18234    18237 
   18239    18237    18234    18234    18233    18233    18238    18243 
   18241    18234    18234    18237    18239    18238    18235    18237 
   18238    18237    18234    18235    18237    18238    18242    18242 
   18235    18230    18230    18233    18235    18237    18235    18235 
   18235    18234    18235    18237    18241    18241    18234    18233 
   18235    18235    18235    18238    18239    18237    18237    18238 
   18237    18231    18231    18237    18238    18234    18234    18238 
   18239    18238    18233    18230    18234    18239    18239    18237 
   18235    18237    18235    18233    18233    18237    18239    18238 
   18237    18235    18233    18231    18235    18239    18237    18238 
   18239    18235    18233    18233    18235    18239    18239    18239 
   18242    18241    18234    18230    18237    18242    18238    18237 
   18242    18241    18237    18238    18237    18233    18235    18238 
   18238    18238    18238    18235    18234    18235    18237    18238 
   18237    18234    18233    18234    18235    18238    18239    18238 
   18234    18233    18237    18238    18237    18238    18239    18238 
   18239    18241    18239    18235    18234    18234    18237    18238 
   18237    18235    18237    18241    18239    18234    18235    18237 
   18234    18233    18234    18235    18234    18234    18239    18239 
   18233    18234    18235    18234    18234    18235    18238    18237 
   18234    18234    18235    18237    18234    18229    18233    18235 
   18231    18231    18233    18234    18237    18235    18233    18233 
   18235    18237    18237    18237    18235    18233    18234    18234 
   18233    18235    18237    18233    18233    18237    18238    18235 
   18233    18234    18233    18233    18231    18231    18234    18235 
   18235    18235    18234    18235    18237    18237    18239    18247 
   18262    18279    18296    18315    18334    18343    18337    18304 
   18237    18150    18090    18063    18036    18002    18021    18146 
   18318    18438    18523    18596    18638    18647    18551    18306 
   18064    17952    17917    17840    17648    17574    17923    18388 
   18570    18762    19006    18642    17720    17077    16960    17435 
   18901    20560    20564    18862    17265    16445    15778    15753 
   17482    20197    21668    20781    18454    16492    15950    16467 
   17525    19240    20781    20663    19295    18011    16969    16225 
   16119    16735    18497    20814    21131    18994    17331    17142 
   16765    16425    17504    19172    19938    19824    19097    17905 
   17203    17365    17493    17617    18760    19998    19198    17228 
   16899    18088    18543    18099    18100    18551    18786    18828 
   18500    17559    16946    17589    18769    19489    19575    18711 
   17184    16563    17307    18233    18939    19719    19828    18739 
   17574    17061    16740    16858    17948    19341    20190    20298 
   19445    17795    16507    16428    17113    17855    18501    19107 
   19333    18646    17524    17320    18072    18546    18692    19048 
   18940    18265    18095    17975    17091    16830    17878    18740 
   19036    19348    19140    18327    17832    17676    17354    17226 
   17933    19059    19487    19153    18682    17903    16899    16702 
   17610    18941    19955    19761    18415    17504    17586    17583 
   17230    17304    18135    19299    19966    19619    18459    17057 
   16301    16858    18184    19248    19612    19253    18501    17898 
   17460    16983    16877    17604    18844    19784    19872    19259 
   18346    17354    16717    16985    17969    18846    19152    19084 
   18732    17964    17308    17489    18183    18470    18347    18503 
   18866    18831    18335    17799    17651    17950    18180    17967 
   17737    18018    18756    19344    19039    18098    17540    17450 
   17478    18027    18962    19234    18696    18125    17836    17747 
   17925    18242    18400    18577    18981    18951    18038    17149 
   17189    17941    18721    18985    18771    18596    18388    17778 
   17234    17436    18279    19171    19415    18833    18208    18004 
   17753    17336    17288    17903    18886    19453    19016    18037 
   17493    17659    18137    18566    18840    18870    18438    17725 
   17413    17605    17942    18553    19128    18841    18041    17602 
   17477    17554    18017    18608    18962    18894    18393    17899 
   17913    18293    18608    18661    18361    17987    18239    18860 
   18511    17147    16690    18063    19514    19360    18466    18223 
   18184    17617    17323    18058    18886    18802    18385    18404 
   18434    18042    17803    18019    18050    17752    17794    18122 
   18195    18312    18567    18330    18004    18503    19075    18449 
   17258    17126    18115    18887    19066    19275    19099    17818 
   16451    16521    17894    19259    19727    19381    18632    17753 
   17204    17228    17721    18824    19930    19669    18301    17274 
   16999    17493    18690    19383    18744    17824    17718    18114 
   18258    18011    17682    17402    17370    18013    19010    19529 
   19273    18318    17227    17028    17918    18914    18824    17913 
   17848    18566    18592    18353    18493    18246    18069    18814 
   19299    18792    18337    18188    17849    17443    17030    16822 
   17413    18476    19191    19522    19507    18945    18068    17315 
   16954    17146    17847    18750    19286    19090    18598    18279 
   17930    17487    17309    17641    18459    19446    20154    19965 
   18183    15826    15566    17510    18843    18860    19102    19477 
   19182    18735    18006    16275    15268    16814    18901    19404 
   19543    20086    19704    18181    16926    16775    17419    18341 
   19151    19500    19323    18796    18157    17586    17030    16818 
   17616    18667    18738    18515    18693    18470    17775    17447 
   17652    18146    18777    19053    18589    17969    17948    18130 
   18046    18404    19159    18968    17980    17591    17868    18264 
   18777    18908    18222    17629    17813    18225    18341    18195 
   18081    18227    18543    18671    18215    17467    17321    17996 
   18814    19133    18767    17937    17169    17003    17620    18678 
   19522    19718    19188    18018    17070    17493    18469    18323 
   17886    18688    19507    18820    17659    17373    17513    17401 
   17493    18185    19159    19854    19584    18389    17358    16965 
   16753    16911    17976    19435    20349    20208    18951    17458 
   16733    16671    17113    18265    19487    19812    19201    18387 
   17953    17671    17185    16976    17616    18901    20017    19951 
   18615    17113    16487    17047    18258    19033    19005    18635 
   18264    18145    18323    18238    17575    17064    17562    18682 
   19236    18974    18528    18152    17965    18220    18517    18292 
   17910    18054    18459    18334    17783    17568    17910    18504 
   18904    18627    17946    17821    18330    18686    18577    18164 
   17817    17860    18009    18080    18331    18553    18565    18600 
   18493    18110    17899    17984    18040    18295    19035    19342 
   18214    16691    16834    18377    19080    18588    18418    18562 
   18129    17743    18094    18528    18343    17667    17361    17984 
   18787    18909    18565    18349    18488    18689    18496    17986 
   17655    17759    18077    18220    18207    18330    18480    18497 
   18535    18465    18150    18009    18284    18527    18196    17467 
   17177    17532    17926    18300    18902    19326    19292    19053 
   18574    17686    16900    16914    17702    18831    19784    19823 
   18752    17556    17065    16984    17297    18446    19560    19369 
   18315    17545    17324    17517    17964    18295    18600    19240 
   19596    18883    17747    17277    17460    17782    18203    18817 
   19259    18983    18067    17335    17378    17757    17818    17955 
   18882    19815    19249    17625    16779    17130    17801    18401 
