Origin Time       2024/06/23 22:54:00
Lat.              35.645
Long.             140.060
Depth. (km)       72
Mag.              4.1
Station Code      IBR006
Station Lat.      36.3665
Station Long.     140.4543
Station Height(m) 30
Record Time       2024/06/23 22:55:01
Sampling Freq(Hz) 100Hz
Duration Time(s)  60
Dir.              U-D
Scale Factor      7845(gal)/8223790
Max. Acc. (gal)   0.952
Last Correction   2024/06/23 22:55:00
Memo.             
   26865    26766    26964    27313    27469    27340    27025    26747 
   26821    27245    27622    27484    26813    26368    26759    27522 
   27796    27349    26712    26603    27122    27692    27749    27230 
   26638    26576    27070    27533    27446    26902    26487    26627 
   27137    27495    27398    27064    26960    27205    27456    27442 
   27267    27174    27175    27101    26914    26781    26902    27187 
   27241    26997    26862    27094    27488    27598    27210    26638 
   26406    26761    27457    27911    27727    27095    26534    26365 
   26665    27313    27911    28121    27907    27309    26634    26342 
   26435    26666    26975    27294    27441    27359    27209    27160 
   27270    27440    27403    27093    26785    26673    26681    26721 
   26971    27600    28093    27762    26898    26397    26644    27252 
   27569    27414    27152    27045    27001    26889    26697    26636 
   26989    27588    27919    27735    27220    26820    26816    26954 
   26958    26932    26982    27095    27237    27283    27205    27120 
   27070    27106    27229    27240    27021    26759    26781    27148 
   27494    27477    27244    27164    27249    27198    26944    26754 
   26839    27132    27359    27349    27205    27071    27052    27163 
   27263    27209    27005    26847    26935    27139    27211    27113 
   27010    27074    27226    27288    27248    27216    27221    27117 
   26867    26677    26665    26941    27503    27826    27575    27112 
   26873    27006    27344    27525    27415    27143    26871    26774 
   26917    27095    27075    26979    27031    27174    27217    27064 
   26887    26995    27324    27500    27413    27226    27009    26775 
   26705    26894    27193    27410    27349    27045    26887    27066 
   27391    27581    27471    27184    26983    26912    26832    26696 
   26663    26896    27286    27589    27652    27440    27095    26904 
   27021    27295    27378    27071    26681    26711    27147    27484 
   27319    26819    26607    26929    27386    27591    27475    27217 
   27094    27101    27093    27106    27214    27326    27275    27078 
   26832    26563    26497    26832    27325    27666    27711    27449 
   27153    27072    27090    26989    26844    26887    27059    27114 
   27045    27014    27130    27310    27352    27264    27205    27190 
   27144    27032    26927    26994    27233    27332    27106    26908 
   27063    27295    27302    27140    26952    26829    26802    26951 
   27315    27614    27556    27236    27029    27110    27175    26974 
   26713    26705    26998    27291    27322    27243    27309    27465 
   27384    26990    26670    26765    27234    27723    27738    27216 
   26665    26511    26674    26851    26960    27136    27392    27540 
   27457    27253    27044    26905    26920    27012    27085    27137 
   27156    27270    27557    27742    27557    27148    26800    26576 
   26478    26617    26947    27232    27392    27514    27515    27264 
   26860    26563    26580    26893    27256    27449    27453    27351 
   27244    27190    27234    27407    27523    27363    27031    26775 
   26705    26824    27020    27101    27021    26909    26881    26978 
   27193    27521    27850    27849    27378    26739    26357    26450 
   26855    27218    27394    27448    27386    27195    26993    26875 
   26833    26902    27137    27383    27446    27395    27332    27236 
   27108    26956    26792    26734    26878    27183    27541    27746 
   27583    27145    26773    26731    26967    27122    26985    26765 
   26773    27056    27400    27568    27445    27076    26779    26846 
   27102    27275    27346    27392    27445    27392    27114    26790 
   26711    26940    27283    27437    27330    27189    27129    27008 
   26856    26924    27175    27319    27241    27035    26878    26878 
   26963    27087    27210    27207    27130    27112    27118    27132 
   27163    27187    27275    27373    27263    26987    26798    26817 
   27058    27344    27410    27263    27102    27025    26978    26933 
   26970    27098    27279    27441    27419    27191    26955    26883 
   27016    27233    27315    27126    26854    26889    27238    27469 
   27330    27029    26960    27121    27159    27052    27033    27101 
   27149    27159    27160    27151    27083    26998    27016    27186 
   27379    27375    27184    26991    26887    26983    27237    27301 
   27072    26838    26821    27078    27437    27571    27388    27145 
   27056    26997    26863    26839    27010    27183    27222    27189 
   27187    27240    27282    27244    27126    26975    26883    26939 
   27072    27140    27166    27221    27278    27282    27194    27072 
   27006    27036    27153    27245    27260    27263    27211    27113 
   27037    26923    26816    26913    27144    27311    27400    27425 
   27297    27058    26850    26709    26693    26870    27117    27301 
   27380    27361    27303    27245    27203    27159    27052    26994 
   27145    27341    27314    27086    26866    26800    26914    27125 
   27263    27240    27145    27180    27386    27495    27334    27051 
   26793    26634    26685    26997    27427    27695    27602    27234 
   26920    26905    27068    27097    26948    26871    26986    27139 
   27163    27102    27124    27265    27324    27129    26840    26751 
   26921    27195    27406    27506    27546    27495    27252    26913 
   26746    26854    27059    27091    26929    26851    27020    27265 
   27363    27280    27145    27043    26974    27025    27292    27542 
   27411    26958    26650    26809    27279    27576    27380    27012 
   26966    27098    27102    27099    27116    27018    26914    26881 
   26877    27002    27302    27573    27611    27363    27016    26883 
   26967    27009    26960    26941    27037    27255    27437    27432 
   27307    27133    26862    26607    26657    27001    27279    27353 
   27391    27433    27390    27247    27128    27164    27184    26951 
   26720    26906    27380    27598    27344    26947    26786    26902 
   27051    27025    26929    26958    27133    27429    27737    27760 
   27288    26615    26333    26638    27132    27364    27265    27071 
   27027    27171    27375    27553    27596    27353    26975    26735 
   26600    26613    27001    27504    27610    27345    27122    27117 
   27183    27124    26956    26865    26931    27082    27139    26985 
   26856    27020    27295    27457    27502    27369    27079    26867 
   26866    27010    27171    27247    27291    27365    27400    27375 
   27267    26968    26576    26399    26611    27052    27359    27336 
   27149    27137    27472    27839    27787    27344    26798    26458 
   26530    26838    27162    27429    27392    26994    26661    26766 
   27187    27432    27232    26924    26983    27413    27730    27533 
   27036    26788    26904    27035    26978    26882    26878    26952 
   27087    27255    27360    27380    27411    27434    27314    27151 
   27099    27066    26946    26813    26821    27037    27328    27483 
   27384    27068    26781    26740    26875    27059    27279    27433 
   27344    27125    27058    27139    27251    27359    27313    27120 
   27068    27211    27280    27152    27000    26979    27018    27013 
   26967    26921    26932    26975    27012    27072    27117    27081 
   27048    27141    27406    27699    27716    27399    27025    26816 
   26820    26941    26954    26797    26721    26964    27444    27781 
   27668    27229    26856    26727    26793    27024    27294    27449 
   27469    27295    26974    26809    26928    27179    27351    27218 
   26913    26933    27376    27774    27658    26998    26349    26316 
   26794    27203    27218    27002    26944    27191    27473    27508 
   27307    27035    26901    27037    27322    27491    27360    27043 
   26874    26995    27268    27436    27355    27205    27155    27037 
   26715    26428    26488    26866    27313    27599    27600    27422 
   27283    27234    27121    26832    26570    26677    27157    27627 
   27680    27337    27049    27037    27059    26909    26707    26743 
   27087    27465    27614    27419    26959    26609    26742    27275 
   27670    27560    27193    26977    27036    27264    27355    27133 
   26839    26813    27090    27360    27337    27063    26789    26769 
   27009    27209    27186    27110    27214    27403    27369    27052 
   26674    26523    26750    27135    27433    27643    27665    27452 
   27198    26997    26909    26985    27120    27260    27348    27276 
   27087    26910    26909    27058    27102    27006    26928    26958 
   27112    27245    27268    27298    27336    27230    26948    26681 
   26693    26971    27218    27270    27229    27282    27422    27382 
   27095    26908    27029    27238    27275    27172    27109    27141 
   27151    27029    26867    26844    27060    27407    27619    27550 
   27307    27106    27105    27229    27214    26948    26604    26450 
   26599    26956    27280    27363    27288    27275    27367    27426 
   27275    26959    26757    26771    26900    27058    27243    27444 
   27549    27484    27332    27167    27028    26910    26793    26769 
   26921    27136    27263    27311    27351    27309    27135    26959 
   26886    26978    27202    27330    27307    27284    27310    27349 
   27276    27005    26723    26636    26797    27160    27486    27487 
   27164    26777    26639    26850    27128    27203    27195    27344 
   27626    27749    27523    27128    26825    26671    26644    26682 
   26774    27027    27398    27680    27712    27454    27075    26850 
   26886    27035    27079    27064    27118    27187    27209    27147 
   27029    26971    27087    27427    27680    27421    26800    26330 
   26372    26894    27379    27432    27257    27147    27141    27180 
   27205    27151    26931    26711    26789    27159    27546    27712 
   27707    27657    27449    27112    26846    26655    26574    26731 
   27004    27182    27194    27120    27153    27346    27423    27195 
   26886    26829    27018    27113    27013    27059    27352    27556 
   27502    27282    27045    26924    26905    26958    27056    27079 
   27097    27236    27325    27226    26983    26700    26613    26823 
   27112    27313    27426    27418    27226    26982    26933    27105 
   27333    27448    27394    27217    26941    26676    26684    27076 
   27548    27598    27214    26973    27182    27546    27733    27603 
   27230    26914    26808    26793    26777    26777    26836    26979 
   27135    27159    27000    26850    26983    27357    27635    27612 
   27382    27189    27130    27032    26827    26735    26889    27145 
   27315    27363    27359    27340    27243    27049    26886    26854 
   26920    27047    27182    27183    27012    26758    26622    26828 
   27237    27415    27249    27039    27070    27241    27275    27195 
   27255    27535    27815    27758    27329    26869    26684    26757 
   26862    26890    26908    27014    27240    27436    27364    27020 
   26634    26476    26678    27039    27247    27280    27334    27513 
   27676    27554    27120    26688    26597    26817    27072    27268 
   27429    27557    27631    27504    27110    26670    26484    26763 
   27315    27610    27479    27201    27043    27081    27166    27121 
   26967    26885    26993    27151    27248    27406    27549    27450 
   27209    27008    26813    26612    26504    26565    26815    27210 
   27488    27326    26874    26674    26919    27391    27769    27756 
   27432    27207    27238    27295    27133    26802    26624    26794 
   27171    27423    27367    27193    27148    27189    27157    27047 
   26982    27009    27045    27094    27164    27129    26991    26943 
   27075    27259    27325    27319    27325    27313    27284    27193 
   27001    26850    26800    26773    26761    26820    27010    27325 
   27600    27616    27351    27022    26860    26906    27025    27037 
   26924    26885    27095    27452    27680    27618    27349    27072 
   26892    26786    26771    26882    27058    27171    27140    27029 
   27036    27210    27334    27280    27180    27163    27255    27373 
   27315    27035    26762    26732    26987    27337    27513    27446 
   27237    26987    26785    26742    26910    27132    27207    27206 
   27297    27491    27670    27638    27307    26881    26607    26528 
   26559    26701    27039    27507    27858    27874    27515    26952 
   26531    26558    26917    27148    27087    27021    27178    27471 
   27615    27398    26986    26705    26636    26751    27014    27230 
   27259    27264    27365    27394    27206    26941    26850    27008 
   27257    27359    27274    27178    27186    27228    27182    27001 
   26765    26663    26813    27106    27367    27498    27481    27373 
   27229    27036    26793    26657    26757    26993    27233    27413 
   27468    27423    27319    27156    27017    26958    26913    26854 
   26875    27055    27288    27464    27529    27414    27191    27032 
   26989    27018    27056    27078    27143    27268    27337    27244 
   27059    26921    26892    26990    27105    27108    27101    27168 
   27245    27315    27306    27103    26869    26927    27236    27375 
   27189    26986    27056    27314    27387    27152    26956    27024 
   27162    27136    26908    26681    26731    27059    27369    27429 
   27332    27282    27286    27282    27225    27064    26893    26820 
   26824    26910    27062    27160    27151    27052    26994    27164 
   27475    27612    27463    27203    27013    26959    27044    27160 
   27135    26959    26821    26924    27201    27359    27272    27052 
   26866    26897    27152    27418    27504    27336    27085    27033 
   27137    27144    26970    26773    26813    27081    27292    27340 
   27321    27263    27085    26813    26632    26712    27017    27272 
   27271    27157    27182    27360    27517    27521    27365    27139 
   26971    26956    27079    27233    27211    26927    26638    26635 
   26917    27214    27260    27179    27291    27541    27604    27394 
   27097    26931    26990    27149    27206    27103    26936    26839 
   26875    27017    27184    27307    27341    27280    27182    27101 
   27078    27145    27229    27157    26932    26777    26860    27120 
   27305    27276    27174    27117    27068    27113    27313    27498 
   27508    27359    27147    27001    26952    26925    26904    26923 
   26997    27078    27082    27047    27048    27016    26960    27049 
   27291    27526    27549    27270    26937    26804    26773    26752 
   26851    27145    27518    27718    27589    27244    26925    26786 
   26766    26817    27043    27355    27494    27415    27230    27093 
   27105    27129    27064    27039    27060    27066    27141    27278 
   27317    27186    26947    26771    26812    26995    27144    27218 
   27198    27102    27093    27198    27241    27182    27137    27143 
   27137    27081    27040    27106    27268    27441    27530    27463 
   27226    26889    26545    26379    26593    27094    27483    27552 
   27469    27423    27375    27190    26927    26812    26879    26986 
   27063    27105    27110    27118    27157    27214    27213    27128 
   27064    27076    27091    27001    26789    26670    26852    27220 
   27495    27491    27236    26979    26932    27035    27145    27306 
   27541    27693    27704    27604    27346    26993    26696    26532 
   26547    26671    26846    27155    27503    27635    27507    27229 
   26936    26801    26840    26928    27024    27126    27206    27271 
   27314    27314    27274    27211    27157    27128    27085    27000 
   26944    27002    27091    27072    26968    26905    26968    27137 
   27276    27290    27232    27168    27143    27193    27282    27311 
   27221    27079    26990    27018    27166    27290    27274    27174 
   27059    26946    26865    26871    27014    27195    27211    27067 
   26971    27063    27306    27529    27575    27423    27186    26995 
   26928    27006    27153    27168    26993    26856    26958    27203 
   27321    27183    27001    27049    27247    27341    27303    27206 
   27093    27039    27022    26978    26925    26886    26910    27074 
   27290    27413    27360    27153    26977    26971    27081    27162 
   27126    27098    27264    27488    27496    27290    27012    26797 
   26732    26770    26896    27125    27332    27352    27213    27090 
   27054    27010    26937    26905    26959    27097    27203    27176 
   27110    27110    27153    27198    27203    27189    27207    27213 
   27118    26974    26923    26981    27052    27102    27174    27270 
   27321    27301    27241    27116    26966    26935    27031    27157 
   27263    27298    27257    27167    27024    26893    26856    26916 
   27066    27283    27492    27587    27475    27228    27062    27031 
   26987    26874    26801    26900    27191    27514    27633    27472 
   27176    26989    27002    27090    27133    27167    27249    27326 
   27278    27089    26893    26802    26796    26839    26950    27071 
   27137    27193    27265    27284    27225    27170    27170    27153 
   27075    26970    26916    26973    27071    27125    27113    27049 
   27037    27122    27190    27176    27116    27071    27156    27361 
   27486    27368    27086    26874    26859    26964    27055    27081 
   27120    27224    27333    27383    27372    27307    27155    26986 
   26944    26995    27040    27124    27189    27066    26828    26748 
   26947    27222    27271    27109    27016    27117    27278    27314 
   27213    27139    27132    27095    27062    27097    27201    27372 
   27510    27461    27222    26927    26767    26835    26958    26946 
   26846    26862    27095    27359    27409    27241    27013    26917 
   27009    27149    27232    27234    27182    27159    27203    27263 
   27251    27116    26998    27116    27369    27430    27202    26958 
   26981    27191    27288    27148    26958    26940    27060    27129 
   27120    27151    27237    27257    27159    27037    27009    27133 
   27311    27330    27135    26929    26898    26998    27105    27147 
   27106    27047    27055    27164    27288    27261    27095    26967 
   26973    27081    27194    27237    27230    27157    27036    27020 
   27139    27263    27295    27201    27063    27009    27040    27147 
   27288    27272    27056    26879    26892    27035    27171    27132 
   26923    26779    26894    27202    27441    27427    27221    26978 
   26890    27064    27307    27311    27079    26904    27031    27325 
   27449    27334    27133    26951    26904    27049    27224    27253 
   27189    27174    27255    27349    27279    26986    26693    26635 
   26808    27063    27261    27325    27278    27213    27194    27202 
   27160    27051    26981    27027    27152    27270    27272    27095 
   26877    26843    27004    27207    27332    27307    27211    27199 
   27252    27222    27066    26881    26828    26979    27201    27328 
