Origin Time       2024/06/23 22:54:00
Lat.              35.645
Long.             140.060
Depth. (km)       72
Mag.              4.1
Station Code      IBR006
Station Lat.      36.3665
Station Long.     140.4543
Station Height(m) 30
Record Time       2024/06/23 22:55:01
Sampling Freq(Hz) 100Hz
Duration Time(s)  60
Dir.              E-W
Scale Factor      7845(gal)/8223790
Max. Acc. (gal)   1.582
Last Correction   2024/06/23 22:55:00
Memo.             
    2488     2655     2469     2006     1759     1922     2315     2609 
    2513     2214     2153     2330     2466     2412     2220     2112 
    2193     2319     2393     2428     2438     2413     2297     2111 
    1987     2029     2265     2600     2791     2654     2238     1845 
    1764     1999     2353     2629     2722     2610     2303     1981 
    1921     2124     2444     2685     2620     2328     2083     1998 
    2115     2346     2430     2273     2087     2118     2398     2639 
    2558     2313     2196     2187     2182     2158     2135     2301 
    2613     2654     2335     2006     1985     2338     2682     2570 
    2162     1979     2145     2342     2335     2150     2010     2199 
    2571     2658     2475     2349     2312     2265     2111     1898 
    1880     2112     2382     2578     2708     2743     2590     2239 
    1927     1903     2062     2207     2342     2424     2420     2409 
    2313     2166     2293     2644     2783     2511     2042     1872 
    2116     2301     2226     2162     2235     2344     2380     2316 
    2312     2488     2682     2644     2344     1930     1637     1710 
    2066     2401     2635     2763     2729     2565     2311     2077 
    1965     1969     2099     2231     2200     2151     2320     2668 
    2916     2828     2488     2104     1852     1818     1912     2057 
    2266     2524     2756     2758     2470     2174     2042     2080 
    2177     2160     2192     2407     2543     2517     2430     2253 
    2074     2053     2187     2434     2674     2635     2313     2033 
    1911     1917     2103     2367     2551     2641     2570     2319 
    2068     1998     2101     2300     2547     2724     2690     2434 
    2041     1749     1760     1979     2295     2651     2897     2884 
    2578     2116     1827     1883     2116     2272     2303     2363 
    2500     2511     2328     2197     2239     2312     2250     2046 
    1992     2322     2760     2893     2589     1992     1512     1520 
    2029     2681     3013     2929     2625     2235     1907     1763 
    1830     2172     2689     3015     2820     2215     1765     1782 
    2097     2420     2488     2354     2300     2322     2286     2246 
    2297     2430     2488     2346     2091     1999     2231     2517 
    2538     2355     2158     2052     2097     2245     2363     2417 
    2493     2562     2459     2181     1890     1860     2284     2759 
    2713     2305     2091     2265     2551     2550     2187     1769 
    1652     1887     2234     2519     2721     2866     2899     2648 
    2151     1753     1678     1863     2189     2609     2988     3042 
    2697     2174     1732     1524     1597     1891     2296     2644 
    2776     2682     2547     2481     2396     2181     1856     1726 
    2041     2469     2617     2556     2473     2401     2261     2011 
    1831     1930     2292     2682     2817     2681     2509     2420 
    2311     2088     1852     1784     1933     2203     2494     2717 
    2781     2673     2430     2116     1906     1898     1976     2070 
    2208     2365     2539     2722     2824     2756     2509     2168 
    1898     1796     1908     2164     2297     2215     2122     2141 
    2257     2438     2605     2728     2817     2767     2490     2116 
    1856     1809     1923     2084     2208     2322     2475     2596 
    2570     2393     2188     2118     2216     2311     2281     2219 
    2216     2284     2390     2421     2349     2273     2192     2126 
    2187     2346     2486     2513     2354     2099     1960     2038 
    2238     2407     2536     2641     2610     2380     2030     1742 
    1744     2068     2470     2704     2721     2660     2636     2578 
    2428     2255     2118     2033     2022     2072     2170     2346 
    2531     2547     2371     2149     2045     2184     2413     2428 
    2249     2089     2073     2257     2440     2415     2392     2509 
    2566     2400     2065     1904     2115     2288     2126     1962 
    2135     2563     2924     2911     2511     2042     1852     1961 
    2184     2380     2455     2459     2466     2380     2188     2050 
    2070     2230     2411     2523     2513     2350     2199     2176 
    2192     2219     2234     2209     2220     2222     2164     2188 
    2392     2625     2687     2590     2430     2180     1907     1779 
    1883     2208     2583     2837     2932     2744     2292     1969 
    1991     2108     2064     1903     1885     2161     2574     2801 
    2714     2547     2519     2498     2276     1935     1723     1772 
    2038     2289     2358     2388     2508     2640     2674     2544 
    2331     2204     2150     2089     2060     2169     2427     2612 
    2540     2326     2173     2187     2312     2378     2374     2389 
    2392     2317     2165     1972     1883     2076     2398     2527 
    2442     2274     2177     2320     2527     2504     2326     2138 
    1988     1960     2043     2201     2436     2659     2732     2583 
    2280     2052     2046     2124     2151     2207     2308     2385 
    2412     2367     2323     2359     2370     2301     2265     2292 
    2309     2335     2421     2496     2432     2319     2339     2474 
    2525     2376     2103     1852     1710     1717     1867     2178 
    2675     3156     3267     2868     2211     1741     1648     1721 
    1803     2002     2358     2717     2844     2647     2403     2390 
    2470     2389     2151     1988     2099     2324     2307     2058 
    1953     2199     2565     2686     2505     2273     2168     2069 
    1885     1815     2033     2462     2871     2987     2749     2363 
    2037     1949     2169     2455     2575     2570     2457     2255 
    2103     1993     1952     2104     2319     2443     2547     2523 
    2303     2146     2123     2088     2039     2096     2332     2625 
    2739     2629     2451     2331     2265     2214     2235     2327 
    2369     2295     2151     2093     2209     2362     2374     2246 
    2092     2029     2149     2434     2674     2670     2409     2016 
    1742     1836     2200     2457     2421     2231     2130     2282 
    2593     2768     2728     2627     2502     2293     2062     1933 
    1948     2083     2274     2438     2538     2597     2546     2295 
    2027     1950     1953     1980     2226     2633     2839     2628 
    2122     1745     1804     2053     2219     2413     2639     2709 
    2536     2193     1965     2012     2135     2203     2182     2056 
    2050     2250     2455     2668     2890     2957     2870     2647 
    2272     1915     1840     2081     2288     2196     2047     2123 
    2400     2650     2566     2216     1960     1863     1782     1664 
    1638     1962     2531     2882     2944     3003     3129     3114 
    2783     2230     1732     1472     1452     1622     1958     2396 
    2760     2844     2654     2454     2450     2560     2492     2112 
    1748     1782     2123     2425     2521     2529     2655     2845 
    2774     2311     1791     1652     1904     2158     2205     2191 
    2313     2560     2702     2558     2239     2058     2097     2127 
    2077     2112     2263     2413     2432     2311     2320     2651 
    3063     3176     2837     2230     1750     1601     1586     1498 
    1487     1717     2074     2523     3075     3518     3618     3283 
    2559     1742     1263     1317     1730     2160     2405     2469 
    2425     2412     2559     2791     2840     2609     2192     1637 
    1155     1135     1603     2315     3094     3705     3954     3782 
    3126     2172     1378      972      961     1329     1850     2280 
    2600     2778     2768     2614     2320     1952     1671     1561 
    1737     2197     2612     2716     2556     2376     2524     2955 
    3109     2716     2091     1682     1656     1802     1914     2050 
    2230     2312     2286     2263     2378     2698     2998     2992 
    2749     2481     2292     2228     2195     2049     1852     1750 
    1813     2011     2327     2770     3132     3052     2475     1804 
    1574     1834     2172     2413     2683     2930     2963     2694 
    2247     1834     1657     1746     1856     1873     1983     2232 
    2493     2593     2461     2353     2502     2776     2911     2724 
    2265     1800     1568     1663     1975     2334     2652     2849 
    2891     2775     2538     2363     2315     2288     2239     2126 
    1987     1877     1741     1701     1829     1934     2080     2423 
    2828     3113     3198     3098     2822     2358     1860     1502 
    1352     1494     1881     2340     2678     2735     2600     2485 
    2416     2403     2521     2713     2776     2582     2242     1927 
    1722     1663     1784     2143     2694     3179     3323     3030 
    2455     1875     1466     1335     1534     2008     2538     2743 
    2475     2081     1981     2199     2413     2371     2228     2249 
    2338     2316     2277     2401     2655     2774     2540     2120 
    1867     1813     1783     1726     1718     1927     2404     2951 
    3370     3555     3415     2983     2431     1933     1586     1436 
    1544     1891     2309     2571     2605     2593     2616     2525 
    2265     1930     1710     1729     1899     2112     2273     2413 
    2725     3029     2992     2740     2482     2235     2061     1954 
    1906     2014     2218     2344     2357     2280     2197     2235 
    2309     2226     2003     1850     1910     2103     2263     2415 
    2624     2816     2898     2786     2471     2108     1868     1826 
    1917     1971     2022     2250     2586     2708     2525     2301 
    2176     2106     2064     2016     2097     2416     2768     2944 
    2860     2624     2531     2621     2702     2637     2359     1988 
    1656     1412     1431     1775     2185     2392     2378     2327 
    2338     2430     2598     2713     2712     2674     2573     2424 
    2324     2265     2285     2393     2374     2124     1791     1560 
    1555     1768     2170     2736     3188     3223     2949     2544 
    2060     1696     1637     1858     2218     2462     2559     2687 
    2772     2689     2427     2000     1644     1563     1678     1908 
    2191     2398     2517     2608     2619     2450     2218     2173 
    2334     2443     2270     1995     2069     2492     2848     2975 
    2938     2825     2598     2072     1363      913      965     1471 
    2176     2801     3233     3361     3175     2833     2404     1944 
    1638     1557     1624     1892     2425     3014     3295     2991 
    2174     1390     1124     1273     1566     2023     2670     3260 
    3495     3318     2862     2304     1879     1705     1657     1768 
    2142     2563     2798     2814     2682     2654     2805     2884 
    2727     2367     1992     1814     1790     1826     1991     2297 
    2633     2812     2675     2293     1907     1782     1926     2079 
    2099     2043     2041     2223     2523     2725     2728     2610 
    2536     2571     2601     2481     2249     2139     2253     2338 
    2182     1961     1964     2185     2361     2303     2084     1980 
    2123     2323     2465     2574     2548     2396     2293     2284 
    2362     2482     2473     2327     2166     1987     1753     1517 
    1431     1651     2084     2470     2698     2870     3033     3014 
    2686     2188     1711     1374     1250     1375     1767     2351 
    2933     3343     3477     3267     2787     2292     1988     1803 
    1651     1699     1976     2265     2509     2748     2992     3303 
    3496     3208     2500     1798     1352     1169     1224     1455 
    1795     2282     2793     2920     2628     2398     2479     2629 
    2505     2066     1690     1757     2176     2543     2695     2830 
    2970     2856     2412     1818     1437     1610     2180     2691 
    2913     2867     2713     2486     2083     1663     1574     1831 
    2119     2239     2239     2269     2447     2667     2733     2674 
    2616     2596     2559     2446     2305     2133     1880     1684 
    1680     1849     2111     2313     2367     2305     2119     1900 
    1861     2049     2370     2687     2853     2856     2698     2315 
    1849     1594     1617     1807     2087     2436     2876     3277 
    3265     2660     1865     1441     1501     1810     2199     2571 
    2806     2829     2717     2671     2752     2778     2582     2201 
    1806     1583     1628     1926     2398     2867     3091     2959 
    2569     2150     1892     1891     2116     2367     2498     2539 
    2505     2350     2073     1790     1748     2058     2519     2920 
    3113     2920     2416     1949     1745     1780     1933     2143 
    2377     2562     2682     2789     2926     3021     2848     2312 
    1688     1310     1217     1341     1715     2278     2771     2982 
    2891     2605     2247     1876     1571     1452     1537     1753 
    2031     2309     2562     2722     2670     2412     2177     2203 
    2405     2488     2384     2311     2440     2675     2740     2575 
    2384     2326     2405     2516     2532     2336     1985     1796 
    1906     2168     2458     2705     2949     3223     3271     2895 
    2250     1621     1270     1318     1642     1964     2174     2396 
    2593     2585     2353     2070     1981     2137     2309     2335 
    2286     2308     2407     2469     2489     2579     2775     3019 
    3079     2679     2034     1645     1617     1669     1572     1445 
    1660     2274     2882     3156     3119     2947     2772     2508 
    2031     1568     1405     1483     1625     1767     1949     2295 
    2749     3063     3114     2955     2749     2658     2517     2131 
    1684     1447     1526     1857     2263     2632     2913     3034 
    2956     2708     2363     2057     1964     2097     2317     2512 
    2573     2475     2351     2251     2145     2053     1979     1946 
    2014     2133     2226     2322     2465     2583     2608     2511 
    2227     1860     1669     1695     1850     2153     2555     2906 
    3059     2953     2706     2463     2170     1765     1426     1379 
    1640     2050     2427     2693     2891     3030     3007     2762 
    2386     2083     1953     1956     2023     2178     2435     2601 
    2516     2293     2134     2150     2324     2490     2547     2521 
    2448     2384     2300     2120     2037     2232     2547     2735 
    2718     2656     2691     2578     2101     1516     1134     1094 
    1405     1894     2425     2922     3233     3294     3068     2594 
    2177     1969     1830     1728     1680     1710     1912     2253 
    2567     2740     2724     2563     2385     2320     2357     2355 
    2350     2447     2533     2513     2439     2336     2284     2285 
    2120     1755     1453     1363     1480     1810     2232     2602 
    2910     3098     3064     2829     2469     2081     1798     1675 
    1725     1946     2262     2565     2790     2917     2937     2860 
    2717     2519     2281     2023     1804     1784     2008     2292 
    2554     2812     2934     2774     2363     1927     1736     1795 
    1931     2062     2139     2172     2253     2365     2409     2416 
    2489     2617     2606     2355     2069     1991     2157     2392 
    2502     2533     2619     2714     2636     2290     1858     1630 
    1706     1915     2031     2074     2201     2404     2575     2592 
    2454     2365     2332     2205     2101     2189     2440     2735 
    2797     2455     1907     1426     1200     1370     1822     2312 
    2829     3393     3819     3821     3258     2386     1688     1362 
    1328     1574     2083     2664     3082     3165     2895     2479 
    2143     1922     1755     1591     1468     1584     2026     2559 
    2952     3140     3117     2894     2550     2178     1846     1636 
    1597     1695     1873     2069     2263     2527     2795     2902 
    2818     2598     2312     2061     1917     1919     2072     2282 
    2439     2539     2651     2760     2766     2648     2440     2123 
    1800     1722     1935     2220     2377     2340     2193     2107 
    2150     2293     2454     2513     2535     2659     2737     2577 
    2212     1803     1601     1707     1906     2065     2247     2470 
    2713     2871     2766     2393     1957     1734     1814     2027 
    2308     2674     2893     2771     2434     2119     1996     2096 
    2301     2512     2695     2785     2633     2201     1707     1412 
    1383     1586     1981     2500     2961     3134     3019     2813 
    2589     2305     2012     1867     1980     2230     2324     2173 
    2053     2222     2555     2755     2674     2463     2369     2363 
    2281     2115     1968     1962     2103     2235     2322     2415 
    2442     2374     2293     2215     2115     1988     1849     1796 
    1921     2176     2447     2624     2660     2585     2469     2431 
    2524     2632     2628     2497     2293     2099     1981     1969 
    2062     2222     2425     2656     2770     2625     2300     1987 
    1814     1830     1993     2236     2505     2687     2686     2525 
    2269     2026     1960     2116     2374     2597     2724     2702 
    2496     2200     1984     1938     2004     2052     2088     2218 
    2398     2532     2594     2585     2544     2461     2295     2127 
    2018     1899     1763     1745     1942     2288     2652     2893 
    2848     2546     2197     1931     1788     1842     2150     2612 
    2960     3006     2805     2486     2178     1968     1792     1620 
    1560     1674     1969     2386     2714     2829     2828     2786 
    2666     2454     2290     2288     2332     2303     2214     2091 
    2034     2168     2386     2448     2277     2064     2052     2230 
    2398     2442     2421     2446     2457     2357     2245     2238 
    2354     2502     2481     2218     1911     1819     2011     2296 
    2435     2382     2296     2316     2366     2336     2307     2357 
    2439     2490     2477     2413     2336     2212     1968     1696 
    1632     1877     2313     2691     2802     2667     2467     2327 
    2273     2335     2451     2436     2270     2173     2230     2316 
    2354     2326     2286     2296     2277     2222     2223     2274 
    2322     2296     2241     2343     2589     2793     2841     2624 
    2219     1942     1888     1946     2043     2085     2084     2158 
    2276     2385     2479     2467     2386     2394     2497     2596 
    2610     2501     2327     2145     1971     1892     1962     2084 
    2115     2025     1927     1929     2052     2254     2427     2517 
    2581     2627     2543     2322     2192     2297     2519     2685 
    2675     2502     2317     2187     2065     1975     1966     2076 
    2320     2560     2587     2405     2195     2099     2193     2450 
    2686     2740     2621     2411     2185     2041     2026     2111 
    2230     2285     2253     2211     2214     2243     2242     2211 
    2231     2335     2439     2444     2326     2172     2130     2250 
