Origin Time       2024/06/23 22:54:00
Lat.              35.645
Long.             140.060
Depth. (km)       72
Mag.              4.1
Station Code      IBR004
Station Lat.      36.5516
Station Long.     140.4102
Station Height(m) 57
Record Time       2024/06/23 22:55:02
Sampling Freq(Hz) 100Hz
Duration Time(s)  60
Dir.              E-W
Scale Factor      7845(gal)/8223790
Max. Acc. (gal)   1.613
Last Correction   2024/06/23 22:55:02
Memo.             
   -1383    -1449    -1632    -1809    -1908    -1938    -1887    -1730 
   -1552    -1483    -1520    -1584    -1672    -1788    -1861    -1845 
   -1775    -1679    -1594    -1578    -1640    -1713    -1779    -1849 
   -1853    -1750    -1624    -1564    -1563    -1584    -1625    -1679 
   -1718    -1746    -1779    -1821    -1823    -1752    -1644    -1561 
   -1539    -1591    -1682    -1744    -1776    -1791    -1786    -1769 
   -1733    -1691    -1692    -1691    -1618    -1549    -1563    -1591 
   -1617    -1742    -1938    -2023    -1927    -1730    -1522    -1397 
   -1431    -1599    -1783    -1880    -1894    -1858    -1753    -1603 
   -1545    -1636    -1740    -1756    -1722    -1672    -1610    -1591 
   -1652    -1748    -1807    -1782    -1699    -1636    -1628    -1688 
   -1795    -1868    -1845    -1733    -1586    -1487    -1468    -1506 
   -1599    -1748    -1895    -1966    -1921    -1759    -1540    -1382 
   -1383    -1556    -1804    -1987    -2038    -1956    -1756    -1517 
   -1378    -1426    -1641    -1885    -2010    -1941    -1715    -1482 
   -1422    -1556    -1718    -1776    -1764    -1736    -1683    -1649 
   -1702    -1753    -1718    -1667    -1668    -1698    -1722    -1722 
   -1710    -1725    -1787    -1840    -1791    -1660    -1553    -1516 
   -1560    -1680    -1776    -1764    -1694    -1665    -1695    -1742 
   -1788    -1803    -1742    -1609    -1464    -1416    -1532    -1764 
   -1985    -2091    -2018    -1771    -1456    -1259    -1289    -1467 
   -1699    -1944    -2096    -2088    -1952    -1713    -1422    -1259 
   -1345    -1620    -1939    -2124    -2037    -1765    -1532    -1413 
   -1418    -1582    -1791    -1876    -1857    -1795    -1674    -1547 
   -1518    -1576    -1632    -1674    -1759    -1890    -1972    -1931 
   -1800    -1656    -1526    -1441    -1486    -1664    -1834    -1902 
   -1877    -1759    -1572    -1440    -1435    -1541    -1719    -1888 
   -1945    -1892    -1780    -1636    -1512    -1466    -1532    -1695 
   -1849    -1887    -1817    -1726    -1648    -1567    -1539    -1630 
   -1769    -1833    -1804    -1733    -1652    -1583    -1551    -1582 
   -1680    -1809    -1906    -1922    -1856    -1763    -1659    -1509 
   -1389    -1433    -1630    -1854    -2002    -1981    -1811    -1649 
   -1574    -1567    -1641    -1746    -1760    -1688    -1633    -1628 
   -1649    -1696    -1753    -1756    -1711    -1695    -1714    -1709 
   -1683    -1663    -1626    -1588    -1599    -1653    -1736    -1838 
   -1887    -1817    -1669    -1525    -1444    -1486    -1661    -1875 
   -1968    -1892    -1728    -1560    -1466    -1524    -1715    -1900 
   -1961    -1883    -1717    -1539    -1443    -1502    -1659    -1773 
   -1804    -1813    -1830    -1821    -1759    -1686    -1621    -1564 
   -1601    -1742    -1787    -1651    -1544    -1597    -1699    -1775 
   -1830    -1852    -1807    -1692    -1580    -1561    -1618    -1671 
   -1705    -1744    -1775    -1755    -1715    -1733    -1756    -1683 
   -1560    -1493    -1524    -1661    -1858    -2003    -2010    -1861 
   -1603    -1362    -1285    -1409    -1633    -1854    -2002    -2008 
   -1871    -1674    -1510    -1448    -1517    -1678    -1846    -1935 
   -1891    -1755    -1614    -1533    -1543    -1640    -1771    -1876 
   -1919    -1876    -1783    -1661    -1512    -1439    -1505    -1572 
   -1584    -1668    -1822    -1892    -1830    -1703    -1578    -1489 
   -1480    -1557    -1694    -1877    -2016    -1988    -1831    -1674 
   -1560    -1510    -1563    -1667    -1734    -1788    -1852    -1856 
   -1779    -1659    -1551    -1513    -1529    -1586    -1732    -1910 
   -1975    -1917    -1814    -1663    -1474    -1387    -1463    -1602 
   -1730    -1841    -1896    -1868    -1788    -1694    -1579    -1472 
   -1466    -1597    -1794    -1975    -2073    -1989    -1710    -1405 
   -1266    -1344    -1582    -1842    -1980    -1981    -1881    -1696 
   -1525    -1470    -1498    -1548    -1641    -1804    -1958    -1995 
   -1915    -1760    -1566    -1428    -1447    -1590    -1745    -1849 
   -1896    -1869    -1736    -1559    -1491    -1593    -1749    -1837 
   -1840    -1788    -1705    -1621    -1591    -1607    -1610    -1611 
   -1647    -1675    -1663    -1647    -1680    -1756    -1800    -1763 
   -1682    -1622    -1614    -1665    -1777    -1899    -1941    -1865 
   -1725    -1582    -1475    -1448    -1498    -1593    -1749    -1937 
   -2016    -1931    -1773    -1636    -1555    -1541    -1561    -1597 
   -1675    -1767    -1807    -1786    -1746    -1709    -1653    -1587 
   -1567    -1602    -1660    -1767    -1923    -1987    -1857    -1645 
   -1501    -1433    -1436    -1534    -1696    -1831    -1884    -1852 
   -1772    -1690    -1636    -1638    -1711    -1811    -1850    -1803 
   -1706    -1595    -1507    -1495    -1564    -1664    -1784    -1914 
   -1953    -1827    -1614    -1482    -1520    -1657    -1780    -1834 
   -1800    -1680    -1566    -1574    -1678    -1763    -1806    -1841 
   -1841    -1795    -1741    -1657    -1529    -1458    -1528    -1683 
   -1815    -1852    -1794    -1702    -1607    -1528    -1514    -1578 
   -1649    -1679    -1719    -1803    -1880    -1892    -1813    -1644 
   -1468    -1387    -1426    -1563    -1752    -1892    -1933    -1937 
   -1906    -1790    -1661    -1638    -1706    -1780    -1804    -1736 
   -1601    -1503    -1510    -1579    -1652    -1721    -1783    -1795 
   -1755    -1707    -1682    -1691    -1738    -1769    -1757    -1734 
   -1688    -1618    -1607    -1664    -1691    -1652    -1628    -1678 
   -1738    -1757    -1779    -1786    -1729    -1679    -1680    -1665 
   -1605    -1570    -1595    -1687    -1831    -1933    -1915    -1811 
   -1663    -1494    -1381    -1405    -1530    -1669    -1818    -1953 
   -1987    -1919    -1809    -1667    -1534    -1507    -1626    -1831 
   -2015    -2062    -1925    -1671    -1453    -1377    -1401    -1443 
   -1507    -1636    -1790    -1914    -1983    -1952    -1795    -1576 
   -1416    -1393    -1505    -1686    -1836    -1899    -1910    -1890 
   -1819    -1692    -1518    -1387    -1420    -1598    -1796    -1910 
   -1912    -1842    -1725    -1576    -1495    -1556    -1674    -1746 
   -1765    -1752    -1750    -1782    -1788    -1734    -1644    -1534 
   -1447    -1459    -1572    -1707    -1822    -1915    -1975    -2015 
   -2034    -1941    -1734    -1524    -1378    -1325    -1394    -1545 
   -1721    -1850    -1861    -1786    -1707    -1638    -1584    -1591 
   -1672    -1760    -1767    -1698    -1648    -1672    -1738    -1792 
   -1829    -1854    -1822    -1723    -1637    -1583    -1528    -1518 
   -1584    -1682    -1784    -1872    -1900    -1838    -1714    -1605 
   -1602    -1690    -1755    -1737    -1661    -1580    -1568    -1660 
   -1779    -1822    -1757    -1634    -1553    -1601    -1729    -1813 
   -1804    -1744    -1633    -1476    -1391    -1464    -1618    -1798 
   -1980    -2061    -1989    -1854    -1744    -1651    -1574    -1553 
   -1591    -1629    -1628    -1595    -1568    -1607    -1734    -1864 
   -1918    -1904    -1831    -1679    -1526    -1528    -1710    -1906 
   -1954    -1860    -1683    -1479    -1368    -1425    -1530    -1574 
   -1598    -1636    -1657    -1699    -1794    -1887    -1946    -1980 
   -1923    -1755    -1626    -1606    -1578    -1536    -1597    -1745 
   -1875    -1915    -1813    -1557    -1282    -1188    -1344    -1665 
   -2006    -2207    -2164    -1917    -1626    -1439    -1398    -1493 
   -1660    -1825    -1945    -2010    -2000    -1898    -1694    -1452 
   -1296    -1305    -1462    -1692    -1896    -1993    -1979    -1885 
   -1750    -1607    -1476    -1410    -1452    -1563    -1694    -1821 
   -1896    -1846    -1663    -1483    -1460    -1588    -1761    -1872 
   -1868    -1780    -1698    -1667    -1671    -1713    -1822    -1937 
   -1918    -1775    -1609    -1447    -1331    -1348    -1486    -1688 
   -1937    -2120    -2079    -1850    -1622    -1498    -1468    -1509 
   -1587    -1644    -1665    -1714    -1814    -1879    -1845    -1761 
   -1669    -1557    -1470    -1498    -1678    -1917    -2030    -1949 
   -1790    -1648    -1541    -1524    -1637    -1776    -1826    -1806 
   -1760    -1663    -1522    -1444    -1485    -1603    -1757    -1903 
   -1973    -1950    -1875    -1756    -1611    -1526    -1548    -1632 
   -1723    -1777    -1763    -1698    -1609    -1537    -1570    -1710 
   -1822    -1826    -1768    -1718    -1733    -1838    -1937    -1922 
   -1846    -1763    -1645    -1506    -1385    -1296    -1281    -1386 
   -1580    -1761    -1848    -1827    -1729    -1663    -1714    -1803 
   -1809    -1742    -1701    -1752    -1844    -1854    -1775    -1684 
   -1621    -1641    -1768    -1910    -1942    -1817    -1580    -1366 
   -1278    -1309    -1414    -1570    -1719    -1787    -1769    -1767 
   -1840    -1927    -1912    -1757    -1551    -1464    -1597    -1825 
   -1927    -1863    -1729    -1586    -1498    -1566    -1784    -2042 
   -2193    -2114    -1842    -1555    -1355    -1270    -1308    -1418 
   -1545    -1683    -1834    -1995    -2111    -2079    -1885    -1625 
   -1362    -1169    -1179    -1426    -1753    -1954    -1927    -1730 
   -1507    -1363    -1359    -1528    -1831    -2189    -2482    -2511 
   -2173    -1660    -1239    -1019    -1116    -1617    -2277    -2654 
   -2504    -1922    -1229     -751     -680    -1044    -1668    -2219 
   -2427    -2266    -1892    -1448    -1082    -1013    -1304    -1734 
   -2070    -2232    -2191    -1952    -1649    -1445    -1401    -1472 
   -1605    -1777    -1917    -1898    -1746    -1622    -1553    -1498 
   -1483    -1524    -1576    -1626    -1707    -1844    -1977    -2011 
   -1911    -1692    -1463    -1406    -1578    -1875    -2160    -2273 
   -2101    -1717    -1287     -943     -818     -992    -1379    -1810 
   -2180    -2421    -2474    -2342    -2060    -1698    -1410    -1321 
   -1432    -1688    -1956    -2038    -1880    -1606    -1339    -1121 
   -1044    -1161    -1337    -1480    -1664    -1915    -2166    -2316 
   -2266    -2065    -1876    -1768    -1702    -1652    -1605    -1539 
   -1485    -1520    -1661    -1806    -1840    -1718    -1482    -1267 
   -1224    -1381    -1636    -1880    -2085    -2219    -2238    -2166 
   -2038    -1846    -1634    -1475    -1385    -1347    -1360    -1420 
   -1487    -1534    -1611    -1749    -1867    -1918    -1923    -1884 
   -1841    -1841    -1809    -1633    -1382    -1250    -1336    -1548 
   -1744    -1891    -2015    -2052    -1923    -1688    -1443    -1202 
   -1047    -1148    -1514    -1942    -2230    -2312    -2231    -1983 
   -1543    -1069     -855    -1073    -1649    -2338    -2830    -2897 
   -2489    -1788    -1116     -737     -733    -1035    -1483    -1877 
   -2089    -2154    -2119    -1919    -1572    -1287    -1231    -1413 
   -1765    -2130    -2327    -2311    -2149    -1902    -1667    -1556 
   -1540    -1452    -1290    -1235    -1312    -1394    -1420    -1395 
   -1364    -1362    -1405    -1560    -1877    -2209    -2328    -2257 
   -2153    -2007    -1788    -1605    -1545    -1575    -1652    -1752 
   -1815    -1809    -1796    -1854    -1944    -1953    -1842    -1663 
   -1470    -1285    -1162    -1201    -1418    -1721    -2008    -2178 
   -2146    -1898    -1553    -1277    -1120    -1093    -1305    -1802 
   -2415    -2855    -2871    -2435    -1775    -1140     -672     -503 
    -685    -1115    -1637    -2084    -2319    -2305    -2072    -1709 
   -1386    -1235    -1278    -1468    -1744    -2064    -2334    -2386 
   -2189    -1900    -1610    -1304    -1108    -1192    -1505    -1895 
   -2273    -2517    -2484    -2189    -1728    -1197     -820     -808 
   -1147    -1702    -2257    -2497    -2251    -1698    -1136     -788 
    -792    -1156    -1703    -2188    -2454    -2475    -2285    -1937 
   -1530    -1200    -1071    -1212    -1559    -1952    -2201    -2187 
   -1961    -1675    -1431    -1325    -1416    -1615    -1830    -2020 
   -2083    -1906    -1537    -1174     -985    -1005    -1244    -1692 
   -2197    -2508    -2440    -2015    -1503    -1202    -1206    -1470 
   -1892    -2251    -2346    -2177    -1892    -1629    -1437    -1313 
   -1275    -1321    -1409    -1509    -1599    -1690    -1809    -1954 
   -2042    -1962    -1714    -1440    -1289    -1300    -1437    -1690 
   -1987    -2169    -2158    -2007    -1779    -1493    -1212    -1108 
   -1277    -1629    -2008    -2280    -2319    -2088    -1702    -1362 
   -1198    -1208    -1321    -1509    -1707    -1821    -1884    -1999 
   -2142    -2230    -2189    -1953    -1567    -1244    -1190    -1402 
   -1703    -1961    -2142    -2251    -2263    -2112    -1800    -1444 
   -1100     -733     -440     -427     -785    -1472    -2349    -3103 
   -3389    -3106    -2427    -1602     -877     -469     -468     -877 
   -1630    -2431    -2875    -2799    -2338    -1734    -1233     -974 
    -965    -1178    -1557    -1890    -1983    -1914    -1821    -1711 
   -1668    -1791    -1972    -2012    -1830    -1452    -1013     -758 
    -831    -1148    -1522    -1845    -2085    -2236    -2280    -2197 
   -2025    -1845    -1737    -1717    -1750    -1826    -1946    -2054 
   -2068    -1945    -1717    -1483    -1286    -1084     -916     -897 
   -1074    -1410    -1810    -2147    -2316    -2268    -2045    -1761 
   -1522    -1412    -1486    -1709    -1896    -1891    -1759    -1664 
   -1679    -1827    -2031    -2107    -1980    -1717    -1394    -1143 
   -1147    -1466    -1892    -2111    -1989    -1620    -1220    -1031 
   -1177    -1602    -2128    -2562    -2763    -2704    -2454    -2060 
   -1567    -1124     -884     -853     -986    -1247    -1505    -1607 
   -1564    -1491    -1487    -1602    -1858    -2212    -2563    -2754 
   -2612    -2157    -1606    -1090     -657     -508     -842    -1570 
   -2380    -2936    -3009    -2567    -1783     -943     -359     -255 
    -642    -1363    -2201    -2859    -3042    -2682    -1935    -1071 
    -425     -271     -637    -1331    -2112    -2686    -2763    -2324 
   -1617     -958     -666     -965    -1791    -2764    -3376    -3307 
   -2637    -1698     -787     -149      -40     -527    -1374    -2239 
   -2864    -3069    -2779    -2112    -1379     -905     -849    -1146 
   -1632    -2160    -2520    -2462    -2010    -1441    -1012     -892 
   -1124    -1539    -1935    -2235    -2332    -2079    -1493     -828 
    -384     -359     -774    -1464    -2187    -2782    -3109    -3005 
   -2504    -1861    -1302     -950     -885    -1134    -1622    -2114 
   -2315    -2151    -1814    -1507    -1341    -1381    -1601    -1869 
   -2074    -2166    -2141    -2007    -1756    -1425    -1158    -1051 
   -1070    -1189    -1451    -1817    -2160    -2378    -2432    -2327 
   -2104    -1823    -1557    -1341    -1185    -1123    -1194    -1371 
   -1590    -1813    -2014    -2084    -1935    -1645    -1356    -1158 
   -1174    -1505    -2000    -2396    -2544    -2423    -2079    -1580 
   -1058     -745     -832    -1259    -1764    -2141    -2331    -2272 
   -1956    -1603    -1404    -1352    -1445    -1684    -1976    -2222 
   -2331    -2211    -1914    -1597    -1321    -1121    -1080    -1148 
   -1166    -1138    -1173    -1289    -1480    -1753    -2045    -2288 
   -2451    -2473    -2307    -2043    -1854    -1844    -1961    -2029 
   -1880    -1529    -1132     -851     -787     -970    -1324    -1710 
   -2064    -2328    -2401    -2255    -1950    -1551    -1188    -1047 
   -1167    -1432    -1745    -2027    -2169    -2126    -1956    -1748 
   -1621    -1628    -1692    -1723    -1699    -1645    -1614    -1640 
   -1692    -1733    -1802    -1952    -2100    -2114    -1977    -1736 
   -1393    -1008     -714     -630     -838    -1363    -2058    -2639 
   -2911    -2845    -2521    -2092    -1656    -1281    -1069    -1057 
   -1177    -1372    -1622    -1877    -2046    -2037    -1885    -1737 
   -1636    -1521    -1409    -1389    -1463    -1571    -1649    -1663 
   -1624    -1618    -1678    -1723    -1741    -1819    -1979    -2103 
   -2064    -1830    -1502    -1246    -1181    -1336    -1694    -2143 
   -2462    -2508    -2347    -2042    -1609    -1189     -945     -912 
   -1100    -1506    -2034    -2501    -2716    -2532    -1976    -1274 
    -679     -349     -405     -873    -1567    -2239    -2775    -3064 
   -2933    -2396    -1686    -1005     -504     -376     -662    -1156 
   -1644    -2041    -2270    -2281    -2146    -2011    -1953    -1941 
   -1910    -1790    -1579    -1393    -1336    -1390    -1522    -1761 
   -2080    -2343    -2378    -2162    -1842    -1536    -1312    -1285 
   -1482    -1748    -1925    -1934    -1765    -1529    -1425    -1503 
   -1610    -1632    -1591    -1559    -1579    -1630    -1634    -1578 
   -1557    -1626    -1714    -1783    -1863    -1910    -1858    -1753 
   -1695    -1706    -1728    -1733    -1723    -1692    -1651    -1644 
   -1701    -1764    -1759    -1715    -1719    -1791    -1888    -1953 
   -1944    -1830    -1603    -1318    -1094    -1088    -1354    -1736 
   -2007    -2093    -2041    -1869    -1605    -1370    -1308    -1463 
   -1737    -1956    -1962    -1745    -1462    -1290    -1300    -1503 
   -1871    -2307    -2623    -2635    -2351    -1948    -1557    -1225 
    -980     -873     -970    -1293    -1726    -2066    -2211    -2223 
   -2153    -1958    -1622    -1244    -1008    -1039    -1279    -1607 
   -1992    -2359    -2515    -2349    -1946    -1476    -1117    -1016 
   -1185    -1472    -1726    -1871    -1881    -1823    -1811    -1814 
   -1740    -1655    -1663    -1726    -1786    -1817    -1723    -1493 
   -1312    -1320    -1480    -1738    -2062    -2350    -2427    -2201 
   -1748    -1254     -901     -828    -1067    -1551    -2138    -2628 
   -2824    -2640    -2160    -1574    -1059     -773     -811    -1108 
   -1539    -1972    -2253    -2262    -2033    -1717    -1498    -1506 
   -1715    -1917    -1923    -1795    -1692    -1624    -1536    -1490 
   -1533    -1574    -1506    -1348    -1215    -1219    -1378    -1630 
   -1917    -2192    -2367    -2334    -2097    -1788    -1495    -1259 
   -1171    -1278    -1489    -1718    -1971    -2182    -2222    -2047 
   -1738    -1417    -1201    -1186    -1381    -1680    -1966    -2173 
   -2223    -2041    -1707    -1436    -1354    -1420    -1548    -1647 
   -1651    -1593    -1586    -1713    -1938    -2115    -2106    -1949 
   -1799    -1679    -1537    -1447    -1489    -1564    -1561    -1532 
   -1530    -1533    -1583    -1760    -1998    -2153    -2162    -2015 
   -1741    -1456    -1285    -1250    -1343    -1567    -1871    -2151 
   -2315    -2253    -1935    -1505    -1190    -1115    -1252    -1485 
   -1679    -1783    -1838    -1912    -1964    -1900    -1737    -1563 
   -1439    -1409    -1471    -1584    -1695    -1767    -1819    -1853 
   -1823    -1744    -1726    -1825    -1925    -1875    -1698    -1516 
   -1408    -1408    -1495    -1617    -1752    -1890    -1962    -1911 
   -1717    -1432    -1224    -1240    -1491    -1907    -2369    -2708 
