Origin Time       2024/06/23 22:54:00
Lat.              35.645
Long.             140.060
Depth. (km)       72
Mag.              4.1
Station Code      IBR017
Station Lat.      35.9538
Station Long.     140.3196
Station Height(m) 14
Record Time       2024/06/23 22:54:37
Sampling Freq(Hz) 100Hz
Duration Time(s)  68
Dir.              N-S
Scale Factor      7845(gal)/8223790
Max. Acc. (gal)   4.259
Last Correction   2024/06/23 22:54:37
Memo.             
[...]
   14912    14920    14917    14916    14913    14906    14905    14906 
   14909    14917    14921    14916    14910    14909    14904    14904 
   14906    14909    14914    14914    14906    14906    14913    14912 
   14905    14908    14918    14918    14910    14908    14909    14908 
   14910    14913    14912    14909    14908    14904    14904    14912 
   14917    14913    14910    14909    14908    14906    14909    14913 
   14914    14916    14913    14908    14906    14909    14913    14914 
   14909    14908    14910    14908    14908    14912    14914    14914 
   14912    14908    14906    14905    14902    14906    14912    14914 
   14918    14916    14910    14908    14905    14904    14904    14906 
   14906    14904    14901    14904    14908    14909    14913    14916 
   14909    14906    14909    14910    14909    14908    14909    14912 
   14912    14908    14902    14904    14908    14908    14905    14910 
   14914    14909    14908    14910    14908    14905    14905    14905 
   14902    14902    14905    14909    14910    14912    14909    14906 
   14910    14909    14902    14902    14905    14906    14908    14906 
   14908    14910    14910    14908    14904    14902    14904    14909 
   14916    14918    14912    14901    14898    14898    14905    14909 
   14909    14910    14916    14916    14908    14902    14898    14895 
   14901    14908    14910    14909    14905    14901    14901    14912 
   14918    14916    14909    14902    14895    14899    14909    14913 
   14913    14914    14910    14905    14902    14902    14904    14906 
   14910    14912    14910    14910    14908    14905    14906    14908 
   14908    14908    14905    14904    14909    14910    14909    14914 
   14916    14910    14906    14901    14897    14902    14908    14910 
   14912    14913    14910    14910    14910    14908    14905    14905 
   14906    14906    14909    14914    14920    14916    14905    14898 
   14899    14902    14910    14920    14917    14908    14905    14905 
   14906    14909    14908    14906    14910    14913    14912    14906 
   14904    14906    14906    14909    14916    14914    14906    14899 
   14899    14908    14918    14917    14913    14913    14910    14901 
   14897    14901    14908    14910    14913    14918    14914    14904 
   14901    14905    14913    14920    14916    14908    14901    14899 
   14905    14908    14912    14914    14913    14906    14904    14906 
   14912    14912    14912    14912    14909    14901    14897    14902 
   14910    14913    14913    14912    14909    14905    14905    14908 
   14912    14912    14910    14908    14902    14901    14901    14904 
   14909    14916    14918    14918    14910    14899    14893    14891 
   14894    14905    14913    14913    14914    14918    14917    14913 
   14905    14901    14902    14904    14905    14908    14906    14908 
   14910    14908    14905    14905    14905    14905    14908    14910 
   14909    14908    14904    14899    14904    14910    14913    14912 
   14916    14917    14910    14905    14902    14905    14912    14912 
   14909    14909    14909    14910    14912    14910    14912    14912 
   14908    14906    14905    14905    14908    14908    14909    14909 
   14908    14908    14913    14913    14912    14910    14905    14901 
   14901    14904    14909    14910    14913    14920    14920    14909 
   14902    14905    14910    14910    14909    14909    14910    14910 
   14910    14905    14901    14908    14912    14910    14916    14918 
   14910    14904    14904    14906    14908    14912    14912    14906 
   14904    14909    14912    14909    14910    14917    14918    14914 
   14906    14904    14908    14905    14904    14913    14918    14913 
   14909    14908    14909    14912    14910    14906    14912    14912 
   14904    14902    14910    14914    14917    14917    14914    14913 
   14909    14902    14897    14902    14913    14918    14918    14920 
   14918    14910    14904    14899    14897    14902    14913    14920 
   14921    14917    14913    14909    14909    14908    14902    14901 
   14906    14909    14910    14917    14918    14914    14913    14908 
   14905    14909    14909    14905    14908    14913    14914    14914 
   14914    14912    14908    14908    14909    14906    14906    14908 
   14909    14913    14914    14912    14913    14913    14908    14904 
   14902    14902    14906    14912    14916    14916    14914    14913 
   14908    14905    14905    14905    14908    14912    14913    14914 
   14912    14904    14905    14909    14905    14901    14904    14909 
   14916    14921    14918    14913    14909    14902    14899    14902 
   14906    14909    14909    14910    14912    14913    14913    14909 
   14908    14914    14916    14908    14904    14905    14909    14913 
   14913    14912    14909    14905    14901    14901    14909    14909 
   14902    14902    14912    14924    14931    14931    14928    14936 
   14944    14940    14920    14889    14870    14859    14835    14821 
   14821    14841    14904    14951    14951    14991    15060    15113 
   15138    15047    14879    14724    14571    14546    14774    15121 
   15300    15142    14697    14173    14026    14640    15678    16344 
   16233    15454    14266    13142    12860    13938    15808    17136 
   17145    15965    14104    12545    12301    13474    15483    17084 
   17122    16006    14850    14288    14215    14058    14006    14609 
   15361    15306    14821    14963    15406    15283    14824    14764 
   14962    14685    14121    14121    14955    15865    15936    15411 
   14944    14686    14465    14014    13860    14698    15824    16079 
   15603    15209    14755    14017    13834    14585    15394    15557 
   15207    14733    14615    15072    15412    15053    14338    13915 
   14242    15130    16089    16582    16013    14700    13626    13347 
   13755    14411    15195    15967    16239    15886    15066    14089 
   13497    13497    14081    15306    16619    16866    15704    14173 
   13433    13645    14292    15020    15584    15579    15153    14958 
   15049    15102    15029    14863    14763    14774    14685    14527 
   14588    14885    15230    15373    15021    14589    14706    14962 
   15086    15469    15649    14986    14068    13747    14268    15392 
   16231    16063    15252    14521    13994    13516    13622    14652 
   15736    16301    16567    16270    15074    13649    12900    13150 
   14355    15876    16660    16329    15422    14472    13718    13609 
   14288    15094    15457    15353    15105    15093    15167    15063 
   14967    15095    15315    15294    15060    14694    14168    13873 
   14154    14867    15403    15264    14786    14553    14851    15534 
   15950    15747    15269    14762    14219    13725    13556    14089 
   15137    15940    16197    15812    14685    13666    13691    14509 
   15476    16147    16224    15670    14824    14260    14139    14231 
   14476    14851    15133    15093    14804    14615    14690    14854 
   15107    15597    15936    15591    14744    14052    13927    14418 
   15321    16002    15830    14994    14108    13694    14045    14801 
   15350    15457    15175    14801    14651    14635    14646    14966 
   15475    15585    15310    14904    14408    14220    14523    15018 
   15546    15790    15419    14634    13765    13243    13648    14960 
   16399    16983    16249    14810    13703    13517    14227    15369 
   16204    15993    14991    14154    13818    14050    14813    15541 
   15780    15557    15056    14557    14216    14013    14149    14982 
   16125    16464    15759    14864    14270    13937    13891    14156 
   14756    15589    15867    15159    14396    14563    15342    15456 
   14737    14424    14752    14904    14705    14667    15045    15210 
   14836    14960    15866    16178    15291    14095    13473    13589 
   14188    15003    15803    16104    15622    14743    13957    13886 
   14860    15912    16060    15426    14497    13926    14183    15033 
   15836    15866    14902    13613    13022    13720    15331    16749 
   16980    15959    14482    13333    13122    14065    15323    15908 
   15738    15333    15198    15110    14858    14736    14507    14339 
   14920    15585    15388    14582    13954    13941    14447    15288 
   16167    16434    15762    14705    14102    14102    14257    14621 
   15302    15543    15113    14650    14261    14022    14347    15070 
   15888    16425    16033    14985    14121    13699    13697    14081 
   14585    14881    15203    15940    16511    16081    14949    14075 
   13797    14065    14778    15267    15136    14912    15124    15533 
   15381    14743    14303    14030    14007    14728    15946    16627 
   16082    15049    14365    13744    13547    14392    15431    15723 
   15516    15286    15028    14698    14453    14412    14296    14260 
   14980    15889    16066    15557    14744    14238    14122    13995 
   14091    14590    15036    15310    15595    15840    16232    16580 
   15897    14052    12600    12866    14087    15172    16108    16567 
   16031    14766    13730    13630    14091    14389    14424    14877 
   15943    16449    15784    14779    14369    14747    15292    15421 
   15110    14505    13845    13564    14119    15418    16645    16815 
   15603    13956    13217    13632    14501    15377    15944    15784 
   15157    14663    14616    14785    14621    14434    14550    14524 
   14447    14835    15677    16455    16534    15595    14191    13664 
   14373    15136    15163    14975    15032    14737    13973    13907 
   14940    15942    15823    14844    14222    14388    14665    14758 
   14940    15103    15044    14982    15219    15674    15646    14821 
   14056    14062    14709    15341    15153    14396    14224    14986 
   15939    16209    15577    14619    13980    13745    13868    14512 
   15493    16133    15959    15294    14719    14257    13896    13900 
   14439    15476    16317    16229    15699    15350    14766    13745 
   13066    13301    14312    15573    16320    16208    15503    14585 
   14116    14555    15300    15529    15137    14534    14058    14029 
   14651    15419    15800    15720    15136    14341    13902    14211 
   15084    15766    15955    15801    15029    13729    12999    13657 
   15352    16731    16652    15530    14323    13512    13471    14068 
   14832    15487    15653    15325    15095    15207    15322    15219 
   15148    15330    15263    14508    13675    13535    14115    14914 
   15357    15483    15604    15419    14909    14651    14516    14303 
   14503    15142    15665    15796    15603    15179    14486    13786 
   13691    14251    14916    15353    15731    16101    15975    15078 
   13918    13410    13941    14966    15763    15994    15543    14546 
   13747    13961    14912    15623    15749    15569    15294    14987 
   14744    14598    14539    14644    14970    15138    14708    14181 
   14369    15056    15483    15439    15259    15178    14940    14384 
   14129    14439    14727    14831    15149    15589    15452    14611 
   13919    14023    14777    15677    16151    15920    15354    14859 
   14415    14098    14304    15178    16040    16067    15246    14181 
   13482    13369    13895    15060    16133    16252    15653    15022 
   14625    14446    14391    14401    14578    14839    14844    14570 
   14283    14436    15408    16634    17047    16254    14818    13575 
   13050    13468    14320    14889    15377    15865    15765    15234 
   14786    14242    13783    14142    15238    16204    16379    15716 
   14769    14180    14062    14251    14773    15449    15558    14943 
   14616    15007    15269    14751    13807    13493    14324    15502 
   16243    16528    16259    15415    14548    14211    14220    13994 
   13764    14125    14837    15468    15861    15751    15118    14482 
   14291    14482    14719    14998    15545    15974    15782    15199 
   14628    14278    14157    13992    13961    14449    15055    15329 
   15491    15751    15840    15340    14418    13956    14272    14671 
   14879    15156    15369    15321    15064    14987    15337    15588 
   15218    14415    13797    13741    14141    14872    15647    16043 
   15805    14956    14222    14289    14908    15499    15585    15072 
   14534    14542    14956    15229    15136    14949    14881    14651 
   14112    13828    14268    15048    15591    15888    15984    15484 
   14477    13957    14346    14890    15057    14955    14754    14581 
   14566    14821    15234    15453    15276    14833    14393    14234 
   14667    15502    15784    15160    14500    14397    14513    14806 
   15499    15967    15655    15133    15016    15121    15076    14848 
   14503    14312    14577    14750    14409    14251    14720    15337 
   15695    15734    15363    14755    14315    14176    14315    14519 
   14570    14694    14959    14960    14698    14613    14847    15408 
   16116    16448    16152    15205    13878    12951    12869    13510 
   14505    15336    15747    15803    15516    14941    14339    13791 
   13213    12749    12829    13956    15714    16902    16897    15907 
   15014    15288    16298    17053    17182    16691    15896    15075 
   14327    13887    13555    12803    11931    11874    13113    15380 
   17721    19114    19373    18836    17875    16833    15839    15007 
   14202    13068    11977    11731    12382    13211    13760    14234 
   14828    15363    15446    14875    14219    14229    14723    15161 
   15391    15373    15194    14883    14403    13968    13784    13851 
   14029    14283    14737    15147    15165    14960    14867    15138 
   15853    16629    17055    17115    16749    15770    14342    13230 
   13116    13919    14970    15222    14257    12893    12037    12127 
   13278    15175    17086    18106    17856    16812    15961    15934 
   16120    15581    14524    13630    12908    12243    11963    12422 
   13764    15662    17424    18435    18168    16938    15948    15824 
   16083    15904    15009    13599    12189    11637    12201    13431 
   14719    15411    15520    15457    15310    15363    15900    16363 
   15969    14844    13559    12532    12320    13068    14052    14665 
   15126    15682    15974    15940    16168    16869    17443    17058 
   15642    14137    13336    13227    13639    14323    14567    14108 
   13699    14017    14997    16124    16734    16617    16101    15334 
   14369    13629    13495    13907    14575    15199    15358    14902 
   14496    14663    15017    15190    15441    15938    16422    16684 
   16484    15503    13911    12534    12206    12969    14187    15198 
   15588    15404    15384    16096    16907    16814    15562    13671 
   12113    11659    12496    14381    16285    16908    16249    15331 
   14773    14678    14870    14962    14796    14446    14011    13797 
   14046    14639    15394    16255    16978    17157    16715    15716 
   14260    12923    12309    12518    13248    14079    14890    15766 
   16602    17119    17153    16849    16443    16017    15511    14952 
   14503    14103    13782    13832    14088    14040    13730    13705 
   13898    13930    14145    14744    15307    15537    15408    15263 
   15546    16178    16569    16294    15797    15669    15722    15529 
   14845    13649    12372    11695    12028    13254    15037    16810 
   17558    16984    15908    14867    13956    13536    14073    15568 
   17213    17899    17126    15377    13670    12530    11959    12262 
   13478    14688    15117    14805    14206    13913    14098    14534 
   15130    15646    15696    15417    15583    16629    17656    17396 
   15824    13938    12600    12127    12595    13822    15196    16202 
   16700    16652    16213    15662    15076    14520    14206    14260 
   14596    14987    15356    15655    15665    15317    14671    13868 
   13288    13155    13342    13717    14265    14924    15596    16119 
   16206    16067    16314    16837    16883    16013    14530    13095 
   12150    12056    12829    13763    14531    15390    16120    16249 
   15942    15637    15322    15007    14858    14798    14902    15199 
   15439    15522    15553    15568    15284    14656    14254    14341 
   14497    14416    14322    14557    15084    15476    15607    15881 
   16233    16044    15102    13844    13080    13309    14229    15300 
   16260    16885    16734    15788    14779    14185    13759    13139 
   12501    12339    12906    14056    15330    16355    16740    16075 
   14701    13595    13543    14547    15859    16811    17263    17049 
   15990    14596    13568    13242    13716    14635    15381    15592 
   15363    14974    14677    14752    15029    15141    15186    15188 
   14985    14762    14860    15168    15182    14740    14060    13416 
   13255    13752    14420    14895    15340    15780    15973    15881 
   15696    15350    14754    14310    14378    14735    15039    15257 
   15426    15439    15199    14615    13937    13932    14762    15707 
   16298    16542    16441    15921    15087    14422    14326    14561 
   14567    14107    13428    12997    13043    13424    14010    14786 
   15638    16222    16189    15769    15520    15539    15649    15800 
   15954    16017    15786    15105    14297    13869    13878    14115 
   14412    14573    14548    14524    14485    14195    13757    13598 
   14007    14910    16011    17001    17286    16348    14597    13026 
   12294    12357    12947    14002    15256    16355    17227    17725 
   17632    16873    15638    14472    13745    13467    13682    14328 
   14943    14937    14241    13516    13378    13880    14922    16163 
   16976    17095    16559    15439    14224    13662    13964    14798 
   15781    16505    16478    15570    14399    13853    14137    14566 
   14550    14381    14638    15213    15446    15020    14160    13220 
   12691    13063    14202    15534    16665    17336    17394    16926 
   15997    14559    12987    12174    12577    13772    15018    15742 
   15865    15735    15591    15556    15704    15668    15148    14517 
   14293    14577    14985    15210    15365    15379    15060    14567 
   14214    14216    14530    14980    15430    15673    15619    15232 
   14424    13520    13043    13136    13602    14222    14935    15587 
   16039    16448    16850    17000    16518    15291    13855    12916 
   12816    13336    13944    14538    15196    15624    15622    15427 
   15357    15441    15458    15342    15152    14864    14539    14351 
   14342    14307    14077    13837    13957    14559    15437    16330 
   16951    17065    16900    16573    15664    14206    12989    12617 
   13031    13876    14756    15222    15071    14542    14121    14208 
   14710    15194    15427    15480    15603    15862    15815    15094 
   14037    13312    13221    13775    14912    16241    17242    17635 
   17200    16009    14647    13587    12926    12791    13311    14231 
   15021    15454    15627    15564    15341    15151    15099    15250 
   15468    15434    15090    14787    14891    15277    15516    15461 
