Origin Time       2024/06/23 22:54:00
Lat.              35.645
Long.             140.060
Depth. (km)       72
Mag.              4.1
Station Code      IBR016
Station Lat.      35.9114
Station Long.     140.0494
Station Height(m) 20
Record Time       2024/06/23 22:54:46
Sampling Freq(Hz) 100Hz
Duration Time(s)  60
Dir.              E-W
Scale Factor      7845(gal)/8223790
Max. Acc. (gal)   4.054
Last Correction   2024/06/23 22:54:45
Memo.             
[...]
   -6636    -6673    -6667    -6627    -6625    -6663    -6673    -6637 
   -6627    -6659    -6678    -6651    -6628    -6652    -6686    -6671 
   -6632    -6636    -6671    -6671    -6633    -6623    -6655    -6670 
   -6642    -6621    -6651    -6682    -6669    -6637    -6642    -6675 
   -6677    -6637    -6629    -6666    -6675    -6642    -6624    -6652 
   -6674    -6650    -6627    -6648    -6681    -6671    -6636    -6635 
   -6670    -6678    -6640    -6628    -6664    -6678    -6646    -6625 
   -6644    -6667    -6662    -6637    -6643    -6674    -6671    -6636 
   -6629    -6666    -6682    -6651    -6631    -6652    -6671    -6651 
   -6625    -6637    -6671    -6670    -6637    -6637    -6670    -6678 
   -6646    -6631    -6658    -6678    -6654    -6629    -6646    -6671 
   -6658    -6632    -6640    -6667    -6670    -6642    -6632    -6663 
   -6679    -6655    -6637    -6656    -6674    -6655    -6631    -6640 
   -6667    -6663    -6639    -6640    -6663    -6670    -6640    -6627 
   -6655    -6671    -6652    -6639    -6654    -6669    -6656    -6631 
   -6636    -6669    -6673    -6647    -6643    -6664    -6671    -6648 
   -6632    -6652    -6666    -6647    -6632    -6647    -6666    -6656 
   -6635    -6635    -6662    -6671    -6647    -6636    -6660    -6671 
   -6654    -6644    -6658    -6669    -6655    -6632    -6632    -6656 
   -6663    -6642    -6636    -6659    -6667    -6650    -6640    -6656 
   -6669    -6655    -6637    -6644    -6662    -6654    -6631    -6631 
   -6655    -6660    -6644    -6639    -6660    -6673    -6651    -6636 
   -6654    -6667    -6659    -6640    -6640    -6659    -6656    -6633 
   -6631    -6654    -6663    -6647    -6636    -6651    -6667    -6654 
   -6636    -6643    -6659    -6656    -6640    -6642    -6660    -6667 
   -6647    -6631    -6646    -6663    -6651    -6636    -6650    -6667 
   -6662    -6644    -6640    -6655    -6660    -6640    -6629    -6648 
   -6660    -6650    -6636    -6646    -6662    -6652    -6636    -6644 
   -6662    -6660    -6642    -6633    -6650    -6660    -6647    -6636 
   -6647    -6660    -6656    -6644    -6650    -6664    -6659    -6642 
   -6637    -6650    -6659    -6650    -6637    -6650    -6659    -6646 
   -6633    -6640    -6650    -6650    -6644    -6646    -6658    -6663 
   -6651    -6642    -6648    -6658    -6652    -6643    -6651    -6660 
   -6651    -6636    -6639    -6650    -6652    -6648    -6644    -6651 
   -6659    -6655    -6648    -6652    -6658    -6658    -6648    -6642 
   -6650    -6652    -6644    -6644    -6654    -6654    -6648    -6646 
   -6650    -6658    -6658    -6648    -6646    -6654    -6659    -6652 
   -6643    -6642    -6646    -6647    -6651    -6658    -6662    -6659 
   -6648    -6644    -6648    -6648    -6648    -6650    -6654    -6659 
   -6658    -6647    -6643    -6652    -6659    -6652    -6651    -6655 
   -6662    -6655    -6643    -6646    -6655    -6651    -6646    -6644 
   -6650    -6659    -6654    -6646    -6652    -6662    -6658    -6651 
   -6654    -6659    -6654    -6647    -6650    -6658    -6659    -6650 
   -6643    -6652    -6660    -6652    -6644    -6650    -6664    -6666 
   -6654    -6651    -6654    -6652    -6647    -6646    -6652    -6659 
   -6658    -6648    -6654    -6663    -6654    -6642    -6648    -6662 
   -6660    -6647    -6642    -6652    -6662    -6655    -6650    -6654 
   -6663    -6659    -6647    -6651    -6662    -6655    -6642    -6643 
   -6658    -6663    -6654    -6647    -6652    -6658    -6656    -6648 
   -6654    -6667    -6664    -6650    -6644    -6655    -6659    -6648 
   -6643    -6655    -6662    -6652    -6643    -6650    -6664    -6662 
   -6646    -6650    -6664    -6662    -6643    -6639    -6655    -6662 
   -6651    -6646    -6655    -6664    -6654    -6640    -6655    -6675 
   -6667    -6644    -6646    -6666    -6667    -6644    -6633    -6651 
   -6667    -6654    -6637    -6647    -6664    -6655    -6640    -6651 
   -6674    -6670    -6642    -6635    -6656    -6667    -6648    -6633 
   -6652    -6670    -6659    -6642    -6647    -6673    -6674    -6644 
   -6636    -6662    -6671    -6648    -6628    -6646    -6673    -6663 
   -6636    -6636    -6670    -6698    -6666    -6619    -6637    -6662 
   -6647    -6636    -6637    -6669    -6678    -6628    -6625    -6663 
   -6646    -6636    -6681    -6714    -6671    -6561    -6552    -6716 
   -6812    -6643    -6462    -6610    -6822    -6735    -6548    -6504 
   -6659    -6878    -6789    -6493    -6431    -6586    -6768    -6822 
   -6571    -6392    -6748    -7094    -6837    -6327    -6126    -6640 
   -7283    -6849    -6048    -6234    -6903    -7065    -6632    -6473 
   -7061    -7187    -6358    -5840    -6250    -6936    -7057    -6660 
   -6567    -6767    -6623    -6280    -6382    -7069    -7476    -6875 
   -6111    -6111    -6490    -6721    -6721    -6685    -6772    -6723 
   -6570    -6605    -6768    -6889    -6736    -6596    -6724    -6439 
   -6072    -6454    -6890    -6988    -6970    -6616    -6328    -6466 
   -6698    -6930    -6936    -6632    -6608    -6735    -6413    -6088 
   -6330    -6905    -7331    -7126    -6546    -6346    -6365    -6323 
   -6517    -6853    -7063    -6913    -6493    -6386    -6520    -6575 
   -6647    -6671    -6744    -6772    -6632    -6732    -6848    -6652 
   -6516    -6493    -6600    -6758    -6519    -6273    -6513    -6808 
   -6949    -6944    -6759    -6694    -6570    -6312    -6392    -6443 
   -6400    -6926    -7369    -7133    -6759    -6284    -6011    -6555 
   -7051    -6694    -6335    -6597    -6887    -6790    -6446    -6150 
   -6450    -7079    -7040    -6740    -6922    -6918    -6570    -6347 
   -6104    -6297    -6924    -6816    -6440    -6717    -6975    -6930 
   -6760    -6534    -6718    -6886    -6350    -5935    -6278    -6756 
   -6959    -6975    -6955    -6941    -6647    -6216    -6312    -6733 
   -6785    -6637    -6820    -7071    -6814    -6212    -5899    -6214 
   -6809    -6934    -6681    -6874    -7380    -7222    -6404    -5977 
   -6293    -6667    -6701    -6716    -6851    -6748    -6424    -6268 
   -6412    -6825    -7099    -6813    -6408    -6396    -6609    -6805 
   -6945    -6971    -6885    -6793    -6648    -6394    -6210    -6231 
   -6420    -6619    -6712    -6755    -6812    -6867    -6833    -6698 
   -6613    -6640    -6747    -6882    -6913    -6677    -6307    -6243 
   -6529    -6735    -6720    -6694    -6669    -6598    -6660    -6700 
   -6517    -6519    -6760    -6853    -6798    -6656    -6620    -6859 
   -6871    -6516    -6323    -6282    -6301    -6651    -7060    -7182 
   -7064    -6569    -6042    -6253    -6882    -7179    -7063    -6650 
   -6251    -6124    -6150    -6412    -6793    -6957    -7146    -7221 
   -6698    -6259    -6529    -6825    -6586    -6169    -6262    -6925 
   -7345    -7064    -6435    -6035    -6220    -6717    -6988    -6860 
   -6696    -6777    -6598    -6056    -6085    -6810    -7210    -6976 
   -6747    -6812    -6818    -6578    -6434    -6575    -6737    -6710 
   -6374    -6087    -6435    -6982    -7064    -6793    -6569    -6727 
   -6922    -6727    -6515    -6416    -6223    -6124    -6466    -7087 
   -7308    -7094    -6816    -6484    -6323    -6413    -6548    -6787 
   -6902    -6627    -6264    -6169    -6571    -7207    -7095    -6284 
   -6104    -6720    -7199    -7194    -6933    -6866    -6874    -6384 
   -5853    -5934    -6285    -6577    -6766    -6898    -7214    -7414 
   -6929    -6246    -6177    -6467    -6700    -6804    -6598    -6409 
   -6567    -6723    -6724    -6691    -6624    -6570    -6656    -6777 
   -6705    -6689    -6829    -6741    -6528    -6415    -6434    -6570 
   -6496    -6551    -7156    -7473    -7025    -6261    -5725    -6095 
   -6991    -7209    -6914    -6837    -6841    -6779    -6511    -5996 
   -5895    -6462    -7028    -6988    -6662    -6721    -6840    -6771 
   -6970    -7028    -6647    -6265    -6019    -6199    -6656    -6879 
   -7202    -7345    -6732    -6102    -5929    -6034    -6427    -6794 
   -7005    -7327    -7533    -7290    -6583    -5640    -5309    -6004 
   -6890    -7365    -7411    -7026    -6411    -5911    -5987    -6632 
   -7103    -7219    -7314    -7238    -6901    -6372    -5726    -5516 
   -6006    -6783    -7372    -7338    -6694    -6162    -6319    -6774 
   -6878    -6947    -7319    -7249    -6490    -5960    -6092    -6556 
   -6987    -7061    -6781    -6376    -6008    -5980    -6291    -6687 
   -7221    -7557    -7437    -7337    -7024    -6197    -5699    -5818 
   -6270    -6889    -7049    -6920    -7033    -6737    -6049    -6002 
   -6651    -7356    -7564    -7129    -6573    -6237    -6108    -6207 
   -6380    -6598    -6826    -6821    -6666    -6527    -6446    -6543 
   -6729    -6866    -6907    -6696    -6467    -6554    -6685    -6683 
   -6501    -6304    -6558    -6894    -6997    -7025    -6712    -6454 
   -6627    -6670    -6623    -6736    -6771    -6725    -6478    -5965 
   -5818    -6286    -6782    -7099    -7290    -7148    -7038    -7261 
   -7132    -6378    -5763    -5819    -6386    -6995    -7087    -6714 
   -6444    -6312    -6291    -6505    -6700    -6924    -7345    -7469 
   -7038    -6485    -6227    -6369    -6644    -6729    -6814    -6903 
   -6500    -5977    -6056    -6288    -6343    -6648    -7061    -7148 
   -6793    -6187    -6026    -6585    -7214    -7368    -7025    -6650 
   -6592    -6592    -6581    -6725    -6791    -6535    -6169    -6265 
   -6922    -7188    -6675    -6285    -6358    -6484    -6594    -6670 
   -6654    -6540    -6357    -6420    -6789    -7079    -7079    -6918 
   -7001    -7418    -7585    -7180    -6540    -6112    -5944    -5771 
   -5684    -5910    -6269    -6644    -7028    -7064    -6787    -6779 
   -6975    -6995    -7010    -7068    -6975    -6772    -6597    -6485 
   -6268    -5995    -6041    -6316    -6469    -6640    -6882    -6820 
   -6612    -6774    -7144    -7261    -7177    -7113    -6898    -6451 
   -6016    -5679    -5684    -6253    -6862    -7109    -7138    -6891 
   -6463    -6359    -6789    -7384    -7547    -7326    -7053    -6373 
   -5413    -5082    -5485    -6254    -7126    -7495    -7245    -6912 
   -6575    -6385    -6716    -7222    -7480    -7335    -6805    -6482 
   -6403    -6007    -5651    -5769    -6178    -6874    -7456    -7345 
   -7072    -6956    -6485    -6066    -6196    -6467    -6693    -6777 
   -6700    -6797    -6939    -6783    -6423    -6133    -6219    -6689 
   -7090    -7202    -7233    -7137    -6660    -6145    -6138    -6401 
   -6505    -6531    -6546    -6502    -6505    -6687    -7003    -7150 
   -6925    -6475    -6102    -6196    -6785    -7199    -7226    -7269 
   -7136    -6578    -6134    -6168    -6324    -6319    -6384    -6685 
   -6887    -6674    -6273    -6224    -6694    -7204    -7213    -6898 
   -6847    -7111    -7345    -7254    -6682    -5879    -5312    -5306 
   -5929    -6682    -6967    -6955    -7145    -7323    -6968    -6439 
   -6347    -6532    -6708    -6631    -6138    -5876    -6300    -6748 
   -6848    -7121    -7767    -8137    -7647    -6772    -6339    -6289 
   -6276    -6289    -6289    -6385    -6532    -6350    -6033    -6027 
   -6276    -6543    -6735    -6864    -6957    -7051    -7098    -7109 
   -7207    -7136    -6696    -6288    -6187    -6280    -6320    -6228 
   -6257    -6357    -6303    -6423    -7044    -7727    -7885    -7578 
   -7213    -6940    -6681    -6366    -5938    -5624    -5910    -6493 
   -6609    -6458    -6534    -6600    -6239    -5701    -5859    -6885 
   -7840    -8090    -7924    -7713    -7209    -6189    -5209    -4907 
   -5422    -6444    -7300    -7591    -7493    -7221    -6848    -6620 
   -6671    -6600    -6156    -5814    -5927    -6270    -6608    -6810 
   -6818    -6658    -6373    -6207    -6443    -6947    -7253    -7110 
   -6779    -6650    -6531    -6106    -5832    -6127    -6648    -6971 
   -6952    -6802    -6791    -6860    -7040    -7221    -6967    -6386 
   -5930    -5818    -6104    -6393    -6269    -6177    -6728    -7615 
   -8024    -7811    -7479    -7196    -6771    -6201    -5784    -5927 
   -6531    -6875    -6781    -6802    -6779    -6169    -5652    -5984 
   -6586    -6951    -7429    -8229    -9040    -9144    -7960    -6003 
   -4653    -4727    -5748    -6851    -7824    -8510    -8271    -6941 
   -5197    -3770    -3102    -3543    -5113    -7011    -8317    -8899 
   -8861    -8183    -7187    -6340    -5821    -5778    -6435    -7673 
   -8946    -9489    -8669    -6731    -4765    -3827    -4159    -4997 
   -5746    -6656    -7545    -7642    -6939    -6126    -5663    -5732 
   -6394    -7373    -8064    -8062    -7380    -6139    -4847    -4310 
   -4604    -5341    -6336    -7319    -8009    -8345    -8399    -8202 
   -7715    -7227    -7230    -7743    -8225    -8060    -7261    -6342 
   -5551    -5009    -4846    -4873    -4853    -4631    -4280    -4395 
   -5293    -6484    -7462    -8102    -8365    -8341    -8089    -7561 
   -7013    -6721    -6575    -6627    -6980    -7426    -7824    -7978 
   -7681    -7334    -7295    -7207    -6747    -6081    -5521    -5283 
   -5360    -5622    -5989    -6288    -6322    -6081    -5674    -5090 
   -4249    -3742    -4649    -6867    -9077   -10396   -10557    -9486 
   -7686    -5976    -5004    -5313    -6779    -8483    -9634    -9801 
   -8958    -7632    -6104    -4338    -2872    -2401    -2890    -3874 
   -5200    -6895    -8496    -9049    -8195    -6852    -6076    -5954 
   -6358    -7312    -8347    -8854    -8903    -8860    -8650    -7857 
   -6531    -5371    -4806    -4749    -4966    -5054    -5049    -5404 
   -6033    -6755    -7601    -8172    -8106    -7422    -6353    -5655 
   -5842    -6381    -6851    -7285    -7279    -6691    -6212    -6309 
   -6674    -6691    -6201    -5417    -4599    -4402    -5402    -7314 
   -9181   -10010    -9599    -8313    -6488    -4892    -4259    -4476 
   -5340    -6760    -8247    -9116    -8754    -7180    -5377    -4311 
   -4311    -5138    -6220    -7222    -7898    -7847    -7169    -6482 
   -6242    -6642    -7554    -8446    -8905    -8942    -8584    -7697 
   -6492    -5601    -5182    -4904    -4820    -5193    -5962    -6898 
   -7512    -7198    -6031    -4885    -4530    -5065    -6223    -7666 
   -8800    -9093    -8451    -7018    -5400    -4603    -4935    -5896 
   -7086    -8087    -8357    -7696    -6328    -5078    -5092    -6594 
   -8505    -9559    -9254    -7824    -5894    -4162    -3075    -2803 
   -3399    -4789    -6706    -8564    -9690    -9902    -9412    -8483 
   -7434    -6593    -6201    -6210    -6143    -5633    -4878    -4303 
   -4280    -5101    -6454    -7649    -8565    -9132    -9031    -8627 
   -8411    -8172    -7713    -7094    -6230    -5283    -4773    -4781 
   -5038    -5603    -6411    -6844    -6589    -6170    -6077    -6097 
   -6153    -6524    -6921    -6944    -6826    -6739    -6592    -6465 
   -6515    -6810    -7146    -7265    -7393    -7828    -8322    -8424 
   -7816    -6494    -4942    -3761    -3318    -3716    -4772    -6219 
   -7622    -8091    -7311    -6336    -6147    -6559    -7090    -7680 
   -8391    -8989    -9105    -8700    -7979    -7007    -5925    -5285 
   -5378    -5784    -6083    -6088    -5722    -5270    -5175    -5717 
   -6706    -7469    -7561    -7171    -6658    -6191    -5895    -5969 
   -6528    -7472    -8484    -9016    -8565    -7184    -5599    -4781 
   -5090    -5809    -6238    -6504    -6735    -7006    -7580    -8087 
   -7870    -7052    -6139    -5591    -5748    -6262    -6416    -6169 
   -6072    -6328    -6578    -6435    -5865    -5223    -4982    -5275 
   -5942    -6897    -8110    -9317    -9853    -9263    -8019    -6943 
   -6362    -6309    -6716    -7312    -7815    -7882    -7263    -6265 
   -5378    -4830    -4752    -5190    -6110    -7042    -7222    -6732 
   -6166    -5641    -5246    -5228    -5629    -6259    -6663    -6583 
   -6362    -6315    -6532    -7161    -7955    -8382    -8286    -7616 
   -6559    -5925    -6083    -6413    -6400    -6228    -6289    -6652 
   -7203    -8059    -9045    -9386    -8818    -7896    -7042    -6235 
   -5360    -4446    -3812    -3847    -4392    -4977    -5570    -6147 
   -6531    -6966    -7731    -8712    -9486    -9548    -8874    -7789 
   -6534    -5489    -4981    -5001    -5449    -6066    -6543    -6862 
   -7020    -6898    -6573    -6183    -5827    -5647    -5548    -5429 
   -5506    -5923    -6566    -7280    -7894    -8217    -8097    -7669 
   -7481    -7813    -8320    -8694    -8849    -8622    -8047    -7217 
   -5871    -4151    -2961    -2975    -4037    -5520    -6864    -7647 
   -7449    -6458    -5582    -5323    -5568    -6245    -7103    -7643 
   -7769    -7690    -7400    -7018    -6774    -6623    -6520    -6427 
   -6254    -6149    -6258    -6488    -6713    -6932    -7175    -7300 
   -7285    -7412    -7623    -7690    -7804    -7846    -7395    -6620 
   -5863    -5215    -4876    -4961    -5386    -6077    -6705    -6897 
   -6675    -6166    -5687    -5872    -6806    -7865    -8479    -8471 
   -7936    -7118    -6400    -6085    -6106    -6303    -6632    -7011 
   -7117    -6678    -5976    -5327    -4712    -4476    -5197    -6798 
   -8517    -9417    -9072    -8067    -7165    -6362    -5549    -5008 
   -4918    -5104    -5116    -4845    -4789    -5368    -6485    -7601 
   -8149    -8370    -8800    -9099    -8803    -8203    -7685    -7415 
   -7431    -7407    -7025    -6488    -6131    -5996    -5917    -5800 
   -5795    -5913    -5935    -5976    -6318    -6820    -6986    -6546 
   -5935    -5776    -5913    -5846    -5725    -5984    -6578    -7101 
   -7200    -7028    -6967    -6913    -6609    -6177    -5945    -6212 
   -6767    -7015    -6922    -6894    -7051    -7356    -7773    -8202 
   -8563    -8587    -8002    -7072    -6238    -5586    -5111    -4897 
   -4993    -5350    -5822    -6226    -6428    -6544    -6844    -7299 
   -7632    -7684    -7410    -6828    -6103    -5552    -5449    -5715 
   -5950    -6097    -6448    -6925    -7346    -7824    -8181    -8046 
   -7510    -6878    -6412    -6261    -6203    -6079    -6200    -6671 
   -7088    -7156    -6993    -6845    -6717    -6409    -6054    -6010 
   -6172    -6276    -6404    -6544    -6561    -6625    -6858    -7015 
   -6984    -6870    -6589    -6199    -6023    -6099    -6451    -7141 
   -7770    -8070    -8136    -7877    -7263    -6546    -6073    -5979 
   -5837    -5433    -5155    -5080    -5185    -5753    -6637    -7595 
   -8572    -9185    -9169    -8614    -7684    -6791    -6196    -5810 
   -5629    -5603    -5601    -5633    -5655    -5570    -5451    -5420 
   -5544    -5826    -6100    -6299    -6685    -7300    -7723    -7645 
   -7101    -6443    -6246    -6647    -7106    -7221    -7242    -7538 
   -8071    -8518    -8532    -7990    -7109    -6243    -5634    -5394 
   -5540    -5819    -5984    -6208    -6512    -6546    -6266    -5969 
   -5999    -6501    -7090    -7344    -7337    -7271    -7114    -6777 
   -6372    -6134    -6072    -6050    -6064    -6135    -6165    -6264 
   -6708    -7303    -7662    -7662    -7111    -6069    -5259    -5155 
