Origin Time       2024/06/23 22:54:00
Lat.              35.645
Long.             140.060
Depth. (km)       72
Mag.              4.1
Station Code      IBR017
Station Lat.      35.9538
Station Long.     140.3196
Station Height(m) 14
Record Time       2024/06/23 22:54:37
Sampling Freq(Hz) 100Hz
Duration Time(s)  68
Dir.              E-W
Scale Factor      7845(gal)/8223790
Max. Acc. (gal)   4.068
Last Correction   2024/06/23 22:54:37
Memo.             
[...]
    4834     4837     4830     4827     4831     4831     4831     4838 
    4837     4830     4828     4831     4831     4833     4834     4835 
    4839     4842     4841     4837     4833     4824     4822     4828 
    4834     4838     4839     4835     4834     4834     4833     4828 
    4824     4828     4831     4828     4830     4835     4837     4835 
    4838     4838     4830     4831     4835     4830     4828     4835 
    4835     4831     4831     4833     4831     4831     4838     4838 
    4831     4830     4833     4831     4830     4835     4839     4835 
    4834     4837     4834     4830     4827     4826     4834     4843 
    4838     4830     4834     4841     4834     4827     4831     4834 
    4833     4839     4841     4834     4834     4834     4827     4828 
    4837     4837     4839     4843     4838     4830     4833     4838 
    4835     4837     4839     4834     4830     4831     4831     4834 
    4838     4837     4837     4835     4833     4834     4838     4838 
    4838     4841     4839     4837     4833     4826     4824     4834 
    4842     4845     4841     4831     4826     4828     4837     4842 
    4842     4834     4827     4830     4838     4842     4842     4838 
    4838     4839     4831     4826     4831     4835     4831     4833 
    4841     4841     4837     4833     4833     4838     4847     4850 
    4850     4847     4837     4827     4831     4837     4837     4838 
    4837     4830     4831     4834     4837     4841     4841     4837 
    4834     4838     4839     4838     4838     4834     4834     4835 
    4835     4839     4841     4833     4828     4838     4846     4843 
    4837     4830     4823     4831     4842     4841     4841     4842 
    4835     4831     4835     4834     4826     4827     4838     4843 
    4842     4838     4831     4830     4833     4834     4837     4839 
    4838     4834     4837     4835     4827     4828     4831     4827 
    4831     4843     4843     4837     4834     4833     4830     4831 
    4837     4839     4838     4833     4828     4827     4826     4826 
    4830     4838     4845     4843     4839     4833     4826     4827 
    4828     4830     4831     4837     4841     4838     4835     4833 
    4828     4828     4831     4834     4837     4831     4826     4830 
    4834     4835     4833     4828     4831     4837     4838     4838 
    4838     4833     4824     4824     4827     4823     4823     4830 
    4834     4835     4834     4834     4838     4838     4834     4830 
    4824     4824     4824     4823     4830     4835     4838     4837 
    4835     4834     4831     4828     4826     4828     4833     4831 
    4828     4834     4837     4831     4837     4845     4837     4828 
    4830     4824     4824     4828     4830     4834     4837     4835 
    4835     4833     4831     4833     4831     4830     4830     4830 
    4830     4830     4830     4830     4831     4834     4838     4835 
    4826     4827     4837     4835     4831     4835     4837     4833 
    4835     4837     4834     4834     4834     4835     4838     4834 
    4828     4833     4833     4827     4831     4834     4828     4835 
    4843     4839     4839     4839     4828     4823     4828     4833 
    4835     4837     4837     4838     4837     4835     4837     4831 
    4828     4831     4828     4828     4831     4828     4833     4839 
    4838     4837     4838     4835     4835     4841     4838     4831 
    4833     4833     4830     4830     4830     4831     4835     4838 
    4834     4834     4839     4838     4835     4837     4830     4820 
    4828     4835     4831     4830     4837     4841     4838     4833 
    4830     4827     4826     4833     4839     4839     4841     4838 
    4834     4837     4834     4827     4830     4833     4828     4831 
    4838     4835     4834     4837     4834     4831     4835     4834 
    4833     4841     4838     4831     4839     4842     4830     4824 
    4828     4834     4838     4839     4839     4838     4833     4830 
    4835     4839     4837     4835     4837     4838     4837     4833 
    4834     4837     4835     4837     4834     4833     4837     4835 
    4827     4835     4841     4834     4835     4839     4837     4841 
    4842     4833     4833     4839     4834     4828     4833     4835 
    4837     4839     4838     4839     4838     4828     4831     4839 
    4827     4822     4838     4841     4835     4843     4845     4834 
    4837     4838     4831     4833     4834     4834     4841     4842 
    4835     4834     4834     4828     4830     4837     4841     4839 
    4838     4838     4837     4830     4828     4834     4838     4839 
    4841     4837     4833     4835     4837     4835     4839     4842 
    4841     4835     4830     4828     4830     4822     4808     4799 
    4804     4820     4833     4843     4857     4880     4911     4930 
    4922     4901     4872     4838     4811     4757     4680     4664 
    4698     4722     4777     4818     4797     4845     4973     5074 
    5154     5175     5047     4792     4563     4509     4626     4811 
    4914     4849     4749     4777     4860     4865     4818     4746 
    4684     4793     5044     5069     4823     4758     5012     5225 
    5208     4959     4490     4202     4267     4282     4413     4953 
    5485     5782     5887     5452     4461     3665     3497     3883 
    4885     6056     6393     5687     4680     4021     3858     4195 
    4900     5510     5602     5182     4600     4203     4148     4351 
    4708     5317     5908     5782     4882     3970     3707     4094 
    4683     5200     5707     6057     5811     4963     4116     3808 
    4050     4527     5082     5524     5454     4872     4179     3748 
    3908     4669     5601     6019     5659     5063     4681     4492 
    4541     4703     4603     4403     4770     5574     5741     5043 
    4314     3896     3690     3983     4880     5915     6457     6014 
    4920     4259     4240     4178     4156     4679     5470     5850 
    5536     4877     4369     3998     3693     3844     4590     5391 
    5738     5620     5394     5256     4980     4648     4638     4706 
    4488     4278     4295     4480     4835     5043     4927     4934 
    5069     4951     4779     4872     5080     5132     5063     5043 
    4963     4706     4507     4514     4627     4841     4997     4756 
    4185     3858     4137     4845     5668     6222     6205     5768 
    5096     4287     3705     3638     4090     4761     5104     4935 
    4638     4774     5294     5437     5042     4774     4924     5057 
    4789     4384     4257     4558     5236     5726     5512     4908 
    4357     4145     4494     4965     5008     4784     4629     4645 
    4773     4881     5000     5194     5281     5105     4758     4430 
    4329     4491     4769     5049     5162     4966     4629     4438 
    4588     5096     5567     5510     4912     4139     3697     3940 
    4726     5638     6224     6050     5171     4253     3831     3883 
    4182     4513     4827     5269     5649     5586     5157     4704 
    4537     4719     4884     4885     4993     5101     4860     4433 
    4160     4174     4623     5328     5702     5505     4950     4411 
    4268     4515     4789     4965     5211     5448     5370     4941 
    4413     4059     4071     4371     4675     4878     5049     5242 
    5339     5117     4797     4799     4990     4992     4700     4388 
    4444     4747     4922     5023     5157     5112     4801     4538 
    4656     5094     5470     5393     4761     4059     3981     4445 
    4820     4891     4941     5246     5429     5030     4611     4716 
    4922     4835     4677     4799     5100     5125     4887     4689 
    4463     4214     4259     4617     4989     5132     5058     5143 
    5394     5255     4858     4710     4656     4665     4814     4750 
    4529     4506     4646     4845     5040     5225     5451     5458 
    4982     4379     4116     4136     4295     4669     5258     5809 
    5822     5256     4665     4256     4164     4434     4476     4332 
    4606     5233     5984     6227     5366     4293     3913     3937 
    4167     4635     5030     5090     4851     4591     4737     5340 
    5768     5553     5005     4541     4433     4849     5293     5182 
    4684     4186     3943     4070     4434     4924     5352     5503 
    5499     5309     4874     4656     4776     4695     4251     3929 
    4190     5011     5854     6038     5468     4779     4452     4433 
    4502     4476     4351     4557     5266     5706     5398     4853 
    4471     4351     4504     4617     4534     4513     4791     5140 
    5163     5066     5097     5059     4966     4833     4502     4257 
    4441     4795     4950     4827     4645     4922     5552     5602 
    4833     4353     4950     5655     5463     4931     4563     4112 
    3958     4433     4797     4699     4646     4797     5042     5514 
    5925     5498     4294     3314     3435     4687     5849     5894 
    5425     5192     5008     4564     4093     4058     4330     4600 
    4934     5323     5622     5591     5065     4500     4386     4460 
    4425     4591     5071     5340     5232     5175     5130     4650 
    3871     3480     4093     5366     6003     5482     4575     4145 
    4442     5098     5613     5682     5267     4699     4348     4429 
    4939     5374     5151     4441     3916     3873     4303     5043 
    5571     5580     5228     4708     4287     4332     4953     5602 
    5633     5320     5111     4746     4176     3824     3728     3782 
    4131     4756     5552     6430     6860     6273     4969     3942 
    3700     3817     3867     4048     4693     5595     6068     5763 
    4993     4201     3692     3812     4612     5460     5705     5294 
    4756     4708     4968     4999     4982     5209     5341     4873 
    3916     3267     3483     4383     5522     6295     6158     5378 
    4661     4260     4272     4745     5219     5269     4970     4567 
    4429     4760     5090     4774     3898     3416     4128     5633 
    6706     6583     5485     4168     3542     3978     4833     5452 
    5764     5616     4970     4338     4126     4229     4398     4658 
    5151     5482     5175     4611     4445     4666     4820     4660 
    4407     4402     4726     5320     5887     5894     5314     4602 
    3956     3607     4016     4969     5537     5308     4692     4315 
    4491     4993     5414     5540     5377     5146     4954     4629 
    4228     4171     4526     4857     5026     5190     5174     4857 
    4554     4440     4347     4384     4893     5548     5621     5086 
    4496     4388     4945     5574     5499     4892     4398     4095 
    3892     4120     4830     5452     5690     5656     5340     4777 
    4307     4230     4391     4399     4336     4596     5105     5383 
    5213     4918     4915     5023     4847     4654     4710     4693 
    4577     4706     5001     5140     5117     5066     4955     4707 
    4394     4248     4446     4935     5389     5370     4908     4592 
    4688     4904     5062     5159     5143     5098     4959     4556 
    4199     4182     4326     4564     4893     5125     5283     5520 
    5653     5471     5076     4563     4055     3956     4490     5116 
    5158     4757     4461     4533     4885     5119     5104     5104 
    5042     4712     4263     3916     3877     4337     5297     6312 
    6623     6091     5247     4328     3624     3774     4629     5198 
    5008     4550     4480     4718     4637     4294     4476     5254 
    5746     5440     4776     4392     4391     4529     4700     4935 
    5116     4947     4504     4283     4492     4995     5607     6007 
    5867     5256     4612     4313     4305     4359     4442     4468 
    4406     4533     4780     4831     4816     4895     5100     5474 
    5651     5456     5229     4864     4233     4009     4455     4949 
    5184     5270     5143     4743     4239     4051     4347     4770 
    5035     5026     4876     5147     5802     6002     5472     4637 
    3759     3163     3311     4039     4870     5621     6077     6122 
    5836     5259     4654     4272     3978     3797     4062     4766 
    5405     5583     5506     5440     5130     4513     4098     4151 
    4450     4824     5290     5706     5722     5302     4838     4571 
    4411     4283     4230     4309     4483     4658     4911     5244 
    5360     5211     5088     4957     4644     4446     4536     4598 
    4599     4791     5086     5193     5000     4733     4729     4887 
    4819     4608     4680     5082     5497     5644     5418     4877 
    4243     3929     4113     4441     4623     4746     5058     5691 
    6330     6319     5441     4322     3653     3514     3847     4446 
    4673     4450     4380     4534     4645     4747     4907     5143 
    5474     5980     6685     7144     6963     6303     5310     3986 
    2818     2528     3083     3807     4199     4194     4031     3959 
    4213     4941     5788     6184     5980     5544     5259     4945 
    4330     3719     3465     3469     3404     3292     3721     4873 
    5934     6319     6307     6012     5348     4730     4671     5246 
    6062     6551     6448     5778     4756     3740     2839     2127 
    2029     2706     3819     5139     6673     8187     9099     8829 
    7361     5454     3902     2868     2320     2272     2525     2936 
    3546     4511     5733     6373     6045     5695     5969     6292 
    5991     5096     4091     3302     2878     3275     4581     5783 
    5894     5256     4860     4976     5112     4893     4557     4442 
    4213     3732     3750     4534     5385     5714     5607     5566 
    5694     5483     4626     3615     3299     3862     4645     5111 
    5378     5589     5537     5235     4984     4854     4571     3996 
    3524     3593     4166     4911     5595     6176     6489     6303 
    5726     5193     4982     4838     4418     3785     3115     2675 
    2839     3744     5157     6403     6801     6412     5842     5470 
    5244     5115     5301     5748     5667     4723     3954     4099 
    4428     4268     4014     4126     4415     4453     4160     3942 
    4217     4918     5606     5919     5796     5343     4823     4715 
    5074     5255     4835     4032     3217     2779     3026     3902 
    5028     6029     6686     6767     6139     5196     4583     4575 
    4997     5490     5715     5637     5564     5521     5013     3925 
    2866     2451     2929     4180     5589     6374     6215     5412 
    4692     4711     5439     6216     6446     6049     5313     4569 
    4001     3493     2843     2344     2573     3523     4649     5475 
    5809     5827     5911     6107     6062     5483     4529     3759 
    3638     4059     4639     5340     6137     6629     6423     5279 
    3453     1907     1553     2504     4035     5405     6497     7109 
    6859     6037     5089     4093     3481     3807     4747     5405 
    5256     4629     4309     4573     5107     5487     5313     4553 
    3731     3570     4406     5759     6831     7242     6979     6037 
    4450     2936     2573     3410     4615     5653     6358     6439 
    5706     4621     3834     3484     3422     3532     3835     4396 
    5038     5621     6223     6588     6288     5503     4783     4337 
    4145     4276     4720     5136     5080     4473     3751     3518 
    3882     4322     4515     4749     5317     5962     6118     5530 
    4585     3960     3977     4465     5223     5983     6178     5413 
    4025     3014     3063     3677     4059     4357     5171     6482 
    7581     7769     6910     5247     3419     2357     2392     3183 
    4348     5467     6264     6771     6933     6555     5605     4338 
    3291     2982     3377     3974     4552     5270     6007     6249 
    5826     5316     5044     4540     3748     3438     3932     4622 
    4784     4423     4108     4143     4364     4645     5144     5738 
    5884     5286     4224     3435     3489     4303     5432     6394 
    6893     6809     5934     4429     3211     2999     3584     4417 
    5255     5961     6165     5653     4866     4407     4268     4095 
    3925     4209     5013     5695     5725     5355     5182     5363 
    5574     5467     4924     4236     3906     4104     4536     4810 
    4750     4515     4471     4716     4939     4943     4850     4761 
    4776     5023     5298     5324     5081     4549     3947     3784 
    4243     5047     5667     5746     5447     5123     4946     5023 
    5285     5231     4671     4176     4113     4321     4525     4445 
    4098     3862     4014     4499     5094     5745     6481     7021 
    7020     6466     5518     4349     3188     2289     1885     2119 
    2906     3915     4761     5229     5452     5759     6284     6940 
    7311     6910     6070     5482     5151     4920     4827     4661 
    4143     3423     2980     3088     3588     4199     4762     5246 
    5599     5578     5093     4549     4396     4737     5425     6112 
    6284     5682     4726     4070     3816     3685     3642     3784 
    4149     4830     5791     6658     7025     6794     5981     4656 
    3244     2359     2413     3434     4800     5737     6095     6077 
    5783     5167     4364     3900     3981     4214     4302     4324 
    4461     4747     5223     5935     6521     6488     5680     4247 
    2839     2295     2762     3831     5054     5995     6420     6405 
    6052     5386     4652     4290     4394     4649     4846     4996 
    5151     5335     5594     5852     5780     5216     4491     4097 
    4314     5032     5651     5479     4382     2905     1983     2335 
    3778     5373     6346     6471     5830     4965     4688     5081 
    5489     5544     5273     4725     4156     3904     3950     4198 
    4741     5475     6022     6133     5825     5305     4891     4746 
    4734     4583     4039     3252     2860     3261     4228     5346 
    6239     6596     6349     5734     4908     3933     3133     2774 
    2803     3288     4310     5503     6231     6196     5684     5201 
    5020     4953     4669     4413     4618     5103     5456     5645 
    5876     6081     5962     5699     5657     5753     5690     5090 
    3870     2636     2025     2157     2952     4245     5597     6448 
    6527     5904     4973     4355     4355     4746     5235     5618 
    5664     5305     4793     4417     4294     4297     4187     4194 
    4819     5852     6540     6498     5780     4608     3330     2365 
    2056     2532     3601     4761     5587     6019     6107     5791 
    5154     4633     4594     4968     5579     6265     6712     6663 
    6133     5305     4368     3518     3059     3210     3832     4469 
    4629     4221     3707     3576     3935     4622     5468     6354 
    7080     7439     7345     6778     5845     4730     3682     3167 
    3376     3848     4109     4225     4444     4660     4608     4330 
    4058     3971     4104     4284     4414     4631     4965     5319 
