Origin Time       2024/06/23 22:54:00
Lat.              35.645
Long.             140.060
Depth. (km)       72
Mag.              4.1
Station Code      IBR006
Station Lat.      36.3665
Station Long.     140.4543
Station Height(m) 30
Record Time       2024/06/23 22:55:01
Sampling Freq(Hz) 100Hz
Duration Time(s)  60
Dir.              N-S
Scale Factor      7845(gal)/8223790
Max. Acc. (gal)   1.527
Last Correction   2024/06/23 22:55:00
Memo.             
    2554     2380     2108     2038     2235     2421     2376     2095 
    1802     1775     2018     2315     2551     2710     2758     2602 
    2243     1899     1733     1702     1834     2160     2544     2775 
    2675     2307     1991     1937     2043     2201     2428     2610 
    2552     2270     1983     1877     1958     2142     2384     2586 
    2574     2323     2042     1950     2025     2087     2107     2197 
    2366     2485     2475     2349     2181     2116     2203     2280 
    2203     2037     1950     2062     2320     2528     2520     2289 
    2020     1981     2222     2490     2573     2425     2145     1987 
    2066     2209     2308     2389     2392     2276     2178     2116 
    1979     1914     2062     2255     2419     2538     2477     2292 
    2185     2192     2204     2096     1937     1987     2246     2473 
    2570     2532     2376     2153     1873     1698     1891     2330 
    2652     2724     2569     2327     2197     2158     2134     2165 
    2219     2261     2274     2181     2033     2012     2126     2212 
    2280     2411     2577     2655     2479     2101     1809     1706 
    1773     2033     2359     2570     2598     2423     2146     2004 
    2064     2239     2432     2508     2398     2154     1890     1771 
    1892     2230     2632     2902     2905     2566     2000     1553 
    1505     1827     2243     2532     2668     2619     2394     2189 
    2139     2228     2311     2188     1942     1856     1972     2172 
    2400     2563     2582     2504     2388     2290     2251     2168 
    1971     1831     1875     2038     2241     2389     2443     2435 
    2347     2232     2236     2366     2451     2330     2027     1730 
    1675     1979     2466     2868     3003     2774     2305     1841 
    1543     1575     2011     2552     2779     2579     2162     1819 
    1733     1966     2405     2737     2749     2502     2142     1842 
    1771     1935     2226     2516     2671     2597     2331     2014 
    1853     1972     2220     2357     2319     2249     2246     2251 
    2231     2224     2215     2157     2084     2099     2242     2447 
    2558     2419     2158     2100     2278     2417     2347     2122 
    1911     1896     2111     2357     2455     2439     2332     2170 
    2131     2241     2335     2350     2297     2172     2027     1960 
    1976     2066     2317     2640     2733     2535     2263     2077 
    2029     2093     2178     2254     2308     2280     2191     2123 
    2097     2112     2180     2276     2361     2394     2288     2083 
    1984     2107     2365     2583     2612     2466     2236     2012 
    1915     1979     2115     2242     2346     2481     2610     2559 
    2295     1987     1806     1825     2022     2278     2450     2475 
    2335     2131     2087     2187     2257     2281     2308     2359 
    2361     2219     2066     2084     2201     2263     2272     2262 
    2236     2234     2222     2161     2133     2150     2151     2161 
    2258     2481     2682     2670     2455     2142     1869     1742 
    1742     1894     2253     2664     2864     2743     2425     2110 
    1883     1737     1709     1837     2072     2351     2597     2689 
    2616     2479     2351     2266     2188     2081     2053     2149 
    2234     2224     2188     2211     2254     2204     2076     1993 
    2018     2153     2430     2718     2744     2477     2119     1831 
    1707     1817     2084     2349     2527     2567     2492     2412 
    2281     2020     1792     1752     1892     2191     2583     2862 
    2833     2524     2146     1908     1922     2164     2435     2544 
    2470     2273     2088     2026     2087     2222     2347     2386 
    2346     2268     2209     2214     2207     2080     1906     1876 
    2065     2417     2728     2744     2523     2254     1952     1678 
    1614     1848     2324     2737     2743     2459     2224     2118 
    2100     2142     2203     2265     2236     2115     2099     2189 
    2178     2072     2022     2091     2286     2543     2700     2674 
    2461     2114     1830     1827     2120     2527     2785     2710 
    2403     2084     1858     1773     1861     2114     2401     2516 
    2457     2342     2218     2124     2052     1972     1942     2022 
    2232     2519     2751     2770     2486     2060     1759     1719 
    1942     2293     2550     2585     2413     2191     2111     2137 
    2093     2062     2193     2370     2416     2320     2143     1977 
    1939     2060     2290     2566     2740     2666     2390     2068 
    1804     1688     1802     2162     2623     2906     2802     2370 
    1964     1833     1925     2122     2322     2432     2474     2461 
    2349     2138     1968     2014     2212     2334     2284     2146 
    2062     2100     2208     2363     2540     2583     2424     2205 
    2026     1908     1956     2166     2363     2466     2486     2436 
    2353     2209     1975     1765     1733     1907     2150     2308 
    2400     2454     2409     2339     2338     2312     2211     2154 
    2180     2270     2413     2512     2502     2401     2204     2037 
    2072     2222     2304     2322     2338     2284     2096     1890 
    1831     1954     2162     2371     2555     2627     2505     2288 
    2133     2119     2203     2241     2176     2074     2014     2068 
    2242     2420     2479     2363     2072     1811     1869     2212 
    2532     2640     2552     2392     2250     2122     2022     1998 
    2049     2158     2286     2335     2277     2214     2238     2351 
    2424     2343     2197     2122     2126     2162     2215     2269 
    2282     2200     2061     2112     2473     2775     2720     2465 
    2168     1904     1815     1879     2008     2177     2257     2201 
    2220     2362     2457     2498     2525     2427     2178     1904 
    1741     1728     1857     2162     2583     2898     2925     2687 
    2359     2087     1911     1831     1842     1926     2054     2178 
    2259     2285     2188     1979     1922     2193     2563     2725 
    2625     2370     2118     2012     2058     2235     2543     2763 
    2613     2164     1798     1775     1962     2106     2135     2092 
    2031     2004     2088     2400     2856     3098     2897     2455 
    2065     1800     1736     1908     2027     1844     1576     1533 
    1753     2173     2662     3014     3123     2965     2648     2431 
    2411     2474     2533     2641     2876     3001     2693     2107 
    1626     1424     1595     2049     2397     2419     2182     1798 
    1499     1563     1894     2158     2311     2544     2832     2937 
    2754     2338     1840     1445     1313     1568     2077     2398 
    2357     2224     2239     2446     2721     2851     2779     2569 
    2209     1788     1588     1779     2154     2397     2439     2432 
    2436     2324     2085     1899     1891     2031     2201     2342 
    2492     2650     2736     2679     2432     2046     1696     1501 
    1458     1602     2010     2590     3065     3234     3126     2948 
    2852     2743     2405     1784     1152      923     1186     1690 
    2177     2570     2914     3119     3019     2650     2124     1551 
    1136     1003     1115     1522     2231     2995     3500     3577 
    3206     2477     1706     1356     1607     2259     2917     3142 
    2808     2224     1811     1750     1910     2037     2007     1877 
    1798     1898     2195     2560     2813     2856     2681     2397 
    2173     2041     2039     2236     2470     2524     2371     2039 
    1687     1588     1798     2231     2751     3019     2845     2424 
    1958     1606     1620     2026     2535     2801     2608     2053 
    1541     1370     1588     2092     2546     2716     2712     2606 
    2394     2162     2011     2033     2228     2412     2425     2354 
    2390     2559     2621     2336     1806     1352     1215     1460 
    2010     2660     3148     3244     2926     2494     2305     2367 
    2439     2369     2127     1764     1470     1495     1900     2447 
    2801     2739     2322     1868     1717     2004     2512     2775 
    2554     2126     1938     2112     2409     2527     2401     2231 
    2130     2035     1985     2073     2239     2328     2270     2119 
    1999     2014     2168     2323     2324     2137     1856     1707 
    1884     2311     2749     3034     3122     3019     2755     2425 
    2072     1598     1144     1071     1489     2262     3092     3535 
    3407     2845     2041     1329     1116     1435     1966     2427 
    2678     2627     2334     2065     2007     2127     2319     2442 
    2440     2409     2390     2309     2149     2019     2083     2351 
    2601     2546     2209     1922     1876     1958     2038     2141 
    2326     2546     2736     2857     2813     2504     1934     1290 
     918     1078     1732     2613     3400     3836     3744     3121 
    2266     1588     1290     1382     1740     2128     2388     2462 
    2365     2278     2388     2593     2641     2447     2080     1630 
    1247     1111     1327     1860     2512     3078     3418     3420 
    3055     2452     1865     1468     1316     1436     1761     2124 
    2377     2497     2501     2423     2408     2513     2579     2542 
    2457     2328     2151     1904     1620     1522     1722     2068 
    2438     2747     2812     2569     2200     1952     1890     1856 
    1768     1837     2276     2953     3505     3616     3186     2373 
    1491      861      714     1071     1721     2358     2762     2898 
    2853     2718     2563     2419     2316     2338     2463     2546 
    2488     2265     1952     1772     1826     1907     1902     1914 
    1981     2092     2274     2581     2994     3318     3296     2813 
    2003     1260      920     1044     1543     2199     2685     2847 
    2821     2783     2749     2712     2671     2504     2142     1692 
    1267     1038     1232     1844     2587     3069     3067     2760 
    2392     2003     1691     1579     1648     1885     2247     2548 
    2717     2818     2814     2694     2450     2019     1566     1351 
    1491     1961     2519     2848     2853     2655     2432     2273 
    2147     2076     2147     2344     2539     2648     2678     2658 
    2550     2285     1985     1864     1853     1822     1845     1929 
    2023     2212     2517     2845     3082     3083     2816     2361 
    1772     1171      803      924     1566     2413     3115     3523 
    3464     2824     1939     1304     1062     1185     1590     2065 
    2434     2613     2620     2605     2637     2601     2427     2245 
    2123     1879     1458     1171     1305     1768     2292     2660 
    2826     2930     3021     2928     2644     2411     2316     2182 
    1887     1593     1647     2126     2705     3053     3046     2710 
    2149     1497     1026     1067     1663     2504     3250     3711 
    3769     3349     2575     1795     1309     1178     1314     1622 
    2008     2386     2706     2902     2922     2768     2485     2166 
    1890     1637     1441     1439     1675     2026     2419     2825 
    3134     3248     3114     2740     2319     1957     1539     1148 
    1078     1375     1892     2511     3029     3289     3261     2917 
    2347     1782     1413     1310     1429     1732     2250     2893 
    3327     3260     2756     2134     1705     1593     1679     1846 
    2106     2388     2494     2376     2231     2239     2385     2573 
    2678     2567     2222     1746     1291     1085     1340     1930 
    2432     2697     2880     3006     2970     2727     2308     1876 
    1624     1540     1516     1629     2034     2594     3017     3207 
    3184     2933     2504     2027     1610     1336     1287     1485 
    1830     2135     2286     2359     2490     2677     2756     2632 
    2380     2064     1763     1647     1850     2308     2745     2933 
    2937     2874     2708     2444     2207     2104     2164     2305 
    2407     2386     2232     2037     1888     1810     1810     1890 
    2026     2145     2207     2285     2376     2382     2351     2371 
    2393     2315     2130     1950     1880     1892     1937     2112 
    2496     2863     2914     2651     2247     1863     1661     1728 
    1996     2340     2633     2810     2862     2749     2435     2031 
    1777     1775     1942     2170     2339     2385     2303     2068 
    1772     1634     1706     1877     2122     2455     2770     2910 
    2864     2732     2569     2385     2216     2116     2080     2053 
    2018     1925     1722     1524     1503     1729     2168     2648 
    2930     2956     2862     2709     2515     2424     2497     2538 
    2358     2007     1680     1513     1514     1714     2143     2581 
    2717     2570     2367     2200     2016     1836     1777     1857 
    1996     2178     2357     2431     2407     2358     2309     2247 
    2131     1926     1736     1728     1988     2505     3078     3365 
    3245     2925     2566     2155     1809     1737     1902     2046 
    2046     2037     2177     2390     2479     2448     2447     2455 
    2386     2286     2212     2173     2195     2189     2033     1806 
    1730     1896     2182     2378     2374     2278     2208     2123 
    2084     2228     2457     2558     2512     2440     2420     2393 
    2238     1987     1900     2142     2542     2835     2899     2670 
    2124     1453     1004     1013     1462     2080     2546     2731 
    2728     2677     2633     2548     2359     2178     2173     2301 
    2403     2381     2218     2004     1875     1875     2000     2193 
    2328     2380     2424     2486     2567     2613     2535     2338 
    2041     1653     1267      976      878     1053     1475     2100 
    2810     3343     3580     3607     3427     2982     2343     1738 
    1402     1410     1688     2189     2802     3225     3267     3015 
    2613     2208     1966     1927     2007     2164     2316     2297 
    2087     1884     1857     2012     2205     2246     2147     2114 
    2226     2380     2486     2513     2390     2054     1621     1358 
    1455     1827     2224     2560     2868     3045     2940     2535 
    2007     1629     1571     1819     2209     2506     2543     2338 
    2079     1983     2122     2343     2458     2416     2268     2118 
    2093     2218     2416     2602     2658     2547     2393     2238 
    1996     1749     1633     1651     1788     1995     2191     2381 
    2565     2700     2751     2678     2517     2390     2392     2539 
    2691     2652     2435     2135     1744     1381     1270     1498 
    1976     2434     2612     2570     2538     2527     2440     2366 
    2439     2577     2600     2412     2054     1733     1661     1787 
    1911     1999     2153     2384     2525     2386     2115     2054 
    2185     2263     2231     2173     2126     2049     1919     1880 
    2095     2475     2818     3036     3086     2964     2764     2488 
    2092     1728     1588     1682     1911     2154     2326     2436 
    2428     2207     1896     1703     1707     1903     2164     2367 
    2496     2482     2300     2120     2085     2157     2263     2327 
    2361     2505     2732     2812     2728     2663     2631     2477 
    2174     1887     1786     1884     2030     2133     2266     2450 
    2570     2585     2547     2444     2218     1907     1593     1347 
    1302     1539     2018     2601     2929     2739     2251     1842 
    1655     1684     1891     2208     2520     2624     2486     2366 
    2363     2280     2066     1908     1927     2143     2475     2749 
    2825     2604     2172     1849     1815     1966     2195     2403 
    2477     2450     2439     2502     2613     2619     2359     1912 
    1518     1329     1385     1665     2050     2365     2540     2632 
    2733     2835     2818     2650     2424     2189     1992     1950 
    2064     2204     2334     2428     2369     2158     1972     1968 
    2130     2265     2246     2157     2095     2053     2064     2235 
    2548     2799     2855     2752     2556     2285     1972     1715 
    1611     1652     1804     2114     2546     2841     2809     2516 
    2073     1664     1540     1741     2103     2477     2789     3065 
    3300     3334     3083     2662     2203     1775     1479     1428 
    1606     1833     1973     2099     2301     2527     2619     2481 
    2207     1989     1892     1831     1790     1821     1925     2080 
    2311     2566     2759     2847     2733     2401     2018     1742 
    1679     1815     1984     2087     2157     2230     2324     2432 
    2500     2448     2284     2160     2219     2431     2597     2529 
    2250     1939     1761     1823     2107     2455     2701     2751 
    2632     2442     2212     2008     1946     2002     2043     2053 
    2116     2273     2438     2469     2350     2223     2180     2176 
    2141     2065     2019     2054     2151     2315     2502     2587 
    2516     2307     2042     1885     1914     2077     2263     2382 
    2442     2477     2466     2382     2224     2011     1836     1799 
    1903     2114     2367     2513     2455     2269     2070     1962 
    2052     2336     2660     2848     2867     2755     2516     2170 
    1846     1711     1809     2049     2312     2451     2361     2128 
    1942     1942     2142     2396     2498     2398     2212     2095 
    2147     2346     2524     2552     2436     2246     2085     2056 
    2177     2303     2214     1926     1709     1710     1888     2180 
    2478     2623     2532     2258     1968     1852     1952     2166 
    2384     2533     2589     2558     2513     2479     2367     2201 
    2153     2236     2342     2404     2344     2128     1871     1763 
    1880     2178     2515     2689     2581     2249     1903     1775 
    1942     2251     2446     2409     2232     2116     2185     2326 
    2353     2284     2284     2412     2563     2643     2643     2578 
    2421     2173     1944     1848     1857     1852     1830     1933 
    2227     2569     2713     2567     2272     2007     1840     1804 
    1925     2126     2257     2273     2243     2251     2403     2721 
    2995     2916     2390     1661     1154     1156     1576     2124 
    2581     2835     2897     2849     2752     2590     2274     1807 
    1401     1316     1651     2247     2763     2956     2845     2567 
    2295     2169     2185     2299     2444     2458     2273     2084 
    2050     2134     2263     2354     2326     2230     2141     2073 
    2053     2065     2064     2056     2087     2173     2285     2377 
    2403     2328     2142     1895     1705     1698     1919     2245 
    2481     2559     2477     2270     2043     1853     1750     1857 
    2208     2678     3090     3252     3045     2556     2008     1630 
    1580     1825     2177     2486     2670     2704     2673     2668 
    2679     2600     2338     1969     1729     1746     1910     2088 
    2262     2377     2367     2288     2218     2134     1972     1753 
