Origin Time       2024/06/23 22:54:00
Lat.              35.645
Long.             140.060
Depth. (km)       72
Mag.              4.1
Station Code      IBR011
Station Lat.      36.1256
Station Long.     140.0901
Station Height(m) 27
Record Time       2024/06/23 22:54:47
Sampling Freq(Hz) 100Hz
Duration Time(s)  64
Dir.              U-D
Scale Factor      7845(gal)/8223790
Max. Acc. (gal)   1.311
Last Correction   2024/06/23 22:54:47
Memo.             
   29884    29884    29884    29890    29898    29893    29878    29872 
   29878    29884    29891    29902    29901    29883    29870    29871 
   29884    29898    29897    29882    29874    29879    29893    29901 
   29898    29884    29870    29866    29875    29887    29898    29899 
   29894    29889    29883    29879    29883    29887    29886    29887 
   29890    29893    29894    29890    29882    29879    29879    29879 
   29886    29891    29891    29887    29882    29878    29878    29883 
   29890    29891    29886    29879    29879    29884    29891    29894 
   29890    29889    29886    29883    29886    29891    29889    29882 
   29882    29884    29891    29895    29893    29882    29871    29874 
   29884    29893    29898    29895    29886    29878    29876    29883 
   29893    29895    29890    29883    29879    29879    29883    29891 
   29895    29890    29882    29880    29884    29887    29884    29880 
   29886    29891    29889    29886    29886    29889    29887    29882 
   29882    29884    29887    29891    29889    29882    29883    29884 
   29882    29884    29889    29889    29890    29889    29882    29876 
   29880    29886    29890    29889    29886    29887    29887    29884 
   29886    29886    29879    29879    29886    29890    29890    29889 
   29883    29878    29880    29886    29887    29889    29889    29886 
   29886    29890    29887    29884    29883    29884    29887    29889 
   29886    29883    29883    29882    29882    29887    29889    29889 
   29889    29887    29886    29886    29886    29884    29884    29884 
   29887    29886    29882    29882    29883    29883    29884    29889 
   29887    29880    29879    29880    29884    29890    29886    29880 
   29883    29889    29887    29883    29886    29889    29887    29883 
   29882    29883    29887    29891    29890    29886    29884    29887 
   29887    29884    29887    29890    29886    29886    29889    29887 
   29886    29887    29883    29878    29883    29893    29894    29887 
   29883    29886    29884    29882    29886    29886    29882    29882 
   29883    29883    29883    29883    29884    29886    29884    29883 
   29887    29893    29891    29886    29884    29889    29893    29886 
   29878    29883    29890    29887    29883    29887    29889    29882 
   29876    29884    29889    29887    29889    29890    29889    29886 
   29883    29880    29882    29882    29883    29890    29890    29882 
   29882    29887    29886    29886    29887    29887    29884    29880 
   29878    29879    29887    29890    29889    29890    29891    29883 
   29878    29882    29886    29883    29880    29886    29891    29893 
   29891    29889    29884    29884    29886    29883    29887    29891 
   29886    29880    29883    29887    29884    29884    29889    29889 
   29883    29883    29887    29886    29884    29884    29883    29884 
   29884    29883    29882    29882    29889    29891    29886    29883 
   29882    29880    29883    29886    29887    29891    29891    29890 
   29887    29883    29884    29884    29878    29876    29890    29898 
   29897    29893    29886    29878    29874    29876    29883    29889 
   29893    29897    29895    29889    29883    29882    29879    29875 
   29879    29891    29898    29895    29890    29884    29879    29879 
   29882    29883    29883    29889    29897    29895    29889    29884 
   29879    29872    29878    29889    29897    29899    29894    29886 
   29879    29879    29884    29890    29887    29882    29886    29894 
   29897    29889    29875    29871    29876    29886    29893    29895 
   29889    29883    29889    29891    29886    29880    29884    29887 
   29883    29884    29901    29906    29883    29867    29871    29880 
   29889    29894    29893    29884    29882    29887    29887    29878 
   29878    29886    29886    29883    29887    29891    29891    29884 
   29879    29887    29893    29884    29876    29878    29889    29898 
   29893    29880    29878    29883    29883    29880    29887    29891 
   29882    29880    29891    29891    29880    29875    29878    29884 
   29894    29897    29886    29879    29878    29878    29882    29886 
   29889    29893    29891    29883    29879    29878    29879    29884 
   29886    29889    29893    29887    29879    29876    29882    29893 
   29893    29880    29879    29890    29891    29886    29880    29879 
   29884    29887    29879    29876    29886    29893    29889    29886 
   29887    29882    29878    29882    29889    29887    29886    29887 
   29884    29883    29884    29886    29887    29886    29883    29889 
   29889    29886    29886    29883    29883    29889    29890    29894 
   29894    29884    29876    29876    29884    29899    29914    29914 
   29902    29890    29893    29901    29899    29890    29891    29886 
   29851    29821    29835    29882    29920    29883    29805    29817 
   29934    30022    29956    29829    29870    30019    30018    29845 
   29739    29837    29925    29832    29754    29822    29933    30014 
   30051    29957    29673    29469    29683    30088    30244    30126 
   29940    29894    29871    29609    29506    29837    30069    30019 
   30065    30168    29898    29417    29354    29781    30084    29938 
   30159    30881    30576    29265    28694    29242    29965    30083 
   30018    30519    30746    29920    29103    29319    29961    30014 
   29787    30175    30670    30146    29219    29127    29458    29667 
   30208    30738    30466    29845    29570    29531    29566    29735 
   29995    30172    30227    30213    29863    29378    29501    29938 
   30001    29933    29982    30025    29921    29565    29517    30011 
   30231    30038    29803    29736    30042    30258    30040    29619 
   29358    29677    30217    30456    30319    29674    29026    29174 
   29864    30198    30253    30488    30245    29640    29628    29795 
   29849    30024    29911    29617    29756    30048    29794    29497 
   29938    30245    29826    29701    30056    30099    29879    29859 
   29961    29903    29886    30069    29910    29598    29797    29855 
   29559    29610    29947    30477    30743    29951    28993    29134 
   29835    30173    30222    30372    30449    30045    29454    29188 
   29343    29774    30069    30078    30072    30094    30003    29955 
   30060    29944    29508    29308    29718    30268    30318    30179 
   30056    29647    29365    29502    29828    30207    30250    29841 
   29639    29982    30187    29829    29646    29889    29917    29812 
   29943    30071    30078    29965    29760    29741    29762    29640 
   29795    30109    30082    29872    29790    29844    29849    29860 
   30153    30273    29848    29562    29708    29898    29990    29905 
   29700    29620    29766    30061    30238    30119    29882    29704 
   29743    29972    30056    29898    29695    29697    29921    29987 
   29732    29700    30096    30117    29706    29685    29909    29979 
   30038    30071    29971    29787    29713    29887    30037    30002 
   29937    29839    29829    29948    29851    29677    29744    29829 
   29805    29894    30028    29921    29793    29879    29886    29911 
   30106    29978    29706    29920    30241    30177    29963    29751 
   29516    29423    29570    29878    30187    30222    29980    29830 
   29783    29690    29776    29980    30092    30094    29683    29377 
   29983    30414    29974    29752    29895    29849    29643    29563 
   30137    30720    30223    29550    29543    29764    29979    29909 
   29689    29856    29995    29716    29567    29795    29983    30049 
   30099    29937    29678    29720    30109    30316    29925    29479 
   29529    29760    30067    30389    30156    29605    29469    29731 
   30221    30577    30280    29608    29270    29462    29825    30113 
   30404    30480    30014    29268    28917    29235    29768    30229 
   30457    30244    30087    30160    29936    29727    29872    29727 
   29245    29430    30299    30468    29813    29609    29901    30061 
   30042    29945    30064    30249    29961    29524    29479    29583 
   29535    29662    30091    30292    30142    29961    29880    29948 
   29979    29705    29417    29668    30119    30117    30098    30281 
   29986    29430    29393    29836    30249    30368    30227    29862 
   29546    29566    29671    29772    29975    30117    30096    29937 
   29837    29830    29677    29679    29955    29891    29687    29918 
   30204    30115    29839    29805    30037    30024    29898    30011 
   29859    29416    29474    30013    30384    30377    30045    29579 
   29401    29547    29779    30060    30159    30030    29929    29690 
   29278    29195    29824    30605    30568    29975    29587    29455 
   29658    30213    30576    30292    29740    29748    30167    30121 
   29602    29335    29720    30098    29751    29467    29778    29953 
   29878    29909    29995    30038    29987    29972    30202    30342 
   30001    29469    29092    29170    29748    30192    30287    30204 
   29988    29932    30044    29994    29926    30082    30126    29930 
   29816    29646    29444    29624    29897    29883    29710    29606 
   29859    30238    30129    29666    29596    30152    30661    30483 
   29922    29674    29604    29284    29216    29716    30339    30705 
   30468    29748    29104    28856    29261    30167    30989    31260 
   30647    29513    28776    28840    29478    30083    30196    30092 
   30051    29964    29970    29965    29556    29236    29632    30323 
   30558    30296    30121    30013    29658    29371    29381    29731 
   30233    30348    30156    29876    29570    29602    29828    30007 
   30165    30040    29748    29666    29867    30067    29926    29745 
   29758    29713    29781    30163    30383    29976    29536    29708 
   29959    29887    29852    29952    29906    29835    29955    30009 
   30015    30013    29774    29593    29625    29756    29982    30032 
   29866    29889    30098    30038    29803    29749    29612    29461 
   29710    30046    30191    30221    30152    30038    29825    29651 
   29736    29866    29894    29965    30100    30078    29752    29446 
   29604    29959    29982    29903    30088    30195    29911    29706 
   29832    29717    29462    29785    30307    30184    29740    29709 
   30003    30226    30187    29964    29798    29718    29857    30238 
   30319    29859    29346    29386    29963    30241    29797    29376 
   29570    29914    29891    29782    29945    30126    30044    29887 
   29860    29724    29401    29478    30107    30554    30538    30389 
   30088    29508    29116    29444    30030    30103    29902    29902 
   29833    29674    29790    29880    29790    29930    30092    29988 
   30060    30357    30137    29427    29246    29656    29924    30013 
   30163    30306    30280    29974    29596    29590    29933    30133 
   29963    29685    29658    29867    30046    30227    30281    29868 
   29466    29531    29687    29803    29844    29732    29752    29790 
   29686    29886    30348    30466    30183    29976    29991    29837 
   29479    29328    29547    29994    30267    30061    29690    29575 
   29702    29810    29824    29963    30186    30156    30010    29891 
   29655    29713    30126    30198    29855    29559    29527    29713 
   30076    30412    30311    29972    29801    29705    29755    29992 
   30080    29965    29862    29907    30060    29995    29605    29340 
   29509    29862    30051    30063    30095    30152    30065    29887 
   29781    29644    29500    29646    29998    30161    30019    29848 
   29890    29988    30002    30051    30136    30126    29901    29590 
   29556    29678    29651    29651    29802    29940    30024    30142 
   30119    29916    29862    29837    29652    29608    29772    29943 
   29953    29781    29741    29926    30030    30094    30288    30303 
   29976    29612    29430    29605    29999    30156    30094    29825 
   29420    29566    30136    30300    30110    29870    29602    29470 
   29655    30040    30288    30298    30161    29882    29579    29547 
   29793    29918    29806    29794    30002    30171    30064    29825 
   29747    29806    29859    29972    30180    30235    30002    29681 
   29393    29274    29520    29859    29961    30025    30094    29963 
   29960    30165    30069    29860    29870    29849    29862    29997 
   30096    30096    29820    29457    29484    29720    29837    29955 
   30096    30160    30099    29853    29736    30010    30110    29783 
   29716    29963    29928    29659    29637    29910    30041    30001 
   30127    30196    29917    29682    29902    30137    29833    29463 
   29609    29929    29918    29767    29949    30169    29824    29355 
   29496    30052    30287    29986    29820    30107    30144    29671 
   29404    29687    30064    30149    30086    30065    29956    29714 
   29666    29902    29934    29621    29524    29771    29928    29944 
   30067    30161    29895    29463    29500    30075    30397    30129 
   29940    30030    29917    29691    29678    29718    29689    29799 
   30048    30230    30299    30123    29755    29613    29733    29817 
   29890    30123    30397    30402    30061    29748    29652    29581 
   29771    30188    30103    29652    29479    29511    29506    29641 
   30018    30231    30149    30098    30009    29643    29351    29636 
   30130    30326    30381    30319    30073    29732    29351    29153 
   29374    29964    30364    30219    29964    29832    29616    29346 
   29359    29787    30071    29820    29674    30095    30453    30318 
   30036    29795    29735    29947    30057    29891    29749    29830 
   29949    29870    29685    29604    29853    30314    30373    29999 
   29778    29872    29979    29914    29813    29781    29690    29625 
   29741    29787    29771    29929    29901    29709    29862    29979 
   29830    29992    30342    30391    30321    30229    30003    29918 
   30001    29932    29708    29560    29650    29744    29647    29658 
   29658    29331    29239    29668    30041    30169    30211    30138 
   29947    29759    29787    30065    30325    30267    30086    30194 
   30204    29743    29332    29357    29743    30269    30670    30739 
   30183    29380    29153    29254    29200    29382    29951    30366 
   30288    29960    29731    29695    29820    29963    30019    29886 
   29475    29419    30106    30554    30381    30225    30045    29660 
   29251    29062    29370    29957    30331    30327    30096    29906 
   29745    29579    29610    29763    29821    29941    30312    30537 
   30289    30037    29902    29666    29722    30061    30037    29764 
   29770    29925    29982    29941    29735    29617    29864    29965 
   29651    29484    29650    29825    29995    30203    30190    29961 
   30026    30447    30445    29798    29342    29403    29536    29679 
   29952    30194    30283    30019    29407    29099    29408    29932 
   30392    30704    30730    30308    29571    29054    29008    29251 
   29735    30299    30491    30364    30172    29755    29420    29609 
   29895    29943    30125    30495    30407    29762    29319    29246 
   29300    29687    30214    30435    30434    30226    29968    30040 
   30088    29845    29789    30028    30110    29852    29550    29459 
   29473    29467    29579    29848    29997    29956    29928    29980 
   30096    30173    30168    30172    30083    29862    29671    29539 
   29521    29675    29974    30311    30312    29955    29695    29529 
   29390    29627    30098    30221    29864    29519    29547    29709 
   29863    29978    29872    29872    30121    30126    29924    29902 
   29884    29724    29758    29867    29708    29716    30071    30167 
   30022    30126    30176    29828    29625    29837    30009    29899 
   29825    30076    30264    30086    29925    29956    29941    29891 
   29833    29629    29466    29601    29986    30451    30719    30607 
   30214    29666    29128    28880    29104    29698    30202    30319 
   30291    30184    29884    29689    29721    29763    29972    30339 
   30244    29678    29473    29733    29843    29830    29922    29916 
   29791    29667    29659    29897    30099    29998    29724    29498 
   29540    29767    29964    30142    30168    29951    29651    29442 
   29565    29886    29957    29863    29929    30145    30225    30080 
   29971    29949    29979    30076    29999    29771    29647    29582 
   29569    29686    29855    29982    30036    30034    29983    29883 
   29837    29841    29809    29910    30222    30346    30053    29786 
   29855    29905    29891    30206    30492    30223    29833    29705 
   29597    29550    29674    29667    29519    29624    30045    30419 
   30419    30083    29654    29338    29421    29911    30187    30075 
   29968    29763    29533    29701    29957    29857    29683    29702 
   29724    29799    30090    30310    30287    30102    29789    29538 
   29473    29529    29721    30007    30261    30362    30240    29986 
   29733    29571    29654    30014    30285    30153    29876    29660 
   29404    29326    29602    29937    30194    30339    30211    29925 
   29628    29443    29681    30026    30019    29997    30132    30172 
   30011    29766    29698    29776    29884    30087    30173    30028 
   29926    29963    29933    29889    29862    29612    29385    29581 
   29955    30123    30030    29802    29550    29451    29658    30044 
   30391    30441    30028    29525    29500    29830    30013    30041 
   29999    29883    29889    29961    30082    30292    30244    29920 
   29701    29675    29785    29863    29791    29732    29752    29722 
   29648    29712    29833    29760    29648    29733    30010    30319 
   30408    30377    30240    29714    29197    29293    29710    29934 
   29983    29971    29959    30060    30157    30121    30064    29959 
   29798    29775    29803    29724    29702    29871    30090    30179 
   30114    29979    29859    29803    29849    29983    30072    30092 
   30129    30033    29756    29528    29432    29428    29543    29776 
   29974    30029    30095    30208    30177    29984    29901    30055 
   30231    30261    30102    29764    29471    29354    29295    29376 
   29693    30013    30215    30248    29982    29636    29502    29515 
   29528    29540    29658    29951    30230    30233    30136    30065 
   29771    29540    29799    30154    30172    29987    29907    30069 
   30289    30261    29906    29616    29740    29916    29886    30083 
   30381    30138    29586    29332    29400    29521    29621    29889 
   30234    30300    30117    29928    29783    29668    29554    29513 
   29758    30060    30090    30123    30250    30117    29812    29745 
   29921    30001    29879    29710    29628    29664    29748    29938 
   30227    30369    30264    29895    29373    29143    29358    29647 
   29866    30091    30168    30036    29928    29974    30019    29855 
   29660    29782    30011    30045    30072    30157    30030    29766 
   29704    29772    29830    30024    30246    30234    29978    29751 
