Origin Time       2024/06/23 22:54:00
Lat.              35.645
Long.             140.060
Depth. (km)       72
Mag.              4.1
Station Code      IBR004
Station Lat.      36.5516
Station Long.     140.4102
Station Height(m) 57
Record Time       2024/06/23 22:55:02
Sampling Freq(Hz) 100Hz
Duration Time(s)  60
Dir.              N-S
Scale Factor      7845(gal)/8223790
Max. Acc. (gal)   1.500
Last Correction   2024/06/23 22:55:02
Memo.             
[...]
   -2324    -2188    -2120    -2195    -2323    -2409    -2428    -2353 
   -2215    -2124    -2123    -2173    -2273    -2412    -2519    -2546 
   -2459    -2246    -2007    -1883    -1929    -2137    -2444    -2671 
   -2670    -2501    -2301    -2153    -2126    -2205    -2277    -2286 
   -2239    -2134    -2060    -2158    -2398    -2583    -2574    -2408 
   -2200    -2054    -2030    -2123    -2280    -2438    -2519    -2450 
   -2243    -2007    -1922    -2114    -2457    -2691    -2745    -2660 
   -2405    -2030    -1755    -1742    -1962    -2250    -2448    -2535 
   -2535    -2458    -2366    -2315    -2253    -2147    -2064    -2064 
   -2160    -2338    -2509    -2577    -2502    -2301    -2111    -2084 
   -2185    -2288    -2358    -2384    -2328    -2261    -2251    -2253 
   -2230    -2207    -2200    -2239    -2331    -2423    -2462    -2411 
   -2253    -2085    -2057    -2172    -2319    -2427    -2484    -2458 
   -2320    -2122    -1981    -1999    -2162    -2351    -2469    -2505 
   -2467    -2370    -2261    -2158    -2073    -2068    -2170    -2320 
   -2478    -2563    -2470    -2284    -2174    -2127    -2091    -2139 
   -2286    -2400    -2421    -2425    -2446    -2435    -2357    -2197 
   -1979    -1861    -2014    -2367    -2687    -2805    -2681    -2388 
   -2061    -1841    -1825    -2029    -2349    -2604    -2650    -2455 
   -2149    -1941    -1941    -2130    -2393    -2586    -2633    -2528 
   -2290    -2062    -2014    -2130    -2272    -2362    -2385    -2346 
   -2273    -2195    -2160    -2211    -2301    -2362    -2371    -2328 
   -2250    -2173    -2135    -2188    -2334    -2482    -2554    -2505 
   -2319    -2092    -1987    -2069    -2274    -2471    -2550    -2469 
   -2278    -2101    -2049    -2141    -2303    -2386    -2339    -2286 
   -2290    -2278    -2250    -2258    -2265    -2212    -2153    -2176 
   -2313    -2519    -2678    -2636    -2351    -1993    -1800    -1877 
   -2153    -2446    -2606    -2628    -2506    -2263    -2085    -2074 
   -2131    -2212    -2320    -2374    -2361    -2331    -2284    -2231 
   -2218    -2253    -2305    -2334    -2322    -2300    -2286    -2269 
   -2263    -2286    -2317    -2319    -2255    -2161    -2139    -2258 
   -2425    -2485    -2417    -2336    -2278    -2191    -2115    -2160 
   -2296    -2380    -2362    -2292    -2199    -2114    -2120    -2222 
   -2308    -2338    -2351    -2365    -2358    -2315    -2270    -2308 
   -2388    -2365    -2259    -2204    -2195    -2165    -2127    -2151 
   -2265    -2419    -2543    -2583    -2524    -2392    -2231    -2091 
   -2022    -2049    -2142    -2280    -2407    -2412    -2307    -2243 
   -2258    -2255    -2223    -2246    -2353    -2451    -2459    -2405 
   -2332    -2211    -2041    -1972    -2107    -2326    -2481    -2544 
   -2479    -2273    -2073    -2030    -2103    -2182    -2254    -2330 
   -2369    -2362    -2366    -2408    -2431    -2374    -2255    -2153 
   -2142    -2235    -2374    -2440    -2357    -2170    -2047    -2106 
   -2280    -2431    -2501    -2457    -2284    -2069    -1966    -2047 
   -2236    -2425    -2582    -2637    -2511    -2289    -2138    -2066 
   -2015    -2070    -2304    -2525    -2523    -2373    -2259    -2184 
   -2092    -2070    -2188    -2350    -2443    -2425    -2290    -2104 
   -2049    -2219    -2485    -2667    -2678    -2494    -2212    -1999 
   -1938    -2029    -2236    -2427    -2444    -2322    -2228    -2250 
   -2315    -2344    -2344    -2320    -2242    -2143    -2112    -2185 
   -2312    -2404    -2377    -2234    -2076    -2037    -2172    -2392 
   -2544    -2565    -2493    -2381    -2258    -2147    -2110    -2170 
   -2247    -2293    -2362    -2447    -2450    -2353    -2216    -2072 
   -1984    -2065    -2304    -2536    -2613    -2501    -2276    -2061 
   -1962    -2039    -2278    -2520    -2578    -2469    -2324    -2189 
   -2077    -2074    -2181    -2286    -2365    -2454    -2496    -2434 
   -2322    -2228    -2158    -2099    -2097    -2191    -2313    -2376 
   -2366    -2313    -2259    -2242    -2249    -2234    -2199    -2193 
   -2241    -2317    -2385    -2397    -2338    -2263    -2249    -2297 
   -2357    -2376    -2316    -2189    -2081    -2064    -2131    -2266 
   -2451    -2608    -2635    -2506    -2312    -2164    -2089    -2068 
   -2096    -2185    -2303    -2382    -2392    -2355    -2289    -2199 
   -2147    -2168    -2189    -2227    -2355    -2477    -2455    -2353 
   -2278    -2230    -2177    -2126    -2096    -2131    -2239    -2363 
   -2444    -2447    -2369    -2243    -2131    -2101    -2195    -2359 
   -2490    -2528    -2484    -2412    -2347    -2276    -2196    -2150 
   -2149    -2176    -2239    -2319    -2344    -2319    -2326    -2361 
   -2317    -2224    -2216    -2297    -2380    -2425    -2396    -2273 
   -2150    -2124    -2173    -2234    -2289    -2326    -2309    -2253 
   -2232    -2282    -2335    -2331    -2284    -2230    -2201    -2228 
   -2270    -2272    -2263    -2312    -2381    -2369    -2276    -2181 
   -2135    -2170    -2285    -2377    -2349    -2262    -2245    -2331 
   -2436    -2485    -2467    -2369    -2185    -1992    -1903    -1993 
   -2220    -2454    -2585    -2571    -2425    -2269    -2203    -2187 
   -2161    -2151    -2212    -2354    -2463    -2428    -2342    -2312 
   -2258    -2145    -2092    -2149    -2247    -2315    -2331    -2328 
   -2320    -2274    -2216    -2203    -2184    -2149    -2226    -2412 
   -2527    -2492    -2377    -2253    -2176    -2185    -2253    -2311 
   -2299    -2207    -2131    -2165    -2299    -2477    -2624    -2628 
   -2428    -2120    -1925    -1966    -2161    -2343    -2424    -2394 
   -2289    -2180    -2188    -2347    -2482    -2440    -2282    -2116 
   -1999    -2031    -2230    -2443    -2567    -2566    -2385    -2114 
   -1969    -2003    -2128    -2311    -2496    -2570    -2485    -2303 
   -2124    -2026    -2065    -2270    -2516    -2608    -2527    -2385 
   -2220    -2065    -2073    -2295    -2508    -2513    -2343    -2103 
   -1876    -1788    -1933    -2243    -2559    -2709    -2608    -2374 
   -2205    -2153    -2191    -2304    -2405    -2390    -2293    -2204 
   -2137    -2091    -2118    -2254    -2423    -2494    -2450    -2367 
   -2257    -2130    -2092    -2205    -2394    -2548    -2597    -2520 
   -2351    -2165    -2033    -1996    -2049    -2150    -2259    -2355 
   -2423    -2446    -2408    -2316    -2209    -2126    -2110    -2205 
   -2362    -2461    -2454    -2386    -2254    -2065    -1938    -1976 
   -2151    -2374    -2575    -2687    -2639    -2442    -2211    -2037 
   -1960    -2026    -2214    -2420    -2533    -2496    -2351    -2220 
   -2165    -2177    -2226    -2242    -2214    -2220    -2268    -2300 
   -2338    -2417    -2485    -2473    -2405    -2338    -2253    -2111 
   -1987    -2003    -2193    -2454    -2641    -2686    -2559    -2266 
   -1933    -1782    -1944    -2324    -2673    -2791    -2651    -2315 
   -1926    -1703    -1775    -2053    -2353    -2565    -2670    -2629 
   -2425    -2180    -2023    -1969    -2007    -2164    -2404    -2621 
   -2702    -2590    -2323    -2035    -1865    -1914    -2193    -2521 
   -2681    -2637    -2451    -2177    -1948    -1865    -1910    -2060 
   -2305    -2565    -2708    -2627    -2331    -1973    -1707    -1634 
   -1810    -2158    -2500    -2698    -2745    -2691    -2581    -2463 
   -2365    -2282    -2216    -2193    -2239    -2371    -2552    -2673 
   -2631    -2405    -2050    -1688    -1491    -1547    -1756    -1977 
   -2178    -2377    -2538    -2663    -2779    -2806    -2668    -2481 
   -2381    -2386    -2443    -2479    -2455    -2371    -2212    -1971 
   -1690    -1475    -1437    -1614    -1946    -2339    -2673    -2821 
   -2752    -2558    -2358    -2270    -2400    -2756    -3129    -3219 
   -2926    -2378    -1788    -1366    -1213    -1344    -1719    -2162 
   -2451    -2550    -2527    -2423    -2328    -2339    -2458    -2602 
   -2671    -2589    -2381    -2131    -1933    -1865    -1968    -2199 
   -2451    -2593    -2571    -2451    -2295    -2108    -1961    -1918 
   -1944    -2057    -2309    -2602    -2748    -2643    -2335    -2022 
   -1930    -2115    -2461    -2778    -2907    -2794    -2470    -2079 
   -1856    -1892    -2050    -2193    -2242    -2158    -2066    -2127 
   -2273    -2389    -2525    -2675    -2655    -2415    -2147    -2016 
   -2011    -2045    -2099    -2222    -2386    -2489    -2488    -2389 
   -2197    -2010    -1987    -2146    -2342    -2442    -2463    -2470 
   -2434    -2334    -2230    -2145    -2054    -1999    -2073    -2297 
   -2563    -2759    -2830    -2670    -2215    -1683    -1426    -1613 
   -2145    -2724    -3046    -3010    -2682    -2226    -1907    -1937 
   -2253    -2604    -2729    -2511    -2091    -1744    -1625    -1773 
   -2165    -2635    -2905    -2782    -2380    -2003    -1800    -1733 
   -1817    -2046    -2280    -2417    -2544    -2763    -2997    -3065 
   -2909    -2587    -2187    -1837    -1649    -1613    -1718    -1981 
   -2273    -2400    -2336    -2161    -1938    -1780    -1836    -2157 
   -2641    -3041    -3113    -2828    -2412    -2126    -2045    -2119 
   -2269    -2349    -2257    -2137    -2168    -2323    -2488    -2590 
   -2548    -2332    -2052    -1867    -1879    -2115    -2475    -2736 
   -2729    -2493    -2200    -2002    -1973    -2066    -2123    -2091 
   -2100    -2211    -2326    -2465    -2682    -2814    -2670    -2320 
   -1992    -1848    -1935    -2220    -2587    -2826    -2770    -2469 
   -2087    -1736    -1566    -1744    -2222    -2731    -2974    -2793 
   -2316    -1876    -1684    -1729    -1966    -2374    -2767    -2862 
   -2621    -2316    -2162    -2164    -2286    -2448    -2435    -2145 
   -1783    -1617    -1748    -2123    -2548    -2812    -2886    -2836 
   -2609    -2185    -1777    -1640    -1800    -2115    -2421    -2623 
   -2733    -2785    -2752    -2628    -2438    -2215    -2015    -1885 
   -1833    -1876    -2034    -2270    -2486    -2578    -2531    -2432 
   -2332    -2181    -1992    -1911    -2022    -2249    -2475    -2612 
   -2574    -2342    -2007    -1757    -1809    -2205    -2714    -3024 
   -2965    -2542    -1944    -1501    -1429    -1705    -2193    -2739 
   -3141    -3219    -2906    -2288    -1614    -1186    -1183    -1601 
   -2251    -2814    -3065    -3069    -2957    -2714    -2400    -2188 
   -2095    -2022    -1976    -1989    -2019    -2054    -2108    -2160 
   -2172    -2116    -2096    -2266    -2555    -2764    -2870    -2894 
   -2755    -2477    -2245    -2131    -2022    -1861    -1749    -1759 
   -1864    -2065    -2411    -2785    -2918    -2687    -2232    -1804 
   -1609    -1723    -2112    -2650    -3075    -3123    -2795    -2380 
   -2119    -2073    -2216    -2432    -2519    -2335    -1923    -1513 
   -1393    -1656    -2170    -2732    -3115    -3083    -2636    -2123 
   -1868    -1926    -2214    -2606    -2905    -2878    -2457    -1860 
   -1375    -1121    -1202    -1777    -2686    -3372    -3454    -3028 
   -2366    -1732    -1441    -1648    -2139    -2617    -2926    -2995 
   -2867    -2674    -2454    -2216    -2057    -1987    -1895    -1803 
   -1829    -1935    -1991    -1985    -2000    -2093    -2300    -2598 
   -2870    -2995    -2898    -2582    -2204    -1944    -1869    -1975 
   -2199    -2435    -2609    -2667    -2559    -2311    -2027    -1809 
   -1725    -1831    -2057    -2223    -2305    -2466    -2748    -2978 
   -2980    -2713    -2257    -1796    -1560    -1663    -1972    -2230 
   -2272    -2074    -1744    -1594    -1948    -2737    -3493    -3785 
   -3497    -2770    -1956    -1443    -1358    -1593    -1989    -2361 
   -2567    -2636    -2701    -2828    -2963    -2975    -2706    -2107 
   -1367     -830     -778    -1269    -2084    -2848    -3262    -3246 
   -2910    -2455    -2081    -1933    -2019    -2188    -2297    -2316 
   -2265    -2189    -2193    -2312    -2461    -2570    -2637    -2640 
   -2532    -2324    -2080    -1865    -1728    -1696    -1813    -2108 
   -2494    -2771    -2816    -2678    -2475    -2289    -2207    -2312 
   -2570    -2868    -3051    -2911    -2408    -1784    -1337    -1229 
   -1495    -2012    -2500    -2710    -2604    -2263    -1806    -1439 
   -1386    -1660    -2096    -2574    -3010    -3279    -3271    -2995 
   -2546    -2073    -1786    -1825    -2149    -2575    -2906    -3013 
   -2824    -2327    -1683    -1233    -1243    -1683    -2299    -2770 
   -2855    -2551    -2080    -1703    -1660    -2087    -2787    -3315 
   -3376    -2952    -2174    -1358     -939    -1131    -1769    -2565 
   -3221    -3433    -3063    -2312    -1597    -1270    -1479    -2119 
   -2820    -3169    -3075    -2758    -2405    -2056    -1768    -1660 
   -1753    -1973    -2273    -2624    -2897    -2886    -2511    -1929 
   -1414    -1224    -1495    -2115    -2764    -3175    -3227    -2928 
   -2442    -2093    -2130    -2469    -2774    -2751    -2362    -1787 
   -1252     -969    -1111    -1706    -2533    -3237    -3604    -3635 
   -3348    -2752    -2025    -1466    -1270    -1460    -1946    -2521 
   -2926    -3017    -2806    -2416    -2015    -1742    -1672    -1795 
   -2052    -2359    -2571    -2594    -2528    -2462    -2339    -2122 
   -1906    -1782    -1755    -1853    -2191    -2749    -3271    -3497 
   -3337    -2776    -1933    -1121     -710     -895    -1617    -2605 
   -3435    -3736    -3434    -2766    -2074    -1610    -1478    -1644 
   -1983    -2335    -2542    -2469    -2122    -1733    -1615    -1831 
   -2185    -2542    -2871    -3088    -3130    -2999    -2685    -2235 
   -1836    -1672    -1782    -2062    -2398    -2690    -2768    -2500 
   -2008    -1570    -1372    -1510    -2015    -2714    -3249    -3393 
   -3153    -2621    -1998    -1611    -1634    -1917    -2286    -2710 
   -3063    -3106    -2806    -2335    -1813    -1391    -1332    -1707 
   -2228    -2575    -2662    -2538    -2266    -1987    -1856    -1908 
   -2087    -2313    -2516    -2625    -2594    -2436    -2204    -1957 
   -1775    -1722    -1815    -2010    -2226    -2425    -2624    -2789 
   -2814    -2700    -2582    -2498    -2380    -2308    -2388    -2479 
   -2397    -2173    -1972    -1945    -2116    -2370    -2587    -2701 
   -2644    -2431    -2185    -1942    -1684    -1557    -1703    -1987 
   -2216    -2411    -2647    -2851    -2907    -2817    -2606    -2293 
   -1965    -1703    -1543    -1563    -1837    -2224    -2494    -2605 
   -2668    -2706    -2691    -2663    -2646    -2552    -2335    -2088 
   -1891    -1705    -1529    -1518    -1782    -2242    -2731    -3084 
   -3144    -2832    -2289    -1790    -1516    -1501    -1725    -2095 
   -2454    -2735    -2945    -3065    -3063    -2929    -2667    -2349 
   -2095    -1980    -2023    -2174    -2305    -2351    -2342    -2272 
   -2100    -1875    -1718    -1736    -1941    -2219    -2388    -2363 
   -2215    -2062    -1979    -2016    -2250    -2678    -3122    -3369 
   -3314    -2916    -2266    -1633    -1262    -1279    -1703    -2358 
   -2968    -3365    -3446    -3119    -2486    -1814    -1286    -1001 
   -1117    -1676    -2423    -2991    -3206    -3059    -2617    -2076 
   -1683    -1560    -1715    -2068    -2435    -2635    -2620    -2450 
   -2245    -2116    -2076    -2119    -2313    -2641    -2932    -2995 
   -2744    -2241    -1683    -1285    -1178    -1416    -1961    -2644 
   -3180    -3319    -3056    -2590    -2104    -1707    -1524    -1668 
   -2101    -2614    -2974    -3026    -2735    -2261    -1899    -1833 
   -2077    -2525    -2902    -2891    -2432    -1767    -1210    -1015 
   -1266    -1857    -2592    -3210    -3423    -3194    -2794    -2424 
   -2093    -1831    -1714    -1723    -1783    -1919    -2203    -2562 
   -2817    -2868    -2709    -2382    -2046    -1949    -2146    -2454 
   -2687    -2729    -2505    -2061    -1601    -1352    -1436    -1860 
   -2497    -3064    -3258    -2955    -2322    -1728    -1456    -1556 
   -1968    -2546    -3042    -3238    -3059    -2633    -2227    -1985 
   -1884    -1894    -2014    -2181    -2346    -2516    -2648    -2655 
   -2515    -2272    -2010    -1829    -1798    -1914    -2119    -2334 
   -2488    -2536    -2455    -2293    -2139    -2035    -2015    -2130 
   -2339    -2515    -2600    -2602    -2486    -2251    -2020    -1938 
   -2070    -2357    -2654    -2817    -2740    -2457    -2162    -2010 
   -2019    -2180    -2405    -2512    -2376    -2049    -1732    -1644 
   -1826    -2122    -2381    -2586    -2744    -2802    -2762    -2664 
   -2511    -2274    -1957    -1641    -1528    -1756    -2253    -2817 
   -3204    -3184    -2767    -2214    -1757    -1526    -1598    -1876 
   -2128    -2250    -2269    -2232    -2246    -2420    -2679    -2851 
   -2856    -2706    -2461    -2201    -1998    -1906    -1925    -1972 
   -1993    -2026    -2095    -2193    -2354    -2578    -2710    -2558 
   -2172    -1834    -1771    -2007    -2401    -2704    -2748    -2575 
   -2278    -1941    -1719    -1746    -2011    -2409    -2778    -2925 
   -2802    -2550    -2331    -2243    -2286    -2347    -2343    -2301 
   -2288    -2344    -2446    -2485    -2405    -2255    -2070    -1844 
   -1659    -1706    -2068    -2574    -2933    -2986    -2720    -2204 
   -1676    -1480    -1729    -2204    -2651    -2953    -3013    -2786 
   -2438    -2191    -2122    -2172    -2214    -2145    -2011    -1930 
   -1952    -2058    -2200    -2316    -2386    -2407    -2373    -2327 
   -2296    -2258    -2224    -2200    -2089    -1883    -1804    -2008 
   -2389    -2793    -3084    -3114    -2828    -2355    -1915    -1706 
   -1813    -2103    -2342    -2411    -2347    -2222    -2091    -2031 
   -2118    -2328    -2536    -2617    -2538    -2344    -2147    -2020 
   -1962    -1999    -2172    -2389    -2525    -2560    -2516    -2415 
   -2320    -2262    -2208    -2153    -2116    -2111    -2164    -2308 
   -2505    -2635    -2596    -2351    -1954    -1617    -1584    -1918 
   -2450    -2947    -3207    -3099    -2646    -2060    -1618    -1503 
   -1718    -2092    -2396    -2502    -2438    -2305    -2228    -2274 
   -2416    -2542    -2519    -2331    -2079    -1875    -1837    -2027 
   -2355    -2656    -2836    -2845    -2620    -2199    -1814    -1671 
   -1790    -2095    -2471    -2764    -2855    -2745    -2538    -2336 
   -2176    -2052    -1991    -1992    -2000    -1992    -1966    -1938 
   -2008    -2236    -2548    -2851    -3037    -2991    -2718    -2361 
   -2068    -1915    -1906    -2003    -2160    -2324    -2444    -2494 
   -2454    -2317    -2160    -2095    -2169    -2355    -2569    -2691 
   -2633    -2404    -2103    -1841    -1713    -1822    -2145    -2465 
   -2573    -2479    -2324    -2208    -2162    -2192    -2301    -2466 
   -2631    -2708    -2596    -2320    -2029    -1837    -1776    -1833 
   -1968    -2178    -2463    -2697    -2737    -2606    -2384    -2091 
   -1836    -1756    -1818    -1930    -2097    -2358    -2658    -2829 
   -2759    -2532    -2288    -2089    -1988    -2004    -2091    -2200 
   -2316    -2400    -2407    -2377    -2403    -2500    -2602    -2650 
