Origin Time       2024/06/23 22:54:00
Lat.              35.645
Long.             140.060
Depth. (km)       72
Mag.              4.1
Station Code      KNG004
Station Lat.      35.1442
Station Long.     139.6223
Station Height(m) 31
Record Time       2024/06/23 22:54:50
Sampling Freq(Hz) 100Hz
Duration Time(s)  60
Dir.              N-S
Scale Factor      7845(gal)/8223790
Max. Acc. (gal)   2.186
Last Correction   2024/06/23 22:54:50
Memo.             
[...]
      59       62       64       68       70       67       68       70 
      68       70       75       78       74       70       67       67 
      70       71       71       67       62       59       63       66 
      67       68       71       75       74       70       70       74 
      75       76       76       72       66       67       67       62 
      67       75       71       68       63       62       68       72 
      70       71       75       75       72       71       72       70 
      70       68       70       70       66       67       74       70 
      66       68       68       63       62       70       78       79 
      74       70       67       66       67       68       70       72 
      70       71       74       64       63       72       71       67 
      72       76       75       67       64       71       75       72 
      71       72       72       71       70       68       71       78 
      76       71       68       66       68       76       72       66 
      70       74       70       70       70       71       74       72 
      72       74       72       75       71       67       74       78 
      74       68       68       70       63       62       70       71 
      68       68       68       70       71       71       72       74 
      74       74       74       67       66       74       72       62 
      63       70       71       68       67       67       60       64 
      76       74       67       66       68       81       83       68 
      64       72       76       70       67       71       68       63 
      70       72       68       68       72       72       70       70 
      74       78       72       72       79       81       75       68 
      60       64       70       72       78       71       60       63 
      68       70       71       72       72       70       68       75 
      82       76       71       74       68       64       68       68 
      70       72       71       71       68       63       63       68 
      71       71       63       62       70       75       74       74 
      71       67       68       72       71       68       71       78 
      74       62       63       72       67       60       66       67 
      66       70       70       70       78       79       74       71 
      67       67       78       78       68       66       70       68 
      64       63       66       68       68       63       62       71 
      71       60       59       67       74       72       74       74 
      67       67       76       72       66       70       75       66 
      59       66       67       64       70       70       66       70 
      72       70       68       68       70       70       71       72 
      75       70       64       64       66       71       78       74 
      68       67       68       70       70       66       62       67 
      72       72       71       72       71       72       76       71 
      67       68       68       68       71       70       66       66 
      67       68       72       76       75       66       60       66 
      71       72       70       63       62       70       75       72 
      72       79       76       67       68       74       74       68 
      67       75       83       72       66       75       85       83 
      83       85       79       68       63       56       49       58 
      67       67       70       74       64       47       43       49 
      70       97       97       78       87      103       98       89 
      86       71       37       13       24       68      130      160 
     129       86       70       63       74      126      179      153 
      31     -105     -157     -124      -59      -21      -21        0 
      31       -5      -43        6       86      166      270      380 
     442      400      257       66      -43       31      145      141 
      99       78        8     -129     -247     -233      -97       81 
     147       24      -54       44      124      128      205      348 
     407      338      275      267      218      106        1      -47 
     -62     -168     -395     -523     -375     -124      -41      -58 
      67      324      446      287       66       55      216      390 
     538      553      351       94      -94     -207     -193     -130 
    -155     -180     -144     -117     -112      -86      -20       35 
     120      311      425      333      190       54      -49      -43 
       2       62      184      230       95      -40       45      310 
     467      379      189       64      -27     -167     -218     -106 
     -48     -106     -137     -113       -6       56     -101     -175 
     102      414      479      353      201      160      167       71 
     -90     -157      -43      166      248      120      -55      -98 
      -8      132      272      315      210      109      117       85 
     -91     -283     -318     -195      -43       24      -28     -102 
     -40      139      299      410      486      504      449      279 
      10     -187     -155       44      172      141       67      -27 
    -153     -209     -164      -78       37      141      164      144 
     147      132       98      113      133       90       33       16 
      22       67      218      446      553      426      197        9 
    -139     -265     -336     -286     -143      -59      -70      -41 
     -10      -85     -159      -97       94      302      399      395 
     378      371      365      334      259      149       20      -95 
    -130      -90     -118     -260     -340     -272     -153      -41 
      66      182      268      228       99       51       91      178 
     400      673      681      390       79      -89     -178     -240 
    -234     -143      -12      106      151       56     -125     -257 
    -226      -35      179      279      257      224      229      186 
      83       62      144      205      176       94       17      -37 
     -67      -45        2        9      -41     -103     -140     -159 
    -105      103      396      568      518      361      243      202 
     207      155       -5     -168     -280     -369     -388     -301 
    -135       47      186      264      251      155       78      105 
     271      496      572      448      257       37     -167     -251 
    -287     -378     -409     -288      -90       95      229      329 
     417      410      268      102       58      180      325      314 
     129      -99     -220     -195     -156     -217     -310     -322 
    -264     -159        1      203      423      606      679      619 
     477      333      240      232      247      136      -91     -272 
    -345     -368     -369     -340     -260     -139      -12       76 
     163      286      341      267      207      220      209      109 
     -68     -238     -286     -197      -54      124      345      507 
     525      465      390      264      126       93      137       68 
    -156     -329     -322     -217     -122      -97      -95      -49 
      -5       12       87      213      261      182       55       21 
     163      430      618      503      122     -284     -487     -355 
      20      355      486      486      419      197     -174     -436 
    -422     -244      -66       31       -1     -101      -94       51 
     202      287      291      255      282      324      186      -97 
    -247     -152      -31     -101     -256     -241      -35      179 
     282      251      140       40       32      183      384      425 
     375      410      469      415      199      -29      -95      -90 
    -155     -301     -434     -382     -199      -98       -4      175 
     272      217      109        1        0      201      396      336 
     174      167      209      145       75       78      139      167 
      20     -220     -291     -170      -66      -90     -141      -54 
     160      294      217       49        0       64      110      183 
     317      297       97      -28      -62      -63       13       79 
      94      136      118       31       41      125      139      116 
     136      189      263      332      275       55     -217     -413 
    -361      -71      116       33      -56       14       64        1 
      -8       86      197      306      342      291      257      190 
      72       71      135       76       27      147      255      166 
     -51     -265     -326     -144       85      148      116       82 
      13      -36        8       31      -55      -75      110      346 
     368      156       17      128      295      398      481      465 
     270       20     -160     -298     -415     -454     -367     -162 
      43       70      -37      -41      118      321      442      425 
     352      345      361      287       83     -180     -322     -292 
    -252     -313     -409     -363      -99      252      527      634 
     610      567      495      361      210       -4     -284     -415 
    -267      -17       75       -9      -97     -101      -59       -6 
      40       97      168      197      162      163      225      234 
     203      233      243      105     -102     -217     -210     -191 
    -180      -68      108      202      226      251      232      116 
     -28      -48       67      133       44      -91     -113      -33 
     -12      -14      163      483      710      738      596      387 
     171      -58     -237     -345     -454     -515     -382     -122 
     -10     -105     -156      -20      213      407      456      390 
     315      245      201      257      352      383      409      452 
     353       35     -342     -544     -484     -306     -193     -121 
      21      116      -39     -278     -263      -24      118       56 
      25      198      398      441      464      585      643      480 
     163     -141     -355     -476     -476     -352     -189      -33 
      67       91       99       83       49      141      344      461 
     471      479      468      372      211       20     -206     -422 
    -513     -421     -265     -249     -384     -442     -272       -2 
     217      417      630      749      648      407      284      341 
     375      295      210      124      -29     -198     -356     -496 
    -471     -240        2      147      217      205      141      112 
     152      233      306      324      234       78       18       83 
     141      155      113        5      -33       -5      -95     -251 
    -244      -60      133      225      199      139      174      243 
     183       67        9        2       70      140       94      -31 
     -89      -41      -43     -105      -36      137      251      247 
     112      -55     -121      -22      243      448      378      174 
       8      -74      -56      -18        9       16      -78     -182 
    -174      -64      155      398      481      332       33     -190 
    -205     -122      -14      109      162      160      216      265 
     228      232      301      256       90      -31      -28      -32 
    -183     -369     -394     -211        1      -37     -252     -294 
    -120       78      248      449      703      868      796      573 
     363      247      144     -101     -365     -438     -386     -309 
    -226     -201     -221     -221     -175      -97        4      153 
     275      291      321      434      541      564      517      519 
     577      490      209      -79     -260     -348     -402     -494 
    -588     -525     -301     -145     -106        0      182      309 
     395      434      351      292      406      492      375      201 
      59     -106     -174      -64       -8      -99     -118       -5 
      54      -12     -118     -203     -203      -85       71      206 
     309      278       97      -20       97      321      432      405 
     359      351      325      199       32      -66     -164     -348 
    -480     -477     -415     -307     -113       97      167      105 
     151      376      502      436      395      441      429      298 
     136       18      -81     -133     -121     -143     -171     -149 
    -182     -230     -151        2      124      232      345      410 
     375      288      248      221      151       98       48      -55 
     -90       22       89       -2      -97     -106      -78      -45 
     -51      -89      -67       36      117      144      170      160 
      75       20       71      193      303      287      118      -49 
    -126     -213     -336     -329     -166      -62      -97     -117 
      -5      197      324      295      245      238      190      112 
      27      -67      -91      -67     -128     -211     -156        9 
     148      284      504      751      928      989      873      626 
     457      387      203      -82     -237     -253     -336     -530 
    -681     -707     -611     -392     -160      -39      103      396 
     714      962     1134     1154     1059      955      804      560 
     286       22     -194     -417     -738    -1017    -1071     -951 
    -804     -730     -723     -621     -329       58      421      714 
     931     1086     1194     1217     1119      928      700      477 
     237     -132     -623    -1086    -1453    -1711    -1844    -1872 
   -1794    -1556    -1125     -612     -174      283      895     1533 
    2062     2362     2300     1975     1614     1242      723       62 
    -541     -942    -1198    -1405    -1555    -1595    -1498    -1294 
   -1046     -723     -198      514     1177     1632     1923     2062 
    1996     1802     1568     1273      923      558      140     -314 
    -695     -913    -1009    -1105    -1201    -1216    -1148     -945 
    -499       58      394      388      248      218      338      492 
     621      772      920      900      637      267       -8      -85 
     -35       25       60       21      -87     -186     -346     -656 
    -949    -1062    -1007     -830     -589     -321      -20      251 
     441      594      758      953     1173     1331     1264      911 
     445       74     -148     -265     -367     -522     -696     -822 
    -903     -974     -982     -803     -406       63      477      870 
    1293     1624     1713     1567     1336     1170     1023      702 
     152     -427     -814    -1028    -1233    -1414    -1456    -1304 
    -942     -483     -106      178      429      664      908     1123 
    1208     1144      962      719      529      421      297       76 
    -294     -812    -1289    -1522    -1516    -1323     -957     -490 
     -27      361      631      783      881     1031     1304     1618 
    1818     1796     1437      695     -257    -1115    -1607    -1625 
   -1275     -861     -665     -702     -768     -672     -382      -28 
     257      465      622      680      638      599      630      703 
     731      606      351      126      -24     -187     -348     -413 
    -356     -243     -193     -268     -391     -369      -37      534 
    1048     1216      988      600      313      170       93       25 
     -29      -39      -27     -144     -417     -576     -467     -264 
    -193     -270     -341     -292     -190     -157     -162      -60 
     171      436      712      961     1058     1063     1065      923 
     565      145     -171     -317     -394     -591     -862     -967 
    -874     -757     -670     -506     -226       51      228      336 
     449      602      766      923     1063     1109      955      554 
     -12     -529     -835     -970    -1035    -1086    -1078     -919 
    -679     -469     -234       90      491      942     1417     1898 
    2282     2326     1930     1290      661      101     -433     -841 
    -986    -1016    -1162    -1444    -1684    -1637    -1256     -718 
    -114      521     1034     1264     1221     1044      904      918 
    1053     1161     1119      868      438      -75     -612    -1050 
   -1262    -1382    -1572    -1760    -1806    -1603    -1120     -461 
     259      953     1489     1725     1676     1567     1582     1655 
    1609     1301      684     -106     -816    -1232    -1329    -1266 
   -1192    -1131     -984     -722     -522     -468     -372      -62 
     413      834     1054     1190     1395     1598     1611     1329 
     826      329       18     -125     -260     -498     -800    -1053 
   -1161    -1031     -692     -278      166      608      919      977 
     774      453      186       18     -120     -282     -440     -554 
    -606     -630     -687     -664     -376       87      479      700 
     787      796      760      691      652      684      714      637 
     422      126     -172     -445     -699     -924    -1027     -958 
    -854     -804     -684     -422      -94      267      638      919 
    1055     1066      989      911      881      864      812      726 
     642      549      352      -20     -502     -893    -1102    -1224 
   -1227     -989     -650     -450     -446     -534     -530     -276 
     217      823     1378     1676     1561     1154      781      629 
     631      652      561      270     -245     -876    -1370    -1544 
   -1414    -1108     -787     -525     -306     -103      102      311 
     510      697      824      868      865      822      738      630 
     502      365      210       43     -120     -336     -583     -746 
    -778     -693     -553     -411     -238       -1      243      437 
     629      900     1165     1277     1209     1004      706      341 
     -62     -433     -708     -869     -949     -988     -928     -764 
    -661     -666     -612     -387       25      572     1092     1418 
    1463     1228      855      533      378      390      452      448 
     305      -63     -594    -1009    -1119     -938     -592     -264 
     -74       -8      -62     -193     -240      -99      183      506 
     788      954      950      827      699      616      550      434 
     209      -79     -357     -654     -989    -1233    -1293    -1212 
   -1021     -718     -338       54      394      669      926     1162 
    1335     1412     1335     1096      768      417       89     -209 
    -483     -699     -891    -1090    -1201    -1119     -838     -452 
     -89      234      603     1028     1381     1534     1510     1368 
    1078      616       86     -400     -780    -1007    -1115    -1179 
   -1179    -1065     -847     -508      -27      457      797     1044 
    1266     1418     1417     1201      815      417       74     -243 
    -554     -838    -1044    -1143    -1123     -981     -774     -558 
    -330      -90      179      479      762     1019     1228     1306 
    1213      980      652      301      -27     -349     -697    -1026 
   -1193    -1081     -724     -265      116      307      382      471 
     584      697      787      823      787      633      340       13 
    -220     -303     -283     -271     -325     -422     -546     -658 
    -666     -549     -361     -103      194      409      529      660 
     824      928      878      729      600      523      436      275 
      60     -105     -180     -229     -283     -301     -247     -157 
