Origin Time       2024/06/23 22:54:00
Lat.              35.645
Long.             140.060
Depth. (km)       72
Mag.              4.1
Station Code      KNG004
Station Lat.      35.1442
Station Long.     139.6223
Station Height(m) 31
Record Time       2024/06/23 22:54:50
Sampling Freq(Hz) 100Hz
Duration Time(s)  60
Dir.              E-W
Scale Factor      7845(gal)/8223790
Max. Acc. (gal)   3.448
Last Correction   2024/06/23 22:54:50
Memo.             
[...]
    1917     1917     1912     1915     1921     1918     1910     1907 
    1918     1923     1915     1914     1912     1912     1921     1922 
    1915     1914     1917     1917     1915     1912     1915     1918 
    1915     1911     1914     1919     1914     1910     1915     1918 
    1917     1917     1917     1918     1915     1911     1911     1910 
    1915     1922     1921     1919     1917     1910     1912     1915 
    1910     1912     1918     1917     1915     1915     1917     1917 
    1915     1915     1917     1915     1918     1917     1910     1908 
    1911     1918     1919     1918     1917     1915     1917     1915 
    1914     1918     1917     1914     1914     1910     1911     1917 
    1919     1921     1923     1919     1912     1917     1922     1919 
    1917     1918     1917     1911     1908     1914     1915     1911 
    1910     1911     1915     1919     1923     1922     1912     1910 
    1911     1911     1915     1922     1918     1917     1918     1917 
    1917     1912     1910     1912     1912     1918     1919     1912 
    1911     1914     1912     1915     1918     1922     1925     1917 
    1911     1917     1915     1918     1926     1921     1914     1914 
    1910     1912     1918     1917     1914     1917     1923     1919 
    1910     1914     1925     1921     1917     1921     1917     1912 
    1919     1918     1918     1922     1918     1914     1918     1914 
    1911     1919     1919     1918     1917     1914     1915     1918 
    1918     1911     1912     1918     1915     1912     1917     1914 
    1914     1923     1921     1914     1915     1914     1914     1919 
    1919     1918     1915     1912     1911     1915     1919     1914 
    1911     1915     1912     1910     1917     1914     1911     1919 
    1923     1919     1915     1915     1923     1929     1919     1908 
    1907     1911     1915     1922     1917     1906     1910     1918 
    1914     1908     1915     1922     1917     1917     1921     1919 
    1919     1921     1917     1914     1917     1914     1912     1915 
    1912     1912     1919     1917     1915     1919     1912     1912 
    1923     1918     1908     1915     1922     1917     1915     1922 
    1922     1922     1923     1918     1915     1921     1921     1917 
    1917     1921     1918     1910     1911     1915     1914     1915 
    1921     1922     1918     1918     1919     1917     1917     1917 
    1919     1925     1919     1911     1918     1922     1915     1912 
    1917     1915     1918     1921     1912     1910     1912     1910 
    1908     1911     1915     1922     1925     1921     1918     1918 
    1921     1921     1921     1922     1921     1912     1908     1911 
    1915     1917     1922     1918     1910     1912     1912     1904 
    1907     1921     1922     1918     1922     1925     1921     1921 
    1918     1908     1911     1921     1922     1925     1927     1923 
    1919     1917     1912     1911     1912     1914     1910     1903 
    1911     1926     1938     1945     1942     1937     1933     1923 
    1912     1902     1891     1884     1883     1892     1902     1900 
    1892     1879     1873     1892     1911     1915     1902     1875 
    1872     1906     1953     2002     2027     2003     1944     1877 
    1856     1915     2000     2039     2030     1995     1948     1921 
    1935     1952     1925     1896     1869     1818     1803     1844 
    1875     1881     1867     1848     1872     1917     1907     1842 
    1799     1850     1961     2049     2114     2127     2089     2054 
    1989     1896     1877     1948     1992     1926     1842     1826 
    1823     1822     1833     1846     1865     1792     1656     1629 
    1710     1850     1984     1985     1921     1954     2062     2137 
    2138     2128     2174     2203     2155     2126     2126     2057 
    1904     1702     1533     1560     1786     1938     1830     1614 
    1474     1432     1524     1740     1995     2189     2184     2022 
    1948     2049     2218     2326     2323     2250     2145     2008 
    1856     1701     1645     1729     1784     1759     1746     1741 
    1718     1690     1705     1826     1972     2053     2116     2182 
    2203     2137     2070     2115     2207     2270     2258     2073 
    1825     1680     1563     1440     1408     1486     1636     1729 
    1675     1590     1556     1629     1876     2164     2381     2585 
    2697     2596     2385     2232     2157     2093     2026     1950 
    1814     1607     1425     1371     1447     1549     1603     1584 
    1514     1521     1625     1699     1798     2039     2326     2512 
    2548     2471     2366     2265     2181     2157     2162     2101 
    1950     1802     1705     1603     1472     1379     1390     1513 
    1691     1804     1760     1645     1688     1956     2259     2447 
    2506     2421     2239     2062     1941     1902     1941     2000 
    2004     1923     1775     1583     1421     1385     1502     1750 
    2022     2135     2095     2072     2100     2101     2052     1956 
    1894     1969     2092     2095     1961     1833     1821     1894 
    1969     1993     1919     1776     1644     1575     1601     1719 
    1900     2085     2191     2185     2106     2002     1887     1788 
    1782     1899     2060     2172     2196     2112     1989     1900 
    1794     1690     1676     1717     1749     1771     1798     1850 
    1915     1952     1985     2018     1973     1868     1858     2010 
    2176     2234     2212     2128     1991     1864     1752     1659 
    1638     1703     1779     1786     1784     1868     1957     2007 
    2031     1972     1867     1827     1898     2056     2224     2324 
    2312     2161     1939     1780     1723     1696     1653     1634 
    1642     1653     1732     1857     1907     1868     1837     1850 
    1879     1923     2006     2084     2143     2242     2358     2447 
    2458     2284     2014     1867     1823     1737     1602     1501 
    1509     1607     1651     1559     1428     1443     1660     1922 
    2096     2218     2343     2479     2548     2428     2164     1953 
    1900     1925     1892     1777     1640     1566     1580     1611 
    1624     1651     1682     1740     1869     2030     2189     2361 
    2463     2401     2236     2049     1872     1803     1857     1900 
    1873     1821     1752     1668     1663     1788     1908     1898 
    1803     1707     1710     1863     2054     2145     2112     2037 
    2037     2118     2170     2114     1981     1894     1887     1884 
    1871     1918     2015     2049     1979     1840     1671     1599 
    1692     1821     1877     1857     1802     1764     1746     1760 
    1842     1912     1895     1896     2006     2149     2255     2297 
    2224     2045     1875     1822     1915     2093     2239     2250 
    2092     1825     1591     1475     1406     1360     1447     1652 
    1823     1911     1966     2000     1991     1975     2012     2093 
    2182     2303     2436     2509     2488     2382     2181     1890 
    1611     1425     1320     1314     1405     1509     1575     1651 
    1783     1949     2070     2095     2089     2122     2155     2169 
    2151     2097     2053     2030     2012     1952     1813     1703 
    1687     1671     1691     1810     1939     2039     2079     1999 
    1899     1931     2056     2097     1993     1872     1845     1930 
    2065     2116     2030     1926     1894     1861     1773     1725 
    1802     1914     1927     1857     1809     1806     1764     1648 
    1574     1647     1823     2007     2135     2176     2188     2203 
    2142     2047     2034     2022     1922     1810     1777     1865 
    2026     2145     2120     1949     1738     1564     1459     1498 
    1710     1984     2133     2087     2011     2047     2127     2138 
    2027     1818     1653     1668     1829     1999     2143     2272 
    2254     2065     1896     1827     1798     1809     1845     1845 
    1784     1679     1582     1548     1622     1804     1991     2083 
    2070     2076     2189     2262     2166     2050     2020     2000 
    1976     1983     1984     1975     1972     1891     1709     1520 
    1397     1425     1620     1792     1864     1957     2068     2115 
    2130     2111     2038     1995     2022     2064     2126     2211 
    2247     2197     2096     1958     1777     1593     1487     1529 
    1688     1852     1898     1775     1603     1553     1601     1701 
    1884     2111     2344     2501     2471     2359     2278     2185 
    2085     1975     1817     1680     1645     1678     1690     1686 
    1645     1486     1314     1328     1516     1765     2016     2209 
    2378     2612     2837     2867     2633     2255     1904     1665 
    1498     1385     1367     1451     1578     1667     1686     1663 
    1676     1769     1914     2053     2128     2162     2232     2297 
    2281     2241     2220     2172     2062     1952     1902     1849 
    1709     1525     1402     1395     1489     1620     1760     1926 
    2089     2174     2149     2072     2065     2122     2139     2100 
    2070     2077     2104     2097     1975     1725     1541     1578 
    1723     1823     1898     1992     2052     1996     1861     1757 
    1733     1809     1950     2047     2058     2039     2042     2053 
    2029     1980     1939     1876     1738     1587     1560     1679 
    1858     2008     2016     1891     1823     1902     2007     2050 
    2100     2184     2222     2178     2060     1885     1746     1659 
    1584     1594     1728     1930     2138     2266     2243     2095 
    1915     1794     1748     1742     1763     1821     1914     1976 
    1969     1949     1937     1938     1999     2034     1902     1729 
    1736     1892     2052     2151     2208     2188     2016     1756 
    1567     1540     1649     1744     1768     1838     1968     2054 
    2020     1892     1881     2122     2384     2390     2193     2029 
    1952     1846     1702     1571     1514     1675     1958     2035 
    1875     1709     1668     1726     1760     1767     1910     2151 
    2257     2158     1991     1934     2049     2218     2273     2218 
    2161     2120     2052     1915     1746     1652     1620     1547 
    1448     1433     1590     1846     1957     1863     1746     1715 
    1811     2003     2164     2258     2289     2246     2226     2257 
    2270     2182     1937     1634     1417     1340     1447     1671 
    1869     1972     1944     1888     1939     2030     2107     2196 
    2242     2250     2245     2141     1991     1948     1973     1915 
    1726     1505     1366     1360     1471     1609     1706     1821 
    2019     2201     2223     2088     1981     2035     2165     2272 
    2385     2459     2370     2134     1881     1745     1761     1838 
    1894     1841     1664     1561     1598     1566     1432     1363 
    1428     1575     1730     1868     1992     2123     2331     2609 
    2802     2775     2551     2257     1975     1761     1698     1656 
    1487     1372     1437     1518     1556     1651     1794     1875 
    1925     2056     2199     2246     2239     2184     2066     1996 
    2038     2079     2025     1949     1868     1713     1552     1495 
    1557     1741     1965     2091     2108     2083     2046     2025 
    2010     1964     1904     1904     1975     2064     2104     2008 
    1836     1800     1934     2041     2000     1823     1607     1503 
    1561     1657     1715     1827     2045     2249     2336     2334 
    2276     2153     1939     1684     1549     1587     1651     1719 
    1860     1975     1985     1964     1972     1971     1922     1921 
    2012     2111     2192     2234     2139     1992     1953     1979 
    1931     1777     1617     1579     1664     1767     1819     1782 
    1672     1630     1748     1879     1921     2034     2254     2354 
    2265     2146     2062     2006     2007     2045     2030     1952 
    1890     1854     1800     1752     1759     1818     1873     1902 
    1957     2027     2002     1881     1822     1918     2100     2245 
    2326     2346     2261     2100     1985     1954     1915     1799 
    1663     1566     1510     1530     1613     1705     1853     2060 
    2218     2270     2232     2160     2135     2154     2104     1935 
    1779     1756     1769     1729     1699     1728     1800     1890 
    1903     1786     1660     1657     1680     1568     1383     1293 
    1294     1305     1329     1386     1466     1595     1807     2061 
    2277     2393     2419     2417     2358     2173     1948     1742 
    1506     1359     1431     1622     1871     2153     2324     2367 
    2428     2562     2739     2937     3161     3372     3473     3391 
    3146     2794     2351     1804     1197      635      201     -133 
    -379     -469     -361      -43      463     1015     1520     2064 
    2677     3245     3703     4032     4164     4094     3890     3573 
    3122     2577     2015     1502     1101      749      336      -78 
    -400     -618     -625     -332      229     1003     1933     2901 
    3763     4419     4884     5194     5281     5054     4519     3774 
    2953     2114     1235      369     -338     -804    -1140    -1491 
   -1698    -1476     -773      291     1505     2605     3447     4036 
    4395     4563     4660     4792     4823     4484     3751     2882 
    2106     1412      700       43     -411     -685     -834     -803 
    -568      -97      672     1609     2411     2956     3366     3700 
    3896     3973     3987     3913     3693     3302     2764     2201 
    1705     1229      711      232      -56     -113       12      282 
     610      913     1242     1664     2122     2540     2948     3385 
    3809     4079     4018     3538     2737     1926     1340      862 
     390      160      344      724      994     1134     1355     1799 
    2431     3071     3469     3555     3461     3279     3002     2655 
    2315     2018     1718     1383     1082      904      832      843 
     992     1320     1757     2126     2263     2168     1979     1850 
    1868     2015     2207     2299     2153     1748     1206      778 
     665      878     1339     1917     2444     2805     2947     2901 
    2772     2632     2543     2558     2609     2538     2238     1752 
    1260      973      989     1206     1343     1239     1034      903 
     931     1215     1767     2384     2787     2922     2964     3018 
    3034     2957     2764     2484     2177     1854     1537     1285 
    1066      847      704      716      849     1023     1217     1486 
    1848     2285     2778     3254     3630     3839     3800     3483 
    2924     2193     1406      753      415      396      561      772 
     962     1129     1255     1305     1368     1553     1856     2241 
    2646     2967     3138     3184     3179     3122     2983     2795 
    2582     2317     2069     1918     1810     1682     1586     1544 
    1474     1333     1170      985      788      712      846     1090 
    1324     1497     1603     1664     1755     1968     2311     2691 
    2994     3132     3138     3115     3071     2943     2697     2378 
    2072     1788     1445     1059      761      591      514      585 
     872     1274     1591     1734     1790     1941     2346     2872 
    3181     3154     2952     2716     2462     2151     1807     1518 
    1313     1163     1082     1109     1239     1437     1614     1671 
    1680     1800     2027     2335     2727     3123     3439     3541 
    3289     2808     2316     1848     1386     1011      801      770 
     858      982     1066     1100     1189     1398     1659     1915 
    2185     2448     2664     2820     2863     2725     2465     2212 
    2015     1842     1699     1611     1597     1611     1606     1610 
    1624     1649     1792     2061     2304     2462     2565     2562 
    2367     2050     1779     1579     1408     1341     1422     1597 
    1821     2002     2022     1899     1746     1744     2002     2373 
    2621     2650     2444     2052     1640     1366     1228     1186 
    1240     1364     1521     1678     1826     1979     2122     2255 
    2408     2558     2639     2601     2435     2184     1949     1788 
    1688     1605     1533     1517     1561     1615     1629     1637 
    1769     2069     2327     2332     2149     1962     1873     1895 
    2000     2153     2304     2339     2212     2022     1837     1660 
    1556     1572     1611     1606     1651     1764     1795     1765 
    1840     1980     2072     2157     2297     2473     2587     2524 
    2254     1904     1675     1648     1749     1830     1755     1534 
    1262     1024      972     1206     1669     2199     2601     2722 
    2532     2214     2006     1966     2035     2142     2164     2018 
    1744     1443     1250     1240     1370     1559     1755     1919 
    2035     2072     2041     2033     2091     2176     2211     2138 
    2014     1931     1918     2002     2180     2370     2498     2540 
    2482     2308     2046     1736     1413     1182     1147     1309 
    1561     1764     1850     1867     1891     1988     2141     2281 
    2396     2459     2424     2330     2204     2003     1755     1537 
    1383     1305     1259     1239     1301     1397     1474     1615 
    1846     2096     2336     2523     2592     2517     2342     2158 
    1991     1815     1701     1683     1699     1717     1734     1752 
    1811     1938     2122     2309     2427     2454     2436     2400 
    2331     2245     2184     2138     2042     1867     1659     1455 
    1237     1069     1047     1136     1255     1386     1493     1576 
    1686     1821     2000     2281     2662     3002     3106     2987 
    2833     2720     2605     2413     2087     1679     1293      978 
     765      668      692      837     1042     1262     1521     1831 
    2164     2493     2798     3040     3172     3183     3056     2809 
    2552     2347     2111     1764     1389     1155     1113     1161 
    1210     1251     1294     1350     1389     1394     1428     1524 
    1632     1763     1946     2157     2359     2485     2531     2577 
    2637     2693     2690     2571     2381     2187     1988     1756 
    1474     1165      904      766      768      909     1196     1559 
    1880     2111     2276     2413     2604     2895     3206     3389 
    3381     3211     2903     2462     1973     1566     1274     1038 
     796      552      387      413      670     1053     1375     1598 
    1822     2069     2282     2451     2627     2863     3134     3322 
    3318     3122     2835     2511     2120     1715     1424     1291 
    1239     1124      896      670      591      712      980     1341 
    1806     2317     2710     2844     2736     2565     2477     2470 
    2461     2401     2322     2224     2060     1803     1482     1198 
    1051     1051     1189     1467     1821     2103     2172     2016 
    1792     1669     1687     1798     1958     2138     2313     2446 
