Origin Time       2024/06/23 22:54:00
Lat.              35.645
Long.             140.060
Depth. (km)       72
Mag.              4.1
Station Code      KNG001
Station Lat.      35.5291
Station Long.     139.7061
Station Height(m) 2
Record Time       2024/06/23 22:54:45
Sampling Freq(Hz) 100Hz
Duration Time(s)  60
Dir.              E-W
Scale Factor      7845(gal)/8223790
Max. Acc. (gal)   6.687
Last Correction   2024/06/23 22:54:45
Memo.             
[...]
    1725     1723     1740     1756     1757     1748     1730     1721 
    1722     1732     1752     1756     1733     1715     1711     1707 
    1717     1726     1725     1729     1733     1736     1741     1746 
    1748     1737     1730     1740     1753     1759     1757     1746 
    1734     1730     1721     1729     1753     1752     1732     1721 
    1713     1717     1730     1742     1752     1748     1740     1755 
    1768     1753     1732     1721     1719     1728     1734     1740 
    1745     1744     1732     1722     1726     1729     1725     1730 
    1734     1736     1734     1723     1721     1734     1745     1749 
    1745     1730     1723     1737     1741     1726     1709     1702 
    1718     1749     1764     1748     1730     1745     1750     1737 
    1736     1737     1736     1729     1706     1718     1757     1756 
    1723     1709     1726     1765     1768     1725     1703     1733 
    1759     1752     1740     1736     1737     1744     1733     1715 
    1733     1752     1737     1722     1719     1715     1726     1741 
    1737     1734     1744     1742     1736     1730     1733     1753 
    1757     1736     1738     1764     1755     1725     1730     1748 
    1738     1729     1729     1728     1740     1740     1725     1722 
    1717     1725     1744     1740     1729     1730     1748     1761 
    1736     1703     1718     1746     1748     1723     1718     1749 
    1752     1709     1692     1715     1740     1734     1711     1714 
    1733     1749     1759     1742     1726     1736     1746     1738 
    1733     1748     1759     1738     1713     1711     1725     1734 
    1733     1723     1717     1732     1745     1734     1726     1734 
    1740     1741     1741     1746     1759     1742     1714     1706 
    1713     1733     1752     1746     1738     1737     1730     1728 
    1729     1725     1730     1742     1741     1741     1756     1761 
    1752     1729     1705     1713     1733     1736     1738     1744 
    1745     1741     1719     1707     1729     1745     1734     1719 
    1726     1745     1750     1741     1729     1718     1721     1729 
    1729     1723     1717     1718     1730     1733     1726     1726 
    1726     1719     1721     1736     1749     1746     1738     1737 
    1738     1741     1738     1733     1736     1740     1740     1737 
    1740     1749     1752     1759     1765     1750     1725     1718 
    1717     1717     1733     1750     1755     1746     1732     1728 
    1737     1737     1730     1734     1744     1741     1728     1726 
    1740     1736     1717     1709     1713     1721     1728     1737 
    1752     1765     1760     1734     1721     1728     1726     1715 
    1721     1734     1738     1737     1733     1732     1738     1741 
    1728     1717     1722     1732     1733     1723     1722     1734 
    1742     1737     1737     1742     1742     1740     1737     1736 
    1742     1746     1730     1718     1725     1729     1729     1729 
    1723     1723     1733     1742     1748     1752     1750     1738 
    1725     1725     1740     1753     1753     1749     1744     1746 
    1755     1741     1723     1725     1737     1748     1742     1732 
    1733     1742     1734     1718     1715     1729     1742     1749 
    1742     1736     1740     1748     1742     1722     1706     1710 
    1717     1714     1726     1757     1765     1738     1706     1696 
    1713     1733     1732     1721     1722     1738     1745     1734 
    1726     1733     1741     1729     1713     1718     1736     1744 
    1744     1732     1728     1742     1755     1748     1732     1730 
    1745     1749     1734     1734     1755     1760     1740     1721 
    1729     1749     1755     1732     1707     1714     1737     1749 
    1742     1732     1733     1734     1719     1707     1726     1756 
    1759     1737     1715     1713     1728     1736     1728     1728 
    1746     1756     1737     1723     1738     1750     1734     1713 
    1717     1745     1767     1753     1721     1717     1737     1740 
    1722     1706     1711     1742     1757     1740     1725     1733 
    1740     1728     1710     1707     1728     1742     1733     1729 
    1755     1772     1755     1728     1715     1721     1736     1740 
    1740     1748     1757     1755     1738     1721     1718     1737 
    1749     1737     1730     1742     1744     1732     1719     1721 
    1734     1745     1732     1722     1750     1775     1761     1738 
    1733     1737     1745     1742     1737     1734     1733     1732 
    1728     1717     1718     1740     1755     1737     1719     1732 
    1740     1729     1722     1726     1730     1734     1730     1721 
    1718     1725     1729     1732     1738     1734     1721     1715 
    1711     1714     1721     1726     1736     1748     1760     1779 
    1777     1749     1726     1718     1718     1736     1746     1730 
    1741     1752     1688     1655     1755     1850     1806     1715 
    1717     1792     1807     1698     1665     1860     1906     1567 
    1381     1663     1876     1717     1649     1923     2089     1853 
    1572     1597     1787     1791     1683     1749     1796     1656 
    1534     1533     1560     1590     1736     1896     1877     1846 
    1836     1674     1574     1756     1937     1817     1707     1788 
    1582     1339     1691     2083     1999     1927     1958     1630 
    1183     1150     1351     1665     2218     2529     2304     1956 
    1653     1267     1001     1285     1961     2158     1809     1818 
    1995     1490     1102     1626     1999     1988     2339     2323 
    1598     1281     1498     1501     1416     1800     2338     2220 
    1692     1560     1528     1166     1217     1853     2091     1991 
    1985     1561     1173     1655     2047     1737     1734     2242 
    2382     1935     1351     1286     1698     1611     1215     1377 
    1632     1665     1841     1983     2135     2389     2052     1252 
    1185     1809     2069     1918     1898     1899     1674     1424 
    1335     1372     1507     1625     1675     1819     2008     2030 
    2008     2023     2000     2006     1887     1574     1417     1345 
    1113     1177     1733     2124     2074     1981     1954     1799 
    1551     1468     1718     2014     1895     1526     1405     1533 
    1779     2015     1981     1926     2101     1871     1185     1158 
    1729     1834     1846     2382     2583     1960     1339     1117 
     966     1078     1474     1579     1675     2079     2165     2008 
    2073     2033     1813     1715     1705     1671     1482     1239 
    1424     1860     1910     1746     1675     1621     1817     2011 
    1642     1393     1825     2115     1761     1355     1497     1968 
    2149     2004     1941     1939     1641     1190     1124     1409 
    1688     1971     2134     2023     1887     1767     1548     1559 
    1945     2065     1714     1632     1863     1702     1391     1611 
    2058     2157     1976     1753     1507     1301     1248     1390 
    1734     2114     2174     1910     1749     1807     1701     1414 
    1447     1852     2164     2085     1675     1259     1188     1453 
    1714     1853     2012     2074     1987     1958     1787     1385 
    1351     1788     2088     2054     1873     1544     1227     1232 
    1540     1925     2131     1977     1706     1621     1566     1449 
    1590     2029     2268     2050     1682     1425     1333     1509 
    1780     1809     1741     1761     1756     1755     1765     1736 
    1757     1706     1566     1692     1957     1942     1883     2018 
    2065     1879     1628     1452     1318     1224     1364     1645 
    1764     1863     2039     2006     1844     1937     2135     2027 
    1684     1421     1327     1453     1698     1702     1660     2003 
    2274     1934     1402     1304     1567     1760     1879     2173 
    2346     1875     1132      999     1476     1950     2149     2025 
    1653     1385     1431     1502     1394     1529     2066     2462 
    2475     2232     1792     1420     1297     1256     1298     1622 
    2091     2185     1757     1398     1513     1675     1707     2031 
    2342     2037     1582     1478     1480     1544     1804     1964 
    1852     1773     1717     1414     1181     1385     1732     1892 
    1911     1872     1934     2093     1985     1734     1786     1871 
    1613     1305     1217     1212     1449     2030     2308     2161 
    2065     1845     1482     1447     1566     1602     1769     1858 
    1692     1645     1661     1622     1858     2145     2111     1841 
    1387     1192     1583     1934     2031     2220     2077     1410 
    1008     1050     1070     1323     2077     2741     2829     2424 
    1844     1543     1618     1721     1702     1717     1750     1503 
    1173     1313     1659     1756     1826     1979     2061     2122 
    2046     1522      903      909     1386     1717     1883     2127 
    2220     1964     1729     1728     1723     1688     1849     2096 
    2061     1885     1791     1544     1385     1609     1665     1478 
    1556     1772     1969     2087     1815     1510     1684     1977 
    2020     1840     1536     1456     1741     1848     1495     1316 
    1640     1925     1833     1583     1540     1837     2047     1802 
    1425     1402     1757     2030     1890     1638     1605     1621 
    1624     1910     2234     2077     1733     1522     1368     1476 
    1737     1715     1647     1892     2089     1907     1717     1765 
    1699     1514     1607     1880     1931     1767     1699     1764 
    1718     1656     1691     1580     1533     1852     2119     1945 
    1499     1242     1443     1840     2060     2104     2187     2188 
    1749     1105     1009     1350     1354     1501     2313     2621 
    2077     1804     1826     1547     1306     1528     1887     1991 
    1980     1904     1586     1375     1552     1584     1367     1570 
    1945     1717     1517     2053     2342     1845     1529     1626 
    1568     1514     1613     1682     1929     2112     1821     1528 
    1472     1459     1611     1826     1973     2096     1811     1293 
    1475     2042     2097     2143     2335     2019     1699     1602 
    1136      919     1312     1447     1422     1849     2324     2490 
    2451     2147     1767     1630     1507     1252     1271     1660 
    1996     1944     1653     1645     1917     1845     1448     1317 
    1432     1534     1630     1547     1570     2116     2300     1729 
    1571     1883     1694     1193     1165     1602     1863     1858 
    2010     1996     1703     1957     2381     1907     1358     1640 
    1864     1667     1561     1351     1092     1282     1776     2207 
    2384     2404     2421     2066     1393     1223     1576     1779 
    1767     1733     1669     1777     1938     1746     1680     2099 
    2192     1755     1449     1302     1235     1371     1453     1609 
    2074     2197     1871     1861     1977     1717     1502     1570 
    1678     1825     1831     1555     1501     1841     1998     1865 
    1804     1703     1428     1327     1458     1480     1460     1698 
    1976     2033     2084     2107     1856     1555     1398     1328 
    1553     1942     1887     1579     1641     1927     2112     2250 
    2330     2139     1629     1278     1398     1397     1117     1300 
    1736     1744     1811     2239     2357     2115     2015     1895 
    1549     1555     2034     1984     1274      976     1246     1578 
    1854     1819     1358     1113     1583     2250     2401     2327 
    2548     2586     2019     1449     1197      977     1057     1526 
    1638     1422     1494     1530     1250     1197     1553     2081 
    2754     3167     2799     2139     1671     1024      483      714 
    1256     1622     2016     2235     2110     2045     1996     1809 
    1777     1799     1755     1891     1896     1657     1734     1929 
    1811     1759     1802     1586     1379     1408     1485     1706 
    1962     1962     2130     2555     2377     1626     1237     1206 
    1089     1166     1536     1675     1603     1827     2157     2077 
    1799     1846     2003     1660     1155     1287     1668     1611 
    1544     1736     1776     1826     2037     1980     1894     2085 
    2011     1676     1624     1547     1212     1171     1502     1757 
    1829     1799     1819     2122     2543     2659     2363     1800 
    1256     1023      997     1015     1135     1300     1455     1713 
    2014     2200     2386     2462     1993     1404     1327     1255 
     973     1279     2214     2967     3368     3720     3843     3356 
    2424     1591     1082      576      -95     -537     -568     -614 
    -872     -816      121     1764     3439     4652     5485     6340 
    6949     6654     5625     4348     2695      541    -1759    -3485 
   -4095    -4010    -3699    -2560     -118     2883     5205     6527 
    7479     8051     7543     5923     4072     2794     1695      112 
   -1328    -2042    -2600    -3138    -3005    -2232    -1485     -976 
    -425      392     1356     2269     3136     3905     4464     4664 
    4201     3399     3028     2504     1039     -191     -540    -1665 
   -3987    -5275    -4271    -2124       31     2168     4239     5734 
    6451     6879     7393     7427     6372     4725     3144     1669 
     368     -464     -553      -76      349      576      880     1274 
    1606     1733     1629     1695     2436     3699     4887     5726 
    6033     5530     4510     3395     1954      249     -901    -1296 
   -1525    -1642    -1071      168     1383     2346     3303     3944 
    3846     3473     3353     3292     3084     2720     2158     1599 
    1290      985      351     -623    -2069    -3856    -4750    -3808 
   -1877       68     2218     4295     5158     4769     4207     3711 
    2817     1829     1332     1177      949      556       95     -334 
    -685     -797     -126     1822     4423     6041     5996     5383 
    4966     4328     3676     3528     3084     1813      680      187 
    -166     -314      288     1497     2482     2937     3476     4275 
    4518     3646     2212     1127      448     -279     -997    -1435 
   -1436     -818      230     1453     3021     4598     5097     4081 
    2504     1605     1424     1259     1165     1451     1611     1271 
     911      901     1065     1108      886      606      645      982 
    1264     1377     1536     1868     2231     2450     2411     2099 
    1657     1111      500      333     1108     2620     4004     4340 
    3593     2598     1721      996     1011     1548     1391      747 
     761     1043      726      329      504      942     1377     1953 
    2563     3100     3798     4488     4457     3453     2072      996 
     480      622     1291     1933     2201     2227     2092     1705 
    1097      560      486      924     1382     1455     1404     1572 
    1852     1993     1899     1745     1950     2650     3532     4182 
    4129     3167     1910     1138      712      174     -263     -164 
     557     1719     2745     3103     2828     2184     1507     1062 
     710      548     1077     2069     2605     2415     2039     2016 
    2488     3133     3307     2770     1995     1242      162    -1282 
   -2463    -2623    -1479      413     2139     3226     3719     3852 
    3748     3262     2278     1113      305       71      282      830 
    1686     2641     3468     3978     3762     2731     1429      203 
    -719     -872     -314      599     1938     3381     4347     4866 
    4905     4341     3608     2849     1927     1281     1139     1269 
    1539     1547     1059      731      982     1393     1722     2064 
    2232     2043     1714     1368      919      750     1395     2407 
    2934     2949     2732     2235     1657     1426     1416     1085 
     519      388      662      657      313      105      164      483 
    1159     1942     2548     3082     3419     3244     2690     2050 
    1549     1483     1799     2076     2053     1660     1005      606 
     770      938      550       78      333     1237     2176     3092 
    4071     4625     4471     3912     3111     2178     1512     1159 
     769      413      364      440      433      526      899     1398 
    1791     2038     2261     2524     2718     2755     2663     2425 
    2061     1765     1644     1522     1161      635      400      618 
     862      986     1323     1779     2119     2573     3069     3256 
    3295     3315     2998     2300     1539      985      830      974 
    1086     1117     1224     1443     1667     1723     1703     1941 
    2435     2778     2628     2143     1787     1626     1455     1333 
    1329     1343     1402     1520     1479     1165      846      953 
    1563     2373     3092     3562     3712     3349     2340     1158 
     261     -500    -1055    -1093     -784     -216      789     2043 
    3149     3800     3790     3302     2689     2116     1823     1895 
    1987     1984     2130     2351     2312     1931     1458     1156 
     992      799      670      846     1251     1576     1719     1741 
    1786     2065     2365     2239     1857     1659     1679     1863 
    2220     2583     2772     2712     2326     1780     1512     1594 
    1597     1324     1035      878      770      882     1462     2185 
    2490     2228     1737     1513     1672     1918     2099     2262 
    2382     2413     2370     2281     2173     2027     1692     1140 
     603      229       47       68      175      345      715     1173 
    1622     2312     3192     3739     3734     3379     2843     2220 
    1644     1252     1124     1132     1066      943     1012     1418 
    1987     2450     2732     2957     3165     3049     2416     1587 
     911      527      575      974     1375     1615     1794     1908 
    1915     1900     1869     1773     1632     1528     1645     1980 
    2227     2259     2288     2427     2479     2207     1606      955 
     614      712     1080     1439     1665     1964     2357     2411 
    2087     1946     2053     1971     1711     1556     1497     1406 
    1285     1256     1381     1549     1552     1198      697      530 
     746      993     1175     1393     1575     1705     1961     2392 
    2721     2705     2465     2218     2068     2153     2497     2821 
    2872     2640     2184     1617     1205      986      689      328 
     314      803     1417     1738     1803     1902     2234     2890 
    3600     3805     3364     2751     2389     2130     1638     1031 
     642      481      483      757     1186     1474     1661     1918 
    2199     2432     2601     2628     2442     2087     1653     1215 
     901      791      695      517      517      784      988      965 
     945     1123     1501     1946     2259     2344     2313     2362 
    2527     2654     2664     2613     2501     2273     1930     1464 
     796      108     -112      301     1077     2002     2803     3092 
