Origin Time       2024/06/23 22:54:00
Lat.              35.645
Long.             140.060
Depth. (km)       72
Mag.              4.1
Station Code      KNG001
Station Lat.      35.5291
Station Long.     139.7061
Station Height(m) 2
Record Time       2024/06/23 22:54:45
Sampling Freq(Hz) 100Hz
Duration Time(s)  60
Dir.              N-S
Scale Factor      7845(gal)/8223790
Max. Acc. (gal)   6.031
Last Correction   2024/06/23 22:54:45
Memo.             
[...]
   19282    19309    19337    19327    19299    19310    19340    19334 
   19317    19310    19326    19345    19318    19275    19291    19341 
   19346    19314    19288    19295    19322    19319    19299    19294 
   19306    19325    19306    19269    19292    19357    19364    19295 
   19255    19283    19311    19309    19294    19300    19352    19377 
   19334    19290    19286    19315    19332    19303    19276    19299 
   19344    19340    19287    19276    19317    19333    19311    19282 
   19279    19319    19340    19322    19315    19336    19350    19327 
   19283    19273    19306    19326    19319    19302    19298    19317 
   19326    19307    19292    19315    19337    19323    19306    19311 
   19318    19319    19313    19296    19307    19336    19329    19303 
   19294    19299    19313    19321    19306    19290    19303    19323 
   19318    19303    19310    19329    19323    19299    19302    19313 
   19295    19280    19286    19303    19329    19336    19306    19284 
   19296    19310    19311    19327    19340    19326    19305    19287 
   19286    19311    19332    19322    19299    19295    19309    19318 
   19333    19346    19330    19306    19296    19287    19292    19314 
   19317    19306    19303    19314    19327    19323    19310    19306 
   19315    19329    19322    19299    19299    19322    19330    19319 
   19311    19311    19300    19284    19286    19299    19303    19300 
   19298    19294    19299    19311    19313    19313    19315    19313 
   19314    19317    19315    19323    19332    19325    19315    19318 
   19321    19302    19282    19303    19329    19311    19275    19267 
   19294    19326    19325    19298    19288    19318    19345    19326 
   19299    19309    19322    19306    19279    19288    19337    19354 
   19319    19294    19313    19332    19318    19298    19303    19322 
   19332    19317    19284    19271    19299    19325    19300    19271 
   19283    19318    19334    19315    19299    19319    19345    19350 
   19333    19318    19326    19321    19305    19321    19345    19341 
   19311    19273    19264    19290    19317    19315    19295    19299 
   19326    19323    19291    19279    19305    19345    19350    19305 
   19276    19310    19338    19305    19265    19287    19332    19333 
   19295    19269    19290    19330    19329    19290    19279    19307 
   19327    19314    19292    19310    19349    19352    19307    19259 
   19275    19329    19326    19284    19294    19337    19352    19326 
   19290    19300    19338    19325    19282    19268    19291    19325 
   19315    19294    19313    19345    19360    19337    19279    19267 
   19327    19352    19309    19286    19319    19353    19332    19286 
   19292    19340    19357    19326    19286    19287    19318    19318 
   19296    19298    19321    19348    19338    19295    19276    19305 
   19336    19317    19279    19288    19318    19306    19276    19278 
   19310    19333    19309    19267    19280    19332    19333    19284 
   19272    19314    19341    19326    19299    19295    19321    19341 
   19307    19249    19257    19323    19349    19322    19298    19302 
   19329    19332    19288    19269    19305    19333    19315    19299 
   19323    19353    19346    19318    19305    19307    19314    19311 
   19287    19286    19325    19341    19311    19286    19291    19322 
   19341    19325    19303    19310    19333    19326    19296    19303 
   19330    19326    19309    19306    19321    19342    19337    19292 
   19265    19294    19329    19318    19291    19295    19318    19330 
   19318    19294    19292    19319    19330    19291    19267    19300 
   19329    19323    19315    19313    19310    19311    19309    19298 
   19305    19329    19325    19300    19299    19305    19300    19294 
   19284    19282    19288    19291    19288    19302    19325    19332 
   19326    19319    19318    19311    19322    19352    19353    19342 
   19354    19334    19271    19242    19294    19376    19349    19206 
   19186    19375    19475    19306    19205    19427    19592    19311 
   18943    19094    19569    19575    19120    19076    19526    19584 
   19134    19076    19548    19661    19249    19079    19340    19427 
   19147    19057    19321    19379    19186    19230    19449    19404 
   19240    19400    19557    19256    18990    19168    19375    19305 
   19251    19440    19550    19404    19278    19257    19311    19329 
   19145    19101    19454    19634    19279    19022    19317    19604 
   19473    19251    19152    19224    19418    19367    19091    19106 
   19426    19606    19377    19036    19228    19657    19456    19155 
   19433    19418    18850    18858    19512    19732    19371    19188 
   19298    19248    19086    19138    19372    19468    19417    19435 
   19352    19163    19105    19121    19364    19662    19450    19354 
   19936    19965    18897    18276    18847    19440    19144    18580 
   19029    20224    20320    19311    18993    19475    19670    19538 
   19441    19394    19284    18859    18427    18836    19666    19629 
   19082    19273    19749    19400    18716    18782    19569    20181 
   20073    19552    19124    19010    19207    19359    19055    18573 
   18647    19252    19587    19534    19660    19826    19615    19313 
   19147    18989    19025    19318    19521    19521    19449    19419 
   19415    19256    19082    19148    19155    18985    19087    19423 
   19603    19697    19730    19592    19522    19453    19020    18621 
   18755    18949    18893    19071    19449    19480    19408    19662 
   19847    19597    19205    19090    19268    19303    19163    19375 
   19764    19650    19228    19005    18886    18900    19310    19695 
   19543    19244    19265    19419    19346    18937    18565    18742 
   19368    19894    19978    19793    19830    19970    19539    18751 
   18493    18661    18759    19024    19415    19495    19468    19669 
   19839    19658    19318    19188    19256    19402    19616    19624 
   19300    19110    19388    19796    19693    18991    18532    18921 
   19496    19445    19033    18889    19016    19246    19553    19735 
   19705    19537    19211    18981    19062    19211    19288    19392 
   19434    19298    19161    19179    19210    19188    19318    19519 
   19341    18873    18828    19302    19538    19317    19260    19593 
   19866    19723    19260    18981    19163    19467    19595    19546 
   19280    18948    18909    19197    19499    19585    19419    19017 
   18639    18823    19426    19761    19888    20040    19861    19437 
   19233    19179    19093    19026    19044    19167    19195    19016 
   18999    19330    19591    19558    19425    19288    19137    18978 
   18918    19187    19704    19954    19638    19186    19121    19192 
   18887    18517    18796    19534    19884    19700    19469    19330 
   19205    19197    19377    19703    19913    19662    19205    19107 
   19279    19253    19021    18887    19016    19396    19741    19656 
   19252    19003    19103    19383    19525    19365    19225    19387 
   19465    19213    19222    19622    19579    19016    18785    19109 
   19492    19589    19434    19287    19275    19209    19122    19354 
   19870    20139    19777    19130    18921    19120    19102    18843 
   18898    19396    19768    19530    18949    18658    18900    19363 
   19614    19557    19485    19529    19369    18983    18901    19259 
   19502    19317    19102    19237    19394    19120    18906    19406 
   19955    19872    19554    19215    18991    19130    19137    18867 
   19072    19723    20054    19858    19337    18962    19228    19577 
   19326    19043    19226    19438    19399    19309    19333    19348 
   19101    18810    18924    19187    19213    19284    19503    19568 
   19604    19776    19808    19534    19094    18755    18766    19008 
   19267    19476    19376    18912    18642    18933    19364    19592 
   19940    20329    20029    19246    19030    19363    19286    18844 
   18958    19489    19489    19148    19398    19921    19747    19051 
   18767    19214    19623    19315    18931    19259    19904    19953 
   19283    18787    18947    19175    19060    18886    19064    19664 
   20007    19426    18571    18609    19465    20117    20016    19512 
   19280    19442    19350    18801    18717    19391    19766    19476 
   19110    18920    18848    18770    18797    19248    19827    19926 
   19618    19525    19684    19392    18723    18740    19538    19943 
   19479    18948    19010    19402    19511    19161    18852    19093 
   19556    19507    19109    19248    19926    20167    19688    19232 
   19234    19426    19508    19337    19018    18860    18887    18909 
   18941    19147    19449    19585    19515    19468    19552    19422 
   19005    18983    19453    19658    19422    19199    19156    19234 
   19310    19195    19057    19048    18944    18932    19213    19381 
   19348    19545    20073    20321    19816    19098    18862    18978 
   19101    19256    19423    19500    19661    19773    19357    18709 
   18566    18873    19182    19387    19395    19352    19649    19812 
   19278    18809    19033    19460    19627    19386    19032    19252 
   19743    19678    19349    19186    19086    19398    19876    19473 
   18725    18809    19338    19588    19369    18908    18979    19506 
   19472    19075    19179    19481    19584    19704    19602    19199 
   19120    19291    19134    18873    19001    19372    19570    19496 
   19395    19404    19375    19321    19273    19057    18904    19001 
   19063    19367    20036    19916    18833    18485    19400    20116 
   19699    18933    18901    19427    19645    19446    19228    19191 
   19475    19758    19427    18882    18858    19041    19159    19425 
   19587    19477    19421    19433    19386    19437    19553    19483 
   19184    18824    18827    19348    19684    19548    19514    19562 
   19381    19176    19039    19089    19400    19388    18970    18944 
   19413    19857    20013    19796    19575    19592    19179    18403 
   18368    19013    19383    19367    19360    19427    19464    19255 
   18698    18422    18889    19431    19484    19325    19252    19467 
   19947    20088    19562    19032    19117    19426    19371    19111 
   19018    19168    19422    19317    18862    18920    19467    19529 
   19303    19488    19658    19564    19768    20081    19791    19152 
   18918    19171    19354    19064    18787    19202    19873    19834 
   18991    18288    18669    19731    20094    19456    18863    18948 
   19342    19553    19325    18851    18889    19610    20136    19981 
   19708    19784    19726    19045    18292    18165    18470    18765 
   19124    19554    19704    19718    19911    19849    19237    18756 
   18979    19600    19982    19791    19197    18708    18611    18779 
   19001    19103    19095    19368    19986    20221    19861    19619 
   19566    19300    19079    19062    19044    19020    18914    18886 
   19381    19966    19934    19743    19823    19545    18850    18571 
   18813    19080    19279    19533    19828    19799    19187    18666 
   18881    19272    19268    19190    19252    19375    19683    19874 
   19508    19171    19408    19496    18985    18574    18674    18862 
   18928    19288    19950    20104    19580    19290    19583    19681 
   19133    18566    18706    19338    19602    19280    19207    19735 
   20016    19577    19084    19074    19288    19452    19657    19917 
   19916    19454    18927    18733    18635    18543    18905    19592 
   19939    19917    19874    19772    19541    19334    19164    18937 
   18767    18997    19620    19857    19315    18906    19136    19005 
   17894    16773    16617    17080    17664    18690    20221    21574 
   22329    22632    22666    22474    21929    20784    19357    18473 
   18233    18011    17586    17258    17070    16575    15877    15963 
   17047    18293    19549    21321    23314    24467    24086    22334 
   20167    18615    17525    16190    15083    15165    16382    18013 
   19552    20892    22029    22844    23220    23102    22491    21478 
   20383    19765    19824    20159    20607    21316    21641    20393 
   17655    15082    13806    13487    13863    15267    17497    19722 
   21139    21420    20992    20187    18596    16607    15803    16675 
   18439    20580    22527    23562    23564    22527    20710    18945 
   17494    16139    15610    16976    19797    22226    22933    22212 
   20947    19422    17809    16757    16694    17320    18177    19107 
   20047    20938    21654    21834    21130    19607    18014    17339 
   17729    18443    18812    18638    18214    18149    18384    18018 
   16889    16051    16393    17948    20000    21747    23101    24071 
   24236    23600    22500    20745    18442    16930    17234    18481 
   19143    18990    18820    18871    18557    17649    16995    17582 
   19070    20429    21666    23110    23859    22960    21027    19124 
   17531    16224    15415    15581    16906    18639    19813    20143 
   19988    19942    20005    19452    18233    17413    17837    19300 
   20849    21570    21344    20599    19573    18538    17988    17903 
   17884    18243    19473    20845    21000    19747    18179    17193 
   16834    16973    17712    18958    20424    22237    24351    25633 
   25057    23025    20630    18438    16298    14270    13212    13756 
   15399    17343    19255    20736    21197    20690    20078    19970 
   19923    19329    18623    18744    19846    21051    21398    21045 
   20845    20857    20474    19619    18835    18477    18345    18153 
   17942    17545    16555    15547    15839    17637    19912    21813 
   23257    24351    24505    22989    20491    18617    17851    17626 
   17614    17533    17145    17041    17778    18732    19074    18929 
   18944    19392    19869    19888    19658    19800    20476    21130 
   21147    20695    20290    19907    19241    18252    17262    16956 
   17675    18787    19481    19576    19273    18929    18897    18998 
   18685    18044    17818    18315    19026    19333    19345    19781 
   20794    21597    21595    21069    20478    20119    20258    20615 
   20455    19672    18920    18574    18219    17324    16301    16366 
   17926    19827    20893    21209    21381    21618    21519    20467 
   18705    17285    16769    16972    17695    18808    19970    20880 
   21475    21708    21294    20185    19057    18553    18454    18189 
   17555    16910    16831    17352    17910    18261    18742    19619 
   20741    21708    22291    22572    22526    21906    20559    18662 
   16961    16370    16807    17397    17826    18218    18512    18770 
   18917    18719    18527    18790    19369    20028    20455    20235 
   19646    19495    19953    20521    20858    20984    21126    21406 
   21343    20341    18716    17319    16519    16210    16252    16634 
   17539    19078    20741    21729    21860    21454    20727    19892 
   19326    19211    19384    19591    19672    19607    19434    19219 
   19116    19130    19001    18470    17637    17104    17412    18341 
   19207    19643    19666    19475    19283    19086    18841    18673 
   18700    19006    19700    20629    21340    21651    21841    22106 
   22175    21598    20421    19215    18289    17514    16929    16699 
   16777    17064    17605    18281    18792    19099    19423    19859 
   20289    20514    20520    20493    20486    20459    20432    20200 
   19395    18152    17072    16572    16779    17655    18846    19917 
   20646    20898    20661    20050    19245    18667    18651    18949 
   19165    19386    19904    20715    21328    21107    20009    18600 
   17477    16943    16893    17037    17338    17967    18847    19523 
   19674    19585    19892    20773    21617    21705    21099    20525 
   20355    20277    20020    19688    19414    19242    19133    18885 
   18427    18165    18438    18963    19408    19743    19963    20121 
   20120    19666    19009    18700    18797    19110    19519    19861 
   20040    19981    19541    18705    17730    17131    17331    18107 
   18716    18778    18642    18738    19045    19284    19333    19384 
   19689    20217    20717    20833    20321    19502    18914    18457 
   17921    17716    18079    18644    19133    19525    19700    19539 
   19213    19211    19866    20822    21438    21590    21559    21431 
   21038    20382    19750    19211    18509    17632    16973    16881 
   17344    18107    18868    19299    19321    19238    19314    19498 
   19591    19607    19799    20078    20128    19998    19827    19566 
   19337    19361    19623    19884    19793    19300    18864    18844 
   18993    18952    18844    18956    19136    19070    18866    18858 
   19118    19413    19518    19535    19701    20017    20248    20185 
   19780    19105    18220    17258    16538    16407    16976    17995 
   18962    19561    19919    20164    20162    20004    20108    20542 
   20952    21058    20914    20803    20814    20622    20023    19384 
   19126    19152    19068    18717    18365    18268    18241    18007 
   17606    17274    17275    17728    18455    19276    20170    21026 
   21583    21591    20980    20089    19392    18966    18690    18657 
   18913    19269    19603    19970    20355    20555    20321    19712 
   19133    18819    18708    18782    19063    19479    19861    20110 
   20223    20081    19618    19103    18821    18628    18233    17741 
   17651    18264    19217    19804    19641    18944    18334    18242 
   18561    18986    19365    19801    20474    21155    21261    20467 
   19111    18021    17801    18280    18910    19449    19892    20209 
   20251    19766    18756    17740    17298    17464    17844    18262 
   18819    19492    20054    20283    20227    20078    19993    20040 
   20059    19866    19623    19587    19714    19726    19426    18881 
   18403    18292    18623    19313    20163    20822    21014    20729 
   20148    19523    19064    18843    18778    18740    18781    19203 
   20052    20817    21138    21105    20645    19623    18331    17192 
   16465    16360    16951    18092    19421    20436    20926    21143 
   21270    21170    20727    20073    19386    18665    17882    17154 
   16671    16564    16850    17466    18308    19102    19680    20223 
   20714    20834    20578    20181    19656    18972    18387    18219 
   18401    18670    18982    19413    19873    20128    20079    19899 
   19854    19981    20012    19824    19666    19696    19808    19917 
   20077    20333    20564    20520    20065    19318    18576    18184 
   18239    18499    18781    19137    19600    20031    20209    20032 
   19619    19182    18894    18819    18706    18288    17798    17639 
   17797    18042    18204    18247    18331    18605    19130    19973 
   20850    21149    20688    19913    19271    18924    18882    19074 
   19363    19635    19791    19716    19444    19130    18909    18874 
   18948    19070    19398    19921    20320    20429    20343    20125 
