Origin Time       2024/06/23 22:54:00
Lat.              35.645
Long.             140.060
Depth. (km)       72
Mag.              4.1
Station Code      KNG001
Station Lat.      35.5291
Station Long.     139.7061
Station Height(m) 2
Record Time       2024/06/23 22:54:45
Sampling Freq(Hz) 100Hz
Duration Time(s)  60
Dir.              U-D
Scale Factor      7845(gal)/8223790
Max. Acc. (gal)   7.410
Last Correction   2024/06/23 22:54:45
Memo.             
[...]
    8938     8920     8919     8941     8957     8961     8954     8941 
    8931     8919     8903     8900     8922     8950     8958     8945 
    8931     8930     8928     8922     8924     8946     8959     8942 
    8920     8918     8922     8923     8926     8918     8918     8942 
    8959     8937     8903     8893     8904     8919     8935     8951 
    8965     8962     8939     8916     8922     8954     8968     8946 
    8918     8910     8916     8915     8919     8937     8941     8920 
    8896     8900     8935     8961     8949     8920     8916     8934 
    8943     8930     8903     8892     8916     8945     8945     8941 
    8964     8984     8947     8895     8893     8920     8937     8939 
    8932     8946     8977     8955     8885     8857     8897     8941 
    8945     8939     8947     8959     8957     8924     8899     8920 
    8946     8935     8916     8918     8942     8959     8942     8915 
    8910     8918     8915     8900     8903     8935     8954     8932 
    8920     8938     8954     8962     8958     8946     8949     8949 
    8918     8884     8897     8945     8969     8955     8926     8914 
    8927     8919     8887     8883     8923     8970     8973     8943 
    8930     8934     8930     8899     8869     8905     8977     8995 
    8953     8924     8954     8989     8968     8912     8885     8901 
    8937     8941     8916     8927     8955     8937     8891     8878 
    8905     8930     8934     8926     8924     8953     8986     8981 
    8953     8942     8935     8912     8901     8920     8950     8955 
    8923     8900     8926     8958     8954     8922     8897     8897 
    8908     8915     8926     8946     8974     8976     8930     8891 
    8907     8943     8947     8931     8928     8942     8954     8953 
    8945     8935     8931     8932     8924     8910     8920     8947 
    8951     8932     8916     8918     8926     8926     8922     8935 
    8958     8968     8955     8935     8932     8937     8922     8899 
    8901     8927     8957     8961     8928     8911     8920     8926 
    8934     8950     8949     8942     8938     8937     8939     8942 
    8938     8935     8931     8924     8923     8924     8915     8901 
    8910     8934     8943     8932     8924     8922     8920     8934 
    8950     8945     8932     8930     8935     8946     8959     8955 
    8928     8911     8912     8914     8918     8939     8954     8938 
    8918     8918     8937     8957     8965     8959     8946     8930 
    8918     8907     8904     8926     8942     8926     8910     8919 
    8949     8978     8972     8928     8899     8903     8916     8926 
    8945     8966     8972     8942     8905     8905     8935     8947 
    8934     8920     8926     8938     8932     8916     8919     8943 
    8958     8949     8930     8931     8950     8957     8932     8899 
    8887     8891     8888     8891     8928     8981     8996     8964 
    8915     8901     8927     8947     8947     8947     8954     8949 
    8918     8891     8900     8937     8951     8928     8907     8923 
    8959     8965     8937     8918     8920     8918     8903     8912 
    8951     8981     8974     8939     8904     8897     8910     8920 
    8922     8924     8947     8972     8955     8912     8896     8915 
    8928     8919     8919     8953     8984     8973     8932     8910 
    8931     8955     8935     8904     8911     8932     8943     8934 
    8926     8942     8959     8949     8915     8895     8920     8964 
    8958     8914     8891     8903     8920     8920     8916     8937 
    8972     8965     8916     8891     8915     8943     8937     8924 
    8941     8962     8958     8932     8911     8923     8949     8935 
    8899     8899     8932     8953     8935     8910     8922     8962 
    8980     8950     8911     8911     8930     8919     8891     8901 
    8946     8962     8934     8903     8914     8946     8946     8916 
    8915     8951     8976     8950     8911     8912     8945     8966 
    8949     8908     8907     8938     8938     8905     8899     8928 
    8951     8937     8911     8922     8950     8949     8916     8907 
    8938     8962     8950     8923     8912     8928     8951     8938 
    8903     8912     8955     8958     8930     8924     8934     8924 
    8912     8911     8918     8938     8962     8958     8922     8901 
    8919     8937     8934     8931     8946     8959     8943     8915 
    8920     8953     8959     8935     8920     8931     8943     8932 
    8919     8918     8916     8914     8901     8891     8908     8943 
    8951     8919     8881     8870     8874     8877     8900     8980 
    9100     9159     9101     8986     8872     8785     8760     8768 
    8761     8762     8792     8797     8781     8775     8839     9139 
    9601     9661     9038     8390     8437     8831     8780     8438 
    8571     8970     8648     7886     8326    10039    10905    10161 
    9572     9784     9202     7750     7608     9112    10017     9486 
    9086     9316     8823     7739     7824     8905     9146     8611 
    8958     9926     9755     8729     8325     8239     7928     8248 
    9324     9967     9972     9872     9000     7325     6767     7805 
    8930     9850    10762    10592     9120     8036     8302     9000 
    9275     9169     8947     8892     8788     8217     7882     8653 
    9576     9153     8388     9296    10426     9344     8144     9223 
    9923     8262     7176     8475     9591     9001     8815     9744 
    9618     8564     8586     9107     9069     9099     9001     8297 
    8168     9151     9645     8950     8375     8340     8321     8702 
    9545     9976     9784     9580     9657     9373     8205     7342 
    7808     8382     8309     8604     9417     9892     9698     9132 
    8887     9126     9208     9028     9204     9648     9184     7676 
    7138     8286     9058     8760     8911     9618     9724     9374 
    9343     9369     9032     8783     8704     8370     8421     9400 
   10019     9302     8457     8542     8469     7620     7808     9564 
   10382     9474     8961     9250     8843     8039     8345     9333 
    9397     8816     8861     9180     9136     9090     8966     8642 
    8680     8953     8935     9039     9436     9302     8638     8490 
    8753     8587     8534     9181     9501     9078     8891     9063 
    9109     9208     9319     9089     8702     8402     8159     8197 
    8827     9589     9521     8830     8706     9194     9246     8654 
    8253     8560     9143     9402     9479     9671     9637     9240 
    8866     8422     7848     7917     8668     8923     8537     8573 
    8981     8962     9028     9830    10390     9926     9205     8733 
    8214     7971     8426     8908     8806     8654     8895     9100 
    8947     8691     8795     9224     9346     9147     9209     9281 
    8957     8703     8734     8673     8691     9112     9350     8968 
    8673     8912     9190     9175     8895     8392     8128     8649 
    9459     9532     9022     8776     8793     8881     9215     9456 
    9273     8962     8577     8082     8070     8761     9305     9281 
    9289     9328     8854     8372     8603     9162     9420     9429 
    9518     9562     9047     8085     7728     8476     9292     9335 
    9278     9385     8830     8073     8403     9267     9320     8808 
    8779     9243     9402     9148     9046     9003     8641     8359 
    8725     9408     9532     9019     8603     8361     7994     8031 
    8706     9293     9571     9683     9325     8835     8958     9177 
    8820     8779     9613     9995     9202     8471     8422     8282 
    7902     7989     8754     9512     9558     9144     8912     8896 
    8862     8784     8789     8996     9302     9466     9267     8742 
    8283     8141     8295     8644     8908     9159     9814    10292 
    9535     8249     8093     8857     9207     9157     9281     9221 
    8753     8506     8839     9312     9356     8861     8287     8349 
    8991     9146     8654     8758     9444     9328     8571     8441 
    8904     9136     9123     9310     9521     9362     9012     8739 
    8564     8468     8298     8055     8209     9031     9973    10146 
    9417     8739     8791     8872     8363     8260     9262     9963 
    9393     8595     8178     7979     8394     9124     9362     9383 
    9437     9128     8727     8749     8835     8598     8561     9046 
    9342     9171     9235     9482     9193     8629     8259     7886 
    7908     8725     9339     9202     9219     9494     9070     8295 
    8644    10019    10756    10257     9379     8658     7896     7152 
    7007     7766     8873     9547     9786     9801     9194     8355 
    8553     9304     9181     8876     9463     9834     9074     8492 
    8915     9127     8762     8950     9285     8596     7820     8199 
    8958     9059     9001     9455     9844     9634     9236     8865 
    8546     8559     8927     9452     9593     9092     8939     9317 
    8847     7794     7828     8695     8970     8773     9188    10026 
   10287     9819     8851     7831     7757     8428     8599     8456 
    8810     9063     8442     7777     8218     9166     9535     9578 
    9803     9937     9371     8214     7884     8873     9396     8748 
    8641     9528     9715     8799     8208     8478     8972     9483 
    9915     9845     9402     8922     8284     7848     8113     8418 
    8266     8518     9479    10098    10012     9883     9543     8640 
    8187     8640     8687     7960     7878     8927     9748     9481 
    8982     8919     8876     8795     8824     8692     8587     8743 
    8694     8573     9066     9684     9607     9283     9271     9120 
    8711     8761     9117     8866     8472     8796     9076     8780 
    8791     9161     9140     9028     9035     8494     7885     8379 
    9362     9799    10031    10011     9217     8328     7900     7484 
    7415     8395     9663     9949     9310     9043     9744    10149 
    9378     8467     8129     8033     8496     9622    10058     9262 
    8652     8835     8610     7566     7186     8419     9879    10091 
    9590     9227     8988     8876     8915     8837     8565     8546 
    9031     9509     9742    10137    10196     8973     7380     7103 
    7835     8430     9078     9860     9855     9327     9301     9175 
    8557     8745     9545     9200     8071     7801     8110     8029 
    8409     9840    10446     9547     9315     9915     9340     8183 
    8179     8579     8326     8236     8976     9703     9552     8984 
    8726     8579     8399     8630     9082     9131     8874     8721 
    8752     8922     9144     9408     9628     9504     9227     9378 
    9553     8856     7886     7877     8546     9174     9732     9799 
    8978     7896     7445     8071     9107     9128     8513     8954 
    9898     9633     8891     9243     9973     9598     8357     7433 
    7427     8133     8671     8808     9539    10644    10519     9406 
    8810     8622     8372     8704     9344     8988     8101     8189 
    9022     9652     9798     9229     8472     8475     8712     8441 
    8384     8941     9281     9166     9169     9076     8437     8209 
    9051     9709     9490     9343     9624     9815     9670     9026 
    8001     7547     8159     8796     8727     8854     9564     9559 
    8484     7807     8203     8977     9576     9745     9394     9005 
    9072     9167     8722     8473     9097     9373     8586     8222 
    8854     9034     8607     8941     9695     9508     8816     8600 
    8580     8429     8505     9080     9768     9741     8939     8410 
    8567     8611     8390     8734     9485     9666     9300     8789 
    8085     7607     7840     8517     9308     9961    10211    10115 
    9668     8835     8017     7624     7663     8044     8864     9977 
   10584    10297     9822     9585     9107     8305     7877     8028 
    8121     7981     8118     8444     8588     9208    10586    11079 
    9828     8730     8996     9259     8942     9189     9720     9066 
    7782     7391     7454     7354     8129     9775    10557    10099 
    9576     9405     9104     8445     7852     8000     8862     9431 
    9140     8754     8976     9294     9065     8619     8503     8611 
    8777     9213     9799     9860     9180     8452     8240     8322 
    8442     8665     8889     8950     9032     9336     9628     9639 
    9570     9594     9352     8707     8306     8407     8322     8050 
    8569     9655     9738     8765     8480     9197     9524     9209 
    9059     8985     8544     8001     7753     7996     8955    10343 
   11134    10762     9864     9201     8453     7311     6882     7780 
    8468     7866     7195     7678     8691     9285     9668    10174 
   10644    11110    11403    11110    10508     9977     9302     8289 
    7308     6956     6949     6478     6007     6558     7699     8413 
    8838     9551    10211    10323    10339    10535    10218     9234 
    8510     8575     9244    10276    11092    11106    10740    10396 
    9342     7403     5760     5049     5005     5655     6883     8235 
    9678    11053    11677    11446    10901    10284     9694     9464 
    9705    10146    10539    10484     9423     7516     5591     4052 
    3153     3450     4841     6763     9436    12833    15614    16699 
   16264    14708    12324     9792     7682     6234     5880     6555 
    7076     6538     5363     4494     4301     4575     5324     6874 
    9093    11348    13181    14349    14661    14145    12831    10786 
    8648     7063     5918     5300     5853     7156     7821     7894 
    8629    10027    11114    11716    11900    11296    10265     9668 
    9375     8961     8577     7935     6559     5112     4506     4617 
    5198     6490     8235     9810    11326    12985    13833    13097 
   11917    11497    11037     9610     8141     7689     7765     7565 
    7257     7156     6883     6311     6212     7191     8901    10628 
   11886    12349    11804    10453     8753     6956     5580     5601 
    6993     8498     9385     9776     9796     9684     9872    10331 
   10443     9896     9211     8806     8723     9242    10062    10120 
    9315     8498     7986     7604     7402     7431     7437     7209 
    6910     7038     8108    10022    11889    12892    12850    11874 
   10291     8806     7977     7599     7163     6697     6786     7700 
    8818     9481     9675     9290     8349     7857     8356     8887 
    9130     9850    10534     9979     8615     7614     7393     8183 
    9848    11254    11573    11171    10312     8818     7420     7175 
    7753     8316     8762     8949     8627     8286     8378     8680 
    8991     9127     8829     8513     8721     9036     8997     8953 
    9062     8969     8876     9382    10288    10782    10439     9435 
    8402     7942     7858     7611     7287     7237     7422     7655 
    7924     8322     8849     9454    10318    11593    12802    13016 
   11956    10335     8846     7631     6820     6550     6426     6066 
    5975     6728     7798     8436     8997     9944    10542    10157 
    9633     9842    10281    10366    10362    10318     9814     9051 
    8644     8419     7908     7605     8257     9475    10273    10274 
    9790     9213     8714     8374     8137     7704     7258     7464 
    8201     8797     9072     8930     8283     7754     8073     9224 
   10623    11564    11796    11437    10408     8992     7978     7483 
    7044     6643     6421     6390     6816     7920     9387    10639 
   11389    11553    11001    10026     9275     8897     8793     8992 
    9143     8946     8750     8725     8645     8711     9251     9825 
    9751     9082     8206     7246     6443     6231     6718     7689 
    8769     9578    10075    10454    10733    10782    10588    10138 
    9319     8453     8232     8681     9306     9921    10287     9813 
    8314     6589     5863     6531     7878     9181    10088    10251 
    9695     8922     8340     8198     8568     9285    10177    10916 
   11060    10714    10357     9915     8988     7859     7126     6621 
    6080     6088     7007     8131     8834     9221     9344     9202 
    9344    10149    10980    11097    10705    10272     9714     8955 
    8305     7944     7866     8093     8513     8946     9234     9126 
    8619     8127     7904     7952     8428     9360    10257    10632 
   10544    10210     9506     8337     7153     6600     6822     7458 
    8112     8654     9229     9903    10500    10866    10887    10449 
    9738     9120     8757     8614     8499     8309     8233     8333 
    8382     8341     8344     8209     7843     7736     8151     8623 
    8833     8984     9231     9513     9775    10010    10195    10080 
    9470     8819     8660     8856     9200     9786    10469    10759 
   10362     9481     8395     7184     6138     5730     6139     7175 
    8333     9121     9551     9828     9958    10054    10273    10513 
   10575    10513    10378     9891     9151     8742     8487     7792 
    7025     6772     6829     7029     7616     8401     8788     8695 
    8610     8922     9709    10721    11406    11537    11396    10974 
   10044     8985     8263     7646     7024     6804     7060     7473 
    7884     8322     8761     9005     8957     9003     9558    10268 
   10489    10299    10061     9644     8919     8125     7470     7110 
    7202     7765     8681     9717    10581    11057    11032    10509 
    9666     8874     8453     8286     8127     7946     7635     7075 
    6598     6727     7541     8642     9626    10400    11025    11487 
   11657    11375    10760    10116     9350     8349     7533     7138 
    6909     6898     7322     7803     7947     8066     8510     9159 
    9949    10835    11304    10910     9877     8764     8033     7950 
    8343     8730     8969     9256     9526     9605     9603     9429 
    8781     7925     7433     7443     7875     8581     9153     9265 
    8973     8527     8244     8330     8679     9070     9406     9730 
   10058    10212     9999     9512     8993     8530     8154     8104 
    8590     9332     9922    10230    10044     9219     8279     7831 
    7684     7450     7321     7499     7827     8347     9255    10295 
   10920    10920    10401     9583     8905     8802     9142     9456 
    9562     9420     8892     8147     7696     7751     8006     8147 
    8294     8631     8924     8986     9063     9282     9456     9563 
    9632     9387     8810     8465     8696     9209     9687     9926 
    9652     9053     8799     8841     8438     7680     7349     7510 
    7728     8141     9015     9910    10162     9724     9180     9012 
    9162     9360     9541     9757     9907     9790     9401     8896 
    8321     7819     7801     8324     8762     8745     8711     8893 
    8814     8402     8286     8544     8650     8591     8710     8928 
    9007     9078     9427     9992    10390    10300     9744     8989 
    8241     7665     7492     7770     8280     8862     9491     9996 
