Origin Time       2024/06/23 22:54:00
Lat.              35.645
Long.             140.060
Depth. (km)       72
Mag.              4.1
Station Code      KNG004
Station Lat.      35.1442
Station Long.     139.6223
Station Height(m) 31
Record Time       2024/06/23 22:54:50
Sampling Freq(Hz) 100Hz
Duration Time(s)  60
Dir.              U-D
Scale Factor      7845(gal)/8223790
Max. Acc. (gal)   1.195
Last Correction   2024/06/23 22:54:50
Memo.             
[...]
    7825     7824     7827     7824     7821     7824     7824     7824 
    7830     7825     7816     7820     7824     7824     7832     7831 
    7823     7821     7821     7820     7823     7823     7824     7825 
    7821     7821     7825     7824     7824     7824     7821     7827 
    7830     7821     7817     7823     7827     7830     7823     7820 
    7830     7828     7816     7817     7823     7823     7823     7825 
    7825     7824     7828     7832     7821     7813     7819     7823 
    7823     7823     7824     7827     7831     7827     7823     7827 
    7831     7825     7819     7819     7823     7821     7820     7825 
    7827     7820     7823     7831     7827     7821     7823     7825 
    7824     7821     7823     7824     7823     7824     7830     7827 
    7823     7823     7828     7828     7820     7815     7817     7823 
    7819     7824     7832     7830     7827     7827     7821     7820 
    7823     7820     7823     7823     7817     7827     7838     7830 
    7823     7824     7823     7823     7828     7828     7824     7819 
    7820     7828     7830     7825     7830     7831     7824     7820 
    7823     7827     7827     7824     7825     7825     7821     7819 
    7820     7827     7832     7828     7823     7827     7828     7823 
    7819     7820     7819     7819     7827     7831     7827     7824 
    7825     7827     7828     7827     7824     7820     7821     7816 
    7813     7824     7831     7824     7825     7830     7827     7828 
    7827     7819     7816     7820     7823     7825     7830     7828 
    7823     7824     7824     7820     7820     7824     7824     7830 
    7831     7824     7821     7821     7819     7821     7824     7825 
    7827     7825     7825     7828     7824     7823     7827     7824 
    7815     7819     7823     7816     7815     7817     7812     7808 
    7815     7819     7815     7812     7809     7808     7812     7817 
    7816     7813     7815     7824     7835     7843     7848     7854 
    7851     7835     7816     7797     7776     7754     7734     7730 
    7751     7782     7809     7823     7828     7838     7848     7851 
    7852     7847     7824     7785     7746     7731     7750     7770 
    7788     7832     7901     7966     8031     8094     8135     8135 
    8086     8029     8031     8085     8102     8014     7862     7734 
    7645     7569     7547     7611     7711     7769     7743     7676 
    7649     7627     7514     7369     7385     7614     7870     7997 
    8047     8089     8075     7979     7871     7855     7948     8017 
    7973     7904     7867     7788     7638     7526     7546     7624 
    7705     7825     7951     8090     8245     8224     7946     7657 
    7581     7570     7427     7356     7591     7971     8182     8112 
    8006     8021     7986     7832     7647     7566     7701     7901 
    8016     8113     8095     7807     7447     7353     7595     7932 
    8029     7888     7847     7979     8012     7886     7769     7717 
    7723     7773     7854     7951     7940     7731     7537     7524 
    7601     7762     8005     8141     8127     8060     7959     7859 
    7792     7700     7553     7400     7381     7597     7889     8100 
    8225     8240     8164     8121     8141     8079     7804     7465 
    7311     7404     7622     7727     7626     7510     7553     7781 
    8068     8222     8249     8212     8110     8021     7870     7499 
    7144     7146     7493     7917     8112     8073     8052     8056 
    8000     7911     7727     7554     7659     7904     7933     7771 
    7695     7821     7982     7959     7846     7874     7935     7793 
    7562     7462     7523     7758     8117     8384     8398     8152 
    7782     7518     7427     7479     7641     7770     7817     7928 
    8074     8044     7834     7649     7599     7615     7670     7786 
    7909     7993     8098     8172     8032     7723     7511     7528 
    7723     7906     7927     7890     7963     8058     8027     7855 
    7618     7458     7411     7429     7634     8050     8371     8370 
    8122     7831     7647     7578     7593     7742     7947     8012 
    7959     7896     7809     7736     7736     7785     7835     7877 
    7919     7909     7836     7746     7630     7581     7711     7892 
    7969     7959     7892     7763     7634     7573     7636     7861 
    8131     8283     8291     8129     7807     7522     7400     7360 
    7365     7533     7859     8106     8097     7993     8062     8162 
    7990     7690     7539     7528     7645     7908     8132     8136 
    7966     7750     7604     7573     7574     7565     7662     7863 
    8035     8189     8311     8252     8016     7711     7442     7329 
    7379     7515     7673     7808     7990     8235     8357     8244 
    8024     7886     7831     7781     7762     7715     7508     7223 
    7119     7354     7755     8054     8264     8403     8305     8001 
    7788     7815     7866     7751     7635     7659     7678     7605 
    7554     7627     7797     7966     8112     8237     8262     8174 
    8048     7884     7670     7504     7437     7420     7410     7434 
    7628     8021     8361     8403     8195     7974     7857     7763 
    7639     7542     7531     7645     7885     8094     8041     7788 
    7646     7703     7771     7750     7736     7838     7986     8044 
    7994     7909     7819     7719     7614     7504     7462     7585 
    7757     7838     7944     8140     8272     8232     8050     7812 
    7565     7398     7453     7688     7894     7970     8004     8074 
    8048     7858     7766     7929     8078     8004     7871     7846 
    7836     7689     7412     7186     7167     7380     7817     8344 
    8691     8753     8553     8098     7545     7065     6772     6898 
    7423     7939     8206     8266     8186     8090     8033     7935 
    7786     7699     7803     8073     8228     8063     7713     7402 
    7241     7281     7454     7650     7940     8376     8692     8622 
    8252     7842     7588     7512     7461     7352     7298     7408 
    7645     7888     8031     8000     7877     7838     7820     7689 
    7607     7815     8259     8581     8441     7946     7537     7395 
    7326     7222     7249     7550     7977     8256     8325     8276 
    8168     8037     7893     7708     7591     7646     7777     7797 
    7692     7704     7916     8060     7989     7843     7816     7933 
    7944     7715     7508     7523     7635     7727     7846     7971 
    7983     7919     7901     7929     7952     7916     7803     7650 
    7508     7458     7557     7732     7929     8139     8253     8179 
    8023     7940     7906     7820     7681     7616     7730     7874 
    7838     7670     7541     7508     7537     7585     7684     7816 
    7958     8197     8465     8499     8240     7871     7603     7558 
    7663     7808     7948     7993     7865     7632     7404     7242 
    7263     7546     7923     8202     8376     8432     8355     8141 
    7696     7184     7049     7361     7734     7916     8001     8077 
    8073     7981     7927     7969     7958     7735     7484     7518 
    7763     7932     7973     8001     7989     7820     7603     7572 
    7723     7844     7842     7827     7843     7765     7626     7634 
    7804     7958     8035     8109     8127     7996     7827     7736 
    7672     7608     7661     7884     8147     8243     8097     7873 
    7709     7503     7246     7182     7411     7781     8106     8262 
    8229     8086     7885     7709     7646     7616     7599     7724 
    8031     8355     8415     8071     7593     7396     7542     7751 
    7821     7823     7836     7784     7689     7747     7969     8089 
    7986     7866     7846     7797     7708     7715     7840     7940 
    7847     7653     7645     7847     8004     7955     7780     7657 
    7669     7776     7901     7967     7923     7784     7634     7588 
    7690     7900     8139     8275     8220     8031     7780     7573 
    7501     7466     7406     7435     7589     7782     7970     8217 
    8527     8683     8471     7959     7425     7087     6979     7038 
    7225     7483     7767     8104     8442     8588     8473     8247 
    8037     7782     7384     7072     7195     7632     7879     7782 
    7712     7859     7983     7996     8071     8235     8266     8036 
    7758     7651     7639     7587     7585     7754     7955     7986 
    7890     7855     7932     7952     7797     7641     7678     7797 
    7770     7611     7518     7539     7562     7593     7757     8033 
    8226     8228     8156     8141     8129     8077     8032     7993 
    7943     7909     7909     7855     7619     7377     7485     7824 
    7952     7781     7650     7778     7996     8109     8133     8058 
    7790     7415     7221     7292     7419     7508     7677     7986 
    8279     8361     8307     8270     8102     7681     7339     7385 
    7584     7632     7612     7732     7963     8060     7939     7796 
    7870     8167     8343     8102     7673     7435     7408     7387 
    7362     7554     7979     8328     8333     8059     7796     7739 
    7847     7982     8019     7896     7720     7645     7595     7476 
    7385     7454     7716     8008     8129     8112     8027     7912 
    7904     8001     7979     7780     7655     7728     7754     7600 
    7491     7651     7954     8051     7950     7954     8020     7974 
    7901     7859     7786     7700     7686     7715     7666     7645 
    7857     8143     8205     8091     8021     8050     8012     7820 
    7645     7539     7406     7326     7387     7522     7700     7925 
    8141     8197     8075     8059     8263     8367     8160     7827 
    7573     7437     7385     7391     7457     7595     7742     7848 
    7950     8060     8148     8179     8202     8257     8216     7932 
    7477     7128     7090     7226     7338     7543     7894     8131 
    8135     8121     8280     8465     8433     8193     7843     7462 
    7269     7330     7429     7479     7614     7897     8162     8217 
    8114     8021     7959     7851     7753     7762     7728     7561 
    7483     7542     7549     7481     7487     7726     8110     8283 
    8164     8083     8236     8414     8320     7939     7501     7214 
    7149     7276     7510     7766     8005     8197     8293     8332 
    8344     8182     7809     7454     7348     7527     7739     7712 
    7611     7705     7859     7866     7831     7917     8005     7908 
    7788     7854     7965     7901     7717     7638     7700     7717 
    7669     7753     8000     8195     8193     8058     7900     7743 
    7568     7447     7531     7757     7939     8079     8132     7925 
    7618     7557     7665     7615     7487     7555     7794     8051 
    8239     8255     8063     7762     7551     7569     7709     7808 
    7861     7936     8028     8058     7967     7812     7727     7771 
    7844     7786     7663     7684     7786     7763     7680     7701 
    7789     7869     7987     8187     8374     8324     7973     7569 
    7280     7098     7102     7337     7715     8122     8392     8456 
    8395     8233     8001     7792     7643     7564     7576     7642 
    7666     7638     7636     7672     7688     7703     7813     8059 
    8299     8336     8155     7909     7708     7542     7385     7306 
    7350     7489     7744     8105     8438     8660     8722     8552 
    8159     7665     7283     7160     7226     7371     7531     7631 
    7690     7821     8008     8085     8041     8052     8152     8198 
    8114     7927     7662     7393     7236     7219     7298     7452 
    7665     7871     7992     8039     8116     8243     8324     8317 
    8248     8067     7786     7603     7578     7560     7543     7582 
    7693     7919     8059     7948     7825     7859     7931     7987 
    8047     8125     8221     8147     7759     7323     7138     7191 
    7418     7724     7896     7901     7865     7863     7942     8044 
    8100     8131     8062     7817     7484     7173     7007     7071 
    7311     7663     8033     8291     8419     8440     8355     8202 
    8059     7992     7977     7969     7959     7886     7730     7620 
    7665     7801     7870     7815     7777     7874     7990     7946 
    7739     7520     7427     7395     7285     7234     7425     7703 
    7878     8025     8220     8305     8178     8019     7936     7800 
    7615     7591     7823     8154     8282     8141     7917     7723 
    7578     7569     7728     7929     8012     7932     7751     7585 
    7573     7715     7843     7838     7766     7774     7858     7861 
    7761     7727     7865     8073     8168     8071     7866     7693 
    7622     7628     7616     7561     7619     7798     7848     7732 
    7720     7909     8129     8253     8322     8382     8386     8249 
    7965     7615     7337     7287     7500     7788     7939     7859 
    7535     7129     6948     7180     7692     8202     8550     8654 
    8463     8073     7753     7681     7755     7767     7686     7634 
    7653     7670     7674     7753     7925     8079     8139     8148 
    8127     8044     7886     7662     7416     7219     7137     7257 
    7568     7865     8033     8172     8329     8428     8440     8392 
    8294     8104     7709     7136     6682     6571     6801     7312 
    7894     8275     8433     8529     8679     8802     8730     8488 
    8218     7960     7703     7454     7227     7024     6924     7060 
    7379     7670     7862     7987     8059     8083     8044     7925 
    7782     7713     7749     7827     7885     7888     7834     7758 
    7730     7808     7952     8051     8082     8071     7993     7842 
    7645     7464     7396     7446     7474     7399     7377     7576 
    7931     8313     8635     8742     8506     8008     7464     7056 
    6894     6998     7314     7751     8149     8311     8206     7983 
    7916     8158     8460     8499     8240     7808     7375     7134 
    7222     7597     8010     8279     8464     8595     8534     8209 
    7761     7408     7261     7303     7445     7558     7574     7547 
    7524     7499     7538     7761     8113     8363     8367     8228 
    8102     7963     7699     7450     7531     7932     8248     8225 
    7989     7730     7493     7281     7150     7164     7238     7248 
    7311     7616     8077     8459     8677     8757     8715     8552 
    8340     8168     7970     7654     7350     7240     7319     7435 
    7514     7620     7754     7871     7982     8029     7944     7858 
    7919     8055     8133     8151     8137     8101     7994     7797 
    7658     7645     7623     7596     7612     7600     7585     7618 
    7647     7695     7803     7942     8023     7915     7578     7214 
    7083     7246     7578     7962     8317     8540     8544     8363 
    8171     8055     7919     7746     7669     7672     7588     7408 
    7356     7562     7835     7989     8085     8132     8051     7905 
    7794     7709     7589     7480     7537     7771     7990     8118 
    8228     8220     7970     7647     7501     7564     7663     7636 
    7527     7507     7631     7861     8163     8468     8631     8537 
    8222     7863     7578     7377     7292     7331     7473     7688 
    7820     7790     7778     7905     8100     8275     8349     8270 
    8046     7676     7249     6983     6991     7206     7557     7971 
    8286     8414     8411     8324     8170     7998     7852     7762 
    7690     7557     7427     7399     7415     7474     7708     8048 
    8197     8044     7820     7754     7871     8041     8158     8190 
    8056     7758     7518     7493     7580     7587     7531     7623 
    7919     8243     8406     8340     8112     7816     7527     7384 
    7515     7848     8156     8286     8268     8140     7877     7538 
    7321     7395     7707     8021     8166     8060     7707     7253 
    6929     6920     7248     7727     8116     8276     8228     8102 
    8027     8019     8037     8058     8033     7890     7655     7461 
    7384     7433     7603     7823     8000     8104     8117     8077 
    8085     8187     8320     8368     8299     8125     7805     7383 
    7061     7036     7323     7750     8124     8353     8365     8132 
    7765     7461     7358     7429     7568     7731     7854     7819 
    7636     7446     7366     7465     7744     8147     8537     8707 
    8572     8241     7846     7479     7203     7064     7121     7366 
    7696     8019     8225     8206     8002     7784     7680     7726 
    7863     8023     8116     8027     7790     7588     7507     7578 
    7798     8029     8117     8036     7858     7712     7727     7919 
    8183     8379     8384     8164     7808     7476     7319     7396 
    7624     7858     7962     7933     7882     7852     7838     7894 
    8033     8166     8132     7858     7504     7263     7188     7308 
    7627     8017     8256     8235     8005     7685     7422     7338 
    7460     7726     7987     8070     7933     7742     7661     7700 
    7819     8019     8225     8283     8131     7843     7560     7393 
    7341     7342     7412     7591     7819     8031     8195     8293 
    8330     8282     8127     7948     7850     7873     7981     8044 
    7992     7865     7703     7566     7530     7573     7605     7599 
    7632     7749     7850     7859     7835     7859     7940     8051 
    8167     8226     8168     8013     7784     7472     7169     7059 
    7221     7568     7987     8411     8698     8681     8351     7863 
    7435     7218     7214     7335     7522     7743     7947     8067 
    8071     8031     8036     8087     8124     8068     7879     7605 
    7298     7028     6937     7114     7530     8044     8453     8626 
    8584     8429     8253     8077     7897     7763     7677     7578 
    7439     7321     7326     7452     7611     7746     7869     8016 
    8152     8191     8164     8137     8051     7838     7581     7412 
    7353     7356     7449     7659     7909     8104     8206     8251 
    8257     8194     8095     8006     7906     7813     7784     7813 
    7823     7755     7692     7735     7825     7865     7869     7836 
    7744     7651     7653     7776     7917     7952     7870     7730 
    7616     7574     7543     7499     7518     7619     7746     7855 
    7923     7932     7905     7906     7970     8037     7982     7786 
    7578     7472     7530     7762     8039     8187     8171     8055 
    7909     7781     7713     7765     7944     8116     8128     8029 
    7916     7773     7608     7520     7566     7700     7867     8063 
    8237     8252     8063     7831     7731     7751     7761     7678 
    7526     7357     7253     7276     7412     7589     7769     7963 
    8137     8206     8139     8036     7971     7882     7730     7580 
    7488     7488     7612     7854     8174     8440     8518     8441 
    8256     7947     7599     7384     7361     7469     7614     7751 
    7862     7854     7681     7503     7514     7716     7955     8108 
