Origin Time       2024/06/23 22:54:00
Lat.              35.645
Long.             140.060
Depth. (km)       72
Mag.              4.1
Station Code      KNG201
Station Lat.      34.5956
Station Long.     139.9183
Station Height(m) -2197
Record Time       2024/06/23 22:54:57
Sampling Freq(Hz) 100Hz
Duration Time(s)  60
Dir.              N-S
Scale Factor      2000(gal)/6182761
Max. Acc. (gal)   1.357
Last Correction   2024/06/23 22:54:57
Memo.             
[...]
    -288     -292     -290     -289     -293     -291     -286     -285 
    -288     -291     -288     -285     -292     -288     -275     -285 
    -298     -289     -282     -288     -286     -282     -279     -276 
    -286     -294     -286     -276     -274     -282     -288     -293 
    -302     -301     -287     -277     -271     -269     -278     -282 
    -280     -282     -277     -267     -264     -269     -287     -302 
    -302     -303     -296     -277     -270     -271     -276     -285 
    -281     -275     -283     -283     -267     -253     -260     -284 
    -300     -297     -282     -278     -290     -295     -278     -264 
    -284     -308     -293     -266     -261     -257     -265     -290 
    -298     -285     -279     -278     -274     -273     -282     -301 
    -319     -316     -291     -270     -269     -260     -248     -274 
    -302     -287     -264     -268     -290     -301     -283     -271 
    -288     -303     -302     -293     -272     -264     -282     -291 
    -278     -259     -255     -273     -286     -289     -304     -306 
    -280     -256     -265     -298     -305     -281     -277     -295 
    -298     -274     -251     -251     -271     -307     -322     -289 
    -258     -261     -277     -294     -295     -281     -289     -305 
    -293     -274     -273     -301     -326     -303     -270     -264 
    -269     -289     -309     -309     -312     -312     -286     -260 
    -258     -283     -317     -310     -271     -258     -267     -272 
    -296     -328     -329     -309     -297     -283     -272     -287 
    -303     -303     -292     -258     -227     -239     -281     -315 
    -318     -303     -282     -259     -248     -259     -292     -326 
    -329     -308     -284     -268     -256     -242     -230     -242 
    -294     -373     -426     -424     -403     -363     -287     -219 
    -210     -247     -280     -279     -247     -195     -160     -194 
    -279     -362     -413     -412     -365     -305     -254     -245 
    -295     -347     -343     -285     -224     -225     -294     -356 
    -358     -317     -261     -215     -220     -295     -371     -375 
    -335     -315     -304     -290     -305     -326     -305     -265 
    -231     -163      -75      -83     -229     -361     -368     -383 
    -475     -496     -441     -398     -351     -303     -268     -254 
    -253     -181      -26       68        9     -140     -291     -415 
    -443     -397     -397     -429     -436     -418     -348     -258 
    -207     -183     -187     -239     -304     -325     -285     -222 
    -205     -257     -343     -427     -456     -394     -297     -243 
    -251     -319     -403     -417     -334     -204      -77      -17 
     -85     -211     -258     -240     -245     -279     -343     -444 
    -521     -533     -473     -345     -213     -115      -21       33 
     -46     -220     -335     -352     -353     -370     -419     -499 
    -535     -487     -387     -245      -80       58      114       63 
     -51     -211     -379     -421     -350     -307     -283     -260 
    -287     -320     -332     -331     -317     -329     -372     -410 
    -431     -426     -397     -366     -338     -292     -188      -31 
      95       86      -78     -294     -451     -489     -416     -329 
    -255     -180     -160     -199     -253     -281     -310     -404 
    -479     -428     -295     -171     -129     -169     -257     -395 
    -512     -510     -395     -232     -147     -188     -254     -303 
    -309     -196      -11       60      -81     -329     -501     -519 
    -420     -291     -239     -270     -283     -258     -249     -232 
    -135      -21      -77     -311     -490     -547     -583     -522 
    -321     -150      -78     -120     -249     -247      -70       25 
     -58     -224     -391     -488     -543     -543     -381     -143 
      14       73       16     -148     -310     -413     -465     -453 
    -399     -363     -355     -331     -286     -240     -170     -126 
    -175     -258     -309     -346     -391     -383     -329     -323 
    -333     -306     -284     -256     -212     -207     -260     -302 
    -285     -266     -267     -241     -220     -239     -278     -315 
    -316     -280     -255     -288     -373     -441     -437     -385 
    -333     -277     -227     -241     -299     -306     -247     -188 
    -144     -111     -142     -267     -378     -396     -392     -374 
    -291     -223     -245     -312     -347     -332     -333     -370 
    -375     -329     -267     -179      -55       56       62      -73 
    -249     -371     -424     -427     -450     -484     -449     -376 
    -351     -361     -322     -235     -188     -198     -208     -207 
    -222     -236     -237     -269     -324     -348     -343     -324 
    -272     -201     -171     -206     -259     -301     -327     -307 
    -277     -303     -337     -347     -383     -424     -432     -413 
    -349     -219      -74      -15     -116     -314     -400     -325 
    -258     -174       17       96      -96     -371     -502     -484 
    -401     -221       -7       26     -141     -327     -427     -447 
    -423     -358     -283     -253     -246     -216     -195     -231 
    -327     -436     -503     -473     -320      -97       84       82 
    -146     -406     -489     -390     -211      -76      -91     -251 
    -385     -344     -216     -104      -42     -142     -378     -529 
    -530     -474     -373     -249     -200     -254     -357     -411 
    -338     -192      -65      -11      -85     -272     -422     -448 
    -414     -345     -233     -104       19       48      -25      -82 
    -139     -230     -297     -402     -555     -594     -492     -348 
    -222     -157     -188     -290     -373     -383     -352     -335 
    -358     -377     -341     -275     -182      -41       60      -22 
    -258     -425     -434     -378     -238       -6      125       31 
    -172     -350     -465     -514     -538     -563     -558     -520 
    -449     -325     -187      -84      -19       -2      -30      -70 
    -125     -190     -222     -225     -245     -312     -399     -475 
    -511     -450     -288     -121      -57     -152     -337     -445 
    -434     -394     -304     -123        7      -87     -379     -598 
    -576     -460     -342     -219     -203     -309     -424     -425 
    -243       27      203      185       17     -202     -402     -478 
    -437     -432     -453     -433     -406     -343     -223      -98 
     -17      -73     -255     -315     -145       13      -28     -228 
    -447     -536     -545     -534     -417     -279     -244     -268 
    -318     -338     -260     -151     -122     -205     -321     -362 
    -321     -250     -184     -183     -256     -311     -305     -279 
    -255     -232     -244     -306     -353     -324     -254     -207 
    -215     -289     -394     -466     -501     -502     -440     -338 
    -233      -99       57      136       47     -155     -318     -348 
    -255     -130      -54      -75     -229     -370     -393     -434 
    -474     -407     -374     -428     -461     -449     -368     -235 
    -155     -119      -47       32       10     -127     -248     -296 
    -359     -455     -486     -450     -425     -393     -310     -206 
    -111      -52      -49      -77     -123     -192     -257     -300 
    -347     -383     -377     -349     -281     -194     -181     -240 
    -311     -355     -349     -306     -285     -301     -321     -355 
    -387     -350     -257     -170     -104      -78     -157     -307 
    -369     -345     -373     -421     -451     -498     -486     -400 
    -332     -291     -224     -105       17       42      -56     -180 
    -270     -329     -316     -263     -232     -214     -230     -281 
    -333     -387     -442     -480     -468     -388     -283     -224 
    -228     -249     -273     -307     -302     -241     -189     -179 
    -203     -257     -325     -359     -329     -269     -228     -240 
    -323     -428     -515     -557     -462     -202       80      197 
      93     -114     -314     -471     -519     -466     -408     -353 
    -329     -387     -456     -424     -273      -97      -10      -67 
    -219     -302     -253     -175      -69       70       76     -108 
    -364     -592     -677     -582     -438     -327     -221     -148 
    -176     -267     -305     -281     -253     -203     -134     -118 
    -169     -225     -254     -310     -390     -416     -398     -381 
    -351     -336     -350     -358     -346     -274     -115       58 
     163      155       31     -206     -512     -731     -767     -682 
    -520     -356     -276     -262     -268     -237     -107       83 
     223      213       59     -141     -323     -406     -376     -345 
    -326     -299     -341     -417     -464     -500     -465     -350 
    -244     -169      -98        7      119      124      -14     -225 
    -428     -525     -519     -513     -486     -397     -322     -267 
    -212     -187     -159      -93      -11       29      -45     -198 
    -308     -329     -330     -361     -371     -358     -363     -346 
    -301     -247     -172     -123     -173     -302     -411     -449 
    -436     -366     -274     -235     -268     -340     -396     -418 
    -432     -372     -183       23      120      112       54      -84 
    -324     -502     -489     -408     -332     -208      -90      -41 
     -74     -183     -251     -281     -416     -574     -639     -637 
    -514     -262        5      198      196      -14     -283     -506 
    -595     -514     -393     -300     -229     -225     -247     -225 
    -177     -134     -101     -103     -167     -227     -192     -103 
     -44      -78     -261     -479     -578     -623     -653     -575 
    -449     -360     -285     -259     -272     -254     -230     -227 
    -222     -233     -262     -275     -260     -188      -36      100 
      80     -109     -344     -484     -466     -392     -413     -476 
    -484     -454     -369     -221      -40      113       76     -191 
    -437     -463     -378     -321     -243     -167     -227     -372 
    -455     -458     -432     -418     -373     -244      -85       31 
      97       83      -34     -193     -325     -382     -372     -373 
    -384     -382     -389     -359     -284     -225     -193     -202 
    -276     -344     -343     -339     -369     -359     -289     -230 
    -210     -202     -209     -263     -325     -347     -364     -376 
    -342     -302     -316     -349     -344     -311     -259     -164 
     -43       31      -22     -185     -334     -397     -400     -375 
    -325     -291     -294     -291     -299     -339     -361     -350 
    -309     -255     -243     -242     -168      -57      -47     -180 
    -311     -304     -246     -243     -233     -251     -367     -458 
    -470     -441     -352     -257     -221     -212     -215     -265 
    -331     -316     -232     -170     -136     -154     -279     -405 
    -415     -407     -433     -414     -367     -302     -206     -171 
    -207     -218     -203     -156      -41       78       95      -25 
    -240     -462     -583     -581     -521     -429     -341     -323 
    -325     -319     -346     -346     -262     -174     -134      -97 
     -95     -197     -294     -277     -256     -308     -337     -329 
    -340     -354     -372     -383     -337     -229      -90       17 
     -11     -146     -236     -255     -286     -307     -304     -344 
    -399     -409     -395     -382     -337     -280     -287     -345 
    -372     -370     -357     -235      -28       59      -55     -242 
    -355     -372     -364     -356     -328     -291     -261     -254 
    -279     -298     -311     -368     -433     -427     -332     -171 
      15      133      124       49      -70     -288     -478     -490 
    -463     -480     -438     -359     -251      -68       53      -32 
    -231     -348     -359     -373     -373     -310     -255     -235 
    -197     -168     -210     -302     -361     -346     -325     -348 
    -353     -295     -249     -268     -254     -158     -114     -212 
    -367     -414     -317     -200      -98       45      123      -21 
    -324     -558     -600     -486     -366     -351     -411     -481 
    -527     -525     -466     -350     -217     -162     -225     -315 
    -318     -191       27      241      364      356      223       11 
    -234     -473     -632     -665     -609     -487     -340     -290 
    -333     -368     -407     -457     -429     -311     -234     -267 
    -311     -276     -172      -51       22       -5     -110     -235 
    -332     -399     -455     -448     -324     -152       28      219 
     347      428      560      663      606      408      112     -234 
    -539     -745     -876    -1009    -1125    -1155    -1134    -1086 
    -968     -807     -658     -518     -355     -158       72      264 
     322      305      358      526      793     1039     1058      752 
     177     -526    -1161    -1571    -1785    -1913    -1863    -1534 
   -1048     -534      -80      157       70     -225     -376     -157 
     288      702      916      822      392     -288     -983    -1438 
   -1669    -1905    -2232    -2567    -2781    -2663    -2054    -1028 
     246     1583     2714     3447     3825     3931     3733     3196 
    2293     1066     -274    -1431    -2127    -2282    -2194    -2169 
   -2174    -2068    -1752    -1148     -301      632     1443     1880 
    1814     1392      905      504       54     -604    -1353    -2016 
   -2576    -2960    -2947    -2463    -1702     -875      -96      527 
     855      888      886     1007     1128     1168     1076      765 
     371       99      -21       13       92     -103     -693    -1386 
   -1841    -1947    -1765    -1425    -1061     -750     -538     -416 
    -293     -190     -164     -129      -40      162      582     1169 
    1795     2243     2220     1743     1063      326     -405    -1141 
   -1875    -2445    -2685    -2552    -2164    -1703    -1206     -731 
    -483     -519     -632     -642     -580     -532     -537     -636 
    -727     -603     -240      236      685     1026     1373     1794 
    2129     2298     2290     2012     1530     1007      447     -215 
    -971    -1664    -2124    -2368    -2466    -2421    -2283    -2087 
   -1745    -1176     -469      195      711      973      910      679 
     399      -28     -634    -1250    -1608    -1513     -914       93 
    1136     1741     1758     1354      695      -35     -591     -897 
   -1042    -1124    -1211    -1204     -990     -687     -410     -183 
     -15      103      126       95      217      519      802      916 
     768      284     -534    -1495    -2183    -2296    -1880    -1095 
    -126      708     1118     1025      554      -79     -658     -903 
    -662      -88      624     1283     1617     1515     1031      258 
    -604    -1348    -1831    -2028    -2082    -2026    -1784    -1391 
    -835     -179      324      502      328      -86     -481     -558 
    -160      478      911      946      623       81     -451     -716 
    -606     -274      106      365      282     -103     -560     -978 
   -1249    -1310    -1210     -907     -385      277      999     1497 
    1424      824      -18     -802    -1163     -985     -619     -421 
    -458     -683     -952    -1031     -830     -451        0      400 
     559      482      406      392      369      365      288       37 
    -323     -727    -1029    -1048     -832     -522     -269     -257 
    -484     -742     -870     -804     -524     -127      229      433 
     429      273      141      101       79      -46     -355     -718 
    -948    -1110    -1308    -1442    -1416    -1220     -798     -196 
     392      825     1054     1046      787      379       54      -49 
     -14       26      -22     -217     -453     -524     -422     -271 
    -137     -208     -652    -1197    -1478    -1470    -1197     -690 
    -189      159      421      647      893     1177     1378     1409 
    1208      688      -94     -974    -1773    -2302    -2490    -2324 
   -1804    -1064     -278      372      709      794      844      954 
    1117     1288     1348     1151      680       48     -626    -1194 
   -1526    -1728    -1981    -2260    -2518    -2672    -2483    -1892 
   -1093     -232      630     1340     1705     1740     1629     1528 
    1564     1762     1964     1889     1322      338     -777    -1764 
   -2435    -2708    -2637    -2371    -2073    -1760    -1328     -711 
      73      857     1445     1825     2039     2039     1848     1508 
     935      145     -671    -1392    -1981    -2441    -2728    -2695 
   -2385    -1998    -1522     -905     -262      258      514      493 
     452      585      795     1069     1422     1583     1393      990 
     496       13     -378     -659     -850    -1071    -1379    -1643 
   -1791    -1775    -1459     -927     -357      270      863     1145 
    1071      779      316     -201     -581     -810     -995    -1260 
   -1593    -1774    -1658    -1202     -441      394     1083     1571 
    1844     1870     1584     1025      326     -441    -1180    -1689 
   -1805    -1594    -1247     -890     -609     -405     -199       37 
     270      393      390      372      287       86      -25       79 
     268      398      395      194     -243     -799    -1263    -1540 
   -1651    -1577    -1331    -1020     -632     -112      428      833 
    1090     1272     1333     1154      771      257     -338     -830 
   -1085    -1210    -1357    -1497    -1502    -1293     -848     -274 
     205      424      335      -31     -520     -876     -945     -809 
    -649     -558     -612     -785     -887     -830     -630     -309 
      -6      119      114      198      440      660      800      962 
    1075     1067     1070     1091      945      499     -286    -1248 
   -1977    -2217    -2084    -1718    -1170     -583      -34      490 
     842      906      776      521      211      -38     -257     -437 
    -491     -572     -824    -1108    -1290    -1322    -1162     -913 
    -721     -594     -463     -232      137      546      840      932 
     821      543      164     -230     -609     -960    -1241    -1449 
   -1547    -1422     -998     -291      539     1189     1489     1564 
    1567     1486     1239      694     -185    -1109    -1733    -1986 
   -1978    -1775    -1457    -1241    -1156    -1015     -795     -522 
    -175      146      327      377      325      141     -103     -180 
      16      356      648      810      861      786      611      362 
    -109     -816    -1443    -1703    -1562    -1089     -371      333 
     710      651      249     -291     -746     -920     -814     -628 
    -443     -276     -192     -116        1       39      -67     -225 
    -279     -210     -139      -61       99      242      277      240 
     144       58      100      186      176       79      -99     -373 
    -616     -704     -731     -805     -934    -1148    -1354    -1361 
