Origin Time       2024/06/23 22:54:00
Lat.              35.645
Long.             140.060
Depth. (km)       72
Mag.              4.1
Station Code      KNG206
Station Lat.      35.0966
Station Long.     139.3778
Station Height(m) -1130
Record Time       2024/06/23 22:54:53
Sampling Freq(Hz) 100Hz
Duration Time(s)  67
Dir.              E-W
Scale Factor      2000(gal)/6182761
Max. Acc. (gal)   3.767
Last Correction   2024/06/23 22:54:53
Memo.             
[...]
    -581     -584     -591     -590     -585     -588     -594     -592 
    -587     -593     -592     -585     -594     -600     -586     -583 
    -595     -598     -597     -593     -589     -594     -590     -582 
    -590     -597     -592     -592     -595     -595     -598     -596 
    -588     -585     -590     -599     -598     -592     -595     -598 
    -601     -603     -601     -605     -605     -593     -592     -600 
    -600     -597     -598     -595     -596     -604     -601     -592 
    -597     -603     -601     -602     -600     -599     -604     -603 
    -599     -599     -593     -594     -602     -599     -595     -597 
    -596     -599     -610     -610     -599     -596     -591     -587 
    -595     -598     -593     -597     -596     -593     -597     -600 
    -602     -598     -594     -597     -594     -592     -602     -602 
    -595     -593     -590     -593     -595     -595     -599     -600 
    -601     -600     -597     -598     -600     -596     -596     -598 
    -597     -598     -599     -595     -595     -600     -597     -591 
    -595     -600     -594     -594     -600     -597     -591     -592 
    -593     -595     -596     -592     -591     -589     -588     -595 
    -597     -592     -590     -588     -587     -587     -589     -593 
    -598     -600     -599     -597     -594     -594     -598     -598 
    -601     -606     -602     -600     -605     -604     -601     -606 
    -606     -606     -609     -606     -607     -609     -603     -606 
    -612     -611     -612     -608     -601     -603     -608     -607 
    -604     -601     -603     -611     -608     -605     -611     -615 
    -612     -608     -598     -592     -600     -598     -590     -597 
    -600     -596     -595     -596     -600     -606     -606     -605 
    -607     -615     -619     -606     -596     -600     -602     -597 
    -595     -599     -600     -590     -574     -565     -576     -590 
    -592     -599     -615     -625     -616     -605     -610     -614 
    -608     -600     -594     -589     -579     -558     -543     -549 
    -564     -575     -591     -611     -625     -634     -641     -646 
    -650     -657     -652     -636     -624     -615     -595     -576 
    -568     -570     -578     -585     -587     -596     -611     -629 
    -639     -644     -659     -674     -671     -655     -634     -610 
    -583     -552     -519     -494     -473     -454     -456     -479 
    -512     -554     -602     -649     -688     -706     -705     -689 
    -658     -628     -606     -597     -599     -601     -618     -664 
    -714     -746     -753     -736     -717     -695     -644     -571 
    -509     -483     -489     -495     -487     -504     -555     -600 
    -633     -668     -677     -661     -636     -588     -524     -516 
    -578     -627     -616     -584     -550     -504     -454     -449 
    -529     -662     -777     -807     -721     -563     -402     -301 
    -327     -489     -722     -922     -991     -914     -772     -633 
    -527     -507     -574     -642     -649     -551     -318      -27 
     162      128     -109     -419     -697     -909    -1036    -1045 
    -924     -783     -763     -827     -853     -830     -822     -803 
    -672     -460     -339     -417     -599     -700     -708     -738 
    -748     -585     -252       87      265      260      215      188 
      18     -320     -582     -698     -848    -1069    -1229    -1281 
   -1256    -1163    -1017     -831     -657     -609     -674     -689 
    -589     -458     -366     -330     -316     -301     -366     -529 
    -623     -488     -135      211      263       23     -251     -452 
    -628     -717     -630     -372      -63       80      -65     -448 
    -841    -1043    -1136    -1185    -1181    -1253    -1425    -1585 
   -1679    -1652    -1459    -1096     -601      -77      347      569 
     605      636      717      689      534      360      121     -283 
    -801    -1210    -1382    -1457    -1468    -1324    -1064     -749 
    -500     -476     -607     -729     -825     -987    -1188    -1214 
    -975     -666     -510     -488     -467     -454     -537     -673 
    -701     -519     -185      127      275      249      195      220 
     277      342      383      304      102     -238     -779    -1364 
   -1752    -1913    -1923    -1847    -1754    -1585    -1276     -942 
    -699     -554     -454     -299      -62      186      326      279 
     131      -36     -306     -636     -835     -870     -834     -830 
    -920     -955     -737     -340       79      481      739      691 
     383     -126     -755    -1205    -1355    -1403    -1445    -1465 
   -1487    -1518    -1538    -1443    -1109     -622     -177      205 
     527      640      443       35     -388     -640     -676     -685 
    -780     -840     -829     -836     -916    -1123    -1373    -1478 
   -1452    -1439    -1406    -1140     -535      222      774      953 
     971     1028      951      652      325      -18     -418     -726 
    -910    -1030    -1032     -897     -768     -751     -841    -1066 
   -1388    -1631    -1631    -1359     -980     -756     -770     -859 
    -849     -748     -678     -611     -389      -52       81     -251 
    -833    -1189    -1286    -1347    -1232     -823     -279      261 
     597      637      626      698      664      463      308      268 
     152     -239     -882    -1537    -2037    -2368    -2394    -1972 
   -1273     -564       69      566      727      460       49     -259 
    -579     -961    -1306    -1595    -1797    -1874    -1803    -1528 
   -1056     -397      426     1189     1644     1836     1880     1621 
     948       30     -941    -1752    -2139    -2041    -1675    -1330 
   -1136    -1034     -980    -1013    -1064    -1031     -940     -807 
    -653     -543     -449     -288      -56      159      232       98 
    -157     -378     -446     -371     -336     -365     -299     -211 
    -259     -417     -587     -748     -979    -1233    -1371    -1429 
   -1423    -1245     -963     -788     -736     -651     -493     -365 
    -353     -456     -574     -582     -481     -372     -286     -211 
    -228     -407     -676     -915    -1062    -1075     -898     -548 
    -165      123      280      310      264      106     -319     -877 
   -1200    -1331    -1519    -1654    -1619    -1516    -1345    -1074 
    -752     -340      184      683      999     1157     1220     1040 
     564      -50     -806    -1645    -2253    -2476    -2354    -1949 
   -1388     -724       -5      556      796      733      498      222 
     -67     -362     -639     -930    -1296    -1691    -1898    -1816 
   -1501     -955     -269      300      515      333      -25     -321 
    -448     -314        7      246      222     -108     -600     -994 
   -1244    -1381    -1293     -945     -571     -414     -458     -601 
    -794    -1034    -1311    -1438    -1246     -880     -554     -267 
      82      510      840      862      608      230     -178     -622 
   -1172    -1727    -2056    -2081    -1853    -1460     -947     -364 
     131      378      314       31     -171      -50      330      623 
     550      214     -343    -1212    -2089    -2638    -2819    -2579 
   -1996    -1282     -487      346     1011     1321     1313     1124 
     766      309      -80     -408     -637     -661     -649     -807 
   -1090    -1386    -1574    -1601    -1599    -1592    -1407    -1129 
   -1029    -1051     -924     -635     -412     -278      -12      373 
     616      708      824      827      468     -155     -845    -1501 
   -1959    -2093    -1836    -1226     -513      103      461      334 
    -169     -639     -898     -998     -964     -811     -616     -476 
    -372     -265     -249     -370     -562     -774     -965    -1135 
   -1243    -1143     -836     -489     -142      201      373      317 
     268      305      260      201      275      327      162     -277 
    -901    -1461    -1801    -1974    -2026    -1966    -1808    -1542 
   -1240     -962     -574      -10      537      805      717      394 
     -68     -595     -964    -1123    -1249    -1297    -1112     -793 
    -491     -181      203      586      746      616      357      154 
     134      181       23     -314     -605     -831    -1129    -1486 
   -1696    -1677    -1504    -1252    -1094    -1157    -1314    -1335 
   -1044     -422      347     1016     1400     1411     1069      453 
    -270     -931    -1440    -1759    -1988    -2170    -2133    -1854 
   -1462    -1008     -551     -181      -39     -270     -742    -1095 
   -1229    -1256    -1016     -421      245      766     1042     1025 
     767      241     -471    -1061    -1357    -1390    -1179     -748 
    -231      225      524      520      193     -275     -749    -1031 
   -1007     -879     -722     -521     -469     -650     -993    -1436 
   -1846    -2080    -2055    -1796    -1434    -1052     -673     -353 
    -128       61      239      325      324      319      270       77 
    -240     -490     -467     -255      -94      -31     -150     -594 
   -1182    -1693    -2078    -2108    -1603     -729      212      861 
     963      589     -100     -967    -1667    -1884    -1760    -1513 
   -1151     -809     -608     -491     -416     -334     -162      140 
     466      605      548      421      178     -211     -574     -834 
   -1092    -1374    -1550    -1577    -1598    -1578    -1270     -627 
     137      784     1188     1311     1079      422     -427    -1032 
   -1314    -1506    -1610    -1445    -1066     -720     -473     -248 
     -29       98      -75     -523     -766     -537     -123      239 
     481      383     -171    -1007    -1801    -2242    -2330    -2177 
   -1742    -1177     -675     -192      278      600      641      416 
      17     -549    -1081    -1345    -1477    -1518    -1364    -1202 
   -1117     -883     -456        5      394      652      708      576 
     334       -6     -406     -728     -850     -786     -654     -475 
    -294     -267     -476     -924    -1477    -1877    -1981    -1809 
   -1396     -778     -134      327      562      565      305     -150 
    -626     -949    -1172    -1426    -1531    -1277     -756     -102 
     558     1056     1323     1324     1021      498     -110     -771 
   -1384    -1740    -1895    -1969    -1833    -1493    -1153     -913 
    -780     -632     -376     -173     -142     -123       38      164 
     -50     -502     -782     -813     -819     -876     -921     -880 
    -697     -460     -357     -400     -482     -592     -718     -846 
   -1017    -1178    -1146     -856     -490     -258     -132      -33 
    -124     -507     -854     -875     -684     -349       95      381 
     364      162      -98     -433     -810    -1053    -1207    -1342 
   -1261     -904     -384      175      511      386     -155     -848 
   -1481    -1954    -2142    -1969    -1583    -1212     -900     -633 
    -404      -64      432      910     1284     1568     1682     1539 
    1173      607     -149     -968    -1703    -2224    -2463    -2417 
   -2097    -1591    -1002     -444      -78       81      127       50 
    -179     -542     -981    -1312    -1390    -1234     -933     -593 
    -211      156      142     -423    -1085    -1325    -1205    -1007 
    -779     -610     -574     -539     -446     -286       33      466 
     747      686      401       94     -143     -285     -389     -553 
    -839    -1272    -1753    -2075    -2088    -1793    -1285     -711 
    -244      117      527      993     1422     1719     1600      926 
     -41    -1084    -2048    -2647    -2828    -2734    -2353    -1724 
   -1119     -756     -637     -644     -717     -836     -902     -833 
    -675     -459     -129      325      744      952      987      926 
     612      -75     -981    -1829    -2377    -2553    -2313    -1585 
    -633      101      481      542      277     -275     -918    -1351 
   -1445    -1347    -1172    -1033    -1094    -1160     -923     -483 
     -25      468      999     1415     1536     1293      774      188 
    -353     -781     -913     -763     -527     -259      -54      -97 
    -364     -757    -1283    -1934    -2549    -2931    -3087    -3044 
   -2732    -2226    -1633     -999     -363      270      811     1057 
     980      783      508      110     -223     -299      -58      398 
     778      979     1052      839      288     -340     -828    -1156 
   -1369    -1436    -1233     -858     -627     -595     -624     -663 
    -753     -970    -1225    -1307    -1228    -1243    -1500    -1812 
   -1939    -1886    -1705    -1283     -531      430     1345     2023 
    2452     2649     2461     1798      819     -378    -1734    -2969 
   -3733    -3887    -3489    -2719    -1804     -835      134      893 
    1245     1215     1044      861      544       17     -698    -1549 
   -2363    -2989    -3329    -3201    -2514    -1320      264     1956 
    3338     4143     4333     3837     2587      757    -1407    -3569 
   -5191    -5931    -5713    -4537    -2640     -365     2008     3950 
    4921     5021     4597     3583     1838     -410    -2714    -4593 
   -5794    -6421    -6562    -6194    -5415    -4250    -2686     -907 
    1006     3151     5420     7460     8819     9036     7920     5597 
    2224    -1920    -6195    -9722   -11789   -12196   -11154    -9032 
   -6305    -3403     -595     2019     4327     5952     6665     6691 
    6183     5063     3400     1527     -190    -1681    -3052    -4344 
   -5683    -6985    -7687    -7329    -5925    -3797    -1346     1027 
    2789     3543     3524     3294     3198     3401     3945     4510 
    4402     3111      852    -1721    -4079    -5766    -6387    -5903 
   -4656    -3295    -2384    -1916    -1531     -848      421     2167 
    3925     5374     6331     6351     5057     2720        8    -2599 
   -5016    -7138    -8392    -8298    -7154    -5489    -3344     -659 
    2152     4520     6164     7132     7521     7173     5850     3540 
     562    -2481    -5125    -7248    -8781    -9443    -8968    -7528 
   -5488    -2970     -143     2669     5194     7166     8319     8423 
    7326     5147     2247     -944    -3961    -6377    -7901    -8383 
   -7844    -6600    -5095    -3397    -1292     1173     3671     5788 
    7155     7617     7198     5856     3516      458    -2574    -4887 
   -6095    -6086    -5182    -3945    -2766    -1891    -1561    -1889 
   -2512    -2687    -1940     -293     1898     3931     5154     5436 
    4779     3215     1339      -19     -442        4      764     1049 
     337    -1600    -4646    -7950   -10347   -11176   -10105    -7141 
   -2984     1463     5397     8085     9201     8812     7067     4379 
    1494    -1153    -3529    -5504    -6993    -8028    -8354    -7478 
   -5191    -1683     2591     6783     9681    10399     8933     5827 
    1828    -2159    -5372    -7428    -8397    -8555    -8041    -7107 
   -6063    -4658    -2377      687     3739     5928     6929     6743 
    5301     2894      520     -873    -1142     -698      -74      154 
    -487    -1890    -3118    -3312    -2606    -1505     -362      336 
     207     -785    -2180    -3132    -3311    -2999    -2365    -1534 
    -764     -150      388      851     1185     1568     2279     3243 
    4172     4715     4402     2960      434    -2943    -6557    -9419 
  -10627    -9733    -6855    -2716     1663     5377     7618     7970 
    6756     4605     2140      -36    -1605    -2534    -2949    -3172 
   -3400    -3546    -3593    -3520    -3061    -2090     -818      449 
    1346     1535     1025      109     -930    -1649    -1640     -933 
     394     2285     4107     5021     4691     3176      724    -2221 
   -5047    -6972    -7449    -6600    -4915    -2887     -950      546 
    1293     1197      650      262      231      402      738     1179 
    1470     1470     1273     1062      969      972      873      417 
    -446    -1532    -2586    -3323    -3398    -2661    -1473     -378 
     491     1180     1403      919       34     -766    -1364    -1935 
   -2559    -3011    -3002    -2485    -1504     -146     1346     2662 
    3477     3518     2659      994    -1071    -3050    -4644    -5743 
   -6376    -6381    -5413    -3489     -956     1776     4210     5848 
    6361     5536     3237     -135    -3502    -5850    -6740    -6217 
   -4506    -1926      853     3020     4186     4556     4592     4411 
    3710     2135     -451    -3650    -6639    -8769    -9656    -8936 
   -6532    -2974     1015     4870     7998     9900    10385     9544 
    7713     5178     2077    -1123    -3781    -5842    -7706    -9464 
  -10627   -10614    -9227    -6555    -2961      775     3694     5104 
    4916     3550     1531     -593    -2104    -2448    -1756     -592 
     736     2165     3498     4591     5360     5461     4623     2895 
     404    -2575    -5462    -7602    -8527    -8062    -6430    -4252 
   -2197     -771     -303     -592     -975     -974     -449      603 
    1936     3076     3663     3495     2496     1040     -285    -1263 
   -1888    -2140    -2061    -1625     -843      100     1136     2302 
    3478     4394     4597     3789     2346      864     -568    -2196 
   -3990    -5540    -6577    -7159    -7312    -6946    -5937    -4256 
   -2123       97     2069     3525     4276     4338     3856     2958 
    1852      677     -543    -1593    -2248    -2571    -2714    -2545 
   -1749     -280     1542     3123     3847     3528     2316      325 
   -2182    -4441    -5481    -4922    -3222    -1119      773     1988 
    2224     1540      588      104      340     1077     1735     1761 
     896     -842    -2816    -3964    -3821    -2780    -1485     -690 
   -1117    -2783    -5038    -7159    -8388    -7932    -5514    -1707 
    2471     6182     8836     9911     9123     6568     2714    -1683 
   -5724    -8469    -9256    -8022    -5084     -988     3373     6910 
    8768     8719     7111     4535     1730     -638    -2145    -2609 
   -2324    -1934    -1968    -2762    -4225    -5638    -6310    -6129 
   -5300    -4042    -2656    -1557     -945     -674     -584     -542 
    -245      490     1366     1933     2096     2031     1841     1555 
    1118      448     -316     -915    -1137     -892     -285      617 
    1725     2752     3521     3957     3908     3321     2135      326 
   -1874    -4195    -6394    -8078    -8822    -8409    -7045    -5201 
   -3302    -1682     -456      426      905      972      812      520 
      68     -265       42     1069     2385     3641     4632     4950 
    4352     3140     1717      465     -179     -135      329      760 
     591     -371    -1810    -3181    -3824    -3473    -2457    -1193 
    -143      234     -169    -1089    -2010    -2560    -2673    -2297 
   -1630    -1218    -1306    -1668    -1912    -1755    -1227     -459 
     430     1114     1257      905      243     -766    -1980    -2921 
   -3392    -3487    -3121    -2183     -762      944     2534     3419 
    3299     2367      996     -374    -1250    -1365     -900     -383 
