Origin Time       2024/06/23 22:54:00
Lat.              35.645
Long.             140.060
Depth. (km)       72
Mag.              4.1
Station Code      KNG201
Station Lat.      34.5956
Station Long.     139.9183
Station Height(m) -2197
Record Time       2024/06/23 22:54:57
Sampling Freq(Hz) 100Hz
Duration Time(s)  60
Dir.              U-D
Scale Factor      2000(gal)/6182761
Max. Acc. (gal)   0.411
Last Correction   2024/06/23 22:54:57
Memo.             
[...]
    -134      -13       56      -67     -245     -388     -436     -283 
     -41       26     -144     -339     -340     -249     -288     -390 
    -375     -192       73      199       86      -36      -19      -81 
    -356     -595     -549     -323     -173     -185     -263     -292 
    -246     -139       -5       59       56       46      -54     -224 
    -277     -273     -365     -373     -241     -212     -250     -200 
     -81       48       -4     -259     -382     -229       13       97 
     -90     -358     -443     -350     -286     -304     -197       33 
     106        8      -45      -54     -158     -247     -150      -80 
    -282     -478     -383     -241     -251     -257     -223     -178 
     -53       58       46       13       41       62       50       55 
      -2     -214     -503     -673     -500      -22      327      169 
    -323     -614     -507     -271     -100       27       79       36 
      14        2     -103     -231     -326     -418     -434     -261 
     -17      -52     -351     -451     -236      -66      -73     -139 
    -261     -321     -204      -35       93       46     -201     -315 
    -255     -298     -356     -282     -280     -392     -334      -84 
      54       14      -11        8      -53     -197     -342     -412 
    -402     -314      -75      179      141     -120     -269     -213 
     -98     -174     -495     -639     -328       84      238      149 
     -22     -134     -209     -322     -372     -280     -168     -151 
    -218     -322     -421     -389     -160       54       23     -173 
    -299     -272     -201     -119       45      129      -49     -245 
    -248     -213     -233     -237     -230     -322     -461     -406 
    -161       69      147      -58     -415     -469      -90      237 
     170       32       13     -210     -575     -603     -272       58 
     241      322      227     -136     -496     -500     -286     -135 
      10       59     -242     -609     -604     -397     -303     -190 
     100      296      183       21       13       10      -22      -69 
    -263     -489     -500     -346     -174      -26       43       20 
     -69     -211     -288     -230     -160     -182     -263     -294 
    -211      -91      -89     -256     -364     -223     -126     -328 
    -495     -328      -60       28      -26      -59      -15      -16 
    -187     -381     -366     -158       22       17      -55       46 
     168      -76     -488     -620     -568     -510     -397     -305 
    -241      -93       48       59      -10     -123     -225     -174 
      11       87      -23     -139     -226     -313     -344     -336 
    -275     -218     -315     -424     -320     -143     -131     -243 
    -277     -267     -382     -456     -339     -200      -22      265 
     423      373      293      176      -73     -437     -818    -1009 
    -927     -690     -337       27      241      282      148        6 
      19      -15     -196     -324     -347     -347     -262      -62 
     -10     -239     -408     -270      -61      -81     -336     -571 
    -525     -299     -126       28      105       12      -89     -182 
    -310     -243       -6       29     -132     -223     -235     -245 
    -254     -244     -189      -85       16        1     -208     -427 
    -339      -70      -68     -273     -303     -199     -256     -382 
    -266      -25       93      126      117       42     -135     -301 
    -255     -189     -307     -419     -422     -377     -364     -434 
    -411     -253     -141      -53      -39     -236     -331     -179 
    -200     -351     -213       34       75      -11     -112     -195 
    -210     -158     -152     -228     -249     -226     -270     -251 
     -58      138      126     -118     -431     -609     -598     -510 
    -376     -135       45       11        0      104       44     -194 
    -344     -312     -107       92      -31     -355     -483     -420 
    -355     -226      -21       82       59      -25     -141     -231 
    -248     -227     -295     -414     -441     -421     -410     -312 
     -68      105       45      -20      -71     -280     -357     -144 
     -46     -122      -34       81      -20     -165     -247     -357 
    -534     -649     -466      -85      150      113     -129     -312 
    -231     -107     -155     -269     -324     -297     -238     -180 
     -63       53      -28     -189     -100       57     -134     -437 
    -458     -383     -401     -342     -188     -103      -33       98 
     100      -72     -182     -226     -275     -160       21      -34 
    -241     -340     -356     -434     -452     -201      137      259 
     192       67      -87     -272     -430     -517     -536     -392 
    -138      -53     -147     -176      -29      146       71     -203 
    -319     -118      117      -58     -484     -597     -440     -304 
    -123       42      -51     -306     -408     -329     -284     -295 
    -263     -203      -85       76      145      120       79       38 
       3     -128     -355     -409     -272     -245     -329     -373 
    -412     -345     -130      -15      -46     -149     -324     -384 
    -304     -272     -164       71      143      -44     -287     -351 
    -259     -227     -275     -245      -27      242      244      -20 
    -252     -366     -394     -358     -336     -246      -29      127 
     118      -33     -281     -468     -408     -154       29       38 
      -1       30       54     -119     -332     -335     -354     -499 
    -503     -398     -319     -180      -93     -120        4      292 
     413      200     -186     -499     -568     -435     -342     -321 
    -250     -220     -232     -106      102      112     -185     -477 
    -439     -192       41      212      167     -124     -361     -443 
    -531     -595     -499     -259      -32       86      152      224 
     234       92      -77     -145     -223     -306     -292     -279 
    -272     -181     -142     -304     -477     -421     -328     -370 
    -268      -35      -16     -122     -156     -183     -219     -247 
    -268     -281     -379     -504     -460     -224       75      269 
     286      179      -17     -242     -356     -378     -507     -613 
    -457     -269     -198      -71       44       35       37       67 
     -43     -249     -335     -299     -272     -254     -149        6 
     -41     -364     -562     -403     -247     -239     -132      -35 
    -173     -351     -303     -124      -27        2      -65     -281 
    -462     -417     -149       89       69      -47      -59      -81 
    -218     -332     -347     -372     -391     -350     -265     -128 
      11      100      113        9     -193     -427     -520     -346 
     -90       57      100       86       61      -25     -280     -624 
    -784     -659     -493     -397     -193       91      255      316 
     350      262       22     -208     -314     -281     -174     -137 
    -160     -208     -320     -277        1       78     -252     -586 
    -554     -360     -309     -269      -67      157      202       54 
    -138     -267     -309     -233     -107      -32        7       18 
      40      112       80     -107     -303     -454     -488     -370 
    -221      -97       -9      -19      -83      -17      176      145 
    -198     -418     -338     -249     -298     -380     -357     -263 
    -283     -307     -110       89       27     -136     -209     -213 
    -178     -152     -176      -95       82       73      -76     -141 
    -187     -209     -119     -117     -271     -385     -459     -466 
    -299     -163     -251     -341     -221      -90      -81      -81 
    -148     -227      -95       59      -12     -216     -434     -448 
    -160       36     -109     -278     -244     -204     -273     -277 
    -189     -201     -252     -188     -138     -223     -273      -88 
     120      -19     -387     -583     -498     -285      -75       33 
     -94     -325     -322     -171     -200     -366     -526     -595 
    -402      -82       41       27       54       66      -20     -191 
    -338     -332     -258     -240     -223     -176      -97      -10 
     -73     -294     -448     -482     -496     -400     -186      -84 
     -80      -52     -130     -271     -229     -127     -194     -311 
    -379     -438     -388     -236     -160     -184     -115      125 
     188     -142     -462     -477     -415     -409     -339     -142 
     143      330      258       27     -251     -462     -465     -431 
    -449     -339     -242     -320     -351     -276     -293     -354 
    -204      105      249      147      -40     -186     -181      -57 
    -117     -370     -465     -431     -441     -393     -369     -395 
    -274     -120      -12      136      149       15      -55      -72 
     -63      -21        3       29      -21     -224     -411     -506 
    -605     -649     -535     -393     -427     -510     -333       21 
     246      333      352      240       45      -85     -111      -41 
       8     -218     -513     -443     -253     -291     -326     -229 
    -149      -89      -24       29      108      142      109      107 
      47     -115     -172      -83     -149     -542     -825     -660 
    -477     -415     -173      -52     -262     -345     -203     -112 
      16      232      292      270      298      141     -190     -374 
    -365     -430     -657     -699     -377        4      175       40 
    -223     -160      137       63     -311     -393     -151      -13 
    -162     -389     -363      -51      186      140       21       15 
      65      105      102       22      -51     -129     -372     -605 
    -596     -480     -299      -20      149      115       28       -9 
     -21     -123     -292     -318     -237     -316     -477     -412 
    -113      147       83     -179     -156       33     -211     -605 
    -484     -104       28     -148     -432     -452     -234     -143 
     -98       12      -29     -232     -401     -399     -163      180 
     355      224      -90     -386     -560     -545     -377     -253 
    -226     -220     -232     -242     -212     -193     -236     -246 
    -166     -103      -48       85      148        3     -230     -377 
    -366     -271     -203      -54      180      222      121       98 
     -65     -490     -782     -663     -342      -97       -1      -31 
     -28      106       83     -216     -519     -662     -574     -333 
    -247     -281     -204     -123     -154     -154       -7      153 
     119        8       15      -25     -231     -352     -168      183 
     321      108     -237     -550     -782     -868     -814     -575 
    -192       83      226      294      194       43     -133     -405 
    -544     -469     -247      168      496      353      -97     -447 
    -582     -575     -516     -418     -234      -87     -121     -319 
    -517     -336      235      601      504      219      -32     -126 
    -108     -260     -568     -608     -438     -495     -652     -648 
    -535     -311        4      260      316      176      135      368 
     567      455      183      -71     -385     -756    -1041    -1247 
   -1261     -899     -467     -293     -177        6      110      168 
     292      487      684      667      368      106      -21     -323 
    -705     -836     -954    -1172     -978     -359       86      187 
      52     -266     -400     -164      107      256      316      249 
     152       40     -118      -83      153      144     -198     -491 
    -629     -634     -437     -255     -237     -302     -452     -492 
    -285     -128     -140     -118      -52      -51      -52       11 
      32      -95     -336     -477     -370     -249     -325     -426 
    -359     -103      168      245      230       98     -344     -729 
    -691     -457     -178      159      395      392      104     -317 
    -502     -314      -56     -113     -459     -672     -514     -137 
     233      428      378      194      -68     -479     -842     -850 
    -642     -525     -424     -249     -127      -34       98      198 
     255      315      306      191      111       69     -123     -438 
    -637     -617     -520     -550     -725     -864     -777     -511 
    -358     -410     -407     -214      133      568      815      741 
     585      419      202      -27     -387     -793     -822     -476 
    -277     -428     -639     -709     -669     -612     -582     -504 
    -248      149      402      405      418      487      523      676 
     758      401     -150     -566     -823     -825     -666     -600 
    -487     -234     -167     -390     -663     -859     -827     -474 
     -75      187      437      637      660      527      267       37 
      14        8     -227     -509     -559     -479     -514     -563 
    -446     -296     -273     -277     -216      -90      140      310 
     224      129      255      373      247        0     -274     -622 
    -778     -554     -349     -404     -457     -357     -175      -19 
     -58     -345     -541     -305      119      342      251      -97 
    -368     -417     -533     -676     -509       18      629      969 
     890      482      -69     -580     -941    -1112    -1161    -1177 
   -1079     -797     -420     -116       28      146      282      342 
     514      866     1085      999      655      218     -173     -544 
    -697     -511     -494     -886    -1178    -1134     -959     -655 
    -169      263      349      163      112      355      543      403 
     160      -29     -285     -459     -394     -315     -311     -284 
    -375     -522     -420     -243     -309     -427     -300       20 
     241      157     -142     -401     -489     -406     -181       28 
      79      -16     -195     -278     -145      -73     -319     -565 
    -395      -67        6      -82     -174     -170       51      232 
     100      -90     -108     -151     -326     -453     -441     -441 
    -573     -622     -446     -292     -311     -438     -616     -714 
    -583     -280       58      370      563      640      702      599 
     180     -343     -777    -1046    -1059     -905     -763     -647 
    -411      -21      259      267      174      111       41      -76 
    -253     -405     -476     -529     -407       28      393      357 
      47     -281     -415     -367     -371     -436     -384     -297 
    -333     -408     -400     -235       66      246      184       58 
    -118     -361     -377     -241     -336     -466     -422     -402 
    -331      -88      125      151       55       26       84       30 
    -120     -193     -207     -246     -193     -107     -297     -475 
    -201       43     -107     -200     -164     -294     -397     -312 
    -260     -273     -255     -239     -121      162      338      235 
      75       66       59     -113     -336     -446     -407     -286 
    -227     -258     -238     -109       48      152      217      277 
     252      113        9      -37     -150     -320     -455     -522 
    -518     -446     -356     -304     -267     -200     -105      -35 
     -85     -243     -362     -378     -355     -278     -147      -49 
      79      293      452      488      384       84     -279     -438 
    -384     -385     -458     -329      -83       25       26      -60 
    -226     -395     -581     -695     -631     -476     -373     -386 
    -391     -265      -70      130      246      242      268      273 
      66     -200     -401     -643     -740     -543     -352     -375 
    -417     -235      121      347      254      -64     -394     -577 
    -601     -566     -429     -152       25       40       77      126 
     162      156       44      -95     -332     -622     -610     -374 
    -236      -80      156      220       75      -77     -149     -118 
     -17     -114     -422     -487     -308     -346     -644     -953 
   -1075     -873     -507     -278     -168       -4      130       15 
    -132      148      697     1008     1025      933      728      378 
     -30     -397     -684     -876     -949     -953    -1034    -1147 
    -998     -627     -441     -421     -237       51      261      369 
     353      338      375      253       11     -104     -149     -200 
    -130     -104     -390     -685     -679     -596     -495     -316 
    -254     -288     -249     -144       29      173      172      232 
     394      336       36     -307     -610     -734     -689     -658 
    -655     -591     -402     -132       34       59       88      182 
     244      212      157        3     -354     -622     -551     -308 
     -26      255      331      218      146        2     -310     -498 
    -440     -316     -235     -231     -243     -128      -24     -197 
    -413     -328     -109       91      267      182     -123     -313 
    -421     -560     -652     -606     -359      -70       58       56 
     -90     -326     -429     -388     -304     -219     -207     -277 
    -326     -302     -228      -82       86      173      214      118 
    -264     -590     -520     -321     -155       78      124      -90 
    -240     -301     -304     -160      -20       32      -28     -284 
    -446     -303     -123       32      257      304       34     -294 
    -428     -370     -314     -337     -326     -308     -298     -185 
     -86      -86       -4      151      246      325      342      211 
      -6     -308     -565     -542     -433     -480     -549     -584 
    -586     -446     -230      -79        8       64      101       88 
     -23     -173     -272     -317     -362     -385     -346     -355 
    -481     -579     -624     -702     -727     -610     -402     -173 
      49      294      540      623      475      176     -241     -587 
    -569     -336     -207     -144     -127     -292     -469     -489 
    -555     -640     -466     -127      108      139       15      -59 
     -21      -15      -30      -29     -110     -186     -137     -177 
    -365     -387     -264     -237     -199      -65       10      -48 
    -145      -79      169      336      307      219      134      -27 
    -221     -261     -206     -350     -663     -838     -799     -608 
    -293      -21      115      197      171        4     -166     -186 
      54      373      398      183       -6     -188     -328     -273 
    -159     -218     -399     -546     -593     -513     -409     -383 
    -274      -42      -11     -253     -346      -92      193      260 
     112     -167     -365     -367     -319     -303     -224     -126 
    -147     -168     -126     -222     -428     -498     -430     -373 
    -282     -121        4       60       48       21       72      161 
     212      170      -34     -349     -581     -582     -434     -361 
    -435     -548     -578     -484     -259       57      237      133 
      -4       30       84       53       20       47       82       92 
     125       77     -173     -418     -484     -479     -450     -405 
    -454     -543     -515     -426     -327     -147       34      125 
     195      228      114     -104     -304     -386     -307     -248 
