Origin Time       2024/06/23 22:54:00
Lat.              35.645
Long.             140.060
Depth. (km)       72
Mag.              4.1
Station Code      KNG206
Station Lat.      35.0966
Station Long.     139.3778
Station Height(m) -1130
Record Time       2024/06/23 22:54:53
Sampling Freq(Hz) 100Hz
Duration Time(s)  67
Dir.              N-S
Scale Factor      2000(gal)/6182761
Max. Acc. (gal)   3.343
Last Correction   2024/06/23 22:54:53
Memo.             
[...]
    -314     -297     -286     -286     -287     -286     -294     -305 
    -308     -309     -311     -322     -348     -371     -380     -375 
    -354     -335     -322     -317     -328     -335     -327     -325 
    -331     -330     -322     -323     -343     -372     -384     -367 
    -328     -302     -315     -319     -283     -254     -258     -278 
    -293     -277     -229     -208     -257     -333     -379     -403 
    -424     -435     -419     -381     -353     -346     -329     -291 
    -250     -219     -203     -212     -237     -274     -333     -397 
    -423     -430     -451     -451     -406     -347     -322     -338 
    -344     -310     -275     -272     -295     -319     -327     -331 
    -347     -364     -359     -309     -230     -167     -125      -88 
     -87     -164     -286     -346     -300     -204      -96      -24 
     -44     -182     -401     -549     -575     -548     -436     -299 
    -243     -233     -302     -500     -707     -789     -719     -558 
    -389     -277     -250     -321     -499     -702     -754     -573 
    -280      -34      141      240      187      -40     -336     -455 
    -209      180      368      341      212       15     -267     -586 
    -756     -758     -781     -859     -888     -816     -686     -607 
    -602     -578     -477     -331     -175       33      286      432 
     403      296      133      -93     -307     -479     -577     -578 
    -507     -379     -330     -440     -584     -697     -804     -878 
    -807     -497      -66      262      339      172      -55     -223 
    -304     -146      214      464      455      216     -212     -721 
   -1086    -1120     -907     -621     -407     -440     -696     -921 
    -900     -618     -317     -254     -404     -581     -677     -673 
    -554     -302       30      280      279       46     -181     -234 
     -69      249      469      460      378      316      240       98 
    -163     -456     -595     -561     -479     -416     -433     -583 
    -778     -958    -1149    -1280    -1285    -1210    -1082     -852 
    -507     -117      278      636      812      762      627      482 
     354      266      137      -98     -405     -699     -901     -996 
    -950     -730     -443     -241     -230     -362     -434     -364 
    -242     -159     -177     -258     -292     -265     -254     -293 
    -373     -522     -764    -1043    -1275    -1372    -1229     -834 
    -331      169      646      955      961      826      755      752 
     764      709      488      105     -279     -482     -587     -836 
   -1205    -1408    -1322    -1088     -879     -792     -833     -902 
    -872     -651     -197      423      930     1002      651       88 
    -553    -1033    -1149    -1068    -1016     -967     -828     -544 
    -124      326      654      744      627      393      125       31 
     139      199      157       77     -183     -691    -1212    -1503 
   -1554    -1358     -894     -386     -133     -224     -534     -806 
    -816     -464      178      823     1133     1028      733      369 
    -171     -795    -1203    -1265    -1101     -853     -627     -582 
    -690     -731     -648     -522     -395     -268     -143      -78 
     -73       49      393      752      898      850      635      251 
    -151     -388     -334      -88       13     -186     -559     -921 
   -1175    -1309    -1210     -876     -629     -654     -789     -813 
    -677     -485     -287      -92       10      -96     -365     -559 
    -599     -670     -792     -806     -629     -214      356      853 
    1095     1005      617       42     -469     -589     -225      363 
     735      626      138     -503    -1094    -1389    -1279     -973 
    -742     -745     -997    -1298    -1437    -1288     -778      -23 
     650      899      691      310      -69     -399     -422       66 
     774     1183     1088      674      175     -366     -921    -1307 
   -1386    -1212     -886     -544     -368     -368     -437     -483 
    -391     -223     -266     -640    -1126    -1447    -1496    -1306 
    -958     -531      -37      550     1117     1401     1291      887 
     344     -130     -393     -422     -198      160      391      218 
    -436    -1166    -1506    -1491    -1406    -1303    -1038     -676 
    -434     -338     -319     -343     -359     -346     -323     -211 
     105      527      813      850      663      263     -238     -580 
    -620     -435     -160      155      386      229     -345     -965 
   -1302    -1241     -881     -447     -144     -130     -418     -817 
   -1054     -960     -570      -21      453      570      282     -165 
    -494     -515     -160      324      553      416       45     -349 
    -591     -599     -445     -285     -122       -1     -127     -512 
    -905    -1129    -1268    -1349    -1252    -1022     -671     -200 
     166      256      118     -112     -297     -308     -115      119 
     308      486      529      337      -17     -385     -603     -661 
    -618     -442     -189      -58     -118     -223     -240     -105 
     132      215      -58     -533     -874     -946     -823     -629 
    -516     -600     -834    -1085    -1307    -1403    -1171     -581 
     155      744      949      781      448       60     -308     -410 
    -177       60       17     -260     -557     -706     -763     -801 
    -719     -576     -523     -510     -541     -696     -854     -727 
    -153      666     1330     1554     1263      529     -390    -1046 
   -1155     -852     -467     -285     -528    -1123    -1543    -1369 
    -788     -198      226      441      443      378      444      604 
     606      269     -323     -905    -1272    -1308    -1022     -663 
    -557     -795    -1166    -1408    -1386    -1012     -296      535 
    1147     1395     1507     1750     1950     1760     1149      279 
    -657    -1375    -1606    -1391    -1091    -1032    -1336    -1866 
   -2231    -2097    -1366     -289      528      665      325       56 
     148      440      684      691      315     -315     -860    -1099 
   -1049     -841     -533     -257     -246     -414     -428     -166 
     289      728      879      687      336      -77     -519     -839 
    -913     -835     -767     -754     -807     -882     -823     -619 
    -385     -158       90      329      398      260      132       77 
     -47     -195     -196      -90     -175     -543     -894    -1132 
   -1316    -1108     -330      529      906      689      182     -287 
    -637     -792     -675     -404     -139      -24     -177     -533 
    -909    -1143    -1073     -614       -4      339      256     -102 
    -452     -595     -513     -213      239      587      589      338 
      15     -422     -822     -863     -572     -121      306      343 
    -181     -969    -1630    -1935    -1818    -1366     -759     -182 
     239      345       41     -357     -432     -206       65      266 
     428      551      514      208     -218     -447     -374     -127 
     102       75     -337     -873    -1100     -930     -506       54 
     457      462      213       -7     -163     -357     -533     -663 
    -811     -888     -802     -637     -530     -641    -1005    -1404 
   -1570    -1352     -751       76      906     1503     1718     1589 
    1218      712      226     -149     -411     -555     -701    -1029 
   -1425    -1620    -1612    -1503    -1234     -736     -107      350 
     389      143        0       66       63     -166     -489     -749 
    -919    -1052    -1034     -676      -32      634      967      854 
     593      350       57     -197     -281     -207     -113     -138 
    -188     -129      -41      -89     -416     -938    -1441    -1916 
   -2241    -2097    -1457     -551      312      823      958      928 
     912      909      774      370     -339    -1083    -1411    -1251 
    -904     -568     -406     -615    -1006    -1111     -737      -56 
     626     1060     1181     1052      694      141     -366     -571 
    -412       -3      397      575      389     -250    -1159    -1879 
   -2055    -1762    -1202     -474      132      333      151     -245 
    -633     -882     -951     -760     -351       67      334      431 
     404      360      386      371      124     -418    -1029    -1332 
   -1256     -930     -395      156      361      103     -349     -595 
    -492     -148      346      782      874      682      389      -83 
    -710    -1186    -1287    -1009     -500        3      256      141 
    -295     -881    -1285    -1255     -851     -296      161      315 
     172      -96     -355     -540     -599     -592     -653     -758 
    -784     -642     -339      -53      -47     -422     -863     -880 
    -467       72      597      945     1014      885      518      -60 
    -594     -937    -1055     -930     -571        0      508      604 
     314     -141     -678    -1113    -1133     -809     -489     -252 
     -34      157      182     -123     -576     -835     -841     -760 
    -742     -769     -722     -527     -170      273      622      669 
     372     -103     -578     -909    -1045    -1062     -967     -783 
    -622     -394       22      465      728      769      637      382 
      69     -262     -679    -1068    -1122     -804     -271      326 
     767      870      563     -109     -929    -1471    -1400     -860 
    -191      389      665      582      343       89     -267     -748 
   -1115    -1201    -1109     -950     -760     -566     -401     -375 
    -478     -441     -148      202      375      224     -179     -549 
    -669     -466      -78      185      132     -200     -572     -768 
    -824     -798     -670     -446      -83      370      616      387 
    -262    -1092    -1823    -2150    -1953    -1286     -266      768 
    1373     1359      964      589      349      199      123       93 
     194      470      731      747      437      -82     -664    -1273 
   -1789    -2057    -2111    -1933    -1388     -542      322      864 
     896      502     -172     -947    -1336     -969     -185      525 
    1010     1154      985      680      251     -295     -896    -1464 
   -1773    -1627    -1100     -612     -575     -900    -1252    -1435 
   -1254     -600      338     1140     1361      888       70     -654 
    -987     -827     -414       20      479      883     1121     1160 
     887      285     -466    -1143    -1492    -1370     -868     -103 
     670      998      683      -52     -926    -1647    -1859    -1514 
    -976     -622     -679    -1066    -1345    -1173     -599       82 
     555      649      435      146      -70      -93      233      691 
     850      713      449        4     -483     -674     -494     -215 
    -166     -369     -641     -874     -972     -843     -553     -395 
    -570     -876     -996     -844     -529     -270     -238     -419 
    -690     -877     -802     -390      326     1127     1583     1499 
    1155      804      382     -150     -621     -831     -812     -779 
    -794     -770     -656     -445     -176      184      710     1210 
    1373     1042      119    -1219    -2355    -2821    -2698    -2315 
   -1993    -1956    -2131    -2141    -1619     -485      992     2391 
    3371     3752     3485     2629     1395       18    -1311    -2199 
   -2314    -1855    -1323    -1130    -1426    -1939    -2253    -2279 
   -2096    -1683    -1161     -883    -1030    -1351    -1479    -1277 
    -805     -156      615     1374     1946     2265     2219     1665 
     620     -783    -2127    -2715    -2242     -856     1228     3338 
    4381     3837     2052     -232    -2098    -2790    -2215     -818 
     958     2736     3968     4302     3894     2969     1729      565 
    -314    -1058    -1919    -3167    -4968    -6961    -8264    -8127 
   -6380    -3484     -409     1697     1989      519    -1678    -3352 
   -3689    -2439       12     2741     4703     5405     5165     4407 
    3256     1951      885      233     -177     -660    -1310    -2044 
   -2746    -3116    -2931    -2218     -960      594     1613     1420 
     237    -1078    -1749    -1392      -72     1640     2982     3420 
    2924     1870      612     -572    -1514    -2150    -2343    -2251 
   -2372    -2889    -3491    -3870    -4041    -3963    -3395    -2452 
   -1586     -966     -300      733     2037     3252     4216     4819 
    4757     3998     2912     1742      546     -499    -1011     -679 
     291     1305     1872     1752     1025       -7    -1207    -2610 
   -4090    -5184    -5355    -4560    -3255    -1814     -394      752 
    1284     1052      346     -217      -47     1267     3599     6174 
    8090     8434     6702     3464     -393    -4176    -6970    -8219 
   -8231    -7427    -6014    -4320    -2636    -1105       53      739 
    1295     2329     4036     5623     5883     4380     1677    -1229 
   -3521    -4848    -5323    -5429    -5518    -5505    -5194    -4377 
   -2922    -1079      637     1838     2491     2855     3162     3353 
    3239     2729     1768      581     -149       72      939     1572 
    1398      638     -242     -766     -342      977     2254     2661 
    1982      553     -820    -1402    -1156     -677     -600    -1338 
   -3126    -5606    -7708    -8547    -7972    -6274    -3974    -1578 
     787     3259     5794     8050     9587    10045     9297     7554 
    5305     3217     1862     1302     1015      299    -1221    -3385 
   -5793    -8057    -9628    -9845    -8524    -6135    -3350     -855 
     736     1247     1151     1235     1838     2431     2259     1229 
    -169    -1444    -2311    -2654    -2448    -1615     -124     1687 
    3112     3464     2656     1399      583      614     1201     1744 
    1976     1824     1037     -348    -1630    -2074    -1721    -1265 
   -1328    -2034    -2926    -3241    -2671    -1680     -882     -438 
     -57      560     1343     1992     2214     1672      223    -1617 
   -2911    -3026    -2071     -687      542     1334     1682     1872 
    2135     2266     1871      944      -30     -569     -633     -577 
    -834    -1547    -2388    -2879    -2853    -2523    -2251    -2252 
   -2516    -2880    -3031    -2668    -1810     -730      424     1590 
    2464     2662     2102     1094      160     -442     -908    -1225 
   -1025     -294      520      901      563     -207     -621      -74 
    1225     2264     2229     1150     -508    -2004    -2550    -2082 
   -1146     -205      385      373      -29     -167      418     1434 
    2164     2299     1937     1148       65    -1109    -2260    -3142 
   -3335    -2548     -984      584     1337      901     -548    -2267 
   -3375    -3429    -2664    -1660     -755       -1      628     1222 
    1787     2158     2052     1402      707      656     1450     2614 
    3401     3442     2896     2080     1161       28    -1528    -3422 
   -5208    -6423    -6766    -6082    -4585    -2798    -1106      402 
    1678     2479     2634     2343     1892     1548     1551     1620 
    1195      221     -821    -1321     -935      109     1139     1507 
    1092      453      199      363      698      922      680     -147 
   -1296    -2410    -3324    -4113    -4779    -5091    -4889    -4170 
   -3009    -1559      -42     1208     1896     2100     2240     2613 
    3189     3819     4143     3747     2797     1859     1101      283 
    -650    -1506    -2257    -2996    -3519    -3406    -2660    -1711 
    -826      -36      659     1119      965       11    -1432    -2796 
   -3556    -3546    -2861    -1670     -401      544     1052     1015 
     499     -135     -613     -658       46     1310     2456     2987 
    2912     2516     1976     1332      614      -47     -238      420 
    1575     2224     1709      162    -1983    -4174    -5866    -6858 
   -7057    -6373    -4999    -3199    -1113     1060     2892     3847 
    3757     2921     1730      731      539     1212     2200     2835 
    2726     1929      716     -663    -1924    -2773    -3029    -2656 
   -1798     -900     -423     -402     -668    -1062    -1269     -983 
    -158      958     1831     1953     1287      199     -890    -1615 
   -1832    -1734    -1465     -905      -41      896     1613     1803 
    1303      175    -1364    -2810    -3522    -3144    -1777      -11 
    1237     1259      153    -1224    -2023    -2009    -1393     -463 
     479     1003      747     -166    -1252    -1978    -1879     -938 
     397     1770     2919     3590     3696     3074     1588     -428 
   -2257    -3132    -2757    -1562     -191      804      966      313 
    -550     -944     -623      201     1166     1919     2189     2016 
    1574      906      180     -335     -707    -1160    -1753    -2412 
   -2981    -3360    -3592    -3696    -3602    -3152    -2121     -521 
    1230     2680     3639     4093     4082     3699     3135     2407 
    1265     -281    -1799    -2825    -3133    -2753    -1850     -782 
     -16      326      437      481      535      380     -343    -1482 
   -2603    -3521    -3942    -3325    -1603      456     1904     2263 
    1659      639     -290     -785     -684     -384     -468     -949 
   -1580    -2267    -2843    -3131    -3133    -2804    -1975     -714 
     548     1312     1323      746      -71     -974    -1653    -1581 
    -699      689     2213     3354     3945     4213     4115     3592 
    2864     2011     1054      212     -339     -512     -175      578 
    1228     1237      375    -1307    -3430    -5359    -6551    -6711 
   -5932    -4764    -3692    -2770    -1946    -1171     -306      684 
    1588     2192     2612     3065     3468     3669     3752     3771 
    3540     2873     1804      435    -1096    -2447    -3272    -3562 
   -3453    -3046    -2624    -2505    -2659    -2835    -2811    -2541 
   -2150    -1616     -823      102      930     1547     1989     2373 
    2654     2707     2518     2000     1059      -48     -738     -556 
     343     1393     2193     2507     2081      868     -753    -2090 
   -2592    -2249    -1481     -735     -313     -331     -688    -1258 
   -1887    -2313    -2506    -2741    -3141    -3452    -3265    -2362 
    -843      999     2728     3791     3819     2753      747    -1546 
   -3121    -3553    -3117    -2092     -554     1336     3223     4697 
    5390     5098     3924     2241      414    -1329    -2656    -3211 
   -2914    -1927     -515      935     1917     2002     1130     -374 
   -2072    -3497    -4328    -4683    -4771    -4527    -3754    -2312 
    -385     1423     2381     2073      740     -986    -2497    -3270 
   -3227    -2760    -2120    -1357     -423      887     2534     4126 
    5348     6043     6100     5610     4745     3547     2185      980 
      85     -510     -888    -1216    -1709    -2488    -3419    -4235 
   -4662    -4461    -3674    -2624    -1648     -990     -770     -951 
   -1361    -1782    -2024    -1847    -1066      159     1428     2458 
    3136     3457     3468     3184     2645     1909     1019      -11 
   -1150    -2203    -2910    -3130    -2717    -1564       70     1657 
