Origin Time       2024/06/23 22:54:00
Lat.              35.645
Long.             140.060
Depth. (km)       72
Mag.              4.1
Station Code      KNG204
Station Lat.      34.8931
Station Long.     139.5711
Station Height(m) -933
Record Time       2024/06/23 22:54:53
Sampling Freq(Hz) 100Hz
Duration Time(s)  61
Dir.              E-W
Scale Factor      2000(gal)/6182761
Max. Acc. (gal)   4.740
Last Correction   2024/06/23 22:54:54
Memo.             
[...]
      57       58       56       57       55       56       65       62 
      51       56       63       50       45       58       58       54 
      66       71       62       58       59       58       58       62 
      63       64       66       66       64       69       71       66 
      68       74       73       68       71       74       70       69 
      77       78       67       67       72       69       67       69 
      70       75       81       81       76       71       72       77 
      76       74       73       67       67       72       70       73 
      77       74       70       70       73       73       71       73 
      73       71       69       69       76       87       87       80 
      78       76       74       74       70       71       84       89 
      85       85       84       79       75       67       58       58 
      62       70       83       86       79       80       87       87 
      95      106      107       97       82       67       54       47 
      62       91      107       94       58       24       22       60 
     108      137      141      114       60       14       -3       14 
      50       63       45       14      -51     -123     -107        6 
     117      146      130      133      130      107       86       68 
      67       90       95       80       72       60       39       13 
     -22      -51      -47        5      101      191      179       21 
    -196     -297     -143      197      492      560      319     -134 
    -504     -491      -69      451      718      575       83     -467 
    -706     -455      104      566      653      324     -238     -693 
    -748     -322      302      669      544       59     -394     -513 
    -252      198      490      435      113     -270     -480     -337 
     115      495      479       95     -422     -686     -411      180 
     556      445      -22     -480     -578     -236      326      724 
     666      229     -201     -291       34      521      667      280 
    -338     -807     -792     -248      416      737      447     -300 
    -884     -829     -175      654     1095      827       18     -772 
   -1006     -566      250      920      990      449     -217     -532 
    -411      -37      334      541      525      309       75      -49 
    -143     -359     -703     -853     -520      116      611      659 
     265     -301     -658     -462      267     1001     1189      755 
      31     -641     -996     -746       67      902     1120      466 
    -556    -1101     -803       87      957     1153      502     -421 
    -858     -600       75      696      834      397     -412    -1189 
   -1351     -671      330      920      848      437      309      706 
    1151     1015      103    -1129    -1704     -983      490     1403 
     908     -721    -2283    -2544    -1264      756     2370     2650 
    1458     -370    -1628    -1375      302     1909     2020      730 
    -906    -1839    -1558     -458      533      750      123     -709 
    -742      214     1258     1538      969      -16     -839    -1091 
    -715        5      539      431     -171     -664     -704     -315 
     353      978     1174      822      180     -312     -352        7 
     432      560      195     -508    -1066    -1135     -729      -86 
     378      392      168       77      241      525      732      789 
     696      374     -221     -817     -915     -293      623     1055 
     603     -361    -1078    -1151     -709       -1      739     1161 
     955      179     -782    -1399    -1182     -181      957     1535 
    1177      137     -754     -831     -140      562      515     -116 
    -545     -368      241      907     1200      630     -843    -2203 
   -2092     -350     1716     2593     1718     -247    -1969    -2425 
   -1473      224     1733     2325     1699      225    -1364    -2495 
   -2585    -1303      764     2449     2814     1670     -356    -2196 
   -2766    -1606      528     2234     2603     1590     -142    -1633 
   -2066    -1145      567     1991     2246     1105     -778    -2269 
   -2527    -1519        7     1240     1713     1213       13    -1116 
   -1372     -514      783     1480     1202      511      106        0 
    -178     -448     -554     -435     -246      -43      191      276 
     -89     -901    -1630    -1667     -867      432     1674     2314 
    2019      927     -332    -1000     -731        9      428      284 
    -156     -607     -815     -628     -184      246      423      262 
     136      410      732      579       15     -446     -384       47 
     303      212       80       33     -208     -637     -713     -299 
     -10     -200     -430     -184      370      688      719      740 
     663      294     -223     -512     -349      -42      -80     -293 
     -73      495      643       20     -942    -1562    -1404     -445 
     921     1944     1940      940     -351    -1106     -799      342 
    1400     1651     1063      -38    -1290    -2163    -2039     -914 
     414     1145     1016      226     -751    -1327     -891      544 
    1863     1991     1067      -17     -631     -630     -161      315 
     358      -49     -738    -1428    -1572     -851      391     1393 
    1475      662     -211     -408       57      608      697      420 
     137     -191     -557     -636     -368      -24      205      201 
     -86     -490     -748     -677     -244      341      780      921 
     797      513      156      -74      -36       94      167      279 
     506      632      224     -796    -1733    -1702     -758       83 
     183      -98     -126      291      762      921      927      887 
     592       96     -285     -392     -219      195      560      317 
    -672    -1644    -1550     -109     1737     2521     1541     -599 
   -2427    -2569     -802     1723     3261     2583       83    -2264 
   -2783    -1524      246     1335     1342      387     -970    -1667 
   -1057      364     1386     1174      188     -361       61      970 
    1501     1144      218     -663    -1165    -1068     -526     -124 
    -214     -644     -958     -713       91      913     1162      770 
     100     -472     -549       95     1023     1491     1177      235 
    -870    -1510    -1299     -462      360      616       97     -837 
   -1341     -937       53      924     1120      749      459      557 
     755      726      356     -160     -358      -59      404      589 
     282     -384    -1041    -1348    -1188     -716     -186      104 
    -160     -689     -532      614     1792     1901      779     -633 
    -942      357     2187     2716     1007    -1927    -3720    -2653 
     537     3226     3348      874    -2358    -4002    -3081     -464 
    2190     3322     2208     -253    -2134    -2119     -332     1804 
    2563     1364     -850    -2375    -1996     -172     1303     1191 
    -101    -1252    -1280     -187     1219     1945     1455      116 
   -1089    -1402     -729      443     1332     1335      390     -911 
   -1635    -1256     -238      466      479       51     -381     -324 
     330     1100     1262      472     -631     -955     -146     1041 
    1509      917     -271    -1457    -2010    -1556     -499      414 
     654       88     -673     -656      295     1332     1640     1229 
     672      465      731     1065      765     -484    -2154    -3025 
   -2183      -90     1641     1553     -284    -2117    -2249     -607 
    1557     2842     2606     1134     -636    -1452     -640      993 
    1822     1040     -822    -2517    -2893    -1611      586     2269 
    2300      834     -851    -1608    -1144      153     1458     1933 
    1258      -86    -1089    -1163     -592      -44       24     -366 
    -726     -523      176      743      642     -161     -976     -939 
      22     1237     1883     1432       54    -1415    -2025    -1417 
    -105     1007     1257      480     -759    -1446    -1044      154 
    1386     1919     1541      594     -356     -736     -296      479 
     713       84     -797    -1130     -757      -47      502      514 
     129     -115       85      542      791      580       69     -527 
    -944     -884     -463      -24      217      108     -293     -717 
    -942     -838     -296      648     1558     1796     1181      134 
    -654     -644      126     1018     1228      401     -935    -1751 
   -1426     -226      942     1324      830     -125     -960    -1175 
    -565      479     1195     1185      548     -361    -1050    -1167 
    -765     -143      498      876      679      146     -206     -120 
     350      707      428     -304     -893     -961     -502      141 
     535      500      222      101      369      896     1247      998 
     287     -361     -679     -734     -693     -556     -204      138 
      42     -504    -1098    -1332    -1058     -385      424      959 
    1070     1170     1516     1633     1095      260     -283     -274 
     158      371     -312    -1637    -2436    -1830     -113     1491 
    1755      428    -1454    -2407    -1716      106     1825     2383 
    1482     -147    -1164     -788      564     1666     1514      283 
   -1013    -1531    -1013       56      730      571       17     -269 
     -10      467      422     -523    -1722    -2067    -1103      681 
    2141     2203      877     -690    -1296     -560      841     1676 
    1317       81    -1360    -2145    -1540      137     1537     1540 
     249    -1169    -1567     -759      536     1319     1067      173 
    -574     -769     -387      309      719      572      265      170 
     198       10     -543    -1073     -912      132     1379     1703 
     507    -1502    -2660    -1721      909     3279     3570     1649 
   -1056    -2852    -2918    -1543      310     1624     1711      533 
   -1112    -2134    -1779       79     2487     3774     3015      812 
   -1342    -2134    -1267      275     1123      693     -640    -1911 
   -2232    -1398      219     1781     2183     1012     -877    -1982 
   -1395      275     1489     1479      659     -274     -866    -1009 
    -783     -380     -140      -89      198      917     1568     1367 
     210    -1087    -1635    -1202     -100     1069     1485      825 
    -170     -673     -663     -430     -135      198      477      489 
     481      794      923      339     -579    -1122    -1019     -582 
    -166      224      430      230      -95     -240     -226       43 
     714     1642     2311     2000      498    -1380    -2376    -1952 
    -664      597     1032      159    -1432    -2282    -1548      288 
    1971     2320     1126     -572    -1390     -764      649     1531 
    1181      -30    -1402    -2195    -1739     -214     1330     1931 
    1269     -114    -1091     -833      538     1878     1984      861 
    -574    -1499    -1532     -782      251      875      384    -1203 
   -2551    -2142      -21     2271     3189     2230      130    -1593 
   -1759     -430     1310     2282     1871      230    -1692    -2616 
   -1855      -62     1291     1402      491     -746    -1466    -1182 
    -174      759      913      306     -275     -153      466      995 
    1145      830       33     -948    -1441    -1101     -395       -7 
    -109     -249      150      971     1506     1417      795     -182 
    -936     -748      332     1221      806     -703    -2000    -1996 
    -653      986     1730     1256      194     -560     -559      134 
    1015     1246      500     -678    -1453    -1304     -462      370 
     815      759      110     -787    -1241     -899      -31      731 
     915      512     -182     -917    -1398    -1138     -195      619 
     762      450      242      401      736      962      797      165 
    -467     -440      397     1363     1449      334    -1264    -2207 
   -1961     -976       51      684      524     -437    -1322    -1038 
     602     2496     3142     2094      184    -1408    -1790     -748 
     896     1764     1088     -517    -1431     -616     1298     2721 
    2471      535    -2022    -3560    -2723      390     3819     4959 
    2761    -1134    -3973    -4180    -1940     1203     3145     2521 
    -201    -2742    -2799      -95     3546     5608     4527      955 
   -2572    -3736    -2138      689     2533     2175      -20    -2651 
   -4275    -4423    -3744    -3195    -3226    -3662    -4149    -4550 
   -4787    -4350    -2479     1081     5595     9301    10113     7072 
    1549    -2929    -3043     1072     5417     5652      944    -5490 
   -9102    -7539    -2210     3308     5987     5003     2068     -157 
    -277     1633     4570     6562     5789     1972    -3544    -8109 
   -9079    -5897     -545     3384     2934    -1145    -4768    -4733 
   -1171     3687     7321     7927     5281      886    -2945    -4375 
   -3231    -1068      365      491      -42     -346     -179      219 
     528      611      693      891     1010     1019      863      185 
   -1093    -2602    -3889    -4346    -3348     -915     1944     3618 
    3001      569    -1776    -2073       -6     2291     2076     -874 
   -4012    -4484    -1412     3066     5203     3183     -768    -2375 
     276     4696     6610     4007    -1561    -6523    -7612    -4105 
    1189     3744      931    -5296    -9326    -6777     1498    10488 
   14680    11124     1731    -7254   -10031    -5614     2075     6986 
    5077    -2218    -9099   -10408    -5351     2514     8073     8268 
    4053     -853    -3110    -1739     1973     5320     5720     2575 
   -2195    -5494    -5296    -2056     1901     4190     3633      578 
   -3313    -5828    -5256    -1523     3219     5828     4483      -92 
   -5261    -7950    -6063        8     6699     9035     4683    -2902 
   -7172    -5155      419     4962     5920     3860     1240        5 
     184      497     -338    -2275    -3821    -3937    -3052    -1783 
    -303      849      877     -253    -1638    -2076     -555     3025 
    6830     8002     5261      -84    -5195    -7542    -6539    -3324 
     637     3770     4476     2476     -824    -3562    -4105    -1843 
    1405     2549      809    -1397    -1269     1717     5381     6585 
    4147      103    -2226    -1395      782     1240     -948    -3852 
   -5126    -4259    -2269     -295     1030     1651     1699     1164 
     239     -487     -271     1094     2596     3130     3217     4067 
    5421     5524     2844    -2239    -7194    -9138    -7092    -2716 
     954     1927      449    -1890    -3382    -2992    -1070      894 
    1600      828     -598    -1414     -745     1474     4282     5889 
    5038     2249     -716    -2291    -1917      -29     2099     2816 
    1369    -1368    -3737    -4500    -3538    -1774     -329       -9 
   -1077    -2670    -3046    -1224     1826     3943     3640     1392 
    -713     -831     1092     3375     3919     2019    -1049    -3370 
   -3775    -2126      909     3976     5389     4225     1221    -1620 
   -2310     -436     2212     2926      290    -4122    -6552    -4764 
    -258     3327     2977    -1261    -5664    -6190    -2359     2988 
    6379     5755     1827    -2058    -2699      156     4023     5882 
    4083     -855    -6465    -9435    -7851    -2998     1640     3125 
     956    -2725    -4580    -2524     2601     7578     9230     6654 
    1638    -2659    -3776    -1491     2042     3619     1318    -3433 
   -6483    -4757      775     6205     8010     5349       46    -5105 
   -7739    -6365    -1046     5785    10004     8406     1450    -6704 
  -10968    -8584    -1134     6213     8134     2987    -5414   -10408 
   -8019       88     8318    11055     6331    -2536    -9109    -8946 
   -2844     4536     8484     7161     2035    -3613    -6610    -5377 
    -643     4901     7991     6727     1959    -3205    -5491    -3762 
      -8     2512     2063     -720    -3443    -3816    -1691     1186 
    2636     1229    -2378    -5470    -5654    -2932      773     3412 
    3760     1531    -2133    -4736    -3901      891     7267    11100 
    9817     4438    -1532    -4587    -3453      165     3340     4050 
    1579    -3318    -8390   -11073    -9568    -3693     4133     9659 
    9680     4500    -2228    -6197    -5517    -1582     2589     4517 
    3349       17    -3228    -4188    -2439      320     2094     2409 
    1921     1324     1103     1299     1159     -267    -2582    -3886 
   -2852     -244     1900     2131      598    -1410    -2589    -2384 
   -1097      629     2439     4025     4588     3317      492    -2102 
   -2471     -682      863       92    -2359    -4048    -3480    -1358 
     550     1060       99    -1463    -2242    -1279     1204     4025 
    5596     4564     1031    -2804    -4081    -1847     1827     3764 
    2887     1010      413     1214     1509     -164    -2972    -4397 
   -2739     1089     4438     4961     2142    -2136    -5023    -5054 
   -2827     -120     1530     1769     1123      149     -912    -1765 
   -1885     -982      785     2787     3875     3073      512    -2398 
   -3837    -2929     -380     2093     2925     1814     -223    -1865 
   -2248    -1214      402     1101       30    -1985    -2988    -1648 
    1571     4577     4845     1710    -2247    -3304     -312     3916 
    5045     1422    -4392    -8085    -6888    -1184     5861    10041 
    8698     2951    -3072    -5647    -3706      910     4464     3909 
    -780    -6597    -9604    -7744    -2132     3924     6854     4868 
    -457    -4731    -4119     1420     8186    11441     8449      532 
   -7333   -10179    -6964    -1041     2803     2111    -1638    -4618 
   -3874      345     5194     7747     6793     3180    -1052    -3943 
   -4350    -2485       29     1449     1329      340     -950    -2482 
   -3967    -4625    -3933    -2056      217     1751     1837      719 
    -440     -287     1324     3078     3761     3450     2802     1852 
     193    -1890    -3049    -2153      230     2334     2897     1875 
      15    -1754    -2525    -1734      -26     1015      493     -962 
   -2037    -2022     -876     1105     2906     3317     2201      314 
   -1602    -2786    -2603    -1381     -127      390     -198    -1549 
   -2412    -1675      646     3583     5746     5956     3987      666 
   -2478    -3896    -3099    -1014      713      709    -1176    -3572 
   -4605    -3360     -464     2504     4242     4487     3573     1640 
   -1101    -3541    -4177    -2613      107     2292     2432      367 
   -2018    -2340     -149     2752     4140     3169      779    -1119 
   -1014     1114     3604     4385     2796     -155    -2854    -3980 
   -3295    -1746     -501     -222     -875    -1857    -2756    -3607 
   -4037    -3102     -502     2553     4061     2993      307    -1830 
   -1622     1058     4263     5536     4063      979    -1799    -3116 
   -3324    -3086    -2159     -262     1811     2874     2622     1834 
    1569     2293     3575     4167     2677     -969    -4947    -6942 
   -6086    -3557    -1403     -877    -1771    -2893    -3045    -1726 
     798     3526     5010     4422     2351      241     -791     -486 
