Origin Time       2024/06/23 22:54:00
Lat.              35.645
Long.             140.060
Depth. (km)       72
Mag.              4.1
Station Code      KNG204
Station Lat.      34.8931
Station Long.     139.5711
Station Height(m) -933
Record Time       2024/06/23 22:54:53
Sampling Freq(Hz) 100Hz
Duration Time(s)  61
Dir.              N-S
Scale Factor      2000(gal)/6182761
Max. Acc. (gal)   2.357
Last Correction   2024/06/23 22:54:54
Memo.             
[...]
    -368     -725     -247      293      323      279      529      593 
     123     -361     -191      392      586      379      411      595 
     405       30     -131     -237     -518     -672     -225      524 
     656       64     -408     -295      133      555      854      933 
     693      268      -88     -473     -848     -475      805     1709 
    1290      181     -638     -855     -480      237      792     1001 
     784     -207    -1448    -1572     -443      715     1143      832 
     124     -148      336      715      554      480      575      279 
    -195     -169      272      402     -115     -770     -859     -298 
     386      792     1025     1025      425     -476     -802     -309 
     383      729      831      702      -70    -1187    -1473     -478 
     800     1286     1016      625      507      520      258     -182 
    -183      352      758      539     -177     -941    -1173     -619 
      85      190       68      449      951      828      364      160 
     165      135      -25     -119      266      821      763      279 
      39     -102     -320      -78      631      784      -33     -817 
    -738     -215       34     -175     -536     -464      171      591 
     427      528     1203     1389      594     -177     -167       70 
       5       79      549      675     -141    -1271    -1656    -1142 
    -239      712     1324     1219      741      414       71     -448 
    -561      179     1103     1221      567     -280     -928     -835 
     -94      241       79      234      554      445       -7     -493 
    -880     -859     -106      913     1282      865      203     -292 
    -440     -191      363      919     1114      949      657      283 
    -209     -669     -721     -136      565      596       89     -252 
    -381     -595     -587       68      936     1087      474       28 
      29      -98     -269       59      582      525     -149     -592 
     -27      929      666     -892    -1815     -937      639     1167 
     428     -238       51      736     1006      845      585      271 
      -7       20      114     -143     -440     -301      176      641 
     629     -141     -905     -511      714     1099      109     -649 
      34     1068     1040      269     -227     -268     -157      213 
     996     1357      283    -1267    -1229      446     1762     1354 
    -150    -1143     -872       17      525      536      606      680 
     395       39     -195     -470     -624     -449       30      510 
     510      223       80     -150     -322      134      733      630 
     218      192      137     -286     -198      716     1019       64 
    -468      445     1338      947       71     -201     -105     -171 
    -192      -91     -190     -232       87      235      -76     -352 
    -351     -130      421     1063     1136      543     -101     -397 
    -300      151      614      683      385       70     -177     -591 
    -898     -547      254      828      748      158     -254      -69 
     568     1320     1540      775     -294     -583      -90      320 
     248       40      -67     -257     -702    -1137     -937      -12 
     787      744      214       62      371      496      427      678 
     928      494     -231     -239      497      944      664      412 
     528      194     -838    -1287     -333      678      402     -291 
    -343     -214     -314     -242      430     1438     1566      235 
   -1120     -987      180      872      581      298      612      571 
    -317     -817      -72      752      334     -509     -310      494 
     698      276     -170     -273      -62      164      330      580 
     754      409     -417     -930     -657      -63      364      519 
     244     -325     -569     -327       12      254      418      632 
     950      937      279     -359     -106      671      768       25 
    -419       43      740      890      566      383      516      410 
    -232     -766     -580     -139     -128     -359     -393     -265 
    -197     -162      197      908     1306     1197     1047      835 
     368      -95     -341     -439     -540     -603     -481     -373 
    -491     -570     -344      253     1171     1711     1219      428 
     427      979      964      -52    -1152    -1295     -636       65 
     467      518      120     -658    -1322    -1175      -96     1046 
    1432     1282     1086      724       99     -254      113      775 
     798      -91    -1007    -1139     -685      -89      416      597 
     416      189      293      842     1404     1308      539     -322 
    -835     -802     -479     -485     -793     -580      496     1489 
    1298      321     -113      260      473      112     -131      115 
     353      293      288      411       13     -829     -716      651 
    1439      571     -610     -781     -336      135      514      385 
    -178     -111      729      968      164     -406      -72      376 
     380      388      762      902       69    -1208    -1504     -367 
    1002     1274      598       78      115      109     -415    -1042 
    -952     -178      310      197       36      -10       59      627 
    1453     1463      489     -241       17      493      360      128 
     354      370     -185     -594     -563     -466     -409     -205 
     132      279      221      499      976      570     -623     -927 
     203     1332     1324      547     -199     -609     -715     -508 
      94      831     1062      709      366      163      -62      -53 
     141       88       37      417      658      141     -569     -785 
    -711     -624     -496     -357     -131      458     1379     1895 
    1378      236     -582     -357      621      960      265     -155 
     141      122     -519     -874     -449      -72     -381     -430 
     465     1244     1002      296       10      321      776      805 
     226     -466     -576     -214     -105     -236      -19      291 
     155       86      553      766       77     -748     -669      128 
     648      520      229      168      224      202      147      204 
     372      411      109     -355     -555     -270      224      480 
     550      679      640      214     -159       -3      394      519 
     340       37     -286     -564     -649     -198      664     1049 
     696      374      437      677      916      718       17     -406 
    -203      145      202     -114     -584     -958     -971     -291 
     664      934      529      312      608      888      704      309 
       2     -402     -850     -792     -251        4     -201     -192 
     224      424      281      348      525      354      174      375 
     579      387      -37     -250       28      553      597     -181 
    -910     -505      528      827      337       74      346      545 
     296     -103     -240        9      424      641      603      462 
     145     -389     -701     -293      362      435      177       94 
      38       33      154      170      109      195      596     1050 
     597     -730    -1236     -388      352      377      375      432 
     297      198      347      670      949     1067      902       68 
   -1126    -1428     -539      386      553      176     -257     -289 
     223      800      856      569      495      376     -232     -876 
   -1111     -998     -473      392     1025      959      348     -221 
    -116      834     1758     1491      364     -284     -106      340 
     607      461       -8     -487     -655     -334       81      119 
    -101     -445     -886     -976     -129     1351     1876      573 
    -990     -964      268     1101      893      342      214      356 
     216     -113     -130      113      327      585      745      443 
    -295     -973     -914     -126      406      104     -396     -395 
    -146      -29      493     1522     1568      164     -602      251 
     814      221      197     1178     1176     -249     -955     -103 
     503     -122     -502      242      697      -41     -695     -196 
     588      536       37       20      431      558      231      -68 
    -190     -442     -665     -529     -347     -368     -206      406 
    1076     1187      841      811     1111      977      404      -63 
    -230     -104     -209    -1175    -2251    -2128     -777      744 
    1347      935      436      330      441      945     1723     1801 
     967      366      451      164    -1048    -1929    -1286      -25 
     353      -30     -268     -112       85      -87     -347      199 
    1396     1648      331     -953     -681      604     1331      749 
    -378     -587      371     1127      831      150     -390     -872 
    -806      258     1271      812     -633    -1181     -334      458 
     207     -358     -314      128      419      634      850      641 
     -17     -190      699     1493      757     -825    -1375     -415 
     734      646     -213      -84     1049     1472      720     -228 
    -666     -443       64      214       52     -125     -508     -938 
    -745       37      599      513      187      262      808     1188 
     865      140     -163      306      955     1046      586      -71 
    -778    -1204     -899     -229     -160     -775    -1055     -340 
     711      935      396      309      683      402     -102      347 
    1083      789     -206     -589      -49      488      422      145 
      98      151       71      -38      180      863     1206      356 
    -642     -279      575      250     -656     -647     -194     -413 
    -648      -30      675      639      292      393     1145     2135 
    2602     2153     1352      957      760      227     -376     -598 
    -744    -1385    -2207    -2429    -2165    -1846    -1160        9 
     896      937      506      478     1265     2057     1806      912 
     386      139     -298     -632     -407      336     1226     1654 
    1289      776      993     1765     1838      402    -1428    -2247 
   -2771    -3949    -4583    -3610    -2447    -2688    -3375    -2693 
    -964      101      129      332     1706     3942     5875     6671 
    6241     4720     2476      572       63      670     1169      914 
      19     -997    -1387    -1253    -1330    -1514    -1483    -1446 
   -1324    -1014     -854     -965    -1281    -1742    -1913    -1253 
     274     1857     2477     2621     3228     2782      -20    -2202 
    -691     2618     4280     3705     2028      439     -106     -219 
   -1416    -2941    -2437     -246      582    -1094    -3159    -3360 
   -1584      662     2280     3068     2732     1455      214     -542 
   -1117    -1659    -2031    -2503    -3089    -2650     -838      949 
    1910     2605     3368     3664     2984     1864     1066      619 
     989     2515     3105      535    -3732    -6009    -4642    -1539 
     803     2365     3770     4133     2843      794    -1020    -2409 
   -3138    -2618    -1556    -2006    -3928    -4434    -2049     1438 
    3779     4247     3072      806    -1230    -1067     1353     2968 
    1452    -1412    -2379     -881     1010     1561     1079      622 
     254     -154      255     1454     1432     -812    -3619    -4740 
   -3324     -517     2033     3932     4778     3555     1065      -38 
    1201     2770     2505      539    -1063     -743      260     -461 
   -2428    -2642     -153     2370     1733    -2127    -5343    -4375 
    -794     1654     2271     2022     1087     -107     -362      898 
    2288     2123     1023      243     -319     -542      309     1712 
    2069      943     -849    -2770    -3353     -475     3349     2381 
   -2589    -4785    -2220     1009     2123     1642      858      426 
     222      321     1016     1411      513     -550     -379      315 
     901     1759     1827      249    -1010     -474      175     -783 
   -2303    -2428    -1052      532     1151      144    -1623    -2205 
   -1468     -879     -829     -483      796     2230     2283     1452 
    1742     2913     2918     1199     -587     -128     2525     4215 
    2899     -269    -3383    -4860    -3879    -1611      184      812 
     -15    -1715    -2371     -963     1145     2055     1801     1427 
     623     -751     -983      273      946      615      842     1728 
    2262     2008      779     -829    -1711    -2072    -2091     -658 
    1592     1874     -261    -2099    -1786      -19     1485     1641 
    1160     1350     1442     -210    -2710    -3580    -2241     -150 
    1329     1675     1217     1165     2161     2804     1638      -39 
    -112      827      979      446       62     -624    -2104    -3839 
   -5059    -4714    -2104     1213     2954     3106     2931     2769 
    2265     1565     1260     1087      349     -282      214     1069 
     804     -570    -2097    -3337    -3634    -2022      571     1742 
    1132      721     1386     1920     1513      926     1081     1503 
     812     -765    -1270     -502     -301     -931    -1171    -1201 
   -1608    -1194     1029     3413     3773     2495     1637     2029 
    2603     1836     -400    -2046    -1461     -213     -451    -1447 
   -1473     -849    -1094    -2253    -2802    -2199    -1491    -1006 
     230     2283     3579     3060     1752     1069      460    -1136 
   -2406    -1435      774     1808     1350      433     -949    -2741 
   -2883      543     5531     7432     4748      858     -953     -939 
    -767    -1258    -2225    -2780    -2478    -1841    -1619    -2220 
   -2770    -1986     -625     -108      188     1782     4336     5072 
    2544      111     1052     2649      898    -2610    -3686    -1602 
    1263     2700     1976      -26    -1705    -2309    -1707       57 
    1508      996     -123      334     1348     1290     1210     1979 
    2207      647    -2032    -3956    -3812    -1915      279     1114 
     -14    -1705    -2006     -848      348     1307     2963     4790 
    4927     3044      575    -1324    -2166    -1668     -688     -994 
   -2183    -1469     1477     3227     2240     1217     1752     1979 
    1152     1023     1733     1218    -1006    -3190    -4117    -3845 
   -2580     -531     1623     2685     1991      688      250       53 
   -1351    -3459    -4125    -2401       95     1531     1974     2169 
    2421     2755     2762     1806       -4    -1007      479     2973 
    2988      227    -1800     -872     1004      729    -1510    -2988 
   -2438     -687     1261     2315     1235    -1648    -4164    -4571 
   -2707      406     2443     1370    -1561    -3290    -3104    -2186 
    -680     1863     4422     5174     3949     2138      355    -1271 
   -1454      269     1941     2337     2194     1466     -386    -2149 
   -2219    -1098     -320      160     1039     1475      536     -975 
   -1844    -1587     -254     1316     1945     1702     1907     2949 
    3360     1839     -786    -2311    -1980    -1621    -2596    -3169 
   -1372     1227     1828      987     1258     2508     2502     1031 
    -149      -98      949     2120     1905     -270    -2805    -3665 
   -2246      413     2037      967    -1718    -3343    -2759     -916 
     961     2193     2629     2692     2708     2314     1157     -284 
   -1228    -1475    -1228     -629      -27      104     -153     -588 
   -1255    -1427     -166     1440     1421      280      130     1150 
    1676      985      145      122      -47    -1475    -2808    -2266 
    -629      455      922     1458     2094     2238     1489      409 
    -188     -495     -946    -1174    -1024    -1077    -1458    -1636 
   -1166       22     1205     1335      823     1055     1690     1183 
     -13     -198      356      565     1144     2587     3137     1507 
   -1053    -2811    -3437    -3272    -2384    -1183     -418      202 
    1268     1799      814     -554     -713      274     1196     1333 
    1096     1005     1138     1666     2313     2224     1411      798 
     805      823     -172    -2250    -3712    -2930     -751      753 
    1055      730      260      526     1829     2761     2316     1397 
     988      980     1057      940       97    -1574    -3141    -3632 
   -3341    -2941    -2030     -514      245     -416    -1166     -382 
    1909     3933     4106     2572      668     -251       80      629 
     573      -10     -779    -1077     -637     -477    -1033     -974 
     309     1516     1761     1597     1370      817      295      435 
     783      247    -1372    -3094    -3737    -3018    -1857    -1114 
    -399      757     1582     1444     1210     1636     1939     1478 
    1167     1717     2195     1593      331     -584     -887    -1220 
   -2015    -2344    -1028     1222     2505     2260     1364      156 
   -1608    -2861    -1938      692     2732     2602      833     -406 
      91     1227     1956     2551     2775     1526     -913    -2493 
   -2142    -1119    -1040    -1916    -2573    -2259    -1435    -1011 
    -960     -469      714     2102     3075     3189     2516     1709 
    1511     2020     2469     2119     1100      223      189      692 
     669     -190    -1239    -2029    -2314    -1663     -315      474 
    -263    -2000    -3108    -2406     -247     1909     2840     2531 
    1857     1398      987      336     -579    -1671    -2500    -2394 
   -1572    -1031     -880     -365      654     1537     1440     -195 
   -2539    -3258    -1132     1793     2594     1234     -101     -321 
    -100      132      798     1331       63    -2804    -4684    -4057 
   -1783      897     3034     3755     3388     3103     2886     2016 
     927      637     1125     1357      699     -229     -616     -785 
   -1336    -1876    -1804    -1107      159     1598     2105     1438 
     847     1179     2064     2910     3172     2253      190    -1954 
   -2923    -2234     -468      911      698     -571    -1419    -1631 
   -1781    -1500     -469      295     -211    -1610    -2580    -1984 
    -191      970      738      681     2093     3721     3661     2164 
     771     -116    -1076    -1900    -1692     -575      330      618 
     953     1617     1715      724     -338     -528      -46      530 
     450     -556    -1668    -2253    -2097     -708     1452     2553 
    1598     -178     -942     -607     -370     -455      -64      581 
     299     -391      497     2800     4223     3797     2246      230 
   -1589    -2498    -2808    -3372    -4041    -3951    -2808    -1009 
     902     2535     3657     3981     3401     2244      952      147 
     462     1364     1259     -575    -3042    -4328    -3686    -2052 
    -808     -420     -502     -562     -306      308      923     1076 
     913     1061     1785     2598     2541     1404      414      505 
    1083     1486     1801     1838     1424     1387     2230     2782 
    1829     -120    -1800    -2732    -3033    -2769    -2222    -1849 
   -1563     -900       23      548      343     -466    -1550    -2060 
   -1067      898     2012     1479      372     -183     -199      -50 
     129      362      951     1934     2422     1805     1055     1272 
    1798     1513      801      493      297     -360    -1194    -1551 
