Origin Time       2024/06/23 22:54:00
Lat.              35.645
Long.             140.060
Depth. (km)       72
Mag.              4.1
Station Code      KNG205
Station Lat.      34.9413
Station Long.     139.4213
Station Height(m) -1486
Record Time       2024/06/23 22:54:55
Sampling Freq(Hz) 100Hz
Duration Time(s)  66
Dir.              U-D
Scale Factor      2000(gal)/6182761
Max. Acc. (gal)   0.743
Last Correction   2024/06/23 22:54:55
Memo.             
[...]
      98      100       93       99      106      104      111      123 
     123      123      123      104       81       78       84       97 
     102       87       69       57       62       78       74       56 
      44       49       84      123      139      127      111      146 
     202      214      197      151       69       24       36        5 
    -116     -222     -194      -36      167      346      445      430 
     344      283      317      400      418      332      141     -128 
    -324     -306     -176     -214     -380     -312      -10      216 
     313      367      427      568      748      796      657      464 
     358      325      208     -102     -469     -659     -700     -733 
    -661     -448     -356     -418     -332      -77       60      -16 
     -72      210      720      940      683      244       -3       90 
     218       89      -25      148      411      446      118     -359 
    -501     -180      145      173      123       84      -47     -121 
      -5       75      -49      -51      369      784      665      223 
    -163     -428     -412      -47      332      422      244      -27 
    -323     -489     -258      140      387      617      705      409 
      43     -104     -169     -254     -234       35      412      471 
     112     -240     -350     -326     -169       57      183      228 
     226      142       26      -11       31        2      -50      131 
     432      454      201       16       30      152      227      112 
     -71      -91       51      191      129     -122     -209       67 
     363      268      -72     -188      125      580      677      358 
     -80     -526     -701     -275      340      551      330       -5 
    -143     -140     -171       -2      455      708      391     -189 
    -470     -333     -132      -36      150      364      296       47 
    -120     -153        0      180       92      -87      -67        7 
      28       42      -42     -164      -90      220      596      820 
     772      491      162      -85     -278     -388     -365     -213 
     -25      -82     -317     -208      191      381      401      501 
     617      615      422      167      135      249      163     -111 
    -319     -403     -427     -393     -219      108      362      376 
     329      441      569      534      527      617      568      424 
     313       69     -307     -576     -731     -750     -402      138 
     188     -474    -1073     -881     -365     -244     -135      578 
    1363     1226      349     -189      -20      496      856      569 
     -86     -359     -273     -292     -350     -159       50       -1 
      49      411      603      390      141      -62     -400     -475 
      20      362        2     -272      148      511      285     -185 
    -630     -577      307     1105      859      -20     -560     -376 
     147      505      567      319     -111     -339     -227       35 
     314      480      388      156      -13     -143     -264     -321 
    -254      -43      108       79      100      219      226      124 
      78      158      203      -51     -383     -197      413      649 
     364      143       74        9      144      392      436      190 
    -270     -559     -377     -167     -245     -169      124      213 
     173      178      160      305      576      539      274       63 
    -304     -648     -314      439      874      865      466     -112 
    -377     -206      129      289       85     -248     -381     -437 
    -626     -593       -2      574      463        7     -165      -12 
     277      536      617      489       40     -560     -655     -161 
     290      461      513      387      126       57      181      126 
     -92       20      339      124     -412     -395      108      471 
     488      218     -158     -357     -187      165      206       34 
     200      403       50     -421     -328      104      268      160 
     224      491      598      421      134      -91     -238     -354 
    -421     -344      -30      257       43     -376     -201      427 
     662      396      157      104       47      -14       93      324 
     410      310      148      -99     -231       64      397      171 
    -312     -406      -94      239      288       93      -64     -107 
    -197     -282       15      698     1068      676     -114     -657 
    -480      135      290      -81     -222       16      201      142 
      20       14        9     -120     -226     -103      226      466 
     435      336      383      467      357       81     -182     -353 
    -231      223      372      -84     -518     -605     -450        5 
     484      576      433      277      -10     -356     -339       31 
     289      299      156      -30        2      245      335      163 
      39      153      292      216       55       86      257      291 
     212      183       79     -141     -183       53      224        2 
    -437     -543     -184       55     -166     -319       -5      370 
     487      509      422      199      151      255      222      146 
      47     -211     -333      -32      387      435       12     -550 
    -779     -416      265      674      596      364      269      186 
      37      -31      -42       86      382      354      -52     -241 
    -135       -2      131      140     -111     -377     -236      301 
     667      524      138     -193     -400     -296      191      627 
     630      357       97      -39     -122     -339     -551     -265 
     433      802      672      491      316      -19     -224      -22 
     212       23     -329     -385     -218        7      242      229 
    -105     -374     -238      112      240      256      447      445 
     130       86      299      186     -209     -323       23      403 
     418       84     -289     -276      164      582      668      447 
     171       94       47     -178     -276       -6      393      698 
     764      347     -393     -803     -598     -266     -287     -305 
     215      791      691      159     -299     -587     -587     -309 
      18      439      917     1052      689       95     -442     -730 
    -516      257      947      902      406      -57     -491     -735 
    -466       72      369      246     -194     -528     -335      224 
     699      764      343     -259     -574     -405      -30      145 
     190      320      291        3     -227     -310     -199      210 
     563      608      582      464      116     -212     -304     -163 
      46      -40     -298     -108      317      135     -384     -290 
     216      347      210      270      439      448      244      -98 
    -350     -340     -207     -105      -25       56      111       78 
      35      119      270      409      502      300     -264     -623 
    -397       -7      192      389      699      817      399     -323 
    -741     -645     -216      274      540      555      452      188 
    -197     -366     -152      163      279      219      147       42 
    -234     -497     -407      -67      272      593      705      395 
     -64     -296     -213      -60      -92      -55      209      278 
      82      -49     -158     -267     -183        0      159      317 
     412      463      507      503      444      181     -282     -474 
    -202       26     -159     -420     -301      156      502      379 
     -86     -385     -126      437      591      209      -78       24 
     159       53     -151     -195     -105      -14      131      204 
      59       24      224      345      306       93     -198     -116 
     385      710      446     -140     -522     -537     -274      130 
     394      356      223      192      187      224      374      429 
     200     -220     -469     -244      189      397      329      120 
     -84     -232     -298     -211     -137     -180     -134        7 
     129      315      601      711      379      -58     -179      -86 
     149      444      545      491      286     -239     -805     -977 
    -662       26      814     1180      698     -259     -752     -402 
     345      831      741      258     -230     -510     -619     -591 
    -354      113      614      779      531      154     -223     -510 
    -447      -38      433      702      646      387      117      -38 
     -91     -254     -427     -245      111      296      364      289 
      65      -92     -132      -78       17      -35      -49      314 
     714      582       41     -390     -436     -174       79       45 
    -136      -13      478      809      645      151     -380     -615 
    -435      -70      264      378      244      210      399      426 
      74     -384     -541     -257      208      428      271       60 
      47       66      -27      -59      106      255       92     -227 
    -325     -199      -24      153      390      618      441     -177 
    -556     -291      190      333      165       64      147      338 
     583      587      119     -402     -495     -296      -89      100 
     271      390      457      357       55     -219     -349     -412 
    -405     -209      257      666      607      302      101      -41 
     -32      216      342      166      -26     -125     -188      -81 
     206      463      509      288      -14     -187     -213      -30 
     253      319      191      -21     -328     -442     -221       22 
     288      732      974      636       57     -221     -241     -372 
    -582     -507      -61      431      593      385       83     -177 
    -406     -385      -25      283      278       85      -42       84 
     286      270      136       84       60        0      -67      -90 
      77      438      709      654      218     -363     -636     -465 
       7      532      666      359       89      -19     -141      -70 
     281      436      195      -22      -34     -113     -285     -326 
    -271     -158      230      664      583      225      106       61 
     -21       43      140      183      326      457      257     -283 
    -669     -420      123      278       66     -184     -366     -223 
     295      656      679      654      487       -1     -567     -784 
    -280      646     1048      641      -65     -605     -695     -399 
     -51      251      404      221     -118     -310     -262       81 
     577      867      889      755      341     -336     -844     -759 
     -75      563      447      -40      -48      177      108      202 
     553      422      -33      -98      -43     -355     -698     -691 
    -552     -326      328     1009      921      283     -153     -243 
    -166       73      288      147     -101       41      302      195 
     -42      -60      -15       30      214      269       30     -126 
    -198     -440     -408      225      803      749      396      209 
      32     -322     -494     -228      205      495      533      358 
     193      112      -86     -232      113      696      888      651 
     147     -589     -995     -585      -32     -179     -676     -653 
     -28      576      746      456       -8     -114      205      502 
     557      461      413      405       58     -664    -1174    -1083 
    -596     -102       96      -53      -16      579     1051      956 
     787      580      187       63      191      168      134      155 
    -188     -977    -1467     -994      -94      411      688      812 
     299     -379     -199      676     1134      785      419      454 
     470      373       98     -577    -1128    -1111     -963     -809 
    -247      504      811      519      -24     -328     -113      410 
     717      731      881     1015      459     -667    -1439    -1287 
    -546      135      621      930      824      476      205     -206 
    -708     -743     -328     -121     -169      146      604      564 
     395      470      426      373      560      367     -432     -959 
    -770     -260      240      435      159     -162       -7      501 
     700      300       -6      448     1074      910      160     -447 
    -849     -983     -656     -192      208      582      709      527 
     241       37      -15       32      172      191     -232     -744 
    -839     -589     -156      306      424       69     -156      222 
     573      328     -121     -368     -250      157      279       62 
     123      369      403      497      785      856      391     -455 
   -1064    -1021     -616     -296     -127       95      536     1001 
    1103      873      542       18     -690    -1148     -909      -64 
     746     1063      932      590      329      164     -223     -736 
    -780     -182      600      913      393     -396     -723     -792 
    -657      141     1226     1703     1401      672     -246     -930 
    -884     -434     -219     -219     -336     -563     -404      325 
     797      559      307      444      438       47     -335     -366 
     168      831      636     -197     -681     -764     -690     -407 
      88      753     1236     1119      450     -514    -1165     -682 
     409      558     -257     -705     -394       71      278      265 
     266      388      491      439      258      -96     -550     -547 
      90      458      178      180      659      627     -135     -729 
    -468      391      963      634     -331    -1224    -1687    -1578 
    -806      309     1332     2083     2383     1995     1000      -24 
    -671    -1164    -1452     -912      302     1089      889      150 
    -567    -1092    -1253     -808       67      797      862      395 
     162      354      423      219      127      373      744     1016 
    1140      876      178     -566    -1161    -1458    -1128     -350 
     219      129     -511     -835     -157      894     1231      709 
      70      -15      331      519      422      223     -291     -991 
   -1116     -689     -381     -150      207      445      715     1207 
    1204      413     -201     -320     -520     -605     -231      243 
     672     1006      907      413     -227     -857    -1125     -967 
    -682     -144      767     1398     1152      360     -267     -441 
    -314       52      664      979      427     -595    -1251    -1108 
    -178      863     1026      329     -370     -714     -653      -47 
     593      560      110      -92       98      420      552      268 
    -197     -197      318      646      529      298     -165     -978 
   -1212     -271      821      991      423     -124      -33      691 
    1201      791     -129     -807    -1053     -879     -332      330 
     755      571     -130     -587     -343      232      527      297 
     -90     -221     -245     -270     -168     -125      -50      533 
    1247     1268      654     -120     -762     -940     -574        7 
     532      886      942      611       15     -571     -944     -849 
     -92      873     1285     1030      442     -361    -1141    -1373 
    -935     -147      658     1115     1061      627      -84     -739 
    -792     -371     -195     -365     -285      129      318      223 
     416     1059     1447      853     -385    -1318    -1503    -1005 
    -120      636      940      827      359     -156     -120      362 
     470       40     -331     -346      -54      446      750      492 
    -117     -573     -442      207      584      217     -412     -781 
    -730     -190      492      761      602      337       80      -51 
     200      549      218     -657    -1006     -557       59      577 
    1002     1028      478     -357    -1022    -1093     -467      345 
     810      822      418     -190     -640     -775     -676     -352 
     325     1087     1323      941      275     -442     -922     -974 
    -714     -218      391      720      556      226      117      163 
     185      177      149      173      292      193     -434    -1109 
    -885      239     1142     1119      641      354      150     -184 
    -319     -176     -178     -484     -739     -599     -115      580 
    1113      929      346      141      331      451      270      -68 
    -364     -428      -41      444      403      -22     -409     -633 
    -406      262      677      611      441       58     -622     -891 
    -449      -35      -85     -172       11      224      363      677 
     957      710      208      -29     -167     -326     -211        8 
    -148     -540     -583       44     1033     1643     1397      357 
    -909    -1424     -715      472     1053      682     -310    -1215 
   -1351     -630      503     1463     1706     1121      224     -445 
    -672     -514     -328     -346     -326        0      457      540 
      91     -366     -312      110      443      537      570      547 
     255     -114     -122      127      192      113      241      432 
     336      193      256      257       93      -66     -201     -345 
    -563     -779     -518      295      786      479      -20     -183 
      19      457      679      285     -355     -677     -660     -398 
      88      616      825      484       -4     -206     -469     -900 
    -738      280     1217     1232      626       76     -368     -751 
    -704     -190      300      477      499      555      527      280 
      43       13       -9     -222     -489     -458       30      590 
     744      544      226      -98     -277     -298     -333     -327 
     -54      425      758      773      580      147     -590    -1223 
   -1155     -332      676     1187      896       48     -834    -1303 
   -1120     -461      251      765      806      308     -163     -216 
      -4      287      463      516      573      391     -152     -578 
    -459       26      286       66     -158       59      478      723 
     816      793      493       64     -199     -388     -572     -679 
    -737     -511      170      823      914      437     -204     -497 
    -237      253      548      555      273     -213     -483     -279 
     160      482      538      346       70       11      202      251 
       5     -169      -82      -41     -279     -516     -453     -241 
     111      702      983      572       57      -32      151      269 
     161      -51     -153      -70      221      557      713      670 
     275     -422     -798     -593     -210       19      -23     -338 
    -552     -277      248      670      924      952      772      295 
    -554    -1179    -1018     -469      -75      297      802     1090 
     915      399     -256     -684     -540        3      425      443 
      78     -444     -668     -342      318      912     1069      675 
     -73     -847    -1225     -950     -380     -103      -95       69 
     363      349      -45     -333     -130      431      883      846 
     421       13     -185     -248     -245     -203     -284     -502 
    -568     -388      -36      542     1141     1276      827       70 
    -735    -1241     -993      -85      732      990      812      405 
     -89     -476     -429      176      792      925      683      116 
    -653     -964     -550       -5      199      230      387      632 
     697      455       43     -235     -211     -159     -398     -709 
