Origin Time       2024/06/23 22:54:00
Lat.              35.645
Long.             140.060
Depth. (km)       72
Mag.              4.1
Station Code      KNG202
Station Lat.      34.7396
Station Long.     139.8393
Station Height(m) -2339
Record Time       2024/06/23 22:54:54
Sampling Freq(Hz) 100Hz
Duration Time(s)  61
Dir.              E-W
Scale Factor      2000(gal)/6182761
Max. Acc. (gal)   4.346
Last Correction   2024/06/23 22:54:54
Memo.             
[...]
     456      455      455      452      448      449      451      450 
     452      455      452      447      449      451      447      446 
     446      442      439      443      446      439      434      437 
     443      446      442      437      436      435      439      442 
     436      432      435      437      437      437      436      435 
     430      431      436      441      442      435      430      433 
     431      431      436      433      429      432      436      436 
     434      433      430      431      443      442      426      423 
     427      426      431      433      431      438      435      423 
     428      442      439      433      434      431      430      436 
     433      428      433      438      434      436      440      439 
     443      447      441      440      448      447      440      446 
     452      453      451      445      445      449      446      445 
     451      451      448      452      454      448      445      449 
     450      449      450      450      445      445      452      456 
     458      453      451      463      467      454      451      457 
     456      452      450      451      450      452      462      463 
     456      457      459      453      450      451      456      458 
     455      452      451      448      451      457      454      446 
     449      453      445      448      457      451      447      451 
     440      432      448      450      437      443      443      436 
     446      447      441      442      438      433      436      440 
     444      442      436      434      433      430      432      447 
     448      436      446      452      436      430      436      438 
     437      437      445      461      465      456      449      437 
     430      444      452      441      440      446      445      448 
     457      464      474      476      463      450      441      436 
     441      454      464      469      476      480      476      468 
     457      453      456      457      456      456      465      475 
     468      462      468      477      481      466      459      471 
     465      450      451      463      477      480      476      468 
     457      467      484      478      465      463      465      460 
     457      468      470      472      495      502      476      456 
     445      426      406      408      443      488      518      532 
     519      489      453      415      397      402      416      432 
     437      445      456      446      441      464      514      565 
     551      494      446      375      298      285      331      419 
     538      641      665      594      479      365      291      300 
     368      459      533      528      478      466      491      523 
     575      603      534      412      307      211      172      249 
     405      562      662      676      624      529      407      333 
     367      450      532      572      489      327      226      263 
     427      645      826      872      730      449      144      -44 
       5      288      623      829      897      826      589      340 
     243      276      361      449      499      479      383      277 
     245      325      526      749      858      816      633      373 
     179      105      126      267      477      627      691      659 
     501      316      254      333      487      648      770      790 
     628      342      105       21      125      410      756      945 
     852      558      216      -12       33      326      650      848 
     887      725      439      259      254      322      421      487 
     408      265      236      354      563      793      940      919 
     688      299        5       -1      222      555      851      944 
     810      498      121      -76       -1      264      611      828 
     813      638      339       60       -7      125      420      854 
    1188     1222     1022      630       74     -385     -551     -443 
     -91      397      814     1005      965      814      615      369 
     188      178      236      223      257      452      611      640 
     693      719      577      410      351      302      235      244 
     300      307      296      296      256      220      287      483 
     782     1097     1273     1183      790      185     -410     -731 
    -654     -257      315      879     1174     1134      954      727 
     474      347      361      382      371      350      300      185 
      93      176      400      667      936     1101     1041      705 
     198     -217     -400     -309       80      544      830      949 
     917      712      461      289      163       37      -58      -81 
      -3      188      449      720      951     1085     1064      885 
     653      469      316      197      147      149      215      322 
     367      348      303      196      112      185      371      603 
     856     1018     1035      939      732      480      310      232 
     202      202      189      143      133      204      337      492 
     620      690      687      615      551      548      522      437 
     371      360      431      638      907     1064      978      613 
     112     -309     -527     -440        6      617     1071     1230 
    1141      833      363      -52     -201        2      481      935 
    1078      889      416     -239     -716     -667      -89      765 
    1522     1849     1638      993      194     -409     -563     -241 
     344      858     1053      930      670      404      181       68 
      70      145      271      409      526      641      778      930 
    1009      897      658      456      274       61      -85      -61 
     110      256      347      569      826      878      808      704 
     529      433      559      791      924      878      651      303 
      -9     -112       24      251      407      493      570      659 
     757      817      824      831      787      619      410      234 
     118      144      271      400      491      443      227       24 
      -1      160      464      867     1219     1326     1167      831 
     361     -118     -395     -383     -118      339      830     1116 
    1104      876      519      139     -113     -145       38      323 
     581      810      985      993      879      786      729      681 
     630      549      390      104     -274     -587     -579     -190 
     301      729     1082     1188     1002      734      558      514 
     555      619      634      552      447      346      218      157 
     196      285      494      791      999     1052      912      514 
     -36     -475     -619     -458      -59      502     1014     1232 
    1190      978      547       59     -231     -293     -136      225 
     603      780      748      648      550      441      379      392 
     378      331      344      369      406      518      550      437 
     372      380      393      508      690      748      665      550 
     458      406      389      372      326      177     -115     -375 
    -388     -167      203      683     1127     1342     1305     1109 
     833      539      288      137       99      131      197      281 
     366      425      425      347      237      196      308      549 
     776      867      761      469      145      -53      -64      123 
     415      652      782      855      844      703      529      393 
     242      192      377      597      687      705      569      234 
     -54     -125      -17      293      746     1071     1161     1093 
     881      593      361      228      181      174      170      163 
     116       38       37      166      367      577      797     1022 
    1130     1051      871      613      286       81      102      202 
     274      349      406      412      428      477      503      467 
     330      116      -18       98      498     1072     1610     1821 
    1528      884      203     -309     -585     -583     -269      222 
     645      909     1053     1059      850      456       81      -96 
      -7      316      649      791      786      611      204     -153 
    -223     -106      199      714     1223     1567     1690     1482 
     966      289     -453    -1061    -1296    -1163     -746      -13 
     884     1572     1910     1984     1784     1308      728      260 
      -7     -125     -169     -179     -215     -328     -421     -322 
     -30      343      713     1006     1190     1246     1153      957 
     727      564      571      677      736      708      525      113 
    -416     -838     -963     -707      -96      737     1511     1988 
    2126     1877     1256      527      -61     -473     -669     -557 
    -242       81      412      729      875      835      658      310 
    -116     -398     -427     -187      291      802     1106     1159 
    1008      698      370      232      369      667      908      949 
     799      533      241       28      -28       81      282      442 
     461      376      252      113       44      156      419      706 
     948     1102     1118     1009      835      659      512      371 
     233       74     -148     -300     -255      -99      142      511 
     870     1065     1071      864      521      248      164      281 
     566      863      994      958      815      566      311      187 
     176      170      116       52       19       20       66      127 
     209      403      686      940     1109     1125      958      699 
     402      144      140      460      869     1115     1109      831 
     294     -338     -773     -841     -560       -1      658     1142 
    1334     1251      953      667      617      744      885      931 
     787      475      101     -270     -498     -416     -116      200 
     549      909     1119     1213     1192      881      349     -148 
    -450     -474     -176      344      787      941      864      700 
     536      409      402      565      727      777      781      680 
     373      -51     -412     -552     -378       83      653     1126 
    1379     1320      966      504      133      -87     -166      -59 
     216      468      599      700      799      818      701      474 
     260      165      205      370      637      921     1052      929 
     590      150     -239     -444     -362       14      488      820 
     948      941      795      542      370      316      273      288 
     407      529      585      604      573      404      156      -27 
    -162     -224      -55      279      517      615      638      537 
     351      261      344      564      850     1069     1152     1117 
     990      842      722      580      408      251       86      -93 
    -192     -185      -77      167      440      598      678      701 
     593      402      232      112      128      342      687     1039 
    1186      955      483       16     -292     -268      128      631 
     945     1052     1035      830      439       28     -267     -371 
    -283      -43      394      930     1241     1246     1093      802 
     475      286      200      160      201      310      409      444 
     434      382      265      178      240      474      834     1219 
    1497     1507     1180      663       84     -504     -884     -875 
    -580     -174      241      570      761      855      952     1095 
    1186     1195     1157      998      676      311       21     -124 
     -62      162      386      520      589      621      647      687 
     666      514      301       82     -109      -97      160      438 
     624      763      845      904      981      933      680      348 
      -7     -324     -406     -228       62      414      796     1129 
    1394     1533     1400      927      204     -588    -1162    -1209 
    -705       80      950     1698     1960     1639     1012      362 
    -145     -431     -407        1      544      864      954      885 
     623      343      273      396      601      783      791      551 
     209        7       46      255      588      980     1217     1140 
     772      263     -157     -340     -234      201      775     1111 
    1107      873      473       46     -199     -149      143      424 
     518      468      274      -33     -232     -178      144      624 
     979     1076      981      719      448      326      252      250 
     460      718      904     1134     1331     1330     1183      914 
     479        8     -287     -340     -189      122      471      671 
     622      351      -57     -483     -731     -629     -189      411 
     953     1231     1115      652       51     -503     -851     -680 
     123     1164     2052     2594     2600     2088     1310      584 
     169      157      441      768      909      781      432      -16 
    -431     -611     -437     -117       91      129      -30     -296 
    -388     -173      349     1185     2044     2535     2581     2115 
    1149       86     -720    -1173    -1256     -992     -402      353 
    1067     1812     2663     3450     4049     4402     4262     3394 
    1801     -430    -3109    -5711    -7555    -8211    -7587    -5873 
   -3505    -1009     1195     2938     4220     5086     5686     6083 
    6116     5821     5343     4508     3085      870    -2380    -6315 
   -9967   -12466   -12994   -10860    -6384     -820     4521     8528 
   10476    10458     9189     7420     5727     4361     3095     1517 
    -562    -3085    -5725    -7896    -9058    -8798    -6815    -3312 
     886     4878     7935     9391     9030     7366     5099     2833 
    1202      590      854     1426     1579      813     -991    -3499 
   -5892    -7213    -6679    -4063      -79     4054     7157     8183 
    6877     4137     1177    -1048    -1819     -877     1165     2930 
    3386     2498      614    -1681    -3461    -4239    -4111    -3211 
   -1965    -1022     -492     -114      135      242      504     1203 
    2229     3369     4555     5430     5167     3165     -283    -4312 
   -8037   -10483   -10772    -8813    -5370    -1459     2178     4891 
    6084     5797     4573     2919     1317       80     -665     -692 
      99     1357     2486     3119     3216     2823     2150     1658 
    1744     2525     3706     4538     4289     2897      936     -863 
   -1706     -959     1157     3570     5227     5590     4461     1986 
   -1141    -3910    -5532    -5579    -4054    -1476     1350     3528 
    4303     3487     1420    -1403    -4279    -6372    -7287    -7102 
   -5950    -4185    -2402     -939      175     1029     1792     2588 
    3486     4461     5159     5146     4332     2850      963     -711 
   -1567    -1579    -1072     -521     -559    -1470    -2896    -4156 
   -4509    -3273     -295     3661     7268     9413     9658     8203 
    5662     2809      246    -1783    -3308    -4413    -4985    -4729 
   -3383    -1074     1485     3449     4306     3867     2243      -10 
   -1986    -2864    -2248     -287     2436     5117     6817     6805 
    5066     2247     -819    -3483    -5258    -5778    -5078    -3437 
   -1048     1669     4034     5439     5498     4267     2256      173 
   -1281    -1725    -1384     -955    -1062    -1829    -2978    -4022 
   -4337    -3412    -1272     1361     3576     4673     4195     2382 
     133    -1821    -3032    -3091    -1942      -74     1812     3234 
    3995     3987     3213     1907      367    -1203    -2421    -2668 
   -1651      518     3539     6413     7619     6456     3468     -149 
   -2922    -3592    -1890     1206     3974     4895     3647     1046 
   -1857    -3927    -4132    -2638     -557     1385     2671     2631 
    1324     -408    -1878    -2658    -2433    -1314      107     1136 
    1428     1089      357     -510    -1232    -1683    -1883    -1683 
    -662     1442     4239     6753     7938     7126     4161     -431 
   -5252    -8589    -9473    -8025    -4900     -961     2716     5141 
    5824     5057     3612     2080      934      525      693     1067 
    1487     1892     2149     2133     1799     1058     -222    -1940 
   -3624    -4613    -4547    -3516    -1706      625     2973     4882 
    6117     6480     5877     4557     2976     1510      452     -150 
    -698    -1773    -3721    -6286    -8627    -9871    -9368    -6735 
   -2277     2907     7476    10371    11056     9547     6411     2738 
    -374    -2275    -2667    -1847     -680      230      808     1089 
    1083      856      467     -218    -1377    -2798    -3967    -4601 
   -4668    -4085    -2875    -1237      729     2949     5149     6900 
    7765     7607     6648     5161     3505     2169     1260      437 
    -516    -1501    -2367    -2997    -3350    -3427    -3055    -2113 
    -799      699     2269     3538     4060     3515     1758     -768 
   -3084    -4371    -4268    -2942    -1112      362      983      757 
      61     -535     -450      494     1902     3257     4115     3938 
    2528      361    -1944    -3842    -4637    -3958    -2196     -110 
    1514     2144     1772      674     -588    -1150     -644      666 
    2488     4312     5385     5314     4016     1688     -881    -2739 
   -3283    -2285      -83     2436     4328     5027     4483     3046 
    1316     -154    -1174    -1693    -1569     -852      116      909 
    1048      187    -1475    -3148    -3877    -3106     -981     1841 
    4376     5774     5893     5086     3828     2584     1431      182 
   -1107    -2302    -3345    -4032    -4200    -3918    -3211    -1955 
     -77     2239     4499     6065     6374     5221     3099      982 
    -400     -817     -526     -339     -920    -2147    -3514    -4432 
   -4323    -3161    -1551      -91      874     1210     1197     1322 
    1689     2038     2191     2173     2047     1837     1682     1639 
    1438      968      449       -7     -374     -584     -733    -1083 
   -1827    -2904    -4026    -4904    -5428    -5436    -4593    -2844 
    -461     2346     5180     7284     8218     8126     7288     6130 
    5281     5014     5045     4933     4326     3014     1001    -1476 
   -3913    -5752    -6718    -6866    -6299    -5079    -3465    -1805 
    -248      986     1606     1641     1241      503     -198     -354 
     202     1204     2240     3065     3482     3229     2397     1362 
     324     -523     -918     -836     -335      582     1731     2708 
    3218     3262     2933     2374     1864     1560     1322      884 
      99     -987    -2130    -2845    -2622    -1376      539     2462 
    3588     3512     2359      500    -1428    -2683    -2931    -2402 
   -1628    -1076    -1007    -1434    -2033    -2430    -2447    -1962 
    -893      571     1945     2882     3336     3249     2617     1635 
     543     -368     -757     -479      399     1800     3470     4880 
    5548     5250     4031     2113     -230    -2538    -4230    -5089 
   -5150    -4315    -2712    -1058      -55      206      -50     -455 
    -375      696     2649     4865     6541     6994     5927     3528 
     372    -2678    -4746    -5384    -4632    -2788     -417     1808 
