Origin Time       2024/06/23 22:54:00
Lat.              35.645
Long.             140.060
Depth. (km)       72
Mag.              4.1
Station Code      KNG205
Station Lat.      34.9413
Station Long.     139.4213
Station Height(m) -1486
Record Time       2024/06/23 22:54:55
Sampling Freq(Hz) 100Hz
Duration Time(s)  66
Dir.              E-W
Scale Factor      2000(gal)/6182761
Max. Acc. (gal)   3.587
Last Correction   2024/06/23 22:54:55
Memo.             
[...]
     125      123      115      118      128      125      118      124 
     130      128      125      126      134      139      130      125 
     126      123      122      126      129      126      124      132 
     138      132      132      132      125      125      127      122 
     121      128      129      122      120      125      125      123 
     122      123      128      128      126      127      126      123 
     122      122      124      124      120      119      118      119 
     124      129      128      127      124      119      124      129 
     124      125      130      123      115      115      118      121 
     116      108      114      121      120      125      132      134 
     138      139      130      126      115       91       77       75 
      67       64       71       80       92      110      124      135 
     150      156      145      143      141      114       92       94 
      87       69       65       65       49       51       84      101 
     111      142      166      175      181      181      179      175 
     161      141      125      112       93       75       83      111 
     128      121      104      101      119      143      156      157 
     162      162      140      113       97       86       94      119 
     121      110      113       99       74       79       92      107 
     143      167      158      146      144      131      129      151 
     166      157      126       80       48       32       21       34 
      51       50       79      142      185      205      235      270 
     274      246      221      201      162      116       83       70 
      62       32      -34     -133     -198     -146      -15       98 
     158      186      227      265      260      258      264      240 
     231      267      292      262      161      -25     -251     -396 
    -409     -378     -360     -316     -274     -271     -206      -29 
     198      411      606      809      952      967      874      674 
     390      115     -129     -365     -561     -671     -707     -708 
    -685     -646     -535     -261      148      546      779      808 
     731      632      545      483      410      273       25     -326 
    -689     -940     -993     -833     -478      -41      231      178 
     -87     -222       38      584     1144     1594     1839     1691 
    1096      298     -395     -787     -846     -747     -670     -656 
    -737     -897     -945     -783     -471       -2      509      805 
     870      832      651      347      151      161      319      575 
     777      695      232     -460     -990     -978     -428      266 
     706      665      129     -632    -1276    -1478    -1014      -67 
     869     1304     1068      373     -552    -1382    -1649    -1289 
    -593      232      929     1246     1227     1011      739      670 
     879     1114     1217     1194      967      487     -190     -873 
   -1226    -1115     -773     -445     -176       52      286      573 
     851     1032     1017      692       -6     -936    -1678    -1888 
   -1622    -1127     -600     -235     -207     -432     -587     -393 
     261     1226     2049     2347     2114     1485      630     -183 
    -680     -670     -248      153      236       92      -70     -126 
     -40      131      184       52      -26       20       41       36 
     -42     -252     -415     -332      -46      290      559      649 
     579      467      374      415      638      850      835      465 
    -192     -824    -1194    -1263    -1012     -468       99      321 
     146     -139     -341     -430     -267      296     1102     1773 
    2012     1727      990       43     -726    -1006     -744     -205 
     194      255       21     -346     -682     -875     -771     -362 
     130      490      586      443      237      126      208      447 
     691      858      894      717      392       32     -291     -454 
    -463     -441     -341      -72      254      487      611      629 
     479      164     -208     -548     -740     -688     -503     -286 
     -29      130        8     -303     -479     -356      -42      407 
     905     1181     1130      845      383     -101     -414     -500 
    -351      -78      103       65     -214     -584     -788     -661 
    -176      503     1119     1473     1458     1137      688      254 
     -98     -341     -431     -421     -490     -661     -781     -804 
    -672     -257      289      619      596      330      -15     -261 
    -210      110      389      404      216      -26     -267     -474 
    -544     -419     -153      169      409      463      420      387 
     277       65      -75      -63       37      144      225      387 
     652      772      639      406      164     -174     -650    -1022 
   -1027     -724     -302       57      181       86      -64     -111 
      51      392      755     1036     1219     1266     1150      845 
     324     -327     -934    -1293    -1276     -992     -628     -314 
    -116      -14      -42     -219     -320     -126      298      745 
    1015      945      550       89     -128        2      268      338 
      36     -481     -822     -753     -322      309      930     1236 
    1054      528      -88     -475     -383       38      424      534 
     357       20     -366     -558     -322      141      474      620 
     644      588      449      136     -372     -942    -1305    -1242 
    -773      -45      656      984      874      541      206      -45 
    -238     -358     -333     -207      -95       74      385      701 
     851      775      510      215       53       51      157      223 
      70     -312     -792    -1192    -1288     -988     -437      145 
     578      746      667      578      685      872      939      813 
     422     -178     -640     -616      -98      610     1094     1125 
     862      530       89     -451     -876    -1091    -1077     -764 
    -181      417      615      242     -397     -923    -1190    -1055 
    -400      502     1130     1235      947      433     -158     -534 
    -484     -100      353      645      779      875      958     1032 
    1121     1184     1157      956      463     -330    -1192    -1789 
   -1938    -1649    -1006     -224      344      402     -103     -758 
    -913     -364      599     1541     1975     1671      893        2 
    -772    -1149     -969     -428      120      385      192     -317 
    -678     -559       43      991     1994     2557     2290     1272 
      -5    -1042    -1615    -1700    -1442    -1131     -935     -847 
    -776     -527        8      607      895      854      811      842 
     838      891     1060     1186     1136      891      422     -251 
    -966    -1523    -1737    -1472     -870     -216      391      765 
     614      121     -248     -302       30      656     1134     1139 
     643     -204     -969    -1267    -1158     -882     -574     -296 
     -22      345      824     1405     1996     2238     1918     1267 
     488     -399    -1253    -1853    -2177    -2293    -2069    -1382 
    -407      632     1559     2133     2232     1969     1588     1298 
    1074      746      209     -530    -1235    -1554    -1482    -1271 
   -1026     -878     -970    -1106    -1058     -827     -364      400 
    1252     1787     1856     1699     1522     1357     1227     1053 
     685      123     -541    -1187    -1606    -1657    -1405     -952 
    -358      288      805      951      779      587      524      661 
     897      869      413     -378    -1401    -2345    -2693    -2211 
   -1159       -1      943     1529     1667     1457     1206     1152 
    1290     1432     1348      909      175     -614    -1198    -1426 
   -1341    -1084     -680     -205       95      107      -55     -168 
     -71      135      262      354      608      987     1243     1307 
    1217      912      400     -261     -984    -1519    -1636    -1413 
   -1037     -573     -135      181      438      754     1219     1676 
    1751     1380      785       69     -702    -1302    -1525    -1394 
   -1034     -531      -42      271      429      558      755      930 
     816      423       97       69      301      612      856      924 
     635       57     -370     -404     -210      -50     -156     -518 
    -761     -604     -110      540     1106     1349     1220      689 
    -122     -793    -1119    -1177    -1062     -984    -1083    -1224 
   -1183     -800      -48      949     1925     2543     2587     2082 
    1194      157     -762    -1348    -1471    -1183     -769     -510 
    -487     -617     -773     -821     -544      201     1197     2000 
    2369     2330     1872     1018       75     -664    -1122    -1260 
   -1089     -699     -211      134      121     -211     -621     -860 
    -839     -556       22      773     1452     1980     2260     2007 
    1197      200     -655    -1175    -1168     -683      -88      232 
      35     -625    -1353    -1816    -1904    -1517     -644      426 
    1197     1309      848      283       38      270      857     1395 
    1504     1104      346     -462     -924     -753      -58      735 
    1344     1600     1318      561     -383    -1238    -1794    -1955 
   -1752    -1253     -577      -19      217      246      213      256 
     575     1198     1930     2385     2145     1235       69    -1014 
   -1749    -1912    -1593    -1097     -574      -43      441      713 
     654      437      277      169      106      162      319      450 
     447      278      -54     -403     -486     -248       66      257 
     248       22     -331     -680     -828     -614     -145      494 
    1268     1929     2280     2191     1537      480     -697    -1721 
   -2191    -1936    -1195     -230      618      873      415     -461 
   -1422    -2059    -1904     -913      479     1788     2599     2612 
    1893      858      -10     -427     -361      -10      289      345 
     208      -47     -270     -167      301      789      954      642 
    -136    -1018    -1478    -1451    -1220     -842     -294      186 
     406      479      598      836     1076     1114      872      373 
    -285     -952    -1419    -1445    -1037     -399      284      803 
    1078     1216     1276     1206      873      223     -489     -846 
    -779     -598     -369      108      637      792      624      437 
     220     -178     -700    -1108    -1184     -929     -519      -66 
     384      715      861      946      999      860      569      338 
     287      339      271       88        5       35       69       39 
    -143     -488     -799     -914     -874     -676     -283      143 
     377      367      384      685     1103     1365     1286      688 
    -266    -1089    -1410    -1129     -378      531     1194     1319 
     944      292     -334     -590     -477     -205      168      427 
     345      138       59       35      -55     -238     -472     -638 
    -695     -622     -382     -101      179      514      754      878 
    1092     1297     1146      554     -283    -1098    -1534    -1421 
   -1034     -645     -297     -101      -58       88      429      802 
    1133     1425     1561     1502     1399     1272      958      451 
     -73     -554     -982    -1172    -1028     -682     -239      115 
      46     -487    -1108    -1497    -1571    -1241     -523      262 
     821     1048      910      541      221      154      317      579 
     900     1112      913      389      -36     -131      164      755 
    1257     1371     1125      620       55     -393     -738     -910 
    -938    -1036    -1147    -1167    -1185    -1054     -480      396 
    1053     1182      869      356      -81     -212       47      655 
    1346     1698     1534      851     -352    -1777    -2875    -3247 
   -2789    -1616       -3     1530     2396     2361     1762     1166 
     802      698      930     1239     1188      708      -70    -1006 
   -1738    -1948    -1730    -1222     -503      159      606      887 
    1028     1154     1358     1553     1641     1497      954      -69 
   -1336    -2236    -2338    -1747     -720      449     1274     1341 
     690     -256    -1075    -1414     -957      185     1522     2587 
    3003     2613     1669      715      183      178      635     1217 
    1313      629     -452    -1259    -1434    -1009     -153      889 
    1588     1263     -157    -1943    -3415    -4366    -4732    -4347 
   -3155    -1427      473     2178     3168     3152     2394     1287 
      62     -931    -1371    -1376    -1232    -1052     -875     -662 
    -313      112      520     1051     1777     2371     2502     2260 
    1889     1490     1243     1376     1872     2477     2671     1966 
     417    -1612    -3856    -6082    -8012    -9279    -9437    -8140 
   -5370    -1670     1962     4731     6336     6532     5181     2756 
     122    -2006    -3020    -2546     -912     1119     2904     3863 
    3671     2638     1406      548      496     1406     2903     4191 
    4689     4232     2847      992     -581    -1526    -1840    -1543 
    -990     -800    -1287    -2366    -3803    -5212    -5751    -4411 
   -1067     3339     7513    10026     9841     7252     3545       73 
   -1984    -2018     -639      729      904     -641    -3692    -7247 
  -10023   -11016    -9822    -6836    -2944      910     3866     5492 
    6019     5833     5070     4000     2978     1969      937      173 
    -118      144      918     1881     2739     3152     2516      712 
   -1672    -4073    -5935    -6727    -6438    -5248    -3330    -1148 
     904     2728     4119     4763     4522     3321     1135    -1739 
   -4751    -7209    -8282    -7476    -5000    -1481     2435     6027 
    8305     8640     7547     6162     5139     4431     3830     3162 
    2144      542    -1572    -3736    -5272    -5764    -5310    -4276 
   -2996    -1696     -627       80      580      924     1059     1219 
    1462     1492     1346     1386     1747     2315     2773     2659 
    1647     -237    -2567    -4607    -5643    -5413    -4161    -2324 
    -366     1260     2181     2198     1511      546     -411    -1074 
   -1102     -445      512     1167     1056      120    -1142    -1805 
   -1196      571     2928     5134     6256     5768     3935     1481 
    -622    -1620    -1338     -117     1126     1377      299    -1774 
   -4143    -6029    -6844    -6297    -4585    -2329      -38     2088 
    3945     5546     6976     7911     7653     5815     2544    -1474 
   -5047    -7092    -7114    -5323    -2666     -251     1372     2163 
    2146     1470      525     -348     -805     -455      665     2062 
    3195     3681     3245     1783     -364    -2559    -4349    -5409 
   -5428    -4406    -2766    -1092      178      987     1686     2616 
    3692     4448     4338     3161     1275     -748    -2401    -3246 
   -3259    -2983    -2929    -3224    -3584    -3221    -1485     1360 
    4492     6999     7824     6227     2668    -1234    -3840    -4399 
   -3060     -570     2098     4060     4622     3582     1273    -1762 
   -4667    -6352    -6202    -4407    -1659     1201     3425     4525 
    4551     4189     3933     3532     2675     1292     -720    -3297 
   -5846    -7458    -7552    -6101    -3440     -290     2435     4126 
    4653     4207     3112     1822      838      263     -206     -596 
    -522       62      590      639      363        7     -371     -740 
   -1013    -1051     -762     -220      480     1440     2716     4066 
    5141     5472     4656     2867      617    -1714    -3831    -5538 
   -6851    -7697    -7548    -5822    -2583     1391     5058     7469 
    8083     7039     4952     2516      296    -1514    -2977    -4095 
   -4771    -4799    -4117    -2966    -1575     -273      378      259 
    -192     -569     -558      -19      716     1390     2281     3529 
    4901     6332     7564     7750     6225     2969    -1480    -5859 
   -8577    -8757    -6686    -3425     -313     1451     1340     -336 
   -2529    -3851    -3636    -2271     -419     1293     2368     2882 
    3449     4496     5881     7084     7330     5985     3084     -871 
   -5109    -8464    -9907    -9254    -7104    -4397    -1903      130 
    1702     2653     2847     2562     2268     2173     2255     2296 
    1949      988     -561    -2119    -2739    -2021     -220     2321 
    5122     7380     8380     7772     5707     2946       72    -2908 
   -5686    -7600    -8472    -8323    -6924    -4437    -1609      919 
    2689     3240     2491      832    -1224    -3107    -4299    -4497 
   -3422     -968     2380     5738     8232     9196     8264     5499 
    1690    -1875    -4169    -4685    -3398     -781     2232     4370 
    4742     3617     1967      597     -107     -319     -585    -1315 
   -2732    -4708    -6536    -7512    -7327    -5915    -3537     -687 
    2042     3803     3847     2301      158    -1572    -2272    -1726 
    -299     1389     2856     3674     3706     3246     2705     2323 
    1994     1520      913      184     -584    -1112    -1279    -1207 
    -888     -105     1097     2399     3599     4359     4068     2503 
      93    -2395    -4159    -4788    -4462    -3611    -2700    -2154 
   -1974    -1734    -1056      174     1697     2899     3268     2659 
    1289     -220    -1080     -906      -78      475      -93    -1880 
   -4066    -5479    -5301    -3335      -97     3349     5948     7056 
    6664     5250     3365     1589      320     -374     -442       18 
     597     1009     1168      817     -362    -2138    -3753    -4541 
   -4223    -2978    -1502     -627     -731    -1582    -2673    -3463 
   -3335    -1763     1134     4434     7039     8325     8023     6016 
    2661    -1157    -4444    -6442    -6887    -5913    -3947    -1908 
    -611      -28      186      189      317      970     1959     2650 
    2613     1831      764      148      323     1119     2225     3254 
    3825     3734     3009     1862      576     -592    -1520    -2291 
   -3080    -4005    -4898    -5260    -4674    -3146    -1162      569 
    1655     2089     1976     1668     1603     1765     1910     1990 
    2135     2580     3377     4158     4415     3814     2331      267 
   -1939    -3793    -4837    -5058    -4845    -4460    -3883    -2887 
   -1282      773     3029     5204     6658     6714     5180     2374 
   -1038    -4139    -5864    -5520    -3464     -918      885     1243 
     185    -1410    -2275    -1804     -322     1643     3497     4404 
    3930     2407      477    -1164    -1916    -1673     -932     -300 
     -32     -206     -764    -1196    -1030     -333      733     1987 
    2987     3482     3445     2702     1208     -657    -2121    -2483 
   -1875     -976     -140      547      970     1283     1908     2911 
    3863     4208     3450     1463    -1288    -4033    -6050    -6958 
   -6833    -5909    -4507    -3139    -2171    -1543     -860      288 
    1813     3123     3751     3601     2653      955    -1058    -2626 
   -3124    -2353     -516     1852     3936     4983     4710     3262 
