Origin Time       2024/06/23 22:54:00
Lat.              35.645
Long.             140.060
Depth. (km)       72
Mag.              4.1
Station Code      KNG205
Station Lat.      34.9413
Station Long.     139.4213
Station Height(m) -1486
Record Time       2024/06/23 22:54:55
Sampling Freq(Hz) 100Hz
Duration Time(s)  66
Dir.              N-S
Scale Factor      2000(gal)/6182761
Max. Acc. (gal)   3.546
Last Correction   2024/06/23 22:54:55
Memo.             
[...]
     143      141      142      144      137      135      144      143 
     141      147      148      144      142      143      145      140 
     140      140      132      139      150      145      136      134 
     136      138      138      140      144      141      134      139 
     147      143      140      144      140      132      131      131 
     133      135      134      134      135      134      127      122 
     124      122      124      135      142      142      135      129 
     133      133      130      132      129      122      125      126 
     120      114      108      105      116      140      155      158 
     153      141      136      139      140      139      140      133 
     111       87       80       89      111      131      112       77 
      70       93      130      159      167      160      141      127 
     128      130      138      153      148      127      124      128 
     116      105      112      130      157      174      163      139 
     107       70       60       91      122      123      109       94 
      89      122      182      217      212      193      180      183 
     190      189      182      135       50        5       18       43 
      77      109      108       86       71       63       55       52 
      72      125      199      266      295      278      246      214 
     188      197      227      211      139       54      -49     -198 
    -317     -319     -275     -217      -40      203      329      351 
     379      409      418      454      497      478      384      211 
     -21     -258     -461     -594     -657     -611     -393      -99 
      95      145      111      136      292      462      586      693 
     769      750      545      169     -216     -438     -432     -378 
    -474     -614     -660     -639     -521     -260       85      443 
     764     1056     1286     1265      947      569      320      185 
      62     -138     -421     -769    -1192    -1628    -1841    -1599 
    -955     -131      643     1121     1192      995      774      709 
     889     1227     1425     1267      761       20     -735    -1197 
   -1234    -1075     -949     -795     -624     -573     -643     -755 
    -669     -103      792     1478     1552     1108      550      214 
     274      683     1197     1504     1294      533     -446    -1218 
   -1424    -1019     -365      180      405      147     -432     -936 
   -1147     -994     -500      128      603      728      573      427 
     504      760      956      902      642      316      -29     -386 
    -681     -779     -680     -580     -554     -502     -318       19 
     316      399      432      614      875     1065     1132     1003 
     624      103     -361     -520     -227      259      470      257 
    -192     -667    -1032    -1180    -1022     -520      245      932 
    1137      876      551      468      610      769      712      378 
    -104     -596     -984    -1213    -1316    -1293    -1110     -753 
    -208      444      981     1245     1256     1130      997      918 
     754      360     -148     -615     -972    -1100     -975     -627 
      -9      698     1111     1059      731      440      268      147 
     133      212      192      -19     -313     -557     -673     -641 
    -410       49      483      501       87     -380     -557     -296 
     186      327      -33     -461     -558     -170      582     1280 
    1540     1294      722       45     -495     -660     -439      -47 
     311      488      374      116       21      129      289      383 
     373      270       25     -376     -793    -1019     -960     -742 
    -476     -114      328      695      868      853      618      197 
     -83       76      637     1239     1345      743     -355    -1497 
   -1983    -1459     -269     1018     1733     1372      196    -1012 
   -1528     -978      276     1417     1908     1605      745     -219 
    -912    -1062     -780     -480     -316     -285     -360     -322 
     -98      115      279      502      803     1124     1304     1187 
     803      295     -209     -593     -735     -695     -758    -1012 
   -1203    -1042     -409      496     1228     1519     1399     1001 
     502      161      128      249      261       12     -467     -906 
   -1065     -972     -700     -268      127      212      -51     -368 
    -297      222      758     1053     1240     1402     1341      900 
     300      -98     -164      -16       20     -379    -1028    -1440 
   -1517    -1333     -899     -391       47      340      472      736 
    1339     1978     2223     1915     1198      478      134      142 
     138     -180     -734    -1137    -1202    -1160    -1192    -1143 
    -830     -179      559      736       86     -862    -1371    -1070 
    -112      938     1482     1259      489     -283     -528      -40 
     802     1376     1436      984      127     -699    -1009     -738 
    -240       56      -51     -458     -717     -358      421     1022 
    1081      531     -271     -724     -441      414     1096     1105 
     658      115     -377     -722     -780     -586     -398     -330 
    -324     -297     -142      112      324      389      346      381 
     585      889     1163     1132      597     -326    -1234    -1658 
   -1495     -938      -18     1061     1654     1402      595     -241 
    -578     -143      652     1053      751     -125    -1338    -2262 
   -2161    -1144       45      872     1105      869      602      483 
     354      158       40      138      450      855     1089      862 
     272     -216     -289       64      604      888      612     -150 
   -1129    -1946    -2227    -1864     -902      443     1552     1882 
    1483      750       84     -208      -99      123      158      -32 
    -301     -551     -656     -406      103      557      801      804 
     642      343     -101     -486     -558     -223      319      640 
     530      213      116      407      812     1036     1056      920 
     596      103     -435     -904    -1246    -1480    -1576    -1377 
    -971     -734     -802     -954     -910     -513      254     1186 
    1870     2064     1895     1512     1060      862     1006     1149 
     974      459     -235     -917    -1374    -1479    -1369    -1172 
    -807     -268      301      712      777      600      501      565 
     723      882      810      363     -309     -935    -1232    -1115 
    -758     -230      442      924      928      576      105     -347 
    -567     -428     -136      135      407      515      328       61 
    -123     -183      -17      286      487      513      418      303 
     241      131     -147     -474     -608     -399      104      611 
     712      279     -267     -400        8      651      944      640 
      31     -605    -1015    -1016     -792     -541     -298     -182 
    -188     -116       80      308      460      454      362      332 
     509      978     1579     1979     1914     1314      394     -392 
    -694     -580     -381     -325     -492     -889    -1303    -1456 
   -1346    -1050     -513      188      782     1082     1120      911 
     352     -361     -633      -98      874     1485     1324      582 
    -398    -1211    -1505    -1275     -704       26      639      815 
     511       81      -73      140      567      927     1043     1009 
     875      567       98     -393     -612     -496     -427     -545 
    -507     -166      180      204     -182     -681     -774     -288 
     534     1246     1338      744     -153    -1070    -1703    -1719 
   -1120      -53     1155     1840     1699     1181      829      798 
     959     1017      666     -106     -922    -1350    -1365    -1302 
   -1299    -1167     -774     -230      178      214      -22     -141 
     184      845     1413     1680     1640     1235      654      249 
      83       44      -13     -187     -344     -363     -379     -562 
    -867    -1094    -1022     -623     -158      147      220       63 
    -148     -160      161      749     1315     1608     1538     1073 
     384     -285     -792     -904     -572      -57      447      650 
     229     -542    -1108    -1248     -968     -454       46      382 
     430      293      171        3     -193     -125      344     1048 
    1776     2326     2356     1585      195    -1255    -2167    -2225 
   -1678     -992     -389      -27       62       58       66      166 
     447      789      943      700      108     -558    -1051    -1094 
    -595       56      421      404      217      191      429      855 
    1303     1418     1087      592      158     -127     -214      -56 
     319      666      732      426     -233     -930    -1272    -1253 
   -1079     -828     -507     -193      -43     -206     -541     -506 
     167     1034     1568     1549      960       69     -668     -792 
    -176      704     1242     1262      904      372     -123     -490 
    -790     -978     -868     -323      598     1453     1688     1154 
     106     -986    -1582    -1458     -845      -61      605      818 
     596      327      234      326      563      722      535       21 
    -578    -1001    -1096     -936     -689     -429     -250     -205 
    -176      -72      147      425      544      534      658      934 
    1224     1443     1528     1445     1215      894      471     -138 
    -870    -1489    -1780    -1653    -1119     -313      506     1114 
    1302      967      284     -499    -1057    -1078     -636       26 
     660      827      313     -531    -1237    -1504    -1173     -365 
     548     1114     1088      712      305      -12       21      566 
    1237     1527     1371      943      427      126      166      334 
     399      213     -264     -836    -1204    -1271    -1148     -825 
    -312      114      272      247      229      330      456      538 
     568      479      369      347      316      282      373      571 
     762      826      630      141     -462     -902    -1044    -1000 
    -914     -823     -868    -1151    -1378    -1231     -686      217 
    1200     1730     1751     1728     1786     1637     1178      509 
    -257     -908    -1184    -1090     -895     -665     -293      118 
     358      236     -204     -511     -401       -5      500      874 
     917      700      331     -140     -505     -437      129      779 
    1006      664     -172    -1261    -1991    -1791     -700      777 
    1952     2273     1826     1073      320     -210     -420     -443 
    -532     -923    -1501    -1888    -1874    -1394     -598      148 
     600      685      562      627     1024     1526     1877     1890 
    1438      591     -304     -833     -828     -455      -65      -10 
    -402     -854     -826     -314      377      990     1133      741 
     154     -457     -814     -620     -160      222      471      414 
     -49     -696    -1255    -1502    -1416    -1121     -561      231 
     999     1466     1421      953      417      143      275      649 
     978     1027      669       74     -342     -297      119      583 
     741      471       53     -280     -602     -858     -955    -1021 
   -1014     -833     -674     -705     -812     -652       -7      794 
    1321     1653     2042     2291     2061     1467      763      174 
     -60     -167     -579    -1291    -2042    -2467    -2205    -1404 
    -632     -151      172      475      810     1177     1534     1697 
    1420      794      212      -49       59      405      681      521 
    -207    -1199    -1877    -1877    -1250     -115     1196     1978 
    1961     1521     1075      922     1064     1042      495     -365 
   -1191    -1839    -2157    -2094    -1777    -1175     -162      993 
    1628     1447      871      368      157      444     1144     1765 
    1909     1481      607     -436    -1319    -1699    -1508    -1139 
    -862     -602     -431     -500     -654     -594     -112      807 
    1875     2625     2738     2134     1005     -195    -1046    -1327 
   -1050     -633     -642    -1200    -1826    -1859    -1095      -13 
     597      274     -642    -1412    -1604    -1013      381     2019 
    2982     2891     2189     1462     1041     1075     1389     1593 
    1488      942     -295    -2105    -3658    -4083    -3156    -1122 
    1480     3609     4107     2639       20    -2356    -3234    -2277 
    -417     1160     1923     1872     1406      898      393       18 
    -146     -300     -580    -1185    -2431    -4200    -5822    -6586 
   -6173    -4729    -2517      346     3564     6417     8086     8073 
    6417     3789     1256     -452    -1297    -1537    -1487    -1535 
   -1779    -1741     -781     1196     3461     4923     5040     4143 
    2914     1775      726     -321    -1243    -2032    -2992    -4190 
   -5123    -5213    -4330    -2737     -945      497     1344     1565 
    1286      982     1081     1452     1628     1054     -704    -3197 
   -4993    -5015    -3270     -457     2087     3001     2348     1527 
    1689     2869     4347     5373     5553     4729     2979      956 
    -586    -1567    -2098    -2148    -2160    -2705    -3824    -5368 
   -6989    -7795    -6766    -3601      843     5113     8095     9276 
    8717     7026     4934     2942     1460      818      925     1062 
     177    -2287    -5714    -8845   -10795   -10891    -8317    -3210 
    2567     6582     7491     5767     3164     1378     1286     2836 
    4989     6260     5650     3007     -959    -4968    -7914    -9185 
   -8510    -6139    -2971     -131     1523     1681      795       20 
     503     2568     5313     7054     6550     3735     -336    -3896 
   -5635    -5454    -3897    -1650      419     1536     1578      907 
      98     -103      584     1841     3490     5413     6773     6427 
    4196      875    -2447    -4628    -5106    -4311    -2869    -1211 
    -146     -467    -1822    -3023    -3317    -2773    -1783     -749 
     -21      332      624     1377     2906     4776     5987     5818 
    4093     1153    -2112    -4804    -6431    -6702    -5584    -3516 
   -1244      668     2245     3737     5064     5811     5481     3987 
    1892     -162    -1870    -2968    -3189    -2623    -1716     -916 
    -464     -318     -154      390     1263     1864     1688      788 
    -517    -1538    -1268      542     2873     4154     3362      865 
   -1882    -3387    -2832     -630     1737     2673     1287    -1637 
   -3847    -3676    -1309     1615     3176     2523      223    -2530 
   -4583    -5072    -3920    -1921       44     1403     1933     1883 
    1716     1815     2459     3699     4904     4831     2839     -375 
   -3297    -4566    -3874    -1969      269     2189     3103     2709 
    1509      278     -400     -268      441     1096      956     -205 
   -1811    -3097    -3480    -2659     -917     1032     2366     2449 
    1229     -582    -1962    -2387    -2142    -1841    -1674    -1360 
    -634      677     2548     4533     5912     5951     4332     1617 
    -962    -2311    -2114    -1036     -153     -157    -1278    -3124 
   -4532    -4463    -2738      -39     2220     2848     1754     -418 
   -2684    -3941    -3658    -2415    -1253     -581       -2     1220 
    3220     4894     5009     3505     1233     -806    -1770    -1413 
    -561     -332     -847    -1581    -2076    -1623      154     2540 
    4562     5747     5868     4762     2576      -26    -2027    -2518 
   -1328      731     2511     3217     2563      814    -1380    -3145 
   -3670    -2937    -1553     -106      657      259     -908    -2256 
   -3497    -4414    -4645    -3723    -1728      488     1981     2303 
    1655      624     -276     -497      486     2388     4198     5248 
    5310     4264     2396      248    -1763    -3157    -3639    -3584 
   -3523    -3655    -4003    -4221    -3676    -2211     -249     1688 
    3143     3940     4436     4805     4420     2912     1046      -23 
     104      683      674     -248    -1886    -3868    -5462    -5863 
   -4796    -2426      775     3831     5669     6037     5460     4387 
    3177     2181     1217     -111    -1708    -3239    -4410    -4917 
   -4656    -3876    -2965    -2124    -1368     -711       59     1436 
    3404     5155     6072     6245     5925     5236     4273     3052 
    1302    -1388    -4577    -6800    -7043    -5432    -2702      -43 
    1222      542    -1484    -3440    -4061    -3144    -1245      873 
    2255     2349     1795     1634     1961     2210     1883      656 
   -1100    -2341    -2403    -1506     -341      722     1874     3240 
    4467     4962     4424     3203     1958     1105      659      295 
    -328    -1226    -2164    -3023    -3737    -3944    -3418    -2684 
   -2502    -2965    -3385    -2953    -1342     1183     3710     5069 
    4729     3002      649    -1413    -2454    -2243    -1204     -301 
    -233     -882    -1665    -1914    -1274       11     1416     2484 
    2837     2330     1177     -163     -949     -584      623     1677 
    1774      922     -159     -629      157     2200     4453     5618 
    5097     3002       56    -2780    -4917    -6127    -6393    -5845 
   -4609    -2901     -904     1381     3718     5392     5699     4472 
    2214       55     -985     -838     -238     -234    -1435    -3359 
   -5090    -5909    -5140    -2563     1056     4318     5865     5154 
    2947      666     -479       51     1669     3019     3177     2091 
     274    -1281    -1521     -387     1047     1541      451    -1904 
   -4272    -5343    -4782    -3157    -1143      683     1875     2428 
    2718     3109     3564     3634     2825     1020    -1120    -2552 
   -2837    -2269    -1422     -793     -544     -476     -159      803 
    2370     3964     4848     4493     2832      324    -2498    -5123 
   -6779    -6879    -5448    -3054     -671     1024     1997     2341 
    2186     1743     1132      592      439      690     1115     1416 
    1339      802      -97    -1071    -1745    -1782     -821     1281 
    3895     5655     5409     3043     -502    -3532    -4613    -3833 
   -2447    -1527    -1521    -2423    -3597    -3968    -2716      268 
    4106     7209     8364     7395     4823     1505    -1520    -3611 
   -4734    -5081    -4962    -4581    -3754    -2159      300     3119 
    5250     6012     5589     4337     2305     -226    -2432    -3358 
   -2676    -1111      290      861      377     -700    -1491    -1494 
    -777      189      745      359     -934    -2391    -3169    -2901 
   -1724     -142     1381     2620     3410     3592     3131     2343 
    1737     1333      589     -873    -2768    -4215    -4516    -3885 
   -3030    -2506    -2538    -2681    -2004      -23     2777     5273 
    6458     5931     3809      846    -1601    -2475    -1478      947 
    3428     4609     4315     3113     1510      -91    -1247    -1585 
   -1048     -129      410       69    -1230    -2920    -4077    -4302 
   -3680    -2410     -999      -75      140      -67     -156      256 
     978     1411     1326      923      474      467     1104     1829 
