Origin Time       2024/06/23 22:54:00
Lat.              35.645
Long.             140.060
Depth. (km)       72
Mag.              4.1
Station Code      KNG202
Station Lat.      34.7396
Station Long.     139.8393
Station Height(m) -2339
Record Time       2024/06/23 22:54:54
Sampling Freq(Hz) 100Hz
Duration Time(s)  61
Dir.              U-D
Scale Factor      2000(gal)/6182761
Max. Acc. (gal)   1.329
Last Correction   2024/06/23 22:54:54
Memo.             
[...]
     363      361      350      338      332      334      334      340 
     361      375      370      363      354      337      323      334 
     357      344      305      303      339      352      345      374 
     419      404      356      351      391      409      349      275 
     287      351      398      461      520      458      294      190 
     248      428      538      442      279      217      248      321 
     390      430      480      523      458      257      110      229 
     467      524      424      324      239      199      240      317 
     403      537      707      655      237     -127      -19      361 
     598      554      352      208      231      347      438      484 
     478      389      303      286      274      306      426      433 
     255      196      363      492      462      389      355      325 
     244      161      183      330      495      538      451      423 
     477      425      340      382      456      490      465      276 
       0       -9      337      581      502      439      416      113 
    -235     -127      340      686      786      789      661      393 
     174      145      269      354      374      456      462      303 
     204      199      138      131      275      432      587      735 
     699      430       77     -184     -183      183      694      896 
     708      420      213      140      201      274      298      381 
     503      511      410      293      226      257      344      473 
     605      534      314      145      -71     -142      277      789 
     802      404       64       77      388      687      712      490 
     250      143       82       76      306      592      610      476 
     452      504      446      290      306      527      586      339 
      69       46      347      732      727      314       36      235 
     612      628      278       36       73      245      430      454 
     258      124      365      836     1046      737      160     -179 
     -16      505      903      680       66     -150      174      441 
     365      308      515      712      685      513      228     -118 
    -193      142      429      500      678      702      314      120 
     342      479      442      497      599      442      128      184 
     445      280        3      276      750      812      600      418 
     241        7     -163       11      476      760      705      475 
     185       43      149      322      469      538      482      469 
     520      459      385      420      415      317      263      300 
     378      410      299      156      190      307      360      423 
     486      485      468      481      511      469      317      156 
     111      254      466      482      358      395      480      336 
     180      248      315      300      432      686      772      540 
     141      -73       10      189      330      406      438      550 
     694      608      318      168      281      432      421      328 
     315      333      247      101       43      159      461      794 
     906      758      519      290      121       90       86       -3 
     164      710      981      725      453      287       77       -9 
     102      265      432      559      513      331      223      304 
     499      519      273      217      583      832      468     -200 
    -439       28      686      910      625       83     -371     -313 
     300      919     1060      783      466      320      201       50 
     130      460      671      587      342      143      153      281 
     281      158      162      437      774      853      721      637 
     569      354       88       21      183      356      414      374 
     224       55      -45      -31      245      517      433      407 
     716      904      746      461      242      194      249      166 
      -4      183      654      732      354      100      189      350 
     350      370      609      821      756      449        3     -378 
    -397       49      629      858      731      586      484      243 
    -149     -354      -55      500      828      828      685      585 
     577      555      425      245      203      387      552      451 
     243      151      191      274      208       85      283      600 
     514      193       75      151      262      409      587      706 
     656      489      433      508      477      268       69      119 
     444      667      500      171      -48      -98       92      484 
     764      699      472      285      166      231      490      623 
     463      208       46       73      268      361      292      381 
     592      522      288      364      641      717      595      422 
     308      347      433      446      378      288      302      288 
       0     -343     -371     -128      199      606      919      884 
     751      783      658      115     -435     -328      375      812 
     633      344      213      150      172      288      499      644 
     482      218      138      149      183      313      446      398 
     244      241      381      505      567      585      548      391 
     223      300      457      383      199       90       92      280 
     517      579      532      503      508      506      365       78 
     -74      111      439      574      490      445      490      402 
     178       62      137      311      473      455      223       -7 
     -48      206      596      642      282        0       52      246 
     449      746     1015      982      772      595      328        8 
     -59       97      184      204      277      362      431      538 
     645      604      366      119       93      228      327      443 
     517      340      205      465      845      980      836      470 
      41     -192     -123      137      365      350      225      301 
     460      496      445      317      245      378      576      599 
     374      188      328      592      658      488      179      -46 
      47      272      343      467      732      789      656      555 
     362      112       99      294      450      490      451      372 
     260       53     -152      -40      373      672      721      676 
     529      361      350      444      557      588      389      159 
     199      372      460      452      354      282      319      327 
     288      323      417      523      627      598      409      273 
     143      -70       15      437      667      585      474      431 
     379      283      237      283      267      111       31      206 
     522      876     1117      892      350       92      120       90 
      88      335      678      666      231      -37      189      510 
     606      582      537      447      334      211       54      -31 
      49      157      298      550      673      618      659      675 
     441      225      250      289      145      -76     -240     -193 
     201      641      686      477      456      697      862      716 
     466      310      170       46       30      159      404      560 
     514      477      621      762      617      279      121      230 
     358      372      363      389      357      209       86      116 
     180      203      273      337      346      399      464      490 
     530      513      279      -65     -186       40      380      500 
     427      541      738      634      491      539      500      304 
     130       77      140      225      303      385      410      426 
     538      574      366      210      392      672      720      503 
     156     -109      -86      158      318      351      519      694 
     511      262      368      591      620      525      433      297 
      97      111      514      957      911      333     -183     -284 
    -281     -207      170      519      552      544      625      583 
     429      416      548      585      399      146      186      577 
     803      433     -172     -278      198      650      710      606 
     561      441      207      165      424      659      652      472 
     172     -116     -155       24       83     -131     -232      167 
     764      979      773      589      623      640      466      216 
      97       73       33      123      387      579      555      360 
     114       19      278      763      990      807      562      477 
     561      681      513       78     -204     -137      160      385 
     351      278      338      400      319      155      175      520 
     941      956      451       13      -41      -90     -216      -33 
     478      783      669      583      674      611      384      292 
     378      480      511      427      269       62     -264     -399 
      15      530      597      442      449      562      557      390 
     205      235      590      899      669      120     -136        5 
     255      422      501      574      620      567      457      315 
     155      132      248      181     -146     -293      104      795 
    1134      867      368      120      245      337      199      302 
     661      602      179      205      649      729      529      661 
     924      812      420      135       71       24     -152     -225 
      85      441      356      114      159      292      198       45 
     270      719      805      717      902      968      538       20 
    -115       -1       54       72      128      257      466      570 
     546      448      203      163      612     1019      926      535 
     112     -199     -160      231      496      426      386      480 
     471      359      298      319      338      381      496      496 
     437      529      504      269      135      129      266      662 
    1001      777       67     -323       74      645      705      411 
     217      180       85     -117     -207      -10      243      297 
     402      673      749      639      644      705      705      614 
     316      -43      -97      160      420      488      407      380 
     425      292      -19     -162       22      317      553      894 
    1262     1040      143     -684     -857     -275      652     1191 
    1163      868      398      -44      -18      425      702      557 
     344      287      201      130      309      538      431      109 
    -133     -270     -117      402      780      645      327      372 
     759      881      485      118      223      474      426      106 
    -188     -146      257      600      629      552      436      239 
     161      275      532      835      852      594      450      391 
     216      115      297      524      426      112       10      164 
     258      214      261      446      526      462      386      217 
      -7      -19      267      660      767      451      146      245 
     602      742      467      218      332      494      420      322 
     459      719      783      566      281       80      -47        1 
     272      419      186       15      324      689      590      305 
     306      430      416      454      495      278      106      199 
     238      226      334      390      428      616      869     1042 
     901      405        0      -70       66      342      581      553 
     223     -290     -571     -375      -38      259      532      563 
     414      467      673      683      544      516      467      162 
    -123      -16      309      535      699      809      737      759 
    1141     1383     1004      380      -29     -356     -668     -671 
    -180      656     1194      779     -163     -611     -342      185 
     659     1030     1240     1185      856      331     -199     -397 
    -158      153      223      251      482      730      801      752 
     701      834     1112     1133      678       -3     -404     -283 
     -41     -164     -503     -748    -1043    -1346    -1167     -398 
     666     1591     1832     1474     1164     1224     1560     1747 
    1481     1024      625      347      329      414      261     -201 
    -859    -1455    -1752    -1610     -815      523     1723     2155 
    1675      681     -180     -604     -634     -407     -240     -329 
    -359      -20      375      367      223      592     1379     1835 
    1570      960      739     1059     1377     1333     1000      576 
     176     -147     -322     -537     -988    -1365    -1353     -976 
    -279      495      951     1132     1249     1240     1103     1013 
    1232     1953     2707     2775     2112     1023     -261    -1509 
   -2437    -2723    -2444    -1954    -1256     -362      469     1158 
    1744     2093     2189     2396     2636     2195     1147      269 
    -350     -908    -1141     -883     -471     -488    -1083    -1473 
    -761      857     2186     2321     1588      743      -95     -916 
   -1413    -1497    -1198     -571       58      609     1279     1835 
    2029     2099     1970     1263      238     -546     -940     -847 
    -220      432      508      -50     -887    -1364    -1048     -225 
     639     1310     1506     1145      597      208       30       82 
     411      848     1124     1282     1556     1920     1960     1310 
     340     -142       12      315      412      161     -424    -1027 
   -1422    -1823    -2191    -1963    -1015      320     1994     3692 
    4463     3827     2354      844     -244     -630     -357      206 
     791     1131      925      321     -356    -1039    -1335     -668 
     638     1816     2522     2448     1321     -518    -2221    -3028 
   -2788    -1965    -1077     -376      -51     -126     -275     -141 
     360      924     1267     1673     2462     3306     3594     2888 
    1243     -640    -2084    -2813    -2674    -1973    -1441    -1244 
   -1004     -704     -587     -454      124     1043     1753     1877 
    1540     1378     1686     1785     1282      646       26     -626 
    -776       -3     1275     2229     2387     1890     1170      568 
     187      107      279      220     -198     -274      319      924 
     875      280     -224     -208      127      385      786     1638 
    2315     2057     1130      377       94     -241     -841    -1069 
    -498      614     1619     1883     1459      749      -49     -492 
    -196      379      441     -170     -790     -871     -681     -585 
    -589     -603     -495     -218      162      565      880     1000 
     608     -551    -1809    -2232    -1882    -1275     -576      146 
     807     1468     2084     2270     1776      946      146     -574 
    -873     -302      848     1817     2127     1730      862      -83 
    -575     -247      593     1358     1888     2117     1856     1348 
    1118     1228     1296     1003      333     -493    -1186    -1579 
   -1762    -1855    -1588     -645      600     1339     1292      981 
     905      901      732      718     1099     1537     1636     1264 
     582     -106     -772    -1375    -1629    -1577    -1348     -748 
     132      844     1122     1080     1040     1198     1594     1955 
    1634      661      -31     -114     -186     -548     -933    -1012 
    -571      219      771      771      443      116      -12        2 
    -105     -261     -202     -169     -460     -880    -1176    -1208 
    -820      -47      793     1348     1505     1441     1486     1729 
    1664      992      321      212      706     1698     2703     3177 
    3151     2938     2629     1980      999      243      -57     -264 
    -588     -947    -1301    -1651    -1878    -1912    -1932    -1925 
   -1483     -477      739     1739     2164     1926     1231      291 
    -505     -696     -418     -226     -209       89      785     1358 
    1414     1230     1157      990      614      449      643      763 
     451     -254    -1080    -1644    -1706    -1382     -877     -276 
     352      971     1579     2099     2334     2125     1615     1060 
     508       19      -66      350      785      905      740      281 
    -356     -909    -1173    -1120     -948     -701     -163      571 
    1001     1048     1146     1228     1023      838      763      580 
     415      289       60     -178     -364     -589     -861     -919 
    -633     -412     -462     -427     -198       36      260      537 
     781      793      548      292      295      642     1126     1437 
    1558     1623     1374      528     -396     -616     -166      379 
     664      653      437      199      139      324      718     1151 
    1338     1308     1398     1581     1609     1519     1410     1235 
     901      470      180       93       88      174      402      668 
     817      763      468      -85     -829    -1431    -1556    -1391 
   -1201     -877     -388      127      508      652      784     1015 
     983      540       94       75      449      747      626      325 
     163     -114     -696    -1129    -1036     -498      189      605 
     574      364      247      218      159      164      416      803 
    1099     1177      883      358       49       56      198      434 
     728     1053     1454     1838     1906     1290       81    -1029 
   -1620    -1779    -1632    -1301     -780      -45      703     1311 
    1827     2350     2760     2803     2574     2225     1679     1050 
     486     -132     -714     -924     -759     -557     -607     -906 
   -1198    -1270    -1019     -540     -277     -494     -851    -1001 
   -1000     -877     -549      -28      780     1725     2261     2393 
    2651     3129     3542     3635     3288     2561     1635      870 
     514      248     -283     -985    -1711    -2315    -2503    -2290 
   -2033    -1691     -980     -185      218      192      -39     -197 
    -109      168      507      756      783      599      350      347 
     784     1353     1651     1725     1762     1739     1601     1336 
     970      594      112     -649    -1322    -1300     -741     -232 
     248      825     1116     1050      953      827      580      348 
     206      113       90      277      755     1273     1340      771 
      39     -228        0      237       91     -376     -762     -817 
    -621     -384     -377     -615     -763     -657     -383      -53 
     143      146      221      606     1147     1449     1316      964 
     770      948     1425     1706     1271      432      -91     -283 
    -347      -64      472      797      877      942      887      432 
    -406    -1096    -1047     -289      680     1416     1760     1842 
    1786     1543     1053      348     -380     -854     -997     -919 
    -591       12      550      856     1209     1528     1467     1090 
     544      -79     -500     -554     -342      -26      272      572 
     854      864      475      -94     -524     -614     -360       63 
     440      606      465      196      129      335      736     1168 
    1363     1261      965      604      502      766      981      881 
     529      -35     -652    -1208    -1668    -1709    -1118     -134 
     848     1496     1743     1811     1783     1445      777       97 
    -356     -527     -445     -292     -221     -259     -463     -727 
