Origin Time       2024/06/23 22:54:00
Lat.              35.645
Long.             140.060
Depth. (km)       72
Mag.              4.1
Station Code      KNG203
Station Lat.      34.7983
Station Long.     139.6435
Station Height(m) -902
Record Time       2024/06/23 22:54:54
Sampling Freq(Hz) 100Hz
Duration Time(s)  61
Dir.              U-D
Scale Factor      2000(gal)/6182761
Max. Acc. (gal)   0.418
Last Correction   2024/06/23 22:54:54
Memo.             
[...]
     102      104       94       99      117      124      125      122 
     110      101       95       88       89       79       46       26 
      29       34       51       94      131      155      206      222 
     137       70      104      119       57       16       18      -17 
     -74      -29      156      395      514      400      272      349 
     429      320      145       18      -51      -68     -146     -268 
    -170       83      116        7       57      125       91      158 
     223       16     -201      -67       93      -50      -19      350 
     419      193      247      428      214     -271     -351      -75 
    -183     -272      349      753      448      404      623      396 
     -16     -242     -344     -285     -144     -217     -428     -349 
     -55       17       27      329      652      620      327       24 
    -157     -136       48      163       97       83      218      180 
      83      289      330       -6      -77      120      122       39 
     204      459      307      -89     -142       -2     -114     -200 
     124      344      162       52     -101     -233      263      606 
      94     -146      235      240     -109     -227     -109      242 
     464      101     -238      -65      198      351      365      202 
      91      -47     -331     -355       18      307      373      503 
     558      488      551      403       -8       17      307      214 
     -72     -270     -335     -127       -4     -326     -593     -332 
     227      621      623      533      620      533       71     -388 
    -541     -473     -282       68      300      200      192      285 
     168      346      684      360      -26      115      105      -23 
     235      375       70      -87       84      201      192      113 
     -42      -92       69      215      121      -64     -162     -288 
    -359      -83      375      578      454      269      201      152 
     181      352      236     -105     -107       73       72       43 
     281      607      356     -427     -813     -344      300      271 
      70      495      732      133     -201      247      414      -57 
    -368     -279      -88      144      364      418      226      -71 
    -281     -351     -130      306      523      504      424      229 
      64      -70     -449     -652     -105      470      278      -32 
     -33     -293     -508       53      733      733      536      435 
     -81     -628     -370      128      135      162      522      684 
     331     -284     -735     -622       64      535      409      434 
     628      309     -133     -211     -257     -417     -447     -148 
     196      134       98      504      686      391      237      302 
     263      154       63      -32     -228     -538     -605     -378 
    -171      273      827      645      102      135      473      643 
     522      -35     -532     -494     -351     -226      125      312 
     135      114      365      590      761      542     -230     -694 
    -466      -80      249      266     -189     -358       93      382 
     145     -185     -131      305      489      223      157      460 
     592      364      101       50      143      128      -94     -298 
    -374     -313        5      318      260       82       93      173 
     199      132      -17       54      412      461      -86     -546 
    -396     -135      -69      272      690      547      200      276 
     582      458     -245     -608     -100      331       65     -293 
    -172      336      590      270        7       67      -22     -203 
     -39      285      193      -58      194      514      338       48 
     -33      -46     -176     -326     -118      274      337      290 
     377      277       37      -27       71      169      160       93 
     -10     -222     -321      -90      218      237       13      -38 
     147      183       28       -3       98      148      251      525 
     664      326     -158     -149      204      203      -80      -95 
      27       13       51       76      -88      -71      278      376 
      56      -77      154      436      618      467      -29     -347 
    -201      190      349      -89     -530      -95      605      593 
     389      508      363      -74     -176      -96     -117      -39 
     -70     -214      120      520      216     -208     -111      143 
     204      162      153       67      -83       59      330      214 
    -179     -336       41      610      660      332      272      244 
      -2       30      225      -28     -462     -496     -265      -35 
     245      404      252       64       17       65      333      608 
     458      108       15       51      -76     -166       -4      141 
     156      203      144      -70     -170      -52      201      328 
     152        2       91      178      180      183      151       59 
      22      244      505      286      -96      -81      -67     -293 
    -289      -74       51      187      295      297      370      469 
     512      435      103     -106       39       33     -228     -230 
     204      529      217     -301     -506     -537     -237      469 
     901      655       40     -328     -115      145       21       36 
     267      202      103      224      204       52       29      162 
     244       34     -197      -62      138       50      -17      185 
     318      258      338      452      232      -43      -53        8 
      10     -128     -324     -169      151      104      -75       15 
     166      203      266      267       66      -34      200      371 
     185       48      168      238      216      161       23      -18 
      47       19       16      140      129      -70     -102       85 
     175      144      153       50     -161      -82      142       80 
      20      106       12      -18      256      349       65      -83 
     132      251       90      133      510      668      312      -77 
    -128     -316     -784     -781     -154      405      598      577 
     443      350      398      345      -73     -553     -477       49 
     244      -94     -335       -1      493      477      209      210 
     274      230      243      231       65      -90      108      444 
     108     -579     -514       32      260      185      -57     -335 
    -328       34      346      253      125      371      661      636 
     334      -16      -74      157      307      270      151       39 
      91      216      153      -30      -60       71       39     -244 
    -344       -8      333      226      -37       29      183      114 
     160      314       45     -368     -215      300      628      647 
     373       73       76      227      302      225      -76     -293 
    -105      105      -14      -89       35      -64     -282      -72 
     495      893      738      179     -138      -89      -55       62 
     308      270      -24     -274     -414     -289       63      284 
     330      327      262      211      224      135      -88     -120 
     242      532      306      -13      -30      -47     -111       68 
     254       52     -244     -199      -93     -184     -107      213 
     296       48       39      532      972      876      370     -135 
    -183      104       54     -195     -106      -98     -373     -314 
     -10       56      181      557      646      276      -46      -18 
     269      581      533       99     -215     -281     -390     -381 
     -49      214      143       87      330      512      212     -183 
     -52      337      243     -192     -156      321      420      -90 
    -570     -461       36      388      456      472      541      449 
     149     -165     -492     -509      194      805      448     -190 
    -376     -375     -249      115      302      172       46     -162 
    -417     -186      433      747      597      363      349      541 
     624      184     -585     -703      -59       78     -485     -348 
     590      879      290     -283     -527     -273      362      527 
     121      -29      195      194        2      270      780      610 
    -212     -805     -579      175      648      620      300     -167 
    -330      -43       38     -230     -128      399      599      319 
      43       -5        7     -129     -383     -381      179      617 
     125     -384       77      594      443      289      440      373 
      66      120      395       97     -613     -586      222      343 
    -496     -868     -363      195      359      199      222      758 
    1057      482     -230     -369     -330     -222      322      676 
     170     -440     -322       43       23       33      298      222 
     103      636      915      239     -311     -354     -469     -162 
     569      527      -93     -294     -139      251      607      250 
    -433     -535      -31      448      391      139      268      431 
     142     -130      177      529      239      -83      159      258 
    -110     -152      288      427       84      -95        4       14 
     132      291        8     -211       63      142      -10      245 
     614      600      336      -69     -333      -74      169      -96 
    -270     -122     -108      -69      311      647      562      317 
     195       76      -14       45      -17     -321     -479     -239 
     123      189      -21     -107       19      138      320      521 
     380       81       91      277      395      520      592      361 
    -120     -410     -345     -302     -302       46      342       -4 
    -488     -491      -46      604      978      705       63     -233 
     143      545      428      168      -72     -399     -391     -104 
     -46       56      389      545      337     -138     -304      174 
     379      -50     -158       96       10      -24      395      546 
     216       88      104     -190     -287      254      598      190 
    -272     -383     -249       82      152      -30      163      423 
     303      197      199      148      244      474      411     -171 
    -626     -209      476      472      113        4       46      160 
     193      -30     -123      -39      -62      -44     -112     -186 
     259      658      376       40     -122     -337     -211      225 
     460      459      274       50       83      117     -195     -391 
      90      654      338     -322     -289      117      346      448 
     169     -426     -483       56      344      234      202      272 
     282      355      299     -119     -196      313      152     -772 
    -877     -205      150      482      877      647       34     -376 
    -337      318     1007      957      463        8     -452     -549 
     -11      332       55     -164     -117      -29      280      601 
     246     -565     -717       38      555      185     -119      227 
     305     -268     -551      -72      573      807      541      134 
      54      152       45     -187      -76      596      849     -132 
    -969     -434      477      627       31     -512     -157      497 
     260     -309     -198       94      105      204      390      424 
     280       61      -32       32      293      641      621      261 
    -139     -571     -686     -354     -142      -37      358      687 
     540      114     -258     -350      -82      298      447      451 
     454      252      -35      -77       83      314      368      162 
     171      341      124     -199     -179     -129     -223      -82 
     314      446      228      196      358      164     -208     -165 
      14       16      221      251     -234      -68      775      686 
    -128     -248       84      -26     -150      303      667      293 
    -230     -224      -76     -221     -176      184      236       41 
    -113     -254      106      682      325     -358     -205      108 
      23      119      312      378      553      263     -488     -346 
     464      590      249       60     -143     -361     -378     -111 
     429      841      652      104     -297     -330       88      449 
     106     -423     -402     -114       49       18     -205     -252 
       1      193      282      217     -108      -49      607      805 
     347      273      487      227     -182     -301     -233     -173 
    -202       45      553      563        5     -331     -108      215 
     303      341      496      630      366     -228     -409       15 
     337       97     -372     -483      -85      343      132     -459 
    -253      672      985      659      429       70     -232      144 
     429      -40     -485     -574     -561     -159      464      537 
     184      149      438      406     -228     -761     -247      751 
     755     -120     -521      -46      571      546      -97     -401 
     159      641      260     -258     -170      153       99     -185 
     -24      329      249      436     1016      751     -101     -286 
     -22      -30      -67      166      203     -118     -182      -45 
    -252     -428     -226      -57       10      191      318      184 
     -80     -135      143      487      627      545      271     -158 
    -336       31      320       49     -230      -60      251      255 
      20     -116     -213     -215      286      861      557     -320 
    -522      114      582      487      371      493      467       89 
     -25      545      752     -245    -1193     -807      257      729 
     204     -571     -518      259      683      386       90      236 
     314      -57     -483     -502     -135      241      342      191 
      14      -24       44      220      521      630      289      -74 
     -13      112       33       85      173     -109     -491     -490 
    -109      553     1203     1053      122     -500     -545     -429 
      53      831      995      170     -751     -777     -130      288 
     250      178      236      153     -109     -130      160      271 
     160      231      383      201     -131       48      640      569 
    -292     -589       18      340      114       91      129     -202 
    -295      174      452      375      306       37     -223     -109 
    -116     -177      254      632      443      173       38     -293 
    -506      -51      408      196       16      174      115      -22 
      60      232      528      692      361      -60     -148     -153 
    -233      -29      552      831      526      416      599      137 
    -805    -1041     -350      450      619      174     -217     -343 
    -497     -275      426      504     -116     -221      186      105 
    -477     -574      201      975     1035      623      146      -65 
     -41     -288     -653     -328      640     1080      249     -809 
    -693      160      469       79     -167      179      449      203 
     141      519      574       67     -348     -274       32      339 
     494      259      -77      -57       75      -16     -148     -105 
       1      -97     -444     -716     -456      340      892      675 
     317      315      126     -394     -427      220      667      445 
       4     -289     -416     -144      459      642      289      211 
     509      432      -44     -249     -150     -122      -55      121 
     116       94      410      697      557      355      284      -42 
    -470     -250      433      557      142       -8       20     -126 
     -92      150       94      -37      292      551      168      -87 
     370      752      565      174     -344     -645      -17      839 
     585     -420     -830     -378      -37     -285     -170      621 
     762       22     -216      126       73      -15      430      690 
     270     -251     -325     -173     -236     -288       89      492 
     291     -266     -472     -169      264      419      122     -305 
    -325      -10       73      -97       22      379      361      -67 
    -392     -267      213      615      735      759      640      230 
    -181     -300      -61      455      785      709      460      -46 
    -708    -1060     -876      -90      686      645      279      259 
     125     -337     -438       89      640      602       74     -235 
      11      416      638      575      226      -45      -12      -22 
    -123      -17       17     -322     -488      -67      391      477 
     406       84     -479     -561      -51      204        0      -54 
     188      285       29     -303     -360      -54      397      559 
     235     -169     -184      115      338      265       68       63 
     179      137       -2     -123     -357     -557     -320      271 
     678      654      494      473      400      109      -83      136 
     555      764      663      412      133     -118     -222      -65 
     277      584      678      526      201      -85      -55      191 
     295      296      274       33     -221     -185     -199     -477 
    -494       13      409      262       63      148      126     -174 
    -373     -132      304      326       11     -136     -180     -236 
    -114      148      351      314       29     -178     -145      -77 
     -13      213      318      -56     -281      252      697      346 
     -64       23      259      453      563      388       70      -28 
      86       35     -240     -210      298      620      253     -351 
    -384      207      701      584       69     -272     -116      306 
     472      245      -77     -273     -197       43      -31     -322 
    -248      103      225       49     -147     -175       41      402 
     440       -9     -253       -7       -5     -418     -531     -300 
    -180      -51      178      180       36       56       25     -178 
     -57      455      711      618      623      571      147     -231 
    -115      307      642      757      720      480       76     -175 
    -101      100      114       18      255      740      839      412 
     -69     -361     -557     -450       97      527      453      209 
      41     -101     -165      -75       44      -15     -136      -90 
     -57     -117      -27      103      103      140      134     -130 
    -468     -602     -512     -253      143      439      342       76 
      31      132      194      241      311      364      311      232 
     382      725      844      434     -288     -672     -339      382 
     856      718      200     -147     -185      -88      128      277 
     176       72      -18     -238     -254        1      114       48 
     -89     -289     -187      265      260     -351     -670     -457 
    -266     -302     -484     -690     -573       -8      425      217 
    -111      103      398      215       53      324      645      752 
     668      412      153       71       81      -15      -83      233 
     769      910      546      117     -100      -47      184      261 
     128      133      337      477      375       84      -49      107 
     132      -27      172      681      825      415     -172     -550 
    -578     -325      127      543      528      166       21      198 
     277      193      277      496      392      -91     -311       30 
     359      318      163      -17     -200     -125      166      251 
