Origin Time       2024/06/23 22:54:00
Lat.              35.645
Long.             140.060
Depth. (km)       72
Mag.              4.1
Station Code      KNG204
Station Lat.      34.8931
Station Long.     139.5711
Station Height(m) -933
Record Time       2024/06/23 22:54:53
Sampling Freq(Hz) 100Hz
Duration Time(s)  61
Dir.              U-D
Scale Factor      2000(gal)/6182761
Max. Acc. (gal)   1.043
Last Correction   2024/06/23 22:54:54
Memo.             
[...]
     -26      170      289      158       30       61      426      866 
     919      629      393      501      704      392     -243     -104 
     679      727      188       82      129      -43       59      459 
     400      -86      -50      550      906      694      187      -64 
     158      432      544      526      166     -295     -107      471 
     304     -239      150      851      671      237      302      521 
     577      625      826      889      481     -143     -400     -100 
     221      225      276      454      599      587      218      116 
     597      481     -293     -305      380      585      260      121 
     291      343      158      130      359      337       75      109 
     336      485      633      670      456      141       90      401 
     544      246       35      357      758      654      539      881 
     933      345       -6      264      336     -183     -379      287 
     737      212     -273      -94       77       64      163      277 
     328      468      680      642      331      219      517      881 
     801      314      139      355      228     -194     -211      258 
     724      722      258     -110      -58      149      295      307 
     126       60      366      560      192     -145      236      729 
     528       82       45      247      520      892      906      349 
     -80       41      321      447      339      -55     -279       75 
     377      212      377     1004      899      131      176      848 
     964      691      400       80      -59     -183     -277      150 
     683      633      207     -217     -163      531      754      230 
     281      722      457      133      405      543      311      250 
     291       90      -96       23      257      355      335      280 
     243      445      785      744      432      353      428      269 
     -42       63      492      420      -45      -67      292      361 
     120       25      214      485      489      194      217      790 
    1120      683       96       56      334      428      281       36 
      19      268      220       36      234      391      276      108 
    -134     -142      291      713      695      345      237      400 
     316      245      593      844      516       14      -53      217 
     397      469      590      502      -59     -392       98      723 
     874      554      -35     -145      411      755      610      409 
     215        2      -24      224      586      752      532      106 
    -225     -352     -192      285      762      932      846      550 
     168       70      338      658      783      550       39      -96 
     371      621      278     -221     -606     -541      125      772 
     856      474      175      388      564      261      236      596 
     522      298      409      309       85      447      819      438 
      11       40      -31     -128      174      441      326       83 
     -40      208      682      783      552      475      499      321 
      15      -58      164      436      598      443      130      188 
     369      261      239      432      620      737      514       54 
    -116     -119     -185        7      340      377      324      369 
     330      313      524      845      887      590      431      391 
     154      -58      -77       51      249      265      122       37 
      48      275      578      537      304      272      335      444 
     641      554      181      -55     -140       71      651      922 
     544        6     -174       45      299      431      684     1058 
     947      179     -322     -167       21      171      304       33 
    -272     -137      113      352      684      873      830      781 
     829      926      952      680      221      -20      -59     -118 
    -198     -174        7      132      -32     -360     -274      567 
    1286     1045      542      487      493      363      386      454 
     227     -145     -136      240      404      305      431      951 
    1391     1197      636      260      217      398      178     -437 
    -344      221      101     -332     -317       74      626      788 
     349      152      334      294      274      456      467      457 
     725      874      547      288      300      115      169      621 
     592      201        3      -59       30      130      170      213 
      69       64      496      718      505      467      620      576 
     418      139     -199     -225     -137      -75      221      469 
     579      593      196       -6      445      806      879      732 
     194     -113      182      493      422      174      238      587 
     539       52     -146       58      193      340      639      434 
    -317     -509       43      550      882     1040      754      303 
     -20     -150      261      851      748      270      187      424 
     578      515      434      503      405      -48     -251      152 
     519      398       59     -200     -324     -241      183      587 
     538      472      608      450      257      559      832      590 
     113     -251     -170      153      -15     -211      347      713 
     347      384      845      793      522      492      463      338 
     213      145       83     -162     -445     -262      187      298 
     487      954      850      336      271      472      532      498 
     360      128       24       90      211      353      233     -195 
    -221      404      883      674      215       -4       27      447 
    1025      923      306       58      143      229      239      145 
     311      715      841      665      297       10       89      220 
     429      687      325     -240     -176       -1      -92       69 
     317      154       55      424      822     1018      909      451 
     261      384      215       54      245      418      345       -9 
    -247       57      374      381      526      728      590      360 
     445      632      570      422      330      178      181      296 
     -31     -299       82      109     -233      203      727      517 
     273      184       94      288      649      815      644      387 
     348      259      118      185      207      317      612      539 
     266      234      191       75      184      550      918      930 
     330     -390     -258      244       24      -49      634      653 
     -22      239     1046      932      417      360      265      -36 
     -89       73      153      155      282      366       60     -208 
     189      854     1075     1054     1147      822        5     -192 
     308      485      354      209      -96     -372     -594     -667 
    -104      691      862      601      487      459      380      470 
     850     1272     1116      211     -395      -54      318      322 
     473      304     -482     -848     -303      435      508      161 
     492      967      333     -285      252      693      205     -234 
     162      872      879      262      122      585      762      497 
     273      362      810     1028      427     -241     -260     -114 
     -86        4      217      266      -75       21      791      948 
     302      -55      270      803      928      634      442      521 
     570      201     -386     -254      370      223     -221       26 
     423      530      401      315      765     1081      675      374 
     245     -167     -211      281      476      137     -181      -73 
     155      143      150      397      648      579      333      552 
     981      475     -539     -548      288      806      740      492 
     507      699      578      411      599      754      671      316 
    -244     -423     -264     -106      325      667      408       -9 
    -273     -238      436     1258     1202      340     -134      169 
     592     1072     1470     1098      418       79     -342     -547 
     -25      465      418      100     -233     -254       39      362 
     724     1067     1189     1142      865      162     -475     -282 
     437      612      -33     -676     -844     -798     -385      541 
    1292     1242      690      438      681      840      529      125 
     196      484      553      660      584     -133     -828     -938 
    -531      432     1205      939      137     -378     -239      295 
     684      998     1092      632      204      376      885      999 
     491      361      876      540     -601     -556      483      752 
     380      150      -35     -301     -515     -102      941     1232 
     377     -293     -293     -321     -308      300     1025     1088 
     501     -196      -96      808     1053      702      996      970 
     113      -57      196     -122     -275      -14       55       17 
     130      444      980     1248      755      -32     -378     -199 
     178      398      199     -176     -165      -51     -345     -221 
     891     1763     1461      658      329      823     1636     1863 
    1296      192    -1036    -1390     -694      -34      360      760 
     590     -362    -1085     -368     1364     1957      664     -908 
   -1670    -1418       23     1327     1109      414      -80     -972 
   -1064      778     2596     2234      588     -106      382      725 
     831     1320     1624     1033      -26     -590     -119      634 
     540       26      -68      -37     -238     -518     -465      -17 
     122      -11      304      745      918      903      455      157 
     893     1839     1769      745     -259     -343      366     1172 
    1468      768     -335     -706     -370       99      481      588 
     223     -294     -212      257      190     -115      -41      -39 
    -271     -248      113      811     1580     1305       55     -302 
     441      600       -8     -296      -11      302       81     -420 
    -328      269      388     -100     -309      123      551      502 
     236       15      -33      436     1130      979       95      -65 
     799     1269      748      311      405      540      760      893 
     536      283      554      837      815      421     -128     -110 
     425      436     -320     -787     -310      327      343      148 
     103       67      435     1301     1776     1546     1032      424 
      73      290      590      553      459      467      349      -54 
    -292      343     1190      994      211     -281     -794    -1315 
   -1152     -315      476      510      -73     -264       18     -112 
    -399       59      923     1150      619      188      361      806 
    1084      973      705      774      942      763      606      894 
    1419     1400      345     -741     -788     -418     -279       -8 
     251      -87     -557     -389       29      124      116      260 
     580      921      727     -175     -818     -284      626      520 
    -224     -336       14      121      417     1062     1167      662 
     330      445      985     1572     1408      562     -136     -444 
    -449     -160      103      204      396      526      261      -29 
     438     1615     2400     2107     1318      769      586      691 
     791      600      136     -673    -1702    -2373    -2209    -1189 
    -112      255      389      706      644      269      617     1813 
    2547     2125     1441     1138      682     -136     -647     -577 
    -373     -410     -832    -1378    -1391     -602      818     2263 
    2687     1935      865       59      -20      880     1794     1559 
     452     -808    -2052    -2645    -1901     -689     -150      146 
     514      389      217      611     1187     1729     1995     1721 
    1164      524      217      480      704      650      419     -149 
    -574     -205      536      903      953     1042     1092      841 
     238     -313     -213      364      671      401     -400    -1446 
   -1859     -946      406      656       85      -73       75      140 
     396      735      844     1018     1597     1990     1437      408 
      52      740     1419      876     -158     -462     -740    -1556 
   -1902    -1424     -620      247      654      629      956     1488 
    1810     2066     1974     1400      885      590      228     -158 
    -297     -468     -971    -1067     -356      177       56       75 
     604      964      715      327      205      204      353      818 
    1185      997      348     -429     -593      176      692      210 
    -289     -214      -82       29      596     1192      740     -416 
    -779     -151      420      445      247      430     1035     1295 
    1151     1194     1175      676       22     -217      219      785 
     592     -209     -653     -432      128      860     1465     1481 
    1047      616      125     -497     -868     -887     -815     -769 
    -758     -670     -357      -38       12      151      827     1636 
    1940     1854     1871     1985     1836     1580     1482     1075 
      60     -986    -1533    -1612    -1435    -1152     -728     -252 
    -199     -495     -377      269      954     1455     1561     1224 
     862      736     1068     1837     1978     1022       56     -339 
    -375        0      516      576      153     -352     -768    -1052 
    -923     -373       25       -2     -137     -217     -371     -460 
    -224      338     1083     1554     1452     1401     1996     2932 
    3533     3351     2511     1218     -438    -1587    -1525     -974 
    -855    -1368    -2074    -2290    -1810     -735      326      683 
     975     1663     1869     1505     1477     1799     1502      256 
    -817     -911     -768     -871     -743     -387     -144       74 
     403      803     1032      917      911     1364     1613     1087 
     526      711     1036      744      176     -156     -179       28 
     229      363      503      397       63      -38      104      155 
     244      596      778      404     -154     -567     -806     -764 
    -672     -735     -492      209      732      803      884     1262 
    1699     1859     1489      694      126      102      161       71 
      34      -38      -87      230      607      634      590      771 
    1156     1407     1077      401      -28     -147     -292     -669 
    -989     -807     -386     -304     -463     -401      -63      325 
     787     1344     1491      987      499      608     1220     1802 
    1516      423     -176       98      376      330      182       48 
      -6       66      255      381      344      335      309       53 
    -252     -328     -295     -470     -691     -383      340      704 
     497      203      126      235      558      956     1017      694 
     323      113      145      341      317      -90     -387     -174 
     238      454      510      658      896      940      871      961 
     998      835      639      396      242      498      826      640 
     232      102        3     -293     -441     -233       58      180 
     136      -58     -281     -192      185      416      422      347 
     196      109      122       91       92      267      605      920 
    1048     1214     1506     1529     1127      589      315      530 
     792      431     -301     -564     -324     -216     -345     -420 
    -382     -219       57      272      316      215       63       85 
     453      952     1197     1040      601      102     -217      -93 
     425      851      824      481      278      301      265      375 
     662      586      276       73     -306     -804     -940     -534 
     106      219     -353     -826     -875     -550      186      723 
     733      845     1147     1118      921     1168     1819     2142 
    1640      670       -7     -277     -570     -808     -498      263 
     668      430      182      138       56      191      589      857 
    1025     1216     1258     1110      802      362        7     -109 
     -38       89      125        8     -265     -497     -281      225 
     244     -341     -813     -806     -414      325     1156     1694 
    1815     1541     1112     1002     1261     1392     1132      615 
      48     -238     -139     -135     -508     -804     -594      -91 
     108     -193     -411     -173      195      373      247      -74 
    -322     -308      184     1022     1473     1118      397      -30 
     124      651     1017      941      640      339       77       39 
     402      921     1081      683      204      183      458      609 
     605      533      217     -297     -466      -55      613     1161 
    1387     1513     1765     1740     1183      588      289      -56 
    -636    -1089    -1188    -1094     -997     -902     -655     -306 
     -71       49       23      -93      194      932     1345     1057 
     436     -106     -323     -207       46      275      359      269 
     202      335      486      457      575     1093     1463     1212 
     838      868      930      581      161       -3     -217     -549 
    -542      -63      457      631      594      605      529      291 
     171      264      403      513      449      203      325      876 
     948      391      116      309      339      139      133      258 
     140     -126     -264     -354     -369      -12      578      899 
     827      638      571      515      217      -53       76      304 
     232       21       27      191      181       14     -114     -123 
     -26       61      272      790     1155      884      349      199 
     384      430      253       52      -50       15      245      571 
     843      844      631      514      523      450      369      496 
     794      980      753      198     -406     -860     -779     -112 
     511      671      506      313      200       16     -118      174 
     714      921      719      521      563      706      756      712 
     763      934      918      565      129      -50       80      155 
     -98     -399     -443     -367     -265       16      315      260 
      23       34       52     -242     -279      396     1193     1347 
     811      141     -140        6      306      557      723      670 
     345      137      208      287      429      642      492        8 
    -251      -80      317      605      523      207       81      329 
     675      745      539      367      343      235       -7     -109 
      -7      141      285      358      283      136       48      219 
     699     1000      850      723      778      660      391      189 
      71      -20     -113       -9      302      328       47       16 
     234      193      -45       68      398      395      219      201 
     187      202      498      857      924      816      643      294 
      29      240      704      972     1010      814      421      307 
     582      691      474      231       48      -69     -143     -364 
    -644     -640     -388     -125      161      347      270      233 
     495      820      952      881      716      610      631      706 
     736      615      274     -165     -406     -222      263      606 
     455       49       19      429      762      905      990      766 
     231     -141     -212     -165      -94      -41       47      137 
