Origin Time       2024/06/23 22:54:00
Lat.              35.645
Long.             140.060
Depth. (km)       72
Mag.              4.1
Station Code      KNG206
Station Lat.      35.0966
Station Long.     139.3778
Station Height(m) -1130
Record Time       2024/06/23 22:54:53
Sampling Freq(Hz) 100Hz
Duration Time(s)  67
Dir.              U-D
Scale Factor      2000(gal)/6182761
Max. Acc. (gal)   0.738
Last Correction   2024/06/23 22:54:53
Memo.             
[...]
    -503     -501     -507     -522     -538     -554     -566     -560 
    -547     -527     -505     -506     -533     -568     -599     -601 
    -566     -516     -471     -445     -442     -470     -551     -656 
    -704     -660     -568     -476     -390     -315     -287     -330 
    -422     -487     -439     -310     -221     -188     -162     -186 
    -320     -513     -665     -719     -706     -699     -704     -686 
    -653     -670     -751     -804     -750     -628     -504     -407 
    -341     -330     -437     -628     -725     -613     -397     -282 
    -334     -438     -462     -390     -312     -297     -337     -391 
    -441     -494     -536     -551     -539     -493     -485     -595 
    -754     -836     -771     -570     -357     -281     -319     -342 
    -334     -371     -480     -630     -738     -721     -661     -689 
    -719     -620     -496     -513     -642     -743     -714     -546 
    -334     -202     -179     -230     -325     -396     -399     -393 
    -420     -487     -593     -657     -630     -562     -491     -455 
    -522     -641     -704     -741     -808     -833     -749     -632 
    -581     -564     -560     -610     -651     -591     -446     -249 
     -59      -13     -185     -430     -535     -554     -610     -621 
    -596     -578     -490     -431     -532     -659     -619     -445 
    -366     -500     -658     -614     -429     -321     -362     -498 
    -656     -753     -769     -762     -748     -661     -500     -349 
    -250     -202     -169      -81       -2     -144     -509     -763 
    -755     -678     -580     -414     -317     -362     -506     -647 
    -650     -542     -455     -403     -298     -172     -207     -451 
    -721     -855     -890     -926     -899     -672     -344     -195 
    -333     -640     -904     -951     -802     -558     -226       82 
      71     -324     -728     -813     -674     -468     -211      -31 
     -45     -207     -363     -367     -353     -491     -630     -629 
    -554     -526     -614     -694     -634     -539     -547     -611 
    -610     -497     -326     -299     -555     -872     -918     -702 
    -516     -546     -660     -643     -560     -587     -623     -463 
     -97      297      424       88     -528    -1021    -1113     -788 
    -277       56      -61     -531     -878     -862     -753     -744 
    -746     -737     -703     -600     -497     -449     -472     -587 
    -689     -611     -369     -195     -254     -419     -483     -481 
    -533     -551     -411     -237     -227     -371     -505     -469 
    -285     -214     -420     -742     -992    -1129    -1107     -887 
    -573     -386     -452     -662     -769     -625     -312      -43 
      57      -25     -230     -375     -344     -303     -404     -579 
    -711     -710     -632     -641     -732     -782     -764     -704 
    -610     -502     -429     -397     -388     -441     -500     -416 
    -254     -201     -242     -303     -422     -576     -694     -808 
    -934     -924     -690     -432     -366     -432     -481     -507 
    -561     -594     -492     -265      -82      -58     -175     -329 
    -390     -370     -388     -484     -674     -907    -1032    -1010 
    -896     -733     -638     -649     -584     -313        1       85 
    -162     -499     -555     -351     -212     -282     -524     -770 
    -771     -596     -482     -436     -430     -506     -583     -541 
    -347      -68       75     -169     -665     -942     -847     -625 
    -432     -381     -586     -959    -1273    -1272     -905     -495 
    -340     -401     -438     -303     -130      -99     -181     -225 
     -87      138      114     -238     -594     -713     -713     -776 
    -867     -885     -830     -736     -636     -545     -449     -381 
    -391     -417     -369     -281     -232     -272     -432     -641 
    -745     -673     -536     -499     -563     -589     -505     -412 
    -451     -600     -748     -825     -811     -694     -438     -112 
      37     -177     -569     -723     -530     -235       -2       -8 
    -391     -803     -861     -748     -719     -736     -756     -764 
    -711     -635     -568     -502     -408     -179      116      187 
     -21     -242     -349     -444     -617     -910    -1190    -1172 
    -875     -623     -585     -654     -696     -675     -574     -381 
    -137       55       97       32      -28     -146     -399     -618 
    -708     -736     -622     -450     -528     -801     -997    -1044 
    -915     -595     -236      -50     -115     -307     -377     -307 
    -334     -524     -750     -886     -806     -572     -392     -322 
    -390     -616     -824     -810     -592     -347     -188     -109 
    -158     -418     -750     -876     -779     -644     -556     -461 
    -261      -16       -8     -356     -731     -773     -599     -458 
    -337     -281     -435     -758    -1070    -1131     -889     -622 
    -517     -486     -463     -444     -400     -337     -275     -201 
    -143     -152     -259     -469     -663     -687     -577     -487 
    -456     -428     -414     -488     -615     -609     -425     -324 
    -484     -761     -910     -819     -599     -513     -632     -741 
    -708     -626     -536     -355     -128      -46     -194     -423 
    -484     -381     -364     -475     -574     -622     -631     -627 
    -630     -660     -743     -814     -798     -699     -546     -388 
    -241      -99      -39     -183     -443     -573     -563     -553 
    -523     -487     -483     -433     -382     -436     -587     -762 
    -806     -649     -449     -333     -299     -337     -447     -606 
    -746     -756     -637     -532     -496     -451     -350     -227 
    -196     -341     -541     -657     -747     -870     -904     -714 
    -376     -137     -160     -353     -497     -523     -535     -570 
    -586     -588     -537     -419     -377     -479     -639     -810 
    -925     -877     -705     -539     -422     -326     -219     -119 
    -136     -295     -401     -360     -372     -503     -567     -541 
    -561     -626     -673     -699     -741     -854     -996     -985 
    -726     -333       20      171       15     -289     -430     -366 
    -243     -138     -201     -530     -832     -816     -592     -401 
    -426     -697     -955     -949     -728     -505     -459     -573 
    -617     -503     -383     -333     -257     -130     -105     -289 
    -506     -533     -453     -405     -370     -400     -526     -619 
    -634     -638     -677     -739     -761     -728     -664     -608 
    -619     -652     -568     -360     -175      -71       10        0 
    -239     -567     -703     -699     -734     -762     -709     -570 
    -372     -285     -407     -580     -608     -455     -246     -175 
    -299     -491     -676     -876    -1006     -928     -647     -305 
     -95     -194     -603    -1038    -1159     -905     -447      -19 
     171       63     -240     -567     -761     -797     -708     -543 
    -474     -617     -785     -764     -641     -595     -600     -510 
    -308      -99       61      119      -25     -294     -441     -403 
    -387     -560     -821     -966     -920     -754     -573     -423 
    -382     -557     -834     -936     -759     -452     -230     -171 
    -234     -384     -527     -531     -407     -323     -386     -494 
    -507     -439     -405     -492     -677     -808     -715     -428 
    -204     -266     -552     -798     -801     -597     -363     -230 
    -231     -328     -439     -511     -588     -780    -1061    -1226 
   -1092     -689     -296     -172     -240     -300     -351     -445 
    -504     -436     -278     -181     -205     -282     -414     -587 
    -666     -588     -423     -304     -350     -525     -648     -634 
    -546     -439     -369     -447     -659     -815     -767     -552 
    -343     -284     -303     -261     -231     -333     -482     -562 
    -608     -731     -977    -1260    -1446    -1391    -1007     -414 
      81      196      -94     -421     -340       26      124     -193 
    -591     -814     -878     -824     -586     -312     -320     -578 
    -819     -888     -719     -336      115      406      323      -96 
    -524     -682     -606     -553     -694     -938    -1103    -1091 
    -927     -720     -553     -492     -514     -459     -289     -138 
     -38       52       35     -177     -426     -562     -683     -874 
   -1011     -962     -768     -570     -492     -551     -656     -736 
    -763     -736     -707     -682     -546     -201      230      407 
     166     -302     -801    -1175    -1161     -751     -295      -94 
    -184     -386     -547     -649     -636     -489     -321     -263 
    -386     -565     -563     -389     -294     -344     -380     -370 
    -416     -442     -373     -402     -648     -879     -859     -659 
    -454     -315     -309     -516     -825    -1011     -963     -710 
    -437     -361     -421     -419     -406     -519     -634     -548 
    -314     -172     -219     -346     -462     -531     -536     -553 
    -674     -794     -686     -334      -31      -55     -357     -613 
    -618     -572     -597     -471     -202     -100     -319     -718 
    -958     -879     -646     -423     -322     -387     -517     -616 
    -617     -477     -334     -379     -611     -877     -990     -843 
    -536     -317     -336     -485     -550     -452     -274     -100 
       7      -65     -357     -674     -834     -943    -1067    -1101 
   -1020     -807     -452     -127      -17     -167     -487     -758 
    -839     -749     -446      -11      165     -103     -525     -696 
    -559     -361     -226     -202     -349     -510     -556     -556 
    -527     -438     -383     -459     -553     -495     -309     -186 
    -317     -672     -931     -840     -562     -385     -336     -341 
    -372     -380     -356     -348     -366     -465     -716     -974 
    -972     -706     -431     -334     -399     -571     -807     -958 
    -890     -671     -470     -384     -421     -584     -854    -1028 
    -829     -290      210      339       38     -502     -932     -962 
    -641     -317     -296     -542     -730     -649     -414     -226 
    -215     -405     -567     -424      -99       -8     -318     -755 
    -982     -936     -716     -487     -447     -561     -648     -708 
    -781     -832     -818     -654     -347      -46      161      242 
     130     -177     -572     -903    -1016     -830     -386       45 
      43     -441     -985    -1203    -1041     -631     -117      236 
     167     -214     -566     -716     -729     -642     -416     -145 
     -25     -188     -569     -899    -1007     -968     -881     -840 
    -897     -900     -735     -504     -375     -417     -511     -531 
    -494     -426     -308     -136        2      -54     -350     -716 
    -908     -817     -474      -50       60     -342     -841    -1001 
    -927     -795     -517     -155       71      108        0     -150 
    -302     -540     -769     -774     -625     -588     -695     -687 
    -415      -94      -42     -366     -842    -1091    -1030     -837 
    -620     -473     -453     -486     -481     -386     -289     -300 
    -301     -252     -325     -527     -631     -506     -260     -114 
    -227     -567     -934    -1113    -1035     -810     -616     -546 
    -516     -375     -138        4     -105     -370     -452     -244 
    -134     -343     -655     -888     -982     -956     -901     -799 
    -611     -455     -445     -465     -359     -172      -22        2 
    -178     -444     -598     -777    -1085    -1216    -1015     -613 
    -116      284      352       57     -338     -492     -351     -224 
    -386     -721     -920     -891     -773     -820    -1150    -1459 
   -1284     -555      331      945     1122      916      439     -237 
    -902    -1206    -1094     -812     -624     -780    -1274    -1636 
   -1499    -1078     -787     -748     -798     -745     -537     -253 
     -57      -33      -66        3      113       71     -125     -395 
    -736     -992     -924     -520        4      337      379      362 
     408      261     -233     -714     -770     -471     -243     -425 
    -919    -1333    -1402    -1122     -683     -328     -193     -303 
    -600     -744     -413       71      126     -302     -785     -949 
    -847     -691     -414      -75      -80     -591    -1275    -1614 
   -1431     -994     -605     -444     -395     -191       53       70 
     -32       45      225       70     -376     -570     -393     -217 
    -282     -499     -751    -1021    -1151    -1039     -890     -895 
   -1007    -1012     -702     -122      402      550      329       60 
     -72     -207     -419     -645     -874    -1054    -1148    -1214 
   -1247    -1183     -969     -611     -236       40      235      380 
     494      597      540      148     -430     -877    -1082    -1258 
   -1633    -2056    -2247    -2131    -1744    -1236     -736     -215 
     308      734     1035     1289     1487     1348      706     -159 
    -888    -1325    -1459    -1364    -1123     -837     -649     -611 
    -697     -922    -1228    -1434    -1393    -1050     -382      519 
    1275     1453     1019      330     -268     -583     -497      -87 
     284      197     -489    -1493    -2351    -2780    -2674    -1991 
    -962      -46      438      430       95     -189      -84      370 
     761      812      724      616      153     -787    -1774    -2293 
   -2177    -1588     -685      237      651      343     -311     -659 
    -350      370      932      931      326     -712    -1814    -2432 
   -2377    -1992    -1612    -1377    -1277    -1107     -741     -227 
     311      678      855     1002     1134     1130      921      444 
    -291    -1059    -1585    -1757    -1681    -1543    -1412    -1201 
    -781     -297     -134     -389     -775     -982     -828     -353 
     191      594      822      895      757      307     -329     -791 
    -875     -732     -671     -816    -1129    -1618    -2109    -2293 
   -2101    -1622     -945     -199      456      891     1060     1049 
     990      888      637      129     -567    -1038     -934     -477 
    -207     -388     -875    -1381    -1720    -1856    -1770    -1452 
   -1014     -569      -97      416      759      638       62     -615 
   -1040    -1064     -828     -609     -584     -832    -1207    -1331 
   -1009     -311      461      852      791      636      517      336 
     210      272      334       94     -479    -1012    -1166    -1116 
   -1215    -1450    -1564    -1384     -971     -635     -626     -884 
   -1121    -1041     -582       46      524      628      434      216 
      18     -282     -568     -689     -782     -990    -1215    -1387 
   -1572    -1764    -1886    -1745    -1089      -25      942     1363 
    1165      616       63     -251     -210       71      279      134 
    -398    -1036    -1375    -1180     -635     -272     -395     -775 
   -1039    -1074     -970     -828     -761     -900    -1225    -1390 
   -1045     -397        9      -68     -459     -785     -785     -513 
     -13      701     1297     1417      954      -14    -1016    -1435 
   -1209     -750     -447     -467     -653     -662     -425     -232 
    -307     -556     -749     -809     -806     -813     -896    -1008 
    -971     -682     -254       71      113     -171     -635     -949 
    -926     -690     -451     -381     -451     -456     -447     -628 
    -924    -1127    -1114     -817     -278      325      782      933 
     711      223     -298     -597     -579     -518     -725    -1081 
   -1297    -1362    -1456    -1613    -1623    -1304     -766     -298 
     -84      -32       98      390      718      927      860      445 
     -95     -495     -781    -1041    -1228    -1244    -1018     -630 
    -323     -291     -497     -728     -814     -697     -428     -138 
      76      130      -78     -464     -779     -895     -848     -710 
    -607     -584     -446      -61      294      267      -62     -336 
    -383     -276      -91      119      102     -456    -1384    -2126 
   -2359    -1999    -1109      -79      582      567      -27     -749 
   -1211    -1247     -864     -370     -134     -177     -249     -228 
    -288     -556     -904    -1206    -1405    -1394    -1144     -802 
    -511     -314     -224     -253     -438     -783    -1111    -1197 
    -986     -528      104      737     1092     1014      627      161 
    -189     -272     -117      108      345      629      799      488 
    -441    -1577    -2293    -2311    -1798    -1074     -478     -264 
    -363     -452     -357     -138      107      305      373      296 
      92     -284     -774    -1192    -1440    -1458    -1192     -829 
    -641     -615     -566     -373      -51      206      170     -139 
    -424     -450     -323     -243     -258     -420     -806    -1314 
   -1711    -1837    -1684    -1408    -1237    -1232    -1248    -1094 
    -672      -85      396      521      291      -25     -196     -184 
     -19      125        3     -345     -704     -950    -1071    -1135 
   -1183    -1168     -963     -447      238      731      716      131 
    -665    -1120     -929     -283      285      412      153     -224 
    -544     -757     -797     -744     -778     -897    -1054    -1210 
   -1301    -1345    -1297    -1054     -727     -551     -568     -544 
    -217      380      891     1007      805      564      302     -119 
    -611     -894     -789     -454     -168      -37     -159     -537 
    -850     -876     -759     -593     -371     -248     -318     -491 
    -675     -740     -598     -307        7      165      -34     -561 
   -1103    -1439    -1554    -1391     -949     -458     -170     -147 
    -290     -454     -568     -663     -777     -887     -916     -805 
    -553     -225      -15     -191     -768    -1344    -1598    -1626 
   -1506    -1152     -647     -138      324      602      522      161 
    -203     -393     -337      -74      208      390      427      298 
      21     -458    -1036    -1410    -1494    -1382    -1147     -913 
    -762     -679     -707     -853     -914     -659     -140      264 
     215     -222     -662     -804     -666     -417     -141       95 
     109     -207     -667     -961     -959     -688     -251       78 
      55     -219     -454     -440     -164      273      728      871 
     508     -120     -714    -1052    -1053     -950     -880     -722 
    -480     -315     -328     -519     -795    -1066    -1286    -1393 
   -1317    -1046     -672     -358     -141      106      401      601 
     611      363     -201     -893    -1357    -1414    -1136     -764 
    -549     -515     -476     -284       21      205       -9     -585 
   -1131    -1371    -1311    -1011     -605     -305     -154      -77 
    -129     -424     -833    -1017     -883     -656     -562     -710 
   -1021    -1325    -1525    -1482    -1129     -663     -369     -360 
    -510     -599     -515     -344     -251     -244     -254     -285 
