Origin Time       2024/06/23 22:54:00
Lat.              35.645
Long.             140.060
Depth. (km)       72
Mag.              4.1
Station Code      KNG203
Station Lat.      34.7983
Station Long.     139.6435
Station Height(m) -902
Record Time       2024/06/23 22:54:54
Sampling Freq(Hz) 100Hz
Duration Time(s)  61
Dir.              N-S
Scale Factor      2000(gal)/6182761
Max. Acc. (gal)   3.423
Last Correction   2024/06/23 22:54:54
Memo.             
[...]
     109      106      104      106      102       99      104      105 
      99       99      101      103      105      105      106      106 
     100       98      104      109      105       97      100      108 
     104       99       96       96      101      102       99      100 
     101      101      105      104      102      106      112      109 
     101      103      110      106      100      102      100       98 
      99       98       96      102      110      104       91       94 
     105      101       97      102      103      101       99      104 
     105       93       91       98       96       97       99       92 
      89       95       95       93       97       98       90       86 
      88       87       87       90       86       80       84       88 
      87       86       85       84       81       77       82       84 
      75       71       78       80       79       79       77       78 
      76       70       70       70       69       72       73       75 
      72       68       68       70       68       67       71       72 
      68       70       70       65       67       66       62       66 
      69       72       76       75       73       73       69       66 
      71       74       71       71       73       73       71       70 
      73       75       71       73       81       81       75       79 
      83       75       76       84       87       86       80       81 
      89       87       81       83       84       84       88       87 
      87       88       85       84       86       84       87       96 
      93       88       98      106       94       81       84       89 
      81       69       68       81       97       88       69       77 
     104      117      105       88       76       62       57       75 
      93       99       94       71       49       54       67       82 
     114      136      114       88       72       47       47       97 
     126       95       73      103      134      108       61       74 
     126      114       54       43       51       33       66      149 
     179      137       74       28       43       97      117      108 
     105       91       46        1      -23      -19       43      159 
     209      138       84      127      180      178      135       94 
      76       56       25      -22      -67      -22       99      151 
     127      131      152      150      143      140      131      100 
      38      -27      -53      -24       16       33      100      247 
     279       36     -237     -240      -91       15       76      128 
     217      289      235      153      172      226      241      244 
     226      122      -84     -242     -164       17      -37     -256 
    -212      147      414      337       58     -138      -82      137 
     278      321      402      494      464      232     -133     -328 
    -166       71       28     -274     -624     -840     -701     -108 
     623      987      883      702      597      272     -211     -377 
    -263     -352     -626     -619     -136      625     1138      844 
      21     -449     -378     -170      124      645     1088      920 
     205     -314     -220       93      109     -204     -580     -857 
    -980     -767     -118      576      750      359     -126     -164 
     449     1252     1510     1007      133     -556     -818     -878 
    -848     -425      323      692      315     -251     -193      539 
    1136     1005      490      114     -183     -517     -595     -220 
     138      -99     -650     -869     -666     -277      223      887 
    1501     1500      700     -279     -788     -833     -615      -31 
     890     1508     1089      -58     -710     -444      -51     -130 
    -436     -467     -113      232      146     -309     -557     -218 
     264      425      613     1109     1395     1020      203     -596 
    -964     -657       85      745     1025      740     -182    -1265 
   -1798    -1578     -835      112      757      748      515      682 
    1121     1372     1205      551     -347    -1047    -1287     -907 
    -115      312       20     -317       27      682      738      243 
      25      314      640      555      -35     -712     -815     -275 
     212      138     -176     -147      309      815     1001      633 
    -197     -757     -506      -92     -309     -627      -35     1219 
    1822     1111     -227    -1097    -1071     -590     -336     -302 
      -4      388      296      -92     -176       -2       24       46 
     470     1058     1094      257     -895    -1176      -49     1372 
    1535      309    -1123    -1601     -911      234      936      735 
     -82     -524      -30      676      811      533      158     -303 
    -817    -1199    -1049      -99     1122     1667     1226      355 
    -210     -380     -636     -997     -775      279     1266     1304 
     823      523       80     -756    -1324    -1153     -493      315 
    1054     1372      969      116     -421     -151      443      362 
    -401     -715     -209       44     -559    -1109     -816     -101 
     576     1226     1482      978      173     -254     -224      -94 
    -127     -272     -166      510     1267     1137      155     -609 
    -511       28      193     -214     -625     -619     -456     -413 
    -323      101      979     1829     1669      426     -764    -1097 
    -785     -400     -105      432     1183     1416      738     -366 
   -1193    -1338     -724      317     1099     1078      371     -387 
    -697     -488       95      771     1210     1351     1086       -2 
   -1547    -2182    -1355        2      820      867      520      126 
    -229     -385     -116      343      569      617      511      -53 
    -721     -695      -62      400      337      181      493      895 
     603      -48     -188      151      315      -18     -423     -249 
     348      623      305     -263     -638     -604     -226      219 
     257     -318     -868     -608      321     1228     1783     1918 
    1431      258    -1178    -2204    -2378    -1616     -204     1025 
    1140      285     -355     -145      496     1046     1332     1309 
     793     -289    -1155     -837      230      728      279     -426 
    -686     -189      761     1126      306     -760     -825       74 
     965      971      -21    -1164    -1494     -946     -194      251 
     441      519      390      139       82      230      361      544 
     914     1111      714      110        3      212       60     -424 
    -741     -814     -888     -964     -755     -209      415      984 
    1276      908      115     -385     -444     -339       -1      663 
    1323     1484      833     -380    -1283    -1200     -393      240 
      98     -438     -383      463     1081      696     -204     -656 
    -229      678     1083      482     -345     -365      201      203 
    -756    -1571    -1047      326      954      312     -465     -235 
     631      963      581      309      438      493      198     -343 
    -824     -832     -355      129      275      192       27     -322 
    -688     -444      510     1309     1191      354     -475     -777 
    -457      138      441      267       -8      -60      -57     -184 
    -176      174      542      572      407      418      576      457 
      56      -46      313      569      357      -54     -329     -505 
    -589     -368       24       88     -389     -962     -834       29 
     633      464      216      463      719      398     -221     -538 
    -361      150      608      635      181     -444     -711     -349 
     270      666      763      591      260       79      108      119 
     114      251      543      816      705        6     -913    -1390 
   -1010       78     1055     1096      395      -69       61      153 
    -233     -763     -899     -441      209      543      753     1174 
    1370      805     -142     -586     -229      332      269     -481 
   -1044     -821     -245      173      385      343      209      349 
     520      172     -541     -900     -463      535     1464     1845 
    1576      749     -435    -1422    -1525     -647      547     1091 
     480     -648    -1137     -708        2      393      344      152 
     133      237      266      122     -268     -689     -574      297 
    1386     1842     1271      213     -498     -783     -990    -1070 
    -902     -578        3      930     1741     1791     1025      -19 
    -849    -1254    -1029     -116      955     1345      784     -193 
    -878    -1036     -983    -1071    -1075     -512      439     1061 
    1040      728      541      628     1015     1509     1640     1077 
      -9    -1092    -1774    -1925    -1418     -365      508      589 
     137     -269     -343      -89      311      746     1063      856 
     165     -323     -300      -29      390      934     1184      584 
    -760    -1827    -1604     -284      873      943      174     -598 
    -835     -558      -27      586     1077     1052      355     -507 
    -798     -442      -74      -30      183      892     1422     1014 
     -31     -835    -1068    -1026     -953     -710      -17      946 
    1442     1112      467       71      -88     -282     -470     -303 
     138      242     -107     -398     -431     -378     -225       89 
     472      879     1196     1064      278     -765    -1211     -545 
     631     1128      592     -266     -780     -901     -779     -499 
     -80      524     1130     1267      664     -443    -1237     -818 
     616     1763     1708      762      -79     -228      -44      -65 
    -259     -383     -266       90      291      -12     -643    -1074 
    -813      113     1098     1608     1556     1057      228     -709 
   -1409    -1627    -1194     -112     1045     1532     1290      742 
       6     -878    -1283     -592      625     1072      387     -627 
   -1162     -961     -193      746     1470     1584      942      141 
     -99       65      118      178      416      307     -375     -901 
    -823     -707    -1003    -1175     -580      554     1463     1720 
    1544     1232      735       69     -387     -131      825     1417 
     613    -1078    -2245    -2040     -784      295      522      437 
     409      120     -264      -23      784     1062      299     -426 
     237     1779     2097      392    -1618    -2101    -1157      -13 
     528      407     -135     -663     -649      -10      719     1041 
    1010      850      576      165     -364     -832     -933     -704 
    -424     -132      235      522      351     -429    -1097     -607 
     753     1436      892      195      180      566      794      561 
     -77     -521     -219      323      139     -522     -537      154 
     425     -267    -1037     -792      171      697      571      460 
     582      707      729      567       96     -589     -994     -676 
     -63      156      215      437      335     -318     -947     -979 
    -330      542      956      692      125     -346     -509      -76 
     966     1844     1598       74    -1865    -2868    -2149     -276 
    1344     1754     1144      401      100      208      502      624 
     315      -67     -107     -140     -542     -829     -341      569 
     740     -136     -681      201     1351     1028     -467    -1421 
   -1090     -191      411      502      353      400      806     1116 
     726     -251    -1075    -1260     -747      280     1103      911 
     -69     -762     -612      -36      455      816      981      571 
    -263     -508      241      956      632     -483    -1283     -872 
     321      877      238     -824    -1218     -292     1249     1587 
     234    -1101    -1043     -276       89      233      815     1517 
    1380      285     -736     -961     -787     -645     -315      206 
     376       83     -117       81      473      704      375     -387 
    -727     -372     -105     -303     -353      229     1090     1478 
     928     -176     -791     -349      608     1094      642     -369 
   -1155    -1189     -525      254      506      148     -195      133 
     876     1068      358     -540     -820     -445      105      510 
     637      406       19     -290     -582     -681     -322      138 
     236       92      115      488      876      785      239     -309 
    -502     -221      358      719      505      -18     -389     -535 
    -643     -667     -364      123      304      127       95      490 
    1000     1198     1027      657      184     -336     -675     -513 
     -13      120     -307     -584     -136      737     1244      883 
     -77     -760     -441      660     1508     1284      100    -1209 
   -1686     -956      346     1178     1030      121     -763     -880 
    -319      502     1429     1919     1279     -101    -1152    -1443 
   -1315    -1247    -1252     -889      -89      557      647      597 
    1120     2277     3266     3262     2232      855      -58     -245 
    -326     -942    -1837    -2389    -2394    -1900    -1060     -175 
     486      544     -227    -1131    -1259     -714      -28      570 
     640     -152     -883     -220     1328     1752      364    -1404 
   -2095    -1564     -336     1165     2688     3929     4517     4331 
    3652     2928     2390     1787      791     -193     -439     -240 
   -1004    -3758    -7647   -10398   -10511    -8386    -5480    -2725 
     168     3521     6508     7757     6932     5562     5515     6539 
    6752     5294     2848      202    -2320    -4511    -5824    -5437 
   -3794    -3178    -5000    -7620    -8091    -5124      -28     4623 
    6846     6136     3592     1340      897     1772     2211     1249 
    -583    -2196    -2894    -2571    -1387      361     2139     3383 
    3743     3202     2162     1242      941     1279     1629     1492 
     976     -365    -3313    -6574    -7371    -5122    -1770     1135 
    3101     3717     3113     2366     2589     3921     4911     3272 
   -1472    -6493    -8119    -5848    -2623    -1157    -1530    -1907 
    -330     3331     6671     7301     5834     4494     3727     2400 
      23    -2720    -4344    -3667    -1727    -1279    -3136    -4573 
   -3094     -195     1049      555      525     1294      832    -1384 
   -2877    -1858       66      294    -1216    -1635     1376     5853 
    6879     2811    -2320    -3792    -1157     2706     5052     4632 
    1689    -1947    -4004    -3850    -2679    -1716    -1052      -52 
    1590     3289     3987     2921      346    -2194    -3297    -2984 
   -1513      902     2835     3033     1956      283    -1626    -2878 
   -3127    -3078    -2726    -1141     1806     4587     4587      643 
   -4233    -5062     -749     4347     5382     2301     -754     -760 
     936     1097    -1073    -3275    -3129     -633     1900     1765 
    -871    -2525    -1193     1478     3813     5408     5218     2164 
   -2908    -7265    -8086    -5179    -1793     -865    -1385     -709 
    1105     1747      589     -200     1227     4157     6707     7828 
    7508     5806     2285    -2685    -6464    -6195    -2572      542 
     560    -1563    -3218    -2577      300     3424     4252     1763 
   -2504    -5266    -4176     -572     1830     1770     1319     1402 
     291    -2532    -4331    -2543     1521     4265     4099     2603 
    2114     2877     2534     -781    -4990    -5673    -1650     3289 
    5098     3609     1224     -380    -1242    -1860    -1939    -1029 
      48       64     -560     -486       47     -692    -3036    -4613 
   -3195       22     1630      429     -889      523     3695     5286 
    3716      583    -1305     -959       -6      -66     -665     -579 
     339     1614     2991     3862     2969       69    -2754    -3116 
   -1423     -391    -1476    -3243    -3680    -2653    -1213      135 
    1411     2397     2581     1598       -5     -596      709     2199 
    1396    -1377    -3442    -3405    -2067     -603      435     1130 
    1915     2767     2866     1650     -151    -1237    -1143     -413 
     254      651      905     1094     1267     1428     1297      550 
    -540    -1291    -1369     -590     1242     3392     4301     3216 
     702    -2164    -4179    -4411    -2987     -943      770     1655 
    1603     1170     1044      747     -620    -2118    -1765      242 
    1608     1247      211     -422     -703    -1143    -1840    -2196 
   -1610     -363      661      995      960     1076     1513     2170 
    2756     2654     1461     -323    -1849    -2687    -2556    -1595 
   -1036    -1666    -2196    -1164      708     1732     1679     1663 
    2122     2255     1700     1351     1818     2569     2997     2994 
    2465     1083    -1305    -3800    -4650    -3370    -1724    -1547 
   -2594    -3286    -2755    -1616    -1027    -1100     -600     1256 
    3303     3690     2271      938     1375     2818     3053     1498 
    -576    -2316    -3556    -3961    -3459    -2428    -1214     -131 
     736     1807     3158     3940     3388     1564     -941    -3145 
   -3854    -2528       97     2627     4027     3826     2097     -419 
   -2582    -3301    -2087      282     2059     1986      168    -2274 
   -3740    -2879      257     3803     5308     3799      652    -1823 
   -2332    -1174      292      910      675      158     -388    -1094 
   -1969    -2227     -609     2682     5137     4433     1092    -2231 
   -3376    -2302     -607      262      -19     -992    -1893    -2035 
   -1176      399     1879     2537     2529     2304     1686      439 
    -854    -1034      474     2403     2343     -292    -3281    -4094 
   -2201      647     1981     1265      405      937     2046     2094 
     797     -808    -1739    -1973    -2237    -2830    -3056    -2378 
   -1514    -1430    -1729     -942     1447     4020     5260     5504 
    5619     4991     2585     -950    -3596    -4122    -3029    -1377 
     122      730     -183    -2193    -3767    -3528    -1578      437 
    1059      868     1315     2125     2125     1833     2622     3937 
    3703     1512     -498     -437      991     1597      340    -1710 
   -2922    -3047    -3017    -3217    -2690     -351     3229     5912 
    5979     3418     -523    -3996    -5148    -3574     -951      553 
      33    -1766    -3125    -2892    -1520        1     1519     3227 
    4677     4875     3052     -235    -2924    -3356    -2133    -1186 
   -1033       24     2926     5334     4118     -454    -4731    -5530 
   -2963      450     2560     3079     2761     1738     -487    -3195 
   -4112    -1875     2005     4316     3338      457    -1731    -2039 
   -1132     -364     -390     -679     -462      208      707      776 
     669      415     -307    -1347    -1880    -1270      352     2171 
    3180     2960     1923      810      249      318      355     -269 
   -1429    -2557    -2979    -2137     -274     1421     1922     1346 
     618      424      699      925      850      706      542      -30 
   -1063    -1903    -1912    -1197     -402     -153     -668    -1274 
    -718     1113     2542     2190      725     -304     -298      300 
