Origin Time       2024/06/23 22:54:00
Lat.              35.645
Long.             140.060
Depth. (km)       72
Mag.              4.1
Station Code      KNG203
Station Lat.      34.7983
Station Long.     139.6435
Station Height(m) -902
Record Time       2024/06/23 22:54:54
Sampling Freq(Hz) 100Hz
Duration Time(s)  61
Dir.              E-W
Scale Factor      2000(gal)/6182761
Max. Acc. (gal)   5.418
Last Correction   2024/06/23 22:54:54
Memo.             
[...]
     115      116      117      120      119      117      116      121 
     127      124      123      128      125      126      137      136 
     130      126      123      127      129      120      125      135 
     134      134      138      136      139      142      141      144 
     147      146      144      135      127      126      128      132 
     136      139      142      143      143      149      152      154 
     162      156      132      110      100       97      103      109 
     111      130      157      158      142      140      161      184 
     186      176      164      144      119      104      111      140 
     165      174      183      181      156      142      146      143 
     142      141      129      132      154      179      202      205 
     197      182      132       88       79       66       63      110 
     175      212      222      210      184      185      227      277 
     302      281      205       59     -136     -241     -152       40 
     201      279      280      257      225      175      151      145 
     111       77       67        6     -153     -315     -357     -219 
      54      322      453      416      298      177       96      110 
     192      272      317      282      176       94      126      282 
     447      452      235     -129     -492     -654     -541     -337 
    -213     -172     -199     -218      -86      199      496      685 
     730      584      262      -52     -219     -212      -19      178 
     172       67       54      169      364      517      467      214 
     -99     -334     -369     -186       39      138       50     -146 
    -176      115      493      587      277     -273     -817    -1029 
    -711      -84      580     1097     1236     1039      711      306 
     -98     -397     -559     -564     -402      -62      336      533 
     394      -51     -661    -1060     -797      166     1304     1873 
    1403      129    -1147    -1721    -1347     -324      710     1259 
    1112      454     -159     -379     -236      115      368      290 
      13     -220     -221       58      372      469      330       20 
    -339     -601     -695     -641     -514     -264      184      677 
    1001     1083      939      699      528      505      648      886 
     989      656     -310    -1697    -2713    -2602    -1327      485 
    1925     2271     1503      243     -864    -1358     -989       13 
    1098     1734     1518      502     -792    -1714    -1621     -389 
    1180     2024     1659      416     -888    -1583    -1453     -683 
     288     1032     1302     1124      782      520      324       44 
    -366     -773    -1052    -1080     -674       94      808     1064 
     756      131     -458     -752     -555       50      640      825 
     507       15     -247     -125      397      939      956      456 
    -139     -306      251     1053     1218      400    -1003    -2154 
   -2218    -1050      667     2057     2400     1475      -27    -1066 
   -1033        0     1214     1635      967     -399    -1676    -2025 
   -1215       98      941      806      -64     -968    -1305     -911 
      42     1192     2057     2309     1963     1128      -25    -1113 
   -1848    -2075    -1665     -759      343     1327     1828     1629 
     771     -402    -1302    -1432     -681      632     1879     2334 
    1571     -189    -2131    -3179    -2645     -782     1479     2983 
    2898     1419     -477    -1805    -1982    -1096      224     1275 
    1496      785     -264     -909     -790       22     1027     1600 
    1438      690     -132     -446      -57      601      811      223 
    -856    -1709    -1771    -1057     -134      333      134     -352 
    -475      172     1244     1842     1425      294     -719     -954 
    -415      351      721      400     -403    -1055     -900      121 
    1379     2068     1752      718     -350     -962     -869     -196 
     423      392     -332    -1149    -1261     -495      578     1176 
     873       47     -409       70     1190     1909     1312     -476 
   -2356    -2989    -1766      614     2690     3216     1891     -407 
   -2277    -2676    -1434      660     2390     2790     1628     -345 
   -1935    -2342    -1543     -191      896     1240      952      597 
     562      767      919      615     -284    -1311    -1763    -1272 
     -53     1283     2061     1847      753     -693    -1794    -1909 
   -1014      227     1112     1301      868      199     -267     -205 
     402     1057     1151      441     -921    -2230    -2498    -1393 
     624     2667     3612     2880      911    -1321    -2709    -2624 
   -1432       34     1129     1505     1119      252     -591     -957 
    -696       -1      743     1140      953      264     -548    -1014 
    -822      -86      638      816      425     -103     -301       72 
     904     1660     1780     1194      165     -952    -1719    -1854 
   -1384     -493      578     1393     1412      527     -809    -1972 
   -2386    -1740     -192     1665     2960     3057     1998      345 
   -1116    -1721    -1321     -324      604      951      661      187 
      50      284      568      631      398       11     -366     -635 
    -768     -827     -734     -345      206      550      372     -247 
    -784     -763     -162      667     1315     1527     1316      929 
     507      -10     -624    -1142    -1248     -837     -104      688 
    1208     1194      674     -135     -891    -1208     -918     -215 
     505      886      758      282     -102      -69      320      699 
     681      195     -485     -912     -686      147     1016     1308 
     743     -533    -1846    -2278    -1414      296     2005     2941 
    2724     1619      220     -911    -1368    -1168     -599      107 
     672      830      531     -122     -907    -1473    -1547    -1061 
    -108     1019     1811     1901     1371      550     -202     -531 
    -368      -10      163      -64     -518     -795     -700     -283 
     267      686      816      663      300     -169     -468     -261 
     430     1205     1614     1310      235    -1137    -1995    -1770 
    -552      909     1686     1257     -203    -1861    -2671    -2003 
     -24     2301     3739     3589     2058      -46    -1722    -2177 
   -1377        2     1150     1436      695     -628    -1826    -2268 
   -1731     -588      535     1159     1099      554     -108     -580 
    -603     -112      648     1400     2008     2255     1851      803 
    -443    -1293    -1394     -878     -242      122      191      149 
     172      209       30     -462    -1114    -1514    -1199     -158 
    1063     1798     1669      809     -290    -1076    -1057     -135 
    1095     1733     1271      -58    -1507    -2244    -1762     -279 
    1384     2377     2283     1479      788      644      906      957 
     120    -1517    -3070    -3590    -2634     -519     1770     2993 
    2480      720    -1163    -2154    -1672      -10     1762     2583 
    2008      476     -997    -1591    -1099       85     1241     1801 
    1623     1011      349     -287     -963    -1602    -2013    -1968 
   -1340     -308      673     1172      954      164     -555     -536 
     389     1713     2540     2343     1315       30     -890    -1098 
    -797     -512     -545     -734     -685     -233      383      793 
     804      432     -162     -703     -890     -553      137      716 
     801      389     -165     -416     -140      436      717      459 
      56      -56      322      962     1179      650     -203     -744 
    -610      -59      237      -29     -531     -697     -260      403 
     633      224     -443     -798     -539      128      665      720 
     368     -114     -438     -429     -199      -41      -37      -17 
     173      602     1154     1504     1353      513     -888    -2182 
   -2612    -1913     -369     1374     2484     2493     1738      853 
     205     -145     -344     -488     -569     -619     -550     -187 
     378      818      815      235     -694    -1414    -1420     -688 
     360     1203     1354      714     -243     -972    -1069     -444 
     405      924     1016      842      598      438      409      474 
     546      511      264     -279    -1095    -1871    -2079    -1337 
     265     2003     2829     2198      414    -1617    -2727    -2205 
    -501     1273     2245     2030      925     -255     -891     -761 
     -59      563      565      -12     -692     -963     -647      -13 
     465      598      573      634      832      954      773      316 
    -162     -326      -21      494      660      183     -636    -1271 
   -1287     -659      113      662      900      781      481      102 
    -434     -873     -823     -223      766     1785     2176     1438 
    -179    -1747    -2227    -1264      426     1761     2019     1023 
    -674    -2147    -2686    -1977     -255     1773     3198     3151 
    1458    -1012    -2859    -2851     -824     1924     3608     3119 
     686    -2161    -3617    -2732      -21     2802     4089     3179 
     569    -2321    -3870    -3258    -1092     1270     2695     2581 
    1273     -230    -1289    -1725    -1624    -1207     -381      945 
    2171     2471     1524     -285    -1857    -2035     -564     1673 
    3215     3023     1227    -1125    -2810    -3039    -1859      -97 
    1251     1549      771     -440    -1246    -1161     -128     1446 
    2776     3114     2179      425    -1244    -2189    -2216    -1493 
    -578      -73     -155     -515     -654     -258      533     1213 
    1388      976      131     -685     -997     -762     -153      656 
    1378     1773     1741     1203      225     -850    -1585    -1678 
   -1113     -145      873     1514     1397      533     -622    -1454 
   -1499     -762      321     1300     1753     1453      734       -3 
    -569     -732     -460      -20      228      -98     -922    -1517 
   -1342     -499      642     1499     1501      754     -131     -699 
    -757     -339      348     1127     1693     1560      602     -713 
   -1682    -1703     -651      930     2205     2474     1557      -44 
   -1597    -2509    -2442    -1468       96     1710     2483     1829 
     167    -1440    -2038    -1314      216     1678     2411     2117 
     927     -698    -2129    -2619    -1793       41     2120     3277 
    2455     -172    -3109    -4553    -3436     -244     3151     4761 
    3686      744    -2127    -3364    -2554     -383     1867     3100 
    2921     1791      489     -573    -1255    -1462    -1174     -533 
      83      304       55     -353     -401       60      653      876 
     462     -332     -849     -649      117      831      884      192 
    -806    -1482    -1318     -285      988     1749     1602      621 
    -603    -1280     -976       37      885      799     -144    -1039 
   -1059      -84     1375     2398     2269     1140     -197     -911 
    -611      274      781      414     -470    -1205    -1226     -394 
     767     1503     1362      384     -864    -1660    -1549     -637 
     492     1348     1703     1451      723     -144     -748     -789 
    -313      318      649      372     -420    -1242    -1556    -1126 
    -101     1136     2036     2178     1683      914      133     -381 
    -563     -643     -863    -1293    -1593    -1319     -515      335 
     706      416     -238     -722     -678     -232      178      264 
      77        2      446     1227     1816     1960     1566      735 
     -94     -476     -218      507     1178     1331      869       -6 
    -820     -945      -57     1380     2266     1747      -63    -2161 
   -3201    -2324       97     2782     4389     4061     1975     -776 
   -3011    -3887    -3310    -2046     -913     -354     -493    -1039 
   -1566    -1840    -1741    -1231     -272     1178     2829     3958 
    3934     2713      829     -830    -1484    -1182     -802    -1192 
   -2495    -4048    -4730    -3710    -1074     2149     4484     4957 
    3852     2302     1309     1231     1601     1399      -45    -2264 
   -3900    -3974    -2673    -1010     -112     -321     -713      -85 
    1770     4055     5705     6048     5186     3858     2804     2187 
    1674      913     -128    -1144    -1881    -2475    -3301    -4550 
   -5928    -6706    -6150    -4131    -1377      860     1540      654 
    -578     -562     1317     4172     6372     6698     5048     2257 
    -573    -2430    -2752    -1763     -283      713      496     -807 
   -2064    -2266    -1481     -270     1046     2399     3827     5240 
    6012     5060     1728    -3419    -8533   -11070    -9496    -4680 
     833     4312     4292     1699    -1057    -2108     -929     1722 
    4058     4560     3274     1489      648     1300     2591     3038 
    1758     -954    -3868    -5571    -5278    -3264     -665     1056 
     754    -1425    -3778    -4280    -2120     1719     5108     6220 
    4675     1662     -775     -953     1378     4653     6189     4275 
    -258    -4867    -6818    -4590      457     4883     6002     3135 
   -2187    -6801    -8166    -5900    -1415     3012     5229     4218 
     676    -3401    -5739    -4792     -702     4704     8962     9988 
    7216     2198    -2426    -4468    -3144      610     4596     6493 
    4928     -251    -7757   -14484   -16659   -12343    -2811     7858 
   14473    13851     7204    -1160    -7088    -8522    -6220    -2986 
    -820      527     2068     3973     5043     3761      350    -2985 
   -4011    -2422       44     1334      698     -910    -1514      123 
    3193     5598     5693     3484      527    -1220     -679     1556 
    3628     3861     1833    -1564    -4542    -5346    -3660     -985 
     587     -112    -2343    -3808    -2663      738     4113     4830 
    1833    -2987    -5913    -4294     1494     7830    10114     6346 
   -1495    -8849   -11181    -6964      943     7539     9177     5409 
    -864    -5492    -6058    -2973     1179     3662     3654     2272 
    1154     1048     1393     1012     -858    -3503    -5110    -4490 
   -1818     1607     4123     4876     4183     2875     1464     -176 
   -2208    -4008    -4320    -2336     1393     4951     6084     3785 
    -954    -5819    -8289    -6913    -2226     3701     8238     9138 
    5891      137    -5324    -7796    -6019    -1048     4403     7489 
    6483     1619    -4923    -9993   -11000    -7459    -1122     5079 
    7941     5612     -833    -7791   -10995    -7860      659    10356 
   16188    15149     7856    -1933    -9267   -10629    -6079      925 
    5942     6203     2180    -2934    -5671    -4381      174     5220 
    7604     5848      997    -4016    -6095    -3968      751     4670 
    5153     1962    -2633    -5375    -4363     -311     3997     5724 
    3902      -42    -3299    -3929    -2225       97     1444     1246 
      60     -927     -995     -424       73     -123    -1040    -1845 
   -1595      -90     1991     3437     3276     1588     -622    -2290 
   -2726    -1887     -520      438      329    -1088    -3060    -4142 
   -3509    -1261     1737     3829     3645     1373    -1429    -2720 
   -1061     2973     6717     7547     4849      211    -3579    -4240 
   -1539     2560     5187     4427      625    -3942    -6677    -6120 
   -2753     1260     3600     3230      956    -1154    -1504     -184 
    1283     1127    -1138    -4048    -5327    -3722      170     4327 
    6454     5495     2325    -1025    -2641    -1763      760     3147 
    3972     2991     1039     -927    -2504    -3591    -4011    -3349 
   -1148     2257     5371     6353     4186     -457    -5343    -7946 
   -6861    -2616     2549     5935     5823     2424    -2151    -5105 
   -4629    -1107     3093     5185     3748     -153    -3619    -4156 
   -1236     3384     6553     5936     1807    -3242    -6242    -5671 
   -2226     1720     3867     3356     1028    -1214    -1791     -556 
    1150     1581      165    -2017    -3059    -1476     2591     7130 
    9350     7346     1269    -6653   -12952   -14481   -10297    -2185 
    6368    11552    11090     5664    -1644    -7140    -8221    -4689 
    1199     6191     7739     5237      350    -4208    -6374    -5517 
   -2456     1259     4271     5666     5045     2687     -500    -3147 
   -3961    -2548      328     3142     4229     2820     -171    -2751 
   -3287    -1739      204      497    -1733    -5477    -8228    -7805 
   -3883     2008     7189     9322     7908     4204      287    -1818 
   -1112     1714     4750     6120     4874     1223    -3497    -7205 
   -8002    -5270      -44     5522     8925     8332     3632    -3470 
  -10104   -13188   -11025    -4215     4722    11892    13537     8573 
    -503    -8996   -12425    -9058    -1029     7102    10911     8212 
     468    -7742   -11675    -9314    -2209     5710    10440     9902 
    4835    -1849    -6756    -7658    -4678       42     4122     6028 
    5285     2587     -609    -2711    -2557     -216     2849     4690 
    3911      528    -3829    -6756    -6339    -2516     2468     5478 
    4544      176    -4910    -7602    -6334    -1948     3099     6393 
    6844     5234     3351     2427     2541     2899     2461      667 
   -2154    -4900    -6236    -5375    -2659      607     2789     2734 
     625    -2072    -3558    -2707      250     3845     6186     5959 
    3414      163    -2234    -3100    -2777    -2328    -2413    -2695 
   -2450    -1228      751     2496     2969     2048      566     -434 
    -295      994     2703     3739     3323     1253    -1942    -4792 
   -5625    -3854     -386     2810     3744     1821    -1660    -4506 
   -5075    -3202     -104     2724     4510     5226     4984     3580 
     837    -2777    -6061    -7472    -5961    -1826     3159     6412 
    6064     2453    -2088    -4851    -4328    -1094     2697     5062 
    5400     4373     2936     1313     -750    -3038    -4639    -4481 
   -2223     1130     3581     3477      921    -2179    -3607    -2530 
     -10     1978     2129      660    -1109    -1952    -1551     -475 
     373      527       65     -641     -901     -186     1471     3582 
    5145     5130     3330      470    -2041    -2839    -1742       59 
    1028      435    -1130    -2330    -2374    -1646    -1111    -1330 
   -1787    -1222      933     3660     5011     3592     -217    -4230 
   -5812    -3842      297     3851     4721     2806      -56    -1734 
   -1518     -392       36     -930    -2383    -2679     -969     2012 
    4466     4741     2505    -1032    -4065    -5078    -3547     -325 
    3025     5062     4926     2743     -525    -3562    -5091    -4412 
   -1774     1813     4923     6213     5147     2268    -1183    -3710 
   -4220    -2760     -345     1919     3166     2740      639    -2274 
   -4701    -5401    -3751     -250     3592     5945     5705     3150 
    -376    -3177    -3871    -2060     1382     4826     6649     5764 
    2204    -2650    -6646    -7859    -5800    -1707     2464     5002 
    5135     3461     1314     -384    -1426    -1976    -2327    -2606 
