Origin Time       2024/06/23 22:54:00
Lat.              35.645
Long.             140.060
Depth. (km)       72
Mag.              4.1
Station Code      KNG201
Station Lat.      34.5956
Station Long.     139.9183
Station Height(m) -2197
Record Time       2024/06/23 22:54:57
Sampling Freq(Hz) 100Hz
Duration Time(s)  60
Dir.              E-W
Scale Factor      2000(gal)/6182761
Max. Acc. (gal)   4.943
Last Correction   2024/06/23 22:54:57
Memo.             
[...]
    -258     -263     -269     -266     -261     -255     -245     -243 
    -247     -251     -255     -256     -250     -242     -242     -253 
    -274     -291     -286     -277     -272     -253     -243     -254 
    -260     -255     -248     -231     -206     -207     -239     -270 
    -297     -318     -311     -294     -286     -276     -267     -270 
    -275     -277     -281     -282     -269     -251     -246     -248 
    -256     -276     -281     -278     -299     -316     -284     -261 
    -294     -333     -357     -365     -333     -280     -250     -263 
    -287     -281     -275     -295     -292     -273     -271     -291 
    -338     -379     -382     -368     -336     -287     -275     -295 
    -291     -268     -258     -263     -281     -291     -285     -300 
    -331     -343     -347     -345     -327     -323     -348     -377 
    -369     -317     -267     -240     -232     -253     -290     -315 
    -331     -338     -334     -331     -322     -304     -313     -345 
    -362     -362     -354     -321     -282     -285     -317     -326 
    -298     -269     -270     -292     -305     -316     -347     -376 
    -376     -354     -341     -343     -330     -309     -303     -287 
    -261     -249     -253     -290     -345     -367     -339     -279 
    -254     -309     -360     -357     -366     -365     -306     -259 
    -267     -286     -292     -309     -329     -305     -265     -281 
    -315     -298     -264     -275     -328     -392     -467     -522 
    -517     -478     -436     -366     -276     -223     -210     -204 
    -196     -177     -154     -168     -203     -227     -283     -402 
    -543     -629     -622     -539     -429     -332     -281     -288 
    -314     -311     -283     -270     -283     -268     -229     -240 
    -293     -322     -326     -347     -388     -414     -403     -373 
    -357     -364     -384     -401     -361     -248     -143      -90 
     -77     -133     -210     -226     -242     -304     -364     -424 
    -504     -571     -592     -541     -410     -220       -6      134 
      83      -97     -225     -260     -257     -263     -289     -301 
    -334     -426     -491     -482     -447     -426     -381     -273 
    -183     -195     -259     -277     -237     -237     -337     -446 
    -444     -342     -229     -165     -163     -203     -256     -300 
    -326     -360     -401     -419     -390     -321     -253     -190 
     -87       -1      -69     -250     -317     -201      -29      101 
      62     -183     -426     -557     -626     -590     -413     -177 
      21      110       -9     -323     -587     -621     -481     -263 
     -32      112      106        5      -92     -195     -308     -339 
    -313     -312     -314     -337     -362     -293     -182     -123 
    -147     -289     -450     -464     -428     -525     -690     -769 
    -688     -470     -211       57      301      380      277      127 
     -48     -267     -461     -571     -626     -652     -588     -419 
    -218        5      169      139      -45     -231     -310     -281 
    -255     -319     -417     -490     -520     -462     -351     -253 
    -184     -178     -232     -269     -252     -195      -94       39 
     152      197      137      -68     -379     -601     -602     -493 
    -382     -278     -232     -242     -268     -321     -341     -241 
     -63      113      192      107      -37     -126     -205     -285 
    -306     -289     -284     -358     -513     -625     -647     -621 
    -546     -410     -199       56      224      241      200      174 
     140       75      -64     -305     -559     -738     -867     -949 
    -924     -793     -587     -320      -36      197      327      340 
     268      145       12      -98     -201     -323     -458     -589 
    -667     -655     -536     -331     -134        6       51      -26 
     -59       47      125      103       52      -56     -251     -407 
    -438     -443     -453     -380     -291     -278     -277     -260 
    -269     -325     -385     -344     -235     -192     -202     -204 
    -234     -351     -510     -577     -524     -449     -337     -119 
     126      230      139      -44     -251     -454     -538     -523 
    -533     -521     -467     -432     -387     -333     -280     -201 
    -100      -45     -141     -330     -369     -196      -25      -29 
    -222     -483     -658     -764     -793     -637     -376     -122 
     117      228      164       32     -116     -284     -383     -362 
    -339     -365     -374     -404     -471     -488     -436     -339 
    -206      -85       -2       53      105      146       85     -127 
    -396     -606     -750     -904    -1011     -927     -723     -518 
    -253      118      484      679      655      470      135     -285 
    -629     -793     -774     -634     -476     -383     -335     -250 
    -169     -179     -243     -326     -415     -446     -404     -354 
    -332     -299     -239     -245     -404     -616     -693     -579 
    -352     -110       68      116       -5     -247     -472     -534 
    -392     -124      141      221        0     -373     -683     -868 
    -883     -713     -473     -302     -178        3      157       88 
    -177     -454     -600     -569     -409     -156      128      201 
     -57     -417     -618     -553     -276       51      329      477 
     417      216      -91     -527     -949    -1171    -1135     -851 
    -456     -156       14       94       62      -13      -31      -35 
     -70      -87      -59       -1       34       -6     -127     -327 
    -568     -735     -782     -748     -665     -586     -522     -418 
    -244       27      324      472      423      226      -78     -365 
    -497     -477     -374     -287     -332     -546     -836    -1032 
   -1034     -860     -541     -110      323      579      580      383 
      59     -292     -513     -564     -537     -489     -420     -384 
    -468     -635     -750     -727     -585     -427     -287     -113 
      43       68       25       96      278      396      366      191 
    -122     -462     -632     -591     -465     -300      -96        5 
    -106     -360     -604     -734     -766     -669     -417     -201 
    -128      -70       67      222      298      317      343      295 
      57     -339     -717     -919     -948     -892     -800     -718 
    -669     -620     -557     -471     -356     -210       38      375 
     627      685      550      207     -268     -642     -752     -675 
    -592     -580     -630     -716     -749     -704     -628     -517 
    -397     -277     -111       55       75      -81     -232     -250 
    -165        0      152      157       56      -39     -172     -324 
    -375     -397     -512     -653     -752     -768     -654     -458 
    -278     -131       19      165      232      197       89     -102 
    -304     -370     -301     -223     -195     -207     -273     -356 
    -369     -284     -140        4       58      -81     -397     -706 
    -900     -986     -910     -667     -380     -114      108      226 
     236      205      165       88      -61     -250     -394     -471 
    -586     -755     -840     -819     -748     -619     -472     -357 
    -249      -95       62       89       25       69      203      230 
     158      116      119      134      130       82      -14     -173 
    -380     -562     -658     -656     -543     -384     -304     -303 
    -303     -293     -241      -89      116      258      268      160 
     -19     -242     -450     -559     -597     -616     -574     -498 
    -431     -320     -198     -211     -351     -466     -486     -427 
    -271      -40      154      209       90     -152     -406     -566 
    -567     -453     -302     -210     -289     -479     -610     -567 
    -280      163      543      710      627      349      -19     -340 
    -452     -346     -213     -198     -286     -439     -619     -764 
    -852     -832     -658     -427     -216       15      248      413 
     491      442      207     -161     -511     -709     -700     -577 
    -461     -385     -407     -543     -733     -916     -959     -747 
    -336       86      315      286      113      -88     -253     -282 
    -139       48      156      149       15     -229     -537     -796 
    -925     -986     -938     -737     -522     -335     -134       50 
     195      286      358      443      441      311      131     -135 
    -523     -870    -1023    -1030     -927     -677     -352      -49 
     235      464      576      574      426       84     -348     -710 
    -929    -1015    -1046    -1023     -907     -785     -677     -509 
    -339     -209      -54      140      297      382      460      516 
     434      224      -72     -426     -667     -702     -688     -690 
    -626     -531     -480     -446     -418     -415     -484     -637 
    -730     -681     -595     -503     -309       13      342      489 
     413      219      -66     -411     -638     -631     -481     -318 
    -207     -211     -348     -506     -591     -591     -478     -243 
      22      168      112      -89     -327     -533     -610     -471 
    -188       88      197       98      -64     -232     -400     -443 
    -348     -195       24      192      125     -141     -453     -695 
    -814     -854     -846     -744     -532     -250       13      162 
     183       98      -49     -210     -345     -379     -325     -230 
     -87       44       94       90       46     -101     -325     -447 
    -458     -545     -661     -682     -669     -667     -686     -756 
    -777     -644     -350      109      635     1002     1107      980 
     591      -19     -633    -1070    -1257    -1190     -961     -732 
    -640     -671     -722     -766     -785     -729     -579     -291 
     153      621      938     1007      842      550      228     -131 
    -541     -862     -962     -931     -890     -814     -679     -536 
    -400     -248     -120      -89     -158     -214     -128       78 
     253      269      140      -49     -314     -659     -966    -1137 
   -1090     -818     -478     -203       15      177      210      127 
      28     -106     -265     -253      -79       43       79       56 
     -88     -338     -563     -658     -656     -590     -409     -160 
      50      137       70      -66     -238     -456     -576     -546 
    -486     -376     -138      139      305      298      178      -21 
    -345     -708     -932     -970     -820     -517     -223      -47 
      10     -120     -369     -470     -397     -298     -145       73 
     283      449      478      352      142     -140     -446     -690 
    -877    -1070    -1205    -1142     -895     -550     -183      123 
     356      518      583      512      275      -35     -292     -454 
    -479     -352     -122       99      161       82      -32     -220 
    -448     -509     -340      -44      216      244       33     -266 
    -637     -995    -1139    -1096     -982     -785     -555     -372 
    -257     -167      -26      120      152      121      175      284 
     333      325      264       91     -224     -602     -894    -1053 
   -1095     -970     -680     -300      110      411      440      256 
      92       11      -83     -187     -227     -196     -173     -223 
    -361     -611     -939    -1254    -1448    -1413    -1173     -802 
    -394      -78      175      431      586      628      662      657 
     576      478      363      205        6     -215     -414     -572 
    -684     -713     -678     -669     -689     -629     -464     -313 
    -290     -399     -552     -649     -604     -396     -105      152 
     210      -20     -344     -494     -450     -330     -155       80 
     220      155       29      -65     -215     -388     -516     -636 
    -691     -608     -444     -238        7      213      239      -17 
    -447     -817     -974     -891     -685     -497     -421     -529 
    -779    -1025    -1181    -1220    -1095     -792     -385       32 
     340      449      413      335      195      -11     -177     -215 
     -83      174      406      558      622      513      258      -34 
    -324     -540     -609     -614     -579     -427     -247     -109 
      57      154       32     -232     -484     -608     -521     -257 
      99      434      561      452      217     -126     -480     -660 
    -676     -677     -693     -686     -706     -736     -701     -644 
    -636     -724     -915    -1065    -1081    -1015     -814     -404 
     105      549      814      886      881      881      907      958 
     937      761      357     -369    -1240    -1938    -2368    -2517 
   -2315    -1859    -1408    -1045     -633      -63      635     1338 
    1929     2296     2322     2001     1445      811      287       -5 
     -51      120      375      499      402       92     -489    -1343 
   -2308    -3160    -3664    -3622    -3041    -2107     -995       68 
     804     1049      918      847     1211     1995     2923     3549 
    3384     2274      528    -1427    -3326    -4931    -6092    -6913 
   -7428    -7496    -6961    -5699    -3823    -1604      790     3152 
    5171     6659     7629     8054     7746     6515     4235     1023 
   -2551    -5777    -8178    -9571   -10032    -9823    -9203    -8121 
   -6294    -3602     -171     3729     7682    11175    13725    15022 
   14913    13368    10544     6870     3054     -247    -2716    -4343 
   -5466    -6574    -7746    -8603    -8769    -8084    -6576    -4369 
   -1646     1222     3732     5494     6402     6602     6260     5467 
    4347     3004     1368     -636    -2828    -4947    -6847    -8338 
   -9136    -9200    -8895    -8503    -7887    -6807    -5143    -2832 
     107     3401     6535     9079    10846    11663    11337     9930 
    7782     5317     2889      656    -1401    -3329    -5051    -6357 
   -7114    -7265    -6727    -5480    -3624    -1519      241     1358 
    2033     2565     3030     3327     3411     3402     3254     2623 
    1360     -294    -2068    -3719    -5032    -6024    -6807    -7316 
   -7362    -6782    -5594    -3951    -2031     -168     1324     2441 
    3315     4070     4884     5901     6979     7695     7808     7473 
    6788     5596     3828     1612     -832    -3185    -5102    -6421 
   -7100    -6996    -6026    -4463    -2827    -1592     -921     -566 
    -234      153      673     1483     2536     3394     3503     2753 
    1411     -346    -2277    -3905    -4936    -5431    -5498    -5219 
   -4676    -3729    -2156     -132     1785     3122     3788     3935 
    3695     3299     3082     3061     2825     1978      478    -1424 
   -3374    -4991    -5965    -6101    -5340    -3907    -2124     -137 
    1866     3503     4454     4697     4464     4012     3416     2606 
    1664      825       93     -810    -2024    -3304    -4380    -5202 
   -5669    -5582    -4728    -2910     -238     2793     5415     6782 
    6549     5067     2961      897     -627    -1496    -1810    -1737 
   -1579    -1700    -2229    -2872    -3118    -2630    -1392      293 
    1863     2800     2932     2347     1165     -419    -2038    -3288 
   -3797    -3393    -2358    -1266     -596     -412     -407     -376 
    -351     -323      -93      561     1589     2572     3019     2694 
    1698      376     -975    -2327    -3708    -4988    -5837    -5856 
   -4968    -3549    -2140    -1144     -607     -313      -43      407 
    1193     2251     3232     3695     3469     2652     1331     -302 
   -1763    -2599    -2668    -2091    -1202     -388      132      358 
     465      868     1943     3512     5107     6380     7017     6889 
    6083     4619     2567      240    -1936    -3619    -4655    -5130 
   -5278    -5216    -4901    -4351    -3681    -3009    -2319    -1462 
    -412      678     1693     2582     3263     3542     3224     2462 
    1628      867      144     -592    -1440    -2581    -4225    -6268 
   -8217    -9607   -10071    -9287    -7248    -4281     -934     2092 
    4325     5745     6518     6825     6856     6690     6276     5591 
    4656     3471     2101      764     -334    -1190    -1941    -2753 
   -3768    -4920    -5865    -6171    -5529    -3944    -1751      597 
    2654     4104     4816     4872     4616     4421     4395     4376 
    4100     3333     1875     -382    -3297    -6337    -8736   -10021 
  -10095    -8893    -6504    -3426     -347     2233     4115     5253 
    5726     5748     5439     4791     3803     2540     1105     -543 
   -2458    -4423    -6091    -7135    -7257    -6370    -4753    -2846 
   -1025      410     1298     1755     2076     2442     2861     3290 
    3607     3567     3019     2084     1023      -59    -1177    -2177 
   -2837    -3181    -3309    -3186    -2701    -1713     -184     1636 
    3349     4622     5244     5156     4484     3451     2176      789 
    -337     -878     -934     -888    -1049    -1498    -2212    -3085 
   -3870    -4358    -4405    -3874    -2892    -1788     -774       47 
     665     1169     1598     1894     1892     1441      548     -683 
   -2031    -3193    -3987    -4291    -3952    -2947    -1489       60 
    1389     2319     2811     2992     2998     2870     2664     2350 
    1803     1092      419     -137     -616    -1057    -1511    -2085 
   -2740    -3340    -3877    -4236    -4216    -3819    -3081    -1994 
    -670      682     1792     2451     2718     2761     2607     2283 
    1870     1407      939      421     -261    -1076    -1901    -2674 
   -3357    -3730    -3411    -2265     -480     1521     3132     3931 
    3931     3370     2481     1484      589     -131     -702    -1057 
   -1177    -1358    -1871    -2574    -3152    -3353    -3041    -2333 
   -1480     -681     -130       49      -65     -217     -117      228 
     473      482      384      132     -312     -753    -1102    -1514 
   -2011    -2246    -1899     -970      400     1895     3070     3720 
    3949     3981     4060     4232     4281     3976     3225     2119 
     831     -517    -1718    -2519    -2861    -2901    -2902    -3065 
   -3428    -3866    -4170    -4248    -4150    -3880    -3412    -2826 
   -2237    -1663    -1137     -753     -491     -197      192      523 
     594      463      416      621     1038     1511     1824     1817 
    1468     1027      932     1261     1629     1755     1611     1192 
     476     -513    -1577    -2323    -2478    -2075    -1267     -273 
     667     1405     1851     2005     1899     1472      774       31 
    -526     -709     -481      -11      421      526      150     -601 
   -1439    -2131    -2571    -2729    -2655    -2449    -2149    -1661 
   -1005     -387      135      713     1460     2290     2995     3329 
    3096     2309     1122     -195    -1269    -1891    -1982    -1509 
    -702       60      474      315     -435    -1573    -2775    -3659 
   -4019    -3912    -3425    -2617    -1584     -387      859     1919 
    2562     2668     2217     1380      481     -410    -1303    -1881 
   -2003    -1978    -1987    -1925    -1682    -1196     -453      531 
