Origin Time       2024/06/23 22:54:00
Lat.              35.645
Long.             140.060
Depth. (km)       72
Mag.              4.1
Station Code      KNG202
Station Lat.      34.7396
Station Long.     139.8393
Station Height(m) -2339
Record Time       2024/06/23 22:54:54
Sampling Freq(Hz) 100Hz
Duration Time(s)  61
Dir.              N-S
Scale Factor      2000(gal)/6182761
Max. Acc. (gal)   2.358
Last Correction   2024/06/23 22:54:54
Memo.             
[...]
     655      654      641      635      634      634      620      607 
     620      644      654      662      673      652      603      574 
     591      640      674      657      620      596      579      585 
     622      652      672      694      680      613      548      552 
     617      668      666      641      618      587      565      586 
     633      691      746      726      602      491      502      595 
     678      706      673      622      600      602      619      654 
     680      668      625      572      549      581      626      637 
     622      612      622      639      634      617      618      621 
     606      572      542      587      707      765      711      661 
     643      584      546      601      671      713      744      693 
     554      492      582      687      701      676      613      483 
     383      423      594      761      807      764      702      629 
     557      548      613      645      579      506      494      506 
     559      669      737      693      597      545      564      615 
     635      575      476      453      542      683      805      857 
     820      726      614      519      469      458      477      548 
     626      624      561      514      525      589      688      797 
     861      839      735      522      253      143      332      684 
     921      911      784      712      696      657      562      424 
     338      397      525      624      752      901      892      679 
     470      472      621      710      711      705      646      497 
     349      291      360      576      874     1052      968      734 
     515      323      215      343      664      972     1107      944 
     499      106      136      548      911      883      578      339 
     342      590      996     1301     1264      934      516      204 
     154      344      575      704      724      690      675      717 
     779      778      644      455      399      535      766      986 
    1058      902      681      575      499      370      347      539 
     761      747      488      248      215      307      429      631 
     951     1311     1533     1454     1068      511      -13     -260 
     -97      338      720      914     1050     1128     1010      711 
     334       36       27      356      824     1094     1017      762 
     519      385      393      508      668      758      727      671 
     661      660      612      520      421      396      601     1035 
    1338     1196      728      275      112      316      691      902 
     774      442      199      209      416      659      817      876 
     892      934     1012      954      622      232       97      191 
     324      481      689      873      943      842      607      432 
     522      855     1145     1106      824      594      466      276 
     -56     -390     -382      175     1039     1715     1799     1257 
     588      328      409      476      445      333      202      324 
     746     1074     1114     1037      924      723      468      268 
     239      396      523      410      213      271      611      930 
    1019      923      769      633      515      438      497      647 
     689      625      607      677      827      934      789      477 
     346      506      721      756      616      453      433      628 
     892      943      735      524      455      398      301      301 
     429      559      616      642      684      730      744      655 
     492      503      778     1014      996      858      750      716 
     688      454       62      -68      266      799     1159     1186 
     929      569      378      430      525      551      537      526 
     591      726      798      757      709      753      841      819 
     598      336      294      479      648      641      552      576 
     716      747      542      278      226      431      672      781 
     876     1085     1168      789       99     -367     -298      215 
     836     1147     1065      895      802      721      637      556 
     480      510      691      817      675      387      224      240 
     319      429      638      927     1116     1035      743      496 
     402      355      337      423      641      955     1227     1255 
     958      460       24     -126       69      441      696      780 
     875      962      917      780      674      705      827      873 
     786      560      201     -136     -217      111      739     1237 
    1282      948      437      -46     -240      -21      452      831 
    1018     1241     1486     1478     1122      555       84      -67 
      83      411      670      719      746      826      845      843 
     828      703      538      512      654      743      588      334 
     262      458      805     1104     1231     1163      927      613 
     364      251      240      329      540      746      798      726 
     669      703      790      812      710      547      417      358 
     357      437      605      725      688      636      765      968 
     997      846      671      563      534      481      367      373 
     577      784      793      639      533      602      769      900 
     923      863      836      865      796      614      482      374 
     246      260      388      405      372      524      815     1088 
    1351     1465     1138      481      -30     -115      164      546 
     697      580      505      542      595      708      820      888 
     924      792      500      268      210      277      393      607 
     959     1213     1138      852      604      488      436      355 
     269      355      746     1252     1444     1169      755      515 
     393      286      226      183      112      146      401      763 
    1044     1117      951      678      426      227      213      453 
     715      766      605      362      245      342      477      506 
     560      849     1310     1574     1413      981      533      203 
      12        7      307      808     1178     1229      908      271 
    -321     -432        1      597      919      979      993      941 
     859      847      806      687      526      345      336      624 
     943     1022      861      478      -95     -557     -529      -12 
     628     1104     1366     1469     1505     1446     1177      695 
     108     -357     -442      -91      473      948     1159     1043 
     640      161      -97       26      428      850     1154     1358 
    1290      737        8     -341      -94      510      971     1103 
    1184     1341     1413     1254      759       82     -348     -329 
     -38      182      173      248      672     1180     1402     1225 
     776      370      255      442      793     1023      858      425 
     171      380      920     1405     1537     1328      961      566 
     194     -157     -401     -359      -82      226      543      800 
     847      818      868      879      808      783      790      684 
     557      639      829      843      666      497      487      626 
     725      646      537      644      961     1165      948      420 
     -16      -96      136      445      583      497      357      337 
     525      892     1186     1175      949      729      590      504 
     515      697      953     1025      743      239     -126     -148 
      85      455      839     1123     1269     1242     1122     1000 
     797      504      200        3       82      358      563      601 
     556      486      393      369      508      702      891     1152 
    1350     1296     1110      909      631      389      283      172 
      89      264      628      875      912      820      645      454 
     362      437      656      883      940      763      506      424 
     540      612      483      258      147      259      547      848 
    1011     1065     1141     1264     1341     1263     1023      698 
     345       78       68      292      550      705      714      623 
     614      755      831      710      552      527      577      567 
     582      785     1049     1142     1018      680      165     -309 
    -416      -66      432      760      849      758      655      639 
     621      531      427      490      770      984      906      630 
     351      216      386      895     1469     1766     1644     1209 
     781      636      704      703      429      -84     -483     -391 
      86      573      925     1108     1103     1035      988      872 
     618      327      166      186      327      537      764      882 
     745      409      153       77       23        4      188      508 
     801      985      938      728      664      788      906      998 
    1080     1085     1020      954      897      798      643      514 
     503      603      700      649      490      455      649      935 
    1096      937      448      -55     -270     -190       73      347 
     463      481      497      495      610      946     1206     1102 
     773      515      475      620      778      809      797      912 
    1087     1009      554       42     -223     -302     -235      160 
     847     1398     1493     1254      977      796      649      450 
     311      374      507      545      458      226      -21       63 
     612     1238     1477     1247      673      117       30      311 
     545      649      752      945     1224     1425     1304      792 
     204      -12      243      691      929      735      281      -86 
    -147      126      499      633      531      414      371      490 
     718      778      715      873     1304     1714     1785     1458 
     993      615      282      -34     -171      -26      247      391 
     342      182     -105     -376     -241      356     1029     1458 
    1523     1249      865      641      597      565      507      541 
     681      819      977     1133      993      481      -17     -184 
     -29      300      514      407      171       92      293      812 
    1427     1738     1547     1016      602      573      649      550 
     418      417      483      585      758      885      751      409 
     225      398      818     1263     1383      973      468      413 
     611      595      434      392      482      633      745      702 
     518      327      281      396      513      460      171     -238 
    -474     -260      369      989     1272     1303     1194     1017 
    1012     1168     1178     1019      840      644      466      482 
     773     1007      778      355      277      548      825      866 
     705      605      665      720      657      535      503      583 
     562      285     -108     -258       75      616      970     1223 
    1471     1408      987      509      167      120      409      829 
    1189     1342     1177      778      352      138      274      573 
     755      824      868      781      503      228      112       43 
     -20      200      766     1193     1102      636      135      -37 
     268      754     1111     1322     1444     1368      895      117 
    -538     -766     -663     -518     -346      168     1012     1704 
    2027     2114     1895     1296      619      101     -387     -868 
   -1089     -945     -513      244     1216     1941     2093     1731 
    1111      582      432      659     1082     1474     1476      898 
     -13     -907    -1598    -1919    -1701     -921      261     1601 
    2799     3479     3477     3035     2443     1829     1290      866 
     505       97     -426     -902    -1090    -1105    -1153     -984 
    -301      670     1544     2274     2972     3537     3830     3918 
    3730     2993     1728      267    -1075    -2167    -3109    -3858 
   -3976    -3308    -2466    -2043    -1962    -1795    -1087      557 
    3142     5899     7600     7464     5539     2564     -317    -2207 
   -2768    -2172    -1093     -104      724     1323     1505     1280 
     821      292     -258     -839    -1215     -937      144     1743 
    3297     3987     3220     1141    -1413    -3348    -3983    -3361 
   -1899      -37     1788     3225     4078     4190     3458     2063 
     605     -313     -575     -219      646     1409     1375      402 
   -1161    -2689    -3672    -3962    -3328    -1413     1550     4662 
    6905     7592     6745     5006     3187     1809      742     -345 
   -1315    -1923    -2360    -2824    -3005    -2530    -1446      -49 
    1222     2036     2489     2726     2775     2957     3459     3367 
    1432    -2030    -5115    -6164    -4998    -2496      381     2756 
    3818     3423     2172      794     -226     -824    -1343    -2111 
   -2969    -3288    -2549     -928     1006     2854     4289     4969 
    4755     3881     3066     3034     3558     3533     2248       79 
   -1884    -2550    -1698      -75     1628     2936     3191     2283 
    1026      342      599     1212     1005     -344    -1790    -2275 
   -1785     -914     -308     -398     -787     -464      909     2736 
    4279     5134     5249     4613     3024      496    -2316    -4395 
   -5034    -4109    -2074      -26      777       -3    -1548    -2757 
   -3010    -2337     -877     1417     4165     6269     6612     4853 
    1591    -1985    -4566    -5129    -3283      384     4448     7307 
    7901     6372     3790     1257     -449    -1096     -980     -439 
     263      710      355     -987    -2809    -4364    -4943    -4025 
   -1849      723     2917     4227     4491     4089     3572     3187 
    2960     2721     2111     1016     -210     -906     -544      693 
    1876     2100     1181     -217     -842      190     2345     4062 
    4097     2183     -951    -3910    -5486    -5390    -4166    -2626 
   -1376     -498      440     1619     2484     2517     1946     1428 
    1438     1855     2024     1524      481     -930    -2372    -3189 
   -3172    -2711    -2020     -981      523     2544     4694     5971 
    5553     3512      795    -1200    -1475     -212     1366     2118 
    1952     1576     1505     1485      975       92     -466     -252 
     583     1446     1697     1112     -133    -1681    -2989    -3392 
   -2409     -165     2430     4351     5279     5482     5204     4509 
    3589     2764     2094     1413      678      140      181      608 
     452    -1022    -3435    -5580    -6326    -5269    -2832      -30 
    1981     2486     1569        5    -1280    -1674    -1094      -10 
    1018     1636     1700     1598     1832     2244     2422     2190 
    1445      234    -1055    -1829    -1790    -1174     -256      802 
    1575     1827     1985     2334     2456     1893      716     -545 
   -1167     -692      584     1870     2722     3205     3305     2687 
    1266     -419    -1705    -2278    -2253    -2062    -1805    -1037 
     411     2018     3124     3579     3836     4316     4760     4514 
    3380     1834      486     -392     -964    -1478    -1846    -1892 
   -1639    -1241     -887     -459      470     1967     3458     4191 
    3825     2604     1101     -181    -1118    -1875    -2427    -2308 
   -1043     1023     2538     2295      466    -1686    -3041    -3415 
   -3424    -3479    -3208    -2295    -1075       20      760     1126 
    1453     2078     2834     3442     4078     4908     5609     5765 
    5245     4155     2709     1264      287       37      402     1085 
    1887     2663     3077     2827     1899      338    -1672    -3517 
   -4587    -4741    -4080    -2900    -1742     -981     -602     -334 
     127      736     1196     1481     1793     2197     2521     2437 
    1805      923      138     -492     -883     -745       86     1447 
    2906     3859     3849     2866     1206     -648    -2019    -2250 
   -1202      445     1628     1688      800     -360    -1458    -2396 
   -2761    -2248    -1099       99      850     1234     1738     2571 
    3335     3377     2550     1552     1262     1807     2559     2974 
    2904     2342     1360      138     -889    -1130     -585       66 
     423      617      713      654      392     -162     -991    -1960 
   -2875    -3321    -2746    -1037     1059     2395     2388     1549 
    1023     1460     2481     3206     3099     2300     1246      330 
    -109       64      618     1052     1056      836      689      638 
     581      435      279      205      -23     -686    -1615    -2343 
   -2559    -2140     -997      682     2415     3646     3950     3454 
    2660     1840     1085      400     -328     -985    -1176     -742 
       9      696     1045      968      782      822     1066     1435 
    1822     2123     2422     2660     2498     1744      572     -588 
   -1210     -961      -62      813     1038      360     -955    -2168 
   -2518    -1716     -160     1364     2223     2238     1770     1375 
    1171      786      -65    -1120    -1701    -1396     -529      435 
    1470     2536     3301     3413     2669     1346       79     -904 
   -1775    -2511    -2831    -2468    -1469     -288      602     1169 
    1662     2194     2506     2220     1549     1220     1583     2384 
    3109     3274     2835     2297     2200     2561     2986     3241 
    3342     3208     2621     1384     -365    -1967    -2807    -3088 
   -3654    -4927    -6290    -6609    -5214    -2598      -53     1501 
    2012     1894     1590     1407     1543     2099     2942     3754 
    4172     3875     2865     1599      753      838     1762     2712 
    2803     1887      591     -384     -730     -490       14      296 
      28     -745    -1623    -2137    -2156    -1845    -1359     -797 
    -121      811     1942     3020     3844     4281     4189     3525 
    2425     1192      142     -592     -926     -779     -313      288 
    1021     1652     1610      506    -1312    -2679    -2527     -946 
    1101     2642     3159     2812     2070     1150       46    -1305 
   -2641    -3159    -2385     -813      585     1061      671      234 
     403     1060     1728     2008     1693     1049      645      665 
     781      596       85     -302     -118      555     1172     1335 
    1123      738      356      276      623     1263     2118     3099 
    4086     4908     5098     4146     2104     -365    -2383    -3319 
   -3187    -2515    -1705     -767      331     1407     2088     2109 
    1603      788     -320    -1592    -2566    -2695    -1832     -404 
     947     1785     2056     1917     1418      565     -536    -1681 
   -2426    -2269    -1133      647     2488     3689     4046     3930 
    3633     3312     3181     3185     3003     2426     1507      505 
    -294     -690     -570     -123       76     -469    -1597    -2526 
   -2648    -1959     -670      829     1872     2018     1307       67 
   -1223    -2035    -2129    -1831    -1484     -922      145     1643 
    3015     3571     3103     2010     1002      712     1256     2222 
    3128     3689     3808     3513     2886     1984      923       21 
    -323      -20      460      485      -50     -719    -1143    -1277 
   -1319    -1404    -1393    -1173     -773     -167      626     1389 
