Origin Time       2024/06/23 22:54:00
Lat.              35.645
Long.             140.060
Depth. (km)       72
Mag.              4.1
Station Code      SIT008
Station Lat.      35.9829
Station Long.     139.7456
Station Height(m) 7
Record Time       2024/06/23 22:54:49
Sampling Freq(Hz) 100Hz
Duration Time(s)  60
Dir.              E-W
Scale Factor      7845(gal)/8223790
Max. Acc. (gal)   1.876
Last Correction   2024/06/23 22:54:49
Memo.             
[...]
    3393     3391     3400     3431     3457     3472     3484     3495 
    3499     3488     3458     3429     3411     3389     3383     3402 
    3412     3408     3410     3411     3412     3438     3469     3474 
    3457     3434     3411     3397     3393     3391     3380     3368 
    3372     3396     3429     3451     3445     3429     3430     3437 
    3430     3423     3441     3470     3480     3470     3457     3435 
    3419     3426     3442     3453     3458     3456     3442     3427 
    3418     3418     3431     3447     3456     3456     3449     3447 
    3447     3430     3404     3377     3368     3392     3427     3442 
    3446     3456     3458     3451     3438     3410     3387     3381 
    3383     3399     3429     3439     3430     3414     3408     3426 
    3449     3456     3449     3447     3450     3439     3426     3420 
    3415     3416     3427     3426     3430     3439     3424     3414 
    3443     3487     3515     3516     3493     3469     3453     3446 
    3450     3447     3423     3399     3406     3424     3431     3446 
    3458     3437     3407     3396     3410     3441     3461     3449 
    3414     3375     3338     3329     3356     3393     3423     3438 
    3439     3430     3418     3420     3434     3433     3424     3427 
    3438     3446     3456     3465     3470     3477     3485     3483 
    3466     3456     3466     3493     3497     3469     3431     3408 
    3407     3441     3480     3480     3446     3419     3412     3404 
    3400     3427     3460     3460     3442     3426     3414     3404 
    3387     3365     3362     3369     3366     3365     3372     3392 
    3420     3441     3437     3418     3403     3408     3439     3469 
    3466     3442     3420     3415     3447     3505     3523     3491 
    3465     3468     3488     3512     3531     3526     3484     3434 
    3422     3441     3438     3400     3356     3331     3357     3414 
    3456     3451     3419     3400     3400     3403     3407     3410 
    3410     3403     3387     3385     3399     3393     3364     3348 
    3372     3400     3410     3426     3449     3453     3458     3474 
    3489     3488     3464     3437     3423     3414     3412     3435 
    3478     3514     3527     3518     3492     3470     3466     3460 
    3441     3419     3407     3404     3412     3431     3445     3441 
    3431     3411     3377     3352     3350     3373     3415     3446 
    3438     3404     3369     3352     3360     3383     3410     3422 
    3406     3381     3369     3385     3430     3472     3489     3487 
    3474     3457     3441     3445     3470     3469     3441     3420 
    3411     3408     3416     3430     3443     3468     3507     3537 
    3528     3489     3446     3400     3356     3330     3343     3395 
    3445     3469     3466     3437     3402     3383     3402     3451 
    3470     3433     3369     3315     3315     3376     3441     3473 
    3458     3411     3365     3334     3334     3379     3431     3468 
    3470     3431     3410     3456     3516     3520     3484     3451 
    3419     3389     3385     3418     3473     3522     3538     3510 
    3462     3437     3441     3453     3447     3431     3424     3422 
    3402     3373     3387     3453     3512     3504     3435     3357 
    3323     3327     3342     3381     3437     3454     3420     3365 
    3322     3331     3384     3415     3391     3366     3395     3447 
    3480     3507     3522     3497     3447     3397     3383     3418 
    3472     3489     3461     3442     3484     3550     3557     3497 
    3439     3423     3423     3402     3369     3372     3412     3454 
    3485     3491     3451     3381     3325     3312     3373     3497 
    3566     3496     3395     3365     3375     3375     3373     3395 
    3406     3381     3383     3447     3534     3580     3527     3393 
    3280     3262     3333     3414     3458     3461     3424     3380 
    3376     3433     3522     3578     3559     3481     3426     3449 
    3499     3507     3503     3522     3541     3527     3457     3381 
    3377     3418     3431     3434     3442     3418     3339     3241 
    3196     3261     3393     3476     3470     3430     3380     3343 
    3342     3329     3277     3254     3304     3408     3537     3654 
    3690     3612     3488     3404     3388     3418     3450     3462 
    3478     3493     3501     3531     3568     3566     3530     3470 
    3407     3376     3380     3411     3427     3392     3334     3296 
    3311     3391     3473     3493     3466     3435     3389     3345 
    3373     3447     3470     3443     3392     3331     3312     3375 
    3499     3608     3631     3539     3352     3177     3123     3213 
    3404     3581     3638     3609     3570     3534     3508     3510 
    3515     3466     3366     3310     3361     3470     3550     3572 
    3537     3446     3345     3289     3284     3318     3397     3484 
    3504     3420     3300     3287     3375     3418     3403     3415 
    3453     3484     3545     3613     3586     3472     3364     3258 
    3176     3199     3310     3429     3505     3546     3555     3526 
    3487     3476     3481     3476     3427     3357     3315     3311 
    3348     3424     3497     3523     3495     3454     3434     3454 
    3539     3628     3603     3464     3333     3288     3318     3404 
    3520     3592     3572     3489     3403     3369     3373     3343 
    3288     3261     3283     3361     3450     3503     3543     3557 
    3510     3406     3277     3211     3261     3407     3564     3618 
    3550     3431     3335     3331     3412     3491     3500     3416 
    3281     3211     3296     3487     3640     3694     3654     3524 
    3365     3258     3210     3245     3375     3497     3568     3612 
    3607     3569     3532     3466     3373     3314     3322     3377 
    3461     3532     3507     3403     3321     3314     3375     3441 
    3477     3492     3480     3449     3393     3321     3300     3343 
    3406     3484     3576     3628     3574     3424     3311     3311 
    3365     3375     3292     3218     3280     3411     3535     3667 
    3731     3657     3505     3354     3273     3303     3373     3403 
    3406     3423     3443     3451     3437     3366     3294     3280 
    3319     3400     3460     3470     3473     3447     3389     3377 
    3466     3592     3643     3632     3601     3524     3418     3343 
    3361     3477     3591     3622     3559     3418     3254     3150 
    3165     3325     3555     3700     3640     3403     3142     2987 
    2960     3092     3360     3570     3605     3562     3538     3570 
    3655     3686     3573     3411     3335     3353     3451     3604 
    3654     3541     3393     3289     3221     3214     3288     3373 
    3407     3429     3451     3442     3414     3366     3323     3342 
    3402     3447     3469     3451     3410     3396     3431     3488 
    3532     3554     3570     3588     3597     3580     3501     3395 
    3338     3321     3308     3331     3393     3414     3383     3411 
    3503     3527     3474     3407     3319     3261     3339     3456 
    3449     3410     3453     3470     3414     3365     3373     3451 
    3537     3577     3618     3611     3478     3318     3271     3360 
    3488     3510     3416     3357     3408     3495     3523     3492 
    3451     3415     3356     3284     3280     3369     3416     3384 
    3385     3422     3446     3477     3449     3369     3357     3385 
    3391     3437     3559     3631     3555     3451     3438     3499 
    3581     3589     3435     3227     3157     3241     3368     3501 
    3613     3631     3550     3414     3254     3154     3179     3275 
    3388     3558     3766     3846     3720     3483     3246     3107 
    3123     3265     3487     3707     3751     3555     3275     3090 
    3072     3260     3570     3790     3820     3705     3470     3200 
    3045     3051     3191     3396     3581     3726     3771     3704 
    3627     3539     3403     3273     3217     3268     3360     3412 
    3472     3510     3465     3399     3349     3323     3345     3388 
    3447     3518     3510     3375     3196     3088     3141     3360 
    3595     3699     3676     3585     3438     3289     3214     3206 
    3279     3453     3639     3762     3832     3821     3667     3396 
    3167     3110     3161     3208     3240     3311     3470     3649 
    3696     3634     3592     3581     3538     3447     3345     3265 
    3196     3115     3072     3149     3362     3658     3913     4013 
    3946     3759     3512     3237     2978     2817     2828     3025 
    3348     3670     3865     3802     3514     3257     3218     3341 
    3484     3519     3438     3375     3406     3443     3430     3427 
    3469     3537     3622     3665     3599     3480     3419     3404 
    3411     3485     3586     3646     3631     3527     3418     3346 
    3249     3144     3105     3149     3223     3250     3246     3280 
    3361     3435     3451     3408     3370     3411     3503     3545 
    3505     3433     3345     3271     3272     3348     3468     3645 
    3838     3950     3951     3878     3728     3507     3285     3145 
    3069     3056     3203     3462     3618     3630     3586     3504 
    3399     3308     3223     3152     3160     3280     3434     3531 
    3550     3510     3442     3393     3396     3478     3672     3881 
    3915     3730     3442     3186     3045     3001     3048     3265 
    3574     3759     3744     3612     3439     3302     3284     3369 
    3487     3601     3639     3524     3264     2965     2768     2744 
    2880     3159     3519     3793     3843     3730     3584     3465 
    3420     3447     3497     3568     3650     3667     3565     3391 
    3238     3154     3169     3304     3519     3731     3861     3852 
    3674     3429     3283     3273     3350     3464     3537     3520 
    3399     3203     3013     2909     2961     3168     3466     3773 
    3955     3963     3871     3686     3407     3176     3079     3075 
    3186     3416     3623     3690     3628     3470     3284     3214 
    3319     3495     3611     3604     3468     3289     3183     3176 
    3267     3431     3600     3720     3753     3689     3561     3393 
    3237     3179     3249     3358     3419     3470     3508     3460 
    3323     3144     3056     3167     3373     3551     3672     3719 
    3715     3703     3674     3578     3408     3230     3106     3061 
    3111     3241     3430     3647     3804     3811     3699     3595 
    3564     3551     3488     3395     3288     3148     3018     2960 
    2997     3141     3358     3555     3661     3657     3559     3434 
    3380     3446     3559     3603     3555     3480     3379     3213 
    3091     3123     3248     3411     3597     3766     3890     3927 
    3842     3662     3449     3252     3106     3042     3075     3152 
    3217     3275     3372     3543     3746     3855     3782     3580 
    3372     3257     3258     3338     3424     3462     3453     3439 
    3442     3481     3582     3715     3805     3780     3608     3370 
    3144     2990     2999     3194     3469     3661     3681     3569 
    3414     3331     3376     3457     3499     3518     3514     3512 
    3558     3577     3487     3339     3206     3121     3123     3195 
    3302     3447     3605     3732     3805     3812     3759     3661 
    3541     3416     3292     3168     3045     2988     3049     3179 
    3345     3561     3778     3927     3994     4006     3955     3832 
    3651     3426     3227     3146     3165     3180     3111     2994 
    2903     2894     3007     3194     3372     3530     3607     3578 
    3508     3397     3241     3099     2988     2934     3001     3161 
    3310     3402     3493     3595     3665     3684     3596     3418 
    3287     3260     3312     3414     3472     3437     3375     3388 
    3538     3790     4029     4120     4008     3785     3604     3523 
    3495     3441     3368     3366     3451     3543     3573     3500 
    3408     3407     3457     3500     3576     3659     3697     3707 
    3696     3655     3591     3485     3333     3196     3164     3268 
    3449     3573     3573     3507     3420     3333     3268     3167 
    2990     2868     2882     2938     2980     3005     3009     3068 
    3256     3497     3651     3642     3504     3341     3250     3260 
    3312     3343     3323     3211     2992     2741     2582     2582 
    2690     2820     2968     3160     3389     3685     4083     4519 
    4868     5062     5055     4860     4567     4245     3936     3678 
    3488     3358     3289     3304     3429     3611     3699     3586 
    3334     3024     2700     2458     2358     2344     2355     2367 
    2431     2635     2902     3056     3091     3092     3113     3217 
    3391     3561     3723     3861     3916     3881     3816     3792 
    3832     3904     3967     4023     4090     4176     4282     4423 
    4576     4653     4571     4256     3754     3253     2910     2801 
    2909     3087     3213     3275     3348     3508     3727     3927 
    4040     3990     3804     3599     3383     3146     2961     2902 
    3002     3254     3566     3780     3815     3720     3593     3492 
    3406     3261     2978     2567     2127     1753     1517     1463 
    1629     2006     2485     2928     3253     3431     3477     3460 
    3393     3264     3111     2988     2930     2999     3221     3562 
    3993     4423     4708     4783     4689     4480     4228     4036 
    3958     3982     4133     4391     4622     4731     4696     4503 
    4163     3734     3288     2945     2798     2855     3042     3237 
    3356     3411     3404     3318     3219     3176     3208     3329 
    3491     3570     3534     3507     3562     3609     3588     3504 
    3311     2991     2620     2258     2002     1972     2168     2488 
    2813     3026     3071     2960     2783     2670     2717     2979 
    3396     3829     4225     4536     4707     4770     4734     4563 
    4260     3879     3534     3349     3361     3508     3680     3784 
    3798     3748     3649     3528     3437     3379     3337     3334 
    3337     3277     3195     3150     3134     3123     3075     2957 
    2849     2867     3022     3246     3488     3715     3885     3936 
    3827     3607     3385     3231     3164     3176     3242     3396 
    3640     3829     3862     3809     3727     3578     3372     3194 
    3123     3184     3346     3565     3808     4037     4186     4139 
    3812     3292     2778     2424     2292     2390     2712     3177 
    3649     3994     4120     3973     3599     3138     2771     2628 
    2749     3072     3456     3800     4105     4378     4544     4473 
    4118     3604     3114     2779     2678     2824     3144     3523 
    3824     3962     3966     3906     3809     3645     3406     3150 
    2979     2965     3091     3272     3464     3642     3754     3751 
    3638     3434     3172     2893     2602     2327     2184     2243 
    2435     2644     2825     3003     3198     3372     3487     3572 
    3688     3816     3894     3906     3900     3952     4048     4122 
    4171     4166     4075     3963     3881     3821     3797     3788 
    3730     3609     3512     3504     3535     3578     3682     3847 
    4014     4148     4209     4158     3997     3738     3391     2976 
    2566     2281     2204     2286     2438     2596     2694     2702 
    2655     2589     2539     2560     2673     2860     3105     3357 
    3559     3734     3905     4037     4098     4079     3970     3809 
    3667     3592     3616     3730     3856     3966     4067     4129 
    4144     4160     4164     4086     3877     3541     3175     2911 
    2772     2691     2614     2525     2477     2565     2839     3264 
    3746     4135     4295     4218     3950     3550     3176     2986 
    3006     3161     3368     3580     3746     3856     3974     4108 
    4185     4122     3883     3515     3126     2860     2798     2899 
    3055     3160     3165     3098     3006     2901     2767     2612 
    2515     2509     2547     2633     2803     3017     3218     3399 
    3564     3701     3802     3905     4066     4295     4550     4734 
    4791     4761     4681     4541     4321     4029     3758     3591 
    3520     3518     3555     3588     3582     3500     3322     3118 
    2982     2945     2982     3049     3121     3163     3167     3179 
    3214     3218     3150     3030     2891     2751     2670     2701 
    2799     2964     3227     3499     3627     3555     3362     3179 
    3072     3026     2984     2911     2867     2945     3153     3383 
    3532     3591     3581     3523     3431     3353     3357     3462 
    3634     3815     3981     4166     4353     4457     4455     4388 
    4313     4249     4159     4012     3825     3659     3550     3477 
    3411     3339     3237     3102     2983     2933     2972     3068 
    3157     3175     3118     3038     2972     2944     2968     3032 
    3150     3337     3542     3724     3854     3861     3711     3456 
    3180     2963     2818     2732     2739     2893     3157     3483 
    3839     4163     4360     4396     4297     4070     3723     3306 
    2902     2601     2481     2566     2801     3042     3210     3352 
    3520     3708     3888     4036     4113     4055     3821     3503 
    3260     3194     3283     3430     3545     3586     3597     3618 
    3612     3561     3520     3537     3582     3616     3616     3561 
    3434     3294     3223     3211     3186     3103     2999     2951 
    3021     3206     3424     3620     3775     3843     3812     3750 
    3699     3650     3573     3451     3327     3277     3302     3341 
    3393     3477     3551     3566     3514     3400     3221     2986 
    2754     2573     2465     2484     2662     2934     3223     3532 
    3878     4183     4326     4274     4093     3881     3696     3532 
    3348     3141     2992     2980     3115     3331     3495     3511 
    3418     3295     3214     3261     3442     3662     3813     3855 
    3835     3811     3800     3775     3704     3588     3470     3387 
    3346     3334     3326     3327     3365     3449     3520     3453 
    3229     2986     2872     2959     3211     3493     3684     3757 
    3758     3735     3713     3663     3537     3361     3230     3196 
    3250     3376     3530     3673     3820     3966     4037     3981 
    3797     3539     3307     3179     3127     3103     3117     3176 
    3237     3225     3099     2852     2554     2376     2452     2736 
    3037     3207     3256     3272     3343     3534     3793     3993 
    4048     3985     3920     3927     3993     4059     4079     4079 
    4113     4129     4055     3879     3639     3446     3433     3596 
    3788     3846     3689     3381     3086     2903     2802     2710 
    2606     2536     2533     2589     2706     2898     3125     3314 
    3416     3460     3501     3547     3539     3451     3348     3304 
