Origin Time       2024/06/23 22:54:00
Lat.              35.645
Long.             140.060
Depth. (km)       72
Mag.              4.1
Station Code      SIT010
Station Lat.      35.9071
Station Long.     139.6478
Station Height(m) 6
Record Time       2024/06/23 22:54:49
Sampling Freq(Hz) 100Hz
Duration Time(s)  60
Dir.              E-W
Scale Factor      7845(gal)/8223790
Max. Acc. (gal)   1.465
Last Correction   2024/06/23 22:54:49
Memo.             
[...]
     584      583      579      580      575      575      583      584 
     576      573      579      581      576      580      584      577 
     575      580      580      581      584      575      565      577 
     584      577      583      589      583      583      588      585 
     583      584      581      577      575      577      579      581 
     585      581      575      576      583      583      580      583 
     583      576      573      579      579      579      583      575 
     568      579      584      577      579      585      579      573 
     584      585      581      585      585      579      579      579 
     579      581      583      580      577      576      579      580 
     581      580      577      577      579      583      584      579 
     576      580      584      583      580      580      583      581 
     583      585      583      585      588      583      580      580 
     577      580      585      580      573      577      579      575 
     576      576      579      584      581      579      581      584 
     588      588      580      577      581      581      577      580 
     581      576      583      589      580      579      587      581 
     576      577      579      584      587      580      580      583 
     579      584      583      571      580      589      575      576 
     589      581      584      596      587      577      592      598 
     588      591      589      575      576      588      585      583 
     581      572      573      580      580      579      576      573 
     575      581      585      580      579      581      580      580 
     573      568      576      580      575      580      587      581 
     581      588      581      577      589      589      583      588 
     581      572      581      584      572      575      584      583 
     580      580      576      580      587      581      577      581 
     580      576      576      575      580      584      580      575 
     577      584      583      579      579      580      580      585 
     584      577      581      583      573      573      579      577 
     575      569      568      573      577      576      576      577 
     580      584      580      576      583      584      577      579 
     580      573      577      587      583      575      576      583 
     585      583      583      587      580      576      581      577 
     575      580      575      568      571      568      572      576 
     571      571      573      571      575      580      579      583 
     587      581      580      583      580      581      588      583 
     573      577      583      580      575      576      576      572 
     572      575      571      573      575      564      572      588 
     581      579      585      577      579      587      581      583 
     591      588      583      585      588      583      583      591 
     584      572      577      577      573      581      576      567 
     579      584      572      577      584      572      571      583 
     580      576      581      580      577      580      576      576 
     584      581      575      584      588      572      572      587 
     585      581      583      575      580      589      577      576 
     588      584      579      581      581      583      587      587 
     583      584      591      587      581      584      580      579 
     585      583      581      583      580      579      577      573 
     579      583      577      575      580      581      581      583 
     579      580      588      583      575      579      584      584 
     583      580      579      577      579      581      583      576 
     571      579      581      575      589      596      576      564 
     572      588      600      600      595      587      576      576 
     580      580      588      596      581      548      542      577 
     611      627      616      561      515      525      554      585 
     626      642      600      529      500      538      575      587 
     621      649      610      557      576      615      621      610 
     587      564      558      571      618      658      633      573 
     523      515      580      654      660      615      562      514 
     496      523      548      545      575      648      668      606 
     534      496      508      588      672      660      580      534 
     542      583      606      579      549      560      588      610 
     610      580      552      544      541      542      571      608 
     608      580      587      625      618      564      544      565 
     606      660      656      573      537      584      614      583 
     544      533      560      626      661      591      484      476 
     568      642      637      594      546      541      594      622 
     565      492      502      587      652      643      600      575 
     572      589      612      596      571      577      587      583 
     568      535      503      514      592      670      665      607 
     584      604      626      610      565      537      534      545 
     569      602      616      595      568      562      577      600 
     619      622      611      600      591      548      487      506 
     603      656      619      560      552      596      623      611 
     583      542      519      557      631      677      635      514 
     452      506      565      580      614      668      666      603 
     540      500      483      508      571      612      598      567 
     580      621      623      587      548      542      579      603 
     584      560      544      526      515      531      577      615 
     622      616      610      600      560      479      440      500 
     603      689      720      664      594      583      595      603 
     629      650      646      629      608      589      558      508 
     507      568      602      565      541      604      666      615 
     538      542      569      573      602      650      649      608 
     594      580      549      562      606      575      502      499 
     542      546      506      481      513      576      623      627 
     576      480      436      534      660      653      564      525 
     557      629      680      654      592      575      602      646 
     691      684      646      646      656      603      530      522 
     587      653      635      554      513      527      540      530 
     511      504      540      602      619      553      473      473 
     533      596      656      688      661      616      616      630 
     612      572      537      542      610      666      649      579 
     511      506      540      537      502      487      484      490 
     503      481      436      471      598      695      706      676 
     643      631      653      649      584      523      529      603 
     677      681      652      645      629      591      571      583 
     602      599      572      548      530      504      510      577 
     611      549      500      549      641      708      700      592 
     511      546      575      545      556      616      665      657 
     588      535      540      557      575      569      514      486 
     556      630      602      535      542      604      666      697 
     653      544      483      540      637      635      537      498 
     581      661      666      623      564      556      607      614 
     531      465      488      542      558      523      461      429 
     457      537      619      646      618      592      625      691 
     692      621      596      664      714      645      527      487 
     544      631      642      545      463      487      548      589 
     639      646      572      523      553      585      558      487 
     441      476      554      608      626      623      634      656 
     637      595      616      691      726      706      635      525 
     469      529      587      533      463      527      666      677 
     571      561      675      720      633      537      540      583 
     580      552      514      463      449      488      530      583 
     638      626      571      565      565      487      418      467 
     558      577      561      562      546      550      642      733 
     715      673      707      756      745      693      619      557 
     577      656      677      629      571      526      494      498 
     503      442      368      418      573      658      587      452 
     400      490      631      700      696      734      819      842 
     768      639      556      611      731      781      750      693 
     662      649      603      548      533      529      488      423 
     410      471      498      414      292      243      314      461 
     567      583      576      571      508      438      479      596 
     676      711      735      737      708      677      668      683 
     696      664      618      654      716      704      646      589 
     548      567      633      680      670      615      556      533 
     502      426      398      457      506      510      498      463 
     448      504      575      577      537      517      526      567 
     625      622      548      507      525      561      633      715 
     762      781      792      787      760      733      729      714 
     661      608      589      587      581      564      531      526 
     565      533      387      298      353      433      442      398 
     336      319      400      535      600      542      465      506 
     626      693      695      685      656      635      675      706 
     662      639      727      839      866      823      749      633 
     521      518      572      538      449      410      417      442 
     491      518      507      534      614      646      615      598 
     596      565      527      521      527      537      573      619 
     610      583      599      595      542      534      592      672 
     731      722      670      665      695      681      638      637 
     656      634      602      594      542      448      410      456 
     523      561      562      541      515      496      454      369 
     321      363      410      419      449      484      484      494 
     549      631      704      737      718      680      687      722 
     712      676      660      664      700      780      816      754 
     697      723      745      669      523      391      340      395 
     491      477      319      187      243      433      589      661 
     677      629      580      618      693      712      673      637 
     653      714      785      826      811      778      772      769 
     724      660      630      637      642      639      642      621 
     517      388      391      484      510      471      441      433 
     472      522      521      488      461      475      550      594 
     523      440      449      498      507      495      484      449 
     413      442      496      495      467      490      579      683 
     753      766      746      768      818      769      645      592 
     630      673      675      622      541      492      514      557 
     549      523      564      634      653      592      477      398 
     422      503      538      518      540      631      711      737 
     693      592      576      693      805      841      812      734 
     699      761      803      733      618      569      594      587 
     510      438      391      341      330      353      361      395 
     492      542      472      382      395      496      587      622 
     654      695      665      571      537      573      571      530 
     537      585      596      544      479      444      469      550 
     614      616      602      599      619      681      739      687 
     531      467      611      792      811      733      687      695 
     730      724      646      588      614      680      689      581 
     426      344      364      426      446      414      405      442 
     471      445      410      452      550      589      549      573 
     729      857      846      787      764      778      800      783 
     729      680      649      630      596      529      475      496 
     581      656      633      513      407      409      488      561 
     567      533      525      533      523      486      437      432 
     475      515      525      542      612      723      811      837 
     822      804      812      855      908      965      993      913 
     726      577      556      546      438      299      217      207 
     240      271      299      357      477      679      888     1003 
    1030     1051     1107     1159     1134     1015      862      737 
     679      660      581      426      294      261      330      465 
     602      703      761      749      654      515      376      284 
     237      153       32      -58     -162     -310     -427     -487 
    -526     -562     -598     -670     -812     -877     -746     -588 
    -527     -426     -190      128      464      769     1003     1194 
    1410     1638     1786     1811     1819     1906     2023     2092 
    2116     2099     2062     2066     2108     2108     2007     1837 
    1686     1591     1518     1406     1219     1001      835      707 
     526      295       70     -141     -313     -427     -571     -769 
    -882     -832     -702     -615     -594     -545     -444     -321 
    -118      103      270      468      618      641      695      805 
     873      935      989      945      889      913      947      942 
     884      787      688      587      483      382      290      230 
     179       97       20       33      187      400      561      688 
     847     1047     1240     1389     1494     1564     1594     1575 
    1460     1258     1078      980      942      942      972     1031 
    1101     1147     1128     1015      810      553      280        4 
    -259     -465     -602     -708     -801     -849     -834     -733 
    -544     -364     -248     -166      -68       94      288      396 
     449      612      912     1213     1445     1629     1750     1811 
    1852     1821     1624     1313     1044      874      689      402 
      90     -109     -133       -8      153      245      329      517 
     724      822      878      980     1070     1112     1121     1094 
    1047     1066     1144     1146     1035      888      715      529 
     368      168     -105     -336     -402     -332     -248     -207 
    -149      -29      118      276      442      583      703      850 
    1003     1071     1047     1013     1035     1115     1223     1271 
    1192     1069     1012      972      868      685      432      241 
     244      314      274      179      128      113      137      191 
     172       87       66      118      135      106      145      280 
     392      414      405      448      575      753      904      981 
    1030     1113     1208     1232     1192     1146     1109     1069 
     967      749      486      310      224      122       -4      -89 
     -99      -41       39       95      155      267      441      642 
     773      814      878      997     1086     1135     1183     1196 
    1156     1162     1231     1267     1263     1250     1156      994 
     842      666      422      203       94       56       24      -21 
     -51       -4      153      382      599      731      785      826 
     854      803      669      499      319      164       75       48 
      47       89      233      488      789     1031     1142     1178 
    1198     1170     1115     1023      851      706      669      595 
     383      174       70        4      -68     -121     -143     -148 
    -128      -29      130      263      386      576      778      957 
    1166     1381     1507     1545     1532     1456     1318     1170 
    1012      788      498      244       75      -63     -176     -205 
    -157      -75        1       28       66      187      356      499 
     550      511      503      621      820     1008     1134     1223 
    1344     1478     1525     1441     1248     1003      773      606 
     499      411      313      225      203      264      349      394 
     394      407      487      587      604      533      467      468 
     502      495      407      286      237      287      341      319 
     275      274      321      371      345      270      243      260 
     257      224      214      294      460      627      753      862 
    1000     1200     1413     1517     1526     1559     1610     1588 
    1435     1162      878      681      557      438      299      194 
     167      199      245      270      237      167      125      126 
     128      122      128      197      361      544      650      719 
     842      997     1107     1147     1123     1051      958      832 
     675      526      429      380      351      307      268      272 
     330      411      457      405      303      286      373      449 
     438      402      421      483      515      479      425      456 
     554      646      714      749      758      814      905      932 
     881      819      774      735      697      648      599      598 
     629      610      531      464      454      500      573      639 
     695      768      851      909      940      958      993     1057 
    1098     1098     1102     1119     1096     1005      839      591 
     299       45     -147     -302     -402     -430     -418     -394 
    -371     -360     -325     -229      -87       83      271      438 
     576      712      819      857      903     1023     1166     1263 
    1274     1212     1148     1115     1067      982      881      811 
     801      826      854      881      878      797      669      579 
     530      459      390      337      213       43      -31        5 
      74      176      287      365      465      579      623      633 
     664      689      733      797      842      913     1042     1144 
    1169     1155     1143     1131     1096     1017      919      845 
     791      712      596      468      352      241      121      -17 
    -143     -207     -225     -243     -230     -159      -45      126 
     334      503      608      673      733      827      927      949 
     877      787      715      627      538      499      477      440 
     430      442      407      348      330      360      410      461 
     500      549      638      760      897     1024     1088     1094 
    1120     1163     1181     1174     1150     1094     1026      980 
     943      878      762      630      540      494      471      476 
     510      533      508      441      355      288      282      326 
     387      448      486      490      484      488      488      487 
     467      411      355      345      353      334      290      248 
     222      228      257      287      311      337      334      292 
