Origin Time       2024/06/23 22:54:00
Lat.              35.645
Long.             140.060
Depth. (km)       72
Mag.              4.1
Station Code      SIT008
Station Lat.      35.9829
Station Long.     139.7456
Station Height(m) 7
Record Time       2024/06/23 22:54:49
Sampling Freq(Hz) 100Hz
Duration Time(s)  60
Dir.              N-S
Scale Factor      7845(gal)/8223790
Max. Acc. (gal)   1.397
Last Correction   2024/06/23 22:54:49
Memo.             
[...]
     596      557      527      529      549      569      587      588 
     572      554      534      507      481      480      500      508 
     515      557      615      642      618      561      517      490 
     472      486      529      567      572      571      588      603 
     591      567      549      533      521      522      530      533 
     540      550      560      558      558      568      567      548 
     523      506      511      533      552      567      569      567 
     569      573      571      548      510      496      517      560 
     610      626      580      511      476      483      515      562 
     610      634      618      575      527      491      487      508 
     522      527      535      553      588      615      608      579 
     545      521      521      538      541      523      523      542 
     561      572      567      545      519      506      530      576 
     604      598      558      526      517      522      535      554 
     553      540      540      565      591      600      599      583 
     546      518      521      540      548      545      538      530 
     525      545      577      577      542      515      522      540 
     545      550      568      587      599      607      598      567 
     534      515      517      531      552      573      584      580 
     572      562      556      553      542      525      522      533 
     556      573      569      561      562      558      544      540 
     554      572      581      569      541      533      552      560 
     537      515      517      537      567      580      581      583 
     572      567      581      594      583      544      507      494 
     483      494      540      585      596      580      564      553 
     552      571      588      583      571      579      584      558 
     514      498      523      553      577      594      577      535 
     513      526      538      542      561      594      622      634 
     608      544      472      436      453      507      573      629 
     654      646      611      560      515      494      511      553 
     571      549      530      529      530      530      531      531 
     534      556      600      633      615      556      510      494 
     483      499      561      615      600      546      526      561 
     625      673      650      564      499      500      523      526 
     523      540      564      591      611      594      545      514 
     498      488      504      514      490      473      515      611 
     703      710      614      495      434      425      459      546 
     642      669      606      522      480      468      513      607 
     675      673      588      472      432      471      530      585 
     619      621      564      508      534      584      608      602 
     535      459      426      434      499      589      672      727 
     695      600      530      492      473      467      481      494 
     479      507      585      603      580      567      522      481 
     507      577      652      688      623      471      371      419 
     527      592      633      653      603      511      465      517 
     614      653      631      589      510      417      396      491 
     635      727      730      642      494      399      413      498 
     588      580      471      365      348      448      614      747 
     774      677      503      363      361      449      508      567 
     656      702      652      572      557      598      635      684 
     733      708      598      445      340      400      589      735 
     761      687      562      437      353      372      460      518 
     550      560      526      508      526      554      587      587 
     562      527      463      434      486      535      550      569 
     615      650      653      670      676      611      537      514 
     519      504      454      425      459      519      599      699 
     762      760      711      614      469      346      340      446 
     567      634      622      541      472      440      461      562 
     633      603      535      440      338      313      392      546 
     696      796      832      769      625      475      376      346 
     367      440      558      658      704      714      714      711 
     657      576      534      529      535      515      461      425 
     449      541      629      662      666      641      585      549 
     542      525      468      372      295      334      506      711 
     839      832      710      538      345      214      248      376 
     488      616      747      805      769      637      477      418 
     479      571      630      622      564      514      498      526 
     602      685      706      657      564      444      363      369 
     465      611      697      685      634      571      522      499 
     503      544      534      465      465      525      558      575 
     630      692      666      564      483      446      467      521 
     527      503      500      510      526      554      564      546 
     491      437      464      531      553      540      541      602 
     703      778      769      688      587      450      302      272 
     387      540      631      665      733      828      822      685 
     514      357      261      299      459      608      680      735 
     773      720      560      376      325      411      488      546 
     573      483      376      382      499      677      761      687 
     602      569      548      569      629      679      662      522 
     378      391      499      599      662      675      637      531 
     441      472      568      670      785      804      634      380 
     195      155      279      527      726      704      552      453 
     444      515      668      776      702      511      375      337 
     383      486      602      691      680      619      630      626 
     548      484      442      432      477      514      514      525 
     580      627      608      577      575      556      533      573 
     683      810      868      830      757      654      483      315 
     279      387      556      680      712      689      611      459 
     307      257      340      456      496      504      542      560 
     523      481      521      603      603      507      406      417 
     565      699      730      761      754      587      445      502 
     604      645      670      672      625      550      468      422 
     463      568      688      760      715      606      492      379 
     330      380      442      410      297      241      330      526 
     761      919      891      688      467      355      307      310 
     419      511      472      495      687      870      980     1030 
     935      750      626      529      399      334      407      506 
     552      594      619      600      600      608      561      499 
     432      303      191      194      267      376      546      723 
     793      737      633      527      452      491      572      557 
     523      530      515      496      522      634      800      870 
     787      623      434      305      340      510      661      714 
     716      656      522      402      317      286      330      418 
     565      696      703      735      828      800      677      546 
     456      440      427      429      467      510      638      776 
     788      730      598      449      469      588      638      670 
     735      700      510      294      160      144      263      480 
     665      733      730      675      557      441      406      457 
     534      556      488      422      433      460      546      739 
     853      812      743      652      535      503      595      729 
     784      735      639      500      295      152      182      301 
     454      649      772      722      553      436      444      518 
     602      633      621      614      546      450      438      460 
     480      502      518      583      673      745      838      931 
     854      550      259      195      220      195      270      476 
     619      685      772      812      770      675      527      379 
     255      232      333      409      492      681      851      927 
     850      633      496      504      525      523      552      633 
     730      838      905      808      579      371      268      272 
     329      399      519      661      724      680      619      676 
     747      558      238      105      105      182      399      581 
     602      568      531      507      550      626      619      480 
     326      276      288      345      515      747      924     1027 
    1051      959      762      549      464      502      523      541 
     583      589      591      585      529      453      355      261 
     299      406      463      538      631      665      708      787 
     781      664      549      490      392      291      355      526 
     711      926     1059     1038      912      714      476      263 
     218      360      496      606      687      603      418      271 
     218      321      523      658      720      780      742      548 
     365      311      326      317      282      278      329      472 
     699      877      938      936      872      720      615      645 
     646      550      476      400      267      172      225      410 
     610      716      700      614      496      353      275      324 
     411      477      571      692      773      765      735      720 
     662      618      658      645      518      441      490      614 
     789      939      962      916      873      746      483      224 
      81       35       89      288      568      753      726      522 
     270      108      101      167      241      357      515      720 
     953     1084     1073      978      846      702      583      577 
     610      530      486      587      658      614      537      552 
     668      716      650      606      596      511      326      148 
     118      222      306      328      306      221      180      306 
     472      569      668      751      756      760      777      757 
     750      756      747      776      830      816      739      677 
     610      492      437      518      596      521      387      398 
     477      453      415      453      491      483      417      306 
     214      193      267      430      633      807      912      981 
     973      807      608      492      386      294      284      380 
     600      847      984     1015      950      769      514      270 
     167      245      330      322      314      376      492      568 
     585      643      708      679      588      514      445      318 
     256      403      619      787      897      826      576      349 
     207      116      179      465      758      834      761      683 
     600      502      467      560      670      722      796      889 
     877      768      695      708      764      773      681      550 
     454      398      399      433      423      386      351      326 
     391      527      606      641      720      827      923      970 
     907      722      473      270      168      135      125      137 
     226      400      592      783      903      846      691      495 
     194      -97     -214     -190      -71      151      388      530 
     585      634      699      691      568      445      345      244 
     276      511      822     1090     1269     1356     1355     1244 
    1040      810      634      496      395      464      611      631 
     561      464      372      348      384      450      503      526 
     580      699      895     1120     1244     1240     1143      920 
     612      315      133      113      180      329      544      664 
     689      716      692      567      353      109      -85     -245 
    -409     -542     -569     -429     -189       95      480      924 
    1291     1520     1586     1459     1156      791      491      325 
     346      538      743      846      889      877      746      533 
     314      116      -68     -229     -317     -261      -31      321 
     665      932     1162     1333     1393     1414     1525     1752 
    1952     1933     1726     1435     1050      637      305       91 
     -22     -117     -228     -310     -342     -313     -214     -113 
     -74      -85     -135     -224     -297     -367     -415     -298 
      14      359      564      595      553      487      387      365 
     544      831     1077     1250     1374     1441     1455     1456 
    1420     1318     1201     1102     1024      946      851      846 
     976     1112     1177     1129      899      513      113     -129 
    -153      -35      179      440      653      751      702      580 
     506      479      472      535      623      616      554      504 
     472      494      577      716      831      758      519      260 
      55      -43      -68     -102     -156     -201     -249     -310 
    -311     -178       63      306      479      591      600      496 
     395      395      548      803      993     1078     1138     1231 
    1458     1771     1981     2016     1894     1603     1158      689 
     383      233      157      157      206      274      309      236 
      76     -121     -259     -213      -16      210      388      492 
     550      585      598      584      538      472      446      500 
     565      606      708      896     1081     1212     1279     1248 
    1062      741      399      139       17       76      291      562 
     807      974     1044      990      788      533      333      151 
     -20     -117     -175     -211     -167      -24      207      491 
     722      793      762      789      885      962      996      988 
     947      896      824      718      580      437      319      283 
     384      576      781      936      935      765      498      164 
    -139     -274     -220      -25      210      392      529      654 
     774      903     1026     1069      943      665      338       72 
       0      118      252      319      359      449      707     1109 
    1516     1831     1968     1871     1579     1175      753      352 
     -24     -367     -610     -658     -488     -175      191      538 
     788      958     1148     1377     1466     1266      909      621 
     473      464      521      538      472      344      234      157 
      98       83      108      209      390      548      634      616 
     511      415      326      221      109       17       37      151 
     272      406      504      499      399      229       87      133 
     405      735      959     1063     1135     1232     1332     1390 
    1385     1273     1111      993      881      750      666      608 
     522      395      193      -29     -152     -130       35      288 
     534      684      735      774      784      680      504      332 
     222      189      194      271      405      538      669      773 
     830      864      940     1084     1196     1171      954      610 
     351      265      272      301      326      386      500      577 
     611      634      538      348      224      211      321      556 
     797      918      877      747      608      502      423      360 
     317      237      125      156      352      606      869      994 
     874      600      348      224      205      275      469      706 
     839      815      677      500      351      280      271      286 
     357      495      661      816      935     1042     1094     1001 
     783      499      237      141      198      260      268      268 
     348      554      787      919      961      976      938      772 
     481      139     -190     -414     -436     -253       89      525 
     924     1193     1379     1568     1729     1746     1564     1254 
     912      571      256       43      -52     -102      -68      121 
     372      525      506      399      326      264      210      197 
     224      359      552      645      662      687      726      787 
     865      969      988      823      641      526      380      260 
     256      357      475      526      544      569      569      567 
     587      583      511      394      330      402      569      754 
     915      990      936      803      646      507      444      415 
     322      228      287      460      589      669      724      760 
     800      783      607      291        6      -43      106      259 
     371      510      646      712      739      805      930     1039 
    1066     1012      896      719      538      460      508      635 
     819      977     1000      899      689      400      172      136 
     290      492      558      518      473      413      361      368 
     357      287      198      125      130      222      345      486 
     641      823      949      845      535      198      -58     -144 
       1      345      737     1047     1279     1385     1309     1119 
     864      618      395      144       -8       64      283      584 
     911     1144     1242     1188      981      700      368       12 
    -189      -97      226      634      935     1046     1013      862 
     627      359       66     -213     -384     -357     -125      234 
     629      976     1227     1399     1485     1414     1183      904 
     680      503      348      226       86      -63      -70       78 
     232      338      413      456      472      448      415      411 
     410      394      359      342      365      356      309      326 
     492      789     1081     1260     1331     1287     1142      951 
     774      648      562      480      410      422      577      828 
    1027     1088     1044      962      858      714      569      491 
     503      544      467      247       37      -58      -13      156 
     337      432      449      446      457      484      515      491 
     355      190      139      225      379      508      550      556 
     638      781      913     1032     1062      912      675      483 
     367      330      376      498      676      822      842      795 
     811      934     1082     1134     1019      795      589      402 
     194       59       49       93       81      -52     -226     -309 
    -284     -193      -79      -16        1       59      228      480 
     703      858      969      966      843      724      660      704 
     957     1329     1636     1788     1768     1624     1425     1159 
     810      480      280      198      174      228      426      692 
     861      918      905      792      545      193     -141     -329 
    -355     -260      -82       91      195      319      535      750 
     846      810      679      475      268      175      238      467 
     822     1194     1501     1675     1651     1436     1089      712 
     386       60     -220     -355     -400     -390     -263       -1 
