Origin Time       2024/06/23 22:54:00
Lat.              35.645
Long.             140.060
Depth. (km)       72
Mag.              4.1
Station Code      SIT010
Station Lat.      35.9071
Station Long.     139.6478
Station Height(m) 6
Record Time       2024/06/23 22:54:49
Sampling Freq(Hz) 100Hz
Duration Time(s)  60
Dir.              U-D
Scale Factor      7845(gal)/8223790
Max. Acc. (gal)   0.928
Last Correction   2024/06/23 22:54:49
Memo.             
[...]
     714      711      710      714      712      707      711      714 
     714      719      718      712      715      712      711      714 
     712      710      715      715      712      714      715      715 
     714      715      718      719      719      716      716      716 
     719      720      718      712      714      719      722      718 
     714      714      715      714      714      714      710      708 
     714      711      706      707      712      715      715      714 
     718      723      719      714      714      718      723      718 
     714      716      714      711      715      714      712      715 
     715      712      711      712      714      718      718      716 
     719      722      716      716      716      711      714      716 
     714      714      714      716      720      719      719      718 
     716      716      715      718      719      715      716      722 
     719      716      718      716      714      715      714      710 
     712      715      711      708      714      716      714      712 
     715      715      714      718      722      719      718      719 
     719      722      718      714      718      715      714      714 
     711      712      714      711      712      716      720      718 
     714      720      723      718      719      723      716      714 
     715      711      708      706      702      702      702      697 
     696      702      706      708      712      719      724      729 
     731      733      734      730      714      697      692      695 
     699      706      715      718      710      700      703      708 
     702      672      633      627      660      697      714      716 
     723      745      768      776      766      746      750      784 
     819      845      831      741      625      619      758      897 
     918      855      780      724      747      855      912      765 
     465      197      113      329      820     1279     1355      996 
     487      183      234      549      911     1115     1032      702 
     383      345      560      781      880      924      955      899 
     750      638      607      603      629      719      791      731 
     616      619      707      718      629      557      611      805 
    1017     1065      893      656      546      600      704      735 
     697      708      793      837      765      650      567      557 
     679      864      904      714      483      477      685      834 
     777      662      635      660      696      787      870      801 
     642      619      777      915      838      580      407      548 
     872      972      743      538      572      703      805      843 
     746      561      496      600      711      739      753      804 
     884      935      858      687      596      661      783      831 
     773      685      652      692      757      760      693      652 
     692      760      776      730      664      604      595      697 
     841      873      777      662      621      646      676      695 
     750      816      765      562      437      612      958     1138 
    1016      724      432      259      341      683     1013     1042 
     750      422      361      599      908     1008      826      600 
     579      688      679      553      608      882     1028      911 
     780      785      777      649      556      573      534      453 
     598      949     1121      938      662      595      688      703 
     607      564      643      750      808      826      770      621 
     503      587      843     1032      977      735      495      453 
     626      784      720      550      535      716      885      897 
     810      711      629      635      810     1035     1078      899 
     677      552      506      540      704      903      916      688 
     450      494      778      981      922      692      469      396 
     542      799      931      818      600      521      661      903 
    1042      958      746      608      619      719      807      756 
     545      356      387      612      815      797      611      569 
     857     1205     1215      858      500      395      425      432 
     490      691      919      989      891      756      649      604 
     633      639      595      622      762      847      727      523 
     481      658      895      999      911      737      635      711 
     882      908      697      479      494      724      955      965 
     754      529      457      548      710      801      746      664 
     734      920      986      818      607      592      737      841 
     799      665      577      641      793      850      722      554 
     535      661      814      881      766      503      365      568 
     907      988      766      561      576      684      726      734 
     761      750      683      648      723      895     1051     1038 
     760      363      187      364      666      857      916      907 
     824      675      594      720      927      947      742      564 
     595      718      769      785      834      785      534      357 
     603     1048     1138      801      502      515      670      733 
     687      627      615      675      789      892      940      881 
     658      421      407      607      805      859      783      641 
     480      405      550      868     1069      935      615      504 
     743     1007      950      692      594      669      610      411 
     442      789     1094     1101      915      696      522      525 
     751      990     1003      773      503      394      487      700 
     839      745      607      769     1102     1121      800      585 
     577      445      180      222      711     1171     1200      939 
     668      460      383      502      747     1007     1109      935 
     733      857     1151     1077      531      108      275      696 
     807      665      653      715      614      494      575      708 
     683      580      576      649      689      702      720      712 
     700      800     1009     1115      947      658      572      710 
     762      622      567      753      939      892      699      537 
     430      441      702     1074     1236     1089      776      525 
     550      780      801      477      309      649     1090     1135 
     878      634      526      612      866     1000      739      314 
     198      461      747      787      652      573      641      800 
     981     1043      864      596      508      594      623      573 
     666      945     1142     1063      828      646      571      567 
     595      625      680      770      835      803      633      449 
     440      558      672      801      927      922      797      727 
     778      814      704      535      523      762     1043     1043 
     735      411      357      596      873      935      799      677 
     683      727      731      714      627      437      332      542 
     927     1059      861      716      793      843      749      679 
     731      726      488      203      214      545      915     1081 
    1007      803      600      486      503      641      830      976 
    1009      900      697      554      550      634      801      994 
     966      697      568      777     1015      949      658      429 
     386      440      519      715      984     1035      784      554 
     626      881     1011      889      614      361      338      581 
     828      835      688      630      761      954      955      649 
     299      274      592      950     1032      788      507      503 
     783     1065     1048      742      506      618      923     1088 
    1021      812      552      379      400      517      596      670 
     793      873      781      548      329      274      472      812 
     997      957      942     1046     1080      958      792      684 
     645      626      615      692      841      855      692      635 
     807      935      811      581      450      403      441      653 
     854      756      522      542      788      901      774      631 
     627      692      718      697      669      611      587      756 
    1038     1088      776      421      365      592      866      992 
     905      734      696      801      861      765      561      410 
     529      946     1296     1154      612      214      286      637 
     874      788      492      336      553      951     1115      907 
     591      461      553      704      773      765      745      703 
     639      639      723      807      857      920      993      981 
     800      534      388      438      602      820     1004     1023 
     891      743      661      591      481      426      529      700 
     781      760      714      639      556      616      831      893 
     607      305      399      788     1111     1210     1104      895 
     751      770      842      778      615      557      631      642 
     529      492      665      886      962      882      712      568 
     541      595      637      623      554      549      729      940 
     891      627      502      610      724      765      805      846 
     886      961      963      803      639      654      737      675 
     503      419      487      621      716      729      719      757 
     826      861      791      650      592      641      688      738 
     823      862      803      681      546      419      328      403 
     739     1067     1062      846      720      734      788      810 
     724      515      365      499      830     1000      853      684 
     774      990     1077      994      846      719      680      727 
     735      616      467      433      538      719      866      815 
     548      371      556      889      943      696      502      526 
     614      654      733      919     1108     1115      923      712 
     621      637      693      757      758      594      399      496 
     831      997      882      742      656      483      268      274 
     608     1039     1210     1038      734      519      498      664 
     876      967      900      743      571      475      562      796 
     974      920      643      373      355      579      789      824 
     812      874      930      926      904      866      768      588 
     400      283      257      346      550      845     1175     1339 
    1108      616      309      429      742      895      857      801 
     785      797      851      889      827      741      772      830 
     746      577      449      400      463      614      680      496 
     228      244      568      851      889      810      826      959 
    1058     1011      818      565      436      549      772      877 
     816      757      869     1101     1179      915      488      283 
     464      805      947      768      426      164      135      344 
     672      951     1075     1078     1113     1254     1363     1235 
     869      557      515      569      511      415      402      437 
     441      390      367      450      606      766      911      997 
     972      828      734      888     1109     1011      652      490 
     660      870      872      673      461      429      569      681 
     638      545      604      784      876      885      950      989 
     928      903      896      669      238       18      284      741 
     905      696      438      415      568      724      877      973 
     858      634      598      800     1021     1104     1077     1040 
    1084     1198     1255     1162      978      791      648      545 
     413      255      144       94      148      318      418      319 
     155      170      459      804      928      901      953     1055 
    1023      859      734      730      756      715      645      602 
     623      792     1120     1466     1647     1572     1328     1092 
     980      909      675      249     -116     -234     -155      -17 
      87      166      287      545      949     1324     1452     1293 
     976      700      604      608      557      472      490      697 
    1017     1224     1202     1102     1100     1132     1016      703 
     344      175      272      454      480      295       97      139 
     413      691      834      861      855      912      988      945 
     787      718      824      866      685      527      648      901 
    1027      981      880      841      918     1021      984      815 
     688      652      585      457      342      271      267      373 
     511      561      567      675      899     1080     1073      945 
     885      969     1100     1128      974      731      599      669 
     828      857      666      421      351      500      703      691 
     367       29       64      427      664      553      456      749 
    1200     1358     1197      938      681      544      699     1057 
    1317     1348     1247     1132     1040      957      862      765 
     635      422      178       37        9      -18      -59      -16 
     159      413      606      625      561      618      822     1000 
    1058     1092     1173     1237     1243     1225     1166     1009 
     853      899     1148     1341     1275     1035      831      710 
     587      407      144     -133     -257     -198      -98       28 
     279      573      753      874     1063     1204     1128      912 
     711      562      468      456      542      747     1012     1158 
    1123     1051     1100     1258     1355     1262     1036      816 
     712      719      700      546      309      155      210      418 
     604      681      700      702      677      626      527      383 
     299      363      481      538      616      818      992      961 
     805      765      939     1186     1287     1181     1009      924 
     899      807      626      452      337      279      356      621 
     878      880      653      448      448      594      642      471 
     257      230      368      550      747      942     1061     1082 
    1177     1426     1567     1422     1236     1224     1251     1092 
     724      344      149      187      376      552      531      299 
     106      210      553      784      639      243      -13       59 
     303      522      681      826      990     1177     1331     1399 
    1397     1375     1348     1286     1165      966      729      571 
     506      430      356      378      488      552      481      353 
     311      387      461      403      264      233      360      488 
     535      611      815     1067     1198     1177     1129     1167 
    1281     1367     1325     1152      950      816      788      823 
     792      641      502      504      589      571      383      256 
     400      619      622      465      422      589      796      882 
     903      892      762      584      530      564      533      418 
     391      611      927     1013      851      742      837      982 
    1038     1019      966      889      812      765      734      695 
     692      761      849      880      816      707      626      579 
     535      507      552      675      753      662      483      383 
     394      426      438      490      621      762      835      846 
     831      830      877      985     1089     1092      972      772 
     564      448      457      499      511      575      718      831 
     870      869      784      611      499      556      679      711 
     662      633      650      681      718      761      751      687 
     689      796      873      842      795      800      800      770 
     750      746      766      835      912      930      897      904 
     973      978      826      612      469      396      333      279 
     268      325      473      719      994     1175     1202     1136 
    1031      913      819      731      611      490      411      352 
     298      283      317      364      423      545      741      947 
    1093     1105     1008      943      962      967      896      804 
     789      899     1085     1225     1237     1134      953      735 
     557      452      318       76     -160     -218      -76      126 
     286      430      588      739      889     1073     1251     1300 
    1193     1085     1062     1036      926      780      675      635 
     672      747      757      673      616      657      696      648 
     545      467      454      481      486      410      291      261 
     399      608      758      858      945      993     1015     1032 
    1047     1046     1001      926      873      854      841      853 
     905      934      854      680      511      479      606      718 
     627      345       66        2      216      552      777      784 
     679      653      778      997     1196     1282     1237     1120 
    1059     1109     1146     1050      851      656      521      403 
     286      252      345      498      638      747      808      816 
     820      820      749      592      426      328      319      394 
     535      688      772      769      746      764      816      823 
     745      669      680      724      746      770      785      751 
     704      707      749      774      766      770      824      909 
     959      903      751      631      664      805      897      892 
     904      978     1004      884      676      517      456      446 
     461      499      552      600      642      712      827      913 
     892      827      841      943     1012      909      627      364 
     341      537      750      822      673      387      183      189 
     341      526      687      799      869      976     1146     1250 
    1170      986      880      903      924      814      612      437 
     378      464      607      656      533      341      286      456 
     718      868      838      768      819      957     1030     1011 
     945      827      691      623      635      643      599      577 
     665      770      735      585      491      522      577      565 
     552      646      783      837      826      841      889      935 
     957      947      900      816      749      753      799      801 
     708      540      391      384      565      835     1015      996 
     850      751      792      926     1028      972      773      619 
     619      669      600      423      318      356      450      537 
     577      527      432      406      483      596      684      722 
     708      677      666      669      652      648      745      946 
    1121     1188     1177     1124     1012      897      851      803 
     689      600      638      754      788      700      614      608 
     643      662      673      684      668      635      618      618 
     619      614      600      572      515      498      580      710 
     797      816      788      765      785      849      922      954 
     904      805      749      773      845      936     1005      994 
     896      747      608      581      691      781      688      459 
