Origin Time       2024/06/23 22:54:00
Lat.              35.645
Long.             140.060
Depth. (km)       72
Mag.              4.1
Station Code      SIT010
Station Lat.      35.9071
Station Long.     139.6478
Station Height(m) 6
Record Time       2024/06/23 22:54:49
Sampling Freq(Hz) 100Hz
Duration Time(s)  60
Dir.              N-S
Scale Factor      7845(gal)/8223790
Max. Acc. (gal)   1.573
Last Correction   2024/06/23 22:54:49
Memo.             
[...]
   -1729    -1729    -1722    -1723    -1733    -1728    -1721    -1726 
   -1729    -1728    -1730    -1732    -1730    -1733    -1733    -1733 
   -1733    -1730    -1726    -1723    -1721    -1723    -1725    -1722 
   -1723    -1730    -1732    -1732    -1730    -1728    -1729    -1732 
   -1726    -1725    -1732    -1730    -1729    -1733    -1734    -1734 
   -1730    -1732    -1740    -1736    -1729    -1734    -1736    -1729 
   -1723    -1726    -1737    -1742    -1732    -1726    -1734    -1734 
   -1728    -1729    -1726    -1726    -1732    -1733    -1730    -1728 
   -1723    -1723    -1726    -1722    -1719    -1722    -1723    -1719 
   -1715    -1719    -1729    -1729    -1725    -1729    -1729    -1729 
   -1730    -1725    -1728    -1738    -1734    -1728    -1728    -1726 
   -1732    -1734    -1729    -1729    -1730    -1732    -1736    -1734 
   -1729    -1729    -1730    -1733    -1733    -1726    -1728    -1737 
   -1733    -1728    -1733    -1730    -1728    -1728    -1723    -1726 
   -1732    -1726    -1719    -1722    -1725    -1729    -1729    -1721 
   -1718    -1722    -1723    -1723    -1729    -1728    -1722    -1719 
   -1725    -1719    -1713    -1721    -1725    -1723    -1732    -1729 
   -1726    -1736    -1736    -1729    -1730    -1733    -1733    -1734 
   -1733    -1726    -1728    -1733    -1726    -1722    -1734    -1736 
   -1725    -1723    -1729    -1732    -1733    -1728    -1726    -1732 
   -1729    -1723    -1725    -1726    -1722    -1721    -1722    -1721 
   -1718    -1719    -1723    -1728    -1726    -1725    -1726    -1730 
   -1733    -1730    -1726    -1721    -1715    -1721    -1729    -1730 
   -1732    -1730    -1721    -1722    -1734    -1730    -1709    -1707 
   -1722    -1714    -1713    -1742    -1740    -1688    -1672    -1729 
   -1763    -1741    -1741    -1749    -1691    -1659    -1723    -1777 
   -1759    -1729    -1699    -1638    -1626    -1738    -1857    -1865 
   -1819    -1748    -1637    -1588    -1661    -1763    -1806    -1788 
   -1730    -1655    -1633    -1703    -1779    -1782    -1761    -1755 
   -1726    -1676    -1680    -1733    -1732    -1690    -1701    -1732 
   -1709    -1694    -1745    -1784    -1767    -1755    -1737    -1682 
   -1678    -1753    -1784    -1737    -1696    -1679    -1656    -1684 
   -1769    -1810    -1795    -1775    -1717    -1648    -1634    -1659 
   -1711    -1794    -1850    -1818    -1713    -1610    -1586    -1679 
   -1806    -1829    -1773    -1729    -1680    -1645    -1702    -1792 
   -1792    -1736    -1722    -1718    -1705    -1745    -1765    -1668 
   -1628    -1741    -1777    -1703    -1756    -1852    -1775    -1668 
   -1682    -1667    -1594    -1642    -1784    -1845    -1837    -1780 
   -1649    -1597    -1692    -1767    -1750    -1741    -1765    -1750 
   -1714    -1703    -1703    -1717    -1741    -1744    -1748    -1765 
   -1755    -1722    -1694    -1667    -1663    -1690    -1703    -1717 
   -1779    -1837    -1815    -1738    -1676    -1668    -1699    -1736 
   -1745    -1719    -1714    -1733    -1695    -1633    -1668    -1761 
   -1813    -1848    -1865    -1775    -1625    -1597    -1698    -1782 
   -1804    -1790    -1729    -1667    -1664    -1711    -1772    -1794 
   -1741    -1694    -1729    -1744    -1675    -1652    -1705    -1726 
   -1718    -1753    -1809    -1794    -1715    -1687    -1725    -1715 
   -1649    -1664    -1761    -1829    -1818    -1746    -1676    -1688 
   -1759    -1775    -1741    -1752    -1771    -1732    -1698    -1713 
   -1711    -1682    -1696    -1763    -1807    -1773    -1660    -1544 
   -1545    -1664    -1765    -1772    -1721    -1668    -1667    -1721 
   -1788    -1834    -1784    -1634    -1534    -1575    -1676    -1763 
   -1826    -1841    -1792    -1752    -1791    -1858    -1898    -1912 
   -1858    -1736    -1664    -1683    -1711    -1736    -1782    -1777 
   -1691    -1636    -1679    -1740    -1757    -1740    -1690    -1660 
   -1722    -1799    -1756    -1664    -1647    -1653    -1656    -1707 
   -1750    -1719    -1692    -1726    -1771    -1799    -1799    -1742 
   -1691    -1733    -1813    -1819    -1745    -1652    -1601    -1632 
   -1725    -1833    -1926    -1925    -1799    -1690    -1686    -1699 
   -1674    -1660    -1653    -1633    -1649    -1694    -1707    -1705 
   -1718    -1719    -1723    -1761    -1795    -1790    -1732    -1644 
   -1620    -1671    -1709    -1715    -1728    -1725    -1718    -1773 
   -1857    -1863    -1798    -1749    -1748    -1763    -1757    -1698 
   -1615    -1597    -1656    -1702    -1703    -1717    -1744    -1748 
   -1728    -1718    -1711    -1669    -1638    -1701    -1790    -1796 
   -1752    -1707    -1668    -1663    -1713    -1756    -1723    -1664 
   -1691    -1791    -1838    -1825    -1849    -1895    -1877    -1836 
   -1849    -1863    -1784    -1660    -1609    -1642    -1678    -1676 
   -1671    -1668    -1660    -1657    -1642    -1609    -1629    -1707 
   -1750    -1721    -1696    -1732    -1765    -1768    -1777    -1761 
   -1690    -1660    -1719    -1750    -1696    -1683    -1764    -1779 
   -1686    -1692    -1809    -1826    -1742    -1719    -1761    -1759 
   -1736    -1746    -1718    -1676    -1740    -1844    -1877    -1880 
   -1873    -1773    -1626    -1593    -1656    -1669    -1655    -1709 
   -1749    -1698    -1679    -1780    -1887    -1891    -1831    -1761 
   -1710    -1725    -1777    -1771    -1682    -1617    -1633    -1634 
   -1580    -1588    -1667    -1691    -1676    -1690    -1649    -1559 
   -1563    -1665    -1767    -1809    -1776    -1730    -1741    -1787 
   -1852    -1926    -1918    -1798    -1740    -1786    -1769    -1710 
   -1734    -1745    -1636    -1541    -1583    -1659    -1684    -1763 
   -1906    -1900    -1703    -1575    -1584    -1583    -1613    -1732 
   -1777    -1717    -1713    -1769    -1742    -1629    -1610    -1759 
   -1877    -1807    -1728    -1795    -1821    -1705    -1669    -1767 
   -1780    -1678    -1633    -1702    -1795    -1846    -1844    -1780 
   -1695    -1645    -1615    -1613    -1686    -1757    -1728    -1679 
   -1736    -1831    -1841    -1791    -1767    -1723    -1625    -1610 
   -1705    -1717    -1661    -1717    -1768    -1668    -1606    -1664 
   -1657    -1640    -1791    -1902    -1782    -1709    -1819    -1844 
   -1753    -1760    -1777    -1652    -1595    -1759    -1885    -1802 
   -1679    -1632    -1629    -1696    -1817    -1885    -1838    -1707 
   -1611    -1632    -1694    -1683    -1638    -1657    -1717    -1733 
   -1713    -1721    -1744    -1736    -1721    -1726    -1722    -1726 
   -1761    -1765    -1710    -1652    -1618    -1644    -1744    -1834 
   -1900    -1968    -1930    -1795    -1742    -1752    -1682    -1620 
   -1682    -1748    -1745    -1761    -1768    -1706    -1687    -1763 
   -1810    -1771    -1702    -1656    -1664    -1710    -1715    -1663 
   -1633    -1644    -1672    -1765    -1891    -1895    -1733    -1571 
   -1580    -1674    -1661    -1593    -1605    -1637    -1630    -1632 
   -1674    -1730    -1752    -1750    -1791    -1842    -1846    -1822 
   -1794    -1760    -1742    -1722    -1648    -1601    -1688    -1798 
   -1803    -1775    -1746    -1717    -1769    -1854    -1817    -1765 
   -1834    -1829    -1665    -1601    -1691    -1753    -1792    -1833 
   -1771    -1672    -1653    -1675    -1740    -1868    -1908    -1775 
   -1640    -1615    -1594    -1563    -1610    -1671    -1647    -1618 
   -1664    -1734    -1788    -1827    -1794    -1718    -1732    -1807 
   -1799    -1718    -1686    -1761    -1883    -1907    -1799    -1687 
   -1642    -1648    -1713    -1769    -1680    -1518    -1494    -1576 
   -1642    -1734    -1829    -1796    -1703    -1705    -1759    -1772 
   -1817    -1900    -1858    -1707    -1638    -1640    -1598    -1611 
   -1723    -1768    -1729    -1732    -1741    -1736    -1804    -1896 
   -1869    -1780    -1730    -1671    -1636    -1736    -1833    -1759 
   -1672    -1733    -1784    -1715    -1678    -1718    -1675    -1582 
   -1641    -1788    -1831    -1811    -1814    -1779    -1707    -1668 
   -1634    -1628    -1748    -1896    -1896    -1802    -1723    -1647 
   -1625    -1711    -1796    -1804    -1784    -1748    -1711    -1750 
   -1800    -1726    -1628    -1669    -1761    -1783    -1802    -1827 
   -1741    -1607    -1640    -1780    -1807    -1736    -1710    -1746 
   -1791    -1815    -1761    -1602    -1466    -1482    -1579    -1645 
   -1686    -1692    -1621    -1574    -1648    -1738    -1756    -1773 
   -1806    -1814    -1830    -1850    -1804    -1702    -1632    -1647 
   -1711    -1742    -1749    -1799    -1845    -1822    -1773    -1738 
   -1737    -1779    -1799    -1780    -1759    -1741    -1718    -1687 
   -1678    -1701    -1745    -1826    -1895    -1854    -1763    -1761 
   -1776    -1690    -1617    -1661    -1718    -1740    -1787    -1798 
   -1729    -1696    -1726    -1730    -1688    -1618    -1563    -1582 
   -1625    -1653    -1702    -1711    -1642    -1630    -1684    -1679 
   -1684    -1783    -1815    -1748    -1749    -1775    -1683    -1634 
   -1717    -1723    -1659    -1725    -1831    -1814    -1780    -1777 
   -1692    -1579    -1584    -1624    -1588    -1580    -1649    -1694 
   -1728    -1802    -1846    -1838    -1837    -1829    -1817    -1834 
   -1834    -1810    -1825    -1846    -1840    -1848    -1850    -1806 
   -1760    -1717    -1634    -1570    -1561    -1601    -1647    -1624 
   -1579    -1636    -1723    -1723    -1726    -1818    -1931    -2018 
   -2073    -2047    -1921    -1760    -1671    -1656    -1605    -1480 
   -1394    -1416    -1486    -1575    -1695    -1807    -1858    -1892 
   -1929    -1883    -1746    -1653    -1630    -1563    -1486    -1540 
   -1637    -1615    -1584    -1683    -1775    -1756    -1740    -1755 
   -1722    -1678    -1696    -1702    -1641    -1630    -1706    -1759 
   -1772    -1838    -1931    -1941    -1900    -1906    -1879    -1768 
   -1737    -1827    -1883    -1890    -1888    -1815    -1730    -1718 
   -1705    -1676    -1713    -1767    -1757    -1714    -1667    -1613 
   -1622    -1718    -1779    -1729    -1605    -1486    -1498    -1660 
   -1810    -1852    -1861    -1854    -1755    -1633    -1626    -1667 
   -1655    -1626    -1578    -1513    -1522    -1611    -1688    -1732 
   -1761    -1761    -1725    -1695    -1698    -1710    -1718    -1736 
   -1749    -1698    -1603    -1607    -1726    -1795    -1736    -1659 
   -1632    -1605    -1599    -1713    -1854    -1861    -1833    -1896 
   -1930    -1885    -1899    -1964    -1956    -1906    -1919    -1921 
   -1815    -1721    -1744    -1799    -1817    -1807    -1752    -1645 
   -1566    -1572    -1615    -1610    -1529    -1456    -1478    -1586 
   -1733    -1844    -1831    -1765    -1803    -1919    -1952    -1881 
   -1860    -1948    -2041    -2042    -1930    -1723    -1514    -1364 
   -1260    -1215    -1225    -1248    -1275    -1309    -1375    -1533 
   -1707    -1755    -1742    -1795    -1846    -1844    -1840    -1767 
   -1582    -1453    -1449    -1449    -1420    -1452    -1564    -1668 
   -1757    -1891    -2035    -2203    -2527    -2913    -3090    -3067 
   -3024    -2940    -2755    -2558    -2388    -2170    -1861    -1489 
   -1081     -687     -391     -248     -211     -238     -398     -665 
    -853     -930    -1067    -1289    -1466    -1599    -1776    -2002 
   -2266    -2560    -2727    -2673    -2583    -2579    -2593    -2650 
   -2749    -2691    -2450    -2224    -2057    -1912    -1872    -1925 
   -1965    -1993    -1966    -1814    -1559    -1282    -1065     -893 
    -777     -787     -841     -838     -803     -796     -857     -945 
   -1000    -1057    -1151    -1254    -1351    -1459    -1567    -1663 
   -1779    -1934    -2145    -2396    -2605    -2705    -2693    -2567 
   -2328    -2012    -1709    -1513    -1443    -1428    -1409    -1404 
   -1463    -1620    -1829    -1971    -2006    -2006    -2008    -2004 
   -2043    -2134    -2149    -2043    -1949    -1949    -1962    -1921 
   -1830    -1715    -1655    -1686    -1701    -1660    -1668    -1748 
   -1852    -1973    -2069    -2062    -1950    -1823    -1757    -1721 
   -1660    -1584    -1520    -1501    -1575    -1678    -1660    -1528 
   -1417    -1368    -1340    -1325    -1294    -1197    -1086    -1065 
   -1117    -1169    -1250    -1436    -1649    -1802    -1948    -2083 
   -2114    -2095    -2128    -2110    -1969    -1903    -1971    -1944 
   -1836    -1879    -2000    -2034    -2062    -2088    -2025    -1965 
   -2014    -2100    -2091    -1987    -1921    -1917    -1881    -1784 
   -1672    -1599    -1567    -1545    -1514    -1491    -1509    -1534 
   -1528    -1516    -1514    -1466    -1364    -1278    -1240    -1242 
   -1216    -1086     -885     -816    -1016    -1320    -1493    -1601 
   -1790    -1983    -2124    -2309    -2474    -2454    -2380    -2446 
   -2528    -2506    -2474    -2366    -2087    -1827    -1676    -1517 
   -1409    -1475    -1575    -1568    -1549    -1584    -1586    -1537 
   -1485    -1460    -1521    -1642    -1688    -1636    -1593    -1601 
   -1597    -1594    -1691    -1883    -2084    -2282    -2454    -2509 
   -2423    -2266    -2154    -2174    -2258    -2265    -2182    -2070 
   -1952    -1875    -1853    -1773    -1563    -1324    -1097     -799 
    -480     -276     -160      -78     -145     -409     -683     -896 
   -1167    -1476    -1728    -1968    -2214    -2365    -2457    -2562 
   -2600    -2513    -2397    -2311    -2227    -2146    -2072    -1985 
   -1902    -1842    -1764    -1672    -1638    -1655    -1671    -1737 
   -1872    -1979    -2029    -2056    -2018    -1902    -1813    -1791 
   -1775    -1773    -1845    -1934    -1957    -1980    -2057    -2081 
   -1995    -1869    -1723    -1563    -1491    -1506    -1464    -1381 
   -1395    -1491    -1564    -1591    -1583    -1544    -1489    -1468 
   -1512    -1553    -1533    -1468    -1366    -1232    -1158    -1212 
   -1335    -1459    -1598    -1761    -1906    -2011    -2056    -1961 
   -1732    -1543    -1503    -1501    -1471    -1512    -1640    -1795 
   -1969    -2101    -2138    -2160    -2254    -2371    -2401    -2277 
   -2033    -1772    -1580    -1516    -1567    -1644    -1703    -1804 
   -1948    -2042    -2043    -1993    -1914    -1822    -1771    -1745 
   -1692    -1628    -1584    -1547    -1533    -1578    -1602    -1560 
   -1545    -1591    -1611    -1602    -1625    -1676    -1729    -1786 
   -1833    -1856    -1877    -1888    -1841    -1755    -1671    -1555 
   -1395    -1264    -1181    -1123    -1100    -1125    -1204    -1323 
   -1432    -1518    -1624    -1749    -1838    -1869    -1846    -1825 
   -1852    -1898    -1931    -1971    -2046    -2166    -2245    -2201 
   -2112    -2070    -2058    -2034    -1981    -1934    -1953    -2014 
   -2080    -2185    -2300    -2331    -2289    -2223    -2126    -1985 
   -1768    -1471    -1237    -1162    -1123    -1021     -966    -1046 
   -1181    -1312    -1439    -1516    -1534    -1545    -1547    -1495 
   -1421    -1347    -1254    -1210    -1304    -1460    -1576    -1688 
   -1848    -1983    -2043    -2089    -2173    -2265    -2289    -2235 
   -2195    -2215    -2214    -2135    -2049    -2011    -1966    -1880 
   -1799    -1722    -1618    -1520    -1459    -1393    -1301    -1221 
   -1170    -1163    -1263    -1455    -1591    -1615    -1637    -1710 
   -1748    -1730    -1732    -1711    -1615    -1537    -1526    -1552 
   -1624    -1761    -1957    -2184    -2403    -2609    -2768    -2791 
   -2678    -2546    -2415    -2197    -1934    -1723    -1530    -1310 
   -1151    -1081    -1001     -920     -938    -1032    -1102    -1142 
   -1220    -1363    -1541    -1709    -1833    -1922    -1985    -2012 
   -2008    -1957    -1846    -1706    -1578    -1455    -1320    -1242 
   -1255    -1290    -1336    -1471    -1656    -1782    -1883    -2004 
   -2083    -2115    -2147    -2150    -2084    -2008    -1976    -1975 
   -2015    -2089    -2146    -2174    -2199    -2189    -2111    -2018 
   -1937    -1814    -1695    -1679    -1702    -1694    -1706    -1737 
   -1737    -1734    -1741    -1691    -1586    -1478    -1381    -1318 
   -1317    -1333    -1321    -1312    -1337    -1367    -1399    -1464 
   -1524    -1567    -1663    -1799    -1881    -1915    -1950    -1961 
   -1925    -1884    -1865    -1827    -1752    -1690    -1665    -1636 
   -1601    -1594    -1591    -1548    -1509    -1551    -1618    -1641 
   -1684    -1775    -1798    -1737    -1694    -1667    -1626    -1621 
   -1642    -1636    -1624    -1638    -1661    -1726    -1833    -1922 
   -2026    -2192    -2350    -2439    -2457    -2409    -2350    -2305 
   -2220    -2079    -1933    -1798    -1678    -1626    -1648    -1648 
   -1557    -1398    -1247    -1179    -1208    -1266    -1273    -1215 
   -1161    -1185    -1274    -1404    -1552    -1667    -1725    -1736 
   -1686    -1588    -1514    -1503    -1557    -1678    -1831    -1942 
   -1999    -2061    -2137    -2168    -2128    -2037    -1908    -1780 
   -1707    -1701    -1703    -1691    -1678    -1636    -1580    -1594 
   -1676    -1777    -1906    -2038    -2103    -2108    -2110    -2108 
   -2104    -2141    -2176    -2116    -1996    -1899    -1818    -1745 
   -1702    -1660    -1570    -1432    -1296    -1231    -1248    -1267 
   -1260    -1275    -1318    -1360    -1413    -1498    -1574    -1603 
   -1625    -1655    -1665    -1671    -1665    -1624    -1559    -1512 
   -1478    -1439    -1425    -1474    -1582    -1750    -1899    -1911 
   -1860    -1894    -1964    -1992    -2012    -1995    -1899    -1841 
   -1884    -1946    -2003    -2058    -2029    -1921    -1858    -1869 
   -1860    -1799    -1725    -1668    -1638    -1641    -1687    -1759 
   -1780    -1746    -1744    -1765    -1736    -1660    -1609    -1633 
   -1717    -1814    -1890    -1891    -1830    -1838    -1946    -2058 
   -2128    -2142    -2061    -1923    -1806    -1714    -1624    -1541 
   -1490    -1487    -1506    -1499    -1464    -1437    -1453    -1499 
   -1507    -1478    -1471    -1485    -1505    -1556    -1622    -1669 
   -1698    -1723    -1773    -1850    -1902    -1873    -1799    -1765 
   -1780    -1794    -1788    -1773    -1750    -1719    -1691    -1668 
   -1655    -1641    -1613    -1614    -1692    -1761    -1719    -1606 
   -1518    -1521    -1609    -1705    -1794    -1910    -1980    -1968 
   -1975    -1999    -1934    -1826    -1775    -1757    -1738    -1730 
   -1721    -1687    -1656    -1674    -1740    -1804    -1829    -1838 
   -1854    -1845    -1802    -1759    -1705    -1641    -1636    -1696 
   -1730    -1668    -1557    -1460    -1389    -1368    -1433    -1536 
   -1615    -1692    -1794    -1898    -1976    -2023    -2041    -2037 
   -2034    -2023    -1981    -1903    -1794    -1665    -1548    -1447 
   -1371    -1368    -1428    -1490    -1547    -1590    -1607    -1628 
   -1656    -1663    -1684    -1740    -1780    -1803    -1834    -1837 
   -1823    -1838    -1830    -1765    -1749    -1845    -1965    -2029 
   -2029    -1976    -1908    -1857    -1810    -1750    -1710    -1707 
