Origin Time       2024/06/23 22:54:00
Lat.              35.645
Long.             140.060
Depth. (km)       72
Mag.              4.1
Station Code      SIT008
Station Lat.      35.9829
Station Long.     139.7456
Station Height(m) 7
Record Time       2024/06/23 22:54:49
Sampling Freq(Hz) 100Hz
Duration Time(s)  60
Dir.              U-D
Scale Factor      7845(gal)/8223790
Max. Acc. (gal)   0.735
Last Correction   2024/06/23 22:54:49
Memo.             
[...]
   30318    30339    30343    30339    30323    30316    30312    30299 
   30300    30307    30303    30303    30300    30292    30288    30288 
   30298    30308    30314    30322    30325    30329    30335    30322 
   30308    30315    30311    30300    30303    30302    30285    30276 
   30288    30299    30299    30300    30304    30311    30329    30346 
   30353    30339    30314    30298    30276    30260    30265    30271 
   30287    30316    30331    30339    30338    30329    30327    30322 
   30318    30308    30284    30276    30280    30269    30261    30271 
   30287    30312    30339    30338    30315    30306    30314    30314 
   30318    30335    30330    30310    30308    30303    30281    30287 
   30314    30318    30302    30288    30268    30258    30275    30285 
   30289    30307    30326    30325    30306    30280    30257    30248 
   30235    30240    30288    30362    30416    30420    30415    30447 
   30472    30449    30415    30396    30376    30308    30190    30119 
   30160    30210    30176    30160    30267    30393    30400    30349 
   30349    30331    30242    30208    30280    30360    30406    30422 
   30362    30213    30106    30187    30373    30472    30446    30397 
   30362    30267    30134    30121    30260    30442    30539    30445 
   30226    30173    30377    30555    30504    30300    30071    29899 
   29926    30203    30530    30703    30682    30480    30160    29982 
   30099    30269    30322    30392    30438    30349    30230    30105 
   30030    30233    30553    30585    30424    30410    30472    30337 
   30045    29914    30006    30136    30254    30333    30384    30500 
   30564    30515    30450    30310    30140    30098    30171    30310 
   30451    30547    30543    30361    30194    30222    30275    30268 
   30242    30196    30169    30179    30284    30449    30464    30385 
   30354    30237    30110    30272    30547    30481    30226    30308 
   30493    30304    30103    30153    30207    30393    30612    30457 
   30250    30261    30119    29878    29990    30383    30582    30453 
   30300    30310    30375    30377    30330    30389    30453    30302 
   30153    30168    30214    30304    30348    30248    30241    30387 
   30442    30338    30254    30248    30207    30284    30532    30586 
   30456    30391    30283    30121    30072    30098    30159    30321 
   30495    30531    30488    30368    30109    29979    30152    30368 
   30460    30460    30399    30352    30318    30264    30233    30246 
   30275    30256    30217    30303    30407    30375    30348    30338 
   30258    30154    30133    30330    30500    30408    30379    30406 
   30287    30250    30230    30088    30090    30264    30379    30341 
   30269    30357    30470    30385    30268    30325    30449    30404 
   30280    30298    30312    30241    30245    30284    30302    30335 
   30345    30352    30311    30187    30226    30435    30464    30354 
   30360    30345    30188    30123    30261    30400    30464    30500 
   30391    30172    30111    30152    30204    30360    30445    30408 
   30438    30408    30226    30134    30225    30283    30200    30171 
   30322    30456    30407    30284    30258    30308    30300    30233 
   30207    30233    30276    30318    30353    30375    30369    30312 
   30223    30244    30362    30366    30308    30350    30399    30348 
   30253    30256    30315    30253    30159    30222    30348    30375 
   30322    30249    30148    30105    30284    30584    30697    30551 
   30333    30200    30188    30268    30342    30391    30497    30553 
   30427    30245    30144    30136    30188    30246    30331    30422 
   30376    30225    30146    30161    30203    30240    30260    30237 
   30179    30219    30369    30443    30434    30389    30303    30231 
   30196    30275    30461    30523    30442    30346    30279    30281 
   30291    30331    30470    30504    30372    30240    30136    30067 
   30065    30145    30277    30391    30431    30257    29943    29933 
   30222    30434    30586    30707    30661    30495    30249    30040 
   30057    30221    30306    30221    30123    30225    30399    30404 
   30307    30333    30464    30495    30434    30403    30445    30501 
   30389    30273    30473    30593    30311    30040    29933    29884 
   30059    30441    30694    30538    30153    29959    29960    30010 
   30114    30300    30655    30928    30754    30415    30202    30019 
   30003    30242    30480    30576    30485    30223    30029    30021 
   30080    30130    30210    30412    30628    30593    30445    30396 
   30303    30196    30219    30283    30352    30364    30242    30109 
   30056    30152    30326    30256    30037    30150    30495    30588 
   30527    30692    30788    30454    30067    29955    30080    30381 
   30599    30530    30353    30221    30091    30040    30199    30334 
   30265    30292    30416    30468    30520    30365    30067    30122 
   30294    30204    30190    30376    30457    30388    30334    30254 
   30157    30323    30557    30376    30188    30438    30639    30547 
   30483    30504    30478    30312    30040    29860    29789    29821 
   30055    30257    30352    30542    30574    30323    30145    30125 
   30261    30493    30492    30327    30339    30434    30361    30187 
   30210    30465    30561    30335    30075    30003    30169    30399 
   30454    30431    30404    30288    30199    30191    30242    30402 
   30545    30545    30492    30423    30253    30127    30203    30268 
   30267    30318    30235    30073    30184    30396    30319    30203 
   30296    30281    30264    30488    30507    30335    30418    30462 
   30154    29841    29970    30442    30635    30429    30342    30383 
   30284    30283    30437    30538    30684    30708    30288    29840 
   29802    29909    29970    30149    30403    30501    30443    30446 
   30501    30443    30407    30491    30454    30235    29976    29785 
   29830    30049    30229    30451    30653    30649    30577    30485 
   30311    30169    30136    30202    30213    30086    30115    30384 
   30466    30296    30356    30577    30438    30165    30195    30358 
   30424    30319    30145    30099    30126    30218    30370    30372 
   30342    30550    30780    30739    30518    30316    30140    29893 
   29766    30052    30447    30557    30514    30443    30400    30414 
   30248    29988    30013    30329    30573    30473    30362    30511 
   30454    30141    30126    30307    30252    30191    30299    30229 
   30068    30187    30391    30426    30406    30397    30323    30169 
   30111    30219    30262    30240    30315    30296    30121    30149 
   30427    30580    30515    30464    30510    30497    30279    30045 
   30071    30242    30360    30410    30397    30346    30237    30084 
   30029    30129    30366    30593    30557    30333    30237    30345 
   30430    30287    30157    30348    30522    30360    30210    30265 
   30349    30369    30287    30267    30437    30618    30700    30543 
   30175    29918    29756    29724    30046    30346    30248    30156 
   30454    30728    30547    30391    30619    30638    30258    30102 
   30241    30285    30258    30227    30140    30092    30157    30276 
   30325    30330    30465    30611    30646    30649    30411    30032 
   30005    30181    30237    30316    30464    30484    30295    30127 
   30075    29921    29963    30472    30871    30788    30470    30256 
   30321    30453    30348    30014    29814    30048    30306    30179 
   30144    30439    30539    30389    30343    30327    30258    30198 
   30123    30140    30268    30430    30609    30612    30461    30424 
   30435    30411    30434    30357    30117    30007    30161    30360 
   30418    30354    30307    30219    30087    30240    30478    30318 
   30119    30287    30454    30304    30057    30065    30265    30316 
   30277    30388    30416    30284    30353    30489    30419    30406 
   30491    30393    30165    30096    30269    30422    30522    30655 
   30516    30196    30125    30138    30045    30015    30086    30146 
   30171    30269    30466    30642    30750    30700    30419    30133 
   30010    30019    30165    30323    30307    30227    30230    30250 
   30261    30291    30385    30574    30667    30588    30469    30240 
   29994    30065    30254    30218    30195    30342    30339    30225 
   30379    30572    30473    30331    30227    30069    30018    30106 
   30262    30474    30597    30554    30512    30454    30248    30172 
   30292    30186    29987    30076    30210    30152    30118    30354 
   30708    30717    30395    30192    30133    30013    29902    29906 
   30078    30402    30655    30726    30762    30804    30673    30321 
   30048    30075    30198    30206    30218    30393    30550    30461 
   30308    30249    30253    30349    30329    30122    30111    30272 
   30230    30161    30352    30427    30171    30064    30132    30063 
   30192    30511    30478    30325    30397    30434    30399    30431 
   30429    30350    30268    30250    30245    30126    30092    30348 
   30524    30418    30346    30322    30287    30399    30364    30111 
   30169    30376    30326    30304    30400    30402    30343    30218 
   30105    30246    30485    30418    30167    30164    30285    30322 
   30474    30603    30431    30208    30138    30163    30175    30057 
   30034    30326    30543    30388    30198    30227    30323    30393 
   30450    30369    30231    30221    30168    30030    29975    30049 
   30391    30790    30742    30442    30285    30165    30091    30121 
   30165    30280    30465    30624    30686    30512    30238    30159 
   30171    30153    30279    30458    30375    30148    30171    30384 
   30403    30267    30288    30426    30410    30226    30119    30118 
   30148    30389    30672    30538    30221    30184    30225    30148 
   30314    30692    30724    30566    30638    30588    30279    30109 
   30141    30199    30136    29986    30010    30165    30287    30395 
   30469    30487    30434    30354    30377    30427    30298    30040 
   29956    30130    30307    30373    30342    30265    30354    30491 
   30437    30434    30511    30364    30163    30149    30122    30033 
   30140    30322    30261    30183    30284    30315    30334    30437 
   30456    30524    30578    30370    30248    30304    30208    30153 
   30257    30169    30051    30273    30493    30389    30294    30408 
   30520    30416    30230    30310    30423    30179    29994    30194 
   30423    30528    30528    30343    30173    30136    29999    29941 
   30271    30496    30298    30218    30412    30485    30380    30284 
   30327    30487    30596    30538    30373    30350    30453    30319 
   30079    30159    30437    30576    30485    30358    30315    30130 
   29978    30098    30130    30153    30391    30381    30163    30273 
   30501    30396    30223    30306    30304    30122    30177    30349 
   30354    30370    30366    30217    30145    30254    30442    30650 
   30778    30748    30504    30133    29953    29970    29982    30121 
   30262    30117    30067    30330    30431    30312    30300    30291 
   30214    30319    30532    30483    30265    30268    30407    30514 
   30713    30761    30437    30146    30132    30237    30250    30163 
   30262    30496    30519    30395    30252    30200    30353    30454 
   30385    30329    30202    29934    29747    29710    29786    29963 
   30096    30246    30550    30667    30539    30566    30631    30505 
   30422    30441    30433    30431    30400    30315    30341    30446 
   30445    30360    30252    30082    29972    30053    30126    30118 
   30180    30227    30227    30249    30234    30272    30380    30418 
   30453    30431    30276    30211    30277    30353    30410    30451 
   30580    30744    30785    30661    30445    30493    30784    30604 
   30052    29953    30071    29855    29737    29933    30090    30206 
   30356    30441    30418    30281    30145    30037    29929    29979 
   30134    30190    30261    30352    30241    30140    30337    30591 
   30693    30720    30673    30566    30426    30300    30252    30218 
   30299    30466    30335    30060    30044    30082    30079    30171 
   30226    30253    30369    30414    30248    30218    30545    30697 
   30489    30373    30389    30442    30511    30493    30491    30546 
   30559    30477    30203    29968    30088    30315    30341    30281 
   30285    30315    30329    30235    30030    29943    29951    29898 
   29922    29987    29933    29972    30261    30534    30568    30573 
   30742    30815    30592    30316    30195    30141    30073    30102 
   30335    30562    30580    30557    30499    30321    30294    30380 
   30235    30140    30373    30449    30167    30057    30227    30291 
   30253    30250    30181    30154    30272    30339    30416    30673 
   30846    30709    30547    30522    30369    30161    30157    30138 
   30034    30090    30237    30350    30449    30518    30611    30693 
   30700    30662    30437    30095    29995    30022    29933    29905 
   30044    30156    30102    29999    29957    29978    30098    30118 
   29917    29910    30144    30229    30229    30288    30311    30343 
   30410    30349    30171    30118    30291    30514    30615    30595 
   30650    30923    31077    30848    30597    30535    30414    30202 
   30175    30350    30403    30289    30252    30187    30076    30150 
   30260    30241    30194    30204    30307    30361    30341    30372 
   30342    30288    30321    30339    30380    30451    30462    30362 
   30241    30387    30643    30663    30650    30593    30326    30195 
   30299    30322    30214    30055    29929    29975    30076    30030 
   29917    29895    29949    30032    30161    30304    30383    30345 
   30300    30380    30389    30318    30411    30492    30414    30362 
   30356    30310    30192    30086    30073    30126    30292    30433 
   30395    30414    30469    30380    30323    30388    30468    30487 
   30447    30423    30454    30485    30414    30277    30186    30144 
   30226    30379    30461    30562    30570    30311    30061    30017 
   30013    30015    30114    30234    30246    30203    30349    30626 
   30655    30578    30636    30508    30184    30028    30015    30003 
   30064    30235    30335    30288    30240    30308    30462    30423 
   30223    30279    30397    30277    30196    30125    29882    29818 
   30105    30365    30392    30402    30516    30599    30588    30555 
   30541    30514    30491    30545    30604    30570    30516    30491 
   30457    30381    30213    30051    30063    30194    30257    30199 
   30176    30245    30225    30140    30160    30184    30123    30141 
   30252    30264    30241    30322    30312    30153    30145    30269 
   30302    30372    30514    30458    30311    30411    30561    30477 
   30438    30564    30507    30275    30184    30198    30148    30118 
   30199    30343    30472    30535    30546    30464    30334    30296 
   30219    30083    30057    30033    30045    30173    30256    30404 
   30562    30441    30288    30252    30169    30107    30171    30303 
   30196    29940    30084    30356    30299    30284    30454    30554 
   30572    30600    30694    30742    30611    30435    30348    30350 
   30368    30289    30114    29964    29979    30133    30242    30180 
   30015    29970    30040    30079    30195    30373    30325    30183 
   30273    30412    30473    30613    30658    30546    30554    30636 
   30593    30414    30194    30123    30179    30168    30159    30250 
   30256    30123    30086    30207    30308    30318    30334    30400 
   30442    30377    30281    30322    30384    30362    30454    30516 
   30366    30345    30429    30335    30257    30252    30187    30165 
   30230    30310    30295    30173    30144    30206    30214    30261 
   30335    30318    30312    30322    30272    30254    30318    30472 
   30569    30458    30410    30472    30393    30326    30389    30397 
   30329    30294    30261    30161    30117    30133    30046    30087 
   30276    30267    30280    30431    30385    30311    30414    30469 
   30474    30472    30402    30392    30372    30183    30079    30159 
   30213    30230    30227    30173    30163    30227    30321    30393 
   30411    30439    30501    30524    30516    30528    30573    30574 
   30468    30327    30173    29979    29948    30203    30357    30106 
   29844    29907    29997    29997    30137    30310    30437    30626 
   30676    30557    30441    30246    30079    30125    30230    30267 
   30306    30483    30696    30653    30419    30208    30096    30144 
   30241    30245    30207    30223    30326    30375    30310    30361 
   30573    30676    30562    30399    30349    30379    30350    30219 
   30114    30172    30287    30288    30229    30148    30052    30083 
   30213    30323    30408    30437    30470    30578    30612    30501 
   30403    30411    30419    30325    30211    30134    30073    30102 
   30167    30111    30048    30088    30075    30017    30068    30079 
   30032    30195    30375    30296    30257    30379    30423    30404 
   30370    30343    30435    30488    30377    30331    30465    30653 
   30735    30650    30464    30323    30322    30294    30207    30326 
   30520    30476    30312    30213    30180    30235    30318    30373 
   30383    30277    30127    30067    30096    30117    30126    30265 
   30419    30343    30312    30518    30588    30499    30504    30403 
   30129    29995    29992    29951    29999    30159    30226    30291 
   30454    30483    30346    30362    30582    30657    30554    30568 
   30573    30403    30337    30472    30528    30366    30150    30119 
   30223    30198    30056    30057    30264    30462    30468    30366 
   30349    30410    30404    30261    30105    30157    30291    30237 
   30117    30022    29933    29987    30057    29998    29982    30024 
   30117    30254    30284    30329    30497    30604    30599    30586 
   30647    30719    30724    30712    30677    30595    30466    30272 
   30183    30215    30055    29820    29924    30196    30272    30262 
   30288    30271    30264    30273    30287    30457    30659    30642 
   30555    30539    30505    30419    30234    30036    29968    29960 
   29979    30068    30154    30218    30273    30233    30202    30361 
   30500    30407    30279    30256    30231    30229    30295    30353 
   30411    30449    30341    30171    30134    30191    30260    30350 
   30414    30406    30345    30257    30271    30403    30410    30287 
   30314    30431    30411    30392    30527    30585    30485    30469 
   30484    30339    30246    30295    30285    30310    30429    30430 
   30346    30346    30376    30329    30223    30132    30033    29905 
   29824    29803    29898    30165    30420    30557    30707    30793 
   30666    30543    30535    30372    30078    29921    29857    29821 
   29866    29933    29991    30117    30315    30427    30385    30389 
   30483    30481    30419    30434    30495    30531    30535    30557 
