Origin Time       2024/06/23 22:54:00
Lat.              35.645
Long.             140.060
Depth. (km)       72
Mag.              4.1
Station Code      SZO011
Station Lat.      35.2129
Station Long.     138.6015
Station Height(m) 195
Record Time       2024/06/23 22:54:48
Sampling Freq(Hz) 100Hz
Duration Time(s)  70
Dir.              E-W
Scale Factor      7845(gal)/8223790
Max. Acc. (gal)   3.389
Last Correction   2024/06/23 22:54:48
Memo.             
[...]
   -8527    -8671    -8707    -8703    -8706    -8726    -8797    -8941 
   -9089    -9140    -9062    -8868    -8602    -8340    -8147    -8066 
   -8147    -8401    -8745    -9038    -9207    -9254    -9185    -8993 
   -8723    -8461    -8260    -8127    -8043    -8013    -8073    -8235 
   -8484    -8788    -9050    -9177    -9177    -9126    -9077    -9045 
   -9004    -8904    -8710    -8422    -8106    -7884    -7839    -7969 
   -8232    -8569    -8905    -9180    -9335    -9312    -9101    -8803 
   -8541    -8383    -8367    -8492    -8679    -8811    -8834    -8756 
   -8599    -8418    -8297    -8283    -8367    -8498    -8640    -8776 
   -8883    -8918    -8862    -8783    -8773    -8837    -8896    -8891 
   -8780    -8541    -8239    -8020    -8013    -8222    -8541    -8839 
   -9038    -9119    -9086    -8939    -8694    -8459    -8363    -8415 
   -8553    -8731    -8885    -8943    -8881    -8723    -8503    -8295 
   -8213    -8318    -8565    -8830    -9016    -9080    -9019    -8870 
   -8665    -8433    -8230    -8108    -8086    -8176    -8351    -8546 
   -8708    -8824    -8924    -9015    -9065    -9058    -9009    -8919 
   -8796    -8689    -8642    -8644    -8640    -8600    -8527    -8442 
   -8370    -8341    -8375    -8473    -8600    -8708    -8780    -8816 
   -8803    -8750    -8708    -8712    -8741    -8758    -8756    -8735 
   -8683    -8592    -8511    -8476    -8457    -8398    -8289    -8168 
   -8136    -8259    -8492    -8789    -9123    -9429    -9609    -9585 
   -9331    -8924    -8509    -8191    -8005    -7970    -8083    -8282 
   -8486    -8657    -8787    -8843    -8819    -8743    -8641    -8549 
   -8515    -8545    -8625    -8761    -8946    -9108    -9165    -9094 
   -8887    -8550    -8186    -7951    -7951    -8168    -8484    -8775 
   -8988    -9092    -9046    -8843    -8548    -8276    -8162    -8266 
   -8546    -8897    -9190    -9313    -9225    -8978    -8685    -8451 
   -8321    -8282    -8295    -8370    -8510    -8644    -8689    -8638 
   -8544    -8476    -8502    -8640    -8830    -8966    -9022    -9040 
   -9009    -8866    -8622    -8357    -8166    -8121    -8240    -8461 
   -8703    -8903    -9012    -9012    -8920    -8754    -8554    -8392 
   -8341    -8417    -8561    -8696    -8776    -8775    -8689    -8567 
   -8476    -8465    -8527    -8621    -8719    -8819    -8911    -8959 
   -8910    -8750    -8575    -8483    -8484    -8523    -8575    -8637 
   -8691    -8708    -8698    -8710    -8756    -8791    -8765    -8662 
   -8526    -8448    -8479    -8583    -8680    -8733    -8772    -8824 
   -8854    -8783    -8567    -8272    -8039    -7959    -8052    -8302 
   -8644    -8953    -9134    -9194    -9184    -9128    -9038    -8930 
   -8824    -8749    -8694    -8613    -8467    -8271    -8102    -8035 
   -8109    -8321    -8626    -8932    -9131    -9178    -9105    -8959 
   -8784    -8629    -8519    -8446    -8398    -8379    -8387    -8394 
   -8401    -8456    -8572    -8708    -8838    -8970    -9090    -9117 
   -8988    -8733    -8436    -8164    -8024    -8131    -8483    -8928 
   -9254    -9333    -9194    -8920    -8606    -8341    -8186    -8154 
   -8247    -8440    -8664    -8842    -8930    -8900    -8768    -8599 
   -8482    -8460    -8525    -8602    -8619    -8599    -8608    -8672 
   -8760    -8843    -8900    -8873    -8699    -8429    -8221    -8178 
   -8297    -8529    -8816    -9094    -9312    -9416    -9319    -8977 
   -8505    -8106    -7924    -8001    -8299    -8680    -8978    -9101 
   -9035    -8831    -8563    -8297    -8108    -8064    -8172    -8395 
   -8687    -8959    -9104    -9086    -8961    -8818    -8731    -8719 
   -8761    -8808    -8800    -8707    -8537    -8321    -8132    -8067 
   -8174    -8414    -8711    -9005    -9225    -9290    -9162    -8877 
   -8563    -8359    -8298    -8313    -8359    -8425    -8494    -8598 
   -8766    -8916    -8946    -8864    -8739    -8633    -8563    -8546 
   -8587    -8637    -8650    -8630    -8603    -8579    -8550    -8536 
   -8561    -8611    -8634    -8626    -8645    -8726    -8837    -8930 
   -8991    -9024    -8995    -8865    -8657    -8421    -8203    -8067 
   -8081    -8259    -8560    -8892    -9104    -9074    -8839    -8549 
   -8336    -8274    -8378    -8587    -8814    -8999    -9088    -9049 
   -8904    -8696    -8464    -8278    -8199    -8226    -8333    -8503 
   -8694    -8854    -8976    -9047    -9035    -8912    -8703    -8487 
   -8357    -8375    -8536    -8749    -8911    -8958    -8865    -8669 
   -8457    -8297    -8206    -8212    -8332    -8534    -8735    -8874 
   -8923    -8884    -8811    -8764    -8754    -8760    -8761    -8760 
   -8748    -8702    -8617    -8515    -8425    -8379    -8397    -8480 
   -8615    -8746    -8839    -8899    -8926    -8896    -8780    -8602 
   -8438    -8326    -8262    -8251    -8309    -8417    -8544    -8685 
   -8857    -9038    -9173    -9217    -9130    -8891    -8557    -8253 
   -8122    -8221    -8482    -8779    -8982    -9008    -8884    -8704 
   -8534    -8398    -8325    -8334    -8398    -8476    -8565    -8658 
   -8745    -8835    -8922    -8961    -8930    -8833    -8702    -8591 
   -8532    -8532    -8583    -8649    -8695    -8703    -8649    -8513 
   -8329    -8201    -8218    -8386    -8644    -8932    -9180    -9294 
   -9235    -9031    -8748    -8455    -8235    -8168    -8272    -8476 
   -8671    -8791    -8814    -8741    -8610    -8496    -8469    -8542 
   -8679    -8841    -8981    -9030    -8938    -8739    -8517    -8341 
   -8247    -8264    -8398    -8588    -8743    -8820    -8849    -8850 
   -8803    -8723    -8642    -8560    -8488    -8476    -8559    -8702 
   -8834    -8904    -8892    -8807    -8683    -8541    -8388    -8274 
   -8267    -8368    -8511    -8662    -8838    -9026    -9153    -9161 
   -9039    -8822    -8569    -8347    -8226    -8257    -8415    -8606 
   -8730    -8737    -8635    -8488    -8357    -8286    -8333    -8540 
   -8845    -9123    -9266    -9217    -9012    -8765    -8572    -8473 
   -8453    -8463    -8461    -8451    -8442    -8457    -8536    -8672 
   -8780    -8793    -8729    -8641    -8590    -8614    -8700    -8802 
   -8883    -8900    -8823    -8679    -8523    -8391    -8316    -8352 
   -8502    -8687    -8822    -8861    -8780    -8598    -8415    -8355 
   -8468    -8692    -8899    -9005    -9007    -8932    -8799    -8607 
   -8386    -8222    -8195    -8301    -8473    -8656    -8802    -8884 
   -8908    -8900    -8880    -8864    -8846    -8797    -8714    -8626 
   -8557    -8509    -8461    -8394    -8313    -8270    -8320    -8484 
   -8707    -8899    -9008    -9036    -8991    -8870    -8692    -8513 
   -8399    -8397    -8499    -8650    -8779    -8826    -8777    -8649 
   -8491    -8379    -8348    -8401    -8533    -8727    -8927    -9051 
   -9047    -8938    -8799    -8681    -8575    -8457    -8367    -8371 
   -8491    -8677    -8826    -8856    -8764    -8625    -8523    -8496 
   -8510    -8522    -8517    -8518    -8537    -8573    -8629    -8704 
   -8789    -8860    -8912    -8968    -9003    -8953    -8784    -8536 
   -8320    -8233    -8301    -8488    -8706    -8834    -8818    -8698 
   -8540    -8402    -8345    -8409    -8573    -8787    -8981    -9074 
   -9016    -8822    -8568    -8359    -8280    -8355    -8541    -8781 
   -8999    -9090    -9011    -8800    -8532    -8280    -8121    -8110 
   -8268    -8546    -8854    -9126    -9316    -9354    -9158    -8750 
   -8297    -7975    -7851    -7923    -8171    -8523    -8885    -9188 
   -9340    -9273    -9016    -8704    -8456    -8326    -8320    -8380 
   -8436    -8478    -8556    -8687    -8830    -8943    -8995    -8953 
   -8833    -8684    -8540    -8440    -8401    -8401    -8434    -8515 
   -8617    -8691    -8714    -8711    -8696    -8652    -8561    -8475 
   -8484    -8646    -8896    -9108    -9204    -9144    -8939    -8656 
   -8386    -8206    -8159    -8252    -8440    -8634    -8758    -8780 
   -8702    -8571    -8471    -8459    -8537    -8687    -8897    -9121 
   -9239    -9159    -8899    -8534    -8189    -7998    -8010    -8181 
   -8436    -8696    -8888    -8968    -8923    -8772    -8586    -8461 
   -8469    -8615    -8841    -9026    -9084    -9020    -8861    -8634 
   -8399    -8212    -8128    -8216    -8456    -8742    -8974    -9080 
   -9027    -8861    -8664    -8511    -8469    -8565    -8737    -8850 
   -8826    -8688    -8494    -8299    -8179    -8170    -8259    -8406 
   -8565    -8723    -8884    -9015    -9074    -9055    -8988    -8905 
   -8830    -8743    -8622    -8476    -8352    -8283    -8293    -8378 
   -8513    -8681    -8865    -8996    -8997    -8868    -8673    -8484 
   -8359    -8348    -8461    -8656    -8851    -8959    -8932    -8791 
   -8606    -8448    -8359    -8340    -8367    -8429    -8541    -8708 
   -8901    -9062    -9099    -8977    -8779    -8622    -8541    -8486 
   -8418    -8352    -8322    -8349    -8437    -8567    -8722    -8874 
   -8992    -9053    -9055    -8989    -8847    -8660    -8469    -8314 
   -8235    -8253    -8372    -8553    -8715    -8792    -8787    -8741 
   -8681    -8627    -8613    -8621    -8610    -8599    -8625    -8685 
   -8768    -8841    -8870    -8829    -8733    -8627    -8536    -8448 
   -8376    -8357    -8405    -8506    -8646    -8800    -8927    -8999 
   -9023    -8993    -8877    -8695    -8522    -8422    -8397    -8426 
   -8506    -8610    -8694    -8727    -8725    -8688    -8595    -8471 
   -8403    -8440    -8541    -8645    -8746    -8864    -8978    -9038 
   -8986    -8824    -8587    -8340    -8174    -8154    -8262    -8455 
   -8677    -8858    -8942    -8920    -8820    -8685    -8561    -8496 
   -8526    -8649    -8803    -8903    -8916    -8849    -8722    -8588 
   -8509    -8486    -8495    -8527    -8576    -8615    -8642    -8669 
   -8703    -8727    -8723    -8689    -8640    -8591    -8580    -8633 
   -8707    -8721    -8656    -8569    -8502    -8464    -8456    -8480 
   -8544    -8637    -8742    -8819    -8837    -8802    -8754    -8734 
   -8757    -8814    -8865    -8846    -8722    -8536    -8375    -8303 
   -8317    -8399    -8545    -8710    -8826    -8881    -8873    -8762 
   -8577    -8430    -8405    -8487    -8625    -8753    -8830    -8851 
   -8819    -8734    -8595    -8442    -8363    -8424    -8607    -8833 
   -9009    -9082    -9035    -8865    -8606    -8347    -8193    -8199 
   -8364    -8634    -8900    -9046    -9003    -8781    -8478    -8214 
   -8090    -8175    -8464    -8850    -9170    -9304    -9219    -8961 
   -8622    -8318    -8160    -8190    -8344    -8529    -8691    -8795 
   -8806    -8734    -8656    -8645    -8706    -8797    -8869    -8883 
   -8837    -8738    -8588    -8426    -8338    -8376    -8529    -8731 
   -8900    -8965    -8914    -8780    -8599    -8394    -8208    -8109 
   -8141    -8297    -8540    -8804    -9031    -9173    -9200    -9128 
   -9013    -8876    -8711    -8537    -8375    -8257    -8226    -8295 
   -8440    -8621    -8788    -8897    -8928    -8900    -8820    -8694 
   -8536    -8397    -8329    -8360    -8487    -8668    -8818    -8883 
   -8874    -8806    -8684    -8556    -8476    -8455    -8480    -8554 
   -8648    -8699    -8695    -8684    -8710    -8758    -8791    -8787 
   -8746    -8685    -8634    -8604    -8581    -8573    -8602    -8625 
   -8594    -8514    -8417    -8322    -8278    -8356    -8595    -8930 
   -9229    -9389    -9350    -9104    -8719    -8326    -8075    -8023 
   -8118    -8311    -8579    -8856    -9042    -9067    -8924    -8698 
   -8492    -8368    -8334    -8395    -8567    -8816    -9040    -9127 
   -9036    -8835    -8623    -8448    -8321    -8251    -8245    -8325 
   -8492    -8700    -8878    -8982    -9013    -8986    -8878    -8669 
   -8409    -8214    -8172    -8280    -8500    -8781    -9032    -9159 
   -9126    -8949    -8684    -8432    -8298    -8305    -8383    -8465 
   -8550    -8668    -8804    -8907    -8957    -8970    -8926    -8784 
   -8572    -8357    -8172    -8051    -8089    -8351    -8765    -9184 
   -9452    -9463    -9198    -8758    -8289    -7927    -7784    -7897 
   -8255    -8799    -9367    -9728    -9705    -9292    -8644    -7974 
   -7460    -7233    -7371    -7873    -8649    -9471   -10062   -10245 
   -9995    -9413    -8679    -8000    -7545    -7425    -7681    -8226 
   -8856    -9370    -9652    -9624    -9294    -8779    -8233    -7811 
   -7626    -7738    -8137    -8716    -9288    -9657    -9702    -9394 
   -8808    -8108    -7535    -7271    -7381    -7858    -8594    -9354 
   -9888   -10044    -9823    -9360    -8815    -8303    -7924    -7747 
   -7778    -8005    -8407    -8889    -9300    -9518    -9508    -9265 
   -8795    -8189    -7650    -7368    -7433    -7850    -8529    -9256 
   -9752    -9832    -9521    -8993    -8437    -8037    -7935    -8122 
   -8473    -8878    -9229    -9360    -9174    -8752    -8266    -7865 
   -7685    -7838    -8333    -9012    -9621    -9999   -10111    -9950 
   -9518    -8868    -8118    -7447    -7030    -6994    -7371    -8058 
   -8839    -9463    -9734    -9587    -9081    -8352    -7604    -7086 
   -6990    -7342    -8033    -8895    -9730   -10332   -10592   -10548 
  -10295    -9864    -9293    -8702    -8272    -8131    -8249    -8475 
   -8618    -8540    -8205    -7668    -7047    -6511    -6226    -6309 
   -6813    -7727    -8972   -10353   -11547   -12201   -12082   -11223 
   -9921    -8561    -7493    -6951    -7002    -7547    -8348    -9099 
   -9512    -9436    -8923    -8181    -7492    -7109    -7132    -7510 
   -8132    -8823    -9358    -9578    -9497    -9239    -8926    -8641 
   -8473    -8480    -8614    -8777    -8910    -9009    -9084    -9096 
   -8996    -8793    -8540    -8278    -8043    -7874    -7824    -7973 
   -8349    -8868    -9344    -9612    -9606    -9337    -8861    -8333 
   -7993    -8031    -8432    -8964    -9343    -9404    -9092    -8440 
   -7612    -6894    -6615    -6987    -7981    -9309   -10542   -11296 
  -11362   -10692    -9436    -7962    -6714    -6042    -6106    -6851 
   -8035    -9312   -10350   -10902   -10817   -10064    -8837    -7554 
   -6681    -6471    -6895    -7754    -8775    -9655   -10139   -10137 
   -9721    -9067    -8409    -7975    -7901    -8149    -8557    -8950 
   -9224    -9344    -9300    -9074    -8688    -8253    -7923    -7790 
   -7828    -7946    -8124    -8433    -8895    -9406    -9783    -9863 
   -9605    -9117    -8553    -8066    -7789    -7804    -8090    -8536 
   -8964    -9192    -9105    -8715    -8198    -7816    -7753    -8017 
   -8490    -9020    -9451    -9648    -9556    -9236    -8820    -8430 
   -8132    -7931    -7825    -7840    -7993    -8236    -8468    -8614 
   -8700    -8812    -8982    -9194    -9435    -9671    -9836    -9887 
   -9813    -9599    -9259    -8818    -8324    -7840    -7431    -7160 
   -7098    -7241    -7497    -7771    -8054    -8383    -8764    -9126 
   -9386    -9493    -9427    -9235    -9051    -8991    -9055    -9178 
   -9292    -9310    -9161    -8851    -8461    -8079    -7781    -7619 
   -7596    -7668    -7817    -8087    -8506    -9020    -9514    -9846 
   -9903    -9643    -9136    -8564    -8095    -7827    -7808    -8020 
   -8374    -8766    -9103    -9286    -9248    -8964    -8498    -8031 
   -7751    -7734    -7942    -8310    -8781    -9293    -9763   -10064 
  -10062    -9706    -9081    -8384    -7840    -7574    -7591    -7830 
   -8221    -8664    -9050    -9262    -9231    -8993    -8675    -8413 
   -8299    -8332    -8441    -8552    -8625    -8664    -8679    -8657 
   -8595    -8507    -8409    -8311    -8235    -8218    -8297    -8465 
   -8696    -8964    -9248    -9495    -9624    -9583    -9364    -8992 
   -8522    -8056    -7727    -7647    -7859    -8313    -8843    -9243 
   -9344    -9108    -8641    -8147    -7834    -7813    -8043    -8361 
   -8635    -8827    -8945    -9036    -9171    -9329    -9401    -9332 
   -9143    -8896    -8677    -8554    -8546    -8618    -8708    -8750 
   -8691    -8525    -8294    -8050    -7861    -7825    -7981    -8267 
   -8600    -8885    -9039    -9039    -8912    -8727    -8579    -8522 
   -8563    -8710    -8961    -9240    -9405    -9336    -9034    -8615 
   -8226    -7969    -7884    -7948    -8101    -8283    -8461    -8622 
   -8752    -8851    -8947    -9067    -9211    -9347    -9432    -9416 
   -9240    -8881    -8390    -7916    -7614    -7555    -7712    -8023 
   -8424    -8831    -9138    -9252    -9173    -8974    -8731    -8490 
   -8307    -8252    -8365    -8595    -8819    -8951    -8964    -8891 
   -8808    -8752    -8691    -8621    -8548    -8483    -8437    -8410 
   -8405    -8441    -8533    -8667    -8792    -8858    -8860    -8827 
   -8784    -8745    -8730    -8754    -8818    -8904    -8989    -9040 
   -9001    -8831    -8563    -8284    -8082    -8000    -8032    -8168 
   -8387    -8646    -8892    -9072    -9144    -9099    -8959    -8785 
   -8623    -8494    -8403    -8360    -8368    -8414    -8478    -8541 
   -8621    -8742    -8874    -8946    -8895    -8718    -8491    -8316 
   -8235    -8235    -8313    -8494    -8789    -9159    -9490    -9630 
   -9491    -9109    -8630    -8197    -7879    -7695    -7678    -7877 
   -8259    -8696    -9031    -9169    -9128    -8995    -8847    -8718 
   -8604    -8518    -8500    -8607    -8849    -9134    -9304    -9238 
   -8919    -8436    -7946    -7620    -7580    -7850    -8388    -9077 
   -9694   -10015    -9921    -9439    -8738    -8044    -7553    -7406 
   -7632    -8114    -8656    -9069    -9240    -9143    -8829    -8436 
   -8120    -7977    -8032    -8274    -8662    -9113    -9502    -9710 
   -9697    -9495    -9147    -8687    -8203    -7836    -7707    -7862 
   -8263    -8789    -9265    -9526    -9490    -9167    -8673    -8183 
   -7848    -7753    -7898    -8191    -8506    -8758    -8903    -8926 
   -8866    -8773    -8667    -8572    -8538    -8575    -8633    -8648 
   -8606    -8536    -8490    -8529    -8680    -8891    -9066    -9140 
   -9104    -8974    -8802    -8635    -8507    -8441    -8476    -8608 
   -8766    -8843    -8772    -8557    -8290    -8101    -8066    -8189 
   -8429    -8726    -8991    -9124    -9050    -8766    -8370    -8017 
   -7854    -7959    -8313    -8799    -9267    -9618    -9790    -9730 
   -9440    -8988    -8490    -8101    -7944    -8029    -8275    -8588 
   -8883    -9072    -9105    -8985    -8750    -8453    -8166    -7985 
   -7985    -8170    -8467    -8773    -8976    -9020    -8918    -8703 
   -8410    -8090    -7854    -7843    -8118    -8625    -9234    -9791 
  -10134   -10129    -9728    -9039    -8271    -7632    -7256    -7211 
   -7501    -8059    -8753    -9412    -9857    -9967    -9725    -9227 
   -8613    -8024    -7601    -7454    -7632    -8097    -8694    -9204 
   -9483    -9521    -9390    -9170    -8932    -8712    -8514    -8344 
   -8199    -8067    -7977    -7992    -8136    -8402    -8743    -9070 
   -9300    -9369    -9242    -8955    -8587    -8241    -8031    -8020 
   -8194    -8482    -8784    -9022    -9138    -9113    -8981    -8788 
   -8588    -8445    -8419    -8523    -8733    -8985    -9173    -9200 
