Origin Time       2024/06/23 22:54:00
Lat.              35.645
Long.             140.060
Depth. (km)       72
Mag.              4.1
Station Code      SZO011
Station Lat.      35.2129
Station Long.     138.6015
Station Height(m) 195
Record Time       2024/06/23 22:54:48
Sampling Freq(Hz) 100Hz
Duration Time(s)  70
Dir.              N-S
Scale Factor      7845(gal)/8223790
Max. Acc. (gal)   1.402
Last Correction   2024/06/23 22:54:48
Memo.             
[...]
   -4263    -4341    -4444    -4534    -4565    -4514    -4398    -4259 
   -4166    -4186    -4321    -4510    -4657    -4703    -4664    -4579 
   -4453    -4303    -4179    -4118    -4135    -4214    -4325    -4429 
   -4482    -4464    -4432    -4460    -4538    -4604    -4634    -4631 
   -4625    -4615    -4577    -4511    -4445    -4367    -4245    -4099 
   -4028    -4116    -4324    -4525    -4658    -4745    -4753    -4623 
   -4407    -4222    -4113    -4089    -4176    -4351    -4533    -4650 
   -4642    -4498    -4305    -4182    -4179    -4287    -4467    -4649 
   -4745    -4723    -4625    -4510    -4428    -4396    -4419    -4499 
   -4594    -4631    -4567    -4392    -4164    -4001    -3963    -4029 
   -4164    -4305    -4390    -4414    -4410    -4429    -4507    -4634 
   -4750    -4784    -4716    -4604    -4515    -4484    -4495    -4475 
   -4367    -4213    -4126    -4167    -4288    -4407    -4503    -4584 
   -4623    -4585    -4491    -4401    -4348    -4328    -4345    -4422 
   -4529    -4603    -4576    -4429    -4248    -4144    -4140    -4225 
   -4372    -4514    -4592    -4592    -4536    -4468    -4422    -4392 
   -4365    -4334    -4306    -4313    -4382    -4509    -4646    -4719 
   -4673    -4531    -4369    -4261    -4245    -4333    -4460    -4525 
   -4487    -4378    -4256    -4187    -4195    -4278    -4417    -4572 
   -4684    -4691    -4548    -4282    -4023    -3940    -4126    -4500 
   -4877    -5117    -5186    -5070    -4769    -4363    -4006    -3816 
   -3820    -3997    -4259    -4491    -4621    -4623    -4509    -4336 
   -4193    -4151    -4248    -4422    -4550    -4573    -4530    -4464 
   -4410    -4388    -4374    -4361    -4383    -4446    -4550    -4693 
   -4810    -4807    -4693    -4558    -4440    -4320    -4201    -4125 
   -4135    -4228    -4369    -4513    -4599    -4576    -4434    -4234 
   -4078    -4044    -4147    -4330    -4504    -4612    -4650    -4623 
   -4537    -4445    -4433    -4538    -4695    -4777    -4698    -4488 
   -4284    -4207    -4255    -4329    -4353    -4311    -4244    -4201 
   -4190    -4205    -4275    -4422    -4619    -4831    -5003    -5031 
   -4853    -4534    -4225    -4060    -4071    -4176    -4293    -4382 
   -4415    -4392    -4347    -4311    -4305    -4311    -4305    -4309 
   -4368    -4461    -4526    -4519    -4453    -4384    -4380    -4453 
   -4590    -4774    -4931    -4942    -4777    -4515    -4256    -4055 
   -3950    -3970    -4108    -4328    -4563    -4720    -4731    -4599 
   -4383    -4193    -4121    -4183    -4337    -4511    -4626    -4649 
   -4612    -4546    -4448    -4325    -4233    -4240    -4348    -4488 
   -4564    -4529    -4423    -4325    -4305    -4380    -4507    -4626 
   -4677    -4602    -4394    -4152    -4020    -4051    -4198    -4398 
   -4618    -4784    -4800    -4622    -4347    -4160    -4166    -4309 
   -4476    -4584    -4621    -4615    -4590    -4533    -4433    -4324 
   -4251    -4241    -4302    -4426    -4577    -4652    -4567    -4392 
   -4257    -4224    -4272    -4349    -4413    -4463    -4506    -4537 
   -4552    -4531    -4453    -4357    -4320    -4364    -4433    -4467 
   -4438    -4353    -4249    -4205    -4257    -4347    -4391    -4399 
   -4449    -4583    -4765    -4920    -4951    -4781    -4450    -4131 
   -3991    -4068    -4259    -4432    -4517    -4522    -4500    -4488 
   -4457    -4364    -4241    -4164    -4190    -4317    -4484    -4602 
   -4608    -4515    -4401    -4329    -4315    -4347    -4406    -4499 
   -4634    -4770    -4835    -4796    -4660    -4444    -4206    -4062 
   -4059    -4144    -4232    -4287    -4324    -4356    -4374    -4386 
   -4445    -4557    -4644    -4642    -4556    -4428    -4326    -4328 
   -4422    -4537    -4618    -4631    -4550    -4430    -4357    -4364 
   -4406    -4410    -4357    -4310    -4325    -4384    -4430    -4429 
   -4374    -4302    -4275    -4324    -4430    -4554    -4642    -4665 
   -4639    -4592    -4502    -4341    -4152    -4018    -3986    -4058 
   -4217    -4438    -4669    -4843    -4909    -4841    -4629    -4338 
   -4108    -4051    -4179    -4429    -4703    -4881    -4873    -4692 
   -4428    -4180    -4047    -4070    -4210    -4390    -4554    -4660 
   -4652    -4506    -4274    -4081    -4024    -4113    -4301    -4517 
   -4683    -4747    -4716    -4639    -4575    -4525    -4445    -4325 
   -4209    -4151    -4162    -4232    -4348    -4486    -4591    -4607 
   -4554    -4500    -4490    -4510    -4513    -4471    -4411    -4363 
   -4307    -4239    -4191    -4207    -4286    -4384    -4467    -4529 
   -4585    -4627    -4635    -4607    -4538    -4452    -4395    -4396 
   -4444    -4507    -4554    -4556    -4506    -4430    -4352    -4279 
   -4220    -4199    -4240    -4311    -4361    -4353    -4303    -4264 
   -4261    -4309    -4411    -4549    -4675    -4741    -4738    -4692 
   -4615    -4488    -4337    -4241    -4255    -4367    -4502    -4560 
   -4513    -4415    -4321    -4251    -4225    -4253    -4309    -4361 
   -4428    -4523    -4602    -4599    -4506    -4388    -4340    -4375 
   -4433    -4477    -4514    -4544    -4554    -4540    -4502    -4444 
   -4368    -4288    -4243    -4263    -4334    -4417    -4463    -4446 
   -4382    -4321    -4314    -4380    -4502    -4615    -4661    -4630 
   -4550    -4457    -4401    -4396    -4401    -4369    -4317    -4279 
   -4288    -4345    -4407    -4464    -4515    -4534    -4503    -4442 
   -4380    -4345    -4348    -4374    -4401    -4430    -4473    -4519 
   -4553    -4581    -4595    -4564    -4455    -4282    -4113    -4035 
   -4089    -4252    -4473    -4688    -4838    -4880    -4773    -4529 
   -4245    -4048    -3998    -4091    -4276    -4477    -4642    -4743 
   -4769    -4703    -4552    -4356    -4167    -4050    -4066    -4226 
   -4445    -4598    -4623    -4554    -4471    -4429    -4426    -4429 
   -4418    -4409    -4432    -4491    -4561    -4596    -4545    -4407 
   -4257    -4194    -4234    -4320    -4406    -4473    -4494    -4482 
   -4482    -4494    -4482    -4434    -4380    -4349    -4357    -4399 
   -4457    -4513    -4538    -4530    -4509    -4482    -4425    -4341 
   -4280    -4294    -4378    -4483    -4545    -4540    -4499    -4453 
   -4392    -4314    -4240    -4199    -4206    -4261    -4363    -4494 
   -4603    -4652    -4631    -4558    -4467    -4405    -4392    -4423 
   -4475    -4498    -4464    -4383    -4309    -4303    -4378    -4479 
   -4544    -4549    -4504    -4442    -4372    -4293    -4247    -4260 
   -4328    -4426    -4515    -4557    -4541    -4463    -4353    -4275 
   -4271    -4342    -4469    -4595    -4637    -4557    -4417    -4320 
   -4310    -4361    -4430    -4477    -4488    -4465    -4426    -4384 
   -4340    -4317    -4344    -4423    -4526    -4610    -4637    -4627 
   -4606    -4534    -4394    -4240    -4125    -4081    -4120    -4221 
   -4367    -4548    -4695    -4725    -4623    -4456    -4314    -4263 
   -4297    -4388    -4527    -4671    -4726    -4635    -4434    -4220 
   -4079    -4066    -4183    -4405    -4664    -4865    -4939    -4846 
   -4596    -4284    -4028    -3896    -3916    -4093    -4374    -4650 
   -4827    -4842    -4693    -4459    -4230    -4089    -4077    -4178 
   -4332    -4477    -4587    -4657    -4681    -4654    -4588    -4498 
   -4392    -4301    -4255    -4264    -4318    -4388    -4459    -4530 
   -4579    -4550    -4432    -4291    -4224    -4264    -4378    -4483 
   -4529    -4519    -4496    -4471    -4434    -4394    -4372    -4365 
   -4347    -4321    -4317    -4352    -4428    -4503    -4534    -4527 
   -4519    -4531    -4542    -4523    -4459    -4374    -4333    -4353 
   -4394    -4405    -4379    -4345    -4328    -4333    -4355    -4382 
   -4433    -4502    -4550    -4556    -4515    -4448    -4390    -4355 
   -4345    -4363    -4398    -4432    -4464    -4506    -4538    -4522 
   -4472    -4421    -4359    -4287    -4261    -4320    -4449    -4600 
   -4687    -4662    -4564    -4446    -4345    -4263    -4197    -4172 
   -4213    -4295    -4391    -4486    -4560    -4596    -4581    -4529 
   -4473    -4444    -4440    -4434    -4428    -4437    -4448    -4442 
   -4422    -4390    -4348    -4332    -4360    -4430    -4510    -4548 
   -4510    -4428    -4359    -4336    -4344    -4378    -4450    -4552 
   -4623    -4610    -4504    -4357    -4241    -4202    -4234    -4297 
   -4349    -4375    -4390    -4432    -4502    -4571    -4608    -4602 
   -4557    -4482    -4391    -4311    -4261    -4245    -4261    -4307 
   -4378    -4456    -4521    -4536    -4475    -4376    -4317    -4336 
   -4433    -4567    -4676    -4712    -4666    -4571    -4469    -4387 
   -4320    -4271    -4255    -4297    -4413    -4553    -4635    -4600 
   -4459    -4291    -4180    -4163    -4232    -4347    -4444    -4492 
   -4509    -4511    -4507    -4504    -4511    -4517    -4506    -4446 
   -4320    -4166    -4067    -4085    -4234    -4452    -4626    -4691 
   -4666    -4592    -4491    -4399    -4364    -4383    -4409    -4417 
   -4429    -4461    -4509    -4546    -4544    -4503    -4440    -4365 
   -4301    -4275    -4313    -4417    -4529    -4584    -4590    -4577 
   -4554    -4495    -4384    -4245    -4133    -4082    -4108    -4232 
   -4450    -4685    -4826    -4820    -4688    -4484    -4290    -4162 
   -4104    -4124    -4229    -4383    -4515    -4583    -4590    -4561 
   -4517    -4464    -4413    -4386    -4384    -4384    -4376    -4368 
   -4372    -4417    -4500    -4561    -4545    -4473    -4394    -4348 
   -4371    -4432    -4456    -4415    -4364    -4357    -4413    -4506 
   -4580    -4583    -4537    -4488    -4446    -4409    -4391    -4396 
   -4401    -4388    -4376    -4376    -4382    -4376    -4349    -4307 
   -4276    -4284    -4359    -4494    -4646    -4741    -4712    -4567 
   -4369    -4207    -4140    -4172    -4293    -4472    -4652    -4718 
   -4612    -4402    -4206    -4116    -4166    -4324    -4514    -4658 
   -4711    -4680    -4594    -4476    -4348    -4230    -4144    -4117 
   -4187    -4363    -4587    -4761    -4820    -4758    -4600    -4380 
   -4172    -4066    -4108    -4271    -4472    -4635    -4720    -4704 
   -4590    -4410    -4229    -4125    -4137    -4232    -4342    -4434 
   -4498    -4531    -4525    -4480    -4430    -4403    -4403    -4423 
   -4448    -4450    -4430    -4415    -4436    -4491    -4558    -4607 
   -4607    -4557    -4464    -4340    -4225    -4174    -4212    -4313 
   -4425    -4511    -4549    -4530    -4490    -4468    -4452    -4417 
   -4379    -4384    -4450    -4518    -4513    -4437    -4345    -4275 
   -4252    -4287    -4363    -4436    -4463    -4450    -4442    -4442 
   -4430    -4415    -4422    -4442    -4463    -4482    -4471    -4415 
   -4349    -4329    -4380    -4469    -4540    -4565    -4552    -4514 
   -4475    -4433    -4386    -4344    -4318    -4313    -4328    -4383 
   -4496    -4648    -4772    -4788    -4684    -4507    -4303    -4109 
   -3960    -3913    -3996    -4182    -4415    -4630    -4774    -4833 
   -4788    -4645    -4460    -4307    -4212    -4168    -4195    -4321 
   -4518    -4689    -4729    -4629    -4477    -4360    -4301    -4286 
   -4307    -4363    -4422    -4455    -4441    -4374    -4284    -4229 
   -4252    -4352    -4469    -4561    -4619    -4610    -4523    -4433 
   -4403    -4401    -4383    -4367    -4383    -4423    -4455    -4463 
   -4486    -4561    -4633    -4619    -4515    -4368    -4216    -4097 
   -4052    -4118    -4294    -4522    -4735    -4887    -4915    -4777 
   -4513    -4232    -4027    -3952    -4017    -4176    -4361    -4530 
   -4683    -4808    -4830    -4677    -4399    -4168    -4110    -4183 
   -4284    -4403    -4542    -4641    -4654    -4594    -4487    -4360 
   -4251    -4203    -4207    -4209    -4189    -4194    -4287    -4469 
   -4662    -4766    -4730    -4581    -4406    -4279    -4263    -4387 
   -4608    -4819    -4908    -4846    -4685    -4491    -4270    -4018 
   -3815    -3771    -3902    -4121    -4360    -4598    -4808    -4939 
   -4949    -4845    -4661    -4425    -4176    -3970    -3855    -3862 
   -3994    -4233    -4541    -4853    -5069    -5098    -4924    -4627 
   -4333    -4164    -4175    -4314    -4518    -4739    -4877    -4850 
   -4696    -4491    -4276    -4077    -3898    -3754    -3705    -3827 
   -4112    -4430    -4644    -4723    -4718    -4664    -4552    -4391 
   -4274    -4305    -4464    -4639    -4750    -4765    -4692    -4552 
   -4353    -4102    -3843    -3682    -3744    -4082    -4606    -5121 
   -5428    -5425    -5169    -4796    -4406    -4058    -3811    -3689 
   -3670    -3747    -3940    -4240    -4585    -4882    -5066    -5142 
   -5155    -5124    -5012    -4774    -4398    -3966    -3662    -3611 
   -3747    -3913    -4016    -4089    -4193    -4318    -4428    -4514 
   -4627    -4826    -5067    -5198    -5063    -4626    -4044    -3597 
   -3530    -3892    -4514    -5136    -5537    -5575    -5229    -4658 
   -4078    -3646    -3453    -3507    -3740    -4062    -4390    -4704 
   -5038    -5335    -5433    -5220    -4737    -4144    -3643    -3370 
   -3360    -3595    -4037    -4599    -5139    -5536    -5695    -5528 
   -4996    -4232    -3515    -3080    -3026    -3346    -3946    -4631 
   -5174    -5398    -5255    -4820    -4247    -3721    -3454    -3537 
   -3898    -4444    -5082    -5634    -5896    -5741    -5171    -4369 
   -3624    -3191    -3188    -3554    -4106    -4662    -5089    -5304 
   -5258    -4951    -4488    -4068    -3882    -4010    -4401    -4899 
   -5285    -5374    -5111    -4550    -3851    -3268    -3038    -3235 
   -3724    -4240    -4557    -4606    -4448    -4218    -4079    -4143 
   -4425    -4870    -5354    -5714    -5836    -5655    -5161    -4460 
   -3811    -3449    -3424    -3630    -3905    -4113    -4195    -4179 
   -4140    -4162    -4266    -4426    -4596    -4720    -4756    -4679 
   -4506    -4313    -4203    -4272    -4523    -4873    -5221    -5463 
   -5501    -5302    -4911    -4438    -4010    -3707    -3554    -3535 
   -3635    -3843    -4114    -4365    -4544    -4665    -4753    -4772 
   -4672    -4495    -4341    -4274    -4298    -4394    -4509    -4579 
   -4538    -4361    -4109    -3900    -3852    -4036    -4388    -4760 
   -5036    -5179    -5198    -5101    -4876    -4572    -4283    -4051 
   -3888    -3804    -3798    -3888    -4082    -4338    -4583    -4729 
   -4684    -4473    -4236    -4108    -4145    -4318    -4567    -4853 
   -5128    -5305    -5316    -5143    -4810    -4378    -3955    -3677 
   -3626    -3761    -3955    -4113    -4229    -4332    -4413    -4438 
   -4405    -4374    -4425    -4607    -4878    -5108    -5162    -5007 
   -4715    -4398    -4125    -3900    -3716    -3628    -3701    -3940 
   -4280    -4652    -4997    -5238    -5275    -5076    -4691    -4210 
   -3738    -3420    -3406    -3730    -4288    -4912    -5422    -5691 
   -5671    -5406    -4977    -4446    -3893    -3433    -3172    -3177 
   -3438    -3866    -4345    -4747    -4957    -4947    -4807    -4673 
   -4615    -4625    -4683    -4766    -4824    -4785    -4619    -4376 
   -4152    -4013    -4004    -4118    -4279    -4395    -4438    -4441 
   -4467    -4553    -4685    -4796    -4804    -4671    -4410    -4105 
   -3858    -3723    -3720    -3862    -4105    -4364    -4564    -4662 
   -4672    -4660    -4660    -4654    -4630    -4592    -4571    -4592 
   -4654    -4731    -4752    -4645    -4425    -4162    -3959    -3912 
   -4014    -4203    -4449    -4720    -4950    -5055    -4981    -4738 
   -4409    -4094    -3873    -3790    -3854    -4016    -4183    -4278 
   -4299    -4322    -4423    -4633    -4900    -5108    -5155    -5017 
   -4760    -4492    -4311    -4263    -4348    -4509    -4645    -4658 
   -4498    -4186    -3829    -3586    -3559    -3743    -4047    -4355 
   -4592    -4738    -4793    -4738    -4572    -4360    -4216    -4236 
   -4438    -4711    -4892    -4899    -4770    -4606    -4498    -4502 
   -4590    -4666    -4645    -4498    -4279    -4094    -4025    -4104 
   -4286    -4491    -4656    -4752    -4758    -4668    -4483    -4217 
   -3915    -3658    -3551    -3657    -3956    -4357    -4749    -5039 
   -5192    -5205    -5074    -4816    -4499    -4218    -4043    -3987 
   -4027    -4128    -4272    -4434    -4577    -4679    -4756    -4818 
   -4826    -4730    -4518    -4230    -3948    -3751    -3705    -3827 
   -4064    -4330    -4568    -4734    -4788    -4747    -4668    -4575 
   -4477    -4406    -4380    -4409    -4495    -4622    -4731    -4756 
   -4645    -4386    -4050    -3785    -3736    -3970    -4438    -4985 
   -5402    -5535    -5337    -4887    -4334    -3844    -3538    -3481 
   -3676    -4045    -4465    -4797    -4958    -4942    -4780    -4523 
   -4234    -3982    -3852    -3917    -4166    -4488    -4743    -4855 
   -4826    -4718    -4594    -4494    -4463    -4527    -4653    -4761 
   -4770    -4638    -4378    -4048    -3747    -3577    -3595    -3747 
   -3940    -4122    -4291    -4463    -4650    -4847    -4996    -5019 
   -4905    -4706    -4492    -4351    -4322    -4376    -4445    -4459 
   -4403    -4321    -4245    -4201    -4222    -4324    -4484    -4665 
   -4812    -4873    -4814    -4654    -4479    -4360    -4299    -4293 
   -4338    -4398    -4440    -4453    -4438    -4398    -4332    -4261 
   -4248    -4322    -4449    -4563    -4600    -4548    -4422    -4259 
   -4095    -3991    -4020    -4206    -4484    -4733    -4845    -4803 
   -4684    -4571    -4499    -4465    -4452    -4450    -4457    -4457 
   -4445    -4422    -4384    -4315    -4226    -4153    -4136    -4182 
   -4266    -4357    -4428    -4450    -4440    -4418    -4411    -4459 
   -4569    -4704    -4810    -4841    -4779    -4629    -4410    -4170 
   -3989    -3940    -4067    -4338    -4633    -4814    -4815    -4641 
   -4353    -4054    -3861    -3859    -4074    -4444    -4841    -5128 
   -5198    -4993    -4576    -4108    -3750    -3604    -3692    -3955 
   -4315    -4679    -4939    -5038    -4969    -4768    -4511    -4282 
   -4126    -4078    -4135    -4247    -4361    -4459    -4529    -4573 
   -4598    -4594    -4565    -4536    -4523    -4529    -4530    -4518 
   -4483    -4413    -4332    -4264    -4205    -4156    -4145    -4197 
   -4328    -4513    -4687    -4801    -4847    -4814    -4691    -4496 
   -4284    -4110    -4020    -4039    -4164    -4369    -4588    -4743 
   -4791    -4719    -4523    -4259    -4036    -3925    -3937    -4040 
   -4194    -4365    -4541    -4719    -4878    -4990    -5040    -5022 
   -4926    -4762    -4546    -4301    -4067    -3908    -3865    -3916 
   -3983    -4004    -3977    -3969    -4063    -4282    -4572    -4827 
   -4945    -4899    -4742    -4567    -4450    -4422    -4465    -4537 
   -4608    -4644    -4617    -4530    -4419    -4329    -4314    -4391 
   -4503    -4573    -4553    -4437    -4259    -4081    -3987    -4036 
   -4214    -4459    -4672    -4784    -4791    -4738    -4669    -4602 
   -4517    -4399    -4261    -4139    -4081    -4144    -4333    -4567 
   -4742    -4797    -4712    -4511    -4263    -4044    -3915    -3896 
