Origin Time       2024/06/23 22:54:00
Lat.              35.645
Long.             140.060
Depth. (km)       72
Mag.              4.1
Station Code      SZO001
Station Lat.      35.1425
Station Long.     139.0798
Station Height(m) 74
Record Time       2024/06/23 22:54:55
Sampling Freq(Hz) 100Hz
Duration Time(s)  60
Dir.              N-S
Scale Factor      7845(gal)/8223790
Max. Acc. (gal)   3.178
Last Correction   2024/06/23 22:54:55
Memo.             
[...]
   -9169    -9196    -9171    -9148    -9188    -9175    -9153    -9189 
   -9196    -9170    -9153    -9159    -9180    -9188    -9192    -9178 
   -9155    -9159    -9166    -9184    -9208    -9178    -9131    -9155 
   -9202    -9196    -9178    -9169    -9134    -9117    -9153    -9215 
   -9259    -9227    -9162    -9128    -9096    -9132    -9216    -9198 
   -9161    -9205    -9225    -9171    -9134    -9144    -9146    -9126 
   -9139    -9208    -9279    -9248    -9161    -9185    -9212    -9077 
   -8989    -9077    -9238    -9439    -9475    -9171    -8884    -8992 
   -9196    -9138    -9121    -9255    -9271    -9329    -9377    -9053 
   -8795    -9055    -9273    -9184    -9289    -9454    -9252    -8984 
   -9018    -9225    -9147    -8861    -9169    -9647    -9298    -9028 
   -9350    -9144    -8773    -9023    -9167    -9158    -9460    -9526 
   -9043    -8816    -9238    -9379    -9134    -9132    -8861    -8823 
   -9801    -9884    -8748    -8738    -9337    -9049    -8911    -9293 
   -9366    -9250    -9240    -9216    -9116    -9039    -9026    -9165 
   -9483    -9315    -8737    -8995    -9641    -9402    -8996    -9255 
   -9265    -8708    -8887    -9487    -9225    -9140    -9625    -9337 
   -8775    -8876    -9062    -9105    -9414    -9609    -9153    -8857 
   -9162    -9119    -8959    -9285    -9413    -9383    -9273    -8789 
   -8869    -9558    -9506    -8880    -8937    -9394    -9148    -8962 
   -9522    -9339    -8557    -8972    -9749    -9553    -9186    -9142 
   -8965    -8641    -8775    -9539    -9957    -9506    -8756    -8455 
   -9023    -9589    -9282    -8951    -9369    -9668    -9026    -8623 
   -9221    -9435    -9100    -9154    -9180    -8985    -9202    -9571 
   -9259    -8788    -8950    -9039    -9078    -9694    -9802    -9085 
   -8864    -9097    -9070    -9138    -9288    -9059    -9000    -9352 
   -9350    -9135    -9250    -9107    -8671    -8972    -9562    -9297 
   -9032    -9620    -9643    -8625    -8626    -9514    -9267    -8916 
   -9421    -9485    -9194    -8914    -8644    -9054    -9447    -9248 
   -9171    -9192    -9251    -9193    -8993    -9379    -9508    -8885 
   -9043    -9706    -9454    -8874    -8837    -9015    -9173    -9221 
   -9032    -8957    -9267    -9639    -9598    -9136    -8688    -8765 
   -9309    -9464    -9162    -9239    -9495    -9196    -8807    -8970 
   -9205    -9240    -9300    -9234    -9105    -9165    -9339    -9209 
   -8799    -8887    -9364    -9501    -9401    -9239    -8978    -8918 
   -9018    -8970    -9258    -9705    -9231    -8757    -9417    -9749 
   -8924    -8430    -8986    -9472    -9391    -9379    -9223    -8802 
   -9001    -9431    -9266    -9169    -9236    -9117    -9263    -9140 
   -8716    -9308    -9818    -8931    -8657    -9605    -9525    -8642 
   -8919    -9601    -9270    -8897    -9223    -9323    -9188    -9296 
   -9190    -8943    -8922    -9030    -9397    -9637    -9213    -8912 
   -9200    -9225    -8858    -8908    -9373    -9454    -9167    -9262 
   -9545    -9283    -8738    -8695    -9131    -9346    -9155    -9144 
   -9420    -9413    -9166    -9063    -9015    -9104    -9250    -9134 
   -9189    -9433    -9344    -9128    -8853    -8738    -9194    -9499 
   -9305    -9211    -9163    -9009    -9078    -9281    -9293    -9189 
   -9100    -9072    -9202    -9356    -9413    -9316    -8839    -8581 
   -9154    -9606    -9321    -9078    -9254    -9302    -9089    -9117 
   -9262    -9076    -8834    -9027    -9472    -9479    -9140    -9165 
   -9447    -9382    -8934    -8668    -8903    -9333    -9467    -9238 
   -9113    -9196    -9185    -9097    -9034    -8988    -9051    -9382 
   -9724    -9454    -8860    -8874    -9186    -9128    -9074    -9140 
   -9194    -9417    -9412    -9036    -9019    -9325    -9166    -8878 
   -9190    -9340    -8965    -9123    -9520    -9161    -8835    -9189 
   -9533    -9529    -9154    -8676    -8830    -9367    -9463    -9313 
   -9283    -9151    -8970    -9003    -9077    -8986    -9074    -9528 
   -9624    -9140    -8974    -9151    -9124    -9163    -9144    -8818 
   -8892    -9499    -9782    -9541    -9282    -8934    -8549    -8851 
   -9248    -8999    -9116    -9670    -9730    -9356    -8808    -8576 
   -9013    -9428    -9366    -9157    -9080    -9108    -9208    -9467 
   -9532    -8969    -8633    -9243    -9543    -8999    -9013    -9525 
   -9312    -8761    -8726    -9174    -9589    -9498    -9235    -9119 
   -8822    -8707    -9278    -9764    -9441    -8880    -8891    -9370 
   -9528    -9159    -8947    -9093    -9109    -9150    -9431    -9229 
   -8708    -8984    -9497    -9436    -9387    -9217    -8845    -9012 
   -9312    -9212    -9163    -9163    -8966    -9012    -9267    -9181 
   -9171    -9414    -9348    -9146    -9055    -9047    -9127    -9239 
   -9418    -9306    -8951    -9035    -9281    -9204    -8880    -8611 
   -9221   -10138    -9713    -8842    -8891    -8937    -8791    -9232 
   -9609    -9337    -9034    -9123    -9333    -9186    -8822    -8919 
   -9329    -9497    -9447    -9197    -8899    -8945    -9200    -9297 
   -9163    -8946    -9030    -9472    -9566    -9165    -8932    -8920 
   -9054    -9468    -9648    -9304    -8833    -8675    -9105    -9521 
   -9247    -8905    -9040    -9306    -9421    -9300    -9053    -9036 
   -9265    -9391    -9232    -8893    -8791    -9097    -9358    -9348 
   -9343    -9373    -9188    -8947    -9066    -9277    -9040    -8896 
   -9296    -9417    -9189    -9235    -9242    -9074    -9007    -9047 
   -9185    -9281    -9342    -9408    -9278    -9023    -8904    -9032 
   -9231    -9235    -9171    -9166    -9189    -9333    -9367    -9100 
   -8841    -8762    -9020    -9481    -9566    -9391    -9292    -9084 
   -8910    -9031    -9204    -9248    -9360    -9386    -9015    -8743 
   -8953    -9217    -9470    -9566    -9208    -9005    -9088    -8833 
   -8787    -9394    -9656    -9358    -9323    -9373    -9040    -8765 
   -8965    -9296    -9229    -9086    -9273    -9262    -9153    -9324 
   -9090    -8675    -8965    -9498    -9599    -9354    -9196    -9144 
   -8942    -9043    -9317    -9055    -8930    -9412    -9518    -9032 
   -8939    -9273    -9259    -9038    -8900    -8964    -9552    -9742 
   -9018    -8814    -9162    -8976    -8958    -9618    -9875    -9185 
   -8510    -8754    -9348    -9517    -9398    -9109    -8835    -8864 
   -9093    -9512    -9779    -9242    -8533    -8793    -9556    -9597 
   -8988    -8688    -8961    -9356    -9576    -9575    -9328    -9034 
   -8911    -8856    -8996    -9281    -9320    -9454    -9622    -9096 
   -8533    -8808    -9213    -9190    -9235    -9464    -9474    -9328 
   -9178    -8869    -8769    -9259    -9462    -9022    -9116    -9582 
   -9288    -8869    -8891    -8881    -9111    -9575    -9598    -9293 
   -8992    -8807    -8962    -9294    -9382    -9138    -9093    -9351 
   -9174    -8926    -9247    -9448    -9269    -9111    -8985    -9012 
   -9324    -9541    -9258    -8745    -8715    -9248    -9656    -9510 
   -9050    -8726    -8833    -9258    -9531    -9525    -9320    -8812 
   -8741    -9425    -9482    -8876    -8982    -9459    -9359    -9113 
   -9134    -9113    -9166    -9207    -8970    -9040    -9401    -9401 
   -9117    -8881    -9034    -9396    -9387    -9285    -9234    -9000 
   -9016    -9221    -9082    -8970    -9223    -9397    -9254    -9185 
   -9282    -9209    -9192    -9266    -9007    -8833    -9084    -9200 
   -9166    -9371    -9448    -9094    -8965    -9364    -9436    -8970 
   -8846    -8993    -8962    -9262    -9667    -9560    -9404    -9154 
   -8614    -8607    -9063    -9304    -9605    -9763    -9277    -8814 
   -8903    -9131    -9084    -8874    -9046    -9572    -9672    -9325 
   -9115    -8926    -8649    -8808    -9427    -9640    -9193    -9077 
   -9525    -9401    -8797    -8868    -9275    -9278    -9061    -8977 
   -9256    -9501    -9255    -9066    -9127    -8978    -8955    -9315 
   -9479    -9339    -9192    -9189    -9254    -8864    -8418    -8864 
   -9514    -9693    -9745    -9466    -8969    -8822    -9034    -9356 
   -9189    -8723    -8986    -9483    -9277    -8943    -9132    -9401 
   -9350    -9279    -9228    -9140    -9209    -9101    -8869    -9111 
   -9324    -9130    -9229    -9470    -9113    -8687    -8997    -9463 
   -9408    -9358    -9408    -8993    -8725    -9211    -9464    -8949 
   -8621    -8973    -9510    -9798    -9591    -9042    -8796    -9026 
   -9235    -9167    -8996    -9039    -9356    -9470    -9128    -8824 
   -9008    -9323    -9366    -9396    -9273    -9057    -9394    -9337 
   -8417    -8457    -9490    -9948    -9562    -8758    -8761    -9706 
   -9571    -8770    -9042    -9213    -8820    -8943    -9161    -9382 
   -9624    -9379    -9317    -9215    -8569    -8595    -9248    -9543 
   -9549    -9293    -9077    -9228    -9227    -9089    -9058    -8876 
   -8883    -9190    -9269    -9275    -9379    -9408    -9377    -9077 
   -8761    -9080    -9444    -9196    -9113    -9223    -8891    -8976 
   -9568    -9463    -9032    -8978    -8993    -9258    -9618    -9209 
   -8689    -9067    -9462    -9301    -9277    -9200    -8752    -8905 
   -9664    -9471    -8598    -8802    -9572    -9498    -9169    -9247 
   -9208    -8946    -8989    -9377    -9382    -8899    -8823    -9337 
   -9726    -9397    -8733    -8826    -9358    -9243    -8950    -9234 
   -9505    -9246    -9109    -9254    -9016    -8961    -9414    -9259 
   -8874    -9158    -9243    -8992    -9139    -9429    -9397    -9070 
   -9042    -9413    -9270    -8785    -8901    -9400    -9605    -9310 
   -8966    -9046    -9086    -8795    -8889    -9481    -9607    -9215 
   -9109    -9126    -9101    -9387    -9410    -8955    -8856    -9182 
   -9297    -9192    -9421    -9629    -8905    -8275    -9043    -9705 
   -9269    -9188    -9401    -9035    -8922    -9177    -9238    -9319 
   -9317    -9269    -9297    -9031    -8888    -9227    -9277    -8842 
   -8753    -9408    -9930    -9394    -8706    -8924    -9255    -9177 
   -9240    -9290    -8942    -8789    -9312    -9651    -9192    -8957 
   -9360    -9348    -8919    -8903    -9127    -9266    -9414    -9394 
   -9112    -8915    -9019    -9316    -9412    -9053    -8856    -9269 
   -9579    -9283    -8881    -8872    -9061    -9148    -9220    -9197 
   -9113    -9408    -9738    -9459    -8974    -8826    -8984    -9088 
   -8869    -8897    -9397    -9616    -9474    -9298    -9005    -8819 
   -9043    -9393    -9414    -9138    -8966    -8989    -9103    -9324 
   -9309    -9111    -9221    -9247    -9088    -9213    -9267    -9073 
   -9109    -9373    -9400    -9047    -8741    -8922    -9413    -9499 
   -9131    -9069    -9213    -9204    -9339    -9270    -8885    -8903 
   -9039    -8984    -9221    -9624    -9784    -9396    -8688    -8677 
   -9198    -9502    -9448    -8845    -8661    -9350    -9481    -9258 
   -9304    -8914    -8768    -9325    -9460    -9250    -9208    -9045 
   -9196    -9597    -9147    -8565    -9127    -9629    -9150    -8949 
   -9136    -8858    -8993    -9788    -9752    -8974    -8792    -9077 
   -9131    -9169    -9432    -9595    -9398    -8962    -8721    -8779 
   -8923    -9270    -9485    -9154    -9065    -9548    -9621    -9100 
   -8850    -8883    -8726    -8961    -9726    -9883    -9521    -9443 
   -9219    -8770    -8563    -8502    -8745    -9278    -9599    -9663 
   -9547    -9317    -8876    -8394    -8989    -9967    -9590    -9020 
   -9035    -8621    -8630    -9732   -10536   -10220    -9073    -8001 
   -7981    -8554    -8711    -9042   -10238   -10633    -9273    -8390 
   -8881    -9202    -9043    -8950    -9043    -9306    -9383    -9302 
   -9688    -9903    -9161    -8700    -8789    -8433    -8494    -9393 
   -9850    -9668    -9586    -9347    -8642    -8486    -8973    -9151 
   -9634   -10098    -9059    -8046    -8579    -9424   -10170   -10629 
   -9621    -8035    -7722    -8511    -9532   -10073    -9224    -7898 
   -8390   -10291   -11172   -10228    -8509    -7605    -7817    -8355 
   -9468   -10849   -10797    -9562    -8818    -8634    -8866    -9574 
   -9252    -7858    -7966    -9595   -10203    -9586    -9057    -8795 
   -8572    -8460    -8957   -10079   -10467    -9420    -8137    -7902 
   -8804   -10153   -10966   -10354    -8521    -7483    -8602    -9972 
   -9718    -8934    -9051    -9607    -9146    -8172    -8688    -9641 
   -9456    -9853   -10389    -9030    -8087    -9000    -9432    -8974 
   -8563    -8330    -8814    -9784   -10501   -10640    -9479    -7936 
   -7732    -8329    -9451   -10565    -9980    -9085    -9279    -8861 
   -7771    -7654    -8680    -9995   -10606    -9622    -7942    -8391 
  -10656   -11080    -9424    -8098    -7840    -8694   -10011   -10299 
   -9451    -8799    -8834    -8699    -8590    -9216    -9632    -9629 
   -9585    -8706    -7981    -9211   -10800   -10085    -8158    -7820 
   -9142   -10454   -10000    -8113    -8066    -9756   -10307   -10133 
   -9514    -7871    -7095    -8289   -10044   -10439    -9342    -9026 
   -9972    -9929    -8375    -7381    -8186    -9269    -9871   -10755 
  -10222    -8229    -8179    -9444    -9647    -9661    -9502    -8384 
   -7946    -9213   -10388    -9990    -8733    -8050    -8710    -9834 
   -9693    -8611    -8159    -8660   -10141   -11535   -10864    -8770 
   -6891    -6115    -7696   -10754   -12506   -11551    -8618    -6821 
   -7942    -9340    -9339    -9309    -9319    -8806    -8911    -9915 
  -10246    -9393    -8503    -8505    -9204    -9440    -8996    -8899 
   -9067    -9323    -9644    -9409    -9553    -9987    -8982    -8075 
   -8482    -8448    -8451    -9516   -10254   -10262    -9744    -8441 
   -8137    -9556   -10026    -8883    -8174    -8715   -10073   -10827 
   -9495    -7516    -7504    -9132   -10443   -10644    -9622    -8220 
   -8297    -9410    -9559    -9124    -8807    -8352    -8731    -9706 
   -9666    -9385    -9895    -9892    -8849    -8202    -8533    -9485 
  -10457    -9714    -7724    -7503    -8748    -9686   -10617   -10774 
   -9598    -8644    -8047    -7699    -8768   -10382   -10874   -10084 
   -8530    -7512    -7804    -9146   -10492   -10003    -8577    -8527 
   -9038    -9099    -9431    -9907    -9610    -8811    -8730    -8980 
   -8808    -9167    -9767    -9585    -9247    -9028    -9028    -9337 
   -9121    -8864    -9275    -9502    -9396    -9099    -8847    -9169 
   -9013    -8419    -8984    -9917    -9979    -9370    -8532    -8638 
   -9755    -9834    -8553    -8106    -9113    -9661    -9161    -9097 
   -9606    -9486    -8845    -8888    -9648    -9815    -9207    -8702 
   -8630    -9306    -9845    -8977    -8552    -9564    -9497    -8395 
   -8787    -9872    -9571    -8872    -9113    -9387    -9121    -8997 
   -8980    -8887    -9302    -9876    -9779    -9150    -8264    -8193 
   -9663   -10204    -8818    -8410    -9417    -9869    -9575    -9020 
   -8833    -9113    -8973    -8656    -8700    -8996    -9671   -10166 
  -10071    -9807    -9373    -8788    -8216    -8033    -8594    -9104 
   -9271    -9701   -10187    -9907    -8546    -7800    -9181   -10404 
   -9587    -8617    -8498    -8410    -8833    -9872   -10131    -9667 
   -9396    -8959    -8680    -9090    -9161    -8965    -9325    -9452 
   -9020    -8820    -9069    -9136    -8595    -8500    -9705   -10804 
  -10372    -9120    -8202    -7731    -8024    -9490   -10856   -10578 
   -8922    -7616    -8603   -10505    -9690    -7699    -8109    -9359 
   -9958   -10503    -9645    -7839    -7835    -9185   -10100   -10359 
   -9594    -8518    -8955    -9566    -8554    -8155    -9359   -10038 
   -9856    -9158    -8198    -8631    -9738    -9518    -9207    -9597 
   -9389    -8779    -8575    -8754    -9259    -9674    -9504    -8995 
   -8877    -9244    -9093    -8353    -8465    -9832   -11086   -10729 
   -9175    -8012    -7368    -7622    -9481   -10747    -9911    -8955 
   -8877    -8966    -9254    -9675    -9560    -8880    -8301    -8542 
   -9818   -10756    -9957    -8410    -7470    -7750    -9412   -10609 
  -10320    -9829    -9085    -8236    -8457    -9093    -9586    -9772 
   -8742    -7974    -9067    -9963    -9459    -9321   -10033    -9942 
   -8646    -7788    -8174    -9040    -9590    -9578    -9552    -9703 
   -9332    -8829    -9007    -9404    -9494    -9227    -8827    -8835 
   -9057    -9072    -9093    -8900    -8353    -8437    -9694   -10849 
  -10582    -9363    -8140    -7929    -9312   -10220    -9333    -8707 
   -8918    -8699    -8557    -9084    -9579    -9718    -9841   -10023 
   -9532    -8483    -8262    -8590    -8787    -9472    -9695    -9005 
   -9093    -9414    -9144    -9652   -10249    -9439    -8309    -7979 
   -8297    -8888    -9510   -10112   -10149    -9316    -8602    -8711 
   -9132    -9204    -8995    -9283   -10102   -10162    -9073    -8040 
   -7921    -8826   -10103   -10083    -8750    -8421    -9490    -9952 
   -9270    -8534    -8617    -9678   -10355    -9386    -8198    -8305 
   -8986    -9514    -9634    -9181    -8895    -9099    -9121    -8950 
   -9065    -9468    -9579    -9009    -8807    -9760   -10347    -9227 
   -7555    -7665    -9829   -11028    -9930    -8872    -8355    -7738 
   -8429   -10064   -10704   -10324    -9112    -7767    -8172    -9524 
   -9609    -8972    -8866    -9201    -9682   -10054    -9829    -8677 
   -7611    -8109    -9458   -10085    -9940    -9370    -8617    -8452 
   -9212    -9855    -9707    -9540    -9220    -8379    -8401    -9379 
   -9803    -9514    -9007    -8739    -8945    -9132    -9310    -9404 
   -8970    -8819    -9340    -9590    -9529    -9306    -8731    -8694 
   -9209    -9165    -9200    -9772    -9647    -8964    -8754    -8878 
   -8937    -8880    -9161    -9871    -9830    -8785    -8191    -8608 
   -9288    -9836    -9995    -9400    -8726    -8891    -9405    -9518 
   -9393    -9169    -8966    -9080    -9151    -9009    -9018    -9088 
   -9324    -9603    -9316    -9004    -9111    -8883    -8479    -9011 
  -10108   -10050    -8995    -8699    -8889    -8575    -8541    -9154 
   -9699    -9950    -9927    -9683    -9289    -8518    -7858    -8262 
   -9126    -9467    -9774   -10177    -9917    -9099    -8618    -8947 
   -9293    -8689    -8255    -9246   -10072    -9394    -8677    -8984 
   -9614    -9841    -9405    -8706    -8518    -8854    -9148    -9177 
   -9306    -9714    -9913    -9628    -8968    -8407    -8789    -9549 
   -9246    -8476    -8676    -9437    -9798    -9695    -9231    -8637 
   -8529    -8959    -9305    -9444    -9686    -9718    -9396    -9225 
   -9082    -8800    -8799    -8874    -8888    -9151    -9367    -9364 
   -9339    -9181    -8937    -8823    -8901    -9292    -9811    -9938 
   -9643    -9123    -8634    -8912    -9580    -9373    -8937    -9007 
   -8542    -7982    -8753    -9853    -9859    -9306    -9153    -9616 
  -10011    -9586    -8930    -8656    -8518    -8699    -9198    -9394 
   -9346    -9402    -9202    -8760    -8964    -9612    -9697    -9487 
   -9143    -8349    -8178    -9151    -9907    -9861    -9552    -9155 
   -8954    -9109    -9093    -8991    -9213    -9278    -8973    -8892 
