Origin Time       2024/06/23 22:54:00
Lat.              35.645
Long.             140.060
Depth. (km)       72
Mag.              4.1
Station Code      SZO003
Station Lat.      34.8158
Station Long.     139.0544
Station Height(m) 149
Record Time       2024/06/23 22:55:00
Sampling Freq(Hz) 100Hz
Duration Time(s)  60
Dir.              U-D
Scale Factor      7845(gal)/8223790
Max. Acc. (gal)   1.851
Last Correction   2024/06/23 22:54:59
Memo.             
[...]
    2405     2331     2448     2685     2876     2949     2867     2617 
    2347     2232     2292     2481     2743     2940     2968     2863 
    2693     2555     2562     2689     2839     2937     2879     2625 
    2289     2081     2166     2467     2755     2913     2940     2826 
    2606     2463     2497     2593     2658     2675     2652     2648 
    2662     2636     2581     2542     2583     2710     2802     2803 
    2732     2597     2493     2457     2423     2407     2481     2664 
    2860     2909     2749     2502     2359     2448     2752     3064 
    3132     2961     2683     2346     2116     2176     2444     2709 
    2829     2787     2666     2531     2428     2447     2648     2924 
    3049     2925     2651     2424     2412     2565     2656     2614 
    2529     2467     2482     2619     2795     2868     2813     2743 
    2713     2636     2502     2413     2376     2357     2424     2625 
    2847     2905     2752     2606     2682     2833     2829     2727 
    2617     2459     2309     2307     2511     2810     2951     2802 
    2540     2411     2473     2652     2829     2876     2801     2697 
    2621     2547     2403     2280     2384     2668     2897     2879 
    2636     2463     2583     2866     3030     2890     2516     2222 
    2218     2442     2648     2650     2538     2544     2733     2953 
    3033     2910     2651     2398     2312     2440     2671     2829 
    2809     2646     2465     2343     2312     2432     2683     2887 
    2899     2785     2708     2713     2731     2686     2555     2419 
    2384     2466     2644     2826     2851     2725     2621     2609 
    2636     2677     2714     2685     2573     2482     2473     2471 
    2436     2432     2540     2760     2952     2940     2740     2598 
    2658     2781     2814     2712     2461     2191     2103     2259 
    2567     2813     2809     2654     2608     2760     2994     3122 
    3018     2760     2528     2366     2250     2239     2369     2546 
    2663     2693     2675     2656     2690     2839     3002     2960 
    2727     2515     2444     2482     2565     2640     2633     2482 
    2297     2295     2529     2859     3029     2870     2569     2428 
    2489     2651     2794     2798     2670     2544     2551     2685 
    2768     2640     2415     2353     2505     2717     2832     2795 
    2681     2578     2493     2428     2471     2621     2722     2739 
    2818     2949     2920     2663     2409     2401     2583     2710 
    2705     2664     2594     2474     2417     2477     2532     2529 
    2592     2764     2853     2755     2612     2567     2679     2895 
    3006     2887     2654     2435     2265     2203     2308     2504 
    2666     2825     3013     3055     2817     2451     2235     2320 
    2562     2704     2718     2721     2731     2727     2733     2706 
    2582     2439     2425     2579     2763     2776     2641     2527 
    2465     2462     2598     2781     2816     2694     2587     2594 
    2671     2740     2771     2778     2736     2631     2558     2538 
    2467     2378     2404     2548     2716     2778     2668     2535 
    2551     2674     2770     2770     2693     2629     2648     2754 
    2864     2837     2627     2407     2328     2366     2435     2501 
    2600     2755     2883     2895     2820     2714     2606     2504 
    2435     2478     2594     2616     2550     2565     2681     2776 
    2820     2830     2740     2520     2336     2370     2583     2759 
    2767     2709     2648     2498     2363     2471     2755     2917 
    2821     2597     2466     2535     2724     2905     2959     2785 
    2462     2245     2297     2528     2716     2758     2764     2802 
    2789     2671     2524     2436     2400     2430     2602     2848 
    2956     2859     2636     2394     2262     2326     2540     2803 
    2952     2859     2652     2533     2525     2600     2721     2790 
    2733     2567     2380     2334     2519     2789     2911     2835 
    2682     2586     2571     2596     2644     2687     2647     2489 
    2308     2292     2523     2852     3019     2926     2752     2637 
    2511     2442     2578     2794     2870     2760     2583     2469 
    2396     2313     2326     2486     2647     2718     2779     2855 
    2818     2654     2587     2721     2851     2808     2663     2556 
    2497     2459     2509     2664     2805     2787     2610     2444 
    2430     2542     2685     2786     2789     2640     2413     2322 
    2413     2560     2686     2764     2813     2860     2848     2751 
    2632     2527     2469     2494     2578     2683     2758     2732 
    2625     2538     2554     2650     2682     2563     2393     2335 
    2463     2718     2907     2893     2772     2724     2799     2933 
    2928     2666     2299     2049     2047     2313     2686     2944 
    2941     2687     2427     2419     2662     2976     3163     3068 
    2706     2315     2177     2330     2570     2718     2695     2527 
    2369     2373     2582     2862     2984     2909     2771     2635 
    2519     2486     2581     2704     2668     2485     2373     2432 
    2606     2816     2965     2979     2857     2679     2531     2431 
    2332     2293     2448     2740     2898     2786     2582     2481 
    2452     2469     2589     2791     2965     3019     2936     2764 
    2569     2419     2373     2435     2493     2458     2420     2469 
    2589     2718     2801     2857     2956     3029     2922     2600 
    2231     2045     2153     2497     2860     2998     2863     2623 
    2497     2565     2706     2809     2844     2785     2631     2466 
    2424     2536     2675     2733     2643     2407     2200     2196 
    2420     2816     3196     3314     3142     2837     2494     2268 
    2323     2552     2694     2604     2349     2199     2351     2698 
    2997     3096     2967     2698     2467     2432     2558     2648 
    2632     2621     2682     2718     2660     2594     2594     2620 
    2590     2481     2401     2430     2529     2682     2835     2906 
    2930     2930     2839     2620     2346     2165     2203     2462 
    2760     2879     2799     2674     2636     2716     2830     2871 
    2770     2554     2334     2219     2276     2481     2735     2909 
    2926     2821     2690     2573     2482     2467     2532     2636 
    2740     2829     2883     2829     2625     2359     2199     2231 
    2440     2736     2994     3117     3044     2797     2504     2324 
    2355     2571     2781     2793     2570     2251     2111     2293 
    2635     2928     3071     3059     2945     2732     2450     2259 
    2304     2548     2828     2986     2944     2690     2385     2280 
    2401     2574     2627     2565     2575     2673     2728     2789 
    2886     2866     2683     2489     2392     2407     2502     2648 
    2817     2918     2857     2673     2513     2498     2614     2721 
    2700     2559     2349     2172     2250     2614     2964     3059 
    2951     2749     2511     2335     2358     2562     2789     2928 
    2953     2844     2637     2417     2259     2276     2520     2799 
    2862     2722     2600     2578     2585     2609     2646     2648 
    2620     2590     2629     2756     2849     2817     2685     2536 
    2424     2362     2398     2528     2670     2748     2764     2794 
    2843     2822     2727     2625     2552     2501     2462     2469 
    2511     2516     2481     2517     2658     2752     2708     2651 
    2702     2825     2891     2810     2663     2542     2424     2370 
    2424     2501     2583     2687     2791     2874     2874     2776 
    2686     2639     2559     2425     2338     2425     2648     2794 
    2758     2648     2558     2457     2415     2548     2778     2949 
    2990     2872     2686     2552     2474     2450     2501     2569 
    2578     2556     2587     2668     2712     2670     2587     2543 
    2528     2560     2732     2930     2922     2686     2384     2189 
    2203     2411     2749     3082     3204     3046     2749     2508 
    2415     2438     2513     2597     2625     2538     2434     2474 
    2579     2566     2500     2597     2851     2990     2911     2803 
    2739     2648     2575     2581     2601     2542     2423     2346 
    2334     2353     2457     2714     3006     3115     3021     2847 
    2690     2583     2492     2428     2447     2490     2506     2556 
    2628     2624     2554     2516     2538     2592     2671     2754 
    2803     2859     2944     2979     2875     2637     2398     2319 
    2409     2542     2577     2481     2353     2332     2498     2763 
    2924     2947     2937     2882     2764     2651     2563     2515 
    2519     2543     2565     2558     2523     2525     2567     2589 
    2609     2656     2701     2709     2667     2613     2652     2762 
    2782     2727     2687     2604     2466     2388     2412     2477 
    2540     2643     2786     2862     2822     2754     2704     2600 
    2448     2428     2593     2720     2677     2633     2670     2639 
    2529     2469     2520     2643     2720     2739     2789     2836 
    2785     2660     2596     2621     2604     2502     2421     2416 
    2490     2604     2718     2809     2776     2590     2477     2625 
    2882     2991     2907     2678     2385     2207     2247     2455 
    2698     2789     2689     2563     2540     2646     2824     2918 
    2822     2570     2320     2265     2463     2795     3073     3133 
    2905     2519     2235     2197     2365     2633     2882     2979 
    2853     2531     2203     2122     2338     2667     2920     3030 
    2979     2764     2528     2471     2621     2798     2840     2754 
    2625     2498     2425     2469     2606     2693     2598     2419 
    2347     2451     2677     2890     2949     2833     2601     2409 
    2434     2644     2841     2876     2749     2573     2469     2517 
    2689     2779     2667     2475     2371     2446     2635     2735 
    2700     2671     2698     2721     2701     2658     2608     2551 
    2524     2551     2605     2683     2774     2848     2890     2862 
    2736     2519     2276     2182     2324     2578     2787     2828 
    2686     2478     2340     2381     2600     2852     2988     2961 
    2801     2613     2504     2505     2619     2791     2875     2787 
    2578     2357     2228     2259     2444     2709     2922     2984 
    2893     2735     2581     2421     2290     2290     2448     2705 
    2964     3113     3096     2893     2535     2209     2149     2365 
    2614     2721     2729     2702     2633     2566     2542     2600 
    2729     2828     2820     2737     2623     2571     2667     2783 
    2701     2446     2261     2282     2432     2612     2785     2902 
    2903     2756     2577     2533     2609     2710     2791     2782 
    2629     2382     2208     2299     2604     2879     2976     2868 
    2612     2376     2351     2544     2744     2803     2749     2636 
    2544     2571     2691     2814     2887     2841     2646     2430 
    2354     2420     2573     2737     2789     2686     2501     2349 
    2370     2587     2833     2944     2836     2552     2334     2403 
    2710     3003     3065     2844     2504     2293     2334     2520 
    2693     2812     2845     2720     2520     2404     2369     2376 
    2467     2641     2778     2790     2763     2782     2789     2736 
    2664     2596     2519     2471     2516     2677     2880     2972 
    2849     2596     2403     2367     2439     2569     2720     2779 
    2652     2439     2326     2394     2606     2866     3063     3094 
    2863     2432     2119     2160     2427     2668     2821     2930 
    2926     2786     2655     2612     2562     2431     2338     2451 
    2695     2874     2914     2809     2566     2307     2209     2367 
    2674     2916     2987     2926     2775     2585     2467     2486 
    2600     2731     2790     2716     2566     2479     2509     2590 
    2675     2724     2664     2515     2367     2312     2428     2700 
    2965     3036     2853     2569     2343     2250     2388     2764 
    3121     3146     2872     2563     2376     2344     2438     2544 
    2585     2592     2641     2710     2718     2666     2600     2583 
    2652     2713     2700     2728     2826     2886     2840     2627 
    2326     2191     2288     2484     2662     2687     2565     2506 
    2602     2762     2926     3041     3005     2787     2492     2238 
    2155     2369     2786     3092     3045     2675     2232     1954 
    1966     2313     2843     3223     3227     2943     2650     2536 
    2587     2631     2551     2477     2574     2809     3072     3169 
    2840     2165     1620     1552     1917     2508     3194     3775 
    3886     3376     2570     1917     1615     1709     2218     3013 
    3690     3858     3466     2802     2157     1649     1416     1624 
    2172     2760     3180     3383     3384     3136     2664     2289 
    2312     2602     2791     2751     2683     2799     3022     3028 
    2570     1822     1381     1637     2320     2952     3304     3358 
    3186     2945     2798     2705     2569     2479     2469     2411 
    2407     2628     2841     2749     2440     2079     1736     1636 
    2023     2864     3869     4571     4499     3580     2280     1328 
    1209     1792     2527     2974     3052     2884     2527     2006 
    1705     2127     3134     3969     4090     3520     2517     1498 
    1005     1285     2193     3353     4116     3958     3068     2103 
    1641     1899     2517     2976     3214     3325     3152     2652 
    2112     1840     1915     2204     2520     2763     2862     2749 
    2565     2604     2949     3354     3429     2986     2320     1965 
    2135     2552     2829     2813     2532     2191     2139     2404 
    2700     2929     3071     2951     2610     2440     2702     3098 
    3086     2605     2029     1676     1757     2349     3181     3750 
    3667     3007     2261     1906     2108     2654     3107     3223 
    3026     2578     2052     1826     2135     2741     3113     2964 
    2500     2077     1956     2290     2925     3383     3323     2889 
    2448     2209     2280     2709     3164     3146     2652     2207 
    2251     2625     2768     2493     2160     2107     2371     2878 
    3462     3789     3545     2817     2084     1749     1884     2338 
    2836     3061     2843     2292     1769     1698     2254     3123 
    3735     3843     3565     3046     2535     2295     2255     2245 
    2281     2309     2208     2147     2369     2779     3036     2899 
    2509     2313     2493     2803     3036     3071     2874     2712 
    2810     2992     2943     2643     2301     1993     1772     1803 
    2110     2577     3064     3370     3392     3237     3010     2677 
    2259     1983     2043     2367     2729     2916     2822     2605 
    2493     2505     2624     2884     3087     2955     2587     2340 
    2434     2716     2772     2520     2369     2523     2739     2805 
    2735     2582     2308     2004     1992     2370     2836     3195 
    3537     3778     3564     2798     1885     1332     1372     1925 
    2713     3433     3805     3616     2918     2168     1884     2150 
    2616     2857     2744     2512     2400     2435     2565     2743 
    2925     3024     2929     2655     2381     2308     2459     2708 
    2875     2748     2297     1877     1880     2258     2700     3095 
    3477     3672     3512     3173     2875     2577     2145     1671 
    1459     1671     2138     2550     2731     2755     2781     2852 
    2922     2994     3149     3352     3360     3032     2582     2339 
    2357     2443     2474     2412     2226     2033     2060     2336 
    2600     2619     2548     2655     2903     3142     3321     3333 
    3145     2952     2821     2523     2014     1696     1899     2358 
    2573     2505     2504     2729     3065     3322     3315     2999 
    2525     2154     2091     2290     2509     2629     2729     2891 
    3067     3106     2895     2461     2060     2060     2459     2856 
    2949     2802     2594     2394     2265     2297     2469     2681 
    2882     3051     3080     2828     2385     2097     2170     2494 
    2867     3122     3140     2868     2421     2170     2366     2803 
    3140     3176     2817     2235     1902     2120     2627     2918 
    2937     2897     2745     2436     2226     2313     2574     2781 
    2895     2944     2791     2409     2101     2116     2362     2712 
    3100     3360     3338     3024     2493     2006     1896     2189 
    2597     2891     3025     3026     2905     2689     2524     2506 
    2475     2338     2231     2268     2498     2870     3095     2957 
    2651     2552     2785     3061     3021     2625     2223     2145 
    2307     2463     2563     2671     2814     2901     2763     2409 
    2054     1973     2373     3099     3635     3592     3061     2497 
    2245     2243     2322     2469     2659     2717     2583     2448 
    2482     2602     2693     2733     2656     2496     2470     2643 
    2879     3056     3107     3003     2732     2349     2052     2062 
    2331     2565     2600     2525     2492     2567     2728     2928 
    3126     3154     2802     2222     1883     2124     2868     3585 
    3690     3115     2273     1680     1683     2238     2914     3272 
    3214     2924     2610     2392     2273     2223     2273     2386 
    2509     2670     2814     2840     2747     2604     2536     2641 
    2889     3176     3321     3145     2708     2261     2079     2199 
    2388     2488     2474     2373     2313     2386     2539     2656 
    2671     2690     2849     3105     3268     3226     3042     2779 
    2484     2281     2208     2196     2259     2448     2687     2817 
    2747     2554     2403     2431     2639     2874     3010     3028 
    2902     2663     2447     2351     2359     2393     2416     2484 
    2574     2583     2567     2683     2920     3078     3038     2880 
    2675     2474     2419     2589     2824     2848     2585     2249 
    2089     2245     2725     3284     3491     3096     2309     1678 
    1602     2022     2569     2968     3188     3202     2960     2633 
    2438     2446     2641     2911     3094     3078     2821     2438 
    2138     2072     2274     2624     2898     2959     2812     2555 
    2312     2112     2014     2191     2666     3202     3505     3380 
    2920     2508     2376     2474     2654     2736     2628     2438 
    2330     2344     2430     2525     2616     2716     2812     2840 
    2782     2700     2627     2528     2448     2529     2754     2944 
    2983     2841     2556     2304     2265     2361     2384     2334 
    2370     2524     2675     2744     2798     2926     3083     3118 
    2974     2771     2662     2679     2768     2856     2857     2686 
    2347     1938     1632     1637     2018     2560     2952     3048 
    2968     2895     2839     2748     2697     2764     2845     2786 
