Origin Time       2024/06/23 22:54:00
Lat.              35.645
Long.             140.060
Depth. (km)       72
Mag.              4.1
Station Code      SZO001
Station Lat.      35.1425
Station Long.     139.0798
Station Height(m) 74
Record Time       2024/06/23 22:54:55
Sampling Freq(Hz) 100Hz
Duration Time(s)  60
Dir.              E-W
Scale Factor      7845(gal)/8223790
Max. Acc. (gal)   3.512
Last Correction   2024/06/23 22:54:55
Memo.             
[...]
   19653    19627    19599    19629    19660    19637    19602    19633 
   19666    19619    19607    19651    19624    19624    19672    19607 
   19597    19680    19619    19592    19674    19631    19596    19662 
   19643    19602    19630    19633    19623    19658    19657    19596 
   19614    19668    19610    19603    19684    19645    19593    19630 
   19627    19635    19649    19614    19643    19651    19607    19637 
   19633    19606    19658    19629    19593    19681    19665    19585 
   19630    19651    19611    19634    19651    19624    19630    19637 
   19627    19641    19630    19624    19657    19610    19591    19684 
   19641    19570    19680    19672    19572    19646    19657    19585 
   19642    19650    19608    19645    19631    19619    19647    19614 
   19626    19662    19619    19623    19649    19611    19620    19651 
   19624    19624    19646    19624    19633    19650    19614    19614 
   19647    19646    19631    19618    19618    19634    19645    19653 
   19627    19599    19643    19658    19602    19618    19670    19641 
   19615    19622    19630    19647    19622    19624    19666    19623 
   19615    19653    19616    19618    19647    19620    19630    19657 
   19634    19600    19591    19635    19701    19695    19611    19542 
   19577    19676    19696    19683    19692    19615    19522    19570 
   19654    19674    19693    19654    19539    19557    19670    19646 
   19614    19700    19738    19673    19533    19462    19637    19761 
   19700    19680    19611    19539    19561    19539    19651    19892 
   19791    19349    19198    19710    20150    19759    19276    19450 
   19811    19928    19619    19032    19261    20358    20491    19348 
   18862    19550    19947    19537    19321    19719    19932    19726 
   19696    19530    19111    19469    20050    19658    19472    20154 
   20035    19145    19319    19893    19479    19414    20213    20096 
   19253    19133    19202    19417    20374    20364    19060    18881 
   19815    20047    19573    19460    19934    20144    19693    19111 
   19020    19554    20083    20209    19894    19192    19030    19629 
   19823    19427    19476    20167    20173    19318    19184    19560 
   19480    19669    20012    19611    19381    20056    20121    19083 
   19030    20038    19831    19164    19754    20209    19785    19476 
   19269    19183    19606    20061    19938    19558    19630    19735 
   19246    19087    19804    20397    20186    19313    18698    19402 
   20443    20119    19129    19248    20066    20077    19488    19110 
   19222    19795    19877    19305    19435    20358    20251    18912 
   18698    19666    19894    19855    20070    19931    19772    19676 
   19176    18810    19607    20560    19958    19122    19399    19642 
   19734    20123    19699    18750    19256    20471    20262    19404 
   19256    19429    19581    19726    19716    19651    19708    19649 
   19419    19444    19738    19849    19712    19670    19433    19044 
   19691    20548    19858    19138    19708    19996    19354    18847 
   19170    20052    20637    20133    18846    18767    20220    20518 
   19137    18608    19772    20791    20367    19251    18701    19082 
   19789    19971    19506    19461    20167    20043    19029    19013 
   19911    20065    19473    19587    20263    20016    19149    18947 
   19404    19974    20186    19724    19232    19488    19865    19533 
   19035    19329    20189    20383    19691    19319    19527    19427 
   19317    19730    19917    19920    20086    19573    18905    19259 
   19826    19888    19776    19568    19440    19715    19961    19488 
   19074    19678    20070    19472    19495    20291    19990    18956 
   19044    19827    19861    19309    19283    20178    20713    19700 
   18733    19330    19778    19314    19665    20258    19670    19261 
   19603    19573    19512    19809    19753    19514    19646    19861 
   19791    19326    19003    19626    20467    20214    19251    18937 
   19534    19917    19553    19261    19569    20128    20313    19855 
   19232    19026    19381    19774    19707    19645    19896    20012 
   19916    19592    18985    18894    19674    20434    20360    19426 
   18844    19392    19777    19483    19577    19988    19951    19618 
   19419    19377    19580    19969    19782    19229    19431    20096 
   20213    19469    18765    19286    20162    20032    19413    19296 
   19645    19915    19973    19734    19377    19504    19866    19712 
   19155    19103    19697    20081    20112    19996    19584    19214 
   19294    19560    19602    19500    19656    20028    19946    19313 
   19120    19616    19981    20017    19900    19477    19160    19363 
   19529    19597    19950    20019    19708    19703    19654    19217 
   19256    19878    20078    19828    19624    19206    18902    19553 
   20375    20077    19381    19446    19695    19499    19309    19396 
   19754    20356    20401    19415    18748    19261    19824    19759 
   19541    19596    20012    20135    19425    18721    19049    20040 
   20559    20160    19295    18981    19657    20058    19454    19217 
   19905    20120    19502    19268    19587    19754    19888    19984 
   19431    18733    19006    19975    20584    20314    19519    19084 
   19269    19612    19770    19782    19697    19408    19426    19854 
   19724    19468    19830    19784    19241    19371    19986    20104 
   19584    19128    19333    19846    19878    19504    19446    19904 
   20183    19674    19137    19410    19839    19745    19368    19259 
   19687    20190    20096    19263    18779    19662    20524    19867 
   18958    19264    19961    20061    19785    19332    19156    19597 
   20019    19977    19600    19350    19552    19831    19826    19471 
   19201    19453    19776    19857    19793    19660    19714    19742 
   19444    19323    19592    19657    19585    19889    19908    19330 
   19249    19719    19907    19927    19889    19507    19194    19444 
   19780    19657    19427    19585    19869    19776    19581    19647 
   19657    19611    19722    19674    19471    19492    19719    19969 
   19834    19138    18918    19629    20108    20035    19905    19375 
   18890    19538    20228    19807    19553    19913    19737    19318 
   19441    19568    19418    19504    19900    20013    19564    19269 
   19537    19851    20025    20001    19519    19017    19147    19714 
   20131    20048    19591    19354    19539    19708    19467    19133 
   19523    20120    19927    19564    19460    19481    19919    20123 
   19564    19237    19518    19703    19646    19545    19429    19560 
   19954    19975    19445    19232    19681    19973    19797    19593 
   19543    19611    19549    19306    19488    20179    20375    19580 
   18881    19144    19572    19564    19722    20137    20146    19656 
   19134    18991    19383    19998    20277    19954    19413    19317 
   19580    19660    19607    19669    19807    19720    19323    19203 
   19504    19900    20266    19996    19202    19121    19862    20181 
   19434    18940    19560    19788    19560    20169    20395    19360 
   18897    19495    19695    19624    19967    19855    19233    19279 
   19715    19768    19731    19649    19448    19529    19963    20231 
   19719    19006    19180    19669    19650    19607    19974    20360 
   19913    18736    18419    19579    20613    20325    19561    19288 
   19426    19669    19684    19525    19638    19707    19533    19683 
   19967    19731    19236    19295    19797    19859    19533    19477 
   19711    19874    19751    19502    19462    19664    19797    19639 
   19491    19735    19909    19565    19244    19260    19525    20013 
   20067    19589    19545    19761    19419    19191    19759    20237 
   19948    19372    19005    19068    19672    20399    20463    19710 
   18856    18868    19550    19712    19719    20198    20231    19851 
   19575    19059    18859    19560    20329    20220    19438    19078 
   19445    19786    19861    19746    19398    19299    19768    20047 
   19558    19195    19696    20090    19565    19138    19645    20101 
   19928    19715    19525    19265    19174    19314    19565    19913 
   20298    20143    19472    19219    19403    19456    19499    19758 
   19989    19974    19799    19361    18881    19160    20097    20694 
   20293    19188    18732    19392    19757    19333    19380    20133 
   20256    19499    19260    19786    19843    19419    19354    19491 
   19749    20224    19980    19039    18976    19819    20112    19606 
   19364    19762    20012    19700    19234    19213    19719    20061 
   19846    19414    19210    19564    20181    20096    19260    18985 
   19739    20331    19847    18879    18824    19853    20418    19916 
   19541    19712    19599    19205    19136    19421    19953    20540 
   20615    19739    18546    18384    19282    20032    20177    20078 
   19908    19735    19556    19188    19070    19773    20383    19830 
   19101    19361    19857    19836    19703    19492    19109    19264 
   19905    20061    19885    19961    19808    19151    18995    19714 
   19920    19391    19433    19884    20073    20132    19754    18986 
   18918    19634    19955    19786    19739    19616    19566    19819 
   19573    19035    19656    20736    20127    18524    18315    19503 
   20551    20772    20028    18998    19107    19863    19731    19327 
   19390    19356    19668    20432    20196    19141    19087    19857 
   19863    19356    19440    19820    19777    19415    19460    19877 
   19827    19718    19888    19421    18963    19604    20283    19912 
   18998    18727    19647    20619    20291    19413    19251    19538 
   19688    19576    19376    19676    20291    19876    18701    18909 
   20178    20349    19758    19650    19580    19234    19394    19948 
   19831    19349    19357    19557    19759    20110    20131    19469 
   18970    19475    20081    19676    19147    19656    20106    19515 
   19153    19530    19880    20089    19939    19365    19110    19535 
   19967    19835    19558    19322    19210    19761    20297    19946 
   19446    19273    19224    19705    20349    19808    18812    19282 
   20351    20102    19187    19049    19527    19982    20247    19980 
   19225    18897    19404    20109    20291    19939    19411    18982 
   19126    19874    20202    19588    19103    19651    20274    19776 
   18940    19174    20024    20200    19872    19631    19323    19313 
   19788    19819    19272    19215    19688    19780    19722    20025 
   19954    19388    19344    19746    19766    19529    19539    19683 
   19618    19608    19917    19946    19305    18804    19384    20474 
   20367    19076    18733    19934    20603    19637    18677    19102 
   19986    20223    20043    19626    19083    19283    19970    19923 
   19529    19554    19634    19745    19974    19641    19008    19206 
   19846    19877    19673    19872    20027    19726    19238    18905 
   19133    19988    20413    19859    19440    19499    19417    19530 
   19751    19569    19672    20119    19973    19336    18966    19291 
   19928    20035    19696    19467    19516    19884    20025    19507 
   19086    19348    19757    19828    19815    19809    19562    19406 
   19600    19622    19446    19653    20143    20142    19403    18863 
   19190    19697    19961    20223    19982    19120    18891    19537 
   19986    20042    19911    19527    19326    19658    19786    19350 
   19309    19754    19894    19776    19647    19623    19761    19631 
   19232    19322    19847    19961    19755    19597    19402    19426 
   19581    19693    20051    20127    19516    19117    19392    19792 
   19880    19576    19310    19676    20054    19606    19118    19504 
   20005    19593    19221    19886    20328    19723    18958    18889 
   19670    20422    20248    19554    19145    19230    19666    19996 
   19731    19360    19619    19921    19539    19210    19565    19950 
   20015    19823    19294    19105    19643    20075    19994    19572 
   18954    18956    20017    20619    19881    19383    19627    19292 
   18675    19290    20602    20665    19732    19375    19359    19026 
   19120    20056    20409    19448    19022    19757    19966    19539 
   19492    19734    19935    19809    19176    18937    19734    20456 
   20098    19375    19418    19668    19259    19342    19926    19631 
   19654    20279    19593    18603    18987    19622    19797    20304 
   20779    20187    19383    19171    18925    18993    19259    19080 
   19626    20927    21506    20973    19228    17200    17215    19057 
   20521    21436    21529    19961    18546    18801    19488    19453 
   19248    19596    19931    20061    20256    19938    19469    19411 
   19036    18744    19228    19484    19361    19819    20390    20533 
   20660    20426    19701    19388    19395    18901    18139    17813 
   18400    19924    21492    22403    21929    19369    16864    17093 
   18729    19819    21109    22167    20973    18478    17818    19639 
   21080    20468    19719    19276    17992    17649    19238    20181 
   19448    19079    20223    21166    20375    19576    20406    20657 
   18793    17872    19354    20181    19985    20853    20713    17695 
   15950    18666    21767    21301    19961    20390    20501    18990 
   17714    18242    19878    20973    21273    21170    20495    19840 
   19718    19122    17702    17180    18304    19291    19731    20864 
   21703    20650    18733    18149    19187    19946    19616    19646 
   20506    21100    20738    19116    17748    18891    20171    18924 
   18310    19998    21163    21166    20569    18882    17871    19269 
   20729    19944    18654    18825    19448    19612    20345    21313 
   20299    18547    19414    20750    19568    18473    19009    19434 
   19209    19394    20707    21254    19803    18451    18150    18750 
   20098    20841    20798    19944    18187    18034    19781    20362 
   19793    19758    19699    19535    20383    21054    19566    17913 
   18543    19645    19550    19454    20376    20988    19638    18314 
   19253    20567    20493    20101    20147    19691    18638    18330 
   19175    20304    20359    19176    18736    19650    20452    20563 
   19707    18247    18154    19507    20549    21105    21061    20129 
   19399    18709    18007    18991    20016    19003    19234    21606 
   21305    18171    17586    19835    20817    20518    20476    19850 
   18891    18522    18445    19051    20518    21087    20055    19508 
   19978    19407    18311    19024    19998    18897    18628    20981 
   21662    19685    18813    19163    19380    19847    20143    20244 
   20499    19820    18220    17671    18819    20389    21559    21443 
   19414    18017    19025    20233    20318    19291    17828    18496 
   20838    21282    19518    18435    19668    20834    19492    18392 
   19985    21384    20441    19110    18774    18724    18805    19217 
   19693    20406    20548    19076    18276    19831    21226    20602 
   19279    19435    20536    20092    18808    18582    18954    19151 
   19315    19957    20592    20456    19643    18391    18338    20204 
   21263    20571    19715    18909    18561    19267    19678    19445 
   20074    20947    20209    18682    18581    19754    20015    19255 
   18967    18927    19415    20918    20947    19068    18997    20433 
   19593    18183    19531    21301    20838    19084    17880    18581 
   20119    20301    19823    20085    20421    20085    19448    19029 
   18625    18546    20289    22050    19980    16983    18345    21362 
   21172    19130    18534    19624    20700    20124    18615    18555 
   19376    19234    19646    21439    21521    19148    18301    19707 
   19396    17824    18993    21450    21216    19774    20214    20630 
   18832    17336    18208    19584    19986    20421    21277    20999 
   18766    17047    18507    20907    20765    19650    20191    20618 
   19201    18121    18597    19006    19357    20480    20961    20395 
   20156    19654    18378    18045    19056    20514    21562    20526 
   18685    18991    19388    18461    19273    21008    20731    19719 
   19246    18859    18720    18901    19827    21563    21809    19529 
   17666    18341    19696    19596    19014    19803    20625    19827 
   20067    21641    19992    16910    18095    20823    20075    18277 
   19422    21828    21405    18528    17469    19074    19749    19137 
   20575    22370    19965    16310    17545    21554    22110    19612 
   18828    20353    20706    18994    18154    18985    19175    18686 
   19614    21420    21078    18611    18133    20293    20860    19219 
   18851    20155    20536    19650    19344    19379    18570    18399 
   19985    21244    20497    19357    19781    20343    19172    18188 
   19059    19608    19199    20113    21282    20169    18651    18844 
   19372    19381    19774    20611    20598    19348    18588    19029 
   19661    20513    20725    18994    17809    19259    20988    21136 
   20380    19187    17895    17739    19311    20974    21011    20092 
   19701    19985    19770    18724    18531    19680    20378    20093 
   19797    19673    19344    18956    19047    19575    19755    19831 
   20788    21277    19758    18138    17907    18374    19731    21193 
   20684    19294    19041    19172    19427    20506    21236    20501 
   18952    17849    18191    19357    19959    20278    20537    19920 
   19446    20322    20683    19240    17956    18369    19550    20151 
   20155    20178    20152    19735    19151    19053    19511    19754 
   19776    20100    19975    18955    18582    19693    20641    20401 
   20043    19827    18860    17801    18407    20447    21636    20991 
   19566    18431    18349    19402    20291    20266    20136    20050 
   19398    18820    19020    19226    19210    19965    21027    20640 
   19373    19321    19855    19184    18316    18817    19835    20402 
   20829    20726    19406    17865    17944    19778    21132    20557 
   19591    19249    18781    18774    19905    20960    20804    19545 
   18497    18767    19577    20202    20646    19957    18534    18904 
   20725    20923    19349    18345    18454    19002    20024    20981 
   20785    19778    19020    18887    19499    20202    19820    18860 
   18796    19584    20285    20316    19607    18974    19265    20097 
   20750    20768    19560    17983    18040    19368    20124    20196 
   19981    19498    19430    20001    20430    20439    20069    19314 
   18835    18800    18673    19040    20204    20939    20734    19932 
   18894    18549    19190    19909    20406    20715    19992    18412 
   17910    19076    20383    20703    20217    19742    19689    19350 
   18661    18843    19565    19795    20109    20459    20281    19950 
   19174    18306    18893    20082    20139    19761    19607    19438 
   19681    19885    19737    20343    20702    19322    18211    18713 
   19248    19467    20194    20638    20123    19780    19977    19730 
