Origin Time       2024/06/23 22:54:00
Lat.              35.645
Long.             140.060
Depth. (km)       72
Mag.              4.1
Station Code      SZO001
Station Lat.      35.1425
Station Long.     139.0798
Station Height(m) 74
Record Time       2024/06/23 22:54:55
Sampling Freq(Hz) 100Hz
Duration Time(s)  60
Dir.              U-D
Scale Factor      7845(gal)/8223790
Max. Acc. (gal)   1.102
Last Correction   2024/06/23 22:54:55
Memo.             
[...]
    1266     1260     1217     1237     1266     1231     1237     1277 
    1264     1256     1269     1240     1223     1274     1336     1313 
    1239     1194     1177     1188     1250     1296     1273     1240 
    1232     1231     1237     1266     1294     1269     1212     1221 
    1283     1321     1308     1237     1179     1194     1198     1185 
    1252     1381     1420     1300     1152     1125     1193     1216 
    1185     1309     1491     1366     1136     1162     1298     1335 
    1232     1124     1287     1632     1609     1073      789     1148 
    1382     1208     1136     1258     1389     1350     1080      918 
    1194     1692     1701     1175     1166     1763     1620      716 
     758     1726     1633      770      966     1294      804      985 
    1648     1371     1012     1343     1286      908     1499     2061 
    1224      761     1382     1285     1016     1416     1138      845 
    1564     1649      850      882     1696     1636      693      810 
    1740     1678     1201     1189     1278     1198      904     1067 
    1641     1486     1116     1433     1458      648      615     1804 
    1958     1065     1165     1410      955     1001     1325     1224 
    1308     1647     1310      587      978     1788     1336      766 
    1293     1868     1566      872      982     1572     1325      807 
     934     1448     1876     1637     1034      823      688      903 
    1830     1949     1116     1115     1447      924      650     1368 
    2045     1779      746      314     1402     2215     1352      511 
     976     1757     1448      696     1364     2116     1144      467 
    1070     1343     1343     1713     1528      819      922     1350 
    1247     1483     1648      873      730     1649     1709     1024 
    1165     1506     1066      810     1236     1534     1591     1354 
     687      851     1846     1633      677      969     1717     1335 
     865     1541     1671      739     1027     1786     1190      772 
    1335     1823     1540      602      453     1410     1985     1530 
     758     1003     1819     1453      702     1051     1714     1628 
    1094      993     1449     1609     1042      604     1015     1660 
    1771     1455      918      687     1267     1468      901     1251 
    2030     1541      815     1050     1385     1235     1128     1239 
    1225     1177     1348     1339      970      954     1354     1390 
    1125     1232     1595     1663     1389      947      853     1429 
    1606     1128     1197     1475     1147      791      982     1432 
    1445     1329     1549     1278      864     1350     1638     1156 
    1063     1302     1287     1205     1116     1350     1599      853 
     375     1499     2138     1202      924     1732     1497      503 
     804     1767     1776     1279     1016     1020     1206     1228 
    1116     1223     1333     1258     1304     1433     1266     1086 
    1375     1543     1105     1001     1574     1605      850      650 
    1355     1730     1313     1019     1169     1209     1128     1260 
    1437     1329     1115     1179     1493     1552     1161      949 
    1189     1363     1332     1242     1225     1374     1277      889 
    1012     1647     1794     1239      760      859     1323     1553 
    1395     1223     1057     1108     1521     1429     1035     1279 
    1541     1300     1013      985     1235     1459     1359     1166 
    1308     1495     1201      903     1121     1339     1202     1256 
    1536     1452     1119      943     1127     1532     1476     1117 
    1275     1505     1143      830     1116     1493     1417     1194 
    1269     1381     1251     1062     1105     1422     1520     1256 
    1116     1210     1233     1020     1080     1553     1482     1154 
    1464     1347      550      811     1833     1833     1165      985 
    1117     1147     1113     1134     1410     1668     1287      858 
    1263     1686     1443     1237     1111      824     1063     1628 
    1502     1065     1086     1156     1117     1290     1386     1343 
    1509     1501      970      826     1394     1474     1120     1297 
    1417      993      831     1251     1621     1489     1197     1250 
    1368     1161     1148     1564     1621     1070      616      997 
    1756     1551      985     1310     1404      780      936     1764 
    1748     1059      962     1269     1123      942     1301     1722 
    1518      839      739     1506     1844     1198      830     1323 
    1652     1304     1007     1124     1228     1290     1426     1318 
    1080     1111     1278     1298     1277     1337     1302     1251 
    1283     1259     1306     1219      915     1001     1343     1466 
    1498     1424     1121      882     1135     1537     1393     1138 
    1321     1447     1204      967     1208     1656     1383      799 
    1036     1497     1364     1179     1266     1348     1229     1075 
    1332     1593     1242     1069     1356     1182      945     1282 
    1408     1244     1318     1219      974     1073     1306     1560 
    1634     1193      895     1127     1296     1305     1354     1352 
    1169      913     1182     1698     1447     1013     1213     1352 
    1267     1358     1269     1028     1117     1374     1406     1193 
    1116     1298     1291     1196     1335     1317     1116     1208 
    1382     1328     1239     1186     1247     1333     1179     1105 
    1359     1539     1251      899     1177     1489     1259     1147 
    1161     1169     1474     1507     1169     1088     1105     1131 
    1291     1390     1502     1536     1220      784      720     1239 
    1804     1780     1290      918      985     1208     1271     1240 
    1242     1468     1563     1084      843     1243     1440     1224 
    1050     1263     1707     1613     1115     1098     1156      882 
    1112     1602     1435     1147     1212     1210     1088     1090 
    1362     1624     1449     1107     1065     1273     1390     1356 
    1206      923     1150     1629     1175      932     1649     1385 
     521     1034     1892     1656     1183     1201     1059      788 
    1116     1564     1655     1570     1028      679     1309     1657 
    1108     1017     1671     1613      661      670     1772     1845 
     861      611     1318     1880     1609     1047     1027     1154 
     981     1115     1628     1760     1372      943      885     1256 
    1506     1281     1062     1143     1305     1332     1251     1304 
    1347     1217     1208     1277     1242     1297     1355     1144 
    1017     1321     1490     1200     1183     1506     1301      911 
    1081     1251     1320     1582     1318      827     1104     1491 
    1391     1278     1269     1289     1236     1086     1250     1505 
    1375     1219     1179     1038     1013     1308     1563     1417 
    1055      889     1156     1448     1333     1300     1329     1078 
    1188     1513     1394     1298     1246      967     1040     1367 
    1341     1306     1489     1194      754     1243     1799     1358 
     862     1031     1347     1378     1291     1337     1366     1171 
     970     1173     1512     1420     1197     1221     1255     1232 
    1290     1355     1283     1128     1119     1282     1386     1309 
    1139     1078     1256     1448     1306     1027     1161     1470 
    1220      870     1368     1983     1539      785      831     1179 
    1270     1391     1505     1304     1182     1375     1201      791 
    1069     1613     1541     1120     1032     1394     1605     1233 
     795      861     1227     1548     1715     1629     1247      787 
     776     1267     1447     1242     1455     1622      963      521 
    1183     1848     1463      822     1197     1875     1459      961 
    1367     1391      787      886     1503     1486     1147     1314 
    1512     1220      963     1007     1185     1448     1449     1119 
    1098     1421     1445     1220     1178     1300     1344     1221 
    1236     1378     1165     1012     1154     1026     1252     2056 
    1899      796      625     1318     1283      930     1339     1725 
    1412     1016     1001     1078     1082     1289     1507     1479 
    1367     1108     1120     1680     1510      589      853     1813 
    1516      851     1057     1229     1148     1355     1405     1323 
    1479     1266      773     1004     1614     1526     1012     1043 
    1416     1340     1181     1416     1375      939      997     1602 
    1794     1242      799      922     1143     1420     1755     1557 
     923      726     1232     1657     1279      886     1449     1788 
    1016      768     1499     1655     1086      734      976     1609 
    1811     1194      842     1383     1549      961      985     1559 
    1528     1080      886     1100     1479     1462     1165     1144 
    1158     1246     1539     1328      999     1341     1486      943 
     827     1479     1626     1147     1281     1540     1075      874 
    1256     1385     1389     1445     1154     1093     1520     1405 
     959     1136     1394     1301     1359     1316      945     1084 
    1602     1431      942     1027     1356     1213      886     1318 
    1846     1239      703     1332     1884     1426      699      865 
    1614     1610     1128     1244     1479     1115      938     1300 
    1231     1020     1426     1466     1048     1347     1690     1142 
     742     1206     1601     1318     1115     1359     1294     1004 
    1205     1390     1204     1196     1278     1224     1252     1233 
    1175     1385     1568     1243      847     1078     1574     1671 
    1263      756      989     1657     1522      980     1054     1448 
    1398      932     1066     1737     1472      797     1113     1502 
    1305     1323     1352     1003      899     1206     1347     1278 
    1433     1606     1385     1032     1013     1356     1516     1192 
    1036     1351     1387     1005     1019     1547     1595      889 
     783     1552     1656     1138     1169     1248      943     1104 
    1615     1471     1001     1066     1321     1351     1358     1350 
    1395     1394     1086      876     1055     1298     1405     1413 
    1387     1275     1198     1329     1318     1069     1059     1216 
    1209     1277     1449     1370     1120     1070     1208     1354 
    1485     1449     1182     1009      997     1078     1499     1671 
    1152     1042     1352     1154     1023     1348     1512     1269 
    1058     1345     1578     1256     1016     1127     1188     1171 
    1297     1456     1526     1437      953      710     1274     1557 
    1283     1329     1358     1147     1121     1156     1387     1636 
    1275      843      946     1391     1722     1451     1057      994 
    1071     1498     1601      973     1009     1449     1078     1005 
    1628     1607     1147     1044     1086     1169     1251     1286 
    1509     1560     1086      950     1368     1242      857     1216 
    1682     1491     1028     1034     1512     1525     1138     1144 
    1142     1026     1394     1629     1220     1092     1278     1012 
     993     1568     1594     1066     1017     1359     1382     1152 
    1262     1580     1383      822      796     1431     1745     1227 
     854     1111     1312     1525     1607     1116      926     1031 
    1032     1649     1814      976     1074     1586      969      657 
    1568     2010     1139      548     1129     1649     1422     1088 
    1354     1809     1165      365     1069     1791     1296     1034 
    1603     1701      945      588     1143     1668     1498     1088 
    1183     1611     1485      893      868     1313     1485     1452 
    1358     1212     1021      805      939     1235     1318     1541 
    1730     1487     1221     1223     1235     1019      858     1090 
    1352     1574     1752     1196      607     1174     1858     1433 
     619      715     1541     1795     1389     1317     1607     1431 
     882      704      899     1325     1607     1269     1212     1503 
     942      658     1611     2027     1282      571      820     1896 
    2057      873      612     1578     1547      757     1163     1841 
    1293      747      961     1266     1571     1584     1274     1100 
     904     1123     1821     1626      823      907     1522     1561 
    1028      724     1161     1777     1634      918      670     1220 
    1833     1491      504      787     1999     1609      637     1328 
    2038     1417      854     1158     1564     1132      618     1202 
    1941     1730     1005      571      974     1691     1611     1032 
     931     1178     1254     1327     1470     1233      810      957 
    1649     1825     1046      726     1391     1536     1092     1128 
    1459     1656     1475      893      733     1340     1806     1491 
     996      953     1140     1362     1539     1296      699      594 
    1478     2234     1530      614     1159     1791     1259      897 
    1289     1304      936     1377     2019     1348      454      785 
    1406     1570     1486     1088      930     1502     1809     1360 
    1024      928      769     1065     1684     1679     1233      958 
     783     1050     1838     2006     1108      364      739     1668 
    2224     1911      750       98      880     1655     1402     1293 
    1848     1682      797     1015     1695     1071      480     1386 
    2197     1522      719     1108     1537     1036      672     1200 
    1857     1647      928      885     1246     1120      989     1368 
    1745     1682     1247      778      756     1273     1745     1567 
    1073     1120     1506     1476     1304     1215      750      527 
    1304     1988     1696      931      363      815     1930     2030 
    1147      822     1429     1740     1143      803     1169     1456 
    1421     1105      901     1327     1930     1871      934      229 
     859     1728     1615     1289     1225      967      864     1251 
    1582     1756     1819     1206      616      977     1026      734 
    1472     1993     1483     1146      901      737     1227     1634 
    1574     1363     1120     1347     1579     1094      923     1354 
    1327      969     1104     1502     1416     1132     1190     1294 
    1348     1287     1143     1279     1183      889     1252     1746 
    1603     1101      986     1431     1386      766      918     1779 
    1991     1169      448      889     1767     1717     1023      870 
    1270     1418     1128      850     1155     1926     1922      770 
     271     1283     1945     1293      869     1274     1402     1162 
    1225     1390     1428     1448     1278      994     1085     1471 
    1532     1252      999      949     1262     1483     1243     1200 
    1444     1301      994     1208     1537     1215      889     1167 
    1304     1217     1370     1413     1328     1468     1455     1036 
     724      970     1680     2019     1336      673     1117     1517 
     905      731     1495     1713     1487     1495     1073      741 
    1182     1321     1264     1657     1466      835      911     1132 
    1112     1482     1798     1340      818      963     1297     1401 
    1463     1259      866     1213     1782     1406     1058     1201 
     897     1017     1976     1976      945      554     1011     1409 
    1436     1259     1023     1162     1702     1746     1181      785 
     747     1098     1687     1799     1381     1042      999     1096 
    1227     1466     1540     1248     1139     1231     1066      926 
    1102     1503     1795     1463      876      897     1339     1398 
    1071     1096     1425     1375     1271     1539     1409      783 
     838     1543     1614     1107     1007     1219     1229     1183 
    1321     1587     1526     1058     1027     1202      885     1081 
    1775     1544      977     1123     1360     1262     1336     1563 
    1223      805     1294     1657     1273     1267     1317      880 
     895     1355     1614     1555     1177     1004     1201     1267 
    1213     1186     1362     1591     1243      949     1293     1374 
    1182     1344     1472     1233      843      649     1036     1784 
    1837      999      761     1526     1734     1167     1023     1298 
    1378     1273     1235     1301     1285     1205     1071      891 
    1162     1668     1522     1097     1101     1111      931     1242 
    1746     1445     1050     1390     1431      882      766     1127 
    1470     1686     1555     1179     1136     1298     1088      861 
    1233     1674     1417     1046     1341     1609     1282     1073 
    1262     1366     1223     1085     1232     1418     1209      978 
    1250     1615     1512     1178      982      978     1291     1537 
    1170      881     1283     1548     1213     1021     1248     1340 
    1115     1155     1548     1416      905     1067     1566     1574 
    1198      907     1162     1570     1374     1117     1220     1107 
     984     1340     1669     1417      973     1132     1630     1377 
     791     1128     1710     1378      842     1046     1607     1717 
    1167      634     1024     1894     1757      815      734     1389 
    1335      999     1394     1518      951     1005     1501     1470 
    1350     1291      985      932     1233     1308     1304     1557 
    1584     1147      967     1266     1387     1258     1231     1193 
    1144     1290     1405     1297     1225     1237     1138     1173 
    1470     1408     1015     1136     1431     1140      982     1448 
    1617     1177      885     1093     1359     1233     1148     1464 
    1551     1287     1105      992     1107     1372     1410     1405 
    1347     1158     1223     1348     1178      953      963     1323 
    1684     1606     1294     1061      966     1043     1324     1578 
    1435     1173     1183     1278     1441     1495     1039      770 
    1228     1377      940     1188     1912     1630      826      880 
    1412     1464     1111     1046     1401     1439     1102     1259 
    1595     1154      745     1256     1543     1098     1090     1553 
    1532     1127      967     1098     1314     1425     1306     1227 
    1258     1143     1161     1435     1449     1150     1007     1205 
    1337     1128     1082     1327     1404     1387     1382     1301 
    1317     1343     1151      965     1063     1289     1350     1402 
    1563     1424     1012      951     1248     1420     1324     1162 
    1171     1260     1256     1314     1460     1395     1086      994 
    1269     1316     1073     1228     1537     1228      824     1236 
    1811     1433      780      994     1405     1269     1277     1586 
    1463     1015      927     1239     1429     1264     1140     1281 
    1393     1300     1104     1116     1377     1393     1131     1074 
    1320     1517     1331     1107     1263     1350     1119      993 
    1267     1678     1503      924      885     1216     1355     1389 
    1300     1105     1132     1383     1499     1329     1150     1127 
