Origin Time       2024/06/23 22:54:00
Lat.              35.645
Long.             140.060
Depth. (km)       72
Mag.              4.1
Station Code      SZO003
Station Lat.      34.8158
Station Long.     139.0544
Station Height(m) 149
Record Time       2024/06/23 22:55:00
Sampling Freq(Hz) 100Hz
Duration Time(s)  60
Dir.              N-S
Scale Factor      7845(gal)/8223790
Max. Acc. (gal)   3.255
Last Correction   2024/06/23 22:54:59
Memo.             
[...]
     675      684      816     1001     1144     1131      961      703 
     475      503      811     1066     1003      711      430      365 
     622     1100     1509     1583     1294      892      642      635 
     778      815      604      337      298      560      893     1053 
    1001      788      598      711     1092     1412     1431     1128 
     727      534      618      820     1031     1102      895      591 
     506      650      827      926      969      981      981      989 
     869      537      260      286      487      692      885     1013 
    1004      972     1067     1201     1186     1024      908      947 
    1040     1098     1066      831      495      352      472      668 
     804      837      749      677      729      773      781      857 
     884      787      803     1070     1324     1275     1057      957 
     932      814      665      587      558      556      548      515 
     525      595      704      881     1115     1308     1343     1228 
    1090      981      877      750      660      696      757      704 
     670      754      807      757      684      664      746      868 
     913      907      899      903      958     1023      997      926 
     905      927      877      729      633      673      768      815 
     762      704      796      976     1036      928      792      750 
     801      835      780      707      706      706      660      691 
     822      976     1159     1294     1240     1051      876      749 
     688      718      780      819      797      662      542      606 
     772      892      928      870      757      669      681      811 
     953      973      919      932     1001     1100     1220     1174 
     949      770      662      598      648      712      629      465 
     426      591      834      980     1007      985      930      878 
     923     1034     1117     1165     1150     1003      741      486 
     355      394      583      792      882      908      918      843 
     749      768      845      870      896     1015     1192     1287 
    1223     1066      877      661      507      521      637      718 
     731      711      676      629      577      562      622      745 
     909     1101     1302     1424     1345     1113      888      758 
     737      739      684      603      569      616      741      855 
     849      722      619      653      845     1116     1287     1248 
    1055      850      760      818      951      959      738      469 
     346      398      577      777      886      913      954     1077 
    1223     1254     1147      954      710      553      600      710 
     737      747      770      754      729      743      823      930 
     980     1021     1155     1275     1205      985      820      749 
     627      457      417      553      692      680      568      499 
     511      580      824     1278     1659     1729     1517     1162 
     810      550      511      739      896      656      303      270 
     502      765      973     1054      949      730      575      650 
     985     1355     1441     1255     1040      889      797      797 
     815      696      484      392      530      739      795      747 
     810      951     1021     1059     1134     1156     1016      692 
     342      247      499      885     1119     1120     1012      950 
     992     1009      854      627      546      654      827      961 
     997      891      712      630      661      733      859     1061 
    1260     1317     1128      769      415      233      338      676 
    1026     1216     1197      974      653      488      660      996 
    1179     1104      862      619      572      815     1183     1355 
    1163      761      481      484      606      700      764      750 
     658      568      599      876     1264     1399     1167      823 
     588      552      774     1135     1312     1131      742      379 
     162      140      342      738     1158     1348     1244     1082 
    1075     1188     1260     1131      805      507      392      430 
     567      746      882      957      950      835      675      633 
     803     1039     1094      943      776      712      726      838 
    1035     1154     1059      834      618      453      425      562 
     750      920     1026     1051     1061     1066     1011      868 
     727      719      784      789      764      801      878      916 
     903      882      888      889      831      750      751      792 
     766      703      688      788      959     1040      988      877 
     747      660      688      747      689      626      804     1161 
    1405     1360     1109      847      648      504      483      621 
     827      939      864      664      487      468      653      876 
     962      989     1080     1196     1240     1139      920      741 
     712      751      772      743      641      553      588      731 
     884      930      865      766      680      727     1009     1360 
    1493     1279      842      457      359      575      932     1129 
     985      642      360      236      302      572      923     1163 
    1224     1171     1096     1065     1113     1158     1084      884 
     630      448      510      826     1138     1134      758      310 
     178      437      877     1255     1381     1205      866      588 
     504      579      733      899     1009     1008      869      714 
     754      967     1071      957      803      780      842      889 
     943      949      803      604      515      576      758      926 
     965      945      901      800      783      928     1054     1026 
     909      780      649      575      661      864      985      930 
     749      545      467      603      861     1093     1224     1233 
    1134      999      935      953      957      919      859      720 
     499      319      263      332      542      845     1117     1263 
    1251     1158     1107     1098     1053      922      710      517 
     486      575      604      599      676      735      726      769 
     920     1121     1283     1344     1290     1124      868      666 
     684      831      859      704      540      508      561      595 
     576      576      687      892     1080     1136     1009      804 
     745      882     1058     1167     1194     1144     1011      770 
     523      483      650      791      776      724      801      982 
    1067      953      760      643      654      746      882     1053 
    1163     1090      884      681      488      394      546      749 
     765      791     1012     1264     1306     1098      804      633 
     653      747      783      824      950     1009      873      650 
     514      488      550      731      980     1138     1139     1063 
     959      831      795      920     1053     1012      804      604 
     610      784      885      818      726      700      699      770 
     967     1112     1053      928      849      762      695      734 
     876      981      896      692      623      729      814      792 
     765      819      915      962      943      920      911      864 
     811      815      812      761      712      704      751      814 
     823      801      812      897     1055     1148     1039      834 
     712      724      845      985     1030      928      710      515 
     488      548      607      707      842      962     1047     1109 
    1156     1111      896      618      457      527      843     1170 
    1229     1061      826      621      588      760      943     1003 
     996      982      913      754      596      546      603      681 
     702      695      762      853      842      807      899     1067 
    1146     1084      970      868      778      754      849      982 
     955      750      579      557      661      807      905      953 
     958      884      777      704      643      610      638      738 
     916     1071     1112     1136     1175     1077      838      675 
     670      695      723      811      882      861      789      735 
     729      751      811      961     1074      985      808      710 
     648      569      511      510      599      824     1132     1367 
    1417     1235      892      653      704      905     1028     1031 
     923      672      398      355      546      707      704      692 
     770      895     1024     1098     1097     1055      963      869 
     857      869      835      766      743      854      982      897 
     657      503      488      552      751     1044     1202     1120 
     934      807      807      904     1040     1131     1084      913 
     756      727      787      780      639      445      344      444 
     710      967     1047      945      823      799      837      895 
     966     1000      943      843      778      791      885      969 
     950      939     1005      997      892      801      722      692 
     818      994      935      619      372      413      661      945 
    1077      976      766      602      540      615      808     1008 
    1143     1215     1219     1197     1186     1112      893      615 
     472      553      747      900      924      799      599      459 
     427      507      762     1128     1321     1224      984      727 
     556      552      685      862     1034     1197     1267     1116 
     855      691      643      641      606      565      652      864 
    1050     1074      892      623      481      548      758     1021 
    1197     1206     1077      845      622      584      804     1143 
    1312     1127      770      540      473      498      583      703 
     849      958      947      891      886      870      769      683 
     718      873     1123     1399     1528     1379      989      477 
      71       20      326      756     1062     1100      911      719 
     660      677      685      688      766      934     1054     1023 
     926      954     1123     1210     1128      992      904      897 
     912      876      770      538      221       63      152      384 
     760     1225     1532     1497     1213      943      816      757 
     703      747      954     1125     1039      762      527      502 
     665      830      888      869      808      770      824      946 
    1034      981      781      569      477      550      815     1206 
    1412     1162      657      344      410      666      886     1035 
    1123     1128     1074     1024      972      835      668      621 
     683      781      913      999      918      688      449      357 
     507      810     1026     1050      993      963      961      911 
     789      683      683      811     1009     1151     1151     1030 
     884      760      621      507      572      810      993     1042 
    1058     1019      881      710      506      322      372      723 
    1138     1316     1165      858      670      729      932     1096 
    1092      924      753      654      554      440      313      230 
     463     1088     1728     1957     1603      839      199       97 
     479     1058     1486     1497     1167      796      506      199 
     -68      -44      367     1027     1678     1995     1814     1266 
     666      341      471      965     1516     1852     1736     1015 
    -122    -1242    -1829    -1468     -294     1009     1880     2108 
    1813     1593     1864     2208     2099     1583     1053      835 
     926      950      587      -62     -676    -1017     -945     -398 
     403     1009     1148      947      903     1408     2218     2785 
    2801     2268     1588     1364     1517     1220      211     -747 
   -1017     -742     -410     -280     -117      492     1398     1902 
    1656     1125      990     1294     1507     1162      230     -592 
    -371      769     1622     1532     1093     1063     1485     1852 
    1787     1510     1333     1188      912      488      198      311 
     550      390     -283    -1032    -1372    -1285     -847      122 
    1545     2956     3904     3979     3057     1734      808      421 
     396      749     1165     1061      418     -364    -1048    -1290 
    -658      576     1551     1795     1537     1169      842      653 
     826     1381     1956     2170     1933     1412      822      280 
    -214     -568     -587     -305       33      336      696     1229 
    1977     2667     2828     2258     1163      103     -326     -126 
     176      384      777     1309     1505     1277      901      392 
    -159     -175      571     1479     1892     1645      931      101 
    -433     -314      569     1854     2743     2523     1296       -9 
    -473      118     1235     2014     2000     1421      772      313 
     -66     -496     -823     -757     -210      535     1116     1406 
    1512     1466     1197     1003     1231     1563     1695     1821 
    1906     1706     1250      626       -9     -344     -311      -74 
     217      425      576      764      923     1034     1115     1066 
     885      665      426      394      901     1715     2254     2377 
    2199     1738     1156      675      399      368      344       58 
    -290     -379     -369     -581     -780     -468      365     1549 
    2965     3985     3785     2338      456     -843     -886      186 
    1580     2608     2813     1884       67    -1757    -2574    -1937 
    -452      900     1664     1899     1826     1570     1232     1046 
    1193     1726     2401     2592     1948      891      195      199 
     514      625      625      851     1032      708       -9     -800 
   -1451    -1574     -896      307     1586     2578     2930     2709 
    2300     1752     1032      491      378      592     1005     1339 
    1231      819      492      292      198      284      450      606 
     797      826      477      101      167      643     1202     1522 
    1497     1351     1289     1192      957      776      839     1066 
    1209     1061      658      260       60       54       74        9 
      27      429     1186     1829     2015     1910     1833     1921 
    2104     2147     1888     1466      966      268     -438     -787 
    -843     -940    -1148    -1212     -846       22     1166     2095 
    2542     2722     2770     2509     1993     1533     1196      892 
     623      318      -55     -372     -523     -384       43      525 
     903     1170     1283     1202      996      733      577      799 
    1325     1769     1841     1466      822      218      -66      164 
     849     1586     1848     1435      638      -63     -251      182 
     876     1274     1111      780      861     1359     1803     1831 
    1493     1082      746      425      193      267      545      626 
     291     -380    -1031    -1131     -364      963     2154     2822 
    3003     2776     2189     1394      677      338      468      843 
    1142     1140      689      -79     -679     -769     -346      388 
    1021     1331     1464     1479     1394     1298     1061      637 
     357      506      895     1159     1287     1413     1483     1412 
    1058      380     -248     -430     -190      261      810     1352 
    1714     1718     1278      580      109      218      837     1610 
    2104     2164     2003     1636      803     -303     -999     -994 
    -599     -157      195      391      413      465      791     1397 
    2134     2832     3281     3223     2533     1502      700      459 
     546      553      330     -116     -668    -1081    -1165     -820 
    -151      577     1134     1422     1601     1818     1965     1849 
    1471     1178     1244     1485     1588     1309      608      -58 
    -195      113      430      481      311      207      419      834 
    1140     1250     1227     1138     1054      940      769      677 
     783      942      918      822     1001     1436     1686     1443 
     872      356      126      276      778     1417     1848     1736 
    1035      110     -560     -648     -167      481      986     1324 
    1468     1418     1267      997      599      295      383      893 
    1521     1880     1749     1209      611      348      540      891 
     951      684      410      283      294      441      615      679 
     653      692      918     1202     1275     1085      807      637 
     696     1019     1428     1690     1791     1780     1545      988 
     290     -189     -280      -94       81       10     -226     -297 
     102      892     1590     1884     1899     1837     1753     1599 
    1287      946      865     1073     1300     1267      922      548 
     411      440      518      637      670      522      363      411 
     641      842      823      599      391      382      626     1098 
    1628     1919     1726     1038      168     -473     -639     -247 
     506     1148     1421     1482     1517     1510     1416     1323 
    1331     1422     1512     1559     1522     1298      800       27 
    -857    -1441    -1283     -419      537     1030     1040      927 
    1036     1431     1898     2199     2249     2100     1809     1385 
     988      899     1120     1308     1136      546     -244     -870 
   -1073     -830     -324      229      681      954     1101     1227 
    1343     1464     1579     1544     1316     1066      959     1055 
    1197     1096      761      530      615      850      858      540 
     236      243      523      911     1232     1332     1177      949 
     912     1109     1275     1190      888      460      -20     -367 
    -410     -141      433     1215     1817     1910     1584     1208 
    1032      945      737      537      684     1267     1944     2259 
    2018     1324      504      -82     -306     -229       18      272 
     403      369      186      -35      -89      178      774     1536 
    2170     2366     2019     1424     1003      889      976     1150 
    1389     1667     1799     1543      839     -139    -1027    -1428 
   -1242     -633      279     1337     2180     2475     2157     1431 
     645      121      118      718     1611     2236     2216     1591 
     719       71      -60      206      549      746      693      426 
     149       22       79      319      703     1139     1520     1782 
    1875     1729     1370      949      622      506      625      849 
     978      939      831      727      614      504      453      519 
     710      923      984      847      666      596      729     1050 
    1350     1412     1225      857      400       24      -85      151 
     618     1062     1310     1402     1439     1480     1574     1675 
    1664     1445      997      436      -17     -260     -334     -326 
    -341     -333     -109      399     1073     1725     2208     2446 
    2361     1927     1335      835      573      607      827      946 
     784      459      211      214      477      849     1125     1192 
    1073      874      633      332      117      198      545      926 
    1123     1038      777      618      751     1119     1520     1768 
    1736     1421     1026      803      843      996     1000      702 
