Origin Time       2024/06/23 22:54:00
Lat.              35.645
Long.             140.060
Depth. (km)       72
Mag.              4.1
Station Code      SZO011
Station Lat.      35.2129
Station Long.     138.6015
Station Height(m) 195
Record Time       2024/06/23 22:54:48
Sampling Freq(Hz) 100Hz
Duration Time(s)  70
Dir.              U-D
Scale Factor      7845(gal)/8223790
Max. Acc. (gal)   0.712
Last Correction   2024/06/23 22:54:48
Memo.             
    7306     7299     7296     7299     7303     7306     7307     7303 
    7296     7298     7303     7303     7303     7303     7296     7296 
    7306     7308     7303     7302     7300     7298     7298     7300 
    7307     7307     7299     7299     7303     7303     7304     7307 
    7303     7295     7294     7299     7302     7300     7303     7304 
    7303     7303     7302     7300     7302     7300     7296     7299 
    7307     7308     7307     7308     7307     7299     7291     7291 
    7295     7300     7308     7312     7310     7304     7296     7291 
    7295     7299     7299     7304     7308     7306     7306     7307 
    7300     7295     7298     7300     7300     7302     7302     7302 
    7303     7306     7306     7303     7302     7299     7296     7296 
    7300     7306     7311     7310     7303     7298     7298     7299 
    7302     7306     7304     7298     7296     7303     7307     7310 
    7308     7299     7294     7296     7299     7300     7302     7303 
    7307     7314     7312     7303     7294     7287     7288     7299 
    7311     7315     7312     7303     7296     7300     7299     7296 
    7299     7299     7299     7310     7318     7317     7306     7287 
    7277     7292     7315     7325     7315     7298     7284     7287 
    7307     7322     7314     7298     7290     7291     7299     7308 
    7317     7311     7294     7285     7294     7310     7318     7314 
    7300     7284     7281     7300     7322     7322     7306     7290 
    7284     7291     7304     7312     7308     7304     7303     7307 
    7311     7303     7292     7290     7295     7306     7314     7308 
    7302     7300     7303     7307     7312     7307     7291     7281 
    7288     7308     7323     7323     7312     7296     7285     7290 
    7296     7299     7299     7304     7310     7314     7314     7304 
    7291     7284     7290     7304     7318     7317     7306     7298 
    7292     7294     7302     7308     7310     7307     7304     7307 
    7308     7303     7295     7292     7296     7304     7312     7314 
    7306     7295     7294     7302     7310     7311     7303     7294 
    7290     7295     7304     7314     7315     7308     7298     7291 
    7292     7299     7303     7302     7302     7304     7307     7307 
    7304     7302     7300     7300     7304     7306     7299     7296 
    7302     7304     7307     7306     7299     7292     7292     7300 
    7307     7310     7308     7303     7295     7296     7304     7306 
    7303     7299     7294     7296     7307     7315     7315     7308 
    7296     7288     7290     7296     7303     7311     7315     7314 
    7304     7296     7296     7299     7303     7303     7300     7300 
    7302     7302     7299     7299     7300     7303     7306     7306 
    7302     7299     7299     7298     7296     7295     7300     7306 
    7308     7308     7304     7295     7291     7295     7304     7314 
    7315     7304     7294     7287     7292     7306     7315     7312 
    7304     7295     7291     7294     7303     7304     7300     7296 
    7295     7302     7310     7311     7304     7294     7288     7296 
    7307     7317     7315     7298     7284     7288     7300     7314 
    7318     7310     7299     7295     7299     7302     7299     7298 
    7300     7303     7306     7307     7302     7294     7287     7290 
    7303     7315     7317     7306     7296     7294     7298     7303 
    7308     7306     7298     7292     7295     7300     7307     7312 
    7304     7295     7298     7307     7314     7312     7300     7287 
    7283     7291     7304     7318     7318     7307     7296     7287 
    7288     7300     7310     7310     7302     7296     7299     7303 
    7308     7307     7299     7295     7299     7306     7308     7306 
    7299     7294     7291     7294     7306     7322     7323     7308 
    7295     7283     7281     7294     7311     7321     7317     7299 
    7284     7283     7294     7308     7318     7315     7308     7298 
    7287     7290     7299     7306     7307     7304     7304     7303 
    7299     7296     7296     7299     7304     7306     7304     7302 
    7299     7295     7296     7304     7307     7304     7303     7298 
    7292     7294     7299     7308     7312     7311     7304     7295 
    7288     7292     7303     7311     7314     7311     7302     7294 
    7295     7296     7296     7304     7310     7308     7306     7302 
    7295     7295     7302     7307     7306     7306     7306     7298 
    7294     7300     7307     7307     7311     7310     7299     7290 
    7288     7296     7307     7312     7312     7307     7300     7295 
    7291     7298     7310     7311     7304     7300     7299     7298 
    7298     7299     7303     7308     7310     7310     7310     7303 
    7294     7294     7298     7306     7315     7317     7307     7296 
    7291     7294     7304     7308     7310     7308     7302     7296 
    7296     7298     7303     7310     7307     7302     7300     7300 
    7299     7303     7307     7303     7296     7299     7304     7310 
    7312     7306     7296     7295     7296     7299     7307     7312 
    7307     7299     7296     7299     7302     7302     7303     7308 
    7304     7296     7296     7298     7300     7308     7311     7311 
    7312     7303     7294     7295     7299     7303     7311     7311 
    7303     7299     7298     7299     7304     7308     7307     7307 
    7306     7299     7295     7296     7302     7308     7312     7308 
    7300     7298     7299     7302     7303     7303     7303     7303 
    7307     7307     7303     7300     7298     7296     7299     7303 
    7307     7307     7306     7298     7291     7296     7303     7304 
    7306     7304     7300     7302     7303     7299     7296     7299 
    7304     7307     7307     7303     7296     7295     7296     7302 
    7310     7310     7303     7299     7298     7296     7299     7306 
    7306     7302     7300     7302     7304     7303     7296     7296 
    7300     7303     7303     7304     7303     7302     7304     7303 
    7300     7303     7302     7294     7292     7298     7303     7308 
    7310     7307     7304     7299     7295     7296     7299     7300 
    7302     7302     7304     7304     7302     7303     7306     7306 
    7306     7303     7302     7303     7303     7299     7298     7298 
    7299     7306     7308     7307     7304     7302     7300     7299 
    7299     7303     7308     7308     7302     7296     7295     7299 
    7306     7310     7308     7306     7303     7299     7296     7300 
    7303     7306     7308     7308     7304     7299     7296     7300 
    7307     7308     7307     7303     7300     7299     7298     7298 
    7302     7306     7307     7304     7299     7298     7300     7303 
    7304     7302     7300     7304     7306     7302     7299     7302 
    7302     7299     7300     7306     7304     7300     7303     7303 
    7298     7299     7306     7308     7307     7302     7298     7298 
    7296     7298     7303     7304     7306     7304     7300     7296 
    7298     7303     7308     7307     7303     7302     7296     7298 
    7304     7308     7308     7304     7298     7299     7302     7300 
    7303     7303     7302     7300     7302     7307     7308     7302 
    7296     7299     7306     7308     7308     7303     7294     7295 
    7303     7307     7307     7303     7299     7299     7300     7299 
    7296     7299     7302     7300     7300     7304     7303     7299 
    7299     7302     7302     7300     7303     7307     7303     7296 
    7298     7302     7304     7304     7300     7300     7302     7300 
    7300     7303     7300     7295     7295     7300     7303     7307 
    7307     7300     7296     7295     7298     7306     7310     7306 
    7298     7292     7294     7299     7304     7311     7312     7304 
    7296     7294     7295     7303     7308     7306     7304     7306 
    7302     7299     7299     7299     7299     7298     7298     7303 
    7307     7302     7298     7298     7298     7303     7310     7308 
    7300     7292     7291     7299     7308     7311     7306     7298 
    7294     7296     7303     7306     7306     7304     7299     7296 
    7299     7304     7306     7303     7296     7296     7304     7308 
    7310     7304     7292     7288     7294     7302     7311     7308 
    7302     7299     7299     7299     7300     7303     7300     7295 
    7295     7302     7308     7311     7307     7296     7292     7298 
    7304     7308     7308     7302     7295     7294     7299     7310 
    7315     7308     7300     7296     7298     7303     7310     7308 
    7302     7295     7294     7300     7308     7311     7304     7298 
    7302     7303     7302     7303     7299     7294     7300     7310 
    7311     7306     7295     7290     7296     7306     7310     7308 
    7300     7294     7295     7299     7303     7307     7306     7303 
    7302     7302     7300     7300     7302     7300     7299     7299 
    7299     7300     7304     7307     7304     7299     7298     7299 
    7303     7307     7308     7300     7295     7296     7300     7303 
    7307     7308     7302     7296     7296     7299     7302     7303 
    7303     7300     7300     7300     7302     7300     7300     7303 
    7310     7306     7298     7299     7303     7303     7302     7300 
    7298     7299     7303     7304     7306     7307     7304     7303 
    7299     7296     7300     7306     7306     7303     7298     7295 
    7299     7304     7307     7304     7299     7296     7302     7306 
    7303     7298     7298     7303     7307     7307     7304     7300 
    7300     7300     7300     7302     7307     7310     7308     7307 
    7302     7295     7294     7300     7306     7306     7306     7306 
    7302     7298     7299     7302     7302     7306     7304     7298 
    7296     7300     7307     7311     7308     7303     7302     7300 
    7300     7300     7302     7306     7304     7302     7299     7300 
    7304     7306     7306     7303     7302     7300     7299     7299 
    7302     7300     7300     7306     7308     7306     7302     7298 
    7298     7300     7303     7303     7302     7300     7300     7299 
    7302     7306     7306     7304     7303     7300     7300     7304 
    7302     7298     7299     7300     7304     7307     7304     7302 
    7300     7299     7302     7306     7307     7306     7304     7302 
    7300     7300     7302     7304     7306     7302     7300     7299 
    7299     7303     7307     7306     7302     7302     7303     7300 
    7296     7298     7304     7307     7304     7299     7296     7298 
    7302     7304     7304     7304     7304     7300     7299     7303 
    7304     7300     7299     7302     7304     7307     7304     7300 
    7299     7300     7300     7302     7302     7299     7298     7299 
    7304     7304     7299     7298     7299     7300     7306     7312 
    7310     7299     7294     7292     7295     7304     7311     7308 
    7303     7298     7294     7295     7300     7308     7311     7306 
    7300     7299     7294     7294     7299     7304     7308     7311 
    7306     7296     7294     7292     7296     7306     7311     7311 
    7306     7299     7291     7290     7295     7304     7310     7308 
    7304     7299     7294     7294     7300     7310     7308     7304 
    7302     7298     7298     7303     7304     7300     7298     7299 
    7303     7307     7308     7306     7302     7294     7292     7300 
    7304     7304     7302     7300     7298     7299     7303     7307 
    7307     7303     7298     7295     7299     7304     7302     7302 
    7307     7306     7303     7304     7304     7299     7296     7299 
    7302     7303     7306     7306     7302     7298     7299     7302 
    7303     7306     7303     7298     7299     7306     7306     7303 
    7299     7295     7298     7304     7307     7306     7298     7292 
    7296     7306     7311     7308     7298     7294     7296     7298 
    7304     7312     7310     7303     7298     7296     7302     7304 
    7300     7299     7302     7302     7303     7306     7303     7300 
    7299     7299     7302     7303     7303     7302     7300     7300 
    7303     7307     7306     7303     7302     7299     7295     7298 
    7303     7308     7307     7303     7300     7298     7296     7302 
    7307     7304     7303     7299     7298     7300     7303     7304 
    7304     7303     7304     7308     7307     7299     7296     7296 
    7298     7300     7298     7295     7292     7290     7288     7288 
    7283     7277     7276     7272     7276     7294     7319     7350 
    7384     7406     7412     7406     7377     7334     7280     7223 
    7175     7152     7156     7183     7211     7218     7213     7225 
    7272     7350     7446     7530     7587     7608     7574     7474 
    7325     7165     7045     6984     6964     6972     7011     7086 
    7190     7299     7384     7439     7495     7588     7723     7858 
    7925     7877     7709     7457     7164     6880     6658     6556 
    6620     6805     7003     7149     7241     7306     7372     7462 
    7581     7700     7788     7832     7815     7696     7470     7200 
    6961     6787     6686     6674     6763     6960     7229     7472 
    7600     7638     7651     7619     7511     7404     7406     7506 
    7591     7554     7398     7194     7028     6936     6905     6914 
    6991     7164     7380     7527     7568     7533     7410     7214 
    7064     7065     7204     7425     7651     7774     7707     7484 
    7242     7098     7086     7192     7354     7443     7375     7215 
    7075     6982     6936     6967     7079     7207     7279     7288 
    7308     7429     7619     7736     7678     7506     7371     7350 
    7402     7443     7438     7380     7254     7075     6936     6912 
    6968     7032     7103     7222     7368     7474     7508     7500 
    7516     7565     7580     7504     7385     7314     7280     7213 
    7102     7020     6993     6982     6993     7091     7279     7473 
    7554     7472     7310     7218     7258     7387     7541     7676 
    7715     7587     7319     7055     6964     7107     7358     7519 
    7500     7335     7107     6925     6897     7047     7280     7450 
    7461     7337     7196     7157     7250     7420     7588     7699 
    7713     7587     7321     7056     6947     7006     7157     7327 
    7420     7364     7209     7075     7044     7102     7199     7322 
    7495     7672     7743     7669     7506     7310     7119     7003 
    7022     7187     7420     7538     7416     7137     6903     6860 
    6999     7204     7360     7438     7458     7445     7447     7528 
    7681     7785     7711     7462     7176     6990     6959     7057 
    7198     7294     7311     7269     7167     7015     6909     6955 
    7155     7418     7636     7744     7730     7608     7431     7287 
    7248     7298     7341     7327     7287     7258     7260     7267 
    7226     7125     7025     7006     7078     7196     7315     7419 
    7491     7479     7388     7315     7333     7388     7399     7375 
    7371     7389     7399     7372     7294     7200     7157     7182 
    7214     7222     7244     7292     7311     7279     7267     7310 
    7364     7389     7376     7341     7315     7325     7349     7329 
    7269     7238     7241     7252     7280     7322     7344     7312 
    7245     7186     7167     7195     7249     7310     7373     7425 
    7452     7457     7427     7356     7285     7269     7298     7322 
    7321     7273     7195     7149     7179     7236     7257     7252 
    7275     7338     7404     7442     7462     7462     7414     7319 
    7225     7169     7149     7160     7209     7299     7407     7477 
    7449     7323     7190     7128     7145     7227     7353     7483 
    7554     7511     7354     7171     7053     7053     7180     7399 
    7591     7618     7439     7172     7003     7036     7214     7395 
    7479     7453     7361     7245     7145     7113     7182     7315 
    7430     7449     7387     7310     7248     7198     7167     7165 
    7215     7310     7389     7398     7352     7292     7249     7246 
    7284     7338     7403     7449     7425     7353     7317     7341 
    7381     7412     7419     7384     7317     7234     7160     7129 
    7159     7236     7300     7277     7188     7130     7156     7254 
    7380     7464     7484     7472     7442     7403     7369     7344 
    7312     7285     7273     7258     7210     7138     7111     7164 
    7256     7314     7314     7287     7290     7335     7369     7349 
    7317     7329     7387     7430     7393     7291     7190     7161 
    7226     7353     7485     7558     7503     7317     7098     6987 
    7049     7234     7418     7500     7466     7358     7223     7130 
    7155     7291     7437     7492     7419     7252     7098     7059 
    7133     7244     7335     7396     7420     7420     7418     7393 
    7321     7217     7145     7175     7294     7414     7437     7337 
    7202     7155     7242     7414     7562     7585     7469     7295 
    7169     7133     7157     7222     7308     7385     7430     7408 
    7292     7130     7041     7075     7182     7308     7433     7522 
    7510     7361     7160     7044     7072     7204     7350     7431 
    7439     7407     7350     7299     7302     7361     7429     7457 
    7422     7330     7222     7160     7186     7280     7357     7338 
    7236     7140     7140     7248     7385     7465     7466     7422 
    7350     7272     7209     7180     7199     7241     7252     7233 
    7258     7354     7434     7420     7354     7322     7327     7306 
    7249     7209     7240     7335     7422     7420     7337     7237 
    7167     7119     7107     7168     7296     7418     7487     7515 
    7527     7510     7441     7338     7236     7164     7153     7195 
    7240     7253     7249     7240     7219     7194     7196     7237 
    7303     7391     7470     7489     7453     7404     7380     7383 
    7377     7335     7264     7198     7164     7169     7199     7227 
    7236     7230     7229     7233     7246     7280     7346     7442 
    7518     7507     7410     7288     7187     7134     7150     7227 
    7335     7430     7462     7402     7277     7160     7122     7183 
    7312     7453     7526     7491     7384     7277     7219     7204 
    7218     7280     7375     7408     7334     7229     7184     7202 
    7238     7281     7319     7334     7319     7265     7180     7126 
    7153     7242     7323     7356     7371     7411     7468     7510 
    7514     7457     7345     7233     7187     7210     7268     7334 
    7354     7280     7168     7132     7184     7254     7288     7288 
    7279     7280     7312     7356     7366     7346     7322     7311 
    7326     7377     7443     7476     7446     7356     7223     7110 
    7065     7075     7099     7155     7272     7430     7545     7520 
    7366     7209     7175     7280     7431     7501     7449     7342 
