Origin Time       2024/06/23 22:54:00
Lat.              35.645
Long.             140.060
Depth. (km)       72
Mag.              4.1
Station Code      SZO003
Station Lat.      34.8158
Station Long.     139.0544
Station Height(m) 149
Record Time       2024/06/23 22:55:00
Sampling Freq(Hz) 100Hz
Duration Time(s)  60
Dir.              E-W
Scale Factor      7845(gal)/8223790
Max. Acc. (gal)   2.648
Last Correction   2024/06/23 22:54:59
Memo.             
[...]
    9281     9225     9100     8978     8962     9084     9190     9128 
    9038     9115     9262     9344     9379     9389     9378     9319 
    9185     9072     9061     9067     9039     9038     9054     8993 
    8876     8803     8820     8943     9193     9440     9502     9405 
    9302     9288     9348     9383     9327     9242     9166     9070 
    9001     9026     9088     9115     9089     9045     9005     8950 
    8914     8939     8989     9046     9109     9178     9296     9470 
    9610     9633     9495     9239     9023     8943     8953     8974 
    8943     8865     8838     8916     9076     9289     9485     9529 
    9394     9224     9139     9123     9134     9201     9306     9288 
    9062     8779     8657     8783     9057     9293     9390     9373 
    9327     9274     9238     9294     9346     9175     8897     8808 
    8919     9104     9274     9308     9193     9066     9038     9139 
    9293     9328     9181     8995     8941     9005     9063     9094 
    9180     9297     9325     9231     9131     9099     9094     9135 
    9266     9396     9385     9229     9076     9085     9200     9224 
    9157     9049     8862     8733     8839     9088     9267     9308 
    9271     9247     9242     9240     9223     9136     9049     9105 
    9292     9443     9425     9271     9117     9024     8970     8939 
    8864     8776     8856     9085     9250     9304     9320     9320 
    9313     9327     9374     9358     9231     9166     9231     9248 
    9127     8972     8901     8923     8981     9042     9076     9047 
    8972     8965     9092     9228     9265     9235     9162     9096 
    9124     9211     9250     9232     9225     9317     9506     9616 
    9467     9126     8826     8679     8707     8947     9242     9360 
    9360     9367     9340     9234     9061     8883     8811     8914 
    9135     9277     9211     9054     8974     9015     9128     9229 
    9271     9294     9283     9207     9166     9177     9140     9119 
    9208     9339     9409     9363     9223     9082     8999     8955 
    8938     8924     8901     8938     9082     9209     9197     9111 
    9035     8988     9063     9285     9521     9649     9606     9447 
    9259     9024     8810     8738     8792     8981     9273     9472 
    9482     9390     9254     9078     8903     8812     8864     9013 
    9185     9332     9408     9371     9215     8982     8819     8827 
    8943     9090     9208     9235     9232     9281     9297     9209 
    9138     9166     9188     9112     9001     8937     8961     9103 
    9321     9513     9586     9491     9273     9081     8974     8892 
    8818     8819     8966     9192     9316     9310     9289     9247 
    9155     9085     9082     9138     9207     9216     9182     9184 
    9223     9270     9313     9290     9147     8950     8838     8884 
    9032     9170     9240     9229     9163     9130     9165     9211 
    9169     9050     9012     9065     9055     9003     9035     9173 
    9328     9375     9313     9270     9294     9370     9437     9373 
    9196     9012     8838     8727     8769     8927     9097     9209 
    9246     9232     9162     9034     8959     9007     9097     9192 
    9300     9413     9536     9594     9513     9367     9204     8980 
    8752     8625     8654     8833     9058     9213     9267     9278 
    9344     9447     9490     9425     9289     9173     9154     9239 
    9315     9239     9026     8820     8730     8803     8978     9134 
    9196     9148     9040     8959     8920     8912     8977     9142 
    9350     9474     9474     9444     9439     9417     9356     9269 
    9185     9123     9097     9116     9105     9022     8954     8942 
    8974     9113     9336     9459     9359     9088     8823     8766 
    8947     9180     9313     9333     9228     9066     8995     9039 
    9138     9192     9146     9105     9150     9212     9251     9306 
    9362     9347     9221     9031     8885     8835     8858     8938 
    9065     9211     9359     9522     9683     9724     9548     9174 
    8750     8496     8490     8657     8958     9321     9574     9599 
    9448     9248     9089     9001     8977     8970     8961     9024 
    9207     9402     9467     9355     9121     8880     8723     8707 
    8862     9142     9417     9598     9676     9690     9634     9479 
    9267     9036     8764     8515     8407     8463     8645     8935 
    9309     9657     9815     9720     9483     9256     9085     8969 
    8934     8964     9016     9121     9283     9382     9335     9178 
    8969     8768     8671     8756     8995     9285     9502     9560 
    9495     9391     9306     9288     9255     9124     8970     8877 
    8833     8795     8807     8922     9070     9205     9369     9504 
    9505     9363     9155     8982     8919     8993     9185     9421 
    9598     9590     9360     9009     8702     8565     8635     8878 
    9167     9369     9498     9586     9541     9346     9101     8907 
    8788     8779     8919     9109     9205     9220     9247     9281 
    9271     9213     9104     8992     9000     9100     9148     9169 
    9267     9429     9528     9490     9360     9177     8964     8789 
    8715     8731     8806     8937     9093     9209     9273     9312 
    9296     9212     9147     9142     9167     9236     9342     9428 
    9463     9404     9229     8997     8851     8883     9018     9186 
    9333     9356     9288     9261     9293     9310     9243     9086 
    8900     8725     8608     8646     8833     9069     9274     9383 
    9391     9343     9259     9170     9117     9104     9143     9244 
    9369     9452     9429     9289     9084     8880     8738     8746 
    8957     9251     9456     9541     9510     9346     9143     9054 
    9066     9063     9009     8928     8860     8885     9019     9148 
    9216     9225     9163     9081     9031     9043     9151     9290 
    9382     9423     9394     9343     9328     9323     9316     9286 
    9158     8934     8730     8652     8700     8834     9022     9215 
    9386     9467     9409     9363     9432     9452     9359     9286 
    9238     9117     8927     8773     8766     8888     9001     9062 
    9143     9235     9247     9190     9143     9146     9174     9202 
    9236     9243     9192     9115     9018     8889     8823     8911 
    9115     9344     9536     9616     9531     9333     9123     8992 
    8989     9039     9069     9113     9128     9096     9099     9108 
    9066     9047     9108     9204     9289     9355     9379     9335 
    9232     9099     9013     9058     9159     9235     9242     9144 
    9047     9004     8935     8839     8784     8808     8951     9197 
    9416     9470     9383     9319     9324     9343     9359     9383 
    9383     9321     9184     9024     8905     8849     8846     8870 
    8910     8946     8943     8941     9077     9369     9629     9745 
    9737     9594     9306     8978     8735     8648     8721     8885 
    9046     9154     9212     9235     9234     9201     9174     9207 
    9261     9263     9228     9192     9155     9144     9182     9234 
    9265     9223     9078     8910     8784     8731     8815     9015 
    9223     9397     9487     9474     9433     9373     9238     9078 
    8996     9045     9163     9256     9309     9288     9138     8950 
    8837     8812     8903     9093     9274     9369     9342     9225 
    9151     9151     9144     9128     9116     9096     9084     9036 
    8934     8922     9092     9320     9474     9529     9467     9306 
    9151     9099     9092     9022     8938     8962     9097     9261 
    9382     9435     9363     9143     8876     8702     8704     8845 
    9019     9182     9289     9281     9211     9138     9099     9112 
    9101     9092     9182     9331     9441     9467     9406     9312 
    9263     9293     9309     9224     9101     8989     8878     8822 
    8851     8922     8976     8991     9028     9121     9193     9242 
    9317     9329     9227     9119     9097     9181     9328     9455 
    9474     9336     9140     9027     8966     8914     8914     8981 
    9073     9134     9157     9163     9131     9096     9099     9090 
    9111     9192     9261     9324     9423     9494     9441     9266 
    9108     9040     8977     8904     8887     8865     8822     8864 
    8986     9094     9196     9296     9336     9328     9306     9315 
    9396     9456     9381     9216     9058     8984     9009     9058 
    9077     9076     9057     9039     9034     9022     9024     9065 
    9159     9347     9521     9518     9377     9270     9236     9153 
    9004     8914     8884     8895     9028     9204     9235     9146 
    9066     9035     9043     9094     9189     9290     9327     9274 
    9163     9018     8885     8854     8970     9165     9312     9327 
    9240     9178     9201     9282     9402     9481     9462     9394 
    9316     9200     9023     8829     8716     8762     8941     9147 
    9270     9259     9150     9028     8953     8965     9092     9247 
    9348     9455     9564     9514     9273     9028     8919     8935 
    9036     9150     9146     9011     8868     8838     8972     9207 
    9391     9443     9394     9273     9121     9082     9151     9165 
    9124     9120     9154     9169     9089     8962     8907     8901 
    8923     9053     9277     9495     9643     9691     9590     9301 
    8911     8602     8523     8700     8991     9217     9359     9404 
    9301     9161     9067     9004     9077     9310     9509     9532 
    9427     9288     9181     9128     9090     9022     8943     8935 
    9043     9208     9316     9288     9146     8999     8937     8982 
    9074     9103     9042     8968     8949     9008     9128     9258 
    9366     9474     9547     9494     9327     9146     8949     8754 
    8748     8943     9112     9205     9324     9391     9321     9175 
    8978     8772     8738     8970     9339     9667     9846     9783 
    9444     9004     8691     8577     8662     8918     9208     9386 
    9404     9317     9198     9081     9008     9022     9092     9151 
    9157     9134     9131     9146     9150     9140     9162     9259 
    9359     9366     9313     9209     9013     8870     8914     9062 
    9213     9316     9346     9305     9161     8972     8888     8914 
    8985     9097     9216     9300     9308     9200     9077     9074 
    9150     9205     9248     9306     9333     9282     9200     9139 
    9073     9031     9038     8986     8874     8858     9022     9273 
    9445     9459     9373     9265     9150     9047     9012     9035 
    9062     9076     9097     9139     9154     9121     9116     9148 
    9120     9054     9036     9077     9193     9337     9389     9340 
    9277     9232     9198     9193     9194     9144     9096     9093 
    9051     8954     8914     8953     9012     9073     9103     9111 
    9185     9346     9513     9599     9551     9373     9140     8985 
    9007     9174     9336     9339     9161     8885     8631     8548 
    8721     9050     9354     9512     9493     9362     9205     9059 
    8969     8985     9053     9073     9062     9138     9296     9343 
    9146     8826     8622     8629     8761     8978     9324     9759 
   10071    10008     9612     9209     9004     8974     9046     9065 
    8939     8846     8977     9256     9433     9302     8860     8374 
    8194     8449     9045     9725    10118    10095     9860     9594 
    9317     8995     8654     8490     8776     9468    10026     9976 
    9342     8469     7798     7688     8210     9096     9942    10446 
   10420     9828     8862     7977     7700     8264     9313    10234 
   10681    10558     9902     8997     8283     8070     8324     8833 
    9343     9526     9324     9050     8851     8631     8394     8326 
    8675     9362     9903    10095    10172    10224    10172     9944 
    9436     8699     8090     8000     8340     8591     8546     8406 
    8421     8847     9603    10207    10377    10173     9778     9485 
    9477     9598     9504     9078     8691     8662     8775     8760 
    8700     8680     8699     8823     8949     8837     8584     8549 
    8862     9336     9568     9255     8631     8275     8507     9194 
    9914    10368    10596    10647    10494    10227     9994     9856 
    9711     9440     9077     8658     8133     7618     7380     7523 
    7890     8311     8702     8965     9030     8980     9035     9306 
    9629     9778     9855    10185    10675    10913    10782    10354 
    9649     8901     8432     8249     8058     7624     7160     7134 
    7599     8175     8758     9487    10172    10459    10336    10044 
    9833     9833     9918     9867     9684     9556     9524     9406 
    9111     8695     8168     7700     7609     7933     8461     8965 
    9186     9070     8922     9072     9509    10014    10419    10551 
   10289     9802     9375     9082     8924     8939     9019     9061 
    9067     8947     8676     8344     7904     7402     7214     7678 
    8883    10488    11653    11774    11151    10471    10083     9921 
    9755     9401     8850     8262     7808     7577     7645     7987 
    8370     8490     8263     7965     7979     8455     9324    10386 
   11353    11928    11817    11049    10080     9188     8372     7797 
    7641     7825     8171     8525     8823     9053     9167     9184 
    9190     9201     9113     8982     9070     9359     9648     9967 
   10215    10079     9629     9208     8962     8834     8608     8208 
    7915     7908     8129     8664     9440     9987    10029     9809 
    9610     9381     8961     8507     8352     8554     8873     9140 
    9398     9718    10073    10372    10504    10389    10066     9614 
    9096     8675     8522     8591     8683     8703     8683     8648 
    8594     8499     8343     8129     7994     8181     8846     9865 
   10744    10930    10478    10000     9795     9609     9371     9310 
    9412     9390     8996     8325     7842     7820     8032     8186 
    8224     8306     8698     9416    10084    10399    10478    10449 
   10188     9641     8955     8424     8294     8509     8839     9117 
    9194     9076     9023     9261     9641     9782     9572     9239 
    8911     8638     8557     8607     8638     8795     9247     9814 
   10193    10239     9953     9478     9046     8762     8591     8517 
    8533     8621     8845     9193     9450     9431     9162     8850 
    8746     8823     8819     8716     8768     9107     9622    10114 
   10382    10287     9836     9238     8752     8526     8553     8748 
    9085     9493     9691     9479     8997     8523     8235     8205 
    8486     8993     9466     9753     9825     9667     9412     9312 
    9458     9714     9867     9814     9621     9375     9107     8864 
    8708     8650     8668     8683     8614     8517     8549     8721 
    8833     8793     8723     8791     9061     9374     9551     9678 
    9799     9737     9420     9036     8835     8861     9012     9232 
    9425     9499     9474     9350     9073     8730     8630     8912 
    9298     9590     9859    10126    10258     9980     9205     8386 
    8051     8216     8522     8633     8523     8503     8769     9190 
    9583     9845     9900     9761     9499     9165     8858     8772 
    9022     9433     9736     9788     9598     9325     9093     8876 
    8627     8388     8333     8584     9015     9389     9633     9729 
    9620     9401     9256     9202     9138     9015     8889     8789 
    8653     8542     8614     8856     9081     9134     9067     9045 
    9120     9305     9632     9990    10168    10058     9733     9405 
    9258     9221     9084     8810     8587     8554     8656     8765 
    8796     8735     8738     8941     9163     9205     9205     9356 
    9589     9751     9787     9751     9721     9697     9630     9514 
    9348     9067     8673     8314     8122     8162     8418     8669 
    8677     8517     8446     8594     8888     9186     9495     9941 
   10390    10509    10166     9574     9092     8927     8995     9081 
    9089     9112     9198     9235     9188     9140     9097     9015 
    8905     8861     8958     9111     9197     9204     9207     9304 
    9420     9410     9364     9389     9429     9427     9398     9344 
    9163     8812     8487     8380     8386     8290     8145     8205 
    8532     8939     9323     9651     9809     9822     9857     9923 
    9944     9880     9672     9410     9302     9335     9354     9282 
    9080     8833     8741     8846     9007     9088     9036     8932 
    8899     8951     9047     9046     8874     8707     8654     8644 
    8704     8853     8988     9135     9423     9846    10200    10264 
   10031     9668     9370     9240     9169     8976     8703     8580 
    8704     8973     9178     9096     8768     8488     8371     8330 
    8372     8560     8916     9405     9892    10272    10511    10562 
   10399    10030     9555     9108     8688     8333     8186     8239 
    8428     8727     9028     9205     9196     9028     8903     8996 
    9236     9477     9674     9803     9783     9555     9259     9136 
    9250     9452     9504     9252     8765     8212     7804     7771 
    8100     8584     9057     9378     9508     9559     9636     9801 
   10030    10195    10207    10068     9822     9572     9370     9158 
    8896     8595     8301     8067     7944     7977     8170     8436 
    8685     9009     9440     9721     9674     9467     9378     9501 
    9707     9872     9965     9933     9725     9433     9182     9063 
    9055     8914     8522     8149     8067     8330     8860     9424 
    9779     9842     9699     9528     9427     9369     9336     9306 
    9175     8923     8673     8533     8580     8800     9022     9165 
    9289     9324     9185     8996     8941     9036     9194     9402 
    9693     9973    10006     9656     9072     8563     8405     8688 
    9166     9397     9259     8966     8668     8480     8553     8842 
    9134     9278     9256     9161     9082     9067     9170     9464 
    9906    10247    10247     9886     9337     8868     8667     8715 
    8800     8754     8668     8756     9049     9352     9493     9418 
    9188     8973     8954     9151     9417     9510     9350     9123 
    8982     8904     8889     8970     9074     9101     9009     8803 
    8598     8564     8745     9054     9389     9636     9707     9636 
    9490     9332     9254     9308     9498     9784     9958     9776 
    9302     8795     8424     8274     8325     8429     8507     8611 
    8756     8897     9018     9108     9185     9294     9429     9570 
    9736     9929    10107    10177    10066     9802     9506     9315 
    9213     9065     8834     8586     8382     8263     8232     8252 
    8344     8548     8795     8982     9089     9123     9134     9243 
    9463     9644     9661     9549     9432     9404     9490     9632 
    9749     9791     9713     9518     9252     8946     8658     8451 
