Origin Time       2024/06/23 22:54:00
Lat.              35.645
Long.             140.060
Depth. (km)       72
Mag.              4.1
Station Code      TCG010
Station Lat.      36.6348
Station Long.     139.4379
Station Height(m) 637
Record Time       2024/06/23 22:55:04
Sampling Freq(Hz) 100Hz
Duration Time(s)  60
Dir.              U-D
Scale Factor      7845(gal)/8223790
Max. Acc. (gal)   0.677
Last Correction   2024/06/23 22:55:04
Memo.             
   25060    24977    24794    24722    24844    25092    25269    25219 
   25083    25033    24961    24763    24657    24790    24864    24740 
   24744    25041    25373    25420    25161    24869    24745    24683 
   24636    24794    25047    25057    24977    25092    25173    24956 
   24738    24926    25170    25019    24795    24791    24768    24722 
   24941    25258    25254    25068    25024    25003    24876    24798 
   24761    24726    24864    25061    25088    25105    25224    25243 
   24999    24703    24629    24605    24587    24807    25105    25269 
   25305    25215    25161    25064    24621    24314    24673    25142 
   25150    25045    25165    25169    24939    24895    25011    24899 
   24664    24603    24702    24949    25286    25340    25062    24919 
   24931    24736    24557    24729    24943    25030    25220    25407 
   25262    24911    24746    24854    24954    24889    24860    24862 
   24779    24876    25095    24991    24732    24822    25170    25226 
   24975    24925    25026    24938    24868    25015    25105    24957 
   24777    24730    24772    24858    24999    25220    25354    25115 
   24641    24474    24764    25030    25011    24989    25093    25093 
   24957    25006    25186    25014    24653    24669    24929    25011 
   25011    25112    25061    24723    24609    25030    25340    25061 
   24799    24989    25162    25000    24780    24706    24736    24806 
   24834    24999    25390    25488    25203    24979    24710    24382 
   24394    24757    25188    25398    25284    25007    24676    24582 
   24915    25164    25070    25015    25010    24894    24896    25035 
   25049    24980    24922    24821    24858    25080    25093    24887 
   24800    24792    24707    24730    25047    25339    25330    25213 
   24962    24601    24568    24786    24823    24844    25101    25235 
   25107    25176    25293    24939    24516    24673    25039    24888 
   24567    24765    25155    25246    25232    25277    25215    25008 
   24748    24598    24696    24814    24772    24872    25141    25203 
   25100    25007    24804    24651    24823    25038    24985    24952 
   25105    25118    24943    24854    24813    24721    24734    24921 
   25087    25065    25050    25247    25316    24939    24633    24806 
   24892    24696    24834    25246    25324    25074    24957    25061 
   24975    24702    24790    25012    24746    24525    24943    25338 
   25249    25089    25045    24933    24737    24633    24625    24629 
   24894    25348    25393    25151    25091    24973    24733    24719 
   24895    24966    24900    24993    25197    25051    24769    24884 
   25158    25081    24754    24599    24626    24756    25043    25254 
   25258    25188    24977    24669    24605    24872    25150    25204 
   25139    25043    24808    24582    24757    25208    25351    25088 
   24829    24706    24657    24798    25039    25130    25118    25066 
   24904    24763    24815    24956    24966    24904    24958    25070 
   25087    25024    24883    24753    24975    25327    25101    24615 
   24669    24921    24868    24907    25223    25315    25024    24864 
   24962    24796    24457    24606    25107    25243    24976    24869 
   24976    24995    24957    24961    25008    25038    24976    24966 
   25015    24941    24848    24908    24988    24922    24888    25020 
   25104    25091    25111    25064    24861    24653    24605    24700 
   24787    24914    25191    25381    25317    25181    25096    24900 
   24505    24329    24561    24772    24943    25231    25335    25262 
   25266    25207    24914    24582    24556    24844    25029    24956 
   24916    25027    25074    24965    24911    24975    24925    24864 
   25024    25126    24911    24813    25030    25010    24726    24734 
   24935    24996    25011    25089    25114    25010    24930    24910 
   24830    24808    24943    25020    24992    25000    24995    25038 
   25182    25115    24887    24953    25085    24773    24413    24601 
   24965    24992    24957    25197    25392    25126    24706    24678 
   24857    24818    24690    24776    25007    25114    25081    25123 
   25201    25123    24956    24807    24709    24725    24788    24945 
   25250    25378    25262    25131    24903    24633    24595    24667 
   24648    24694    24991    25374    25544    25438    25110    24680 
   24443    24513    24722    24911    25041    25174    25247    25047 
   24819    24935    25051    24842    24686    24800    25008    25216 
   25303    25195    25018    24783    24506    24448    24692    25008 
   25249    25370    25326    25116    24862    24663    24548    24630 
   24853    25018    25242    25485    25357    24925    24617    24525 
   24559    24740    25026    25270    25300    25105    24983    25010 
   24931    24800    24841    24872    24741    24791    25085    25107 
   24841    24829    25085    25170    25014    24942    25112    25249 
   25033    24714    24676    24703    24626    24741    25132    25475 
   25393    24988    24726    24628    24547    24637    24949    25370 
   25624    25328    24737    24545    24699    24669    24645    24983 
   25261    25099    24872    24989    25239    25270    25119    24937 
   24799    24741    24705    24746    24953    25083    24925    24777 
   24938    25132    25061    24970    25120    25230    25019    24792 
   24841    24827    24611    24722    25127    25267    25253    25247 
   24985    24538    24347    24526    24738    24938    25255    25340 
   25192    25272    25305    24887    24503    24532    24588    24619 
   24992    25444    25546    25421    25186    24794    24426    24348 
   24586    24896    25155    25461    25585    25269    24930    24835 
   24592    24316    24545    24997    25151    25203    25323    25162 
   24773    24714    24845    24764    24821    25089    24957    24601 
   24813    25316    25366    25240    25285    25103    24651    24534 
   24835    24977    24889    24956    25022    24852    24781    24961 
   25041    24989    25091    25164    24927    24710    24792    24934 
   25022    25100    25068    24952    24833    24718    24725    24889 
   25034    25104    25173    25120    24884    24803    24961    24899 
   24710    24880    25110    25029    24975    25153    25286    25181 
   24927    24699    24618    24684    24784    24915    25146    25294 
   25139    24857    24759    24807    24814    24858    25035    25108 
   24884    24651    24742    25065    25243    25099    24984    25122 
   25112    24854    24773    24902    24898    24791    24883    25139 
   25258    25101    24861    24867    25012    24880    24625    24703 
   24907    24880    24895    25168    25344    25196    24962    24884 
   24871    24768    24682    24722    24904    25176    25303    25170 
   24970    24876    24853    24813    24826    24961    25015    24908 
   24919    25101    25103    24954    24945    24918    24799    24813 
   24838    24792    24883    24987    24927    24995    25257    25284 
   25041    24900    24819    24668    24705    24970    25080    24985 
   25051    25150    24935    24730    24844    25004    25015    25010 
   25033    24981    24941    25018    25089    25038    24902    24792 
   24794    24833    24811    24876    25073    25099    24972    25008 
   25078    24969    24845    24776    24672    24699    24954    25093 
   24992    24973    25083    25119    25130    25146    24991    24698 
   24579    24745    24954    25056    25185    25328    25230    24945 
   24808    24829    24742    24669    24838    24941    24948    25234 
   25354    24937    24711    24888    24814    24556    24699    25100 
   25249    25154    25111    25157    25103    24916    24763    24663 
   24640    24819    25006    25065    25243    25412    25186    24802 
   24682    24750    24775    24777    24873    24942    24858    24841 
   25012    25149    25162    25142    25066    24925    24802    24737 
   24794    24957    25077    25056    24953    24992    25166    25127 
   24915    24819    24780    24826    25002    24988    24827    24916 
   25112    25038    24861    24921    25022    24904    24827    24918 
   24856    24744    24927    25116    25000    24889    24958    24995 
   25007    25054    25033    25019    25072    24961    24692    24680 
   24914    24975    24939    25088    25226    25116    24952    24926 
   24865    24717    24803    25088    25108    24903    24915    25047 
   24956    24800    24889    25074    25020    24885    25011    25120 
   24873    24657    24814    24970    24829    24750    24970    25130 
   25123    25193    25224    25078    24900    24748    24642    24619 
   24684    24976    25332    25315    25127    25147    25050    24709 
   24625    24780    24729    24721    25087    25339    25147    24927 
   24957    24996    24876    24765    24800    24864    24871    24943 
   25099    25169    25096    25016    24989    24908    24781    24696 
   24603    24655    25011    25304    25303    25305    25358    25199 
   24889    24702    24618    24480    24467    24833    25263    25294 
   25122    25085    25024    24875    24850    24871    24807    24777 
   24833    24997    25208    25209    25083    25084    25065    24846 
   24661    24791    24979    24831    24700    24937    25101    25011 
   25031    25114    25022    24908    24862    24899    25042    24984 
   24726    24826    25153    25027    24705    24853    25197    25151 
   24845    24741    24869    24937    24938    25024    25080    25020 
   24996    25018    25010    25014    24922    24756    24833    25024 
   24969    24849    24985    25177    25006    24672    24745    25022 
   24995    24888    24989    25053    24930    24852    24930    25020 
   25051    24972    24792    24794    24980    24989    24896    24989 
   25108    25041    24972    25089    25155    24958    24799    24919 
   25030    24915    24786    24729    24656    24688    24861    24950 
   24984    25128    25174    25039    25062    25218    25122    24868 
   24821    24895    24821    24825    25056    25122    24979    24948 
   24957    24914    24941    24979    24929    24898    24957    25004 
   25033    25103    25065    24879    24740    24618    24410    24387 
   24775    25235    25465    25610    25658    25393    24925    24559 
   24420    24405    24497    24807    25164    25293    25218    25107 
   25047    24929    24744    24781    24954    24933    24881    25031 
   25115    24937    24846    25051    25215    25110    24962    24976 
   24937    24682    24584    24815    24996    25103    25336    25327 
   24916    24628    24576    24525    24667    25092    25369    25316 
   25277    25219    24865    24575    24619    24630    24611    24895 
   25265    25301    25097    25042    25123    25060    24964    25010 
   24983    24767    24648    24813    24911    24717    24696    25050 
   25297    25254    25201    25223    25122    24830    24549    24494 
   24583    24625    24740    25073    25396    25408    25159    24961 
   24906    24867    24887    25027    25139    25146    25093    24961 
   24860    24881    24794    24594    24626    24835    24919    24911 
   24999    25120    25142    25111    25097    25064    25006    24957 
   24827    24609    24524    24642    24822    25024    25246    25401 
   25358    25084    24784    24651    24610    24624    24857    25301 
   25605    25543    25285    25065    24862    24606    24456    24567 
   24722    24683    24652    24887    25207    25290    25224    25193 
   25096    24906    24746    24644    24702    25015    25290    25178 
   24869    24813    24945    24942    24894    24925    24926    24938 
   25006    24983    24868    24822    24865    24966    25145    25324 
   25354    25151    24840    24671    24617    24564    24633    24795 
   24923    25078    25274    25417    25398    25205    24910    24603 
   24466    24525    24637    24873    25249    25488    25443    25172 
   24826    24617    24617    24761    24949    25051    25072    25064 
   24984    24895    24844    24779    24861    25089    25103    24979 
   24949    24804    24641    24752    24906    24937    25015    25172 
   25304    25261    25031    24885    24848    24684    24630    24946 
   25169    25074    25029    25000    24860    24850    24919    24857 
   24894    25085    25066    24911    24912    24987    25069    25091 
   24925    24757    24794    24885    24860    24830    24966    25119 
   25081    24984    25000    25047    24980    24902    25023    25141 
   25012    24902    24914    24875    24810    24727    24661    24794 
   25020    25011    24885    25030    25235    25151    25030    25004 
   24894    24794    24737    24628    24760    25146    25258    25112 
   25110    25089    24881    24794    24922    25031    25066    25033 
   24979    25010    24931    24726    24849    25127    25002    24867 
   25092    25131    24841    24718    24764    24714    24783    25016 
   24989    24815    24904    25054    25057    25030    24953    24918 
   25089    25205    24992    24757    24771    24776    24672    24732 
   24966    25081    25088    25213    25289    25155    25043    24970 
   24811    24732    24814    24858    24869    25008    25089    24950 
   24868    24943    25002    25014    24988    25004    25126    25101 
   24880    24841    24996    25003    24884    24788    24754    24875 
   24992    24895    24826    24988    25137    25111    25099    25135 
   24989    24698    24559    24715    24999    25077    24970    24993 
   25141    25154    24983    24837    24830    24821    24826    24945 
   25038    25066    25087    24968    24745    24690    24848    25023 
   25110    25208    25326    25281    24992    24572    24364    24518 
   24713    24873    25149    25380    25486    25505    25313    24883 
   24472    24324    24387    24598    24960    25203    25191    25200 
   25266    25141    24908    24875    25003    25031    24930    24768 
   24571    24564    24848    25101    25205    25330    25257    24845 
   24533    24570    24741    24911    25046    25143    25165    25035 
   24946    25065    25131    25007    24885    24795    24734    24786 
   24887    25004    25149    25182    25053    24962    25023    25019 
   24891    24872    24960    24987    24945    24910    24898    24826 
   24675    24603    24804    25157    25323    25278    25178    25015 
   24838    24771    24815    24837    24842    25000    25149    25004 
   24802    24817    24910    25014    25114    25127    25212    25235 
   24871    24525    24591    24788    24949    25034    24939    24857 
   24921    24972    24943    24929    24985    25085    25127    25016 
   24912    24988    25015    24867    24757    24772    24862    24988 
   25080    25173    25334    25431    25344    25107    24773    24463 
   24287    24273    24459    24763    24999    25174    25365    25428 
   25284    25091    24899    24683    24609    24736    24879    24972 
   25065    25080    24985    24933    24931    24902    24934    25066 
   25139    25108    24987    24850    24922    25047    24968    24900 
   24802    24495    24484    24906    25159    25186    25312    25384 
   25288    25220    25150    24889    24547    24425    24511    24557 
   24725    25182    25500    25398    25147    24931    24736    24624 
   24691    24906    25099    25127    25073    25068    25042    24933 
   24837    24769    24660    24636    24857    25200    25359    25278 
   25200    25226    25141    24823    24506    24452    24601    24723 
   24808    24958    25091    25139    25195    25220    25126    24934 
   24750    24767    24950    24981    24879    24937    25002    24807 
   24649    24879    25238    25363    25309    25173    24949    24795 
   24804    24806    24760    24787    24837    24915    25105    25203 
   25061    24912    24919    24937    24837    24765    24823    24876 
   24919    25035    25145    25195    25149    24935    24741    24740 
   24683    24559    24696    24989    25188    25266    25173    25041 
   25038    25029    24962    24919    24844    24771    24800    24857 
   24894    24961    25070    25195    25219    25182    25216    25051 
   24641    24545    24802    24900    24906    25088    25201    25128 
   25085    24968    24705    24622    24788    24957    25050    25077 
   24975    24844    24900    25050    25015    24885    24931    24987 
   24880    24829    24831    24787    24813    24852    24885    25066 
   25247    25196    25049    24969    24883    24803    24854    24995 
   25051    24993    25034    25196    25188    24979    24786    24661 
   24605    24665    24835    25053    25209    25219    25096    24956 
   24879    24857    24868    24884    24904    25023    25223    25265 
   25088    24938    24873    24768    24718    24804    24883    24892 
   24873    24817    24777    24862    24958    24949    25058    25296 
   25300    25119    25065    25018    24798    24622    24692    24848 
   24950    25073    25110    24961    24888    24975    24952    24804 
   24763    24867    25003    25073    25077    25057    24961    24807 
   24791    24966    25093    25030    24929    24919    24983    24995 
   24914    24888    24965    25042    24992    24835    24846    24991 
   24965    24918    25046    25095    24983    24948    24972    24931 
   24937    25023    25043    24970    24894    24875    24875    24864 
   24953    25096    25027    24799    24718    24745    24706    24788 
   25078    25267    25278    25307    25235    24910    24642    24653 
   24721    24781    24957    25088    25012    24902    24908    24943 
   24953    24969    24992    25034    25066    25012    24915    24889 
   24929    24970    25007    25004    24958    24900    24819    24780 
   24860    24985    25103    25178    25096    24914    24849    24849 
   24788    24840    25074    25228    25115    24899    24853    24912 
   24861    24826    24945    25000    24902    24880    24992    25031 
   24950    24921    24960    24938    24864    24842    24898    24935 
   24942    25049    25155    25066    24985    25058    25050    24950 
   24914    24858    24798    24884    25014    24993    24910    24926 
   24950    24858    24765    24790    24898    25049    25155    25168 
   25177    25164    24975    24679    24507    24526    24706    25000 
   25185    25127    25051    25142    25203    25066    24885    24791 
   24725    24710    24830    24999    25089    25073    24979    24957 
   25038    25035    24952    24904    24899    24985    25135    25147 
   24960    24781    24771    24819    24856    24922    24991    24997 
   24926    24899    24989    25066    25120    25224    25218    24946 
   24644    24579    24668    24773    24876    25016    25251    25375 
   25195    24961    24815    24660    24618    24740    24891    25046 
   25111    25038    24997    24988    24907    24853    24846    24837 
   24904    24984    24934    24915    25078    25227    25185    25035 
   24934    24921    24903    24904    24991    25010    24915    24898 
   24910    24817    24786    24881    24933    24922    24930    24958 
