Origin Time       2024/06/23 22:54:00
Lat.              35.645
Long.             140.060
Depth. (km)       72
Mag.              4.1
Station Code      TCG013
Station Lat.      36.4368
Station Long.     140.0227
Station Height(m) 66
Record Time       2024/06/23 22:54:57
Sampling Freq(Hz) 100Hz
Duration Time(s)  60
Dir.              N-S
Scale Factor      7845(gal)/8223790
Max. Acc. (gal)   1.439
Last Correction   2024/06/23 22:54:56
Memo.             
[...]
   13282    12981    12812    12912    13045    13122    13158    13103 
   13058    13078    13050    12966    12874    12842    13019    13282 
   13329    13143    12895    12776    12845    12982    13126    13231 
   13215    13099    12958    12870    12881    12943    13065    13255 
   13378    13271    12950    12684    12702    12870    13014    13161 
   13278    13247    13107    13027    13069    13073    12926    12783 
   12815    12996    13162    13200    13149    13070    12988    12965 
   13008    13069    13140    13144    13005    12854    12806    12861 
   13035    13271    13436    13436    13255    12933    12600    12494 
   12667    12951    13258    13497    13459    13150    12856    12783 
   12874    12943    12930    12955    13138    13389    13410    13088 
   12787    12857    13089    13123    13011    12961    12989    13022 
   12985    12919    13007    13189    13190    13041    12976    13007 
   13014    12988    12982    13004    13057    13130    13223    13289 
   13107    12702    12564    12912    13374    13474    13157    12876 
   12928    12974    12802    12754    13009    13261    13293    13246 
   13275    13213    12888    12573    12656    13065    13325    13181 
   12949    12968    13061    13019    13026    13198    13300    13149 
   12883    12777    12897    13039    13093    13117    13093    13022 
   12991    13018    13043    13030    13001    13074    13189    13123 
   12943    12850    12820    12857    13030    13220    13267    13200 
   13124    13054    12953    12861    12857    12953    13126    13297 
   13336    13188    12911    12710    12756    12900    12993    13119 
   13290    13367    13251    13000    12846    12904    12974    12899 
   12835    12951    13134    13228    13182    13047    12988    13016 
   13005    13016    13096    13124    13063    13038    13099    13146 
   13042    12826    12802    13076    13258    13127    13016    13082 
   13062    12923    12877    12931    13003    13049    13065    13180 
   13367    13329    13069    12891    12826    12706    12617    12815 
   13213    13393    13208    12964    12984    13188    13207    13018 
   12941    12958    12933    13000    13162    13207    13085    12931 
   12904    13036    13082    12893    12823    13086    13294    13231 
   13096    12965    12873    12833    12771    12883    13221    13365 
   13267    13255    13240    13034    12754    12627    12795    13080 
   13211    13213    13204    13163    13065    12962    12923    12911 
   12914    12997    13099    13159    13205    13140    12954    12872 
   12926    12947    12962    13028    13073    13119    13171    13165 
   13155    13170    13100    12969    12904    12955    13062    13116 
   13082    12995    12906    12960    13105    13051    12853    12827 
   12977    13201    13427    13420    13135    12838    12719    12839 
   13059    13104    12996    12900    12865    12962    13159    13265 
   13204    13066    13035    13126    13115    12970    12868    12892 
   13076    13290    13301    13159    13008    12857    12758    12789 
   12937    13078    13080    13028    13119    13239    13104    12766 
   12599    12802    13176    13436    13460    13224    12865    12699 
   12912    13277    13336    13065    12911    12970    12989    12962 
   12935    12887    12926    13078    13262    13374    13227    12849 
   12611    12772    13116    13258    13216    13234    13212    13005 
   12796    12793    12961    13107    13138    13131    13049    12883 
   12911    13184    13356    13221    12897    12694    12845    13171 
   13301    13219    13115    12942    12654    12521    12766    13254 
   13594    13505    13180    12988    12958    12961    12969    13005 
   13085    13128    13014    12853    12837    12852    12791    12931 
   13360    13595    13346    12957    12799    12788    12707    12683 
   12985    13375    13360    13078    13051    13232    13212    12988 
   12833    12839    12914    12992    13139    13344    13339    13030 
   12811    12937    13078    12987    12868    12908    13095    13266 
   13205    13041    13022    13055    13036    13004    12955    12928 
   12953    12973    12988    13041    13109    13116    13050    13026 
   13074    13080    13036    13018    13041    13101    13096    13003 
   13019    13103    13049    12962    13018    13128    13086    12928 
   12912    13020    13054    13072    13174    13259    13180    12920 
   12677    12672    12937    13263    13377    13292    13165    13014 
   12897    12883    12876    12923    13134    13281    13154    12960 
   12916    12942    12888    12850    13022    13293    13367    13188 
   12980    12883    12819    12810    12935    13080    13126    13093 
   13066    13127    13162    13069    12996    12955    12864    12861 
   12980    13095    13196    13278    13293    13193    12934    12673 
   12715    13030    13267    13286    13192    13032    12854    12764 
   12788    12888    13015    13103    13193    13377    13486    13347 
   13113    12950    12876    12896    12885    12779    12746    12866 
   13027    13165    13284    13348    13258    13041    12888    12893 
   13009    13135    13130    13045    13014    12962    12891    12922 
   12969    12945    12931    13020    13163    13193    13088    13019 
   13035    13055    13014    12951    12988    13065    13062    13072 
   13119    13081    13000    12974    13000    13086    13153    13082 
   12966    12912    12912    13005    13178    13274    13265    13201 
   13027    12793    12707    12861    13085    13126    13046    13081 
   13151    13065    12915    12918    13109    13289    13263    13109 
   13012    12980    12953    12978    13070    13089    12950    12762 
   12726    12914    13109    13090    13026    13115    13217    13157 
   12938    12735    12784    13070    13358    13460    13311    13028 
   12869    12919    13045    13111    13070    13008    13059    13176 
   13155    12976    12869    12968    13136    13177    13023    12869 
   12906    12987    12922    12853    12985    13211    13289    13169 
   13003    12980    13088    13093    12935    12829    12874    12951 
   12993    13043    13113    13171    13134    12997    12978    13143 
   13231    13099    12892    12789    12845    12960    13043    13190 
   13405    13421    13192    12981    12843    12698    12642    12772 
   13055    13351    13456    13348    13154    12953    12788    12737 
   12900    13173    13269    13157    13005    12893    12892    12982 
   13023    13057    13166    13190    13018    12814    12810    13022 
   13216    13209    13100    13053    13054    13030    12962    12907 
   12939    13011    13053    13147    13266    13150    12866    12862 
   13127    13217    13069    12955    12991    13081    13068    12974 
   12953    12977    13049    13235    13339    13171    12874    12692 
   12796    13104    13317    13344    13232    12960    12717    12706 
   12803    12883    12982    13166    13392    13412    13113    12753 
   12582    12672    12978    13317    13510    13474    13242    13011 
   12915    12887    12835    12783    12856    13061    13180    13184 
   13224    13196    13041    12964    12962    12843    12658    12676 
   13000    13379    13470    13271    13031    12887    12856    12888 
   12927    12976    12991    12974    13095    13344    13436    13261 
   13027    12910    12843    12781    12900    13209    13389    13335 
   13250    13158    12919    12610    12528    12787    13157    13346 
   13278    13111    12984    12842    12719    12784    12966    13093 
   13161    13200    13213    13193    13149    13162    13197    13115 
   12962    12870    12829    12795    12831    13034    13317    13417 
   13221    12955    12865    12888    12885    12955    13159    13297 
   13232    13042    12874    12823    12791    12748    12876    13158 
   13320    13248    13085    13046    13096    13042    12939    12957 
   13111    13321    13386    13220    13008    12869    12830    12914 
   13023    13050    12946    12754    12739    12989    13185    13186 
   13161    13194    13217    13122    12918    12777    12802    12972 
   13246    13477    13451    13119    12685    12449    12515    12730 
   12935    13104    13225    13257    13178    13027    12911    12927 
   13053    13238    13382    13350    13178    12992    12866    12960 
   13203    13290    13211    13131    13073    13050    13053    13023 
   12985    12945    12860    12820    12935    13082    13072    12954 
   12889    12934    13043    13100    13027    12943    12962    12984 
   12951    12907    12858    12911    13161    13414    13500    13435 
   13159    12750    12556    12702    12989    13176    13146    13054 
   13046    13019    12939    12884    12842    12857    13022    13275 
   13479    13501    13286    12989    12819    12772    12746    12758 
   12896    13128    13279    13243    13113    12985    12915    13030 
   13278    13417    13371    13174    12899    12738    12814    13054 
   13309    13404    13246    12927    12603    12388    12388    12719 
   13338    13895    13964    13485    12780    12224    12147    12719 
   13662    14391    14449    13788    12822    12087    11904    12252 
   12807    13257    13516    13524    13220    12802    12614    12769 
   13049    13174    12981    12582    12307    12374    12804    13508 
   14116    14188    13636    12814    12198    11997    12156    12622 
   13258    13705    13640    13117    12505    12154    12193    12540 
   13043    13501    13651    13482    13250    13072    12980    13077 
   13338    13610    13717    13595    13396    13242    13073    12947 
   12974    13038    12987    12826    12707    12814    13082    13274 
   13281    13104    12833    12660    12681    12896    13209    13328 
   13092    12695    12406    12351    12513    12822    13194    13451 
   13443    13215    12892    12667    12737    12999    13219    13340 
   13377    13436    13597    13689    13598    13347    12918    12519 
   12448    12694    13099    13479    13599    13444    13225    12995 
   12719    12579    12729    13043    13294    13360    13255    13084 
   12914    12784    12749    12788    12872    12991    13051    13030 
   12995    12939    12838    12673    12488    12433    12536    12694 
   12896    13163    13463    13709    13716    13381    12900    12545 
   12420    12545    12876    13251    13548    13675    13552    13311 
   13100    12837    12636    12768    13068    13220    13232    13244 
   13309    13346    13274    13236    13293    13207    12912    12656 
   12615    12776    13054    13414    13691    13510    12812    12077 
   11789    12031    12623    13338    13909    14040    13610    12874 
   12259    12051    12374    13143    13987    14416    14188    13509 
   12823    12453    12525    12964    13424    13558    13290    12745 
   12233    12104    12398    12935    13500    13780    13572    13041 
   12587    12528    12842    13254    13455    13290    12907    12568 
   12349    12266    12433    12916    13528    13913    13849    13392 
   12795    12399    12376    12641    13036    13333    13327    13130 
   12976    12934    13050    13288    13468    13518    13459    13346 
   13327    13417    13528    13640    13601    13213    12611    12151 
   12044    12302    12789    13211    13321    13069    12559    12128 
   12154    12619    13185    13548    13605    13420    13136    12872 
   12753    12916    13335    13734    13821    13533    13042    12565 
   12237    12112    12232    12615    13161    13636    13876    13888 
   13695    13369    13093    12938    12850    12872    13041    13271 
   13436    13420    13270    13093    12854    12633    12685    13015 
   13343    13505    13441    13089    12577    12168    12013    12155 
   12503    12872    13173    13351    13296    13054    12834    12789 
   12864    12884    12873    12910    12926    12927    13016    13201 
   13417    13535    13473    13377    13366    13360    13359    13447 
   13566    13551    13312    12966    12752    12765    12947    13216 
   13439    13450    13190    12744    12307    12051    11961    11989 
   12167    12519    12960    13266    13355    13386    13379    13209 
   12993    12951    13086    13247    13344    13416    13451    13333 
   13066    12823    12719    12773    12965    13235    13512    13667 
   13529    13057    12488    12208    12337    12718    13232    13747 
   14092    14211    14062    13668    13155    12588    12108    11994 
   12312    12818    13251    13454    13392    13188    12999    12906 
   12874    12833    12826    12891    12892    12764    12610    12518 
   12530    12645    12826    13053    13240    13306    13328    13346 
   13246    12996    12703    12507    12572    12960    13482    13853 
   13836    13394    12870    12646    12800    13257    13805    14076 
   13878    13317    12696    12398    12590    13020    13278    13163 
   12810    12464    12293    12440    12964    13606    13930    13733 
   13166    12537    12158    12235    12793    13599    14210    14276 
   13772    12941    12145    11730    11823    12290    12837    13228 
   13416    13351    12972    12519    12359    12506    12707    12853 
   13109    13624    14206    14536    14489    14037    13250    12376 
   11711    11541    11993    12841    13733    14393    14546    14057 
   13131    12240    11858    12113    12702    13227    13537    13683 
   13676    13494    13185    12869    12646    12514    12464    12607 
   12960    13278    13358    13161    12717    12185    11831    11830 
   12190    12776    13397    13900    14184    14183    13861    13333 
   12865    12648    12638    12660    12664    12798    13039    13153 
   13154    13240    13414    13585    13680    13603    13331    12965 
   12646    12530    12717    13081    13386    13509    13397    13167 
   13088    13122    12993    12631    12249    12163    12442    12895 
   13408    13811    13791    13305    12684    12283    12232    12447 
   12827    13238    13406    13227    12957    12891    13082    13383 
   13595    13625    13459    13116    12727    12476    12464    12667 
   13000    13428    13815    13910    13690    13354    12951    12568 
   12410    12510    12753    13053    13297    13379    13259    12927 
   12429    11959    11757    11947    12529    13335    14041    14291 
   13936    13215    12530    12195    12379    12980    13672    14187 
   14366    14216    13857    13369    12887    12596    12463    12376 
   12390    12569    12853    13092    13163    13163    13251    13373 
   13404    13348    13289    13308    13374    13325    13045    12549 
   11992    11657    11705    12039    12571    13232    13718    13761 
   13435    12981    12641    12523    12606    12922    13421    13790 
   13818    13612    13342    13069    12819    12735    12943    13292 
   13535    13617    13567    13374    13053    12704    12546    12714 
   13053    13339    13508    13486    13171    12604    11992    11612 
   11605    11925    12502    13192    13741    13981    13891    13617 
   13332    13088    12895    12769    12811    13161    13683    14064 
   14138    13906    13439    12879    12409    12224    12413    12820 
   13130    13162    12937    12556    12212    12117    12353    12816 
   13265    13502    13572    13576    13514    13429    13396    13367 
   13252    13046    12862    12823    12918    13007    12951    12781 
   12629    12575    12633    12807    13119    13539    13818    13687 
   13190    12542    11935    11610    11804    12513    13428    14118 
   14305    13976    13290    12544    12104    12214    12831    13629 
   14202    14341    14098    13602    13011    12594    12523    12671 
   12803    12853    12911    13047    13200    13261    13159    12843 
   12420    12129    12106    12367    12852    13371    13732    13767 
   13414    12872    12436    12275    12495    13066    13752    14273 
   14462    14357    14095    13697    13238    12945    12833    12721 
   12559    12420    12344    12266    12144    12073    12133    12303 
   12579    12950    13332    13581    13597    13424    13171    12947 
   12861    12941    13078    13134    13123    13216    13470    13738 
   13853    13744    13450    13084    12804    12721    12819    12981 
   13111    13186    13196    13085    12839    12600    12583    12822 
   13057    13042    12814    12513    12259    12214    12453    12837 
   13193    13432    13535    13512    13347    13058    12800    12765 
   12991    13325    13606    13760    13764    13624    13408    13188 
   12980    12820    12823    13012    13248    13356    13220    12906 
   12586    12341    12229    12321    12565    12846    13068    13177 
   13200    13128    12977    12887    12919    13059    13281    13460 
   13514    13435    13219    12943    12680    12475    12422    12555 
   12846    13257    13626    13749    13570    13203    12830    12607 
   12610    12806    13074    13278    13332    13221    12989    12704 
   12506    12532    12783    13128    13421    13593    13682    13709 
   13641    13501    13365    13284    13232    13128    12961    12816 
   12749    12735    12738    12727    12707    12676    12706    12884 
   13077    13036    12766    12519    12453    12545    12753    13057 
   13390    13664    13799    13756    13568    13298    12985    12715 
   12615    12706    12903    13105    13205    13238    13288    13296 
   13255    13278    13375    13478    13516    13436    13271    13027 
   12695    12383    12216    12233    12388    12591    12823    13053 
   13151    13090    12924    12719    12595    12661    12915    13240 
   13467    13505    13402    13230    13032    12873    12792    12825 
   13000    13288    13564    13679    13587    13362    13096    12911 
   12906    13022    13131    13196    13196    13119    13001    12861 
   12727    12680    12729    12820    12924    12961    12903    12876 
   12951    13059    13100    13007    12845    12718    12626    12654 
   12916    13230    13343    13259    13096    12924    12750    12646 
   12804    13242    13683    13894    13867    13689    13382    12995 
   12696    12623    12760    12997    13208    13324    13365    13316 
   13142    12879    12633    12548    12657    12845    13057    13278 
   13410    13424    13377    13293    13207    13131    13035    12933 
   12823    12718    12676    12721    12831    12933    12937    12873 
   12764    12592    12449    12465    12680    13028    13359    13560 
   13617    13527    13331    13116    12939    12865    12923    13055 
   13219    13365    13421    13409    13379    13250    12992    12773 
   12729    12852    13095    13350    13489    13460    13254    12962 
   12758    12681    12679    12758    12914    13074    13119    13004 
   12860    12792    12749    12700    12725    12852    12970    13009 
   13063    13161    13181    13101    13059    13144    13282    13358 
   13377    13386    13313    13140    12985    12934    12976    13036 
   13047    13031    12970    12822    12673    12648    12746    12920 
