Origin Time       2024/06/23 22:54:00
Lat.              35.645
Long.             140.060
Depth. (km)       72
Mag.              4.1
Station Code      TCG009
Station Lat.      36.7261
Station Long.     139.7159
Station Height(m) 361
Record Time       2024/06/23 22:55:04
Sampling Freq(Hz) 100Hz
Duration Time(s)  60
Dir.              N-S
Scale Factor      7845(gal)/8223790
Max. Acc. (gal)   4.876
Last Correction   2024/06/23 22:55:03
Memo.             
[...]
  -10293   -10431   -10517   -10534   -10562   -10615   -10621   -10644 
  -10754   -10746   -10449   -10050    -9794    -9711    -9757    -9925 
  -10147   -10281   -10282   -10215   -10131   -10083   -10137   -10301 
  -10486   -10574   -10536   -10507   -10566   -10573   -10465   -10331 
  -10189   -10048    -9963    -9919    -9896    -9945   -10044   -10130 
  -10227   -10326   -10361   -10346   -10330   -10377   -10523   -10654 
  -10652   -10546   -10408   -10312   -10304   -10308   -10234   -10131 
  -10034    -9927    -9904   -10044   -10280   -10454   -10436   -10249 
  -10073   -10081   -10258   -10432   -10469   -10359   -10219   -10179 
  -10246   -10336   -10388   -10358   -10237   -10120   -10168   -10373 
  -10524   -10497   -10390   -10293   -10180   -10092   -10080   -10057 
   -9990   -10026   -10211   -10362   -10382   -10370   -10388   -10403 
  -10422   -10449   -10396   -10249   -10143   -10196   -10389   -10552 
  -10539   -10390   -10170    -9929    -9821    -9910   -10029   -10085 
  -10135   -10188   -10281   -10455   -10586   -10581   -10531   -10471 
  -10384   -10408   -10557   -10536   -10284   -10057    -9960    -9921 
   -9906    -9925    -9969   -10037   -10145   -10266   -10338   -10320 
  -10295   -10426   -10697   -10859   -10793   -10665   -10557   -10373 
  -10165   -10081   -10096   -10083   -10026    -9995   -10002   -10007 
   -9991    -9964    -9980   -10072   -10235   -10436   -10542   -10476 
  -10378   -10381   -10423   -10440   -10496   -10547   -10457   -10312 
  -10296   -10336   -10305   -10264   -10210   -10010    -9761    -9747 
   -9960   -10200   -10436   -10625   -10611   -10444   -10314   -10261 
  -10291   -10358   -10377   -10384   -10381   -10296   -10181   -10165 
  -10288   -10424   -10409   -10297   -10197   -10069    -9949    -9946 
   -9995    -9995    -9983   -10039   -10173   -10316   -10470   -10629 
  -10682   -10612   -10505   -10399   -10330   -10331   -10395   -10511 
  -10579   -10457   -10162    -9884    -9774    -9852   -10054   -10218 
  -10242   -10212   -10203   -10216   -10300   -10415   -10442   -10362 
  -10226   -10089   -10046   -10158   -10351   -10480   -10494   -10416 
  -10322   -10299   -10281   -10195   -10142   -10183   -10297   -10465 
  -10574   -10540   -10424   -10287   -10152   -10044    -9958    -9909 
   -9958   -10122   -10309   -10490   -10644   -10616   -10366   -10087 
   -9988   -10111   -10314   -10459   -10462   -10300   -10091    -9963 
   -9968   -10137   -10350   -10400   -10311   -10311   -10470   -10632 
  -10652   -10485   -10222   -10048   -10052   -10181   -10300   -10295 
  -10207   -10146   -10139   -10181   -10262   -10311   -10265   -10179 
  -10153   -10214   -10320   -10432   -10497   -10446   -10314   -10238 
  -10255   -10315   -10390   -10420   -10336   -10207   -10126   -10075 
  -10039   -10069   -10146   -10176   -10110   -10018   -10060   -10295 
  -10601   -10790   -10760   -10579   -10395   -10270   -10199   -10145 
  -10110   -10106   -10075   -10017   -10058   -10218   -10374   -10454 
  -10434   -10372   -10374   -10451   -10513   -10478   -10354   -10223 
  -10165   -10126   -10023    -9910    -9850    -9867    -9991   -10197 
  -10384   -10458   -10373   -10204   -10123   -10234   -10501   -10787 
  -10909   -10770   -10488   -10247   -10126   -10143   -10261   -10342 
  -10304   -10188   -10046    -9945    -9940   -10004   -10084   -10142 
  -10172   -10218   -10341   -10512   -10629   -10606   -10447   -10270 
  -10176   -10149   -10152   -10191   -10230   -10208   -10145   -10141 
  -10219   -10331   -10444   -10500   -10450   -10343   -10220   -10081 
   -9991   -10004   -10073   -10168   -10293   -10438   -10601   -10737 
  -10752   -10651   -10525   -10407   -10292   -10216   -10176   -10099 
   -9964    -9769    -9575    -9533    -9726   -10030   -10250   -10339 
  -10381   -10480   -10673   -10878   -10949   -10831   -10604   -10403 
  -10304   -10297   -10304   -10234   -10046    -9807    -9652    -9690 
   -9923   -10193   -10324   -10315   -10280   -10312   -10428   -10550 
  -10620   -10671   -10675   -10577   -10439   -10322   -10164    -9957 
   -9805    -9772    -9850    -9973   -10072   -10130   -10204   -10341 
  -10465   -10482   -10395   -10296   -10311   -10480   -10678   -10750 
  -10674   -10501   -10273   -10083   -10011   -10037   -10069   -10007 
   -9890    -9904   -10143   -10500   -10775   -10832   -10662   -10385 
  -10156   -10019    -9927    -9875    -9887    -9975   -10118   -10281 
  -10422   -10473   -10408   -10315   -10299   -10350   -10400   -10422 
  -10412   -10404   -10422   -10412   -10354   -10297   -10242   -10188 
  -10165   -10154   -10134   -10107   -10083   -10084   -10125   -10183 
  -10233   -10255   -10262   -10304   -10417   -10558   -10619   -10557 
  -10420   -10234   -10026    -9900    -9922   -10037   -10195   -10351 
  -10432   -10411   -10336   -10264   -10253   -10328   -10420   -10451 
  -10453   -10459   -10442   -10362   -10223   -10072    -9963    -9917 
   -9934   -10039   -10246   -10477   -10608   -10601   -10497   -10362 
  -10249   -10143   -10012    -9919    -9949   -10089   -10288   -10493 
  -10627   -10647   -10565   -10396   -10206   -10110   -10114   -10118 
  -10102   -10111   -10169   -10276   -10386   -10424   -10377   -10285 
  -10184   -10114   -10116   -10195   -10291   -10339   -10322   -10281 
  -10265   -10296   -10362   -10427   -10458   -10435   -10342   -10184 
  -10044   -10010   -10068   -10197   -10386   -10513   -10504   -10453 
  -10409   -10319   -10185   -10056    -9980   -10021   -10126   -10195 
  -10233   -10254   -10272   -10336   -10408   -10405   -10376   -10365 
  -10323   -10262   -10246   -10261   -10282   -10285   -10218   -10092 
  -10022   -10056   -10166   -10330   -10489   -10577   -10602   -10577 
  -10497   -10423   -10409   -10405   -10322   -10123    -9877    -9707 
   -9674    -9778   -10008   -10273   -10450   -10486   -10427   -10392 
  -10457   -10565   -10624   -10577   -10401   -10168   -10030   -10052 
  -10174   -10295   -10322   -10273   -10270   -10350   -10413   -10407 
  -10355   -10266   -10172   -10108   -10052   -10022   -10080   -10200 
  -10311   -10389   -10408   -10334   -10193   -10048    -9975   -10038 
  -10201   -10361   -10454   -10457   -10390   -10319   -10307   -10327 
  -10319   -10289   -10281   -10308   -10370   -10450   -10504   -10494 
  -10422   -10314   -10185   -10053    -9967    -9950    -9976   -10026 
  -10099   -10192   -10318   -10466   -10561   -10520   -10390   -10274 
  -10230   -10255   -10308   -10349   -10324   -10243   -10204   -10239 
  -10288   -10314   -10316   -10288   -10242   -10215   -10210   -10234 
  -10293   -10330   -10305   -10243   -10166   -10122   -10172   -10262 
  -10274   -10199   -10111   -10076   -10135   -10284   -10451   -10581 
  -10673   -10704   -10613   -10412   -10191   -10015    -9949   -10021 
  -10126   -10195   -10287   -10380   -10400   -10382   -10331   -10185 
  -10026    -9971   -10018   -10142   -10314   -10478   -10606   -10658 
  -10548   -10314   -10114   -10023    -9979    -9946    -9952   -10017 
  -10150   -10323   -10458   -10524   -10557   -10566   -10539   -10476 
  -10390   -10316   -10277   -10250   -10196   -10120   -10058   -10037 
  -10065   -10126   -10173   -10172   -10142   -10135   -10201   -10343 
  -10516   -10643   -10683   -10675   -10669   -10616   -10474   -10272 
  -10035    -9836    -9759    -9768    -9795    -9838    -9876    -9919 
  -10058   -10309   -10609   -10864   -10998   -10998   -10899   -10716 
  -10461   -10197   -10010    -9914    -9864    -9840    -9872    -9975 
  -10103   -10210   -10289   -10351   -10396   -10415   -10417   -10427 
  -10438   -10423   -10401   -10404   -10408   -10372   -10280   -10142 
   -9987    -9917   -10026   -10254   -10422   -10442   -10365   -10245 
  -10126   -10071   -10099   -10164   -10201   -10211   -10264   -10397 
  -10548   -10625   -10567   -10374   -10152   -10053   -10116   -10235 
  -10326   -10390   -10392   -10282   -10147   -10080   -10054   -10054 
  -10093   -10157   -10224   -10282   -10318   -10299   -10211   -10152 
  -10234   -10430   -10623   -10720   -10709   -10600   -10392   -10162 
  -10017    -9990   -10046   -10108   -10114   -10098   -10129   -10226 
  -10334   -10349   -10241   -10100   -10026   -10042   -10160   -10361 
  -10567   -10719   -10781   -10739   -10598   -10404   -10233   -10107 
  -10014    -9964    -9987   -10058   -10134   -10222   -10320   -10359 
  -10324   -10278   -10253   -10289   -10478   -10764   -10960   -10953 
  -10747   -10392   -10027    -9794    -9679    -9595    -9524    -9456 
   -9398    -9474    -9788   -10251   -10662   -10883   -10910   -10822 
  -10704   -10627   -10629   -10665   -10663   -10621   -10563   -10490 
  -10395   -10278   -10107    -9857    -9591    -9409    -9371    -9470 
   -9644    -9863   -10129   -10428   -10719   -10976   -11207   -11344 
  -11296   -11076   -10721   -10254    -9828    -9586    -9468    -9390 
   -9400    -9526    -9776   -10139   -10494   -10700   -10763   -10746 
  -10729   -10804   -10917   -10957   -10899   -10694   -10361   -10116 
  -10065   -10066    -9979    -9769    -9505    -9329    -9355    -9555 
   -9829   -10103   -10351   -10586   -10814   -10998   -11105   -11115 
  -10983   -10702   -10365   -10042    -9744    -9555    -9585    -9792 
  -10041   -10247   -10397   -10476   -10470   -10392   -10268   -10200 
  -10296   -10467   -10528   -10498   -10524   -10566   -10462   -10172 
   -9798    -9489    -9369    -9487    -9795   -10145   -10392   -10543 
  -10679   -10844   -11068   -11283   -11310   -11109   -10797   -10450 
  -10108    -9828    -9630    -9485    -9389    -9413    -9587    -9825 
  -10015   -10093   -10045    -9977   -10071   -10363   -10714   -10982 
  -11157   -11345   -11547   -11568   -11307   -10862   -10303    -9706 
   -9216    -8881    -8714    -8780    -9034    -9350    -9687   -10035 
  -10342   -10588   -10817   -11102   -11437   -11685   -11730   -11601 
  -11435   -11269   -10964   -10395    -9651    -8999    -8638    -8545 
   -8583    -8672    -8815    -9092    -9548   -10108   -10681   -11242 
  -11763   -12159   -12280   -12033   -11481   -10795   -10156    -9682 
   -9428    -9400    -9528    -9675    -9728    -9733    -9828   -10000 
  -10147   -10305   -10566   -10820   -10912   -10890   -10837   -10727 
  -10547   -10291    -9992    -9840    -9899    -9996   -10062   -10130 
  -10057    -9799    -9589    -9564    -9722   -10046   -10346   -10422 
  -10370   -10363   -10438   -10651   -10959   -11138   -11086   -10870 
  -10586   -10374   -10300   -10278   -10210   -10088   -10025   -10135 
  -10346   -10519   -10658   -10791   -10832   -10700   -10401    -9963 
   -9402    -8847    -8532    -8571    -8939    -9576   -10349   -11044 
  -11499   -11689   -11668   -11485   -11176   -10770   -10363   -10049 
   -9776    -9485    -9275    -9258    -9390    -9593    -9798    -9923 
   -9937    -9891    -9953   -10314   -10868   -11256   -11330   -11229 
  -11037   -10820   -10712   -10704   -10667   -10569   -10399   -10160 
   -9960    -9900    -9940    -9940    -9841    -9753    -9803   -10006 
  -10316   -10597   -10663   -10500   -10220    -9913    -9691    -9610 
   -9612    -9695    -9871   -10042   -10188   -10400   -10665   -10913 
  -11098   -11090   -10824   -10451   -10134    -9964   -10002   -10166 
  -10304   -10343   -10289   -10203   -10166   -10193   -10237   -10268 
  -10299   -10411   -10682   -11067   -11403   -11547   -11441   -11097 
  -10579   -10006    -9486    -9078    -8787    -8625    -8662    -8932 
   -9310    -9628    -9818    -9940   -10142   -10528   -11036   -11516 
  -11840   -11907   -11672   -11263   -10871   -10586   -10417   -10293 
  -10084    -9671    -9061    -8467    -8191    -8372    -8835    -9331 
   -9822   -10407   -11114   -11853   -12437   -12658   -12409   -11713 
  -10735    -9795    -9263    -9302    -9769   -10334   -10662   -10621 
  -10338   -10003    -9738    -9579    -9486    -9440    -9562    -9977 
  -10642   -11354   -11889   -12052   -11757   -11070   -10160    -9216 
   -8471    -8127    -8163    -8417    -8775    -9154    -9536    -9949 
  -10357   -10767   -11300   -11859   -12159   -12163   -11974   -11578 
  -11011   -10447   -10039    -9837    -9780    -9796    -9880   -10029 
  -10156   -10169   -10079    -9996   -10023   -10196   -10517   -10890 
  -11078   -10891   -10399    -9796    -9247    -8873    -8770    -8926 
   -9277    -9802   -10458   -11070   -11433   -11477   -11279   -11045 
  -10953   -10908   -10741   -10559   -10481   -10385   -10130    -9695 
   -9202    -8907    -8973    -9301    -9671    -9946   -10087   -10130 
  -10169   -10269   -10467   -10802   -11248   -11680   -11880   -11622 
  -10903    -9996    -9220    -8838    -9000    -9535   -10048   -10312 
  -10373   -10357   -10370   -10466   -10586   -10643   -10635   -10624 
  -10712   -11053   -11668   -12283   -12494   -12035   -10971    -9679 
   -8577    -7817    -7362    -7177    -7290    -7761    -8568    -9539 
  -10524   -11473   -12298   -12776   -12731   -12268   -11674   -11182 
  -10887   -10754   -10647   -10444   -10141    -9846    -9652    -9556 
   -9467    -9227    -8783    -8311    -8001    -7944    -8272    -9063 
  -10180   -11342   -12226   -12625   -12631   -12507   -12363   -12187 
  -12008   -11799   -11438   -10929   -10343    -9695    -9065    -8530 
   -8095    -7773    -7541    -7379    -7402    -7701    -8268    -9167 
  -10439   -11921   -13404   -14677   -15380   -15202   -14153   -12474 
  -10494    -8649    -7358    -6875    -7203    -8075    -9074    -9836 
  -10166   -10048    -9609    -9132    -8931    -9197    -9902   -10787 
  -11527   -11961   -12100   -11998   -11736   -11457   -11277   -11188 
  -11074   -10856   -10523   -10053    -9458    -8874    -8527    -8567 
   -8965    -9528   -10015   -10304   -10374   -10184    -9742    -9258 
   -9042    -9308   -10057   -11061   -12055   -12883   -13389   -13377 
  -12718   -11416    -9679    -8005    -6903    -6516    -6736    -7453 
   -8527    -9786   -11099   -12294   -13113   -13425   -13304   -12876 
  -12228   -11418   -10461    -9448    -8600    -8081    -7867    -7869 
   -8016    -8303    -8775    -9437   -10272   -11267   -12270   -12953 
  -13126   -12829   -12145   -11236   -10335    -9499    -8667    -7979 
   -7742    -8087    -8904    -9976   -11028   -11766   -12028   -11878 
  -11453   -10817   -10060    -9352    -8851    -8742    -9150    -9913 
  -10700   -11273   -11500   -11364   -11028   -10690   -10376   -10033 
   -9740    -9605    -9598    -9618    -9621    -9659    -9779    -9969 
  -10173   -10308   -10331   -10282   -10266   -10417   -10736   -11024 
  -11087   -10879   -10482   -10096    -9915   -10021   -10388   -10903 
  -11356   -11560   -11489   -11225   -10839   -10372    -9863    -9351 
   -8907    -8688    -8815    -9196    -9587    -9813    -9840    -9756 
   -9710    -9814   -10091   -10515   -11021   -11439   -11614   -11584 
  -11442   -11184   -10832   -10443   -10034    -9648    -9386    -9323 
   -9433    -9667    -9952   -10161   -10287   -10466   -10708   -10881 
  -10948   -10925   -10764   -10457   -10030    -9508    -8986    -8656 
   -8689    -9082    -9640   -10220   -10817   -11379   -11786   -12005 
  -12102   -12114   -12016   -11796   -11445   -10963   -10423    -9918 
   -9470    -9057    -8623    -8174    -7824    -7707    -7857    -8212 
   -8652    -9120    -9616   -10122   -10686   -11398   -12202   -12908 
  -13356   -13468   -13219   -12671   -11938   -11102   -10211    -9294 
   -8417    -7717    -7341    -7317    -7597    -8137    -8849    -9617 
  -10388   -11130   -11763   -12205   -12434   -12522   -12573   -12575 
  -12352   -11785   -10908    -9849    -8814    -8055    -7674    -7614 
   -7842    -8332    -8964    -9587   -10115   -10593   -11119   -11647 
  -11994   -12082   -11997   -11790   -11464   -11048   -10613   -10239 
   -9950    -9703    -9482    -9343    -9320    -9364    -9406    -9366 
   -9200    -9042    -9142    -9583   -10233   -10922   -11543   -12023 
  -12272   -12214   -11870   -11344   -10721   -10098    -9591    -9238 
   -8986    -8808    -8737    -8865    -9228    -9745   -10291   -10743 
  -11020   -11115   -11024   -10717   -10260    -9826    -9606    -9701 
  -10091   -10647   -11180   -11522   -11623   -11535   -11317   -11030 
  -10736   -10450   -10162    -9869    -9575    -9317    -9089    -8806 
   -8424    -8052    -7896    -8104    -8748    -9799   -11036   -12147 
  -12911   -13217   -13089   -12702   -12213   -11658   -11030   -10358 
   -9721    -9277    -9138    -9235    -9390    -9491    -9539    -9606 
   -9753    -9987   -10223   -10293   -10084    -9659    -9194    -8874 
   -8777    -8918    -9320    -9958   -10675   -11275   -11686   -11925 
  -11988   -11882   -11680   -11416   -11090   -10740   -10428   -10181 
  -10029    -9957    -9898    -9832    -9751    -9632    -9508    -9410 
   -9321    -9288    -9427    -9765   -10218   -10667   -11002   -11141 
  -11087   -10928   -10727   -10497   -10299   -10210   -10269   -10457 
  -10639   -10687   -10597   -10422   -10183    -9904    -9616    -9378 
   -9309    -9440    -9668    -9877    -9998   -10037   -10107   -10257 
  -10403   -10532   -10697   -10816   -10817   -10752   -10650   -10503 
  -10338   -10192   -10127   -10179   -10255   -10284   -10308   -10361 
  -10385   -10378   -10432   -10578   -10746   -10891   -11014   -11064 
  -10962   -10687   -10280    -9830    -9479    -9340    -9400    -9533 
   -9632    -9676    -9699    -9724    -9780    -9923   -10165   -10427 
  -10644   -10845   -11017   -11038   -10837   -10482   -10096    -9763 
   -9553    -9516    -9639    -9882   -10216   -10558   -10770   -10812 
  -10751   -10654   -10574   -10552   -10577   -10563   -10427   -10215 
  -10072   -10077   -10191   -10355   -10505   -10561   -10511   -10424 
  -10343   -10227   -10052    -9883    -9806    -9844    -9973   -10145 
  -10258   -10235   -10108    -9975    -9896    -9872    -9879    -9964 
  -10179   -10463   -10709   -10875   -10926   -10814   -10577   -10327 
  -10125    -9999   -10011   -10196   -10528   -10925   -11233   -11329 
  -11206   -10879   -10380    -9813    -9278    -8866    -8677    -8752 
   -9055    -9562   -10197   -10764   -11076   -11086   -10822   -10415 
  -10079    -9911    -9855    -9875    -9990   -10193   -10486   -10828 
  -11095   -11215   -11205   -11124   -11071   -11068   -11005   -10785 
  -10422    -9940    -9414    -9023    -8888    -8978    -9235    -9626 
  -10041   -10353   -10532   -10584   -10500   -10332   -10170   -10104 
  -10212   -10438   -10601   -10629   -10585   -10517   -10493   -10598 
  -10775   -10872   -10890   -10901   -10851   -10663   -10354    -9956 
   -9522    -9162    -8962    -8928    -9034    -9223    -9455    -9753 
  -10156   -10624   -11052   -11326   -11377   -11209   -10898   -10578 
  -10382   -10373   -10492   -10624   -10686   -10674   -10633   -10588 
  -10482   -10277   -10014    -9796    -9757    -9902   -10052   -10081 
  -10026    -9904    -9747    -9653    -9660    -9711    -9761    -9787 
   -9809    -9910   -10118   -10376   -10651   -10925   -11146   -11277 
  -11307   -11206   -10952   -10609   -10270    -9996    -9838    -9815 
   -9865    -9927    -9992   -10054   -10112   -10208   -10359   -10488 
