Origin Time       2024/06/23 22:54:00
Lat.              35.645
Long.             140.060
Depth. (km)       72
Mag.              4.1
Station Code      TCG010
Station Lat.      36.6348
Station Long.     139.4379
Station Height(m) 637
Record Time       2024/06/23 22:55:04
Sampling Freq(Hz) 100Hz
Duration Time(s)  60
Dir.              E-W
Scale Factor      7845(gal)/8223790
Max. Acc. (gal)   1.686
Last Correction   2024/06/23 22:55:04
Memo.             
[...]
   -5236    -4990    -5044    -5165    -5066    -4935    -5009    -5259 
   -5413    -5370    -5275    -5147    -4993    -4947    -5015    -5151 
   -5347    -5497    -5464    -5239    -5032    -4989    -4954    -4954 
   -5119    -5251    -5229    -5219    -5289    -5262    -5082    -4997 
   -5100    -5225    -5246    -5158    -5142    -5250    -5323    -5319 
   -5228    -5111    -5046    -4968    -4969    -5104    -5128    -5077 
   -5233    -5431    -5317    -5023    -4957    -5150    -5251    -5224 
   -5312    -5421    -5316    -5082    -5008    -5046    -4988    -5019 
   -5192    -5219    -5194    -5356    -5485    -5281    -4953    -4897 
   -5061    -5186    -5213    -5202    -5235    -5310    -5259    -5038 
   -4946    -5057    -5074    -5023    -5127    -5364    -5555    -5460 
   -5089    -4801    -4803    -5013    -5305    -5503    -5505    -5381 
   -5157    -4900    -4874    -5135    -5354    -5310    -5120    -5012 
   -5044    -5076    -5115    -5293    -5360    -5143    -4985    -5103 
   -5359    -5478    -5271    -4912    -4773    -5047    -5340    -5235 
   -5139    -5297    -5242    -4965    -4934    -5103    -5213    -5371 
   -5513    -5366    -5107    -5077    -5139    -5050    -4995    -5147 
   -5298    -5317    -5246    -5098    -4996    -5039    -5104    -5113 
   -5182    -5290    -5354    -5366    -5186    -4907    -4909    -5119 
   -5167    -5130    -5251    -5329    -5197    -5090    -5086    -5127 
   -5186    -5151    -5159    -5286    -5259    -5181    -5251    -5196 
   -5061    -5177    -5336    -5194    -4966    -5085    -5351    -5238 
   -4993    -5050    -5108    -4942    -4950    -5274    -5471    -5359 
   -5260    -5294    -5255    -5154    -5131    -5098    -4986    -4946 
   -5055    -5173    -5265    -5382    -5348    -5148    -5096    -5198 
   -5104    -4831    -4887    -5235    -5331    -5286    -5364    -5305 
   -5076    -5054    -5302    -5397    -5177    -4961    -4973    -5165 
   -5304    -5206    -5084    -5130    -5136    -4981    -4889    -5044 
   -5377    -5535    -5344    -5179    -5182    -5096    -4985    -5028 
   -5213    -5343    -5233    -5077    -5026    -5011    -5125    -5312 
   -5286    -5186    -5250    -5233    -5100    -5125    -5165    -5134 
   -5263    -5359    -5204    -5112    -5192    -5152    -5063    -5144 
   -5143    -4927    -4899    -5144    -5233    -5130    -5255    -5499 
   -5363    -5053    -5044    -5152    -5097    -5059    -5206    -5308 
   -5186    -5135    -5269    -5240    -5030    -4990    -5159    -5282 
   -5240    -5098    -5030    -5127    -5263    -5313    -5290    -5216 
   -5111    -5065    -5071    -5042    -5127    -5333    -5355    -5223 
   -5169    -5150    -5061    -4966    -5044    -5259    -5278    -5136 
   -5130    -5130    -5101    -5259    -5378    -5290    -5221    -5192 
   -5082    -4961    -4982    -5124    -5135    -5031    -5084    -5196 
   -5232    -5304    -5360    -5416    -5458    -5239    -4968    -4988 
   -5100    -5058    -4980    -5007    -5038    -5051    -5148    -5238 
   -5244    -5283    -5362    -5332    -5265    -5292    -5192    -4974 
   -4980    -5142    -5248    -5297    -5228    -5074    -5009    -5044 
   -5084    -5103    -5162    -5274    -5292    -5254    -5360    -5428 
   -5190    -4945    -5057    -5259    -5179    -4986    -5004    -5173 
   -5178    -4974    -4972    -5244    -5319    -5171    -5171    -5292 
   -5341    -5281    -5174    -5136    -5127    -5076    -5111    -5193 
   -5169    -5155    -5202    -5165    -5081    -5089    -5146    -5090 
   -4996    -5096    -5242    -5190    -5181    -5391    -5474    -5273 
   -5101    -5076    -5096    -5108    -5086    -5107    -5223    -5359 
   -5373    -5169    -4930    -4941    -5138    -5232    -5150    -5108 
   -5201    -5246    -5185    -5158    -5197    -5225    -5155    -5016 
   -5017    -5240    -5431    -5367    -5182    -5152    -5182    -4936 
   -4720    -4997    -5363    -5386    -5312    -5329    -5294    -5124 
   -4992    -5028    -5065    -5030    -5134    -5333    -5364    -5251 
   -5116    -4989    -4980    -5085    -5194    -5287    -5316    -5258 
   -5209    -5175    -5082    -5046    -5165    -5246    -5159    -5096 
   -5216    -5373    -5359    -5236    -5134    -5065    -5011    -4997 
   -5120    -5278    -5296    -5247    -5124    -4950    -4977    -5125 
   -5159    -5260    -5513    -5464    -4992    -4739    -4951    -5130 
   -5127    -5262    -5505    -5466    -5142    -4942    -4950    -5054 
   -5227    -5304    -5281    -5319    -5287    -5094    -4949    -5035 
   -5278    -5373    -5206    -5070    -5125    -5154    -5084    -5157 
   -5289    -5209    -5151    -5208    -5061    -4899    -5028    -5201 
   -5213    -5186    -5174    -5123    -5097    -5166    -5238    -5275 
   -5368    -5441    -5321    -5161    -5155    -5116    -4999    -5019 
   -5113    -5120    -5092    -5109    -5182    -5212    -5157    -5115 
   -5080    -5063    -5167    -5286    -5305    -5340    -5416    -5281 
   -4957    -4870    -5028    -5076    -5085    -5279    -5432    -5313 
   -5119    -4961    -4806    -4908    -5301    -5462    -5325    -5433 
   -5649    -5370    -4926    -4969    -5181    -5093    -5019    -5094 
   -4957    -4781    -4962    -5248    -5331    -5364    -5431    -5316 
   -5104    -5150    -5305    -5247    -5184    -5258    -5217    -5005 
   -4868    -4914    -5059    -5217    -5324    -5348    -5263    -5040 
   -4892    -4999    -5185    -5296    -5341    -5305    -5184    -5096 
   -5193    -5287    -5196    -5169    -5240    -5186    -5135    -5154 
   -5103    -5097    -5163    -5144    -5108    -5078    -4969    -4896 
   -5047    -5358    -5468    -5292    -5184    -5206    -5175    -5146 
   -5185    -5259    -5317    -5256    -5115    -5077    -5135    -5124 
   -5024    -5008    -5139    -5179    -5074    -5063    -5158    -5225 
   -5293    -5421    -5549    -5476    -5113    -4797    -4877    -5078 
   -5044    -5017    -5167    -5254    -5242    -5251    -5189    -5043 
   -5042    -5217    -5320    -5308    -5308    -5269    -5181    -5155 
   -5190    -5188    -5063    -4912    -4914    -5028    -5119    -5229 
   -5332    -5274    -5179    -5170    -5116    -5157    -5397    -5435 
   -5213    -5116    -5121    -5080    -5128    -5242    -5135    -4887 
   -4919    -5186    -5216    -5028    -5055    -5225    -5219    -5212 
   -5313    -5285    -5196    -5225    -5277    -5263    -5239    -5217 
   -5202    -5178    -5077    -5005    -5054    -5080    -5077    -5142 
   -5186    -5146    -5105    -5108    -5132    -5186    -5319    -5409 
   -5278    -5124    -5174    -5163    -5017    -5030    -5125    -5111 
   -5112    -5173    -5190    -5246    -5343    -5281    -5093    -5040 
   -5167    -5287    -5270    -5205    -5200    -5166    -5130    -5165 
   -5090    -4926    -4955    -5130    -5193    -5194    -5306    -5390 
   -5300    -5217    -5193    -5092    -5031    -5101    -5142    -5097 
   -5085    -5201    -5328    -5266    -5125    -5100    -5108    -5136 
   -5231    -5282    -5256    -5189    -5081    -4974    -4985    -5165 
   -5301    -5196    -5058    -5200    -5413    -5328    -5134    -5155 
   -5225    -5144    -5070    -5043    -5022    -5138    -5259    -5166 
   -5030    -5030    -5074    -5132    -5289    -5366    -5200    -5121 
   -5244    -5314    -5335    -5300    -5204    -5186    -5158    -5078 
   -5023    -5023    -5179    -5255    -5031    -4918    -5054    -5077 
   -5059    -5238    -5381    -5290    -5178    -5211    -5320    -5420 
   -5350    -5089    -4895    -4934    -5089    -5146    -5111    -5144 
   -5224    -5244    -5217    -5169    -5100    -5130    -5309    -5302 
   -5040    -5057    -5346    -5308    -5065    -5121    -5302    -5246 
   -5090    -5120    -5188    -5011    -4880    -5080    -5198    -5085 
   -5107    -5277    -5352    -5293    -5260    -5306    -5239    -5077 
   -5055    -5171    -5223    -5158    -5169    -5287    -5256    -5069 
   -5003    -5051    -5039    -5082    -5238    -5232    -5086    -5151 
   -5325    -5224    -5040    -5125    -5275    -5258    -5201    -5250 
   -5266    -5097    -4965    -5026    -5119    -5179    -5231    -5224 
   -5162    -5108    -5098    -5140    -5216    -5246    -5205    -5139 
   -5125    -5243    -5346    -5215    -5054    -5121    -5213    -5171 
   -5147    -5162    -5063    -4943    -5063    -5258    -5206    -5140 
   -5282    -5410    -5405    -5297    -5143    -5054    -5004    -5022 
   -5155    -5251    -5219    -5100    -5057    -5177    -5186    -5058 
   -5085    -5150    -5086    -5097    -5215    -5232    -5117    -5081 
   -5212    -5350    -5375    -5266    -5134    -5123    -5107    -5015 
   -5054    -5184    -5158    -5086    -5202    -5323    -5217    -5127 
   -5293    -5406    -5217    -5078    -5175    -5196    -5016    -4892 
   -4989    -5121    -5089    -5016    -5023    -5116    -5321    -5489 
   -5449    -5377    -5436    -5439    -5252    -5070    -4980    -4904 
   -4936    -5147    -5220    -5022    -4953    -5108    -5171    -5161 
   -5155    -5113    -5173    -5389    -5521    -5386    -5201    -5146 
   -4992    -4854    -5027    -5196    -5096    -4995    -5101    -5233 
   -5259    -5304    -5329    -5351    -5503    -5524    -5254    -5036 
   -5049    -5105    -5000    -4841    -4814    -4766    -4715    -4958 
   -5266    -5224    -5142    -5401    -5695    -5773    -5751    -5580 
   -5312    -5202    -5192    -4977    -4596    -4486    -4716    -4912 
   -5011    -5132    -5275    -5467    -5539    -5278    -4997    -5092 
   -5296    -5270    -5262    -5377    -5324    -5190    -5201    -5127 
   -4876    -4785    -4965    -5125    -5125    -5136    -5263    -5341 
   -5255    -5246    -5424    -5466    -5314    -5229    -5196    -5124 
   -5121    -5217    -5173    -4872    -4581    -4561    -4734    -4789 
   -4792    -5125    -5545    -5625    -5626    -5742    -5788    -5769 
   -5722    -5458    -4927    -4506    -4526    -4727    -4784    -4893 
   -5229    -5495    -5421    -5240    -5202    -5211    -5277    -5364 
   -5219    -5036    -5047    -4989    -4854    -4922    -5113    -5217 
   -5251    -5366    -5491    -5316    -4926    -4766    -4928    -5223 
   -5406    -5323    -5208    -5178    -5082    -5038    -5081    -5113 
   -5289    -5536    -5730    -5975    -5899    -5277    -4792    -4711 
   -4576    -4475    -4657    -4761    -4695    -4873    -5215    -5319 
   -5286    -5329    -5408    -5456    -5445    -5467    -5665    -5794 
   -5458    -4934    -4750    -4781    -4758    -4827    -5017    -5125 
   -5205    -5354    -5304    -5055    -5136    -5636    -5868    -5439 
   -4884    -4777    -4995    -5202    -5294    -5325    -5289    -5089 
   -4830    -4718    -4804    -4887    -4745    -4650    -4896    -5259 
   -5520    -5634    -5688    -5822    -5745    -5306    -5017    -5077 
   -5117    -5009    -4962    -5044    -5101    -5013    -4791    -4658 
   -4936    -5472    -5759    -5765    -5729    -5535    -5246    -5202 
   -5231    -5053    -4950    -5036    -4978    -4734    -4583    -4637 
   -4799    -4916    -4976    -5059    -5146    -5270    -5509    -5665 
   -5545    -5508    -5871    -6065    -5701    -5263    -4953    -4660 
   -4592    -4731    -4754    -4716    -4854    -5076    -5278    -5485 
   -5543    -5306    -4922    -4758    -5016    -5386    -5363    -5017 
   -5028    -5464    -5586    -5290    -5108    -5179    -5335    -5321 
   -5081    -4951    -5071    -5236    -5323    -5312    -5209    -4932 
   -4592    -4672    -5154    -5397    -5287    -5333    -5497    -5301 
   -5070    -5193    -5243    -5146    -5163    -5142    -5080    -5116 
   -5136    -5074    -5077    -5212    -5209    -4887    -4677    -4855 
   -5074    -5275    -5629    -5795    -5611    -5428    -5287    -5027 
   -4872    -5094    -5359    -5178    -4884    -5024    -5225    -5030 
   -4810    -4970    -5290    -5325    -5093    -5016    -5208    -5418 
   -5444    -5317    -5217    -5098    -4920    -4874    -4945    -5062 
   -5300    -5491    -5406    -5255    -5305    -5304    -5059    -4908 
   -5001    -5163    -5296    -5347    -5370    -5416    -5406    -5298 
   -5119    -4923    -4761    -4749    -4880    -4935    -4978    -5131 
   -5161    -5115    -5283    -5579    -5721    -5656    -5440    -5131 
   -4951    -4897    -4646    -4376    -4529    -4924    -5131    -5186 
   -5414    -5690    -5633    -5440    -5499    -5684    -5698    -5528 
   -5285    -5040    -4846    -4671    -4564    -4735    -5050    -5123 
   -5027    -5111    -5366    -5543    -5512    -5304    -5105    -5074 
   -5189    -5333    -5340    -5198    -5120    -5019    -4695    -4502 
   -4733    -5004    -5049    -5067    -5175    -5290    -5406    -5564 
   -5663    -5562    -5347    -5209    -5263    -5463    -5513    -5286 
   -5044    -4893    -4711    -4627    -4796    -5015    -5159    -5394 
   -5647    -5690    -5539    -5251    -4968    -4843    -4726    -4639 
   -4893    -5337    -5589    -5667    -5579    -5189    -4845    -4968 
   -5244    -5235    -5023    -4855    -4842    -4833    -4737    -4877 
   -5267    -5447    -5486    -5626    -5609    -5344    -5170    -5325 
   -5555    -5512    -5482    -5601    -5281    -4658    -4558    -4873 
   -4978    -4860    -4693    -4509    -4531    -4881    -5231    -5379 
   -5541    -5748    -5802    -5715    -5568    -5344    -5104    -5017 
   -5127    -5127    -4814    -4592    -4729    -4807    -4654    -4706 
   -5042    -5213    -5173    -5341    -5857    -6517    -6934    -6774 
   -6176    -5340    -4374    -3696    -3550    -3711    -3975    -4328 
   -4772    -5256    -5794    -6207    -6096    -5590    -5265    -5301 
   -5475    -5487    -5142    -4596    -4321    -4490    -4769    -4837 
   -4874    -5216    -5610    -5691    -5648    -5672    -5683    -5557 
   -5285    -5082    -4992    -4770    -4456    -4298    -4479    -5053 
   -5697    -6060    -6207    -6076    -5560    -5016    -4749    -4810 
   -5179    -5522    -5498    -5165    -4745    -4378    -4117    -4101 
   -4450    -4914    -5197    -5410    -5699    -5904    -5915    -5898 
   -5859    -5640    -5367    -5186    -4947    -4658    -4610    -4827 
   -5073    -5171    -5011    -4734    -4807    -5316    -5718    -5680 
   -5476    -5409    -5425    -5319    -5061    -4845    -4833    -4957 
   -4976    -4797    -4614    -4653    -4932    -5179    -5267    -5440 
   -5636    -5521    -5312    -5387    -5575    -5601    -5506    -5266 
   -4842    -4523    -4541    -4722    -4927    -5228    -5559    -5780 
   -5856    -5659    -5224    -4949    -5058    -5254    -5206    -4984 
   -4733    -4544    -4568    -4766    -4999    -5337    -5710    -5802 
   -5607    -5402    -5324    -5244    -5004    -4833    -4916    -4914 
   -4730    -4687    -4904    -5328    -5667    -5638    -5435    -5209 
   -4985    -5005    -5248    -5308    -5038    -4769    -4846    -5165 
   -5395    -5452    -5467    -5474    -5441    -5359    -5107    -4741 
   -4707    -5123    -5433    -5292    -5053    -5082    -5256    -5400 
   -5437    -5206    -4826    -4648    -4722    -4946    -5215    -5394 
   -5493    -5597    -5686    -5626    -5363    -5042    -4789    -4611 
   -4514    -4550    -4730    -4974    -5287    -5682    -5957    -5976 
   -5792    -5475    -5185    -5044    -4922    -4757    -4649    -4595 
   -4677    -4866    -4861    -4788    -4981    -5286    -5506    -5633 
   -5586    -5410    -5309    -5404    -5630    -5671    -5332    -4924 
   -4838    -5040    -5165    -5030    -4854    -4769    -4675    -4725 
   -5117    -5514    -5601    -5680    -5945    -5998    -5613    -5042 
   -4526    -4232    -4217    -4456    -4857    -5154    -5224    -5293 
   -5589    -6000    -6102    -5836    -5621    -5441    -5030    -4598 
   -4484    -4693    -4908    -4904    -4830    -4830    -4896    -5063 
   -5321    -5587    -5730    -5690    -5568    -5404    -5243    -5188 
   -5140    -5019    -4934    -4899    -4812    -4707    -4689    -4818 
   -5127    -5516    -5778    -5780    -5508    -5181    -5143    -5298 
   -5212    -4833    -4460    -4271    -4332    -4604    -4947    -5368 
   -5798    -5913    -5756    -5713    -5744    -5540    -5220    -5135 
   -5277    -5362    -5305    -5121    -4811    -4742    -5146    -5414 
   -5123    -4780    -4784    -4880    -4877    -4901    -4985    -5059 
   -5163    -5331    -5545    -5692    -5567    -5251    -5054    -5036 
   -5051    -5046    -5080    -5216    -5370    -5409    -5316    -5125 
   -4951    -4903    -4887    -4853    -4881    -4984    -5186    -5439 
   -5508    -5487    -5625    -5643    -5381    -5215    -5239    -5192 
   -4950    -4639    -4552    -4752    -4935    -4924    -4876    -4993 
   -5232    -5420    -5493    -5444    -5363    -5358    -5348    -5337 
   -5344    -5188    -4982    -5016    -5139    -5206    -5314    -5427 
   -5449    -5359    -5223    -5171    -5139    -5105    -5117    -5013 
   -4839    -4827    -4903    -4930    -4903    -4845    -4927    -5248 
   -5541    -5584    -5539    -5599    -5618    -5354    -4969    -4746 
   -4685    -4673    -4656    -4757    -5088    -5382    -5456    -5472 
   -5445    -5368    -5395    -5470    -5472    -5472    -5491    -5475 
   -5306    -4918    -4563    -4509    -4584    -4639    -4842    -5104 
   -5184    -5274    -5537    -5701    -5621    -5485    -5378    -5269 
   -5177    -5097    -5005    -4972    -5066    -5248    -5324    -5186 
   -5042    -5042    -5081    -5151    -5298    -5395    -5336    -5189 
   -5067    -4988    -4978    -5046    -5042    -4912    -4739    -4633 
   -4769    -5119    -5397    -5521    -5625    -5698    -5620    -5429 
   -5243    -5078    -4978    -4959    -4876    -4718    -4743    -5062 
   -5391    -5503    -5578    -5679    -5576    -5308    -5111    -5086 
   -5232    -5374    -5298    -5034    -4766    -4634    -4606    -4576 
   -4608    -4764    -4957    -5233    -5572    -5703    -5630    -5564 
   -5502    -5439    -5420    -5420    -5381    -5225    -5001    -4903 
   -4976    -5080    -5127    -5098    -4981    -4861    -4869    -4996 
   -5074    -5049    -5084    -5265    -5470    -5553    -5482    -5337 
   -5189    -5040    -4914    -4847    -4884    -5053    -5247    -5325 
   -5302    -5274    -5301    -5358    -5306    -5097    -4949    -5012 
   -5124    -5175    -5196    -5182    -5174    -5196    -5286    -5483 
   -5526    -5279    -5084    -5076    -5069    -5070    -5134    -5170 
   -5127    -5070    -5042    -4942    -4830    -4978    -5301    -5448 
   -5424    -5394    -5314    -5157    -5071    -5144    -5212    -5135 
   -5061    -5111    -5205    -5305    -5327    -5211    -5159    -5216 
   -5124    -4882    -4734    -4722    -4768    -4884    -5093    -5336 
   -5462    -5408    -5343    -5400    -5464    -5410    -5236    -5015 
   -4892    -4922    -4949    -4936    -5090    -5354    -5445    -5401 
   -5401    -5409    -5327    -5185    -5104    -5148    -5236    -5184 
   -5020    -5015    -5146    -5148    -5023    -4920    -4930    -5067 
   -5212    -5274    -5293    -5317    -5401    -5536    -5582    -5441 
   -5184    -4931    -4773    -4765    -4882    -4995    -5040    -5144 
   -5328    -5378    -5289    -5285    -5283    -5096    -4922    -4923 
   -4984    -5084    -5227    -5297    -5247    -5130    -5035    -5051 
