Origin Time       2024/06/23 22:54:00
Lat.              35.645
Long.             140.060
Depth. (km)       72
Mag.              4.1
Station Code      TCG003
Station Lat.      36.8153
Station Long.     139.7184
Station Height(m) 403
Record Time       2024/06/23 22:55:05
Sampling Freq(Hz) 100Hz
Duration Time(s)  60
Dir.              E-W
Scale Factor      7845(gal)/8223790
Max. Acc. (gal)   1.882
Last Correction   2024/06/23 22:55:05
Memo.             
[...]
    2551     2660     2619     2481     2373     2261     2207     2338 
    2527     2581     2551     2532     2492     2423     2363     2338 
    2365     2411     2393     2386     2521     2682     2674     2496 
    2304     2250     2319     2394     2467     2504     2443     2386 
    2401     2371     2289     2304     2427     2536     2555     2516 
    2521     2597     2625     2551     2486     2454     2357     2238 
    2219     2278     2349     2411     2474     2571     2643     2596 
    2500     2434     2323     2195     2236     2444     2594     2600 
    2589     2577     2465     2317     2263     2277     2315     2415 
    2516     2492     2421     2457     2479     2377     2316     2365 
    2401     2479     2640     2710     2647     2546     2423     2358 
    2439     2551     2531     2339     2066     1964     2181     2484 
    2614     2590     2505     2439     2444     2461     2473     2535 
    2594     2567     2517     2533     2544     2451     2327     2253 
    2209     2227     2335     2431     2469     2516     2535     2463 
    2409     2434     2457     2462     2479     2525     2562     2500 
    2384     2371     2470     2547     2506     2366     2241     2234 
    2340     2478     2567     2562     2488     2411     2324     2243 
    2297     2485     2592     2565     2532     2504     2447     2405 
    2390     2428     2529     2567     2485     2403     2354     2334 
    2419     2520     2466     2359     2365     2377     2309     2311 
    2452     2619     2725     2695     2473     2227     2178     2247 
    2301     2466     2741     2794     2512     2249     2247     2311 
    2308     2385     2550     2632     2601     2538     2439     2336 
    2327     2378     2390     2381     2380     2377     2401     2443 
    2497     2597     2706     2694     2525     2335     2254     2247 
    2261     2305     2361     2411     2477     2517     2501     2500 
    2543     2583     2577     2474     2317     2292     2438     2539 
    2459     2331     2301     2323     2346     2407     2455     2430 
    2424     2504     2601     2651     2623     2528     2432     2390 
    2371     2270     2134     2168     2376     2551     2613     2605 
    2565     2521     2457     2376     2378     2474     2548     2538 
    2434     2284     2207     2227     2282     2389     2525     2575 
    2543     2515     2494     2489     2527     2585     2605     2515 
    2328     2180     2164     2282     2443     2511     2477     2444 
    2415     2339     2332     2488     2658     2671     2598     2574 
    2552     2461     2347     2246     2196     2284     2436     2496 
    2465     2431     2432     2461     2448     2394     2398     2477 
    2528     2527     2539     2555     2451     2278     2277     2443 
    2498     2385     2300     2317     2355     2380     2409     2454 
    2511     2571     2604     2605     2590     2523     2394     2323 
    2377     2439     2412     2411     2496     2524     2417     2323 
    2331     2350     2308     2308     2428     2538     2509     2462 
    2532     2625     2587     2466     2424     2451     2407     2307 
    2266     2281     2305     2354     2401     2438     2533     2644 
    2613     2461     2381     2432     2500     2555     2616     2562 
    2376     2241     2219     2270     2430     2596     2589     2462 
    2332     2234     2262     2431     2566     2590     2581     2555 
    2485     2398     2363     2376     2354     2324     2386     2484 
    2490     2458     2474     2517     2538     2506     2424     2338 
    2299     2307     2339     2400     2504     2597     2592     2482 
    2346     2292     2384     2525     2546     2431     2347     2392 
    2498     2558     2548     2500     2412     2323     2300     2326 
    2362     2413     2484     2558     2594     2528     2400     2328 
    2365     2466     2535     2500     2382     2316     2403     2560 
    2639     2610     2528     2428     2350     2297     2227     2147 
    2145     2255     2396     2470     2511     2583     2628     2582 
    2538     2562     2586     2563     2528     2511     2488     2455 
    2431     2403     2338     2284     2276     2249     2220     2320 
    2485     2525     2484     2481     2465     2448     2525     2582 
    2555     2573     2573     2452     2353     2358     2394     2420 
    2408     2347     2297     2290     2307     2315     2304     2365 
    2544     2664     2610     2513     2484     2493     2517     2527 
    2466     2397     2421     2482     2475     2438     2425     2427 
    2423     2421     2390     2312     2262     2313     2431     2535 
    2598     2605     2515     2376     2324     2371     2415     2434 
    2434     2407     2416     2512     2605     2608     2540     2431 
    2293     2192     2199     2312     2465     2585     2620     2533 
    2400     2363     2394     2373     2358     2448     2562     2585 
    2528     2454     2404     2397     2409     2412     2435     2501 
    2562     2543     2447     2366     2349     2331     2280     2269 
    2362     2498     2582     2587     2535     2452     2390     2392 
    2463     2555     2575     2496     2378     2295     2315     2403 
    2435     2401     2373     2365     2367     2371     2376     2415 
    2505     2604     2650     2613     2519     2432     2405     2409 
    2401     2413     2471     2524     2527     2474     2374     2281 
    2250     2281     2358     2461     2536     2525     2432     2339 
    2316     2369     2474     2604     2701     2678     2525     2389 
    2403     2475     2467     2415     2374     2328     2292     2270 
    2219     2199     2305     2484     2648     2755     2728     2579 
    2459     2409     2358     2336     2392     2452     2447     2412 
    2400     2382     2338     2304     2301     2349     2450     2556 
    2619     2647     2655     2644     2596     2458     2276     2195 
    2209     2207     2261     2444     2579     2556     2484     2452 
    2447     2424     2393     2409     2501     2631     2682     2602 
    2469     2365     2322     2311     2286     2269     2278     2322 
    2413     2475     2450     2469     2602     2678     2610     2497 
    2385     2301     2312     2403     2471     2477     2448     2435 
    2452     2481     2465     2366     2259     2265     2374     2493 
    2563     2581     2563     2529     2481     2413     2350     2349 
    2417     2492     2513     2473     2388     2320     2343     2416 
    2447     2431     2408     2411     2452     2498     2513     2523 
    2531     2486     2430     2424     2392     2305     2299     2405 
    2505     2531     2489     2431     2428     2443     2415     2412 
    2450     2432     2389     2413     2462     2475     2451     2407 
    2396     2421     2435     2479     2548     2559     2515     2457 
    2394     2373     2386     2378     2363     2380     2385     2358 
    2343     2389     2489     2570     2594     2589     2546     2459 
    2400     2413     2443     2442     2447     2457     2382     2259 
    2215     2253     2355     2515     2616     2594     2527     2463 
    2412     2412     2474     2571     2609     2481     2278     2205 
    2278     2397     2535     2639     2635     2517     2336     2209 
    2224     2311     2403     2517     2600     2612     2597     2552 
    2488     2451     2409     2350     2354     2408     2409     2398 
    2470     2529     2469     2344     2254     2219     2251     2377 
    2562     2681     2637     2477     2346     2332     2427     2562 
    2667     2700     2623     2424     2219     2139     2188     2315 
    2479     2579     2521     2361     2258     2326     2502     2613 
    2565     2421     2319     2344     2462     2562     2619     2627 
    2517     2335     2242     2262     2327     2419     2505     2535 
    2511     2459     2419     2397     2411     2473     2532     2536 
    2497     2428     2376     2411     2478     2484     2444     2380 
    2282     2246     2312     2390     2431     2463     2560     2732 
    2762     2547     2335     2293     2340     2419     2493     2482 
    2415     2373     2350     2288     2220     2247     2408     2600 
    2670     2586     2454     2376     2390     2494     2606     2616 
    2539     2481     2473     2440     2342     2254     2251     2322 
    2403     2415     2357     2332     2388     2462     2488     2473 
    2462     2504     2617     2720     2656     2485     2409     2435 
    2455     2509     2609     2617     2443     2168     1989     2019 
    2106     2112     2197     2452     2662     2709     2708     2673 
    2543     2416     2416     2504     2573     2620     2694     2733 
    2624     2405     2224     2134     2115     2172     2241     2262 
    2270     2317     2431     2609     2725     2690     2597     2521 
    2435     2354     2323     2324     2408     2594     2724     2667 
    2459     2196     2018     2015     2100     2227     2439     2582 
    2533     2440     2401     2362     2392     2566     2735     2778 
    2775     2790     2798     2776     2681     2502     2343     2263 
    2227     2185     2126     2103     2133     2153     2172     2259 
    2382     2459     2474     2478     2555     2743     2957     3046 
    2906     2566     2176     1919     1885     2037     2234     2312 
    2261     2259     2351     2415     2496     2667     2808     2868 
    2914     2889     2745     2563     2389     2322     2496     2736 
    2744     2506     2122     1722     1590     1827     2165     2385 
    2498     2513     2448     2392     2342     2289     2327     2512 
    2806     3092     3199     3038     2709     2344     1972     1663 
    1605     1856     2269     2702     3083     3241     2963     2344 
    1869     1944     2446     2963     3272     3275     2860     2185 
    1665     1493     1601     1971     2496     2813     2693     2274 
    1867     1807     2258     2957     3489     3680     3501     2936 
    2137     1453     1259     1709     2498     3030     2974     2477 
    1927     1630     1664     2015     2656     3350     3726     3584 
    2959     2100     1448     1372     1857     2565     3103     3211 
    2890     2390     1965     1744     1768     2047     2506     2905 
    2992     2754     2377     2101     2110     2435     2883     3098 
    2845     2268     1787     1764     2173     2713     3091     3111 
    2710     2064     1476     1258     1644     2478     3168     3352 
    3204     2907     2498     2258     2419     2744     2914     2837 
    2461     1896     1540     1625     1933     2201     2398     2489 
    2393     2257     2334     2606     2852     2984     2990     2845 
    2675     2644     2694     2641     2442     2201     1999     1871 
    1891     2066     2292     2478     2583     2571     2497     2448 
    2451     2525     2628     2598     2381     2187     2243     2479 
    2623     2547     2420     2416     2494     2544     2475     2269 
    2180     2438     2774     2809     2560     2272     2160     2299 
    2547     2698     2659     2475     2304     2262     2273     2239 
    2219     2282     2365     2367     2330     2384     2525     2625 
    2639     2629     2655     2724     2790     2786     2671     2517 
    2415     2331     2254     2255     2277     2232     2222     2276 
    2218     1998     1848     2030     2515     2940     2972     2666 
    2316     2191     2400     2763     2945     2876     2737     2613 
    2467     2293     2139     2081     2126     2251     2451     2596 
    2582     2570     2702     2776     2600     2305     2095     1993 
    1976     2061     2247     2508     2789     3011     3092     2929 
    2505     2084     1944     2025     2177     2340     2357     2119 
    1850     1891     2263     2694     2983     3084     2956     2663 
    2436     2420     2597     2901     3144     3025     2438     1655 
    1107     1093     1674     2604     3379     3559     3117     2393 
    1827     1740     2149     2732     3080     3038     2776     2494 
    2268     2181     2276     2463     2592     2479     2114     1742 
    1617     1834     2307     2758     2986     3048     2976     2704 
    2413     2442     2785     3146     3287     3057     2466     1782 
    1325     1259     1598     2106     2378     2297     2046     1846 
    1965     2550     3362     4027     4344     4180     3437     2336 
    1422     1071     1213     1539     1809     1910     1813     1626 
    1601     1941     2613     3354     3866     3983     3692     3103 
    2508     2259     2436     2736     2787     2458     1907     1432 
    1275     1524     2043     2550     2855     3011     3060     2870 
    2440     2064     2034     2332     2659     2725     2486     2065 
    1683     1679     2261     3187     3894     3924     3195     2027 
    1009      718     1371     2655     3865     4288     3670     2413 
    1240      693      999     2011     3214     3990     3981     3200 
    2050     1169      945     1259     1784     2315     2778     3161 
    3478     3713     3763     3516     3021     2471     2003     1645 
    1371     1090      845      874     1282     1904     2575     3188 
    3591     3627     3276     2717     2203     1975     2234     2963 
    3825     4356     4239     3460     2312     1216      517      465 
    1082     1956     2528     2614     2413     2258     2408     2813 
    3169     3283     3138     2787     2366     2060     1958     2033 
    2215     2413     2477     2338     2162     2208     2515     2830 
    2926     2813     2632     2482     2374     2276     2172     2095 
    2128     2281     2447     2559     2604     2529     2359     2204 
    2114     2185     2587     3252     3835     3962     3419     2389 
    1391      789      653      978     1611     2203     2508     2555 
    2511     2560     2824     3273     3682     3704     3264     2731 
    2442     2401     2502     2598     2457     2041     1633     1471 
    1566     1863     2340     2895     3269     3250     2853     2273 
    1787     1644     1917     2447     2893     3005     2870     2660 
    2385     2107     2047     2316     2720     2934     2809     2467 
    2133     1958     1993     2172     2358     2482     2577     2654 
    2667     2602     2528     2542     2670     2820     2867     2727 
    2362     1938     1756     1919     2272     2593     2697     2508 
    2172     1917     1844     1962     2295     2758     3123     3234 
    3095     2710     2180     1798     1825     2227     2716     2988 
    2952     2731     2524     2481     2582     2639     2544     2381 
    2228     2087     1985     1999     2165     2388     2478     2369 
    2150     1942     1899     2161     2606     2952     3073     3049 
    2994     2934     2799     2570     2365     2301     2367     2469 
    2508     2434     2289     2172     2110     2081     2157     2397 
    2658     2720     2547     2290     2139     2177     2350     2528 
    2592     2493     2346     2340     2513     2710     2787     2694 
    2430     2070     1815     1823     2073     2443     2816     3049 
    3038     2862     2663     2458     2272     2251     2442     2640 
    2556     2172     1799     1717     1933     2303     2689     2987 
    3129     3103     2970     2786     2559     2328     2180     2124 
    2070     1992     1960     2019     2195     2455     2639     2668 
    2628     2538     2366     2214     2261     2528     2787     2798 
    2567     2292     2155     2209     2405     2674     2903     2940 
    2722     2346     1957     1745     1863     2277     2736     2967 
    2893     2647     2397     2259     2281     2358     2326     2184 
    2080     2116     2280     2493     2705     2917     3078     3071 
    2863     2515     2139     1930     2018     2232     2334     2327 
    2317     2346     2438     2558     2609     2578     2531     2509 
    2455     2311     2208     2377     2785     3148     3254     3048 
    2559     1992     1656     1692     1942     2168     2324     2430 
    2392     2205     2026     1969     2091     2405     2755     2891 
    2801     2685     2666     2724     2801     2832     2767     2604 
    2400     2269     2277     2359     2439     2497     2486     2362 
    2197     2122     2164     2280     2444     2623     2717     2619 
    2367     2154     2084     2120     2230     2411     2594     2652 
    2554     2411     2331     2347     2448     2570     2621     2592 
    2538     2527     2581     2683     2789     2841     2790     2633 
    2371     2037     1815     1926     2317     2673     2720     2458 
    2123     1988     2141     2470     2772     2871     2764     2571 
    2363     2178     2095     2165     2343     2504     2519     2380 
    2185     2052     2091     2316     2596     2814     2947     2937 
    2756     2486     2266     2234     2413     2627     2721     2725 
    2655     2462     2188     1944     1841     1965     2265     2570 
    2727     2644     2401     2231     2259     2408     2569     2655 
    2593     2444     2332     2317     2454     2752     3064     3157 
    2902     2396     1914     1680     1764     2114     2548     2793 
    2733     2467     2146     1922     1954     2277     2716     3001 
    3007     2820     2569     2385     2389     2535     2632     2571 
    2371     2095     1869     1794     1887     2131     2459     2751 
    2929     2986     2937     2820     2687     2601     2569     2515 
    2435     2401     2350     2185     1999     1926     1966     2070 
    2196     2323     2443     2551     2644     2713     2733     2694 
    2612     2527     2459     2407     2400     2458     2506     2482 
    2407     2305     2227     2224     2273     2326     2384     2438 
    2501     2612     2712     2744     2754     2748     2639     2412 
    2180     2046     2043     2165     2353     2516     2614     2639 
    2528     2292     2115     2165     2400     2637     2728     2675 
    2587     2509     2455     2479     2517     2439     2295     2230 
    2219     2145     2043     2083     2319     2654     2944     3040 
    2870     2632     2592     2718     2778     2646     2361     2053 
    1883     1895     1984     2076     2215     2425     2617     2698 
    2681     2633     2612     2650     2714     2709     2583     2384 
    2199     2114     2164     2268     2327     2350     2403     2484 
    2546     2555     2519     2486     2493     2535     2570     2516 
    2317     2108     2095     2301     2565     2722     2671     2450 
    2280     2301     2417     2509     2551     2536     2511     2521 
    2528     2492     2430     2355     2317     2381     2475     2481 
    2398     2293     2191     2133     2177     2331     2533     2685 
    2702     2613     2501     2421     2416     2551     2793     2940 
    2820     2498     2212     2149     2295     2459     2446     2241 
    2015     1945     2089     2344     2515     2517     2451     2448 
    2520     2585     2605     2643     2764     2891     2857     2646 
