Origin Time       2024/06/23 22:54:00
Lat.              35.645
Long.             140.060
Depth. (km)       72
Mag.              4.1
Station Code      TCG010
Station Lat.      36.6348
Station Long.     139.4379
Station Height(m) 637
Record Time       2024/06/23 22:55:04
Sampling Freq(Hz) 100Hz
Duration Time(s)  60
Dir.              N-S
Scale Factor      7845(gal)/8223790
Max. Acc. (gal)   1.314
Last Correction   2024/06/23 22:55:04
Memo.             
[...]
    -618     -954     -915     -550     -210      -39      -56     -342 
    -753     -918     -727     -369      -90      -66     -257     -530 
    -733     -691     -550     -576     -641     -568     -405     -297 
    -384     -483     -494     -622     -679     -394     -103     -195 
    -436     -542     -702     -785     -553     -394     -441     -310 
    -106     -241     -534     -568     -511     -639     -758     -639 
    -378     -228     -240     -319     -502     -739     -772     -549 
    -315     -251     -319     -414     -525     -661     -726     -595 
    -330     -189     -248     -373     -521     -679     -803     -815 
    -638     -376     -224     -252     -334     -314     -360     -583 
    -699     -572     -387     -314     -330     -287     -313     -573 
    -723     -661     -733     -687     -284     -105     -360     -562 
    -519     -459     -465     -419     -403     -549     -665     -550 
    -388     -421     -448     -248     -199     -517     -738     -673 
    -611     -596     -460     -275     -210     -184     -218     -510 
    -784     -762     -646     -544     -430     -355     -394     -426 
    -282     -314     -691     -857     -680     -571     -581     -522 
    -337      -68      101     -102     -585     -908     -872     -648 
    -388     -168     -124     -302     -583     -781     -738     -511 
    -333     -319     -433     -592     -625     -463     -284     -209 
    -286     -530     -693     -711     -731     -639     -417     -279 
    -260     -260     -279     -411     -627     -741     -606     -346 
    -324     -472     -442     -432     -581     -542     -386     -467 
    -584     -465     -426     -630     -666     -498     -434     -391 
    -279     -329     -615     -784     -530     -157     -151     -417 
    -541     -465     -463     -531     -457     -368     -395     -413 
    -467     -562     -565     -541     -523     -476     -477     -523 
    -581     -625     -571     -437     -375     -405     -371     -295 
    -325     -434     -540     -583     -612     -687     -591     -287 
    -133     -276     -490     -552     -518     -526     -513     -438 
    -456     -519     -463     -378     -441     -513     -413     -429 
    -707     -792     -579     -433     -372     -303     -360     -537 
    -654     -649     -514     -307     -228     -298     -334     -334 
    -425     -527     -492     -463     -548     -522     -399     -423 
    -492     -459     -475     -554     -546     -475     -445     -534 
    -679     -642     -492     -496     -444     -198     -240     -587 
    -677     -542     -552     -598     -461     -261     -211     -309 
    -406     -419     -356     -405     -626     -751     -695     -575 
    -438     -367     -361     -313     -297     -395     -515     -611 
    -668     -630     -568     -521     -446     -429     -421     -253 
    -171     -486     -828     -730     -400     -238     -274     -356 
    -434     -533     -579     -515     -457     -445     -465     -571 
    -672     -611     -438     -340     -351     -392     -503     -633 
    -575     -398     -306     -274     -268     -375     -569     -716 
    -807     -837     -646     -290      -85      -75     -129     -342 
    -665     -838     -819     -630     -330     -238     -427     -565 
    -538     -484     -445     -369     -307     -422     -658     -702 
    -473     -218     -193     -423     -602     -545     -491     -564 
    -591     -491     -392     -417     -490     -467     -369     -378 
    -457     -378     -314     -567     -908     -984     -768     -449 
    -216     -103      -86     -195     -436     -722     -838     -611 
    -267     -120     -151     -351     -675     -828     -741     -568 
    -390     -336     -396     -440     -508     -535     -405     -349 
    -479     -538     -453     -378     -394     -395     -367     -549 
    -781     -662     -427     -464     -538     -426     -413     -453 
    -245     -199     -561     -801     -757     -684     -530     -244 
    -103     -282     -494     -506     -471     -463     -449     -530 
    -684     -688     -492     -317     -299     -288     -279     -498 
    -815     -827     -576     -328     -113      -75     -346     -607 
    -668     -760     -878     -703     -332     -267     -426     -337 
    -184     -315     -448     -421     -468     -519     -423     -407 
    -616     -731     -526     -336     -329     -251     -248     -603 
    -953     -919     -689     -486     -237        0      -85     -445 
    -642     -657     -724     -683     -434     -294     -402     -526 
    -481     -383     -383     -383     -359     -457     -611     -615 
    -483     -430     -427     -272     -175     -395     -685     -789 
    -762     -656     -456     -286     -295     -398     -432     -472 
    -538     -446     -345     -473     -577     -514     -503     -480 
    -360     -353     -504     -630     -626     -560     -491     -403 
    -353     -353     -363     -464     -584     -506     -346     -367 
    -475     -484     -475     -556     -595     -511     -479     -507 
    -432     -305     -265     -373     -569     -716     -812     -793 
    -531     -249     -221     -324     -363     -403     -456     -415 
    -430     -567     -560     -391     -326     -411     -415     -313 
    -392     -623     -737     -758     -722     -610     -508     -398 
    -298     -338     -434     -414     -328     -301     -400     -591 
    -618     -457     -407     -453     -465     -529     -572     -491 
    -453     -553     -595     -545     -622     -664     -380      -33 
     -22     -257     -442     -584     -746     -757     -579     -392 
    -284     -240     -295     -490     -714     -751     -592     -511 
    -533     -399     -279     -409     -484     -386     -418     -541 
    -496     -419     -507     -599     -538     -483     -542     -561 
    -442     -280     -197     -329     -623     -730     -526     -349 
    -442     -616     -631     -469     -253     -170     -261     -427 
    -604     -673     -622     -616     -585     -421     -313     -346 
    -338     -251     -351     -661     -827     -803     -743     -529 
    -222     -151     -290     -365     -380     -461     -494     -356 
    -294     -495     -656     -606     -580     -545     -319     -207 
    -480     -783     -846     -827     -643     -270     -137     -325 
    -453     -433     -356     -261     -322     -525     -634     -630 
    -545     -392     -313     -378     -480     -487     -414     -448 
    -622     -630     -395     -346     -531     -510     -359     -434 
    -575     -598     -662     -708     -519     -345     -409     -348 
    -147     -287     -641     -708     -499     -322     -294     -334 
    -399     -494     -572     -616     -606     -515     -460     -541 
    -607     -502     -423     -515     -513     -290     -125     -213 
    -406     -498     -538     -612     -603     -530     -577     -652 
    -603     -572     -600     -492     -267     -166     -240     -315 
    -334     -452     -642     -643     -457     -364     -442     -513 
    -544     -669     -720     -421      -87     -170     -438     -575 
    -714     -832     -685     -403     -280     -267     -243     -352 
    -638     -787     -635     -487     -527     -441     -149     -133 
    -469     -646     -552     -540     -592     -465     -311     -352 
    -432     -409     -403     -463     -511     -571     -592     -472 
    -364     -473     -683     -703     -511     -349     -272     -198 
    -286     -577     -731     -665     -634     -638     -525     -311 
    -103      -66     -279     -503     -584     -688     -718     -500 
    -363     -460     -467     -324     -287     -461     -650     -642 
    -572     -567     -461     -279     -244     -379     -553     -687 
    -708     -646     -592     -457     -278     -311     -475     -522 
    -491     -456     -369     -236     -199     -307     -405     -490 
    -622     -606     -436     -442     -657     -733     -572     -430 
    -394     -403     -498     -592     -554     -444     -390     -396 
    -309     -168     -287     -585     -693     -642     -642     -587 
    -384     -255     -369     -550     -599     -610     -630     -540 
    -444     -398     -248     -172     -299     -369     -390     -504 
    -550     -541     -703     -866     -769     -626     -583     -453 
    -332     -345     -307     -186     -139     -205     -336     -519 
    -778     -985     -907     -575     -324     -278     -270     -274 
    -352     -345     -176     -125     -318     -432     -436     -599 
    -757     -804     -892     -816     -515     -398     -529     -552 
    -403     -453     -704     -641     -299     -143     -179     -278 
    -426     -465     -405     -525     -666     -434     -141     -263 
    -560     -751     -881     -895     -722     -427     -179     -105 
    -124     -108     -130     -372     -688     -826     -920    -1054 
    -982     -718     -550     -434     -149       70       51       90 
     174      -81     -588     -874     -831     -761     -768     -696 
    -518     -340     -256     -344     -612     -760     -507     -240 
    -400     -726     -793     -654     -589     -530     -257      -54 
    -203     -388     -413     -467     -476     -286     -155     -280 
    -488     -668     -828     -864     -683     -484     -598     -816 
    -642     -294     -260     -357     -267     -217     -483     -670 
    -301      191      121     -333     -653     -812     -981     -986 
    -650     -309     -284     -330     -302     -430     -639     -645 
    -550     -673     -827     -584     -149       64      108       27 
    -272     -616     -900    -1202    -1201     -746     -448     -519 
    -471     -245     -103      -51      -85     -136        2      199 
      51     -486    -1093    -1566    -1776    -1537     -912     -222 
     297      406      -49     -639     -777     -571     -437     -364 
    -139       79      -82     -449     -531     -400     -440     -665 
    -878    -1004    -1017     -834     -522     -306     -206     -226 
    -569     -869     -469      210      337       91      -93     -369 
    -826    -1210    -1248     -876     -406     -168     -243     -568 
    -792     -707     -546     -359     -128      -64     -155     -203 
    -205     -369     -760    -1104    -1200    -1053     -745     -394 
     -37      153     -105     -503     -537     -402     -294     -139 
    -180     -369     -386     -545     -938     -869     -352     -182 
    -456     -660     -588     -379     -369     -672     -874     -785 
    -591     -290        4      -40     -317     -521     -642     -621 
    -441     -472     -751     -719     -356     -295     -527     -515 
    -345     -425     -608     -476     -217     -270     -483     -583 
    -623     -572     -365     -265     -450     -648     -729     -815 
    -692     -297      -60      -49      -25     -143     -499     -733 
    -723     -770     -846     -642     -330     -275     -399     -445 
    -407     -511     -785     -800     -454     -260     -314     -321 
    -333     -392     -400     -484     -594     -419     -144     -251 
    -618     -793     -830     -943     -989     -756     -210      288 
     252      -54     -167     -337     -634     -729     -747     -778 
    -596     -432     -492     -426     -283     -508     -885    -1066 
   -1090     -789     -179      178      143       47     -136     -533 
    -791     -629     -399     -380     -286      -24      -20     -464 
    -981    -1175     -994     -673     -517     -450     -218      -45 
    -182     -353     -378     -518     -818     -938     -795     -614 
    -535     -575     -612     -440     -148      -72     -178     -203 
    -233     -376     -479     -475     -465     -575     -768     -700 
    -315     -199     -494     -638     -554     -567     -629     -668 
    -731     -670     -448     -301     -330     -332     -209     -271 
    -527     -502     -241     -260     -615     -985    -1086     -869 
    -572     -311        2      234      244      109     -135     -480 
    -849    -1125    -1219    -1011     -515      -86        4     -149 
    -461     -827     -953     -765     -518     -280        6       97 
    -193     -538     -592     -464     -405     -453     -638     -930 
   -1001     -785     -677     -733     -562     -101      189       63 
    -167     -345     -595     -749     -672     -591     -626     -688 
    -722     -602     -180      251      132     -468     -963    -1202 
   -1232     -810      -63      409      410      237      135       24 
    -388    -1028    -1386    -1308    -1108     -919     -662     -430 
    -345     -356     -283      -51       47     -222     -579     -666 
    -588     -649     -765     -650     -348      -75      -35     -363 
    -783     -876     -737     -657     -503     -109      265      311 
      16     -525    -1196    -1570    -1320     -819     -387       29 
     180     -110     -492     -642     -589     -472     -414     -500 
    -607     -589     -595     -631     -464     -299     -523     -932 
   -1082     -839     -298      298      642      610      305     -195 
    -761    -1017     -797     -504     -437     -461     -525     -693 
    -885     -943     -811     -639     -602     -680     -692     -469 
     -85      276      552      523      -74    -1001    -1672    -1848 
   -1663    -1151     -361      324      499      249       -8     -112 
    -221     -440     -791    -1169    -1162     -691     -330     -342 
    -457     -481     -288       22       49     -241     -506     -699 
    -842     -737     -480     -360     -379     -461     -592     -703 
    -764     -743     -567     -318     -228     -283     -176      162 
     329       67     -387     -795    -1090    -1298    -1479    -1431 
   -1039     -611     -244      256      743      819      445       -2 
    -359     -845    -1379    -1530    -1347    -1194     -988     -591 
    -225      -32       -2       -9      234      557      426     -137 
    -773    -1305    -1514    -1291     -892     -535     -287     -238 
    -372     -494     -460     -351     -355     -432     -326      -82 
     -20     -194     -373     -530     -835    -1131    -1139     -988 
    -816     -554     -221      126      278       43     -292     -305 
     -52       24     -290     -819    -1309    -1559    -1480    -1174 
    -757     -307        1      102      275      529      373     -189 
    -616     -778     -930    -1111    -1132     -965     -815     -727 
    -529     -263     -151     -216     -336     -388     -224      102 
     236       87        1      -74     -483     -923     -988     -900 
    -903     -926     -988    -1097    -1017     -689     -392     -224 
     -75       97      290      333       13     -479     -764     -934 
   -1183    -1151     -652     -251     -299     -452     -386     -260 
    -379     -699     -857     -665     -315      -70      118      326 
     187     -465    -1012    -1020     -827     -768     -737     -522 
    -175       -8     -174     -457     -633     -746     -866     -864 
    -641     -469     -623     -750     -406       87      232      136 
      28     -187     -507     -739     -872    -1008    -1053     -900 
    -715     -565     -290      -16      -64     -301     -351     -321 
    -514     -781     -797     -606     -518     -598     -645     -604 
    -444     -180     -120     -265     -238     -171     -450     -808 
    -799     -577     -436     -321     -168      -98     -267     -661 
    -926     -754     -430     -395     -607     -689     -407      -22 
       2     -305     -576     -677     -746     -820     -751     -537 
    -414     -502     -621     -569     -367     -237     -334     -417 
    -207       58       62     -153     -411     -643     -830     -909 
    -889     -881     -904     -845     -716     -652     -599     -398 
    -124       44      109      117      -18     -259     -436     -610 
    -820     -895     -793     -657     -616     -642     -562     -384 
    -209      -81     -114     -224     -174     -145     -442     -892 
   -1046     -772     -465     -459     -445     -191     -121     -454 
    -788     -820     -650     -479     -421     -438     -392     -317 
    -395     -596     -658     -541     -484     -576     -627     -525 
    -373     -287     -251     -240     -360     -608     -715     -521 
    -241     -218     -480     -703     -758     -807     -708     -319 
     -27      -51     -144     -222     -409     -665     -835     -849 
    -785     -692     -510     -342     -360     -414     -348     -313 
    -344     -276     -194     -302     -479     -486     -375     -326 
    -422     -684    -1001    -1108     -934     -668     -330       76 
     179     -175     -544     -606     -475     -333     -365     -635 
    -841     -739     -665     -882     -958     -627     -344     -328 
    -234        2       67      -89     -241     -324     -399     -473 
    -579     -711     -751     -681     -649     -712     -656     -356 
    -145     -275     -469     -504     -591     -742     -661     -399 
    -191      -75      -91     -190     -249     -409     -722     -918 
    -886     -753     -591     -440     -307     -184     -162     -267 
    -413     -584     -784     -942     -999     -880     -558     -202 
     -29      -97     -311     -498     -515     -387     -226     -160 
    -310     -575     -643     -494     -407     -426     -477     -661 
    -886     -893     -703     -504     -318     -106      -45     -283 
    -585     -697     -621     -464     -336     -310     -392     -453 
    -380     -303     -338     -441     -579     -675     -645     -558 
    -510     -500     -463     -357     -301     -336     -360     -426 
    -538     -529     -464     -503     -541     -525     -623     -828 
    -874     -739     -652     -621     -533     -438     -361     -267 
    -247     -314     -326     -283     -261     -260     -299     -398 
    -519     -561     -430     -214     -130     -243     -399     -545 
    -727     -880     -945     -909     -746     -514     -364     -365 
    -449     -557     -637     -562     -318      -79        1      -24 
    -103     -333     -652     -851     -903     -796     -553     -379 
    -367     -452     -568     -599     -503     -325     -157     -153 
    -263     -303     -414     -785    -1062     -922     -685     -588 
    -419     -216     -234     -359     -402     -477     -589     -552 
    -441     -444     -480     -398     -309     -396     -588     -670 
    -600     -452     -237      -52      -98     -342     -537     -573 
    -535     -486     -460     -510     -577     -572     -562     -600 
    -611     -606     -633     -603     -426     -213     -155     -280 
    -411     -467     -579     -718     -695     -565     -475     -406 
    -346     -301     -248     -225     -275     -348     -454     -642 
    -795     -849     -855     -734     -468     -280     -299     -364 
    -349     -376     -494     -545     -541     -569     -523     -392 
    -325     -330     -346     -372     -399     -437     -557     -738 
