Origin Time       2024/06/23 22:54:00
Lat.              35.645
Long.             140.060
Depth. (km)       72
Mag.              4.1
Station Code      TCG014
Station Lat.      36.5428
Station Long.     140.1804
Station Height(m) 139
Record Time       2024/06/23 22:54:55
Sampling Freq(Hz) 100Hz
Duration Time(s)  60
Dir.              U-D
Scale Factor      7845(gal)/8223790
Max. Acc. (gal)   1.618
Last Correction   2024/06/23 22:54:55
Memo.             
[...]
   17926    18260    18481    18517    18458    18262    17991    17976 
   18254    18476    18536    18574    18493    18160    17780    17579 
   17602    17921    18462    18893    19024    18948    18685    18184 
   17639    17362    17431    17756    18226    18655    18898    19006 
   19010    18800    18354    17830    17392    17154    17242    17713 
   18455    19213    19650    19514    18881    18114    17508    17161 
   17154    17508    18036    18516    18855    19045    19102    18947 
   18447    17755    17320    17348    17663    18106    18586    18893 
   18905    18717    18407    18052    17879    18000    18191    18216 
   18148    18127    18152    18227    18346    18422    18450    18474 
   18438    18283    18068    17884    17815    17975    18324    18613 
   18717    18704    18563    18293    18037    17830    17639    17633 
   17910    18285    18615    18894    19041    18936    18586    18083 
   17574    17278    17289    17550    18018    18605    19098    19338 
   19309    18970    18295    17516    17026    17005    17388    18072 
   18860    19375    19369    18978    18446    17913    17533    17435 
   17575    17861    18256    18657    18897    18881    18636    18304 
   18068    17994    18013    18069    18193    18378    18516    18462 
   18195    17934    17964    18233    18415    18354    18172    18031 
   17986    18011    18121    18345    18593    18704    18634    18442 
   18165    17899    17834    17986    18125    18148    18148    18214 
   18416    18766    19024    18931    18508    17960    17482    17234 
   17294    17631    18171    18781    19236    19392    19264    18889 
   18268    17490    16854    16717    17139    17907    18783    19523 
   19874    19751    19205    18312    17348    16762    16780    17258 
   17914    18543    19033    19299    19228    18810    18320    18025 
   17844    17660    17635    17856    18133    18346    18531    18616 
   18512    18322    18177    18080    18033    18118    18314    18450 
   18416    18231    18009    17933    18072    18270    18388    18480 
   18536    18431    18181    17968    17957    18191    18495    18616 
   18532    18392    18234    18056    17952    17955    17990    18040 
   18160    18354    18505    18489    18368    18261    18126    17956 
   17940    18137    18354    18481    18593    18708    18750    18638 
   18331    17946    17702    17705    17869    18044    18193    18378 
   18598    18773    18796    18612    18289    17950    17675    17543 
   17628    17937    18361    18692    18783    18675    18458    18206 
   18023    17992    18084    18222    18331    18339    18262    18207 
   18176    18072    17971    18081    18382    18669    18883    18956 
   18677    18160    17821    17722    17622    17571    17833    18357 
   18805    18970    18887    18625    18210    17798    17651    17797 
   17965    18056    18195    18353    18488    18711    18932    18879 
   18535    18095    17702    17458    17483    17784    18218    18616 
   18835    18851    18738    18513    18183    17845    17614    17598 
   17856    18261    18590    18733    18721    18605    18385    18129 
   18018    18091    18145    18025    17828    17774    18023    18505 
   18935    19117    19044    18733    18215    17601    17088    16984 
   17506    18412    19155    19434    19279    18781    18073    17459 
   17254    17493    17937    18323    18563    18725    18831    18782 
   18550    18281    18067    17903    17882    18022    18079    17965 
   17946    18161    18455    18724    18886    18789    18463    18080 
   17709    17436    17483    17875    18289    18532    18704    18820 
   18817    18735    18532    18141    17722    17482    17490    17766 
   18207    18594    18841    18929    18800    18536    18300    18117 
   17957    17867    17857    17894    18003    18216    18454    18570 
   18528    18432    18326    18222    18226    18314    18297    18183 
   18138    18127    18042    18042    18289    18573    18601    18396 
   18164    18009    17911    17884    18011    18233    18385    18482 
   18644    18800    18736    18422    18038    17739    17583    17633 
   17930    18420    18879    19032    18836    18451    18018    17678 
   17571    17670    17829    18042    18381    18793    19089    19080 
   18706    18148    17714    17501    17450    17668    18210    18777 
   19105    19165    18874    18241    17660    17490    17686    18031 
   18355    18590    18747    18742    18466    18075    17824    17732 
   17747    17955    18308    18605    18765    18743    18442    17998 
   17698    17598    17652    17950    18459    18935    19209    19273 
   19047    18443    17660    17058    16893    17217    17863    18571 
   19105    19259    19020    18616    18235    17907    17695    17709 
   17926    18266    18630    18847    18819    18617    18355    18083 
   17817    17626    17624    17842    18187    18519    18723    18717 
   18544    18307    18031    17772    17744    18064    18500    18742 
   18705    18503    18256    18015    17801    17712    17860    18187 
   18511    18690    18689    18563    18439    18387    18320    18172 
   18054    18030    18011    17990    18040    18130    18210    18292 
   18358    18380    18434    18508    18450    18238    18018    17876 
   17807    17909    18289    18755    18964    18843    18530    18160 
   17856    17701    17672    17761    17986    18297    18588    18771 
   18817    18711    18445    18068    17710    17543    17690    18098 
   18528    18789    18866    18789    18539    18207    17973    17887 
   17872    17906    18073    18378    18612    18582    18354    18103 
   17909    17810    17932    18292    18635    18742    18665    18470 
   18133    17801    17721    17887    18129    18384    18671    18908 
   18908    18597    18160    17802    17551    17450    17651    18121 
   18577    18814    18875    18801    18469    17946    17585    17585 
   17849    18243    18643    18871    18810    18573    18357    18199 
   18013    17780    17608    17678    18040    18476    18728    18743 
   18570    18281    18034    17975    18090    18277    18446    18522 
   18485    18370    18216    18100    18063    18040    18044    18195 
   18474    18665    18627    18449    18247    18034    17847    17810 
   17933    18107    18334    18631    18806    18657    18266    17861 
   17635    17703    17967    18214    18423    18619    18684    18555 
   18335    18071    17807    17764    18041    18405    18611    18658 
   18634    18539    18343    18087    17868    17803    17952    18210 
   18419    18550    18623    18550    18320    18131    18106    18114 
   18042    17973    18023    18196    18403    18559    18616    18508 
   18229    17925    17752    17761    17980    18349    18658    18731 
   18585    18372    18183    18065    18058    18123    18211    18353 
   18499    18486    18343    18270    18247    18080    17837    17786 
   17965    18188    18374    18539    18590    18465    18276    18149 
   18117    18138    18195    18293    18372    18368    18364    18430 
   18450    18303    18050    17845    17798    17928    18117    18241 
   18351    18567    18796    18819    18582    18229    17922    17703 
   17585    17668    18017    18507    18937    19138    18983    18526 
   18049    17778    17686    17717    17891    18158    18401    18530 
   18515    18427    18377    18385    18391    18326    18180    18040 
   17980    17963    17964    18063    18264    18435    18489    18432 
   18312    18237    18257    18295    18283    18225    18145    18098 
   18103    18123    18187    18333    18451    18428    18328    18270 
   18249    18211    18203    18299    18428    18470    18414    18316 
   18226    18154    18090    18052    18095    18192    18260    18258 
   18181    18054    18000    18131    18364    18523    18540    18473 
   18368    18193    17944    17779    17891    18206    18423    18411 
   18333    18345    18422    18465    18432    18347    18265    18215 
   18165    18079    17982    17952    18045    18233    18428    18581 
   18678    18690    18566    18328    18054    17794    17622    17655 
   17910    18253    18528    18693    18748    18646    18424    18241 
   18126    17972    17813    17826    18048    18327    18554    18715 
   18712    18463    18121    17906    17848    17925    18141    18350 
   18384    18335    18376    18478    18499    18389    18227    18119 
   18072    18033    18031    18108    18199    18243    18253    18245 
   18266    18380    18509    18522    18423    18254    18044    17913 
   17942    18092    18304    18539    18711    18711    18497    18162 
   17902    17829    17863    17945    18157    18426    18497    18404 
   18395    18461    18430    18303    18165    18040    17955    17986 
   18156    18384    18538    18547    18453    18319    18160    17995 
   17926    18018    18177    18283    18333    18365    18366    18341 
   18319    18288    18198    18063    18013    18141    18355    18470 
   18432    18314    18175    18079    18108    18239    18366    18438 
   18449    18372    18231    18106    18048    18111    18291    18459 
   18486    18404    18319    18212    18044    17917    17929    18076 
   18312    18523    18590    18482    18215    17903    17757    17867 
   18149    18505    18786    18824    18628    18330    18010    17793 
   17797    17952    18100    18235    18397    18538    18617    18639 
   18546    18320    18053    17848    17760    17797    17917    18084 
   18270    18469    18675    18800    18742    18526    18243    17971 
   17811    17852    18042    18256    18432    18539    18538    18436 
   18296    18184    18133    18118    18104    18102    18137    18203 
   18288    18391    18470    18436    18258    18048    17941    17946 
   18023    18196    18436    18594    18596    18476    18261    18023 
   17905    17971    18160    18365    18524    18631    18646    18489 
   18203    17964    17861    17857    17976    18191    18318    18307 
   18349    18501    18590    18490    18262    18036    17898    17883 
   17982    18144    18320    18488    18603    18601    18509    18431 
   18362    18183    17901    17733    17845    18139    18400    18547 
   18627    18643    18549    18342    18100    17914    17811    17802 
   17919    18165    18477    18712    18719    18511    18281    18152 
   18061    17967    17963    18110    18316    18432    18408    18346 
   18346    18345    18243    18087    17995    18017    18092    18153 
   18220    18320    18427    18512    18509    18346    18107    18002 
   18094    18262    18432    18550    18519    18374    18260    18189 
   18095    18000    17969    18018    18177    18412    18578    18594 
   18493    18311    18117    18025    18076    18162    18154    18091 
   18096    18176    18242    18297    18382    18439    18365    18203 
   18152    18299    18473    18482    18380    18252    18075    17901 
   17855    17957    18137    18337    18501    18567    18468    18199 
   17909    17784    17847    18010    18265    18665    19116    19332 
   19098    18544    17942    17466    17277    17437    17757    18049 
   18327    18570    18648    18530    18322    18146    18104    18229 
   18430    18543    18492    18351    18230    18149    18067    17982 
   17994    18150    18315    18362    18337    18306    18264    18229 
   18265    18373    18461    18481    18458    18382    18226    18058 
   17998    18010    17971    17898    17909    17988    18069    18203 
   18458    18738    18856    18760    18562    18346    18112    17967 
   18063    18276    18314    18200    18193    18287    18307    18274 
   18295    18342    18349    18299    18189    18068    18013    18027 
   18090    18247    18504    18725    18782    18609    18184    17689 
   17427    17508    17807    18126    18353    18528    18661    18663 
   18549    18404    18207    17988    17967    18247    18593    18744 
   18743    18682    18472    18050    17583    17325    17415    17793 
   18283    18708    18955    18958    18720    18358    18077    18004 
   18045    18042    17990    17979    18040    18137    18246    18312 
   18265    18115    17961    17938    18156    18581    18997    19175 
   19032    18624    18096    17614    17324    17335    17632    18053 
   18438    18700    18774    18654    18445    18256    18119    18050 
   18107    18273    18401    18405    18355    18319    18295    18289 
   18308    18307    18237    18114    18026    18013    17999    17961 
   18023    18311    18739    19017    18958    18617    18108    17543 
   17130    17077    17436    18123    18929    19519    19672    19417 
   18874    18176    17550    17246    17321    17631    18042    18482 
   18802    18889    18771    18480    18081    17737    17568    17598 
   17810    18150    18509    18755    18809    18686    18449    18229 
   18191    18338    18443    18312    18021    17813    17757    17783 
   17921    18219    18559    18756    18763    18639    18358    17925 
   17591    17598    17863    18204    18562    18850    18951    18885 
   18785    18689    18443    17964    17462    17188    17209    17532 
   18115    18752    19238    19414    19078    18235    17298    16794 
   17004    17849    18917    19673    19807    19418    18746    17914 
   17095    16572    16552    17061    17926    18827    19485    19732 
   19484    18882    18237    17717    17371    17367    17751    18270 
   18728    19064    19130    18843    18377    17942    17608    17420 
   17450    17691    18069    18504    18886    19048    18852    18360 
   17869    17659    17760    18064    18472    18852    19018    18901 
   18551    18033    17506    17226    17336    17834    18593    19295 
   19552    19260    18631    17899    17274    17019    17236    17690 
   18098    18403    18621    18708    18677    18628    18616    18582 
   18446    18223    18029    17953    17984    18071    18168    18246 
   18319    18381    18404    18403    18368    18237    18042    17919 
   17886    17860    17911    18171    18535    18742    18712    18569 
   18372    18173    18119    18220    18299    18304    18365    18480 
   18450    18199    17837    17516    17383    17512    17851    18327 
   18835    19175    19244    19122    18887    18534    18077    17583 
   17155    16995    17278    17937    18716    19356    19630    19426 
   18877    18202    17527    17047    17057    17612    18415    19062 
   19272    19001    18416    17787    17374    17328    17602    17986 
   18269    18450    18658    18868    18917    18759    18474    18134 
   17837    17737    17887    18193    18519    18732    18781    18643 
   18257    17720    17402    17568    18121    18740    19138    19186 
   18897    18377    17780    17280    17032    17162    17686    18411 
   18995    19236    19159    18850    18373    17817    17311    17049 
   17205    17748    18466    19156    19620    19641    19186    18480 
   17791    17323    17211    17486    18044    18674    19143    19282 
   19022    18415    17703    17230    17154    17408    17865    18353 
   18669    18775    18755    18632    18414    18177    18009    17930 
   17953    18050    18166    18334    18553    18674    18608    18405 
   18150    17952    17932    18152    18544    18874    18913    18643 
   18204    17729    17361    17253    17473    17901    18312    18640 
   18910    18989    18731    18260    17856    17675    17706    17932 
   18320    18717    18949    18949    18689    18238    17840    17686 
   17771    17999    18254    18461    18665    18874    18878    18555 
   18104    17778    17649    17695    17871    18168    18574    18900 
   18910    18604    18165    17799    17645    17699    17883    18134 
   18355    18450    18419    18355    18335    18357    18360    18261 
   18075    17955    18019    18214    18387    18485    18517    18478 
   18407    18361    18355    18350    18262    18065    17847    17730 
   17801    18091    18517    18860    18924    18725    18465    18266 
   18061    17793    17585    17567    17730    18011    18378    18769 
   19024    18994    18673    18211    17826    17667    17725    17933 
   18219    18453    18535    18468    18262    17998    17878    18031 
   18333    18551    18632    18675    18713    18693    18557    18314 
   18122    18085    18052    17886    17689    17608    17685    17863 
   18106    18445    18820    19026    18935    18590    18150    17813 
   17707    17794    17998    18268    18493    18580    18531    18412 
   18292    18200    18121    18085    18148    18241    18252    18235 
   18319    18480    18580    18539    18365    18103    17852    17760 
   17864    18031    18168    18300    18432    18485    18451    18423 
   18428    18431    18430    18380    18229    18034    17940    18014 
   18162    18241    18258    18315    18412    18453    18393    18254 
   18076    17942    17944    18031    18076    18088    18176    18343 
   18488    18539    18513    18499    18528    18511    18378    18193 
   18029    17950    18046    18304    18520    18488    18208    17863 
   17671    17730    17945    18218    18554    18859    18979    18920 
   18721    18385    18010    17760    17720    17832    17969    18072 
   18158    18234    18260    18250    18266    18296    18316    18354 
   18380    18308    18189    18153    18234    18346    18416    18435 
   18368    18185    17972    17865    17937    18145    18378    18570 
   18673    18651    18540    18381    18179    17982    17876    17868 
   17903    17973    18102    18293    18486    18571    18513    18396 
   18299    18215    18158    18200    18331    18423    18368    18196 
   18030    18014    18188    18405    18543    18636    18659    18505 
   18242    18025    17887    17842    17923    18073    18166    18166 
   18175    18276    18419    18503    18505    18457    18372    18249 
   18115    18053    18110    18216    18261    18212    18139    18118 
   18156    18256    18441    18638    18713    18609    18326    17934 
   17626    17591    17834    18199    18497    18642    18636    18507 
   18268    18007    17902    18013    18222    18416    18565    18624 
   18550    18387    18235    18153    18135    18117    18033    17945 
   17996    18171    18335    18426    18434    18378    18297    18179 
   18007    17872    17868    18015    18261    18480    18543    18446 
   18261    18060    17963    18049    18256    18480    18674    18773 
   18708    18486    18173    17882    17764    17855    18058    18276 
   18451    18565    18598    18492    18229    17926    17775    17880 
   18171    18461    18613    18600    18465    18284    18129    18031 
   17994    18004    18060    18176    18330    18434    18420    18335 
   18279    18280    18296    18327    18418    18504    18466    18314 
   18141    17994    17903    17955    18162    18408    18603    18728 
   18738    18574    18241    17817    17487    17415    17585    17917 
   18327    18673    18840    18804    18597    18315    18090    18002 
   18011    18048    18111    18239    18411    18549    18581    18463 
