Origin Time       2024/06/23 22:54:00
Lat.              35.645
Long.             140.060
Depth. (km)       72
Mag.              4.1
Station Code      TCG003
Station Lat.      36.8153
Station Long.     139.7184
Station Height(m) 403
Record Time       2024/06/23 22:55:05
Sampling Freq(Hz) 100Hz
Duration Time(s)  60
Dir.              U-D
Scale Factor      7845(gal)/8223790
Max. Acc. (gal)   1.192
Last Correction   2024/06/23 22:55:05
Memo.             
[...]
    3966     3956     4004     4133     4253     4260     4099     3977 
    4023     4016     3897     3834     3847     3928     4106     4299 
    4374     4260     3998     3766     3753     3910     4068     4145 
    4143     4148     4218     4244     4083     3844     3782     3906 
    4047     4191     4268     4068     3761     3778     4095     4329 
    4306     4081     3840     3788     3883     4020     4140     4091 
    3990     4114     4239     4090     3947     4009     4094     4139 
    4166     4090     3888     3684     3700     4031     4403     4475 
    4209     3904     3912     4072     3996     3846     3888     3932 
    3959     4141     4252     4131     4058     4114     4141     4077 
    3873     3697     3805     4001     4062     4164     4372     4473 
    4345     4086     3923     3881     3753     3647     3790     3946 
    4000     4210     4460     4423     4207     4024     3883     3780 
    3719     3769     4041     4290     4233     4110     4098     3989 
    3823     3866     4070     4203     4264     4307     4249     4082 
    3892     3767     3828     3991     4041     4018     4059     4093 
    4085     4129     4180     4109     3923     3766     3805     3998 
    4164     4290     4359     4234     4040     4004     4031     3960 
    3820     3726     3781     3932     4010     4083     4321     4509 
    4359     4067     3898     3798     3765     3840     3916     4040 
    4264     4330     4207     4210     4280     4090     3694     3441 
    3546     3944     4374     4561     4402     4074     3870     3866 
    3958     4039     4044     3998     4023     4147     4174     4036 
    3931     3878     3850     4033     4271     4172     3919     3915 
    4139     4359     4351     4056     3796     3827     3973     4036 
    4050     4024     3993     4017     4048     4093     4139     4033 
    3863     3897     4099     4206     4085     3906     3955     4190 
    4334     4248     4006     3883     3991     4043     3921     3890 
    3989     4055     4106     4101     4021     4078     4199     4139 
    3997     3943     3959     4027     4074     4036     3996     4020 
    4009     3909     3881     4016     4155     4230     4302     4266 
    4014     3748     3767     4021     4189     4186     4140     4025 
    3875     3881     4013     4094     4066     3954     3939     4151 
    4282     4152     4077     4072     3901     3789     3924     4025 
    4036     4145     4249     4216     4187     4158     3943     3689 
    3720     3925     3996     4016     4166     4284     4217     4122 
    4128     4097     3964     3900     3943     3925     3831     3869 
    4089     4267     4307     4290     4218     4087     3943     3825 
    3747     3715     3825     4139     4386     4328     4155     4082 
    4020     3901     3873     3994     4072     4029     4037     4122 
    4126     4037     3963     3973     4095     4216     4126     3900 
    3825     3932     4048     4182     4347     4333     4089     3882 
    3893     4010     4040     3908     3770     3866     4126     4251 
    4175     4064     3996     3944     3924     3964     4031     4074 
    4090     4091     4135     4185     4062     3812     3774     4029 
    4282     4342     4237     4051     3928     3874     3794     3828 
    4059     4228     4195     4110     4110     4189     4209     4087 
    3948     3866     3775     3715     3821     4090     4332     4387 
    4286     4149     4035     3878     3693     3662     3819     4029 
    4209     4234     4113     4083     4160     4121     4025     4055 
    4105     4050     3970     3921     3942     4071     4170     4175 
    4210     4193     3994     3789     3778     3912     4006     4044 
    4166     4257     4116     3956     4062     4245     4197     3994 
    3885     3893     3936     3954     3920     3937     4027     4009 
    3935     4060     4298     4321     4121     3958     3948     3996 
    3981     3969     4067     4166     4136     4079     4078     4035 
    3917     3877     3966     4054     4078     4121     4191     4175 
    4068     4031     4068     4014     3908     3910     3936     3902 
    3981     4175     4206     4048     3974     4047     4101     4125 
    4183     4133     3975     3942     3954     3838     3789     3902 
    4070     4307     4432     4182     3866     3823     3889     3971 
    4144     4244     4202     4178     4144     3983     3838     3881 
    4020     4068     4031     4008     3993     3979     4021     4140 
    4288     4301     4093     3867     3812     3865     3959     4071 
    4133     4143     4153     4191     4205     4074     3815     3661 
    3771     4016     4160     4113     3990     3950     4014     4147 
    4293     4295     4095     3888     3870     3998     4050     4002 
    4071     4222     4187     3986     3832     3801     3920     4162 
    4328     4259     4070     3959     3947     3959     3991     4072 
    4176     4199     4066     3870     3767     3785     3915     4159 
    4375     4372     4187     3977     3801     3736     3859     4040 
    4102     4117     4221     4267     4125     4027     4098     4104 
    3951     3844     3821     3775     3811     4012     4193     4275 
    4326     4261     4120     4064     3991     3866     3881     3966 
    3973     4012     4113     4172     4182     4124     4029     3985 
    3928     3852     3923     4074     4132     4168     4263     4260 
    4075     3871     3809     3889     4000     4012     3983     4055 
    4147     4106     3985     3958     4077     4179     4113     3951 
    3852     3905     4067     4164     4118     4081     4147     4166 
    4078     4044     4075     4067     4020     3933     3863     3929 
    4047     4062     4027     4044     4098     4126     4087     4071 
    4186     4267     4114     3894     3802     3800     3847     3928 
    4018     4168     4326     4341     4220     4077     3923     3769 
    3700     3759     3928     4129     4218     4209     4276     4361 
    4233     3955     3785     3820     3994     4152     4167     4067 
    3942     3851     3832     3888     3997     4152     4272     4239 
    4105     4000     3970     4037     4118     4112     4060     3991 
    3933     3974     4040     4021     4016     4066     4063     4025 
    4017     4012     4005     4045     4122     4178     4153     4059 
    4002     4039     4058     3956     3807     3762     3865     4032 
    4189     4282     4267     4160     4013     3905     3898     3946 
    3982     4064     4193     4203     4079     4043     4143     4189 
    4102     3964     3834     3793     3897     4031     4105     4160 
    4156     4072     4024     4041     4081     4120     4081     3964 
    3940     4025     4031     3959     3991     4105     4108     3991 
    3904     3909     3990     4122     4241     4275     4218     4095 
    3960     3862     3780     3726     3879     4226     4418     4363 
    4274     4159     3958     3812     3808     3805     3736     3753 
    3964     4284     4472     4359     4114     3974     3956     4036 
    4116     4075     3997     3974     3964     3989     4067     4110 
    4105     4151     4202     4099     3846     3642     3692     4002 
    4313     4322     4060     3867     3924     4081     4212     4276 
    4199     4043     3955     3909     3852     3847     3929     4055 
    4187     4284     4229     4043     3912     3901     3950     4024 
    4095     4109     4039     3933     3889     3950     4048     4117 
    4175     4241     4263     4198     4087     3989     3865     3754 
    3823     4020     4118     4089     4040     4033     4105     4187 
    4159     4082     4040     3970     3894     3921     4008     4064 
    4077     4059     4064     4074     4029     4005     4032     4043 
    4062     4131     4162     4086     3982     3966     4014     3989 
    3847     3774     3902     4125     4317     4421     4384     4218 
    3991     3786     3680     3716     3894     4140     4328     4348 
    4190     4012     3910     3813     3817     4016     4171     4141 
    4085     4066     4036     4000     3983     4009     4044     4009 
    3955     3981     4063     4145     4179     4141     4101     4067 
    3993     3997     4093     4089     4006     3987     3958     3904 
    3947     4058     4113     4093     4067     4098     4148     4109 
    3997     3982     4097     4109     3977     3943     3994     3936 
    3866     3950     4113     4216     4206     4118     4024     3959 
    3929     3923     3960     4082     4191     4162     4070     4040 
    4021     3990     4008     4074     4178     4257     4183     4014 
    3917     3888     3881     3909     3943     3973     4016     4048 
    4114     4230     4249     4164     4087     3963     3846     3935 
    4077     4018     3889     3924     4110     4226     4183     4120 
    4078     3990     3920     3952     4058     4114     4033     3939 
    3990     4075     4081     4098     4104     4035     4024     4072 
    4029     3947     3912     3920     4040     4201     4212     4141 
    4102     4024     3958     4000     4027     3966     3951     4008 
    4029     4032     4085     4152     4186     4153     4040     3892 
    3773     3751     3898     4164     4336     4305     4229     4229 
    4180     4017     3877     3842     3870     3909     3906     3900 
    3989     4153     4270     4260     4151     3994     3823     3762 
    3898     4050     4099     4174     4255     4236     4195     4176 
    4120     4035     3916     3761     3748     3898     3935     3889 
    4075     4380     4449     4283     4062     3840     3676     3685 
    3854     4033     4139     4218     4314     4315     4155     3996 
    3943     3939     3963     4009     4041     4045     3983     3931 
    4028     4171     4152     4037     3978     3951     3966     4098 
    4237     4274     4239     4113     3940     3879     3901     3921 
    3967     3969     3935     4027     4139     4114     4113     4151 
    4012     3804     3825     4044     4226     4237     4116     4051 
    4086     4027     3856     3800     3956     4194     4303     4203 
    4037     3967     4004     4041     3985     3889     3867     3915 
    4017     4171     4241     4156     4091     4174     4244     4164 
    4036     3921     3797     3817     4013     4120     4066     4016 
    4005     3967     3889     3834     3896     3987     3947     3986 
    4275     4418     4230     4120     4178     4140     4037     3989 
    3910     3846     3962     4179     4294     4253     4066     3809 
    3678     3743     3909     4074     4166     4178     4193     4226 
    4199     4148     4143     4090     3966     3901     3900     3855 
    3793     3827     3982     4210     4357     4256     4047     3977 
    3939     3871     4009     4295     4403     4356     4260     3964 
    3623     3632     3879     4013     4025     3966     3819     3727 
    3823     4047     4248     4311     4286     4342     4417     4283 
    4048     3966     3994     3996     3960     3889     3807     3815 
    3901     3944     3970     4072     4191     4225     4182     4085 
    3979     3906     3862     3921     4135     4375     4521     4550 
    4453     4175     3677     3172     3059     3412     3915     4344 
    4627     4623     4332     4056     3964     3925     3896     3974 
    4117     4194     4197     4160     4062     3950     3973     4106 
    4117     3948     3812     3788     3794     3874     4055     4243 
    4387     4405     4185     3915     3859     3935     3967     3973 
    3990     3979     3955     4004     4137     4213     4079     3819 
    3680     3786     4048     4259     4298     4271     4278     4255 
    4137     3987     3955     4086     4198     4128     3928     3735 
    3704     3883     4095     4194     4222     4163     3973     3816 
    3828     3915     4031     4224     4387     4380     4207     3973 
    3809     3831     4012     4091     3892     3680     3774     4081 
    4326     4337     4108     3910     3981     4166     4218     4191 
    4220     4221     4110     4002     3954     3866     3754     3730 
    3821     3990     4125     4133     4099     4118     4141     4129 
    4104     4074     4052     4040     4059     4078     4020     3933 
    3915     3913     3875     3846     3869     3996     4245     4407 
    4299     4125     4117     4124     3996     3846     3774     3844 
    4085     4306     4326     4206     4068     3990     3981     3966 
    3919     3898     3936     4029     4166     4257     4233     4152 
    4072     3960     3812     3699     3746     3952     4101     4114 
    4199     4334     4295     4166     4075     3905     3727     3738 
    3886     4099     4365     4494     4332     4047     3886     3881 
    3909     3862     3761     3715     3786     3958     4160     4310 
    4415     4514     4495     4259     3898     3595     3493     3630 
    3862     4078     4291     4442     4379     4178     4062     4018 
    3910     3781     3771     3902     4054     4156     4270     4361 
    4344     4274     4155     3882     3559     3457     3661     4035 
    4334     4359     4197     4095     4083     4067     4048     3969 
    3786     3715     3867     3985     3963     4048     4306     4598 
    4812     4710     4133     3357     2821     2791     3281     4008 
    4604     4966     5107     4928     4488     4052     3755     3568 
    3541     3716     3936     4060     4112     4109     4072     4040 
    3948     3770     3649     3705     3935     4248     4480     4503 
    4386     4217     4014     3875     3874     3885     3812     3815 
    4023     4311     4515     4568     4442     4147     3726     3357 
    3311     3588     3929     4213     4395     4401     4283     4170 
    4081     3978     3848     3774     3847     3967     4016     4033 
    4108     4324     4634     4727     4414     3939     3549     3254 
    3148     3353     3778     4263     4637     4708     4507     4249 
    4043     3844     3703     3769     3974     4071     4029     4009 
    4101     4291     4486     4477     4198     3867     3658     3576 
    3649     3875     4159     4368     4417     4365     4313     4248 
    4126     3954     3763     3639     3684     3866     4009     4024 
    3969     3973     4121     4275     4220     4035     3943     3986 
    4095     4164     4029     3759     3640     3774     4105     4537 
    4780     4615     4234     3910     3711     3630     3662     3817 
    4074     4193     4009     3805     3900     4148     4236     4122 
    3973     3878     3804     3726     3759     4020     4402     4638 
    4583     4302     3940     3709     3747     3906     3993     4001 
    4008     4078     4234     4367     4367     4324     4347     4344 
    4205     3958     3715     3604     3667     3788     3838     3821 
    3836     3952     4158     4341     4398     4363     4255     4033 
    3770     3636     3740     4050     4357     4417     4168     3788 
    3530     3570     3892     4225     4328     4270     4210     4160 
    4155     4195     4120     3924     3807     3815     3865     3935 
    4041     4214     4375     4342     4143     3958     3813     3696 
    3727     3908     4079     4220     4388     4494     4391     4105 
    3856     3782     3805     3854     3912     3927     3919     3998 
    4155     4267     4294     4274     4175     3952     3757     3786 
    3973     4140     4236     4229     4112     3925     3735     3673 
    3816     4072     4322     4452     4330     4054     3936     4039 
    4120     4070     3932     3784     3753     3905     4182     4429 
    4428     4158     3893     3816     3859     3931     3987     4006 
    3985     3951     3994     4117     4163     4094     4052     4058 
    4027     3975     3966     4025     4140     4237     4233     4105 
    3912     3771     3765     3881     4044     4141     4129     4091 
    4090     4059     3982     3939     3943     4009     4168     4303 
    4309     4286     4283     4224     4125     4041     3963     3892 
    3842     3802     3802     3852     3902     3920     3971     4131 
    4321     4352     4139     3848     3727     3807     3974     4156 
    4264     4247     4213     4195     4075     3902     3824     3827 
    3877     3971     4023     4058     4194     4332     4349     4305 
    4207     4051     3906     3728     3495     3437     3734     4187 
    4446     4395     4214     4094     4033     3954     3879     3869 
    3909     4000     4152     4299     4392     4418     4313     4070 
    3825     3672     3608     3681     3916     4209     4407     4403 
    4213     4001     3881     3879     3997     4112     4081     4028 
    4116     4158     4000     3869     3919     4025     4137     4237 
    4220     4074     3883     3773     3877     4086     4179     4205 
    4267     4252     4074     3823     3631     3613     3792     4025 
    4166     4193     4136     4066     4079     4159     4209     4189 
    4121     4058     4025     4021     4012     3975     3933     3905 
    3905     3936     3970     4001     4020     4028     4077     4167 
    4249     4299     4260     4144     4032     3889     3717     3697 
    3869     4083     4255     4353     4302     4083     3825     3709 
    3780     3955     4149     4295     4341     4267     4135     4075 
    4062     3962     3846     3869     3986     4074     4070     3982 
    3915     3947     4062     4199     4251     4128     3950     3908 
    3993     4112     4199     4174     4068     4013     4006     3970 
    3923     3943     4068     4190     4133     3936     3801     3794 
    3850     3921     3998     4101     4202     4221     4163     4106 
    4059     4006     3989     4023     4079     4148     4202     4186 
    4113     4044     4000     3948     3894     3915     3978     3966 
    3916     3944     4039     4145     4260     4332     4302     4203 
    4066     3908     3821     3861     3975     4113     4213     4182 
    4029     3877     3827     3867     3905     3925     3996     4082 
    4106     4112     4160     4243     4307     4276     4139     3982 
    3870     3819     3856     3971     4087     4145     4145     4105 
    4008     3874     3827     3912     3993     4009     4055     4118 
    4114     4091     4113     4139     4139     4108     4025     3925 
    3866     3848     3892     4013     4128     4160     4168     4182 
    4108     3951     3861     3901     4033     4216     4353     4333 
    4198     4090     4035     3966     3889     3851     3871     3959 
    4094     4174     4145     4093     4083     4086     4087     4047 
    3904     3762     3765     3889     4059     4194     4186     4059 
    3950     3906     3943     4102     4278     4303     4186     4029 
    3910     3883     3937     4013     4079     4097     4060     4035 
    4050     4040     3983     3973     4048     4086     4020     3958 
    3971     4002     4006     3998     3977     3989     4062     4131 
    4170     4187     4149     4102     4102     4104     4063     3990 
