Origin Time       2024/06/23 22:54:00
Lat.              35.645
Long.             140.060
Depth. (km)       72
Mag.              4.1
Station Code      TCG003
Station Lat.      36.8153
Station Long.     139.7184
Station Height(m) 403
Record Time       2024/06/23 22:55:05
Sampling Freq(Hz) 100Hz
Duration Time(s)  60
Dir.              N-S
Scale Factor      7845(gal)/8223790
Max. Acc. (gal)   2.147
Last Correction   2024/06/23 22:55:05
Memo.             
[...]
    4864     4860     4965     5015     4872     4781     4895     5004 
    4968     4908     4936     5012     5057     5058     5030     4932 
    4762     4692     4854     5121     5301     5305     5113     4861 
    4766     4810     4830     4872     5004     5101     5097     5046 
    4939     4785     4693     4715     4806     4936     5082     5170 
    5131     5026     5000     5036     4985     4876     4834     4834 
    4870     5013     5178     5232     5131     4892     4685     4664 
    4749     4847     5012     5190     5174     4965     4826     4860 
    4931     4962     4965     4969     5005     5017     4958     4899 
    4891     4942     5044     5111     5109     5096     5073     4941 
    4664     4483     4671     5077     5332     5320     5111     4787 
    4549     4618     4888     5063     5111     5142     5101     5024 
    5008     4966     4843     4762     4850     5084     5238     5124 
    4896     4833     4954     5040     4958     4777     4671     4752 
    4963     5151     5194     5042     4800     4703     4826     5019 
    5123     5105     5051     5036     5062     5062     4943     4807 
    4855     5011     5035     4914     4783     4741     4820     4935 
    4993     5047     5103     5078     4984     4912     4946     5078 
    5165     5084     4901     4788     4812     4850     4818     4824 
    4887     4930     4970     5009     5028     5058     5109     5162 
    5132     4996     4891     4850     4822     4882     5044     5140 
    5031     4749     4531     4576     4773     4928     5050     5142 
    5104     5016     5084     5244     5270     5146     4984     4855 
    4853     4963     4995     4884     4819     4851     4810     4673 
    4612     4700     4899     5175     5387     5340     5130     5005 
    4949     4830     4765     4893     5082     5121     5007     4855 
    4742     4765     4961     5155     5173     5023     4855     4827 
    4896     4884     4776     4723     4828     5036     5189     5220 
    5154     5004     4857     4827     4934     5109     5204     5104 
    4930     4850     4827     4762     4746     4888     5057     5082 
    5001     4896     4799     4788     4920     5139     5320     5300 
    5044     4796     4783     4892     4901     4814     4772     4815 
    4893     4981     5031     5003     4974     5003     5049     5100 
    5140     5120     5051     4977     4918     4891     4868     4823 
    4801     4816     4838     4892     4981     4999     4868     4718 
    4769     5043     5310     5355     5201     5039     5012     5057 
    5017     4899     4814     4787     4784     4811     4897     5005 
    5057     5040     4958     4818     4719     4695     4716     4846 
    5054     5163     5154     5139     5138     5104     5043     5011 
    5023     5051     5046     4958     4822     4735     4707     4712 
    4787     4953     5121     5173     5111     5007     4865     4742 
    4792     5015     5192     5179     5067     4985     4954     4947 
    4916     4877     4884     4841     4688     4662     4885     5082 
    5032     4915     4972     5138     5200     5134     5036     4945 
    4904     4973     5049     4961     4776     4739     4907     5059 
    5063     5012     4966     4889     4823     4874     5011     5080 
    5042     4970     4885     4788     4785     4945     5090     5065 
    4993     5013     5063     5090     5115     5058     4884     4756 
    4758     4779     4816     4903     4939     4928     4939     4936 
    4943     5055     5217     5292     5229     5054     4818     4644 
    4648     4772     4916     5112     5297     5233     4932     4706 
    4703     4797     4874     4938     5013     5046     4997     4939 
    4936     4988     5098     5229     5267     5127     4864     4695 
    4768     4928     4951     4849     4758     4738     4746     4772 
    4861     5005     5135     5247     5339     5300     5092     4862 
    4806     4969     5148     5117     4916     4719     4591     4585 
    4745     4953     5084     5152     5146     5007     4831     4788 
    4897     5055     5178     5215     5143     4990     4822     4716 
    4747     4923     5134     5228     5124     4864     4623     4579 
    4746     5007     5221     5267     5107     4882     4795     4839 
    4876     4909     5026     5139     5124     5027     4927     4841 
    4861     5004     5063     4965     4872     4835     4835     4935 
    5071     5092     5043     5038     5015     4900     4779     4773 
    4873     4962     4999     5015     5001     4966     4961     4981 
    4982     4965     4963     4974     4985     5023     5065     5046 
    5009     4990     4922     4819     4781     4800     4808     4816 
    4873     4939     4945     4941     4995     5070     5143     5200 
    5178     5113     5107     5113     5020     4850     4704     4637 
    4689     4822     4908     4927     4946     4950     4888     4811 
    4864     5036     5150     5166     5196     5228     5179     5084 
    5028     5019     4992     4896     4760     4671     4700     4806 
    4884     4876     4827     4838     4945     5047     5061     5022 
    4969     4889     4861     4965     5130     5220     5173     5057 
    5020     5063     5034     4884     4718     4688     4833     4995 
    5016     4899     4749     4683     4738     4869     5055     5265 
    5367     5278     5090     4930     4868     4923     5022     5065 
    5038     4970     4878     4787     4729     4718     4737     4792 
    4911     5059     5138     5092     5003     4988     5062     5120 
    5080     4996     4938     4904     4866     4831     4826     4850 
    4888     4973     5094     5139     5057     4959     4926     4884 
    4815     4827     4945     5047     5059     5004     4923     4870 
    4904     4970     4988     4986     4992     4980     4966     4977 
    5020     5080     5080     4963     4845     4857     4932     4938 
    4907     4939     4993     4982     4923     4869     4862     4927 
    5026     5076     5049     4988     4927     4878     4857     4861 
    4927     5061     5111     5027     4958     4924     4872     4882 
    5001     5107     5074     4926     4779     4720     4754     4816 
    4861     4935     5090     5271     5317     5127     4853     4742 
    4843     5053     5262     5331     5163     4882     4696     4635 
    4639     4716     4870     5020     5066     4966     4801     4742 
    4874     5100     5271     5316     5211     5047     4977     4989 
    4963     4911     4909     4903     4797     4687     4700     4804 
    4916     4982     4990     5000     5046     5084     5058     4969 
    4901     4924     4984     5016     5026     5019     5000     4982 
    4992     5038     5040     4954     4892     4918     4966     4999 
    4957     4810     4698     4757     4912     5016     5024     4986 
    4958     4985     5077     5136     5054     4888     4818     4900 
    5007     5034     5005     4966     4931     4931     4953     4927 
    4845     4793     4838     4934     5000     5016     5043     5103 
    5120     5047     4920     4842     4862     4909     4941     4995 
    5061     5050     4939     4819     4784     4849     4953     5013 
    5034     5084     5116     5054     4941     4858     4838     4873 
    4949     5038     5071     5012     4924     4843     4772     4777 
    4891     5022     5100     5124     5104     5059     5003     4938 
    4893     4899     4922     4934     4968     5036     5071     4997 
    4854     4761     4766     4839     4918     4963     5007     5059 
    5089     5088     5040     4915     4769     4733     4853     5015 
    5066     4999     4934     4965     5074     5139     5097     5035 
    4996     4926     4851     4843     4880     4920     4969     4992 
    4947     4876     4835     4828     4847     4915     5008     5063 
    5074     5066     5009     4919     4911     4993     5047     5063 
    5096     5063     4914     4803     4846     4920     4896     4853 
    4895     4951     4950     4935     4923     4888     4855     4857 
    4939     5100     5201     5171     5088     5000     4938     4941 
    4969     4993     5034     5066     5019     4872     4688     4568 
    4612     4792     4942     4997     5034     5076     5086     5105 
    5178     5232     5177     5044     4935     4891     4872     4824 
    4765     4766     4823     4865     4876     4873     4889     4973 
    5094     5125     5040     4988     5053     5142     5155     5119 
    5085     5030     4901     4745     4662     4680     4708     4699 
    4738     4876     5007     5073     5150     5181     5073     4965 
    4984     5020     5009     5055     5190     5258     5127     4881 
    4720     4695     4693     4714     4880     5128     5223     5103 
    4926     4795     4734     4799     4984     5130     5092     4947 
    4861     4882     4973     5101     5204     5223     5166     5046 
    4896     4787     4722     4722     4855     5038     5086     4963 
    4781     4652     4646     4793     5022     5205     5296     5274 
    5146     4999     4899     4870     4935     4990     4930     4831 
    4754     4719     4811     4972     5004     4930     4927     5015 
    5078     5086     5105     5157     5196     5135     4939     4727 
    4666     4742     4801     4772     4702     4704     4872     5144 
    5309     5247     5085     4999     5003     5028     5030     5012 
    5039     5182     5381     5417     5159     4729     4379     4329 
    4563     4831     4995     5040     4935     4812     4896     5100 
    5154     5022     4855     4811     4928     5090     5198     5240 
    5146     4918     4783     4853     4919     4826     4722     4731 
    4761     4784     4880     4946     4885     4866     5089     5455 
    5643     5487     5148     4853     4695     4681     4776     4862 
    4849     4831     4950     5120     5158     5076     4953     4776 
    4600     4560     4693     4920     5104     5175     5223     5266 
    5217     5108     4999     4880     4854     5055     5324     5327 
    4995     4519     4125     4048     4419     5019     5431     5501 
    5378     5155     4857     4600     4534     4704     5055     5490 
    5819     5773     5328     4824     4581     4545     4479     4403 
    4558     4928     5196     5140     4847     4529     4359     4518 
    5015     5503     5680     5610     5493     5447     5416     5235 
    4907     4598     4401     4329     4356     4434     4561     4796 
    5157     5470     5498     5260     4959     4752     4730     4878 
    5017     5024     4999     5047     5093     5071     5032     5004 
    4966     4880     4685     4444     4423     4795     5310     5559 
    5414     5089     4905     4990     5155     5132     4931     4803 
    4822     4781     4575     4372     4374     4592     4935     5283 
    5475     5435     5282     5157     5093     5089     5179     5360 
    5497     5400     5011     4483     4095     4032     4260     4644 
    5001     5205     5320     5405     5373     5144     4827     4712 
    4955     5306     5451     5325     4988     4558     4309     4407 
    4639     4730     4726     4772     4815     4784     4741     4815 
    5146     5648     5919     5728     5314     4993     4784     4599 
    4463     4436     4518     4706     4985     5260     5389     5289 
    5055     4935     5061     5273     5308     5089     4799     4621 
    4538     4471     4476     4698     5113     5439     5444     5235 
    5015     4872     4900     5116     5270     5128     4827     4657 
    4639     4564     4359     4229     4380     4762     5197     5590 
    5844     5867     5749     5632     5429     5030     4635     4522 
    4550     4434     4297     4392     4645     4885     5123     5297 
    5247     5054     4976     5063     5166     5170     5105     5071 
    5077     5027     4892     4679     4353     4035     4016     4359 
    4776     5051     5228     5422     5638     5819     5940     5972 
    5873     5601     5092     4390     3759     3545     3848     4519 
    5270     5690     5501     4895     4294     3987     4118     4696 
    5506     6181     6439     6177     5432     4487     3883     4040 
    4768     5359     5317     4774     4179     3917     4144     4666 
    5140     5449     5752     6135     6362     6130     5472     4774 
    4415     4484     4777     4957     4766     4303     3901     3659 
    3505     3597     4158     5112     6180     6976     7159     6725 
    5938     5084     4409     4016     3871     3958     4252     4668 
    5031     5157     4999     4681     4437     4471     4772     5125 
    5321     5309     5309     5607     6077     6291     6070     5548 
    4903     4326     4031     4101     4328     4371     4160     3925 
    3856     3985     4338     4955     5687     6188     6251     6007 
    5691     5474     5460     5593     5674     5503     4978     4220 
    3549     3260     3504     4185     4989     5607     5832     5645 
    5254     4842     4507     4388     4577     5019     5556     5907 
    5796     5263     4661     4355     4509     5008     5497     5609 
    5189     4402     3700     3537     4012     4810     5517     5992 
    6266     6273     5979     5537     5190     5062     5062     5004 
    4765     4293     3631     2987     2706     3029     3863     4880 
    5734     6164     6046     5551     5100     5039     5428     6112 
    6797     7098     6714     5645     4268     3249     3164     3986 
    5012     5471     5197     4600     4156     4056     4228     4529 
    4845     5008     4949     4796     4681     4685     4912     5310 
    5597     5559     5251     4895     4758     5008     5498     5872 
    5918     5679     5301     4881     4495     4279     4272     4295 
    4220     4195     4452     4992     5568     5921     5949     5661 
    5165     4657     4341     4371     4729     5147     5292     5009 
    4461     4067     4166     4710     5389     5948     6234     6095 
    5502     4680     3979     3701     3920     4395     4811     5003 
    4942     4692     4442     4446     4815     5358     5765     5967 
    6088     6130     5979     5622     5157     4699     4360     4220 
    4248     4320     4383     4517     4743     4930     4946     4923 
    5101     5352     5335     5057     4847     4904     5069     5090 
    4969     4854     4777     4739     4831     5030     5167     5151 
    4990     4768     4673     4866     5267     5582     5568     5286 
    4972     4731     4567     4534     4649     4808     4904     4860 
    4648     4425     4496     4949     5458     5680     5575     5290 
    5044     4978     4974     4888     4757     4661     4627     4626 
    4598     4583     4687     4946     5304     5606     5665     5432 
    5071     4815     4749     4795     4865     4922     4927     4858 
    4758     4668     4595     4622     4892     5412     5952     6200 
    6002     5448     4773     4234     4052     4234     4498     4576 
    4488     4460     4645     4922     5069     5098     5158     5294 
    5439     5448     5236     4942     4789     4806     4904     5040 
    5175     5244     5233     5161     4982     4668     4363     4330 
    4660     5128     5377     5231     4824     4429     4257     4395 
    4788     5228     5485     5490     5350     5196     5063     4946 
    4897     4988     5140     5224     5192     5063     4914     4824 
    4807     4862     4958     4988     4905     4773     4652     4602 
    4700     4904     5000     4878     4741     4876     5267     5586 
    5555     5240     4884     4629     4498     4525     4779     5217 
    5613     5764     5637     5262     4725     4310     4303     4600 
    4837     4815     4588     4325     4257     4517     4988     5412 
    5633     5695     5660     5466     5101     4743     4572     4648 
    4927     5217     5254     4982     4668     4587     4712     4841 
    4900     5003     5229     5424     5362     5077     4756     4553 
    4618     4909     5132     5113     4986     4918     4895     4799 
    4623     4550     4720     5001     5171     5177     5107     5040 
    5008     5013     5061     5143     5209     5190     5066     4858 
    4602     4376     4342     4599     4999     5270     5301     5150 
    4935     4834     5001     5355     5602     5575     5363     5111 
    4866     4641     4515     4573     4702     4711     4645     4665 
    4761     4843     4941     5098     5246     5287     5220     5082 
    4895     4718     4673     4860     5136     5196     4990     4774 
    4734     4884     5146     5367     5402     5254     5105     5107 
    5123     4958     4712     4595     4594     4563     4460     4357 
    4363     4522     4779     5063     5274     5305     5244     5297 
    5479     5616     5580     5435     5309     5193     4984     4715 
    4542     4490     4426     4349     4436     4712     4988     5171 
    5320     5385     5254     5031     4961     5073     5170     5151 
    5092     5020     4839     4517     4224     4190     4445     4835 
    5190     5359     5270     5066     4993     5082     5161     5115 
    5003     4924     4916     4981     5089     5186     5236     5208 
    5047     4757     4460     4329     4460     4789     5116     5282 
    5269     5120     4942     4904     5046     5213     5263     5178 
    4980     4700     4442     4342     4446     4738     5177     5595 
    5729     5525     5204     4959     4806     4733     4757     4847 
    4920     4918     4822     4652     4521     4549     4730     4980 
    5201     5320     5362     5414     5427     5258     4954     4711 
    4625     4653     4738     4783     4714     4653     4739     4869 
    4877     4843     4936     5163     5420     5586     5566     5354 
    5035     4758     4657     4733     4868     4973     4986     4878 
    4714     4590     4554     4638     4830     5057     5235     5320 
    5319     5254     5157     5066     5011     5005     5032     5013 
    4908     4772     4693     4718     4839     4981     5030     4984 
    4958     4977     4974     4935     4895     4878     4866     4812 
    4737     4730     4815     4922     5062     5265     5389     5319 
    5170     5084     5038     4990     4976     4986     4924     4774 
    4665     4671     4757     4899     5039     5098     5074     5020 
    4955     4874     4803     4789     4828     4899     4968     4989 
    4999     5092     5206     5198     5094     5020     4968     4877 
    4812     4838     4891     4893     4868     4853     4837     4801 
    4780     4845     5009     5166     5221     5174     5062     4957 
    4939     4972     4955     4895     4850     4835     4845     4874 
    4924     5007     5092     5125     5103     5032     4923     4835 
    4849     4947     5038     5071     5051     4982     4882     4785 
    4714     4681     4696     4799     4985     5155     5209     5174 
    5154     5201     5269     5305     5289     5166     4943     4747 
    4654     4622     4603     4585     4612     4711     4824     4922 
