Origin Time       2024/06/23 22:54:00
Lat.              35.645
Long.             140.060
Depth. (km)       72
Mag.              4.1
Station Code      TCG013
Station Lat.      36.4368
Station Long.     140.0227
Station Height(m) 66
Record Time       2024/06/23 22:54:57
Sampling Freq(Hz) 100Hz
Duration Time(s)  60
Dir.              E-W
Scale Factor      7845(gal)/8223790
Max. Acc. (gal)   2.071
Last Correction   2024/06/23 22:54:56
Memo.             
[...]
   -3203    -3542    -3654    -3477    -3186    -2965    -2882    -3001 
   -3308    -3588    -3647    -3505    -3240    -2956    -2829    -2965 
   -3262    -3496    -3577    -3545    -3350    -3030    -2866    -2995 
   -3218    -3358    -3427    -3431    -3354    -3217    -3088    -3075 
   -3199    -3325    -3342    -3275    -3192    -3142    -3130    -3184 
   -3348    -3520    -3516    -3303    -3075    -2994    -3029    -3136 
   -3335    -3554    -3635    -3473    -3125    -2866    -2901    -3096 
   -3256    -3397    -3565    -3615    -3391    -3057    -2929    -3015 
   -3087    -3122    -3310    -3572    -3599    -3354    -3125    -3090 
   -3073    -2964    -3049    -3427    -3686    -3569    -3248    -2983 
   -2913    -2972    -3078    -3318    -3608    -3657    -3450    -3217 
   -3095    -3087    -3132    -3181    -3245    -3295    -3292    -3257 
   -3231    -3229    -3262    -3311    -3323    -3260    -3173    -3159 
   -3222    -3288    -3299    -3279    -3253    -3195    -3163    -3225 
   -3318    -3377    -3354    -3218    -3084    -3075    -3190    -3348 
   -3418    -3343    -3249    -3226    -3138    -2987    -3049    -3345 
   -3545    -3526    -3415    -3269    -3117    -3053    -3096    -3196 
   -3289    -3306    -3265    -3230    -3279    -3400    -3388    -3225 
   -3173    -3229    -3177    -3125    -3238    -3391    -3435    -3370 
   -3199    -3037    -3064    -3168    -3149    -3142    -3295    -3415 
   -3373    -3300    -3279    -3252    -3163    -3080    -3168    -3343 
   -3379    -3346    -3379    -3343    -3192    -3082    -3114    -3208 
   -3184    -3091    -3159    -3349    -3437    -3376    -3306    -3262 
   -3122    -2930    -2971    -3272    -3537    -3634    -3605    -3402 
   -3100    -2922    -2911    -3011    -3267    -3576    -3672    -3524 
   -3356    -3242    -3080    -2917    -2971    -3210    -3334    -3326 
   -3372    -3370    -3183    -2984    -2998    -3192    -3331    -3296 
   -3289    -3393    -3373    -3231    -3221    -3343    -3393    -3295 
   -3171    -3123    -3138    -3222    -3337    -3330    -3219    -3156 
   -3105    -3021    -3028    -3206    -3473    -3628    -3534    -3331 
   -3179    -3055    -3024    -3180    -3423    -3580    -3553    -3360 
   -3090    -2878    -2876    -3071    -3242    -3306    -3368    -3416 
   -3364    -3248    -3160    -3191    -3295    -3292    -3241    -3262 
   -3176    -2983    -2978    -3159    -3304    -3438    -3604    -3603 
   -3330    -3056    -3033    -3115    -3142    -3237    -3424    -3515 
   -3375    -3172    -3219    -3403    -3365    -3208    -3146    -3069 
   -2955    -2943    -3088    -3337    -3543    -3603    -3526    -3331 
   -3117    -3045    -3078    -3118    -3221    -3375    -3466    -3445 
   -3302    -3065    -2847    -2817    -3041    -3358    -3632    -3829 
   -3780    -3403    -2964    -2783    -2894    -3056    -3154    -3335 
   -3541    -3507    -3312    -3192    -3152    -3125    -3100    -3161 
   -3323    -3396    -3342    -3298    -3229    -3136    -3083    -3067 
   -3141    -3321    -3468    -3484    -3406    -3279    -3133    -3055 
   -3140    -3338    -3485    -3464    -3277    -3046    -2943    -2992 
   -3109    -3306    -3538    -3574    -3323    -3045    -2991    -3079 
   -3148    -3262    -3532    -3730    -3515    -3072    -2911    -3037 
   -3134    -3207    -3381    -3493    -3370    -3152    -3025    -3049 
   -3198    -3331    -3392    -3491    -3535    -3356    -3138    -3087 
   -3071    -3017    -3075    -3288    -3492    -3549    -3488    -3379 
   -3225    -3053    -2941    -2959    -3134    -3391    -3518    -3400 
   -3234    -3159    -3044    -2924    -3003    -3258    -3519    -3654 
   -3551    -3279    -3049    -2933    -2943    -3150    -3508    -3763 
   -3653    -3249    -2929    -2879    -2998    -3171    -3356    -3520 
   -3522    -3287    -3056    -3018    -3061    -3094    -3169    -3314 
   -3445    -3489    -3499    -3449    -3215    -2938    -2886    -3036 
   -3248    -3493    -3657    -3559    -3267    -3026    -2975    -3052 
   -3184    -3345    -3483    -3512    -3373    -3188    -3180    -3271 
   -3218    -3087    -3073    -3152    -3225    -3268    -3288    -3296 
   -3254    -3111    -2952    -2959    -3206    -3501    -3577    -3419 
   -3234    -3152    -3169    -3276    -3403    -3470    -3488    -3408 
   -3172    -2947    -2926    -3082    -3295    -3433    -3462    -3465 
   -3361    -3111    -2925    -2918    -3053    -3276    -3465    -3532 
   -3454    -3267    -3078    -2991    -3061    -3257    -3449    -3520 
   -3438    -3296    -3181    -3063    -3013    -3163    -3375    -3433 
   -3366    -3325    -3311    -3199    -3036    -3049    -3214    -3277 
   -3275    -3392    -3503    -3426    -3214    -3019    -2967    -3010 
   -3071    -3204    -3342    -3369    -3393    -3466    -3472    -3365 
   -3233    -3114    -2963    -2878    -3001    -3258    -3499    -3600 
   -3527    -3343    -3114    -2955    -3009    -3204    -3364    -3484 
   -3564    -3434    -3106    -2868    -2878    -3061    -3321    -3572 
   -3646    -3449    -3163    -2975    -2894    -3025    -3410    -3746 
   -3724    -3424    -3152    -3029    -3003    -3096    -3353    -3589 
   -3514    -3176    -2920    -2887    -2967    -3075    -3218    -3345 
   -3397    -3379    -3273    -3123    -3094    -3200    -3296    -3331 
   -3338    -3362    -3384    -3287    -3146    -3172    -3307    -3375 
   -3376    -3387    -3392    -3304    -3136    -3033    -3084    -3211 
   -3299    -3354    -3418    -3438    -3342    -3179    -3075    -3053 
   -3075    -3163    -3284    -3323    -3253    -3119    -2995    -2998 
   -3191    -3424    -3510    -3461    -3376    -3275    -3142    -3045 
   -3134    -3388    -3553    -3510    -3381    -3277    -3179    -3025 
   -2870    -2899    -3181    -3500    -3582    -3431    -3265    -3159 
   -3045    -2998    -3146    -3404    -3550    -3478    -3265    -3086 
   -3019    -3034    -3119    -3253    -3353    -3410    -3429    -3352 
   -3244    -3254    -3294    -3211    -3127    -3191    -3326    -3393 
   -3412    -3418    -3296    -3021    -2802    -2857    -3144    -3391 
   -3447    -3443    -3422    -3230    -2965    -2928    -3105    -3306 
   -3480    -3611    -3632    -3511    -3316    -3163    -3087    -3103 
   -3186    -3242    -3238    -3226    -3210    -3150    -3096    -3156 
   -3264    -3330    -3416    -3489    -3396    -3150    -2924    -2880 
   -3009    -3157    -3295    -3426    -3429    -3350    -3357    -3356 
   -3229    -3134    -3186    -3267    -3249    -3211    -3308    -3412 
   -3323    -3173    -3141    -3150    -3113    -3110    -3202    -3281 
   -3314    -3412    -3532    -3504    -3329    -3164    -3073    -3011 
   -3025    -3204    -3445    -3539    -3451    -3291    -3149    -3061 
   -3056    -3123    -3222    -3316    -3366    -3323    -3218    -3173 
   -3245    -3296    -3245    -3210    -3210    -3168    -3153    -3208 
   -3256    -3299    -3345    -3322    -3223    -3140    -3168    -3333 
   -3516    -3562    -3450    -3280    -3127    -2988    -2903    -2995 
   -3277    -3524    -3511    -3314    -3171    -3122    -3096    -3149 
   -3308    -3449    -3473    -3388    -3256    -3161    -3123    -3114 
   -3130    -3122    -3057    -3068    -3235    -3397    -3406    -3321 
   -3267    -3258    -3217    -3129    -3113    -3218    -3302    -3287 
   -3288    -3353    -3400    -3319    -3134    -3053    -3163    -3307 
   -3365    -3353    -3343    -3323    -3234    -3164    -3269    -3480 
   -3528    -3327    -3114    -3068    -3095    -3111    -3186    -3315 
   -3391    -3383    -3321    -3242    -3213    -3196    -3161    -3159 
   -3156    -3165    -3249    -3316    -3291    -3222    -3184    -3250 
   -3348    -3375    -3362    -3325    -3258    -3225    -3230    -3261 
   -3331    -3395    -3353    -3195    -3048    -3024    -3105    -3192 
   -3238    -3257    -3196    -3040    -2947    -3040    -3267    -3504 
   -3624    -3581    -3396    -3127    -2891    -2803    -2922    -3218 
   -3539    -3696    -3595    -3308    -3024    -2874    -2882    -3082 
   -3431    -3712    -3736    -3527    -3206    -2893    -2720    -2786 
   -3084    -3474    -3780    -3856    -3612    -3190    -2895    -2841 
   -2987    -3307    -3615    -3665    -3439    -3075    -2759    -2697 
   -2879    -3113    -3341    -3558    -3615    -3443    -3204    -3071 
   -3088    -3244    -3500    -3717    -3709    -3484    -3172    -2840 
   -2621    -2660    -2907    -3262    -3589    -3684    -3573    -3462 
   -3392    -3334    -3307    -3291    -3271    -3226    -3154    -3144 
   -3241    -3365    -3439    -3423    -3272    -3088    -3106    -3303 
   -3477    -3597    -3634    -3454    -3086    -2731    -2602    -2771 
   -3134    -3456    -3514    -3318    -3021    -2767    -2704    -2839 
   -3059    -3329    -3584    -3665    -3539    -3381    -3333    -3294 
   -3168    -3073    -3125    -3208    -3219    -3261    -3391    -3541 
   -3627    -3527    -3295    -3179    -3222    -3277    -3329    -3419 
   -3499    -3473    -3353    -3285    -3362    -3435    -3325    -3106 
   -2924    -2806    -2791    -2948    -3223    -3424    -3400    -3167 
   -2797    -2386    -2200    -2528    -3192    -3649    -3720    -3576 
   -3219    -2708    -2409    -2674    -3414    -4126    -4402    -4255 
   -3856    -3377    -3090    -3163    -3487    -3838    -3987    -3766 
   -3262    -2829    -2752    -2999    -3306    -3512    -3639    -3580 
   -3217    -2749    -2473    -2494    -2748    -3137    -3561    -3866 
   -3913    -3678    -3265    -2910    -2783    -2837    -2947    -3037 
   -3044    -2917    -2727    -2640    -2775    -3138    -3636    -4052 
   -4212    -4067    -3635    -3078    -2721    -2795    -3230    -3798 
   -4286    -4444    -4085    -3383    -2722    -2320    -2265    -2571 
   -2984    -3218    -3198    -2932    -2560    -2374    -2552    -3021 
   -3526    -3792    -3667    -3207    -2701    -2515    -2794    -3412 
   -4054    -4429    -4441    -4089    -3480    -2916    -2681    -2781 
   -2998    -3254    -3667    -4117    -4237    -3952    -3507    -3051 
   -2693    -2614    -2841    -3181    -3430    -3508    -3403    -3111 
   -2744    -2506    -2598    -3028    -3530    -3867    -3952    -3670 
   -3056    -2515    -2458    -2875    -3460    -3916    -4067    -3858 
   -3342    -2700    -2230    -2123    -2349    -2791    -3373    -3970 
   -4361    -4365    -3969    -3343    -2820    -2651    -2849    -3302 
   -3767    -3937    -3707    -3190    -2623    -2282    -2280    -2551 
   -2988    -3450    -3798    -3896    -3627    -3080    -2608    -2560 
   -2965    -3553    -3983    -4040    -3715    -3133    -2581    -2473 
   -2883    -3426    -3827    -4052    -3987    -3555    -3026    -2785 
   -2913    -3269    -3730    -4106    -4132    -3699    -3003    -2436 
   -2249    -2450    -2965    -3561    -3861    -3719    -3326    -2930 
   -2695    -2717    -3042    -3537    -3842    -3707    -3244    -2743 
   -2419    -2421    -2805    -3335    -3717    -3825    -3635    -3276 
   -3005    -3001    -3273    -3616    -3820    -3875    -3769    -3468 
   -3184    -3142    -3227    -3249    -3242    -3237    -3133    -2988 
   -2951    -2999    -3046    -3064    -3060    -3051    -3042    -3083 
   -3207    -3321    -3319    -3181    -2978    -2880    -3021    -3322 
   -3616    -3816    -3792    -3412    -2845    -2439    -2370    -2637 
   -3130    -3659    -4033    -4082    -3801    -3446    -3265    -3272 
   -3362    -3446    -3437    -3311    -3203    -3238    -3364    -3416 
   -3258    -2913    -2604    -2596    -2928    -3427    -3870    -4052 
   -3862    -3449    -3161    -3217    -3516    -3809    -3931    -3788 
   -3289    -2513    -1815    -1591    -1962    -2713    -3539    -4156 
   -4288    -3858    -3150    -2567    -2324    -2482    -2957    -3500 
   -3808    -3715    -3304    -2860    -2718    -3030    -3601    -4110 
   -4395    -4417    -4099    -3469    -2844    -2566    -2632    -2840 
   -3083    -3310    -3392    -3210    -2851    -2575    -2501    -2602 
   -2933    -3433    -3846    -4051    -4010    -3643    -3076    -2621 
   -2525    -2806    -3179    -3387    -3464    -3441    -3330    -3341 
   -3612    -3913    -3970    -3827    -3645    -3516    -3555    -3738 
   -3802    -3558    -3052    -2436    -1953    -1898    -2370    -3117 
   -3704    -3820    -3485    -2998    -2652    -2582    -2870    -3466 
   -3978    -3996    -3561    -2938    -2380    -2162    -2361    -2797 
   -3271    -3612    -3770    -3805    -3754    -3717    -3781    -3838 
   -3778    -3605    -3392    -3267    -3252    -3223    -3073    -2793 
   -2485    -2285    -2290    -2633    -3303    -4002    -4430    -4438 
   -4048    -3489    -3051    -2910    -3084    -3399    -3615    -3505 
   -2959    -2228    -1842    -2118    -2947    -3940    -4618    -4673 
   -4128    -3229    -2376    -2026    -2338    -2933    -3281    -3207 
   -2903    -2616    -2521    -2801    -3530    -4398    -4860    -4675 
   -4055    -3411    -3060    -3071    -3312    -3546    -3460    -2909 
   -2135    -1645    -1819    -2598    -3570    -4326    -4625    -4409 
   -3828    -3202    -2871    -2995    -3429    -3797    -3748    -3241 
   -2501    -1790    -1418    -1660    -2475    -3457    -4121    -4279 
   -4016    -3497    -3026    -2866    -3056    -3516    -4029    -4293 
   -4194    -3809    -3250    -2668    -2220    -2073    -2396    -3163 
   -4117    -4951    -5420    -5402    -4918    -4105    -3231    -2550 
   -2153    -2014    -2047    -2166    -2324    -2467    -2573    -2663 
   -2708    -2614    -2421    -2344    -2524    -2899    -3349    -3730 
   -3912    -3879    -3721    -3592    -3599    -3650    -3608    -3487 
   -3373    -3327    -3396    -3584    -3808    -3928    -3792    -3383 
   -2940    -2739    -2818    -3080    -3431    -3703    -3692    -3437 
   -3132    -2824    -2565    -2516    -2721    -3075    -3419    -3631 
   -3689    -3607    -3446    -3292    -3188    -3122    -3022    -2883 
   -2818    -2880    -3048    -3325    -3674    -3925    -3898    -3568 
   -3069    -2592    -2299    -2338    -2762    -3395    -3935    -4202 
   -4171    -3923    -3649    -3497    -3474    -3483    -3373    -3088 
   -2724    -2436    -2359    -2536    -2880    -3237    -3407    -3323 
   -3187    -3248    -3535    -3927    -4239    -4229    -3794    -3102 
   -2432    -2042    -2089    -2513    -3098    -3553    -3624    -3334 
   -2955    -2716    -2768    -3192    -3839    -4423    -4696    -4541 
   -4105    -3699    -3464    -3323    -3235    -3184    -3034    -2737 
   -2474    -2396    -2494    -2735    -3073    -3383    -3519    -3481 
   -3322    -3055    -2766    -2598    -2551    -2528    -2542    -2643 
   -2787    -2894    -2961    -3032    -3133    -3292    -3507    -3735 
   -3919    -3958    -3825    -3603    -3408    -3377    -3581    -3947 
   -4274    -4332    -4055    -3599    -3181    -3024    -3233    -3619 
   -3859    -3808    -3495    -3009    -2551    -2396    -2648    -3088 
   -3389    -3407    -3199    -2903    -2694    -2681    -2845    -3080 
   -3202    -3099    -2829    -2497    -2255    -2285    -2581    -3056 
   -3595    -3937    -3981    -3883    -3748    -3601    -3487    -3434 
   -3478    -3564    -3607    -3672    -3794    -3835    -3726    -3545 
   -3339    -3121    -2960    -2884    -2898    -3034    -3215    -3287 
   -3184    -2938    -2647    -2451    -2442    -2621    -2938    -3233 
   -3376    -3391    -3306    -3160    -3071    -3121    -3287    -3485 
   -3646    -3732    -3703    -3562    -3408    -3315    -3269    -3250 
   -3289    -3402    -3500    -3504    -3451    -3410    -3403    -3408 
   -3400    -3354    -3223    -3040    -2943    -2979    -3051    -3064 
   -3001    -2909    -2871    -2913    -3037    -3231    -3365    -3356 
   -3284    -3172    -3063    -3118    -3354    -3603    -3719    -3654 
   -3493    -3323    -3114    -2891    -2839    -3030    -3267    -3331 
   -3262    -3218    -3195    -3127    -3087    -3140    -3245    -3360 
   -3433    -3462    -3483    -3468    -3424    -3395    -3354    -3291 
   -3215    -3154    -3165    -3246    -3372    -3515    -3589    -3555 
   -3539    -3646    -3775    -3796    -3690    -3466    -3152    -2839 
   -2620    -2551    -2602    -2652    -2619    -2542    -2535    -2697 
   -2978    -3227    -3360    -3343    -3225    -3167    -3258    -3485 
   -3801    -4008    -3910    -3581    -3221    -2960    -2879    -3005 
   -3296    -3593    -3689    -3551    -3291    -3017    -2851    -2895 
   -3130    -3396    -3538    -3508    -3304    -2970    -2677    -2592 
   -2713    -2957    -3257    -3519    -3631    -3570    -3422    -3292 
   -3265    -3353    -3487    -3559    -3538    -3503    -3508    -3495 
   -3402    -3262    -3117    -2949    -2824    -2878    -3106    -3308 
   -3354    -3327    -3329    -3330    -3306    -3300    -3323    -3326 
   -3300    -3265    -3245    -3269    -3322    -3342    -3285    -3192 
   -3113    -3051    -3038    -3122    -3299    -3481    -3564    -3532 
   -3424    -3211    -2924    -2741    -2809    -3060    -3319    -3512 
   -3640    -3642    -3484    -3229    -2959    -2795    -2835    -3068 
   -3400    -3663    -3730    -3616    -3403    -3167    -3024    -3033 
   -3157    -3308    -3365    -3284    -3181    -3163    -3208    -3257 
   -3279    -3244    -3165    -3115    -3098    -3082    -3109    -3157 
   -3099    -2922    -2770    -2745    -2843    -3044    -3327    -3592 
   -3713    -3676    -3547    -3384    -3248    -3188    -3186    -3180 
   -3127    -3041    -3005    -3072    -3203    -3368    -3581    -3748 
   -3701    -3473    -3260    -3148    -3136    -3234    -3419    -3609 
   -3693    -3630    -3488    -3354    -3283    -3291    -3377    -3512 
   -3588    -3497    -3235    -2898    -2664    -2663    -2843    -3098 
   -3357    -3500    -3408    -3115    -2821    -2705    -2759    -2910 
   -3138    -3380    -3523    -3520    -3400    -3249    -3176    -3215 
   -3308    -3383    -3418    -3430    -3376    -3242    -3154    -3183 
   -3254    -3321    -3380    -3369    -3262    -3109    -2945    -2816 
   -2779    -2841    -2984    -3161    -3281    -3304    -3291    -3296 
   -3308    -3337    -3447    -3572    -3546    -3402    -3277    -3175 
   -3055    -2992    -3053    -3168    -3265    -3387    -3553    -3707 
   -3777    -3735    -3622    -3497    -3354    -3179    -3052    -3042 
   -3082    -3100    -3136    -3183    -3177    -3105    -3033    -3040 
   -3125    -3207    -3234    -3221    -3192    -3149    -3133    -3198 
   -3330    -3449    -3472    -3361    -3177    -3042    -3022    -3067 
   -3141    -3254    -3346    -3373    -3379    -3392    -3437    -3537 
   -3622    -3603    -3465    -3249    -3057    -2987    -3014    -3068 
   -3142    -3231    -3269    -3235    -3200    -3208    -3223    -3191 
   -3119    -3055    -3014    -3001    -3021    -3057    -3090    -3088 
   -3032    -3002    -3099    -3260    -3397    -3512    -3596    -3588 
   -3437    -3246    -3194    -3281    -3445    -3654    -3793    -3771 
   -3630    -3426    -3210    -3064    -3021    -3052    -3114    -3207 
   -3345    -3456    -3451    -3387    -3372    -3400    -3370    -3272 
   -3187    -3132    -3064    -2975    -2934    -3038    -3211    -3295 
