Origin Time       2024/06/23 22:54:00
Lat.              35.645
Long.             140.060
Depth. (km)       72
Mag.              4.1
Station Code      TCG013
Station Lat.      36.4368
Station Long.     140.0227
Station Height(m) 66
Record Time       2024/06/23 22:54:57
Sampling Freq(Hz) 100Hz
Duration Time(s)  60
Dir.              U-D
Scale Factor      7845(gal)/8223790
Max. Acc. (gal)   0.860
Last Correction   2024/06/23 22:54:56
Memo.             
   18134    18002    18030    18127    18102    17913    17984    18511 
   18873    18454    17593    17247    17874    18712    18646    17930 
   17860    18539    18752    18091    17490    17722    18397    18593 
   18192    17922    18112    18285    18031    17728    18037    18736 
   18781    17907    17266    17756    18690    18975    18490    17766 
   17367    17670    18395    18693    18297    17934    18094    18296 
   18115    17918    18146    18504    18412    17986    17861    18106 
   18227    18150    18114    18110    18161    18260    18100    17836 
   18080    18594    18485    17872    17676    18107    18593    18590 
   18121    17807    17965    18180    18204    18208    18162    17964 
   17926    18225    18387    18198    18042    18094    18237    18338 
   18257    18092    18037    18064    18091    18117    18133    18108 
   18123    18264    18360    18199    17864    17701    17942    18322 
   18415    18299    18291    18339    18202    18003    18069    18314 
   18252    17797    17568    17959    18539    18744    18488    18107 
   17971    17991    17917    17891    18096    18323    18326    18196 
   18179    18296    18361    18227    17906    17701    17926    18355 
   18480    18191    17907    17976    18227    18395    18395    18149 
   17822    17828    18198    18445    18288    18036    18027    18200 
   18288    18107    17902    18169    18667    18512    17706    17421 
   18177    18856    18419    17497    17366    18210    18987    18756 
   17907    17624    18145    18553    18330    17996    18002    18073 
   17969    17979    18283    18459    18200    17945    18130    18377 
   18179    17874    18095    18507    18260    17671    17868    18701 
   18862    18034    17367    17740    18493    18478    17880    17803 
   18354    18607    18193    17786    17949    18287    18206    17988 
   18204    18611    18546    18000    17598    17752    18214    18408 
   18179    17914    18007    18392    18590    18300    17868    17822 
   18099    18235    18129    18065    18192    18374    18434    18330 
   18134    17932    17832    17915    18052    18157    18373    18512 
   18215    17825    17818    17950    18009    18280    18677    18607 
   18080    17840    18210    18708    18705    18067    17367    17425 
   18257    18773    18277    17644    17783    18156    18069    17883 
   18104    18544    18744    18517    18091    17946    18139    18122 
   17836    17865    18252    18531    18574    18488    18303    17968 
   17624    17734    18311    18565    18192    17871    17972    18096 
   18031    17975    18000    18017    17999    18061    18277    18395 
   18144    17903    18253    18751    18455    17713    17667    18306 
   18738    18562    18037    17797    18142    18391    17982    17556 
   17783    18291    18485    18376    18220    18110    18013    18014 
   18214    18355    18239    18176    18299    18304    18134    18091 
   18268    18320    17965    17606    17836    18387    18519    18150 
   17817    17915    18315    18570    18432    18122    18015    18081 
   18040    18075    18416    18563    18094    17529    17536    18033 
   18459    18465    18253    18146    18072    17984    18075    18303 
   18490    18538    18312    17905    17709    17864    18053    18081 
   18166    18419    18546    18306    17883    17675    17921    18407 
   18553    18243    18083    18250    18261    18033    17864    17797 
   17824    18111    18574    18763    18454    17949    17679    17778 
   18148    18577    18684    18192    17490    17429    18139    18769 
   18787    18404    17869    17501    17609    18019    18423    18669 
   18520    18050    17860    18161    18432    18249    17852    17811 
   18238    18522    18234    17872    17946    18119    18083    18095 
   18211    18318    18551    18715    18320    17660    17564    18123 
   18544    18288    17805    17759    18021    18165    18272    18416 
   18333    18095    18063    18162    18119    18044    18104    18175 
   18249    18349    18235    18063    18154    18257    18161    18110 
   18206    18289    18212    17980    17783    17815    18040    18337 
   18611    18558    18030    17563    17697    18200    18476    18265 
   17936    18114    18690    18721    17964    17539    18087    18551 
   18040    17443    17797    18530    18551    17936    17659    18118 
   18646    18592    18265    18234    18295    18118    18034    18203 
   18153    17896    18096    18646    18636    17918    17332    17471 
   18083    18544    18551    18292    18119    18150    18223    18210 
   18162    18071    17880    17844    18114    18218    17994    18029 
   18418    18561    18243    17869    17926    18400    18617    18146 
   17582    17687    18308    18685    18396    17888    17887    18242 
   18270    18025    18108    18407    18272    17890    17923    18264 
   18427    18303    18111    18053    17992    17883    18007    18262 
   18270    18118    18081    18189    18322    18335    18206    18127 
   18215    18293    18171    18009    18061    18222    18200    17913 
   17658    17880    18435    18603    18192    17884    18145    18503 
   18311    17794    17776    18354    18625    18141    17695    17960 
   18404    18322    17878    17667    17969    18500    18692    18339 
   17842    17739    18071    18411    18470    18377    18341    18280 
   18054    17915    18192    18544    18327    17728    17491    17734 
   18058    18253    18318    18320    18334    18308    18106    17841 
   17844    18121    18354    18420    18420    18343    18139    17959 
   18003    18193    18247    18104    18003    18110    18243    18208 
   18215    18430    18458    18044    17676    17863    18365    18555 
   18189    17771    17838    18144    18180    17976    17861    18006 
   18283    18424    18355    18270    18307    18328    18179    17930 
   17793    17959    18337    18523    18362    18127    18050    18131 
   18226    18131    17950    18033    18258    18203    17967    17878 
   17917    18056    18339    18530    18384    18118    18095    18241 
   18276    18220    18162    17975    17795    17994    18349    18268 
   17882    17891    18377    18571    18090    17659    17968    18585 
   18686    18207    17770    17813    18142    18323    18320    18389 
   18403    18072    17666    17740    18246    18515    18164    17724 
   17914    18470    18570    18161    17887    18104    18489    18511 
   18130    17857    18026    18245    18063    17772    17832    18161 
   18469    18582    18382    17946    17686    17955    18482    18617 
   18187    17755    17884    18333    18391    17955    17683    18030 
   18571    18547    18034    17915    18427    18690    18160    17516 
   17631    18319    18669    18283    17747    17824    18351    18449 
   17925    17659    18118    18563    18373    18004    18036    18293 
   18346    18195    18160    18247    18150    17936    17982    18246 
   18399    18364    18214    18050    18052    18144    18069    17955 
   18029    18117    18018    17894    17957    18146    18296    18347 
   18307    18260    18172    17934    17898    18353    18630    18166 
   17705    18014    18597    18692    18334    17976    17979    18280 
   18345    17996    17770    17952    18144    18100    18063    18056 
   17930    17968    18414    18787    18539    17972    17733    17894 
   18126    18212    18196    18219    18230    18141    18018    17894 
   17871    18118    18403    18351    18114    18095    18265    18225 
   17980    18075    18557    18702    18222    17717    17710    18031 
   18250    18247    18175    18117    18121    18225    18293    18183 
   18027    18037    18125    18115    18115    18203    18212    18153 
   18187    18252    18242    18183    18040    17878    18021    18396 
   18381    17929    17730    18007    18283    18243    18087    18144 
   18350    18424    18338    18154    17919    17834    17996    18202 
   18257    18242    18297    18316    18133    17942    18080    18476 
   18625    18242    17817    17934    18335    18391    18073    17896 
   18091    18273    18130    17891    17907    18169    18342    18238 
   18065    17999    17999    18040    18031    17899    17929    18322 
   18640    18466    18110    18021    18111    18125    18087    18195 
   18478    18580    18161    17644    17729    18229    18370    17982 
   17664    17886    18353    18527    18405    18347    18408    18270 
   17913    17847    18288    18631    18328    17853    17925    18281 
   18207    17774    17635    18031    18527    18586    18218    17910 
   17917    18063    18203    18319    18312    18148    18015    18098 
   18268    18260    18088    18015    18103    18161    18126    18149 
   18223    18134    17914    17886    18156    18441    18401    18117 
   18036    18260    18355    18085    17782    17805    18076    18349 
   18478    18438    18316    18112    17820    17729    18023    18411 
   18515    18299    18077    18080    18172    18137    17991    17933 
   18096    18341    18436    18342    18130    17940    17960    18211 
   18414    18288    17982    17844    17929    18096    18229    18214 
   18144    18281    18446    18215    17884    17950    18169    18188 
   18117    18076    18149    18304    18249    18011    18014    18227 
   18237    18068    18033    18133    18264    18409    18400    18176 
   18044    18148    18235    18104    17820    17628    17845    18427 
   18735    18370    17840    17743    18057    18399    18470    18418 
   18485    18369    17890    17578    17828    18360    18623    18338 
   17871    17883    18353    18492    18096    17856    18038    18241 
   18254    18191    18162    18166    18052    17768    17648    17953 
   18291    18296    18256    18330    18252    18023    17872    17891 
   18162    18607    18667    18094    17624    17878    18360    18349 
   17992    17910    18191    18388    18225    17911    17894    18208 
   18374    18229    18181    18385    18384    17949    17625    17903 
   18369    18345    17955    17914    18373    18671    18423    18079 
   18076    18254    18339    18280    18092    17886    17840    17936 
   17969    17980    18218    18551    18570    18320    18195    18266 
   18243    18004    17860    18081    18376    18308    17959    17710 
   17778    18083    18339    18354    18235    18223    18346    18342 
   18127    18034    18202    18341    18364    18377    18265    17990 
   17761    17720    17844    18049    18226    18234    18130    18196 
   18328    18099    17698    17730    18218    18647    18688    18401 
   18009    17726    17732    18017    18343    18420    18239    18131 
   18227    18310    18260    18180    18169    18091    17810    17577 
   17663    18006    18409    18562    18253    17856    17880    18188 
   18297    18108    17971    18195    18563    18573    18192    17971 
   18250    18650    18598    18118    17772    17930    18258    18226 
   17950    17973    18307    18389    18061    17901    18250    18616 
   18544    18260    18060    17933    17903    17991    18050    18019 
   17950    17855    17793    17898    18106    18196    18211    18303 
   18324    18212    18137    18100    18119    18293    18424    18272 
   18014    18007    18304    18526    18256    17779    17818    18296 
   18481    18289    18162    18191    18272    18382    18411    18296 
   18108    17887    17784    18010    18377    18495    18273    17891 
   17636    17716    17975    18064    17914    17772    17860    18100 
   18262    18268    18198    18177    18268    18362    18324    18219 
   18195    18268    18380    18457    18381    18157    17999    18027 
   18052    17988    18049    18220    18225    18071    18064    18307 
   18519    18409    18169    18153    18274    18264    18130    18025 
   18083    18324    18428    18080    17570    17456    17829    18183 
   18112    17895    17952    18152    18212    18184    18199    18270 
   18397    18463    18349    18262    18401    18509    18308    18017 
   18015    18196    18177    18029    18102    18303    18214    17864 
   17678    17784    17980    18115    18123    18091    18230    18481 
   18524    18299    18131    18212    18257    18061    17828    17771 
   17973    18292    18330    17990    17726    17841    17963    17766 
   17631    17925    18376    18554    18443    18396    18617    18883 
   18866    18517    18127    18033    18237    18415    18306    18023 
   17848    17803    17776    17790    17869    17964    18029    18037 
   18067    18299    18675    18832    18643    18376    18233    18219 
   18206    18027    17767    17605    17514    17456    17563    17851 
   18042    17945    17801    17907    18220    18600    18904    18906 
   18630    18384    18324    18401    18497    18438    18173    17936 
   17936    17995    17849    17668    17779    18076    18250    18295 
   18373    18496    18530    18400    18256    18223    18107    17784 
   17616    17884    18229    18231    17983    17744    17705    17952 
   18303    18511    18512    18323    18049    17863    17822    17948 
   18180    18304    18295    18408    18642    18679    18469    18265 
   18215    18246    18192    17967    17763    17838    18029    17928 
   17633    17612    17903    18166    18301    18453    18643    18694 
   18427    18004    17928    18239    18354    18096    17828    17699 
   17713    17860    17949    17956    18104    18408    18596    18477 
   18225    18153    18301    18497    18554    18370    18118    18025 
   18031    17979    17892    17910    18010    18031    18049    18245 
   18420    18312    18118    18125    18258    18326    18297    18207 
   18075    17971    17906    17791    17744    18011    18459    18601 
   18283    17937    18004    18411    18693    18528    18135    17982 
   18125    18199    17998    17795    17906    18118    18014    17694 
   17633    17918    18242    18441    18566    18635    18507    18153 
   17910    18060    18316    18191    17788    17658    17875    18034 
   18025    18080    18272    18436    18496    18615    18898    19048 
   18688    17992    17590    17760    18046    17950    17671    17718 
   18065    18216    18079    18026    18180    18405    18594    18584 
   18380    18202    18067    17913    17824    17775    17663    17587 
   17718    17956    18076    18129    18307    18608    18847    18862 
   18647    18387    18260    18183    17917    17528    17423    17718 
   18014    18017    17955    18123    18346    18270    18034    18088 
   18512    18870    18783    18443    18207    18013    17759    17651 
   17752    17882    17960    17990    18031    18234    18584    18823 
   18770    18569    18426    18300    18142    17998    17874    17837 
   17914    17932    17909    18104    18382    18334    18002    17756 
   17730    17826    17964    18126    18223    18207    18173    18107 
   17953    17840    17913    18218    18655    18877    18661    18312 
   18200    18245    18195    18057    18011    18114    18176    18063 
   17959    18052    18285    18492    18507    18361    18295    18385 
   18441    18362    18233    18099    17925    17709    17494    17339 
   17392    17687    17953    17982    17961    18168    18539    18771 
   18689    18376    18139    18227    18485    18535    18276    18023 
   18019    18022    17817    17671    17757    17926    18084    18215 
   18365    18565    18617    18428    18279    18307    18268    18076 
   17988    18063    18087    18014    18000    18099    18157    18041 
   17852    17848    18118    18372    18330    18165    18160    18264 
   18227    17969    17743    17775    17944    18091    18203    18256 
   18233    18179    18177    18299    18457    18486    18389    18330 
   18382    18380    18200    18085    18218    18333    18192    17960 
   17851    17890    18036    18148    18115    18087    18148    18129 
   18057    18139    18310    18347    18245    18173    18187    18139 
   17965    17851    17991    18237    18218    17967    17896    18077 
   18247    18262    18160    18129    18230    18249    18177    18276 
   18522    18565    18320    18191    18350    18376    18090    17867 
   17903    18015    18081    18080    17933    17756    17809    18013 
   18133    18153    18106    17988    17907    17965    18094    18162 
   18175    18168    18106    18018    18006    18075    18144    18188 
   18247    18311    18314    18316    18419    18472    18327    18208 
   18326    18466    18401    18231    18168    18291    18473    18505 
   18350    18145    18042    18133    18341    18384    18095    17737 
   17674    17799    17766    17599    17609    17824    17990    18026 
   18073    18187    18331    18449    18409    18254    18265    18430 
   18393    18064    17747    17753    18075    18335    18257    18042 
   18045    18218    18188    17965    17968    18234    18405    18399 
   18401    18480    18493    18280    18029    18125    18477    18609 
   18361    18050    18014    18161    18103    17832    17702    17820 
   18015    18122    18027    17836    17826    18021    18171    18177 
   18139    18122    18127    18139    18148    18184    18242    18185 
   18014    17982    18196    18397    18351    18216    18208    18270 
   18334    18391    18382    18312    18150    17902    17791    17926 
   18121    18203    18210    18274    18346    18225    17984    17919 
   18052    18161    18150    18087    18013    17948    17952    18040 
   18153    18270    18333    18252    18131    18162    18301    18374 
   18346    18288    18253    18219    18145    18049    18026    18133 
   18284    18334    18258    18203    18304    18441    18334    17971 
   17690    17747    17963    17977    17828    17895    18233    18501 
   18513    18350    18153    18069    18157    18268    18239    18104 
   17977    17961    18090    18216    18146    17905    17714    17717 
   17851    17977    18071    18254    18517    18603    18423    18225 
   18210    18262    18196    18099    18168    18381    18550    18500 
   18257    18044    17987    18022    18037    17940    17794    17783 
   17932    18071    18071    18025    18123    18330    18445    18427 
   18314    18126    18000    18065    18243    18343    18299    18168 
   18041    18054    18212    18261    18057    17840    17855    18053 
   18261    18349    18297    18222    18220    18256    18225    18121 
   18064    18057    17971    17838    17840    18019    18229    18285 
   18204    18231    18451    18542    18319    18119    18193    18319 
   18235    18003    17871    17933    18015    18003    17999    18067 
   18091    18060    18154    18385    18522    18472    18380    18376 
   18397    18277    18073    18042    18175    18187    18003    17874 
   17975    18156    18189    18068    17980    18052    18169    18162 
   18073    18069    18138    18083    17898    17894    18196    18465 
   18378    18108    18031    18148    18164    17990    17829    17880 
   18092    18237    18222    18192    18256    18327    18308    18246 
   18254    18364    18507    18509    18257    17968    17937    18029 
