Origin Time       2024/06/23 22:54:00
Lat.              35.645
Long.             140.060
Depth. (km)       72
Mag.              4.1
Station Code      TCG014
Station Lat.      36.5428
Station Long.     140.1804
Station Height(m) 139
Record Time       2024/06/23 22:54:55
Sampling Freq(Hz) 100Hz
Duration Time(s)  60
Dir.              E-W
Scale Factor      7845(gal)/8223790
Max. Acc. (gal)   4.171
Last Correction   2024/06/23 22:54:55
Memo.             
[...]
   -2863    -2664    -2261    -1814    -1559    -1578    -1788    -2112 
   -2448    -2598    -2478    -2254    -2149    -2185    -2215    -2108 
   -1912    -1783    -1811    -1948    -2083    -2193    -2293    -2281 
   -2141    -2041    -2074    -2188    -2290    -2361    -2404    -2363 
   -2254    -2143    -2011    -1873    -1775    -1710    -1764    -2019 
   -2366    -2609    -2570    -2224    -1869    -1798    -1938    -2118 
   -2303    -2446    -2467    -2367    -2204    -2081    -2037    -2016 
   -1957    -1840    -1759    -1814    -1969    -2157    -2322    -2420 
   -2459    -2409    -2242    -2142    -2245    -2358    -2315    -2165 
   -1972    -1760    -1584    -1582    -1850    -2253    -2515    -2547 
   -2485    -2367    -2147    -1977    -1966    -1956    -1867    -1826 
   -1953    -2242    -2575    -2781    -2713    -2336    -1842    -1575 
   -1683    -1968    -2185    -2282    -2292    -2173    -1925    -1688 
   -1599    -1723    -2076    -2525    -2905    -3133    -3117    -2787 
   -2224    -1594    -1112     -980    -1232    -1765    -2373    -2702 
   -2567    -2246    -2092    -2116    -2150    -2127    -2145    -2307 
   -2519    -2579    -2446    -2231    -1995    -1792    -1729    -1802 
   -1890    -1914    -1935    -2031    -2189    -2366    -2416    -2224 
   -1989    -1976    -2184    -2467    -2710    -2813    -2675    -2272 
   -1736    -1279    -1090    -1258    -1644    -2057    -2451    -2717 
   -2725    -2614    -2589    -2598    -2420    -2030    -1706    -1651 
   -1856    -2200    -2448    -2397    -2041    -1595    -1395    -1579 
   -1968    -2385    -2756    -2898    -2633    -2130    -1811    -1861 
   -2012    -2025    -2022    -2145    -2342    -2501    -2529    -2419 
   -2166    -1771    -1425    -1345    -1539    -1892    -2259    -2479 
   -2543    -2556    -2519    -2428    -2380    -2354    -2308    -2278 
   -2193    -1980    -1718    -1483    -1385    -1556    -1899    -2192 
   -2396    -2556    -2639    -2668    -2720    -2644    -2270    -1753 
   -1381    -1356    -1684    -2124    -2479    -2662    -2562    -2285 
   -2083    -1958    -1837    -1810    -1898    -2069    -2328    -2519 
   -2511    -2390    -2209    -1995    -1827    -1755    -1806    -1927 
   -2030    -2128    -2203    -2158    -2101    -2177    -2308    -2421 
   -2527    -2579    -2540    -2385    -2114    -1809    -1591    -1572 
   -1741    -1950    -2119    -2219    -2182    -2133    -2255    -2443 
   -2474    -2284    -1983    -1786    -1779    -1919    -2182    -2479 
   -2623    -2579    -2469    -2335    -2116    -1810    -1632    -1726 
   -1885    -1987    -2111    -2145    -2047    -2010    -2097    -2251 
   -2411    -2469    -2374    -2164    -1956    -1926    -2052    -2192 
   -2361    -2455    -2299    -2054    -1960    -1948    -1935    -1969 
   -1992    -1988    -2077    -2191    -2201    -2192    -2172    -2073 
   -2018    -2128    -2351    -2543    -2578    -2466    -2290    -2103 
   -2037    -2119    -2073    -1761    -1409    -1239    -1320    -1695 
   -2276    -2794    -3114    -3275    -3222    -2903    -2404    -1822 
   -1270     -922     -895    -1237    -1883    -2528    -2829    -2751 
   -2548    -2361    -2108    -1873    -1865    -2072    -2316    -2498 
   -2585    -2519    -2301    -2025    -1773    -1634    -1664    -1796 
   -1918    -1953    -1907    -1898    -2002    -2203    -2482    -2764 
   -2879    -2759    -2513    -2270    -2016    -1742    -1625    -1745 
   -1906    -2022    -2122    -2127    -2114    -2174    -2193    -2174 
   -2203    -2184    -2081    -2088    -2282    -2489    -2551    -2415 
   -2146    -1883    -1664    -1572    -1753    -2060    -2200    -2227 
   -2331    -2461    -2417    -2149    -1868    -1769    -1788    -1926 
   -2249    -2547    -2627    -2601    -2593    -2550    -2354    -1993 
   -1651    -1456    -1390    -1525    -1900    -2255    -2328    -2147 
   -1939    -1929    -2155    -2540    -2921    -3025    -2756    -2297 
   -1819    -1520    -1578    -1834    -2092    -2365    -2513    -2309 
   -1833    -1414    -1337    -1624    -2123    -2659    -2948    -2841 
   -2555    -2365    -2358    -2417    -2330    -2076    -1777    -1449 
   -1255    -1449    -1858    -2123    -2276    -2432    -2494    -2446 
   -2385    -2335    -2282    -2165    -1957    -1823    -1885    -2010 
   -2076    -2110    -2100    -2095    -2261    -2490    -2538    -2498 
   -2444    -2189    -1799    -1584    -1622    -1767    -1935    -2151 
   -2403    -2570    -2524    -2301    -2045    -1833    -1749    -1856 
   -2131    -2490    -2766    -2841    -2667    -2182    -1557    -1107 
    -969    -1189    -1753    -2423    -2914    -3142    -3138    -2955 
   -2641    -2277    -1962    -1699    -1447    -1283    -1301    -1513 
   -1869    -2231    -2467    -2528    -2466    -2397    -2388    -2419 
   -2415    -2304    -2146    -2046    -2014    -2015    -1999    -1917 
   -1792    -1718    -1792    -2023    -2297    -2508    -2592    -2498 
   -2331    -2245    -2235    -2245    -2263    -2193    -1972    -1701 
   -1464    -1344    -1491    -1879    -2331    -2763    -3090    -3164 
   -2922    -2458    -1968    -1571    -1310    -1297    -1525    -1809 
   -2072    -2323    -2516    -2662    -2689    -2496    -2266    -2176 
   -2149    -2133    -2108    -1989    -1773    -1587    -1553    -1690 
   -1912    -2143    -2388    -2587    -2636    -2593    -2575    -2559 
   -2408    -2080    -1760    -1653    -1772    -1996    -2208    -2324 
   -2269    -2022    -1782    -1771    -1898    -2019    -2184    -2381 
   -2469    -2415    -2332    -2251    -2149    -2085    -2100    -2157 
   -2182    -2072    -1921    -1911    -1958    -1969    -2012    -2049 
   -2014    -2008    -2214    -2624    -2895    -2748    -2332    -1919 
   -1644    -1594    -1771    -2014    -2143    -2177    -2250    -2308 
   -2196    -1944    -1741    -1759    -1998    -2289    -2536    -2718 
   -2725    -2494    -2197    -2050    -2046    -2043    -2025    -2066 
   -2099    -1989    -1779    -1618    -1572    -1645    -1861    -2174 
   -2477    -2666    -2644    -2502    -2478    -2562    -2573    -2428 
   -2130    -1760    -1478    -1475    -1790    -2160    -2284    -2150 
   -1948    -1807    -1782    -1938    -2285    -2652    -2821    -2778 
   -2639    -2413    -2174    -2070    -2002    -1796    -1563    -1455 
   -1480    -1657    -1980    -2320    -2492    -2428    -2307    -2305 
   -2394    -2496    -2566    -2504    -2293    -2110    -2062    -2025 
   -1863    -1656    -1541    -1557    -1692    -1907    -2146    -2381 
   -2567    -2643    -2673    -2756    -2805    -2654    -2347    -2022 
   -1682    -1313    -1061    -1081    -1356    -1732    -2092    -2446 
   -2695    -2733    -2724    -2809    -2857    -2755    -2519    -2185 
   -1791    -1449    -1377    -1632    -1942    -2093    -2119    -2077 
   -2029    -2072    -2230    -2421    -2546    -2544    -2413    -2184 
   -1966    -1877    -1906    -2007    -2112    -2101    -1976    -1871 
   -1864    -1989    -2200    -2292    -2239    -2254    -2366    -2428 
   -2419    -2389    -2367    -2370    -2305    -2085    -1846    -1742 
   -1737    -1749    -1769    -1865    -2026    -2106    -2131    -2246 
   -2343    -2304    -2241    -2211    -2181    -2182    -2258    -2392 
   -2486    -2430    -2250    -2115    -2084    -2031    -1891    -1756 
   -1682    -1653    -1713    -1900    -2174    -2423    -2575    -2637 
   -2575    -2367    -2196    -2239    -2343    -2292    -2107    -1888 
   -1674    -1520    -1520    -1688    -1911    -2116    -2340    -2592 
   -2803    -2891    -2778    -2471    -2087    -1714    -1436    -1412 
   -1710    -2133    -2397    -2425    -2344    -2293    -2290    -2266 
   -2184    -2104    -2033    -1937    -1908    -1973    -1987    -1958 
   -2035    -2178    -2251    -2223    -2108    -1987    -2016    -2223 
   -2478    -2646    -2624    -2442    -2249    -2134    -2070    -2030 
   -1972    -1817    -1593    -1509    -1653    -1877    -2085    -2295 
   -2438    -2436    -2339    -2253    -2251    -2305    -2336    -2344 
   -2317    -2226    -2145    -2118    -2097    -2076    -2053    -1989 
   -1883    -1772    -1717    -1777    -1927    -2093    -2309    -2552 
   -2675    -2663    -2575    -2385    -2146    -1976    -1868    -1803 
   -1779    -1740    -1746    -1885    -2100    -2334    -2550    -2650 
   -2592    -2396    -2120    -1904    -1840    -1838    -1814    -1818 
   -1945    -2168    -2328    -2392    -2455    -2481    -2353    -2097 
   -1850    -1733    -1783    -1960    -2230    -2494    -2592    -2546 
   -2489    -2430    -2308    -2077    -1763    -1532    -1479    -1502 
   -1548    -1722    -2015    -2303    -2548    -2749    -2789    -2596 
   -2315    -2110    -2010    -2003    -2093    -2236    -2303    -2223 
   -2084    -1925    -1730    -1653    -1836    -2133    -2332    -2413 
   -2451    -2506    -2574    -2548    -2381    -2128    -1857    -1652 
   -1525    -1486    -1564    -1678    -1790    -1999    -2343    -2727 
   -2961    -2979    -2916    -2776    -2469    -2108    -1818    -1601 
   -1483    -1443    -1458    -1620    -1923    -2189    -2292    -2232 
   -2127    -2131    -2286    -2554    -2837    -2928    -2698    -2305 
   -2031    -1950    -1917    -1854    -1788    -1687    -1570    -1526 
   -1598    -1804    -2080    -2295    -2455    -2597    -2650    -2597 
   -2512    -2450    -2405    -2313    -2174    -2072    -2020    -1992 
   -1995    -2002    -1945    -1840    -1772    -1765    -1784    -1863 
   -1989    -2084    -2181    -2332    -2516    -2700    -2770    -2635 
   -2404    -2201    -2012    -1853    -1779    -1767    -1750    -1733 
   -1790    -1988    -2292    -2562    -2685    -2646    -2444    -2135 
   -1896    -1823    -1827    -1875    -2003    -2130    -2166    -2133 
   -2083    -2107    -2211    -2269    -2265    -2253    -2178    -2053 
   -1983    -2003    -2123    -2290    -2357    -2276    -2133    -2008 
   -1976    -2029    -2066    -2053    -2023    -1965    -1899    -1966 
   -2185    -2376    -2412    -2343    -2296    -2334    -2409    -2500 
   -2600    -2612    -2440    -2146    -1861    -1645    -1497    -1409 
   -1356    -1347    -1405    -1559    -1818    -2096    -2330    -2602 
   -2948    -3234    -3375    -3360    -3123    -2656    -2150    -1786 
   -1483    -1111     -774     -711    -1039    -1661    -2328    -2781 
   -2880    -2727    -2609    -2743    -3037    -3231    -3181    -2867 
   -2374    -1902    -1541    -1231     -967     -791     -699     -741 
   -1023    -1525    -2060    -2536    -3028    -3427    -3485    -3321 
   -3194    -3030    -2714    -2342    -1965    -1552    -1161     -961 
   -1051    -1297    -1489    -1636    -1911    -2355    -2826    -3157 
   -3322    -3381    -3261    -2895    -2500    -2215    -1869    -1394 
    -885     -414     -117     -121     -500    -1351    -2508    -3537 
   -4178    -4390    -4159    -3689    -3283    -2983    -2635    -2127 
   -1486     -841     -314       41      164      -45     -537    -1150 
   -1871    -2686    -3423    -4016    -4495    -4739    -4607    -4155 
   -3542    -2855    -2101    -1344     -730     -280       85      292 
     207     -117     -604    -1273    -2091    -2926    -3603    -3990 
   -4133    -4153    -4117    -3960    -3559    -2940    -2261    -1647 
   -1179     -831     -494     -187      -22      -29     -244     -789 
   -1682    -2716    -3635    -4284    -4603    -4533    -4018    -3204 
   -2470    -2087    -2031    -2046    -1825    -1310     -693     -172 
      83      -68     -598    -1302    -2042    -2790    -3478    -4032 
   -4455    -4753    -4827    -4487    -3573    -2166     -610      733 
    1532     1555      935       14    -1074    -2326    -3538    -4444 
   -5013    -5346    -5381    -4968    -4110    -2970    -1736     -606 
     203      514      380       90     -180     -477     -922    -1570 
   -2288    -2963    -3686    -4324    -4525    -4307    -3948    -3541 
   -3079    -2529    -1819     -951     -103      432      434     -125 
   -1163    -2377    -3265    -3588    -3524    -3271    -2876    -2438 
   -2139    -2033    -1941    -1733    -1521    -1483    -1684    -2099 
   -2625    -3019    -2988    -2466    -1734    -1216    -1263    -1912 
   -2759    -3291    -3269    -2783    -2139    -1559    -1152    -1024 
   -1102    -1237    -1491    -1958    -2547    -3011    -3084    -2701 
   -2115    -1679    -1621    -1933    -2438    -2893    -3079    -2972 
   -2691    -2311    -1946    -1722    -1637    -1682    -1784    -1799 
   -1745    -1701    -1657    -1741    -2029    -2367    -2652    -2857 
   -2940    -2907    -2793    -2608    -2330    -1891    -1270     -612 
    -275     -480     -996    -1490    -1927    -2328    -2647    -3028 
   -3631    -4279    -4610    -4422    -3874    -3199    -2362    -1366 
    -436      210      421      170     -441    -1356    -2396    -3203 
   -3601    -3562    -3011    -2072    -1161     -687     -812    -1421 
   -2188    -2735    -2864    -2713    -2593    -2605    -2558    -2428 
   -2531    -3076    -3878    -4500    -4465    -3516    -1898     -283 
     702      957      739      247     -399    -1102    -1788    -2297 
   -2519    -2592    -2762    -3090    -3429    -3688    -3954    -4311 
   -4669    -4768    -4375    -3393    -1922     -402      668     1124 
    1071      772      562      444      -71    -1378    -3300    -5201 
   -6381    -6505    -5659    -4191    -2637    -1451     -776     -518 
    -477     -477     -499     -707    -1337    -2415    -3561    -4171 
   -3848    -2805    -1728    -1170    -1271    -1854    -2548    -2906 
   -2633    -1830     -950     -486     -639    -1219    -1919    -2496 
   -2706    -2589    -2486    -2536    -2636    -2737    -2768    -2668 
   -2536    -2451    -2430    -2508    -2598    -2571    -2488    -2438 
   -2309    -1871    -1073     -180      388      297     -533    -1799 
   -2999    -3707    -3792    -3504    -3213    -3114    -3225    -3356 
   -3177    -2539    -1676     -978     -652     -661     -851     -989 
    -895     -669     -565     -734    -1317    -2389    -3739    -4970 
   -5667    -5597    -4978    -4224    -3501    -2741    -1819     -716 
     342      992      997      469     -268     -970    -1522    -1917 
   -2253    -2614    -2967    -3281    -3635    -4086    -4515    -4673 
   -4455    -3974    -3250    -2207     -976      236     1282     1956 
    2043     1447      210    -1416    -3038    -4411    -5502    -6200 
   -6286    -5699    -4595    -3284    -2135    -1324     -800     -479 
    -278      -97      102      303      411      180     -577    -1771 
   -3152    -4382    -5144    -5402    -5335    -5061    -4537    -3623 
   -2313     -880      348     1123     1325     1055      492     -240 
   -1021    -1794    -2601    -3492    -4469    -5416    -5994    -5879 
   -4989    -3477    -1782     -390      506      862      670      159 
    -311     -598     -801    -1094    -1629    -2488    -3615    -4858 
   -5949    -6473    -6197    -5267    -3936    -2400     -905      315 
    1155     1595     1684     1452      862      -14     -985    -1898 
   -2694    -3385    -4027    -4702    -5429    -5979    -6025    -5495 
   -4498    -3194    -1880     -812      -18      534      858      962 
     800      338     -395    -1327    -2285    -3060    -3514    -3609 
   -3541    -3568    -3622    -3499    -3192    -2724    -2150    -1649 
   -1318    -1156    -1198    -1474    -1942    -2533    -3075    -3299 
   -3141    -2832    -2542    -2227    -1829    -1402    -1023     -669 
    -396     -330     -423     -585     -826    -1209    -1898    -2914 
   -3997    -4947    -5682    -5956    -5537    -4482    -3038    -1557 
    -372      346      596      507      257      -51     -438     -961 
   -1576    -2150    -2612    -3003    -3373    -3727    -4085    -4418 
   -4509    -4203    -3631    -2902    -2023    -1127     -388       60 
     110     -233     -828    -1456    -1911    -2141    -2214    -2182 
   -2122    -2155    -2384    -2852    -3499    -4122    -4494    -4467 
   -3991    -3138    -2004     -703      519     1345     1551     1031 
    -132    -1636    -3095    -4205    -4799    -4923    -4742    -4290 
   -3530    -2575    -1548     -562       89      245       52     -382 
   -1028    -1817    -2637    -3319    -3769    -4055    -4168    -4058 
   -3793    -3402    -2821    -2077    -1266     -456      206      519 
     400     -105     -849    -1564    -2091    -2509    -2971    -3568 
   -4247    -4672    -4529    -3901    -3141    -2509    -2035    -1615 
   -1182     -708     -240       63       40     -346    -1054    -1892 
   -2581    -3041    -3406    -3802    -4244    -4546    -4469    -3915 
   -2949    -1829     -935     -476     -305     -143       29      -14 
    -454    -1304    -2417    -3433    -4037    -4270    -4301    -4152 
   -3747    -3044    -2151    -1287     -602     -143       44     -102 
    -633    -1436    -2243    -2906    -3393    -3622    -3605    -3501 
   -3381    -3172    -2747    -2093    -1444    -1027     -819     -723 
    -724     -858    -1213    -1803    -2470    -3005    -3253    -3208 
   -3006    -2775    -2586    -2444    -2295    -2096    -1850    -1599 
   -1399    -1294    -1343    -1607    -2018    -2359    -2516    -2574 
   -2573    -2447    -2241    -2083    -2022    -2029    -2052    -2072 
   -2079    -2026    -1946    -1991    -2219    -2554    -2897    -3098 
   -3028    -2689    -2226    -1844    -1644    -1586    -1587    -1529 
   -1356    -1273    -1485    -1937    -2477    -2916    -3018    -2766 
   -2381    -2031    -1748    -1588    -1656    -1950    -2286    -2492 
   -2554    -2524    -2447    -2366    -2311    -2234    -2041    -1741 
   -1476    -1377    -1443    -1586    -1741    -1921    -2138    -2401 
   -2740    -3076    -3235    -3184    -3029    -2810    -2506    -2146 
   -1701    -1150     -718     -633     -785     -999    -1336    -1883 
   -2571    -3285    -3846    -4079    -3978    -3572    -2902    -2158 
   -1544    -1073     -693     -479     -529     -751    -1027    -1421 
   -1952    -2443    -2791    -3040    -3221    -3354    -3434    -3435 
   -3358    -3179    -2871    -2502    -2115    -1613     -996     -440 
    -108     -105     -525    -1327    -2272    -3087    -3654    -3948 
   -3892    -3477    -2786    -1892    -1000     -437     -361     -648 
   -1093    -1601    -2124    -2625    -3069    -3410    -3597    -3605 
   -3419    -3084    -2710    -2344    -1950    -1522    -1107     -781 
    -625     -661     -931    -1437    -2039    -2558    -2905    -3068 
   -3107    -3073    -2940    -2698    -2424    -2165    -1933    -1773 
   -1699    -1648    -1561    -1464    -1435    -1520    -1729    -2065 
   -2425    -2652    -2739    -2782    -2839    -2902    -2937    -2909 
   -2760    -2440    -2002    -1551    -1144     -832     -712     -815 
   -1102    -1512    -1911    -2201    -2381    -2481    -2616    -2929 
   -3349    -3636    -3665    -3520    -3280    -2909    -2408    -1799 
   -1050     -253      326      472      149     -537    -1424    -2317 
   -3076    -3684    -4117    -4278    -4178    -3917    -3477    -2822 
   -2047    -1286     -693     -380     -322     -491     -853    -1264 
