Origin Time       2024/06/23 22:54:00
Lat.              35.645
Long.             140.060
Depth. (km)       72
Mag.              4.1
Station Code      TCG014
Station Lat.      36.5428
Station Long.     140.1804
Station Height(m) 139
Record Time       2024/06/23 22:54:55
Sampling Freq(Hz) 100Hz
Duration Time(s)  60
Dir.              N-S
Scale Factor      7845(gal)/8223790
Max. Acc. (gal)   3.949
Last Correction   2024/06/23 22:54:55
Memo.             
[...]
    2897     3083     3433     3707     3732     3561     3284     2965 
    2663     2492     2528     2671     2817     3057     3460     3838 
    3952     3750     3385     3068     2894     2874     2967     3069 
    3091     3110     3245     3385     3352     3180     3002     2864 
    2786     2836     3056     3323     3429     3303     3100     3048 
    3246     3555     3685     3476     3082     2755     2632     2747 
    2999     3207     3318     3360     3325     3248     3218     3213 
    3140     3053     3033     2991     2932     3064     3419     3723 
    3744     3458     2974     2516     2313     2423     2727     3110 
    3566     3977     4113     3978     3707     3299     2835     2548 
    2501     2596     2806     3084     3289     3334     3272     3210 
    3175     3100     2891     2635     2697     3242     3861     4143 
    4151     3946     3422     2812     2554     2628     2700     2714 
    2758     2779     2805     2936     3132     3284     3427     3619 
    3739     3658     3451     3195     2933     2816     2899     3079 
    3262     3395     3416     3337     3202     3014     2814     2721 
    2712     2741     2903     3196     3473     3624     3611     3464 
    3249     3048     2988     3099     3268     3415     3484     3412 
    3254     3092     2921     2789     2756     2748     2735     2812 
    3057     3446     3755     3789     3640     3387     3028     2764 
    2740     2809     2884     3048     3246     3365     3474     3588 
    3537     3337     3186     3087     2960     2907     2992     3098 
    3186     3237     3102     2840     2710     2767     2891     3040 
    3241     3485     3635     3585     3431     3323     3277     3292 
    3384     3484     3469     3283     3001     2759     2590     2485 
    2559     2879     3222     3375     3406     3354     3140     2899 
    2902     3156     3461     3635     3592     3419     3308     3288 
    3254     3248     3287     3188     2952     2772     2647     2547 
    2594     2836     3152     3408     3568     3568     3387     3250 
    3289     3325     3302     3280     3142     2901     2851     3068 
    3314     3487     3636     3632     3312     2830     2547     2601 
    2803     2965     3046     3067     3106     3234     3447     3632 
    3658     3515     3242     2879     2597     2614     2949     3358 
    3585     3612     3564     3450     3194     2907     2805     2841 
    2895     2998     3122     3187     3218     3214     3126     3006 
    2994     3114     3211     3221     3226     3256     3273     3322 
    3464     3554     3431     3211     3029     2860     2733     2718 
    2785     2864     3014     3250     3396     3462     3586     3607 
    3408     3210     3090     2933     2866     3069     3339     3456 
    3510     3481     3196     2782     2519     2434     2478     2740 
    3100     3348     3555     3771     3836     3784     3758     3611 
    3230     2847     2594     2446     2482     2709     2991     3225 
    3312     3225     3119     3138     3179     3165     3288     3620 
    3890     3902     3720     3375     2889     2475     2362     2547 
    2840     3033     3019     2860     2744     2852     3227     3746 
    4140     4156     3794     3298     2903     2729     2794     2983 
    3095     3073     3022     3011     3014     2983     2953     3045 
    3234     3348     3375     3427     3478     3474     3439     3349 
    3137     2862     2662     2608     2725     2984     3272     3518 
    3662     3592     3346     3119     2982     2945     3032     3126 
    3129     3115     3109     3067     3053     3129     3196     3200 
    3248     3316     3294     3242     3257     3292     3271     3126 
    2847     2623     2686     2976     3276     3480     3609     3673 
    3586     3342     3098     2948     2871     2899     3034     3144 
    3132     3032     2906     2829     2856     2972     3195     3485 
    3697     3751     3658     3433     3130     2883     2778     2741 
    2735     2822     3011     3257     3477     3581     3558     3451 
    3326     3213     3087     2991     2976     2991     2963     2849 
    2735     2805     3045     3258     3408     3542     3582     3500 
    3434     3416     3348     3231     3122     3003     2893     2867 
    2936     2994     2990     2976     2934     2812     2745     2913 
    3298     3717     3935     3823     3511     3240     3090     2997 
    2948     2937     2959     3061     3231     3335     3335     3326 
    3284     3099     2848     2714     2766     2959     3165     3258 
    3307     3406     3454     3350     3172     3076     3065     3065 
    3160     3352     3400     3267     3145     3046     2906     2855 
    2982     3154     3264     3292     3199     3028     2918     2948 
    3127     3410     3623     3623     3470     3283     3071     2853 
    2737     2718     2668     2646     2845     3230     3596     3844 
    3921     3766     3478     3264     3154     3069     3019     2990 
    2894     2728     2600     2575     2647     2775     2921     3110 
    3429     3835     4141     4203     4031     3716     3368     3061 
    2810     2624     2504     2407     2380     2506     2725     2921 
    3105     3338     3593     3767     3832     3873     3873     3712 
    3376     2991     2679     2469     2401     2525     2725     2857 
    2970     3153     3408     3635     3705     3635     3586     3580 
    3505     3330     3053     2720     2506     2523     2659     2747 
    2810     2995     3269     3501     3680     3811     3859     3835 
    3724     3449     3046     2736     2713     2897     3017     2960 
    2797     2583     2421     2466     2744     3126     3433     3576 
    3642     3750     3851     3897     3955     3939     3674     3211 
    2741     2419     2280     2262     2301     2347     2404     2570 
    2963     3532     4013     4195     4132     3959     3686     3352 
    3160     3144     3098     2984     2870     2740     2670     2727 
    2797     2833     2957     3168     3319     3391     3435     3415 
    3375     3437     3561     3577     3438     3215     2913     2598 
    2400     2331     2405     2721     3204     3613     3825     3890 
    3844     3667     3435     3308     3298     3241     3049     2802 
    2628     2614     2754     2968     3187     3250     3055     2829 
    2860     3094     3339     3586     3843     3916     3676     3288 
    2970     2787     2731     2755     2803     2901     3092     3261 
    3283     3252     3295     3395     3507     3549     3387     3046 
    2739     2631     2728     2953     3219     3446     3572     3577 
    3493     3350     3142     2903     2735     2725     2822     2906 
    2959     3052     3208     3408     3605     3738     3734     3545 
    3264     3051     2944     2922     2968     3007     2984     2922 
    2848     2795     2837     2957     3087     3244     3408     3453 
    3346     3235     3261     3379     3466     3465     3360     3233 
    3199     3173     3061     2976     3002     3057     3082     3078 
    3026     2944     2905     2916     2938     3038     3272     3492 
    3527     3411     3235     3091     3109     3300     3508     3546 
    3366     3098     2911     2872     2898     2884     2818     2732 
    2720     2899     3217     3527     3758     3832     3723     3554 
    3379     3149     2949     2868     2845     2828     2822     2814 
    2867     3049     3234     3298     3331     3416     3447     3368 
    3289     3289     3321     3325     3226     2982     2762     2771 
    2940     3098     3198     3200     3105     3061     3129     3226 
    3335     3468     3561     3555     3424     3203     3022     2944 
    2884     2818     2825     2889     2902     2897     3017     3277 
    3520     3584     3478     3353     3285     3249     3256     3289 
    3210     2997     2866     2887     2897     2841     2817     2860 
    2957     3146     3418     3663     3835     3916     3834     3581 
    3284     3034     2808     2601     2515     2531     2516     2529 
    2705     2972     3258     3558     3754     3761     3620     3446 
    3406     3519     3631     3659     3534     3192     2766     2463 
    2367     2461     2636     2794     2970     3172     3326     3426 
    3466     3414     3327     3299     3331     3375     3381     3348 
    3296     3257     3229     3138     2967     2802     2747     2793 
    2836     2880     3002     3126     3199     3327     3510     3576 
    3497     3412     3379     3377     3365     3267     3092     2974 
    2928     2899     2894     2903     2883     2852     2836     2818 
    2857     3069     3389     3667     3873     3932     3757     3485 
    3280     3117     3022     3064     3087     2941     2756     2636 
    2560     2636     2901     3140     3223     3273     3362     3429 
    3469     3520     3551     3516     3410     3238     3069     3011 
    3007     2953     2922     3002     3113     3154     3134     3111 
    3117     3148     3168     3141     3079     3011     3005     3118 
    3245     3229     3103     3014     3018     3083     3172     3271 
    3380     3514     3632     3638     3532     3441     3377     3222 
    2933     2631     2489     2538     2666     2798     2917     2974 
    2933     2875     2920     3088     3353     3662     3910     4048 
    4101     4035     3832     3534     3161     2801     2562     2436 
    2362     2367     2497     2668     2814     3001     3211     3350 
    3472     3647     3816     3982     4198     4320     4143     3690 
    3140     2612     2169     1858     1726     1764     1935     2245 
    2647     3096     3630     4159     4490     4565     4407     4010 
    3511     3199     3163     3153     2978     2706     2457     2272 
    2243     2493     2955     3400     3666     3736     3721     3738 
    3727     3585     3343     3049     2729     2525     2563     2762 
    2932     2932     2785     2671     2736     3024     3518     4048 
    4368     4392     4203     3909     3537     3034     2496     2120 
    1892     1740     1798     2177     2747     3254     3549     3618 
    3551     3542     3732     4018     4174     4135     3960     3669 
    3285     2894     2539     2218     1985     1983     2261     2648 
    2953     3171     3377     3573     3701     3812     4039     4297 
    4368     4263     4072     3701     3029     2181     1491     1189 
    1275     1633     2025     2263     2500     3002     3778     4635 
    5368     5729     5545     4955     4229     3446     2659     2016 
    1603     1409     1409     1548     1680     1787     2100     2704 
    3423     4153     4787     5111     5054     4761     4452     4229 
    3985     3568     2986     2373     1845     1521     1543     1879 
    2250     2446     2508     2593     2825     3307     3991     4599 
    4865     4719     4194     3451     2828     2606     2799     3210 
    3549     3574     3253     2803     2551     2605     2774     2845 
    2778     2590     2338     2263     2602     3268     3933     4349 
    4469     4245     3662     3094     2952     3126     3362     3557 
    3505     3088     2548     2205     2200     2496     2857     3034 
    3010     2929     2884     2947     3163     3403     3542     3634 
    3686     3631     3530     3468     3391     3258     3159     3141 
    3091     2960     2839     2802     2909     3117     3190     2968 
    2608     2374     2430     2847     3559     4276     4664     4580 
    4144     3612     3194     2949     2783     2593     2413     2286 
    2200     2174     2199     2234     2374     2776     3379     3920 
    4307     4630     4808     4684     4337     3912     3472     3109 
    2829     2559     2419     2539     2702     2628     2374     2160 
    2106     2313     2809     3379     3751     3855     3805     3771 
    3847     3986     4035     3790     3245     2727     2535     2679 
    2991     3203     3161     2953     2679     2413     2358     2632 
    2967     3067     3053     3060     2974     2840     2872     3123 
    3476     3773     3963     4029     3902     3627     3391     3337 
    3392     3383     3292     3213     3177     3211     3245     3064 
    2621     2195     2076     2315     2760     3198     3419     3348 
    3150     3022     3030     3229     3608     4039     4414     4635 
    4626     4357     3767     2878     1877      989      421      396 
    1058     2214     3485     4595     5236     5134     4444     3628 
    3069     2924     3102     3304     3303     3203     3188     3171 
    2995     2717     2571     2727     3088     3406     3566     3570 
    3358     2917     2439     2220     2462     3153     4012     4584 
    4603     4178     3570     2983     2542     2215     1884     1674 
    1864     2397     3037     3757     4496     4915     4681     3915 
    3152     2785     2794     3017     3299     3437     3315     3026 
    2745     2558     2424     2293     2212     2277     2515     2890 
    3319     3654     3717     3465     3103     2949     3163     3639 
    4156     4614     4966     5043     4702     4014     3142     2188 
    1259      518      124      241      992     2228     3453     4232 
    4577     4702     4743     4873     5254     5772     6034     5694 
    4625     2936     1058     -375     -980     -874     -390      337 
    1340     2656     4167     5524     6362     6551     6185     5402 
    4345     3310     2612     2331     2381     2598     2677     2380 
    1850     1393     1243     1678     2786     4141     5174     5576 
    5275     4460     3538     2817     2354     2115     2081     2192 
    2335     2459     2597     2763     2988     3381     3927     4384 
    4556     4468     4225     3913     3658     3512     3358     2998 
    2326     1505      891      734     1105     1923     2965     3939 
    4592     4849     4797     4583     4384     4326     4303     4125 
    3766     3279     2632     1919     1409     1197     1192     1344 
    1620     1934     2288     2813     3572     4418     5096     5441 
    5454     5231     4932     4630     4182     3512     2698     1787 
     943      483      534      985     1687     2516     3304     3881 
    4162     4210     4267     4476     4699     4789     4708     4348 
    3677     2940     2332     1796     1348     1129     1163     1464 
    2123     3080     4051     4747     5047     4914     4486     4106 
    3877     3582     3157     2752     2459     2324     2431     2732 
    2974     2964     2764     2496     2242     2173     2408     2770 
    3040     3237     3484     3802     4054     4068     3866     3626 
    3477     3427     3407     3360     3245     3033     2817     2816 
    3163     3707     4097     4079     3619     2853     2065     1540 
    1344     1372     1614     2116     2782     3430     3935     4194 
    4237     4230     4270     4357     4479     4552     4460     4224 
    3937     3555     3002     2327     1691     1312     1270     1405 
    1483     1449     1499     1841     2544     3566     4645     5377 
    5607     5529     5343     5089     4757     4237     3393     2328 
    1329      669      490      738     1236     1848     2543     3323 
    4055     4572     4861     4958     4834     4500     4041     3554 
    3127     2862     2790     2802     2749     2538     2195     1826 
    1482     1320     1582     2192     2874     3561     4259     4878 
    5375     5687     5618     5103     4313     3469     2747     2253 
    1914     1582     1247      967      830      994     1574     2485 
    3499     4403     5081     5467     5493     5186     4735     4255 
    3712     3125     2551     2046     1782     1850     2110     2394 
    2624     2758     2855     3051     3361     3677     3916     4000 
    3819     3441     3115     2968     2956     2984     2952     2847 
    2789     2901     3127     3326     3474     3580     3582     3514 
    3462     3446     3460     3472     3354     3034     2623     2236 
    1912     1763     1854     2058     2327     2822     3586     4390 
    5003     5385     5517     5289     4691     3839     2843     1875 
    1151      746      665      907     1394     2062     2898     3751 
    4374     4689     4837     4959     5067     5098     4947     4465 
    3643     2679     1738      924      463      492      861     1425 
    2234     3234     4202     5013     5620     5875     5625     4928 
    3989     2990     2126     1568     1343     1359     1497     1691 
    1983     2481     3180     3913     4522     4915     5039     4946 
    4677     4236     3727     3241     2770     2319     1925     1690 
    1699     1903     2285     2799     3191     3273     3183     3122 
    3152     3291     3516     3654     3526     3241     3051     3026 
    3105     3273     3500     3709     3869     3888     3686     3372 
    3122     3037     3125     3252     3254     3111     2871     2593 
    2386     2353     2504     2774     3121     3474     3665     3658 
    3612     3582     3514     3419     3346     3280     3186     3107 
    3056     2965     2853     2770     2689     2610     2570     2559 
    2594     2751     3094     3550     3959     4234     4360     4230 
    3778     3168     2647     2277     2007     1899     2065     2427 
    2826     3257     3717     4079     4224     4163     3973     3738 
    3555     3442     3331     3164     2938     2736     2660     2716 
    2813     2890     2921     2924     2992     3159     3312     3408 
    3451     3362     3175     3037     2959     2856     2728     2604 
    2489     2465     2632     2984     3424     3850     4205     4499 
    4714     4743     4475     3909     3196     2546     2083     1783 
    1574     1463     1534     1782     2146     2651     3260     3832 
    4347     4804     5062     5066     4909     4594     4102     3539 
    2982     2457     2061     1860     1782     1710     1661     1736 
    1942     2295     2824     3439     4028     4531     4814     4772 
    4486     4078     3578     3060     2687     2513     2442     2419 
    2465     2554     2586     2535     2547     2770     3126     3414 
    3558     3618     3651     3693     3771     3888     3990     3964 
    3778     3554     3361     3123     2789     2420     2093     1880 
    1872     2070     2394     2809     3241     3586     3882     4191 
    4410     4406     4197     3869     3508     3161     2830     2540 
    2342     2236     2203     2317     2620     2944     3157     3354 
    3627     3904     4066     4039     3812     3415     2964     2627 
    2451     2374     2362     2376     2415     2575     2897     3288 
    3642     3894     4014     4037     4025     3974     3809     3526 
    3240     3013     2808     2662     2693     2875     3002     2965 
    2855     2756     2709     2775     2928     3083     3237     3419 
    3636     3846     3937     3890     3775     3603     3341     3002 
    2637     2274     1954     1799     1883     2214     2759     3360 
    3820     4094     4216     4185     4029     3848     3690     3474 
