Origin Time       2024/06/23 22:54:00
Lat.              35.645
Long.             140.060
Depth. (km)       72
Mag.              4.1
Station Code      TCG009
Station Lat.      36.7261
Station Long.     139.7159
Station Height(m) 361
Record Time       2024/06/23 22:55:04
Sampling Freq(Hz) 100Hz
Duration Time(s)  60
Dir.              U-D
Scale Factor      7845(gal)/8223790
Max. Acc. (gal)   1.769
Last Correction   2024/06/23 22:55:03
Memo.             
[...]
    7257     7369     7581     7685     7580     7387     7265     7290 
    7434     7587     7674     7709     7677     7568     7464     7453 
    7512     7541     7479     7366     7256     7184     7179     7211 
    7280     7438     7641     7759     7739     7601     7441     7396 
    7496     7649     7780     7835     7744     7489     7110     6779 
    6762     7113     7593     7924     7985     7821     7564     7321 
    7134     7064     7164     7356     7519     7639     7719     7761 
    7767     7699     7558     7435     7344     7242     7190     7267 
    7469     7666     7686     7511     7325     7260     7288     7349 
    7427     7511     7584     7639     7669     7674     7649     7561 
    7429     7300     7222     7273     7439     7565     7596     7593 
    7542     7458     7399     7345     7319     7395     7493     7542 
    7584     7585     7468     7326     7285     7362     7497     7580 
    7560     7512     7462     7404     7438     7551     7554     7441 
    7358     7302     7275     7380     7595     7743     7705     7515 
    7329     7308     7481     7715     7813     7677     7410     7211 
    7190     7292     7377     7379     7354     7376     7445     7522 
    7582     7593     7541     7491     7512     7558     7531     7464 
    7454     7454     7345     7195     7176     7318     7550     7809 
    7996     7967     7715     7441     7300     7233     7148     7113 
    7184     7304     7427     7537     7620     7672     7669     7643 
    7619     7564     7520     7533     7541     7538     7549     7488 
    7291     7033     6889     7003     7326     7636     7825     7908 
    7867     7685     7447     7291     7275     7329     7383     7441 
    7497     7516     7501     7470     7419     7369     7371     7437 
    7527     7577     7587     7607     7589     7461     7285     7176 
    7176     7321     7581     7812     7879     7769     7578     7431 
    7366     7326     7280     7317     7426     7445     7344     7272 
    7321     7458     7618     7719     7713     7643     7522     7334 
    7203     7256     7441     7584     7568     7462     7383     7369 
    7457     7596     7650     7591     7464     7361     7380     7460 
    7496     7499     7499     7484     7479     7507     7547     7566 
    7528     7431     7325     7257     7272     7379     7523     7653 
    7701     7651     7550     7402     7268     7236     7253     7285 
    7380     7483     7514     7506     7547     7678     7793     7743 
    7543     7352     7292     7403     7623     7786     7757     7570 
    7322     7079     6934     6982     7194     7425     7600     7744 
    7807     7749     7657     7585     7522     7460     7427     7446 
    7434     7341     7268     7258     7233     7214     7291     7441 
    7587     7713     7820     7850     7746     7526     7296     7156 
    7148     7269     7430     7550     7658     7723     7672     7582 
    7561     7545     7426     7209     7032     7063     7285     7547 
    7735     7763     7641     7481     7376     7383     7510     7626 
    7607     7510     7441     7439     7458     7456     7437     7381 
    7269     7192     7250     7434     7659     7780     7696     7531 
    7515     7666     7800     7773     7574     7236     6868     6689 
    6828     7237     7704     7971     7940     7777     7704     7728 
    7722     7604     7360     7078     6907     6917     7106     7411 
    7677     7804     7807     7724     7616     7534     7481     7441 
    7375     7268     7204     7284     7468     7603     7587     7469 
    7376     7379     7457     7549     7622     7672     7695     7681 
    7593     7412     7195     7025     6976     7086     7317     7593 
    7825     7919     7852     7705     7568     7474     7414     7365 
    7317     7290     7307     7369     7488     7645     7732     7638 
    7414     7261     7291     7447     7592     7596     7476     7345 
    7265     7269     7369     7487     7558     7612     7673     7719 
    7708     7597     7369     7096     6909     6921     7155     7510 
    7851     8070     8075     7873     7592     7338     7160     7125 
    7218     7333     7416     7483     7543     7573     7539     7461 
    7358     7272     7302     7476     7669     7773     7744     7578 
    7373     7302     7400     7547     7604     7516     7342     7234 
    7303     7466     7568     7566     7476     7327     7227     7292 
    7534     7813     7913     7755     7456     7169     7044     7137 
    7349     7527     7597     7608     7636     7670     7692     7680 
    7569     7393     7285     7264     7280     7345     7443     7493 
    7442     7357     7354     7461     7615     7709     7673     7522 
    7333     7219     7253     7392     7566     7704     7712     7585 
    7420     7334     7396     7541     7618     7550     7364     7168 
    7094     7176     7350     7551     7719     7789     7751     7657 
    7565     7501     7439     7348     7249     7200     7246     7389 
    7574     7726     7766     7663     7500     7406     7404     7434 
    7456     7435     7360     7294     7319     7437     7554     7569 
    7456     7288     7203     7284     7499     7770     8010     8060 
    7844     7485     7152     6967     6970     7102     7318     7592 
    7798     7815     7681     7531     7454     7419     7356     7273 
    7253     7360     7576     7780     7830     7715     7516     7307 
    7156     7106     7133     7222     7371     7537     7670     7743 
    7743     7690     7600     7468     7330     7258     7281     7384 
    7523     7596     7522     7372     7288     7331     7453     7568 
    7658     7736     7790     7767     7623     7406     7226     7125 
    7092     7146     7292     7492     7690     7835     7862     7724 
    7474     7244     7121     7136     7254     7385     7481     7557 
    7604     7615     7601     7569     7530     7477     7416     7411 
    7491     7588     7611     7541     7437     7346     7292     7298 
    7354     7445     7576     7682     7682     7601     7518     7453 
    7381     7299     7240     7248     7326     7438     7541     7578 
    7522     7442     7447     7561     7696     7726     7589     7373 
    7253     7287     7366     7429     7501     7539     7488     7418 
    7423     7526     7681     7758     7650     7400     7146     7021 
    7110     7372     7653     7793     7738     7585     7495     7514 
    7558     7535     7445     7329     7234     7219     7296     7420 
    7533     7600     7600     7534     7462     7454     7518     7614 
    7649     7555     7406     7339     7387     7470     7487     7407 
    7317     7318     7426     7562     7635     7608     7508     7371 
    7263     7264     7368     7522     7668     7720     7662     7574 
    7484     7379     7291     7240     7233     7294     7393     7495 
    7608     7726     7786     7746     7614     7473     7400     7381 
    7381     7387     7392     7389     7361     7287     7218     7258 
    7412     7565     7653     7693     7704     7693     7649     7561 
    7464     7373     7275     7198     7196     7300     7491     7695 
    7813     7784     7627     7426     7265     7194     7211     7272 
    7341     7431     7538     7616     7646     7639     7591     7522 
    7465     7420     7403     7458     7561     7631     7609     7506 
    7368     7254     7211     7241     7306     7380     7469     7537 
    7558     7560     7560     7562     7568     7545     7504     7516 
    7568     7562     7474     7366     7288     7260     7295     7383 
    7500     7611     7654     7595     7466     7345     7308     7389 
    7537     7673     7731     7690     7578     7442     7335     7276 
    7242     7233     7260     7315     7407     7510     7582     7627 
    7623     7555     7492     7499     7543     7573     7549     7484 
    7445     7430     7423     7456     7518     7561     7543     7447 
    7319     7240     7252     7341     7412     7422     7425     7447 
    7508     7623     7724     7726     7618     7453     7323     7287 
    7345     7479     7627     7712     7724     7668     7510     7260 
    7033     6975     7118     7358     7558     7646     7641     7626 
    7646     7651     7611     7569     7546     7495     7375     7249 
    7250     7391     7526     7547     7479     7398     7376     7412 
    7466     7526     7554     7503     7399     7338     7406     7577 
    7709     7697     7582     7466     7400     7364     7321     7271 
    7264     7349     7506     7632     7653     7581     7476     7393 
    7383     7425     7479     7526     7531     7496     7468     7470 
    7489     7501     7488     7422     7329     7287     7312     7361 
    7427     7518     7607     7645     7607     7542     7528     7576 
    7624     7603     7503     7406     7380     7423     7504     7562 
    7510     7335     7148     7051     7084     7244     7469     7673 
    7796     7819     7766     7686     7622     7543     7391     7196 
    7065     7049     7156     7387     7650     7796     7762     7588 
    7381     7311     7446     7666     7803     7785     7647     7470 
    7333     7263     7223     7184     7157     7171     7265     7446 
    7661     7816     7803     7605     7381     7288     7329     7461 
    7636     7751     7782     7777     7727     7650     7574     7434 
    7229     7094     7111     7227     7326     7335     7267     7171 
    7122     7225     7488     7770     7913     7854     7680     7537 
    7461     7384     7292     7229     7254     7376     7537     7692 
    7811     7828     7690     7430     7180     7084     7173     7392 
    7668     7892     7954     7816     7550     7310     7183     7153 
    7188     7267     7376     7499     7574     7561     7484     7396 
    7337     7329     7408     7582     7770     7871     7848     7701 
    7441     7164     7021     7072     7248     7429     7533     7576 
    7616     7645     7604     7489     7364     7302     7330     7435 
    7584     7700     7686     7524     7295     7152     7198     7341 
    7481     7630     7736     7716     7627     7527     7384     7230 
    7145     7160     7275     7452     7630     7774     7866     7842 
    7643     7341     7132     7165     7389     7595     7650     7618 
    7595     7601     7624     7632     7576     7437     7248     7075 
    6971     6959     7079     7338     7639     7888     8054     8082 
    7916     7600     7267     7044     6953     6945     7024     7233 
    7577     7959     8183     8095     7753     7339     7068     7071 
    7271     7445     7464     7362     7281     7319     7433     7522 
    7555     7542     7510     7524     7614     7700     7717     7699 
    7662     7596     7466     7225     6971     6907     7048     7254 
    7453     7631     7831     8068     8228     8168     7869     7385 
    6847     6485     6486     6831     7334     7790     8039     8014 
    7825     7642     7519     7484     7542     7588     7539     7420 
    7314     7284     7312     7318     7281     7225     7192     7218 
    7275     7369     7554     7770     7932     8066     8154     8056 
    7707     7257     6949     6878     6990     7184     7333     7364 
    7281     7113     7009     7198     7666     8109     8224     7962 
    7520     7130     6941     7042     7414     7893     8255     8303 
    8021     7593     7231     7044     7041     7161     7303     7380 
    7385     7376     7396     7415     7369     7294     7300     7414 
    7577     7755     7870     7831     7685     7560     7503     7469 
    7346     7117     6929     6934     7113     7361     7630     7888 
    8039     7986     7771     7522     7321     7202     7209     7334 
    7484     7537     7427     7218     7063     7072     7230     7480 
    7771     8036     8166     8125     7959     7711     7396     7041 
    6752     6664     6772     7018     7427     7919     8284     8419 
    8305     7950     7468     6982     6555     6322     6471     7006 
    7653     8095     8164     7912     7564     7331     7304     7465 
    7689     7807     7749     7601     7522     7541     7514     7299 
    6951     6669     6643     6967     7554     8166     8579     8649 
    8357     7844     7272     6741     6373     6277     6469     6878 
    7402     7969     8522     8923     8985     8610     7881     7003 
    6235     5825     5887     6347     7006     7618     8013     8198 
    8226     8093     7888     7738     7597     7360     7091     7015 
    7267     7684     8010     8158     8102     7808     7375     7037 
    6928     6979     7052     7065     7048     7047     7048     7040 
    7128     7387     7717     7974     8121     8159     8105     8009 
    7888     7724     7504     7261     7145     7242     7431     7537 
    7468     7264     7086     7015     6976     6972     7086     7218 
    7196     7114     7238     7653     8197     8645     8869     8829 
    8503     7955     7352     6833     6436     6173     6122     6319 
    6650     6957     7221     7555     8064     8675     9128     9121 
    8545     7618     6774     6373     6502     6944     7350     7546 
    7626     7735     7913     8148     8345     8282     7813     7059 
    6303     5822     5745     5999     6446     6988     7561     8087 
    8519     8892     9216     9323     8996     8274     7407     6642 
    6147     6022     6245     6666     7092     7418     7655     7866 
    8055     8135     8008     7639     7064     6435     6053     6224 
    6984     8017     8856     9193     9023     8532     7928     7402 
    7080     6964     6940     6905     6814     6720     6767     6998 
    7238     7322     7246     7163     7310     7776     8356     8719 
    8726     8475     8059     7518     6987     6644     6592     6832 
    7240     7632     7877     7906     7773     7592     7420     7312 
    7317     7373     7408     7395     7265     7007     6799     6818 
    7067     7445     7842     8162     8371     8453     8318     7897 
    7283     6669     6241     6138     6423     7006     7693     8283 
    8596     8549     8212     7738     7326     7121     7115     7227 
    7380     7481     7453     7290     7090     7015     7175     7542 
    7950     8183     8125     7796     7344     6955     6752     6771 
    6978     7321     7743     8143     8407     8463     8236     7716 
    7063     6505     6188     6158     6380     6758     7250     7857 
    8473     8885     8901     8473     7796     7194     6876     6878 
    7109     7381     7546     7566     7458     7273     7088     6976 
    6990     7160     7466     7840     8194     8444     8540     8456 
    8166     7684     7060     6393     5892     5759     6050     6706 
    7589     8473     9107     9300     9007     8295     7358     6519 
    6042     5960     6162     6540     6987     7442     7909     8337 
    8610     8673     8556     8260     7844     7454     7149     6898 
    6705     6600     6612     6770     7063     7429     7786     8001 
    7960     7719     7466     7358     7449     7662     7857     7950 
    7932     7776     7464     7083     6816     6793     7014     7323 
    7545     7626     7642     7717     7861     7956     7906     7699 
    7416     7204     7115     7068     7028     7051     7156     7295 
    7433     7611     7844     8037     8101     8004     7715     7290 
    6890     6648     6625     6856     7271     7682     7946     8004 
    7854     7584     7353     7291     7398     7597     7819     8027 
    8208     8310     8229     7921     7426     6855     6370     6134 
    6241     6656     7190     7607     7781     7727     7569     7439 
    7422     7538     7757     8012     8197     8182     7965     7655 
    7315     6971     6717     6660     6841     7214     7649     7996 
    8147     8075     7828     7524     7310     7237     7242     7254 
    7284     7365     7465     7499     7453     7398     7425     7538 
    7658     7726     7738     7693     7588     7433     7272     7163 
    7090     6995     6891     6868     7011     7314     7685     8021 
    8229     8247     8091     7847     7578     7345     7214     7225 
    7315     7353     7273     7150     7113     7229     7461     7700 
    7851     7871     7777     7616     7427     7256     7192     7294 
    7497     7641     7620     7472     7296     7167     7117     7161 
    7288     7470     7685     7897     8063     8128     8014     7716 
    7335     6995     6774     6710     6806     7036     7342     7668 
    7955     8121     8082     7854     7537     7238     7063     7101 
    7318     7547     7643     7601     7495     7383     7327     7379 
    7551     7797     7983     8004     7866     7615     7267     6906 
    6670     6616     6732     7009     7433     7951     8417     8621 
    8451     7994     7460     7049     6836     6794     6870     6997 
    7138     7311     7510     7695     7820     7828     7703     7515 
    7344     7236     7183     7152     7159     7263     7483     7769 
    8025     8176     8181     8031     7731     7314     6895     6636 
    6621     6808     7109     7470     7816     8064     8154     8036 
    7738     7369     7080     6988     7076     7225     7357     7456 
    7528     7569     7560     7560     7646     7794     7938     8017 
    7950     7724     7418     7096     6836     6720     6752     6907 
    7163     7460     7747     7983     8095     8054     7924     7792 
    7668     7530     7412     7326     7223     7103     7024     7028 
    7132     7291     7408     7457     7493     7560     7669     7803 
    7921     7967     7862     7566     7183     6909     6855     6999 
    7258     7515     7678     7724     7690     7650     7639     7593 
    7452     7241     7080     7079     7244     7480     7707     7890 
    8016     8036     7884     7562     7195     6960     6934     7059 
    7227     7372     7457     7508     7566     7611     7587     7461 
    7280     7168     7236     7458     7728     7955     8067     8008 
    7785     7483     7194     7011     6998     7128     7306     7458 
    7558     7607     7631     7646     7616     7518     7403     7345 
    7329     7339     7404     7492     7549     7587     7630     7685 
    7755     7801     7773     7661     7465     7219     7017     6944 
    7006     7140     7263     7333     7384     7458     7526     7539 
    7492     7425     7415     7511     7658     7778     7832     7825 
    7776     7685     7543     7369     7207     7123     7171     7331 
    7504     7587     7555     7445     7275     7102     7032     7121 
    7358     7684     7974     8113     8064     7842     7528     7249 
    7084     7056     7146     7298     7449     7595     7747     7854 
    7850     7724     7503     7244     7045     6993     7078     7238 
    7422     7604     7769     7885     7912     7830     7662     7466 
    7315     7258     7292     7371     7441     7485     7512     7522 
    7516     7480     7381     7250     7150     7098     7103     7195 
    7357     7519     7649     7767     7848     7839     7734     7554 
