Origin Time       2024/06/23 22:54:00
Lat.              35.645
Long.             140.060
Depth. (km)       72
Mag.              4.1
Station Code      TCG009
Station Lat.      36.7261
Station Long.     139.7159
Station Height(m) 361
Record Time       2024/06/23 22:55:04
Sampling Freq(Hz) 100Hz
Duration Time(s)  60
Dir.              E-W
Scale Factor      7845(gal)/8223790
Max. Acc. (gal)   3.874
Last Correction   2024/06/23 22:55:03
Memo.             
[...]
    1332     1192     1124     1259     1493     1605     1532     1363 
    1196     1094     1058     1027      985      950      912      889 
     923     1032     1210     1339     1310     1269     1356     1501 
    1594     1576     1417     1229     1148     1129     1055      955 
     912      911      947     1080     1260     1370     1374     1250 
    1046      976     1100     1236     1289     1273     1210     1171 
    1152     1085     1069     1174     1262     1300     1375     1426 
    1417     1406     1327     1148      997      950     1017     1182 
    1323     1314     1194     1032      873      839      989     1192 
    1347     1420     1413     1389     1329     1243     1232     1277 
    1286     1237     1140     1031      966      967      996     1016 
    1043     1123     1291     1424     1350     1216     1228     1277 
    1282     1332     1401     1413     1333     1124      904      870 
     953     1009     1105     1202     1159     1086     1101     1136 
    1223     1362     1432     1449     1437     1335     1262     1277 
    1224     1144     1174     1196     1146     1117     1061      978 
    1013     1093     1115     1150     1183     1158     1142     1158 
    1163     1197     1290     1366     1348     1266     1216     1275 
    1390     1426     1351     1256     1154      967      800      816 
     942     1050     1132     1186     1220     1282     1360     1405 
    1394     1340     1335     1414     1435     1337     1237     1113 
     922      826      881      946     1035     1190     1256     1185 
    1127     1146     1161     1108     1078     1186     1385     1524 
    1512     1394     1248     1100     1020     1092     1197     1209 
    1237     1310     1323     1312     1285     1142      966      942 
    1043     1111     1112     1146     1283     1441     1447     1267 
    1028      838      799      969     1242     1431     1458     1395 
    1298     1209     1263     1422     1448     1337     1250     1185 
    1067      903      761      722      805      967     1155     1317 
    1420     1478     1506     1449     1337     1296     1290     1225 
    1148     1113     1104     1082     1050     1059     1084     1120 
    1217     1298     1275     1205     1193     1243     1267     1252 
    1252     1277     1271     1165     1024      985     1013     1015 
    1038     1161     1290     1316     1308     1336     1352     1340 
    1331     1324     1278     1193     1151     1151     1086      988 
     973     1024     1074     1096     1081     1088     1150     1213 
    1271     1347     1404     1399     1345     1275     1260     1340 
    1424     1405     1293     1128      950      820      804      892 
     980     1008     1026     1102     1236     1297     1275     1339 
    1464     1522     1556     1572     1499     1356     1175      963 
     799      776      866      980     1051     1088     1135     1192 
    1216     1244     1321     1425     1503     1486     1383     1324 
    1305     1220     1121     1100     1132     1112      969      865 
     946     1063     1119     1169     1167     1105     1100     1170 
    1259     1312     1310     1305     1318     1339     1381     1360 
    1174      969      922     1031     1235     1394     1362     1204 
    1096     1113     1208     1290     1345     1364     1298     1200 
    1177     1209     1224     1197     1156     1148     1147     1117 
    1094     1075     1017      967      965     1009     1144     1298 
    1345     1329     1297     1251     1259     1286     1267     1266 
    1274     1227     1156     1092     1035     1040     1131     1235 
    1287     1271     1209     1179     1202     1204     1175     1171 
    1188     1204     1219     1236     1246     1209     1190     1266 
    1318     1252     1156     1090     1063     1104     1175     1200 
    1174     1129     1059     1000     1020     1098     1162     1205 
    1239     1260     1269     1271     1248     1190     1155     1192 
    1297     1435     1536     1537     1452     1344     1248     1188 
    1170     1162     1131     1061      958      876      853      865 
     884      891      897      962     1101     1233     1313     1352 
    1377     1437     1547     1660     1733     1734     1651     1487 
    1246      961      729      594      553      634      799      961 
    1109     1224     1306     1386     1425     1426     1451     1474 
    1455     1394     1279     1132     1032      993      982     1028 
    1151     1256     1262     1219     1151     1031      961     1048 
    1224     1345     1321     1206     1159     1236     1367     1440 
    1366     1200     1089     1098     1169     1225     1266     1294 
    1264     1219     1204     1167     1089      996      911      919 
    1038     1159     1204     1201     1217     1248     1277     1341 
    1425     1449     1397     1306     1220     1173     1169     1183 
    1152     1026      880      814      816      889     1061     1244 
    1333     1329     1285     1266     1331     1459     1571     1597 
    1521     1379     1209     1063     1030     1092     1131     1123 
    1082      967      843      850      955     1057     1143     1205 
    1233     1277     1356     1424     1448     1439     1375     1256 
    1193     1228     1250     1212     1150     1043      965      989 
    1039     1115     1267     1383     1352     1217     1055      918 
     855      903     1042     1213     1358     1432     1439     1444 
    1483     1478     1387     1278     1202     1163     1143     1124 
    1086     1003      908      909     1026     1156     1227     1250 
    1255     1258     1264     1277     1314     1362     1350     1250 
    1115     1021     1030     1139     1267     1347     1343     1232 
    1077      982      965      986     1032     1101     1170     1205 
    1188     1121     1040     1030     1128     1273     1418     1543 
    1617     1634     1575     1449     1316     1167     1017      927 
     873      855      919     1004     1040     1097     1209     1310 
    1382     1439     1429     1325     1204     1175     1212     1174 
    1034      885      816      870     1030     1225     1386     1466 
    1441     1328     1216     1201     1255     1279     1256     1202 
    1104      989      946     1024     1150     1220     1264     1360 
    1463     1495     1462     1379     1281     1221     1158     1036 
     936      935      978     1001     1005     1028     1063     1090 
    1136     1231     1331     1335     1252     1189     1208     1304 
    1398     1416     1383     1341     1282     1255     1289     1305 
    1236     1128     1046      997     1004     1040      999      888 
     835      869      970     1150     1332     1408     1389     1367 
    1406     1497     1567     1549     1458     1345     1269     1237 
    1215     1188     1119      957      788      733      776      864 
     972     1066     1136     1202     1282     1363     1433     1475 
    1495     1506     1486     1399     1248     1097     1024     1005 
     949      888      939     1084     1198     1216     1146     1073 
    1084     1162     1263     1375     1458     1472     1405     1281 
    1197     1208     1235     1212     1179     1198     1251     1269 
    1224     1155     1111     1111     1146     1169     1143     1082 
     976      837      747      739      778      908     1148     1417 
    1649     1819     1898     1896     1830     1694     1485     1233 
    1027      938      931      895      772      638      598      676 
     820      961     1059     1142     1247     1378     1510     1603 
    1647     1655     1610     1522     1468     1444     1347     1123 
     869      719      706      776      865      934      969      976 
     999     1069     1181     1343     1482     1509     1522     1613 
    1667     1633     1555     1379     1138      980      911      869 
     858      827      769      788      927     1115     1277     1404 
    1522     1614     1647     1622     1537     1379     1167      938 
     764      700      714      760      845      965     1098     1246 
    1401     1505     1518     1513     1541     1570     1575     1548 
    1439     1220      946      719      639      726      903     1078 
    1204     1258     1297     1401     1544     1614     1540     1397 
    1293     1202     1080      959      845      743      702      730 
     859     1100     1313     1386     1395     1432     1480     1512 
    1533     1551     1551     1502     1360     1138      892      710 
     677      791      943     1036     1035      993     1020     1161 
    1327     1444     1498     1453     1348     1327     1425     1499 
    1440     1304     1182     1108     1078     1082     1081     1047 
    1019     1017     1013      955      864      812      828      912 
    1047     1193     1328     1448     1552     1645     1725     1757 
    1746     1718     1651     1503     1259      926      594      392 
     346      360      375      425      541      741     1011     1312 
    1617     1876     2022     2084     2162     2242     2199     2008 
    1755     1467     1128      793      542      415      413      475 
     554      668      788      855      885      927     1017     1178 
    1404     1641     1806     1857     1818     1688     1462     1210 
    1030      958     1007     1131     1246     1296     1247     1105 
     926      781      742      789      824      854      965     1150 
    1401     1701     1863     1803     1649     1458     1273     1205 
    1196     1140     1097     1061      957      845      801      811 
     849      949     1136     1356     1491     1472     1374     1362 
    1472     1588     1611     1506     1310     1139     1057     1048 
    1117     1202     1135      888      658      587      641      812 
    1116     1431     1613     1660     1582     1424     1317     1235 
    1047      854      784      738      684      749      989     1372 
    1817     2120     2164     2041     1844     1568     1244      988 
     855      760      641      561      548      557      589      692 
     866     1020     1088     1166     1363     1675     2037     2301 
    2292     2030     1660     1305     1093     1031      974      874 
     804      792      837      916      924      814      714      723 
     827     1031     1283     1425     1439     1493     1629     1748 
    1804     1779     1602     1308     1092     1035      946      704 
     450      349      454      697      915     1043     1194     1433 
    1725     2019     2220     2216     2030     1769     1537     1355 
    1121      764      378      103      -37      -72       70      421 
     882     1382     1868     2222     2384     2358     2130     1796 
    1541     1381     1188      954      757      540      259       75 
     163      514      967     1341     1640     1945     2139     2110 
    1972     1803     1597     1420     1256     1054      920      865 
     769      652      557      423      228       76      155      579 
    1275     1989     2428     2536     2524     2473     2268     1944 
    1644     1355     1027      762      645      575      410      117 
    -205     -341     -126      344      881     1395     1822     2096 
    2227     2330     2482     2581     2481     2145     1607     1058 
     769      724      635      382       47     -220     -255      -29 
     334      711      961     1031     1138     1526     2080     2543 
    2891     3110     3049     2673     2106     1507     1061      865 
     812      716      517      324      275      382      534      579 
     425      241      280      583     1053     1541     1853     1954 
    1910     1761     1647     1622     1497     1204      892      650 
     576      760     1042     1200     1217     1171     1098     1061 
    1092     1135     1165     1258     1480     1777     1973     1942 
    1728     1428     1154     1071     1252     1547     1773     1783 
    1491     1043      627      303      152      279      664     1181 
    1674     2000     2069     1856     1401      733      -70     -776 
   -1140    -1019     -364      664     1683     2377     2693     2767 
    2797     2916     3141     3353     3248     2629     1736      949 
     430      175       24     -249     -635     -905     -843     -309 
     577     1371     1698     1579     1293     1167     1348     1636 
    1750     1706     1599     1347     1023      970     1331     1881 
    2330     2560     2625     2546     2223     1636      957      352 
    -194     -653     -842     -756     -552     -259      153      696 
    1382     2047     2475     2762     3119     3476     3640     3559 
    3214     2554     1601      542     -344     -915    -1189    -1215 
   -1024     -696     -444     -452     -534     -346      129      765 
    1636     2733     3739     4345     4494     4221     3543     2644 
    1895     1513     1459     1574     1564     1231      679       43 
    -618    -1121    -1329    -1305    -1063     -504      319     1152 
    1748     2081     2307     2570     2895     3248     3549     3604 
    3235     2512     1637      792       58     -626    -1294    -1815 
   -2077    -2041    -1582     -699      275      996     1467     1934 
    2662     3711     4733     5252     5166     4652     3825     2781 
    1676      616     -368    -1152    -1526    -1441    -1085     -724 
    -548     -535     -460     -128      434     1089     1738     2313 
    2718     2938     3115     3321     3408     3191     2641     1938 
    1298      769      319      -52     -399     -742     -996    -1086 
    -963     -542      172     1111     2223     3377     4302     4765 
    4696     4179     3447     2749     2069     1197      137     -926 
   -1888    -2606    -2844    -2508    -1761     -922     -187      508 
    1305     2216     3103     3739     3990     3924     3607     3030 
    2296     1601     1074      738      552      486      495      490 
     415      338      388      643     1080     1602     2141     2632 
    2916     2866     2570     2187     1710     1042      248     -414 
    -739     -720     -464     -128      172      411      614      891 
    1360     1929     2335     2415     2188     1725     1115      538 
     162       31      121      356      683     1075     1425     1638 
    1768     1973     2417     3110     3793     4125     3989     3488 
    2714     1736      696     -240     -926    -1217    -1135     -895 
    -650     -409     -193      -14      178      344      498      841 
    1416     2016     2535     2932     3083     2960     2660     2253 
    1821     1459     1183     1008      918      834      727      607 
     450      253       54      -33      162      670     1339     1952 
    2309     2376     2351     2447     2636     2721     2546     2025 
    1132       52     -912    -1599    -1969    -1957    -1462     -506 
     675     1776     2648     3321     3835     4106     4020     3604 
    2955     2201     1568     1201      967      627      140     -351 
    -738     -981    -1051     -901     -498       86      733     1399 
    2016     2470     2722     2781     2648     2378     2030     1640 
    1271      966      695      496      498      733     1117     1545 
    1961     2346     2597     2567     2196     1545      758        4 
    -585     -922    -1024     -953     -656      -54      769     1614 
    2297     2759     3090     3294     3231     2890     2411     1894 
    1366      892      550      341      197       85       68      222 
     502      735      822      850      891      900      868      830 
     855     1075     1536     2064     2467     2698     2751     2592 
    2258     1833     1367      938      585      287       66      -72 
    -225     -356     -257      175      842     1561     2209     2778 
    3245     3484     3412     3018     2304     1371      476     -145 
    -460     -569     -540     -427     -302     -126      141      457 
     814     1223     1624     2003     2369     2577     2494     2184 
    1786     1417     1171     1071     1093     1224     1401     1521 
    1532     1448     1332     1262     1243     1200     1059      849 
     683      649      751      927     1101     1213     1240     1260 
    1390     1617     1825     1950     1960     1810     1556     1333 
    1232     1259     1293     1146      777      333      -32     -260 
    -372     -390     -321     -147      166      599     1073     1520 
    1923     2303     2629     2791     2743     2571     2384     2214 
    2042     1850     1655     1453     1223      981      815      754 
     741      722      731      808      891      882      749      526 
     294      112       63      292      800     1362     1775     1998 
    2018     1831     1544     1301     1178     1204     1312     1406 
    1507     1638     1684     1537     1202      781      429      310 
     522      969     1441     1846     2150     2258     2149     1919 
    1667     1443     1227      977      741      608      576      587 
     596      542      429      376      488      801     1235     1609 
    1829     1960     2046     2058     1988     1818     1482     1026 
     653      432      234      -10     -226     -268      -32      399 
     905     1505     2138     2597     2812     2870     2830     2733 
    2592     2338     1910     1377      869      395      -66     -414 
    -588     -610     -476     -211      171      723     1383     1987 
    2457     2767     2898     2857     2641     2288     1887     1476 
    1034      571      141     -184     -337     -287      -36      399 
     967     1514     1854     1989     2038     1988     1777     1480 
    1235     1088     1019      980      911      781      594      432 
     417      564      787     1053     1351     1647     1885     2033 
    2145     2266     2319     2227     1993     1661     1302      990 
     741      535      372      310      399      594      820     1065 
    1298     1436     1471     1456     1375     1239     1161     1192 
    1246     1212     1038      768      552      507      599      727 
     818      849      903     1113     1452     1772     2012     2182 
    2312     2497     2708     2710     2411     1948     1417      854 
     338     -120     -533     -805     -824     -592     -186      284 
     718     1075     1409     1765     2123     2407     2521     2400 
    2096     1817     1726     1787     1868     1861     1688     1381 
    1081      877      726      600      540      579      730      931 
    1043      989      788      499      248      151      232      460 
     791     1132     1439     1753     2069     2281     2317     2181 
    1921     1637     1412     1283     1275     1340     1385     1406 
    1436     1418     1333     1269     1269     1314     1393     1426 
    1306     1043      710      351       55      -55        9      153 
     373      680      981     1212     1401     1582     1791     2049 
    2272     2373     2354     2207     1896     1506     1177      907 
