Origin Time       2024/06/23 22:54:00
Lat.              35.645
Long.             140.060
Depth. (km)       72
Mag.              4.1
Station Code      TKY015
Station Lat.      35.7313
Station Long.     139.8119
Station Height(m) 4
Record Time       2024/06/23 22:54:36
Sampling Freq(Hz) 100Hz
Duration Time(s)  61
Dir.              N-S
Scale Factor      7845(gal)/8223790
Max. Acc. (gal)   3.058
Last Correction   2024/06/23 22:54:36
Memo.             
[...]
    1367     1290     1078      957     1017     1166     1402     1391 
    1054     1055     1256     1162     1185     1296     1119      928 
     993     1325     1609     1368      864      803     1228     1497 
    1266     1044     1186     1246     1125     1154     1235     1255 
    1287     1208     1139     1242     1181     1021     1104     1240 
    1274     1248     1200     1123      946      924     1262     1574 
    1459      999      719     1028     1486     1451     1047      818 
    1134     1719     1676      919      580     1028     1437     1374 
    1082     1012     1377     1667     1360      724      469     1090 
    1911     1706      907      666      919     1367     1633     1173 
     843     1372     1547      999      797     1024     1243     1325 
    1179      978     1034     1451     1733     1313      729      656 
     967     1593     1821      969      510     1270     1798     1614 
    1098      495      776     1628     1572     1061     1085     1248 
    1165     1026      990     1190     1485     1389     1047      922 
    1004     1273     1441     1229      926      828     1212     1676 
    1359      819      927     1336     1583     1324      724      743 
    1366     1640     1402     1053      903     1102     1324     1220 
    1008     1034     1297     1467     1233      888      990     1445 
    1586     1098      635      897     1462     1630     1318      874 
     846     1236     1370     1105     1026     1291     1417     1193 
     924      965     1290     1410     1152      972     1154     1409 
    1306     1040     1080     1227     1212     1220     1289     1275 
    1228     1163     1093     1144     1219     1228     1273     1232 
     994      888     1219     1571     1371      873      815     1293 
    1487     1094      862     1098     1453     1499     1058      757 
    1017     1302     1350     1278     1109     1058     1215     1317 
    1163     1012     1200     1420     1282      992      915     1169 
    1432     1448     1333     1003      770     1108     1431     1321 
    1173     1120     1167     1291     1208     1026     1107     1285 
    1297     1161      997     1097     1385     1379     1050      885 
    1107     1344     1313     1124     1030     1190     1328     1210 
    1096     1140     1166     1152     1250     1317     1275     1252 
    1173     1080     1070     1051     1113     1372     1525     1282 
    1004      988     1028     1190     1347     1213     1151     1216 
    1150     1140     1185     1159     1077     1003     1135     1397 
    1490     1239      908      992     1229     1169     1013     1102 
    1452     1561     1215      911      940     1225     1381     1147 
    1000     1202     1409     1374     1093      903     1135     1466 
    1320      958      994     1213     1310     1355     1236     1039 
    1000     1098     1274     1389     1260     1090     1169     1202 
     988      888     1058     1351     1444     1233     1159     1239 
    1155     1109     1140     1090     1166     1329     1375     1278 
    1069     1011     1174     1256     1193     1112     1123     1270 
    1308     1102     1044     1210     1213     1156     1225     1194 
    1158     1215     1143     1054     1070     1169     1331     1281 
    1090     1148     1290     1275     1240     1120      934     1050 
    1316     1337     1231     1139     1117     1204     1217     1135 
    1167     1228     1169     1175     1244     1181     1147     1298 
    1355     1171      949      947     1252     1444     1221     1000 
    1131     1329     1169      884      997     1348     1512     1386 
    1024      765      946     1339     1507     1298      943      954 
    1408     1560     1090      810     1123     1406     1333     1155 
    1023     1065     1309     1426     1225      939      922     1239 
    1397     1093      908     1316     1663     1304      853      872 
    1144     1503     1475      916      861     1491     1539      911 
     843     1294     1327     1115     1123     1204     1289     1227 
    1012     1074     1314     1275     1003      953     1325     1557 
    1182      776     1011     1486     1516     1221      942      886 
    1197     1445     1291     1154     1213     1169      989      970 
    1244     1501     1378     1007      862     1089     1374     1364 
    1067      959     1260     1510     1341      996      932     1190 
    1387     1305     1077      961     1040     1225     1366     1306 
    1132     1044     1090     1206     1273     1267     1279     1244 
    1096      996     1138     1379     1420     1285     1108      992 
    1185     1472     1174      672      927     1409     1324     1124 
    1111     1107     1101     1096     1124     1169     1220     1482 
    1823     1649      935      471      657     1148     1525     1524 
    1300     1147      981     1012     1399     1390      831      695 
    1082     1220     1317     1671     1444      714      689     1340 
    1721     1614     1416     1399     1445     1175      710      680 
     878      781      965     1588     1583      895      672     1048 
    1368     1574     1699     1572     1185      776      876     1399 
    1476     1036      814      957     1177     1305     1166     1065 
    1443     1674     1240      874     1015     1120      908      784 
    1032     1351     1381     1247     1308     1471     1354     1177 
    1335     1395     1217     1271     1215      828      765     1125 
    1502     1711     1432      596       81      557     1375     1776 
    1598     1031      907     1428     1626     1263     1057     1304 
    1453     1194     1042     1140     1061      719      567     1043 
    1738     1898     1559     1136      877     1074     1456     1242 
     785      893     1170     1233     1316     1305     1186     1189 
    1213     1166     1147     1121      993      811      737      873 
    1138     1341     1435     1331     1044     1062     1467     1674 
    1560     1448     1429     1375     1154     1043     1331     1467 
     980      500      639     1050     1205     1075     1097     1290 
    1205     1090     1301     1460     1283     1019     1081     1408 
    1463     1167     1040     1305     1479     1201      818      801 
    1150     1317     1115     1021     1217     1489     1545     1243 
     938      903      969      996     1059     1264     1433     1243 
     865      900     1447     1814     1584     1227     1173     1174 
    1089     1104     1124     1054      981     1009     1340     1629 
    1270      672      604      978     1266     1243     1040      926 
    1075     1305     1350     1283     1252     1345     1483     1390 
    1129      961      923     1054     1347     1668     1775     1395 
     816      689      958     1177     1209     1015      978     1466 
    1782     1375      915      942     1156     1287     1289     1165 
    1124     1174     1108     1082     1281     1399     1175      918 
     908     1012     1277     1714     1713      961      446     1027 
    1827     1815     1313      922      749      727      811      942 
     945      828      985     1468     1644     1259     1063     1472 
    1756     1472     1140     1108     1262     1483     1512     1166 
     868      916      866      607      675     1032     1244     1260 
    1124     1082     1555     2025     1625      915      857     1127 
    1162     1111     1204     1306     1212     1128     1327     1471 
    1201      882      953     1143     1138     1237     1464     1213 
     602      508     1097     1726     1800     1309      935      994 
    1027      943     1067     1377     1505     1235     1035     1451 
    1996     1765      889      405      669      907      718      773 
    1426     1965     1759     1165      880     1057     1291     1171 
     909     1012     1467     1830     1660     1108      990     1360 
    1266      712      611      996     1293     1543     1896     1841 
    1165      549      479      734      999     1282     1561     1503 
    1088      810      943     1225     1243     1081     1258     1645 
    1495      928      785     1040     1175     1216     1296     1267 
    1148     1227     1395     1228      851      820     1163     1223 
     888      946     1445     1726     1651     1233      787      919 
    1270     1127      824     1012     1428     1482     1420     1580 
    1574     1224      913      855     1013     1271     1418     1331 
    1132      989      950     1097     1262      940      399      542 
    1258     1741     1840     1728     1424     1057      884      926 
    1027     1092     1011      959     1298     1795     1941     1614 
    1013      660      916     1339     1448     1381     1235      861 
     417      373      896     1615     2087     2100     1715     1235 
     865      637      689     1074     1493     1642     1525     1294 
    1069      819      535      534      972     1462     1690     1651 
    1398     1125      980      940      994     1004      858      793 
     959     1121     1251     1417     1267      841      792     1224 
    1651     1771     1513     1104     1005     1274     1466     1328 
    1062      835      616      611     1007     1453     1605     1436 
    1067      999     1458     1786     1566     1277     1208      962 
     513      535     1075     1285      954      800     1254     1853 
    1976     1642     1206     1001     1224     1493     1466     1505 
    1698     1567     1092      776      789      762      557      591 
     942     1120     1039     1220     1742     1942     1490      907 
     733     1004     1390     1568     1556     1447     1092      598 
     546     1146     1656     1406      889      838     1104     1266 
    1217     1140     1286     1366     1030      723      923     1358 
    1510     1286     1012      977     1175     1255     1013      880 
    1186     1572     1624     1370     1132     1138     1273     1282 
    1077      828      776      935     1107     1177     1248     1379 
    1258      718      345      691     1408     1775     1570     1215 
    1194     1463     1641     1528     1270     1154     1143     1042 
    1032     1236     1378     1286     1097     1013     1032     1125 
    1424     1795     1826     1436     1003      907     1151     1385 
    1314     1101     1009      866      521      301      527     1109 
    1638     1780     1599     1466     1497     1448     1251     1092 
    1085     1223     1385     1318      920      565      637      999 
    1350     1545     1441     1104      940     1182     1493     1449 
    1171     1011      939      811      908     1428     1709     1251 
     787     1000     1490     1594     1259     1042     1259     1332 
     788      352      773     1495     1628     1200      899     1035 
    1159     1012     1013     1248     1314     1262     1428     1652 
    1563     1258     1075     1067     1047      938      963     1179 
    1221      961      811     1136     1548     1394      986     1040 
    1366     1424     1348     1476     1466      962      483      560 
     980     1264     1394     1613     1745     1552     1293     1287 
    1404     1348     1063      702      599      845     1011      947 
     974     1146     1332     1539     1642     1625     1692     1659 
    1289     1028     1244     1409     1073      707      747     1043 
    1332     1398     1298     1316     1289      837      368      538 
    1034     1198     1139     1301     1574     1605     1483     1485 
    1621     1571     1171      816      730      660      575      723 
    1028     1151     1210     1467     1567     1314     1159     1248 
    1370     1449     1448     1362     1173      850      654      924 
    1401     1432     1035      826      978     1244     1502     1679 
    1655     1355      819      369      338      569      758      984 
    1398     1683     1611     1624     1803     1717     1472     1377 
    1270     1009      855      905      934     1100     1435     1397 
     903      521      541      803     1102     1236     1192     1277 
    1410     1273     1221     1672     2118     2035     1771     1691 
    1696     1548     1156      781      584      432      399      637 
     919      996     1096     1402     1611     1556     1478     1568 
    1611     1302      897      819      922      851      629      652 
    1183     1786     1888     1717     1625     1435     1073      873 
    1023     1279     1390     1123      434      -43       66      209 
      56      114      783     1676     2177     1933     1000       22 
    -384     -324     -220      -72      344      837     1201     1495 
    1761     2056     2416     2752     2964     3221     3585     3654 
    3146     2238     1343      696      280      243      638     1152 
    1560     1892     2176     2311     2143     1691     1178      970 
    1283     1802     2173     2536     2810     2504     1607      627 
    -147     -745    -1216    -1617    -1865    -1621     -700      369 
     854      985     1412     2033     2435     2485     2149     1283 
     112     -635     -695     -373      155      831     1536     2066 
    2031     1300      421       -6       70      588     1668     3152 
    4287     4386     3595     2415     1058     -121     -652     -564 
     -90      715     1682     2459     2820     2866     2670     2056 
    1175      511      213       28     -276     -677    -1011     -891 
      27     1453     2798     3654     3909     3680     2997     2002 
    1182      818      648      504      517      604      548      375 
     245      247      325      313      187      129      324      853 
    1593     2230     2447     2246     2056     2060     2052     1956 
    1833     1756     1755     1715     1451      874      271       91 
     418      854     1007     1094     1525     2115     2454     2501 
    2475     2316     1668      700      232      502      695      287 
    -176     -133      180      324      255      260      722     1605 
    2305     2400     1989     1499     1213     1117     1232     1237 
     800      295       47       44      183      213       56       -6 
     553     1760     2833     3145     2799     2400     2397     2673 
    2551     1750      930      534      452      504      537      483 
     357      471      842     1201     1802     2420     2547     2444 
    2272     1799     1059      444      168      241      710     1216 
    1271     1061     1123     1364     1305     1089     1081     1296 
    1549     1648     1580     1293      688       70       16      488 
     834      889      930     1136     1594     2072     2300     2362 
    2381     2304     1983     1229      284     -483    -1105    -1309 
    -989     -631     -248      299      901     1551     2197     2652 
    2710     2508     2361     2172     1885     1775     1840     1869 
    1881     1895     1815     1593     1139      580      492      997 
    1296      953      453      194       91       97      244      426 
     765     1426     2126     2536     2512     2130     1668     1340 
    1263     1188      804      545      827     1089      853      556 
     579      805     1040     1242     1460     1641     1873     2122 
    2003     1514      926      418      168      178      473      870 
     891      741      753      685      658      928     1331     1664 
    1809     2072     2633     2829     2489     2235     2131     1767 
    1285     1139     1081      719      344      268      341      413 
     774     1421     1692     1291      606      139       93      299 
     456      519      662      861      978     1008     1061     1171 
    1227     1355     1769     2196     2327     2231     2060     1868 
    1594     1328     1216     1036      668      351      267      475 
     849     1038     1059     1297     1591     1591     1578     1790 
    2142     2525     2550     2166     1764     1379      950      650 
     562      469      211       94      425     1016     1383     1297 
    1082     1202     1594     1740     1412      996      886     1062 
    1325     1409     1119      700      491      542      753     1028 
    1316     1449     1443     1561     1701     1618     1551     1674 
    1669     1389     1046      688      359      252      450      693 
     673      488      319      267      526      988     1301     1386 
    1347     1329     1402     1332     1036      969     1306     1610 
    1682     1695     1883     2068     1877     1840     2261     2281 
    1603     1001      899      756      402      306      364      515 
    1039     1551     1429     1042     1003      858      660     1340 
    2286     2323     1965     2170     2641     2475     1711     1205 
    1256     1372     1169      716      247      -45     -378     -858 
    -818     -221      318      754     1063     1387     1853     2034 
    2103     2359     2274     1791     1559     1640     1582     1240 
     739      376      527      982     1101      706      318      495 
    1059     1648     2177     2371     2176     2004     1985     1952 
    1841     1667     1348      819      457      688     1151     1034 
     271     -174      261      814      811      693      954     1447 
    1825     1884     1679     1314      931      947     1416     1834 
    1860     1530     1181      985      792      768     1098     1329 
    1082      712      711      962     1047      746      334      583 
    1416     1753     1324      743      598     1109     1640     1648 
    1539     1462     1348     1426     1610     1848     2201     2242 
    1876     1617     1458      989      376      136      228      305 
     367      473      564      704      858      955     1200     1579 
    1713     1578     1633     1966     2135     1966     1691     1556 
    1530     1335     1000      751      588      508      537      633 
     726      706      612      750     1120     1339     1301     1092 
     784      537      400      490      912     1370     1607     1748 
    1950     2133     2091     1899     1777     1806     1833     1622 
    1287      985      645      348      295      600      950      884 
     778     1204     1899     2268     2212     2092     1726     1073 
     986     1355     1312     1096     1204     1339     1178      965 
     866      841      886      822      711      770      862      927 
    1065     1290     1626     1948     1848     1240      761      859 
    1108     1038      831      727      614      633      907     1019 
     936      901      869      784      638      873     1486     1682 
    1644     1891     2058     1753     1043      540      778     1386 
    1728     1734     1734     1906     2022     1671     1156     1254 
    1410      876      318      290      785     1318     1090      607 
     854     1489     1711     1507     1287     1144     1051     1107 
    1125      905      756     1009     1425     1656     1776     1807 
    1626     1344     1088      980     1061     1065      920      886 
