Origin Time       2024/06/23 22:54:00
Lat.              35.645
Long.             140.060
Depth. (km)       72
Mag.              4.1
Station Code      TKY023
Station Lat.      35.7259
Station Long.     139.8254
Station Height(m) 0
Record Time       2024/06/23 22:54:45
Sampling Freq(Hz) 100Hz
Duration Time(s)  60
Dir.              E-W
Scale Factor      7845(gal)/8223790
Max. Acc. (gal)   4.084
Last Correction   2024/06/23 22:54:45
Memo.             
[...]
    2571     2555     2525     2516     2538     2556     2554     2536 
    2524     2536     2563     2570     2547     2521     2515     2533 
    2554     2559     2555     2544     2533     2543     2560     2571 
    2562     2550     2551     2547     2528     2520     2524     2536 
    2558     2563     2543     2533     2532     2532     2539     2538 
    2532     2532     2538     2548     2552     2542     2542     2551 
    2551     2559     2563     2543     2535     2546     2551     2554 
    2548     2543     2550     2556     2556     2544     2536     2550 
    2558     2550     2546     2539     2532     2539     2536     2528 
    2538     2550     2555     2548     2531     2529     2539     2544 
    2544     2543     2539     2528     2519     2528     2538     2536 
    2548     2558     2551     2552     2552     2546     2558     2573 
    2569     2554     2532     2525     2551     2569     2555     2544 
    2538     2528     2529     2546     2562     2569     2551     2527 
    2525     2539     2546     2538     2528     2536     2540     2535 
    2538     2546     2560     2573     2552     2525     2520     2528 
    2543     2558     2556     2543     2529     2520     2515     2524 
    2543     2555     2555     2542     2525     2525     2544     2554 
    2547     2542     2542     2555     2570     2559     2544     2542 
    2544     2547     2550     2548     2548     2554     2558     2546 
    2527     2529     2539     2546     2554     2550     2533     2520 
    2516     2521     2540     2560     2566     2555     2544     2539 
    2527     2529     2554     2560     2555     2563     2558     2543 
    2544     2548     2546     2543     2532     2535     2558     2569 
    2566     2551     2527     2516     2524     2540     2552     2559 
    2562     2552     2542     2532     2515     2515     2536     2543 
    2536     2543     2550     2558     2562     2540     2523     2536 
    2562     2573     2555     2535     2535     2533     2531     2540 
    2548     2562     2563     2540     2527     2532     2532     2533 
    2550     2558     2548     2533     2524     2524     2540     2563 
    2571     2556     2529     2505     2511     2547     2567     2560 
    2562     2569     2556     2535     2525     2523     2535     2563 
    2581     2575     2563     2554     2550     2548     2542     2532 
    2532     2552     2575     2577     2558     2533     2520     2519 
    2527     2546     2565     2570     2558     2532     2508     2505 
    2524     2544     2558     2566     2566     2562     2547     2527 
    2517     2527     2547     2565     2569     2555     2546     2555 
    2565     2548     2520     2506     2520     2554     2579     2573 
    2554     2533     2521     2529     2539     2538     2542     2538 
    2529     2540     2558     2563     2558     2536     2519     2536 
    2554     2544     2539     2546     2560     2569     2555     2543 
    2551     2556     2554     2550     2542     2535     2539     2556 
    2567     2559     2547     2540     2539     2551     2554     2548 
    2551     2548     2539     2546     2554     2552     2543     2529 
    2538     2556     2550     2540     2551     2551     2542     2538 
    2536     2547     2548     2536     2542     2554     2554     2548 
    2542     2538     2543     2558     2575     2562     2535     2540 
    2551     2554     2563     2558     2542     2543     2547     2543 
    2542     2542     2540     2538     2542     2551     2550     2539 
    2533     2533     2539     2551     2556     2555     2552     2547 
    2547     2547     2538     2538     2548     2550     2544     2550 
    2554     2551     2552     2548     2538     2532     2532     2533 
    2547     2563     2560     2548     2535     2519     2521     2539 
    2546     2548     2546     2533     2527     2533     2542     2547 
    2552     2554     2551     2548     2543     2528     2525     2543 
    2558     2566     2569     2556     2547     2555     2560     2555 
    2555     2560     2554     2538     2538     2543     2532     2535 
    2554     2552     2543     2542     2533     2531     2542     2555 
    2554     2540     2538     2547     2552     2547     2533     2521 
    2532     2552     2555     2543     2535     2538     2547     2555 
    2562     2565     2552     2535     2533     2539     2544     2550 
    2548     2543     2543     2539     2529     2536     2548     2546 
    2540     2544     2551     2550     2542     2539     2547     2551 
    2546     2539     2542     2544     2540     2539     2535     2532 
    2542     2551     2554     2558     2556     2546     2540     2535 
    2538     2543     2528     2519     2542     2559     2550     2531 
    2539     2578     2581     2529     2509     2552     2578     2527 
    2494     2571     2633     2552     2479     2540     2574     2502 
    2500     2587     2565     2475     2560     2682     2562     2408 
    2488     2600     2542     2457     2463     2523     2628     2743 
    2705     2501     2444     2593     2550     2319     2374     2628 
    2610     2500     2628     2671     2451     2401     2633     2685 
    2430     2282     2403     2556     2668     2732     2660     2586 
    2668     2700     2513     2319     2344     2502     2583     2633 
    2790     2906     2771     2505     2317     2155     1983     2074 
    2446     2739     2884     2979     2930     2748     2509     2258 
    2142     2146     2168     2373     2832     3179     3063     2694 
    2501     2442     2311     2277     2425     2475     2388     2435 
    2670     2943     3079     2894     2493     2243     2265     2330 
    2359     2512     2724     2801     2763     2660     2417     2107 
    2050     2394     2747     2709     2469     2444     2691     2899 
    2808     2525     2369     2405     2434     2477     2625     2697 
    2701     2805     2806     2540     2270     2278     2490     2623 
    2529     2309     2146     2212     2547     2929     2998     2682 
    2361     2380     2627     2783     2718     2504     2301     2290 
    2417     2471     2492     2606     2700     2655     2619     2712 
    2690     2412     2236     2412     2687     2779     2690     2560 
    2501     2519     2515     2494     2587     2747     2774     2627 
    2436     2324     2357     2494     2554     2484     2515     2809 
    3053     2870     2427     2135     2134     2342     2506     2401 
    2157     2104     2366     2697     2821     2778     2704     2643 
    2608     2570     2525     2535     2633     2754     2709     2452 
    2269     2358     2540     2674     2860     2974     2787     2488 
    2363     2370     2394     2457     2519     2521     2536     2569 
    2513     2457     2562     2693     2664     2573     2508     2450 
    2428     2427     2447     2515     2550     2524     2492     2461 
    2490     2635     2812     2847     2640     2378     2339     2524 
    2651     2493     2250     2292     2628     2970     3013     2725 
    2466     2474     2543     2469     2347     2301     2332     2451 
    2635     2760     2768     2710     2637     2631     2695     2681 
    2481     2185     2030     2192     2493     2662     2698     2686 
    2667     2683     2678     2624     2563     2477     2380     2350 
    2432     2593     2712     2685     2478     2199     2141     2386 
    2646     2733     2733     2693     2641     2610     2521     2300 
    2052     2047     2421     2879     3115     3167     3113     2937 
    2668     2332     2006     1935     2212     2543     2629     2554 
    2643     2884     2941     2771     2546     2340     2282     2415 
    2538     2502     2444     2556     2776     2845     2635     2358 
    2253     2258     2331     2563     2805     2829     2713     2613 
    2519     2435     2444     2570     2759     2934     2887     2440 
    1918     1836     2234     2670     2787     2712     2690     2747 
    2828     2806     2581     2265     2002     1865     1939     2253 
    2700     2992     2943     2810     2825     2813     2675     2500 
    2316     2245     2427     2743     2874     2712     2511     2465 
    2489     2481     2488     2601     2724     2689     2585     2520 
    2481     2501     2457     2181     1939     2101     2559     2952 
    3149     3137     2803     2317     2095     2108     2119     2216 
    2482     2785     2990     3028     2898     2687     2538     2465 
    2381     2358     2506     2718     2763     2578     2381     2353 
    2508     2739     2764     2459     2131     2191     2632     3005 
    3038     2887     2639     2349     2254     2342     2346     2374 
    2666     2944     2879     2639     2390     2116     2058     2409 
    2808     2836     2577     2339     2205     2142     2307     2744 
    3064     3003     2760     2559     2498     2608     2668     2389 
    1863     1549     1768     2440     3204     3582     3391     2914 
    2551     2511     2637     2606     2407     2235     2241     2421 
    2602     2655     2477     2074     1796     1887     2296     2918 
    3376     3272     2833     2481     2251     2064     1984     2066 
    2230     2420     2614     2775     2936     3064     3040     2859 
    2598     2425     2448     2520     2617     2920     3294     3354 
    2992     2432     1954     1775     1977     2369     2643     2725 
    2776     2836     2762     2555     2334     2033     1806     2118 
    2837     3294     3304     3083     2751     2448     2247     2088 
    1976     2025     2242     2405     2386     2436     2752     3113 
    3175     2906     2556     2286     2092     2035     2155     2343 
    2542     2789     2967     2901     2658     2458     2454     2614 
    2760     2797     2775     2683     2486     2263     2112     2025 
    2045     2259     2523     2621     2571     2444     2242     2042 
    2014     2243     2651     3045     3214     3048     2687     2515 
    2717     2936     2843     2639     2527     2397     2285     2394 
    2683     2914     2959     2812     2515     2261     2300     2527 
    2619     2585     2533     2355     2095     2023     2192     2420 
    2606     2760     2928     3040     2926     2623     2332     2228 
    2440     2809     2972     2905     2814     2737     2666     2650 
    2624     2524     2401     2327     2284     2227     2272     2454 
    2581     2654     2717     2575     2255     2112     2301     2596 
    2712     2621     2467     2377     2409     2494     2492     2384 
    2304     2354     2450     2506     2597     2678     2628     2570 
    2602     2605     2539     2492     2492     2471     2394     2353 
    2424     2517     2516     2500     2624     2851     3055     3157 
    3122     2978     2767     2560     2474     2484     2463     2398 
    2327     2286     2363     2540     2679     2729     2729     2725 
    2728     2716     2616     2342     2038     1976     2170     2398 
    2540     2612     2547     2355     2274     2373     2459     2444 
    2404     2497     2821     3192     3338     3207     2924     2682 
    2569     2474     2332     2209     2145     2174     2359     2593 
    2652     2578     2531     2501     2524     2658     2775     2747 
    2639     2612     2673     2686     2612     2502     2393     2374 
    2485     2542     2446     2390     2427     2423     2408     2448 
    2538     2693     2836     2884     2853     2679     2373     2104 
    1949     1896     1996     2243     2465     2512     2542     2747 
    2976     3019     2921     2803     2725     2760     2944     3061 
    2872     2488     2120     1881     1891     2154     2484     2686 
    2694     2592     2502     2462     2466     2500     2498     2479 
    2567     2745     2839     2794     2702     2565     2349     2166 
    2184     2373     2542     2648     2776     2870     2826     2627 
    2401     2347     2485     2717     2937     2972     2752     2470 
    2363     2401     2394     2346     2412     2609     2737     2673 
    2540     2497     2529     2502     2416     2465     2682     2805 
    2646     2349     2253     2490     2790     2870     2776     2640 
    2458     2270     2209     2280     2316     2292     2359     2547 
    2712     2724     2547     2293     2173     2319     2577     2646 
    2531     2490     2551     2620     2700     2752     2721     2659 
    2616     2544     2409     2328     2446     2747     3052     3121 
    2886     2505     2211     2081     2038     2127     2388     2687 
    2952     3140     3163     3126     3183     3231     3177     3079 
    2806     2227     1640     1482     1849     2416     2905     3373 
    3827     4128     4275     4298     4158     3844     3365     2791 
    2246     1819     1575     1503     1597     1933     2452     2999 
    3392     3353     2728     1730      792      264      298      861 
    1773     2791     3720     4372     4548     4182     3426     2516 
    1675     1094      858      827      712      363      -51     -283 
    -249      118      776     1416     1960     2546     3025     3240 
    3300     3241     3036     2790     2664     2789     3244     3835 
    4071     3608     2516     1146       43     -297      139      935 
    1671     2108     2224     2184     2209     2466     3075     4131 
    5428     6434     6826     6716     6349     5917     5412     4569 
    3252     1742      452     -382     -653     -324      642     2060 
    3289     3871     4012     4072     4194     4405     4642     4837 
    4968     4978     4698     3852     2459     1113      375      301 
     679     1182     1421     1300     1112     1101     1290     1649 
    2138     2631     2992     3179     3215     3148     3109     3181 
    3226     3003     2439     1723     1175     1063     1462     2142 
    2733     3028     3087     3060     2971     2797     2643     2754 
    3227     3716     3775     3369     2619     1686      957      627 
     510      479      538      660      885     1340     2031     2681 
    2972     3007     3173     3665     4347     4849     4807     4153 
    3218     2435     2026     1948     2003     1987     1840     1676 
    1632     1710     1879     2201     2714     3354     4013     4459 
    4506     4315     4129     3920     3511     2779     1918     1401 
    1379     1509     1475     1341     1308     1507     2049     2899 
    3852     4660     5146     5181     4661     3650     2450     1426 
     739      264      -55     -120       35      336      822     1424 
    1964     2346     2548     2538     2273     1899     1788     2160 
    2868     3596     4129     4423     4525     4507     4303     3721 
    2762     1668      710       62     -238     -149      486     1698 
    3188     4465     5184     5379     5331     5152     4695     3954 
    3165     2506     2103     2045     2292     2816     3487     3913 
    3762     3041     2020     1013      342      322      938     1796 
    2569     3187     3682     4006     4112     4108     4051     3782 
    3302     2883     2636     2473     2342     2169     1919     1728 
    1706     1814     1971     2057     1911     1539     1186     1036 
     990      953     1108     1688     2624     3504     3951     3959 
    3692     3173     2444     1729     1208      859      702      888 
    1479     2300     3028     3393     3338     3006     2596     2226 
    1911     1674     1620     1850     2300     2740     3009     3144 
    3260     3396     3553     3701     3688     3330     2670     2033 
    1683     1601     1733     2047     2486     3115     3879     4486 
    4699     4411     3650     2683     1822     1306     1339     1891 
    2670     3338     3682     3704     3568     3377     3129     2833 
    2542     2280     2093     2042     2077     2154     2286     2425 
    2512     2548     2600     2668     2621     2459     2342     2299 
    2319     2390     2473     2544     2543     2519     2585     2604 
    2390     1991     1613     1421     1476     1810     2268     2513 
    2442     2181     1880     1706     1757     2097     2745     3423 
    3800     3905     3859     3586     3095     2597     2176     1779 
    1464     1318     1343     1486     1711     2052     2496     2952 
    3379     3719     3852     3728     3431     3087     2778     2540 
    2411     2384     2377     2373     2374     2299     2215     2266 
    2313     2253     2297     2536     2839     3167     3508     3759 
    3843     3727     3373     2924     2635     2511     2390     2250 
    2166     2149     2162     2214     2228     2100     1911     1831 
    1933     2150     2315     2312     2218     2135     2100     2130 
    2234     2305     2227     2085     2018     2011     2083     2292 
    2592     2902     3156     3235     3115     2862     2538     2300 
    2276     2358     2393     2370     2305     2278     2428     2755 
    3142     3489     3705     3750     3595     3273     2959     2791 
    2720     2602     2448     2444     2628     2825     2856     2594 
    2087     1669     1601     1795     2122     2560     3006     3271 
    3261     2976     2528     2135     1938     1915     2016     2146 
    2123     1962     1919     2120     2508     3010     3485     3797 
    3894     3770     3508     3194     2832     2451     2062     1674 
    1394     1382     1672     2052     2274     2349     2392     2470 
    2623     2743     2629     2307     1988     1790     1740     1819 
    1922     1987     2058     2191     2411     2717     3037     3281 
    3412     3439     3406     3343     3237     3063     2853     2637 
    2411     2223     2153     2166     2189     2232     2313     2397 
    2415     2335     2258     2317     2488     2646     2720     2772 
    2920     3145     3368     3554     3672     3715     3696     3576 
    3349     3061     2762     2511     2344     2247     2197     2164 
    2111     2043     1995     1993     2076     2276     2608     3032 
    3430     3647     3584     3269     2826     2409     2097     1865 
    1745     1817     2018     2241     2424     2520     2550     2546 
    2448     2296     2205     2146     2000     1772     1544     1385 
    1385     1602     1908     2158     2346     2435     2415     2409 
    2403     2296     2188     2168     2195     2300     2473     2574 
    2556     2531     2575     2609     2554     2475     2466     2542 
    2702     2893     2984     2963     2932     2910     2862     2852 
    2991     3231     3399     3397     3218     2889     2573     2469 
    2612     2893     3200     3461     3599     3559     3368     3099 
    2814     2566     2389     2231     2043     1881     1819     1902 
    2111     2367     2586     2663     2556     2384     2278     2280 
    2389     2570     2733     2806     2835     2903     2992     3003 
    2872     2594     2259     2053     2118     2438     2830     3061 
    3018     2749     2380     2008     1655     1317     1061     1007 
    1216     1609     2020     2330     2461     2374     2178     2093 
    2218     2471     2764     3003     3053     2905     2727     2655 
