Origin Time       2024/06/23 22:54:00
Lat.              35.645
Long.             140.060
Depth. (km)       72
Mag.              4.1
Station Code      TKY018
Station Lat.      35.6553
Station Long.     139.8114
Station Height(m) 6
Record Time       2024/06/23 22:54:45
Sampling Freq(Hz) 100Hz
Duration Time(s)  60
Dir.              E-W
Scale Factor      7845(gal)/8223790
Max. Acc. (gal)   6.784
Last Correction   2024/06/23 22:54:44
Memo.             
[...]
  -51848   -51902   -51957   -52011   -52031   -51975   -51904   -51908 
  -51956   -51931   -51918   -51985   -51984   -51953   -51977   -51957 
  -51935   -51975   -51965   -51908   -51915   -51973   -51989   -51935 
  -51903   -51918   -51935   -51965   -51985   -51956   -51922   -51933 
  -51961   -51976   -51958   -51896   -51853   -51915   -52038   -52110 
  -52064   -51938   -51872   -51899   -51958   -51975   -51949   -52010 
  -52024   -51896   -51880   -51964   -51962   -51961   -51975   -51906 
  -51869   -51965   -52024   -51975   -51970   -51988   -51918   -51871 
  -51907   -51957   -52022   -52050   -51948   -51860   -51927   -51989 
  -51984   -51993   -51970   -51914   -51948   -52043   -52043   -51976 
  -51904   -51818   -51818   -51975   -52135   -52128   -52012   -51872 
  -51753   -51796   -51961   -52046   -52049   -52030   -51929   -51814 
  -51837   -51933   -52007   -52066   -52042   -51873   -51798   -51919 
  -51993   -51988   -51957   -51864   -51841   -51970   -52104   -52084 
  -51973   -51885   -51845   -51883   -51957   -51966   -51949   -51956 
  -51953   -51962   -51983   -51962   -51934   -51943   -51970   -51980 
  -51996   -52022   -51973   -51883   -51912   -52000   -51976   -51948 
  -51958   -51923   -51937   -51960   -51899   -51927   -52054   -52050 
  -51941   -51914   -51921   -51877   -51896   -51960   -51927   -51895 
  -51883   -51840   -51922   -52085   -52126   -52050   -51956   -51867 
  -51819   -51900   -52006   -52014   -52034   -52042   -51956   -51895 
  -51912   -51927   -51912   -51922   -51953   -51948   -51996   -52105 
  -52056   -51930   -51934   -51891   -51802   -51884   -51925   -51845 
  -51969   -52153   -52111   -52035   -51985   -51819   -51748   -51916 
  -52003   -51939   -52011   -52057   -51898   -51853   -51958   -51989 
  -52004   -52020   -51925   -51838   -51938   -52029   -51972   -51948 
  -51919   -51862   -51918   -51987   -51987   -51979   -51996   -52031 
  -52023   -51969   -51895   -51852   -51881   -51892   -51895   -51954 
  -52002   -52022   -52033   -51966   -51860   -51842   -51942   -52015 
  -52019   -52038   -51960   -51819   -51880   -52007   -51992   -51945 
  -51877   -51821   -51910   -52002   -51999   -52065   -52095   -51953 
  -51876   -51952   -51970   -51927   -51979   -52016   -51952   -51941 
  -51956   -51914   -51861   -51821   -51879   -52050   -52168   -52104 
  -51933   -51838   -51829   -51811   -51876   -52027   -52078   -52034 
  -51962   -51831   -51792   -51973   -52120   -52045   -51973   -51968 
  -51914   -51945   -51972   -51864   -51876   -52002   -52020   -51950 
  -51907   -51972   -52026   -52019   -51997   -51857   -51773   -51904 
  -51960   -51918   -51991   -52069   -52076   -52011   -51838   -51790 
  -51945   -52027   -52006   -51984   -51933   -51908   -51957   -51988 
  -51975   -51945   -51865   -51838   -51954   -51981   -51922   -51993 
  -51996   -51831   -51806   -51961   -52050   -51979   -51933   -51979 
  -51941   -51908   -51956   -51976   -52038   -52033   -51875   -51877 
  -52046   -52069   -51965   -51896   -51873   -51867   -51904   -51985 
  -52058   -52064   -51935   -51848   -51927   -51915   -51852   -51956 
  -52047   -52007   -51923   -51898   -51987   -52024   -51960   -51922 
  -51876   -51902   -52002   -51957   -51910   -51957   -51935   -51949 
  -52031   -51984   -51884   -51939   -52010   -51941   -51922   -51950 
  -51929   -51989   -51983   -51844   -51865   -51970   -51991   -52038 
  -52073   -51950   -51846   -51949   -51980   -51918   -51992   -51970 
  -51921   -52029   -51938   -51790   -51929   -52022   -51950   -51930 
  -51976   -51999   -51939   -51908   -51919   -51899   -51956   -51988 
  -51942   -51980   -51995   -51958   -51984   -51941   -51849   -51865 
  -51952   -51999   -52011   -52031   -51948   -51857   -51970   -51984 
  -51860   -51975   -52120   -52035   -51919   -51860   -51856   -51929 
  -51989   -51972   -51989   -52091   -52004   -51821   -51896   -51973 
  -51939   -52003   -51958   -51889   -52015   -52026   -51942   -51991 
  -51954   -51825   -51825   -51912   -51980   -52024   -52060   -52051 
  -52008   -51956   -51817   -51729   -51888   -52054   -52062   -52022 
  -51938   -51814   -51783   -51980   -52201   -52111   -51860   -51744 
  -51815   -52020   -52092   -52023   -52091   -52041   -51771   -51726 
  -51910   -52105   -52224   -52006   -51632   -51752   -52186   -52184 
  -51919   -51903   -51950   -51930   -51908   -51821   -51862   -52087 
  -52122   -51997   -51954   -51883   -51791   -51830   -51958   -52124 
  -52253   -52108   -51740   -51606   -51765   -51943   -52158   -52276 
  -52093   -51910   -51902   -51854   -51772   -51804   -51943   -52119 
  -52228   -52181   -51876   -51530   -51636   -52054   -52254   -52176 
  -52089   -51996   -51706   -51466   -51687   -52265   -52554   -52092 
  -51543   -51672   -52024   -52088   -51991   -51918   -52051   -52131 
  -51822   -51682   -51992   -52172   -52024   -51837   -51783   -51891 
  -51980   -51939   -52011   -52159   -51993   -51737   -51842   -52037 
  -52047   -51937   -51783   -51966   -52290   -51970   -51598   -51930 
  -52134   -51868   -51791   -51999   -52274   -52307   -51857   -51428 
  -51538   -51923   -52134   -52201   -52292   -52243   -51827   -51223 
  -51271   -52219   -52732   -52247   -51869   -51957   -51968   -51783 
  -51664   -51842   -52029   -51979   -52169   -52467   -52088   -51308 
  -51225   -51922   -52139   -51738   -51976   -52627   -52475   -51679 
  -51409   -51877   -52107   -52080   -52297   -52205   -51872   -51919 
  -51848   -51525   -51632   -52065   -52193   -51813   -51561   -51987 
  -52471   -52463   -52192   -51925   -51734   -51567   -51591   -51819 
  -51914   -52128   -52483   -52319   -51783   -51409   -51337   -51534 
  -51856   -52459   -52963   -52604   -51923   -51432   -51147   -51653 
  -52326   -52095   -51934   -52443   -52259   -51250   -51151   -52181 
  -52668   -52002   -51570   -52204   -52324   -51460   -51764   -52806 
  -52320   -51394   -51505   -51661   -51511   -51682   -52164   -52519 
  -52196   -51786   -52127   -52100   -51621   -52127   -52663   -52047 
  -51328   -51306   -51698   -52065   -52375   -52677   -52596   -51889 
  -50981   -50838   -51610   -52150   -52320   -52567   -52273   -51799 
  -51933   -52110   -51984   -51579   -51410   -52027   -52211   -51629 
  -51784   -52459   -52489   -52108   -51956   -51987   -51730   -51420 
  -51840   -52519   -52342   -51655   -51644   -51968   -51668   -51707 
  -52508   -52494   -51686   -51559   -52037   -52027   -51588   -51808 
  -52409   -52203   -51696   -51641   -51684   -51891   -52189   -52215 
  -52203   -52122   -51902   -51840   -51891   -51976   -52081   -51941 
  -51736   -51808   -51889   -51885   -51966   -52006   -52039   -52181 
  -52085   -51687   -51553   -51714   -51783   -52073   -52543   -52494 
  -52115   -51799   -51549   -51706   -51979   -51752   -51641   -52058 
  -52236   -52024   -51997   -52186   -52340   -52273   -52003   -51900 
  -51916   -51679   -51574   -51883   -52007   -51823   -51750   -51834 
  -51989   -52123   -52147   -52088   -51922   -51686   -51652   -51988 
  -52234   -52070   -51949   -51912   -51711   -51753   -52041   -52193 
  -52347   -52393   -52069   -51673   -51524   -51617   -51879   -52184 
  -52304   -52089   -51798   -51823   -52015   -52042   -51910   -51688 
  -51559   -51691   -51949   -52159   -52259   -52259   -52131   -51849 
  -51688   -51790   -51852   -51883   -52083   -52174   -52015   -51873 
  -51837   -51950   -52145   -52101   -51956   -51958   -51934   -51896 
  -51904   -51873   -51927   -51977   -51823   -51750   -51898   -52004 
  -52104   -52174   -52002   -51858   -51952   -52003   -51962   -51938 
  -51779   -51518   -51514   -51810   -52145   -52389   -52369   -52049 
  -51811   -51818   -51845   -51879   -52010   -52105   -52130   -52105 
  -51973   -51835   -51773   -51804   -52003   -52172   -52046   -51899 
  -52008   -52050   -51854   -51679   -51637   -51757   -51989   -52099 
  -52123   -52251   -52262   -52003   -51822   -51817   -51748   -51752 
  -51919   -51934   -51868   -51999   -52111   -52058   -51916   -51624 
  -51451   -51775   -52300   -52537   -52390   -51954   -51633   -51898 
  -52411   -52527   -52228   -51742   -51414   -51517   -51734   -51854 
  -51966   -51938   -51884   -52046   -52101   -51807   -51576   -51740 
  -52064   -52243   -52219   -51969   -51625   -51511   -51649   -51933 
  -52336   -52528   -52429   -52394   -52307   -51931   -51586   -51576 
  -51792   -52000   -52101   -52068   -52018   -52123   -52127   -51813 
  -51444   -51300   -51517   -51916   -52115   -52177   -52239   -52176 
  -51997   -51784   -51660   -51779   -51995   -52177   -52321   -52303 
  -52093   -51830   -51706   -51707   -51625   -51646   -51981   -52232 
  -52182   -52066   -51962   -51846   -51841   -51969   -52164   -52417 
  -52532   -52280   -51960   -51956   -52069   -52027   -51841   -51518 
  -51210   -51217   -51537   -51891   -52135   -52259   -52250   -52168 
  -52088   -52058   -52126   -52216   -52174   -51995   -51819   -51776 
  -51840   -51846   -51771   -51715   -51694   -51719   -51799   -51934 
  -52142   -52251   -52178   -52054   -51941   -52003   -52247   -52343 
  -52303   -52201   -51881   -51637   -51818   -52072   -51996   -51718 
  -51498   -51466   -51664   -51906   -51941   -51856   -51858   -51903 
  -51953   -52124   -52303   -52324   -52301   -52326   -52292   -52105 
  -51815   -51534   -51366   -51364   -51445   -51501   -51578   -51799 
  -52099   -52230   -52134   -51992   -51954   -52085   -52308   -52471 
  -52500   -52342   -52119   -52047   -52023   -51922   -51829   -51768 
  -51746   -51710   -51715   -51885   -51964   -51848   -51799   -51773 
  -51734   -51825   -51906   -51937   -52043   -52126   -52095   -52015 
  -51979   -51891   -51707   -51786   -52185   -52461   -52489   -52446 
  -52347   -52085   -51679   -51398   -51406   -51580   -51844   -52051 
  -52053   -52054   -52212   -52305   -52195   -51992   -51815   -51783 
  -52004   -52284   -52274   -52042   -51865   -51736   -51659   -51772 
  -51887   -51764   -51610   -51598   -51633   -51718   -51815   -51857 
  -52008   -52243   -52321   -52239   -52065   -51907   -51910   -51949 
  -51873   -51750   -51688   -51741   -51871   -51956   -51965   -51973 
  -52006   -52024   -52014   -51950   -51795   -51711   -51910   -52280 
  -52575   -52641   -52456   -52247   -52177   -52088   -51911   -51844 
  -51926   -51926   -51781   -51640   -51521   -51432   -51564   -51883 
  -51996   -51827   -51729   -51802   -51906   -52093   -52392   -52617 
  -52608   -52346   -51933   -51484   -51162   -51252   -51746   -52203 
  -52354   -52267   -52111   -52050   -52073   -52045   -51977   -51919 
  -51902   -51942   -51958   -51931   -51892   -51818   -51777   -51861 
  -52054   -52228   -52328   -52438   -52482   -52250   -51880   -51678 
  -51560   -51339   -51177   -51262   -51547   -51885   -52081   -52020 
  -51837   -51781   -52019   -52432   -52686   -52659   -52482   -52184 
  -51803   -51579   -51618   -51705   -51673   -51609   -51572   -51572 
  -51664   -51806   -51925   -52139   -52467   -52578   -52286   -51889 
  -51705   -51802   -52051   -52157   -52011   -51831   -51827   -51981 
  -52092   -52037   -51960   -52057   -52249   -52240   -51993   -51783 
  -51707   -51687   -51803   -52076   -52243   -52111   -51780   -51505 
  -51502   -51725   -51923   -51953   -51867   -51880   -52105   -52261 
  -52127   -51911   -51860   -52015   -52204   -52204   -52078   -52070 
  -52189   -52240   -52189   -52095   -51915   -51699   -51480   -51223 
  -51132   -51479   -52042   -52262   -52019   -51742   -51727   -51887 
  -52112   -52340   -52475   -52555   -52583   -52398   -52006   -51601 
  -51417   -51509   -51565   -51476   -51532   -51706   -51768   -51786 
  -51877   -52019   -52176   -52340   -52467   -52531   -52542   -52432 
  -52139   -51791   -51537   -51405   -51382   -51451   -51578   -51776 
  -52099   -52523   -52801   -52639   -52154   -51764   -51669   -51757 
  -51850   -51869   -51833   -51819   -51837   -51786   -51759   -51896 
  -52060   -52141   -52178   -52173   -52077   -51933   -51948   -52168 
  -52312   -52209   -52006   -51888   -51873   -51921   -51964   -51934 
  -51887   -51904   -51979   -51962   -51742   -51459   -51409   -51729 
  -52130   -52200   -51941   -51709   -51761   -51958   -51946   -51699 
  -51579   -51845   -52288   -52485   -52340   -52116   -52092   -52315 
  -52489   -52327   -51934   -51599   -51503   -51622   -51823   -52034 
  -52199   -52228   -52147   -52018   -51794   -51518   -51393   -51493 
  -51694   -51865   -51961   -51931   -51814   -51823   -52018   -52193 
  -52235   -52153   -52057   -52166   -52454   -52637   -52559   -52226 
  -51759   -51435   -51464   -51703   -51802   -51687   -51592   -51636 
  -51669   -51565   -51491   -51660   -51993   -52263   -52320   -52153 
  -51929   -51849   -51935   -51987   -51860   -51675   -51578   -51498 
  -51301   -50917   -50523   -50526   -51000   -51502   -51700   -51721 
  -51852   -52150   -52386   -52358   -52126   -51927   -51935   -52107 
  -52347   -52712   -53187   -53554   -53677   -53649   -53561   -53285 
  -52577   -51343   -49827   -48497   -47898   -48334   -49547   -51039 
  -52633   -54270   -55490   -55769   -55244   -54546   -53890   -52913 
  -51402   -49720   -48620   -48667   -49677   -51016   -52556   -54626 
  -56957   -58625   -59063   -58361   -56801   -54824   -52845   -50788 
  -48639   -47029   -46619   -47399   -48681   -49910   -51193   -52621 
  -53912   -54746   -54688   -53469   -51653   -50222   -49662   -49837 
  -50288   -50701   -51086   -51479   -51860   -52253   -52762   -53333 
  -53678   -53657   -53319   -52790   -52276   -51790   -51055   -49983 
  -48998   -48477   -48336   -48521   -49137   -49955   -50521   -50766 
  -50907   -50990   -51112   -51467   -51985   -52342   -52226   -51703 
  -51335   -51754   -53134   -54778   -55507   -54943   -53825   -52988 
  -52656   -52477   -52026   -51354   -50905   -51117   -52038   -53131 
  -53709   -53451   -52574   -51725   -51352   -51251   -50901   -50199 
  -49715   -49940   -50673   -51499   -52309   -53094   -53585   -53503 
  -53071   -52841   -52992   -53171   -53141   -52965   -52585   -52026 
  -51609   -51501   -51611   -51871   -52197   -52544   -53059   -53758 
  -54199   -53927   -53006   -51846   -50768   -49828   -48945   -48242 
  -48069   -48691   -50049   -51614   -52691   -53210   -53747   -54627 
  -55447   -55485   -54480   -52925   -51528   -50634   -50295   -50360 
  -50576   -50905   -51467   -52262   -53140   -53882   -54118   -53412 
  -51985   -50796   -50377   -50373   -50341   -50242   -50306   -50741 
  -51428   -51926   -51911   -51579   -51433   -51692   -52203   -52812 
  -53387   -53612   -53312   -52766   -52382   -52239   -52116   -51881 
  -51646   -51580   -51807   -52342   -52852   -52906   -52517   -51979 
  -51441   -50951   -50657   -50782   -51260   -51660   -51709   -51576 
  -51394   -51054   -50697   -50758   -51445   -52494   -53416   -53769 
  -53410   -52659   -51860   -51102   -50539   -50492   -51025   -51757 
  -52319   -52741   -53204   -53673   -53958   -53808   -53044   -51892 
  -50791   -49967   -49477   -49354   -49677   -50429   -51339   -52162 
  -52938   -53653   -54056   -53862   -53106   -52312   -51891   -51787 
  -51846   -51969   -52215   -52721   -53373   -53825   -53665   -52678 
  -51223   -49928   -49183   -49167   -49810   -50751   -51622   -52240 
  -52668   -53086   -53430   -53482   -53071   -52211   -51336   -50997 
  -51241   -51682   -52142   -52682   -53077   -52995   -52488   -51894 
  -51443   -51140   -50974   -50959   -51108   -51462   -51965   -52435 
  -52662   -52558   -52212   -51767   -51540   -51867   -52440   -52605 
  -52176   -51482   -51017   -51051   -51375   -51513   -51259   -51008 
  -51239   -51852   -52470   -52849   -52936   -52920   -52902   -52718 
  -52258   -51561   -50967   -50927   -51393   -51969   -52370   -52510 
  -52546   -52667   -52911   -53173   -53239   -52942   -52286   -51580 
  -51262   -51329   -51559   -51968   -52529   -53048   -53258   -53015 
  -52566   -52137   -51760   -51491   -51297   -51175   -51210   -51385 
  -51588   -51655   -51564   -51432   -51239   -51055   -51065   -51200 
  -51363   -51621   -51922   -52069   -51956   -51699   -51606   -51946 
  -52598   -53033   -52905   -52416   -51975   -51841   -51976   -52091 
  -51966   -51599   -51166   -50980   -51143   -51541   -52031   -52358 
  -52312   -51957   -51545   -51372   -51594   -52092   -52465   -52355 
  -51938   -51687   -51829   -52254   -52633   -52635   -52211   -51595 
  -51133   -51024   -51104   -50996   -50653   -50527   -50917   -51648 
  -52450   -53049   -53235   -53148   -53050   -52942   -52722   -52570 
  -52725   -53055   -53190   -52948   -52423   -51921   -51645   -51436 
  -51052   -50472   -49989   -50035   -50646   -51509   -52346   -52998 
  -53396   -53543   -53496   -53298   -52938   -52516   -52177   -52023 
  -52132   -52408   -52722   -53015   -53134   -53011   -52687   -52087 
  -51263   -50500   -50020   -49882   -50043   -50334   -50585   -50773 
  -51007   -51344   -51684   -51876   -51889   -51888   -52105   -52606 
  -53167   -53485   -53474   -53249   -52899   -52520   -52209   -51941 
  -51673   -51497   -51528   -51722   -51867   -51891   -51889   -51898 
  -51879   -51723   -51435   -51259   -51398   -51825   -52246   -52250 
  -51838   -51421   -51271   -51425   -51725   -51898   -51918   -51988 
  -52216   -52566   -52833   -52760   -52373   -52000   -51891   -51939 
  -51880   -51595   -51205   -50938   -50838   -50826   -50922   -51158 
  -51605   -52243   -52825   -53148   -53167   -52886   -52492   -52211 
  -51980   -51718   -51547   -51497   -51494   -51548   -51756   -52053 
  -52203   -52158   -52031   -51891   -51799   -51780   -51869   -52085 
  -52332   -52516   -52571   -52532   -52535   -52587   -52539   -52319 
  -52033   -51873   -51915   -51992   -51954   -51835   -51669   -51436 
  -51208   -51092   -51059   -51100   -51347   -51787   -52215   -52519 
  -52720   -52839   -52866   -52753   -52477   -52138   -51844   -51664 
  -51706   -51921   -52170   -52363   -52431   -52451   -52454   -52313 
  -52078   -51846   -51526   -51148   -50904   -50923   -51210   -51588 
  -51850   -51895   -51682   -51429   -51453   -51753   -52074   -52219 
  -52191   -52168   -52265   -52404   -52396   -52158   -51891   -51821 
  -51902   -51993   -52049   -52073   -52112   -52188   -52234   -52197 
  -52077   -51854   -51524   -51142   -50847   -50777   -50955   -51291 
  -51644   -51983   -52266   -52249   -51876   -51405   -51093   -51142 
  -51471   -51784   -51934   -51935   -51991   -52288   -52666   -52864 
  -52845   -52717   -52502   -52216   -51996   -51911   -51880   -51862 
  -51958   -52199   -52467   -52637   -52683   -52625   -52446   -52249 
  -52110   -52010   -51888   -51629   -51403   -51393   -51468   -51553 
  -51645   -51752   -51819   -51777   -51707   -51713   -51891   -52224 
  -52506   -52585   -52504   -52377   -52350   -52546   -52867   -53145 
  -53244   -53042   -52628   -52218   -51972   -51937   -52016   -52046 
  -51869   -51480   -51079   -50873   -50926   -51115   -51275   -51403 
