Origin Time       2024/06/23 22:54:00
Lat.              35.645
Long.             140.060
Depth. (km)       72
Mag.              4.1
Station Code      TKY016
Station Lat.      35.6486
Station Long.     139.7990
Station Height(m) 2
Record Time       2024/06/23 22:54:45
Sampling Freq(Hz) 100Hz
Duration Time(s)  60
Dir.              N-S
Scale Factor      7845(gal)/8223790
Max. Acc. (gal)   1.695
Last Correction   1970/01/31 00:00:00
Memo.             
[...]
   -3676    -3674    -3672    -3672    -3674    -3677    -3682    -3685 
   -3682    -3680    -3677    -3674    -3678    -3684    -3685    -3684 
   -3681    -3678    -3673    -3676    -3688    -3694    -3689    -3684 
   -3681    -3680    -3678    -3677    -3680    -3682    -3680    -3674 
   -3673    -3674    -3672    -3672    -3674    -3677    -3678    -3677 
   -3677    -3681    -3682    -3682    -3685    -3684    -3681    -3678 
   -3676    -3677    -3678    -3677    -3680    -3684    -3686    -3688 
   -3685    -3680    -3676    -3674    -3670    -3673    -3678    -3677 
   -3672    -3670    -3673    -3676    -3676    -3681    -3684    -3680 
   -3678    -3678    -3680    -3684    -3692    -3696    -3696    -3692 
   -3686    -3682    -3676    -3677    -3685    -3689    -3689    -3686 
   -3677    -3673    -3674    -3672    -3674    -3680    -3674    -3670 
   -3672    -3676    -3678    -3677    -3678    -3682    -3678    -3674 
   -3680    -3682    -3682    -3686    -3689    -3688    -3689    -3690 
   -3690    -3692    -3692    -3689    -3682    -3676    -3673    -3676 
   -3680    -3685    -3688    -3689    -3685    -3678    -3673    -3667 
   -3665    -3670    -3678    -3681    -3684    -3685    -3681    -3680 
   -3678    -3676    -3677    -3681    -3686    -3692    -3694    -3693 
   -3684    -3676    -3676    -3678    -3680    -3684    -3685    -3684 
   -3680    -3673    -3673    -3676    -3676    -3676    -3681    -3685 
   -3684    -3682    -3686    -3690    -3688    -3686    -3685    -3680 
   -3676    -3678    -3682    -3685    -3686    -3690    -3689    -3684 
   -3681    -3678    -3674    -3676    -3678    -3676    -3677    -3681 
   -3678    -3677    -3682    -3686    -3690    -3692    -3685    -3678 
   -3677    -3677    -3680    -3681    -3680    -3684    -3689    -3686 
   -3681    -3678    -3681    -3682    -3680    -3676    -3674    -3677 
   -3682    -3688    -3692    -3694    -3693    -3686    -3677    -3667 
   -3670    -3678    -3680    -3684    -3689    -3688    -3681    -3678 
   -3677    -3674    -3674    -3678    -3681    -3685    -3689    -3689 
   -3685    -3682    -3680    -3676    -3676    -3680    -3680    -3680 
   -3684    -3685    -3682    -3681    -3684    -3685    -3681    -3681 
   -3680    -3674    -3674    -3676    -3674    -3677    -3677    -3674 
   -3672    -3673    -3676    -3680    -3686    -3690    -3692    -3688 
   -3684    -3684    -3681    -3680    -3680    -3680    -3680    -3680 
   -3678    -3678    -3680    -3677    -3676    -3676    -3674    -3670 
   -3666    -3666    -3669    -3673    -3678    -3685    -3686    -3688 
   -3688    -3685    -3685    -3686    -3686    -3686    -3686    -3688 
   -3689    -3688    -3690    -3694    -3689    -3681    -3678    -3680 
   -3678    -3680    -3686    -3689    -3689    -3686    -3681    -3676 
   -3676    -3673    -3672    -3674    -3678    -3682    -3684    -3680 
   -3674    -3673    -3673    -3676    -3680    -3684    -3684    -3681 
   -3681    -3686    -3690    -3688    -3685    -3686    -3684    -3678 
   -3681    -3685    -3682    -3682    -3685    -3682    -3674    -3674 
   -3680    -3681    -3680    -3677    -3673    -3672    -3673    -3677 
   -3684    -3685    -3685    -3681    -3676    -3670    -3667    -3667 
   -3673    -3680    -3686    -3686    -3681    -3680    -3678    -3677 
   -3676    -3676    -3677    -3684    -3690    -3692    -3692    -3692 
   -3688    -3685    -3676    -3666    -3667    -3672    -3673    -3676 
   -3678    -3681    -3686    -3692    -3693    -3689    -3682    -3667 
   -3655    -3655    -3663    -3673    -3689    -3703    -3700    -3688 
   -3677    -3667    -3661    -3663    -3673    -3678    -3682    -3684 
   -3685    -3688    -3688    -3680    -3677    -3677    -3673    -3676 
   -3681    -3681    -3680    -3680    -3677    -3676    -3677    -3681 
   -3682    -3684    -3685    -3678    -3667    -3666    -3673    -3680 
   -3688    -3690    -3686    -3678    -3670    -3667    -3672    -3677 
   -3682    -3685    -3680    -3670    -3667    -3670    -3674    -3684 
   -3690    -3688    -3682    -3677    -3670    -3670    -3678    -3688 
   -3685    -3677    -3676    -3685    -3693    -3689    -3684    -3684 
   -3682    -3677    -3682    -3686    -3682    -3686    -3692    -3682 
   -3676    -3674    -3670    -3670    -3677    -3685    -3688    -3681 
   -3681    -3685    -3684    -3684    -3688    -3688    -3684    -3678 
   -3676    -3674    -3672    -3673    -3680    -3688    -3692    -3690 
   -3684    -3677    -3674    -3674    -3676    -3681    -3690    -3696 
   -3693    -3688    -3681    -3676    -3674    -3677    -3686    -3700 
   -3703    -3684    -3667    -3667    -3678    -3685    -3684    -3681 
   -3680    -3672    -3665    -3672    -3676    -3678    -3692    -3693 
   -3681    -3676    -3669    -3665    -3669    -3674    -3682    -3689 
   -3693    -3693    -3688    -3680    -3677    -3677    -3678    -3688 
   -3696    -3694    -3692    -3693    -3688    -3682    -3681    -3680 
   -3676    -3674    -3677    -3681    -3688    -3692    -3686    -3680 
   -3676    -3674    -3678    -3685    -3686    -3684    -3680    -3676 
   -3678    -3685    -3682    -3674    -3669    -3674    -3686    -3689 
   -3681    -3684    -3697    -3699    -3689    -3677    -3651    -3619 
   -3620    -3666    -3705    -3711    -3717    -3732    -3726    -3709 
   -3724    -3743    -3726    -3681    -3612    -3534    -3547    -3680 
   -3788    -3793    -3742    -3647    -3561    -3616    -3780    -3844 
   -3761    -3678    -3632    -3545    -3496    -3622    -3828    -3898 
   -3769    -3542    -3397    -3488    -3720    -3866    -3873    -3802 
   -3651    -3493    -3545    -3762    -3825    -3731    -3711    -3693 
   -3580    -3541    -3665    -3811    -3844    -3755    -3623    -3516 
   -3508    -3647    -3825    -3850    -3736    -3657    -3624    -3586 
   -3591    -3651    -3719    -3771    -3774    -3692    -3592    -3580 
   -3632    -3661    -3716    -3816    -3765    -3570    -3545    -3688 
   -3720    -3669    -3736    -3836    -3798    -3678    -3576    -3514 
   -3566    -3712    -3805    -3800    -3711    -3559    -3500    -3618 
   -3754    -3801    -3784    -3692    -3582    -3568    -3635    -3707 
   -3762    -3775    -3709    -3616    -3588    -3604    -3647    -3748 
   -3811    -3746    -3643    -3612    -3649    -3697    -3719    -3748 
   -3762    -3667    -3539    -3531    -3654    -3788    -3811    -3759 
   -3712    -3643    -3570    -3569    -3599    -3651    -3766    -3816 
   -3703    -3585    -3608    -3697    -3754    -3788    -3765    -3653 
   -3570    -3584    -3608    -3638    -3720    -3778    -3747    -3684 
   -3645    -3630    -3642    -3704    -3747    -3678    -3595    -3622 
   -3686    -3719    -3751    -3784    -3761    -3676    -3597    -3591 
   -3632    -3665    -3682    -3720    -3761    -3717    -3618    -3613 
   -3693    -3740    -3766    -3774    -3700    -3595    -3570    -3628 
   -3703    -3746    -3743    -3719    -3667    -3561    -3510    -3623 
   -3761    -3769    -3724    -3711    -3677    -3615    -3619    -3712 
   -3769    -3717    -3655    -3649    -3630    -3611    -3676    -3794 
   -3827    -3730    -3611    -3555    -3559    -3647    -3796    -3862 
   -3784    -3678    -3626    -3611    -3619    -3638    -3643    -3639 
   -3646    -3658    -3654    -3638    -3636    -3663    -3730    -3781 
   -3730    -3643    -3630    -3653    -3662    -3676    -3692    -3700 
   -3699    -3716    -3747    -3736    -3689    -3650    -3620    -3592 
   -3604    -3684    -3784    -3821    -3782    -3694    -3588    -3549 
   -3616    -3716    -3784    -3807    -3738    -3600    -3530    -3572 
   -3636    -3672    -3711    -3789    -3834    -3769    -3676    -3659 
   -3681    -3682    -3690    -3707    -3682    -3631    -3597    -3593 
   -3596    -3609    -3667    -3742    -3750    -3735    -3762    -3755 
   -3686    -3646    -3658    -3669    -3627    -3564    -3574    -3676 
   -3761    -3769    -3712    -3627    -3595    -3645    -3696    -3697 
   -3684    -3686    -3719    -3746    -3717    -3677    -3701    -3732 
   -3693    -3649    -3627    -3577    -3553    -3634    -3763    -3835 
   -3788    -3689    -3634    -3597    -3555    -3570    -3631    -3694 
   -3735    -3712    -3689    -3743    -3789    -3753    -3713    -3728 
   -3724    -3638    -3566    -3640    -3775    -3797    -3728    -3651 
   -3573    -3554    -3618    -3672    -3700    -3713    -3669    -3638 
   -3673    -3672    -3635    -3663    -3754    -3815    -3728    -3555 
   -3523    -3643    -3773    -3869    -3882    -3788    -3689    -3659 
   -3694    -3707    -3601    -3518    -3588    -3650    -3643    -3694 
   -3775    -3777    -3732    -3705    -3692    -3657    -3596    -3573 
   -3657    -3735    -3657    -3537    -3570    -3686    -3709    -3659 
   -3653    -3686    -3705    -3727    -3751    -3720    -3651    -3647 
   -3699    -3693    -3661    -3728    -3847    -3855    -3734    -3630 
   -3650    -3717    -3735    -3735    -3709    -3584    -3478    -3554 
   -3682    -3661    -3549    -3557    -3694    -3773    -3761    -3786 
   -3805    -3708    -3577    -3519    -3535    -3618    -3761    -3862 
   -3809    -3657    -3553    -3570    -3674    -3763    -3774    -3763 
   -3754    -3682    -3599    -3597    -3623    -3638    -3669    -3662 
   -3642    -3705    -3793    -3804    -3784    -3766    -3670    -3524 
   -3489    -3591    -3676    -3673    -3680    -3747    -3774    -3744 
   -3765    -3775    -3669    -3562    -3558    -3611    -3689    -3758 
   -3785    -3792    -3755    -3662    -3586    -3586    -3635    -3632 
   -3572    -3595    -3696    -3726    -3730    -3790    -3805    -3730 
   -3643    -3600    -3613    -3640    -3676    -3751    -3770    -3713 
   -3744    -3838    -3842    -3771    -3676    -3580    -3534    -3569 
   -3666    -3735    -3696    -3635    -3653    -3699    -3697    -3681 
   -3701    -3699    -3618    -3562    -3592    -3613    -3620    -3690 
   -3766    -3720    -3597    -3539    -3581    -3626    -3630    -3655 
   -3739    -3839    -3889    -3846    -3754    -3688    -3650    -3618 
   -3599    -3596    -3635    -3720    -3775    -3754    -3681    -3611 
   -3600    -3630    -3640    -3654    -3711    -3769    -3769    -3720 
   -3685    -3682    -3682    -3690    -3701    -3665    -3618    -3632 
   -3677    -3682    -3649    -3640    -3701    -3771    -3777    -3735 
   -3669    -3616    -3627    -3647    -3628    -3659    -3755    -3811 
   -3797    -3755    -3720    -3713    -3716    -3697    -3655    -3597 
   -3580    -3623    -3651    -3651    -3692    -3721    -3674    -3638 
   -3653    -3650    -3643    -3697    -3770    -3771    -3709    -3682 
   -3701    -3673    -3582    -3519    -3532    -3586    -3642    -3708 
   -3770    -3753    -3667    -3603    -3553    -3518    -3599    -3790 
   -3954    -4008    -3933    -3744    -3547    -3454    -3462    -3535 
   -3634    -3682    -3672    -3705    -3825    -3889    -3813    -3723 
   -3676    -3623    -3618    -3684    -3734    -3751    -3775    -3774 
   -3694    -3593    -3574    -3612    -3623    -3588    -3564    -3589 
   -3616    -3608    -3611    -3635    -3669    -3734    -3775    -3738 
   -3693    -3673    -3655    -3708    -3824    -3886    -3863    -3805 
   -3724    -3630    -3603    -3645    -3640    -3589    -3578    -3623 
   -3719    -3829    -3863    -3808    -3720    -3647    -3596    -3507 
   -3424    -3456    -3510    -3492    -3499    -3581    -3685    -3775 
   -3827    -3829    -3802    -3761    -3700    -3624    -3574    -3592 
   -3696    -3854    -3925    -3847    -3727    -3638    -3600    -3638 
   -3712    -3782    -3844    -3846    -3771    -3699    -3669    -3657 
   -3643    -3611    -3526    -3437    -3472    -3608    -3688    -3665 
   -3632    -3646    -3642    -3545    -3483    -3622    -3820    -3834 
   -3721    -3678    -3719    -3761    -3774    -3773    -3750    -3673 
   -3581    -3553    -3569    -3574    -3591    -3645    -3697    -3726 
   -3763    -3786    -3763    -3781    -3831    -3761    -3604    -3528 
   -3511    -3468    -3493    -3659    -3832    -3906    -3915    -3842 
   -3681    -3557    -3554    -3622    -3680    -3719    -3759    -3755 
   -3685    -3686    -3801    -3865    -3832    -3769    -3690    -3649 
   -3666    -3670    -3670    -3727    -3771    -3726    -3632    -3582 
   -3596    -3612    -3615    -3631    -3667    -3690    -3701    -3747 
   -3800    -3755    -3632    -3545    -3522    -3524    -3550    -3607 
   -3667    -3690    -3669    -3650    -3670    -3703    -3708    -3694 
   -3705    -3734    -3742    -3758    -3771    -3727    -3676    -3673 
   -3669    -3651    -3659    -3673    -3666    -3658    -3667    -3701 
   -3742    -3743    -3688    -3631    -3611    -3603    -3609    -3661 
   -3734    -3761    -3699    -3600    -3524    -3473    -3477    -3541 
   -3564    -3559    -3650    -3761    -3753    -3693    -3701    -3738 
   -3720    -3682    -3677    -3685    -3726    -3827    -3909    -3897 
   -3797    -3661    -3582    -3613    -3684    -3730    -3792    -3886 
   -3923    -3852    -3773    -3788    -3867    -3923    -3948    -3917 
   -3767    -3609    -3611    -3728    -3848    -3910    -3851    -3651 
   -3342    -3015    -2845    -2921    -3175    -3524    -3910    -4253 
   -4452    -4409    -4135    -3762    -3397    -3129    -3092    -3300 
   -3619    -3977    -4336    -4523    -4353    -3847    -3226    -2687 
   -2268    -1975    -1904    -2123    -2570    -3122    -3654    -4072 
   -4332    -4429    -4352    -4079    -3667    -3284    -3138    -3295 
   -3638    -4013    -4247    -4197    -3947    -3670    -3470    -3484 
   -3739    -4016    -4159    -4228    -4249    -4240    -4329    -4527 
   -4612    -4421    -4004    -3524    -3142    -3010    -3248    -3775 
   -4248    -4442    -4487    -4509    -4472    -4390    -4326    -4280 
   -4189    -3982    -3663    -3312    -3049    -2982    -3086    -3213 
   -3280    -3300    -3264    -3215    -3287    -3530    -3774    -3828 
   -3699    -3481    -3217    -3009    -3009    -3198    -3431    -3631 
   -3750    -3761    -3736    -3807    -3989    -4140    -4133    -4037 
   -3987    -3990    -3996    -3970    -3877    -3724    -3557    -3426 
   -3379    -3408    -3423    -3362    -3299    -3342    -3461    -3539 
   -3537    -3451    -3283    -3092    -2988    -2998    -3082    -3249 
   -3520    -3790    -3920    -3935    -3955    -4014    -4063    -4091 
   -4156    -4244    -4243    -4093    -3927    -3908    -4000    -4016 
   -3874    -3649    -3470    -3446    -3549    -3620    -3580    -3470 
   -3319    -3117    -2940    -2936    -3125    -3379    -3589    -3717 
   -3717    -3589    -3449    -3402    -3431    -3456    -3491    -3624 
   -3890    -4203    -4426    -4494    -4434    -4309    -4207    -4214 
   -4321    -4423    -4394    -4174    -3858    -3607    -3474    -3438 
   -3493    -3601    -3651    -3603    -3558    -3609    -3716    -3798 
   -3843    -3850    -3793    -3665    -3511    -3380    -3303    -3318 
   -3402    -3464    -3478    -3476    -3449    -3410    -3423    -3532 
   -3707    -3855    -3919    -3946    -4020    -4117    -4105    -3919 
   -3658    -3450    -3318    -3233    -3175    -3173    -3261    -3372 
   -3437    -3476    -3508    -3523    -3541    -3592    -3673    -3743 
   -3773    -3782    -3792    -3809    -3869    -3979    -4097    -4171 
   -4144    -3994    -3797    -3620    -3483    -3437    -3499    -3555 
   -3516    -3420    -3383    -3476    -3649    -3811    -3919    -3936 
   -3863    -3775    -3721    -3662    -3553    -3416    -3291    -3202 
   -3187    -3294    -3507    -3724    -3875    -3981    -4054    -4058 
   -4012    -3975    -3981    -3993    -3950    -3850    -3707    -3551 
   -3477    -3553    -3708    -3835    -3902    -3910    -3820    -3623 
   -3406    -3277    -3287    -3399    -3514    -3531    -3469    -3441 
   -3534    -3693    -3828    -3933    -4012    -4055    -4121    -4203 
   -4194    -4085    -3979    -3923    -3910    -3917    -3871    -3712 
   -3496    -3342    -3283    -3260    -3276    -3373    -3483    -3511 
   -3466    -3391    -3327    -3325    -3380    -3451    -3535    -3651 
   -3778    -3892    -4010    -4133    -4190    -4122    -3943    -3723 
   -3534    -3411    -3346    -3306    -3296    -3346    -3412    -3460 
   -3524    -3600    -3646    -3678    -3693    -3673    -3696    -3801 
   -3897    -3946    -3983    -4017    -4051    -4112    -4183    -4218 
   -4168    -3997    -3751    -3511    -3287    -3088    -2991    -3019 
   -3103    -3227    -3416    -3613    -3778    -3910    -3952    -3863 
   -3727    -3642    -3626    -3682    -3798    -3902    -3915    -3846 
   -3765    -3681    -3569    -3435    -3330    -3316    -3422    -3591 
   -3731    -3804    -3825    -3832    -3882    -3986    -4052    -4013 
   -3912    -3820    -3753    -3699    -3673    -3728    -3852    -3948 
   -3981    -3996    -4002    -4004    -4031    -4063    -4062    -4010 
   -3923    -3809    -3677    -3530    -3349    -3164    -3060    -3044 
   -3068    -3133    -3207    -3241    -3268    -3342    -3438    -3511 
   -3543    -3523    -3461    -3377    -3304    -3291    -3366    -3510 
   -3670    -3777    -3800    -3786    -3782    -3773    -3761    -3777 
   -3817    -3878    -3970    -4067    -4106    -4068    -4001    -3915 
   -3762    -3562    -3407    -3338    -3322    -3348    -3442    -3615 
   -3812    -3967    -4052    -4044    -3951    -3852    -3788    -3735 
   -3712    -3746    -3815    -3863    -3854    -3820    -3834    -3919 
   -4010    -4045    -4040    -4004    -3904    -3757    -3608    -3458 
   -3310    -3203    -3157    -3165    -3225    -3339    -3504    -3696 
   -3842    -3886    -3855    -3794    -3724    -3666    -3639    -3638 
   -3635    -3639    -3705    -3840    -3947    -3966    -3909    -3789 
   -3650    -3581    -3595    -3609    -3584    -3561    -3586    -3643 
   -3676    -3670    -3694    -3775    -3854    -3897    -3909    -3878 
   -3805    -3713    -3605    -3489    -3385    -3292    -3223    -3206 
   -3265    -3407    -3600    -3807    -4021    -4201    -4268    -4205 
   -4009    -3694    -3380    -3211    -3222    -3353    -3499    -3586 
   -3604    -3542    -3411    -3280    -3206    -3230    -3364    -3543 
   -3689    -3754    -3711    -3572    -3403    -3310    -3372    -3576 
   -3828    -4040    -4166    -4216    -4233    -4232    -4193    -4121 
   -4033    -3929    -3831    -3773    -3771    -3824    -3910    -3977 
   -3983    -3943    -3866    -3763    -3680    -3616    -3555    -3518 
   -3511    -3518    -3535    -3531    -3499    -3492    -3535    -3592 
   -3611    -3562    -3491    -3453    -3435    -3404    -3364    -3325 
   -3310    -3352    -3433    -3527    -3647    -3797    -3954    -4093 
   -4199    -4264    -4290    -4272    -4226    -4159    -4060    -3964 
   -3915    -3877    -3805    -3689    -3515    -3276    -3015    -2810 
   -2727    -2778    -2916    -3115    -3353    -3561    -3708    -3847 
   -4012    -4159    -4247    -4272    -4244    -4183    -4106    -4021 
   -3923    -3802    -3692    -3626    -3562    -3470    -3407    -3420 
   -3497    -3604    -3682    -3694    -3680    -3684    -3697    -3690 
   -3658    -3596    -3488    -3349    -3229    -3163    -3160    -3211 
