Origin Time       2024/06/23 22:54:00
Lat.              35.645
Long.             140.060
Depth. (km)       72
Mag.              4.1
Station Code      TKY021
Station Lat.      35.6875
Station Long.     139.8190
Station Height(m) 1
Record Time       2024/06/23 22:54:45
Sampling Freq(Hz) 100Hz
Duration Time(s)  60
Dir.              E-W
Scale Factor      7845(gal)/8223790
Max. Acc. (gal)   6.891
Last Correction   1970/01/31 00:00:00
Memo.             
[...]
    4623     4625     4619     4617     4619     4621     4619     4629 
    4639     4631     4631     4639     4638     4637     4631     4630 
    4634     4626     4625     4633     4627     4622     4622     4622 
    4626     4623     4623     4633     4625     4614     4622     4621 
    4615     4626     4630     4625     4625     4633     4631     4619 
    4626     4637     4630     4639     4645     4630     4634     4638 
    4627     4635     4641     4626     4629     4637     4629     4627 
    4629     4631     4639     4634     4626     4630     4630     4627 
    4618     4610     4611     4608     4618     4627     4615     4615 
    4623     4615     4619     4630     4631     4637     4631     4623 
    4638     4649     4641     4635     4631     4630     4638     4642 
    4633     4629     4626     4621     4633     4637     4622     4615 
    4623     4637     4641     4634     4626     4621     4623     4633 
    4634     4629     4630     4633     4629     4626     4626     4626 
    4623     4615     4615     4621     4623     4625     4622     4622 
    4635     4641     4634     4631     4629     4630     4642     4646 
    4634     4630     4638     4638     4630     4623     4623     4627 
    4631     4627     4623     4626     4625     4626     4629     4631 
    4633     4627     4626     4633     4638     4637     4634     4630 
    4621     4611     4615     4627     4627     4625     4631     4627 
    4615     4623     4631     4626     4630     4630     4629     4642 
    4644     4630     4626     4629     4635     4642     4644     4641 
    4633     4631     4637     4635     4634     4641     4638     4626 
    4623     4626     4621     4618     4622     4625     4623     4625 
    4626     4622     4622     4621     4621     4634     4642     4638 
    4639     4634     4622     4625     4626     4615     4622     4631 
    4621     4622     4631     4623     4627     4637     4621     4614 
    4623     4626     4635     4642     4631     4631     4642     4634 
    4622     4630     4637     4626     4619     4627     4637     4639 
    4630     4619     4621     4619     4619     4633     4637     4622 
    4615     4615     4618     4626     4621     4617     4626     4621 
    4626     4642     4638     4629     4622     4621     4633     4639 
    4633     4634     4634     4629     4629     4627     4623     4615 
    4614     4630     4637     4626     4626     4625     4625     4631 
    4621     4621     4634     4619     4611     4621     4621     4623 
    4626     4622     4626     4630     4631     4630     4622     4621 
    4631     4635     4631     4618     4607     4622     4631     4622 
    4621     4618     4612     4622     4619     4614     4627     4637 
    4639     4638     4630     4629     4634     4639     4644     4642 
    4633     4621     4618     4622     4619     4617     4621     4622 
    4621     4623     4623     4621     4623     4622     4622     4631 
    4631     4629     4631     4630     4629     4627     4629     4635 
    4633     4633     4634     4625     4625     4633     4627     4629 
    4633     4623     4623     4623     4614     4622     4629     4626 
    4634     4629     4619     4627     4626     4623     4623     4612 
    4611     4614     4607     4617     4631     4637     4641     4641 
    4644     4642     4626     4626     4644     4642     4639     4634 
    4617     4625     4641     4630     4623     4622     4621     4630 
    4637     4635     4623     4611     4619     4629     4626     4626 
    4627     4629     4637     4638     4631     4626     4619     4625 
    4637     4633     4631     4638     4626     4621     4634     4637 
    4627     4630     4634     4625     4619     4621     4621     4629 
    4629     4625     4633     4629     4614     4614     4627     4627 
    4621     4623     4623     4627     4626     4611     4615     4627 
    4619     4618     4635     4634     4622     4638     4654     4645 
    4642     4644     4639     4638     4638     4639     4644     4642 
    4634     4625     4631     4638     4630     4630     4626     4607 
    4611     4621     4622     4631     4635     4626     4622     4630 
    4634     4627     4629     4639     4641     4642     4650     4641 
    4630     4634     4633     4633     4639     4627     4610     4607 
    4611     4615     4615     4621     4631     4630     4633     4641 
    4630     4614     4612     4619     4626     4629     4623     4618 
    4619     4621     4625     4631     4629     4627     4637     4638 
    4627     4625     4629     4626     4625     4629     4626     4621 
    4625     4627     4634     4642     4637     4629     4629     4625 
    4617     4614     4619     4621     4629     4639     4634     4627 
    4627     4626     4623     4621     4627     4634     4630     4634 
    4639     4631     4626     4626     4625     4629     4629     4626 
    4625     4621     4621     4625     4617     4619     4637     4644 
    4646     4645     4634     4629     4630     4629     4622     4612 
    4617     4645     4661     4649     4637     4631     4621     4604 
    4585     4595     4654     4700     4673     4618     4602     4625 
    4644     4634     4635     4649     4584     4491     4561     4702 
    4696     4654     4716     4733     4603     4494     4552     4656 
    4634     4550     4560     4666     4777     4833     4746     4499 
    4287     4355     4665     4864     4738     4573     4621     4712 
    4754     4799     4654     4307     4239     4621     4900     4710 
    4523     4741     4935     4768     4504     4336     4287     4472 
    4823     4999     4803     4514     4504     4698     4770     4615 
    4414     4367     4530     4791     4831     4615     4529     4638 
    4625     4498     4542     4712     4733     4671     4693     4672 
    4584     4627     4739     4707     4596     4576     4602     4590 
    4560     4511     4482     4587     4811     4900     4708     4496 
    4519     4625     4587     4440     4403     4611     4870     4931 
    4868     4762     4533     4351     4483     4719     4687     4517 
    4552     4712     4730     4619     4564     4644     4706     4599 
    4461     4446     4594     4841     4874     4565     4293     4390 
    4773     5067     4986     4602     4232     4195     4479     4749 
    4839     4792     4689     4680     4743     4653     4419     4356 
    4584     4830     4837     4684     4569     4526     4530     4606 
    4641     4584     4644     4818     4818     4591     4345     4270 
    4415     4660     4864     4946     4854     4637     4469     4507 
    4639     4618     4509     4544     4691     4801     4827     4784 
    4654     4477     4423     4523     4581     4576     4650     4746 
    4731     4668     4658     4621     4502     4530     4769     4861 
    4644     4421     4423     4534     4579     4567     4590     4692 
    4812     4799     4606     4448     4472     4542     4626     4801 
    4888     4710     4500     4587     4830     4797     4537     4496 
    4727     4828     4634     4414     4411     4538     4568     4465 
    4387     4411     4523     4733     4909     4916     4865     4826 
    4706     4548     4496     4521     4540     4634     4820     4851 
    4583     4307     4423     4835     5019     4823     4604     4529 
    4475     4456     4542     4599     4519     4479     4635     4847 
    4966     4962     4816     4567     4345     4271     4310     4390 
    4552     4708     4685     4630     4750     4882     4853     4789 
    4764     4639     4456     4434     4542     4583     4573     4639 
    4752     4784     4696     4614     4646     4653     4464     4234 
    4217     4359     4503     4695     4941     5030     4945     4963 
    5078     4963     4563     4139     3912     3998     4369     4814 
    5100     5112     4954     4826     4716     4529     4341     4314 
    4465     4603     4587     4530     4536     4509     4475     4708 
    5146     5231     4800     4383     4386     4653     4830     4769 
    4567     4405     4425     4553     4583     4533     4591     4715 
    4770     4843     4901     4664     4260     4168     4415     4696 
    4860     4876     4784     4685     4641     4595     4436     4224 
    4143     4287     4661     5080     5200     5023     4947     5082 
    5026     4577     4160     4143     4328     4434     4533     4692 
    4729     4573     4472     4564     4642     4561     4527     4671 
    4799     4814     4789     4704     4572     4515     4538     4561 
    4540     4480     4445     4510     4703     4864     4772     4585 
    4714     5085     5127     4681     4212     4033     4124     4390 
    4673     4810     4754     4672     4741     4795     4661     4572 
    4689     4788     4757     4725     4672     4540     4457     4502 
    4502     4365     4388     4770     5073     4870     4511     4507 
    4684     4660     4579     4641     4642     4526     4542     4612 
    4391     4105     4318     4866     5134     5020     4826     4707 
    4652     4637     4591     4417     4279     4491     4939     5204 
    5140     4857     4488     4266     4267     4283     4309     4552 
    4811     4735     4530     4571     4750     4799     4758     4730 
    4619     4471     4517     4653     4599     4506     4653     4888 
    4893     4645     4455     4548     4716     4747     4774     4783 
    4568     4364     4514     4718     4499     4050     3964     4338 
    4757     4954     4938     4823     4756     4781     4826     4781 
    4658     4554     4453     4295     4202     4314     4585     4893 
    5101     5038     4753     4576     4641     4688     4545     4405 
    4428     4517     4656     4866     4949     4822     4646     4511 
    4422     4383     4406     4467     4455     4461     4725     5138 
    5269     4990     4679     4606     4534     4337     4348     4644 
    4860     4927     5042     5063     4804     4487     4365     4388 
    4371     4182     3944     4051     4658     5244     5181     4710 
    4596     4955     5223     5121     4877     4633     4341     4114 
    4136     4295     4357     4369     4467     4521     4441     4452 
    4708     5028     5178     5127     5007     4901     4727     4463 
    4226     4058     3978     4148     4571     4853     4729     4482 
    4422     4491     4553     4553     4500     4472     4526     4639 
    4714     4738     4878     5166     5328     5127     4704     4463 
    4546     4652     4533     4371     4472     4823     5046     4862 
    4429     4082     4064     4333     4594     4704     4800     4973 
    5080     4943     4664     4530     4622     4776     4812     4666 
    4511     4537     4679     4785     4789     4706     4684     4833 
    4946     4730     4334     4194     4341     4426     4338     4348 
    4540     4610     4522     4606     4803     4762     4573     4545 
    4635     4662     4658     4777     5009     5151     5078     4806 
    4417     4094     3935     3863     3889     4068     4340     4610 
    4901     5319     5706     5661     5205     4815     4700     4658 
    4495     4243     4068     4105     4311     4522     4592     4494 
    4365     4392     4573     4756     4776     4629     4531     4634 
    4757     4743     4737     4842     4923     4885     4770     4629 
    4491     4406     4432     4536     4595     4592     4627     4722 
    4808     4888     4966     5026     5104     5115     4907     4596 
    4399     4334     4311     4257     4155     4120     4299     4607 
    4816     4864     4816     4737     4649     4577     4565     4639 
    4845     5135     5251     4972     4407     3946     3933     4288 
    4522     4436     4411     4658     4897     4901     4699     4459 
    4422     4665     5036     5293     5184     4779     4477     4426 
    4374     4225     4233     4498     4693     4661     4653     4681 
    4579     4531     4712     4845     4716     4522     4480     4536 
    4591     4607     4507     4326     4286     4488     4784     4993 
    4982     4766     4603     4645     4712     4631     4456     4271 
    4106     4016     4017     4064     4213     4577     5108     5536 
    5617     5467     5371     5302     5065     4666     4248     3958 
    3939     4153     4380     4484     4526     4606     4683     4672 
    4711     4941     5150     5084     4835     4606     4472     4514 
    4688     4715     4480     4213     4143     4283     4506     4698 
    4811     4827     4823     4930     5076     5035     4806     4634 
    4606     4595     4653     4858     4923     4603     4210     4108 
    4113     3962     3900     4201     4614     4855     4973     5034 
    5017     4934     4785     4598     4425     4315     4309     4390 
    4492     4606     4789     5027     5185     5217     5215     5161 
    4959     4689     4383     3942     3526     3472     3816     4294 
    4671     4982     5377     5733     5805     5590     5323     5252 
    5379     5499     5599     5856     6166     6174     5737     5020 
    4232     3568     3285     3449     3661     3476     3034     2867 
    3142     3501     3647     3716     4062     4860     5867     6733 
    7269     7298     6772     5898     4888     3933     3241     3029 
    3404     4156     4957     5680     6200     6150     5115     3028 
     460    -1624    -2596    -2432    -1246      835     3333     5537 
    7045     7947     8478     8602     8109     6997     5616     4411 
    3574     3171     3385     4293     5532     6558     7167     7469 
    7392     6604     4920     2637      577     -355      113     1548 
    3339     5121     6771     8124     9000     9379     9202     8395 
    7132     5640     4016     2408     1255     1186     2251     3631 
    4714     5692     6778     7638     7873     7561     7110     6623 
    5837     4649     3372     2554     2579     3285     4062     4401 
    4263     3905     3487     3015     2621     2662     3441     4889 
    6562     7897     8536     8341     7169     5059     2609      604 
    -603    -1057     -774      333     2100     3975     5427     6222 
    6448     6363     6133     5763     5278     4928     4995     5323 
    5475     5339     5143     4980     4665     4110     3685     3871 
    4618     5455     6038     6305     6363     6234     5764     4943 
    3983     3080     2365     1907     1671     1632     1993     3052 
    4707     6350     7524     8370     9111     9402     8644     6972 
    5302     4263     3735     3381     3126     3225     3834     4604 
    5065     5088     4725     3979     2991     2154     1880     2312 
    3381     4922     6558     7785     8325     8174     7464     6427 
    5260     4020     2840     2053     1846     1993     2212     2582 
    3388     4693     6089     6936     6916     6205     5098     3717 
    2196      986      621     1208     2442     3932     5401     6647 
    7477     7641     6949     5589     3991     2513     1547     1401 
    1938     2847     4093     5687     7257     8310     8622     8202 
    7258     6056     4720     3419     2430     1929     2007     2714 
    3919     5313     6681     7927     8734     8638     7531     5880 
    4363     3330     2817     2836     3311     4035     4783     5336 
    5557     5418     4996     4498     4109     3855     3682     3537 
    3427     3408     3453     3528     3711     4045     4459     4869 
    5215     5294     4923     4293     3842     3717     3699     3690 
    3874     4324     4824     5139     5193     4997     4649     4398 
    4380     4360     4131     3915     4040     4457     4791     4735 
    4309     3763     3414     3449     3831     4444     5252     6239 
    7275     8037     8095     7271     5942     4773     4185     4105 
    4148     4105     4099     4274     4639     5081     5397     5491 
    5475     5520     5594     5475     5089     4610     4268     4141 
    4101     3958     3667     3416     3362     3400     3373     3272 
    3231     3464     4086     4920     5606     6035     6427     6835 
    6970     6596     5857     5057     4326     3613     2917     2378 
    2135     2220     2605     3240     4004     4727     5332     5791 
    6025     5954     5543     4874     4249     3886     3709     3620 
    3684     4025     4638     5277     5678     5834     5869     5767 
    5398     4833     4332     4023     3846     3730     3591     3389 
    3252     3311     3542     3836     4147     4544     5050     5513 
    5768     5782     5606     5395     5263     5142     5044     5192 
    5602     5931     5888     5539     5112     4681     4183     3669 
    3289     3044     2853     2844     3245     3986     4703     5107 
    5188     5135     5098     5071     5098     5246     5413     5502 
    5537     5574     5663     5795     5887     5817     5459     4773 
    3867     3019     2540     2521     2841     3389     4125     5013 
    5919     6538     6597     6170     5579     5024     4510     4085 
    3869     3838     3843     3804     3754     3750     3808     3986 
    4355     4792     5097     5248     5336     5364     5229     4860 
    4309     3723     3271     3075     3149     3415     3824     4342 
    4887     5281     5352     5088     4706     4510     4579     4650 
    4515     4351     4402     4633     4822     4857     4835     4916 
    5151     5404     5428     5185     4918     4820     4877     5042 
    5275     5433     5370     5104     4761     4394     4004     3742 
    3824     4225     4723     5161     5502     5784     5973     5881 
    5395     4683     4066     3728     3599     3537     3515     3599 
    3859     4307     4791     5100     5196     5154     4999     4723 
    4364     4010     3813     3905     4240     4665     5055     5285 
    5259     5001     4606     4186     3851     3639     3586     3747 
    4082     4448     4722     4924     5100     5171     5053     4799 
    4588     4540     4575     4614     4661     4677     4619     4496 
    4297     4070     3948     4024     4301     4735     5289     5857 
    6219     6276     6093     5703     5135     4506     3975     3670 
    3597     3699     3940     4305     4741     5142     5340     5282 
    5093     4949     4981     5201     5467     5611     5575     5421 
    5255     5074     4811     4522     4307     4207     4178     4132 
    4087     4118     4198     4225     4126     3944     3793     3771 
    3932     4217     4456     4523     4459     4356     4243     4120 
    4018     4002     4153     4523     5066     5617     5988     6103 
    6000     5767     5435     4984     4444     3889     3348     2859 
    2573     2628     2944     3388     3956     4608     5134     5341 
    5314     5263     5232     5182     5134     5098     5063     5023 
    5015     5036     5024     4972     4914     4847     4781     4792 
    4926     5104     5227     5244     5121     4862     4558     4302 
    4118     4055     4203     4553     4928     5108     4957     4484 
    3838     3258     2951     2991     3379     4020     4731     5339 
    5695     5697     5383     4957     4603     4356     4216     4282 
