Origin Time       2024/06/23 22:54:00
Lat.              35.645
Long.             140.060
Depth. (km)       72
Mag.              4.1
Station Code      TKY023
Station Lat.      35.7259
Station Long.     139.8254
Station Height(m) 0
Record Time       2024/06/23 22:54:45
Sampling Freq(Hz) 100Hz
Duration Time(s)  60
Dir.              N-S
Scale Factor      7845(gal)/8223790
Max. Acc. (gal)   4.431
Last Correction   2024/06/23 22:54:45
Memo.             
[...]
    8375     8398     8387     8365     8343     8326     8334     8360 
    8387     8388     8352     8320     8326     8359     8391     8407 
    8405     8380     8340     8309     8309     8343     8383     8398 
    8382     8349     8326     8338     8371     8384     8356     8322 
    8330     8361     8380     8374     8343     8314     8333     8380 
    8397     8378     8359     8349     8341     8336     8344     8370 
    8387     8380     8370     8371     8356     8324     8325     8367 
    8399     8388     8352     8330     8343     8359     8359     8353 
    8360     8371     8368     8359     8367     8367     8345     8348 
    8368     8371     8364     8363     8380     8392     8368     8334 
    8333     8352     8370     8383     8384     8372     8363     8360 
    8344     8325     8336     8353     8359     8370     8379     8374 
    8372     8363     8352     8357     8359     8355     8359     8363 
    8363     8351     8343     8364     8380     8372     8360     8352 
    8347     8348     8353     8363     8367     8363     8364     8370 
    8368     8378     8386     8361     8330     8333     8352     8359 
    8364     8372     8367     8356     8359     8372     8375     8365 
    8352     8348     8361     8383     8383     8352     8325     8329 
    8356     8378     8370     8351     8352     8370     8374     8353 
    8334     8344     8360     8356     8345     8348     8356     8357 
    8359     8361     8356     8351     8348     8355     8371     8376 
    8364     8353     8353     8368     8386     8376     8345     8328 
    8337     8353     8363     8367     8375     8383     8374     8349 
    8334     8334     8347     8360     8357     8356     8375     8386 
    8376     8365     8359     8345     8344     8361     8371     8371 
    8374     8368     8356     8348     8355     8370     8370     8360 
    8349     8326     8326     8357     8371     8367     8367     8359 
    8353     8363     8363     8359     8355     8351     8348     8340 
    8344     8367     8374     8359     8344     8343     8353     8367 
    8380     8384     8359     8328     8326     8344     8359     8375 
    8380     8375     8368     8347     8332     8349     8365     8361 
    8355     8355     8367     8380     8386     8378     8364     8352 
    8337     8329     8338     8356     8383     8394     8372     8356 
    8361     8355     8333     8330     8355     8382     8395     8390 
    8372     8363     8363     8365     8357     8351     8356     8357 
    8355     8367     8378     8363     8344     8337     8343     8365 
    8382     8380     8380     8367     8340     8321     8321     8340 
    8352     8357     8372     8382     8372     8361     8359     8353 
    8341     8340     8357     8379     8390     8388     8368     8334 
    8324     8341     8363     8372     8353     8328     8340     8372 
    8378     8361     8353     8351     8340     8340     8359     8375 
    8378     8375     8371     8368     8364     8344     8332     8343 
    8351     8364     8380     8376     8360     8348     8343     8351 
    8364     8367     8355     8347     8347     8357     8375     8382 
    8378     8365     8352     8352     8356     8360     8371     8371 
    8365     8364     8360     8356     8356     8352     8343     8340 
    8345     8352     8353     8355     8349     8336     8344     8367 
    8376     8382     8380     8368     8360     8351     8337     8348 
    8372     8379     8371     8365     8364     8359     8348     8338 
    8332     8338     8357     8365     8360     8356     8355     8357 
    8357     8353     8355     8360     8359     8357     8356     8357 
    8360     8361     8365     8363     8353     8359     8368     8368 
    8368     8360     8345     8349     8372     8394     8387     8357 
    8344     8359     8359     8338     8338     8365     8390     8395 
    8370     8337     8332     8345     8352     8356     8361     8364 
    8363     8363     8357     8351     8359     8375     8380     8382 
    8380     8364     8348     8353     8364     8368     8361     8349 
    8345     8356     8367     8359     8344     8347     8352     8353 
    8363     8370     8355     8337     8344     8364     8370     8361 
    8356     8357     8367     8378     8375     8360     8351     8357 
    8365     8357     8352     8363     8360     8351     8361     8376 
    8372     8367     8361     8355     8359     8360     8345     8336 
    8351     8372     8378     8365     8345     8344     8361     8368 
    8357     8343     8340     8353     8363     8365     8367     8355 
    8343     8355     8383     8398     8382     8357     8347     8351 
    8368     8382     8378     8368     8359     8349     8334     8326 
    8337     8352     8359     8368     8379     8378     8375     8383 
    8406     8415     8383     8341     8336     8347     8329     8295 
    8294     8329     8363     8334     8299     8374     8436     8352 
    8311     8417     8492     8468     8402     8374     8403     8345 
    8228     8241     8266     8218     8326     8506     8475     8290 
    8160     8271     8530     8492     8182     8171     8478     8596 
    8467     8405     8506     8594     8503     8322     8262     8236 
    8102     8117     8391     8544     8402     8237     8368     8577 
    8326     7870     7912     8352     8577     8487     8456     8505 
    8440     8445     8514     8360     8127     8137     8387     8641 
    8687     8525     8320     8232     8213     8100     8075     8262 
    8361     8361     8476     8672     8752     8486     8075     8081 
    8359     8340     8136     8112     8317     8575     8599     8579 
    8727     8579     8121     7971     8128     8241     8316     8401 
    8436     8403     8297     8167     8183     8437     8761     8861 
    8581     8141     7971     8156     8391     8411     8256     8163 
    8263     8498     8669     8525     8214     8129     8302     8532 
    8600     8413     8247     8299     8425     8532     8484     8163 
    7919     8074     8441     8718     8770     8633     8433     8210 
    8008     7955     7998     7965     8039     8484     8934     8962 
    8816     8649     8338     8124     8083     8039     8167     8434 
    8469     8338     8359     8575     8681     8442     8226     8329 
    8392     8171     7916     7963     8279     8534     8596     8482 
    8274     8208     8283     8402     8580     8668     8629     8552 
    8282     7906     7824     8047     8290     8425     8419     8386 
    8561     8865     8947     8781     8591     8436     8276     8052 
    7823     7839     8085     8325     8534     8633     8559     8471 
    8368     8230     8251     8295     8197     8191     8229     8172 
    8343     8719     8865     8748     8573     8405     8267     8171 
    8191     8351     8406     8340     8336     8189     7854     7746 
    8009     8453     8829     8893     8648     8365     8309     8471 
    8546     8332     8020     7948     8216     8561     8694     8587 
    8380     8267     8341     8428     8326     8081     7874     7897 
    8175     8525     8712     8658     8548     8569     8644     8613 
    8537     8590     8583     8208     7794     7843     8151     8278 
    8197     8212     8482     8721     8714     8638     8541     8398 
    8341     8307     8228     8216     8212     8182     8291     8529 
    8699     8683     8521     8334     8201     8164     8197     8229 
    8244     8272     8397     8545     8445     8172     8090     8202 
    8325     8417     8428     8349     8270     8256     8351     8472 
    8478     8441     8468     8534     8607     8610     8572     8565 
    8455     8194     7908     7735     7803     8013     8170     8218 
    8297     8680     9134     9050     8548     8151     8028     8286 
    8721     8749     8361     8100     8178     8360     8356     8178 
    8060     8147     8429     8694     8635     8279     7996     8032 
    8217     8345     8471     8542     8479     8444     8441     8336 
    8226     8189     8239     8436     8575     8526     8534     8602 
    8411     8085     8058     8228     8275     8252     8267     8441 
    8743     8819     8611     8347     8155     8170     8272     8262 
    8340     8534     8502     8282     8170     8118     8078     8260 
    8575     8699     8719     8729     8587     8422     8307     8186 
    8170     8155     8021     7958     8067     8320     8559     8569 
    8444     8352     8383     8534     8534     8245     7906     7812 
    8116     8583     8715     8467     8280     8391     8627     8784 
    8808     8614     8220     7994     8154     8367     8259     7985 
    8002     8274     8455     8583     8712     8757     8692     8299 
    7653     7426     7861     8482     8896     8981     8766     8561 
    8573     8600     8432     8117     7935     8120     8380     8325 
    8148     8077     7970     7935     8149     8302     8205     8251 
    8661     9096     9297     9227     8783     8168     7792     7712 
    7831     8012     8170     8406     8608     8665     8667     8429 
    8052     8097     8455     8622     8633     8685     8653     8392 
    8143     8163     8360     8606     8669     8370     8093     8141 
    8251     8239     8256     8434     8608     8482     8152     8020 
    8118     8239     8392     8654     8928     9015     8838     8523 
    8203     8074     8221     8289     8036     7757     7744     7948 
    8181     8287     8293     8345     8363     8239     8155     8222 
    8278     8190     8089     8247     8542     8583     8533     8769 
    9047     9023     8762     8375     8063     8133     8473     8625 
    8456     8252     8189     8168     8101     8006     8023     8237 
    8476     8542     8486     8395     8318     8309     8287     8205 
    8252     8553     8876     8927     8806     8757     8748     8661 
    8510     8278     7973     7739     7777     8079     8372     8475 
    8540     8667     8681     8515     8340     8212     8117     8203 
    8479     8621     8482     8244     8002     7824     7878     8144 
    8410     8465     8302     8230     8452     8762     8883     8644 
    8185     7990     8164     8271     8170     8156     8407     8753 
    8965     8927     8538     7927     7538     7593     7902     8195 
    8370     8473     8595     8706     8699     8590     8434     8251 
    8179     8317     8560     8703     8581     8336     8268     8322 
    8311     8216     8048     7954     8070     8328     8592     8688 
    8525     8272     8187     8340     8525     8580     8584     8629 
    8662     8575     8459     8434     8303     8055     8010     8179 
    8343     8367     8226     8116     8178     8307     8478     8707 
    8795     8669     8595     8634     8544     8306     8101     8012 
    8101     8294     8399     8379     8224     8001     7998     8236 
    8480     8665     8698     8498     8226     8108     8232     8486 
    8599     8425     8129     8037     8275     8594     8664     8498 
    8320     8208     8221     8437     8549     8289     7982     7952 
    8128     8397     8596     8577     8453     8391     8387     8333 
    8193     8060     8041     8205     8529     8814     8834     8634 
    8480     8475     8527     8515     8314     8093     8194     8521 
    8664     8538     8334     8159     8089     8190     8341     8349 
    8225     8093     8063     8168     8240     8152     8091     8253 
    8575     8799     8760     8591     8445     8357     8388     8483 
    8495     8405     8307     8220     8033     7800     7750     7940 
    8209     8430     8602     8743     8827     8795     8607     8356 
    8213     8202     8272     8394     8475     8514     8621     8730 
    8683     8461     8174     7960     7901     8046     8355     8665 
    8870     8919     8729     8379     8102     8056     8186     8274 
    8268     8268     8248     8260     8441     8615     8500     8203 
    8055     8183     8442     8603     8514     8256     8027     7960 
    8104     8286     8451     8797     9144     9100     8754     8399 
    8193     8175     8208     8172     8106     7962     7730     7636 
    7804     8089     8287     8218     7971     7974     8356     8710 
    8692     8468     8425     8637     8815     8735     8482     8333 
    8498     8787     8818     8532     8145     7807     7603     7657 
    7975     8345     8565     8626     8619     8660     8729     8680 
    8557     8577     8729     8762     8529     8237     8183     8255 
    8239     8272     8436     8550     8568     8623     8777     8941 
    8980     8874     8735     8630     8459     8162     7838     7530 
    7296     7231     7302     7511     7932     8472     8986     9383 
    9563     9471     9146     8757     8413     8036     7682     7577 
    7808     8168     8343     8348     8467     8695     8837     8850 
    8694     8344     7861     7222     6502     5942     5722     5950 
    6555     7267     7865     8307     8691     9053     9198     9036 
    8818     8829     9077     9323     9344     9070     8510     7852 
    7481     7569     8002     8688     9559    10476    11192    11493 
   11454    11261    10844     9972     8648     7217     6073     5466 
    5466     5868     6339     6791     7404     8410     9875    11396 
   12430    12914    13004    12757    12264    11427    10025     8187 
    6300     4861     4330     4594     4957     4893     4484     4117 
    4126     4654     5522     6385     7083     7642     8206     8883 
    9558    10195    10928    11604    11815    11385    10439     9316 
    8409     7744     7157     6650     6307     6288     6673     7200 
    7574     7692     7609     7620     8031     8810     9695    10488 
   11075    11314    11133    10666     9999     9134     8185     7268 
    6448     5904     5860     6378     7226     8040     8679     9209 
    9672    10054    10257    10201    10031     9894     9757     9560 
    9169     8479     7627     6820     6251     5961     5746     5695 
    6133     6860     7354     7524     7798     8514     9547    10550 
   11205    11461    11516    11384    10867     9896     8638     7437 
    6535     5868     5417     5286     5448     5892     6566     7254 
    7954     8723     9344     9718    10003    10281    10517    10582 
   10304     9718     9099     8716     8668     8769     8687     8264 
    7661     7146     6891     6825     6686     6405     6334     6743 
    7453     8181     8707     8872     8866     9053     9441     9755 
    9779     9509     9126     8860     8862     9062     9085     8680 
    8113     7774     7695     7616     7254     6612     6100     6168 
    6922     8064     9124     9859    10287    10424    10220     9674 
    8892     8118     7707     7830     8243     8608     8788     8811 
    8908     9181     9298     9008     8410     7680     7074     6909 
    7248     7784     8063     8048     8144     8394     8407     8113 
    7825     7738     7839     8171     8646     8878     8773     8722 
    8924     9193     9305     9100     8495     7680     7092     7009 
    7187     7225     7121     7094     7122     7133     7253     7555 
    7909     8163     8253     8280     8490     9012     9660    10158 
   10428    10539    10628    10694    10544    10146     9595     8930 
    8294     7830     7516     7446     7788     8405     8887     9005 
    8830     8495     8113     7695     7268     7056     7111     7202 
    7296     7518     7808     8066     8270     8498     8841     9132 
    9109     8870     8669     8573     8550     8459     8236     8121 
    8266     8500     8658     8675     8519     8257     7967     7599 
    7145     6737     6426     6230     6315     6810     7701     8819 
    9809    10366    10530    10427    10022     9398     8837     8482 
    8361     8434     8491     8430     8388     8402     8453     8611 
    8715     8525     8170     7854     7605     7511     7670     7948 
    8087     8082     8247     8746     9302     9609     9738     9838 
    9757     9354     8757     8160     7738     7587     7588     7555 
    7406     7258     7291     7439     7537     7608     7726     7867 
    8081     8438     8807     8953     8831     8580     8324     8199 
    8348     8627     8739     8685     8649     8595     8429     8328 
    8444     8568     8496     8378     8399     8527     8661     8715 
    8580     8245     7897     7716     7724     7859     8118     8484 
    8750     8715     8457     8167     7948     7832     7877     8122 
    8398     8475     8397     8340     8372     8484     8684     8965 
    9205     9232     9019     8657     8252     7943     7893     8182 
    8630     8899     8880     8703     8480     8338     8422     8727 
    9082     9297     9343     9242     8904     8371     7828     7420 
    7256     7373     7685     8019     8189     8170     8105     8102 
    8222     8480     8748     8846     8660     8206     7666     7253 
    7078     7061     7079     7164     7360     7601     7878     8220 
    8617     9008     9248     9202     8896     8510     8251     8232 
    8370     8527     8718     8943     9109     9154     9038     8757 
    8440     8270     8274     8283     8191     8128     8272     8617 
    8947     9055     8900     8596     8322     8232     8299     8318 
    8179     8058     8117     8301     8500     8617     8581     8503 
    8490     8505     8506     8473     8336     8067     7749     7510 
    7477     7750     8289     8927     9514     9919    10035     9898 
    9555     9027     8426     7863     7427     7198     7134     7180 
    7365     7676     8002     8251     8403     8428     8334     8284 
    8363     8418     8375     8359     8375     8338     8310     8380 
    8507     8645     8800     8884     8760     8422     8010     7720 
    7659     7771     7977     8289     8662     8927     8961     8754 
    8407     8131     8044     8039     7969     7873     7890     8024 
    8151     8260     8421     8572     8637     8665     8727     8719 
    8492     8127     7807     7588     7495     7624     7973     8352 
    8629     8829     8939     8935     8885     8860     8835     8704 
    8446     8287     8402     8575     8532     8334     8159     8031 
    7954     7983     8067     8037     7851     7666     7639     7777 
    8031     8356     8716     9119     9524     9799     9876     9782 
    9560     9255     8876     8486     8193     7975     7750     7504 
    7258     7044     6955     7071     7369     7785     8338     9016 
    9637     9960     9882     9531     9108     8685     8251     7869 
    7682     7761     8024     8347     8613     8702     8590     8353 
    8043     7716     7473     7433     7650     7947     8085     8109 
    8186     8326     8424     8382     8256     8203     8271     8398 
    8488     8460     8370     8348     8471     8680     8822     8797 
    8658     8530     8522     8630     8766     8880     8965     9058 
    9174     9225     9112     8842     8445     7982     7635     7570 
    7709     7877     8019     8140     8243     8390     8594     8769 
