Origin Time       2024/06/23 22:54:00
Lat.              35.645
Long.             140.060
Depth. (km)       72
Mag.              4.1
Station Code      TKY005
Station Lat.      35.5798
Station Long.     139.4137
Station Height(m) 106
Record Time       2024/06/23 22:54:49
Sampling Freq(Hz) 100Hz
Duration Time(s)  60
Dir.              E-W
Scale Factor      7845(gal)/8223790
Max. Acc. (gal)   4.531
Last Correction   2024/06/23 22:54:49
Memo.             
[...]
    3265     3256     3273     3271     3253     3265     3285     3277 
    3261     3264     3269     3280     3283     3261     3248     3258 
    3261     3271     3289     3281     3256     3256     3269     3272 
    3268     3260     3257     3265     3276     3277     3280     3269 
    3245     3253     3284     3279     3252     3254     3275     3280 
    3275     3264     3260     3258     3252     3260     3283     3283 
    3261     3256     3273     3275     3267     3272     3268     3252 
    3253     3273     3287     3283     3264     3253     3265     3268 
    3254     3262     3275     3258     3252     3279     3287     3261 
    3245     3253     3269     3284     3281     3260     3257     3269 
    3264     3260     3269     3269     3265     3272     3269     3260 
    3268     3279     3280     3269     3254     3257     3277     3279 
    3260     3261     3273     3265     3254     3265     3272     3268 
    3268     3261     3261     3277     3279     3267     3264     3261 
    3257     3272     3285     3269     3253     3269     3281     3268 
    3254     3261     3273     3275     3262     3262     3284     3280 
    3252     3248     3269     3273     3264     3264     3264     3269 
    3277     3269     3264     3265     3254     3260     3280     3277 
    3264     3271     3275     3260     3256     3269     3269     3264 
    3262     3254     3273     3289     3261     3245     3267     3271 
    3261     3269     3280     3272     3260     3264     3267     3265 
    3265     3261     3262     3269     3267     3279     3298     3272 
    3245     3261     3273     3260     3260     3272     3276     3275 
    3265     3257     3268     3273     3258     3260     3280     3277 
    3262     3265     3271     3260     3260     3271     3268     3265 
    3264     3261     3272     3273     3260     3267     3275     3264 
    3257     3268     3276     3268     3261     3265     3271     3269 
    3267     3265     3273     3277     3264     3262     3279     3271 
    3260     3272     3267     3250     3269     3291     3273     3256 
    3258     3268     3275     3267     3253     3265     3287     3272 
    3250     3267     3281     3271     3261     3264     3267     3269 
    3267     3262     3281     3285     3257     3252     3269     3269 
    3269     3272     3262     3256     3268     3283     3276     3262 
    3258     3264     3280     3283     3265     3272     3287     3264 
    3246     3262     3273     3271     3273     3269     3271     3277 
    3257     3244     3271     3287     3272     3267     3269     3261 
    3271     3281     3269     3267     3271     3261     3265     3279 
    3265     3257     3275     3268     3253     3276     3287     3261 
    3249     3261     3271     3277     3273     3258     3264     3272 
    3261     3262     3277     3268     3254     3275     3287     3271 
    3258     3254     3262     3279     3277     3265     3269     3268 
    3262     3275     3275     3253     3258     3283     3280     3254 
    3252     3275     3281     3261     3250     3262     3281     3281 
    3258     3258     3276     3277     3272     3268     3257     3252 
    3261     3280     3283     3271     3257     3258     3276     3273 
    3254     3264     3277     3262     3258     3280     3281     3264 
    3261     3273     3283     3277     3260     3252     3271     3280 
    3260     3246     3260     3272     3273     3273     3265     3262 
    3292     3326     3318     3273     3241     3223     3194     3159 
    3167     3241     3331     3388     3406     3360     3267     3226 
    3303     3391     3338     3181     3142     3260     3295     3161 
    3057     3142     3315     3329     3222     3280     3430     3423 
    3321     3171     3056     3253     3514     3389     3181     3169 
    3132     3091     3080     3018     3148     3466     3630     3561 
    3341     3237     3468     3591     3283     3040     3225     3419 
    3190     2886     3001     3323     3376     3082     2801     2938 
    3495     3888     3696     3404     3496     3545     3142     2701 
    2787     3283     3584     3356     2852     2635     2879     3195 
    3364     3541     3835     4068     3875     3429     3295     3411 
    3403     3222     2940     2722     2743     2843     2805     2814 
    3140     3573     3744     3659     3545     3674     3982     3761 
    3044     2945     3426     3321     2625     2293     2650     3223 
    3403     3196     3237     3650     3767     3334     2982     3194 
    3622     3797     3684     3360     3045     3033     3199     3325 
    3499     3659     3551     3195     2785     2509     2589     3022 
    3420     3395     3057     2970     3302     3577     3645     3801 
    3792     3176     2505     2596     3098     3275     3217     3150 
    2990     2901     3130     3508     3680     3640     3672     3736 
    3554     3298     3362     3523     3366     3227     3397     3415 
    3130     2961     3059     3191     3141     3076     3202     3268 
    3217     3302     3337     3080     2786     2752     2979     3289 
    3505     3627     3717     3646     3399     3392     3727     3855 
    3566     3198     2909     2731     2768     2959     3207     3460 
    3426     3036     2743     2813     3261     3960     4163     3466 
    2755     2794     3130     3196     3303     3650     3607     2972 
    2538     2771     3199     3395     3537     3773     3861     3686 
    3511     3515     3515     3373     3280     3304     3199     2967 
    2897     2934     2844     2843     3134     3304     3169     3148 
    3306     3360     3326     3334     3416     3561     3619     3423 
    3141     3087     3179     3257     3407     3423     3123     2867 
    2862     2986     3269     3650     3707     3329     3048     3245 
    3681     3778     3279     2848     3025     3183     2905     2744 
    2990     3291     3249     2889     2837     3431     4048     4126 
    3885     3688     3626     3670     3609     3268     3036     3306 
    3608     3321     2720     2551     2910     3049     2624     2404 
    2906     3492     3532     3291     3271     3518     3705     3604 
    3395     3343     3325     3154     3001     3024     3086     3156 
    3348     3507     3485     3466     3495     3411     3287     3285 
    3354     3314     3141     3132     3381     3415     3034     2837 
    3179     3534     3457     3202     3107     3168     3206     3165 
    3285     3632     3785     3484     2951     2528     2616     3296 
    3875     3793     3383     3060     2809     2609     2633     3002 
    3585     4058     4045     3491     2874     2702     2991     3397 
    3568     3534     3553     3474     3130     2972     3327     3738 
    3731     3438     3218     3225     3345     3368     3238     3052 
    2884     2820     2938     3202     3393     3393     3338     3192 
    2934     2911     3154     3321     3392     3473     3480     3272 
    2960     2951     3242     3379     3348     3472     3653     3551 
    3277     3186     3291     3381     3391     3427     3458     3321 
    3142     3149     3153     3026     3059     3240     3115     2778 
    2822     3183     3287     3210     3316     3481     3609     3821 
    3936     3747     3456     3376     3476     3330     2752     2342 
    2614     3118     3222     3076     3150     3422     3561     3480 
    3330     3389     3773     4031     3782     3326     2963     2745 
    2789     2926     2895     2893     3163     3646     4077     4023 
    3477     3091     3114     3094     2941     3011     3175     3024 
    2805     2963     3234     3280     3368     3674     3820     3474 
    2947     2872     3242     3295     2890     2803     3179     3358 
    3218     3229     3465     3565     3619     3962     4187     3736 
    3118     3082     3227     3038     3041     3445     3538     3154 
    2867     2878     3002     3218     3429     3337     3088     3157 
    3461     3504     3214     2980     3002     3115     3241     3299 
    3136     2933     3033     3410     3653     3526     3404     3492 
    3268     2770     2781     3261     3516     3414     3279     3314 
    3388     3357     3377     3469     3424     3339     3326     3130 
    2794     2843     3379     3850     3886     3674     3343     2844 
    2458     2571     3030     3375     3454     3469     3519     3485 
    3342     3275     3435     3681     3717     3538     3276     2999 
    2837     2775     2705     2728     2898     3145     3457     3615 
    3388     3292     3735     3902     3343     2909     3040     3346 
    3528     3407     3029     2781     2895     3217     3406     3338 
    3330     3584     3716     3368     3034     3335     3766     3653 
    3410     3454     3439     3141     2818     2794     3015     3086 
    3042     3267     3499     3321     2983     2806     2830     3190 
    3754     3894     3437     3049     3207     3620     3804     3696 
    3541     3356     2995     2633     2667     3069     3322     3304 
    3264     3168     3122     3292     3361     3318     3465     3554 
    3369     3080     2758     2708     3210     3744     3754     3456 
    3292     3262     3168     3068     3086     3285     3669     3789 
    3352     2901     2817     2887     3069     3379     3566     3520 
    3380     3159     2768     2563     3001     3669     3750     3302 
    2982     2997     3138     3385     3743     3890     3634     3327 
    3206     3055     2949     3036     3067     3079     3241     3322 
    3264     3349     3615     3808     3759     3628     3607     3461 
    3025     2710     2797     2959     2965     3011     3092     2917 
    2714     3041     3719     4067     3944     3696     3468     3215 
    3096     3237     3373     3235     2997     2909     2876     2849 
    3073     3443     3477     3117     2860     3073     3456     3541 
    3420     3442     3746     4066     3929     3393     3001     3044 
    3329     3437     3277     3110     3001     2895     2933     3186 
    3451     3523     3420     3262     3202     3329     3427     3238 
    2951     2926     3123     3223     3213     3272     3337     3307 
    3219     3098     2961     2902     3024     3168     3187     3341 
    3681     3817     3674     3547     3545     3623     3716     3616 
    3264     2987     2967     2963     2770     2620     2880     3361 
    3491     3211     2991     3109     3306     3219     2970     2926 
    3190     3519     3566     3388     3369     3472     3427     3364 
    3514     3731     3759     3589     3358     3190     3261     3550 
    3612     3171     2637     2543     2822     2978     2938     3118 
    3460     3511     3310     3171     3200     3342     3400     3322 
    3318     3379     3275     2997     2828     3001     3315     3434 
    3397     3377     3342     3227     3235     3599     3920     3694 
    3283     3184     3164     3022     3115     3504     3616     3264 
    2964     2932     2921     2906     3071     3377     3488     3281 
    3142     3267     3366     3361     3426     3488     3445     3433 
    3461     3327     3005     2722     2643     2859     3406     3878 
    3759     3252     2953     2974     3065     3240     3630     3958 
    3839     3426     3115     3042     3148     3277     3264     3071 
    2875     2893     3042     3102     3168     3342     3438     3429 
    3431     3410     3430     3515     3519     3518     3489     3208 
    2871     2736     2671     2718     3132     3744     4090     3937 
    3408     2899     2812     3148     3554     3601     3250     3013 
    3140     3237     3134     3204     3520     3658     3497     3289 
    3127     2986     2930     2992     3022     2933     2936     3136 
    3316     3373     3420     3564     3732     3703     3450     3207 
    3078     3068     3213     3419     3532     3503     3310     3010 
    2826     2899     3136     3384     3501     3451     3307     3159 
    3134     3256     3334     3337     3443     3566     3424     3125 
    2997     3076     3298     3542     3447     3003     2787     3033 
    3334     3429     3412     3377     3358     3393     3423     3392 
    3416     3535     3576     3461     3281     3080     2884     2758 
    2766     2968     3256     3414     3416     3322     3154     3055 
    3180     3380     3418     3423     3527     3470     3244     3214 
    3326     3276     3136     3076     3133     3260     3277     3142 
    3024     2995     3119     3476     3769     3732     3665     3670 
    3406     3025     2986     3242     3451     3393     3141     2938 
    2887     3001     3223     3396     3542     3697     3632     3262 
    2961     3060     3315     3387     3451     3672     3734     3505 
    3281     3260     3334     3268     2998     2756     2712     2781 
    2824     2840     2953     3225     3595     3967     4206     4191 
    4023     3885     3672     3184     2496     1772     1251     1377 
    2262     3353     4139     4619     4912     4957     4668     4147 
    3545     2890     2254     1788     1606     1888     2571     2984 
    2694     2207     2266     3061     4151     4899     5053     4745 
    4303     3967     3572     3052     2952     3466     3720     2992 
    1771      918      718     1027     1590     2180     2652     2967 
    3349     4091     5128     6231     7310     8017     7554     5587 
    2944      969      464     1065     1756     2050     2026     1827 
    1794     2289     3264     4357     5124     5198     4579     3653 
    2650     1632     1121     1526     2344     3056     3913     5086 
    5863     5460     4234     3242     2916     2840     2597     2146 
    1559     1190     1696     3106     4610     5625     6058     5765 
    4776     3681     3086     2937     2722     2204     1597     1159 
    1071     1399     2012     2928     4135     5078     5275     4943 
    4573     4272     3750     3107     2918     3154     3119     2583 
    2158     2355     2852     3153     3292     3438     3500     3296 
    2748     2178     2169     2708     3244     3570     3808     3919 
    3844     3689     3573     3615     3936     4325     4276     3619 
    2717     2010     1568     1305     1505     2497     3905     5030 
    5553     5346     4382     3233     2817     3288     3784     3599 
    3013     2614     2477     2330     2115     2065     2347     2917 
    3636     4121     4017     3627     3433     3369     3181     2909 
    2809     3091     3650     4183     4484     4333     3542     2471 
    1917     2122     2525     2794     3242     3947     4430     4405 
    4060     3651     3280     3088     3288     3627     3495     2924 
    2467     2304     2346     2544     2803     3080     3426     3835 
    4117     4052     3786     3667     3708     3670     3500     3364 
    3321     3099     2531     1965     1857     2201     2728     3307 
    3778     3917     3831     3842     3985     4016     3825     3530 
    3242     3133     3304     3435     3172     2718     2521     2749 
    3257     3689     3639     3088     2469     2162     2232     2602 
    3140     3562     3526     3121     2926     3321     4133     4981 
    5489     5271     4249     2943     2079     1942     2168     2249 
    2200     2346     2689     2975     3123     3260     3516     3870 
    4180     4302     4083     3631     3420     3561     3489     2960 
    2425     2166     2076     2209     2606     3002     3261     3555 
    3951     4318     4529     4553     4455     4240     3925     3654 
    3365     2816     2191     1948     2096     2382     2814     3333 
    3591     3457     3210     3235     3677     4151     4131     3754 
    3530     3499     3474     3478     3488     3327     2910     2344 
    1869     1682     1850     2293     2828     3393     4029     4619 
    4888     4635     4051     3541     3217     2898     2517     2241 
    2174     2238     2397     2706     3168     3672     3958     3944 
    3910     4031     4212     4222     3871     3379     3214     3400 
    3523     3358     3092     2920     2770     2517     2272     2349 
    2828     3348     3623     3693     3630     3519     3522     3653 
    3724     3551     3210     2957     2890     2978     3207     3465 
    3520     3280     3007     2990     3099     3134     3136     3106 
    2980     2821     2763     2938     3352     3765     3848     3574 
    3211     2925     2826     3029     3358     3605     3788     3923 
    4013     4062     3989     3801     3600     3383     3138     2955 
    2852     2782     2747     2704     2629     2704     2999     3289 
    3373     3264     3110     3092     3312     3573     3541     3345 
    3343     3478     3623     3863     4133     4237     4128     3870 
    3487     2917     2238     1825     1894     2172     2382     2640 
    3028     3375     3688     4058     4180     3785     3254     3094 
    3218     3281     3222     3164     3009     2543     2054     2123 
    2749     3481     4089     4471     4442     4048     3646     3527 
    3793     4249     4417     4077     3523     3042     2720     2637 
    2679     2565     2259     2010     2066     2497     3123     3689 
    3962     3767     3242     2848     2890     3237     3677     4116 
    4294     3993     3491     3132     2867     2662     2720     3057 
    3285     3132     2808     2668     2870     3346     3858     4110 
    3927     3503     3276     3387     3630     3855     3871     3420 
    2686     2263     2374     2650     2783     2825     2916     3154 
    3512     3838     4068     4179     4085     3834     3601     3435 
    3231     2898     2528     2338     2369     2475     2590     2762 
    2995     3269     3576     3808     3847     3802     3897     4116 
    4203     4070     3937     3915     3844     3626     3222     2648 
    2131     1900     1922     2031     2096     2172     2482     3059 
    3669     4104     4337     4392     4261     4054     3987     4077 
    4106     3886     3400     2836     2469     2420     2606     2910 
    3229     3429     3550     3753     3951     3861     3408     2880 
    2569     2454     2442     2540     2679     2744     2752     2776 
    2870     3084     3435     3851     4108     4044     3754     3384 
    3046     2857     2843     3021     3377     3681     3746     3682 
    3672     3731     3765     3632     3261     2866     2741     2795 
    2832     2955     3230     3549     3790     3855     3777     3716 
    3696     3595     3369     3040     2674     2467     2524     2721 
    2891     2909     2820     2826     2975     3144     3211     3160 
    3122     3146     3156     3252     3581     4099     4617     4827 
    4584     4064     3496     3002     2713     2717     2960     3245 
    3370     3244     2978     2914     3244     3720     3955     3755 
    3288     2957     2895     2871     2739     2535     2273     2064 
    2130     2484     2978     3478     3836     4012     4094     4064 
    3932     3848     3788     3609     3420     3361     3264     3001 
    2824     2970     3318     3523     3364     3021     2776     2675 
