Origin Time       2024/06/23 22:54:00
Lat.              35.645
Long.             140.060
Depth. (km)       72
Mag.              4.1
Station Code      TKY030
Station Lat.      35.6698
Station Long.     139.7360
Station Height(m) 13
Record Time       2024/06/23 22:54:37
Sampling Freq(Hz) 100Hz
Duration Time(s)  66
Dir.              E-W
Scale Factor      7845(gal)/8223790
Max. Acc. (gal)   8.649
Last Correction   2024/06/23 22:54:37
Memo.             
[...]
    2131     2080     1995     1983     2083     2197     2243     2165 
    2012     1950     2039     2145     2153     2108     2081     2049 
    2031     2083     2145     2168     2138     2057     2015     2041 
    2074     2118     2160     2149     2097     2046     2020     2047 
    2096     2122     2149     2141     2065     2030     2069     2097 
    2089     2095     2118     2106     2072     2079     2115     2131 
    2093     2027     2020     2092     2165     2174     2124     2047 
    1983     2014     2114     2180     2195     2131     2022     1984 
    2027     2089     2164     2196     2133     2034     1999     2030 
    2096     2170     2184     2120     2027     1966     2007     2126 
    2201     2191     2104     1996     1987     2085     2166     2173 
    2130     2072     2018     2018     2101     2158     2118     2088 
    2091     2054     2053     2120     2157     2115     2030     1987 
    2045     2166     2251     2200     2058     1945     1939     2039 
    2160     2226     2187     2072     1999     2006     2050     2131 
    2196     2160     2058     1992     2020     2118     2184     2170 
    2112     2049     2014     2034     2107     2164     2138     2085 
    2061     2052     2057     2096     2135     2126     2062     2010 
    2043     2130     2153     2097     2056     2070     2089     2092 
    2128     2165     2145     2084     2006     1991     2077     2166 
    2172     2115     2068     2049     2054     2076     2089     2091 
    2087     2092     2114     2099     2076     2097     2112     2077 
    2035     2047     2100     2126     2143     2153     2115     2065 
    2023     2037     2131     2188     2158     2101     2039     2019 
    2069     2122     2130     2114     2084     2045     2030     2057 
    2101     2145     2149     2084     2014     2008     2066     2139 
    2153     2108     2080     2072     2079     2123     2142     2087 
    2025     2018     2084     2172     2187     2119     2047     2029 
    2046     2073     2110     2149     2153     2104     2046     2033 
    2062     2120     2154     2108     2043     2022     2039     2106 
    2161     2145     2097     2049     2027     2080     2153     2180 
    2154     2095     2033     1981     2015     2135     2193     2155 
    2076     1988     1993     2108     2173     2131     2076     2039 
    2029     2091     2180     2185     2130     2087     2033     2008 
    2070     2142     2160     2131     2074     2019     2011     2072 
    2157     2181     2118     2035     2010     2041     2099     2151 
    2158     2120     2072     2037     2039     2088     2143     2143 
    2081     2026     2033     2083     2130     2155     2139     2080 
    2045     2049     2062     2097     2133     2137     2099     2034 
    2020     2091     2143     2120     2083     2064     2060     2089 
    2133     2133     2097     2070     2050     2064     2103     2127 
    2137     2124     2077     2043     2053     2084     2111     2120 
    2107     2074     2045     2042     2076     2130     2141     2081 
    2031     2034     2074     2130     2145     2123     2104     2054 
    2016     2073     2155     2169     2122     2062     2023     2041 
    2119     2162     2133     2099     2069     2026     2035     2112 
    2143     2096     2050     2031     2039     2099     2168     2166 
    2095     2033     2027     2062     2101     2131     2164     2147 
    2054     2004     2052     2114     2162     2146     2050     1991 
    2026     2106     2157     2143     2092     2046     2023     2062 
    2160     2201     2124     2016     1961     1991     2119     2234 
    2224     2122     2003     1952     2003     2091     2160     2203 
    2176     2068     1989     2034     2133     2160     2114     2062 
    2041     2080     2151     2162     2123     2057     1964     1958 
    2072     2182     2207     2145     2052     2002     2007     2079 
    2181     2199     2128     2061     2015     2012     2073     2155 
    2200     2160     2056     1973     1984     2093     2166     2137 
    2112     2116     2087     2058     2066     2093     2130     2115 
    2058     2066     2104     2101     2108     2134     2127     2073 
    2020     2020     2072     2137     2160     2112     2046     2006 
    2031     2141     2215     2168     2087     2038     2029     2076 
    2133     2138     2130     2115     2045     2012     2084     2137 
    2116     2101     2073     2033     2041     2068     2099     2153 
    2155     2083     2047     2084     2108     2122     2099     2018 
    2014     2111     2185     2187     2111     1999     1971     2033 
    2115     2207     2253     2170     2020     1948     1971     2052 
    2168     2216     2168     2104     2057     2023     2029     2073 
    2128     2141     2087     2030     2049     2131     2176     2133 
    2060     2008     2026     2115     2170     2150     2106     2054 
    2022     2062     2155     2228     2174     2003     1923     2053 
    2180     2111     2054     2135     2141     2072     2045     1995 
    2064     2284     2223     1984     2099     2231     1823     1615 
    2403     2905     1898     1151     2164     2871     1888     1393 
    2404     2866     2070     1522     1744     2118     2369     2235 
    1649     1810     3122     3173     1196      641     2455     2763 
     897     1071     3904     4710     2120      306     1119     2119 
    1887     1472     2100     3258     3176     1655      923     2262 
    3268     2031      973     1872     2832     2358     1453     1568 
    2389     2945     2876     1821      811      980     1282     1903 
    3699     4849     3823     1579        4     -342     -190     1337 
    4210     5281     4047     2721     1274     -480     -899      851 
    3701     5317     4063     1382      106      938     2312     2793 
    2641     2511     2058     1494     1625     2149     2511     2663 
    2261     1167      616     1773     3219     3137     2573     2747 
    2461     1034       52      714     2403     3743     3631     2662 
    2253     1995     1102      427     1061     2870     4167     3349 
    1258      326     1282     2141     1902     2409     3943     3900 
    1857      592     1046     1402     1406     2239     3133     2871 
    2227     2177     2286     2060     1825     1804     1850     1934 
    2054     2147     2195     2230     2197     2037     2103     2484 
    2365     1530     1212     2274     3592     3472     1908      334 
      78     1136     2475     3569     4116     3450     1890      614 
     226      973     2500     3365     2930     2110     1657     1683 
    1864     1732     1645     2227     3002     2978     2184     1598 
    1601     1823     2164     2512     2511     2266     2087     1907 
    1732     1656     1678     1853     2100     2470     2844     2531 
    1802     1864     2587     2639     1699      994     1354     2068 
    2477     2771     2886     2369     1426     1032     1726     2983 
    3588     2704     1323     1158     2053     2566     2182     1509 
    1154     1266     1744     2377     2902     3052     2855     2477 
    1769      993     1051     2088     3064     3092     2461     1934 
    1856     1949     1529      891     1135     2058     2809     3123 
    3022     2903     2685     1659      390      569     2357     3689 
    3110     1795     1487     1904     1944     1865     2108     2247 
    2218     2062     1680     1647     2311     3083     2991     1846 
     936     1318     2525     3244     2525     1404     1553     2243 
    1998     1428     1647     2259     2493     2371     2069     1988 
    2614     3036     2145     1112     1647     2790     2586     1792 
    1907     1944     1209     1169     2366     3423     3207     2141 
    1360     1277     1779     2544     2747     2224     1908     2195 
    2494     2465     2162     1448      893     1291     2058     2567 
    2799     2592     2166     1605     1127     1628     2686     2990 
    2538     2254     2465     2398     1786     1363     1298     1485 
    2116     2860     2963     2446     2080     1881     1371     1086 
    1809     2895     2837     1788     1680     2660     2714     1595 
    1217     2257     3215     2760     1683     1522     1896     1767 
    1644     1879     2096     2412     2562     2349     2349     2477 
    2293     1892     1397     1062     1389     2389     3334     3635 
    3148     1740      193      317     2272     3503     2540     1529 
    2134     2764     2232     1534     1310     1351     1975     3071 
    3172     2177     2114     2794     1806      116      762     2691 
    2984     2367     2632     2791     2016     1622     1921     1989 
    2100     2617     2674     1807     1144     1483     1798     1696 
    2114     2632     2538     2720     3323     2928     1371      376 
     892     2043     2721     2528     1958     1961     2259     2007 
    1918     2539     2759     2180     1742     1972     2336     2029 
    1323     1194     1962     3176     3504     1814     -141      665 
    3225     3862     2524     1594     1367     1485     2380     3481 
    3410     2299     1814     2034     1567     1027     1537     2293 
    2504     2230     2004     2203     2343     2619     3107     2587 
    1256      577      961     1941     2720     2952     2606     1618 
     974     1386     1991     2404     3152     3640     2635     1085 
    1243     2556     2575     1530     1664     2749     2589     1286 
     706     1237     2350     3595     3863     2583     1202     1159 
    1730     1690     1459     2064     3125     3435     2909     2062 
    1021      626     1566     2727     2833     1931     1119     1470 
    2381     2689     2616     2655     2693     2403     1606     1036 
    1547     2469     2511     1792     1540     2168     2874     2752 
    1953     1706     2189     2118     1470     1452     2164     2868 
    3028     2405     1421      988     1734     2898     2799     1746 
    1448     1691     1730     2223     3076     3136     2643     2609 
    2509     1436      282      519     1858     2936     3150     2494 
    1458     1262     2099     2695     2466     2165     2431     2609 
    1833      889      965     1680     2158     2459     2902     3083 
    2728     2396     2272     1903     1286      942     1252     2070 
    3041     3681     3226     1840      839      731     1077     2077 
    3469     3466     1813      888     1642     2284     1894     1795 
    2542     2714     1996     1701     1926     1895     1841     2006 
    1895     1930     3102     4256     3435     1533      685     1223 
    2384     3040     2266      872      660     1985     3149     2737 
    1858     2031     2381     1825     1340     1698     2189     2516 
    2813     2471     1534     1408     2338     2774     2218     1806 
    1875     1733     1308     1256     2104     3384     3850     3114 
    1946     1236     1439     2015     1993     1368     1062     1647 
    2489     2710     2177     1456     1480     2091     2543     3068 
    3279     2594     2103     2543     2952     2505     1761     1358 
     996      855     1386     1921     2047     2386     2971     2735 
    1699     1501     2211     2512     2677     2897     2123     1062 
    1409     2351     2115     1301     1308     1752     2254     3242 
    3808     3036     1914     1325     1104     1354     2134     2679 
    2571     2303     2154     1887     1516     1784     2596     2450 
    1421     1177     1981     2824     2872     2315     2081     2340 
    2344     1676     1243     2002     2853     2462     1605     1507 
    2128     2884     3346     2982     1765      699      530      954 
    1537     2259     2870     2929     2655     2324     1853     1703 
    2415     3288     3213     2388     1632     1005      519      592 
    1482     2839     3527     2979     2196     2037     2065     1858 
    1922     2539     2778     1956      970     1028     1919     2336 
    1813     1578     2640     3735     2992     1190      579     1487 
    2625     2936     2501     2241     2300     2087     1570     1306 
    1628     1975     1953     2335     3176     3346     2717     2018 
    1468     1233     1873     3048     2934     1327      692     1768 
    2716     2519     1499      735     1370     3032     4143     3767 
    2629     1975     1694     1244     1227     1876     2100     1591 
    1462     2114     2667     2493     2052     1996     2106     1996 
    1853     1788     1825     2293     3199     3599     2659     1170 
     400      359      729     1655     2810     3200     2493     1872 
    2382     3285     3304     2367     1460     1310     1760     2146 
    2050     1983     2596     3368     3361     2690     2031     1405 
     815      815     1364     1755     1717     1776     2400     2918 
    2655     2278     2465     2836     2550     1660     1502     2492 
    3565     3942     3688     3442     3312     2523     1111       49 
     -54      639     1359     1526     1649     2826     5013     6747 
    7005     5827     3592     1178     -584    -2166    -4116    -5271 
   -4186    -1240     1852     3819     4719     5328     6042     6378 
    5695     4248     2798     2045     2219     2276     1152     -886 
   -3362    -5751    -6976    -6195    -3311      773     4515     6982 
    8475     9524     9186     6318     2293     -523    -1233     -189 
    1061     1155      669      476      427      687     2034     3977 
    4700     3927     3337     3917     5105     5918     6170     6624 
    7187     6045     2226    -2417    -5165    -5086    -3080     -510 
    1787     3892     5676     6077     5152     4442     4095     3123 
    1660      345     -180      731     2247     2594     1557      359 
     -74      278     1048     2357     4521     6578     6351     3099 
    -889    -2656    -1559     1034     3554     4908     4399     2305 
     -76    -1760    -2311    -1352      972     3646     5449     6232 
    6296     4854     1875     -384     -309     1120     2174     1968 
     737     -160      486     2223     3624     3797     2971     2170 
    2026     2126     1810     1362     1894     3673     5394     5197 
    2509     -464    -1198     -383      202      792     2039     3349 
    3881     3709     3466     3067     1991      670      141      922 
    2556     3778     3780     2871     1588      446       98      886 
    2578     4378     5363     5127     3794     2022      973     1194 
    1837     1850     1210      850     1495     2219     1397     -599 
   -1379      495     3696     5850     6151     5267     3488      762 
   -1734    -2282     -589     2141     4112     4043     2494     1293 
    1509     2434     2520     1800     1873     2855     3408     3145 
    2322     1162      118     -641     -963     -114     2209     4752 
    5794     5255     4152     2988     2107     2046     3036     4491 
    4993     3464      399    -2367    -3252    -2265     -162     2594 
    5117     6226     5583     3950     2236      770      133      909 
    2234     2830     2571     1759      518     -548     -527      646 
    2361     4055     4993     4569     3188     1918     1225      774 
     646     1055     1354     1472     2370     3774     4140     3086 
    1858     1285     1034     1105     1822     2583     2592     1953 
    1178      707      924     1782     2678     3106     3213     3360 
    3307     2704     2093     2087     2440     2691     2562     2049 
    1614     1605     1698     1580     1575     1836     2054     2073 
    1568      581      356     1381     2385     2674     2820     3144 
    3451     3642     3686     3399     2702     1930     1248      584 
     486     1483     2957     3798     3489     2478     1642     1189 
     707      180       76      486     1031     1667     2582     3601 
    4351     4310     3277     2200     2124     2710     2859     2149 
    1196      499      -31      -86      716     1883     2697     2843 
    2323     1690     1651     2037     2226     2403     3010     3670 
    3813     3303     2317     1582     1725     2141     2026     1773 
    1931     2114     1867     1502     1601     2126     2620     2907 
    2952     2660     2176     1717     1320     1115     1429     2142 
    2543     2501     2521     2471     2169     2274     2887     2925 
    1729      -47    -1161     -822      645     2108     2691     2627 
    2818     3385     3686     3589     3252     2652     2142     2118 
    2371     2519     2523     2569     2578     2223     1664     1432 
    1617     1868     1846     1547     1274     1209     1250     1306 
    1510     1939     2366     2632     2887     3163     3117     2473 
    1698     1568     2007     2277     2025     1587     1509     1841 
    2201     2517     2906     3107     2544     1055     -272     -170 
    1086     2475     3493     3878     3631     3183     2961     2987 
    2944     2660     2249     1748     1224      992     1337     2097 
    2617     2471     2068     1918     2033     2316     2525     2235 
    1394      510      319     1004     1845     2137     1903     1737 
    2034     2428     2524     2381     2238     2466     2917     2913 
    2299     1526     1217     1557     1965     2114     2266     2423 
    2293     1827     1320     1012      993     1347     1802     2046 
    2421     3125     3542     3229     2666     2547     2776     2679 
    1993     1313     1447     2299     2816     2471     2022     2165 
    2548     2652     2365     1849     1522     1552     1638     1533 
    1417     1756     2494     3022     3087     2820     2521     2454 
    2407     2107     1533      858      561      891     1505     2029 
    2508     2976     2875     2015     1513     2122     2965     3113 
    2754     2276     1728     1356     1472     1765     1790     1777 
    2093     2473     2486     2178     1867     1879     2423     3250 
    3816     3821     3361     2697     2085     1852     2018     1962 
    1208      157     -449     -400       68      904     1826     2092 
    1655     1305     1615     2639     3842     4411     4190     3731 
    3342     2752     1830     1067     1038     1552     1949     2008 
    1746     1219      977     1428     2161     2640     2907     3217 
    3200     2531     1838     1598     1625     1887     2276     2381 
    2131     1863     1803     2019     2490     2895     2829     2297 
    1657     1370     1665     2223     2509     2192     1368      720 
     951     1881     2575     2675     2735     3057     3280     3064 
    2567     2234     2155     1971     1572     1327     1356     1405 
    1468     1726     2123     2423     2448     2188     1779     1479 
    1460     1576     1748     2091     2400     2317     2019     1958 
    2195     2434     2332     1799     1244     1259     1912     2589 
    2745     2637     2589     2412     2042     1617     1190     1005 
    1329     2076     2849     3358     3731     3986     3855     3279 
    2328     1301      904     1287     1647     1451     1146     1350 
