Origin Time       2024/06/23 22:54:00
Lat.              35.645
Long.             140.060
Depth. (km)       72
Mag.              4.1
Station Code      TKY014
Station Lat.      35.7002
Station Long.     139.8351
Station Height(m) -3
Record Time       2024/06/23 22:54:43
Sampling Freq(Hz) 100Hz
Duration Time(s)  60
Dir.              E-W
Scale Factor      7845(gal)/8223790
Max. Acc. (gal)   6.413
Last Correction   2024/06/23 22:54:43
Memo.             
[...]
   -1597    -1665    -1602    -1561    -1651    -1674    -1507    -1451 
   -1620    -1684    -1560    -1490    -1475    -1468    -1516    -1556 
   -1510    -1466    -1561    -1721    -1783    -1661    -1381    -1200 
   -1279    -1483    -1621    -1602    -1587    -1694    -1715    -1587 
   -1522    -1533    -1471    -1414    -1470    -1506    -1506    -1641 
   -1791    -1800    -1690    -1475    -1306    -1306    -1422    -1579 
   -1684    -1620    -1467    -1406    -1408    -1521    -1657    -1609 
   -1601    -1606    -1463    -1498    -1695    -1648    -1432    -1383 
   -1429    -1489    -1652    -1803    -1865    -1763    -1455    -1264 
   -1359    -1456    -1449    -1555    -1721    -1740    -1664    -1555 
   -1428    -1347    -1393    -1479    -1482    -1539    -1599    -1584 
   -1636    -1636    -1512    -1498    -1661    -1746    -1594    -1355 
   -1316    -1593    -1782    -1661    -1586    -1566    -1453    -1448 
   -1499    -1475    -1552    -1637    -1576    -1512    -1479    -1466 
   -1479    -1476    -1530    -1644    -1620    -1503    -1506    -1502 
   -1512    -1624    -1599    -1525    -1529    -1618    -1804    -1713 
   -1404    -1381    -1499    -1525    -1618    -1684    -1583    -1525 
   -1514    -1405    -1344    -1441    -1570    -1664    -1717    -1618 
   -1501    -1478    -1420    -1455    -1607    -1633    -1541    -1509 
   -1575    -1725    -1838    -1687    -1467    -1431    -1440    -1495 
   -1579    -1601    -1572    -1443    -1374    -1520    -1614    -1530 
   -1533    -1606    -1586    -1617    -1638    -1507    -1370    -1364 
   -1431    -1416    -1493    -1734    -1788    -1663    -1633    -1611 
   -1422    -1327    -1525    -1707    -1691    -1607    -1614    -1638 
   -1471    -1279    -1324    -1507    -1678    -1753    -1687    -1548 
   -1455    -1417    -1371    -1408    -1544    -1572    -1618    -1741 
   -1625    -1478    -1522    -1464    -1387    -1516    -1632    -1644 
   -1705    -1732    -1653    -1637    -1575    -1412    -1412    -1479 
   -1490    -1613    -1645    -1402    -1385    -1692    -1726    -1471 
   -1397    -1576    -1701    -1618    -1460    -1404    -1503    -1505 
   -1417    -1470    -1534    -1653    -1773    -1679    -1641    -1746 
   -1648    -1440    -1480    -1510    -1362    -1424    -1537    -1524 
   -1610    -1629    -1536    -1579    -1656    -1551    -1404    -1421 
   -1512    -1576    -1522    -1352    -1389    -1698    -1869    -1767 
   -1561    -1339    -1350    -1598    -1696    -1625    -1584    -1638 
   -1680    -1584    -1404    -1298    -1448    -1642    -1607    -1567 
   -1572    -1528    -1557    -1543    -1448    -1533    -1620    -1475 
   -1431    -1593    -1651    -1615    -1621    -1555    -1470    -1506 
   -1493    -1418    -1533    -1755    -1788    -1580    -1364    -1417 
   -1652    -1728    -1528    -1339    -1402    -1532    -1560    -1611 
   -1655    -1544    -1494    -1603    -1609    -1522    -1494    -1552 
   -1655    -1617    -1441    -1354    -1391    -1532    -1772    -1802 
   -1534    -1420    -1497    -1568    -1710    -1779    -1591    -1351 
   -1336    -1395    -1394    -1564    -1711    -1661    -1628    -1534 
   -1394    -1410    -1497    -1518    -1606    -1694    -1611    -1595 
   -1595    -1387    -1285    -1489    -1705    -1713    -1657    -1603 
   -1524    -1564    -1680    -1653    -1421    -1229    -1310    -1499 
   -1606    -1668    -1738    -1645    -1443    -1425    -1429    -1424 
   -1645    -1742    -1552    -1498    -1557    -1502    -1516    -1636 
   -1688    -1651    -1525    -1377    -1398    -1588    -1715    -1691 
   -1514    -1289    -1378    -1669    -1688    -1530    -1456    -1482 
   -1532    -1502    -1503    -1615    -1651    -1615    -1638    -1532 
   -1328    -1367    -1530    -1655    -1788    -1768    -1560    -1409 
   -1397    -1404    -1479    -1641    -1694    -1651    -1575    -1462 
   -1425    -1483    -1587    -1691    -1680    -1489    -1312    -1354 
   -1525    -1709    -1717    -1505    -1383    -1445    -1494    -1468 
   -1536    -1638    -1613    -1607    -1607    -1595    -1621    -1449 
   -1260    -1449    -1748    -1737    -1609    -1598    -1537    -1424 
   -1425    -1468    -1425    -1462    -1701    -1773    -1587    -1513 
   -1541    -1498    -1421    -1447    -1593    -1644    -1583    -1522 
   -1451    -1520    -1714    -1721    -1540    -1391    -1355    -1478 
   -1675    -1721    -1579    -1489    -1605    -1675    -1483    -1286 
   -1345    -1602    -1787    -1695    -1505    -1422    -1414    -1479 
   -1583    -1657    -1682    -1644    -1593    -1499    -1391    -1455 
   -1568    -1590    -1593    -1495    -1428    -1580    -1730    -1732 
   -1580    -1401    -1424    -1549    -1539    -1460    -1503    -1547 
   -1474    -1570    -1857    -1856    -1522    -1359    -1368    -1359 
   -1530    -1663    -1561    -1537    -1532    -1426    -1458    -1645 
   -1711    -1640    -1574    -1458    -1464    -1617    -1563    -1414 
   -1489    -1651    -1644    -1563    -1505    -1417    -1455    -1622 
   -1687    -1624    -1595    -1566    -1341    -1202    -1470    -1764 
   -1761    -1690    -1660    -1497    -1327    -1405    -1559    -1624 
   -1644    -1576    -1458    -1468    -1579    -1614    -1655    -1705 
   -1571    -1429    -1443    -1502    -1603    -1630    -1520    -1480 
   -1552    -1583    -1532    -1507    -1580    -1640    -1668    -1651 
   -1467    -1317    -1418    -1564    -1634    -1725    -1777    -1621 
   -1421    -1420    -1386    -1301    -1516    -1863    -1910    -1691 
   -1478    -1336    -1291    -1382    -1505    -1672    -1823    -1698 
   -1397    -1289    -1487    -1799    -1838    -1485    -1232    -1499 
   -1773    -1557    -1341    -1516    -1671    -1525    -1441    -1520 
   -1518    -1620    -1756    -1644    -1410    -1244    -1362    -1669 
   -1811    -1709    -1513    -1487    -1503    -1389    -1422    -1559 
   -1606    -1676    -1736    -1622    -1460    -1520    -1645    -1540 
   -1416    -1499    -1512    -1377    -1493    -1853    -1969    -1644 
   -1219    -1194    -1510    -1651    -1548    -1580    -1786    -1777 
   -1557    -1478    -1387    -1136    -1140    -1530    -1923    -2041 
   -1842    -1480    -1275    -1432    -1626    -1570    -1609    -1799 
   -1610    -1131    -1039    -1475    -1902    -1887    -1563    -1290 
   -1317    -1634    -1881    -1802    -1549    -1372    -1320    -1324 
   -1404    -1572    -1710    -1676    -1486    -1336    -1426    -1649 
   -1821    -1849    -1614    -1335    -1317    -1406    -1489    -1675 
   -1864    -1844    -1579    -1302    -1254    -1386    -1518    -1451 
   -1390    -1672    -1823    -1637    -1566    -1584    -1606    -1676 
   -1647    -1514    -1321    -1121    -1105    -1395    -1799    -1962 
   -1861    -1763    -1760    -1695    -1564    -1516    -1352     -990 
   -1003    -1591    -2015    -1891    -1568    -1274    -1220    -1514 
   -1811    -1884    -1769    -1543    -1416    -1478    -1456    -1182 
   -1004    -1237    -1647    -1996    -2207    -2062    -1713    -1516 
   -1455    -1381    -1304    -1383    -1480    -1402    -1404    -1521 
   -1584    -1756    -2000    -1966    -1664    -1379    -1197    -1017 
    -945    -1138    -1422    -1705    -1985    -2104    -2025    -1723 
   -1336    -1254    -1390    -1440    -1417    -1405    -1517    -1790 
   -2035    -2097    -1858    -1356    -1061    -1115    -1237    -1468 
   -1641    -1533    -1499    -1672    -1713    -1537    -1524    -1633 
   -1493    -1444    -1655    -1699    -1574    -1444    -1368    -1459 
   -1674    -1830    -1760    -1547    -1393    -1364    -1462    -1505 
   -1371    -1405    -1815    -2099    -1880    -1545    -1328    -1048 
    -946    -1274    -1625    -1748    -1907    -2049    -1908    -1595 
   -1251    -1032    -1247    -1763    -2046    -1891    -1563    -1360 
   -1309    -1318    -1404    -1599    -1756    -1717    -1611    -1431 
   -1082     -905    -1111    -1611    -2235    -2430    -1969    -1464 
   -1289    -1225    -1135    -1186    -1544    -1895    -1908    -1883 
   -1899    -1703    -1474    -1372    -1313    -1278    -1273    -1440 
   -1749    -1807    -1553    -1402    -1458    -1451    -1394    -1351 
   -1275    -1377    -1745    -2118    -2261    -2077    -1521     -866 
    -610     -876    -1466    -2039    -2177    -1865    -1544    -1609 
   -1818    -1642    -1327    -1305    -1422    -1439    -1312    -1240 
   -1352    -1510    -1745    -1961    -1962    -1867    -1780    -1664 
   -1417    -1098    -1067    -1432    -1776    -1772    -1567    -1337 
   -1237    -1447    -1767    -1945    -1973    -1784    -1435    -1215 
   -1194    -1152    -1019    -1059    -1464    -2033    -2385    -2323 
   -1977    -1582    -1345    -1362    -1374    -1098     -864    -1142 
   -1742    -2110    -2000    -1674    -1475    -1422    -1483    -1628 
   -1683    -1618    -1586    -1540    -1223     -999    -1455    -2073 
   -2155    -1858    -1466    -1134    -1005    -1148    -1568    -2045 
   -2130    -1659    -1134    -1050    -1248    -1485    -1759    -1999 
   -2073    -1884    -1418     -959     -854    -1048    -1312    -1603 
   -2003    -2427    -2462    -1935    -1293     -881     -691     -846 
   -1429    -1985    -2031    -1827    -1829    -1779    -1452    -1196 
   -1070    -1048    -1345    -1756    -1852    -1571    -1306    -1436 
   -1692    -1767    -1876    -2069    -2091    -1879    -1560    -1269 
   -1005     -801     -900    -1395    -1926    -2083    -1896    -1556 
   -1259    -1445    -2054    -2261    -1740    -1009     -626     -812 
   -1291    -1572    -1687    -1898    -2058    -1999    -1861    -1737 
   -1570    -1351    -1177    -1143    -1282    -1678    -2079    -1939 
   -1453    -1306    -1479    -1548    -1529    -1633    -1850    -2049 
   -2022    -1618    -1061     -765     -810    -1044    -1372    -1687 
   -1960    -2035    -1667    -1144    -1140    -1810    -2323    -2056 
   -1497    -1070     -913    -1237    -1634    -1684    -1610    -1617 
   -1772    -1948    -1802    -1425    -1279    -1495    -1718    -1656 
   -1413    -1219    -1240    -1445    -1518    -1324    -1204    -1474 
   -1896    -2080    -2023    -1918    -1741    -1371    -1023    -1016 
   -1215    -1318    -1385    -1614    -1884    -1896    -1714    -1578 
   -1560    -1688    -1871    -1958    -1918    -1653    -1259    -1057 
   -1054    -1067    -1127    -1332    -1625    -1944    -2339    -2488 
   -2072    -1648    -1556    -1362    -1178    -1372    -1652    -1729 
   -1686    -1529    -1260    -1108    -1208    -1497    -1845    -2037 
   -2012    -1826    -1447    -1027     -849     -973    -1294    -1553 
   -1541    -1507    -1718    -1975    -2004    -1822    -1576    -1321 
   -1173    -1327    -1775    -2155    -2079    -1669    -1327    -1220 
   -1317    -1391    -1350    -1455    -1701    -1759    -1598    -1363 
   -1163    -1136    -1163    -1097    -1200    -1571    -1841    -1879 
   -1880    -1892    -1929    -1973    -1795    -1474    -1362    -1285 
   -1113    -1329    -1782    -1795    -1548    -1489    -1529    -1578 
   -1744    -1965    -1911    -1541    -1248    -1208    -1298    -1443 
   -1536    -1507    -1436    -1389    -1387    -1539    -1923    -2234 
   -2077    -1602    -1217    -1152    -1314    -1398    -1335    -1247 
   -1266    -1540    -1807    -1722    -1571    -1645    -1822    -1962 
   -1872    -1555    -1328    -1219    -1108    -1127    -1298    -1503 
   -1683    -1757    -1807    -1891    -1791    -1597    -1584    -1651 
   -1719    -1877    -1933    -1657    -1232     -946     -783     -753 
   -1017    -1472    -1956    -2335    -2328    -1958    -1440     -855 
    -599     -953    -1499    -1863    -2037    -1934    -1536    -1202 
   -1273    -1632    -1962    -2137    -2101    -1822    -1421    -1085 
    -967    -1102    -1429    -1852    -2062    -1881    -1597    -1413 
   -1252    -1190    -1236    -1269    -1417    -1676    -1755    -1642 
   -1555    -1566    -1628    -1699    -1755    -1788    -1779    -1621 
   -1321    -1121    -1175    -1370    -1563    -1729    -1826    -1765 
   -1539    -1314    -1317    -1479    -1610    -1765    -1953    -1952 
   -1713    -1540    -1594    -1634    -1561    -1498    -1418    -1366 
   -1478    -1638    -1722    -1759    -1703    -1642    -1698    -1698 
   -1566    -1325     -976     -745     -845    -1273    -1854    -2188 
   -2041    -1722    -1557    -1470    -1368    -1418    -1618    -1668 
   -1532    -1470    -1499    -1568    -1718    -1784    -1683    -1520 
   -1355    -1296    -1312    -1309    -1433    -1603    -1521    -1221 
    -972    -1066    -1587    -2176    -2488    -2463    -2114    -1663 
   -1291     -896     -623     -712    -1003    -1318    -1642    -1933 
   -2184    -2215    -1823    -1389    -1340    -1458    -1487    -1576 
   -1782    -1946    -2007    -2010    -1863    -1449     -950     -785 
   -1135    -1713    -2137    -2265    -2141    -1876    -1549    -1239 
   -1023     -919     -947    -1066    -1047     -828     -835    -1329 
   -1856    -2066    -2145    -2126    -1996    -1948    -1914    -1840 
   -2020    -2392    -2488    -2135    -1458     -733     -259       40 
     287      317      136      -51     -184     -341     -697    -1331 
   -1993    -2516    -2960    -3233    -3167    -2650    -1684     -562 
     449     1136     1059      178    -1212    -3163    -5406    -7013 
   -7288    -6057    -3485     -224     2775     4730     5175     4110 
    1995     -749    -3631    -5871    -7040    -7195    -6517    -5413 
   -4295    -3225    -2165    -1085       13      778      758     -213 
   -1995    -4012    -5444    -5756    -4922    -3284    -1197     1055 
    2902     3447     2384      490    -1352    -2646    -3052    -2768 
   -2405    -2338    -2544    -2592    -2043    -1120     -274      440 
     973     1067      670     -170    -1437    -2774    -3731    -4108 
   -3726    -2659    -1368     -230      510      631       55     -959 
   -1869    -2299    -2176    -1534     -604      124      176     -556 
   -1595    -2272    -2390    -2236    -2043    -1726    -1237     -859 
    -827    -1206    -2035    -3014    -3551    -3316    -2504    -1615 
   -1032     -869    -1044    -1235    -1192    -1102    -1247    -1566 
   -1799    -1784    -1552    -1217     -857     -699     -943    -1337 
   -1471    -1246     -876     -727     -982    -1436    -1756    -1748 
   -1425    -1042     -974    -1408    -2122    -2675    -2928    -3038 
   -2980    -2693    -2245    -1659    -1115     -882    -1020    -1452 
   -2025    -2532    -2972    -3381    -3519    -3192    -2612    -2089 
   -1668    -1129     -345      378      669      575      230     -383 
   -1104    -1719    -2266    -2627    -2592    -2295    -1888    -1362 
    -820     -392     -237     -498     -865     -905     -764     -876 
   -1381    -2002    -2315    -2211    -1856    -1385     -997     -843 
    -831     -832     -778     -760    -1081    -1765    -2401    -2682 
   -2667    -2490    -2250    -2079    -2027    -2026    -1885    -1425 
    -854     -596     -778    -1269    -1800    -2050    -1968    -1813 
   -1755    -1821    -1985    -2151    -2249    -2176    -1856    -1443 
   -1227    -1406    -1910    -2523    -3106    -3397    -3046    -2068 
    -843      128      453      210     -275     -947    -1809    -2579 
   -2998    -3018    -2663    -2008    -1278     -808     -778    -1075 
   -1545    -2049    -2393    -2357    -1838    -1156     -730     -585 
    -648     -857    -1001     -980     -993    -1232    -1583    -1725 
   -1528    -1235    -1081    -1050    -1012     -776     -418     -360 
    -729    -1298    -1949    -2621    -3253    -3798    -3978    -3420 
   -2262    -1100     -330      109      383      475      247     -355 
   -1093    -1630    -1961    -2315    -2798    -3198    -3160    -2691 
   -2123    -1593    -1085     -738     -753    -1201    -1890    -2334 
   -2192    -1583     -923     -491     -136      197      128     -464 
   -1323    -2250    -3040    -3557    -3824    -3757    -3350    -2718 
   -1903    -1044     -218      583     1050      857       36    -1188 
   -2393    -3094    -3211    -2995    -2589    -2056    -1476     -919 
    -604     -830    -1580    -2425    -2871    -2776    -2394    -2110 
   -2043    -2052    -2191    -2552    -2797    -2558    -1796     -781 
      47      561      916     1032      741       83     -837    -1912 
   -2880    -3456    -3580    -3295    -2690    -2002    -1358     -777 
    -414     -341     -535     -993    -1516    -1765    -1633    -1275 
    -916     -750     -847    -1139    -1572    -1934    -1922    -1665 
   -1568    -1803    -2223    -2527    -2652    -2702    -2536    -2073 
   -1445     -741     -186       17      -63     -302     -602    -1026 
   -1715    -2577    -3246    -3323    -2798    -2097    -1505    -1105 
    -986    -1146    -1584    -2184    -2574    -2644    -2613    -2582 
   -2566    -2504    -2205    -1656     -959     -263      144      207 
     124      -85     -399     -700     -945    -1105    -1283    -1642 
   -2031    -2311    -2633    -3029    -3330    -3338    -2926    -2215 
   -1341     -434       98       67     -322     -895    -1329    -1358 
   -1196    -1063    -1069    -1401    -1962    -2502    -2893    -2891 
   -2469    -1927    -1409    -1051    -1070    -1302    -1416    -1302 
    -982     -646     -619     -927    -1301    -1552    -1614    -1598 
   -1570    -1383    -1107    -1048    -1347    -1903    -2436    -2685 
   -2610    -2273    -1840    -1561    -1548    -1794    -2155    -2351 
   -2319    -2100    -1598     -870     -121      488      729      392 
    -494    -1667    -2775    -3504    -3649    -3277    -2725    -2285 
   -1965    -1584    -1097     -731     -661     -774     -976    -1264 
   -1591    -1976    -2396    -2624    -2524    -2208    -1841    -1530 
   -1271    -1048    -1007    -1213    -1493    -1659    -1553    -1293 
   -1244    -1364    -1466    -1628    -1726    -1669    -1652    -1707 
   -1817    -1953    -1890    -1575    -1170     -805     -629     -633 
    -587     -413     -214     -155     -448    -1055    -1694    -2216 
   -2516    -2471    -2135    -1705    -1437    -1397    -1333    -1086 
    -774     -561     -591     -999    -1657    -2176    -2403    -2490 
   -2479    -2353    -2142    -1856    -1622    -1518    -1470    -1587 
   -1868    -2026    -2011    -1934    -1756    -1501    -1267    -1140 
   -1239    -1467    -1591    -1645    -1698    -1669    -1684    -1871 
   -2072    -2181    -2193    -2073    -1798    -1323     -772     -488 
    -550     -784    -1073    -1302    -1433    -1516    -1505    -1432 
   -1470    -1678    -1960    -2153    -2112    -1914    -1759    -1703 
   -1674    -1570    -1386    -1232    -1147    -1136    -1229    -1399 
   -1624    -1853    -1988    -2020    -1976    -1918    -1945    -2020 
   -2077    -2147    -2138    -1935    -1615    -1314    -1125    -1050 
   -1028    -1216    -1714    -2226    -2474    -2401    -2058    -1642 
   -1296     -970     -670     -481     -444     -533     -657     -669 
    -564     -577     -855    -1231    -1553    -1917    -2343    -2601 
   -2512    -2138    -1686    -1399    -1277    -1202    -1240    -1385 
