Origin Time       2024/06/23 22:54:00
Lat.              35.645
Long.             140.060
Depth. (km)       72
Mag.              4.1
Station Code      TKY020
Station Lat.      35.6646
Station Long.     139.8086
Station Height(m) 2
Record Time       2024/06/23 22:54:45
Sampling Freq(Hz) 100Hz
Duration Time(s)  60
Dir.              E-W
Scale Factor      7845(gal)/8223790
Max. Acc. (gal)   1.529
Last Correction   2024/06/23 22:54:44
Memo.             
[...]
    5988     5977     5979     5996     5989     5968     5964     5962 
    5972     5994     5996     5977     5964     5967     5980     5987 
    5979     5977     5980     5981     5992     5996     5977     5962 
    5967     5987     5999     6000     5992     5971     5965     5983 
    5988     5976     5960     5956     5971     5989     5999     5998 
    5973     5948     5957     5996     6015     5992     5973     5976 
    5971     5965     5967     5962     5975     5987     5977     5979 
    5983     5958     5940     5965     6008     6034     6027     5987 
    5945     5935     5964     6000     6018     5998     5971     5975 
    5994     6010     6006     5975     5949     5965     6004     6008 
    5973     5942     5942     5965     5992     6004     5999     5969 
    5950     5972     6008     6007     5961     5940     5967     5992 
    6002     6002     5983     5961     5964     5984     5987     5972 
    5969     5985     5992     5981     5977     5977     5964     5956 
    5985     6026     6030     5994     5960     5949     5954     5975 
    5999     5989     5960     5961     5980     5973     5957     5969 
    5988     5991     5992     6000     5995     5964     5953     5969 
    5983     5992     5988     5985     5994     5985     5971     5972 
    5983     5989     5991     5992     5984     5977     5981     5973 
    5965     5975     5975     5989     6019     6016     5989     5968 
    5965     5979     5991     5991     5987     5981     5976     5976 
    5975     5969     5972     5984     5989     5979     5975     5981 
    5983     5977     5976     5991     6000     5998     5991     5973 
    5960     5972     5992     5998     5996     5991     5976     5968 
    5972     5977     5987     5995     5989     5981     5980     5977 
    5969     5971     5980     5983     5989     6000     5987     5964 
    5962     5969     5968     5971     5995     6016     6000     5969 
    5956     5968     5992     5998     5989     5972     5952     5965 
    5988     5991     5988     5984     5977     5972     5975     5999 
    6002     5976     5964     5975     5992     5996     5977     5962 
    5967     5983     5995     6003     5996     5967     5953     5983 
    6010     5992     5971     5980     5995     5991     5980     5976 
    5975     5976     5991     6002     5989     5964     5957     5979 
    5985     5976     5979     5976     5975     5996     6003     5988 
    5975     5969     5983     5994     5985     5985     5984     5983 
    5984     5976     5968     5971     5979     5996     6011     6006 
    5985     5968     5960     5958     5968     5985     5991     5985 
    5980     5969     5965     5980     5992     5998     6002     5991 
    5977     5983     5979     5972     5987     5991     5976     5967 
    5962     5971     5985     5988     5989     5991     5981     5980 
    5976     5972     5988     5999     5996     5989     5977     5976 
    5976     5971     5977     5983     5980     5991     5992     5973 
    5971     5983     5984     5976     5971     5976     5980     5980 
    5985     5992     5998     5988     5969     5976     5987     5977 
    5971     5973     5984     5991     5988     5991     5988     5979 
    5981     5981     5980     5983     5994     5998     5985     5985 
    5979     5969     5980     5988     5996     6004     5989     5976 
    5976     5969     5956     5958     5976     5980     5980     5985 
    5988     5991     5989     5977     5965     5968     5988     6004 
    5998     5979     5964     5956     5961     5984     5989     5981 
    5985     5988     5988     5987     5979     5985     5994     5979 
    5960     5957     5972     5999     6014     5996     5964     5948 
    5964     5992     6006     5999     5983     5973     5967     5973 
    5983     5976     5975     5979     5976     5979     5975     5975 
    5989     5991     5989     5992     5980     5971     5975     5975 
    5975     5988     5996     5981     5969     5969     5971     5983 
    5995     5996     5987     5967     5954     5956     5960     5973 
    5995     5989     5977     5976     5971     5980     5992     5991 
    5989     5985     5981     5979     5973     5973     5985     5998 
    6000     5995     5975     5961     5972     5983     5985     5991 
    5988     5983     5980     5967     5964     5977     5977     5976 
    5983     5981     5983     5979     5969     5972     5977     5977 
    5984     5992     5989     5975     5964     5962     5973     5987 
    5989     5989     5989     5965     5946     5964     5984     5984 
    5983     5984     5981     5979     5984     5984     5969     5948 
    5948     5987     6016     5995     5983     5994     5971     5941 
    5960     5996     6010     6022     6021     5994     5981     5957 
    5915     5967     6060     6003     5891     5929     6007     5985 
    5995     6077     6088     6039     6000     5890     5736     5779 
    5994     6103     6103     6099     6048     5952     5899     5902 
    5891     5937     6122     6177     5913     5729     5915     6122 
    6060     6004     6111     6052     5764     5663     5904     6177 
    6216     6120     6054     5987     5821     5628     5709     6119 
    6389     6169     5799     5798     6031     6023     5884     5981 
    6185     6165     5922     5779     5871     5987     6025     6031 
    6045     6103     6043     5796     5697     5922     6164     6115 
    5972     6070     6131     5859     5664     5791     5977     6129 
    6230     6115     5886     5919     6133     6064     5887     5957 
    6006     5891     5860     5915     5960     6019     6065     6011 
    5921     5954     6100     6154     5995     5809     5844     5962 
    5937     5917     6048     6160     6120     5969     5871     5914 
    5946     5934     6016     6095     5987     5879     6002     6076 
    5941     5907     5988     5998     5983     5919     5877     6038 
    6183     6118     6038     6011     5935     5860     5838     5869 
    5956     5996     5960     6042     6162     6052     5891     5927 
    6014     6019     5965     5898     5938     6048     6025     5938 
    5977     6060     6038     5921     5809     5842     5972     6041 
    6114     6178     6041     5859     5892     5946     5887     5975 
    6104     5981     5884     6008     6102     6114     6093     5975 
    5871     5886     5850     5769     5877     6102     6178     6112 
    6034     5960     5926     5981     6045     6031     5976     5917 
    5856     5884     6041     6123     6021     5929     5960     5973 
    5919     5927     5977     5922     5883     6006     6139     6142 
    6073     5977     5861     5829     5900     5969     6045     6147 
    6119     5952     5899     5987     6018     5975     5879     5837 
    6014     6133     5987     5941     6083     6064     5881     5856 
    6029     6076     5933     5877     5942     6021     6077     6046 
    5965     5898     5822     5780     5830     6010     6212     6247 
    6187     6103     5953     5868     5850     5772     5811     6048 
    6204     6208     6165     6007     5848     5914     5981     5844 
    5876     6150     6157     5915     5817     5857     5972     6079 
    5976     5844     6002     6251     6188     5908     5809     5884 
    5868     5807     5964     6245     6289     6066     5823     5721 
    5802     5942     5971     5954     6043     6103     6021     6002 
    6099     6083     5965     5930     5938     5944     6016     6085 
    5992     5910     6039     6112     5961     5879     5926     5891 
    5837     5875     5919     5996     6143     6170     5979     5826 
    5938     6069     5964     5863     5927     5969     5983     6083 
    6161     6135     6073     5941     5742     5724     6007     6258 
    6176     6008     6031     6080     6021     5937     5864     5842 
    5961     6053     5873     5725     5979     6208     6025     5832 
    5864     5915     6004     6114     6019     5842     5887     6057 
    6102     6066     6030     5922     5845     5890     5976     6134 
    6264     6127     5931     5960     5962     5810     5813     6003 
    6114     6127     6131     6041     5925     5950     5872     5606 
    5638     6006     6195     6166     6129     5979     5826     5961 
    6116     5942     5786     5922     6025     5931     5977     6247 
    6292     5984     5694     5560     5679     6143     6478     6269 
    5880     5782     5886     5903     5859     5911     6077     6197 
    6050     5803     5829     5984     6079     6183     6084     5856 
    5985     6177     5975     5787     5871     6083     6313     6219 
    5837     5695     5744     5702     5765     6065     6274     6181 
    6030     5948     5863     5911     6088     6158     6050     5852 
    5795     5968     6088     6150     6272     6108     5756     5752 
    5863     5778     5827     6073     6204     6120     5927     5827 
    5877     5940     5957     6000     6110     6107     5968     6003 
    6149     6119     6062     6142     6153     5988     5890     5922 
    5841     5733     5887     6100     6075     6016     6088     6033 
    5896     5915     5969     5973     5984     5961     5919     5919 
    5977     6006     5981     6010     6014     5969     6029     5984 
    5778     5830     6016     5987     6003     6106     6056     5981 
    5934     5884     5991     6145     6115     5983     5938     6023 
    6110     6034     5742     5502     5702     6003     5898     5821 
    6062     6075     5769     5751     6126     6331     6151     6007 
    5991     5933     5975     6069     6127     6285     6307     6069 
    5915     5927     5913     5832     5841     5985     6084     6110 
    6096     5987     5925     5977     5973     5960     6093     6235 
    6161     5941     5807     5852     5949     5925     5844     5899 
    6012     6035     6035     6015     5927     5872     5837     5796 
    5850     5976     6050     6042     6035     6046     6002     5938 
    5837     5728     5794     6003     6122     6027     5881     5931 
    6030     5948     5867     5902     5914     5891     5915     6012 
    6196     6351     6286     6068     5962     5935     5833     5837 
    5962     5950     5906     5969     5968     5867     5827     5861 
    5871     5925     6031     6060     6080     6108     6012     5991 
    6120     6151     6119     6106     5983     5872     5925     5992 
    6049     6145     6061     5756     5634     5775     5860     5902 
    5987     6003     6039     6164     6249     6251     6162     6015 
    6021     6156     6116     5940     5927     6041     6016     5860 
    5841     5972     5907     5637     5601     5904     6143     6191 
    6238     6160     5908     5798     5848     5898     5994     6123 
    6181     6093     5846     5699     5863     6041     5988     5952 
    6019     5944     5826     5896     6000     6057     6174     6218 
    6045     5933     6061     6097     5979     5996     6002     5859 
    5815     5913     6022     6100     6037     5800     5653     5809 
    5967     5875     5857     6018     6091     6104     6116     6031 
    5948     5998     6103     6150     6077     5923     5845     5903 
    5950     5940     6079     6282     6147     5877     5933     6064 
    6029     6029     6045     6006     6048     6134     6107     6007 
    6011     6043     5972     5977     6081     6083     6016     5949 
    5850     5761     5734     5852     6075     6184     6122     5994 
    5886     5805     5737     5791     5940     5975     6021     6176 
    6093     5773     5660     5850     6084     6187     6170     6095 
    5994     5937     5921     5873     5864     5896     5890     5871 
    5807     5782     5942     6102     6091     6027     6000     5989 
    5969     5961     5977     5937     5898     5999     6177     6227 
    6012     5765     5845     6108     6223     6205     6129     6002 
    5953     5979     5904     5865     6062     6197     6035     5854 
    5890     6035     6091     6049     6104     6180     6035     5846 
    5844     5860     5844     5954     6091     6088     6023     5980 
    5925     5900     5991     6149     6201     6053     5871     5837 
    5841     5845     6031     6237     6135     5910     5834     5838 
    5921     6081     6095     5930     5821     5842     5918     6030 
    6134     6137     6133     6218     6218     6056     6010     6183 
    6262     6200     6300     6440     6393     6338     6278     6187 
    6281     6401     6285     6203     6330     6384     6319     6365 
    6347     5992     5611     5491     5444     5413     5471     5566 
    5664     5661     5543     5568     5900     6316     6455     6278 
    6095     6134     6305     6404     6415     6372     6211     5998 
    5768     5502     5325     5332     5356     5165     4892     4874 
    5028     5032     4828     4573     4463     4558     4662     4604 
    4569     4855     5386     5834     6010     6021     6134     6324 
    6365     6331     6463     6736     6925     6955     6907     6824 
    6740     6671     6606     6542     6380     6053     5589     5080 
    4756     4773     5038     5404     5848     6309     6546     6563 
    6689     6974     7129     6964     6725     6821     7133     7265 
    7242     7348     7578     7584     7211     6764     6489     6366 
    6357     6361     6297     6238     6149     5971     5895     5958 
    5850     5541     5378     5444     5443     5229     5062     5188 
    5502     5810     5949     5811     5512     5252     5135     5267 
    5644     5992     6108     6147     6257     6259     6123     6135 
    6224     6045     5725     5625     5705     5719     5629     5498 
    5314     5123     5058     5062     5051     5089     5103     5096 
    5246     5489     5688     5876     6038     6131     6230     6447 
    6662     6675     6650     6783     6944     6986     6944     6779 
    6442     6114     5945     5748     5512     5551     5838     6033 
    6019     5864     5602     5386     5439     5697     5891     5941 
    5857     5645     5528     5670     5915     6146     6408     6617 
    6650     6571     6450     6262     6081     6050     6193     6334 
    6342     6315     6308     6242     6166     6130     5949     5634 
    5618     6053     6453     6474     6285     6108     6115     6284 
    6304     6129     6056     6200     6427     6512     6357     6137 
    5998     5894     5826     5825     5818     5755     5653     5567 
    5591     5729     5827     5813     5802     5883     5948     5900 
    5799     5722     5728     5837     5921     5834     5636     5512 
    5516     5568     5691     5899     5992     5846     5695     5691 
    5659     5509     5373     5324     5359     5478     5628     5807 
    6035     6172     6165     6195     6330     6474     6551     6556 
    6469     6308     6196     6066     5757     5452     5436     5674 
    6004     6388     6759     6991     7038     6905     6646     6427 
    6357     6401     6442     6292     5957     5671     5547     5526 
    5557     5649     5784     5863     5833     5742     5707     5842 
    6035     6114     6123     6154     6262     6462     6628     6677 
    6696     6643     6372     6000     5744     5610     5610     5761 
    5841     5724     5624     5610     5508     5377     5323     5251 
    5154     5108     5086     5103     5248     5526     5849     6146 
    6404     6609     6671     6606     6569     6552     6482     6376 
    6272     6199     6099     5907     5679     5540     5578     5671 
    5663     5629     5649     5713     5852     6014     6038     5949 
    5973     6114     6199     6281     6394     6411     6377     6340 
    6166     5976     6075     6316     6313     6123     6077     6154 
    6064     5850     5814     5965     6058     6012     5980     6026 
    6069     6062     5994     5883     5832     5895     6002     6035 
    5976     5930     5969     6003     5937     5891     5988     6057 
    6026     6070     6115     6010     5913     5896     5868     5884 
    5944     5888     5738     5687     5749     5749     5705     5748 
    5832     5918     6031     6075     6072     6168     6351     6461 
    6316     6011     5841     5813     5760     5728     5784     5865 
    5940     5967     5875     5833     5996     6161     6231     6359 
    6450     6315     6061     5886     5813     5810     5842     5825 
    5757     5734     5764     5746     5679     5638     5633     5651 
    5664     5638     5668     5881     6184     6350     6328     6299 
    6424     6601     6598     6457     6354     6273     6156     6108 
    6146     6070     5892     5827     5822     5741     5698     5701 
    5611     5479     5413     5451     5636     5908     6095     6160 
    6154     6112     6116     6177     6143     6034     6049     6156 
    6200     6222     6247     6210     6168     6204     6226     6141 
    6031     5964     5919     5957     6093     6203     6192     6122 
    6080     6053     5967     5836     5745     5726     5733     5738 
    5783     5832     5869     5998     6139     6104     5927     5745 
    5597     5513     5555     5707     5895     6075     6162     6102 
    6022     6049     6169     6295     6323     6234     6095     5927 
    5768     5736     5875     6042     6103     6061     5953     5811 
    5674     5583     5598     5657     5675     5715     5813     5914 
    5981     5999     5973     5937     5926     5995     6130     6245 
    6355     6546     6716     6725     6681     6647     6544     6397 
    6258     6104     5915     5733     5597     5460     5347     5387 
    5537     5649     5737     5799     5834     5918     6035     6127 
    6164     6122     6049     5965     5907     6010     6227     6369 
    6440     6485     6415     6243     6119     6097     6114     6039 
    5861     5733     5703     5690     5684     5694     5663     5624 
    5675     5796     5868     5875     5923     6025     6056     6026 
    6018     6002     6031     6158     6197     6068     5958     5973 
    6058     6170     6266     6269     6192     6134     6092     6008 
    5902     5827     5814     5857     5941     6008     5995     5925 
    5842     5780     5787     5848     5890     5883     5852     5859 
    5938     5998     5949     5872     5888     5975     6012     5992 
    5984     5977     5967     5983     5967     5944     6027     6116 
    6085     6022     5975     5865     5728     5707     5796     5891 
    5987     6030     5971     5946     6012     6056     6065     6103 
    6135     6127     6131     6169     6199     6220     6251     6237 
    6123     5950     5772     5624     5555     5594     5744     5908 
    5937     5857     5792     5757     5755     5822     5921     5948 
    5890     5806     5737     5740     5853     6007     6110     6146 
    6103     5981     5898     5950     6072     6135     6124     6107 
    6092     6062     6046     6062     6088     6102     6126     6161 
    6157     6111     6061     6030     6035     6077     6108     6097 
