Origin Time       2024/06/23 22:54:00
Lat.              35.645
Long.             140.060
Depth. (km)       72
Mag.              4.1
Station Code      TKY013
Station Lat.      35.6627
Station Long.     139.8341
Station Height(m) 1
Record Time       2024/06/23 22:54:45
Sampling Freq(Hz) 100Hz
Duration Time(s)  60
Dir.              N-S
Scale Factor      7845(gal)/8223790
Max. Acc. (gal)   2.295
Last Correction   2024/06/23 22:54:44
Memo.             
[...]
    7593     7591     7578     7578     7601     7597     7588     7595 
    7570     7550     7597     7638     7623     7616     7601     7581 
    7599     7600     7587     7599     7619     7604     7569     7585 
    7624     7615     7581     7568     7581     7589     7597     7615 
    7600     7572     7573     7591     7596     7595     7592     7589 
    7587     7580     7585     7597     7593     7599     7604     7593 
    7601     7619     7595     7561     7578     7595     7591     7595 
    7582     7578     7587     7605     7623     7595     7572     7587 
    7605     7611     7600     7587     7577     7595     7597     7565 
    7582     7615     7597     7577     7595     7612     7596     7585 
    7588     7595     7601     7580     7578     7601     7589     7561 
    7580     7604     7573     7565     7609     7611     7578     7592 
    7622     7585     7560     7588     7596     7589     7577     7573 
    7603     7601     7580     7580     7591     7596     7597     7596 
    7582     7593     7607     7581     7570     7580     7585     7591 
    7599     7596     7580     7584     7599     7596     7592     7596 
    7600     7585     7570     7578     7603     7612     7615     7623 
    7614     7619     7611     7560     7573     7611     7577     7564 
    7595     7581     7551     7576     7611     7605     7570     7539 
    7574     7611     7593     7601     7607     7582     7577     7585 
    7593     7593     7608     7647     7641     7582     7555     7587 
    7616     7618     7599     7581     7582     7569     7555     7573 
    7597     7584     7554     7569     7593     7576     7560     7608 
    7668     7607     7511     7554     7647     7632     7545     7541 
    7622     7619     7564     7597     7677     7684     7614     7519 
    7470     7528     7658     7735     7609     7377     7334     7493 
    7695     7827     7793     7608     7385     7273     7433     7838 
    8077     7832     7454     7318     7310     7376     7628     7932 
    7901     7412     6983     7211     7863     8190     8100     7900 
    7519     7038     6948     7464     8093     8063     7325     6836 
    7338     8264     8459     7723     7055     7125     7396     7400 
    7496     7873     8063     7836     7545     7410     7362     7356 
    7425     7614     7715     7554     7519     7938     8282     7888 
    7165     7052     7551     7861     7661     7414     7389     7457 
    7599     7751     7776     7712     7632     7496     7344     7357 
    7611     7842     7735     7453     7362     7499     7697     7843 
    7932     7920     7669     7223     6945     7253     7939     8139 
    7601     7083     7196     7766     8256     8239     7715     7092 
    6700     6812     7530     8230     8283     7875     7449     7192 
    7217     7572     8032     8183     7751     7033     6907     7645 
    8291     8046     7384     7101     7215     7473     7742     7852 
    7815     7790     7717     7408     7042     7095     7604     8025 
    7939     7619     7608     7763     7609     7362     7464     7684 
    7612     7404     7450     7749     7896     7712     7497     7433 
    7362     7362     7751     8158     7800     7026     6905     7520 
    8025     7944     7605     7526     7743     7831     7636     7487 
    7492     7404     7182     7177     7580     8014     8077     7811 
    7488     7296     7308     7520     7773     7832     7618     7349 
    7325     7518     7684     7728     7742     7765     7709     7572 
    7493     7570     7726     7801     7735     7493     7213     7263 
    7692     7931     7572     7114     7217     7686     7920     7830 
    7763     7735     7454     7074     7141     7686     8046     7893 
    7609     7503     7512     7549     7728     7983     7906     7458 
    7132     7206     7461     7658     7762     7755     7659     7538 
    7487     7574     7680     7658     7488     7321     7399     7728 
    8023     7948     7545     7184     7047     7210     7682     8071 
    8023     7817     7695     7422     7177     7361     7751     7902 
    7734     7510     7377     7253     7298     7697     8047     7815 
    7308     7260     7632     7866     7877     7938     7921     7514 
    6959     6939     7591     8128     8039     7746     7611     7499 
    7404     7492     7561     7345     7202     7492     7827     7757 
    7501     7389     7350     7372     7566     7831     7962     7824 
    7500     7242     7267     7566     7832     7851     7804     7940 
    8168     8090     7589     7084     7060     7464     7785     7712 
    7416     7218     7317     7798     8364     8384     7788     7196 
    7015     7065     7110     7254     7452     7446     7407     7704 
    8120     8035     7449     7059     7252     7736     8083     8145 
    7970     7684     7464     7400     7543     7890     8129     7873 
    7322     7052     7226     7557     7720     7632     7465     7419 
    7570     7723     7650     7420     7267     7407     7643     7389 
    6841     6984     7992     8750     8406     7599     7400     7677 
    7682     7472     7550     7850     7892     7614     7446     7585 
    7700     7503     7171     7095     7383     7755     7893     7703 
    7337     7161     7391     7680     7678     7561     7622     7921 
    8221     8187     7797     7381     7267     7345     7356     7415 
    7647     7801     7662     7407     7317     7489     7747     7670 
    7277     7145     7398     7543     7430     7434     7653     7817 
    7796     7630     7514     7635     7965     8337     8460     8128 
    7593     7244     7103     7113     7238     7284     7292     7479 
    7712     7847     7924     7824     7506     7325     7522     7743 
    7589     7288     7284     7516     7709     7771     7669     7609 
    7874     8286     8307     7716     7096     7082     7399     7461 
    7365     7547     7885     7863     7377     6928     7090     7670 
    7836     7379     7059     7423     8108     8444     8070     7284 
    6943     7446     8139     8193     7697     7321     7276     7361 
    7452     7622     8023     8378     8040     7132     6681     7163 
    7932     8166     7670     7080     7095     7535     7690     7348 
    7040     7329     8029     8271     7600     6916     7264     8144 
    8305     7730     7462     7800     8020     7695     7182     6940 
    7053     7414     7821     8047     8032     7893     7734     7547 
    7380     7445     7778     7952     7584     7055     7005     7429 
    7774     7641     7302     7229     7407     7562     7601     7717 
    7982     8110     7938     7587     7314     7365     7674     7838 
    7677     7584     7767     7765     7306     6876     7069     7804 
    8410     8374     7854     7372     7203     7195     7069     6941 
    7300     8106     8461     7925     7389     7535     7821     7761 
    7510     7314     7317     7510     7636     7497     7356     7570 
    7959     8056     7749     7426     7431     7626     7669     7439 
    7195     7195     7341     7410     7392     7523     7832     8004 
    7920     7767     7688     7793     8066     8079     7582     7090 
    7183     7689     7959     7780     7483     7295     7303     7537 
    7728     7605     7348     7300     7406     7419     7402     7550 
    7705     7518     7149     7148     7603     8006     8010     7894 
    8036     8341     8387     8008     7488     7121     7045     7238 
    7384     7285     7179     7341     7624     7751     7784     7780 
    7588     7358     7550     8067     8214     7816     7344     7079 
    6932     6860     7048     7524     8023     8272     8271     8252 
    8197     7874     7431     7209     7241     7433     7699     7812 
    7605     7245     7123     7431     7820     7885     7659     7338 
    7179     7364     7618     7551     7314     7258     7418     7669 
    7906     8000     7858     7549     7327     7399     7650     7761 
    7735     7888     8086     7928     7622     7649     7836     7709 
    7315     7055     7156     7442     7565     7553     7591     7618 
    7611     7618     7581     7387     7083     7064     7526     8002 
    8024     7759     7558     7441     7362     7472     7763     7908 
    7797     7646     7462     7238     7213     7462     7739     7862 
    7921     8031     8166     8216     8101     7869     7569     7223 
    6974     6991     7233     7537     7796     7866     7734     7550 
    7411     7443     7635     7657     7402     7264     7537     7909 
    8013     7943     7786     7423     7086     7142     7311     7207 
    7130     7420     7816     7908     7809     7870     7983     7861 
    7589     7522     7765     7954     7750     7345     7157     7249 
    7462     7750     7967     7836     7371     7096     7430     7925 
    7886     7380     6937     6743     6771     7118     7654     8016 
    8050     7911     7774     7689     7778     8071     8159     7674 
    6943     6754     7310     7909     8063     8056     8131     8020 
    7600     7234     7186     7283     7314     7398     7649     7844 
    7878     7955     8087     7944     7506     7261     7408     7619 
    7661     7589     7442     7267     7256     7518     7946     8216 
    7971     7406     7103     7261     7636     7967     8110     7971 
    7641     7377     7233     7098     7030     7180     7445     7593 
    7634     7720     7940     8271     8571     8613     8236     7600 
    7128     6966     6813     6686     6980     7572     7956     7916 
    7572     7253     7161     7069     6782     6613     6824     7078 
    6956     6593     6473     6739     7292     8167     9077     9444 
    9177     8689     8325     8143     8078     7954     7582     7047 
    6736     6841     6901     6605     6539     7279     8494     9316 
    9386     9047     8637     8336     8148     7873     7523     7411 
    7585     7627     7300     6944     6966     7323     7734     8078 
    8295     8345     8220     7844     7398     7257     7543     8152 
    8704     8756     8440     8155     7767     6993     6153     5875 
    6297     6953     7329     7406     7479     7568     7501     7396 
    7371     7248     6926     6459     5929     5508     5591     6412 
    7344     7623     7433     7411     7628     7620     7433     7560 
    7870     7929     7839     7848     7801     7601     7581     8032 
    8657     8841     8548     8251     8122     8098     8185     8248 
    7877     6982     6254     6232     6578     6767     6826     7129 
    7848     8753     9266     9009     8263     7573     7288     7551 
    8156     8310     7511     6454     6026     6316     6991     7758 
    8299     8197     7562     7167     7321     7658     7927     8172 
    8436     8644     8743     8791     8753     8426     7843     7334 
    7204     7506     7933     8158     8128     7947     7816     8021 
    8530     8854     8657     8033     7202     6446     5983     5917 
    6162     6318     6154     5941     6048     6474     6929     7275 
    7612     8041     8441     8658     8754     8823     8826     8600 
    8093     7500     7176     7371     7761     7828     7518     6966 
    6330     5853     5760     6137     6880     7824     8727     9189 
    9009     8418     7728     7122     6716     6543     6558     6687 
    6941     7356     7759     7879     7730     7661     7932     8398 
    8754     8842     8573     8009     7542     7523     7690     7654 
    7562     7554     7217     6323     5543     5620     6393     7284 
    7971     8352     8468     8550     8819     9229     9543     9481 
    8907     7978     7114     6745     6986     7543     7916     7862 
    7708     7780     7890     7774     7549     7375     7128     6840 
    6682     6624     6658     6885     7391     8006     8229     7811 
    7123     6627     6401     6482     6964     7592     8014     8284 
    8598     8904     8981     8723     8303     7997     7817     7591 
    7276     6864     6385     5984     5757     5691     5771     6099 
    6781     7653     8534     9344     9811     9752     9259     8511 
    7890     7692     7763     7963     8195     8081     7464     6745 
    6417     6515     6770     7096     7493     7715     7547     7234 
    7191     7634     8457     9162     9305     8968     8494     8019 
    7353     6446     5725     5694     6319     7071     7608     8024 
    8419     8658     8577     8244     7832     7414     7103     7128 
    7472     7759     7722     7395     7002     6772     6700     6777 
    7071     7395     7496     7408     7376     7450     7398     7295 
    7554     8198     8729     8823     8707     8598     8347     7874 
    7526     7581     7657     7240     6447     5818     5667     5927 
    6448     7215     8110     8792     9157     9394     9489     9304 
    8835     8081     7138     6289     5836     5919     6378     6821 
    6971     6902     6928     7182     7468     7600     7666     7878 
    8247     8506     8517     8382     8193     8085     8139     8186 
    8035     7759     7578     7479     7315     7186     7337     7815 
    8303     8444     8212     7848     7516     7258     7177     7246 
    7303     7344     7439     7489     7338     7103     7022     7122 
    7349     7678     8075     8479     8851     9140     9171     8811 
    8132     7425     6906     6405     5827     5378     5184     5305 
    5796     6606     7539     8370     8891     8989     8834     8721 
    8723     8681     8523     8280     7857     7356     7187     7383 
    7493     7295     7005     6825     6849     7021     7111     7072 
    7095     7308     7601     7793     7884     7821     7553     7339 
    7393     7514     7504     7449     7456     7534     7689     8005 
    8527     9031     9266     9185     8779     8171     7588     7114 
    6728     6470     6361     6239     6006     5827     5950     6469 
    7263     8078     8602     8695     8523     8337     8282     8230 
    8010     7749     7569     7411     7263     7172     7202     7411 
    7777     8141     8293     8155     7900     7708     7572     7420 
    7244     7142     7164     7206     7292     7547     7867     8000 
    7905     7794     7785     7731     7457     7068     6849     6933 
    7173     7398     7681     8039     8266     8424     8722     9005 
    8959     8590     8108     7569     6978     6507     6318     6363 
    6502     6629     6691     6835     7248     7921     8742     9439 
    9657     9297     8573     7817     7206     6808     6689     6806 
    6960     6929     6790     6786     6957     7206     7497     7832 
    8050     8016     7936     7939     7830     7535     7273     7203 
    7213     7161     7045     6879     6733     6814     7254     7913 
    8514     8815     8811     8672     8471     8191     7858     7608 
    7516     7443     7387     7499     7743     7862     7699     7418 
    7199     7056     6952     6866     6841     6851     6779     6679 
    6701     6887     7195     7651     8195     8575     8658     8607 
    8581     8510     8355     8240     8199     8121     7936     7677 
    7373     7071     6848     6717     6721     6839     6880     6826 
    6825     6920     7037     7210     7535     7925     8228     8453 
    8662     8731     8561     8276     7946     7588     7350     7314 
    7393     7449     7495     7635     7800     7915     8039     8175 
    8154     7794     7159     6637     6609     7018     7578     8044 
    8220     8108     7890     7736     7669     7630     7677     7817 
    7844     7607     7242     7049     7157     7437     7631     7647 
    7639     7668     7612     7388     7071     6843     6789     6902 
    7136     7395     7623     7820     7916     7794     7500     7163 
    6847     6578     6374     6399     6787     7377     7938     8330 
    8473     8401     8245     8128     8097     8124     8181     8266 
    8345     8341     8166     7889     7695     7539     7311     7167 
    7229     7341     7326     7283     7365     7431     7353     7268 
    7387     7774     8256     8594     8754     8891     9016     8980 
    8675     8171     7754     7543     7337     7026     6687     6444 
    6369     6444     6592     6737     6914     7084     7160     7234 
    7393     7495     7418     7329     7369     7479     7599     7678 
    7686     7680     7727     7812     7848     7839     7861     7966 
    8106     8148     7982     7553     6945     6446     6316     6563 
    6966     7303     7531     7804     8179     8444     8453     8240 
    7904     7564     7284     7200     7388     7681     7912     8037 
    8083     8140     8236     8240     8087     7901     7778     7746 
    7782     7761     7584     7371     7317     7379     7411     7339 
    7173     7072     7113     7249     7447     7607     7650     7628 
    7684     7889     8086     8046     7711     7237     6821     6598 
    6605     6762     6936     7010     7002     6959     6886     6895 
    7101     7477     7919     8257     8429     8488     8472     8455 
    8509     8615     8761     8895     8849     8580     8257     8029 
    7898     7757     7557     7322     7041     6836     6799     6845 
    6978     7312     7774     8079     8048     7788     7501     7236 
    6974     6821     6831     6922     7003     7011     7001     7103 
    7331     7585     7821     7987     7959     7773     7654     7647 
    7619     7642     7807     7920     7862     7701     7476     7260 
    7192     7310     7464     7543     7609     7699     7774     7812 
    7789     7736     7677     7561     7365     7202     7213     7360 
    7528     7692     7870     8062     8260     8483     8688     8739 
    8519     8041     7460     6937     6585     6531     6786     7188 
    7597     7947     8140     8137     7982     7712     7438     7341 
    7476     7566     7356     7032     6878     6943     7136     7344 
    7519     7581     7468     7257     7063     7006     7137     7388 
    7649     7824     7897     8012     8259     8401     8259     8009 
    7792     7619     7504     7460     7527     7678     7809     7889 
    7954     8009     8012     7969     7902     7788     7581     7288 
    6952     6705     6736     7020     7375     7673     7788     7723 
    7653     7662     7627     7446     7226     7071     7015     7141 
    7488     7942     8295     8409     8222     7866     7588     7445 
    7395     7407     7341     7137     6912     6794     6829     7017 
    7277     7524     7751     7951     8114     8236     8370     8530 
    8488     8166     7780     7560     7696     8104     8411     8428 
    8256     8054     7874     7747     7678     7643     7578     7437 
    7312     7234     7075     6817     6616     6633     6866     7223 
    7635     7959     8050     7893     7623     7376     7167     6921 
    6679     6602     6659     6727     6848     7044     7288     7582 
    7839     7913     7813     7716     7707     7757     7819     7896 
    8033     8151     8176     8145     8078     8025     8063     8139 
    8158     8145     8118     8020     7906     7805     7651     7518 
