Origin Time       2024/06/23 22:54:00
Lat.              35.645
Long.             140.060
Depth. (km)       72
Mag.              4.1
Station Code      TKY030
Station Lat.      35.6698
Station Long.     139.7360
Station Height(m) 13
Record Time       2024/06/23 22:54:37
Sampling Freq(Hz) 100Hz
Duration Time(s)  66
Dir.              U-D
Scale Factor      7845(gal)/8223790
Max. Acc. (gal)   2.145
Last Correction   2024/06/23 22:54:37
Memo.             
[...]
     710      722      700      646      608      623      656      679 
     696      684      641      634      673      699      697      673 
     631      610      627      670      707      712      676      621 
     599      643      706      729      707      672      633      606 
     634      707      733      681      625      614      643      685 
     715      711      668      618      604      642      704      735 
     712      656      602      595      639      699      741      731 
     670      618      612      631      656      685      707      684 
     635      625      654      683      691      679      661      657 
     666      687      693      664      633      626      641      676 
     711      720      699      639      591      616      680      722 
     724      676      616      614      648      668      689      714 
     689      633      625      664      680      679      681      668 
     649      645      653      683      700      666      630      622 
     631      670      715      715      675      626      602      635 
     700      726      706      676      634      595      622      696 
     727      699      653      626      643      677      681      672 
     662      631      610      631      684      729      722      665 
     616      608      639      699      737      707      646      608 
     606      642      696      711      684      654      630      630 
     676      708      685      652      630      631      668      704 
     716      706      660      610      608      657      706      710 
     675      625      600      627      680      712      697      646 
     614      623      652      688      711      697      657      619 
     616      657      704      708      669      638      633      638 
     668      714      718      665      612      618      665      699 
     700      685      669      649      627      639      684      700 
     673      634      615      633      666      688      692      670 
     625      612      650      684      703      714      688      643 
     616      626      675      715      702      670      658      643 
     638      673      700      681      643      621      643      693 
     711      688      653      619      604      635      697      734 
     719      666      614      615      653      673      699      711 
     657      600      625      685      716      706      666      629 
     625      642      668      702      714      681      638      616 
     638      693      716      695      660      622      611      658 
     710      708      681      649      616      621      672      724 
     729      684      631      621      656      688      695      683 
     648      623      641      679      707      714      676      610 
     579      611      672      730      743      684      606      581 
     615      677      730      730      696      658      622      622 
     669      697      672      641      658      700      706      672 
     654      653      641      635      664      719      745      693 
     606      561      585      643      697      743      750      676 
     589      580      621      676      731      730      673      626 
     615      643      689      708      695      680      664      637 
     634      656      668      665      657      654      673      693 
     673      630      616      637      670      711      734      714 
     645      571      564      639      731      772      743      672 
     598      565      606      692      754      754      691      600 
     558      603      688      735      723      684      650      637 
     656      676      669      656      654      653      656      677 
     692      664      618      604      633      683      722      727 
     697      633      580      600      662      702      714      704 
     661      619      630      683      715      685      635      630 
     652      669      704      733      696      629      606      635 
     676      697      687      657      626      612      642      703 
     716      665      614      598      603      639      696      712 
     681      661      675      719      766      751      658      535 
     490      585      683      619      542      619      657      560 
     618      823      859      784      697      492      372      442 
     357      324      769      851     -113     -456     1150     2477 
    1674     1092     2029     1406    -1219    -1551     1035     2285 
    1283     1057     1763      940     -935    -1255      132     1382 
    1587      969      360      699     1240      415     -760      -75 
    1462     1306      255      456      947      236     -356      548 
    1987     2274      946     -513     -259      959      976      272 
     787     1621      945       -6      294      403     -387      -87 
    1360     1877     1679     1725     1166      -66     -722     -556 
    -102      503     1217     1485     1107      978     1246     1066 
     758      668       93     -572     -403      433     1636     2451 
    1705       52     -710     -337      135      479     1390     2304 
    1834      610      -49     -405     -577      152     1183     1193 
     791     1119     1258      386     -106      607     1167      715 
     241      625     1162      726      -81      395     1560     1294 
      99       47      784      849      737     1138     1082      481 
     654     1166      676      135      569      680        0      -24 
     626      661      402      859     1578     1640     1096      610 
     463      313       13       28      530      970      962      729 
     614      641      525      346      645     1266     1418      954 
     373      155      367      607      598      581      618      376 
     194      719     1611     1987     1476      380     -514     -496 
      76      517     1013     1548     1539     1154      826      314 
    -352     -468      255     1148     1451     1302     1067      557 
      66      261      706      683      541      741     1007      922 
     465       36      116      708     1256     1321     1031      731 
     565      433      344      571      938      846      469      437 
     648      766      822      768      664      797      954      683 
     255      170      342      457      523      780     1100     1004 
     508      286      533      715      792     1053     1081      595 
     314      660      957      666      157       70      480      757 
     675      892     1313     1109      607      496      548      622 
     920     1131      788      271      361      796      623      270 
     662     1017      702      750     1327     1296      602      132 
     210      477      522      526      849     1004      402     -156 
     353      978      502      294     1480     2023      770      -79 
     527      864      361      279      774      801      230      -63 
     240      873     1501     1449      658      241      525      662 
     591      639      454      174      318      643      801      760 
     596      506      465      529      996     1410     1039      531 
     724      999      751      491      756     1117      796      276 
     544      873      429      290      992     1227      642      467 
     873      635     -295     -405      657     1440     1274     1020 
    1082      926      521      483      645      294      -48      473 
     996      646      387      862     1119      760      731     1340 
    1414      390     -314      244      731      378      311      843 
    1120      845      444      550      936      746      488      996 
    1258      550      152      481      306     -190      349     1260 
     893      179      853     1568      691      -20      869     1420 
     490      -70      440      475      -14      319      985      951 
    1050     1476      908      -32      325     1012      631      363 
    1043     1362      865      510      297     -249     -469      386 
    1486     1502      870      793     1005      993     1071      945 
     344      286     1081     1486      878      -60     -468        2 
     662      796     1094     1930     1831      398     -283      471 
     783        2     -145     1069     1633      405     -473      172 
     691      946     1850     1883      494     -184      118       20 
    -114      518     1410     1884     1857     1375      427     -488 
    -419      444      830      668      773      900      486      251 
     926     1327      483       10      970     1593      784       -1 
     326      695      297      426     1318      988     -314     -261 
     656      704      757     1723     2084      880     -263      -55 
     342      151      619     1891     2120      928      -59     -180 
     -83       74      626     1298     1436     1092      764      448 
      32     -102      272      990     1755     1790      697     -461 
    -610      136     1093     1575     1441     1089      639      261 
     324      521      658      961      936      398      265      758 
    1100      984      595      314      460      573      383      469 
     579       -1     -409      413     1633     1948     1516     1171 
     746      -56     -209      488      544      190      845     1586 
    1113      344      222      421      697     1132     1505     1420 
     793       90      -60      421      926      866      480      456 
     668      457       64      229      718      743      464      756 
    1566     1819     1136      438      348      175     -256      174 
    1279     1217       48        1     1270     1714      981      639 
     781      541      425      823      810      253      190      673 
     791      515      450      414      197      533     1418     1699 
    1274      816       74     -761     -333     1012     1174      369 
     602     1455     1317      731      568      240     -295      -44 
    1139     2085     1975     1372      766      -87     -618      -76 
     565      500      531      880      904      789      940      939 
     446      -55       -8      504     1048     1471     1682     1362 
     619      178      442      814      526     -130     -330      112 
     884     1633     2027     1846     1105      380      255      278 
     -81     -156      342      406      253     1012     1705     1084 
     256      368      718      627      607      897      820      434 
     723     1250      862      382      652      688      432      708 
     741      112      125      696      579      345      773      945 
     468      419      997     1051      564      649     1070      854 
     372      400      789     1152     1236      881      469      444 
     530      283       22      282      621      621      916     1637 
    1987     1614      742     -141     -414     -106      143      216 
     584     1193     1449     1398     1517     1383      292     -855 
    -571      712     1460     1355      885      187     -371     -156 
     587     1143     1236      854      338      353      913     1210 
    1035      976     1009      769      472      292      175      303 
     463      342      450      858      702       63       68      785 
    1181     1032     1050     1410     1356      357     -820     -820 
     419     1464     1634     1551     1225      311     -415     -125 
     664     1135     1302     1328     1201     1151     1154      654 
    -167     -288      220      511      822     1296      935       16 
     361     1698     1854      823      228       37     -425     -511 
     334     1352     1453      770      550      984     1001      527 
     256      203      349      882     1443     1517     1094      552 
     182     -101     -175      342     1048     1267     1169      932 
     411      155      629     1027      831      706      808      561 
     105      189      854     1225      923      737     1013      889 
     116     -361      -97      434     1028     1745     2112     1574 
     400     -494     -507      199     1001     1314     1007      521 
     463      716      468     -193     -210      522     1189     1539 
    1718     1534      799       -9     -147      236      423      406 
     680     1092     1017      595      530      787      765      575 
     712      815      373      -40      287      994     1377     1385 
    1221      936      665      452      183      -45       21      542 
    1337     1791     1398      467     -213     -283       -6      247 
     454      895     1607     2022     1690     1020      476       87 
      33      390      697      707      668      556      152     -421 
    -823     -653      175     1134     1752     2020     2057     2084 
    2223     2010      980     -375    -1109    -1015     -807     -832 
    -348      922     1907     1904     1617     1745     1790     1205 
     579      403      186     -116       48      338      197       20 
      99      167      322      680      981     1304     1520      988 
      68     -130      344      788     1233     1871     2363     2301 
    1537      317     -652     -676      -32      226      -14      122 
     554      468      299      901     1633     1698     1462     1177 
     622      120      194      502      619     1055     1729     1294 
    -297    -1312    -1019      -79     1096     2295     2913     2448 
    1174       16     -410     -309       21      642     1259     1089 
      97     -657     -537      152     1067     1749     1756     1455 
    1185      654      130      279      718      561     -109     -527 
    -503     -461     -307      433     1516     2301     2494     2123 
    1590     1181      616      -99     -390     -156      159      441 
     818     1128     1113      820      445      187      348      900 
    1279     1229     1136     1188     1094      623      -78     -373 
     116      634      598      687     1051      815      125      -56 
     207      407      735     1393     1826     1490      847      548 
     402      344      695     1117     1254     1279      967      271 
     -95      -13       82      319      751      842      592      629 
     822      558      202      460     1013     1314     1462     1503 
    1237      627     -302    -1258    -1277       16     1402     1827 
    1741     1719     1282      297      -39      697     1201      859 
     571      611      306     -248     -419     -340     -338      -27 
     870     1644     1763     1706     1606     1058      598      885 
    1162      746      257      190      252      337      583      691 
     390       98      241      579      777      943     1198     1350 
    1235     1065     1048      920      540      353      450      396 
     248      351      634      838      888      994     1383     1611 
    1007       44     -367     -361     -152      522     1125     1034 
     815      839      662      348      348      604      812      885 
     838      616      307      271      550      807     1003     1194 
    1192     1066     1017      978      896      626      -44     -654 
    -549      -40      271      639     1273     1644     1548     1282 
     868      396      297      577      737      688      773      876 
     677      384      198       22      109      650     1190     1360 
    1108      395     -276     -166      469      864     1030     1202 
    1101      770      747      999     1059     1017     1204     1285 
     803      213      179      446      517      506      581      553 
     287      -47     -148      137      660     1067     1271     1563 
    1892     1726      974      214     -189     -252       31      457 
     602      378      128       83      190      496     1043     1408 
    1236      857      684      673      760     1005     1277     1381 
    1344     1270     1011      446      -91     -271     -160       45 
     255      479      738      870      835      961     1278     1347 
    1027      712      685      664      276     -198     -160      319 
     634      657      784     1104     1263     1084      778      576 
     531      639      712      534      295      248      329      490 
     739     1023     1254     1161      688      406      635      862 
     719      554      585      568      415      344      514      822 
     985      882      634      359      249      535     1001     1167 
    1013      858      756      541      276      201      290      291 
     280      576     1005     1039      746      645      623      297 
      64      383      834     1035     1179     1287     1171      922 
     734      571      379      280      365      560      785     1063 
    1363     1478     1279      932      692      595      488      351 
     357      506      460      206      251      660      953      959 
     788      491      149     -114     -113      179      407      429 
     575      888     1028      986     1040     1119      930      673 
     739      905      843      849     1013      811      373      444 
     831      796      481      367      346      373      692     1053 
     961      541      337      523      877     1213     1382     1212 
     801      480      387      373      280      183      299      635 
     927      934      681      498      596      735      687      569 
     411       79     -137      255     1015     1471     1514     1308 
     826      172     -244     -114      332      689      930     1080 
     951      654      576      726      999     1451     1728     1335 
     553       91       13      -60      -59      249      608      787 
     982     1075      789      523      727     1142     1323     1215 
     973      625      144     -167      113      750     1077     1017 
    1007     1065      811      203     -386     -591     -255      382 
     909     1232     1406     1305      861      306       66      402 
    1017     1310     1165      970      897      810      673      550 
     486      540      660      592      276       93      257      518 
     774     1182     1514     1335      729      189        8      143 
     414      594      544      413      425      523      656     1021 
    1493     1603     1293      805      321       83      203      395 
     479      697     1085     1248      978      461      -28     -241 
     -35      460      993     1347     1254      665      145      309 
     854     1053      922      857      761      572      606      816 
     827      757      932     1053      672      178      249      685 
     862      847      938     1008      919      772      676      604 
     471      325      275      278      319      522      799      947 
    1032     1173     1158      737      226      228      588      610 
     332      280      375      348      365      537      700      805 
     912     1001      994      859      761      858      982      976 
    1019     1120      916      348     -121     -170      -28       45 
     209      540      757      793      853      951     1027     1078 
    1012      807      646      652      614      373      183      278 
