Origin Time       2024/06/23 22:54:00
Lat.              35.645
Long.             140.060
Depth. (km)       72
Mag.              4.1
Station Code      TKY008
Station Lat.      34.7851
Station Long.     139.3909
Station Height(m) 65
Record Time       2024/06/23 22:54:56
Sampling Freq(Hz) 100Hz
Duration Time(s)  60
Dir.              U-D
Scale Factor      7845(gal)/8223790
Max. Acc. (gal)   2.559
Last Correction   2024/06/23 22:54:55
Memo.             
[...]
   13077    13086    13099    13090    13074    13077    13093    13085 
   13080    13100    13101    13086    13088    13092    13085    13082 
   13096    13092    13070    13077    13099    13103    13092    13084 
   13089    13093    13088    13086    13085    13082    13089    13097 
   13090    13078    13078    13088    13092    13090    13089    13086 
   13090    13096    13095    13095    13100    13097    13084    13074 
   13086    13103    13097    13084    13082    13085    13089    13090 
   13088    13089    13101    13105    13085    13072    13080    13084 
   13086    13097    13099    13086    13082    13093    13100    13090 
   13086    13086    13084    13092    13095    13085    13089    13092 
   13082    13086    13092    13089    13093    13092    13078    13078 
   13080    13072    13078    13085    13074    13066    13070    13080 
   13088    13101    13109    13103    13101    13104    13099    13089 
   13078    13059    13035    13019    13023    13035    13049    13057 
   13085    13151    13212    13243    13261    13236    13143    13027 
   12938    12887    12872    12907    12978    13041    13068    13062 
   13062    13093    13150    13251    13387    13470    13473    13421 
   13281    13058    12862    12793    12845    12930    12982    12976 
   12908    12816    12795    12950    13235    13491    13664    13756 
   13733    13593    13309    12883    12538    12501    12657    12749 
   12617    12334    12260    12568    12982    13194    13211    13309 
   13620    13905    13930    13755    13598    13487    13270    13036 
   12893    12718    12606    12646    12650    12644    12735    12830 
   12910    13069    13386    13721    13683    13374    13302    13373 
   13219    12923    12721    12769    13036    13282    13277    12943 
   12679    12895    13165    13053    12907    13046    13338    13448 
   13135    12694    12596    12876    13261    13460    13405    13228 
   12976    12802    12922    13084    12982    12920    13230    13535 
   13483    13367    13242    12935    12746    12908    13192    13153 
   12771    12685    13065    13269    13046    12850    13036    13333 
   13425    13571    13749    13444    12950    12876    12810    12386 
   12272    12839    13290    13022    12634    12745    13078    13258 
   13311    13396    13463    13321    13240    13590    13883    13554 
   12991    12742    12706    12633    12656    12918    13076    12941 
   13028    13343    13219    12860    12982    13338    13262    13011 
   13174    13351    13000    12683    13023    13508    13389    12907 
   12766    12969    12989    12730    12553    12765    13358    13846 
   13699    13150    12865    13012    13342    13481    13111    12703 
   12976    13398    13144    12710    12854    13304    13315    12771 
   12476    12943    13576    13706    13311    12792    12665    12960 
   13301    13377    13065    12814    13000    13155    13009    12916 
   13074    13298    13265    13026    12960    13090    13123    12920 
   12769    13101    13660    13776    13463    13092    12714    12491 
   12729    13211    13344    13070    12910    13047    13189    13213 
   13221    13180    13049    12949    12879    12746    12775    13228 
   13760    13784    13305    12825    12722    12887    12908    12702 
   12667    13019    13348    13311    13120    13005    12980    13130 
   13401    13460    13157    12845    12911    13246    13479    13402 
   13136    12978    12980    12924    12783    12852    13230    13548 
   13436    12915    12445    12557    13212    13672    13350    12753 
   12714    13082    13281    13165    12953    12951    13146    13234 
   13099    12989    13230    13595    13517    13038    12802    13053 
   13219    12919    12631    12753    12972    12954    12993    13324 
   13378    12957    12772    13012    13259    13427    13598    13598 
   13266    12900    12780    12789    12914    13142    13231    13092 
   12822    12685    12910    13225    13296    13252    13297    13308 
   13113    12892    12955    13107    13073    13120    13236    13036 
   12750    12800    13022    13120    13116    13155    13281    13424 
   13386    13111    12908    12970    13074    13065    13069    13120 
   13149    13219    13198    12930    12773    12915    13015    12978 
   13011    13124    13132    13039    13149    13463    13606    13525 
   13383    13076    12636    12457    12590    12704    12834    13086 
   13161    12942    12847    13289    13946    14069    13540    12923 
   12761    13070    13282    13092    12843    12872    13072    13093 
   12853    12611    12602    12847    13205    13447    13423    13263 
   13224    13232    13047    12854    13041    13414    13408    13020 
   12825    12977    13063    12993    12977    12969    12950    13074 
   13292    13393    13252    13035    13047    13180    13053    12818 
   12961    13340    13417    13151    12923    12861    12826    12811 
   12935    13194    13359    13300    13250    13285    13176    13005 
   13119    13398    13298    12814    12615    12846    12965    12816 
   12753    12937    13153    13285    13500    13698    13581    13286 
   13103    13018    12900    12696    12623    12868    13069    12923 
   12775    12945    13220    13344    13327    13251    13194    13246 
   13423    13525    13321    12887    12582    12699    13057    13200 
   13104    13028    13038    13105    13159    13077    12903    12798 
   12856    13097    13400    13551    13502    13288    12954    12765 
   12946    13228    13242    13049    12810    12540    12492    12873 
   13316    13500    13517    13394    13216    13186    13227    13157 
   12982    12891    12978    13027    12968    12977    12987    12923 
   12964    13159    13321    13297    13109    12853    12748    12946 
   13261    13468    13414    13054    12772    12930    13355    13605 
   13441    13097    12806    12606    12702    13081    13304    13261 
   13150    12969    12820    12981    13294    13354    13171    13030 
   13008    13078    13215    13232    12972    12712    12748    12941 
   13170    13408    13406    13062    12737    12820    13223    13535 
   13517    13217    12958    13007    13174    13163    12974    12742 
   12606    12723    13109    13455    13498    13373    13182    12947 
   12870    13066    13304    13282    13034    12874    12891    12914 
   12961    13126    13285    13232    13005    12911    13074    13309 
   13470    13416    13020    12569    12573    13108    13662    13616 
   13085    12811    13038    13246    13058    12739    12617    12663 
   12841    13189    13498    13471    13176    12933    12861    12926 
   13150    13424    13439    13186    13020    13038    13077    13182 
   13400    13459    13196    12839    12660    12779    13022    13015 
   12807    12802    13038    13232    13259    13240    13211    13068 
   12966    13135    13356    13396    13328    13171    12950    12783 
   12758    12908    13028    13051    13200    13266    13008    12873 
   13159    13506    13473    13005    12625    12862    13393    13470 
   13155    13147    13444    13294    12669    12357    12568    12970 
   13375    13558    13321    12823    12560    12850    13251    13235 
   13074    13163    13305    13289    13220    13142    13131    13328 
   13446    13181    12816    12691    12758    12838    12834    12803 
   12897    13228    13640    13689    13348    13103    13072    13097 
   13126    12984    12734    12712    12879    13053    13261    13435 
   13454    13267    12903    12615    12707    13201    13586    13374 
   13023    13097    13235    13120    12991    12912    12880    13019 
   13161    13081    12930    12934    13063    13140    13127    13086 
   13014    13012    13158    13262    13315    13394    13335    13090 
   12780    12549    12625    12970    13308    13517    13568    13464 
   13234    12907    12748    12949    13176    13116    12908    12753 
   12683    12717    12966    13369    13582    13498    13294    13038 
   12880    13043    13381    13510    13297    12985    12800    12665 
   12522    12514    12802    13350    13714    13479    12972    12819 
   13069    13348    13494    13525    13320    12908    12668    12699 
   12745    12883    13230    13356    13063    12889    13101    13321 
   13400    13489    13456    13120    12772    12739    12827    12803 
   12891    13200    13374    13207    12918    12761    12861    13212 
   13436    13208    12899    12908    13049    13161    13333    13454 
   13377    13279    13244    13119    12931    12829    12834    12852 
   12835    12854    12891    13008    13319    13475    13246    13032 
   13122    13331    13365    13134    12841    12703    12846    13227 
   13436    13177    12750    12675    13036    13338    13196    12988 
   13122    13338    13350    13261    13196    13158    13022    12783 
   12742    12901    12912    12815    12892    13163    13408    13475 
   13543    13630    13396    12908    12691    12788    12842    12861 
   12989    13049    12966    12985    13146    13178    13053    13038 
   13180    13316    13381    13308    13090    12930    12978    13190 
   13382    13331    13039    12789    12773    12879    12927    12958 
   13088    13197    13159    13113    13167    13269    13374    13305 
   13035    12997    13244    13189    12780    12677    13034    13342 
   13342    13174    12978    12868    12984    13173    13193    13215 
   13244    13012    12816    12945    13032    12992    13185    13375 
   13090    12795    13000    13157    12922    12941    13271    13201 
   12997    13230    13373    13147    13045    13062    12935    12907 
   13139    13278    13126    12933    12841    12906    13270    13555 
   13221    12841    13128    13351    12895    12606    12930    13142 
   13026    13090    13217    13014    13023    13622    13883    13315 
   12730    12613    12695    12874    13165    13309    13169    13014 
   13053    13154    13188    13124    12920    12806    13072    13416 
   13405    13178    12966    12789    12835    13189    13405    13081 
   12646    12769    13227    13382    13266    13289    13392    13204 
   12812    12729    13022    13169    13058    13105    13198    12969 
   12792    13081    13371    13209    12942    12949    13119    13246 
   13182    12923    12777    12981    13342    13599    13639    13292 
   12704    12492    12876    13324    13351    13035    12738    12746 
   13045    13431    13706    13598    13185    12911    12704    12388 
   12398    12907    13328    13324    13213    13169    13070    13024 
   13198    13493    13626    13396    13003    12879    12997    12955 
   12734    12672    12955    13375    13481    13151    12739    12668 
   12976    13301    13483    13583    13471    13212    13095    13046 
   12856    12702    12811    12966    12873    12733    12880    13171 
   13292    13319    13444    13489    13225    12897    12887    13126 
   13200    13004    12833    12880    13140    13377    13317    13134 
   13041    12915    12849    13090    13332    13096    12729    12879 
   13367    13560    13302    12997    12842    12721    12849    13216 
   13212    12845    12789    13130    13370    13312    13216    13297 
   13383    13189    12903    12958    13255    13312    13019    12718 
   12626    12691    12946    13273    13302    13047    12927    13192 
   13533    13456    13115    12996    13063    13074    13053    13108 
   13171    13022    12696    12619    12915    13188    13259    13379 
   13581    13486    12982    12640    12861    13119    13070    13213 
   13494    13250    12741    12746    13119    13174    12945    12958 
   13143    13111    13012    13035    12965    12841    13047    13547 
   13736    13363    12961    12995    13217    13225    13092    12969 
   12819    12749    12787    12889    13151    13320    13130    12915 
   12977    13104    13101    13251    13667    13732    13234    12861 
   12854    12784    12714    12955    13117    12888    12726    12958 
   13306    13400    13259    13180    13305    13479    13332    12831 
   12561    12808    13161    13277    13231    13142    12931    12783 
   13090    13450    13225    12857    12884    12970    12943    13101 
   13308    13338    13378    13343    13126    13113    13265    13131 
   12888    12900    12930    12694    12482    12660    13005    13104 
   13111    13363    13648    13629    13478    13456    13365    13016 
   12672    12606    12891    13225    13081    12708    12764    13072 
   13186    13221    13358    13390    13246    13258    13363    13115 
   12703    12654    12826    12785    12694    12881    13126    13173 
   13246    13382    13377    13381    13458    13298    12881    12592 
   12644    12846    13068    13394    13720    13810    13559    13073 
   12737    12758    12865    12819    12766    12870    13027    13055 
   12976    12949    12919    12853    13030    13247    13088    13005 
   13308    13333    12880    12735    13186    13516    13365    13127 
   13073    13258    13614    13775    13537    13122    12852    12915 
   13217    13456    13504    13424    13001    12240    12140    13173 
   13963    13220    11776    11385    12222    13077    13320    13076 
   12771    12930    13437    13640    13402    13369    13980    14624 
   14472    13702    13143    13132    13220    12490    10926    10405 
   12012    13868    14192    13790    13828    13923    13522    13032 
   12830    12841    13049    13170    12696    12017    12158    13065 
   13497    12915    12312    12582    13227    13446    13309    13344 
   13856    14439    14192    13177    12432    12193    12171    12704 
   13549    13686    13190    12825    12660    12708    13085    13440 
   13576    13664    13491    12896    12492    12658    12924    12993 
   13004    13055    13278    13572    13375    12641    12298    12982 
   14060    14330    13495    12694    12934    13440    13092    12513 
   12739    13271    13332    13197    12896    12052    11477    12193 
   13355    13568    13219    13467    13988    13737    13030    12926 
   13265    13093    12607    12826    13527    13701    13478    13490 
   13590    13351    12750    12305    12442    12849    13198    13575 
   13672    13139    12658    13011    13548    13289    12542    12178 
   12366    12714    13016    13371    13609    13288    12582    12303 
   12653    13038    13244    13517    13836    14065    14183    14081 
   13645    12924    12194    12023    12594    13144    13019    12641 
   12667    12984    13225    13493    13784    13562    12739    12222 
   12545    12919    12733    12634    13035    13335    13375    13574 
   13721    13489    13294    13560    13864    13598    13046    12750 
   12588    12379    12237    12391    13032    13703    13648    13042 
   12673    12858    13338    13625    13377    12799    12567    13099 
   13833    13818    13019    12236    12098    12503    12981    13371 
   13501    13169    12802    12980    13506    13699    13468    13343 
   13474    13575    13416    12922    12339    12168    12591    13294 
   13878    13891    13161    12349    12143    12320    12460    12768 
   13420    13830    13462    12835    12780    13116    13196    13186 
   13527    13900    13707    13007    12598    12899    13350    13406 
   13095    12699    12619    12931    13197    13076    12835    12997 
   13451    13622    13354    12938    12765    12846    12777    12645 
   12819    13055    13101    13190    13352    13481    13666    13775 
   13601    13228    12820    12587    12691    12987    13182    13180 
   13136    13126    13019    12814    12731    13009    13427    13306 
   12568    12090    12420    12999    13163    13203    13625    14087 
   13988    13369    12749    12507    12650    12980    13203    13208 
   13211    13257    13182    13028    13015    13266    13527    13462 
   13196    12892    12530    12343    12538    12912    13207    13451 
   13763    13856    13317    12509    12232    12630    13151    13198 
   12916    13008    13436    13575    13394    13244    13177    13016 
   12841    13020    13359    13281    12950    12725    12465    12229 
   12370    12829    13239    13463    13543    13537    13562    13752 
   14050    14129    13732    12995    12429    12440    12684    12677 
   12594    12718    12961    13068    12955    12918    13082    13244 
   13397    13581    13575    13285    12907    12649    12672    12965 
   13239    13360    13379    13258    13030    12799    12625    12526 
   12483    12587    12854    13024    13055    13235    13548    13624 
   13432    13392    13560    13521    13224    13081    13180    13176 
   12982    12842    12893    13042    13059    12910    12907    13247 
   13647    13657    13192    12673    12541    12617    12553    12599 
   13012    13462    13689    13745    13478    12858    12428    12572 
   12992    13252    13236    13009    12768    12730    12918    13205 
   13513    13743    13693    13371    13063    12910    12850    12954 
   13180    13162    12896    12868    13158    13356    13319    13252 
   13197    13042    12946    13103    13271    13035    12502    12310 
   12738    13313    13497    13436    13458    13373    13036    12765 
   12793    12958    12958    12675    12359    12511    13304    14150 
   14281    13668    12935    12615    12717    12841    12753    12627 
   12725    13161    13713    13941    13771    13443    13109    12876 
   12754    12694    12652    12507    12363    12567    13024    13313 
   13350    13350    13456    13545    13390    13031    12829    13082 
   13567    13763    13582    13284    13077    13108    13243    13049 
   12428    11880    11974    12722    13560    13905    13585    12937 
   12573    12796    13294    13603    13610    13423    13140    12860 
   12652    12599    12866    13497    14041    13903    13201    12553 
   12247    12225    12494    13035    13533    13694    13590    13433 
   13336    13325    13319    13161    12765    12287    12008    12175 
   12866    13687    14072    13994    13753    13424    12999    12704 
   12733    12945    13042    12804    12286    11911    12077    12781 
   13614    14104    14170    14037    13806    13497    13250    13131 
   13007    12775    12478    12318    12459    12723    12872    12920 
   13039    13242    13315    13267    13369    13608    13784    13869 
   13713    13030    12133    11832    12252    12695    12784    12945 
   13524    14057    14035    13666    13362    13135    12783    12471 
   12529    12803    12992    13080    13122    13186    13277    13219 
   12984    12788    12845    13158    13470    13531    13301    12939 
   12810    13069    13325    13207    12825    12515    12553    13009 
   13601    13846    13602    13176    12887    12845    12972    13070 
   13024    12923    12847    12766    12787    12992    13262    13528 
   13743    13736    13468    13194    13092    13066    13065    13032 
   12756    12364    12328    12715    13104    13284    13466    13640 
   13587    13420    13284    13058    12718    12502    12600    12937 
