Origin Time       2024/06/23 22:54:00
Lat.              35.645
Long.             140.060
Depth. (km)       72
Mag.              4.1
Station Code      TKY016
Station Lat.      35.6486
Station Long.     139.7990
Station Height(m) 2
Record Time       2024/06/23 22:54:45
Sampling Freq(Hz) 100Hz
Duration Time(s)  60
Dir.              U-D
Scale Factor      7845(gal)/8223790
Max. Acc. (gal)   1.764
Last Correction   1970/01/31 00:00:00
Memo.             
[...]
    3954     3948     3946     3942     3942     3944     3943     3944 
    3948     3947     3943     3943     3946     3943     3939     3943 
    3948     3952     3951     3948     3947     3948     3944     3943 
    3948     3948     3946     3943     3942     3943     3946     3950 
    3951     3947     3944     3946     3943     3936     3933     3936 
    3936     3937     3946     3951     3951     3952     3951     3947 
    3943     3943     3942     3944     3951     3952     3950     3951 
    3944     3932     3927     3924     3925     3935     3946     3951 
    3951     3943     3932     3924     3925     3931     3937     3943 
    3948     3952     3955     3954     3947     3943     3943     3946 
    3955     3966     3967     3959     3951     3943     3933     3932 
    3939     3946     3946     3940     3933     3931     3929     3925 
    3923     3929     3939     3939     3940     3947     3950     3952 
    3952     3944     3932     3924     3923     3929     3943     3956 
    3964     3969     3964     3951     3939     3936     3933     3933 
    3944     3952     3956     3958     3951     3942     3935     3927 
    3917     3915     3920     3927     3936     3946     3952     3955 
    3955     3948     3940     3933     3929     3936     3948     3954 
    3959     3960     3954     3944     3933     3927     3923     3924 
    3932     3940     3942     3943     3946     3942     3936     3935 
    3935     3937     3944     3952     3960     3962     3958     3955 
    3947     3939     3939     3935     3932     3940     3943     3942 
    3950     3951     3942     3933     3928     3925     3932     3942 
    3948     3955     3958     3951     3944     3942     3939     3936 
    3937     3935     3933     3939     3944     3947     3948     3948 
    3946     3943     3943     3942     3937     3943     3950     3946 
    3942     3944     3944     3942     3937     3936     3937     3939 
    3944     3946     3946     3951     3954     3951     3947     3942 
    3939     3940     3940     3939     3940     3943     3943     3943 
    3940     3936     3933     3935     3940     3947     3954     3955 
    3950     3939     3931     3928     3928     3929     3937     3950 
    3955     3954     3948     3944     3942     3942     3942     3937 
    3939     3948     3952     3954     3958     3956     3951     3946 
    3939     3936     3937     3937     3937     3933     3928     3928 
    3931     3933     3937     3940     3940     3939     3942     3942 
    3931     3925     3932     3937     3943     3950     3951     3944 
    3937     3933     3933     3935     3942     3947     3947     3947 
    3947     3944     3944     3946     3947     3946     3943     3943 
    3947     3955     3964     3963     3958     3952     3944     3937 
    3936     3937     3936     3939     3939     3936     3933     3932 
    3929     3928     3927     3925     3929     3940     3948     3954 
    3952     3947     3942     3937     3937     3942     3950     3955 
    3952     3952     3954     3951     3946     3946     3944     3942 
    3939     3937     3939     3943     3947     3948     3946     3939 
    3933     3928     3921     3923     3925     3925     3935     3944 
    3943     3940     3946     3950     3955     3960     3959     3956 
    3955     3947     3935     3931     3932     3932     3936     3943 
    3950     3951     3946     3939     3935     3932     3936     3946 
    3956     3958     3952     3942     3935     3932     3932     3936 
    3943     3944     3944     3942     3937     3936     3937     3940 
    3947     3950     3954     3955     3951     3946     3944     3940 
    3935     3932     3928     3925     3928     3935     3947     3950 
    3944     3944     3948     3948     3944     3946     3950     3952 
    3951     3951     3954     3950     3943     3936     3929     3929 
    3931     3936     3943     3950     3952     3951     3952     3947 
    3933     3932     3943     3947     3947     3950     3942     3931 
    3932     3935     3936     3940     3942     3940     3936     3935 
    3940     3947     3952     3959     3964     3973     3970     3959 
    3950     3940     3931     3929     3935     3937     3937     3936 
    3936     3939     3937     3935     3939     3944     3948     3947 
    3947     3951     3958     3956     3952     3951     3944     3937 
    3935     3933     3928     3925     3932     3942     3947     3951 
    3950     3943     3947     3950     3929     3919     3927     3925 
    3932     3947     3951     3958     3959     3951     3947     3936 
    3928     3933     3942     3951     3960     3963     3958     3950 
    3940     3933     3933     3939     3940     3937     3937     3939 
    3940     3939     3942     3948     3955     3960     3963     3963 
    3959     3955     3952     3954     3943     3909     3874     3869 
    3896     3925     3935     3933     3915     3877     3871     3919 
    3979     4017     4000     3937     3905     3915     3920     3906 
    3867     3735     3538     3535     3834     4135     4212     4186 
    4099     3921     3936     4276     4476     4286     3955     3586 
    3316     3555     4218     4688     4710     4396     3778     3167 
    3281     4148     4769     4603     4102     3546     2999     3030 
    3877     4638     4575     3982     3330     3003     3341     3998 
    4302     4374     4479     4072     3369     3559     4283     4345 
    4048     4068     4164     4059     3971     4020     3955     3704 
    3599     3804     4020     3981     3840     3809     3882     4036 
    4159     4043     3758     3615     3759     4041     4286     4434 
    4279     3848     3635     3605     3461     3636     4239     4461 
    4114     3910     3943     3747     3665     4070     4357     4240 
    4086     3898     3672     3634     3693     3804     4081     4233 
    4037     3825     3798     3811     3848     3956     3996     3910 
    3879     3936     3983     4106     4229     4112     3890     3758 
    3655     3613     3782     4099     4216     4013     3866     3931 
    3937     3882     3973     4109     4070     3886     3804     3921 
    4028     4043     4171     4293     4013     3520     3370     3626 
    4041     4421     4473     4113     3751     3713     3827     4001 
    4305     4402     4052     3653     3519     3554     3726     4058 
    4249     4036     3781     3796     3792     3754     3915     3970 
    3781     3823     4176     4325     4152     4047     4050     3924 
    3794     3805     3838     3831     3742     3676     3904     4249 
    4240     3987     3889     3874     3863     4054     4260     4151 
    3898     3775     3831     4004     4121     4077     3955     3794 
    3638     3650     3862     4079     4156     4131     4093     4006 
    3829     3794     4027     4149     3920     3670     3588     3514 
    3569     3967     4347     4245     3910     3821     3912     3966 
    4059     4187     4141     3958     3912     4004     4002     3946 
    3987     4058     4075     4027     3919     3855     3834     3755 
    3735     3878     3986     3924     3870     3932     3977     3951 
    3989     4085     4018     3804     3775     3993     4140     4098 
    4041     3989     3844     3765     3915     4102     4126     4078 
    4009     3927     3958     4056     4023     3901     3804     3655 
    3493     3541     3796     4028     4070     3983     3990     4078 
    4085     4116     4206     4159     3983     3897     4020     4180 
    4071     3769     3566     3422     3380     3732     4212     4251 
    3979     3804     3708     3626     3631     3708     3751     3726 
    3821     4183     4503     4476     4203     3900     3743     3815 
    3947     4005     4093     4190     4160     4122     4079     3894 
    3852     4082     4207     4137     4020     3836     3686     3738 
    3993     4233     4178     3959     3928     3932     3713     3572 
    3769     4033     4160     4237     4172     3929     3842     3971 
    3978     3879     3933     3937     3657     3523     3747     3811 
    3674     3848     4164     4209     4116     3933     3688     3720 
    3906     3889     3861     4016     4186     4202     4131     4105 
    3878     3384     3194     3511     3997     4380     4487     4425 
    4326     4006     3724     3905     4082     3813     3581     3693 
    3809     3850     4029     4133     3885     3588     3623     3956 
    4257     4185     3821     3595     3622     3701     3834     4183 
    4509     4394     4014     3843     3861     3797     3797     4039 
    4139     3820     3559     3743     4089     4345     4546     4603 
    4359     4004     3987     4218     4106     3775     3782     3917 
    3780     3620     3766     4014     3944     3645     3645     3870 
    3827     3785     4175     4483     4156     3704     3720     3947 
    4089     4212     4198     3977     3730     3541     3492     3676 
    3948     4162     4248     4081     3723     3476     3411     3416 
    3628     4021     4182     4207     4522     4793     4585     4243 
    4031     3684     3275     3341     3886     4170     3991     3987 
    4221     4199     4059     4029     3852     3518     3321     3399 
    3757     4209     4455     4403     4224     4029     3778     3607 
    3796     4131     4148     3987     3921     3753     3501     3534 
    3781     3881     3778     3666     3774     4036     4133     4078 
    4031     3944     3962     4297     4672     4649     4301     4033 
    3958     3933     3928     3985     4036     3933     3748     3775 
    3874     3650     3410     3569     3770     3798     3987     4210 
    4124     4025     4205     4324     4126     3858     3653     3445 
    3399     3623     3855     3893     3819     3780     3886     4155 
    4383     4383     4267     4194     4120     3951     3807     3834 
    3870     3777     3724     3804     3993     4249     4383     4310 
    4110     3828     3612     3654     3834     3870     3790     3778 
    3805     3840     3979     4132     4077     3890     3881     3987 
    3928     3865     3954     3935     3870     4054     4251     4205 
    4124     4124     4020     3781     3634     3697     3850     4039 
    4272     4326     4056     3736     3535     3395     3547     3993 
    4202     4099     4077     4195     4248     4210     4226     4201 
    3967     3739     3712     3801     3850     3788     3782     3883 
    3829     3653     3744     4098     4240     4039     3713     3387 
    3316     3705     4251     4614     4707     4401     3809     3445 
    3466     3562     3653     3901     4191     4336     4446     4503 
    4287     4013     3982     3960     3757     3651     3793     3877 
    3820     3935     4159     4129     3910     3785     3744     3677 
    3726     3998     4140     3908     3690     3759     3920     4152 
    4496     4579     4267     3952     3813     3767     3834     3893 
    3748     3569     3580     3631     3780     4149     4305     4036 
    3705     3518     3527     3755     4029     4186     4176     4143 
    4280     4336     4036     3730     3684     3719     3846     4206 
    4548     4537     4333     4190     4083     4016     3927     3700 
    3495     3470     3576     3754     3993     4203     4226     4043 
    3786     3619     3693     3967     4189     4180     3973     3761 
    3716     3747     3715     3759     3962     4060     3990     3996 
    4085     4079     3936     3802     3904     4099     4041     3885 
    3962     4045     3808     3541     3626     3825     3778     3670 
    3889     4310     4428     4163     3898     3730     3520     3497 
    3829     4125     4191     4310     4398     4199     4024     4048 
    3888     3635     3755     3912     3680     3550     3858     4144 
    4136     4083     4117     4052     3854     3834     4010     4001 
    3848     3867     3940     3981     4137     4234     4099     3933 
    3842     3800     3867     3967     3978     3997     4110     4136 
    3982     3832     3775     3786     3912     4037     4029     4040 
    4087     3978     3851     3892     3878     3738     3794     4048 
    4126     3998     3863     3704     3599     3672     3788     3917 
    4112     4148     4000     3985     4093     4054     3933     3882 
    3862     3879     3944     3981     4032     4172     4263     4149 
    3936     3797     3762     3793     3819     3800     3774     3788 
    3821     3870     4050     4332     4394     4212     4045     3827 
    3539     3516     3746     3854     3840     3921     3951     3808 
    3886     4337     4592     4380     4139     4066     3886     3557 
    3361     3370     3430     3470     3484     3612     4025     4487 
    4766     4993     5127     4834     4147     3623     3527     3478 
    3280     3184     3221     3277     3466     3920     4621     5332 
    5672     5549     5084     4301     3357     2593     2269     2353 
    2560     2822     3334     4008     4635     5225     5656     5703 
    5382     4779     3969     3148     2532     2232     2239     2492 
    3006     3753     4463     4847     4922     4849     4587     4082 
    3555     3268     3235     3357     3658     4176     4603     4595 
    4363     4221     4031     3767     3657     3624     3531     3476 
    3414     3384     3751     4482     5109     5520     5791     5749 
    5243     4415     3584     2978     2629     2579     2905     3348 
    3591     3784     4010     4001     3797     3672     3619     3603 
    3765     4137     4496     4542     4290     4059     4024     4143 
    4330     4380     4118     3665     3272     3134     3307     3720 
    4176     4361     4252     4162     4120     4016     4095     4429 
    4642     4567     4337     4098     3886     3612     3315     3163 
    3214     3477     3919     4415     4820     4962     4811     4554 
    4301     4079     3889     3616     3289     3057     2899     2899 
    3213     3576     3682     3703     3875     4071     4139     4214 
    4310     4129     3699     3388     3237     3053     2876     2941 
    3376     3963     4440     4853     5206     5205     4827     4507 
    4433     4380     4199     3883     3456     3055     2833     2860 
    3114     3515     4023     4523     4823     4922     4901     4703 
    4330     3950     3670     3438     3230     3168     3331     3636 
    3983     4369     4820     5238     5444     5470     5474     5395 
    5044     4473     3931     3543     3306     3161     2971     2735 
    2679     2903     3250     3608     3920     4067     4064     4059 
    4081     3987     3650     3198     2907     2782     2748     2930 
    3257     3558     3946     4463     4874     5080     5186     5208 
    5049     4725     4369     4074     3858     3707     3646     3727 
    3824     3821     3883     4091     4245     4240     4062     3692 
    3277     3019     2992     3119     3252     3335     3381     3454 
    3748     4302     4842     5150     5212     5047     4750     4457 
    4158     3805     3456     3148     3011     3237     3758     4307 
    4661     4756     4650     4333     3856     3519     3447     3483 
    3551     3694     3824     3820     3746     3750     3834     3873 
    3832     3873     4044     4162     4209     4317     4401     4355 
    4286     4268     4201     4052     3993     4000     3827     3545 
    3491     3715     3997     4217     4341     4239     3867     3474 
    3287     3222     3183     3237     3435     3739     4047     4264 
    4387     4434     4455     4486     4440     4329     4264     4180 
    4028     3940     3879     3707     3553     3592     3694     3666 
    3597     3638     3649     3539     3550     3732     3885     4051 
    4332     4503     4395     4129     3842     3677     3765     3946 
    3943     3850     3939     4155     4293     4384     4492     4476 
    4275     4066     3966     3921     3904     3874     3808     3793 
    3823     3786     3790     3915     3937     3807     3744     3786 
    3846     3974     4136     4158     4039     3970     4002     4058 
    4083     4041     3974     3940     3943     4021     4104     4016 
    3832     3744     3647     3458     3393     3492     3551     3591 
    3739     3919     4044     4164     4275     4293     4193     4058 
    3916     3740     3611     3603     3596     3554     3643     3906 
    4203     4405     4467     4413     4315     4194     4033     3886 
    3765     3623     3532     3593     3767     3975     4132     4183 
    4140     3982     3777     3727     3874     4104     4318     4422 
    4356     4232     4207     4179     4025     3909     3840     3636 
    3456     3535     3769     4024     4297     4452     4372     4164 
    3975     3850     3774     3701     3626     3631     3753     3917 
    4039     4093     4116     4114     4051     3985     3962     3921 
    3869     3877     3923     3943     3886     3743     3576     3441 
    3397     3496     3643     3715     3757     3863     4012     4094 
    4109     4190     4301     4260     4099     3970     3889     3824 
    3798     3802     3808     3838     3897     3989     4122     4199 
    4178     4198     4249     4129     3924     3889     3909     3789 
    3727     3879     4040     4093     4159     4255     4313     4301 
    4206     4104     4025     3913     3862     3963     4116     4228 
    4282     4267     4198     4082     3954     3883     3838     3742 
    3659     3677     3744     3794     3851     3896     3883     3855 
    3879     3974     4055     3964     3761     3688     3774     3886 
    4001     4081     3998     3794     3589     3402     3252     3187 
    3181     3214     3348     3626     3902     4010     4070     4185 
    4179     4060     4085     4244     4332     4333     4337     4302 
    4136     3901     3785     3807     3811     3775     3785     3893 
    4074     4209     4241     4241     4270     4320     4371     4405 
    4390     4317     4232     4198     4216     4180     4032     3874 
    3802     3801     3852     3921     4001     4114     4198     4201 
    4158     4054     3867     3658     3447     3230     3078     3038 
    3096     3285     3566     3753     3767     3728     3763     3894 
    4054     4216     4364     4374     4253     4230     4330     4380 
    4324     4178     3924     3642     3512     3611     3823     3998 
    4113     4222     4317     4357     4353     4287     4174     4079 
    3955     3788     3690     3632     3500     3360     3354     3489 
    3651     3730     3757     3846     3963     4001     4060     4267 
    4523     4712     4820     4834     4738     4529     4264     4059 
    3929     3804     3670     3524     3350     3223     3204     3226 
    3307     3504     3684     3750     3774     3780     3770     3812 
    3920     3994     3991     4024     4156     4271     4286     4252 
    4214     4152     4108     4153     4209     4174     4098     4013 
    3902     3831     3852     3952     4089     4172     4120     3960 
    3762     3585     3495     3504     3559     3612     3674     3753 
