Origin Time       2024/06/23 22:54:00
Lat.              35.645
Long.             140.060
Depth. (km)       72
Mag.              4.1
Station Code      TKY021
Station Lat.      35.6875
Station Long.     139.8190
Station Height(m) 1
Record Time       2024/06/23 22:54:45
Sampling Freq(Hz) 100Hz
Duration Time(s)  60
Dir.              N-S
Scale Factor      7845(gal)/8223790
Max. Acc. (gal)   6.353
Last Correction   1970/01/31 00:00:00
Memo.             
[...]
   -2351    -2343    -2358    -2366    -2361    -2346    -2347    -2362 
   -2355    -2338    -2335    -2340    -2347    -2347    -2351    -2366 
   -2354    -2339    -2357    -2361    -2350    -2351    -2353    -2369 
   -2382    -2349    -2340    -2365    -2343    -2338    -2370    -2359 
   -2353    -2377    -2353    -2336    -2376    -2376    -2349    -2369 
   -2378    -2351    -2349    -2353    -2343    -2355    -2361    -2342 
   -2353    -2365    -2340    -2349    -2377    -2369    -2357    -2355 
   -2353    -2359    -2361    -2357    -2357    -2357    -2361    -2370 
   -2374    -2366    -2349    -2344    -2350    -2346    -2344    -2349 
   -2353    -2361    -2355    -2346    -2355    -2362    -2351    -2344 
   -2349    -2355    -2353    -2349    -2354    -2363    -2362    -2354 
   -2351    -2357    -2363    -2367    -2363    -2355    -2357    -2357 
   -2359    -2370    -2362    -2350    -2363    -2371    -2369    -2361 
   -2340    -2344    -2369    -2366    -2351    -2355    -2351    -2343 
   -2350    -2351    -2349    -2359    -2367    -2366    -2365    -2354 
   -2346    -2350    -2358    -2362    -2361    -2361    -2369    -2363 
   -2351    -2351    -2358    -2359    -2355    -2361    -2377    -2373 
   -2354    -2353    -2355    -2359    -2366    -2359    -2357    -2367 
   -2354    -2340    -2358    -2355    -2343    -2353    -2357    -2357 
   -2354    -2339    -2346    -2359    -2357    -2366    -2376    -2370 
   -2373    -2365    -2354    -2363    -2355    -2338    -2346    -2354 
   -2359    -2361    -2357    -2363    -2355    -2330    -2338    -2349 
   -2344    -2350    -2347    -2349    -2357    -2342    -2332    -2346 
   -2354    -2355    -2355    -2361    -2363    -2354    -2347    -2350 
   -2365    -2376    -2359    -2349    -2365    -2357    -2338    -2344 
   -2343    -2339    -2353    -2353    -2349    -2349    -2338    -2336 
   -2353    -2350    -2338    -2339    -2344    -2344    -2338    -2339 
   -2357    -2367    -2358    -2353    -2361    -2371    -2367    -2357 
   -2355    -2354    -2353    -2357    -2357    -2366    -2367    -2343 
   -2351    -2371    -2357    -2353    -2357    -2344    -2355    -2358 
   -2342    -2362    -2369    -2339    -2349    -2367    -2353    -2349 
   -2351    -2351    -2357    -2349    -2349    -2362    -2355    -2349 
   -2344    -2343    -2359    -2351    -2335    -2354    -2362    -2350 
   -2357    -2355    -2349    -2353    -2347    -2359    -2374    -2359 
   -2350    -2354    -2354    -2359    -2353    -2351    -2373    -2370 
   -2361    -2362    -2347    -2344    -2349    -2338    -2346    -2357 
   -2342    -2343    -2351    -2351    -2346    -2334    -2342    -2357 
   -2342    -2336    -2346    -2351    -2362    -2362    -2362    -2370 
   -2361    -2344    -2351    -2362    -2365    -2355    -2354    -2367 
   -2365    -2366    -2378    -2363    -2343    -2344    -2358    -2371 
   -2370    -2362    -2362    -2361    -2355    -2353    -2346    -2350 
   -2357    -2342    -2346    -2359    -2350    -2349    -2351    -2350 
   -2369    -2371    -2357    -2370    -2371    -2358    -2365    -2363 
   -2358    -2353    -2326    -2332    -2362    -2355    -2357    -2371 
   -2362    -2358    -2350    -2336    -2346    -2344    -2349    -2374 
   -2381    -2370    -2366    -2359    -2359    -2351    -2336    -2339 
   -2342    -2339    -2343    -2344    -2357    -2373    -2361    -2354 
   -2374    -2376    -2366    -2365    -2358    -2357    -2358    -2354 
   -2365    -2376    -2359    -2349    -2351    -2351    -2344    -2331 
   -2326    -2339    -2346    -2343    -2349    -2357    -2366    -2374 
   -2366    -2361    -2365    -2349    -2339    -2358    -2358    -2346 
   -2355    -2369    -2374    -2369    -2357    -2362    -2367    -2354 
   -2346    -2347    -2351    -2355    -2350    -2343    -2347    -2351 
   -2339    -2336    -2350    -2350    -2342    -2357    -2377    -2366 
   -2359    -2374    -2371    -2359    -2363    -2355    -2347    -2358 
   -2357    -2349    -2361    -2366    -2357    -2350    -2359    -2369 
   -2363    -2366    -2376    -2362    -2346    -2349    -2351    -2351 
   -2347    -2344    -2349    -2354    -2353    -2340    -2331    -2344 
   -2347    -2334    -2339    -2350    -2350    -2355    -2358    -2371 
   -2381    -2363    -2365    -2374    -2353    -2346    -2340    -2334 
   -2351    -2346    -2339    -2370    -2369    -2347    -2359    -2366 
   -2365    -2361    -2346    -2347    -2357    -2349    -2347    -2358 
   -2366    -2367    -2363    -2366    -2367    -2358    -2354    -2353 
   -2358    -2371    -2370    -2358    -2353    -2350    -2354    -2354 
   -2349    -2351    -2344    -2338    -2354    -2365    -2353    -2347 
   -2358    -2361    -2351    -2347    -2346    -2350    -2358    -2350 
   -2342    -2350    -2347    -2344    -2357    -2358    -2351    -2343 
   -2344    -2362    -2363    -2354    -2363    -2374    -2370    -2365 
   -2361    -2362    -2367    -2362    -2355    -2351    -2336    -2324 
   -2335    -2343    -2344    -2351    -2362    -2366    -2354    -2343 
   -2351    -2347    -2322    -2334    -2374    -2384    -2366    -2328 
   -2312    -2369    -2407    -2367    -2380    -2432    -2334    -2192 
   -2288    -2481    -2461    -2354    -2378    -2371    -2241    -2224 
   -2392    -2521    -2490    -2338    -2211    -2263    -2428    -2475 
   -2393    -2335    -2250    -2111    -2205    -2494    -2525    -2380 
   -2382    -2292    -2101    -2289    -2620    -2493    -2216    -2316 
   -2454    -2292    -2239    -2461    -2523    -2351    -2309    -2404 
   -2415    -2340    -2218    -2166    -2359    -2529    -2393    -2232 
   -2263    -2358    -2452    -2482    -2407    -2290    -2161    -2153 
   -2405    -2589    -2398    -2224    -2384    -2492    -2328    -2242 
   -2334    -2436    -2544    -2511    -2223    -2074    -2297    -2571 
   -2632    -2424    -2029    -1823    -2088    -2575    -2826    -2587 
   -2085    -1934    -2315    -2675    -2582    -2266    -2193    -2417 
   -2558    -2443    -2342    -2351    -2288    -2223    -2313    -2388 
   -2324    -2307    -2401    -2463    -2407    -2322    -2407    -2592 
   -2539    -2305    -2182    -2101    -2076    -2284    -2479    -2446 
   -2420    -2477    -2450    -2331    -2150    -1983    -2097    -2488 
   -2741    -2736    -2648    -2413    -2027    -1867    -2164    -2635 
   -2839    -2619    -2212    -2004    -2070    -2231    -2403    -2440 
   -2242    -2146    -2434    -2762    -2716    -2428    -2234    -2164 
   -2124    -2184    -2369    -2496    -2450    -2443    -2556    -2459 
   -2173    -2214    -2527    -2535    -2207    -2008    -2146    -2386 
   -2477    -2475    -2458    -2438    -2520    -2596    -2401    -2026 
   -1815    -1953    -2301    -2609    -2785    -2741    -2470    -2278 
   -2322    -2338    -2205    -2120    -2224    -2385    -2386    -2334 
   -2455    -2600    -2506    -2246    -2095    -2284    -2589    -2474 
   -2085    -2118    -2544    -2678    -2386    -2174    -2262    -2380 
   -2320    -2262    -2407    -2531    -2349    -2085    -2188    -2535 
   -2560    -2226    -2141    -2404    -2428    -2178    -2216    -2500 
   -2593    -2494    -2361    -2266    -2331    -2481    -2502    -2355 
   -2227    -2340    -2547    -2521    -2405    -2450    -2494    -2400 
   -2245    -2010    -1800    -1912    -2312    -2650    -2737    -2633 
   -2408    -2130    -2041    -2295    -2555    -2485    -2290    -2277 
   -2331    -2284    -2236    -2299    -2440    -2614    -2643    -2346 
   -2010    -2053    -2273    -2272    -2265    -2547    -2828    -2798 
   -2570    -2363    -2270    -2281    -2241    -2128    -2200    -2374 
   -2354    -2369    -2604    -2612    -2261    -2087    -2307    -2527 
   -2447    -2242    -2180    -2173    -2092    -2172    -2497    -2739 
   -2747    -2644    -2492    -2317    -2177    -2118    -2214    -2366 
   -2296    -2066    -2131    -2462    -2554    -2466    -2593    -2651 
   -2327    -2050    -2131    -2277    -2259    -2164    -2115    -2228 
   -2479    -2604    -2459    -2346    -2502    -2573    -2286    -2045 
   -2166    -2409    -2570    -2636    -2478    -2149    -2018    -2200 
   -2525    -2882    -3006    -2663    -2161    -1948    -1987    -2038 
   -2112    -2289    -2454    -2458    -2394    -2434    -2520    -2496 
   -2370    -2259    -2258    -2326    -2327    -2286    -2316    -2335 
   -2331    -2462    -2563    -2388    -2223    -2315    -2351    -2207 
   -2224    -2431    -2490    -2408    -2358    -2296    -2239    -2236 
   -2173    -2138    -2340    -2562    -2486    -2344    -2473    -2613 
   -2432    -2207    -2258    -2377    -2393    -2465    -2528    -2347 
   -2087    -2054    -2297    -2685    -2905    -2662    -2223    -2103 
   -2236    -2280    -2258    -2276    -2253    -2293    -2587    -2851 
   -2679    -2317    -2170    -2131    -2092    -2255    -2431    -2168 
   -1844    -2099    -2486    -2421    -2312    -2469    -2527    -2362 
   -2222    -2207    -2319    -2535    -2668    -2593    -2450    -2380 
   -2327    -2285    -2350    -2420    -2343    -2317    -2484    -2458 
   -1995    -1583    -1719    -2188    -2656    -3046    -2982    -2346 
   -1944    -2197    -2403    -2201    -2147    -2471    -2739    -2670 
   -2498    -2547    -2701    -2521    -2026    -1804    -2134    -2565 
   -2641    -2451    -2212    -1984    -1934    -2177    -2474    -2604 
   -2610    -2461    -2195    -2199    -2539    -2662    -2381    -2189 
   -2295    -2439    -2505    -2512    -2430    -2312    -2301    -2377 
   -2389    -2363    -2384    -2320    -2123    -1983    -2077    -2266 
   -2227    -2135    -2452    -2936    -2959    -2454    -1919    -1837 
   -2127    -2307    -2370    -2656    -2951    -2833    -2502    -2404 
   -2467    -2227    -1648    -1314    -1570    -2077    -2362    -2405 
   -2613    -3038    -3165    -2864    -2596    -2508    -2254    -1779 
   -1525    -1664    -1904    -2161    -2451    -2554    -2543    -2732 
   -2974    -2988    -2825    -2582    -2393    -2421    -2538    -2446 
   -2128    -1911    -2047    -2293    -2249    -2079    -2154    -2353 
   -2400    -2371    -2459    -2668    -2841    -2798    -2494    -2087 
   -1809    -1802    -2069    -2394    -2461    -2317    -2427    -2860 
   -3009    -2577    -2049    -1957    -2328    -2793    -2894    -2457 
   -1910    -1910    -2373    -2565    -2258    -1910    -1885    -2072 
   -2064    -1829    -1911    -2515    -3138    -3354    -3138    -2691 
   -2322    -2164    -2076    -1931    -1772    -1792    -2133    -2550 
   -2673    -2560    -2551    -2670    -2624    -2340    -2070    -2019 
   -2170    -2315    -2284    -2231    -2405    -2675    -2654    -2351 
   -2185    -2243    -2277    -2226    -2195    -2245    -2297    -2209 
   -2139    -2323    -2562    -2621    -2616    -2654    -2722    -2716 
   -2527    -2416    -2524    -2421    -2041    -1896    -2019    -2034 
   -2022    -2162    -2311    -2393    -2454    -2505    -2605    -2712 
   -2731    -2776    -2901    -2856    -2523    -2091    -1856    -2002 
   -2307    -2370    -2247    -2174    -2145    -2181    -2292    -2312 
   -2311    -2558    -2839    -2710    -2394    -2409    -2590    -2452 
   -2115    -2034    -2142    -2070    -1948    -2103    -2351    -2324 
   -2153    -2257    -2589    -2712    -2569    -2444    -2365    -2199 
   -2061    -2149    -2347    -2378    -2242    -2120    -2085    -2203 
   -2475    -2671    -2646    -2610    -2689    -2691    -2559    -2408 
   -2274    -2236    -2273    -2172    -2010    -2022    -2130    -2273 
   -2440    -2434    -2308    -2331    -2419    -2381    -2311    -2336 
   -2448    -2621    -2848    -3021    -2934    -2547    -2133    -2010 
   -2188    -2373    -2317    -2162    -2228    -2404    -2317    -2033 
   -1848    -1875    -2162    -2551    -2706    -2673    -2681    -2671 
   -2640    -2658    -2525    -2219    -1984    -1760    -1476    -1553 
   -2162    -2673    -2562    -2249    -2353    -2683    -2766    -2662 
   -2538    -2282    -2016    -2056    -2377    -2687    -2803    -2658 
   -2280    -1930    -1846    -1946    -2084    -2197    -2253    -2398 
   -2691    -2830    -2755    -2762    -2793    -2573    -2235    -2146 
   -2324    -2370    -2131    -1969    -2099    -2357    -2593    -2706 
   -2648    -2493    -2307    -2235    -2369    -2413    -2239    -2205 
   -2381    -2508    -2656    -2829    -2633    -2145    -2026    -2417 
   -2744    -2578    -2026    -1561    -1563    -1864    -2123    -2309 
   -2484    -2646    -2721    -2462    -1925    -1656    -1800    -1972 
   -2141    -2463    -2767    -2911    -2986    -3028    -2955    -2725 
   -2504    -2405    -2185    -1738    -1435    -1494    -1804    -2324 
   -2891    -3130    -2982    -2670    -2358    -2195    -2147    -1957 
   -1686    -1636    -1733    -1807    -1993    -2305    -2538    -2706 
   -2967    -3203    -3227    -3096    -2971    -2959    -3049    -2984 
   -2602    -2158    -1926    -1811    -1651    -1501    -1445    -1432 
   -1463    -1645    -1984    -2308    -2513    -2686    -2802    -2729 
   -2560    -2489    -2528    -2637    -2799    -3080    -3615    -4253 
   -4592    -4438    -3771    -2655    -1471     -665     -400     -708 
   -1436    -2258    -3096    -3888    -4156    -3568    -2450    -1313 
    -390      325      880     1166      950       93    -1372    -3280 
   -5289    -6959    -7923    -7913    -6809    -4842    -2432      136 
    2478     4001     4305     3381     1494    -1016    -3743    -6049 
   -7275    -7203    -6103    -4297    -2011      382     2440     3708 
    3497     1476    -1621    -4708    -7146    -8559    -8730    -7782 
   -6068    -3990    -1926     -207      931     1350      996       47 
   -1204    -2697    -4369    -5768    -6274    -5481    -3542    -1274 
     407      999      542     -483    -1672    -2897    -3937    -4645 
   -5084    -5084    -4375    -3199    -2195    -1756    -1814    -2116 
   -2624    -3582    -4903    -5784    -5676    -4872    -3593    -1624 
     769     2558     2974     2295     1233       -2    -1381    -2477 
   -2914    -2791    -2558    -2548    -2589    -2296    -1629     -858 
    -291     -144     -446    -1154    -2289    -3757    -5111    -5759 
   -5478    -4793    -4334    -4020    -3460    -2474     -981      741 
    1852     1703      573     -625    -1328    -1896    -2943    -4307 
   -5259    -5498    -5340    -5042    -4565    -3912    -3191    -2450 
   -1629     -864     -607     -936    -1409    -2029    -3154    -4558 
   -5575    -5759    -5158    -4353    -3805    -3207    -2203    -1057 
     -60      797     1294      989      -82    -1279    -2030    -2347 
   -2579    -2802    -2790    -2462    -2022    -1736    -1701    -1738 
   -1617    -1505    -1879    -2808    -3743    -4174    -4058    -3694 
   -3449    -3381    -3237    -2907    -2671    -2701    -2704    -2385 
   -1869    -1374     -896     -388       78      337      199     -379 
   -1247    -2263    -3365    -4291    -4742    -4801    -4644    -4145 
   -3246    -2218    -1310     -658     -436     -641    -1048    -1656 
   -2573    -3537    -4145    -4259    -4014    -3607    -2945    -1861 
    -723     -206     -479    -1163    -1880    -2459    -2862    -3092 
   -3180    -3269    -3464    -3646    -3743    -3883    -3990    -3674 
   -2770    -1606     -707     -373     -549    -1003    -1563    -2174 
   -2732    -3064    -3271    -3631    -3986    -3777    -2983    -2312 
   -2131    -2019    -1676    -1335    -1178    -1151    -1259    -1621 
   -2189    -2606    -2797    -3226    -3924    -4174    -3554    -2485 
   -1628    -1046     -351      364      523      -62    -1040    -2030 
   -2928    -3649    -3943    -3847    -3699    -3545    -3327    -3250 
   -3353    -3400    -3241    -2845    -2253    -1621    -1129     -814 
    -630     -546     -531     -571     -712    -1004    -1456    -2052 
   -2727    -3414    -4041    -4468    -4569    -4432    -4276    -4203 
   -4047    -3574    -2808    -2006    -1520    -1474    -1464    -1204 
   -1093    -1499    -2161    -2632    -2675    -2385    -2134    -2191 
   -2525    -2953    -3248    -3342    -3438    -3661    -3800    -3626 
   -3265    -3048    -3076    -3171    -3118    -2826    -2374    -1929 
   -1501    -1003     -502     -130       87       99     -157     -561 
    -913    -1190    -1560    -2087    -2506    -2592    -2538    -2739 
   -3264    -3699    -3603    -3094    -2704    -2694    -2768    -2492 
   -1873    -1317    -1101    -1131    -1150    -1119    -1252    -1645 
   -2170    -2754    -3345    -3807    -4058    -4089    -3898    -3445 
   -2655    -1667     -876     -511     -449     -541     -903    -1740 
   -2963    -4190    -5098    -5540    -5440    -4826    -3952    -3190 
   -2671    -2295    -2104    -2224    -2544    -2976    -3580    -4155 
   -4338    -4102    -3673    -3229    -2857    -2538    -2134    -1533 
    -766        5      611      976     1067      835      340     -280 
    -986    -1691    -2277    -2778    -3195    -3456    -3595    -3658 
   -3597    -3333    -2832    -2215    -1655    -1240    -1035    -1043 
   -1189    -1426    -1794    -2319    -2886    -3244    -3299    -3196 
   -3068    -2844    -2390    -1811    -1413    -1348    -1572    -1988 
   -2427    -2779    -3063    -3219    -3192    -3088    -3079    -3272 
   -3601    -3867    -3989    -3997    -3885    -3684    -3443    -3109 
   -2641    -2150    -1729    -1305     -831     -448     -309     -406 
    -635    -1007    -1611    -2309    -2808    -3084    -3311    -3489 
   -3562    -3585    -3488    -3144    -2685    -2308    -2047    -1914 
   -1946    -2096    -2215    -2203    -2137    -2080    -2016    -1976 
   -1996    -2119    -2378    -2604    -2531    -2224    -2022    -2035 
   -2042    -1907    -1772    -1765    -1811    -1844    -2006    -2421 
   -2922    -3296    -3512    -3499    -3148    -2574    -1998    -1557 
   -1290    -1081     -924    -1067    -1583    -2223    -2737    -3045 
   -3225    -3412    -3550    -3412    -2957    -2431    -2027    -1682 
   -1364    -1166    -1119    -1231    -1497    -1846    -2242    -2732 
   -3354    -4028    -4603    -4930    -4900    -4509    -3790    -2845 
   -1985    -1553    -1588    -1842    -2018    -2004    -1908    -1737 
   -1405    -1074     -924     -935    -1151    -1605    -2110    -2423 
   -2421    -2216    -2069    -2020    -1980    -2022    -2223    -2536 
   -2980    -3573    -4156    -4538    -4681    -4600    -4187    -3384 
   -2412    -1586    -1058     -808     -729     -803    -1050    -1328 
   -1498    -1640    -1892    -2265    -2675    -3082    -3429    -3528 
   -3292    -2864    -2332    -1748    -1293    -1097    -1193    -1566 
   -2069    -2550    -2909    -3065    -3032    -2810    -2385    -1844 
   -1318     -953     -851     -900     -986    -1243    -1768    -2473 
   -3240    -3966    -4567    -4924    -4926    -4645    -4214    -3564 
   -2663    -1734    -1021     -623     -518     -629     -949    -1564 
   -2444    -3366    -4108    -4510    -4540    -4345    -4079    -3727 
   -3248    -2687    -2143    -1680    -1256     -877     -661     -631 
    -719     -970    -1439    -1998    -2461    -2751    -2776    -2386 
   -1717    -1163     -893     -845    -1047    -1536    -2170    -2809 
