Origin Time       2024/06/23 22:54:00
Lat.              35.645
Long.             140.060
Depth. (km)       72
Mag.              4.1
Station Code      TKY008
Station Lat.      34.7851
Station Long.     139.3909
Station Height(m) 65
Record Time       2024/06/23 22:54:56
Sampling Freq(Hz) 100Hz
Duration Time(s)  60
Dir.              N-S
Scale Factor      7845(gal)/8223790
Max. Acc. (gal)   2.148
Last Correction   2024/06/23 22:54:55
Memo.             
[...]
   -9690    -9697    -9702    -9694    -9698    -9709    -9709    -9702 
   -9691    -9690    -9702    -9703    -9693    -9687    -9693    -9697 
   -9694    -9705    -9709    -9690    -9683    -9698    -9707    -9705 
   -9699    -9693    -9691    -9701    -9699    -9691    -9694    -9695 
   -9694    -9699    -9702    -9695    -9688    -9686    -9690    -9705 
   -9705    -9687    -9686    -9694    -9697    -9702    -9698    -9686 
   -9694    -9701    -9693    -9693    -9698    -9698    -9702    -9705 
   -9699    -9697    -9691    -9693    -9706    -9702    -9693    -9697 
   -9697    -9694    -9698    -9698    -9702    -9705    -9695    -9694 
   -9698    -9697    -9695    -9699    -9699    -9691    -9694    -9699 
   -9694    -9694    -9694    -9694    -9699    -9702    -9699    -9699 
   -9695    -9691    -9694    -9699    -9697    -9695    -9702    -9701 
   -9698    -9699    -9693    -9691    -9697    -9694    -9694    -9699 
   -9697    -9693    -9691    -9697    -9709    -9707    -9701    -9701 
   -9694    -9693    -9699    -9695    -9694    -9695    -9691    -9698 
   -9707    -9701    -9688    -9699    -9709    -9698    -9698    -9701 
   -9694    -9698    -9699    -9697    -9702    -9705    -9705    -9702 
   -9701    -9698    -9690    -9693    -9706    -9709    -9702    -9699 
   -9698    -9690    -9687    -9693    -9694    -9687    -9680    -9684 
   -9694    -9699    -9702    -9707    -9715    -9715    -9722    -9736 
   -9725    -9694    -9674    -9656    -9634    -9640    -9670    -9698 
   -9721    -9741    -9744    -9721    -9688    -9657    -9647    -9678 
   -9734    -9779    -9780    -9728    -9667    -9628    -9599    -9607 
   -9661    -9729    -9775    -9780    -9753    -9709    -9655    -9614 
   -9637    -9726    -9813    -9871    -9868    -9741    -9572    -9510 
   -9541    -9586    -9636    -9703    -9772    -9805    -9769    -9690 
   -9613    -9558    -9543    -9624    -9806    -9942    -9871    -9647 
   -9462    -9497    -9778   -10003    -9938    -9736    -9612    -9621 
   -9688    -9688    -9644    -9624    -9625    -9636    -9598    -9545 
   -9640    -9821    -9883    -9856    -9845    -9834    -9786    -9706 
   -9667    -9625    -9509    -9445    -9431    -9402    -9540    -9733 
   -9671    -9495    -9537    -9868   -10201   -10216   -10110   -10138 
  -10030    -9620    -9271    -9290    -9593    -9838    -9742    -9462 
   -9346    -9414    -9559    -9776    -9936    -9838    -9622    -9629 
   -9817    -9868    -9725    -9571    -9560    -9678    -9819    -9871 
   -9791    -9694    -9652    -9720    -9886    -9902    -9802    -9813 
   -9787    -9645    -9575    -9547    -9440    -9332    -9416    -9614 
   -9571    -9362    -9439    -9720    -9826    -9837    -9937   -10095 
  -10214   -10138    -9938    -9846    -9795    -9680    -9582    -9499 
   -9328    -9109    -9111    -9405    -9651    -9683    -9721    -9855 
   -9987   -10104   -10158   -10068    -9972   -10064   -10226   -10077 
   -9498    -8896    -8687    -8826    -9022    -9215    -9497    -9745 
   -9884   -10000   -10033   -10041   -10183   -10282   -10223   -10172 
  -10088    -9850    -9610    -9448    -9270    -9173    -9297    -9418 
   -9329    -9244    -9428    -9769   -10003   -10104   -10169   -10133 
  -10019    -9922    -9840    -9807    -9684    -9285    -8876    -8918 
   -9467   -10033   -10079    -9733    -9552    -9724    -9976    -9999 
   -9802    -9676    -9747    -9828    -9748    -9598    -9586    -9652 
   -9535    -9304    -9332    -9555    -9567    -9537    -9856   -10219 
  -10193    -9998    -9945    -9873    -9647    -9490    -9528    -9562 
   -9479    -9432    -9458    -9450    -9508    -9760   -10044   -10110 
   -9975    -9801    -9667    -9657    -9826   -10042   -10130    -9963 
   -9572    -9197    -8965    -8878    -9039    -9443    -9795    -9907 
   -9998   -10201   -10239    -9969    -9721    -9767    -9913    -9913 
   -9890    -9973    -9913    -9520    -9120    -9040    -9139    -9227 
   -9391    -9699    -9976    -9991    -9811    -9751    -9877   -10008 
  -10088   -10134   -10095    -9919    -9636    -9409    -9342    -9323 
   -9310    -9343    -9402    -9598    -9895    -9884    -9514    -9309 
   -9528    -9887   -10139   -10272   -10239   -10015    -9729    -9524 
   -9429    -9420    -9532    -9730    -9788    -9595    -9420    -9528 
   -9701    -9676    -9686    -9884   -10012    -9944    -9794    -9651 
   -9537    -9532    -9668    -9745    -9690    -9690    -9715    -9626 
   -9514    -9535    -9714    -9798    -9625    -9535    -9733    -9936 
   -9979   -10014   -10098    -9988    -9587    -9279    -9305    -9477 
   -9649    -9733    -9670    -9620    -9705    -9791    -9709    -9493 
   -9360    -9551    -9956   -10060    -9784    -9653    -9792    -9914 
   -9925    -9863    -9815    -9778    -9607    -9390    -9324    -9385 
   -9472    -9603    -9809    -9941    -9911    -9852    -9733    -9504 
   -9472    -9761    -9984    -9914    -9821    -9906    -9910    -9606 
   -9231    -9182    -9479    -9772    -9815    -9671    -9624    -9751 
   -9772    -9657    -9671    -9819    -9898    -9855    -9782    -9722 
   -9618    -9509    -9563    -9745    -9779    -9659    -9625    -9639 
   -9547    -9494    -9632    -9842    -9940    -9891    -9822    -9828 
   -9830    -9742    -9633    -9647    -9718    -9661    -9560    -9572 
   -9599    -9551    -9498    -9533    -9657    -9780    -9848    -9868 
   -9844    -9802    -9825    -9918    -9896    -9694    -9575    -9653 
   -9703    -9617    -9479    -9397    -9414    -9460    -9563    -9798 
   -9979    -9981    -9930    -9884    -9863    -9898    -9863    -9668 
   -9444    -9346    -9417    -9572    -9690    -9722    -9683    -9651 
   -9612    -9526    -9563    -9832   -10131   -10141    -9868    -9682 
   -9694    -9715    -9734    -9780    -9736    -9521    -9293    -9283 
   -9397    -9414    -9467    -9713    -9980   -10123   -10183   -10170 
  -10021    -9709    -9444    -9390    -9373    -9352    -9532    -9798 
   -9872    -9815    -9776    -9705    -9643    -9764    -9946    -9880 
   -9637    -9598    -9768    -9832    -9786    -9765    -9721    -9621 
   -9439    -9196    -9124    -9320    -9630    -9921   -10044    -9930 
   -9817    -9956   -10170   -10131    -9938    -9841    -9733    -9536 
   -9406    -9383    -9347    -9228    -9175    -9382    -9744    -9988 
   -9975    -9778    -9580    -9552    -9810   -10196   -10336   -10102 
   -9711    -9462    -9402    -9401    -9526    -9729    -9647    -9386 
   -9436    -9709    -9810    -9796    -9850    -9826    -9648    -9571 
   -9760   -10011   -10092   -10012    -9805    -9470    -9275    -9451 
   -9698    -9711    -9610    -9553    -9552    -9610    -9775   -10031 
  -10110    -9838    -9497    -9358    -9352    -9400    -9551    -9788 
   -9925    -9884    -9903   -10087   -10143    -9884    -9535    -9363 
   -9327    -9315    -9416    -9664    -9884    -9956    -9907    -9823 
   -9788    -9798    -9764    -9679    -9603    -9531    -9458    -9463 
   -9555    -9622    -9626    -9649    -9749    -9863    -9903    -9864 
   -9776    -9678    -9603    -9593    -9711    -9895    -9984    -9991 
   -9996    -9922    -9670    -9319    -9115    -9228    -9535    -9783 
   -9879    -9867    -9779    -9609    -9451    -9483    -9684    -9852 
   -9921    -9927    -9863    -9763    -9679    -9626    -9616    -9614 
   -9599    -9595    -9562    -9518    -9585    -9760    -9909    -9855 
   -9645    -9601    -9771    -9871    -9828    -9765    -9776    -9838 
   -9832    -9715    -9574    -9540    -9643    -9660    -9552    -9576 
   -9660    -9570    -9477    -9532    -9620    -9765    -9967   -10019 
   -9925    -9832    -9702    -9502    -9354    -9421    -9724   -10012 
  -10048    -9873    -9645    -9498    -9529    -9699    -9788    -9722 
   -9668    -9653    -9575    -9539    -9660    -9814    -9877    -9860 
   -9725    -9477    -9366    -9567    -9818    -9875    -9867    -9899 
   -9891    -9872    -9904    -9848    -9633    -9413    -9310    -9366 
   -9535    -9621    -9616    -9734    -9856    -9791    -9753    -9780 
   -9630    -9462    -9593    -9910   -10096   -10026    -9829    -9676 
   -9594    -9508    -9348    -9274    -9516    -9864    -9968    -9888 
   -9810    -9738    -9647    -9614    -9730    -9828    -9705    -9566 
   -9645    -9828    -9914    -9807    -9657    -9655    -9639    -9529 
   -9580    -9784    -9853    -9705    -9498    -9412    -9408    -9413 
   -9490    -9668    -9956   -10219   -10179    -9925    -9848    -9941 
   -9921    -9741    -9590    -9583    -9594    -9464    -9327    -9346 
   -9433    -9526    -9668    -9799    -9825    -9788    -9760    -9730 
   -9747    -9899   -10010    -9869    -9664    -9633    -9721    -9798 
   -9791    -9663    -9487    -9377    -9327    -9321    -9470    -9745 
   -9934    -9984    -9995    -9996   -10002    -9960    -9774    -9541 
   -9459    -9494    -9440    -9278    -9286    -9583    -9892   -10003 
  -10011    -9987    -9830    -9594    -9562    -9768    -9891    -9765 
   -9576    -9494    -9521    -9603    -9632    -9605    -9626    -9667 
   -9686    -9810   -10031   -10096    -9887    -9667    -9703    -9830 
   -9783    -9661    -9612    -9540    -9408    -9308    -9328    -9487 
   -9653    -9736    -9790    -9814    -9863   -10022   -10143   -10030 
   -9749    -9571    -9618    -9659    -9531    -9420    -9474    -9621 
   -9733    -9703    -9617    -9640    -9715    -9728    -9734    -9759 
   -9752    -9710    -9678    -9730    -9883   -10031   -10003    -9703 
   -9375    -9319    -9413    -9495    -9678    -9863    -9801    -9659 
   -9745    -9969   -10034    -9896    -9757    -9695    -9602    -9501 
   -9525    -9585    -9512    -9435    -9489    -9591    -9714    -9822 
   -9788    -9679    -9699    -9861    -9964    -9915    -9875    -9902 
   -9823    -9625    -9510    -9549    -9595    -9524    -9444    -9472 
   -9512    -9589    -9855   -10115   -10053    -9772    -9624    -9663 
   -9682    -9593    -9535    -9656    -9859    -9892    -9655    -9378 
   -9364    -9539    -9722    -9945   -10041    -9782    -9448    -9431 
   -9666    -9892    -9996    -9941    -9732    -9531    -9504    -9603 
   -9747    -9859    -9747    -9512    -9599    -9937    -9960    -9655 
   -9516    -9593    -9578    -9572    -9769    -9883    -9778    -9732 
   -9709    -9526    -9385    -9387    -9417    -9574    -9919   -10139 
  -10014    -9810    -9856   -10034   -10042    -9822    -9451    -9086 
   -9072    -9479    -9890   -10017    -9965    -9856    -9703    -9625 
   -9728    -9803    -9607    -9362    -9409    -9641    -9818    -9949 
  -10044    -9941    -9629    -9404    -9423    -9528    -9645    -9784 
   -9768    -9574    -9509    -9733    -9995   -10011    -9865    -9745 
   -9633    -9541    -9528    -9535    -9587    -9759    -9863    -9774 
   -9710    -9732    -9633    -9513    -9618    -9764    -9666    -9472 
   -9483    -9670    -9798    -9853    -9904    -9838    -9657    -9607 
   -9767    -9882    -9787    -9679    -9667    -9657    -9687    -9811 
   -9865    -9745    -9603    -9564    -9545    -9477    -9448    -9583 
   -9778    -9814    -9737    -9726    -9741    -9667    -9626    -9767 
   -9940    -9936    -9782    -9598    -9491    -9551    -9705    -9774 
   -9751    -9703    -9636    -9625    -9728    -9868    -9895    -9720 
   -9524    -9567    -9742    -9771    -9651    -9571    -9589    -9678 
   -9791    -9775    -9564    -9421    -9552    -9787    -9936    -9972 
   -9902    -9817    -9771    -9688    -9620    -9664    -9659    -9493 
   -9408    -9583    -9809    -9857    -9790    -9761    -9729    -9597 
   -9526    -9737    -9988    -9849    -9487    -9375    -9498    -9607 
   -9721    -9829    -9795    -9691    -9676    -9713    -9768    -9857 
   -9892    -9863    -9819    -9690    -9549    -9598    -9713    -9674 
   -9489    -9340    -9447    -9747    -9950    -9980    -9902    -9765 
   -9678    -9741    -9914    -9963    -9756    -9528    -9452    -9402 
   -9369    -9533    -9805    -9840    -9643    -9602    -9799    -9771 
   -9451    -9452    -9860   -10033    -9872    -9837    -9963    -9926 
   -9695    -9508    -9429    -9356    -9405    -9659    -9840    -9791 
   -9661    -9571    -9603    -9761    -9938   -10092   -10092    -9828 
   -9535    -9427    -9483    -9629    -9710    -9639    -9528    -9437 
   -9333    -9366    -9722   -10141   -10237   -10104    -9895    -9578 
   -9362    -9562    -9972   -10027    -9682    -9378    -9297    -9355 
   -9532    -9767    -9863    -9815    -9880    -9980    -9850    -9643 
   -9587    -9614    -9612    -9562    -9495    -9533    -9749    -9984 
   -9987    -9767    -9606    -9616    -9582    -9522    -9745   -10134 
  -10249   -10079    -9848    -9574    -9342    -9332    -9448    -9522 
   -9599    -9679    -9693    -9705    -9713    -9641    -9625    -9778 
   -9899    -9882    -9844    -9729    -9483    -9393    -9670   -10069 
  -10210   -10065    -9879    -9721    -9541    -9455    -9516    -9602 
   -9671    -9713    -9676    -9595    -9522    -9493    -9560    -9663 
   -9634    -9509    -9482    -9485    -9266    -8912    -8800    -9143 
   -9791   -10343   -10574   -10571   -10419   -10195   -10073   -10135 
  -10260   -10220    -9921    -9541    -9337    -9323    -9262    -9096 
   -9040    -9119    -9337    -9842   -10291   -10210    -9786    -9417 
   -9188    -8997    -8783    -8704    -8955    -9327    -9374    -9136 
   -9104    -9374    -9622    -9814   -10216   -10921   -11658   -11948 
  -11530   -10662    -9806    -9256    -9266    -9904   -10678   -10926 
  -10588   -10110    -9655    -8977    -8257    -8166    -8756    -9381 
   -9686    -9778    -9666    -9238    -8754    -8734    -9138    -9462 
   -9651    -9996   -10373   -10431   -10179    -9838    -9621    -9672 
   -9931   -10322   -10791   -11060   -10836   -10145    -9324    -8607 
   -8097    -8262    -9204   -10022   -10228   -10280   -10112    -9184 
   -8004    -7735    -8406    -9063    -9483   -10282   -11423   -11915 
  -11103    -9489    -8228    -8062    -8799    -9715   -10276   -10642 
  -11159   -11353   -10709    -9823    -9429    -9347    -9239    -9186 
   -9269    -9428    -9555    -9427    -9121    -9182    -9734   -10179 
  -10127    -9779    -9458    -9408    -9621    -9763    -9687    -9589 
   -9489    -9356    -9396    -9582    -9826   -10408   -11149   -11277 
  -10578    -9625    -9034    -9026    -9433    -9755    -9526    -8927 
   -8587    -8830    -9371    -9609    -9335    -9085    -9450   -10203 
  -10666   -10658   -10449   -10169    -9936    -9925    -9899    -9483 
   -8978    -8965    -9337    -9644    -9898   -10204   -10134    -9494 
   -9020    -9255    -9691    -9740    -9663    -9976   -10534   -10729 
  -10330    -9636    -8958    -8513    -8553    -9067    -9655   -10011 
  -10084    -9900    -9718    -9775    -9938   -10116   -10357   -10438 
  -10154    -9805    -9706    -9637    -9266    -8691    -8340    -8707 
   -9873   -11144   -11553   -10827    -9633    -8911    -8978    -9364 
   -9555    -9497    -9381    -9236    -8953    -8811    -9193    -9710 
   -9823    -9764    -9929   -10183   -10251   -10320   -10639   -10778 
  -10335    -9814    -9738    -9840    -9624    -9180    -9009    -9094 
   -9004    -8816    -8935    -9435   -10037   -10347   -10239    -9950 
   -9691    -9634    -9979   -10515   -10642   -10170    -9568    -9248 
   -9266    -9564    -9818    -9525    -8835    -8527    -8878    -9270 
   -9273    -9339    -9815   -10172   -10004    -9846   -10139   -10471 
  -10525   -10551   -10659   -10628   -10409   -10220   -10061    -9672 
   -9127    -8799    -8752    -8793    -8880    -9107    -9526    -9937 
  -10022    -9857    -9680    -9567    -9672    -9965   -10026    -9637 
   -9050    -8716    -8851    -9192    -9398    -9447    -9558    -9863 
  -10119   -10058    -9883    -9902   -10108   -10315   -10343   -10173 
   -9911    -9634    -9443    -9494    -9759    -9915    -9771    -9549 
   -9408    -9278    -9359    -9787   -10146   -10133    -9952    -9733 
   -9454    -9313    -9441    -9625    -9687    -9713    -9832   -10029 
  -10129   -10000    -9825    -9919   -10281   -10567   -10417    -9757 
   -8978    -8594    -8656    -8900    -9190    -9424    -9499    -9607 
   -9950   -10342   -10457   -10184    -9717    -9306    -9049    -9073 
   -9375    -9526    -9350    -9296    -9628   -10080   -10397   -10567 
  -10535   -10179    -9678    -9423    -9470    -9579    -9682    -9863 
  -10038   -10025    -9823    -9590    -9378    -9219    -9211    -9385 
   -9632    -9734    -9628    -9524    -9497    -9436    -9541    -9926 
  -10123    -9909    -9639    -9541    -9471    -9265    -9128    -9416 
   -9956   -10243   -10166   -10014   -10034   -10062    -9900    -9828 
  -10064   -10319   -10285    -9954    -9510    -9167    -9055    -9186 
   -9362    -9386    -9352    -9412    -9537    -9664    -9752    -9729 
   -9657    -9774   -10147   -10539   -10562   -10120    -9621    -9355 
   -9189    -9038    -8966    -9011    -9201    -9508    -9775    -9910 
  -10073   -10388   -10528   -10152    -9575    -9343    -9508    -9819 
  -10075   -10069    -9675    -9158    -9019    -9333    -9821   -10315 
  -10593   -10389    -9806    -9208    -8854    -8775    -8938    -9309 
   -9660    -9671    -9390    -9267    -9616   -10230   -10585   -10432 
  -10069    -9868    -9848    -9884   -10008   -10224   -10338   -10228 
   -9990    -9729    -9428    -9128    -9004    -9107    -9282    -9432 
   -9517    -9445    -9244    -9188    -9410    -9694    -9857    -9892 
   -9815    -9709    -9652    -9629    -9687    -9876   -10080   -10162 
  -10133   -10056    -9946    -9786    -9629    -9551    -9513    -9425 
   -9331    -9360    -9586    -9919   -10135   -10172   -10100    -9813 
   -9265    -8743    -8584    -8872    -9364    -9774   -10161   -10550 
  -10639   -10318    -9819    -9448    -9394    -9556    -9675    -9683 
   -9695    -9732    -9667    -9529    -9590    -9945   -10311   -10341 
  -10006    -9698    -9651    -9621    -9531    -9602    -9791    -9857 
   -9717    -9490    -9316    -9208    -9217    -9429    -9742    -9981 
   -9976    -9729    -9567    -9664    -9792    -9810    -9805    -9784 
   -9622    -9327    -9100    -9011    -9016    -9267    -9782   -10247 
  -10486   -10530   -10389   -10118    -9822    -9589    -9452    -9377 
   -9431    -9705    -9968    -9931    -9702    -9552    -9578    -9698 
   -9771    -9738    -9676    -9683    -9715    -9618    -9398    -9267 
   -9305    -9404    -9501    -9602    -9672    -9688    -9811   -10108 
  -10253   -10088    -9913    -9918    -9991    -9941    -9701    -9364 
   -9065    -8970    -9170    -9562    -9994   -10311   -10382   -10336 
  -10442   -10586   -10427    -9971    -9440    -8972    -8664    -8529 
   -8500    -8580    -8857    -9400   -10091   -10617   -10716   -10447 
  -10099    -9877    -9815    -9869    -9899    -9829    -9795    -9848 
   -9794    -9474    -9036    -8895    -9100    -9263    -9396    -9740 
  -10054   -10058    -9896    -9765    -9664    -9447    -9127    -8959 
   -9107    -9510   -10029   -10380   -10339   -10102    -9987   -10084 
  -10322   -10459   -10282    -9927    -9626    -9404    -9228    -9182 
   -9375    -9666    -9741    -9672    -9690    -9671    -9543    -9459 
