Origin Time       2024/06/23 22:54:00
Lat.              35.645
Long.             140.060
Depth. (km)       72
Mag.              4.1
Station Code      TKY017
Station Lat.      35.6473
Station Long.     139.8092
Station Height(m) 4
Record Time       2024/06/23 22:54:45
Sampling Freq(Hz) 100Hz
Duration Time(s)  60
Dir.              U-D
Scale Factor      7845(gal)/8223790
Max. Acc. (gal)   2.639
Last Correction   2024/06/23 22:54:45
Memo.             
[...]
   10770    10771    10760    10751    10747    10733    10723    10739 
   10741    10721    10717    10724    10736    10747    10754    10768 
   10775    10768    10767    10771    10775    10782    10785    10782 
   10778    10774    10781    10789    10779    10781    10808    10814 
   10787    10758    10746    10752    10752    10733    10743    10768 
   10760    10752    10754    10731    10725    10737    10744    10748 
   10743    10747    10764    10773    10768    10777    10814    10816 
   10786    10773    10746    10751    10774    10755    10762    10808 
   10828    10821    10813    10816    10802    10777    10774    10771 
   10758    10770    10774    10752    10763    10773    10737    10729 
   10741    10729    10733    10743    10732    10733    10744    10736 
   10716    10724    10747    10763    10783    10775    10770    10783 
   10771    10751    10744    10774    10816    10808    10787    10782 
   10781    10797    10804    10795    10781    10764    10786    10805 
   10785    10778    10782    10778    10767    10754    10740    10721 
   10729    10759    10750    10746    10771    10775    10768    10741 
   10708    10735    10777    10741    10706    10743    10774    10775 
   10787    10812    10813    10760    10740    10775    10752    10763 
   10822    10800    10793    10818    10775    10763    10768    10741 
   10746    10739    10746    10790    10755    10705    10752    10789 
   10748    10712    10709    10728    10756    10770    10795    10835 
   10798    10764    10810    10787    10736    10773    10771    10759 
   10793    10778    10762    10766    10756    10762    10744    10751 
   10810    10755    10686    10795    10840    10717    10697    10750 
   10744    10750    10756    10773    10781    10731    10778    10858 
   10766    10727    10810    10786    10739    10771    10778    10752 
   10739    10758    10791    10801    10777    10731    10732    10771 
   10752    10719    10748    10764    10746    10790    10816    10766 
   10758    10782    10809    10800    10736    10754    10793    10740 
   10746    10785    10762    10751    10755    10773    10797    10762 
   10754    10783    10724    10692    10759    10773    10751    10781 
   10805    10779    10754    10778    10782    10747    10751    10755 
   10750    10778    10800    10787    10764    10770    10790    10789 
   10768    10727    10754    10827    10758    10696    10759    10755 
   10759    10820    10785    10747    10787    10805    10755    10708 
   10729    10759    10736    10735    10783    10781    10771    10789 
   10779    10793    10756    10700    10798    10824    10731    10762 
   10755    10721    10808    10813    10754    10767    10814    10805 
   10746    10744    10778    10779    10737    10714    10773    10793 
   10771    10782    10762    10747    10777    10787    10733    10710 
   10762    10705    10693    10841    10800    10702    10809    10863 
   10766    10689    10721    10760    10767    10775    10748    10785 
   10859    10854    10813    10716    10723    10845    10740    10658 
   10813    10785    10674    10806    10879    10767    10752    10824 
   10802    10727    10683    10687    10755    10760    10675    10741 
   10856    10797    10759    10771    10771    10787    10704    10709 
   10824    10736    10713    10859    10824    10741    10767    10800 
   10810    10767    10713    10721    10766    10747    10710    10817 
   10858    10735    10759    10847    10760    10674    10751    10795 
   10701    10728    10844    10777    10732    10822    10829    10808 
   10800    10744    10754    10779    10728    10737    10808    10795 
   10739    10790    10856    10739    10651    10767    10758    10663 
   10781    10836    10735    10717    10746    10805    10832    10728 
   10706    10808    10781    10697    10793    10860    10721    10720 
   10867    10786    10643    10731    10808    10733    10773    10881 
   10852    10770    10708    10754    10824    10727    10682    10778 
   10786    10731    10755    10809    10759    10727    10829    10808 
   10719    10752    10729    10728    10804    10755    10767    10836 
   10750    10758    10817    10748    10736    10740    10717    10744 
   10771    10801    10795    10787    10808    10739    10702    10723 
   10704    10786    10809    10741    10860    10881    10737    10752 
   10751    10716    10783    10763    10704    10789    10878    10794 
   10731    10840    10818    10655    10690    10770    10743    10723 
   10700    10790    10867    10710    10648    10696    10662    10789 
   10863    10678    10698    10863    10759    10683    10910    11032 
   10829    10681    10660    10590    10669    10779    10683    10544 
   10335    10278    10598    10926    11128    11126    10974    11032 
   11071    11013    11086    10955    10613    10411    10381    10536 
   10897    11340    11433    10955    10424    10274    10569    11159 
   11519    11229    10566    10145    10079    10219    10515    10642 
   10627    10783    10806    10687    10821    11014    11048    10926 
   10746    10821    11007    11067    11114    10822    10288    10183 
   10435    10889    11322    11097    10629    10651    10790    10805 
   10878    10843    10570    10193    10066    10482    11119    11492 
   11395    10945    10650    10477    10268    10625    11323    11460 
   11082    10528    10057    10000    10326    10805    11083    10972 
   10804    10686    10589    10797    11199    11335    11032    10562 
   10396    10404    10427    10740    10924    10779    10972    11272 
   11074    10755    10667    10670    10733    10775    10732    10817 
   10864    10535    10261    10350    10471    10662    10948    11055 
   11061    10997    10814    10736    10710    10642    10663    10696 
   10669    10716    10859    10916    10871    10922    10898    10770 
   10908    11055    10905    10768    10705    10581    10377    10230 
   10536    11059    11194    11134    11146    11010    10635    10388 
   10513    10617    10633    10793    10800    10584    10384    10378 
   10709    11048    11199    11265    11057    10713    10536    10467 
   10528    10804    11078    10974    10723    10779    10741    10492 
   10428    10409    10539    10966    11295    11341    11014    10604 
   10712    10908    10709    10651    10831    10821    10692    10652 
   10644    10629    10733    10833    10728    10619    10663    10821 
   10980    11037    11097    10939    10494    10404    10598    10627 
   10705    10805    10665    10341    10200    10586    11142    11403 
   11398    11171    10775    10588    10794    10845    10621    10708 
   10949    10906    10667    10477    10466    10638    10957    11059 
   10802    10702    10737    10655    10723    10964    11047    10794 
   10550    10604    10660    10652    10816    10914    10697    10558 
   10739    10806    10678    10670    10773    10921    11102    11211 
   11111    10812    10598    10586    10648    10802    10972    10939 
   10744    10519    10301    10265    10459    10756    11034    10975 
   10636    10573    10721    10756    10817    10968    11149    11209 
   11090    11041    10885    10570    10574    10689    10551    10372 
   10255    10314    10713    11060    10890    10585    10524    10435 
   10399    10584    10670    10733    11007    11121    11010    10932 
   10674    10446    10702    11280    11691    11391    10872    10771 
   10540    10573    11259    11234    10496    10098     9863    10004 
   10600    10833    10871    11030    11240    11300    10831    10662 
   11021    10933    11036    11491    11148    10346     9896    10147 
   11145    11781    11461    10832    10268    10129    10261    10270 
   10520    10611    10405    10686    11086    10975    10422    10021 
   10509    11352    11705    11678    11283    10638    10187     9988 
   10347    11160    11518    11222    10543     9895     9745    10041 
   10612    11097    11288    11470    11364    10825    10532    10469 
   10373    10497    10690    10794    10809    10658    10535    10565 
   10636    10717    11010    11360    11222    10828    10690    10632 
   10679    10955    10999    10747    10369     9860     9919    10779 
   11449    11604    11647    11388    10719    10309    10513    10744 
   10762    10879    10918    10844    10836    10665    10662    11087 
   11244    11190    11426    11296    10467     9884     9973    10208 
   10372    10513    10590    10752    11013    11145    11021    10697 
   10578    11025    11511    11226    10539    10386    10687    10858 
   10849    10754    10569    10355    10273    10574    10899    10693 
   10480    10632    10697    10631    10457    10339    10647    10952 
   11026    11141    11168    11183    11380    11470    11125    10809 
   11014    10972    10544    10465    10247     9980    10463    11041 
   11246    11219    10709    10191    10133    10185    10453    11016 
   11241    11056    10948    10737    10393    10521    10827    10909 
   10893    10471    10106    10270    10400    10617    11053    11271 
   11277    11196    10928    10617    10790    11119    11151    11394 
   11470    11165    11052    10781    10517    10631    10638    10451 
   10273    10146     9984     9969    10231    10497    10929    11383 
   11516    11610    11442    10922    10571    10357    10358    10759 
   10924    10671    10647    10777    10592    10390    10380    10265 
   10274    10658    11028    11146    11124    11167    11330    11265 
   10897    10669    10872    11065    10908    10771    10620    10467 
   10744    11184    11342    11022    10434    10085     9904     9822 
    9958    10289    10844    11198    11053    10893    10910    10810 
   10736    10894    11006    11172    11514    11483    11114    10858 
   10613    10620    10804    10389    10103    10532    10490    10358 
   10845    10760    10423    10696    10713    10650    11052    11159 
   11059    11261    11227    11025    11052    10841    10673    11032 
   11090    10687    10423    10137    10137    10501    10539    10756 
   11327    11321    10862    10513    10323    10280    10381    10426 
   10467    10933    11279    11041    10856    10625    10320    10606 
   11040    10997    10844    10706    10442    10675    11300    11530 
   11755    11686    10891    10488    10434    10331    10710    10899 
   10497    10161     9888     9855    10503    11172    11222    11034 
   10665    10223    10532    11184    11388    11473    11314    10822 
   10543    10481    10458    10474    10516    10592    10844    11051 
   10800    10574    10663    10609    10615    10987    11286    11259 
   11049    10562    10154    10386    10798    11029    11078    10733 
   10461    10439    10083     9914    10683    11569    11965    12051 
   11619    10948    10486    10224    10287    10366    10305    10675 
   11219    11044    10428    10251    10435    10573    10818    11130 
   11025    10528    10301    10535    10844    11163    11383    11264 
   11107    10909    10524    10474    10602    10439    10295    10301 
   10397    10598    10897    11211    11173    10798    10606    10856 
   11306    11507    11338    10897    10397    10195    10312    10590 
   10728    10470    10408    10790    11045    11178    11256    10949 
   10419    10098    10035    10118    10301    10540    10953    11211 
   10848    10633    10939    11032    10924    10806    10466    10212 
   10459    10914    11180    11173    10980    11134    11504    11430 
   11303    11294    10882    10235     9914    10011    10396    10872 
   11074    11226    11407    11040    10463    10231    10289    10682 
   11125    11171    11105    11013    10628    10478    10419     9992 
   10169    10836    10968    11082    11291    11057    10832    10625 
   10303    10601    10971    10690    10558    10447    10336    11049 
   11662    11431    11084    10737    10428    10372    10191    10026 
   10376    10744    10768    10767    10701    10708    10955    11092 
   11056    10917    10778    10773    10736    10746    10878    10863 
   10886    11122    11129    10962    11098    11199    10755    10126 
    9778     9720    10007    10625    11253    11492    11284    11126 
   11244    11225    11009    10941    10825    10385    10135    10211 
   10133    10253    10883    11437    11514    11169    10783    10746 
   10751    10481    10297    10251    10154    10373    10736    10764 
   10832    11049    11223    11392    11342    11148    11095    11109 
   11032    10909    10787    10565    10273    10073    10195    10492 
   10566    10524    10422    10274    10247    10426    10935    11362 
   11338    11350    11584    11564    11244    10935    10542    10110 
   10037    10218    10164     9988    10326    11088    11573    11681 
   11699    11534    11265    11194    11052    10597    10130     9906 
    9954    10006     9836     9988    10692    11175    11286    11318 
   11038    10735    10957    11411    11700    11726    11326    10817 
   10471    10064    10015    10315    10126     9849     9983     9976 
   10048    10608    11002    11223    11792    12252    12425    12453 
   12069    11469    10643     9531     8878     8694     8765     9450 
   10154    10305    10374    10436    10496    11106    12167    13038 
   13512    13532    13051    12120    10852     9787     9294     9101 
    9215     9601     9722     9664     9772     9884    10226    11024 
   11830    12371    12406    11821    11101    10530    10208    10133 
   10181    10400    10609    10716    10804    10682    10434    10538 
   10891    11195    11773    12487    12803    12568    11929    11346 
   10660     9737     9354     9197     8594     8332     8621     8861 
    9336    10092    10569    10914    11384    11807    12164    12224 
   11909    11607    11213    10729    10566    10565    10539    10678 
   10968    11283    11346    11028    10844    10952    10956    11084 
   11507    11585    11064    10386     9844     9440     9355     9995 
   10951    11385    11457    11388    10980    10516    10254    10197 
   10347    10505    10516    10303    10118    10466    11128    11763 
   12336    12510    12264    11846    11257    10494     9734     9240 
    8969     8765     8795     9103     9499    10125    11099    12135 
   12993    13501    13443    12657    11371    10282     9471     8838 
    8978     9683    10354    11192    12006    12459    12577    12194 
   11547    10922    10066     9327     9350     9906    10493    10839 
   10787    10544    10332    10041     9744     9722     9882    10145 
   10717    11448    12178    12819    12965    12707    12348    11616 
   10724    10061     9383     8932     8959     9045     9378    10197 
   11052    11630    11734    11500    11433    11441    11249    11074 
   10912    10644    10558    10605    10498    10484    10773    11007 
   10832    10450    10143     9814     9405     9177     9420    10053 
   10866    11772    12517    12814    12749    12474    11983    11549 
   11362    11075    10497     9853     9293     8887     8716     8831 
    9347    10162    10913    11392    11483    11206    10889    10786 
   10737    10616    10605    10696    10879    11259    11551    11655 
   11757    11570    11125    10957    10831    10517    10318    10177 
    9995     9942    10224    10791    11300    11588    11765    11803 
   11641    11497    11372    10957    10423    10183    10103    10034 
   10065    10012     9949    10107    10249    10284    10354    10496 
   10743    10886    10791    10731    10779    10944    11333    11722 
   11809    11487    10885    10235     9683     9580     9964    10351 
   10743    11298    11807    12247    12529    12472    12147    11634 
   11130    10670    10054     9571     9486     9536     9737    10223 
   10674    10899    11048    11055    10768    10451    10386    10392 
   10431    10725    11160    11506    11581    11396    11214    11060 
   10894    10794    10577    10304    10395    10687    10816    10959 
   11128    10999    10608    10199     9902     9815     9975    10297 
   10639    10889    11118    11276    11115    10787    10481     9961 
    9367     9185     9410     9876    10575    11315    11853    12117 
   12154    11989    11715    11643    11807    11854    11649    11273 
   10833    10403    10045     9921     9971     9945     9948    10048 
   10011     9975    10150    10370    10575    10764    10883    11043 
   11222    11400    11610    11650    11492    11082    10331     9838 
    9941    10164    10336    10524    10689    11009    11531    12063 
   12363    12252    11924    11504    11007    10644    10345     9996 
    9826     9877    10056    10350    10696    11068    11283    11187 
   11079    11082    10953    10751    10669    10638    10517    10326 
   10189    10130    10042     9952     9922     9965    10284    10918 
   11456    11673    11624    11256    10747    10446    10413    10559 
   10721    10845    11022    11130    11151    11287    11462    11456 
   11272    11007    10682    10380    10268    10303    10377    10571 
   10810    10912    10878    10746    10611    10528    10436    10392 
   10373    10296    10319    10457    10585    10768    10951    11078 
   11257    11452    11583    11603    11512    11385    11198    10993 
   10886    10790    10683    10670    10631    10497    10382    10251 
   10057     9984    10103    10204    10228    10357    10546    10570 
   10484    10467    10573    10898    11394    11742    11826    11713 
   11364    10833    10350    10054     9931     9954    10076    10220 
   10427    10733    11129    11610    12000    12100    11865    11319 
   10670    10195     9999    10038    10227    10535    10872    11071 
   11145    11152    11018    10843    10752    10682    10627    10548 
   10376    10311    10569    11067    11520    11647    11412    10986 
   10513    10154    10064    10228    10500    10741    10862    10824 
   10756    10816    10918    10898    10797    10696    10525    10390 
   10484    10670    10813    10980    11087    11103    11205    11333 
   11284    11078    10844    10619    10435    10380    10327    10130 
   10006    10014     9972    10014    10200    10386    10647    10949 
   11160    11400    11709    11956    12098    12123    11974    11554 
   10937    10385    10000     9815     9859    10098    10469    10779 
   10859    10789    10732    10758    10825    10887    10891    10777 
   10617    10547    10605    10770    10895    10852    10701    10519 
   10426    10521    10727    10993    11253    11271    10995    10600 
   10222     9957     9842     9836     9809     9745     9879    10254 
   10731    11260    11696    11962    12186    12349    12390    12313 
   12064    11713    11394    11080    10723    10330     9998     9776 
    9648     9653     9753     9898    10114    10320    10413    10438 
   10544    10766    10966    11063    11063    10990    10883    10747 
   10597    10471    10368    10319    10357    10476    10729    11113 
   11506    11842    12104    12210    12106    11846    11477    11095 
