Origin Time       2024/06/23 22:54:00
Lat.              35.645
Long.             140.060
Depth. (km)       72
Mag.              4.1
Station Code      TKY025
Station Lat.      35.7136
Station Long.     139.8972
Station Height(m) 1
Record Time       2024/06/23 22:54:44
Sampling Freq(Hz) 100Hz
Duration Time(s)  61
Dir.              E-W
Scale Factor      7845(gal)/8223790
Max. Acc. (gal)   6.378
Last Correction   2024/06/23 22:54:44
Memo.             
[...]
    -271     -270     -255     -247     -247     -245     -253     -260 
    -261     -271     -275     -265     -255     -247     -248     -257 
    -265     -264     -265     -263     -253     -253     -249     -244 
    -256     -265     -265     -265     -261     -255     -253     -253 
    -240     -241     -256     -252     -251     -263     -267     -274 
    -278     -264     -248     -245     -245     -247     -260     -268 
    -263     -257     -256     -255     -251     -257     -264     -257 
    -255     -253     -255     -268     -271     -264     -256     -248 
    -247     -247     -249     -259     -265     -267     -272     -270 
    -253     -252     -259     -259     -261     -265     -259     -248 
    -243     -244     -249     -253     -253     -256     -261     -261 
    -261     -261     -263     -260     -253     -264     -272     -265 
    -263     -257     -260     -265     -253     -252     -253     -247 
    -253     -264     -265     -264     -260     -255     -260     -267 
    -265     -263     -261     -257     -252     -244     -248     -257 
    -256     -257     -256     -249     -256     -263     -265     -275 
    -276     -268     -263     -256     -249     -249     -260     -265 
    -256     -255     -259     -259     -268     -265     -251     -253 
    -252     -244     -256     -264     -252     -244     -249     -253 
    -252     -260     -275     -270     -263     -263     -256     -253 
    -261     -260     -261     -265     -249     -237     -256     -263 
    -255     -263     -265     -260     -263     -256     -247     -248 
    -243     -240     -252     -265     -263     -252     -256     -260 
    -259     -259     -255     -251     -253     -252     -260     -271 
    -268     -265     -267     -261     -252     -249     -255     -259 
    -261     -261     -255     -259     -261     -252     -252     -259 
    -255     -248     -251     -256     -255     -259     -264     -263 
    -268     -270     -256     -252     -259     -255     -241     -244 
    -264     -267     -260     -260     -264     -256     -241     -243 
    -256     -263     -265     -267     -260     -247     -243     -256 
    -263     -259     -261     -270     -261     -247     -244     -244 
    -247     -251     -252     -268     -268     -249     -252     -260 
    -265     -278     -271     -255     -247     -233     -236     -257 
    -270     -263     -257     -255     -257     -268     -275     -268 
    -260     -261     -261     -256     -260     -261     -248     -245 
    -253     -251     -247     -260     -272     -274     -271     -261 
    -252     -252     -245     -238     -257     -276     -272     -264 
    -259     -247     -244     -253     -256     -257     -263     -267 
    -272     -271     -257     -252     -257     -256     -245     -251 
    -261     -261     -264     -275     -271     -261     -252     -244 
    -245     -253     -253     -259     -267     -263     -260     -263 
    -257     -257     -263     -260     -256     -252     -255     -267 
    -265     -259     -257     -253     -252     -253     -256     -270 
    -278     -271     -260     -249     -241     -238     -245     -252 
    -255     -253     -256     -264     -264     -259     -256     -260 
    -259     -245     -245     -264     -271     -265     -259     -248 
    -243     -245     -256     -270     -268     -257     -260     -268 
    -264     -257     -249     -251     -259     -257     -259     -265 
    -267     -267     -260     -245     -233     -237     -252     -261 
    -265     -264     -263     -265     -256     -245     -252     -257 
    -261     -265     -261     -257     -249     -245     -253     -257 
    -259     -271     -271     -263     -270     -270     -259     -257 
    -255     -251     -251     -252     -255     -255     -259     -265 
    -260     -261     -270     -259     -253     -257     -259     -264 
    -264     -255     -252     -245     -243     -257     -261     -260 
    -267     -265     -261     -263     -255     -249     -256     -263 
    -261     -253     -257     -261     -253     -251     -248     -238 
    -249     -264     -261     -257     -259     -259     -259     -259 
    -260     -260     -257     -257     -265     -279     -282     -270 
    -255     -247     -243     -241     -248     -256     -261     -261 
    -255     -253     -256     -253     -252     -255     -256     -265 
    -268     -264     -263     -255     -247     -253     -256     -251 
    -251     -255     -256     -265     -271     -267     -260     -256 
    -256     -251     -252     -268     -271     -261     -257     -253 
    -253     -253     -245     -245     -249     -253     -264     -260 
    -249     -260     -282     -271     -240     -232     -268     -297 
    -243     -174     -238     -353     -297     -155     -187     -322 
    -329     -248     -190     -211     -345     -396     -248     -144 
    -228     -334     -286     -120     -130     -367     -426     -194 
     -55     -220     -498     -475      -67       33     -483     -672 
     -94      234     -233     -627     -263       76     -353     -618 
    -117       29     -437     -418       -8     -141     -456     -292 
    -288     -561     -162      211     -450     -573      398      213 
    -961     -734      137     -201     -707     -228      201     -257 
    -596        9      195     -726     -846      151      233     -499 
    -503     -151     -247     -367     -367     -465     -213      251 
      40     -419     -209      -76     -642     -720      -82      -36 
    -334     -168     -178     -421     -310     -244     -336     -163 
     -71     -321     -382     -172     -156     -371     -511     -198 
     218     -248     -756     -101      101     -712     -460      373 
    -255    -1136     -410      676      372     -584     -745     -237 
     -90     -490     -576     -194      -78     -109      -48     -409 
    -749     -225      255     -232     -553      -31       52     -491 
    -398     -120     -650     -870      -82      311     -126     -228 
     144       51     -561     -827     -422      -24     -210     -480 
    -187       58     -364     -588      -68      210     -248     -673 
    -490      -63      -83     -468     -449     -130     -264     -450 
     -90       91     -206     -271     -279     -562     -434        8 
    -109     -348      -74      -98     -696     -742     -109      102 
    -206     -292     -126     -179     -450     -484     -122      105 
    -149     -342     -203     -283     -571     -432       -9       -4 
    -394     -614     -599     -454      -25      297       40     -291 
    -376     -572     -531      148      488     -226     -932     -788 
    -449     -275      148      465       40     -515     -407     -190 
    -345     -349     -284     -546     -560     -122       27     -199 
    -228     -102     -336     -600     -202      213     -237     -718 
    -355       48     -205     -503     -353     -175     -390     -598 
    -166      450      218     -561     -679     -271     -261     -288 
      27     -129     -588     -349      -40     -375     -525     -325 
    -479     -673     -360      113      247      -21     -280     -141 
      60      -67     -206     -237     -526     -776     -475     -183 
    -402     -357      144      -20     -734     -719     -206      -13 
      48     -152     -714     -668      -81      -60     -240      -74 
    -209     -523     -315      184      506      268     -475     -668 
    -180     -288     -838     -676     -140       44     -117     -550 
    -706     -226        9     -284     -298     -168     -345     -130 
     454      144     -724     -689     -234     -430     -645     -432 
    -307      -44      400      152     -394     -198      -82     -873 
   -1314     -556      153      -85     -264      149       86     -525 
    -356      372      155     -716     -826     -387     -301     -276 
      55      205     -126     -548     -648     -494     -272      -10 
     147      152       83     -378    -1062     -955     -226     -172 
    -565     -251      317      157     -221     -222     -365     -693 
    -515       -8      145      -28     -155      -70      -10     -361 
    -710     -419     -145     -468     -463       59      -89     -695 
    -594     -278     -457     -334      344      398     -459     -947 
    -506       63      203       -4     -425     -795     -662      -29 
     351       82     -152       33       36     -483     -978     -865 
    -255      122     -295     -816     -437      101     -132     -373 
    -299     -444     -309      305      353     -199     -295       66 
     -91     -839     -958      -93      338     -160     -332      -36 
    -236     -635     -564     -345     -336     -484     -625     -491 
     -87      214      112     -213     -326     -379     -631     -540 
      58      433      334       -6     -380     -368      -68      -47 
    -211     -421     -832     -951     -328      319      153     -390 
    -481     -369     -558     -675     -299      172       78     -425 
    -469       -8      109     -270     -498     -379     -309     -348 
    -155      157      141     -240     -569     -580     -569     -642 
    -333       87      -85     -415     -251      -36     -314     -799 
    -774      -48      499      203     -197      -59       62     -202 
    -464     -465     -338     -309     -390     -346     -125      120 
     166     -326    -1066    -1004     -148      175     -313     -483 
     -43       36     -426     -449        2     -108     -634     -623 
    -287     -248     -341     -172      224      380      109     -156 
    -197     -265     -491     -722     -614     -174       45       16 
     -86     -716    -1413    -1069     -252       49      182      317 
     164       10     -144     -595     -742     -311     -178     -442 
    -286      271      495       79     -538     -869     -993     -958 
    -432      410      743      318     -247     -595     -823     -731 
    -247       87      -44     -314     -422     -409     -387     -268 
      39      255       28     -461     -747     -569      -82       44 
    -426     -584     -157     -178     -572     -267      211     -221 
    -865     -760     -405     -305     -140      168      234      -75 
    -444     -395       21       95     -329     -502     -248     -155 
    -318     -392     -394     -476     -344      195      450     -187 
    -923     -658       22     -151     -679     -442      -40     -203 
    -391     -463     -641     -390      251      338      -27        0 
     233       68     -284     -440     -549     -708     -587     -194 
    -108     -356     -371     -297     -657    -1046     -789     -313 
    -310     -333       51      233      157      402      510        8 
    -411     -375     -298     -265     -180     -211     -341     -453 
    -665     -830     -648     -384     -244       21      122     -299 
    -599     -353     -110     -117     -126      -35       60      -36 
    -122       94       52     -545     -832     -460      -87      -14 
    -113     -243     -310     -569     -934     -745     -283     -373 
    -508       10      353      -93     -309      151      168     -481 
    -665     -268     -163     -251       56      364      133     -245 
    -384     -548     -797     -756     -423     -160      -20       -9 
    -406     -947     -835     -257     -105     -139      248      388 
    -267     -812     -706     -583     -519     -162      141      238 
     317       71     -486     -676     -391     -288     -460     -324 
      10       51      -21        6       -9     -183     -585     -859 
    -602     -197        9       74     -244     -830     -918     -400 
      95      214      -55     -332     -205     -109     -388     -395 
       5       79     -249     -480     -486     -456     -429     -263 
    -149     -454     -795     -616     -236     -122     -157     -116 
     -51      -35       36       74      -49     -141     -225     -402 
    -346      -43      226      383      190     -363     -760     -726 
    -422     -175     -257     -430     -333     -191     -297     -407 
    -295     -189     -383     -830    -1059     -638      121      557 
     561      342       -1     -292     -423     -552     -691     -668 
    -533     -407     -348     -456     -585     -486     -392     -450 
    -310       -6      132      272      587      733      346     -330 
    -579     -298     -124     -238     -472     -793     -888     -584 
    -275     -148      -39      102      284      631     1212     1695 
    1647     1078      213     -689    -1135     -886     -313      276 
     918     1495     1732     1572     1020     -132    -2015    -4125 
   -5358    -5143    -3969    -2394     -577     1166     2374     2867 
    2596     1536      -82    -1937    -3559    -4033    -2982    -1312 
      21      641      122    -1478    -3154    -3889    -3242    -1510 
     261     1374     1927     1767      676     -708    -1665    -1884 
    -881     1393     3842     5282     5463     4661     3203     1480 
    -112    -1082    -1143     -955    -1277    -1705    -1799    -2193 
   -3230    -4164    -4395    -3952    -2894    -1287      661     2490 
    3269     2614     1341       29    -1271    -1794     -791     1314 
    3504     4695     4337     3082     1676       79    -1487    -2536 
   -3470    -4855    -6249    -6943    -6828    -6158    -5062    -3366 
   -1088     1206     2949     3943     4144     3723     3156     2897 
    3122     3693     4268     4473     4086     3235     2199     1065 
    -222    -1671    -2938    -3474    -3310    -3090    -3157    -3254 
   -3091    -2857    -2890    -3111    -3246    -3167    -2899    -2330 
    -999     1093     3092     4307     4561     3846     2560     1455 
    1082     1475     2003     1910     1216      448     -499    -2006 
   -3357    -3350    -2088     -876     -526     -816    -1583    -2926 
   -4162    -4288    -3442    -2539    -1899    -1077       13      750 
    1208     2151     3184     3272     2787     2921     3651     3838 
    3226     2529     1594     -213    -2322    -3734    -4560    -5333 
   -5742    -5125    -3669    -2250    -1277     -608     -364     -507 
    -175     1161     2822     4101     4814     4569     3140     1215 
    -210     -542      210     1210     1456     1058      704      175 
    -920    -1929    -2353    -2732    -3483    -4199    -4325    -3987 
   -3723    -3360    -2308     -681     1048     2760     4163     4646 
    4294     3856     3325     2010       89    -1410    -2046    -2161 
   -1850     -989     -103       14     -711    -1802    -2894    -3565 
   -3127    -1629     -106      858     1294      831     -634    -2259 
   -3196    -3006    -1510      688     2454     3210     3086     2342 
    1171      -17     -600     -507     -342     -298     -105        8 
    -295     -773    -1161    -1467    -1505    -1058     -348      321 
     843      965      369     -746    -1745    -2226    -2280    -2061 
   -1495     -589      400     1269     2043     2590     2473     1800 
    1217      765      290      201      527      626      248     -379 
   -1067    -1572    -1796    -1969    -2110    -2047    -1773    -1233 
    -449      233      562      599      336     -425    -1443    -1863 
   -1347     -521       90      463      603      463      103     -324 
    -757    -1071     -924     -382      -25       49      342     1005 
    1610     1834     1811     1561      868     -156    -1236    -2246 
   -2932    -3063    -2695    -1935     -903        6      344       97 
    -334     -561     -446     -156      -44     -306     -629     -423 
     276      710      564      387      631     1151     1655     1941 
    1714      847     -112     -542     -720    -1089    -1339    -1324 
   -1556    -2114    -2412    -2157    -1586     -978     -513     -270 
    -135       12      166      380      706      962      851      364 
     -95     -297     -503     -841    -1026     -978    -1008    -1258 
   -1486    -1359     -751       52      598      757      734      751 
     876      967      967     1067     1138      764       55     -496 
    -720     -702     -440       17      307      199        9     -190 
    -837    -1709    -1949    -1510    -1096     -869     -599     -484 
    -735    -1115    -1426    -1642    -1641    -1410    -1080     -626 
      31      727     1162     1359     1516     1460     1073      664 
     396      271      287      197     -135     -553     -994    -1344 
   -1443    -1312     -935     -248      576     1227     1505     1289 
     634     -108     -666     -997    -1050     -882     -746     -923 
   -1476    -1922    -1783    -1345     -984     -508      114      571 
     832     1055     1009      357     -700    -1551    -1894    -1876 
   -1582     -865      143      978     1452     1680     1617     1259 
     973      878      602      102     -213     -249     -199     -210 
    -438     -864    -1221    -1405    -1463    -1324    -1082    -1054 
   -1134     -922     -508     -172      126      292       40     -496 
    -901     -967     -637        1      557      723      625      503 
     506      681      772      456     -222    -1000    -1583    -1786 
   -1703    -1560    -1371    -1000     -492      -94       62       89 
     149      191       56      -49       95      189       27      -76 
      58      290      521      662      616      465      267      -75 
    -406     -471     -422     -502     -733    -1158    -1625    -1632 
   -1084     -527     -280      -35      502     1098     1412     1499 
    1482     1248      857      427     -159     -862    -1440    -1864 
   -2169    -2307    -2238    -2012    -1780    -1524    -1163     -945 
    -982     -899     -556     -209      198      853     1517     1918 
    2083     1969     1474      696     -132     -735     -897     -734 
    -495     -214      -20     -230     -749    -1161    -1410    -1530 
   -1259     -641     -118      164      341      444      498      488 
     361      279      355      436      473      456      199     -225 
    -522     -700     -850     -923     -959     -901     -583     -163 
      52       68      -62     -530    -1235    -1733    -2006    -2261 
   -2226    -1648     -801       22      783     1382     1664     1611 
    1301      870      444        4     -514    -1054    -1462    -1587 
   -1343     -753      -86      301      411      521      665      673 
     463      126     -175     -422     -653     -730     -610     -484 
    -453     -500     -558     -426      -40      380      599      507 
     155     -157     -224     -334     -792    -1378    -1813    -2062 
   -2065    -1733    -1117     -476     -148      -93       76      396 
     550      546      537      380       54     -224     -419     -572 
    -523     -136      441      765      534       63     -199     -346 
    -571     -679     -594     -531     -510     -403     -232      -25 
     236      461      484      288       90      122      303      294 
     -28     -472     -954    -1460    -1748    -1753    -1718    -1551 
    -997     -373     -145     -199     -305     -491     -575     -187 
