Origin Time       2024/06/23 22:54:00
Lat.              35.645
Long.             140.060
Depth. (km)       72
Mag.              4.1
Station Code      TKY024
Station Lat.      35.7422
Station Long.     139.8612
Station Height(m) 3
Record Time       2024/06/23 22:54:45
Sampling Freq(Hz) 100Hz
Duration Time(s)  60
Dir.              U-D
Scale Factor      7845(gal)/8223790
Max. Acc. (gal)   2.533
Last Correction   2024/06/23 22:54:44
Memo.             
[...]
    8549     8537     8526     8523     8530     8537     8542     8541 
    8537     8532     8525     8534     8557     8561     8549     8540 
    8525     8503     8495     8517     8546     8548     8525     8507 
    8514     8542     8576     8607     8610     8571     8521     8487 
    8487     8515     8549     8573     8569     8537     8513     8510 
    8523     8550     8568     8560     8541     8527     8527     8527 
    8526     8530     8529     8527     8532     8534     8542     8557 
    8573     8579     8560     8529     8510     8509     8529     8552 
    8549     8538     8540     8540     8542     8546     8542     8538 
    8529     8525     8553     8584     8575     8527     8483     8472 
    8492     8534     8571     8580     8560     8527     8511     8523 
    8552     8572     8572     8564     8554     8544     8540     8544 
    8545     8548     8550     8544     8532     8533     8544     8548 
    8542     8536     8522     8510     8518     8536     8548     8553 
    8538     8517     8519     8536     8537     8532     8534     8536 
    8536     8553     8569     8556     8537     8533     8540     8545 
    8542     8542     8557     8563     8544     8521     8514     8523 
    8548     8571     8577     8571     8554     8525     8500     8505 
    8518     8527     8544     8559     8563     8557     8541     8517 
    8505     8510     8532     8553     8556     8545     8536     8534 
    8546     8564     8563     8550     8542     8533     8530     8544 
    8554     8553     8548     8541     8532     8519     8514     8519 
    8529     8549     8569     8560     8527     8505     8502     8510 
    8534     8569     8590     8568     8518     8486     8490     8530 
    8596     8629     8600     8544     8498     8483     8500     8533 
    8559     8565     8560     8538     8525     8538     8559     8556 
    8540     8529     8518     8507     8513     8526     8536     8542 
    8540     8536     8546     8552     8552     8556     8559     8554 
    8552     8545     8534     8523     8518     8522     8532     8540 
    8546     8549     8550     8553     8550     8532     8518     8526 
    8536     8537     8536     8529     8532     8552     8563     8552 
    8527     8505     8507     8544     8588     8591     8560     8530 
    8505     8500     8529     8549     8544     8536     8533     8548 
    8563     8563     8548     8526     8519     8529     8540     8548 
    8541     8526     8521     8530     8542     8545     8540     8529 
    8530     8538     8536     8533     8540     8544     8548     8554 
    8545     8525     8526     8538     8548     8556     8548     8542 
    8552     8556     8550     8554     8557     8554     8545     8523 
    8500     8499     8526     8567     8595     8588     8541     8496 
    8491     8511     8534     8545     8546     8549     8552     8550 
    8546     8537     8530     8542     8564     8575     8569     8568 
    8564     8550     8538     8533     8533     8544     8563     8563 
    8546     8548     8563     8554     8514     8464     8432     8421 
    8433     8475     8534     8575     8571     8532     8498     8537 
    8633     8661     8586     8505     8495     8559     8627     8568 
    8325     8086     8090     8322     8556     8680     8765     8834 
    8831     8784     8816     8974     9062     8773     8154     7701 
    7785     8260     8822     9258     9294     8776     8063     7785 
    8159     8727     8814     8290     7774     7898     8556     9097 
    9193     9104     9073     8995     8766     8595     8627     8545 
    8121     7838     8106     8498     8592     8618     8726     8729 
    8554     8305     8201     8482     8968     8993     8317     7649 
    7695     8298     8918     9202     9107     8869     8768     8749 
    8522     8041     7654     7782     8469     9184     9352     9018 
    8532     8191     8249     8461     8397     8378     8820     9243 
    9039     8394     7831     7681     8056     8681     9081     9105 
    8962     8829     8642     8414     8306     8230     8237     8448 
    8405     8010     7997     8580     9154     9212     8891     8657 
    8519     8259     8141     8367     8630     8631     8398     8293 
    8586     9011     9101     8642     8020     7969     8430     8714 
    8718     8640     8491     8490     8680     8715     8626     8762 
    8972     8812     8387     8141     8145     8193     8125     7952 
    7990     8498     9165     9437     9212     8885     8726     8653 
    8565     8402     8148     8016     8212     8536     8638     8556 
    8567     8648     8536     8235     8121     8451     8962     9186 
    8946     8498     8206     8122     8182     8457     8729     8641 
    8368     8352     8671     8985     8784     8117     7869     8469 
    9185     9286     8793     8131     7894     8372     9005     9090 
    8780     8658     8756     8571     7992     7576     7743     8347 
    8977     9277     9196     8851     8333     7925     7993     8445 
    8838     8991     9053     9112     8989     8472     7769     7457 
    7788     8347     8714     8911     8961     8843     8703     8521 
    8225     8125     8537     9103     9201     8829     8487     8426 
    8429     8244     8073     8329     8887     9170     8934     8490 
    8225     8181     8217     8322     8564     8868     9031     8922 
    8533     8031     7759     7916     8415     8992     9248     9026 
    8511     7994     7936     8482     8916     8715     8370     8405 
    8630     8695     8598     8484     8471     8640     8806     8711 
    8581     8716     8787     8399     7955     8079     8692     9244 
    9269     8668     7943     7692     7874     8178     8486     8708 
    8839     8981     9011     8772     8386     7952     7589     7717 
    8457     9121     9107     8785     8764     8911     8869     8731 
    8672     8607     8507     8529     8691     8834     8776     8418 
    7993     7834     7940     8314     8861     9143     9084     9001 
    8955     8791     8379     7913     7846     8240     8695     8829 
    8499     7936     7709     8159     8954     9431     9188     8490 
    8000     7943     8082     8417     9024     9510     9474     9022 
    8376     7736     7568     8083     8752     8976     8866     8853 
    8950     8959     8851     8510     7879     7427     7620     8291 
    8935     9213     9188     9076     8881     8483     7901     7371 
    7246     7858     9013     9801     9670     9121     8694     8322 
    7996     7932     8127     8445     8834     9074     8853     8309 
    8074     8471     9072     9265     8841     8159     7866     8125 
    8554     9000     9394     9229     8361     7615     7670     8174 
    8581     8947     9209     8885     8118     7751     8062     8507 
    8669     8689     8758     8853     8895     8718     8301     7974 
    8110     8722     9224     9130     8823     8652     8397     8124 
    7997     7954     8152     8572     8834     8991     9297     9459 
    9070     8359     7898     7844     8060     8657     9535     9909 
    9231     7928     6902     6924     8017     9109     9146     8576 
    8594     9229     9520     8951     7902     7344     7817     8625 
    8853     8517     8164     8256     8784     9207     8958     8225 
    7901     8320     8815     8849     8549     8309     8410     8765 
    9045     9101     8873     8236     7457     7252     7786     8361 
    8640     9123     9957    10473    10092     8968     7983     7815 
    7998     7815     7441     7545     8274     8883     8783     8491 
    8611     8978     9273     9220     8652     8020     7889     8010 
    7878     7707     7950     8525     9030     9175     8941     8602 
    8459     8596     8851     8957     8833     8473     7896     7569 
    7993     8895     9701    10092     9926     9363     8665     7981 
    7526     7310     7272     7618     8226     8652     8829     8937 
    8949     8802     8644     8695     8937     9009     8617     8021 
    7863     8226     8487     8376     8356     8694     9008     8864 
    8564     8753     9293     9509     9162     8588     8205     8051 
    7979     8163     8753     9316     9194     8353     7599     7523 
    7755     7923     8163     8479     8710     8822     8880     8829 
    8614     8554     8900     9275     9223     8810     8456     8290 
    8031     7708     7754     8222     8760     9059     8935     8575 
    8459     8617     8739     8829     8942     8819     8380     8060 
    8228     8662     8829     8492     8035     7974     8208     8249 
    8041     8037     8510     9076     9192     9007     8993     9043 
    8850     8580     8510     8614     8662     8502     8239     7990 
    7865     8122     8625     8900     8930     8864     8702     8541 
    8442     8394     8471     8642     8648     8375     8141     8239 
    8486     8739     9085     9286     9038     8610     8356     8201 
    7975     7715     7736     8286     8986     9302     9254     9200 
    9289     9327     9081     8500     7735     7145     7044     7418 
    8066     8668     9047     9398     9680     9509     8962     8525 
    8398     8398     8243     7812     7441     7713     8478     8889 
    8761     8617     8622     8675     8845     9085     9143     8845 
    8228     7618     7539     8147     8939     9383     9386     9040 
    8556     8216     8104     8156     8293     8465     8669     8847 
    8877     8650     8244     8064     8430     8914     8833     8401 
    8336     8622     8726     8563     8442     8487     8557     8658 
    8957     9293     9273     8846     8309     7986     7973     8012 
    7977     8139     8630     9162     9309     8953     8438     8216 
    8386     8627     8607     8386     8299     8500     8719     8710 
    8583     8441     8310     8384     8629     8633     8256     7813 
    7663     7929     8403     8648     8415     8035     8094     8625 
    9035     8985     8787     8795     8953     9067     8966     8503 
    7834     7503     7859     8467     8691     8695     9018     9603 
    9883     9518     8803     8251     8050     8132     8405     8748 
    8895     8572     7969     7576     7672     8263     8950     9070 
    8623     8336     8588     8883     8644     8185     8210     8611 
    8819     8703     8522     8534     8613     8515     8437     8545 
    8648     8718     8928     9271     9514     9401     8824     8027 
    7581     7782     8237     8432     8270     7985     7898     8085 
    8299     8413     8613     9058     9521     9574     9134     8519 
    8037     7835     7884     8047     8278     8479     8456     8307 
    8340     8567     8779     8862     8891     8974     8996     8787 
    8507     8442     8511     8302     7846     7823     8537     9405 
    9693     9188     8343     7921     8220     8780     9043     8964 
    8689     8329     8089     8054     8113     8237     8421     8617 
    8742     8633     8293     8132     8455     8893     9009     8949 
    8916     8797     8552     8244     7877     7582     7630     8033 
    8440     8549     8522     8818     9489     9880     9440     8594 
    8249     8540     8738     8460     8129     8162     8388     8469 
    8490     8748     9138     9262     8934     8262     7541     7140 
    7277     7851     8525     9015     9261     9389     9483     9421 
    9061     8478     8041     8145     8667     9015     8788     8202 
    7861     8055     8472     8753     8853     8866     8833     8681 
    8355     7954     7713     7863     8390     8974     9328     9447 
    9389     9124     8722     8311     7939     7665     7570     7686 
    7990     8326     8710     9362    10019    10137     9721     9073 
    8289     7460     6951     7109     7731     8233     8329     8247 
    8467     9063     9474     9374     9057     8665     8124     7693 
    7724     8048     8190     8064     7959     8144     8742     9506 
    9918     9871     9705     9518     9177     8716     8212     7678 
    7276     7229     7619     8347     9024     9165     8743     8251 
    8190     8611     9013     8812     8100     7605     7655     7824 
    7933     8414     9352    10129    10354    10243     9937     9324 
    8471     7732     7453     7697     8164     8500     8662     8818 
    9027     9140     8895     8309     7803     7635     7655     7781 
    8129     8721     9363     9667     9335     8622     8108     8059 
    8176     8094     7998     8066     8009     7819     7777     7815 
    7790     7911     8455     9414    10455    11117    11121    10511 
    9485     8306     7256     6457     5946     5906     6494     7522 
    8506     9120     9462     9872    10396    10550     9960     8901 
    7942     7435     7427     7701     7982     8158     8357     8765 
    9267     9648     9913     9991     9666     8976     8290     7785 
    7236     6751     6943     7852     8673     8803     8442     8127 
    8043     8024     8047     8226     8587     9108     9653    10018 
   10056     9655     8959     8432     8324     8546     8997     9506 
    9790     9688     9194     8410     7587     7090     7215     7898 
    8687     9143     9127     8775     8271     7680     7067     6567 
    6278     6250     6482     6990     7812     8819     9810    10677 
   11194    11191    10891    10559    10137     9510     8810     8260 
    7950     7900     8009     7923     7468     6991     6903     7187 
    7558     7825     7978     8083     8290     8707     9188     9424 
    9256     8834     8446     8311     8546     9099     9612     9691 
    9313     8846     8654     8734     8784     8668     8579     8649 
    8695     8595     8486     8351     8009     7564     7312     7404 
    7722     8002     8214     8560     9065     9497     9567     9228 
    8745     8403     8328     8506     8757     8860     8789     8691 
    8631     8541     8432     8403     8455     8608     8876     8984 
    8681     8191     7981     8170     8449     8573     8590     8673 
    8900     9072     8957     8567     8027     7580     7520     7784 
    8102     8428     8775     9099     9382     9516     9416     9155 
    8741     8160     7605     7317     7408     7800     8263     8653 
    8924     9027     9030     9081     9204     9269     9157     8969 
    8876     8814     8645     8442     8313     8226     8145     8071 
    7927     7595     7209     7191     7766     8657     9316     9481 
    9378     9158     8725     8278     8216     8581     9057     9281 
    9143     8858     8641     8417     8132     8010     8185     8468 
    8722     9016     9324     9397     9154     8807     8448     7985 
    7503     7281     7470     7921     8337     8575     8730     8884 
    8934     8835     8788     8928     9136     9294     9351     9209 
    8804     8230     7754     7497     7281     7034     7002     7425 
    8228     9020     9466     9517     9247     8820     8525     8561 
    8835     9062     9058     8896     8779     8856     9047     9096 
    8858     8449     8060     7751     7491     7372     7553     8029 
    8664     9194     9320     8985     8428     8012     8014     8379 
    8849     9225     9356     9119     8622     8263     8318     8619 
    8827     8797     8607     8397     8245     8224     8338     8445 
    8438     8409     8426     8425     8387     8461     8797     9329 
    9829    10104    10015     9531     8872     8332     7987     7798 
    7743     7765     7852     8029     8181     8189     8101     8020 
    7931     7757     7605     7747     8226     8795     9297     9752 
   10046     9975     9613     9243     8931     8614     8363     8233 
    8087     7777     7395     7196     7307     7676     8206     8753 
    9136     9224     8993     8596     8266     8085     8043     8198 
    8510     8712     8588     8259     8075     8248     8629     8953 
    9136     9229     9294     9340     9321     9177     8924     8787 
    8946     9193     9197     8973     8752     8586     8341     7929 
    7524     7483     7862     8298     8532     8611     8581     8370 
    8016     7754     7734     7862     7975     8062     8266     8699 
    9250     9691     9921     9902     9634     9266     8928     8563 
    8145     7879     7884     8001     8120     8299     8515     8571 
    8386     8147     8036     8070     8259     8552     8816     8959 
    8896     8615     8294     8098     8064     8248     8625     8918 
    8861     8519     8167     7982     7884     7803     7901     8239 
    8572     8779     9005     9339     9641     9761     9702     9463 
    9011     8449     7956     7661     7669     7917     8164     8370 
    8718     9153     9360     9212     8887     8650     8614     8664 
    8671     8657     8734     8920     9016     8845     8451     8008 
    7724     7663     7732     7908     8122     8260     8422     8722 
    9015     9109     9038     8982     8982     8885     8583     8141 
    7792     7708     7850     8075     8259     8353     8337     8248 
    8280     8472     8583     8509     8344     8191     8079     8009 
    8108     8505     9020     9331     9383     9425     9602     9710 
    9521     9163     8927     8820     8640     8306     7938     7713 
    7728     7933     8183     8344     8403     8483     8672     8888 
    9012     8938     8586     8135     7909     7965     8121     8253 
    8391     8641     9008     9343     9504     9485     9413     9289 
    8941     8411     7970     7800     7898     8078     8171     8222 
    8302     8418     8546     8573     8486     8445     8563     8726 
    8738     8572     8387     8275     8251     8307     8348     8332 
    8328     8349     8376     8444     8554     8665     8750     8815 
    8883     8950     8992     9055     9139     9073     8739     8293 
    8025     8052     8216     8333     8320     8218     8266     8622 
    9034     9119     8822     8386     8051     7886     7834     7862 
    8081     8559     9073     9281     9134     8847     8610     8476 
    8421     8413     8457     8513     8517     8526     8627     8760 
    8819     8788     8673     8502     8355     8255     8147     8041 
    7993     7996     8071     8257     8503     8738     8942     9096 
    9193     9224     9136     8935     8764     8762     8857     8877 
    8824     8775     8699     8541     8340     8236     8322     8473 
    8463     8283     8118     8052     8031     8040     8147     8326 
    8453     8483     8469     8463     8494     8532     8523     8527 
    8610     8711     8757     8752     8672     8509     8357     8394 
    8704     9120     9317     9131     8748     8503     8530     8706 
    8841     8823     8680     8483     8271     8117     8106     8201 
    8307     8414     8525     8575     8569     8573     8591     8611 
    8602     8517     8426     8438     8529     8596     8613     8590 
    8471     8276     8109     7962     7820     7792     7947     8205 
    8457     8675     8865     9049     9208     9244     9146     9054 
    9040     9000     8823     8505     8160     7948     7931     8039 
