Origin Time       2024/06/23 22:54:00
Lat.              35.645
Long.             140.060
Depth. (km)       72
Mag.              4.1
Station Code      TKY003
Station Lat.      35.7968
Station Long.     139.2916
Station Height(m) 179
Record Time       2024/06/23 22:54:51
Sampling Freq(Hz) 100Hz
Duration Time(s)  60
Dir.              N-S
Scale Factor      7845(gal)/8223790
Max. Acc. (gal)   1.314
Last Correction   2024/06/23 22:54:50
Memo.             
[...]
   -6947    -6947    -6944    -6941    -6940    -6936    -6932    -6937 
   -6943    -6944    -6947    -6947    -6948    -6948    -6943    -6937 
   -6939    -6937    -6937    -6941    -6941    -6937    -6939    -6941 
   -6945    -6947    -6943    -6937    -6936    -6940    -6943    -6939 
   -6937    -6940    -6941    -6941    -6944    -6948    -6949    -6949 
   -6948    -6944    -6939    -6936    -6937    -6940    -6940    -6940 
   -6944    -6947    -6949    -6949    -6945    -6940    -6936    -6934 
   -6934    -6937    -6943    -6945    -6944    -6943    -6941    -6943 
   -6944    -6943    -6940    -6940    -6937    -6937    -6941    -6943 
   -6939    -6936    -6936    -6939    -6944    -6948    -6947    -6945 
   -6945    -6945    -6947    -6945    -6947    -6949    -6948    -6944 
   -6943    -6944    -6944    -6943    -6943    -6945    -6940    -6932 
   -6933    -6939    -6939    -6937    -6943    -6948    -6948    -6945 
   -6943    -6939    -6934    -6936    -6939    -6939    -6943    -6944 
   -6944    -6948    -6948    -6944    -6941    -6939    -6937    -6939 
   -6939    -6934    -6936    -6941    -6947    -6948    -6945    -6947 
   -6947    -6943    -6940    -6939    -6937    -6936    -6937    -6943 
   -6941    -6939    -6940    -6941    -6944    -6948    -6948    -6944 
   -6940    -6937    -6936    -6937    -6940    -6943    -6941    -6941 
   -6944    -6943    -6943    -6943    -6943    -6941    -6940    -6940 
   -6944    -6944    -6943    -6943    -6945    -6947    -6944    -6940 
   -6937    -6939    -6943    -6943    -6941    -6943    -6943    -6941 
   -6940    -6934    -6930    -6934    -6940    -6945    -6951    -6953 
   -6955    -6956    -6956    -6957    -6955    -6944    -6925    -6916 
   -6924    -6940    -6959    -6974    -6967    -6940    -6917    -6920 
   -6936    -6933    -6917    -6899    -6875    -6871    -6917    -6997 
   -7069    -7095    -7068    -7003    -6912    -6836    -6841    -6917 
   -6984    -6999    -6978    -6953    -6929    -6889    -6871    -6906 
   -6940    -6940    -6932    -6906    -6878    -6922    -7049    -7152 
   -7121    -6953    -6771    -6705    -6779    -6907    -6999    -7014 
   -6918    -6741    -6648    -6763    -7032    -7292    -7384    -7257 
   -6967    -6627    -6424    -6551    -7001    -7477    -7641    -7434 
   -7047    -6639    -6385    -6504    -6918    -7238    -7204    -6909 
   -6624    -6542    -6670    -6905    -7153    -7371    -7411    -7161 
   -6797    -6562    -6521    -6659    -6936    -7222    -7357    -7233 
   -6928    -6720    -6740    -6859    -6956    -7013    -7026    -6943 
   -6754    -6637    -6752    -7014    -7256    -7400    -7433    -7348 
   -7110    -6759    -6509    -6509    -6700    -6924    -7051    -7067 
   -6975    -6750    -6561    -6625    -6835    -6956    -7002    -7088 
   -7161    -7086    -6906    -6816    -6889    -7005    -7060    -7129 
   -7218    -7130    -6808    -6542    -6592    -6829    -6998    -7126 
   -7312    -7416    -7268    -6957    -6733    -6700    -6805    -6922 
   -6998    -7068    -7029    -6805    -6655    -6789    -7021    -7088 
   -6993    -6852    -6698    -6579    -6628    -6863    -7150    -7350 
   -7366    -7217    -7053    -6924    -6793    -6735    -6791    -6840 
   -6785    -6708    -6735    -6853    -7024    -7209    -7321    -7348 
   -7334    -7180    -6829    -6509    -6458    -6605    -6789    -6979 
   -7144    -7186    -7111    -7063    -7109    -7152    -7107    -6960 
   -6727    -6548    -6583    -6748    -6894    -7036    -7141    -7090 
   -6972    -6936    -6918    -6855    -6798    -6781    -6787    -6855 
   -7022    -7173    -7214    -7229    -7226    -7153    -7084    -7034 
   -6874    -6651    -6583    -6660    -6723    -6774    -6856    -6917 
   -6988    -7125    -7196    -7088    -6932    -6852    -6813    -6841 
   -6966    -7025    -6959    -6963    -7053    -6994    -6814    -6771 
   -6849    -6933    -7037    -7069    -6926    -6758    -6732    -6839 
   -7040    -7241    -7257    -7071    -6882    -6813    -6804    -6808 
   -6872    -6998    -7138    -7242    -7202    -7010    -6841    -6797 
   -6818    -6859    -6891    -6864    -6821    -6853    -6924    -6948 
   -6947    -6979    -7063    -7141    -7114    -6984    -6890    -6890 
   -6895    -6862    -6848    -6887    -6964    -7061    -7113    -7047 
   -6887    -6723    -6650    -6736    -6925    -7037    -6986    -6916 
   -6970    -7037    -7020    -7026    -7061    -7002    -6885    -6825 
   -6822    -6818    -6790    -6790    -6890    -7037    -7092    -7024 
   -6947    -6961    -6995    -6975    -6987    -7030    -6943    -6745 
   -6679    -6829    -7051    -7200    -7210    -7111    -7018    -6970 
   -6910    -6866    -6921    -7024    -7020    -6898    -6787    -6740 
   -6720    -6783    -6998    -7225    -7250    -7088    -6921    -6839 
   -6798    -6755    -6752    -6864    -7042    -7128    -7057    -6941 
   -6878    -6863    -6926    -7060    -7087    -6925    -6731    -6644 
   -6678    -6831    -7040    -7150    -7102    -6975    -6835    -6723 
   -6724    -6845    -6976    -7033    -6994    -6879    -6840    -6988 
   -7179    -7246    -7263    -7263    -7134    -6936    -6876    -6974 
   -7065    -7101    -7130    -7150    -7126    -7036    -6882    -6775 
   -6791    -6787    -6636    -6475    -6469    -6550    -6620    -6724 
   -6895    -7022    -7025    -6964    -6914    -6889    -6890    -6909 
   -6957    -7029    -7049    -7006    -6987    -7059    -7191    -7279 
   -7244    -7107    -6939    -6812    -6802    -6907    -7034    -7107 
   -7092    -7025    -6984    -6991    -7009    -6994    -6932    -6863 
   -6816    -6767    -6747    -6814    -6913    -6947    -6901    -6820 
   -6782    -6816    -6862    -6874    -6859    -6843    -6886    -7033 
   -7213    -7306    -7248    -7083    -6955    -6951    -6995    -7005 
   -6983    -6978    -7033    -7090    -7048    -6948    -6862    -6802 
   -6801    -6858    -6856    -6740    -6633    -6659    -6805    -6966 
   -7045    -7047    -7010    -6949    -6886    -6829    -6770    -6706 
   -6658    -6675    -6816    -7028    -7173    -7223    -7250    -7267 
   -7225    -7152    -7107    -7049    -6887    -6705    -6674    -6790 
   -6940    -7071    -7169    -7195    -7160    -7119    -7063    -6939 
   -6790    -6721    -6739    -6795    -6868    -6906    -6886    -6885 
   -6955    -7061    -7146    -7115    -6948    -6774    -6659    -6562 
   -6529    -6629    -6806    -6953    -7060    -7176    -7265    -7241 
   -7142    -7061    -6997    -6914    -6843    -6821    -6851    -6889 
   -6928    -7040    -7199    -7267    -7213    -7142    -7101    -7030 
   -6891    -6729    -6637    -6646    -6690    -6739    -6791    -6802 
   -6781    -6833    -6947    -6983    -6905    -6826    -6847    -6934 
   -6990    -7003    -7071    -7188    -7238    -7214    -7186    -7128 
   -6999    -6863    -6816    -6876    -6963    -7001    -7044    -7152 
   -7226    -7137    -6918    -6745    -6709    -6754    -6841    -6951 
   -6994    -6929    -6805    -6701    -6679    -6731    -6764    -6751 
   -6759    -6774    -6737    -6733    -6867    -7080    -7222    -7229 
   -7164    -7083    -6974    -6895    -6947    -7049    -7053    -7029 
   -7130    -7296    -7335    -7225    -7084    -6990    -6924    -6855 
   -6772    -6686    -6593    -6504    -6520    -6733    -7018    -7177 
   -7214    -7217    -7150    -6952    -6727    -6601    -6575    -6643 
   -6786    -6910    -6987    -7096    -7229    -7304    -7311    -7272 
   -7204    -7118    -6998    -6841    -6705    -6636    -6651    -6781 
   -7020    -7244    -7312    -7211    -7021    -6858    -6817    -6866 
   -6867    -6789    -6709    -6646    -6620    -6710    -6843    -6874 
   -6909    -7069    -7214    -7223    -7148    -7018    -6889    -6831 
   -6824    -6837    -6902    -7001    -7064    -7082    -7103    -7125 
   -7065    -6932    -6863    -6913    -6990    -6998    -6926    -6828 
   -6747    -6682    -6635    -6678    -6848    -7051    -7165    -7180 
   -7132    -7044    -6963    -6943    -6960    -6968    -6948    -6879 
   -6787    -6783    -6907    -7060    -7167    -7248    -7276    -7148 
   -6867    -6609    -6509    -6528    -6597    -6716    -6872    -6998 
   -7037    -7036    -7118    -7275    -7341    -7244    -7053    -6804 
   -6515    -6313    -6376    -6748    -7231    -7527    -7554    -7442 
   -7294    -7125    -6980    -6907    -6832    -6681    -6534    -6548 
   -6728    -6909    -6971    -6983    -7042    -7103    -7075    -6959 
   -6790    -6606    -6485    -6528    -6744    -6957    -7051    -7078 
   -7091    -7119    -7179    -7213    -7188    -7122    -7001    -6844 
   -6744    -6745    -6832    -6990    -7182    -7317    -7295    -7156 
   -7045    -7017    -7010    -6963    -6858    -6741    -6678    -6682 
   -6744    -6826    -6874    -6907    -7007    -7121    -7076    -6858 
   -6637    -6578    -6702    -6897    -7025    -7032    -6932    -6864 
   -6976    -7176    -7240    -7169    -7096    -7033    -6957    -6898 
   -6889    -6951    -7052    -7094    -7026    -6889    -6721    -6598 
   -6623    -6775    -6894    -6863    -6790    -6875    -7079    -7195 
   -7182    -7121    -7030    -6941    -6887    -6859    -6853    -6851 
   -6795    -6790    -6966    -7156    -7148    -7026    -6961    -6934 
   -6848    -6748    -6759    -6903    -7098    -7240    -7281    -7271 
   -7234    -7126    -6980    -6902    -6847    -6683    -6486    -6458 
   -6605    -6771    -6870    -6925    -6998    -7075    -7053    -6898 
   -6741    -6727    -6821    -6956    -7136    -7252    -7195    -7064 
   -7032    -7110    -7172    -7130    -6998    -6859    -6821    -6855 
   -6843    -6804    -6845    -6984    -7121    -7128    -6970    -6750 
   -6608    -6588    -6654    -6785    -6944    -7056    -7146    -7271 
   -7362    -7323    -7199    -7107    -7091    -7101    -7048    -6922 
   -6820    -6810    -6858    -6899    -6922    -6928    -6872    -6764 
   -6705    -6716    -6718    -6674    -6631    -6652    -6732    -6783 
   -6805    -6862    -6913    -6917    -6936    -6994    -7048    -7076 
   -7072    -7053    -7063    -7111    -7161    -7199    -7221    -7215 
   -7171    -7095    -7033    -7009    -7018    -7084    -7150    -7098 
   -6945    -6806    -6702    -6605    -6535    -6548    -6623    -6681 
   -6713    -6758    -6829    -6929    -7051    -7161    -7202    -7128 
   -6979    -6879    -6889    -6941    -6987    -7032    -7065    -7059 
   -7014    -6966    -6947    -6970    -7013    -7033    -6994    -6925 
   -6902    -6945    -7060    -7217    -7283    -7203    -7111    -7096 
   -7061    -6883    -6637    -6521    -6569    -6652    -6727    -6821 
   -6875    -6816    -6758    -6833    -6936    -6885    -6700    -6569 
   -6571    -6635    -6705    -6824    -7015    -7222    -7357    -7406 
   -7365    -7230    -7092    -7060    -7117    -7153    -7096    -7033 
   -7076    -7192    -7277    -7272    -7179    -7025    -6847    -6721 
   -6708    -6728    -6698    -6637    -6602    -6609    -6646    -6713 
   -6816    -6925    -6961    -6876    -6762    -6716    -6725    -6775 
   -6871    -6993    -7117    -7249    -7391    -7465    -7415    -7308 
   -7230    -7194    -7136    -6999    -6849    -6759    -6712    -6706 
   -6770    -6895    -6990    -6963    -6870    -6785    -6642    -6442 
   -6358    -6463    -6646    -6847    -7061    -7219    -7265    -7225 
   -7165    -7141    -7117    -7026    -6898    -6809    -6763    -6760 
   -6876    -7164    -7449    -7511    -7383    -7173    -6918    -6669 
   -6500    -6448    -6524    -6681    -6845    -7011    -7200    -7353 
   -7385    -7329    -7246    -7098    -6821    -6513    -6326    -6270 
   -6316    -6486    -6729    -6937    -7057    -7071    -7015    -6984 
   -7018    -7123    -7257    -7334    -7352    -7395    -7512    -7635 
   -7684    -7696    -7686    -7578    -7322    -6966    -6602    -6300 
   -6079    -5965    -5961    -6012    -6064    -6143    -6286    -6430 
   -6505    -6531    -6563    -6674    -6866    -7083    -7300    -7454 
   -7491    -7474    -7465    -7464    -7465    -7464    -7443    -7387 
   -7294    -7210    -7169    -7142    -7084    -7021    -6995    -7013 
   -7013    -6928    -6795    -6756    -6858    -7006    -7076    -6995 
   -6783    -6517    -6277    -6166    -6254    -6446    -6575    -6575 
   -6485    -6343    -6222    -6266    -6565    -6987    -7329    -7512 
   -7580    -7578    -7545    -7523    -7535    -7582    -7631    -7618 
   -7533    -7434    -7333    -7191    -7052    -6972    -6879    -6681 
   -6432    -6246    -6154    -6099    -6052    -6097    -6308    -6596 
   -6814    -6951    -7063    -7161    -7215    -7258    -7365    -7499 
   -7520    -7433    -7375    -7425    -7541    -7647    -7715    -7726 
   -7603    -7299    -6907    -6528    -6173    -5910    -5864    -5973 
   -6068    -6129    -6219    -6347    -6475    -6608    -6760    -6883 
   -6933    -6922    -6867    -6798    -6789    -6926    -7227    -7604 
   -7869    -7836    -7560    -7310    -7195    -7095    -6963    -6870 
   -6822    -6772    -6740    -6779    -6845    -6833    -6745    -6731 
   -6870    -7049    -7119    -7049    -6943    -6891    -6856    -6805 
   -6799    -6876    -7006    -7177    -7400    -7632    -7754    -7682 
   -7523    -7453    -7468    -7434    -7311    -7137    -6945    -6739 
   -6513    -6358    -6357    -6428    -6438    -6343    -6156    -5904 
   -5663    -5564    -5726    -6097    -6500    -6862    -7211    -7543 
   -7785    -7867    -7771    -7580    -7425    -7365    -7315    -7240 
   -7231    -7319    -7429    -7491    -7423    -7175    -6787    -6372 
   -6038    -5846    -5772    -5765    -5898    -6289    -6894    -7488 
   -7867    -8000    -7943    -7742    -7493    -7308    -7192    -7149 
   -7230    -7393    -7489    -7411    -7196    -6971    -6853    -6824 
   -6763    -6623    -6466    -6359    -6373    -6554    -6828    -7018 
   -7060    -7015    -6879    -6628    -6340    -6150    -6150    -6345 
   -6646    -6932    -7141    -7261    -7325    -7387    -7429    -7350 
   -7136    -6928    -6826    -6772    -6720    -6708    -6748    -6849 
   -7045    -7304    -7531    -7636    -7572    -7383    -7186    -7047 
   -6963    -6943    -6993    -7067    -7102    -7080    -6998    -6844 
   -6677    -6547    -6393    -6146    -5876    -5692    -5656    -5807 
   -6120    -6496    -6879    -7238    -7491    -7604    -7635    -7611 
   -7543    -7476    -7446    -7431    -7389    -7346    -7392    -7520 
   -7654    -7766    -7851    -7869    -7769    -7530    -7167    -6758 
   -6417    -6191    -6087    -6108    -6177    -6188    -6133    -6073 
   -6029    -6007    -6092    -6331    -6633    -6876    -7049    -7184 
   -7261    -7268    -7291    -7369    -7419    -7377    -7284    -7225 
   -7244    -7308    -7372    -7426    -7445    -7342    -7098    -6786 
   -6478    -6215    -6072    -6135    -6362    -6619    -6826    -6999 
   -7171    -7303    -7338    -7283    -7179    -7069    -7018    -7038 
   -7057    -7029    -7025    -7107    -7254    -7416    -7511    -7418 
   -7138    -6820    -6556    -6355    -6230    -6208    -6359    -6706 
   -7078    -7246    -7200    -7074    -6948    -6832    -6772    -6821 
   -6932    -7041    -7177    -7357    -7508    -7533    -7408    -7238 
   -7109    -6961    -6740    -6528    -6450    -6528    -6682    -6835 
   -6949    -6979    -6890    -6723    -6528    -6313    -6097    -5952 
   -5942    -6091    -6366    -6708    -7075    -7407    -7643    -7759 
   -7765    -7719    -7669    -7591    -7493    -7433    -7442    -7537 
   -7670    -7709    -7603    -7398    -7110    -6743    -6372    -6097 
   -5971    -5975    -6103    -6336    -6578    -6729    -6766    -6751 
   -6756    -6735    -6606    -6494    -6567    -6789    -7036    -7280 
   -7541    -7761    -7811    -7641    -7379    -7160    -6995    -6867 
   -6791    -6775    -6794    -6802    -6828    -6937    -7078    -7148 
   -7156    -7141    -7053    -6837    -6559    -6397    -6458    -6673 
   -6933    -7171    -7299    -7275    -7177    -7092    -7005    -6889 
   -6748    -6585    -6458    -6428    -6451    -6484    -6598    -6825 
   -7056    -7195    -7242    -7202    -7067    -6936    -6920    -7002 
   -7133    -7280    -7399    -7476    -7524    -7512    -7415    -7273 
   -7129    -6976    -6804    -6612    -6435    -6336    -6366    -6528 
   -6748    -6906    -6917    -6774    -6546    -6369    -6327    -6388 
   -6542    -6802    -7094    -7349    -7550    -7650    -7618    -7515 
   -7420    -7352    -7273    -7177    -7095    -7037    -7026    -7101 
   -7203    -7231    -7157    -6988    -6766    -6586    -6500    -6489 
   -6556    -6666    -6706    -6646    -6547    -6496    -6507    -6524 
   -6556    -6642    -6706    -6673    -6628    -6690    -6818    -6933 
   -7026    -7106    -7150    -7156    -7144    -7161    -7257    -7426 
   -7605    -7730    -7762    -7658    -7393    -7096    -6934    -6913 
   -6934    -6934    -6890    -6840    -6848    -6872    -6833    -6756 
   -6682    -6593    -6517    -6521    -6579    -6624    -6678    -6779 
   -6897    -6976    -6999    -6963    -6928    -6983    -7084    -7132 
   -7184    -7291    -7369    -7414    -7465    -7470    -7392    -7276 
   -7159    -7032    -6885    -6731    -6598    -6524    -6524    -6548 
   -6531    -6482    -6408    -6284    -6195    -6232    -6330    -6424 
   -6573    -6795    -7015    -7136    -7140    -7099    -7088    -7134 
   -7209    -7264    -7317    -7366    -7396    -7452    -7576    -7689 
   -7708    -7645    -7538    -7404    -7249    -7068    -6913    -6858 
   -6895    -6957    -6978    -6933    -6858    -6785    -6698    -6615 
   -6569    -6520    -6405    -6265    -6162    -6111    -6118    -6216 
   -6434    -6710    -6907    -6974    -6982    -6982    -7009    -7107 
   -7233    -7285    -7241    -7164    -7146    -7217    -7303    -7360 
   -7395    -7400    -7338    -7209    -7037    -6871    -6778    -6783 
   -6840    -6883    -6870    -6829    -6847    -6932    -7009    -6993 
   -6876    -6756    -6698    -6671    -6681    -6747    -6826    -6899 
   -6986    -7074    -7140    -7192    -7231    -7253    -7263    -7211 
   -7055    -6886    -6843    -6947    -7128    -7311    -7422    -7396 
   -7236    -7015    -6805    -6642    -6532    -6446    -6372    -6350 
   -6382    -6426    -6475    -6570    -6702    -6806    -6848    -6848 
   -6824    -6791    -6791    -6860    -7007    -7192    -7342    -7425 
   -7458    -7458    -7422    -7380    -7348    -7253    -7065    -6868 
   -6744    -6708    -6748    -6837    -6898    -6882    -6808    -6721 
   -6663    -6633    -6610    -6623    -6735    -6929    -7115    -7250 
   -7353    -7430    -7462    -7456    -7433    -7366    -7229    -7063 
   -6932    -6864    -6828    -6793    -6817    -6929    -6999    -6909 
   -6716    -6565    -6531    -6592    -6689    -6786    -6859    -6872 
   -6833    -6794    -6775    -6729    -6629    -6550    -6594    -6736 
   -6839    -6841    -6825    -6876    -6970    -7041    -7060    -7013 
   -6909    -6808    -6797    -6936    -7153    -7310    -7412    -7528 
   -7607    -7576    -7458    -7330    -7238    -7172    -7095    -7018 
   -6978    -6957    -6956    -7026    -7155    -7244    -7221    -7094 
