Origin Time       2024/06/23 22:54:00
Lat.              35.645
Long.             140.060
Depth. (km)       72
Mag.              4.1
Station Code      TKY027
Station Lat.      35.6930
Station Long.     139.8913
Station Height(m) 1
Record Time       2024/06/23 22:54:44
Sampling Freq(Hz) 100Hz
Duration Time(s)  60
Dir.              N-S
Scale Factor      7845(gal)/8223790
Max. Acc. (gal)   7.988
Last Correction   2024/06/23 22:54:44
Memo.             
[...]
   -3658    -3649    -3643    -3638    -3631    -3626    -3619    -3622 
   -3639    -3654    -3651    -3635    -3635    -3643    -3618    -3588 
   -3601    -3636    -3650    -3636    -3624    -3619    -3622    -3631 
   -3626    -3618    -3620    -3623    -3636    -3651    -3654    -3647 
   -3635    -3631    -3626    -3615    -3613    -3615    -3622    -3624 
   -3624    -3635    -3634    -3624    -3631    -3636    -3635    -3632 
   -3627    -3624    -3630    -3634    -3634    -3626    -3616    -3622 
   -3632    -3634    -3636    -3642    -3643    -3638    -3626    -3613 
   -3608    -3613    -3634    -3653    -3649    -3636    -3631    -3639 
   -3639    -3622    -3609    -3601    -3597    -3608    -3613    -3616 
   -3628    -3639    -3635    -3622    -3616    -3616    -3612    -3624 
   -3650    -3655    -3638    -3620    -3627    -3646    -3636    -3607 
   -3611    -3640    -3647    -3632    -3620    -3615    -3613    -3612 
   -3623    -3638    -3635    -3622    -3600    -3589    -3591    -3577 
   -3577    -3609    -3647    -3657    -3624    -3618    -3659    -3682 
   -3654    -3603    -3572    -3603    -3669    -3682    -3631    -3618 
   -3659    -3682    -3676    -3649    -3607    -3589    -3595    -3595 
   -3604    -3636    -3636    -3593    -3586    -3618    -3645    -3657 
   -3655    -3663    -3658    -3615    -3586    -3600    -3616    -3605 
   -3577    -3561    -3593    -3676    -3723    -3686    -3618    -3562 
   -3549    -3574    -3600    -3640    -3696    -3699    -3642    -3593 
   -3599    -3626    -3647    -3663    -3636    -3576    -3564    -3609 
   -3667    -3667    -3603    -3573    -3601    -3632    -3651    -3663 
   -3655    -3619    -3581    -3580    -3600    -3622    -3646    -3669 
   -3676    -3649    -3613    -3601    -3616    -3632    -3619    -3600 
   -3608    -3634    -3659    -3654    -3631    -3619    -3611    -3624 
   -3659    -3681    -3661    -3608    -3585    -3585    -3573    -3586 
   -3631    -3663    -3672    -3646    -3615    -3609    -3607    -3600 
   -3588    -3581    -3607    -3650    -3651    -3616    -3597    -3599 
   -3609    -3643    -3678    -3681    -3663    -3636    -3608    -3593 
   -3599    -3618    -3627    -3643    -3677    -3670    -3613    -3577 
   -3589    -3623    -3640    -3638    -3638    -3640    -3632    -3624 
   -3604    -3591    -3624    -3670    -3673    -3642    -3623    -3616 
   -3592    -3597    -3639    -3640    -3616    -3634    -3653    -3631 
   -3604    -3601    -3599    -3613    -3653    -3663    -3639    -3613 
   -3611    -3627    -3631    -3630    -3639    -3635    -3624    -3624 
   -3626    -3615    -3618    -3639    -3642    -3620    -3618    -3627 
   -3618    -3612    -3626    -3634    -3634    -3639    -3631    -3616 
   -3624    -3640    -3635    -3618    -3618    -3627    -3619    -3599 
   -3593    -3608    -3630    -3640    -3638    -3620    -3612    -3627 
   -3635    -3624    -3612    -3623    -3647    -3649    -3636    -3635 
   -3626    -3627    -3647    -3647    -3628    -3616    -3609    -3608 
   -3613    -3615    -3613    -3615    -3619    -3623    -3623    -3624 
   -3623    -3611    -3600    -3603    -3622    -3651    -3667    -3661 
   -3639    -3622    -3624    -3631    -3623    -3635    -3665    -3659 
   -3634    -3623    -3611    -3603    -3619    -3640    -3638    -3619 
   -3624    -3653    -3651    -3612    -3595    -3622    -3643    -3634 
   -3613    -3603    -3628    -3650    -3630    -3604    -3612    -3645 
   -3653    -3631    -3626    -3632    -3630    -3636    -3655    -3655 
   -3628    -3611    -3624    -3643    -3638    -3619    -3623    -3636 
   -3623    -3591    -3580    -3611    -3653    -3653    -3619    -3604 
   -3622    -3638    -3643    -3650    -3646    -3627    -3622    -3631 
   -3640    -3649    -3651    -3640    -3631    -3631    -3638    -3643 
   -3635    -3616    -3609    -3613    -3612    -3607    -3616    -3638 
   -3642    -3624    -3609    -3608    -3626    -3640    -3642    -3643 
   -3639    -3630    -3616    -3608    -3626    -3638    -3624    -3620 
   -3634    -3640    -3632    -3626    -3623    -3623    -3624    -3626 
   -3623    -3638    -3659    -3654    -3635    -3628    -3628    -3631 
   -3638    -3638    -3631    -3639    -3636    -3613    -3615    -3630 
   -3632    -3626    -3619    -3622    -3631    -3630    -3627    -3635 
   -3639    -3630    -3630    -3638    -3635    -3631    -3630    -3624 
   -3620    -3616    -3622    -3630    -3627    -3624    -3619    -3619 
   -3624    -3622    -3615    -3616    -3634    -3669    -3677    -3640 
   -3619    -3639    -3654    -3643    -3635    -3631    -3623    -3619 
   -3626    -3639    -3646    -3636    -3622    -3616    -3620    -3623 
   -3620    -3620    -3615    -3593    -3586    -3603    -3623    -3628 
   -3616    -3616    -3635    -3647    -3643    -3627    -3616    -3624 
   -3643    -3650    -3647    -3657    -3658    -3639    -3628    -3620 
   -3609    -3613    -3626    -3631    -3623    -3616    -3624    -3635 
   -3623    -3601    -3615    -3638    -3634    -3642    -3639    -3592 
   -3612    -3663    -3589    -3558    -3658    -3632    -3578    -3672 
   -3642    -3562    -3693    -3715    -3546    -3588    -3690    -3554 
   -3473    -3627    -3744    -3686    -3600    -3653    -3773    -3735 
   -3586    -3519    -3523    -3554    -3601    -3613    -3643    -3703 
   -3736    -3748    -3627    -3477    -3559    -3591    -3488    -3604 
   -3669    -3531    -3581    -3748    -3842    -3808    -3612    -3564 
   -3661    -3522    -3361    -3549    -3757    -3681    -3674    -3781 
   -3616    -3516    -3654    -3496    -3404    -3672    -3588    -3478 
   -3827    -3871    -3658    -3742    -3676    -3404    -3451    -3676 
   -3704    -3666    -3758    -3757    -3642    -3682    -3678    -3499 
   -3427    -3408    -3396    -3605    -3820    -3766    -3676    -3700 
   -3686    -3605    -3520    -3485    -3588    -3738    -3771    -3684 
   -3608    -3704    -3735    -3469    -3430    -3717    -3599    -3308 
   -3561    -3862    -3782    -3746    -3719    -3537    -3503    -3574 
   -3538    -3542    -3669    -3777    -3750    -3623    -3561    -3589 
   -3599    -3649    -3790    -3811    -3623    -3419    -3345    -3473 
   -3645    -3655    -3762    -3931    -3716    -3370    -3331    -3469 
   -3639    -3798    -3859    -3773    -3591    -3557    -3676    -3638 
   -3526    -3580    -3631    -3584    -3603    -3680    -3704    -3611 
   -3496    -3591    -3754    -3699    -3589    -3628    -3685    -3586 
   -3424    -3477    -3682    -3719    -3646    -3635    -3601    -3554 
   -3592    -3653    -3738    -3829    -3800    -3680    -3559    -3484 
   -3537    -3593    -3505    -3488    -3624    -3704    -3735    -3820 
   -3825    -3662    -3481    -3420    -3505    -3697    -3778    -3636 
   -3537    -3569    -3558    -3659    -3921    -3916    -3657    -3561 
   -3523    -3372    -3377    -3547    -3554    -3403    -3370    -3437 
   -3443    -3600    -3932    -4064    -4045    -4006    -3773    -3586 
   -3640    -3595    -3429    -3435    -3597    -3762    -3855    -3829 
   -3716    -3559    -3397    -3268    -3208    -3316    -3466    -3460 
   -3562    -3877    -4023    -4040    -4062    -3766    -3312    -3218 
   -3341    -3464    -3755    -4025    -3974    -3793    -3708    -3744 
   -3774    -3589    -3384    -3392    -3369    -3303    -3426    -3584 
   -3634    -3622    -3553    -3582    -3707    -3708    -3820    -4168 
   -4187    -3852    -3746    -3692    -3372    -3156    -3225    -3412 
   -3618    -3634    -3564    -3736    -3819    -3538    -3422    -3512 
   -3424    -3538    -3962    -4104    -3989    -3881    -3616    -3354 
   -3406    -3588    -3608    -3549    -3672    -3873    -3882    -3829 
   -3815    -3647    -3360    -3086    -2921    -3055    -3407    -3699 
   -3865    -4013    -4145    -4004    -3708    -3701    -3715    -3411 
   -3281    -3582    -3711    -3470    -3572    -3997    -3963    -3724 
   -3759    -3595    -3213    -3173    -3489    -3815    -3812    -3599 
   -3635    -3724    -3488    -3321    -3537    -3758    -3719    -3693 
   -3856    -3859    -3592    -3526    -3672    -3636    -3557    -3591 
   -3588    -3599    -3618    -3654    -3835    -3843    -3545    -3353 
   -3229    -3110    -3470    -4083    -4274    -4085    -3681    -3253 
   -3258    -3495    -3647    -4032    -4267    -3748    -3262    -3334 
   -3348    -3379    -3754    -3892    -3584    -3343    -3349    -3538 
   -3807    -3935    -3916    -3856    -3712    -3545    -3523    -3558 
   -3491    -3507    -3759    -3959    -4017    -4014    -3654    -3213 
   -3350    -3585    -3530    -3711    -3757    -3250    -3073    -3422 
   -3557    -3588    -3785    -3804    -3701    -3707    -3577    -3399 
   -3489    -3717    -3955    -4087    -3920    -3645    -3474    -3366 
   -3327    -3358    -3430    -3566    -3689    -3680    -3541    -3468 
   -3676    -3998    -4124    -4037    -3790    -3402    -3159    -3337 
   -3669    -3784    -3781    -3809    -3767    -3634    -3469    -3375 
   -3410    -3527    -3773    -4039    -3973    -3608    -3260    -3072 
   -3098    -3348    -3785    -4112    -4013    -3808    -3797    -3774 
   -3724    -3735    -3707    -3646    -3612    -3626    -3613    -3524 
   -3507    -3555    -3532    -3530    -3558    -3483    -3346    -3307 
   -3465    -3751    -4020    -4170    -4099    -3774    -3391    -3223 
   -3267    -3310    -3435    -3793    -4141    -4260    -4220    -4027 
   -3658    -3325    -3240    -3289    -3281    -3314    -3461    -3497 
   -3370    -3377    -3607    -3790    -3802    -3780    -3662    -3384 
   -3289    -3495    -3616    -3584    -3643    -3816    -4000    -4058 
   -3967    -3936    -3848    -3462    -3152    -3156    -3168    -3315 
   -3842    -4301    -4314    -4055    -3717    -3368    -3156    -3142 
   -3214    -3389    -3678    -3821    -3667    -3424    -3449    -3839 
   -4175    -4205    -4117    -3834    -3388    -3265    -3397    -3416 
   -3478    -3645    -3739    -3856    -4027    -4074    -3939    -3638 
   -3225    -2990    -3198    -3591    -3824    -3970    -4006    -3773 
   -3508    -3458    -3550    -3672    -3657    -3451    -3323    -3350 
   -3385    -3492    -3627    -3572    -3434    -3437    -3569    -3736 
   -3794    -3732    -3719    -3700    -3562    -3474    -3557    -3781 
   -4045    -3982    -3487    -3022    -2898    -3117    -3600    -4027 
   -4148    -4041    -3753    -3298    -3030    -3208    -3485    -3647 
   -3901    -4151    -4158    -3885    -3375    -2948    -2889    -3134 
   -3726    -4423    -4657    -4492    -4198    -3693    -3235    -3183 
   -3353    -3468    -3532    -3661    -3874    -4014    -3936    -3692 
   -3481    -3429    -3424    -3456    -3622    -3742    -3699    -3653 
   -3603    -3551    -3682    -3882    -3828    -3527    -3262    -3245 
   -3423    -3667    -3939    -4097    -4004    -3739    -3465    -3295 
   -3192    -3067    -3091    -3449    -3890    -4101    -4097    -3905 
   -3584    -3427    -3477    -3489    -3497    -3559    -3566    -3651 
   -3838    -3811    -3622    -3541    -3496    -3446    -3489    -3524 
   -3510    -3564    -3562    -3445    -3420    -3450    -3526    -3820 
   -4087    -4131    -4098    -3910    -3650    -3613    -3631    -3685 
   -3975    -4081    -3790    -3573    -3547    -3651    -3908    -3948 
   -3543    -3051    -2793    -2798    -3028    -3370    -3634    -3801 
   -3986    -4060    -3867    -3646    -3612    -3612    -3574    -3626 
   -3705    -3748    -3847    -3871    -3678    -3438    -3291    -3315 
   -3507    -3611    -3613    -3790    -4029    -3990    -3682    -3403 
   -3354    -3469    -3657    -3939    -4121    -4024    -3897    -3761 
   -3418    -3235    -3416    -3545    -3585    -3658    -3530    -3262 
   -3133    -3248    -3634    -4027    -4141    -4102    -3975    -3719 
   -3503    -3412    -3375    -3330    -3264    -3318    -3464    -3566 
   -3873    -4307    -4341    -3973    -3484    -3086    -3055    -3262 
   -3410    -3609    -3835    -3848    -3778    -3726    -3623    -3696 
   -3977    -4050    -3805    -3434    -3113    -3136    -3453    -3674 
   -3734    -3694    -3531    -3392    -3358    -3337    -3335    -3419 
   -3596    -3730    -3680    -3589    -3601    -3658    -3834    -4153 
   -4410    -4483    -4363    -4031    -3543    -3061    -2833    -2992 
   -3325    -3493    -3438    -3415    -3557    -3721    -3889    -4039 
   -3981    -3761    -3624    -3708    -3944    -4087    -3975    -3693 
   -3400    -3218    -3199    -3460    -3985    -4340    -4266    -4005 
   -3665    -3244    -3007    -2998    -2911    -2808    -2980    -3316 
   -3578    -3727    -3717    -3609    -3549    -3456    -3289    -3229 
   -3387    -3709    -3993    -4000    -3761    -3500    -3389    -3423 
   -3481    -3519    -3528    -3449    -3291    -3126    -2968    -2860 
   -2913    -3115    -3321    -3489    -3740    -4141    -4523    -4718 
   -4754    -4668    -4446    -4206    -4128    -4278    -4644    -5134 
   -5607    -6104    -6583    -6685    -6338    -5775    -4920    -3690 
   -2303    -1089     -499     -762    -1659    -2859    -4077    -5070 
   -5729    -5971    -5722    -5026    -4114    -3331    -2795    -2331 
   -1842    -1429    -1250    -1336    -1340     -846       29      915 
    1584     1725     1111       17    -1090    -1957    -2498    -2737 
   -2764    -2654    -2531    -2601    -3079    -4158    -5904    -8046 
  -10057   -11499   -12001   -11142    -8872    -5949    -3460    -2096 
   -2070    -3167    -4683    -5787    -6123    -5709    -4688    -3581 
   -2849    -2501    -2538    -2968    -3839    -5319    -7086    -8284 
   -8190    -6610    -4036    -1412      224      299     -750    -2003 
   -2849    -3005    -2469    -1516     -484      214      253     -303 
   -1100    -1703    -1821    -1660    -1786    -2515    -3801    -5085 
   -5499    -4959    -4234    -3931    -4282    -5140    -5879    -6010 
   -5455    -4338    -3152    -2458    -2407    -2918    -3651    -3977 
   -3570    -2713    -1980    -1987    -3132    -5166    -7223    -8529 
   -8757    -7951    -6439    -4698    -3202    -2243    -1769    -1678 
   -1927    -2304    -2517    -2304    -1472     -263      635      652 
    -283    -1856    -3721    -5521    -6832    -7472    -7612    -7601 
   -7585    -7260    -6353    -5008    -3597    -2479    -1800    -1738 
   -2535    -3800    -4799    -5213    -4973    -4043    -2616    -1117 
     147     1008     1167      498     -787    -2369    -3870    -5050 
   -5898    -6353    -6405    -6320    -6323    -6264    -6073    -5953 
   -5783    -5208    -4148    -2758    -1244      163     1216     1750 
    1671      899     -369    -1753    -3090    -4448    -5759    -6651 
   -7037    -7196    -7088    -6561    -5865    -5341    -5101    -5094 
   -5179    -5132    -4822    -4315    -3739    -3129    -2343    -1317 
    -321      249       54    -1026    -2632    -4016    -4650    -4688 
   -4538    -4425    -4530    -4873    -5221    -5598    -6154    -6531 
   -6274    -5416    -4206    -2933    -1918    -1343    -1200    -1352 
   -1687    -2143    -2654    -3091    -3164    -2685    -2016    -1775 
   -2184    -3048    -4074    -4873    -5067    -4683    -4183    -3989 
   -4159    -4548    -4928    -5067    -4930    -4583    -4004    -3219 
   -2419    -1840    -1575    -1626    -2081    -2917    -3863    -4720 
   -5529    -6345    -6945    -6943    -6203    -4999    -3666    -2403 
   -1429     -980    -1039    -1345    -1729    -2218    -2743    -3171 
   -3562    -4077    -4711    -5296    -5670    -5610    -4914    -3785 
   -2635    -1710    -1181    -1228    -1987    -3349    -4819    -5852 
   -6309    -6241    -5536    -4268    -2917    -1983    -1684    -1892 
   -2258    -2517    -2706    -2988    -3388    -3977    -4833    -5626 
   -5907    -5533    -4595    -3368    -2216    -1374     -978    -1143 
   -1784    -2666    -3565    -4207    -4569    -4914    -5185    -5174 
   -5026    -4939    -4865    -4730    -4621    -4623    -4774    -4997 
   -5005    -4627    -4002    -3288    -2544    -1927    -1690    -1809 
   -2120    -2527    -2856    -3011    -2988    -2894    -3065    -3600 
   -4247    -4826    -5271    -5451    -5182    -4509    -3711    -3034 
   -2552    -2203    -2074    -2336    -2968    -3808    -4455    -4554 
   -4147    -3434    -2682    -2118    -1844    -1992    -2671    -3738 
   -4698    -5124    -5054    -4706    -4322    -4158    -4249    -4510 
   -4823    -4935    -4606    -3973    -3433    -3118    -2891    -2609 
   -2251    -2026    -2147    -2601    -3221    -3766    -4051    -4110 
   -4145    -4194    -4121    -4018    -4083    -4267    -4392    -4293 
   -3882    -3285    -2790    -2562    -2571    -2830    -3176    -3300 
   -3214    -3013    -2762    -2667    -2781    -2979    -3208    -3457 
   -3673    -3813    -3937    -4136    -4406    -4696    -5000    -5196 
   -5039    -4483    -3658    -2787    -2263    -2342    -3009    -4086 
   -5198    -5979    -6222    -5854    -4951    -3792    -2822    -2273 
   -2139    -2346    -2720    -3298    -4202    -5181    -5876    -6151 
   -5942    -5188    -4055    -2921    -1996    -1310     -838     -548 
    -530     -826    -1323    -1922    -2539    -3019    -3329    -3753 
   -4402    -4981    -5363    -5495    -5201    -4494    -3547    -2624 
   -1985    -1769    -2064    -2820    -3840    -4788    -5351    -5486 
   -5157    -4438    -3680    -3072    -2705    -2754    -3144    -3524 
   -3736    -3960    -4382    -5101    -6083    -6956    -7304    -6872 
   -5759    -4515    -3570    -2995    -2679    -2369    -1880    -1285 
   -1007    -1458    -2481    -3630    -4444    -4477    -3739    -2727 
   -1956    -1714    -2052    -2736    -3380    -3807    -4021    -4021 
   -3967    -3981    -3958    -3819    -3549    -3164    -2729    -2327 
   -2018    -1872    -1989    -2424    -3125    -3942    -4693    -5232 
   -5459    -5420    -5277    -5167    -5157    -5178    -5096    -4797 
   -4216    -3492    -2844    -2342    -2135    -2299    -2532    -2629 
   -2722    -2916    -3252    -3731    -4163    -4390    -4460    -4371 
   -4051    -3595    -3153    -2856    -2859    -3211    -3812    -4541 
   -5192    -5466    -5262    -4731    -4075    -3434    -2913    -2644 
   -2652    -2828    -3096    -3383    -3662    -3946    -4074    -4017 
   -4036    -4199    -4429    -4749    -5007    -4928    -4452    -3701 
   -2929    -2365    -2039    -1935    -1984    -2065    -2200    -2469 
   -2852    -3283    -3643    -3748    -3580    -3379    -3330    -3481 
   -3912    -4546    -5069    -5259    -5116    -4729    -4252    -3856 
   -3623    -3546    -3615    -3808    -4047    -4279    -4449    -4437 
   -4237    -3896    -3402    -2921    -2658    -2606    -2743    -3029 
   -3248    -3214    -3022    -2902    -2917    -3024    -3214    -3419 
   -3511    -3372    -2991    -2605    -2434    -2473    -2702    -3071 
   -3392    -3547    -3596    -3649    -3769    -4020    -4332    -4440 
   -4306    -4160    -4075    -4024    -4066    -4175    -4213    -4133 
   -4039    -4009    -4147    -4479    -4787    -4972    -5177    -5352 
   -5421    -5452    -5347    -4907    -4137    -3231    -2397    -1817 
   -1661    -1980    -2621    -3350    -3933    -4234    -4212    -3866 
