Origin Time       2024/06/23 22:54:00
Lat.              35.645
Long.             140.060
Depth. (km)       72
Mag.              4.1
Station Code      TKY004
Station Lat.      35.6301
Station Long.     139.4034
Station Height(m) 81
Record Time       2024/06/23 22:54:39
Sampling Freq(Hz) 100Hz
Duration Time(s)  64
Dir.              E-W
Scale Factor      7845(gal)/8223790
Max. Acc. (gal)   3.405
Last Correction   2024/06/23 22:54:38
Memo.             
[...]
     159      145      126      110      118      149      156      144 
     143      137      133      143      145      145      140      136 
     136      126      128      152      147      120      120      139 
     155      149      121      118      147      160      148      128 
     124      145      148      126      130      145      132      130 
     144      144      149      139      114      126      147      141 
     137      141      139      140      141      137      135      143 
     151      136      124      140      148      139      133      136 
     145      135      116      124      143      145      133      125 
     144      157      137      129      149      157      144      129 
     121      125      141      140      126      136      151      143 
     137      141      133      130      148      156      140      121 
     125      139      136      133      151      160      147      129 
     126      133      140      143      137      126      126      133 
     137      140      148      155      153      144      130      132 
     144      136      116      121      143      149      144      139 
     133      132      140      148      147      140      143      151 
     149      133      129      144      144      122      124      143 
     151      143      126      129      145      149      143      133 
     132      140      144      141      144      147      140      136 
     135      133      130      130      141      152      148      133 
     132      143      139      132      135      140      140      128 
     125      148      156      135      126      139      147      149 
     136      126      151      156      128      121      139      148 
     148      137      118      125      147      145      136      148 
     156      149      141      141      141      130      126      140 
     144      133      130      139      152      149      129      136 
     157      152      125      117      140      151      129      129 
     162      164      135      126      141      149      137      122 
     126      141      147      140      132      136      141      137 
     136      147      147      136      135      139      135      128 
     137      149      148      144      137      130      144      153 
     126      117      143      144      132      144      143      130 
     144      143      126      139      141      129      144      157 
     144      133      130      133      147      148      128      125 
     143      147      139      141      145      139      129      129 
     145      153      140      129      132      147      153      130 
     118      133      140      148      159      147      130      130 
     128      124      135      153      148      132      135      143 
     144      143      136      132      130      133      135      137 
     149      148      135      137      140      133      140      152 
     147      132      125      132      147      149      141      140 
     147      153      147      130      126      133      132      125 
     126      140      147      137      133      144      153      149 
     141      137      130      132      136      135      136      141 
     144      141      143      143      133      135      144      143 
     139      148      152      143      143      147      129      113 
     132      149      130      124      163      159      112      125 
     166      153      135      152      162      152      163      155 
      91       49       89      153      176      190      207      144 
      63      135      248      198       66       37      156      317 
     287       48      -56      101      180      -39     -176      135 
     484      324     -149     -203      376      738      279     -287 
    -179      407      661      193     -383     -421        8      403 
     238     -186       32      788      838     -174     -711      264 
    1287      724     -652     -984      160     1223      672     -652 
    -710      546      984     -414    -1521     -340     1595     1929 
     612     -895     -966      367      940      -58     -633      345 
    1112       82    -1458    -1264      635     1977     1309     -126 
    -448       99      141     -141      174      616      448      -62 
    -440     -390       62      508      660      450       43     -194 
    -116      155      463      589      429       59     -383     -475 
      27      556      697      513      -91     -762     -854     -394 
     365     1179     1393      676     -240     -442     -157     -125 
     -93      403      739      324     -373     -720     -685     -471 
    -195      201      724      851      280      -97      463     1131 
     785     -132     -410      -14      263      202      125      124 
    -183     -777     -762      174     1013     1053      769      523 
     226      151      414      457       58     -247     -128      130 
     194     -147     -657     -469      479      932      361     -334 
    -472     -195      222      490      263     -224     -326       72 
     603      901      777      333     -189     -475     -278      229 
     702      772      324      -70      -12       81      -97     -329 
    -299      108      589      657      270     -102     -170       -2 
     260      400      313      338      641      683      148     -406 
    -449     -187      -45       -1      187      252     -164     -477 
      24      814      935      425       -8       33      440      769 
     575     -116     -731     -768     -371       95      325       71 
    -282     -155      259      506      508      406      403      508 
     454      268      214      198       39     -152     -220     -128 
     -59     -145     -160       -5      152      253      237      152 
     220      465      787     1069     1039      558     -162     -695 
    -683     -255      193      398      109     -569     -972     -697 
     -39      522      789      909      993      820      294     -164 
    -193       18      122      101      117      168      126      -54 
    -224     -149      170      403      386      383      550      668 
     537      207     -189     -541     -606     -241      198      329 
     260      129      -90     -220      -76      241      579      764 
     565       95     -201     -183      -24      156      263      261 
     251      214       63        9      221      321       44     -190 
      12      445      541       63     -384     -191      228      299 
     278      541      841      677       20     -550     -579     -203 
     263      533      314     -270     -720     -660      -58      661 
     954      804      429      -66     -368     -213      224      513 
     378      218      415      365     -217     -486      -25      540 
     567      143     -112      -49      -28      -49       91      332 
     432      202      -82      171      774      822      199     -372 
    -560     -450     -171      143      422      456      179       86 
     413      619      349       -9      -20      284      621      594 
     -31     -800     -965     -418      207      315        2     -162 
      91      454      571      521      629      880      815      368 
      21     -187     -488     -603     -367     -117      -16       79 
     120      -10       29      506      873      581      -25     -301 
    -101      332      664      596      222       -8      120      365 
     407      237       64     -117     -373     -406       29      556 
     604      314      271      414      220     -264     -499     -297 
      45      205      120       67      294      598      673      460 
     112      -76       -8      140      294      456      453       22 
    -685     -997     -533      238      552      363      349      602 
     438     -167     -359      244      915      842      171     -344 
    -333     -139     -105      -82      139      407      410       98 
    -148       54      473      507       56     -278      -56      349 
     383      175      175      407      459       56     -367     -206 
     263      315      -20     -118       95      153       31       36 
     187      353      410      228      -70     -120      144      351 
     352      433      560      348     -108     -325      -52      437 
     544      229       39      -20     -222     -337     -194      -35 
      87      325      561      560      333      175      334      521 
     171     -518     -665      -17      706      916      707      248 
    -329     -548     -205      221      456      540      337     -159 
    -627     -708     -282      332      664      625      407      248 
     328      432      286      182      318      249     -317     -892 
    -747       44      642      652      471      386      326      251 
     133        9       71      232       60     -403     -588     -346 
       2      284      452      480      399      230      118      217 
     283      -22     -352      -85      487      653      399      110 
      71      423      938     1030      422     -442     -857     -557 
     -40       91       87      344      453      164      -35       93 
     201      124       41      -51     -147       40      399      364 
     -70     -267       59      514      630      426      207      195 
     353      290     -297     -939     -854      -58      746     1071 
     808      194     -153       79      429      440      349      444 
     465       91     -460     -712     -608     -448     -328     -117 
     257      641      766      688      693      828      872      648 
     199     -218     -400     -465     -575     -560     -372     -244 
    -136      151      476      625      677      727      623      328 
     157      272      361      252       85     -179     -453     -330 
     141      353      -24     -611     -642      106      873      907 
     453      133       90       97       13        2      175      294 
      71     -348     -427       64      650      746      418      190 
     303      438      202     -201     -211      182      379       91 
    -268     -288      -85       71      145      194      221      278 
     399      492      506      492      400      124     -240     -437 
    -411     -295     -136       60      253      328      189       56 
     265      630      668      418      356      581      622      210 
    -202     -176        4     -105     -357     -319      -14      213 
     282      260      108      -91      -25      394      697      541 
     265      225      272       87     -390     -716     -446      170 
     569      523      201      -43       36      305      452      395 
     228       83      103      218      199      -28     -310     -422 
    -332     -144       49      139       72       16      191      469 
     583      676      824      724      472      414      395      109 
    -344     -587     -450     -251     -240      -39      525      737 
     162     -456     -342      267      758      904      791      527 
     180     -163     -301     -163      -36     -187     -438     -351 
     130      557      614      433      135     -268     -422       21 
     696      954      670      210     -102     -213     -162        2 
     170      222      159      147      329      473      275      -28 
     -47       48     -105     -302      -90      338      383       -9 
    -321     -206      217      612      696      444       62     -222 
    -288     -126      166      426      525      427      172     -109 
    -113      202      345       97     -152     -199     -160       -4 
     315      666      878      827      500       95     -133     -128 
       2      109      128      110       72      -75     -251      -90 
     460      831      645      197     -139     -341     -544     -653 
    -438       -5      297      348      299      306      422      556 
     577      498      375      228      140      133      141      128 
      48     -153     -400     -425      -56      468      742      638 
     363       66     -286     -452     -110      457      641      286 
    -151     -241      -24      255      376      259       44      -20 
     197      472      450      217      118      133      -13     -255 
    -228       56      186       87       68      126       33      -29 
     207      508      542      429      460      623      615      298 
    -182     -594     -693     -496     -342     -352     -291       24 
     515      877      936      892      889      761      394      -74 
    -465     -712     -859     -970     -903     -479       67      348 
     395      444      534      665      911     1136     1081      878 
     866      907      706      423      344      430      525      531 
     276     -282     -747     -820     -679     -522     -426     -434 
    -375      -72      234      271      234      398      657      796 
     788      675      442       55     -449     -954    -1332    -1463 
   -1283     -849     -334       40      136       32      -17      136 
     406      712     1074     1320     1210      940      955     1332 
    1719     1771     1390      684     -167    -1135    -2100    -2620 
   -2444    -1891    -1379     -940     -417      182      789     1507 
    2533     3559     3620     2263      267    -1289    -2151    -2830 
   -3431    -3219    -1817       43     1341     1790     1757     1545 
    1209      912      903     1273     1899     2432     2398     1594 
     346     -673    -1088    -1113    -1038     -839     -457      -59 
     -90     -827    -1798    -2177    -1780    -1039     -317      303 
    1016     1933     2448     1840      577      -25      510     1244 
    1005     -265    -1489    -1738    -1181     -355      549     1333 
    1795     2084     2182     1667      553     -523    -1235    -1663 
   -1536     -481      977     1738     1449      666      -91     -684 
   -1044    -1071     -712      -47      733     1333     1331      598 
    -279     -625     -530     -544     -692     -517      -52        4 
    -486     -650       85     1215     1910     1705      665     -562 
   -1175     -912     -251      210      438      692      886      734 
     202     -403     -757     -784     -585     -233      201      637 
    1038     1358     1452     1217      737      244      -40     -238 
    -708    -1324    -1495    -1065     -392      284      896     1281 
    1391     1354     1194      837      365       20     -175     -324 
    -311     -162     -159     -292     -322     -199      -43      -37 
    -294     -685     -970    -1023     -715      151     1289     1931 
    1811     1320      774      279      -14     -145     -413     -869 
   -1119     -862     -309       67      103      110      453     1179 
    2018     2479     2232     1360      191     -909    -1656    -2030 
   -2199    -2127    -1613     -735       91      610      969     1341 
    1566     1414     1075      920      981     1067     1070      849 
     290     -434    -1013    -1266    -1148     -746     -334     -182 
    -256     -276       14      533      830      665      324      128 
      79       89      220      541      909     1034      799      363 
     -87     -434     -599     -645     -616     -405        2      437 
     716      702      398      -31     -384     -463     -238      133 
     481      635      565      430      427      666     1011     1138 
     884      364     -183     -596     -797     -726     -480     -340 
    -414     -531     -463      -79      507      942     1003      800 
     510      230       82      166      410      581      480       60 
    -508     -746     -279      595     1223     1186      479     -550 
   -1371    -1587    -1190     -473      237      704      855      804 
     630      367      133       55      122      153       47      -44 
      37      238      390      386      292      176       -2     -211 
    -321     -295     -241     -321     -535     -573      -97      889 
    2007     2722     2701     1998      934     -103     -824    -1182 
   -1305    -1259    -1119    -1070    -1124     -985     -415      464 
    1314     1844     1938     1628     1073      454     -135     -534 
    -611     -542     -523     -476     -427     -571     -787     -699 
    -217      441     1136     1761     2074     1918     1452      926 
     421      -45     -440     -762    -1108    -1514    -1753    -1588 
   -1071     -299      608     1359     1791     2077     2332     2319 
    1696      511     -714    -1525    -1891    -1894    -1587    -1162 
    -834     -684     -630     -444      -24      444      832     1248 
    1652     1722     1317      711      230      -64     -225     -225 
     -43      194      240        2     -291     -314      -17      318 
     386      176       13      118      396      722      967      901 
     479      -33     -334     -345     -226     -186     -284     -427 
    -414      -91      392      679      589      275        2     -124 
    -151      -74      114      284      270      140      202      523 
     742      616      365      238      155      -43     -306     -459 
    -426     -360     -384     -382     -224       74      425      675 
     675      438      160      -22     -171     -241      -22      450 
     911     1236     1382     1240      792      184     -365     -673 
    -643     -396     -213     -190     -230     -267     -279     -284 
    -288     -197       27      206      282      531     1071     1463 
    1289      757      355      255      301      319      236      -17 
    -464    -1001    -1470    -1675    -1445     -861     -141      619 
    1327     1768     1857     1729     1529     1228      679     -117 
    -888    -1308    -1347    -1318    -1424    -1439    -1058     -346 
     391      981     1421     1763     1973     1925     1630     1317 
    1125      918      506      -40     -567    -1143    -1788    -2135 
   -1858    -1210     -696     -450     -268       -8      368      862 
    1300     1521     1642     1738     1624     1132      356     -402 
    -923    -1196    -1283    -1285    -1201     -962     -643     -334 
     105      885     1902     2679     2816     2288     1329      279 
    -569    -1093    -1297    -1250    -1032     -707     -314      108 
     508      803      905      731      249     -336     -673     -648 
    -414     -105      198      440      679      946     1112     1100 
     949      595      -39     -768    -1277    -1390    -1179     -835 
    -468      -40      480      954     1219     1262     1086      707 
     307       90       64      128      202      259      351      537 
     726      837      854      614       -8     -791    -1350    -1491 
   -1310    -1015     -706     -359      -16      255      537      931 
    1393     1763     1810     1402      607     -413    -1379    -1899 
   -1750    -1097     -307      426     1107     1645     1891     1830 
    1533     1008      275     -484     -965     -947     -490       48 
     321      376      423      423      276       45     -201     -473 
    -689     -742     -706     -662     -492     -141      206      441 
