Origin Time       2024/06/23 22:54:00
Lat.              35.645
Long.             140.060
Depth. (km)       72
Mag.              4.1
Station Code      TKY017
Station Lat.      35.6473
Station Long.     139.8092
Station Height(m) 4
Record Time       2024/06/23 22:54:45
Sampling Freq(Hz) 100Hz
Duration Time(s)  60
Dir.              N-S
Scale Factor      7845(gal)/8223790
Max. Acc. (gal)   3.526
Last Correction   2024/06/23 22:54:45
Memo.             
[...]
    1911     1880     1888     1914     1904     1887     1912     1923 
    1892     1890     1904     1911     1896     1869     1894     1908 
    1861     1867     1899     1879     1881     1915     1903     1857 
    1854     1887     1877     1863     1869     1883     1900     1884 
    1890     1914     1896     1890     1877     1891     1914     1869 
    1907     1960     1890     1885     1935     1917     1894     1894 
    1896     1891     1902     1926     1911     1910     1922     1902 
    1879     1875     1899     1895     1864     1894     1903     1877 
    1884     1888     1898     1903     1880     1871     1898     1904 
    1871     1896     1918     1854     1861     1917     1879     1850 
    1902     1899     1868     1906     1895     1884     1931     1895 
    1865     1902     1895     1888     1900     1904     1902     1888 
    1891     1894     1892     1883     1853     1865     1904     1899 
    1890     1908     1904     1869     1891     1925     1861     1863 
    1937     1880     1858     1929     1925     1929     1903     1846 
    1910     1930     1850     1867     1933     1919     1891     1906 
    1917     1896     1858     1867     1914     1872     1852     1926 
    1891     1841     1906     1910     1848     1863     1918     1899 
    1854     1894     1926     1883     1854     1883     1930     1902 
    1841     1895     1929     1840     1844     1917     1898     1860 
    1883     1938     1899     1833     1908     1923     1861     1911 
    1934     1888     1875     1888     1925     1919     1881     1904 
    1895     1831     1899     1966     1849     1823     1939     1919 
    1848     1863     1906     1904     1844     1877     1935     1837 
    1830     1937     1906     1857     1915     1931     1848     1844 
    1926     1919     1884     1888     1894     1883     1877     1922 
    1902     1854     1912     1931     1892     1880     1863     1898 
    1931     1885     1873     1871     1863     1910     1915     1894 
    1914     1881     1849     1892     1875     1849     1884     1863 
    1883     1906     1854     1885     1880     1872     1953     1917 
    1880     1899     1887     1914     1906     1894     1895     1857 
    1887     1911     1868     1861     1877     1891     1888     1877 
    1902     1904     1876     1887     1876     1877     1896     1890 
    1942     1926     1858     1902     1902     1867     1896     1918 
    1898     1868     1906     1969     1931     1875     1922     1915 
    1858     1888     1869     1879     1904     1834     1903     1925 
    1811     1912     1948     1848     1903     1931     1891     1869 
    1865     1927     1906     1827     1888     1957     1900     1879 
    1904     1858     1867     1908     1907     1898     1845     1907 
    1922     1799     1923     1962     1796     1912     1987     1845 
    1842     1899     1919     1914     1857     1869     1938     1930 
    1911     1912     1849     1837     1914     1885     1848     1956 
    1930     1795     1906     1976     1831     1848     1918     1871 
    1864     1872     1857     1883     1917     1867     1892     2007 
    1956     1891     1906     1881     1888     1841     1856     2004 
    1895     1798     2007     1971     1809     1918     1922     1849 
    1900     1860     1840     1921     1902     1860     1934     1944 
    1830     1863     1939     1833     1777     1910     1995     1871 
    1814     2007     2006     1809     1880     1945     1838     1877 
    1915     1867     1903     1896     1868     1953     1941     1818 
    1885     1992     1846     1744     1933     2002     1827     1863 
    1948     1833     1873     1952     1873     1881     1900     1879 
    1911     1885     1846     1914     1992     1904     1796     1923 
    1971     1769     1814     2019     1884     1819     2016     1906 
    1786     1898     1899     1925     1837     1757     1989     1945 
    1748     1915     2050     1917     1796     1906     1981     1826 
    1845     2002     1911     1831     1935     1956     1873     1799 
    1883     2020     1837     1772     1995     1898     1776     1907 
    1966     1923     1846     1869     1880     1803     1873     1934 
    1903     1883     1884     2002     1941     1741     1895     2010 
    1831     1873     1956     1815     1840     1984     1922     1813 
    1894     1944     1833     1857     1989     1971     1860     1822 
    1962     2012     1786     1783     1975     1869     1830     1960 
    1809     1775     2039     1945     1753     1933     1942     1769 
    1856     1984     1939     1858     1864     1910     1923     1881 
    1849     1904     1877     1831     1885     1823     1923     2128 
    1895     1772     1950     1807     1771     2038     1968     1815 
    1921     1885     1792     1939     1989     1853     1792     1790 
    1849     1899     1946     2073     1983     1830     1869     1771 
    1753     1958     1879     1702     1817     1965     1985     1958 
    1996     2034     1849     1744     1876     1891     1935     1989 
    1850     1896     1969     1810     1836     1950     1817     1757 
    1930     2033     2008     1937     1883     1806     1617     1688 
    1929     1976     2046     1962     1877     2008     1887     1837 
    1956     1856     1792     1746     1823     2069     1949     1810 
    2053     2012     1703     1765     1961     1965     1827     1854 
    2110     1903     1671     1942     1836     1695     1926     1948 
    2019     2011     1856     2057     2029     1672     1804     2066 
    1877     1741     1929     1968     1794     1830     1944     1780 
    1710     1861     1838     1871     2035     2015     1987     1965 
    1818     1814     1896     1782     1834     2066     1972     1925 
    2060     1933     1782     1734     1740     1796     1807     1977 
    2056     1865     1884     1934     1890     1876     1769     1950 
    2073     1777     1873     2068     1954     1930     1834     1840 
    1872     1692     1782     1907     1907     2019     2019     1989 
    1891     1849     1980     1838     1818     1884     1638     1794 
    2035     1925     1929     1911     1942     1926     1807     2046 
    2111     1858     1795     1802     1821     1740     1713     1860 
    1779     1742     1987     2150     2158     2092     2002     1786 
    1648     1971     2133     1857     1825     1863     1675     1649 
    1838     2065     2139     2002     1923     1877     1760     1834 
    1950     1852     1842     1993     1952     1737     1707     1836 
    1860     1815     1834     1915     1929     1854     1852     1873 
    1948     2127     2058     1857     1923     1942     1792     1829 
    1948     1960     1976     1926     1779     1744     1911     2062 
    1988     1890     1834     1679     1641     1850     2037     2056 
    2079     2057     1809     1686     1925     1979     1649     1705 
    2089     1966     1800     1944     1904     1826     1738     1668 
    1914     2128     2070     1999     2003     2065     2106     1850 
    1651     1752     1544     1495     1908     1919     1821     1912 
    1950     2072     2049     1942     1948     1946     2004     1958 
    1860     1910     1809     1690     1831     1775     1665     1934 
    1942     1840     2149     2158     1912     1906     1975     1977 
    1856     1985     2099     1676     1579     1927     1930     1861 
    1973     1863     1678     1791     1898     1854     1946     2014 
    1848     1833     2027     1969     1877     1925     1865     1894 
    1922     1876     1933     2002     2097     1992     1757     1861 
    1865     1736     1976     2002     1783     1756     1618     1652 
    1867     1904     2027     2016     1809     1788     1910     2097 
    2142     2050     2072     2011     1960     1977     1706     1545 
    1653     1728     1989     2146     1992     1796     1618     1738 
    1980     2119     2220     1965     1787     1834     1599     1744 
    2088     1914     1965     2085     1873     1914     1910     1680 
    1672     1779     1772     1772     1972     2069     1868     1823 
    1883     1809     1857     1914     1890     1998     1992     1923 
    2164     2235     1854     1775     2074     2034     1784     1834 
    2004     1987     1787     1566     1607     1779     1671     1647 
    2043     2255     2062     1979     2019     1830     1498     1436 
    1779     2112     2112     2147     2366     2231     1749     1588 
    1856     1930     1777     1898     2015     1938     1798     1698 
    1984     2045     1653     1827     2115     1854     1764     1903 
    1898     1792     1695     1744     1891     1925     1888     2084 
    2273     2139     2084     2096     1857     1763     1923     1906 
    1755     1613     1668     1975     1902     1645     1814     1848 
    1648     1779     1956     1895     1918     1875     1628     1786 
    1921     1610     1856     2282     2253     2389     2407     2187 
    2236     2189     1764     1547     1655     1559     1599     1836 
    1732     1730     1850     1804     1919     1937     1691     1694 
    1972     2029     1917     1831     1671     1719     1854     1800 
    1804     1734     1629     1914     2307     2282     2170     2141 
    1779     1653     1834     1690     1795     2115     2142     2219 
    2189     1945     1934     1911     1636     1637     1885     1945 
    1939     1985     1966     1780     1597     1549     1564     1684 
    1803     2087     2385     2293     2300     2316     2035     1814 
    1725     1771     1763     1741     1863     1872     1723     1498 
    1528     1732     1718     1879     2160     2112     2007     1979 
    1850     1840     1834     1702     2014     2177     1923     2106 
    2033     1786     2087     2070     1761     1633     1444     1448 
    1800     1900     1844     2184     2097     1634     1799     1899 
    1938     2377     2355     2178     2284     1903     1543     1748 
    1717     1506     1444     1377     1368     1455     1730     2000 
    2274     2558     2458     2332     2134     1698     1672     1865 
    1765     1682     1960     2072     1961     2091     1998     2029 
    2182     1763     1809     2170     1880     1714     1684     1470 
    1615     1792     1763     1948     1896     1691     2000     2076 
    1757     1872     2065     2057     2089     2042     2177     2272 
    1826     1683     1911     1749     1647     1780     1867     1837 
    1625     1763     2216     2087     1790     2064     2150     1965 
    2035     1840     1510     1444     1541     1892     2092     1991 
    1946     1969     1804     1598     1773     2007     2164     2223 
    2061     2104     2092     1958     1980     1898     1867     1817 
    1763     1807     1655     1614     1707     1668     1815     1972 
    1887     2023     2246     2120     2000     1871     1648     1679 
    1669     1618     1759     1651     1472     1756     1906     1721 
    1892     2046     2023     2311     2415     2301     2257     1925 
    1709     1899     1836     1680     1956     2101     1981     2153 
    2351     2273     2170     2008     1732     1641     1547     1356 
    1636     1827     1518     1655     1998     1942     2010     2138 
    1856     1598     1757     1798     1817     2138     2155     2204 
    2497     2245     2030     2111     1864     1818     1958     1705 
    1545     1736     1694     1534     1701     1719     1750     2033 
    1919     1755     1811     1696     1672     1933     2124     2057 
    2089     2153     1961     1738     1640     1692     1688     1696 
    1918     2076     2126     2026     1899     1848     1655     1579 
    1834     2091     1907     1763     1930     1694     1479     1551 
    1605     1881     2035     2277     2695     2625     2385     2361 
    2358     1993     1714     1840     1676     1588     1618     1560 
    1853     1907     1734     1702     1625     1683     1811     1958 
    2072     2104     2126     2019     1957     2006     2020     2006 
    1956     1925     1884     1748     1632     1564     1495     1499 
    1507     1595     1884     2250     2625     2748     2590     2501 
    2415     2254     2295     2362     1922     1401     1266     1026 
     832     1144     1659     2196     2566     2590     2666     2501 
    1846     1667     1680     1017      634      772      488      411 
     938     1305     1837     2544     2899     3237     3262     2852 
    2609     2116     1343      996      720      460      652      845 
    1066     1698     2327     2720     3032     3176     3361     3781 
    3892     3532     2852     1879     1015      360      -60       10 
     506      963     1306     1890     2612     3480     4031     3595 
    2938     2457     1792     1362     1464     1821     2295     2857 
    3388     3581     3154     2531     2137     1714     1544     2002 
    2388     2452     2558     2276     1513      865      440      228 
     197      189      467      861      972     1343     1984     2273 
    2486     2641     2227     1710     1227      156     -699     -924 
   -1017     -174     1260     2149     2903     3311     2972     2505 
    2003     1459     1341     1451     1524     1776     1721     1440 
    1821     2451     3142     4371     5398     5587     5247     4271 
    2677     1246      396      182      492     1032     1609     1929 
    1949     1780     1571     1557     1495     1374     1459     1570 
    1505     1337     1339     1606     1823     2006     2614     3191 
    3032     2762     2690     2455     2434     2754     3022     3096 
    2992     2866     2605     2012     1375      834      340       67 
     129      390      514      568      928     1317     1620     1992 
    1923     1563     1491     1637     2288     3237     3655     3604 
    3057     2042     1474     1406     1341     1601     2037     2235 
    2447     2467     1962     1281      803      835     1364     1841 
    2018     2047     1742     1073      614      442      538     1246 
    2018     2500     3084     3605     3947     4078     3777     3218 
    2562     1899     1559     1541     1553     1647     1845     1733 
    1152      568      353      500     1067     1836     2276     2350 
    2195     1844     1547     1318     1177     1404     1826     2343 
    2944     3213     3264     3196     2602     1706     1134     1047 
    1102      999      762      519      450      576      750     1100 
    1829     2774     3627     4093     4021     3667     3338     3114 
    2889     2458     1845     1227      923     1054     1259     1445 
    1529     1131      558      405      719     1370     2120     2714 
    3037     2937     2709     2929     3210     3017     2647     2128 
    1564     1404     1270      857      637      623      751     1383 
    2307     3044     3269     2863     2413     2107     1575     1190 
    1085      873      924     1480     2118     2569     2593     2245 
    1881     1564     1409     1509     1803     2254     2614     2841 
    2909     2505     2069     1933     1632     1381     1305     1140 
    1204     1359     1344     1374     1202      999     1267     1406 
    1267     1489     1678     1723     2091     2272     2254     2478 
    2459     2390     2705     2866     3009     3404     3557     3484 
    3300     2808     2211     1709     1310      970      511      133 
      59      141      487     1229     1983     2286     2227     2096 
    1900     1705     1649     1649     1572     1493     1721     2307 
    2824     2992     2924     2848     2803     2725     2744     2934 
    3076     3029     2879     2542     1784      861      247     -135 
    -326      -47      332      481      815     1297     1740     2305 
    2843     3042     2716     2154     1856     1591     1204     1178 
    1525     1817     2124     2613     2914     2793     2573     2532 
    2578     2648     2871     2943     2415     1649     1188      865 
     534      580     1023     1443     1794     2177     2515     2636 
    2627     2693     2620     2370     2177     1879     1436     1101 
     835      527      337      409      658      949     1350     1954 
    2525     2880     3125     3245     3028     2527     2141     1952 
    1848     2004     2338     2571     2660     2575     2504     2573 
    2471     2266     2307     2421     2380     2118     1759     1537 
    1228      864      935     1252     1503     1872     2218     2253 
    2099     1857     1564     1339     1270     1386     1526     1536 
    1510     1456     1424     1521     1563     1594     1876     2245 
    2448     2400     2066     1698     1460     1309     1547     2120 
    2525     2737     2794     2521     1999     1513     1294     1236 
    1177     1289     1347      955      591      695     1001     1355 
    1803     2292     2636     2744     2841     2944     2910     2878 
    2829     2551     2146     1904     1869     1841     1769     1760 
    1734     1784     2160     2567     2725     2770     2556     2060 
    1617     1301     1042      792      685      884     1163     1417 
    1730     1956     2074     2195     2355     2560     2640     2538 
    2343     2080     1880     1767     1667     1722     1976     2196 
    2297     2355     2336     2273     2188     1973     1630     1385 
    1458     1653     1713     1736     1657     1410     1260     1333 
    1459     1530     1665     1868     2077     2353     2511     2461 
    2413     2398     2413     2454     2370     2084     1652     1331 
    1298     1375     1594     2039     2431     2651     2778     2770 
    2538     2133     1798     1591     1362     1178     1147     1197 
    1271     1366     1386     1329     1420     1656     1802     1885 
    1985     2029     2015     1912     1686     1539     1555     1595 
    1622     1653     1637     1505     1356     1278     1139     1057 
    1201     1412     1776     2367     2848     3121     3298     3343 
    3225     3025     2870     2637     2223     1844     1525     1286 
    1305     1337     1167      985      862      804      900     1201 
    1590     1845     1981     2056     2043     2119     2340     2610 
    2844     2883     2762     2602     2409     2242     2064     1910 
    1871     1825     1795     1806     1750     1729     1750     1849 
    2110     2265     2284     2394     2563     2739     2841     2768 
    2610     2388     2118     1922     1819     1796     1806     1761 
    1597     1281     1024     1040     1210     1440     1692     1818 
    1818     1806     1771     1609     1316     1043      846      757 
     845      974     1082     1248     1472     1737     1923     1973 
    2000     2079     2265     2457     2504     2465     2324     2130 
    2096     2192     2296     2415     2558     2717     2772     2683 
    2585     2473     2254     1934     1594     1367     1283     1324 
    1436     1497     1510     1509     1513     1599     1664     1576 
    1458     1448     1552     1764     2031     2236     2313     2299 
