Origin Time       2024/06/23 22:54:00
Lat.              35.645
Long.             140.060
Depth. (km)       72
Mag.              4.1
Station Code      TKY018
Station Lat.      35.6553
Station Long.     139.8114
Station Height(m) 6
Record Time       2024/06/23 22:54:45
Sampling Freq(Hz) 100Hz
Duration Time(s)  60
Dir.              U-D
Scale Factor      7845(gal)/8223790
Max. Acc. (gal)   3.511
Last Correction   2024/06/23 22:54:44
Memo.             
[...]
    7646     7708     7780     7863     7969     7947     7830     7796 
    7800     7743     7678     7630     7585     7604     7693     7754 
    7805     7909     8028     8100     8060     7920     7777     7709 
    7712     7755     7838     7898     7890     7862     7780     7647 
    7607     7676     7793     7902     7974     8005     7931     7781 
    7668     7595     7584     7651     7711     7731     7773     7862 
    7929     7967     7942     7770     7611     7639     7754     7873 
    7967     7940     7834     7798     7821     7831     7890     7946 
    7865     7747     7732     7792     7844     7844     7765     7669 
    7680     7786     7874     7920     7912     7844     7778     7743 
    7699     7645     7631     7622     7615     7696     7819     7936 
    8037     8008     7851     7736     7757     7862     7959     7978 
    7863     7677     7605     7677     7788     7866     7811     7678 
    7681     7801     7897     8002     8081     7993     7842     7757 
    7692     7688     7767     7800     7759     7744     7751     7738 
    7762     7796     7744     7786     7967     8000     7897     7824 
    7704     7587     7608     7686     7732     7793     7846     7774 
    7680     7776     7956     7998     7939     7850     7770     7800 
    7855     7777     7700     7727     7744     7771     7817     7812 
    7861     7982     8012     7885     7716     7674     7719     7746 
    7812     7948     8074     8055     7861     7677     7641     7695 
    7771     7827     7781     7659     7612     7654     7711     7798 
    7824     7708     7632     7677     7746     7839     7915     7884 
    7797     7765     7801     7867     7952     8000     7944     7866 
    7825     7820     7889     7965     7938     7843     7807     7846 
    7824     7728     7650     7572     7554     7678     7851     7973 
    7942     7755     7612     7619     7727     7857     7878     7782 
    7690     7688     7801     7947     7975     7846     7670     7624 
    7731     7859     7956     7996     7931     7854     7824     7803 
    7823     7863     7844     7808     7784     7699     7654     7778 
    7863     7800     7767     7789     7797     7832     7870     7840 
    7774     7754     7723     7658     7693     7776     7834     7889 
    7848     7749     7704     7708     7800     7921     7942     7900 
    7843     7800     7761     7703     7740     7842     7881     7893 
    7886     7847     7805     7755     7739     7761     7744     7722 
    7807     7943     7933     7816     7763     7724     7709     7788 
    7813     7804     7851     7793     7662     7653     7720     7786 
    7855     7902     7875     7788     7765     7803     7838     7890 
    7877     7784     7763     7813     7835     7801     7769     7774 
    7757     7735     7797     7933     8020     7951     7854     7817 
    7690     7520     7538     7690     7836     7962     7947     7744 
    7634     7766     7948     8039     7932     7605     7431     7642 
    7916     8008     7987     7866     7665     7562     7668     7917 
    8133     8087     7788     7605     7731     7939     8005     7886 
    7686     7615     7693     7715     7670     7719     7823     7874 
    7879     7789     7634     7607     7719     7882     8062     8073 
    7816     7543     7476     7608     7904     8198     8203     7950 
    7759     7692     7604     7549     7682     7982     8228     8224 
    7938     7518     7300     7519     7944     8155     8040     7769 
    7492     7349     7477     7828     8137     8108     7800     7587 
    7616     7840     8000     7823     7699     7935     8014     7744 
    7580     7651     7773     7827     7842     7943     8024     7896 
    7804     7958     8033     7859     7708     7665     7618     7547 
    7450     7530     7906     8090     7817     7574     7650     7851 
    7971     7965     8025     8143     7954     7507     7177     7119 
    7377     7715     7753     7720     7869     7781     7479     7666 
    8399     8996     8997     8607     8278     7954     7472     7165 
    7241     7597     8118     8449     8274     7618     6897     6867 
    7497     7836     7739     7861     8105     7878     7416     7441 
    7850     8064     8006     7854     7678     7510     7416     7558 
    7955     8345     8522     8386     7973     7697     7846     8162 
    8260     7992     7612     7348     7067     6913     7132     7562 
    8033     8289     8008     7508     7357     7531     7770     8063 
    8411     8640     8596     8154     7416     6961     7084     7411 
    7792     8395     8757     8203     7204     6883     7371     7862 
    8009     8275     8472     7906     7483     8005     8318     8102 
    7936     7466     6957     7009     7288     7761     8360     8521 
    8214     7564     6945     7398     8544     8854     8291     7537 
    6828     6721     7333     8004     8425     8434     7836     7067 
    6817     7257     8023     8660     8819     8413     7977     7919 
    7942     7871     7784     7732     7624     7237     7067     7622 
    8113     7969     7782     7797     7742     7655     7766     8185 
    8506     8299     7944     7700     7302     7136     7578     7956 
    7869     7811     7863     7658     7346     7429     7942     8229 
    7979     7785     7850     7836     7874     8101     8229     7993 
    7518     7250     7318     7572     7888     8020     7973     7916 
    7753     7611     7700     7780     7786     7967     8154     8047 
    7848     7739     7570     7507     7750     7982     8073     8183 
    8154     7889     7549     7258     7244     7595     7977     8113 
    8032     7778     7527     7542     7744     7960     8202     8353 
    8217     7838     7429     7194     7198     7387     7700     7989 
    8066     7906     7661     7570     7692     7919     8218     8414 
    8344     8100     7792     7601     7620     7638     7662     7774 
    7803     7749     7723     7708     7720     7773     7842     7912 
    7858     7662     7526     7572     7812     8098     8106     7896 
    7815     7842     7796     7744     7750     7793     7877     7911 
    7854     7846     7913     7967     8024     7996     7722     7391 
    7389     7663     7892     7969     7873     7661     7508     7414 
    7375     7460     7599     7769     7932     7912     7839     8010 
    8345     8598     8726     8756     8619     8230     7643     7057 
    6683     6528     6551     6905     7430     7646     7591     7630 
    7803     8017     8195     8252     8280     8338     8295     8203 
    8144     7919     7557     7387     7470     7727     8027     8082 
    7924     7928     8070     7989     7692     7493     7489     7622 
    7794     7848     7871     8004     8047     7940     7878     7846 
    7808     7901     8078     8156     8035     7695     7391     7412 
    7520     7523     7774     8202     8198     7755     7385     7342 
    7542     7734     7805     7867     7798     7464     7253     7508 
    7966     8237     8306     8283     8089     7747     7538     7680 
    8095     8375     8220     7848     7516     7260     7129     7128 
    7223     7446     7739     7908     7952     8122     8351     8297 
    7978     7695     7657     7825     7946     7917     7743     7330 
    6936     6997     7410     7862     8332     8764     8903     8621 
    8105     7665     7479     7497     7561     7570     7464     7221 
    7091     7362     7798     7955     7869     7861     8032     8259 
    8387     8325     8191     8235     8425     8506     8428     8291 
    8116     7927     7757     7654     7659     7545     7115     6670 
    6396     6130     6151     6798     7645     8198     8530     8837 
    9134     9312     9305     9155     8878     8490     8000     7439 
    6955     6601     6281     6003     5942     6288     6966     7592 
    7992     8274     8394     8392     8611     9089     9344     8954 
    8073     7329     7177     7518     8019     8432     8533     8144 
    7476     7056     7096     7375     7690     7871     7774     7630 
    7750     8009     8171     8174     8017     7724     7358     7128 
    7231     7497     7624     7581     7472     7399     7464     7708 
    8054     8249     8141     7954     7859     7726     7631     7847 
    8251     8475     8536     8667     8741     8513     8164     7886 
    7582     7268     7083     7064     7195     7380     7465     7437 
    7393     7411     7519     7669     7735     7750     7946     8336 
    8615     8641     8484     8226     8056     8070     8081     7947 
    7668     7307     7015     6825     6660     6628     6893     7387 
    7908     8302     8483     8463     8410     8507     8688     8676 
    8403     8093     7844     7578     7314     7182     7179     7184 
    7231     7387     7514     7564     7665     7825     8023     8209 
    8228     8178     8256     8282     8083     7885     7861     7847 
    7753     7743     7807     7685     7345     7096     7163     7399 
    7599     7848     8208     8455     8488     8452     8398     8283 
    8168     8058     7751     7160     6620     6597     7138     7831 
    8248     8256     7981     7744     7785     7989     8106     8116 
    8044     7717     7173     6916     7206     7742     8287     8799 
    8996     8673     8120     7780     7773     7855     7731     7392 
    7080     6909     6766     6731     7105     7796     8310     8374 
    8131     7878     7796     7870     7959     7916     7750     7690 
    7889     8198     8403     8419     8298     8202     8155     7985 
    7701     7520     7449     7304     7107     7079     7277     7533 
    7727     7843     7894     7920     7963     8067     8183     8117 
    7843     7605     7615     7858     8098     8094     7905     7713 
    7569     7535     7711     7970     8059     7975     7911     7893 
    7893     7943     7969     7902     7780     7554     7226     6999 
    7036     7253     7514     7816     8198     8532     8529     8170 
    7879     7997     8410     8729     8695     8401     7986     7412 
    6760     6397     6505     6805     7117     7516     7871     8036 
    8152     8356     8572     8626     8401     8017     7689     7492 
    7460     7650     7942     8093     8012     7776     7506     7333 
    7393     7707     8064     8183     8044     7863     7735     7635 
    7655     7844     7998     7971     7931     7905     7715     7520 
    7566     7653     7535     7310     7213     7329     7518     7674 
    7839     7954     7985     8141     8482     8653     8500     8263 
    8060     7859     7676     7447     7078     6677     6509     6708 
    7221     7966     8780     9304     9196     8554     7867     7477 
    7356     7358     7464     7657     7820     7900     8005     8182 
    8284     8203     8002     7726     7368     7061     7053     7453 
    8068     8606     8878     8754     8267     7685     7238     7038 
    7113     7368     7614     7742     7824     7927     7977     7912 
    7843     7929     8112     8144     7938     7605     7303     7171 
    7264     7485     7650     7608     7411     7361     7697     8259 
    8684     8725     8348     7843     7572     7560     7643     7794 
    7998     8114     8067     7908     7715     7577     7530     7523 
    7612     7881     8133     8120     7869     7533     7285     7275 
    7442     7645     7874     8140     8406     8553     8444     8154 
    7929     7879     7978     8202     8374     8171     7620     7163 
    7038     7105     7254     7464     7612     7631     7599     7543 
    7435     7337     7312     7408     7705     8132     8424     8473 
    8425     8405     8415     8390     8268     8121     8083     8118 
    8082     7919     7607     7160     6756     6619     6813     7250 
    7716     7943     7842     7628     7585     7807     8224     8706 
    9073     9198     9003     8424     7609     6863     6307     5915 
    5764     5913     6274     6824     7643     8679     9695    10517 
   11009    10902    10052     8746     7447     6374     5470     4750 
    4556     5143     6315     7728     9161    10331    10893    10737 
   10004     8791     7241     5844     5094     5062     5575     6453 
    7530     8699     9802    10540    10629     9995     8841     7539 
    6438     5809     5822     6362     7080     7677     7948     7774 
    7288     6903     7020     7623     8303     8753     8984     9040 
    8854     8453     8014     7551     6961     6494     6558     7132 
    7846     8456     8964     9381     9574     9405     8827     7858 
    6644     5439     4607     4661     5749     7256     8401     8970 
    9208     9316     9300     9157     8961     8726     8464     8272 
    8220     8282     8310     8235     8081     7739     7222     6755 
    6486     6597     7249     8101     8499     8256     7699     7125 
    6669     6347     6120     6080     6339     6822     7454     8218 
    8951     9352     9255     8706     7947     7392     7376     7931 
    8910    10027    10763    10702     9937     8881     7836     6874 
    5961     5147     4579     4441     4853     5732     6832     7992 
    9134    10014    10292     9925     9185     8332     7472     6678 
    6042     5699     5784     6291     7044     7843     8630     9512 
   10469    11226    11483    10993     9634     7678     5802     4641 
    4382     4869     5830     6852     7668     8451     9371    10165 
   10411     9958     8986     7750     6475     5520     5198     5475 
    6143     7040     7896     8506     8950     9242     9182     8777 
    8270     7794     7344     6956     6766     6871     7280     7906 
    8572     9177     9693     9968     9821     9247     8405     7596 
    7080     6743     6322     5784     5238     4857     4918     5629 
    6845     8071     8851     9105     9077     9058     9116     9119 
    8995     8745     8341     7774     7123     6644     6629     7071 
    7670     8182     8611     9090     9564     9752     9486     8870 
    8105     7341     6685     6250     6070     6099     6339     6826 
    7452     7956     8187     8228     8263     8364     8479     8607 
    8753     8807     8710     8509     8217     7820     7380     7003 
    6756     6642     6648     6778     7061     7495     7920     8162 
    8274     8402     8549     8549     8282     7890     7570     7296 
    7017     6875     6987     7222     7381     7477     7615     7834 
    8144     8521     8854     8984     8779     8321     7840     7414 
    7063     6953     7191     7569     7735     7626     7518     7641 
    7925     8100     8032     7893     7836     7850     7832     7692 
    7483     7339     7308     7445     7819     8348     8761     8810 
    8517     8086     7686     7464     7504     7711     7874     7904 
    7975     8266     8644     8835     8703     8347     7946     7511 
    7048     6674     6353     6057     6043     6490     7200     7852 
    8347     8692     8851     8872     8845     8784     8680     8480 
    8205     8050     8082     8125     8010     7731     7442     7294 
    7294     7330     7329     7353     7452     7539     7511     7385 
    7291     7302     7337     7300     7202     7157     7321     7711 
    8209     8692     9046     9163     9027     8754     8472     8189 
    7862     7462     7048     6791     6718     6664     6617     6755 
    7186     7804     8376     8738     8864     8820     8662     8394 
    8108     7942     7870     7840     7862     7874     7809     7684 
    7508     7275     7071     7032     7194     7465     7701     7790 
    7736     7658     7681     7776     7839     7875     7920     7948 
    7963     8035     8185     8347     8448     8445     8324     8127 
    7920     7722     7514     7338     7223     7109     6959     6826 
    6809     7048     7577     8181     8560     8630     8561     8533 
    8588     8660     8598     8360     8075     7871     7792     7773 
    7688     7504     7318     7279     7443     7708     7932     7970 
    7774     7480     7223     7107     7233     7520     7817     8129 
    8438     8634     8671     8577     8406     8220     8089     8024 
    7954     7819     7585     7253     6929     6741     6740     6920 
    7218     7489     7569     7481     7460     7560     7612     7530 
    7392     7350     7510     7863     8348     8860     9262     9494 
    9614     9578     9174     8365     7372     6408     5709     5545 
    5945     6654     7323     7763     8036     8175     8170     8140 
    8175     8248     8321     8359     8351     8325     8310     8283 
    8167     7927     7589     7279     7161     7236     7412     7672 
    7913     8020     8044     8064     8091     8116     8097     7978 
    7753     7460     7199     7144     7395     7793     8106     8214 
    8098     7888     7736     7623     7508     7500     7726     8143 
    8534     8711     8675     8545     8363     8114     7828     7537 
    7256     7002     6825     6816     6997     7276     7562     7815 
    7987     8054     8044     7982     7888     7763     7541     7237 
    7034     7057     7290     7623     7915     8116     8233     8239 
    8136     8033     8059     8214     8356     8361     8256     8167 
    8151     8131     8054     7975     7904     7780     7630     7535 
    7528     7542     7445     7186     6894     6754     6863     7254 
    7857     8484     8938     9108     9028     8758     8370     8006 
    7701     7461     7312     7168     7045     7083     7261     7491 
    7740     7929     8005     7950     7763     7578     7560     7746 
    8014     8154     8128     8044     7963     7921     7897     7847 
    7722     7514     7331     7292     7403     7614     7879     8097 
    8118     7952     7757     7597     7446     7364     7470     7746 
    8047     8271     8391     8469     8560     8607     8532     8302 
    7974     7743     7761     7919     8019     7969     7771     7519 
    7307     7136     6976     6824     6720     6721     6858     7122 
    7483     7854     8152     8391     8587     8695     8689     8576 
    8364     8137     8013     7994     7986     7955     7913     7809 
    7601     7353     7195     7184     7238     7256     7276     7412 
    7662     7956     8229     8352     8259     8060     7866     7672 
    7483     7361     7311     7288     7296     7352     7445     7636 
    7971     8390     8764     8931     8811     8451     7940     7460 
    7182     7126     7261     7533     7900     8279     8449     8351 
    8159     8005     7904     7798     7665     7604     7665     7722 
    7692     7615     7531     7470     7469     7527     7631     7773 
    7921     8036     8122     8206     8263     8275     8233     8144 
    8066     8056     8118     8212     8218     8058     7805     7522 
    7263     7132     7125     7210     7337     7388     7393     7447 
    7538     7655     7766     7805     7785     7749     7700     7638 
    7642     7773     7977     8152     8222     8154     7981     7820 
    7749     7739     7777     7792     7705     7589     7533     7543 
