Origin Time       2024/06/23 22:54:00
Lat.              35.645
Long.             140.060
Depth. (km)       72
Mag.              4.1
Station Code      TKY025
Station Lat.      35.7136
Station Long.     139.8972
Station Height(m) 1
Record Time       2024/06/23 22:54:44
Sampling Freq(Hz) 100Hz
Duration Time(s)  61
Dir.              U-D
Scale Factor      7845(gal)/8223790
Max. Acc. (gal)   2.685
Last Correction   2024/06/23 22:54:44
Memo.             
[...]
   29296    29289    29292    29293    29292    29297    29304    29301 
   29293    29295    29299    29297    29297    29297    29297    29297 
   29292    29292    29295    29295    29295    29296    29300    29304 
   29300    29296    29295    29293    29293    29296    29303    29307 
   29301    29299    29299    29295    29292    29293    29293    29297 
   29300    29297    29296    29297    29300    29300    29305    29307 
   29297    29296    29299    29295    29295    29296    29290    29288 
   29295    29299    29300    29303    29300    29295    29288    29282 
   29282    29288    29293    29296    29299    29297    29292    29292 
   29293    29295    29297    29296    29292    29289    29289    29293 
   29297    29300    29301    29303    29303    29300    29299    29300 
   29297    29293    29297    29303    29301    29299    29296    29296 
   29295    29288    29289    29296    29296    29299    29303    29300 
   29295    29288    29289    29296    29293    29289    29297    29304 
   29301    29304    29305    29297    29292    29296    29300    29304 
   29308    29305    29301    29299    29296    29293    29293    29299 
   29301    29299    29301    29303    29297    29292    29290    29289 
   29290    29295    29295    29290    29288    29288    29289    29295 
   29299    29297    29297    29300    29300    29301    29304    29303 
   29300    29301    29304    29304    29300    29299    29303    29307 
   29303    29299    29304    29303    29295    29292    29288    29284 
   29286    29296    29303    29303    29297    29295    29299    29300 
   29299    29297    29299    29304    29300    29295    29300    29301 
   29301    29304    29304    29305    29312    29308    29301    29299 
   29290    29288    29299    29304    29303    29305    29308    29305 
   29297    29290    29288    29295    29299    29297    29300    29301 
   29297    29297    29301    29303    29301    29297    29299    29299 
   29296    29297    29301    29305    29305    29301    29303    29305 
   29305    29305    29304    29303    29303    29301    29304    29308 
   29300    29295    29297    29300    29307    29305    29299    29303 
   29304    29296    29297    29311    29312    29303    29303    29308 
   29305    29301    29300    29303    29305    29303    29303    29300 
   29297    29300    29297    29295    29297    29293    29290    29295 
   29297    29303    29305    29300    29297    29297    29296    29296 
   29290    29293    29303    29307    29311    29313    29309    29309 
   29307    29299    29296    29293    29295    29304    29307    29301 
   29299    29300    29300    29300    29301    29300    29300    29297 
   29292    29292    29296    29303    29305    29301    29303    29303 
   29299    29297    29296    29299    29300    29300    29301    29299 
   29296    29297    29293    29290    29300    29307    29305    29304 
   29300    29299    29296    29289    29288    29292    29292    29295 
   29300    29299    29301    29307    29300    29295    29297    29297 
   29300    29304    29301    29300    29300    29295    29295    29300 
   29299    29292    29295    29297    29293    29296    29299    29300 
   29304    29301    29295    29290    29290    29297    29296    29297 
   29303    29297    29290    29295    29293    29289    29297    29309 
   29307    29303    29304    29300    29295    29295    29293    29293 
   29303    29305    29301    29297    29295    29293    29295    29299 
   29295    29290    29296    29299    29295    29293    29289    29292 
   29296    29293    29297    29301    29299    29297    29300    29299 
   29290    29290    29297    29300    29304    29304    29300    29300 
   29297    29295    29296    29296    29297    29300    29295    29290 
   29293    29295    29299    29301    29295    29292    29299    29296 
   29293    29301    29299    29297    29301    29299    29299    29305 
   29304    29297    29297    29299    29296    29293    29295    29295 
   29288    29286    29289    29293    29301    29303    29297    29307 
   29305    29289    29290    29300    29296    29299    29305    29305 
   29301    29296    29296    29297    29300    29303    29303    29301 
   29296    29290    29290    29289    29282    29284    29295    29296 
   29293    29301    29304    29295    29295    29299    29299    29301 
   29303    29297    29297    29301    29301    29299    29297    29293 
   29288    29290    29300    29301    29301    29301    29297    29293 
   29288    29286    29293    29299    29299    29295    29289    29293 
   29301    29300    29297    29292    29284    29288    29297    29300 
   29304    29305    29304    29308    29308    29300    29299    29297 
   29288    29278    29285    29299    29299    29297    29299    29305 
   29317    29338    29367    29394    29423    29448    29440    29363 
   29211    29064    29043    29141    29208    29182    29176    29278 
   29336    29211    29173    29440    29727    29799    29670    29390 
   29295    29392    29128    28615    28429    28642    29089    29412 
   29454    29598    29733    29446    29097    29236    29822    30311 
   29862    28648    28201    28651    28765    28814    29593    30807 
   31456    30681    29254    28278    27513    27398    28499    29666 
   30173    30318    29934    29050    28629    29076    29134    28630 
   29239    30148    29292    28568    29790    30384    29475    29069 
   28929    28787    29392    29938    29857    29188    28367    28553 
   29174    29227    29579    30403    30607    30109    29305    28147 
   27537    28453    29627    29731    29519    29512    29157    28630 
   28930    29880    30271    30339    30312    29328    28495    28779 
   28756    28591    29269    29613    29258    29346    29660    29704 
   29851    29527    28645    28219    27849    28094    30030    31233 
   30658    30173    29050    27338    27957    30242    30870    29590 
   28286    28132    28946    29524    29411    29370    29697    29945 
   29841    29385    28903    29010    29396    29130    28756    29300 
   29922    29370    28410    28539    29330    29797    30458    30917 
   29848    28539    28474    28548    28470    28934    29272    29335 
   29731    29971    29794    29840    29690    28773    28370    29023 
   29396    29299    29396    29465    29344    29246    29204    29224 
   29201    29085    29338    29922    29953    29451    29025    28613 
   28559    29323    29971    29689    29351    29405    28977    28413 
   28880    29749    29937    29722    29479    29084    28782    28869 
   29019    29147    29450    29566    29586    29759    29523    29111 
   29219    29401    29339    29363    29415    29276    29255    29585 
   29535    28829    28483    28601    28599    29153    30310    30568 
   29840    29339    29039    28707    29004    29698    29779    29396 
   29187    29008    28760    28946    29496    29569    29353    29597 
   29709    29245    28966    28961    28833    28858    29174    29536 
   29656    29401    29309    29659    29818    29589    29242    28890 
   28890    29230    29454    29586    29594    29281    29115    29465 
   29725    29486    29336    29432    29104    28730    28876    28668 
   28405    29246    30022    29907    29944    29845    29054    28506 
   28560    28911    29593    30026    29633    29070    28995    29226 
   29556    29951    29913    29239    28854    28953    28671    28586 
   29536    30265    29925    29425    28857    28201    28564    29151 
   28557    28413    29469    30003    30379    31064    30453    29003 
   28223    28069    28961    30360    30173    28919    28494    28637 
   28773    28885    28873    29632    31006    31068    29944    29182 
   28873    28782    29037    29091    28676    28819    29743    30056 
   29401    28965    29124    29459    30165    30611    29556    28364 
   28603    28800    28399    28753    29380    29316    29249    29528 
   29430    28883    28728    29201    29790    30028    29704    29065 
   28435    28117    28607    29710    30639    30906    30380    29427 
   28711    28664    29185    29447    28953    28333    28171    28692 
   30036    30886    29884    28476    28210    28445    28971    30022 
   30585    30053    29357    29057    28706    28506    29103    29938 
   30260    30117    29529    28938    28931    28977    28757    29091 
   29782    29670    29235    29151    28813    28688    29474    29994 
   29388    28701    28981    29864    30615    30785    29870    28371 
   27726    28252    29139    29690    29639    29295    29061    28877 
   28807    29188    29839    29992    29231    28273    28331    29511 
   30454    30223    29558    28969    28440    28767    29485    29390 
   29431    30115    30208    29535    28780    28572    29127    29435 
   29311    29805    30303    29951    29477    28977    28364    28456 
   29022    29220    29072    28807    28755    29073    29550    30127 
   30321    29789    29513    29793    29637    29146    28780    28308 
   28318    28922    29192    29389    29625    29311    29189    29654 
   29633    29008    28826    29512    30353    30458    29732    28664 
   27903    27773    28181    29226    30441    30824    30341    29474 
   28532    27986    28290    29482    30808    31297    30719    29385 
   28162    27977    28664    29578    30172    29975    29303    28676 
   28038    27793    28505    29648    30339    29972    28894    28792 
   29874    30361    29863    29155    28702    28944    29470    29463 
   29265    29398    29533    29231    28555    28339    29300    30349 
   29964    28755    28155    28339    28776    29118    29516    30022 
   30110    29891    29844    29722    29550    29604    29478    29139 
   28977    28848    28858    29204    29377    29104    28674    28626 
   29180    29737    30105    30250    29517    28761    29188    29639 
   29493    29594    29578    29242    29389    29423    28660    28425 
   29014    29034    28763    29131    29754    30254    30364    29751 
   28969    28561    28440    28683    29261    29841    30132    29920 
   29365    28891    28706    28869    29231    29502    29786    29938 
   29384    28571    28560    29346    30014    29898    29204    28645 
   28726    29270    29434    29107    29250    29625    29177    28656 
   29070    29558    29578    29659    29590    29270    29416    29913 
   29880    29284    28750    28570    28930    29656    29814    29350 
   29276    29560    29462    29095    28985    29196    29338    29327 
   29338    29019    28505    28576    29231    29812    29783    29493 
   29624    29655    29282    29119    28902    28661    29220    29825 
   29605    29404    29608    29659    29413    29012    28611    28599 
   29251    30129    30446    29952    29141    28698    28691    28702 
   28728    28992    29273    29366    29538    29685    29389    29192 
   29517    29504    29108    29231    29542    29428    29288    29165 
   28746    28602    29022    29384    29710    30314    30559    30095 
   29620    29222    28536    28273    28706    29189    29803    30321 
   29921    28906    28043    27859    28609    29490    29851    30127 
   30177    29628    29103    28880    28885    29261    29412    29289 
   29678    30017    29745    29597    29527    28840    28112    28304 
   29020    29436    29597    29727    29671    29556    29610    29515 
   29164    29142    29531    29539    28918    28471    28622    29097 
   29729    30118    29982    29650    29295    28987    28711    28372 
   28503    29301    29745    29262    28586    28201    28144    28946 
   30208    30623    30458    30319    29837    29496    29690    29502 
   28548    27707    28001    29195    30206    30686    30461    29563 
   28861    28595    28629    29230    29712    29454    29088    28853 
   28883    29523    29883    29401    28864    28561    28602    29166 
   29558    29609    29936    30192    29845    29396    29203    29037 
   28821    28602    28640    29053    29367    29577    29859    29863 
   29736    29674    29315    28810    28613    28817    29270    29697 
   29909    29710    29145    28782    28791    29018    29404    29392 
   28966    28946    29254    29467    29581    29551    29640    29856 
   29612    28979    28721    29100    29679    29853    29493    29145 
   29208    29326    29099    28836    28958    29259    29394    29349 
   29236    29315    29590    29652    29601    29714    29646    29374 
   29133    28760    28633    29065    29280    29049    29123    29538 
   29803    29710    29277    29026    29185    29174    29011    29076 
   29253    29650    29978    29656    29377    29617    29833    29882 
   29648    29114    28834    28898    28908    28701    28491    28675 
   29124    29327    29311    29330    29277    29127    29046    29092 
   29297    29550    29659    29717    29739    29540    29270    29242 
   29378    29400    29226    28939    28849    29238    29646    29536 
   29350    29407    29435    29654    30107    30038    29336    28672 
   28250    28181    28730    29475    29982    30321    30095    29216 
   28607    28516    28499    28692    29178    29639    30106    30585 
   30561    29870    28941    27977    27226    27203    27696    28219 
   29085    30295    31095    31388    31471    30947    29747    28686 
   28271    28580    29619    30650    30905    30681    29992    28493 
   27031    26484    26797    27957    29447    30399    30800    30558 
   29388    28154    27803    28146    28927    29999    30697    30654 
   30190    29693    29412    29332    29114    28659    28286    28352 
   29038    29899    30245    30272    30291    30037    29593    29039 
   28294    27935    28273    28904    29536    29949    30064    29921 
   29590    29347    29262    29176    28956    28555    28339    28660 
   29367    30188    30867    31244    31058    29984    28641    27905 
   27666    27743    28065    28371    28957    29798    30037    29613 
   29212    29004    28989    29411    30048    30233    29741    28950 
   28499    28578    28779    29166    29810    30076    29759    29205 
   28831    28923    29065    29191    29849    30460    30339    30092 
   29925    29347    28613    28385    28690    28861    28509    28144 
   28213    28733    29797    31068    31823    31685    30667    29288 
   28321    27945    27865    28034    28333    28486    28842    29628 
   30102    30044    29952    29654    29056    28757    28854    28985 
   29349    30038    30218    29613    29092    28787    28335    28210 
   28741    29625    30434    30645    30246    29758    29380    29100 
   28971    28814    28412    28090    28343    29015    29583    29925 
   30156    30095    29655    29231    29027    28845    28756    28971 
   29307    29493    29592    29731    29656    29274    29111    29288 
   29385    29442    29485    29238    29058    29351    29646    29575 
   29489    29581    29640    29478    29029    28552    28393    28448 
   28679    29187    29613    29766    29870    29857    29644    29412 
   29099    28610    28333    28559    28980    29297    29543    29789 
   29882    29544    29025    28879    29127    29492    29802    30006 
   30140    30056    29749    29446    29006    28532    28613    29115 
   29463    29609    29571    29261    28991    28890    28675    28576 
   28853    29184    29535    29979    30177    30017    29660    29165 
   28545    28044    28200    28923    29532    30107    30766    30933 
   30504    29743    28872    28318    28304    28725    29157    29196 
   29145    29277    29299    29088    28787    28628    28748    28965 
   29263    29648    29839    29929    30144    30314    30353    30250 
   29925    29479    28966    28375    27895    27719    27969    28583 
   29151    29467    29700    29786    29565    29290    29220    29226 
   29173    29131    29172    29369    29687    29948    29972    29616 
   29193    29326    29830    30099    30196    30248    30055    29633 
   29054    28386    28017    28264    28773    29091    29370    29751 
   29907    29585    28896    28317    28232    28514    28950    29413 
   29612    29419    29087    28872    28903    29192    29575    29857 
   29991    29953    29682    29296    28933    28733    28880    29141 
   29277    29533    29848    29862    29694    29617    29679    29768 
   29710    29658    29704    29523    29261    29308    29309    29031 
   28788    28574    28313    28283    28591    29003    29401    29797 
   29943    29778    29625    29482    29219    28946    28792    28918 
   29107    28988    28715    28424    28391    28907    29421    29760 
   30254    30420    30073    29728    29435    29247    29376    29585 
   29652    29559    29223    28741    28410    28475    28979    29677 
   30179    30306    30192    30060    30018    29934    29593    29222 
   29162    29177    29066    29126    29382    29505    29349    28873 
   28304    28177    28510    28914    29270    29438    29374    29367 
   29384    29092    28526    28081    28036    28371    29019    29790 
   30246    30329    30265    29921    29373    29031    28892    28871 
   29180    29737    30087    30138    30098    29825    29334    28992 
   28684    28217    28003    28243    28738    29486    30346    30769 
   30578    30132    29570    29057    28992    29257    29466    29577 
   29555    29439    29423    29493    29548    29575    29525    29274 
   28788    28318    28250    28648    29124    29280    29134    28895 
   28656    28572    28779    29083    29361    29736    30069    30149 
   30086    29878    29381    28784    28381    28250    28489    29084 
   29610    29845    30063    30269    30231    30067    29918    29679 
   29349    29079    28926    28867    28887    28975    28991    28907 
   29025    29344    29512    29554    29592    29555    29538    29520 
   29332    29085    28869    28713    28798    28938    28804    28718 
   28948    29114    29106    29170    29239    29324    29605    29880 
   29964    29949    29818    29628    29533    29444    29301    29212 
   29124    28918    28819    29151    29673    29914    29821    29446 
   28919    28707    28957    29296    29570    29724    29586    29369 
   29330    29304    29268    29305    29277    29296    29513    29594 
   29432    29239    28952    28644    28694    29092    29435    29601 
   29741    29735    29508    29397    29349    29053    28806    28875 
   29004    29077    29091    28890    28617    28620    28879    29238 
   29655    30019    30223    30304    30345    30225    29766    29173 
   28765    28594    28688    28981    29204    29239    29095    28842 
   28732    28854    29074    29332    29485    29396    29319    29465 
   29651    29721    29604    29265    28969    28958    29084    29266 
   29582    29813    29766    29610    29450    29376    29550    29725 
   29646    29527    29386    29074    28875    28891    28829    28740 
   28784    28813    28852    29058    29394    29829    30150    30042 
   29700    29425    29158    28944    28945    29016    29006    29007 
   29079    29238    29512    29760    29793    29600    29363    29315 
   29417    29444    29346    29253    29301    29393    29293    29069 
