Origin Time       2024/06/23 22:54:00
Lat.              35.645
Long.             140.060
Depth. (km)       72
Mag.              4.1
Station Code      TKY013
Station Lat.      35.6627
Station Long.     139.8341
Station Height(m) 1
Record Time       2024/06/23 22:54:45
Sampling Freq(Hz) 100Hz
Duration Time(s)  60
Dir.              U-D
Scale Factor      7845(gal)/8223790
Max. Acc. (gal)   2.281
Last Correction   2024/06/23 22:54:44
Memo.             
   13540    13570    13593    13605    13590    13554    13552    13570 
   13570    13559    13564    13579    13576    13563    13554    13558 
   13556    13548    13559    13558    13541    13545    13556    13556 
   13540    13533    13545    13554    13551    13541    13545    13570 
   13591    13583    13549    13541    13564    13594    13606    13589 
   13566    13548    13564    13587    13591    13597    13583    13563 
   13556    13545    13543    13555    13562    13554    13549    13555 
   13558    13556    13556    13567    13570    13549    13529    13522 
   13539    13548    13548    13571    13589    13576    13556    13566 
   13590    13576    13556    13566    13576    13575    13568    13574 
   13591    13601    13570    13533    13544    13560    13560    13564 
   13562    13558    13564    13563    13549    13547    13549    13545 
   13549    13558    13563    13555    13543    13554    13554    13551 
   13567    13563    13544    13554    13590    13599    13566    13548 
   13566    13593    13590    13567    13549    13536    13539    13556 
   13581    13583    13571    13578    13572    13560    13559    13556 
   13556    13556    13564    13564    13548    13549    13563    13574 
   13572    13572    13581    13575    13563    13555    13555    13559 
   13555    13558    13559    13545    13533    13536    13529    13518 
   13545    13575    13574    13574    13586    13591    13575    13578 
   13594    13571    13544    13545    13564    13572    13552    13544 
   13552    13568    13586    13582    13570    13562    13562    13552 
   13545    13548    13555    13564    13563    13563    13574    13576 
   13579    13578    13576    13571    13563    13570    13572    13558 
   13533    13531    13552    13556    13551    13548    13547    13555 
   13567    13568    13547    13541    13566    13571    13558    13547 
   13549    13558    13558    13560    13560    13564    13576    13595 
   13595    13576    13574    13571    13572    13566    13541    13537 
   13552    13559    13554    13558    13586    13587    13563    13551 
   13548    13547    13552    13564    13564    13567    13578    13582 
   13572    13547    13531    13540    13559    13576    13574    13566 
   13564    13556    13549    13554    13578    13589    13570    13548 
   13552    13575    13576    13562    13556    13552    13552    13560 
   13574    13566    13541    13543    13539    13522    13529    13549 
   13549    13554    13575    13567    13554    13576    13583    13570 
   13574    13594    13589    13563    13552    13544    13541    13562 
   13589    13591    13559    13545    13571    13595    13587    13560 
   13548    13552    13564    13567    13543    13529    13539    13556 
   13566    13566    13559    13547    13552    13558    13544    13543 
   13554    13562    13558    13552    13555    13567    13576    13564 
   13558    13571    13583    13578    13547    13548    13578    13576 
   13566    13551    13533    13536    13567    13591    13575    13549 
   13554    13578    13575    13552    13549    13549    13552    13556 
   13532    13522    13555    13594    13593    13571    13564    13566 
   13572    13572    13578    13591    13582    13564    13554    13551 
   13559    13572    13585    13564    13539    13545    13545    13537 
   13545    13554    13552    13548    13545    13535    13529    13527 
   13547    13579    13570    13540    13529    13556    13589    13585 
   13567    13560    13572    13582    13563    13536    13532    13554 
   13564    13572    13595    13598    13582    13572    13579    13585 
   13574    13566    13551    13544    13548    13547    13558    13564 
   13556    13563    13578    13563    13539    13549    13558    13552 
   13560    13563    13563    13555    13544    13548    13563    13576 
   13567    13558    13566    13566    13560    13563    13566    13558 
   13560    13564    13560    13575    13571    13547    13555    13576 
   13589    13576    13545    13522    13537    13578    13585    13552 
   13535    13545    13562    13562    13552    13547    13566    13593 
   13589    13574    13554    13537    13551    13572    13581    13558 
   13535    13552    13574    13583    13593    13595    13567    13551 
   13570    13578    13566    13544    13531    13533    13535    13544 
   13551    13554    13555    13554    13567    13574    13563    13562 
   13568    13559    13547    13563    13564    13551    13562    13563 
   13555    13568    13589    13585    13563    13571    13583    13574 
   13560    13554    13556    13558    13563    13564    13554    13543 
   13527    13529    13555    13567    13566    13567    13578    13567 
   13544    13547    13559    13549    13541    13570    13595    13581 
   13567    13560    13551    13549    13560    13586    13594    13579 
   13559    13556    13563    13556    13559    13572    13581    13575 
   13578    13583    13554    13531    13545    13563    13556    13535 
   13533    13532    13522    13524    13514    13517    13552    13582 
   13576    13552    13556    13576    13583    13582    13589    13598 
   13593    13583    13572    13556    13564    13585    13583    13562 
   13555    13574    13576    13554    13529    13540    13559    13545 
   13539    13552    13563    13554    13539    13551    13567    13564 
   13558    13567    13564    13543    13554    13576    13576    13576 
   13575    13572    13568    13572    13582    13581    13590    13610 
   13612    13587    13597    13664    13687    13572    13367    13271 
   13379    13531    13597    13621    13626    13567    13474    13485 
   13628    13744    13639    13413    13358    13452    13483    13513 
   13667    13617    13073    12644    13109    14104    14526    14076 
   13419    13122    13365    14027    14593    14577    14031    13273 
   12386    11720    12280    14247    15952    15808    14280    12838 
   12285    12583    13143    13444    13423    13176    13081    13570 
   14210    14099    13309    12843    13293    13948    13589    12692 
   13046    14466    14883    13959    13447    13953    14204    13441 
   12573    12784    13656    13913    13744    14176    14685    13922 
   12282    11735    12974    14157    13811    13325    14129    14885 
   14026    12433    11965    12910    13965    14116    13680    13556 
   13872    14088    14050    13828    13404    13167    13404    13636 
   13622    13603    13456    13235    13423    13899    14041    13663 
   13163    13105    13579    13917    13595    13105    12997    13105 
   13367    13950    14584    14746    14048    12746    12218    13186 
   14169    13922    13309    13333    13718    13780    13402    13150 
   13481    13919    13698    13099    12939    13321    13968    14586 
   14575    13717    12789    12549    12964    13647    14161    14359 
   14355    13980    13332    13105    13392    13508    13279    13119 
   13142    13211    13458    14025    14359    13888    13154    13016 
   13412    13671    13529    13410    13605    13834    13818    13647 
   13587    13763    13992    13890    13416    13043    13086    13396 
   13667    13693    13497    13323    13277    13230    13235    13479 
   13867    14099    14056    13984    13977    13705    13131    12761 
   12984    13591    13914    13581    13167    13306    13653    13779 
   13868    13986    13988    13910    13756    13432    13041    12847 
   13065    13641    14045    13905    13687    13844    13965    13583 
   13093    13171    13678    13917    13678    13274    12891    12730 
   13080    13649    13917    13909    13926    14034    14006    13749 
   13597    13809    13991    13603    12856    12460    12795    13625 
   14322    14373    13896    13429    13095    12833    13014    13625 
   14040    14089    14029    13929    13733    13333    12854    12837 
   13285    13493    13446    13659    14037    14195    14091    13914 
   13803    13779    13748    13594    13344    13177    13282    13487 
   13347    12901    12750    13184    13679    13732    13702    13942 
   14044    13832    13737    13772    13643    13420    13212    13051 
   13095    13485    14068    14254    13956    13937    14125    13589 
   12559    12278    13092    14084    14114    13097    12326    12757 
   13721    14160    13995    13637    13354    13452    13860    14011 
   13864    13868    14050    14037    13733    13459    13370    13205 
   12992    13282    14010    14273    13703    13027    13132    13836 
   14096    13566    13039    13189    13643    13768    13609    13473 
   13504    13670    13686    13468    13501    13952    14219    13934 
   13387    13096    13406    14068    14439    14053    13041    12344 
   12726    13514    13517    12919    12846    13467    13886    13713 
   13564    13855    14193    14064    13508    13203    13344    13200 
   12784    13123    14291    15055    14575    13614    13475    13834 
   13421    12479    12131    12536    13238    13909    14526    14887 
   14328    13108    12629    13128    13332    13026    13367    14392 
   14701    13734    12538    12287    13057    14050    14535    14457 
   14127    13774    13533    13396    13239    13003    12839    13038 
   13478    13709    13672    13722    14018    14342    14470    14308 
   13814    13171    12803    12783    12922    13479    14281    14432 
   13991    13709    13610    13545    13581    13427    12853    12378 
   12672    13568    14212    14206    13898    13586    13437    13529 
   13478    13193    13477    14640    15423    14609    12868    11893 
   12293    13074    13250    13122    13467    14219    14449    13755 
   13158    13529    13983    13459    12564    12434    13300    14509 
   14929    14179    13346    13389    13911    14014    13454    12749 
   12542    13049    13942    14534    14381    13910    13659    13394 
   12985    12984    13690    14430    14216    13111    12317    12667 
   13532    13697    13146    13023    13726    14295    14079    13625 
   13532    13667    13674    13595    13760    14087    14054    13621 
   13452    13699    13633    13042    12695    13035    13568    13807 
   13670    13219    12988    13343    13686    13655    13699    13906 
   13902    13749    13837    14261    14605    14342    13693    13369 
   13347    13086    12677    12745    13323    13662    13435    13329 
   13828    14189    13667    12772    12421    12864    13725    14293 
   14160    13846    13945    13994    13460    12891    13112    13865 
   13922    12969    12388    13166    14261    14351    13738    13348 
   13468    13832    13869    13427    13144    13455    13942    14080 
   13797    13343    13238    13664    14076    14139    14042    13855 
   13533    13192    13003    13073    13325    13435    13312    13298 
   13512    13705    13810    13829    13524    13151    13433    14102 
   14276    13946    13598    13421    13495    13670    13498    13093 
   13099    13539    13849    13736    13547    13726    13914    13474 
   12807    12761    13197    13436    13365    13313    13571    13981 
   13973    13440    13082    13444    14197    14640    14480    13971 
   13500    13228    13131    13158    13220    13238    13228    13350 
   13730    14175    14196    13693    13370    13529    13571    13360 
   13302    13427    13680    14029    14023    13428    12839    12860 
   13319    13643    13625    13668    14084    14473    14223    13460 
   12922    12874    12957    12950    13034    13343    13664    13791 
   13803    13849    14037    14373    14512    14102    13462    13014 
   12795    12966    13562    14015    13786    13073    12690    13105 
   13811    14045    13760    13578    13895    14265    14042    13485 
   13265    13346    13313    13196    13379    13883    14192    13973 
   13447    13165    13382    13568    13254    12931    13128    13497 
   13716    14053    14519    14523    13752    12901    12838    13296 
   13390    13063    13055    13672    14269    14227    13872    13775 
   13833    13682    13369    13117    13057    13259    13645    13851 
   13656    13468    13667    13822    13359    12729    12792    13305 
   13541    13566    13736    14010    14096    13799    13274    12935 
   13043    13532    14049    14156    13825    13429    13212    13220 
   13417    13662    13759    13691    13720    13918    13980    13728 
   13352    13078    13080    13374    13564    13516    13632    14003 
   14320    14292    13863    13504    13614    13772    13493    13143 
   13196    13410    13387    13194    13123    13327    13759    14045 
   13761    13252    13228    13582    13690    13473    13356    13475 
   13512    13300    13180    13459    13838    13910    13671    13377 
   13377    13822    14381    14453    13841    13050    12698    12941 
   13451    13788    13913    14099    14281    14112    13771    13620 
   13537    13435    13266    12779    12209    12276    13127    14103 
   14628    14723    14590    14103    13240    12609    12703    13278 
   13768    13967    14156    14399    14243    13544    12810    12428 
   12325    12565    13263    14050    14341    14081    13798    13680 
   13428    13217    13541    14133    14160    13470    12933    13250 
   13933    14057    13702    13690    14108    14042    13078    12270 
   12602    13467    13741    13417    13394    14080    14737    14424 
   13405    12891    13286    13730    13594    13427    13919    14539 
   14243    13220    12730    13182    13618    13417    13007    12934 
   13429    14177    14430    14073    13675    13419    13176    12960 
   12793    12912    13487    14075    14238    14157    14177    14123 
   13509    12617    12393    12988    13636    13922    13949    13856 
   13809    13718    13323    12804    12657    13070    13666    13980 
   14042    14088    14075    13887    13648    13579    13740    13876 
   13647    13247    13100    13144    13189    13250    13331    13429 
   13640    13973    14162    13857    13255    13171    13778    14207 
   14011    13717    13752    13770    13261    12507    12379    13166 
   14137    14501    14230    13728    13312    13053    12938    12996 
   13181    13414    13705    14148    14735    15105    14833    14064 
   13470    13401    13525    13348    12854    12471    12422    12587 
   12856    13201    13532    13716    13776    13834    14023    14442 
   14723    14388    13709    13194    12802    12428    12285    12490 
   13059    13813    14314    14602    15017    15291    14980    14238 
   13532    12985    12413    11890    11784    12114    12474    12783 
   13348    14200    14893    14890    14162    13239    12677    12683 
   13080    13429    13382    13134    13135    13506    14143    14817 
   15284    15592    15781    15572    14785    13628    12429    11608 
   11557    12078    12549    12698    12745    13023    13563    13990 
   13986    13792    13817    14064    14224    14015    13563    13306 
   13427    13757    13981    13952    13891    13954    13892    13504 
   13005    12660    12613    13023    13706    14170    14297    14388 
   14532    14474    14111    13639    13308    13169    13042    12814 
   12572    12433    12437    12664    13096    13532    13988    14615 
   15219    15445    15140    14467    13744    13193    12710    12098 
   11658    11805    12340    12750    12892    12995    13309    13792 
   14092    13988    13725    13702    14022    14377    14409    14038 
   13455    13061    13158    13610    14069    14407    14607    14459 
   13903    13311    13008    12935    12973    13167    13454    13606 
   13581    13576    13790    14107    14180    13938    13651    13452 
   13215    12858    12471    12314    12595    13135    13760    14449 
   14948    15043    14856    14526    14143    13849    13620    13431 
   13456    13562    13347    12846    12501    12664    13284    13959 
   14384    14543    14500    14180    13477    12606    12163    12521 
   13331    13875    13794    13441    13369    13568    13675    13567 
   13482    13513    13350    12826    12318    12314    12901    13772 
   14515    14840    14793    14569    14250    13950    13737    13392 
   12765    12279    12318    12623    12880    13228    13960    14959 
   15549    15203    14141    13061    12536    12595    12791    12775 
   12711    12811    12912    12889    12968    13324    13740    14049 
   14377    14752    15005    14895    14430    13905    13405    12942 
   12912    13501    14199    14578    14723    14724    14524    14050 
   13347    12661    12220    12039    12017    12152    12567    13282 
   14114    14771    15084    15021    14643    14183    13707    13018 
   12178    11608    11549    11912    12514    13185    13922    14717 
   15246    15352    15311    15276    15052    14478    13686    12860 
   12051    11441    11430    12133    13092    13751    13938    13938 
   14142    14578    14941    14868    14269    13518    12927    12430 
   12100    12131    12480    13085    13828    14368    14665    14812 
   14532    13713    12772    12248    12371    12858    13273    13527 
   13747    13925    13980    13900    13745    13652    13694    13825 
   13917    13840    13648    13529    13605    13828    14035    13994 
   13549    12953    12642    12708    12953    13262    13651    14034 
   14285    14400    14364    14130    13717    13220    12822    12698 
   12866    13212    13549    13698    13738    13945    14307    14638 
   14850    14812    14335    13502    12769    12426    12279    12148 
   12202    12555    13003    13377    13682    13980    14364    14719 
   14774    14519    14315    14380    14391    14035    13495    13105 
   12924    12741    12448    12249    12441    13018    13586    13853 
   13895    13918    13946    13784    13386    13054    13012    13124 
   13309    13657    14107    14482    14582    14304    13869    13616 
   13549    13390    13124    13057    13254    13454    13508    13533 
   13620    13648    13535    13378    13379    13517    13539    13352 
   13139    13108    13258    13440    13585    13675    13667    13535 
   13394    13498    13891    14270    14395    14389    14447    14455 
   14187    13691    13270    13045    12854    12561    12307    12409 
   12895    13432    13787    13998    14193    14353    14365    14215 
   13948    13564    13119    12881    13016    13333    13655    13954 
   14189    14280    14179    13919    13644    13444    13265    13146 
   13153    13200    13306    13508    13563    13278    12927    12943 
   13285    13625    13799    13792    13684    13582    13470    13262 
   13015    12850    12802    12969    13396    13869    14161    14293 
   14408    14489    14476    14384    14195    13882    13458    13038 
   12865    13062    13455    13703    13667    13520    13448    13431 
   13400    13359    13313    13393    13698    13983    13948    13709 
   13689    13969    14071    13639    12970    12610    12669    12907 
   13161    13342    13363    13230    13159    13460    14019    14381 
   14388    14251    14065    13780    13462    13128    12784    12645 
   12866    13270    13608    13840    14035    14185    14199    14116 
