Origin Time       2024/06/23 22:54:00
Lat.              35.645
Long.             140.060
Depth. (km)       72
Mag.              4.1
Station Code      TKY024
Station Lat.      35.7422
Station Long.     139.8612
Station Height(m) 3
Record Time       2024/06/23 22:54:45
Sampling Freq(Hz) 100Hz
Duration Time(s)  60
Dir.              E-W
Scale Factor      7845(gal)/8223790
Max. Acc. (gal)   6.229
Last Correction   2024/06/23 22:54:44
Memo.             
[...]
    -533     -531     -540     -545     -544     -533     -525     -523 
    -518     -514     -521     -526     -525     -527     -535     -537 
    -530     -533     -541     -535     -527     -523     -514     -506 
    -517     -535     -550     -558     -554     -535     -521     -529 
    -540     -535     -526     -514     -514     -523     -515     -508 
    -526     -544     -542     -527     -519     -519     -521     -517 
    -502     -494     -514     -534     -526     -527     -548     -552 
    -549     -548     -529     -530     -554     -552     -541     -538 
    -514     -496     -503     -514     -523     -525     -514     -522 
    -537     -531     -517     -523     -544     -556     -556     -550 
    -545     -537     -537     -545     -552     -556     -544     -515 
    -507     -521     -529     -527     -513     -498     -504     -529 
    -538     -531     -525     -518     -517     -538     -558     -548 
    -518     -496     -495     -514     -534     -535     -525     -537 
    -560     -556     -548     -546     -535     -526     -519     -515 
    -510     -503     -508     -523     -534     -545     -554     -545 
    -527     -531     -553     -550     -530     -511     -503     -507 
    -521     -537     -545     -548     -541     -523     -511     -514 
    -521     -530     -541     -542     -533     -527     -522     -514 
    -514     -519     -517     -517     -531     -545     -538     -529 
    -541     -552     -552     -553     -541     -511     -495     -503 
    -529     -550     -548     -531     -525     -527     -531     -535 
    -542     -545     -541     -529     -515     -507     -507     -511 
    -519     -537     -554     -545     -515     -503     -518     -544 
    -568     -565     -525     -496     -506     -522     -514     -503 
    -511     -525     -533     -538     -546     -562     -571     -564 
    -545     -526     -523     -519     -510     -507     -510     -513 
    -519     -540     -552     -550     -546     -537     -526     -537 
    -541     -527     -517     -508     -495     -499     -530     -562 
    -565     -544     -521     -507     -510     -530     -546     -550 
    -538     -515     -508     -530     -553     -557     -537     -508 
    -502     -518     -531     -529     -522     -518     -514     -513 
    -525     -537     -531     -525     -519     -515     -527     -546 
    -550     -552     -554     -540     -525     -527     -526     -522 
    -523     -514     -513     -522     -522     -529     -548     -552 
    -548     -537     -522     -521     -526     -521     -521     -529 
    -515     -506     -527     -540     -527     -521     -523     -534 
    -550     -540     -507     -490     -494     -511     -538     -557 
    -548     -523     -513     -527     -561     -580     -562     -522 
    -498     -517     -548     -540     -515     -504     -515     -545 
    -554     -530     -518     -522     -522     -525     -531     -530 
    -527     -522     -517     -525     -535     -534     -535     -538 
    -529     -519     -515     -525     -548     -557     -545     -530 
    -519     -519     -534     -541     -526     -504     -506     -518 
    -527     -546     -554     -538     -525     -518     -518     -530 
    -533     -525     -530     -546     -552     -550     -546     -537 
    -527     -530     -541     -537     -518     -514     -527     -544 
    -554     -546     -529     -522     -526     -527     -525     -519 
    -511     -510     -521     -523     -515     -521     -530     -530 
    -537     -549     -549     -542     -541     -535     -535     -553 
    -557     -534     -515     -508     -511     -522     -535     -541 
    -533     -523     -534     -546     -546     -545     -540     -522 
    -517     -529     -534     -533     -535     -526     -513     -513 
    -519     -519     -518     -521     -535     -549     -550     -542 
    -529     -521     -518     -518     -513     -507     -515     -533 
    -538     -535     -537     -537     -538     -540     -538     -540 
    -545     -550     -546     -527     -510     -513     -535     -557 
    -549     -527     -521     -521     -521     -525     -523     -522 
    -515     -510     -525     -544     -556     -565     -550     -525 
    -523     -533     -538     -544     -530     -504     -496     -513 
    -529     -538     -546     -545     -522     -510     -540     -562 
    -545     -525     -526     -531     -523     -511     -511     -527 
    -548     -544     -513     -507     -548     -573     -535     -486 
    -491     -535     -572     -556     -481     -452     -531     -595 
    -552     -490     -504     -567     -571     -498     -469     -534 
    -585     -558     -511     -487     -463     -477     -554     -596 
    -573     -548     -498     -464     -518     -595     -600     -522 
    -446     -502     -626     -589     -436     -423     -573     -675 
    -626     -530     -476     -463     -540     -646     -552     -356 
    -360     -481     -576     -707     -768     -607     -363     -311 
    -545     -753     -633     -378     -342     -507     -587     -492 
    -422     -510     -683     -777     -642     -351     -247     -465 
    -657     -588     -475     -417     -396     -612     -916     -815 
    -394     -237     -490     -762     -812     -642     -314      -44 
     -89     -400     -641     -687     -741     -785     -675     -468 
    -298     -363     -652     -757     -600     -486     -419     -414 
    -581     -703     -652     -596     -531     -430     -461     -583 
    -612     -492     -198      -16     -313     -774     -900     -712 
    -534     -585     -778     -777     -484     -271     -337     -450 
    -467     -395     -391     -646     -874     -720     -445     -402 
    -504     -568     -537     -390     -272     -402     -672     -783 
    -662     -522     -511     -549     -519     -436     -407     -550 
    -723     -595     -251     -232     -680     -990     -718     -313 
    -309     -540     -670     -603     -425     -378     -491     -546 
    -546     -631     -716     -634     -399     -274     -450     -689 
    -702     -564     -448     -452     -649     -766     -419      -49 
    -319     -841     -909     -554     -264     -430     -846     -877 
    -419      -66     -193     -545     -702     -612     -565     -677 
    -766     -714     -561     -364     -232     -286     -384     -394 
    -472     -670     -819     -757     -508     -349     -373     -333 
    -276     -584    -1070    -1082     -552      -91     -171     -562 
    -726     -646     -675     -756     -571     -202      -36     -207 
    -554     -826     -853     -672     -460     -434     -518     -432 
    -332     -459     -630     -723     -751     -646     -461     -391 
    -442     -469     -506     -610     -629     -499     -375     -390 
    -491     -608     -749     -827     -756     -548     -228      -16 
    -272     -831    -1039     -688     -305     -387     -710     -702 
    -373     -240     -405     -483     -349     -310     -473     -616 
    -635     -594     -568     -675     -900     -927     -556     -121 
     -29     -282     -700    -1065    -1089     -750     -433     -276 
    -108     -178     -639     -886     -607     -288     -326     -552 
    -616     -498     -483     -673     -820     -762     -623     -477 
    -252      -18      -45     -406     -764     -843     -731     -522 
    -357     -495     -815     -874     -595     -309     -222     -368 
    -660     -785     -689     -689     -731     -577     -367     -274 
    -329     -494     -606     -594     -508     -471     -621     -842 
    -761     -379     -136      -97     -102     -332     -700     -842 
    -811     -778     -760     -758     -604     -310     -236     -386 
    -577     -808     -758     -207      199      -45     -452     -535 
    -553     -823    -1183    -1313    -1085     -544       -4       87 
    -221     -457     -445     -445     -622     -878     -970     -634 
    -125      -75     -454     -746     -880     -918     -618     -136 
       1     -174     -322     -504     -877    -1185    -1088     -730 
    -436     -247      -87      -39     -306     -783    -1015     -892 
    -712     -608     -444     -329     -548     -781     -530     -113 
    -130     -556     -988    -1063     -685     -234      -59      -70 
    -189     -446     -704     -747     -529     -268     -128      -87 
    -237     -587     -903    -1155    -1329    -1057     -486     -390 
    -765     -862     -514     -143      -43     -248     -422     -195 
       8     -402    -1117    -1463    -1081     -214      303       40 
    -523     -880     -922     -702     -504     -452     -287      -58 
    -135     -584    -1009    -1012     -735     -538     -473     -472 
    -521     -596     -653     -622     -465     -349     -548     -866 
    -764     -336     -257     -631     -869     -598      -40      237 
    -168     -972    -1416    -1129     -534     -228     -291     -490 
    -666     -777     -714     -427     -121       54       29     -291 
    -749     -938     -734     -463     -398     -526     -760     -931 
    -915     -727     -409      -94       33       -5      -93     -365 
    -939    -1398    -1314     -889     -480     -126       91      -36 
    -407     -715     -751     -511     -272     -238     -360     -627 
    -961    -1017     -643     -232     -136     -220     -241     -275 
    -554    -1067    -1413    -1287     -843     -359     -116     -237 
    -418     -467     -475     -445     -421     -367     -238     -334 
    -778    -1166    -1156     -886     -558     -207       43       58 
    -129     -440     -685     -592     -341     -380     -614     -693 
    -715     -909    -1096     -967     -652     -344        8      149 
    -198     -556     -552     -572     -831    -1121    -1290    -1210 
    -928     -646     -318       51      139      -58     -194     -291 
    -479     -648     -803     -895     -681     -220      106       60 
    -233     -571     -935    -1200    -1070     -749     -733     -834 
    -627     -306     -121      -76     -209     -353     -396     -502 
    -568     -468     -398     -434     -518     -687     -874     -922 
    -942    -1057    -1008     -691     -345      -44      213      211 
    -117     -549     -930    -1124     -922     -454     -112      -51 
    -209     -387     -405     -413     -567     -700     -668     -541 
    -490     -596     -826    -1070    -1090     -780     -421     -298 
    -360     -432     -492     -623     -796     -861     -754     -460 
     -79      -12     -371     -689     -668     -535     -608     -810 
    -839     -650     -321       35       99     -220     -564     -697 
    -685     -596     -576     -760     -922     -751     -402     -265 
    -359     -413     -417     -517     -560     -432     -390     -546 
    -696     -750     -727     -634     -621     -783     -853     -645 
    -440     -415     -351     -133       -8     -228     -594     -685 
    -549     -560     -762     -858     -726     -538     -479     -494 
    -349      -45       75     -186     -619     -855     -818     -826 
   -1036    -1147     -916     -477      -86      139      178        8 
    -321     -702    -1046    -1156     -911     -571     -444     -488 
    -469     -324     -229     -311     -475     -589     -633     -719 
    -881     -891     -568     -101       66     -264     -616     -499 
    -256     -460     -984    -1301    -1198     -804     -328      -62 
    -156     -448     -715     -791     -665     -616     -706     -625 
    -480     -650     -826     -599     -349     -421     -519     -405 
    -178     -112     -434     -913    -1084     -936     -822     -820 
    -764     -606     -264      232      452      162     -255     -453 
    -643    -1053    -1329    -1074     -518     -178     -137     -167 
    -325     -796    -1323    -1345     -702       82      328      -10 
    -400     -503     -432     -319     -203     -122     -140     -349 
    -622     -766    -1024    -1467    -1597    -1277     -870     -469 
       6      351      326      117       -5      -95     -233     -425 
    -691    -1046    -1556    -1912    -1633     -953     -391     -171 
    -243     -257      -28      232      255       -2     -272     -378 
    -423     -471     -549     -646     -602     -464     -552     -912 
   -1165    -1101     -963     -885     -715     -499     -437     -349 
      78      541      623      494      402      276      -14     -361 
    -496     -342       -5      348      554      600      491       91 
    -707    -1757    -2512    -2446    -1740    -1085     -862     -800 
    -513      -49      232        2     -691    -1358    -1668    -1690 
   -1524    -1190     -716     -132      664     1691     2574     2808 
    2115      679     -951    -2470    -3931    -5269    -6192    -6457 
   -6075    -5081    -3399    -1215     1015     2898     4043     3935 
    2390      110    -1818    -2824    -2972    -2825    -2925    -3117 
   -3015    -2559    -1744     -426     1526     3655     5031     5310 
    4689     3350     1642       13    -1247    -1965    -2089    -1740 
   -1273    -1117    -1290    -1372    -1135     -947    -1169    -1503 
   -1605    -1628    -1657    -1347     -517      499     1151     1113 
     421     -760    -2165    -3311    -3699    -3014    -1269     1067 
    3289     5004     6000     5906     4676     2808      792    -1116 
   -2478    -2959    -3105    -3368    -3300    -2613    -1703    -1318 
   -1803    -2482    -2552    -1853     -495     1171     2359     2270 
     850     -953    -2118    -2581    -2687    -2436    -1733     -685 
     340      965     1154     1077      750      124     -564     -919 
    -808     -468     -172      147      504      452     -167     -938 
   -1632    -2332    -3060    -3574    -3291    -1953     -309      564 
     449      113      457     1651     2953     3650     3584     2550 
     426    -2085    -3843    -4294    -3805    -2957    -1960    -1111 
    -994    -1736    -2698    -3168    -3003    -2527    -1895     -954 
     112      750      967     1202     1270      800      228      174 
     481      612      548      643      832      615     -116     -899 
   -1383    -1474    -1036     -124      842     1404     1256      302 
   -1097    -2270    -2817    -2601    -1559     -113      947     1254 
     949      394      -58     -487    -1248    -2305    -3154    -3372 
   -2992    -2282    -1352     -402      152      383      820     1556 
    2305     2872     3041     2555     1414       63     -976    -1580 
   -1962    -2269    -2367    -2241    -2222    -2374    -2474    -2546 
   -2589    -2373    -1853    -1123     -271      507     1062     1271 
    1043      581       86     -506    -1108    -1482    -1611    -1476 
   -1038     -595     -440     -407     -194      279      700      638 
      76     -626    -1136    -1379    -1456    -1282     -529      693 
    1566     1447      588     -333     -920    -1167    -1128     -784 
    -403     -507    -1146    -1773    -2039    -1954    -1479     -653 
     317     1135     1425     1111      608      236     -159     -826 
   -1726    -2408    -2284    -1343     -303      143      -31     -351 
    -264      373      976      945      402     -360    -1262    -2042 
   -2297    -1957    -1251     -523     -110     -112     -402     -766 
    -814     -294      471      850      476     -405    -1107    -1224 
   -1028     -972    -1127    -1228    -1140    -1105    -1340    -1487 
   -1044     -261      170      -10     -626    -1294    -1591    -1382 
    -778      -39      319       90     -143      178      810     1135 
     850      260     -214     -660    -1151    -1359    -1152     -595 
     145      406     -244    -1205    -1645    -1420    -1023    -1003 
   -1239    -1139     -670     -361     -406     -535     -608     -658 
    -517       -6      642     1096     1243     1115      861      642 
     367     -143     -843    -1560    -2141    -2424    -2373    -2151 
   -1946    -1788    -1536    -1119     -770     -635     -457      -55 
     375      591      503       25     -893    -1958    -2577    -2479 
   -1891    -1039      -41      826     1255     1208      908      598 
     406      336      271      117     -166     -631    -1246    -1834 
   -2209    -2259    -1952    -1304     -488      133      398      506 
     515      236     -276     -778    -1204    -1576    -1750    -1497 
    -908     -373      -21      336      778     1097     1097      869 
     607      396      265      121     -229     -807    -1363    -1657 
   -1690    -1628    -1613    -1764    -2110    -2331    -2122    -1722 
   -1443    -1077     -302      615     1161     1258     1036      589 
     129     -170     -252     -124       20     -130     -556     -895 
   -1039    -1121    -1105     -872     -527     -345     -445     -726 
   -1059    -1324    -1372    -1085     -518        5      174      -10 
    -421     -911    -1275    -1354    -1170    -1036    -1175    -1321 
   -1074     -492      -58      -22      -70       83      162     -148 
    -554     -579     -187      290      550      608      653      634 
     426      156      -70     -394     -882    -1356    -1665    -1875 
   -2060    -2084    -1734    -1063     -379       55      190      135 
     -14     -280     -668    -1020    -1123     -976     -807     -741 
    -685     -580     -425     -116      348      598      341     -170 
    -526     -669     -792     -994    -1155    -1107     -865     -558 
    -186      241      588      707      494       62     -313     -558 
    -747     -901    -1013    -1053     -984     -858     -795     -926 
   -1286    -1626    -1648    -1360     -953     -531     -172        9 
     -51     -237     -321     -274     -368     -685     -868     -685 
    -357     -180     -217     -353     -530     -761     -961     -872 
    -430      -41       -9     -162     -162      112      407      395 
      27     -504     -919    -1070    -1021     -797     -353       66 
      41     -425    -1004    -1583    -2099    -2301    -2069    -1543 
    -967     -515     -172      102      264      306      340      436 
     553      650      657      467       58     -556    -1290    -1845 
   -1980    -1833    -1699    -1566    -1225     -760     -392     -128 
      63      106        1     -163     -297     -430     -696    -1051 
   -1304    -1328    -1120     -788     -530     -483     -630     -842 
    -892     -626     -186      101       74      -93     -191     -255 
    -319     -324     -321     -452     -695     -897     -984     -961 
    -815     -515     -141       93       98       93      218      263 
       0     -553    -1233    -1852    -2196    -2074    -1540     -886 
    -314      101      328      379      319      283      329      388 
     426      297     -206     -949    -1561    -1872    -1892    -1649 
   -1197     -757     -585     -626     -592     -383      -93      156 
     276      294      217      -36     -351     -510     -584     -811 
   -1240    -1575    -1520    -1165     -716     -279       12      133 
     163       41     -306     -757    -1131    -1362    -1453    -1363 
