Origin Time       2024/06/23 22:54:00
Lat.              35.645
Long.             140.060
Depth. (km)       72
Mag.              4.1
Station Code      TKY014
Station Lat.      35.7002
Station Long.     139.8351
Station Height(m) -3
Record Time       2024/06/23 22:54:43
Sampling Freq(Hz) 100Hz
Duration Time(s)  60
Dir.              U-D
Scale Factor      7845(gal)/8223790
Max. Acc. (gal)   2.730
Last Correction   2024/06/23 22:54:43
Memo.             
[...]
   16719    16505    16397    16337    16262    16278    16416    16491 
   16461    16461    16513    16559    16561    16468    16386    16430 
   16484    16551    16653    16661    16630    16625    16605    16582 
   16578    16605    16646    16614    16526    16499    16457    16402 
   16478    16518    16478    16551    16579    16488    16492    16518 
   16411    16336    16387    16437    16479    16586    16632    16578 
   16627    16738    16721    16609    16456    16360    16414    16482 
   16494    16536    16583    16551    16501    16530    16595    16636 
   16648    16555    16426    16445    16465    16391    16389    16436 
   16444    16494    16633    16721    16703    16634    16517    16483 
   16494    16413    16460    16619    16584    16436    16389    16461 
   16569    16648    16661    16646    16642    16560    16413    16380 
   16464    16472    16445    16509    16529    16476    16497    16552 
   16556    16557    16588    16598    16556    16495    16414    16326 
   16370    16600    16808    16818    16675    16482    16380    16425 
   16494    16509    16538    16609    16571    16443    16433    16484 
   16519    16578    16530    16406    16413    16476    16476    16529 
   16661    16710    16640    16541    16407    16347    16479    16632 
   16679    16640    16518    16422    16414    16425    16444    16575 
   16752    16723    16560    16475    16428    16471    16600    16506 
   16326    16376    16453    16507    16627    16650    16572    16515 
   16506    16468    16447    16511    16565    16606    16569    16420 
   16430    16595    16663    16636    16551    16409    16359    16459 
   16569    16636    16665    16580    16420    16390    16514    16611 
   16665    16671    16486    16247    16210    16366    16575    16729 
   16799    16787    16667    16447    16262    16264    16393    16492 
   16567    16603    16563    16532    16564    16583    16580    16588 
   16594    16586    16478    16322    16309    16364    16479    16683 
   16725    16646    16675    16663    16536    16443    16394    16341 
   16352    16479    16544    16526    16596    16626    16573    16578 
   16555    16519    16551    16505    16360    16321    16434    16519 
   16533    16556    16565    16606    16727    16721    16568    16487 
   16414    16360    16438    16514    16533    16568    16618    16623 
   16567    16488    16402    16380    16430    16492    16617    16722 
   16619    16418    16297    16252    16357    16623    16787    16775 
   16690    16506    16344    16364    16518    16641    16673    16721 
   16673    16441    16313    16387    16449    16490    16576    16599 
   16536    16460    16394    16413    16528    16606    16580    16499 
   16409    16371    16491    16677    16688    16572    16501    16449 
   16372    16378    16545    16677    16690    16725    16660    16471 
   16444    16545    16572    16555    16559    16507    16380    16325 
   16379    16455    16553    16606    16555    16497    16478    16511 
   16595    16586    16420    16330    16465    16652    16764    16731 
   16557    16414    16406    16468    16553    16752    16906    16744 
   16497    16375    16222    16112    16247    16499    16649    16680 
   16591    16468    16471    16480    16447    16476    16506    16475 
   16476    16559    16549    16506    16652    16779    16769    16703 
   16494    16321    16441    16679    16733    16648    16553    16380 
   16214    16258    16457    16605    16638    16621    16552    16456 
   16410    16384    16386    16506    16632    16615    16533    16425 
   16380    16556    16744    16695    16609    16605    16515    16356 
   16330    16464    16622    16760    16800    16606    16403    16464 
   16586    16553    16515    16583    16560    16391    16326    16374 
   16451    16598    16622    16476    16359    16324    16434    16660 
   16727    16586    16519    16542    16436    16407    16602    16717 
   16734    16771    16663    16432    16271    16120    16040    16289 
   16605    16594    16441    16370    16263    16299    16819    17358 
   17410    17221    16773    15985    15500    15730    16352    16983 
   17448    17509    17059    16426    16097    16191    16348    16430 
   16486    16249    15990    16259    16660    16536    16202    16411 
   16830    16621    16096    16050    16470    16846    16970    17004 
   16970    16816    16807    16860    16509    16087    16035    16046 
   16252    16887    17235    16838    16206    15854    15820    16124 
   16681    17103    17324    17263    16578    15799    15769    16239 
   16499    16509    16629    16854    17012    17074    16891    16448 
   16065    16009    16316    16695    16758    16506    16177    15993 
   16155    16727    17402    17417    16603    15917    15901    16092 
   16225    16407    16540    16648    16839    16872    16762    16821 
   16823    16391    15822    15861    16576    17169    17035    16317 
   15785    15931    16449    16964    17209    17072    16741    16332 
   16011    16092    16487    16708    16646    16627    16711    16680 
   16426    16155    16144    16312    16484    16661    16865    16931 
   16695    16397    16340    16538    16846    17007    16841    16501 
   16328    16264    16147    16182    16308    16403    16588    16686 
   16646    16590    16360    16043    16005    16332    16784    17135 
   17197    16889    16591    16538    16453    16424    16644    16652 
   16239    15890    15963    16322    16611    16659    16557    16517 
   16735    17007    16896    16391    15909    15940    16422    16777 
   16852    16841    16644    16220    16042    16386    16722    16750 
   16843    17010    16991    16945    16838    16363    15944    16147 
   16540    16551    16366    16301    16281    16352    16644    16791 
   16529    16101    15905    16244    16785    16931    16710    16513 
   16503    16546    16569    16611    16590    16472    16406    16533 
   16845    17119    17018    16506    15950    15743    15959    16302 
   16630    17078    17352    17109    16698    16449    16289    16202 
   16174    16137    16243    16475    16449    16317    16586    17055 
   17362    17463    17128    16468    16013    15893    15998    16181 
   16167    15986    16000    16291    16627    16946    17340    17599 
   17396    16900    16420    15909    15491    15556    16087    16625 
   16930    17019    16816    16468    16281    16317    16536    16696 
   16605    16502    16347    15920    15705    16048    16592    17166 
   17543    17132    16158    15687    16187    17088    17448    17018 
   16513    16393    16313    16190    16359    16571    16461    16444 
   16906    17392    17277    16730    16160    15541    15219    15649 
   16411    16972    17381    17648    17409    16591    15809    15650 
   15951    16200    16411    16776    16966    16799    16542    16241 
   15907    16066    16953    17760    17766    17057    16071    15535 
   15886    16744    17427    17354    16573    15715    15198    15348 
   16241    17101    17234    16812    16286    16114    16544    17084 
   17115    16827    16707    16677    16437    16032    15684    15661 
   16047    16505    16812    16906    16717    16627    16849    17004 
   17059    17084    16580    15587    15145    15731    16729    17436 
   17412    16740    16202    16305    16745    17008    16808    16240 
   15736    15612    15769    16066    16403    16522    16479    16714 
   17259    17589    17347    16773    16314    16166    16298    16619 
   16872    16703    16326    16264    16514    16877    17270    17481 
   17312    16843    16447    16352    16272    16012    15853    15866 
   15877    15928    15954    15774    15716    16197    16799    16943 
   16902    17062    17250    17227    17023    16781    16534    16244 
   16146    16468    16868    16880    16600    16372    16267    16317 
   16626    16900    16735    16433    16289    15989    15611    15753 
   16424    16965    17049    17035    17126    16965    16536    16318 
   16386    16437    16332    16063    15765    15850    16486    17068 
   17118    17011    17122    17321    17273    16761    16069    15619 
   15533    15811    16326    16744    16791    16507    16298    16546 
   17024    17173    17022    16922    16807    16579    16341    16059 
   15691    15631    16247    16889    16848    16544    16368    16154 
   16065    16376    16835    16970    16800    16595    16424    16440 
   16668    16829    16794    16544    16164    16006    16201    16565 
   16916    16992    16740    16513    16459    16429    16368    16232 
   16106    16254    16609    16899    17185    17416    17240    16722 
   16312    16173    16032    15747    15674    15947    16233    16475 
   16780    16961    16965    17081    17312    17221    16769    16330 
   15849    15358    15363    15835    16403    16846    16931    16876 
   17014    17112    17001    16880    16857    16788    16611    16461 
   16282    16033    15947    16020    16059    16144    16514    17030 
   17142    16881    16919    17118    16876    16491    16290    16002 
   15723    15776    16116    16514    16807    16939    16922    16912 
   16997    17008    16857    16567    16301    16229    16131    15904 
   15861    16066    16383    16730    16861    16748    16713    16733 
   16632    16613    16698    16510    16083    15951    16293    16768 
   17105    17236    17131    16881    16553    16189    16000    16090 
   16360    16637    16699    16559    16387    16266    16286    16411 
   16492    16579    16652    16561    16447    16447    16414    16286 
   16194    16316    16721    17108    17001    16541    16281    16256 
   16395    16818    17127    16896    16416    16074    15954    16117 
   16509    16815    16880    16877    16951    17014    16908    16598 
   16205    15896    15803    16070    16600    16945    16861    16546 
   16168    15789    15597    15812    16459    17205    17604    17574 
   17259    16781    16413    16298    16268    16275    16433    16669 
   16722    16530    16325    16248    16249    16263    16328    16470 
   16556    16568    16621    16646    16606    16753    17037    16974 
   16619    16441    16467    16567    16680    16650    16483    16299 
   16143    16071    16179    16411    16625    16776    16841    16810 
   16796    16816    16646    16229    15869    15797    16020    16434 
   16750    16787    16667    16578    16690    16914    16912    16681 
   16534    16573    16695    16803    16715    16301    15820    15716 
   16073    16568    16811    16675    16389    16155    16110    16533 
   17290    17774    17690    17022    15923    15014    14751    14939 
   15391    16119    16856    17253    17432    17640    17790    17763 
   17504    17023    16532    16137    15759    15462    15410    15664 
   16085    16472    16826    17134    17240    17107    16780    16271 
   15668    15201    15095    15288    15705    16499    17443    18034 
   18284    18403    18361    18037    17258    16143    15234    14878 
   14963    15242    15689    16394    17149    17666    17878    17710 
   17240    16773    16459    16217    15939    15677    15579    15654 
   15881    16310    16799    17073    17158    17182    17010    16563 
   16093    15799    15669    15731    16046    16479    16754    16822 
   16929    17105    17089    16876    16676    16510    16422    16572 
   16825    16796    16372    15915    15925    16379    16814    17016 
   16904    16410    15919    15858    16181    16626    16865    16733 
   16545    16578    16710    16866    16927    16588    15990    15688 
   15855    16281    16839    17442    17834    17817    17481    16933 
   16233    15674    15449    15376    15387    15610    15978    16289 
   16557    16970    17486    17771    17594    17039    16386    15955 
   15900    16048    16200    16393    16619    16694    16599    16582 
   16768    16987    17081    17069    16935    16730    16626    16617 
   16510    16317    16148    15921    15634    15481    15526    15670 
   15874    16221    16785    17429    17838    17770    17340    16895 
   16561    16416    16529    16488    15966    15481    15585    16171 
   16876    17440    17734    17674    17244    16660    16181    15749 
   15218    14762    14601    14789    15427    16498    17651    18404 
   18509    18183    17691    17032    16341    15894    15770    15894 
   16098    16316    16640    17027    17423    17869    18192    18195 
   17890    17243    16263    15282    14609    14227    14122    14493 
   15353    16298    17034    17639    18100    18227    17949    17334 
   16497    15583    14786    14337    14359    14910    15935    17072 
   17869    18080    17776    17392    17127    16858    16676    16591 
   16383    16106    16013    16271    16789    17186    17176    16789 
   16248    15828    15768    16013    16247    16443    16845    17342 
   17601    17545    17313    16976    16513    16056    15820    15759 
   15709    15693    15842    16189    16590    16831    16803    16586 
   16363    16329    16592    17055    17428    17505    17266    16783 
   16272    16004    15923    15770    15553    15508    15801    16399 
   17088    17652    17990    18019    17620    16864    16069    15446 
   15032    14848    14943    15438    16333    17323    18096    18497 
   18500    18253    17892    17379    16567    15407    14237    13662 
   13977    14974    16272    17475    18239    18549    18551    18279 
   17751    16989    16051    15106    14328    14015    14399    15260 
   16290    17355    18206    18584    18500    18144    17516    16470 
   15195    14175    13714    13882    14590    15514    16320    17004 
   17617    17999    18127    18158    18080    17807    17347    16740 
   16105    15670    15574    15739    16031    16438    16980    17458 
   17535    17209    16860    16715    16706    16633    16333    15873 
   15495    15391    15685    16317    16888    16999    16711    16422 
   16433    16762    17196    17466    17478    17270    16962    16632 
   16146    15549    15155    15064    15283    15901    16733    17381 
   17643    17508    17046    16511    16204    16070    15874    15662 
   15624    15799    16119    16395    16490    16578    16896    17323 
   17473    17297    17085    16966    16875    16711    16463    16289 
   16274    16370    16515    16621    16725    16912    17069    17024 
   16758    16426    16144    15920    15843    15957    16133    16208 
   16060    15777    15566    15554    15768    16043    16239    16557 
   17113    17660    18042    18337    18485    18292    17726    16976 
   16298    15828    15489    15256    15264    15529    15913    16351 
   16783    17045    16996    16656    16143    15715    15628    15835 
   16081    16222    16364    16717    17226    17602    17651    17354 
   16907    16575    16389    16283    16320    16533    16816    17080 
   17321    17466    17359    17020    16619    16258    15986    15880 
   15942    15967    15800    15569    15415    15396    15628    16094 
   16607    16974    17027    16722    16271    15988    15971    16113 
   16318    16474    16467    16429    16525    16688    16865    17062 
   17223    17377    17566    17659    17589    17450    17317    17182 
   16983    16699    16379    16077    15853    15766    15807    15943 
   16187    16475    16735    16951    16983    16688    16225    15823 
   15560    15508    15674    15861    15874    15801    15930    16391 
   16968    17408    17682    17902    18099    18085    17747    17311 
   16972    16652    16282    15947    15770    15704    15565    15350 
   15214    15187    15238    15392    15623    15885    16272    16825 
   17270    17374    17232    17030    16887    16945    17253    17558 
   17559    17350    17188    17086    17030    17004    16823    16488 
   16337    16528    16772    16726    16341    15718    15024    14592 
   14643    15047    15585    16214    16881    17361    17560    17653 
   17675    17500    17136    16708    16333    16100    16008    16006 
   16065    16152    16268    16426    16599    16787    16972    17064 
   17081    17108    17123    17072    16920    16665    16383    16205 
   16229    16382    16471    16422    16286    16116    15957    15912 
   16044    16185    16124    15940    15878    15974    16085    16221 
   16478    16787    17095    17431    17658    17606    17412    17275 
   17209    17170    17089    16900    16660    16438    16259    16136 
   16058    16032    16059    16106    16162    16097    15800    15522 
   15554    15826    16067    16146    16185    16363    16721    17181 
   17583    17799    17782    17525    17147    16852    16695    16519 
   16208    15876    15638    15550    15728    16131    16551    16922 
   17226    17325    17221    17082    16954    16784    16540    16202 
   15859    15651    15603    15736    16097    16568    16943    17131 
   17170    17145    17058    16884    16696    16551    16395    16243 
   16156    16083    15975    15894    15916    16016    16113    16221 
   16394    16586    16777    17057    17390    17532    17277    16749 
   16235    15876    15705    15708    15831    16109    16576    17162 
   17770    18265    18468    18280    17786    17157    16551    16059 
   15665    15342    15199    15282    15433    15589    15832    16132 
   16407    16595    16537    16177    15785    15657    15832    16221 
   16661    16969    17113    17138    17077    17028    17053    17043 
   16837    16426    16060    16013    16276    16642    16915    17008 
   16927    16806    16821    16916    16956    16953    16884    16706 
   16548    16502    16513    16505    16459    16414    16367    16264 
   16158    16116    16133    16179    16266    16401    16487    16518 
   16665    16854    16822    16576    16294    16116    16124    16316 
   16632    16907    16935    16749    16519    16330    16255    16386 
   16696    16985    17139    17227    17213    16983    16610    16245 
   15947    15776    15800    15940    16055    16129    16183    16222 
   16271    16341    16422    16499    16542    16534    16507    16524 
   16599    16706    16808    16841    16760    16626    16526    16503 
   16559    16623    16642    16677    16756    16802    16764    16672 
   16626    16706    16854    16947    16914    16729    16424    16104 
   15916    15959    16156    16316    16360    16362    16398    16487 
   16615    16746    16846    16881    16857    16798    16675    16452 
   16182    15940    15786    15803    16035    16414    16796    17062 
   17189    17211    17134    16972    16816    16686    16544    16456 
   16474    16510    16506    16499    16564    16663    16684    16591 
   16391    16114    15920    15947    16152    16422    16634    16648 
   16452    16233    16132    16136    16198    16293    16391    16519 
   16688    16780    16711    16614    16594    16596    16607    16634 
   16625    16559    16437    16264    16135    16178    16410    16690 
   16897    17039    17080    16957    16721    16457    16232    16132 
   16208    16410    16626    16841    17105    17347    17444    17381 
