Origin Time       2024/06/23 22:54:00
Lat.              35.645
Long.             140.060
Depth. (km)       72
Mag.              4.1
Station Code      TKY014
Station Lat.      35.7002
Station Long.     139.8351
Station Height(m) -3
Record Time       2024/06/23 22:54:43
Sampling Freq(Hz) 100Hz
Duration Time(s)  60
Dir.              N-S
Scale Factor      7845(gal)/8223790
Max. Acc. (gal)   5.285
Last Correction   2024/06/23 22:54:43
Memo.             
[...]
   -3357    -3238    -3179    -3130    -3288    -3653    -3739    -3524 
   -3402    -3321    -3215    -3184    -3195    -3402    -3678    -3618 
   -3453    -3397    -3352    -3433    -3510    -3416    -3323    -3261 
   -3249    -3478    -3758    -3636    -3358    -3299    -3281    -3334 
   -3406    -3277    -3296    -3495    -3530    -3489    -3349    -3127 
   -3202    -3508    -3626    -3476    -3260    -3191    -3395    -3688 
   -3685    -3420    -3273    -3306    -3341    -3369    -3437    -3532 
   -3592    -3531    -3407    -3345    -3304    -3296    -3403    -3531 
   -3530    -3438    -3377    -3288    -3223    -3315    -3426    -3512 
   -3527    -3342    -3249    -3400    -3501    -3492    -3472    -3379 
   -3227    -3218    -3426    -3588    -3538    -3484    -3485    -3461 
   -3451    -3341    -3248    -3424    -3524    -3381    -3352    -3395 
   -3366    -3438    -3512    -3379    -3275    -3407    -3447    -3343 
   -3368    -3377    -3352    -3412    -3416    -3410    -3461    -3476 
   -3545    -3607    -3435    -3271    -3314    -3310    -3343    -3539 
   -3573    -3423    -3366    -3404    -3441    -3478    -3430    -3269 
   -3214    -3368    -3550    -3532    -3312    -3129    -3194    -3481 
   -3701    -3581    -3357    -3397    -3531    -3495    -3353    -3284 
   -3372    -3461    -3476    -3495    -3443    -3389    -3424    -3457 
   -3442    -3331    -3271    -3376    -3385    -3299    -3338    -3397 
   -3404    -3443    -3472    -3450    -3477    -3524    -3353    -3107 
   -3235    -3522    -3607    -3535    -3346    -3318    -3515    -3616 
   -3588    -3462    -3360    -3443    -3483    -3341    -3250    -3337 
   -3437    -3483    -3447    -3304    -3258    -3318    -3396    -3499 
   -3420    -3310    -3379    -3343    -3289    -3412    -3522    -3585 
   -3535    -3368    -3322    -3447    -3562    -3523    -3418    -3319 
   -3292    -3395    -3429    -3416    -3501    -3511    -3420    -3449 
   -3511    -3337    -3094    -3136    -3352    -3469    -3464    -3392 
   -3331    -3400    -3491    -3481    -3462    -3422    -3357    -3315 
   -3383    -3581    -3599    -3451    -3352    -3256    -3321    -3496 
   -3569    -3543    -3419    -3349    -3424    -3429    -3262    -3204 
   -3400    -3538    -3474    -3368    -3303    -3269    -3353    -3557 
   -3554    -3350    -3269    -3298    -3419    -3555    -3460    -3395 
   -3545    -3507    -3392    -3411    -3364    -3460    -3612    -3392 
   -3210    -3396    -3522    -3424    -3339    -3395    -3497    -3504 
   -3387    -3198    -3121    -3250    -3422    -3534    -3512    -3447 
   -3492    -3437    -3315    -3304    -3365    -3547    -3615    -3407 
   -3272    -3397    -3558    -3526    -3381    -3272    -3345    -3541 
   -3511    -3406    -3395    -3291    -3285    -3477    -3522    -3295 
   -3136    -3276    -3504    -3554    -3460    -3399    -3352    -3338 
   -3376    -3361    -3426    -3514    -3478    -3477    -3528    -3519 
   -3445    -3407    -3460    -3524    -3447    -3231    -3267    -3447 
   -3348    -3252    -3389    -3541    -3505    -3339    -3314    -3373 
   -3345    -3343    -3380    -3337    -3372    -3539    -3543    -3456 
   -3446    -3381    -3350    -3480    -3603    -3576    -3461    -3327 
   -3275    -3373    -3457    -3487    -3493    -3360    -3249    -3430 
   -3639    -3505    -3281    -3237    -3275    -3353    -3396    -3387 
   -3379    -3379    -3450    -3511    -3427    -3379    -3469    -3411 
   -3325    -3418    -3411    -3376    -3381    -3333    -3462    -3669 
   -3603    -3354    -3289    -3375    -3414    -3491    -3435    -3311 
   -3375    -3349    -3262    -3442    -3640    -3474    -3171    -3138 
   -3349    -3515    -3504    -3550    -3547    -3316    -3234    -3294 
   -3415    -3632    -3642    -3451    -3349    -3437    -3480    -3429 
   -3477    -3423    -3334    -3341    -3267    -3262    -3361    -3403 
   -3519    -3701    -3574    -3164    -3036    -3295    -3554    -3630 
   -3608    -3397    -3138    -3296    -3551    -3611    -3697    -3541 
   -3194    -3187    -3435    -3541    -3469    -3319    -3227    -3402 
   -3568    -3381    -3217    -3306    -3358    -3453    -3692    -3595 
   -3171    -3056    -3349    -3654    -3690    -3488    -3238    -3123 
   -3241    -3527    -3724    -3597    -3447    -3357    -3176    -3260 
   -3384    -3335    -3445    -3500    -3472    -3522    -3534    -3492 
   -3443    -3445    -3369    -3302    -3289    -3117    -3203    -3573 
   -3581    -3423    -3512    -3574    -3375    -3150    -3180    -3406 
   -3453    -3369    -3501    -3526    -3431    -3450    -3376    -3454 
   -3553    -3352    -3271    -3431    -3593    -3535    -3337    -3279 
   -3279    -3292    -3330    -3384    -3537    -3551    -3350    -3368 
   -3553    -3427    -3148    -3167    -3422    -3499    -3391    -3481 
   -3632    -3599    -3504    -3329    -3267    -3456    -3488    -3345 
   -3383    -3481    -3461    -3420    -3352    -3358    -3505    -3511 
   -3361    -3272    -3246    -3267    -3483    -3670    -3395    -3118 
   -3310    -3613    -3607    -3318    -3307    -3537    -3469    -3287 
   -3258    -3316    -3392    -3527    -3554    -3419    -3489    -3457 
   -3203    -3223    -3307    -3387    -3611    -3676    -3496    -3326 
   -3310    -3342    -3460    -3514    -3264    -3175    -3472    -3623 
   -3418    -3304    -3420    -3346    -3176    -3303    -3653    -3744 
   -3439    -3207    -3068    -3186    -3673    -3724    -3478    -3483 
   -3480    -3376    -3173    -3160    -3469    -3623    -3584    -3489 
   -3234    -3019    -3204    -3732    -3964    -3441    -2820    -3061 
   -3781    -3746    -3055    -3057    -3823    -4105    -3538    -2810 
   -2802    -3518    -3838    -3510    -3306    -3329    -3357    -3514 
   -3685    -3546    -3258    -3127    -3164    -3441    -3766    -3696 
   -3322    -3165    -3349    -3483    -3337    -3065    -3105    -3616 
   -4006    -3777    -3176    -3011    -3427    -3543    -3267    -3219 
   -3423    -3541    -3635    -3743    -3338    -2906    -3225    -3616 
   -3686    -3516    -3186    -3230    -3518    -3541    -3454    -3489 
   -3441    -3195    -3169    -3447    -3586    -3495    -3375    -3295 
   -3240    -3249    -3260    -3383    -3775    -3924    -3476    -2994 
   -3200    -3851    -3920    -3339    -2817    -2724    -3148    -3566 
   -3635    -3766    -3956    -3865    -3465    -3087    -3125    -3327 
   -3254    -3107    -3157    -3388    -3661    -3805    -3905    -3801 
   -3231    -2689    -2821    -3555    -3886    -3330    -2953    -3192 
   -3577    -3920    -3800    -3391    -3346    -3422    -3366    -3418 
   -3491    -3354    -3152    -3072    -3140    -3474    -3919    -3915 
   -3392    -3021    -3126    -3437    -3674    -3535    -3183    -3111 
   -3272    -3446    -3546    -3658    -3676    -3319    -3172    -3589 
   -3912    -3709    -3226    -2982    -2982    -3113    -3343    -3315 
   -3373    -3770    -3936    -3773    -3399    -3030    -2975    -3142 
   -3410    -3538    -3407    -3289    -3288    -3438    -3703    -3716 
   -3572    -3670    -3678    -3330    -3022    -2963    -3082    -3242 
   -3518    -3823    -3740    -3511    -3322    -3057    -3156    -3527 
   -3565    -3376    -3373    -3634    -3812    -3561    -3123    -2889 
   -3005    -3500    -3905    -3774    -3410    -3221    -3411    -3777 
   -3723    -3277    -3007    -3175    -3485    -3562    -3588    -3488 
   -3042    -2914    -3350    -3811    -4055    -3951    -3545    -3145 
   -2851    -2724    -2987    -3474    -3643    -3488    -3392    -3407 
   -3326    -3127    -3271    -3852    -4176    -3777    -3111    -3055 
   -3592    -3792    -3192    -2523    -2845    -3797    -4217    -3932 
   -3415    -3068    -3100    -3420    -3642    -3551    -3322    -3056 
   -3118    -3527    -3520    -3207    -3188    -3473    -3821    -3786 
   -3460    -3333    -3253    -3141    -3230    -3321    -3173    -3026 
   -3330    -4144    -4550    -3727    -2658    -2689    -3406    -3613 
   -3168    -3038    -3395    -3488    -3423    -3491    -3646    -3937 
   -3983    -3631    -3231    -2911    -2810    -3073    -3643    -4171 
   -4037    -3353    -2938    -2930    -3071    -3329    -3403    -3323 
   -3550    -3817    -3740    -3442    -3072    -2940    -3337    -3993 
   -4148    -3473    -2682    -2506    -3072    -3894    -4085    -3640 
   -3337    -3314    -3225    -3130    -3271    -3600    -3855    -3713 
   -3311    -3076    -3040    -3208    -3514    -3601    -3500    -3534 
   -3708    -3793    -3510    -2929    -2862    -3472    -3638    -3122 
   -2936    -3285    -3511    -3469    -3601    -4010    -4260    -3866 
   -2836    -2096    -2484    -3493    -4147    -4079    -3505    -3067 
   -3146    -3438    -3518    -3321    -3183    -3261    -3364    -3507 
   -3703    -3649    -3415    -3437    -3546    -3420    -3295    -3315 
   -3442    -3589    -3515    -3264    -3129    -3208    -3348    -3454 
   -3538    -3577    -3636    -3696    -3665    -3527    -3288    -3092 
   -3148    -3319    -3323    -3333    -3507    -3631    -3562    -3264 
   -3064    -3375    -3739    -3495    -3032    -3114    -3566    -3728 
   -3547    -3414    -3442    -3388    -3203    -3163    -3424    -3703 
   -3565    -3200    -3109    -3308    -3580    -3620    -3298    -3196 
   -3734    -4153    -3670    -2799    -2589    -3106    -3581    -3678 
   -3640    -3585    -3369    -3122    -3238    -3607    -3805    -3655 
   -3196    -2987    -3420    -3812    -3578    -3083    -2941    -3352 
   -3890    -3998    -3707    -3418    -3248    -3172    -3245    -3368 
   -3299    -3018    -2963    -3462    -3967    -3827    -3287    -2936 
   -3091    -3609    -3894    -3642    -3337    -3362    -3414    -3330 
   -3198    -2998    -3011    -3453    -3828    -3685    -3350    -3269 
   -3403    -3453    -3241    -3087    -3256    -3570    -3890    -3905 
   -3493    -3038    -2860    -3113    -3543    -3694    -3495    -3315 
   -3565    -3882    -3743    -3377    -3083    -2994    -3200    -3501 
   -3591    -3456    -3450    -3615    -3680    -3744    -3827    -3717 
   -3507    -3280    -3046    -2914    -2901    -2965    -3146    -3472 
   -3804    -3944    -3916    -3739    -3451    -3262    -3218    -3265 
   -3281    -3092    -2808    -2689    -2895    -3277    -3489    -3619 
   -3894    -4141    -4144    -3888    -3469    -3172    -3214    -3408 
   -3353    -3013    -2843    -2978    -3114    -3253    -3519    -3854 
   -4041    -3831    -3504    -3476    -3510    -3292    -2924    -2791 
   -3167    -3726    -3952    -3846    -3647    -3420    -3273    -3280 
   -3191    -3011    -3030    -3213    -3449    -3680    -3775    -3634 
   -3267    -3001    -3096    -3319    -3406    -3402    -3474    -3530 
   -3345    -3148    -3299    -3630    -3719    -3581    -3624    -3919 
   -4072    -3797    -3348    -3206    -3381    -3578    -3592    -3389 
   -3107    -2855    -2794    -2955    -3095    -3196    -3342    -3500 
   -3608    -3608    -3613    -3596    -3430    -3288    -3315    -3472 
   -3624    -3630    -3541    -3429    -3357    -3515    -3727    -3667 
   -3453    -3318    -3368    -3559    -3622    -3453    -3252    -3176 
   -3234    -3223    -3063    -3064    -3210    -3186    -3106    -3190 
   -3491    -3952    -4259    -4180    -3730    -3126    -2822    -2982 
   -3299    -3500    -3538    -3489    -3369    -3164    -3057    -3294 
   -3700    -3881    -3858    -3886    -3866    -3589    -3111    -2637 
   -2432    -2681    -3194    -3534    -3585    -3647    -3905    -4117 
   -4058    -3863    -3568    -3095    -2651    -2461    -2673    -3210 
   -3591    -3543    -3368    -3410    -3616    -3723    -3685    -3534 
   -3256    -2992    -2841    -2839    -3177    -3753    -4094    -4059 
   -3828    -3589    -3496    -3522    -3522    -3453    -3352    -3307 
   -3341    -3291    -3057    -2829    -2848    -3213    -3815    -4236 
   -4128    -3649    -3203    -3091    -3312    -3551    -3568    -3454 
   -3389    -3361    -3288    -3196    -3152    -3265    -3530    -3670 
   -3493    -3221    -3318    -3780    -4028    -3815    -3473    -3279 
   -3110    -2893    -2891    -3076    -3107    -3080    -3300    -3658 
   -3819    -3682    -3454    -3343    -3364    -3445    -3522    -3497 
   -3434    -3477    -3568    -3539    -3252    -2899    -2926    -3279 
   -3581    -3694    -3689    -3707    -3592    -3175    -2856    -2901 
   -3048    -3173    -3379    -3778    -4193    -4117    -3515    -2972 
   -2925    -3341    -3793    -3883    -3767    -3757    -3766    -3630 
   -3361    -3061    -2879    -2832    -2836    -2930    -3117    -3379 
   -3766    -4136    -4225    -3900    -3364    -3061    -3078    -3192 
   -3364    -3547    -3511    -3219    -3141    -3640    -4248    -4191 
   -3412    -2701    -2690    -3090    -3360    -3364    -3186    -3033 
   -3119    -3410    -3680    -3784    -3774    -3746    -3631    -3369 
   -3007    -2686    -2602    -2702    -2803    -2949    -3200    -3496 
   -3782    -4082    -4477    -4845    -4896    -4527    -3869    -3160 
   -2662    -2502    -2558    -2540    -2349    -2253    -2488    -2863 
   -3156    -3474    -3970    -4541    -4850    -4801    -4734    -4704 
   -4230    -3091    -1744     -843     -683    -1252    -2520    -4352 
   -6258    -7545    -7854    -7330    -6358    -5162    -3694    -2091 
    -595      703     1443     1189        1    -1744    -3685    -5628 
   -7403    -8658    -8949    -7982    -5965    -3516    -1143      758 
    1763     1660      510    -1316    -3202    -4745    -5860    -6451 
   -6254    -5201    -3744    -2462    -1656    -1321    -1155     -926 
    -692     -796    -1634    -3032    -4267    -4830    -4806    -4495 
   -3967    -3265    -2493    -1715    -1232    -1352    -2120    -3469 
   -4969    -5921    -6095    -5752    -5046    -4023    -2961    -2234 
   -2062    -2523    -3518    -4754    -5776    -6200    -6072    -5842 
   -5908    -6089    -5850    -5101    -4311    -3844    -3532    -2982 
   -2149    -1483    -1431    -1999    -2898    -3750    -4239    -4228 
   -3742    -2978    -2301    -1987    -1911    -1729    -1455    -1428 
   -1764    -2169    -2296    -2297    -2683    -3439    -3908    -3616 
   -2886    -2358    -2185    -2270    -2740    -3801    -5397    -6878 
   -7387    -6743    -5536    -4434    -3591    -2936    -2641    -2751 
   -2870    -2517    -1649     -846     -761    -1451    -2501    -3628 
   -4752    -5599    -5798    -5277    -4307    -3296    -2596    -2400 
   -2640    -3003    -3198    -3260    -3446    -3886    -4473    -5000 
   -5308    -5285    -4904    -4282    -3406    -2178     -912      -98 
      39     -345     -797    -1132    -1610    -2450    -3545    -4554 
   -5223    -5622    -6026    -6501    -6669    -6156    -5053    -3755 
   -2598    -1710    -1264    -1583    -2577    -3669    -4430    -4639 
   -4239    -3483    -2701    -2205    -2358    -3041    -3543    -3325 
   -2747    -2745    -3643    -4815    -5516    -5522    -5081    -4395 
   -3451    -2447    -1875    -1914    -2168    -2289    -2396    -2631 
   -2874    -3051    -3238    -3446    -3804    -4511    -5220    -5228 
   -4399    -3311    -2728    -2870    -3311    -3588    -3449    -3003 
   -2686    -2752    -3171    -3713    -3928    -3549    -2899    -2508 
   -2489    -2714    -3229    -3986    -4556    -4563    -4112    -3442 
   -2706    -2110    -1780    -1761    -2157    -3009    -4114    -5096 
   -5566    -5408    -4961    -4557    -4172    -3726    -3163    -2550 
   -2145    -1975    -1908    -1933    -1988    -2114    -2519    -3137 
   -3650    -3960    -4240    -4550    -4738    -4538    -3813    -2884 
   -2295    -2289    -2793    -3547    -4266    -4769    -4928    -4819 
   -4577    -4124    -3559    -3167    -2982    -2839    -2612    -2338 
   -2166    -2300    -2871    -3670    -4297    -4579    -4664    -4760 
   -4787    -4487    -3817    -3073    -2663    -2701    -2952    -3109 
   -3126    -3235    -3477    -3670    -3720    -3534    -3208    -3148 
   -3354    -3287    -2728    -2116    -1964    -2280    -2667    -2748 
   -2555    -2532    -2907    -3454    -3939    -4297    -4472    -4440 
   -4167    -3647    -3102    -2808    -2790    -2936    -3061    -3032 
   -2983    -3080    -3235    -3350    -3528    -3832    -4117    -4203 
   -4112    -4063    -4239    -4504    -4455    -3879    -3064    -2494 
   -2442    -2795    -3238    -3616    -3986    -4357    -4506    -4245 
   -3796    -3411    -3082    -2866    -2947    -3365    -3910    -4276 
   -4340    -4218    -4067    -3886    -3613    -3280    -3005    -2849 
   -2767    -2725    -2654    -2502    -2454    -2667    -3024    -3202 
   -2936    -2496    -2516    -3119    -3808    -4132    -4020    -3685 
   -3415    -3395    -3612    -3829    -3669    -3011    -2296    -2111 
   -2490    -2982    -3326    -3654    -3956    -3962    -3665    -3411 
   -3451    -3743    -4098    -4433    -4668    -4627    -4301    -3909 
   -3639    -3408    -3033    -2718    -2890    -3450    -3896    -3919 
   -3528    -2907    -2293    -1926    -2008    -2579    -3369    -3904 
   -3898    -3469    -2967    -2697    -2729    -2953    -3260    -3585 
   -3946    -4287    -4328    -3893    -3241    -2720    -2459    -2493 
   -2812    -3217    -3499    -3701    -3901    -4122    -4472    -4833 
   -4924    -4777    -4517    -4054    -3395    -2770    -2404    -2424 
   -2759    -3173    -3460    -3553    -3592    -3661    -3607    -3408 
   -3275    -3315    -3469    -3597    -3522    -3222    -2987    -3111 
   -3566    -4008    -4112    -3958    -3753    -3551    -3497    -3591 
   -3546    -3281    -2957    -2778    -2895    -3149    -3214    -3021 
   -2797    -2704    -2582    -2323    -2218    -2452    -2828    -3181 
   -3516    -3813    -4020    -4037    -3909    -3850    -3894    -3844 
   -3576    -3257    -3141    -3186    -3200    -3140    -3034    -3041 
   -3279    -3595    -3786    -3804    -3730    -3669    -3591    -3497 
   -3515    -3585    -3527    -3354    -3271    -3443    -3836    -4152 
   -4145    -3940    -3690    -3406    -3253    -3388    -3682    -3910 
   -3919    -3726    -3443    -3148    -3003    -3204    -3589    -3793 
   -3694    -3434    -3200    -3014    -2779    -2589    -2578    -2776 
   -3213    -3678    -3797    -3555    -3221    -2997    -2960    -3001 
   -3014    -3082    -3226    -3384    -3565    -3743    -3832    -3839 
   -3847    -3871    -3821    -3654    -3433    -3256    -3082    -2826 
   -2651    -2786    -3187    -3688    -4187    -4546    -4585    -4286 
   -3888    -3634    -3464    -3177    -2835    -2628    -2587    -2608 
   -2540    -2405    -2439    -2690    -3038    -3477    -3932    -4233 
   -4294    -4124    -3881    -3762    -3836    -4016    -4051    -3797 
   -3434    -3161    -3009    -2957    -2980    -3044    -3125    -3176 
   -3153    -3136    -3249    -3491    -3723    -3854    -3873    -3757 
   -3499    -3218    -3092    -3183    -3360    -3478    -3535    -3596 
   -3643    -3537    -3191    -2766    -2540    -2628    -2971    -3442 
   -3842    -3948    -3699    -3312    -3056    -2992    -3086    -3302 
   -3574    -3770    -3738    -3512    -3299    -3262    -3442    -3746 
   -4039    -4186    -4093    -3836    -3588    -3454    -3481    -3627 
