Origin Time       2024/06/23 22:54:00
Lat.              35.645
Long.             140.060
Depth. (km)       72
Mag.              4.1
Station Code      TKY015
Station Lat.      35.7313
Station Long.     139.8119
Station Height(m) 4
Record Time       2024/06/23 22:54:36
Sampling Freq(Hz) 100Hz
Duration Time(s)  61
Dir.              U-D
Scale Factor      7845(gal)/8223790
Max. Acc. (gal)   2.361
Last Correction   2024/06/23 22:54:36
Memo.             
[...]
    9761     9745     9856     9864     9768     9814     9900     9842 
    9821     9902     9899     9863     9813     9682     9720     9888 
    9830     9732     9849     9890     9759     9775     9880     9877 
    9840     9732     9653     9783     9906     9826     9714     9763 
    9891    10002    10041     9894     9679     9539     9551     9733 
    9837     9977    10176     9961     9725     9811     9720     9690 
    9921     9814     9593     9748     9975    10079    10056     9799 
    9621     9691     9753     9906     9992     9817     9818     9792 
    9647     9848     9956     9817     9768     9711     9801     9900 
    9794     9765     9711     9612     9726     9906     9938     9891 
    9879     9861     9903     9977     9815     9651     9691     9738 
    9861     9968     9844     9749     9894    10021     9865     9729 
    9833     9795     9726     9899     9875     9724     9825     9869 
    9821     9864     9844     9818     9798     9676     9651     9825 
    9985     9904     9695     9679     9767     9786     9903     9987 
    9834     9706     9707     9666     9648     9823    10042    10023 
    9875     9845     9838     9782     9792     9796     9788     9886 
    9944     9934     9983     9909     9725     9680     9722     9810 
    9954     9980     9871     9737     9628     9644     9834     9969 
    9860     9742     9729     9659     9647     9768     9849     9834 
    9822     9826     9799     9828     9894     9880     9856     9836 
    9805     9776     9736     9805     9857     9796     9937    10083 
    9945     9822     9807     9774     9765     9819     9855     9844 
    9859     9872     9879     9841     9751     9810     9869     9733 
    9684     9763     9792     9801     9775     9764     9791     9784 
    9810     9798     9729     9810     9886     9825     9848     9828 
    9711     9753     9810     9811     9898     9934     9899     9884 
    9849     9802     9817     9883     9892     9892     9931     9894 
    9821     9783     9749     9763     9823     9859     9794     9737 
    9811     9875     9868     9850     9774     9655     9621     9729 
    9825     9821     9811     9817     9760     9675     9757     9919 
    9921     9894     9875     9784     9787     9911    10018     9923 
    9698     9741     9919     9857     9760     9833     9937     9938 
    9823     9703     9783     9927     9869     9817     9823     9815 
    9921     9841     9575     9583     9747     9852     9846     9722 
    9783     9949     9817     9617     9756     9929     9850     9832 
    9806     9698     9815     9883     9741     9709     9786     9861 
    9846     9850    10022    10064     9941     9887     9810     9761 
    9859     9958     9948     9832     9713     9647     9653     9740 
    9802     9888     9973     9887     9794     9769     9729     9728 
    9686     9639     9730     9768     9715     9844    10015     9954 
    9865     9838     9697     9610     9729     9867     9918     9929 
    9952     9919     9802     9795     9918     9926     9842     9833 
    9795     9715     9759     9865     9907     9880     9771     9699 
    9818     9946     9876     9768     9772     9748     9688     9742 
    9795     9753     9823     9922     9772     9628     9707     9819 
    9875     9856     9834     9898     9875     9763     9791     9877 
    9882     9899     9883     9774     9786     9890     9890     9853 
    9856     9873     9852     9803     9840     9867     9768     9720 
    9734     9616     9613     9927    10125    10039     9896     9680 
    9501     9520     9644     9826     9975     9968     9921     9936 
    9926     9823     9694     9595     9671     9963    10157    10114 
    9838     9478     9443     9637     9805    10114    10350    10108 
    9725     9656     9640     9612     9891    10019     9790     9703 
    9759     9840     9863     9807     9783     9702     9694     9872 
   10019     9961     9782     9714     9734     9782     9880     9940 
    9914     9814     9737     9718     9653     9630     9730     9795 
    9834     9919     9984    10023    10011     9952     9938     9871 
    9717     9652     9563     9347     9278     9421     9558     9670 
    9759     9726     9748     9950    10135    10361    10542    10293 
    9846     9632     9552     9552     9841    10287    10535    10736 
   11009    10999    10665    10188     9524     8719     8048     8008 
    8753     9651    10039     9768     9162     8847     9286    10396 
   11515    11932    11423    10407     9522     8860     8502     8928 
    9734     9992     9838     9761     9404     8675     8581     9431 
   10191    10431    10613    10655    10246     9880     9957    10154 
   10314    10285     9987     9929    10076     9857     9551     9555 
    9479     9354     9744    10162     9811     9173     8984     9261 
    9772    10172    10129     9769     9555     9691     9958    10048 
    9975     9987    10000     9852     9890    10228    10354    10147 
    9844     9429     9155     9283     9599     9825     9923     9950 
    9822     9636     9647     9817    10093    10404    10515    10160 
    9532     9493     9903     9823     9475     9273     9115     9192 
    9536     9767     9892    10246    10505    10400    10396    10413 
   10076     9575     9182     9170     9536     9813     9873     9981 
   10087    10164    10404    10520    10242     9875     9595     9382 
    9367     9562     9691     9617     9512     9514     9563     9518 
    9321     9235     9520    10027    10524    10775    10538     9981 
    9579     9598     9960    10289    10258    10052     9907     9564 
    9089     8959     9097     9296     9649     9990    10129    10201 
   10179    10012     9983    10160    10184     9946     9703     9513 
    9294     9251     9551     9922    10079    10083    10054    10042 
   10099    10152    10079     9968     9995    10072     9952     9744 
    9678     9606     9540     9769     9984     9698     9261     9177 
    9418     9755     9987    10048     9971     9891     9927     9900 
    9679     9420     9306     9467     9830    10145    10222    10015 
    9733     9684     9929    10309    10543    10322     9838     9558 
    9432     9389     9616     9945    10158    10276    10133     9730 
    9505     9659     9957    10146    10139    10041     9979     9895 
    9680     9472     9450     9459     9313     9173     9336     9769 
   10066    10030     9863     9860    10103    10210     9936     9703 
    9734     9753     9846    10180    10264     9844     9516     9533 
    9614     9807    10004     9849     9621     9678     9774     9744 
    9634     9381     9123     9194     9605     9972     9992     9842 
    9826     9907    10141    10536    10567    10200    10111    10308 
   10339    10278    10297    10224     9894     9312     8824     8845 
    9104     9262     9494     9591     9259     9115     9522     9983 
   10400    10851    10874    10430    10012     9688     9467     9568 
    9780     9919    10238    10562    10411    10042     9922     9714 
    9193     9058     9666    10347    10465     9998     9267     8677 
    8538     8978     9799    10455    10667    10782    10925    10643 
    9860     9123     8776     8775     9113     9672     9983     9865 
    9516     9092     9027     9617    10284    10470    10350    10172 
   10068    10180    10305    10266    10253    10096     9580     9192 
    9231     9433     9701     9969    10084    10157    10193     9886 
    9364     9252     9645    10077    10309    10235     9813     9412 
    9306     9337     9482     9694     9703     9868    10399    10330 
    9463     8939     9036     9358    10057    11065    11746    11574 
   10552     9339     8645     8505     8695     9112     9663    10332 
   10929    10972    10477    10008     9859    10062    10459    10436 
    9732     8910     8510     8546     8866     9479    10214    10439 
    9945     9404     9328     9671    10300    10743    10535    10093 
    9850     9585     9408     9603     9775     9582     9374     9444 
    9711    10104    10505    10516     9988     9502     9572     9914 
   10099     9969     9570     9346     9529     9656     9618     9834 
   10193    10254    10110    10099    10104     9911     9644     9470 
    9564    10061    10559    10435     9660     8808     8488     8853 
    9587    10350    10889    10962    10624    10123     9552     9061 
    8773     8611     8694     9147     9717    10206    10567    10621 
   10370    10069     9856     9879    10318    10860    10935    10593 
   10239     9871     9444     9255     9378     9536     9549     9339 
    8888     8494     8444     8669     9185     9984    10608    10839 
   10855    10585    10157     9923     9652     9238     9262     9759 
   10172    10423    10532    10289     9833     9410     9120     9293 
   10033    10656    10613    10164     9782     9649     9721     9900 
    9987     9643     9024     8833     9113     9518    10123    10530 
   10220     9852     9969    10061     9922     9938    10142    10293 
   10303    10145     9790     9328     8946     8745     8721     8908 
    9402    10039    10470    10716    10771    10430    10023    10017 
   10272    10378    10034     9470     9297     9522     9741     9994 
   10300    10215     9686     9242     9139     9321     9688     9945 
    9941     9832     9672     9632    10022    10494    10473    10156 
    9871     9612     9609     9819     9748     9448     9285     9259 
    9352     9533     9598     9558     9651     9876     9956     9844 
    9809     9888     9923     9884     9849     9915    10081    10305 
   10503    10413    10058     9898     9996     9877     9522     9443 
    9617     9640     9560     9528     9514     9587     9720     9774 
    9794     9814     9807     9842     9915     9981    10116    10237 
   10123     9811     9477     9243     9269     9552     9857    10039 
   10153    10301    10453    10436    10166     9760     9464     9432 
    9525     9603     9823    10162    10204     9906     9688     9737 
   10007    10385    10500    10135     9634     9315     9186     9175 
    9127     9065     9343     9925    10199     9953     9593     9393 
    9383     9630    10111    10624    10926    10871    10543    10177 
    9972     9954     9895     9583     9185     9019     9063     9077 
    9078     9205     9490     9958    10473    10725    10675    10459 
   10116     9790     9683     9671     9524     9356     9352     9427 
    9491     9574     9648     9764     9972    10118    10149    10215 
   10266    10147     9949     9744     9432     9104     9074     9489 
   10102    10577    10817    10833    10700    10497    10218    10033 
    9979     9683     9155     8811     8793     9053     9440     9764 
    9914     9802     9663     9863    10133    10089     9999    10031 
    9927     9745     9730     9755     9796    10050    10293    10262 
   10089     9811     9475     9278     9144     8995     9023     9178 
    9209     9263     9582     9876     9944    10216    10827    11186 
   10970    10386     9733     9320     9204     9216     9377     9728 
   10075    10120     9848     9599     9547     9562     9562     9536 
    9437     9219     9023     9166     9734    10395    10806    10998 
   11103    11086    10962    10824    10615    10370    10249     9954 
    9121     8089     7485     7605     8290     9051     9603    10116 
   10659    11036    11242    11298    11002    10432    10027     9971 
   10000     9936     9861     9775     9694     9683     9556     9286 
    9121     9008     8775     8622     8739     8897     8977     9235 
    9674    10096    10536    10899    10956    10902    10974    10984 
   10775    10409     9992     9675     9513     9518     9703     9791 
    9536     9116     8799     8699     8775     8838     8892     9186 
    9720    10206    10532    10720    10735    10671    10694    10727 
   10579    10401    10401    10319     9910     9340     8823     8572 
    8721     9035     9256     9506     9892    10206    10307    10359 
   10512    10617    10600    10605    10573    10315     9817     9140 
    8546     8456     8916     9459     9576     9397     9413     9498 
    9448     9621    10037    10291    10342    10377    10397    10374 
   10357    10254    10015     9848     9803     9659     9363     9107 
    9005     9092     9470    10098    10605    10679    10389    10025 
    9737     9497     9360     9410     9409     9146     8939     9054 
    9327     9666    10007    10214    10353    10461    10446    10386 
   10338    10145     9830     9652     9533     9320     9346     9717 
   10143    10669    11257    11516    11315    10936    10608    10199 
    9647     9085     8548     8152     8074     8384     8924     9363 
    9603     9741     9752     9687     9911    10492    10910    10905 
   10631    10355    10354    10546    10584    10285     9757     9207 
    8773     8522     8401     8402     8611     9009     9590    10219 
   10504    10420    10300    10154     9892     9691     9680     9682 
    9572     9614     9845     9857     9664     9622     9699     9783 
    9926    10048    10087    10260    10710    11265    11610    11566 
   11246    10789    10188     9605     9165     8665     8019     7485 
    7344     7592     7982     8348     8849     9639    10493    11146 
   11546    11573    11184    10729    10539    10488    10368    10215 
   10017     9786     9765     9971    10162    10219    10161    10060 
   10030    10191    10403    10319     9936     9487     9090     8816 
    8706     8725     8762     8775     8937     9227     9385     9410 
    9447     9532     9707     9995    10382    10805    11074    11071 
   10883    10656    10463    10219     9849     9472     9190     9096 
    9231     9290     9062     8791     8691     8725     8883     9285 
    9860    10272    10540    10791    10929    11003    10898    10558 
   10187     9794     9567     9609     9626     9533     9524     9791 
   10195    10389    10255     9925     9698     9694     9603     9285 
    9104     9211     9360     9536     9645     9580     9587     9832 
   10207    10422    10488    10662    10705    10524    10463    10530 
   10431    10012     9462     9066     8883     8953     9235     9475 
    9544     9544     9634     9828     9965     9954     9842     9720 
    9672     9730     9909    10111    10119     9933     9733     9653 
    9760     9899     9891     9672     9255     8946     9011     9313 
    9686     9992    10115    10079     9977     9934     9938     9848 
    9651     9409     9205     9228     9477     9795    10250    10758 
   10991    10944    10801    10628    10438    10243    10069     9834 
    9485     9194     9185     9493     9922    10212    10215     9904 
    9405     9023     8972     9155     9472     9832     9991     9957 
    9907     9826     9713     9652     9675     9830    10073    10088 
    9775     9481     9505     9933    10486    10825    10897    10743 
   10611    10471    10096     9726     9417     9229     9412     9583 
    9389     9050     8897     8958     8934     8922     9165     9463 
    9768    10147    10341    10301    10247    10142     9907     9599 
    9516     9842    10156    10338    10609    10708    10505    10166 
    9832     9657     9564     9482     9499     9543     9603     9593 
    9387     9328     9562     9713     9690     9660     9575     9364 
    9232     9398     9599     9622     9768     9954     9798     9602 
    9703     9895    10200    10675    10916    10868    10867    10887 
   10736    10446    10125     9697     9247     9082     9155     9305 
    9529     9657     9634     9724    10029    10351    10473    10365 
   10153     9927     9713     9513     9278     9109     9159     9178 
    9019     9053     9373     9679     9938    10156    10161    10052 
   10057    10107    10092    10098    10133    10081     9891     9618 
    9393     9320     9362     9451     9589     9701     9775     9972 
   10243    10395    10446    10396    10251    10122     9871     9512 
    9390     9525     9678     9745     9726     9572     9386     9356 
    9428     9652    10025    10180    10143    10224    10405    10604 
   10767    10747    10374     9819     9432     9119     9018     9323 
    9494     9256     8856     8727     9065     9431     9856    10327 
   10446    10455    10543    10592    10482    10231    10150    10338 
   10565    10490     9988     9132     8402     8252     8364     8730 
    9366     9961    10459    10457    10327    10512    10439    10370 
   10343    10046     9775     9424     9242     9232     9058     9108 
    9359     9583     9984    10471    10636    10503    10280    10152 
   10295    10292    10099    10023     9718     9306     9040     8742 
    8668     8846     9059     9340     9595     9913    10272    10459 
   10588    10631    10498    10315    10185    10241    10382    10309 
   10076     9910     9821     9772     9714     9598     9516     9485 
    9436     9431     9579     9830     9971     9875     9728     9751 
    9832     9788     9705     9686     9756     9817     9738     9730 
    9909     9944     9653     9346     9289     9354     9458     9570 
    9679    10035    10461    10497    10315    10253    10334    10446 
   10439    10243    10000     9975    10061     9998     9936     9926 
    9815     9671     9548     9455     9296     9000     8878     9027 
    9225     9346     9293     9300     9531     9741     9918    10072 
   10093    10062     9952     9802     9767     9729     9710     9846 
    9899     9833     9990    10251    10372    10524    10775    10978 
   11029    10847    10444     9952     9532     9217     8949     8873 
    9030     9188     9227     9157     9070     9039     9066     9254 
    9543     9756     9868     9949    10189    10567    10924    11137 
   11037    10791    10501    10126     9868     9691     9555     9393 
    9135     9036     9053     9196     9493     9718    10010    10345 
   10519    10559    10515    10307     9865     9639     9703     9621 
    9498     9320     9055     8939     8935     9042     9197     9472 
    9906    10075     9965     9867     9784     9614     9506     9666 
    9954    10291    10492    10351    10157     9965     9726     9695 
    9778     9787     9799     9853     9938    10141    10424    10473 
   10347    10358    10378    10212     9861     9463     9180     9090 
    9216     9336     9306     9356     9532     9614     9705     9952 
   10160    10235    10278    10318    10327    10158     9888     9803 
    9825     9752     9636     9644     9778     9879     9890     9904 
    9930     9919    10023    10176    10191    10165    10006     9695 
    9478     9312     9194     9256     9437     9626     9714     9728 
    9772     9779     9699     9667     9841    10111    10282    10251 
    9983     9718     9589     9499     9502     9612     9745     9837 
    9906    10007    10150    10297    10265    10010     9736     9547 
    9447     9373     9252     9166     9235     9413     9575     9802 
