Origin Time       2024/06/23 22:54:00
Lat.              35.645
Long.             140.060
Depth. (km)       72
Mag.              4.1
Station Code      TKY007
Station Lat.      35.7111
Station Long.     139.6864
Station Height(m) 34
Record Time       2024/06/23 22:54:37
Sampling Freq(Hz) 100Hz
Duration Time(s)  66
Dir.              N-S
Scale Factor      7845(gal)/8223790
Max. Acc. (gal)   4.083
Last Correction   2024/06/23 22:54:37
Memo.             
[...]
    3249     3246     3254     3262     3265     3267     3284     3314 
    3303     3252     3210     3208     3267     3345     3375     3319 
    3229     3186     3211     3275     3319     3327     3329     3314 
    3264     3213     3207     3250     3303     3331     3306     3237 
    3203     3227     3283     3329     3329     3299     3283     3281 
    3257     3225     3241     3302     3356     3342     3267     3208 
    3219     3272     3296     3271     3250     3257     3272     3269 
    3267     3289     3307     3295     3267     3245     3245     3262 
    3294     3319     3316     3272     3225     3227     3269     3302 
    3304     3295     3289     3269     3258     3271     3264     3250 
    3269     3304     3314     3284     3249     3238     3249     3262 
    3268     3276     3271     3277     3314     3331     3308     3281 
    3271     3250     3223     3222     3244     3291     3337     3331 
    3291     3257     3248     3249     3252     3269     3271     3260 
    3260     3264     3279     3295     3306     3304     3287     3269 
    3253     3248     3258     3271     3279     3279     3281     3294 
    3285     3272     3281     3292     3280     3258     3238     3217 
    3230     3287     3335     3346     3321     3281     3229     3200 
    3245     3312     3345     3318     3276     3272     3271     3253 
    3245     3245     3253     3264     3267     3249     3231     3271 
    3343     3368     3315     3229     3186     3222     3294     3330 
    3322     3314     3321     3312     3254     3191     3183     3226 
    3288     3316     3308     3288     3257     3252     3253     3250 
    3277     3303     3303     3299     3291     3276     3264     3261 
    3258     3261     3291     3303     3275     3267     3291     3292 
    3271     3262     3257     3260     3256     3249     3304     3339 
    3281     3240     3261     3276     3257     3249     3281     3310 
    3289     3254     3256     3271     3271     3275     3283     3280 
    3268     3275     3299     3292     3272     3261     3238     3230 
    3258     3295     3310     3308     3307     3287     3253     3227 
    3223     3258     3288     3300     3298     3273     3267     3284 
    3284     3271     3261     3260     3267     3287     3303     3288 
    3265     3260     3253     3258     3272     3258     3246     3262 
    3275     3298     3327     3322     3279     3222     3207     3235 
    3269     3306     3326     3321     3294     3257     3253     3253 
    3237     3240     3250     3272     3300     3294     3284     3296 
    3299     3277     3248     3233     3242     3280     3307     3312 
    3315     3285     3253     3260     3272     3264     3250     3256 
    3280     3316     3325     3285     3238     3218     3237     3256 
    3258     3281     3292     3287     3291     3280     3280     3287 
    3272     3271     3272     3261     3262     3267     3262     3262 
    3280     3299     3288     3261     3248     3254     3271     3298 
    3308     3294     3289     3284     3267     3253     3244     3244 
    3252     3268     3285     3299     3310     3298     3279     3275 
    3273     3264     3252     3260     3275     3276     3281     3289 
    3289     3273     3242     3237     3252     3265     3275     3280 
    3303     3333     3314     3258     3229     3235     3250     3271 
    3280     3276     3279     3292     3298     3289     3292     3295 
    3271     3261     3265     3248     3252     3294     3300     3253 
    3227     3250     3271     3277     3295     3319     3319     3284 
    3256     3249     3261     3295     3298     3277     3265     3250 
    3241     3253     3264     3264     3300     3330     3285     3262 
    3281     3269     3262     3269     3261     3276     3295     3277 
    3241     3222     3235     3272     3307     3342     3330     3248 
    3226     3267     3269     3281     3287     3261     3275     3298 
    3295     3276     3261     3272     3280     3271     3268     3296 
    3329     3292     3226     3218     3241     3262     3294     3306 
    3273     3252     3267     3271     3280     3295     3260     3213 
    3231     3299     3341     3349     3335     3292     3261     3258 
    3240     3196     3191     3246     3295     3316     3291     3192 
    3160     3285     3447     3484     3369     3215     3146     3199 
    3245     3203     3230     3387     3453     3237     2903     2843 
    3152     3627     4087     4280     3893     3010     2180     1898 
    2340     3354     4402     4789     4141     2782     1637     1597 
    2836     4514     5404     4900     3330     1694     1023     1672 
    3213     4741     5290     4548     3198     2143     1885     2513 
    3574     4383     4484     3727     2717     2362     2617     2903 
    3269     3898     4206     3640     2729     2347     2609     3173 
    3846     4322     4125     3231     2370     2251     2797     3586 
    4303     4342     3327     2065     1807     2917     4495     5071 
    4093     2504     1574     1809     2944     4229     4838     4407 
    3256     2268     2185     2817     3542     3963     3875     3438 
    3127     3160     3346     3362     2995     2616     2864     3510 
    3790     3620     3466     3443     3248     2955     2925     3068 
    3138     3229     3431     3601     3588     3360     3032     2870 
    3063     3465     3773     3785     3373     2763     2592     3037 
    3535     3650     3426     3180     3230     3385     3180     2812 
    2930     3395     3499     3399     3653     3859     3430     2748 
    2524     2897     3564     4008     3785     3171     2863     3083 
    3472     3543     3160     2720     2687     3038     3415     3661 
    3873     3904     3365     2563     2477     3186     3740     3740 
    3519     3308     3194     3213     3168     2997     2991     3227 
    3389     3298     3119     3171     3499     3667     3404     3165 
    3364     3524     3105     2575     2733     3518     4185     4197 
    3499     2548     2168     2585     3244     3770     4071     3933 
    3302     2656     2623     3180     3794     4054     3753     3019 
    2447     2446     2801     3258     3780     4129     3947     3275 
    2586     2376     2906     3894     4473     4113     3195     2417 
    2181     2531     3240     3889     4066     3657     2949     2538 
    2816     3438     3782     3740     3438     2992     2879     3310 
    3676     3557     3264     3057     2948     3114     3510     3609 
    3350     3277     3396     3264     2929     2822     3053     3331 
    3470     3565     3638     3515     3094     2644     2641     3238 
    3971     4193     3817     3248     2749     2536     2851     3342 
    3407     3393     3778     3856     3213     2798     3087     3338 
    3194     3133     3376     3639     3604     3169     2658     2529 
    2829     3291     3674     3747     3477     3254     3226     3091 
    2978     3260     3669     3719     3478     3314     3304     3244 
    3025     2870     2968     3065     3065     3343     3774     3694 
    3148     2867     3055     3311     3456     3570     3615     3365 
    2812     2533     2887     3327     3470     3643     3912     3840 
    3396     3015     2920     3060     3377     3720     3782     3345 
    2694     2550     3092     3524     3318     3048     3300     3720 
    3716     3349     3056     3040     3195     3325     3283     3168 
    3198     3375     3493     3333     2917     2695     3073     3699 
    3861     3520     3252     3207     3019     2833     3161     3739 
    3877     3558     3257     2994     2538     2413     3148     3985 
    4023     3592     3234     2863     2631     2917     3345     3450 
    3504     3609     3511     3412     3627     3813     3442     2579 
    1815     1776     2741     4214     4989     4392     3177     2555 
    2803     3250     3462     3774     4064     3627     2775     2361 
    2358     2621     3346     4035     3929     3343     3013     2988 
    3118     3461     3831     3865     3643     3343     2718     2011 
    2218     3424     4401     4432     3946     3291     2544     2174 
    2613     3516     4101     3919     3125     2450     2601     3372 
    3906     3728     3083     2562     2543     3080     3969     4576 
    4267     3352     2759     2789     3082     3353     3387     3046 
    2627     2628     3133     3662     3862     3942     4055     3858 
    3133     2392     2320     2889     3456     3562     3356     3186 
    3082     2970     2952     3106     3489     4033     4145     3468 
    2803     2905     3296     3295     3010     2972     3353     3645 
    3416     3087     3277     3732     3697     3123     2713     2860 
    3230     3400     3433     3527     3488     3088     2694     2776 
    3269     3855     4170     3861     3136     2677     2870     3493 
    3871     3507     2828     2677     3076     3387     3474     3515 
    3261     2729     2656     3233     3705     3732     3597     3349 
    3006     2971     3361     3558     3145     2650     2751     3306 
    3738     3985     4143     3817     2971     2376     2556     3241 
    3798     3761     3215     2693     2555     2762     3100     3353 
    3415     3388     3446     3504     3354     3262     3564     3920 
    3940     3708     3339     2874     2570     2637     2903     3180 
    3483     3720     3754     3500     2964     2668     3076     3501 
    3261     3063     3466     3758     3468     3087     3042     3319 
    3704     3827     3512     3121     3055     3188     3194     3072 
    3022     3094     3304     3611     3642     3246     2926     3014 
    3230     3420     3720     3850     3370     2550     2101     2388 
    3198     3962     4225     3893     3076     2222     2146     2992 
    3859     4082     3736     3105     2562     2533     3142     3913 
    4163     3793     3214     2720     2508     2832     3588     4158 
    4120     3636     3110     2779     2717     3029     3558     3824 
    3689     3445     3164     2813     2705     3003     3426     3778 
    3954     3715     3091     2604     2810     3561     4004     3620 
    2918     2582     2574     2771     3329     3947     4085     3667 
    2943     2385     2535     3287     3850     3732     3219     2813 
    2737     3028     3572     4016     4116     3977     3613     2961 
    2412     2502     3096     3512     3484     3315     3221     3173 
    3127     3090     3096     3159     3254     3321     3345     3458 
    3655     3674     3458     3341     3473     3456     3048     2704 
    2844     3264     3635     3855     3769     3406     3123     3037 
    2963     2903     3100     3538     3771     3550     3134     2928 
    3045     3261     3310     3192     3142     3204     3206     3134 
    2992     2739     2681     3138     3746     3940     3771     3547 
    3252     2887     2876     3439     4009     3964     3464     3090 
    3129     3304     3192     2856     2648     2778     3199     3581 
    3622     3385     3065     2755     2728     3237     3908     4097 
    3692     3092     2716     2787     3248     3605     3481     3225 
    3272     3488     3584     3469     3191     3024     3235     3541 
    3435     3017     2835     3138     3628     3954     3981     3578 
    2890     2484     2667     3036     3057     2833     2809     3091 
    3542     4016     4301     4218     3716     2976     2552     2829 
    3411     3688     3522     3173     3064     3312     3507     3443 
    3427     3537     3424     3007     2610     2497     2704     3110 
    3500     3731     3742     3476     3044     2829     3038     3404 
    3561     3407     3118     2972     3073     3257     3291     3187 
    3179     3314     3404     3375     3323     3246     3083     2955 
    2967     3080     3321     3640     3682     3264     2856     2952 
    3356     3653     3657     3424     3292     3473     3600     3350 
    3099     3237     3481     3434     3202     3113     3203     3264 
    3227     3191     3283     3483     3537     3295     2883     2536 
    2502     2864     3361     3677     3767     3688     3501     3348 
    3291     3341     3469     3496     3339     3169     3136     3203 
    3353     3555     3565     3261     2909     2786     2862     2961 
    3083     3252     3335     3362     3542     3780     3805     3777 
    3935     3969     3491     2698     2170     2212     2581     2983 
    3250     3149     2713     2338     2388     2963     3848     4583 
    4799     4548     4124     3712     3383     3214     3222     3299 
    3354     3369     3302     3157     3044     3055     3188     3308 
    3294     3194     3032     2768     2598     2704     2844     2814 
    2724     2552     2289     2288     2785     3416     3682     3608 
    3543     3670     3932     4175     4237     3974     3449     2961 
    2648     2488     2659     3415     4617     5648     5867     5265 
    4484     3912     3368     2741     2207     1860     1447      776 
     313      639     1680     2909     3859     4357     4657     5247 
    6084     6436     5918     5039     4395     3862     3063     2134 
    1436      984      577      193      166      820     1837     2498 
    2636     2739     3238     4050     4672     4773     4514     4236 
    4290     4919     5961     6990     7554     7207     5803     3939 
    2482     1652     1125      692      368      199      261      719 
    1552     2516     3501     4456     5148     5292     4768     3828 
    2987     2515     2153     1628     1198     1204     1564     2033 
    2481     2799     2926     3113     3636     4453     5337     5994 
    6116     5429     4067     2940     2802     3267     3418     2903 
    2133     1786     2282     3429     4531     5088     5128     4865 
    4337     3531     2598     1827     1551     1833     2367     2899 
    3470     4094     4413     4033     3140     2392     2234     2494 
    2795     2982     3111     3410     4000     4623     4959     4958 
    4712     4220     3453     2465     1566     1312     1858     2659 
    3096     3126     3073     3009     2960     3289     4032     4669 
    4850     4549     3905     3294     3003     2876     2643     2185 
    1453      646      291      847     2154     3511     4452     4928 
    4936     4638     4417     4518     4835     4985     4571     3604 
    2636     2322     2772     3451     3852     3950     3863     3584 
    3091     2498     2112     2254     2876     3447     3522     3231 
    2916     2640     2331     2145     2444     3272     4101     4376 
    4089     3701     3628     3816     3933     3859     3738     3503 
    2813     1709      750      502     1243     2735     4216     5030 
    5089     4676     4126     3693     3537     3712     4054     4236 
    3987     3218     2161     1408     1416     2095     2991     3603 
    3647     3234     2646     2297     2563     3318     4178     4835 
    5066     4876     4465     4083     3936     4004     4041     3904 
    3667     3333     2759     1989     1271      873      985     1597 
    2470     3271     3904     4423     4648     4394     3856     3346 
    3026     2891     2848     2886     2990     2975     2701     2342 
    2346     2955     3843     4507     4673     4251     3418     2708 
    2613     3169     4083     4920     5103     4441     3524     2986 
    2832     2824     2920     3053     2988     2655     2254     2026 
    2115     2528     3148     3721     3951     3786     3468     3242 
    3223     3499     3990     4263     3989     3331     2667     2334 
    2494     2983     3480     3744     3700     3531     3543     3736 
    3794     3526     3086     2739     2552     2439     2309     2205 
    2280     2578     3022     3501     3871     4067     4124     4087 
    3964     3846     3917     4114     4121     3716     3040     2511 
    2358     2427     2457     2350     2340     2731     3434     4031 
    4171     3782     3078     2520     2567     3330     4348     4873 
    4602     3789     2932     2558     2843     3387     3631     3445 
    3140     2929     2752     2581     2523     2641     2868     3188 
    3554     3750     3646     3383     3215     3258     3505     3878 
    4122     3954     3345     2601     2143     2151     2496     2909 
    3126     3064     2909     2949     3280     3759     4221     4638 
    5012     5127     4750     4010     3261     2766     2605     2713 
    2967     3092     2727     1858     1017      808     1387     2462 
    3531     4193     4356     4166     3935     3923     4058     4074 
    3858     3558     3392     3503     3798     3894     3622     3314 
    3275     3408     3408     3110     2641     2327     2389     2744 
    3186     3559     3721     3500     2899     2320     2242     2722 
    3339     3585     3385     3048     2813     2745     2901     3310 
    3869     4414     4734     4625     4176     3732     3501     3465 
    3581     3778     3838     3634     3312     3021     2794     2655 
    2639     2727     2855     2929     2828     2519     2116     1822 
    1806     2061     2427     2743     2986     3279     3678     4077 
    4369     4576     4741     4766     4580     4264     3906     3561 
    3330     3295     3424     3613     3665     3377     2835     2412 
    2363     2550     2635     2485     2230     2137     2469     3159 
    3804     4060     3944     3736     3662     3793     4095     4401 
    4521     4356     3896     3254     2658     2307     2226     2296 
    2330     2189     2015     2116     2554     3076     3524     3913 
    4162     4225     4237     4263     4193     3954     3578     3109 
    2691     2544     2690     3002     3348     3638     3781     3669 
    3319     2951     2820     3028     3445     3785     3824     3601 
    3284     2995     2889     3051     3310     3362     3122     2781 
    2494     2293     2212     2300     2556     2920     3260     3454 
    3534     3627     3771     3917     4024     4129     4260     4280 
    4060     3659     3275     3080     3041     2992     2891     2825 
    2813     2733     2550     2405     2450     2687     3011     3310 
    3550     3863     4317     4666     4687     4471     4233     4028 
    3713     3295     2964     2749     2566     2455     2475     2535 
    2539     2501     2478     2593     2948     3465     3890     3956 
    3650     3242     3049     3186     3516     3823     4001     4128 
    4271     4349     4301     4062     3531     2722     1834     1229 
    1193     1682     2413     3067     3480     3734     4054     4491 
    4745     4575     4143     3717     3352     3059     2932     2879 
    2671     2376     2300     2554     2938     3230     3356     3275 
    3003     2697     2606     2889     3439     3955     4140     3947 
    3581     3219     2987     3019     3311     3640     3754     3604 
    3343     3161     3157     3198     3082     2875     2812     2924 
    3114     3370     3645     3828     3866     3766     3589     3441 
    3375     3310     3196     3127     3071     2895     2683     2678 
