Origin Time       2024/06/23 22:54:00
Lat.              35.645
Long.             140.060
Depth. (km)       72
Mag.              4.1
Station Code      TKY024
Station Lat.      35.7422
Station Long.     139.8612
Station Height(m) 3
Record Time       2024/06/23 22:54:45
Sampling Freq(Hz) 100Hz
Duration Time(s)  60
Dir.              N-S
Scale Factor      7845(gal)/8223790
Max. Acc. (gal)   4.286
Last Correction   2024/06/23 22:54:44
Memo.             
[...]
   -1999    -1999    -2006    -2026    -2018    -1992    -1981    -1977 
   -1979    -1991    -1998    -1992    -1988    -1989    -2000    -1998 
   -1973    -1979    -2007    -2010    -1995    -1983    -1966    -1965 
   -1977    -1976    -1983    -2011    -2019    -2007    -2002    -2006 
   -2002    -1988    -1989    -2006    -2004    -1980    -1949    -1938 
   -1972    -2030    -2068    -2053    -1991    -1938    -1941    -1976 
   -2007    -2022    -2006    -1968    -1938    -1942    -1981    -2016 
   -2015    -1998    -1995    -1991    -1980    -1980    -1981    -1981 
   -1987    -1995    -2000    -1993    -1981    -1979    -1976    -1979 
   -1992    -1993    -1991    -2006    -2019    -2027    -2034    -2023 
   -1999    -1975    -1956    -1950    -1954    -1961    -1971    -1975 
   -1977    -1985    -1991    -1980    -1968    -1977    -1999    -2011 
   -2026    -2041    -2027    -2003    -1989    -1983    -1981    -1988 
   -1993    -1995    -1996    -1996    -1996    -1998    -2004    -2008 
   -2003    -1996    -1996    -1989    -1977    -1976    -1980    -1972 
   -1966    -1964    -1956    -1968    -1992    -1998    -2002    -2006 
   -1993    -1991    -2006    -2004    -1989    -1980    -1979    -1992 
   -2011    -2012    -2002    -2000    -1998    -1988    -1992    -1993 
   -1988    -2010    -2016    -1981    -1969    -1973    -1960    -1968 
   -2003    -2016    -2004    -1988    -1975    -1981    -2000    -2004 
   -2000    -2002    -2015    -2022    -1999    -1976    -1971    -1972 
   -1989    -2025    -2041    -2023    -1992    -1968    -1979    -2011 
   -2010    -1988    -1979    -1975    -1977    -1993    -2003    -1987 
   -1979    -1992    -2003    -1996    -1975    -1961    -1975    -2004 
   -2033    -2027    -1996    -1981    -1989    -1998    -2002    -1999 
   -2002    -2016    -2003    -1972    -1976    -1991    -2003    -2037 
   -2056    -2025    -1979    -1958    -1961    -1981    -2014    -2030 
   -2016    -1983    -1952    -1954    -1984    -2002    -1998    -1995 
   -2002    -2000    -2000    -2007    -1996    -1985    -2000    -2010 
   -2012    -2019    -2010    -1996    -1998    -2002    -2002    -1989 
   -1975    -1991    -2016    -2025    -2018    -1977    -1939    -1949 
   -1975    -1998    -2016    -2004    -1975    -1975    -2000    -2008 
   -1996    -1984    -1972    -1977    -2002    -2000    -1984    -1987 
   -1995    -2006    -2033    -2047    -2022    -1983    -1962    -1962 
   -1979    -1999    -2015    -2022    -2003    -1972    -1956    -1958 
   -1975    -1993    -1999    -1993    -2000    -2008    -2003    -1998 
   -1987    -1976    -1983    -1987    -1988    -2004    -2016    -2011 
   -2000    -1984    -1983    -2000    -2004    -1998    -1992    -1979 
   -1979    -2006    -2018    -2010    -2003    -1984    -1973    -1996 
   -2002    -1979    -1975    -1987    -1995    -1995    -1977    -1961 
   -1964    -1975    -1995    -2016    -2011    -1991    -1988    -1988 
   -1985    -1993    -1998    -1992    -1987    -1969    -1971    -1998 
   -2007    -2002    -2002    -1995    -1989    -1989    -1983    -1979 
   -1971    -1962    -1975    -1988    -1989    -1991    -1988    -1981 
   -1988    -1984    -1976    -1989    -1996    -1987    -1987    -1987 
   -1987    -2011    -2031    -2020    -1998    -1992    -1999    -2007 
   -2004    -1988    -1984    -1996    -2012    -2004    -1960    -1929 
   -1945    -2006    -2070    -2052    -1949    -1894    -1939    -2019 
   -2042    -1991    -1958    -2004    -2050    -2033    -1987    -1993 
   -2066    -2070    -1925    -1792    -1821    -1933    -2049    -2165 
   -2185    -2041    -1904    -1939    -2065    -2108    -2002    -1821 
   -1744    -1895    -2123    -2145    -1996    -1962    -2097    -2162 
   -1995    -1813    -1891    -2038    -1972    -1895    -1985    -2008 
   -1919    -1998    -2218    -2259    -2072    -1854    -1736    -1827 
   -2084    -2162    -1973    -1865    -1966    -2045    -1999    -1917 
   -1888    -1964    -2119    -2242    -2193    -1931    -1680    -1744 
   -2073    -2254    -2047    -1768    -1841    -2160    -2312    -2083 
   -1660    -1613    -2130    -2539    -2304    -1827    -1641    -1728 
   -1931    -2092    -2061    -1942    -1918    -2038    -2184    -2172 
   -1995    -1869    -2012    -2238    -2096    -1634    -1475    -1915 
   -2385    -2273    -1860    -1788    -2084    -2319    -2317    -2108 
   -1796    -1625    -1603    -1602    -1772    -2243    -2641    -2478 
   -1996    -1800    -1838    -1806    -1823    -1961    -2029    -2047 
   -2124    -2139    -2050    -1996    -2008    -1987    -1903    -1769 
   -1664    -1800    -2165    -2396    -2282    -2007    -1885    -1956 
   -1983    -1915    -1929    -2019    -2073    -2116    -2056    -1817 
   -1740    -1984    -2130    -1988    -1896    -1988    -2073    -2056 
   -1930    -1773    -1844    -2149    -2270    -2087    -1962    -2007 
   -2054    -2066    -2049    -1946    -1817    -1884    -2115    -2187 
   -1981    -1736    -1863    -2295    -2407    -2081    -1775    -1660 
   -1750    -2073    -2261    -2053    -1895    -2089    -2272    -2093 
   -1715    -1514    -1659    -2006    -2236    -2219    -2099    -2035 
   -2119    -2177    -1976    -1750    -1760    -1854    -1954    -2146 
   -2228    -1985    -1664    -1618    -1829    -1976    -1945    -2010 
   -2276    -2497    -2496    -2289    -1887    -1441    -1347    -1629 
   -1861    -1927    -2114    -2473    -2671    -2423    -1821    -1390 
   -1555    -1979    -2119    -2079    -2161    -2304    -2301    -2031 
   -1664    -1574    -1921    -2438    -2566    -2158    -1773    -1702 
   -1705    -1780    -1996    -2172    -2274    -2339    -2282    -2038 
   -1606    -1340    -1682    -2286    -2403    -2045    -1831    -1925 
   -2053    -2089    -1989    -1742    -1595    -1811    -2141    -2074 
   -1719    -1683    -2045    -2292    -2200    -2065    -2149    -2332 
   -2269    -1848    -1426    -1463    -2000    -2598    -2728    -2241 
   -1587    -1377    -1641    -1995    -2230    -2236    -2018    -1876 
   -2035    -2262    -2197    -1958    -1908    -1949    -1827    -1729 
   -1884    -2128    -2191    -2000    -1782    -1798    -1979    -2107 
   -2146    -2101    -2006    -2007    -2160    -2243    -2033    -1686 
   -1598    -1837    -2022    -1975    -1914    -1921    -2006    -2241 
   -2355    -2130    -1846    -1750    -1806    -1971    -2118    -2149 
   -2274    -2458    -2209    -1591    -1242    -1368    -1802    -2305 
   -2430    -2103    -1876    -2056    -2390    -2532    -2371    -2033 
   -1655    -1397    -1462    -1810    -2130    -2258    -2239    -2092 
   -1888    -1678    -1476    -1530    -1968    -2420    -2515    -2304 
   -2042    -1903    -1885    -1912    -2008    -2126    -2120    -2037 
   -2026    -2003    -1792    -1553    -1653    -2057    -2319    -2286 
   -2135    -1961    -1948    -2124    -2119    -1912    -1856    -1890 
   -1753    -1624    -1776    -1958    -1926    -1934    -2054    -2029 
   -1926    -2039    -2334    -2523    -2451    -2227    -2019    -1868 
   -1767    -1706    -1703    -1840    -2046    -2135    -2062    -1935 
   -1919    -2060    -2157    -1958    -1593    -1549    -1988    -2444 
   -2473    -2266    -2168    -1976    -1572    -1439    -1799    -2180 
   -2269    -2389    -2646    -2501    -1723     -951     -907    -1526 
   -2343    -2970    -2984    -2470    -2104    -2008    -1687    -1236 
   -1140    -1533    -2251    -2670    -2292    -1695    -1574    -1800 
   -2092    -2309    -2153    -1821    -2050    -2654    -2718    -2093 
   -1490    -1536    -1931    -1919    -1571    -1609    -2100    -2458 
   -2479    -2359    -2089    -1628    -1301    -1545    -2130    -2281 
   -1931    -1733    -1888    -2091    -2166    -2174    -2133    -2106 
   -2223    -2268    -1966    -1549    -1351    -1439    -1842    -2389 
   -2585    -2367    -2241    -2276    -2099    -1777    -1574    -1543 
   -1837    -2338    -2489    -2141    -1794    -1894    -2220    -2216 
   -1729    -1262    -1390    -1950    -2381    -2446    -2288    -2185 
   -2168    -2079    -1949    -1884    -1850    -1744    -1625    -1657 
   -1863    -2114    -2323    -2474    -2320    -1840    -1564    -1738 
   -2219    -2776    -2957    -2612    -2162    -1876    -1516    -1044 
    -926    -1345    -1904    -2147    -2201    -2493    -2890    -2880 
   -2373    -1746    -1391    -1464    -1721    -1844    -1856    -1813 
   -1675    -1645    -2057    -2582    -2500    -2015    -1763    -1714 
   -1679    -1738    -1929    -2079    -1999    -1800    -1856    -2223 
   -2454    -2309    -2047    -1962    -2035    -1983    -1698    -1536 
   -1887    -2558    -2789    -2286    -1737    -1652    -1733    -1802 
   -2018    -2290    -2461    -2479    -2238    -1827    -1489    -1287 
   -1296    -1587    -1979    -2201    -2243    -2238    -2246    -2215 
   -2025    -1810    -1903    -2092    -1956    -1722    -1721    -1864 
   -1989    -1948    -1790    -1844    -2127    -2284    -2153    -2035 
   -2230    -2498    -2367    -1849    -1495    -1576    -1830    -2080 
   -2216    -2223    -2355    -2546    -2435    -2056    -1722    -1532 
   -1447    -1626    -2056    -2284    -2108    -1768    -1579    -1701 
   -1907    -1948    -2022    -2367    -2798    -2955    -2668    -2018 
   -1329     -996    -1111    -1448    -1814    -2099    -2293    -2550 
   -2727    -2477    -1949    -1607    -1597    -1749    -1877    -1833 
   -1698    -1813    -2135    -2177    -1898    -1830    -2166    -2610 
   -2924    -2972    -2683    -2145    -1570    -1243    -1188    -1116 
   -1066    -1381    -1985    -2415    -2484    -2336    -2085    -1850 
   -1746    -1790    -1968    -2176    -2193    -1998    -1759    -1710 
   -2110    -2690    -2689    -2161    -1923    -2011    -1860    -1548 
   -1518    -1769    -1968    -1976    -2008    -2188    -2304    -2224 
   -2115    -2158    -2268    -2278    -2195    -2058    -1881    -1603 
   -1228    -1055    -1339    -1869    -2276    -2463    -2535    -2529 
   -2484    -2357    -2106    -1941    -1995    -1992    -1782    -1657 
   -1748    -1818    -1867    -2084    -2374    -2450    -2170    -1709 
   -1418    -1464    -1624    -1679    -1772    -2033    -2316    -2509 
   -2623    -2606    -2390    -2062    -1807    -1711    -1636    -1387 
   -1190    -1421    -2012    -2639    -2944    -2725    -2284    -1945 
   -1711    -1701    -1945    -2130    -2079    -1927    -1800    -1730 
   -1755    -1846    -1896    -1818    -1613    -1541    -1854    -2236 
   -2303    -2278    -2369    -2286    -1954    -1717    -1723    -1815 
   -1912    -2070    -2289    -2440    -2351    -2088    -1879    -1715 
   -1529    -1466    -1594    -1817    -2095    -2425    -2756    -2916 
   -2728    -2340    -2023    -1749    -1379    -1109    -1313    -1885 
   -2338    -2419    -2154    -1788    -1692    -1915    -2151    -2204 
   -2173    -2235    -2312    -2114    -1740    -1621    -1753    -1856 
   -1925    -2030    -2149    -2249    -2239    -2177    -2143    -1856 
   -1366    -1383    -1998    -2506    -2578    -2444    -2436    -2586 
   -2565    -2149    -1494    -1047    -1077    -1344    -1553    -1607 
   -1534    -1549    -1783    -2041    -2170    -2270    -2436    -2655 
   -2802    -2663    -2242    -1860    -1729    -1756    -1772    -1645 
   -1328    -1005     -942    -1177    -1549    -1867    -2043    -2174 
   -2295    -2227    -1872    -1486    -1458    -1821    -2187    -2226 
   -2193    -2525    -2907    -2752    -2351    -2358    -2763    -3171 
   -3358    -3241    -2843    -2412    -2189    -2204    -2405    -2721 
   -3057    -3396    -3650    -3562    -3061    -2452    -2041    -1834 
   -1680    -1397     -866     -268       14      -51     -103      -70 
    -325     -994    -1702    -2081    -2049    -1787    -1615    -1663 
   -1933    -2435    -2849    -2844    -2432    -1686     -905     -638 
   -1107    -2062    -3055    -3765    -4058    -3732    -2752    -1517 
    -402      554     1348     1750     1580      951       62     -808 
   -1354    -1807    -2587    -3573    -4482    -5233    -5659    -5572 
   -4963    -3905    -2612    -1379     -330      388      382     -481 
   -1603    -2295    -2644    -3160    -3823    -4178    -4171    -4021 
   -3692    -3327    -3288    -3397    -3184    -2527    -1576     -577 
      83       86     -351     -788    -1220    -1647    -1764    -1494 
   -1128    -1007    -1174    -1426    -1656    -2076    -2909    -3790 
   -4043    -3553    -2872    -2485    -2432    -2547    -2520    -2035 
   -1237     -614     -386     -503     -859    -1151    -1317    -1790 
   -2605    -3159    -3045    -2605    -2374    -2259    -1976    -1610 
   -1183     -747     -707    -1224    -1949    -2517    -2701    -2390 
   -1838    -1483    -1416    -1579    -2093    -2825    -3302    -3234 
   -2670    -1776     -714      251      905     1291     1144      -71 
   -2118    -3842    -4284    -3564    -2712    -2560    -2975    -3488 
   -3939    -4290    -4418    -4164    -3419    -2272    -1082     -182 
     332      359     -260    -1347    -2347    -2902    -3042    -2764 
   -1938     -805     -106     -267     -888    -1490    -2119    -2786 
   -3105    -2940    -2697    -2786    -3214    -3694    -4023    -4239 
   -4268    -3659    -2230     -546      712     1242      951      -32 
   -1198    -2029    -2697    -3646    -4704    -5379    -5373    -4436 
   -2461       10     1926     2500     1780      406    -1071    -2335 
   -3161    -3435    -3267    -2971    -2762    -2666    -2646    -2543 
   -2169    -1566    -1121    -1306    -2029    -2527    -2353    -1833 
   -1232     -545       37      372      400     -214    -1485    -2659 
   -3202    -3338    -3451    -3674    -3788    -3407    -2558    -1745 
   -1359    -1370    -1547    -1798    -2187    -2570    -2620    -2347 
   -2000    -1756    -1856    -2431    -3172    -3503    -3165    -2475 
   -1879    -1575    -1537    -1641    -1929    -2467    -3022    -3261 
   -3122    -2794    -2436    -1975    -1259     -403      257      557 
     508       56     -770    -1652    -2238    -2462    -2463    -2322 
   -2096    -1939    -1919    -2025    -2385    -3061    -3796    -4201 
   -4085    -3569    -2907    -2312    -1910    -1707    -1664    -1736 
   -1738    -1444     -912     -552     -708    -1228    -1598    -1516 
   -1148     -918    -1175    -1819    -2411    -2898    -3456    -3780 
   -3518    -2864    -2277    -2064    -2115    -2069    -1863    -1622 
   -1281     -900     -652     -405     -194     -313     -715    -1204 
   -1741    -2262    -2716    -3129    -3427    -3438    -3146    -2947 
   -3219    -3740    -3910    -3438    -2533    -1485     -484      144 
     170     -279     -928    -1593    -2276    -2955    -3322    -3103 
   -2435    -1642    -1005     -787    -1063    -1560    -1925    -1969 
   -1667    -1242    -1108    -1502    -2262    -2976    -3404    -3628 
   -3697    -3562    -3215    -2652    -1977    -1420    -1101     -963 
    -982    -1166    -1351    -1501    -1814    -2205    -2452    -2727 
   -3187    -3485    -3319    -2849    -2293    -1664     -973     -402 
    -151     -164     -275     -500     -900    -1343    -1686    -2010 
   -2504    -3142    -3608    -3700    -3628    -3591    -3461    -3122 
   -2710    -2432    -2263    -2070    -1925    -1957    -1987    -1687 
   -1070     -453        2      317      338     -274    -1502    -2720 
   -3352    -3379    -3005    -2407    -1795    -1416    -1567    -2313 
   -3199    -3732    -3770    -3325    -2513    -1644    -1047     -820 
    -873    -1177    -1678    -2008    -1900    -1580    -1329    -1248 
   -1377    -1678    -2111    -2581    -2897    -2992    -2992    -2929 
   -2629    -2107    -1603    -1200     -913     -830     -993    -1316 
   -1580    -1711    -1803    -1868    -1857    -1800    -1803    -1988 
   -2457    -3171    -3838    -4093    -3788    -3095    -2374    -1856 
   -1517    -1274    -1123    -1121    -1264    -1494    -1863    -2398 
   -2899    -3122    -3021    -2701    -2265    -1779    -1325     -965 
    -715     -704    -1066    -1634    -2180    -2567    -2673    -2565 
   -2397    -2166    -1902    -1734    -1688    -1682    -1624    -1510 
   -1395    -1200     -824     -513     -660    -1328    -2160    -2736 
   -3075    -3505    -4001    -4120    -3636    -2856    -2145    -1552 
   -1070     -845    -1044    -1622    -2228    -2532    -2475    -2201 
   -1977    -1960    -2022    -1933    -1583    -1051     -556     -288 
    -286     -504     -907    -1354    -1686    -1939    -2223    -2528 
   -2813    -3082    -3375    -3577    -3430    -2947    -2405    -1965 
   -1637    -1456    -1475    -1625    -1744    -1845    -2058    -2340 
   -2562    -2697    -2733    -2646    -2527    -2581    -2918    -3388 
   -3659    -3539    -3186    -2824    -2381    -1672     -831     -178 
     121       32     -338     -703     -947    -1213    -1532    -1854 
   -2195    -2504    -2720    -2832    -2929    -3154    -3403    -3352 
   -2902    -2288    -1757    -1355    -1058     -907     -999    -1310 
   -1603    -1752    -1836    -1890    -1892    -1825    -1678    -1540 
   -1587    -1906    -2350    -2601    -2502    -2224    -1981    -1830 
   -1760    -1699    -1578    -1421    -1260    -1134    -1059    -1009 
   -1040    -1332    -1934    -2585    -2992    -3103    -2991    -2735 
   -2420    -2192    -2135    -2101    -1912    -1679    -1655    -1825 
   -1937    -1979    -2166    -2455    -2546    -2392    -2243    -2218 
   -2165    -1992    -1833    -1865    -2157    -2592    -2882    -2859 
   -2700    -2646    -2569    -2184    -1590    -1112     -943    -1112 
   -1478    -1803    -1948    -1980    -1957    -1792    -1529    -1395 
   -1498    -1788    -2166    -2474    -2609    -2585    -2494    -2454 
   -2511    -2608    -2656    -2650    -2635    -2555    -2331    -1981 
   -1615    -1389    -1312    -1194     -986     -838     -865    -1089 
   -1478    -1892    -2142    -2236    -2373    -2583    -2681    -2574 
   -2351    -2095    -1791    -1385     -994     -835     -895    -1031 
   -1235    -1502    -1796    -2166    -2605    -2937    -2945    -2609 
   -2204    -2007    -2023    -2068    -2018    -1983    -2088    -2250 
   -2367    -2419    -2365    -2205    -2031    -1942    -1952    -1977 
   -1931    -1845    -1888    -2079    -2203    -2128    -1941    -1831 
   -1872    -1953    -2045    -2165    -2253    -2320    -2407    -2498 
   -2571    -2562    -2436    -2273    -2184    -2128    -1998    -1833 
   -1711    -1653    -1719    -1912    -2133    -2286    -2286    -2068 
   -1694    -1298     -963     -742     -708     -923    -1333    -1811 
   -2285    -2663    -2768    -2516    -2058    -1660    -1441    -1391 
   -1525    -1786    -2014    -2131    -2185    -2209    -2165    -2042 
   -1944    -2039    -2351    -2701    -2937    -3037    -2984    -2741 
   -2380    -2110    -2046    -2076    -2039    -1900    -1728    -1588 
   -1556    -1667    -1794    -1759    -1598    -1497    -1588    -1883 
   -2149    -2084    -1695    -1219     -857     -741     -903    -1266 
   -1683    -1983    -2084    -2080    -2178    -2494    -2878    -3076 
   -2982    -2660    -2307    -2066    -1906    -1823    -1904    -2081 
