Origin Time       2024/06/23 22:54:00
Lat.              35.645
Long.             140.060
Depth. (km)       72
Mag.              4.1
Station Code      TKY027
Station Lat.      35.6930
Station Long.     139.8913
Station Height(m) 1
Record Time       2024/06/23 22:54:44
Sampling Freq(Hz) 100Hz
Duration Time(s)  60
Dir.              U-D
Scale Factor      7845(gal)/8223790
Max. Acc. (gal)   1.979
Last Correction   2024/06/23 22:54:44
Memo.             
[...]
    5142     5140     5157     5165     5144     5125     5144     5177 
    5192     5200     5198     5202     5228     5216     5132     5053 
    5054     5125     5217     5269     5246     5198     5159     5121 
    5112     5151     5185     5170     5131     5108     5121     5152 
    5169     5188     5209     5202     5185     5189     5216     5247 
    5224     5124     5042     5047     5103     5173     5240     5256 
    5202     5130     5078     5084     5154     5220     5221     5192 
    5165     5142     5134     5154     5182     5185     5169     5166 
    5184     5196     5185     5163     5152     5150     5142     5135 
    5143     5169     5196     5200     5175     5142     5123     5127 
    5150     5179     5200     5194     5175     5154     5138     5128 
    5138     5167     5202     5216     5204     5184     5167     5158 
    5148     5140     5151     5179     5201     5197     5165     5123 
    5098     5109     5154     5200     5223     5219     5194     5161 
    5130     5112     5123     5158     5188     5189     5170     5150 
    5139     5142     5158     5165     5171     5198     5213     5185 
    5143     5116     5109     5113     5140     5198     5244     5247 
    5212     5170     5147     5132     5121     5139     5171     5178 
    5150     5113     5115     5147     5166     5173     5194     5216 
    5205     5170     5146     5142     5139     5138     5144     5162 
    5178     5182     5173     5155     5146     5148     5158     5177 
    5197     5192     5167     5155     5151     5148     5150     5163 
    5179     5186     5179     5162     5139     5134     5151     5170 
    5177     5175     5170     5150     5128     5132     5150     5161 
    5173     5193     5205     5194     5166     5151     5151     5142 
    5134     5140     5152     5173     5185     5173     5157     5161 
    5170     5162     5150     5150     5161     5165     5162     5163 
    5169     5173     5173     5170     5161     5143     5134     5144 
    5163     5175     5175     5166     5154     5154     5159     5158 
    5158     5162     5155     5146     5150     5166     5174     5169 
    5159     5159     5178     5185     5158     5135     5148     5169 
    5169     5167     5167     5162     5170     5186     5184     5166 
    5157     5162     5171     5162     5132     5125     5161     5189 
    5169     5139     5142     5170     5181     5152     5127     5140 
    5171     5179     5167     5167     5170     5158     5157     5165 
    5158     5147     5154     5174     5182     5169     5158     5171 
    5196     5189     5151     5139     5177     5208     5179     5134 
    5124     5142     5162     5173     5167     5161     5166     5175 
    5181     5169     5152     5147     5161     5182     5189     5189 
    5189     5173     5148     5142     5142     5135     5143     5169 
    5171     5151     5147     5155     5154     5159     5175     5188 
    5185     5173     5157     5140     5135     5151     5169     5177 
    5182     5179     5167     5162     5165     5165     5163     5162 
    5162     5170     5178     5174     5161     5147     5152     5177 
    5182     5167     5162     5165     5162     5165     5165     5162 
    5167     5169     5166     5162     5161     5162     5154     5154 
    5177     5185     5171     5158     5143     5136     5147     5165 
    5171     5161     5144     5151     5175     5188     5185     5174 
    5161     5154     5162     5169     5170     5173     5175     5161 
    5142     5144     5165     5171     5166     5161     5155     5158 
    5170     5178     5162     5134     5131     5161     5181     5179 
    5173     5166     5163     5167     5159     5143     5148     5175 
    5196     5202     5205     5219     5242     5267     5298     5310 
    5271     5186     5065     4930     4842     4849     4931     5034 
    5120     5197     5260     5255     5212     5286     5479     5564 
    5459     5364     5352     5255     4996     4618     4276     4303 
    4669     4961     5235     5643     5682     5346     5332     5513 
    5513     5664     5679     5044     4617     4893     4923     4769 
    5540     6575     6243     4895     4133     4225     4359     4364 
    4538     4951     5605     6147     5935     5184     4795     4981 
    5233     5193     5058     5116     5186     5398     6122     6412 
    5409     4407     4625     5151     4772     3889     3952     5235 
    6162     5917     5633     5714     5177     4347     4390     4926 
    5405     5899     5759     5233     5383     5259     4333     4360 
    5344     5630     5562     5904     5825     5026     4399     4240 
    4399     4961     5432     5368     5517     6008     5665     4644 
    4321     4723     5088     5394     5719     5800     5482     4909 
    4486     4630     5275     5736     5591     5251     4961     4615 
    4671     5221     5460     5463     5725     5549     4869     4772 
    4918     4537     4502     5130     5258     4926     5200     5680 
    5463     5125     5421     5815     5690     5387     5258     5138 
    5034     5036     4803     4314     4229     4765     5431     5846 
    5922     5714     5398     5080     4864     4826     4828     4791 
    4926     5346     5697     5535     5152     5224     5537     5464 
    5178     4970     4608     4313     4731     5543     5705     5189 
    4945     5248     5520     5409     5140     5046     5130     5144 
    5051     4973     4888     4843     4973     5215     5462     5556 
    5412     5340     5463     5339     4878     4594     4757     5146 
    5329     5142     5066     5427     5640     5344     5158     5362 
    5364     4997     4699     4654     4896     5256     5252     5030 
    5111     5186     5063     5412     5985     5746     5092     4916 
    4892     4803     5047     5293     5208     5324     5509     5061 
    4610     4908     5189     5098     5240     5285     4887     4843 
    5298     5528     5495     5474     5359     5128     4949     4889 
    4934     5144     5379     5275     5007     5104     5410     5486 
    5363     5231     5296     5539     5316     4644     4537     4962 
    5034     5009     5309     5287     4773     4698     5383     5921 
    5632     5053     4895     4935     4792     4766     5152     5707 
    6007     5892     5578     5051     4094     3480     4087     5023 
    5323     5724     6471     6519     5719     4924     4575     4556 
    4445     4253     4654     5348     5321     5061     5410     5806 
    5994     6297     6161     5389     4662     3973     3383     3816 
    4968     5348     5054     5327     5864     5663     5217     5216 
    5262     5335     5718     5799     5394     5367     5602     5123 
    4453     4718     5263     5340     5761     6370     5701     4486 
    4693     5373     4762     4297     5211     5551     4684     4591 
    5174     4927     4542     4928     5242     5109     5213     5486 
    5333     5113     5455     5833     5502     4784     4338     4372 
    4749     5260     5818     6106     5679     4934     4677     4891 
    4999     4762     4734     5489     6250     6142     5744     5247 
    4166     3493     4218     5204     5312     5015     5147     5825 
    6201     5602     4935     5001     5003     4731     5050     5590 
    5535     5312     5215     4876     4518     4577     5116     6039 
    6627     6089     5061     4684     4723     4426     4191     4658 
    5479     5960     5883     5675     5611     5124     4317     4310 
    4783     4915     5636     6687     5976     4298     4164     4901 
    4922     4846     4968     4820     5225     6322     6436     5393 
    4932     5306     5260     4780     4714     4853     4781     4932 
    5329     5391     5270     5306     5174     4850     4841     5011 
    4853     4716     5212     5896     5925     5593     5692     5814 
    5184     4376     4279     4634     4905     5136     5440     5621 
    5404     4928     4766     5003     5063     4936     5274     5764 
    5526     5109     5267     5148     4464     4482     5378     6003 
    5946     5452     4735     4437     5008     5576     5269     4851 
    5086     5250     4959     4939     5240     5247     5130     5377 
    5614     5231     4594     4509     4882     5170     5447     5853 
    6026     5917     5834     5603     5042     4507     4220     4105 
    4221     4718     5478     6007     6011     5830     5651     5124 
    4479     4480     4888     4976     5071     5436     5297     4637 
    4541     5111     5431     5347     5456     5881     6022     5562 
    5047     4739     4237     3892     4325     4962     5240     5529 
    5769     5518     5136     5096     5158     5120     5235     5544 
    5751     5788     5811     5713     5219     4626     4542     4679 
    4406     4171     4635     5512     6162     6092     5308     4581 
    4430     4715     5309     5759     5432     4901     5211     5842 
    5751     5397     5428     5216     4590     4432     4727     4801 
    4934     5563     6189     6237     5856     5312     4541     3915 
    4178     5034     5470     5485     5636     5807     5726     5285 
    4461     3852     4035     4500     4607     4718     5381     6187 
    6245     5607     5227     5408     5641     5652     5437     5066 
    4938     5154     5117     4801     4928     5335     5313     5109 
    5073     4807     4338     4345     4936     5432     5386     5185 
    5259     5410     5462     5509     5490     5427     5409     5189 
    4737     4619     5050     5463     5491     5420     5368     5186 
    5042     5071     5121     5178     5193     5024     4920     5013 
    4935     4849     5279     5732     5362     4654     4615     5038 
    5161     5022     5038     5269     5501     5526     5449     5506 
    5541     5367     5192     5024     4773     4710     4787     4743 
    5011     5649     5737     5262     5125     5171     4950     4965 
    5346     5520     5498     5557     5512     5223     4822     4590 
    4858     5420     5676     5439     4912     4560     4735     5024 
    4986     4927     5030     5206     5541     5652     5198     4834 
    4901     4969     5090     5482     5822     6004     6046     5541 
    4666     4344     4658     4830     4729     4834     5163     5470 
    5618     5348     4828     4833     5425     5800     5680     5375 
    4968     4585     4498     4556     4473     4446     4878     5610 
    5937     5661     5394     5412     5300     4899     4565     4565 
    4750     4884     5011     5161     5259     5502     5833     5798 
    5610     5703     5648     5267     5112     5116     4841     4572 
    4784     5367     5822     5842     5571     5259     4970     4675 
    4437     4472     4815     5219     5645     5961     5725     5144 
    4851     4827     4756     4546     4353     4627     5386     5840 
    5625     5235     5084     5260     5591     5638     5325     4999 
    4807     4757     4814     4772     4761     5169     5838     6184 
    5860     4984     4206     4207     4830     5394     5665     5726 
    5503     5169     5190     5428     5227     4627     4321     4510 
    4783     4930     5150     5626     6239     6535     6087     5185 
    4600     4585     4930     5397     5618     5476     5310     5177 
    4806     4274     3915     3970     4503     5209     5618     5741 
    5902     5967     5671     5279     5011     4810     4976     5498 
    5589     5182     5104     5281     5070     4745     4784     5063 
    5408     5637     5494     5143     4976     5035     5163     5279 
    5321     5219     5035     4985     5090     5107     4958     4824 
    4822     4997     5350     5678     5748     5560     5301     5113 
    5007     4920     4787     4695     4884     5273     5421     5254 
    5111     5151     5359     5678     5834     5599     5125     4652 
    4325     4274     4496     4873     5273     5498     5431     5154 
    4816     4671     4860     5058     5027     5055     5331     5578 
    5529     5223     4831     4545     4491     4629     4945     5551 
    6193     6405     6296     6079     5549     5015     5143     5676 
    5998     6169     6162     5571     4687     4286     4441     4801 
    5323     5815     5832     5422     5076     4992     5020     5004 
    4980     5147     5382     5117     4306     3734     3861     4336 
    4808     5115     5032     4719     4546     4429     4287     4387 
    4757     5147     5383     5324     4965     4583     4499     4803 
    5319     5660     5454     4945     4920     5490     5921     5856 
    5568     5377     5452     5715     5971     6201     6399     6466 
    6311     5871     5329     5054     5167     5582     6048     6142 
    5817     5521     5409     5255     5046     4962     5085     5229 
    5152     4990     4861     4495     4009     3931     4252     4584 
    4777     4739     4448     4236     4261     4144     3744     3589 
    4066     4816     5324     5562     5598     5301     4901     4889 
    5240     5675     6180     6528     6293     5710     5364     5169 
    4820     4703     5201     5914     6251     6012     5337     4733 
    4818     5521     6011     5968     5979     6170     6088     5908 
    5884     5597     5142     5221     5583     5333     4463     3593 
    3088     3092     3508     3959     4402     5177     6200     6891 
    6816     6025     5076     4514     4257     4006     3936     4210 
    4553     4851     5166     5211     4881     4648     4703     4768 
    4857     5194     5602     5803     6025     6525     6874     6624 
    6103     5651     5058     4330     3886     3905     4359     5169 
    6012     6602     6951     7048     6729     5994     5124     4386 
    3875     3661     3804     4159     4450     4710     5267     5995 
    6293     6104     5823     5393     4708     4175     3955     3819 
    3855     4275     4795     4989     4945     4996     5247     5655 
    6126     6431     6439     6177     5553     4621     3900     3753 
    3955     4276     4835     5617     6324     6790     6918     6501 
    5738     5309     5417     5611     5688     5765     5657     5162 
    4568     4099     3657     3462     3765     4186     4483     4968 
    5533     5641     5351     5058     4739     4428     4491     4962 
    5479     5798     5729     5175     4588     4523     4811     4974 
    5039     5273     5647     6034     6346     6386     6165     6041 
    6156     6183     5805     5123     4548     4380     4576     4995 
    5560     6030     6084     5827     5575     5248     4710     4217 
    4101     4473     5150     5582     5468     5233     5244     5275 
    5032     4514     3982     3762     3852     3982     4098     4341 
    4680     4966     5096     5109     5175     5233     5058     4880 
    5011     5143     5036     5086     5476     5875     6238     6682 
    6899     6737     6582     6512     6139     5439     4828     4564 
    4595     4835     5146     5178     4789     4434     4572     4990 
    5331     5617     5890     5992     5861     5575     5179     4662 
    4125     3780     3661     3707     4055     4733     5398     5780 
    5954     6015     5902     5522     4946     4477     4351     4434 
    4515     4653     4928     5247     5586     5859     5826     5605 
    5526     5467     5217     5054     5113     5034     4716     4538 
    4685     4978     5274     5601     5927     6108     6099     6014 
    5872     5548     5109     4770     4521     4284     4189     4294 
    4487     4788     5136     5269     5262     5400     5598     5709 
    5678     5421     5121     5065     5152     5206     5278     5367 
    5304     5090     4977     4997     5011     5125     5348     5383 
    5256     5255     5255     4968     4575     4530     4903     5278 
    5301     5066     4819     4683     4780     5123     5474     5687 
    5846     5865     5652     5476     5435     5189     4727     4401 
    4247     4236     4652     5516     6354     6772     6712     6284 
    5598     4753     4097     4005     4240     4345     4442     4746 
    5024     5190     5512     5948     6127     5917     5468     4958 
    4618     4603     4787     4939     4941     4884     5034     5287 
    5256     5065     5039     5088     5127     5194     5134     4966 
    4955     5101     5185     5130     5088     5273     5564     5606 
    5391     5211     5185     5336     5703     6037     5961     5632 
    5456     5336     5051     4835     4793     4668     4541     4741 
    5096     5188     5067     5036     5150     5290     5320     5192 
    5031     4993     5038     4966     4711     4448     4305     4229 
    4229     4409     4764     5150     5475     5769     5965     5888 
    5597     5383     5354     5317     5221     5314     5682     6014 
    6116     6088     5926     5692     5645     5733     5684     5516 
    5340     5219     5206     5132     4788     4360     4163     4259 
    4571     4892     4961     4847     4828     4868     4787     4660 
    4590     4550     4575     4707     4818     4761     4618     4548 
    4549     4567     4639     4837     5119     5352     5497     5653 
    5809     5869     5867     5813     5652     5439     5306     5374 
    5637     5873     5907     5845     5877     6030     6189     6216 
    6095     5933     5745     5486     5281     5236     5196     5063 
    5013     5049     4981     4835     4702     4553     4472     4519 
    4507     4349     4202     4121     4077     4086     4105     4151 
    4326     4530     4652     4843     5144     5414     5745     6127 
    6153     5738     5364     5256     5200     5113     5132     5290 
    5482     5628     5715     5718     5641     5590     5609     5591 
    5486     5400     5402     5464     5593     5715     5590     5278 
    5174     5205     4901     4445     4433     4764     4957     4963 
    4872     4700     4649     4743     4741     4662     4657     4627 
    4572     4691     4972     5200     5319     5391     5414     5385 
    5373     5397     5439     5533     5703     5907     6050     6061 
    5983     5894     5773     5626     5497     5356     5174     5009 
    4911     4855     4826     4854     4972     5151     5266     5154 
    4800     4417     4176     4063     4004     3967     4040     4306 
    4626     4876     5138     5448     5711     5910     6062     6022 
    5713     5360     5135     5011     5028     5161     5189     5111 
    5166     5336     5439     5499     5618     5719     5691     5593 
    5506     5359     5173     5121     5231     5354     5398     5405 
    5387     5305     5273     5387     5489     5439     5252     4909 
    4486     4203     4159     4297     4549     4847     5115     5278 
    5343     5425     5506     5422     5228     5107     4963     4675 
    4395     4201     3993     3915     4153     4545     4941     5441 
    5965     6246     6324     6408     6423     6222     5929     5717 
    5540     5321     5161     5127     5125     5098     5070     5066 
    5119     5219     5287     5327     5363     5312     5174     5084 
