Origin Time       2024/06/23 22:54:00
Lat.              35.645
Long.             140.060
Depth. (km)       72
Mag.              4.1
Station Code      TKY005
Station Lat.      35.5798
Station Long.     139.4137
Station Height(m) 106
Record Time       2024/06/23 22:54:49
Sampling Freq(Hz) 100Hz
Duration Time(s)  60
Dir.              N-S
Scale Factor      7845(gal)/8223790
Max. Acc. (gal)   4.692
Last Correction   2024/06/23 22:54:49
Memo.             
[...]
   -6512    -6504    -6500    -6504    -6505    -6508    -6513    -6511 
   -6498    -6494    -6509    -6527    -6519    -6492    -6492    -6511 
   -6513    -6508    -6505    -6492    -6492    -6513    -6517    -6501 
   -6497    -6505    -6504    -6502    -6508    -6509    -6509    -6511 
   -6505    -6507    -6509    -6507    -6509    -6507    -6500    -6502 
   -6505    -6504    -6507    -6505    -6504    -6507    -6505    -6507 
   -6507    -6505    -6517    -6517    -6500    -6498    -6505    -6504 
   -6513    -6517    -6505    -6501    -6501    -6511    -6513    -6497 
   -6500    -6512    -6502    -6507    -6519    -6508    -6502    -6504 
   -6505    -6511    -6505    -6501    -6507    -6502    -6502    -6508 
   -6507    -6507    -6512    -6513    -6512    -6511    -6513    -6513 
   -6504    -6501    -6504    -6501    -6509    -6512    -6500    -6497 
   -6502    -6508    -6508    -6505    -6505    -6509    -6504    -6504 
   -6512    -6507    -6501    -6502    -6509    -6517    -6502    -6484 
   -6496    -6521    -6529    -6509    -6492    -6504    -6513    -6505 
   -6507    -6515    -6501    -6500    -6513    -6508    -6502    -6505 
   -6504    -6504    -6498    -6497    -6508    -6509    -6505    -6508 
   -6512    -6517    -6515    -6511    -6513    -6501    -6496    -6509 
   -6515    -6515    -6509    -6500    -6498    -6498    -6498    -6508 
   -6509    -6504    -6508    -6508    -6501    -6504    -6509    -6511 
   -6508    -6507    -6505    -6501    -6507    -6519    -6515    -6501 
   -6507    -6512    -6505    -6507    -6507    -6502    -6507    -6512 
   -6512    -6507    -6504    -6509    -6512    -6504    -6500    -6504 
   -6505    -6505    -6505    -6504    -6507    -6508    -6507    -6505 
   -6505    -6507    -6511    -6509    -6507    -6509    -6504    -6498 
   -6504    -6509    -6511    -6507    -6500    -6500    -6511    -6515 
   -6505    -6497    -6500    -6512    -6519    -6511    -6498    -6490 
   -6501    -6519    -6511    -6497    -6509    -6523    -6513    -6501 
   -6504    -6509    -6507    -6501    -6505    -6513    -6516    -6507 
   -6498    -6502    -6511    -6511    -6504    -6501    -6507    -6511 
   -6509    -6502    -6497    -6501    -6508    -6511    -6507    -6505 
   -6507    -6507    -6502    -6507    -6511    -6508    -6507    -6504 
   -6501    -6508    -6516    -6515    -6509    -6505    -6498    -6497 
   -6512    -6520    -6512    -6502    -6501    -6497    -6497    -6507 
   -6509    -6502    -6498    -6504    -6511    -6505    -6501    -6509 
   -6509    -6504    -6504    -6508    -6509    -6511    -6508    -6501 
   -6500    -6505    -6508    -6504    -6505    -6512    -6507    -6504 
   -6511    -6505    -6501    -6509    -6511    -6508    -6509    -6507 
   -6509    -6509    -6504    -6507    -6509    -6502    -6502    -6511 
   -6509    -6500    -6500    -6507    -6508    -6513    -6517    -6505 
   -6498    -6511    -6504    -6498    -6517    -6517    -6501    -6501 
   -6502    -6504    -6513    -6512    -6504    -6507    -6505    -6507 
   -6511    -6508    -6504    -6505    -6508    -6511    -6509    -6508 
   -6504    -6500    -6507    -6511    -6501    -6500    -6509    -6507 
   -6502    -6508    -6512    -6516    -6516    -6508    -6502    -6501 
   -6505    -6512    -6502    -6485    -6486    -6490    -6485    -6497 
   -6524    -6527    -6513    -6521    -6536    -6523    -6515    -6520 
   -6502    -6478    -6502    -6521    -6473    -6428    -6432    -6447 
   -6467    -6519    -6602    -6652    -6650    -6671    -6709    -6619 
   -6380    -6207    -6231    -6343    -6386    -6281    -6259    -6558 
   -6724    -6492    -6447    -6772    -6975    -6940    -6912    -6858 
   -6542    -6153    -6134    -6296    -6272    -6208    -6212    -6245 
   -6363    -6382    -6284    -6531    -7106    -7337    -7002    -6675 
   -6816    -6975    -6563    -6122    -6330    -6470    -5830    -5200 
   -5512    -6289    -6551    -6435    -6651    -7075    -7109    -6864 
   -6951    -7311    -7361    -7047    -6782    -6627    -6115    -5439 
   -5549    -6215    -6322    -5887    -5773    -6297    -6856    -6735 
   -6281    -6554    -7503    -7709    -6808    -6353    -7001    -7250 
   -6315    -5574    -5875    -6203    -5863    -5483    -5718    -6365 
   -6793    -6899    -7136    -7653    -7905    -7345    -6515    -6293 
   -6382    -6219    -6161    -6405    -6412    -5965    -5489    -5391 
   -5825    -6621    -7312    -7623    -7543    -6993    -6160    -5745 
   -6033    -6496    -6767    -6898    -6681    -6100    -5838    -6247 
   -6871    -7198    -7084    -6640    -6237    -6284    -6531    -6444 
   -6361    -6710    -6828    -6130    -5526    -6046    -6948    -7057 
   -6729    -6732    -6833    -6525    -6050    -6084    -6701    -7180 
   -6859    -5983    -5579    -6091    -6693    -6690    -6552    -6728 
   -6770    -6454    -6386    -6810    -7087    -6801    -6396    -6349 
   -6420    -6361    -6421    -6513    -6227    -5765    -5670    -6146 
   -6880    -7221    -6903    -6338    -6166    -6520    -6754    -6727 
   -7036    -7260    -6578    -5775    -5952    -6602    -6778    -6624 
   -6582    -6531    -6362    -6164    -6027    -6247    -6705    -6798 
   -6606    -6640    -6836    -6929    -6837    -6515    -6177    -6143 
   -6281    -6293    -6241    -6257    -6342    -6475    -6525    -6378 
   -6303    -6655    -7198    -7344    -7049    -6801    -6752    -6646 
   -6498    -6496    -6396    -5985    -5591    -5598    -6004    -6376 
   -6342    -6299    -6700    -7067    -6930    -6686    -6795    -7024 
   -6947    -6659    -6404    -6174    -6050    -6064    -6052    -6107 
   -6477    -6918    -6934    -6617    -6528    -6817    -7024    -6862 
   -6640    -6628    -6610    -6380    -6124    -6150    -6423    -6562 
   -6307    -5907    -5880    -6274    -6615    -6674    -6705    -6831 
   -6745    -6374    -6234    -6555    -6845    -6713    -6405    -6293 
   -6431    -6689    -6824    -6632    -6332    -6380    -6714    -6750 
   -6382    -6215    -6515    -6836    -6781    -6494    -6388    -6502 
   -6439    -6064    -5918    -6453    -7163    -7191    -6577    -5998 
   -5742    -5813    -6334    -7079    -7361    -6970    -6489    -6332 
   -6261    -6172    -6366    -6764    -6940    -6802    -6529    -6264 
   -6143    -6300    -6605    -6663    -6471    -6459    -6644    -6667 
   -6520    -6453    -6462    -6455    -6497    -6565    -6466    -6270 
   -6305    -6484    -6363    -6026    -6023    -6465    -6833    -6771 
   -6588    -6683    -6917    -6968    -6833    -6697    -6731    -6905 
   -6914    -6651    -6354    -6147    -5975    -5846    -5806    -5859 
   -6130    -6588    -6758    -6500    -6392    -6709    -7029    -7099 
   -7125    -7190    -7049    -6666    -6239    -5842    -5657    -5845 
   -6131    -6335    -6496    -6481    -6442    -6683    -6906    -6729 
   -6509    -6770    -7260    -7304    -6832    -6304    -5941    -5652 
   -5475    -5665    -6276    -6859    -6943    -6639    -6378    -6363 
   -6597    -6944    -7142    -7175    -7149    -6934    -6571    -6373 
   -6305    -6129    -5973    -6065    -6166    -5983    -5926    -6408 
   -6930    -6975    -6774    -6651    -6571    -6413    -6330    -6613 
   -7098    -7280    -7059    -6674    -6200    -5741    -5688    -6197 
   -6713    -6704    -6442    -6446    -6705    -6775    -6442    -6200 
   -6482    -6791    -6534    -6176    -6474    -6987    -6826    -6281 
   -6092    -6197    -6316    -6570    -7028    -7290    -6963    -6426 
   -6208    -6030    -5663    -5620    -6210    -6910    -7032    -6671 
   -6393    -6316    -6450    -6825    -7033    -6937    -6914    -6964 
   -6708    -6072    -5590    -5784    -6358    -6569    -6183    -5779 
   -5994    -6574    -6844    -6816    -6928    -7098    -6984    -6745 
   -6748    -6862    -6804    -6797    -6978    -6907    -6377    -5737 
   -5459    -5755    -6204    -6270    -6266    -6624    -6853    -6477 
   -6018    -6203    -6847    -7173    -7121    -7098    -6860    -6343 
   -6153    -6264    -6183    -6146    -6569    -7037    -6866    -6291 
   -6069    -6253    -6461    -6663    -6907    -7026    -6882    -6583 
   -6258    -5917    -5844    -6349    -7003    -7072    -6532    -5998 
   -5888    -6069    -6299    -6543    -6717    -6751    -6718    -6713 
   -6751    -6748    -6770    -6885    -6872    -6737    -6698    -6701 
   -6620    -6380    -5957    -5481    -5215    -5468    -6187    -6867 
   -7150    -7078    -6976    -7087    -7168    -6875    -6388    -6245 
   -6675    -7101    -6824    -6083    -5544    -5443    -5643    -5800 
   -5853    -6178    -6786    -7171    -7049    -6721    -6633    -6787 
   -7007    -7225    -7384    -7460    -7204    -6394    -5587    -5517 
   -5957    -6245    -6242    -6137    -6004    -5942    -6096    -6455 
   -6863    -7184    -7334    -7306    -7176    -6993    -6772    -6555 
   -6334    -6138    -6100    -6164    -6110    -5940    -5948    -6359 
   -6851    -6899    -6565    -6222    -6023    -6027    -6261    -6633 
   -7042    -7294    -7101    -6554    -6168    -6205    -6502    -6876 
   -7149    -7049    -6589    -6176    -6102    -6193    -6181    -6284 
   -6689    -6748    -6192    -5923    -6280    -6566    -6610    -6855 
   -7163    -6913    -6347    -6378    -6871    -7047    -6913    -6716 
   -6293    -5703    -5497    -5927    -6381    -6315    -6100    -6177 
   -6477    -6849    -7129    -7152    -6970    -6783    -6709    -6637 
   -6536    -6567    -6567    -6307    -6081    -6064    -6016    -5977 
   -6178    -6408    -6436    -6608    -7056    -7230    -6891    -6586 
   -6663    -6682    -6439    -6423    -6621    -6559    -6338    -6284 
   -6404    -6490    -6346    -6112    -6166    -6536    -6712    -6459 
   -6396    -6860    -7149    -6712    -6118    -6174    -6728    -6972 
   -6679    -6336    -6243    -6297    -6366    -6345    -6204    -6031 
   -6058    -6396    -6713    -6871    -7084    -7168    -6934    -6687 
   -6621    -6629    -6633    -6675    -6750    -6585    -6088    -5714 
   -5757    -6079    -6516    -6724    -6467    -6154    -6154    -6308 
   -6481    -6732    -6934    -6856    -6613    -6598    -6887    -7042 
   -6743    -6351    -6272    -6304    -6284    -6378    -6481    -6305 
   -6034    -6142    -6597    -6956    -7056    -7006    -6863    -6669 
   -6575    -6654    -6698    -6525    -6295    -6122    -5918    -5809 
   -6000    -6278    -6295    -6156    -6208    -6473    -6685    -6718 
   -6678    -6698    -6837    -7102    -7294    -7210    -6966    -6717 
   -6517    -6446    -6426    -6281    -6066    -5977    -6062    -6200 
   -6305    -6365    -6286    -6116    -6135    -6438    -6767    -6929 
   -7052    -7173    -7067    -6752    -6507    -6381    -6280    -6192 
   -6210    -6369    -6517    -6525    -6535    -6650    -6683    -6529 
   -6420    -6536    -6682    -6669    -6598    -6555    -6505    -6477 
   -6420    -6223    -5985    -5886    -5914    -6021    -6289    -6633 
   -6678    -6384    -6249    -6531    -6898    -7053    -7142    -7318 
   -7385    -7126    -6683    -6419    -6463    -6589    -6521    -6276 
   -6066    -5961    -5892    -5875    -5994    -6289    -6648    -6843 
   -6794    -6606    -6393    -6266    -6385    -6835    -7213    -6970 
   -6417    -6218    -6330    -6454    -6565    -6724    -6760    -6436 
   -6054    -5975    -6022    -6124    -6471    -6899    -7030    -6843 
   -6648    -6632    -6654    -6601    -6706    -6975    -6941    -6497 
   -6091    -6019    -6126    -6187    -6259    -6428    -6628    -6705 
   -6601    -6492    -6453    -6461    -6559    -6704    -6837    -6808 
   -6500    -6216    -6203    -6284    -6276    -6301    -6502    -6683 
   -6569    -6230    -6018    -6203    -6685    -7103    -7146    -6824 
   -6516    -6509    -6682    -6767    -6632    -6403    -6363    -6481 
   -6353    -5977    -5871    -6216    -6648    -6841    -6793    -6644 
   -6566    -6691    -6870    -6777    -6431    -6193    -6295    -6562 
   -6550    -6241    -6210    -6561    -6729    -6598    -6454    -6304 
   -6243    -6484    -6697    -6504    -6261    -6423    -6724    -6781 
   -6804    -7005    -7195    -7202    -6875    -6176    -5609    -5651 
   -6025    -6224    -6176    -6087    -6158    -6409    -6619    -6664 
   -6662    -6724    -6876    -7079    -7128    -6863    -6540    -6431 
   -6346    -6111    -5933    -6064    -6397    -6583    -6540    -6459 
   -6459    -6559    -6681    -6752    -6839    -6902    -6879    -6905 
   -6986    -6943    -6727    -6471    -6289    -6156    -6068    -6061 
   -6093    -6127    -6230    -6450    -6702    -6825    -6748    -6636 
   -6633    -6565    -6326    -6114    -6057    -6189    -6463    -6596 
   -6430    -6188    -6135    -6289    -6498    -6700    -6928    -7075 
   -7038    -7002    -6963    -6677    -6316    -6204    -6196    -6041 
   -5900    -6065    -6257    -5985    -5509    -5494    -6073    -6833 
   -7384    -7607    -7636    -7786    -8082    -8159    -7884    -7403 
   -6813    -6204    -5587    -4878    -4175    -3673    -3424    -3532 
   -4068    -4780    -5470    -6366    -7699    -9205   -10419   -11061 
  -10937    -9914    -8145    -6214    -5016    -5046    -5806    -6212 
   -5474    -3874    -2632    -2655    -3863    -5684    -7457    -8671 
   -9227    -9354    -9310    -9193    -9028    -8826    -8410    -7531 
   -6170    -4752    -3969    -3927    -3852    -3240    -2633    -2903 
   -4310    -6442    -8641   -10408   -11425   -11318    -9919    -7746 
   -5773    -4723    -4604    -4812    -4758    -4509    -4460    -4680 
   -5171    -6014    -6897    -7429    -7877    -8662    -9405    -9290 
   -8163    -6744    -5880    -5864    -6249    -6268    -5810    -5520 
   -5665    -5802    -5626    -5409    -5440    -5458    -5250    -5333 
   -6188    -7411    -8162    -8102    -7632    -7221    -6986    -7049 
   -7416    -7582    -7032    -6000    -5217    -4974    -5034    -5287 
   -5710    -6050    -6235    -6453    -6683    -6858    -7209    -7902 
   -8660    -8999    -8711    -7966    -7022    -6046    -5285    -5155 
   -5717    -6251    -5999    -5134    -4421    -4187    -4450    -5408 
   -6748    -7519    -7350    -6872    -6816    -7269    -7908    -8397 
   -8370    -7628    -6419    -5254    -4614    -4726    -5444    -6330 
   -6843    -6691    -6127    -5718    -5817    -6378    -7157    -7900 
   -8347    -8318    -7906    -7323    -6664    -5952    -5317    -5155 
   -5574    -5949    -5814    -5582    -5813    -6372    -6759    -6887 
   -6944    -6936    -7022    -7439    -7773    -7358    -6347    -5462 
   -5054    -5027    -5231    -5456    -5613    -6064    -7038    -8004 
   -8367    -8093    -7430    -6799    -6700    -7150    -7595    -7519 
   -6912    -6095    -5331    -4845    -4942    -5632    -6492    -7015 
   -6956    -6569    -6336    -6384    -6493    -6543    -6693    -7119 
   -7651    -7798    -7206    -6120    -5185    -4847    -5266    -6253 
   -7187    -7452    -6876    -5957    -5495    -5687    -6138    -6566 
   -6806    -6727    -6497    -6480    -6745    -7084    -7389    -7611 
   -7516    -6983    -6318    -5973    -6033    -6210    -6264    -6183 
   -6077    -5946    -5738    -5641    -5838    -6223    -6658    -7084 
   -7308    -7140    -6779    -6666    -6920    -7233    -7238    -6863 
   -6340    -5960    -5863    -5944    -5983    -5973    -6146    -6604 
   -7001    -6885    -6434    -6262    -6477    -6741    -6906    -6836 
   -6400    -5922    -5929    -6453    -7033    -7308    -7260    -6905 
   -6349    -5991    -6076    -6420    -6717    -6685    -6238    -5661 
   -5436    -5817    -6502    -7060    -7457    -7744    -7715    -7175 
   -6401    -6022    -6234    -6500    -6351    -5979    -5695    -5454 
   -5317    -5634    -6405    -7118    -7408    -7391    -7195    -6841 
   -6636    -6829    -7199    -7426    -7395    -7088    -6517    -5921 
   -5684    -5898    -6232    -6234    -5772    -5281    -5273    -5744 
   -6327    -6806    -7161    -7279    -7052    -6621    -6269    -6165 
   -6174    -6119    -6200    -6619    -7146    -7477    -7510    -7323 
   -7090    -6894    -6804    -6878    -6979    -6901    -6558    -6027 
   -5549    -5296    -5215    -5247    -5391    -5613    -5840    -6015 
   -6204    -6505    -6906    -7253    -7407    -7462    -7512    -7443 
   -7190    -6874    -6691    -6673    -6589    -6373    -6274    -6443 
   -6674    -6619    -6215    -5722    -5449    -5643    -6258    -6805 
   -6858    -6552    -6270    -6189    -6312    -6577    -6925    -7321 
   -7614    -7627    -7366    -6899    -6350    -5998    -6076    -6390 
   -6458    -6251    -6189    -6312    -6367    -6427    -6600    -6609 
   -6322    -6049    -6060    -6239    -6349    -6358    -6365    -6300 
   -6019    -5705    -5760    -6255    -6925    -7527    -7898    -7904 
   -7549    -7091    -6814    -6710    -6627    -6502    -6277    -5910 
   -5547    -5378    -5412    -5535    -5675    -5788    -5873    -6061 
   -6475    -7038    -7474    -7555    -7350    -7087    -6885    -6845 
   -7098    -7461    -7453    -6903    -6222    -5748    -5437    -5363 
   -5640    -6095    -6528    -6852    -7041    -7153    -7237    -7285 
   -7159    -6751    -6204    -5742    -5614    -5940    -6435    -6681 
   -6528    -6181    -6022    -6193    -6547    -6926    -7103    -6836 
   -6249    -5786    -5710    -5958    -6350    -6741    -6966    -6971 
   -6957    -6998    -6928    -6828    -6914    -7052    -6945    -6598 
   -6305    -6199    -6111    -5964    -5906    -6030    -6212    -6249 
   -6181    -6251    -6409    -6397    -6335    -6447    -6544    -6462 
   -6416    -6632    -6957    -7129    -7204    -7223    -6978    -6567 
   -6349    -6382    -6467    -6408    -6189    -5992    -5971    -6158 
   -6512    -6879    -7052    -6898    -6579    -6404    -6431    -6525 
   -6631    -6777    -6978    -7134    -7057    -6670    -6118    -5624 
   -5331    -5339    -5701    -6210    -6508    -6575    -6612    -6677 
   -6794    -7032    -7290    -7365    -7241    -7084    -6980    -6848 
   -6632    -6350    -5985    -5567    -5216    -5131    -5518    -6288 
   -6951    -7177    -7119    -7065    -7165    -7352    -7414    -7257 
   -6947    -6610    -6340    -6095    -5845    -5617    -5436    -5378 
   -5386    -5275    -5182    -5470    -6146    -6829    -7211    -7318 
   -7358    -7414    -7431    -7473    -7609    -7713    -7635    -7380 
   -7079    -6847    -6660    -6455    -6178    -5807    -5435    -5157 
   -4992    -4947    -5076    -5460    -5976    -6323    -6450    -6612 
   -7017    -7565    -7982    -8127    -7971    -7535    -7030    -6705 
   -6520    -6355    -6266    -6300    -6399    -6535    -6733    -6961 
   -7144    -7209    -6978    -6373    -5736    -5427    -5313    -5111 
   -4868    -4757    -4873    -5323    -6072    -6813    -7271    -7487 
   -7672    -7882    -8010    -7927    -7560    -7040    -6664    -6578 
   -6631    -6570    -6354    -6142    -5961    -5691    -5350    -5146 
   -5254    -5610    -6029    -6377    -6628    -6859    -7217    -7701 
   -8044    -8056    -7848    -7543    -7202    -6934    -6783    -6669 
   -6473    -6142    -5705    -5246    -4958    -4957    -5124    -5400 
   -5802    -6187    -6382    -6444    -6569    -6774    -6929    -7044 
