Origin Time       2024/06/23 22:54:00
Lat.              35.645
Long.             140.060
Depth. (km)       72
Mag.              4.1
Station Code      TKY003
Station Lat.      35.7968
Station Long.     139.2916
Station Height(m) 179
Record Time       2024/06/23 22:54:51
Sampling Freq(Hz) 100Hz
Duration Time(s)  60
Dir.              E-W
Scale Factor      7845(gal)/8223790
Max. Acc. (gal)   1.602
Last Correction   2024/06/23 22:54:50
Memo.             
[...]
     758      757      753      750      750      750      750      751 
     751      749      747      750      751      751      753      754 
     760      762      757      753      753      751      749      749 
     749      749      751      753      750      747      747      750 
     749      749      751      751      746      745      745      745 
     749      751      746      745      750      750      747      747 
     750      753      754      754      753      753      753      751 
     749      746      745      746      746      747      751      749 
     747      746      743      746      749      746      745      747 
     750      747      746      745      743      745      750      754 
     754      756      754      750      747      749      749      746 
     742      742      746      745      739      741      746      750 
     751      747      743      747      756      760      756      747 
     747      749      745      742      746      749      750      756 
     761      754      745      743      743      746      749      749 
     746      746      745      745      743      743      746      749 
     751      751      750      750      750      751      750      746 
     747      751      754      756      754      750      746      746 
     750      749      743      743      746      746      746      749 
     747      746      747      749      751      750      742      741 
     746      749      751      750      746      745      745      746 
     750      749      747      750      750      749      750      750 
     749      746      747      749      747      747      749      751 
     753      750      747      749      749      747      743      742 
     742      745      747      747      749      750      750      751 
     750      750      747      743      747      754      754      750 
     749      749      746      747      749      745      745      749 
     746      743      747      750      751      754      754      749 
     746      747      747      745      747      751      750      750 
     750      747      746      749      749      747      747      747 
     747      749      753      751      749      747      745      743 
     746      745      743      747      746      745      749      750 
     747      747      747      749      750      750      747      747 
     750      750      753      753      749      749      753      754 
     756      753      747      745      743      738      738      742 
     745      746      747      749      754      772      792      797 
     785      765      743      722      711      716      718      712 
     714      718      730      751      776      788      780      766 
     765      776      792      818      853      864      797      689 
     627      638      658      654      681      754      810      807 
     773      783      865      905      819      697      630      603 
     602      631      707      781      757      646      552      552 
     660      761      769      784      826      791      769      862 
     963      978      909      768      604      510      549      689 
     846      949      899      714      606      660      762      872 
     942      878      774      751      711      575      500      618 
     776      814      783      688      526      527      751      949 
    1081     1155      986      720      672      689      592      594 
     764      858      810      754      719      665      668      776 
     893      953      901      702      575      707      823      681 
     507      487      521      564      634      703      803      892 
     846      733      719      750      711      716      842      924 
     880      808      766      758      797      841      823      756 
     673      615      696      881      939      859      864      924 
     818      619      585      691      727      646      550      546 
     621      680      734      850      946      881      722      645 
     665      687      708      773      828      810      734      675 
     693      718      673      650      688      706      739      882 
    1021      966      785      729      811      868      857      818 
     778      793      831      796      730      688      577      475 
     588      820      889      764      612      526      537      664 
     805      837      781      703      610      577      658      757 
     815      904     1004     1003      931      884      820      696 
     596      569      572      612      729      864      940      981 
     994      943      857      762      621      510      531      594 
     607      641      702      715      699      716      747      774 
     827      853      805      792      862      862      766      715 
     711      702      715      714      641      579      603      664 
     735      839      927      963     1012     1047      962      807 
     680      580      562      691      843      874      789      670 
     600      618      662      616      525      568      727      834 
     901      999     1066     1063     1019      920      753      561 
     427      437      569      692      702      643      673      818 
     882      796      738      760      720      611      575      645 
     756      851      909      915      873      796      715      696 
     747      787      787      823      866      784      649      650 
     745      783      796      828      796      687      606      611 
     677      727      719      730      810      862      814      735 
     719      762      795      810      824      754      556      402 
     472      699      888      940      915      880      837      788 
     799      880      920      862      831      896      901      772 
     668      660      642      575      519      544      662      781 
     772      684      668      707      707      684      684      679 
     649      670      784      913     1015     1066     1019      926 
     885      889      911      943      942      903      854      766 
     639      573      589      604      591      592      599      567 
     531      564      635      654      608      529      445      400 
     390      392      502      760     1009     1115     1090      989 
     884      866      923      950      908      851      827      853 
     953     1086     1117     1012      878      753      625      552 
     554      591      633      635      581      545      553      556 
     548      550      576      625      660      700      795      850 
     799      785      912     1078     1165     1144     1063     1005 
     974      905      855      893      908      803      669      579 
     448      232       93      166      351      481      546      621 
     739      827      791      738      812      891      847      838 
     932      969      954     1011     1090     1117     1066      896 
     730      711      703      606      616      815      936      823 
     656      573      507      463      508      589      622      587 
     506      494      639      810      889      986     1140     1178 
    1016      762      542      413      391      457      616      839 
     957      896      818      845      930     1020     1062      986 
     810      641      560      584      680      761      791      791 
     768      723      665      639      695      764      787      801 
     764      618      484      492      608      730      807      862 
     911      895      788      697      715      778      757      656 
     646      745      772      729      774      868      845      715 
     610      621      714      781      804      857      904      814 
     629      594      743      827      781      742      720      673 
     658      735      928     1115     1066      820      669      679 
     676      621      591      580      535      502      550      693 
     859      920      834      742      737      724      718      837 
     996     1016      935      850      743      635      589      637 
     743      803      780      797      885      897      795      707 
     699      712      695      649      587      522      508      579 
     685      770      784      772      861      985      969      854 
     776      716      630      561      564      634      727      789 
     822      876      938      957      942      909      861      801 
     746      688      608      553      594      722      803      733 
     595      526      560      648      738      791      799      800 
     788      710      604      550      553      607      716      818 
     814      778      886     1081     1155     1101     1031      970 
     930      924      900      855      849      842      785      708 
     602      459      365      413      538      556      432      353 
     449      608      683      689      699      699      672      642 
     639      702      830      961     1080     1212     1266     1161 
    1020      950      884      780      714      762      873      934 
     913      812      641      487      427      453      494      454 
     314      213      279      441      618      814      966      981 
     881      792      776      820      935     1090     1201     1213 
    1104      959      928      978      974      889      747      603 
     548      572      610      626      565      454      426      496 
     542      519      487      511      614      765      907      940 
     839      718      689      743      815      872      928      988 
     992      926      857      843      839      788      726      699 
     653      556      550      746      959      978      881      830 
     787      641      450      379      472      669      859      916 
     841      753      719      764      911     1016      911      765 
     773      804      781      822      886      866      778      689 
     637      623      615      606      602      604      618      618 
     627      711      781      731      692      714      684      646 
     672      693      680      665      670      711      818      942 
     954      878      870      905      870      792      765      789 
     804      783      743      726      729      693      660      724 
     814      770      645      622      703      749      762      804 
     838      822      780      762      801      841      796      707 
     675      683      668      691      774      812      773      731 
     730      770      805      784      747      772      820      812 
     788      777      724      666      662      689      754      804 
     739      626      580      580      600      689      846      958 
     926      818      745      691      618      579      588      637 
     693      685      670      785      928      966      993     1050 
    1007      822      635      614      735      827      814      757 
     720      692      623      545      557      637      677      719 
     814      849      768      700      757      880      935      862 
     749      724      784      838      839      785      730      743 
     778      738      646      587      565      576      619      658 
     661      606      527      488      498      556      676      835 
    1020     1175     1175     1061     1003     1003      951      862 
     816      845      916      972      982      947      834      672 
     556      495      434      356      291      319      422      508 
     596      746      878      868      760      716      746      734 
     654      588      607      722      901     1094     1208     1163 
     985      789      699      735      783      751      711      707 
     681      652      658      679      727      810      855      805 
     672      556      579      697      799      862      897      923 
     947      961     1005     1058     1000      834      664      517 
     395      299      234      294      483      648      784      978 
    1084      959      712      502      426      537      791     1038 
    1177     1220     1192     1081      922      742      529      355 
     338      425      486      560      689      807      966     1202 
    1309     1189      974      724      504      472      652      897 
    1089     1179     1162     1085      974      780      523      361 
     384      484      517      510      487      344      130       51 
     121      217      284      356      481      642      800      985 
    1216     1435     1532     1444     1282     1166     1053      934 
     922     1007     1048     1039     1070     1081      970      838 
     801      814      800      735      635      568      541      432 
     247      164      157       28     -149     -157      -43       40 
     166      492      999     1518     1871     1958     1852     1632 
    1282      926      784      830      896      963     1085     1197 
    1177     1016      816      606      351       43     -294     -502 
    -390      -52      297      577      711      645      499      390 
     352      430      623      889     1212     1553     1838     1983 
    1958     1845     1701     1460     1144      916      864      949 
    1069     1100     1009      846      639      379       70     -256 
    -575     -839     -930     -783     -515     -251       37      405 
     787     1102     1347     1555     1698     1722     1660     1593 
    1564     1571     1620     1745     1836     1661     1206      727 
     398      201      102      118      251      459      623      664 
     645      603      473      295      187      135       41      -66 
     -39      156      361      491      627      815     1008     1135 
    1210     1320     1472     1609     1710     1728     1566     1255 
     993      930     1007     1020      858      687      691      756 
     691      534      413      342      278      205       98      -14 
     -35       71      275      521      683      661      565      587 
     706      742      696      738      905     1089     1182     1116 
     918      756      757      874     1050     1219     1308     1395 
    1580     1738     1706     1518     1281     1069      900      691 
     356      -22     -272     -299     -170      -52       -2       18 
      51      149      305      454      638      916     1242     1541 
    1707     1615     1382     1244     1224     1255     1306     1291 
    1163      981      791      581      386      240      129       55 
       1     -102     -274     -406     -352     -126      155      441 
     697      865      945     1021     1135     1246     1368     1517 
    1622     1667     1699     1699     1647     1576     1476     1316 
    1151      959      633      249      -31     -187     -259     -248 
    -172      -79       -8       43       94      179      360      660 
    1000     1314     1606     1833     1922     1915     1881     1825 
    1729     1583     1379     1140      920      739      594      465 
     332      167      -22     -163     -243     -349     -430     -379 
    -247     -132      -17      129      302      465      589      683 
     793      946     1112     1258     1362     1401     1377     1355 
    1426     1555     1641     1680     1683     1599     1426     1219 
    1042      935      858      738      583      450      351      271 
     211      149       91      105      207      332      417      461 
     481      500      538      576      580      587      641      724 
     835      957     1012      997     1007     1071     1116     1082 
     992      903      877      930      989     1000      982      922 
     811      711      616      487      391      388      419      483 
     630      778      838      864      892      835      637      340 
      56      -24      199      577      916     1192     1381     1393 
    1283     1170     1001      773      660      719      834      920 
     973     1021     1107     1174     1088      816      475      183 
      28       56      221      407      564      739      919      955 
     778      546      433      437      483      534      604      751 
     989     1236     1394     1377     1175      905      672      510 
     418      356      336      441      630      807      988     1163 
    1260     1324     1371     1290     1051      772      584      531 
     553      573      577      583      580      562      508      427 
     363      345      394      504      587      589      587      700 
     953     1228     1404     1448     1351     1152      953      796 
     689      664      711      762      772      720      599      450 
     334      257      213      217      286      387      500      676 
     907     1120     1302     1417     1363     1150      886      645 
     487      488      623      785      924     1007      967      830 
     688      544      406      367      422      479      567      749 
     951     1102     1188     1171     1051      895      743      585 
     442      368      356      419      595      785      861      843 
     818      815      842      905      972     1003     1026     1059 
    1065     1051     1081     1128     1134     1109     1028      835 
     608      464      394      336      260      155       24      -64 
     -54       13      113      309      598      855     1012     1094 
    1134     1181     1275     1343     1325     1283     1259     1231 
    1193     1115      957      750      556      384      243      133 
      29      -37        0      113      209      238      233      286 
     464      738     1020     1231     1390     1605     1865     2043 
    2076     1987     1841     1687     1470     1139      785      481 
     221       62       35       58       54       36       90      218 
     306      284      201      139      155      234      365      558 
     753      885     1008     1142     1200     1140     1032      974 
    1011     1058     1035     1003     1039     1115     1169     1165 
    1113     1008      849      718      646      580      529      554 
     626      661      615      514      422      365      318      276 
     244      221      245      368      577      788      893      907 
     945     1013     1044     1055     1105     1200     1301     1377 
    1437     1482     1471     1405     1343     1312     1231     1005 
     650      319      120      -20     -155     -213     -168      -91 
     -20       32       41       29       79      244      483      723 
     896      977     1042     1161     1282     1358     1449     1586 
    1692     1723     1667     1499     1248     1008      826      646 
     426      205       82      136      306      410      396      373 
     371      344      333      372      414      473      645      963 
    1306     1499     1482     1344     1200     1066      896      765 
     807      955     1034     1009      930      811      712      683 
     650      542      372      184       89      159      268      276 
     259      337      441      448      414      438      546      766 
