Origin Time       2024/06/23 22:54:00
Lat.              35.645
Long.             140.060
Depth. (km)       72
Mag.              4.1
Station Code      TKY004
Station Lat.      35.6301
Station Long.     139.4034
Station Height(m) 81
Record Time       2024/06/23 22:54:39
Sampling Freq(Hz) 100Hz
Duration Time(s)  64
Dir.              U-D
Scale Factor      7845(gal)/8223790
Max. Acc. (gal)   3.891
Last Correction   2024/06/23 22:54:38
Memo.             
[...]
   12075    12069    12063    12047    12019    12000    12017    12054 
   12067    12059    12044    12035    12039    12027    12004    12024 
   12060    12063    12047    12056    12067    12028    11979    12004 
   12059    12069    12048    12044    12046    12033    12028    12044 
   12052    12029    12023    12046    12052    12037    12031    12031 
   12035    12036    12044    12069    12067    12019    11997    12035 
   12063    12044    12028    12040    12042    12031    12054    12069 
   12033    12010    12044    12074    12043    12002    12019    12059 
   12058    12031    12036    12066    12066    12032    12009    12024 
   12050    12046    12037    12047    12051    12040    12029    12033 
   12033    12017    12025    12060    12073    12055    12028    12021 
   12040    12040    12016    12023    12064    12081    12050    12016 
   12025    12060    12069    12035    12015    12029    12046    12046 
   12033    12032    12052    12064    12044    12029    12033    12021 
   12009    12031    12067    12079    12058    12028    12024    12040 
   12028    12002    12042    12116    12075    11963    11973    12078 
   12100    12042    12028    12062    12056    12016    12001    12033 
   12070    12058    12017    12029    12066    12043    12009    12029 
   12054    12063    12062    12039    12017    12015    12020    12048 
   12083    12081    12042    11986    11982    12063    12098    12025 
   12006    12077    12082    12020    11992    12009    12046    12069 
   12062    12051    12043    12019    12006    12035    12062    12062 
   12055    12031    12009    12028    12050    12058    12062    12048 
   12044    12036    12000    12013    12078    12077    12019    12031 
   12091    12055    11963    11979    12075    12120    12066    11978 
   11992    12064    12055    12020    12042    12078    12097    12054 
   11977    11992    12056    12052    12028    12040    12058    12059 
   12042    12031    12037    12037    12033    12037    12051    12056 
   12004    11973    12062    12118    12035    11978    12036    12090 
   12073    12016    11997    12044    12064    12023    12028    12064 
   12036    12012    12055    12077    12036    12006    12033    12071 
   12050    12015    12031    12055    12042    12019    12033    12067 
   12069    12058    12040    11983    11993    12094    12090    11988 
   11997    12075    12083    12048    12012    12009    12047    12048 
   12015    12040    12077    12047    12017    12020    12028    12055 
   12075    12054    12029    12023    12025    12042    12046    12035 
   12033    12032    12035    12074    12094    12004    11929    12033 
   12141    12063    11978    12037    12091    12035    11975    12008 
   12081    12079    12027    12028    12056    12036    12019    12052 
   12075    12037    11990    12023    12074    12051    12009    12037 
   12086    12075    12027    11998    12015    12050    12081    12073 
   12000    11977    12073    12123    12033    11967    12037    12118 
   12060    11959    11996    12100    12085    11997    11994    12060 
   12090    12060    12021    12017    12029    12037    12046    12044 
   12036    12035    12039    12042    12050    12060    12047    12001 
   11998    12069    12087    12005    11979    12066    12121    12050 
   11950    11996    12125    12098    11969    11969    12071    12104 
   12040    11988    12033    12106    12074    11978    11966    12033 
   12083    12079    12060    12047    12024    12015    12031    12036 
   12040    12039    12024    12063    12098    12031    12005    12050 
   12033    12050    12066    11988    12013    12096    12050    12037 
   12071    12006    11985    12054    12052    12031    12058    12058 
   12046    12040    12000    11998    12056    12074    12050    12025 
   12032    12062    12052    12028    12032    12004    12002    12112 
   12124    11981    11975    12071    12040    12023    12058    12023 
   12027    12086    12044    12008    12082    12067    11979    12008 
   12054    12037    12059    12075    12035    12017    12047    12050 
   12017    12024    12055    12055    12058    12059    12043    12025 
   11986    12008    12120    12102    11974    12000    12096    12069 
   12000    12004    12069    12089    12031    12000    12028    12052 
   12048    12035    12036    12044    12040    12037    12042    12037 
   12029    12044    12073    12056    12021    12029    12043    12028 
   12019    12032    12060    12054    11996    12047    12175    12067 
   11865    11954    12141    12104    11979    12008    12109    12097 
   12001    11952    12017    12113    12101    12027    12009    12039 
   12050    12027    12015    12043    12070    12059    12037    12023 
   12039    12062    12031    12020    12063    12067    12035    12019 
   11998    12015    12114    12135    11977    11928    12101    12147 
   11990    11946    12069    12121    12046    11971    11989    12087 
   12123    12025    11970    12028    12062    12040    12027    12040 
   12063    12036    11983    12048    12136    12035    11955    12066 
   12100    12015    12024    12081    12054    11977    11978    12114 
   12164    11974    11861    12056    12217    12063    11904    12044 
   12189    12036    11875    11983    12125    12102    12036    12012 
   12039    12091    12060    11979    12012    12091    12054    11979 
   12013    12096    12089    12016    12008    12043    12060    12066 
   12032    12000    12017    12062    12112    12060    11923    11967 
   12158    12132    11954    11967    12079    12074    12048    12027 
   11990    12048    12105    12027    11978    12048    12081    12043 
   12010    12012    12062    12079    12020    12015    12067    12054 
   12017    12028    12042    12051    12056    12029    12010    12042 
   12096    12102    12006    11915    12004    12143    12096    11997 
   12035    12096    12070    11993    11965    12035    12073    12036 
   12040    12063    12066    12062    12016    11988    12025    12046 
   12033    12056    12089    12064    12021    12012    12021    12042 
   12060    12051    12036    12028    12015    12029    12081    12081 
   12002    11988    12083    12102    11997    11977    12066    12077 
   12025    12025    12047    12060    12066    12036    12002    12025 
   12058    12048    12029    12028    12032    12046    12055    12046 
   12036    12039    12050    12054    12024    11997    12008    12035 
   12059    12070    12059    12069    12074    12013    11959    12013 
   12085    12069    12035    12055    12060    12023    12002    12025 
   12052    12054    12047    12047    12037    12024    12031    12040 
   12042    12046    12039    12029    12050    12071    12046    12012 
   12021    12043    12043    12040    12044    12046    12039    12025 
   12036    12075    12059    11986    11981    12070    12123    12059 
   11978    12001    12056    12050    12039    12059    12054    12027 
   12025    12040    12043    12043    12042    12035    12036    12032 
   12032    12062    12069    12021    11986    12024    12086    12085 
   12031    12009    12031    12044    12028    12024    12059    12085 
   12054    11998    12001    12060    12087    12044    12000    12021 
   12063    12058    12032    12032    12047    12047    12032    12021 
   12033    12064    12073    12043    12008    11996    12017    12062 
   12085    12059    12024    12025    12048    12043    12020    12033 
   12059    12044    12017    12031    12074    12078    12035    12008 
   12029    12055    12042    12013    12028    12067    12066    12029 
   12020    12044    12059    12046    12033    12036    12050    12052 
   12029    12016    12042    12064    12052    12036    12040    12042 
   12031    12032    12048    12052    12040    12029    12027    12032 
   12052    12082    12075    12012    11981    12032    12086    12069 
   12016    12005    12054    12087    12059    12024    12020    12027 
   12032    12033    12042    12067    12073    12040    12017    12023 
   12035    12042    12040    12040    12046    12039    12029    12042 
   12066    12059    12025    12016    12033    12042    12046    12056 
   12056    12043    12029    12033    12050    12046    12025    12032 
   12059    12059    12037    12021    12033    12060    12060    12033 
   12019    12028    12051    12063    12055    12046    12046    12036 
   12025    12025    12037    12051    12051    12048    12050    12040 
   12028    12036    12047    12039    12028    12037    12048    12037 
   12035    12050    12047    12031    12032    12044    12046    12035 
   12017    12024    12060    12064    12032    12027    12043    12040 
   12025    12025    12047    12059    12048    12044    12052    12043 
   12019    12012    12037    12062    12052    12029    12023    12039 
   12055    12048    12036    12048    12055    12025    12012    12040 
   12056    12040    12032    12036    12039    12035    12033    12044 
   12056    12051    12031    12024    12039    12051    12050    12040 
   12037    12044    12040    12029    12035    12040    12036    12036 
   12043    12043    12037    12032    12028    12036    12050    12044 
   12040    12054    12052    12028    12023    12033    12032    12035 
   12055    12051    12033    12040    12054    12050    12039    12028 
   12024    12037    12043    12025    12043    12078    12056    12017 
   12023    12036    12039    12047    12043    12036    12044    12044 
   12031    12036    12052    12052    12047    12047    12021    12002 
   12031    12052    12048    12058    12058    12032    12020    12028 
   12050    12063    12050    12024    12015    12036    12062    12047 
   12024    12033    12037    12031    12048    12058    12050    12051 
   12032    12001    12009    12046    12067    12069    12046    12024 
   12025    12039    12040    12032    12040    12051    12043    12031 
   12029    12039    12047    12037    12036    12055    12059    12039 
   12012    12009    12042    12060    12047    12035    12044    12063 
   12054    12024    12024    12044    12037    12025    12029    12040 
   12055    12066    12056    12040    12031    12028    12035    12046 
   12046    12042    12040    12046    12048    12040    12033    12035 
   12039    12032    12033    12059    12063    12031    12019    12032 
   12042    12050    12043    12024    12031    12052    12050    12042 
   12044    12040    12033    12032    12037    12051    12058    12043 
   12027    12021    12035    12055    12058    12050    12050    12050 
   12044    12039    12029    12024    12031    12039    12043    12046 
   12052    12066    12066    12035    12005    12017    12050    12059 
   12050    12042    12044    12058    12046    12019    12020    12050 
   12059    12043    12039    12046    12050    12040    12027    12033 
   12044    12046    12042    12036    12046    12052    12044    12042 
   12039    12025    12021    12039    12054    12043    12037    12058 
   12067    12044    12013    12013    12042    12058    12044    12033 
   12047    12059    12043    12017    12017    12044    12050    12037 
   12037    12046    12055    12059    12040    12021    12033    12044 
   12031    12033    12055    12058    12043    12031    12031    12042 
   12042    12042    12046    12035    12029    12046    12062    12062 
   12037    12016    12031    12055    12050    12023    12023    12059 
   12067    12039    12029    12042    12043    12032    12031    12040 
   12048    12040    12021    12024    12055    12073    12052    12019 
   12019    12035    12042    12047    12050    12051    12048    12040 
   12037    12036    12027    12028    12037    12050    12058    12046 
   12028    12029    12040    12044    12043    12035    12027    12033 
   12044    12050    12056    12054    12036    12029    12033    12036 
   12029    12036    12056    12058    12043    12029    12032    12050 
   12050    12031    12024    12027    12031    12046    12062    12064 
   12055    12037    12021    12021    12040    12051    12039    12027 
   12039    12054    12042    12031    12046    12050    12039    12031 
   12027    12029    12042    12042    12042    12059    12059    12035 
   12024    12028    12036    12044    12040    12037    12043    12039 
   12037    12042    12043    12052    12050    12036    12037    12044 
   12037    12021    12019    12043    12066    12063    12039    12023 
   12033    12046    12035    12028    12046    12054    12039    12033 
   12044    12052    12042    12033    12043    12051    12048    12036 
   12019    12023    12043    12046    12042    12040    12031    12009 
   11989    11979    11967    11955    11966    12001    12040    12067 
   12069    12066    12083    12101    12123    12156    12137    12093 
   12109    12046    11823    11699    11797    11947    12071    12155 
   12124    11983    11862    11865    11935    11954    12028    12297 
   12553    12656    12634    12217    11418    10940    11144    11610 
   11840    11804    11969    12569    12885    12383    11781    11919 
   12653    12980    12644    12741    13451    13456    11902     9961 
   10077    12017    12808    11705    10905    12077    13703    13051 
   10930    10264    11902    13960    13614    11400    10936    12968 
   14304    12509     9701     9583    11009    10627     9555    10741 
   13929    16119    15076    12127     9850     9258    10247    11641 
   12942    14719    15352    13460    10839     9335     9647    11433 
   13081    13905    14060    13173    11672    10775    10903    11466 
   11614    11562    12070    12507    12278    12222    12540    12641 
   12299    11365    10606    11033    12222    13339    13660    12907 
   11875    11070    10561    10687    11434    12677    13782    13387 
   11952    11254    11338    11485    11803    12260    12679    12950 
   12432    11188    10624    11449    12814    13371    12772    12143 
   12079    12012    11789    11565    11396    11421    11502    11612 
   12182    13181    13567    12715    11580    11236    11481    11732 
   11952    12194    12276    12260    12243    11955    11411    11207 
   11820    12949    13563    12981    11682    10785    10957    11750 
   12368    12595    12576    12380    11934    11488    11716    12583 
   13023    12515    11736    11284    11298    11615    11655    11600 
   12263    13138    13099    12051    10760    10288    11121    12677 
   13765    13522    12415    11676    11608    11558    11422    11696 
   12131    12228    12150    11961    11776    11843    11877    11916 
   12337    12808    12788    12177    11515    11650    12514    12966 
   12378    11618    11681    12276    12492    11977    11160    10821 
   11418    12521    13255    13103    12093    10998    10805    11460 
   12255    12806    12904    12660    12283    11642    11119    11233 
   11632    11981    12177    12199    12455    12807    12714    12406 
   12220    12239    12280    11753    10962    10924    11605    12266 
   12594    12575    12270    11927    11776    11920    12298    12494 
   12262    11809    11418    11448    11851    12086    12170    12187 
   11951    11850    11998    12019    12117    12360    12407    12305 
   12098    11848    11799    11946    12249    12401    12148    11904 
   11676    11373    11502    12033    12710    13325    13246    12488 
   11832    11623    11728    11808    11682    11529    11443    11661 
   12263    12607    12463    12268    12024    11643    11446    11526 
   11811    12317    12733    12603    12019    11597    11747    12208 
   12587    12714    12378    11728    11372    11438    11651    11993 
   12348    12519    12522    12262    11659    11146    11171    11624 
   12301    12935    13047    12590    12054    11778    11635    11499 
   11628    12104    12545    12696    12576    12243    11751    11184 
   10956    11572    12536    12803    12372    11920    11719    11774 
   11907    11998    12251    12545    12638    12476    11942    11518 
   11616    11589    11481    12106    12914    12831    12017    11384 
   11639    12403    12626    12195    11566    11097    11307    12005 
   12480    12564    12226    11772    11809    12333    12785    12522 
   11801    11651    12051    12186    11819    11358    11449    12021 
   12399    12407    12067    11364    10874    11292    12432    13558 
   14079    13583    12263    11057    10621    10831    11357    12042 
   12722    13076    12992    12658    12054    11326    11156    11838 
   12769    13065    12294    11057    10467    10991    12248    13149 
   12864    12081    11716    11670    11838    12217    12472    12307 
   11716    11272    11507    12025    12337    12394    12303    12326 
   12364    11896    11028    10616    11249    12596    13616    13608 
   12997    12410    11847    11400    11257    11230    11375    11958 
   12654    12860    12522    11998    11333    10860    11416    12657 
   13301    12900    12040    11519    11403    11437    11676    12059 
   12503    12802    12542    11963    11692    11839    12083    12113 
   11970    11907    11970    11919    11651    11712    12407    12960 
   12606    11654    11078    11396    12029    12222    12168    12380 
   12625    12306    11499    11063    11492    12247    12688    12710 
   12530    12424    12316    11978    11646    11790    12297    12349 
   11651    11117    11381    11817    12005    12511    13305    13300 
   12218    11284    11387    11950    12256    12317    12178    11967 
   11936    11874    11622    11438    11456    11705    12205    12665 
   12819    12726    12482    12236    12071    11755    11222    10804 
   11020    12008    13038    13401    12992    12110    11358    11119 
   11507    12285    12529    11955    11607    12005    12433    12480 
   12398    12162    11697    11371    11503    11959    12379    12680 
   12973    12862    11956    10810    10222    10628    11959    13173 
   13419    12906    12185    11838    11780    11523    11696    12649 
   13054    12155    11016    10845    11639    12444    12634    12510 
   12303    11896    11519    11465    11848    12717    13431    13086 
   11896    10817    10363    10605    11499    12807    14049    14395 
   13180    11175    10030    10196    11090    12383    13616    14002 
   13181    11607    10373    10304    11267    12413    12987    12957 
   12529    11919    11504    11292    11291    11773    12484    12892 
   12742    12043    11199    10926    11510    12357    12842    12879 
   12598    12451    12664    12626    11871    10951    10863    11695 
   12407    12445    12282    12093    11566    11129    11611    12726 
   13311    12939    12015    11140    11018    11707    12390    12502 
   12405    12688    12946    12270    11107    10667    11040    11734 
   12455    12752    12413    11901    11780    12113    12415    12370 
   12262    12218    12052    11847    11767    11731    11601    11576 
   11998    12592    12703    12370    12035    11682    11264    11061 
   11284    12066    13224    13875    13338    12089    11036    10592 
   10748    11443    12545    13483    13481    12324    10817    10349 
