Origin Time       2024/06/23 22:54:00
Lat.              35.645
Long.             140.060
Depth. (km)       72
Mag.              4.1
Station Code      TKY008
Station Lat.      34.7851
Station Long.     139.3909
Station Height(m) 65
Record Time       2024/06/23 22:54:56
Sampling Freq(Hz) 100Hz
Duration Time(s)  60
Dir.              E-W
Scale Factor      7845(gal)/8223790
Max. Acc. (gal)   1.532
Last Correction   2024/06/23 22:54:55
Memo.             
[...]
    -939     -935     -924     -923     -932     -934     -928     -936 
    -938     -930     -934     -936     -932     -935     -931     -924 
    -927     -931     -939     -940     -935     -935     -931     -932 
    -938     -931     -930     -932     -926     -922     -928     -942 
    -943     -926     -919     -927     -927     -924     -927     -934 
    -936     -930     -930     -931     -932     -935     -934     -935 
    -935     -924     -922     -924     -931     -943     -940     -934 
    -931     -932     -934     -924     -927     -935     -924     -922 
    -932     -931     -927     -927     -928     -927     -926     -928 
    -930     -931     -928     -931     -936     -935     -934     -930 
    -932     -939     -935     -930     -931     -935     -935     -930 
    -931     -931     -923     -926     -936     -932     -928     -928 
    -928     -928     -927     -932     -934     -927     -923     -928 
    -934     -928     -927     -934     -922     -907     -911     -932 
    -961     -981     -976     -949     -918     -889     -866     -874 
    -918     -945     -951     -963     -963     -924     -878     -884 
    -926     -949     -976    -1026    -1021     -938     -864     -846 
    -841     -854     -938    -1038    -1043     -955     -866     -827 
    -822     -834     -888    -1013    -1151    -1169    -1001     -765 
    -681     -823    -1009    -1074    -1005     -893     -831     -830 
    -842     -854     -886     -966    -1084    -1132    -1001     -843 
    -882     -999    -1011     -992    -1007     -986     -897     -774 
    -683     -734     -919     -970     -835     -858    -1132    -1267 
   -1015     -791     -980    -1147     -953     -853    -1019     -994 
    -723     -552     -546     -666     -980    -1304    -1296    -1024 
    -896    -1001    -1084    -1012     -891     -931    -1085    -1012 
    -720     -554     -610     -783     -955    -1030    -1034     -994 
    -926    -1015    -1258    -1202     -854     -823    -1125    -1200 
   -1017    -1028    -1105     -727     -252     -430     -891     -795 
    -525     -842    -1198     -893     -602     -984    -1424    -1368 
   -1296    -1435    -1256     -826     -787     -980     -869     -645 
    -696     -915     -930     -687     -592     -776     -846     -785 
    -973    -1206    -1044     -885    -1239    -1507    -1070     -553 
    -707    -1136    -1074     -743     -854    -1123     -946     -730 
    -897     -951     -641     -603    -1040    -1217     -869     -696 
   -1054    -1320    -1080     -892    -1147    -1305    -1003     -669 
    -606     -591     -567     -772    -1098    -1158     -992     -913 
    -912     -832     -745     -913    -1286    -1300     -873     -715 
   -1054    -1263     -970     -631     -764    -1059     -973     -760 
    -855    -1024    -1005     -928     -823     -648     -622     -940 
   -1358    -1395    -1016     -685     -676     -892    -1132    -1163 
   -1039     -977     -855     -581     -469     -693     -958    -1096 
   -1262    -1291     -958     -695     -843     -996     -955    -1020 
   -1105     -945     -706     -676     -845    -1015    -1090    -1078 
    -962     -761     -616     -719    -1031    -1236    -1152    -1030 
   -1098    -1146     -920     -614     -565     -729     -834     -886 
    -967    -1001     -993    -1016    -1020     -962     -919     -946 
   -1043    -1146    -1128     -976     -785     -679     -749     -857 
    -785     -751    -1047    -1310    -1043     -595     -633    -1013 
   -1181    -1112    -1115    -1236    -1251    -1027     -750     -607 
    -569     -642     -865    -1066     -969     -642     -523     -756 
    -982    -1044    -1254    -1501    -1277     -891     -927    -1043 
    -820     -625     -843    -1134    -1012     -700     -575     -530 
    -511     -742    -1178    -1402    -1260    -1094    -1081     -997 
    -874     -988    -1206    -1165     -916     -765     -724     -691 
    -747     -884     -919     -912    -1034    -1071     -874     -811 
   -1055    -1201    -1026     -843     -853     -872     -800     -757 
    -837     -993    -1094    -1113    -1140    -1162    -1013     -776 
    -739     -799     -742     -754     -954    -1061     -886     -757 
    -927    -1020     -838     -827    -1092    -1179     -932     -696 
    -785    -1016    -1046    -1046    -1273    -1385    -1069     -672 
    -552     -610     -770    -1058    -1196     -912     -550     -653 
   -1005    -1050     -899     -947    -1094    -1063     -932     -873 
    -957    -1174    -1239    -1024     -858     -837     -762     -670 
    -693     -774     -822     -847     -930    -1044    -1016     -922 
   -1012    -1121     -972     -834    -1047    -1304    -1134     -706 
    -573     -795     -947     -972    -1090    -1162     -989     -800 
    -869     -989     -850     -673     -770     -961     -996     -951 
    -982    -1058    -1046     -946     -901     -951     -926     -800 
    -842    -1020     -962     -762     -815    -1020    -1055     -926 
    -831     -874     -943     -889     -826     -961    -1204    -1240 
   -1050     -888     -835     -888    -1043    -1123    -1017     -857 
    -741     -727     -832     -876     -793     -776     -881     -961 
    -918     -876     -982    -1101    -1065     -972     -977    -1019 
    -963     -886     -878     -847     -791     -845     -999    -1136 
   -1202    -1105     -872     -683     -598     -665     -922    -1166 
   -1210    -1050     -807     -735     -901    -1089    -1183    -1213 
   -1102     -795     -552     -618     -830    -1019    -1181    -1239 
   -1158    -1024     -847     -683     -699     -870     -980     -903 
    -783     -834     -946     -911     -881    -1003    -1102    -1081 
    -982     -846     -814     -907     -984    -1043    -1058    -1046 
   -1096    -1021     -741     -583     -658     -822    -1032    -1159 
   -1074     -953     -930     -919     -901     -936     -981     -939 
    -807     -795    -1016    -1166     -999     -766     -735     -814 
    -847     -878     -935     -891     -820     -927    -1092    -1069 
    -963    -1011    -1077     -943     -810     -942    -1132    -1038 
    -865     -954    -1094     -985     -747     -658     -754     -839 
    -854     -918     -967     -832     -679     -830    -1181    -1286 
   -1113    -1069    -1174    -1102     -911     -819     -754     -687 
    -735     -819     -855     -907     -928     -845     -741     -770 
    -935    -1071    -1097    -1104    -1169    -1227    -1179    -1094 
   -1119    -1140     -920     -545     -346     -463     -729     -969 
   -1074     -958     -747     -722     -923    -1146    -1223    -1169 
   -1097    -1001     -847     -772     -869     -977     -962     -919 
    -949     -954     -831     -773     -924    -1048     -984     -965 
   -1097    -1109     -903     -731     -742     -773     -724     -777 
   -1024    -1228    -1229    -1086     -839     -654     -774    -1038 
   -1102     -947     -746     -695     -872    -1100    -1198    -1089 
    -866     -868    -1016     -857     -629     -854    -1233    -1240 
   -1021     -918     -839     -712     -785    -1001    -1017     -961 
   -1048    -1054     -819     -614     -702     -928     -986     -909 
    -897     -913     -878     -912    -1027    -1082    -1061    -1013 
    -984     -981     -938     -926    -1066    -1194    -1092     -762 
    -492     -635     -993    -1067     -911     -889     -980     -927 
    -781     -820     -992    -1059    -1073    -1082     -922     -681 
    -662     -804     -845     -851    -1003    -1151    -1104     -989 
    -954     -924     -962    -1175    -1232     -962     -760     -801 
    -850     -778     -691     -754     -936    -1004     -922     -909 
   -1077    -1259    -1264    -1116     -927     -770     -700     -699 
    -735     -912    -1198    -1255     -978     -673     -591     -756 
    -982    -1069    -1094    -1101     -919     -672     -684     -916 
   -1081    -1093    -1030     -881     -708     -727     -893     -947 
    -970    -1162    -1323    -1165     -820     -653     -780    -1035 
   -1194    -1142    -1005     -924     -808     -696     -792     -936 
    -888     -861    -1007    -1001     -751     -687     -892     -946 
    -854     -923     -962     -804     -824    -1129    -1335    -1264 
   -1071     -913     -814     -741     -747     -904    -1063     -999 
    -824     -824    -1004    -1154    -1094     -865     -722     -780 
    -864     -866     -913    -1001    -1040    -1069    -1001     -805 
    -676     -699     -807     -951    -1093    -1147    -1019     -855 
    -905    -1015     -924     -835     -976    -1146    -1096     -926 
    -911     -996     -888     -750     -927    -1121     -962     -770 
    -828     -882     -832     -915    -1121    -1163    -1008     -905 
    -884     -765     -627     -723    -1040    -1209    -1032     -837 
    -868     -876     -783     -884    -1162    -1243     -989     -749 
    -815     -923     -889     -976    -1062     -869     -716     -866 
   -1011     -961     -880     -876     -918     -985    -1044    -1039 
   -1013    -1008     -963     -862     -734     -680     -873    -1142 
   -1090     -918     -981     -953     -673     -722    -1128    -1196 
    -912     -869     -972     -808     -719    -1057    -1310    -1080 
    -770     -711     -754     -843    -1000    -1058     -972     -870 
    -773     -781    -1032    -1289    -1247    -1024     -819     -602 
    -463     -704    -1200    -1355    -1140    -1017     -953     -745 
    -610     -733     -936    -1000     -949     -895     -907     -999 
   -1067    -1034     -972     -901     -781     -800    -1036    -1134 
    -951     -814     -853     -893     -922    -1113    -1352    -1235 
    -820     -635     -722     -739     -754     -919     -989     -810 
    -733     -996    -1232    -1140     -993    -1027     -997     -783 
    -735     -993    -1116     -892     -726     -838     -928     -869 
    -845     -895    -1013    -1169    -1111     -847     -787     -959 
    -992     -946    -1050    -1020     -727     -675     -954    -1040 
    -923     -996    -1059     -864     -812    -1069    -1181     -985 
    -808     -808     -824     -822     -886     -843     -672     -784 
   -1151    -1220     -992     -923     -963     -872     -832     -942 
    -978     -939    -1013    -1120    -1038     -839     -773     -847 
    -923     -945     -922     -814     -569     -442     -712    -1108 
   -1321    -1429    -1397    -1061     -652     -569     -814    -1090 
   -1225    -1219    -1062     -751     -540     -696    -1024    -1138 
   -1039     -989     -949     -742     -530     -577     -880    -1163 
   -1147     -949     -959    -1081     -896     -630     -784    -1128 
   -1175    -1069    -1138    -1206    -1036     -807     -737     -784 
    -839     -853     -886     -963     -922     -761     -751     -897 
    -978     -966     -973    -1019     -966     -776     -673     -819 
   -1073    -1179    -1163    -1220    -1167     -837     -704    -1013 
   -1161     -889     -723     -824     -908     -900     -897     -982 
   -1035     -874     -729     -850     -932     -770     -715     -880 
    -915     -766     -747    -1040    -1398    -1412    -1179    -1054 
    -962     -793     -766     -988    -1179    -1057     -780     -680 
    -758     -828     -891    -1081    -1279    -1143     -743     -584 
    -737     -797     -757     -966    -1300    -1215     -780     -666 
    -908     -892     -668     -800    -1152    -1165     -935     -967 
   -1132     -935     -662     -896    -1231    -1032     -761     -976 
   -1123     -789     -626     -985    -1283    -1173     -999     -935 
    -712     -371     -452    -1020    -1402    -1263    -1005     -965 
    -967     -804     -697     -843    -1026    -1000     -783     -683 
    -891    -1054    -1021    -1152    -1329    -1034     -500     -454 
    -886    -1166    -1115    -1028     -940     -747     -770    -1128 
   -1258     -958     -723     -727     -746     -807     -986    -1146 
   -1233    -1255    -1121     -908     -831     -866     -837     -769 
    -828     -958     -866     -622     -676    -1019    -1162     -981 
    -828     -865     -896     -814     -769     -947    -1124     -942 
    -722     -976    -1345    -1255     -939     -858     -931     -932 
    -928    -1039    -1053     -772     -517     -615     -865     -972 
    -990    -1055    -1028     -796     -575     -587     -796    -1000 
   -1097    -1138    -1101     -999     -985    -1048    -1050    -1055 
   -1155    -1216    -1152    -1080    -1061     -980     -793     -630 
    -587     -629     -687     -773     -904     -985     -989     -972 
    -859     -672     -595     -604     -575     -579     -670     -810 
   -1043    -1224    -1101     -972    -1235    -1536    -1414    -1219 
   -1377    -1568    -1513    -1413    -1291    -1125    -1150    -1274 
   -1124     -761     -618     -777     -810     -526     -382     -657 
    -847     -531      -39      139      -14     -179     -321     -789 
   -1428    -1606    -1393    -1213     -900     -525     -765    -1568 
   -2030    -2007    -2127    -2274    -1899    -1159     -591     -438 
    -467     -346     -257     -545    -1036    -1190     -750      -48 
     364      207     -386    -1063    -1517    -1694    -1841    -2035 
   -1713     -469      675      386     -598     -692     -437    -1061 
   -1822    -1691    -1252    -1294    -1539    -1340     -814     -661 
    -961    -1192    -1252    -1279    -1044     -519     -144      -27 
     103      126     -255     -857    -1333    -1675    -1823    -1506 
    -924     -661     -897    -1435    -1854    -1830    -1582    -1246 
    -707     -378     -484     -537     -581    -1066    -1556    -1458 
    -972     -480     -175     -209     -637    -1291    -1668    -1340 
    -626     -228     -313     -596     -931    -1120     -922     -693 
    -858     -936     -445      -49     -511    -1432    -1977    -1938 
   -1513     -872     -297     -175     -614    -1227    -1439    -1225 
   -1104    -1161    -1100     -880     -648     -633    -1051    -1656 
   -1728    -1085     -472     -490     -909    -1121     -903     -579 
    -422     -357     -328     -448     -708     -954    -1231    -1682 
   -2168    -2309    -1867    -1020     -207      257      114     -772 
   -1829    -2087    -1432     -670     -313     -220     -342     -859 
   -1570    -1854    -1479     -920     -657     -604     -621     -780 
    -878     -692     -522     -608     -661     -564     -634     -954 
   -1254    -1391    -1379    -1269    -1129     -943     -724     -712 
    -976    -1138     -865     -382      -99     -137     -487    -1134 
   -1615    -1374     -793     -716    -1119    -1404    -1409    -1290 
   -1171    -1158    -1166    -1047     -797     -421        1      124 
    -460    -1556    -2219    -1937    -1274     -878     -726     -735 
   -1001    -1104     -745     -588     -990    -1269    -1004     -657 
    -540     -375     -178     -418     -953    -1026     -558     -243 
    -409     -905    -1563    -2050    -1977    -1474    -1120    -1194 
   -1341    -1285    -1267    -1390    -1368    -1088     -769     -631 
    -583     -425     -359     -762    -1395    -1502     -886     -257 
    -291     -753     -972     -932    -1017    -1017     -575       62 
     511      598      120     -795    -1479    -1516    -1229    -1148 
   -1432    -1864    -2083    -1902    -1552    -1406    -1512    -1568 
   -1260     -742     -452     -380     -302     -315     -484     -603 
    -588     -514     -518     -838    -1398    -1632    -1301     -928 
   -1035    -1409    -1528    -1414    -1354    -1208     -850     -585 
    -561     -608     -669     -714     -616     -500     -654    -1000 
   -1258    -1329    -1121     -719     -610     -900    -1051     -868 
    -799    -1086    -1358    -1290    -1120    -1012     -710     -237 
      -8     -232     -738    -1085    -1102    -1120    -1216    -1128 
    -946     -913     -955     -959    -1090    -1305    -1061     -322 
       9     -391     -735     -652     -734    -1302    -1788    -1682 
   -1377    -1386    -1362     -950     -599     -662     -886     -985 
    -905     -818     -881     -932     -830     -749     -816    -1021 
   -1324    -1495    -1264     -846     -772    -1038    -1097     -808 
    -540     -426     -321     -310     -693    -1324    -1532    -1156 
    -770     -670     -720     -850     -976    -1005    -1055    -1281 
   -1559    -1536    -1175     -827     -556     -255     -247     -677 
    -994     -885     -753     -913    -1220    -1440    -1470    -1291 
   -1000     -876    -1024    -1138    -1086    -1123    -1204    -1023 
    -608     -201        4     -136     -527     -845     -954     -984 
    -955     -854     -881    -1177    -1512    -1561    -1371    -1209 
   -1162    -1181    -1259    -1301    -1138     -811     -557     -448 
    -349     -210     -118     -214     -595    -1104    -1431    -1503 
   -1509    -1491    -1260     -893     -822    -1127    -1390    -1332 
   -1048     -753     -534     -442     -585     -841     -873     -735 
    -762     -923     -980     -990    -1098    -1174    -1066     -896 
    -869     -957     -923     -703     -514     -552     -796    -1048 
   -1123    -1027     -905     -812     -765     -959    -1420    -1668 
   -1431    -1074     -899     -816     -747     -749     -882    -1128 
   -1318    -1202     -842     -650     -831    -1196    -1476    -1448 
   -1047     -487     -136     -213     -576     -880     -990    -1047 
   -1021     -642      -41      155     -352    -1090    -1472    -1545 
   -1648    -1726    -1576    -1282    -1036     -922     -904     -891 
    -920     -999     -934     -672     -427     -409     -561     -657 
    -664     -729     -855     -939     -954     -986    -1100    -1205 
   -1263    -1317    -1233     -881     -481     -338     -521     -959 
   -1383    -1452    -1210     -966     -859     -877     -986    -1098 
   -1120    -1055     -946     -886     -927     -865     -627     -495 
    -583     -795    -1167    -1628    -1890    -1825    -1487    -1001 
    -541     -172       75      114      -72     -469    -1046    -1607 
   -1736    -1304     -874     -949    -1209    -1086     -641     -436 
    -658     -924    -1039    -1150    -1216    -1036     -641     -294 
    -190     -359     -761    -1296    -1773    -1949    -1723    -1266 
    -861     -722     -864    -1070    -1067     -807     -606     -757 
   -1040    -1108     -977     -749     -495     -391     -503     -723 
    -965    -1225    -1416    -1406    -1206     -845     -452     -309 
    -403     -541     -787    -1156    -1409    -1490    -1489    -1264 
    -801     -506     -675    -1080    -1352    -1453    -1521    -1479 
   -1298    -1146     -950     -576     -301     -383     -619     -711 
    -649     -514     -390     -429     -571     -592     -579     -810 
   -1281    -1707    -1898    -1869    -1699    -1485    -1252     -911 
    -507     -287     -400     -766    -1131    -1208     -926     -549 
    -496     -891    -1339    -1383    -1102     -878     -830     -808 
