Origin Time       2024/06/23 22:54:00
Lat.              35.645
Long.             140.060
Depth. (km)       72
Mag.              4.1
Station Code      TKY030
Station Lat.      35.6698
Station Long.     139.7360
Station Height(m) 13
Record Time       2024/06/23 22:54:37
Sampling Freq(Hz) 100Hz
Duration Time(s)  66
Dir.              N-S
Scale Factor      7845(gal)/8223790
Max. Acc. (gal)   8.078
Last Correction   2024/06/23 22:54:37
Memo.             
[...]
   -9652    -9609    -9491    -9440    -9514    -9602    -9644    -9617 
   -9518    -9444    -9460    -9529    -9618    -9668    -9605    -9502 
   -9462    -9490    -9563    -9618    -9613    -9560    -9493    -9478 
   -9541    -9605    -9614    -9579    -9525    -9477    -9472    -9543 
   -9644    -9672    -9583    -9467    -9424    -9458    -9552    -9657 
   -9672    -9586    -9471    -9412    -9477    -9616    -9690    -9643 
   -9521    -9440    -9472    -9543    -9576    -9617    -9632    -9547 
   -9471    -9502    -9551    -9578    -9591    -9567    -9531    -9521 
   -9513    -9520    -9556    -9591    -9609    -9570    -9497    -9498 
   -9570    -9614    -9594    -9524    -9447    -9460    -9582    -9674 
   -9643    -9571    -9517    -9458    -9467    -9566    -9628    -9621 
   -9568    -9474    -9441    -9531    -9630    -9652    -9607    -9528 
   -9463    -9475    -9539    -9590    -9612    -9598    -9551    -9491 
   -9458    -9505    -9625    -9691    -9624    -9506    -9448    -9481 
   -9571    -9639    -9626    -9551    -9483    -9468    -9517    -9606 
   -9634    -9570    -9502    -9487    -9512    -9563    -9614    -9628 
   -9595    -9529    -9467    -9459    -9521    -9618    -9647    -9574 
   -9491    -9467    -9509    -9603    -9660    -9613    -9513    -9459 
   -9486    -9555    -9617    -9629    -9574    -9495    -9454    -9483 
   -9582    -9666    -9643    -9556    -9493    -9460    -9477    -9558 
   -9629    -9639    -9601    -9528    -9462    -9483    -9567    -9610 
   -9598    -9551    -9482    -9479    -9574    -9640    -9620    -9551 
   -9477    -9463    -9516    -9595    -9656    -9629    -9533    -9463 
   -9462    -9524    -9601    -9630    -9598    -9543    -9495    -9489 
   -9541    -9612    -9626    -9575    -9509    -9483    -9510    -9555 
   -9597    -9610    -9568    -9508    -9487    -9522    -9580    -9597 
   -9582    -9564    -9513    -9466    -9513    -9609    -9644    -9593 
   -9505    -9459    -9493    -9568    -9616    -9607    -9575    -9536 
   -9501    -9506    -9559    -9624    -9636    -9566    -9489    -9477 
   -9498    -9564    -9647    -9633    -9537    -9479    -9491    -9529 
   -9578    -9616    -9589    -9504    -9463    -9505    -9582    -9634 
   -9607    -9529    -9479    -9478    -9520    -9567    -9610    -9644 
   -9594    -9494    -9464    -9522    -9607    -9634    -9582    -9517 
   -9475    -9490    -9570    -9622    -9593    -9525    -9495    -9524 
   -9544    -9552    -9599    -9614    -9544    -9475    -9467    -9529 
   -9606    -9618    -9571    -9514    -9475    -9491    -9564    -9633 
   -9641    -9575    -9479    -9440    -9497    -9590    -9648    -9636 
   -9558    -9485    -9479    -9526    -9589    -9613    -9578    -9539 
   -9517    -9497    -9516    -9587    -9641    -9599    -9494    -9454 
   -9497    -9547    -9599    -9645    -9602    -9502    -9463    -9499 
   -9564    -9625    -9617    -9543    -9486    -9490    -9545    -9632 
   -9660    -9582    -9485    -9445    -9475    -9564    -9630    -9628 
   -9591    -9520    -9451    -9478    -9566    -9613    -9590    -9531 
   -9510    -9537    -9563    -9589    -9620    -9589    -9487    -9424 
   -9479    -9591    -9663    -9659    -9575    -9479    -9455    -9495 
   -9571    -9649    -9649    -9571    -9493    -9466    -9501    -9571 
   -9617    -9613    -9555    -9481    -9471    -9547    -9625    -9636 
   -9578    -9508    -9466    -9460    -9521    -9612    -9630    -9572 
   -9521    -9497    -9508    -9555    -9590    -9598    -9582    -9529 
   -9510    -9564    -9616    -9618    -9567    -9497    -9474    -9508 
   -9578    -9655    -9656    -9541    -9421    -9409    -9501    -9614 
   -9679    -9653    -9552    -9459    -9445    -9510    -9612    -9660 
   -9602    -9526    -9516    -9525    -9539    -9585    -9612    -9567 
   -9504    -9479    -9517    -9605    -9656    -9607    -9499    -9427 
   -9452    -9558    -9670    -9701    -9605    -9448    -9374    -9444 
   -9582    -9684    -9697    -9613    -9479    -9400    -9466    -9614 
   -9690    -9643    -9549    -9495    -9490    -9506    -9553    -9602 
   -9593    -9552    -9521    -9513    -9543    -9572    -9566    -9544 
   -9535    -9547    -9558    -9549    -9562    -9571    -9537    -9512 
   -9543    -9587    -9603    -9595    -9551    -9483    -9464    -9516 
   -9605    -9667    -9621    -9517    -9466    -9463    -9495    -9591 
   -9667    -9637    -9555    -9479    -9450    -9499    -9590    -9640 
   -9632    -9576    -9495    -9452    -9499    -9594    -9645    -9626 
   -9545    -9452    -9447    -9537    -9625    -9639    -9586    -9517 
   -9483    -9501    -9543    -9582    -9607    -9587    -9513    -9468 
   -9506    -9587    -9653    -9626    -9513    -9445    -9467    -9528 
   -9602    -9660    -9657    -9580    -9479    -9450    -9516    -9590 
   -9591    -9564    -9551    -9510    -9479    -9506    -9552    -9632 
   -9680    -9566    -9459    -9566    -9639    -9456    -9366    -9629 
   -9776    -9506    -9451    -9776    -9576    -8824    -8833    -9941 
  -10756   -10247    -9178    -8922    -9400    -9259    -8565    -9204 
  -11109   -11354    -9165    -7912    -9498   -10831    -9521    -8384 
   -9549   -10065    -8121    -7248   -10176   -13582   -12947    -9270 
   -6805    -6940    -7842    -8351    -9660   -12424   -13979   -11610 
   -7353    -5848    -7623    -9032    -9342   -10967   -12931   -11935 
   -8567    -6795    -8082    -9589    -9163    -8546    -9740   -11367 
  -11114    -9872    -9741    -9907    -8919    -7828    -8075    -9108 
   -9598   -10026   -11331   -12001   -10520    -8136    -7010    -7906 
   -9467   -10250   -10785   -11236   -10466    -8641    -7420    -8087 
  -10052   -11141   -10643   -10037    -9918    -9366    -8197    -7614 
   -8658   -10432   -10986   -10308   -10050   -10289    -9671    -8382 
   -7987    -8822    -9895   -10485   -10417    -9784    -9131    -9076 
   -9346    -9279    -9235    -9768   -10255    -9940    -9373    -9630 
  -10392   -10104    -8671    -7927    -8652    -9497    -9594   -10006 
  -11156   -11360    -9925    -8456    -7986    -8313    -9309   -10276 
  -10219    -9620    -9578    -9821    -9553    -9205    -9520    -9961 
   -9726    -9243    -9194    -9312    -9317    -9676   -10413   -10517 
   -9591    -8712    -8711    -9063    -9315    -9904   -10655   -10524 
   -9525    -8596    -8216    -8660    -9752   -10422   -10292   -10102 
  -10044    -9663    -9090    -9115    -9867   -10289    -9657    -8733 
   -8530    -8910    -9263    -9701   -10462   -10966   -10567    -9475 
   -8500    -8484    -9243    -9666    -9529    -9327    -9143    -9352 
  -10189   -10635   -10012    -9120    -8735    -8903    -9485   -10183 
  -10498   -10065    -9180    -8795    -9258    -9703    -9505    -9181 
   -9339    -9786   -10033    -9987    -9886    -9869    -9738    -9197 
   -8456    -8306    -9153   -10292   -10816   -10689   -10278    -9529 
   -8487    -7889    -8387    -9639   -10582   -10561   -10014    -9640 
   -9459    -9182    -8924    -9147    -9774   -10049    -9757    -9437 
   -9324    -9256    -9354    -9751    -9888    -9335    -8970    -9639 
  -10461   -10251    -9459    -9196    -9444    -9375    -8869    -8830 
   -9852   -10978   -10673    -9143    -8144    -8580    -9756   -10497 
  -10330    -9796    -9475    -9155    -8689    -8727    -9501   -10208 
  -10293   -10023    -9834    -9721    -9478    -9312    -9289    -9094 
   -8930    -9190    -9649    -9742    -9394    -9471   -10339   -10613 
   -9553    -8788    -9474   -10098    -9234    -8367    -9177   -10270 
   -9828    -8897    -9219   -10222   -10428    -9792    -9373    -9807 
  -10268    -9686    -8807    -8753    -9201    -9549    -9694    -9801 
  -10046   -10116    -9714    -9049    -8453    -8394    -9147   -10193 
  -10767   -10544    -9624    -8707    -8634    -9177    -9614    -9821 
   -9648    -9271    -9463    -9969    -9964    -9598    -9327    -9315 
   -9520    -9771    -9964    -9765    -9198    -9258    -9969    -9914 
   -9085    -9130   -10377   -11205   -10404    -8753    -7928    -8425 
   -9362    -9930    -9999    -9900   -10041   -10309   -10056    -9038 
   -8205    -8461    -9092    -9189    -9409   -10243   -10687   -10363 
  -10147   -10050    -9393    -8517    -8446    -9431   -10243    -9790 
   -8993    -9078    -9690   -10058    -9913    -9518    -9436    -9570 
   -9514    -9418    -9393    -9377    -9586    -9737    -9189    -8761 
   -9699   -10945   -10620    -9285    -8961    -9653    -9576    -8811 
   -9001    -9782    -9721    -9271    -9498   -10061   -10308   -10314 
  -10049    -9317    -8673    -8760    -9051    -9057    -9456   -10266 
  -10222    -9262    -8784    -9238    -9995   -10719   -11002   -10265 
   -8934    -8185    -8394    -8881    -9121    -9333    -9671   -10193 
  -10980   -11048    -9637    -8433    -9086   -10112    -9549    -8494 
   -8888   -10061   -10216    -9216    -8500    -9150   -10046    -9737 
   -9494   -10554   -11234   -10072    -8197    -7539    -8384    -9389 
  -10057   -10785   -10858    -9864    -9270    -9726    -9884    -9219 
   -8672    -8776    -9305    -9552    -9124    -8964    -9873   -11214 
  -11847   -11064    -9402    -8040    -7349    -7663    -9213   -10632 
  -10471    -9506    -9305    -9501    -8959    -8739   -10191   -11718 
  -11190    -9235    -7983    -8325    -9336    -9949   -10034    -9741 
   -9320    -9234    -9423    -9536    -9887   -10554   -10505    -9313 
   -8278    -8449    -9186    -9541    -9645   -10077   -10527   -10227 
   -9521    -9205    -9186    -9266    -9563    -9714    -9313    -8791 
   -8961    -9945   -10828   -10866   -10235    -9315    -8776    -9107 
   -9448    -9251    -9273    -9586    -9478    -8866    -8379    -8743 
   -9938   -11026   -11091   -10084    -8972    -8668    -8973    -9219 
   -9429    -9872   -10114    -9795    -9278    -9016    -9424   -10218 
  -10260    -9621    -9379    -9533    -9697    -9792    -9497    -8992 
   -8899    -9086    -9167    -9455   -10309   -11026   -10474    -9028 
   -8374    -8904    -9369    -9378    -9640   -10092   -10054    -9504 
   -9198    -9549    -9803    -9443    -9313    -9896   -10227    -9566 
   -8715    -8784    -9428    -9537    -9267    -9717   -10719   -10879 
   -9949    -9169    -9126    -9173    -8918    -8949    -9644   -10014 
   -9394    -9126   -10087   -10736    -9911    -8918    -9026    -9472 
   -9375    -9320    -9832   -10212    -9857    -9332    -9212    -9302 
   -9539    -9884    -9873    -9537    -9458    -9614    -9529    -9236 
   -9019    -8939    -9244    -9899   -10033    -9274    -8653    -9026 
   -9644    -9672    -9863   -10573   -10586    -9691    -9001    -8829 
   -8914    -9244    -9788   -10261   -10184    -9572    -9047    -8943 
   -9274    -9906   -10112    -9571    -9297    -9796   -10214   -10176 
  -10054    -9742    -9120    -8602    -8486    -8641    -8991    -9562 
  -10023   -10054    -9867    -9778    -9926   -10206   -10266    -9923 
   -9420    -9082    -8995    -9120    -9373    -9547    -9666    -9811 
   -9643    -9081    -8706    -9015    -9795   -10088    -9806   -10088 
  -10663   -10237    -9302    -9020    -9197    -9243    -9186    -9194 
   -9229    -9332    -9620    -9958    -9931    -9383    -8870    -9024 
   -9883   -10910   -11142   -10257    -9182    -8683    -8637    -8818 
   -8996    -9008    -9186    -9875   -10725   -10847    -9919    -9066 
   -9242    -9528    -8893    -8070    -8268    -9423   -10477   -10913 
  -11083   -10967   -10038    -8469    -7338    -7626    -9148   -10648 
  -11175   -10737    -9707    -8588    -8226    -9112   -10423   -10674 
   -9560    -8446    -8563    -9371    -9702    -9740   -10239   -10714 
  -10112    -8920    -8800    -9799   -10303    -9795    -9162    -8931 
   -8939    -8973    -9185    -9833   -10355   -10046    -9493    -9633 
  -10200   -10219    -9508    -9058    -9394    -9593    -9097    -8881 
   -9737   -10705   -10308    -9024    -8730    -9479    -9586    -8901 
   -9034   -10476   -11695   -11117    -9124    -7761    -7967    -8533 
   -8784    -9474   -10525   -10778   -10088    -9625    -9779    -9763 
   -9418    -9229    -9082    -8738    -8541    -8982    -9931   -10466 
  -10100    -9647    -9828    -9998    -9348    -8707    -9387   -10650 
  -10609    -9270    -8594    -9358    -9879    -9194    -8791    -9459 
   -9887    -9378    -8916    -9320    -9915    -9718    -9436   -10158 
  -10872   -10312    -9154    -8456    -8565    -9447   -10363   -10436 
   -9697    -8861    -8621    -9111    -9810   -10123    -9969    -9784 
   -9876    -9973    -9764    -9580    -9672    -9321    -8280    -7870 
   -8873   -10169   -10550   -10156    -9732    -9585    -9536    -9481 
   -9572    -9832   -10106   -10265   -10057    -9333    -8498    -8174 
   -8673    -9660   -10359   -10444   -10220   -10127   -10103    -9535 
   -8590    -8355    -9180   -10170   -10172    -9142    -8294    -8338 
   -8992    -9992   -10916   -11040   -10142    -9001    -8834    -9633 
  -10255   -10605   -11476   -12393   -11894    -9868    -7847    -6745 
   -6027    -5505    -6237    -8719   -11485   -12943   -13200   -12820 
  -11835   -10382    -8823    -7704    -7406    -7527    -7591    -7388 
   -6636    -5859    -6207    -7874   -10039   -11658   -11881   -10862 
   -9806    -9628   -10292   -11470   -12549   -12557   -11550   -10627 
   -9864    -8287    -5746    -3608    -3524    -5493    -8178   -10687 
  -13162   -16023   -18019   -17049   -13576   -10031    -8068    -7921 
   -8490    -8472    -7794    -7021    -6432    -6183    -6704    -8442 
  -11014   -13271   -14400   -14106   -12133    -8961    -6494    -6392 
   -8564   -11758   -13856   -12835    -8947    -4849    -3427    -5260 
   -8070    -9666   -10409   -11377   -12010   -11160    -9169    -7730 
   -7817    -8557    -8699    -8480    -8962   -10115   -11013   -11250 
  -11034   -10561    -9478    -7392    -5549    -6089    -9123   -12476 
  -14037   -13420   -11684   -10004    -9126    -9259    -9579    -8981 
   -7711    -6997    -7508    -8974   -10511   -11182   -11038   -10997 
  -10928    -9474    -6737    -5084    -6164    -8887   -11267   -12577 
  -12690   -11322    -9026    -7292    -7025    -7870    -9261   -11153 
  -12973   -13257   -11487    -9111    -7966    -8307    -8880    -8754 
   -8371    -8694    -9603    -9787    -8861    -8224    -8919   -10428 
  -11678   -11925   -11148    -9780    -8343    -7801    -8897   -10719 
  -11410   -10443    -9009    -8144    -7697    -7450    -7847    -9148 
  -10787   -11595   -10740    -9090    -8581    -9653   -10930   -11218 
  -10343    -8951    -8233    -8865   -10245   -11171   -10755    -9119 
   -7555    -7466    -9012   -10913   -11855   -11888   -11384    -9776 
   -7240    -5589    -5929    -7659    -9595   -10683   -10783   -10573 
  -10412   -10246   -10035    -9910   -10114   -10624   -11156   -11337 
  -10570    -8676    -6478    -5103    -5389    -7476   -10226   -11966 
  -12325   -12163   -11684   -10377    -8604    -7619    -7966    -8814 
   -9173    -9208    -9543   -10004    -9867    -8914    -8016    -8230 
   -9406   -10612   -11341   -11496   -10959    -9954    -9397    -9767 
  -10246    -9999    -9393    -9043    -8803    -8641    -9077   -10081 
  -10902   -10944   -10087    -8672    -7414    -7052    -7808    -9127 
  -10393   -11381   -11732   -11198   -10120    -9028    -8263    -7913 
   -8014    -8677    -9574   -10095   -10172   -10088   -10056   -10369 
  -10920   -10918   -10071    -9105    -8581    -8364    -8425    -9128 
  -10338   -11026   -10427    -9154    -8424    -8503    -8862    -9169 
   -9371    -9499    -9598    -9678    -9738    -9589    -9215    -9131 
   -9389    -9501    -9806   -10824   -11894   -11993   -10713    -8563 
   -7003    -6993    -7879    -8688    -9286    -9848   -10212   -10130 
   -9859   -10003   -10605   -10797    -9822    -8356    -7970    -8997 
  -10223   -10797   -10914   -10689    -9944    -9130    -8893    -9103 
   -9379    -9517    -9271    -8842    -8856    -9493   -10319   -10760 
  -10569    -9950    -9329    -8982    -8845    -8703    -8503    -8378 
   -8452    -8715    -9220   -10189   -11491   -12244   -11503    -9514 
   -7817    -7514    -8213    -9198   -10112   -10365    -9585    -8572 
   -8496    -9354   -10120   -10222   -10145   -10339   -10384    -9942 
   -9485    -9352    -9154    -8614    -8290    -8916   -10358   -11684 
  -11997   -11163    -9818    -8576    -7665    -7520    -8457    -9776 
  -10309    -9678    -8692    -8518    -9369   -10422   -10926   -10812 
  -10412    -9900    -9228    -8698    -8791    -9367    -9921   -10200 
  -10161    -9864    -9541    -9482    -9543    -9259    -8831    -9003 
   -9734   -10026    -9389    -8694    -8958    -9865   -10312    -9991 
   -9504    -9201    -8946    -8928    -9499   -10211   -10160    -9235 
   -8397    -8429    -8986    -9417    -9545    -9516    -9648   -10080 
  -10446   -10443   -10250   -10152   -10177    -9995    -9381    -8804 
   -8789    -9084    -9277    -9456    -9786   -10073   -10021    -9795 
   -9821    -9903    -9520    -8737    -8131    -8236    -9081   -10014 
  -10347   -10076    -9782    -9911   -10241   -10257    -9821    -9309 
   -9100    -9094    -9161    -9379    -9610    -9560    -9267    -9188 
   -9504    -9788    -9898   -10112   -10238    -9871    -9297    -9209 
   -9668    -9994    -9853    -9641    -9570    -9317    -8734    -8301 
   -8556    -9259    -9625    -9339    -8968    -9267   -10103   -10527 
  -10120    -9448    -9104    -9163    -9501   -10080   -10639   -10559 
   -9709    -8915    -8837    -9215    -9485    -9539    -9757   -10112 
   -9929    -9132    -8652    -9123   -10003   -10257    -9697    -9036 
   -8770    -8935    -9595   -10598   -11302   -11260   -10739   -10061 
   -9286    -8739    -8710    -8846    -8750    -8594    -8640    -8829 
   -9193    -9902   -10605   -10686   -10064    -9150    -8498    -8635 
   -9634   -10748   -10953   -10131    -9275    -9201    -9543    -9579 
   -9328    -9103    -8937    -8869    -8969    -9169    -9389    -9612 
   -9849   -10092   -10231   -10174   -10052    -9994    -9882    -9652 
   -9493    -9528    -9545    -9138    -8267    -7570    -7603    -8170 
   -8957    -9903   -10620   -10565    -9964    -9568    -9630    -9914 
  -10307   -10837   -11240   -11005   -10108    -9165    -8920    -9671 
  -10629   -10542    -9401    -8413    -8303    -8741    -9186    -9364 
   -9185    -8865    -8811    -9089    -9486    -9915   -10436   -10874 
  -10773   -10139    -9634    -9578    -9493    -8993    -8517    -8658 
   -9212    -9543    -9553    -9603    -9776    -9726    -9263    -8873 
   -9130    -9810   -10250   -10180    -9767    -9339    -9135    -9170 
   -9292    -9288    -8993    -8428    -7877    -7704    -8043    -8824 
   -9822   -10644   -11055   -11198   -11207   -10955   -10363    -9703 
   -9401    -9495    -9575    -9472    -9398    -9463    -9643    -9906 
  -10228   -10548   -10578   -10027    -9146    -8530    -8496    -8899 
   -9296    -9474    -9684   -10064   -10382   -10384   -10088    -9855 
   -9875    -9705    -8980    -8290    -8514    -9578   -10476   -10442 
   -9756    -9266    -9254    -9317    -9327    -9576   -10019   -10247 
  -10102    -9760    -9396    -9003    -8625    -8434    -8448    -8658 
