Origin Time       2024/06/23 22:54:00
Lat.              35.645
Long.             140.060
Depth. (km)       72
Mag.              4.1
Station Code      TKY016
Station Lat.      35.6486
Station Long.     139.7990
Station Height(m) 2
Record Time       2024/06/23 22:54:45
Sampling Freq(Hz) 100Hz
Duration Time(s)  60
Dir.              E-W
Scale Factor      7845(gal)/8223790
Max. Acc. (gal)   1.316
Last Correction   1970/01/31 00:00:00
Memo.             
[...]
   -7835    -7836    -7834    -7835    -7838    -7839    -7840    -7842 
   -7834    -7827    -7831    -7840    -7852    -7855    -7847    -7843 
   -7842    -7835    -7827    -7827    -7831    -7835    -7838    -7836 
   -7836    -7836    -7836    -7832    -7825    -7827    -7830    -7828 
   -7834    -7843    -7843    -7843    -7844    -7839    -7832    -7827 
   -7821    -7824    -7830    -7832    -7839    -7844    -7846    -7851 
   -7851    -7839    -7832    -7828    -7821    -7825    -7838    -7844 
   -7846    -7848    -7848    -7842    -7831    -7825    -7823    -7817 
   -7821    -7832    -7839    -7844    -7848    -7851    -7844    -7835 
   -7824    -7816    -7815    -7824    -7839    -7854    -7865    -7865 
   -7850    -7830    -7817    -7812    -7817    -7827    -7835    -7842 
   -7847    -7847    -7842    -7828    -7816    -7817    -7823    -7831 
   -7840    -7842    -7836    -7836    -7835    -7834    -7835    -7832 
   -7834    -7843    -7846    -7843    -7843    -7839    -7838    -7838 
   -7834    -7839    -7848    -7850    -7851    -7852    -7846    -7838 
   -7834    -7830    -7827    -7824    -7825    -7825    -7820    -7820 
   -7825    -7825    -7831    -7836    -7834    -7832    -7836    -7838 
   -7835    -7838    -7844    -7847    -7848    -7851    -7847    -7839 
   -7839    -7836    -7832    -7832    -7832    -7832    -7834    -7832 
   -7827    -7823    -7827    -7831    -7827    -7825    -7830    -7832 
   -7831    -7835    -7840    -7839    -7847    -7854    -7846    -7843 
   -7846    -7846    -7846    -7842    -7836    -7835    -7834    -7832 
   -7831    -7830    -7836    -7840    -7838    -7835    -7830    -7824 
   -7821    -7823    -7828    -7834    -7834    -7836    -7836    -7835 
   -7836    -7836    -7834    -7839    -7842    -7835    -7834    -7835 
   -7838    -7846    -7850    -7848    -7844    -7840    -7835    -7831 
   -7830    -7831    -7828    -7828    -7835    -7839    -7838    -7835 
   -7830    -7827    -7827    -7827    -7831    -7838    -7844    -7844 
   -7839    -7838    -7839    -7832    -7828    -7830    -7830    -7835 
   -7840    -7835    -7828    -7830    -7835    -7836    -7838    -7840 
   -7839    -7836    -7834    -7831    -7831    -7832    -7827    -7820 
   -7821    -7823    -7824    -7831    -7836    -7838    -7836    -7830 
   -7825    -7830    -7832    -7834    -7838    -7835    -7831    -7835 
   -7840    -7842    -7839    -7836    -7834    -7832    -7831    -7827 
   -7828    -7834    -7836    -7839    -7835    -7827    -7828    -7831 
   -7835    -7839    -7838    -7834    -7830    -7827    -7831    -7836 
   -7835    -7832    -7835    -7832    -7824    -7825    -7832    -7834 
   -7834    -7839    -7844    -7843    -7842    -7839    -7835    -7832 
   -7831    -7828    -7831    -7836    -7842    -7847    -7846    -7840 
   -7835    -7827    -7821    -7825    -7831    -7838    -7847    -7847 
   -7843    -7843    -7835    -7824    -7823    -7825    -7830    -7835 
   -7840    -7846    -7850    -7848    -7847    -7843    -7834    -7835 
   -7838    -7834    -7834    -7840    -7838    -7832    -7831    -7831 
   -7834    -7832    -7830    -7830    -7831    -7835    -7836    -7834 
   -7832    -7839    -7844    -7842    -7842    -7838    -7827    -7823 
   -7827    -7835    -7843    -7846    -7847    -7848    -7843    -7835 
   -7830    -7832    -7835    -7838    -7840    -7835    -7836    -7842 
   -7839    -7834    -7831    -7834    -7842    -7848    -7850    -7848 
   -7842    -7830    -7823    -7821    -7824    -7836    -7850    -7852 
   -7854    -7850    -7836    -7824    -7821    -7820    -7819    -7827 
   -7842    -7850    -7851    -7851    -7852    -7848    -7843    -7839 
   -7835    -7835    -7839    -7844    -7847    -7842    -7832    -7830 
   -7828    -7825    -7825    -7831    -7834    -7838    -7838    -7835 
   -7836    -7835    -7834    -7839    -7840    -7847    -7854    -7848 
   -7840    -7835    -7831    -7825    -7824    -7830    -7835    -7843 
   -7852    -7854    -7847    -7836    -7821    -7811    -7823    -7843 
   -7847    -7834    -7823    -7821    -7825    -7825    -7824    -7834 
   -7839    -7839    -7847    -7847    -7839    -7843    -7846    -7840 
   -7842    -7847    -7844    -7838    -7840    -7844    -7836    -7825 
   -7828    -7836    -7840    -7836    -7838    -7842    -7840    -7834 
   -7827    -7819    -7812    -7819    -7834    -7850    -7865    -7867 
   -7858    -7843    -7834    -7830    -7825    -7823    -7828    -7839 
   -7848    -7854    -7854    -7846    -7835    -7824    -7817    -7825 
   -7830    -7816    -7803    -7804    -7824    -7850    -7855    -7851 
   -7848    -7832    -7819    -7824    -7830    -7836    -7859    -7871 
   -7863    -7851    -7832    -7815    -7804    -7800    -7811    -7825 
   -7839    -7854    -7861    -7851    -7835    -7821    -7812    -7812 
   -7825    -7840    -7854    -7869    -7874    -7866    -7850    -7835 
   -7820    -7816    -7821    -7828    -7836    -7847    -7846    -7835 
   -7823    -7813    -7816    -7835    -7857    -7858    -7840    -7820 
   -7823    -7834    -7832    -7831    -7838    -7840    -7842    -7839 
   -7825    -7823    -7838    -7825    -7781    -7761    -7792    -7857 
   -7924    -7958    -7905    -7800    -7794    -7894    -7940    -7889 
   -7813    -7743    -7695    -7731    -7819    -7866    -7915    -7983 
   -7936    -7773    -7697    -7776    -7894    -7983    -7970    -7777 
   -7566    -7638    -7906    -7971    -7816    -7755    -7843    -7894 
   -7854    -7807    -7816    -7900    -7952    -7862    -7801    -7879 
   -7900    -7793    -7751    -7812    -7784    -7735    -7894    -8048 
   -7898    -7635    -7611    -7830    -8009    -8010    -7901    -7773 
   -7740    -7843    -7923    -7852    -7735    -7738    -7821    -7838 
   -7796    -7786    -7832    -7938    -8000    -7901    -7744    -7692 
   -7704    -7727    -7865    -8077    -8041    -7763    -7657    -7761 
   -7786    -7762    -7871    -8021    -8006    -7823    -7638    -7603 
   -7755    -7970    -8064    -7993    -7830    -7696    -7715    -7855 
   -7936    -7913    -7888    -7848    -7774    -7735    -7746    -7798 
   -7885    -7924    -7859    -7765    -7763    -7817    -7835    -7850 
   -7862    -7834    -7830    -7871    -7858    -7749    -7677    -7790 
   -7965    -7952    -7796    -7743    -7875    -7997    -7943    -7824 
   -7778    -7774    -7796    -7848    -7862    -7831    -7861    -7898 
   -7813    -7734    -7794    -7889    -7919    -7875    -7777    -7700 
   -7734    -7848    -7870    -7803    -7817    -7882    -7896    -7879 
   -7830    -7751    -7728    -7812    -7915    -7902    -7840    -7843 
   -7839    -7797    -7811    -7874    -7896    -7825    -7736    -7750 
   -7834    -7886    -7893    -7896    -7905    -7862    -7778    -7762 
   -7798    -7813    -7820    -7840    -7843    -7809    -7808    -7869 
   -7905    -7877    -7869    -7917    -7915    -7803    -7696    -7747 
   -7902    -7977    -7944    -7890    -7828    -7758    -7734    -7777 
   -7797    -7747    -7766    -7913    -8001    -7917    -7809    -7813 
   -7855    -7848    -7827    -7794    -7744    -7771    -7894    -7935 
   -7832    -7747    -7763    -7812    -7835    -7831    -7816    -7816 
   -7840    -7851    -7808    -7758    -7759    -7811    -7900    -7973 
   -7933    -7824    -7804    -7840    -7804    -7765    -7811    -7867 
   -7882    -7884    -7886    -7875    -7867    -7879    -7878    -7821 
   -7765    -7784    -7861    -7911    -7878    -7785    -7697    -7697 
   -7805    -7902    -7944    -7973    -7948    -7847    -7750    -7753 
   -7830    -7858    -7854    -7905    -7916    -7794    -7673    -7707 
   -7836    -7919    -7946    -7927    -7819    -7689    -7663    -7758 
   -7877    -7938    -7959    -7931    -7828    -7782    -7870    -7908 
   -7790    -7696    -7776    -7919    -7946    -7835    -7732    -7749 
   -7839    -7906    -7897    -7817    -7750    -7753    -7824    -7939 
   -7993    -7940    -7870    -7824    -7801    -7803    -7803    -7781 
   -7750    -7786    -7886    -7916    -7857    -7831    -7871    -7893 
   -7850    -7796    -7753    -7699    -7715    -7835    -7898    -7865 
   -7858    -7888    -7906    -7924    -7898    -7784    -7722    -7867 
   -8019    -7909    -7708    -7723    -7911    -8004    -7920    -7780 
   -7693    -7703    -7789    -7884    -7921    -7892    -7828    -7817 
   -7893    -7913    -7790    -7695    -7765    -7882    -7875    -7790 
   -7828    -7970    -8014    -7947    -7871    -7830    -7798    -7755 
   -7723    -7693    -7655    -7747    -7963    -8019    -7862    -7751 
   -7800    -7884    -7894    -7870    -7852    -7801    -7731    -7738 
   -7870    -7987    -7904    -7724    -7712    -7836    -7879    -7840 
   -7884    -7970    -7950    -7835    -7732    -7680    -7704    -7851 
   -8041    -8062    -7889    -7785    -7857    -7869    -7716    -7631 
   -7723    -7830    -7844    -7843    -7846    -7800    -7803    -7948 
   -8035    -7867    -7668    -7754    -8010    -8047    -7821    -7703 
   -7794    -7863    -7840    -7827    -7815    -7776    -7763    -7820 
   -7890    -7921    -7925    -7912    -7893    -7874    -7824    -7793 
   -7819    -7851    -7894    -7920    -7838    -7734    -7747    -7832 
   -7904    -7933    -7874    -7757    -7709    -7753    -7749    -7672 
   -7712    -7885    -7931    -7823    -7840    -8014    -8044    -7835 
   -7634    -7582    -7622    -7736    -7855    -7863    -7830    -7835 
   -7828    -7803    -7789    -7781    -7807    -7894    -7950    -7850 
   -7738    -7844    -8036    -8051    -7948    -7877    -7847    -7844 
   -7863    -7859    -7789    -7676    -7653    -7798    -7952    -7969 
   -7944    -7931    -7881    -7819    -7773    -7758    -7771    -7762 
   -7769    -7820    -7824    -7809    -7897    -8014    -7997    -7905 
   -7892    -7874    -7736    -7619    -7657    -7732    -7750    -7755 
   -7742    -7693    -7719    -7852    -7947    -7921    -7870    -7897 
   -7990    -8077    -8095    -7998    -7812    -7643    -7566    -7572 
   -7650    -7755    -7811    -7836    -7873    -7906    -7896    -7848 
   -7858    -7933    -7954    -7909    -7875    -7889    -7920    -7875 
   -7740    -7630    -7643    -7761    -7843    -7773    -7665    -7707 
   -7843    -7889    -7835    -7812    -7854    -7874    -7852    -7859 
   -7889    -7921    -7955    -7928    -7823    -7773    -7861    -7951 
   -7911    -7840    -7906    -8029    -8033    -7932    -7793    -7674 
   -7682    -7773    -7801    -7790    -7832    -7871    -7842    -7842 
   -7906    -7916    -7879    -7873    -7881    -7877    -7844    -7815 
   -7807    -7765    -7700    -7704    -7796    -7882    -7929    -7987 
   -8006    -7889    -7707    -7620    -7669    -7773    -7851    -7877 
   -7927    -8029    -8037    -7847    -7573    -7416    -7469    -7684 
   -7912    -8001    -7965    -7942    -7975    -7963    -7852    -7786 
   -7848    -7916    -7928    -7911    -7875    -7878    -7942    -7982 
   -7878    -7692    -7641    -7735    -7780    -7738    -7728    -7785 
   -7846    -7878    -7850    -7722    -7611    -7658    -7774    -7827 
   -7855    -7874    -7854    -7877    -7944    -7996    -8073    -8104 
   -7951    -7716    -7597    -7635    -7715    -7774    -7855    -7943 
   -7985    -7982    -7969    -7994    -8063    -8063    -7920    -7708 
   -7611    -7727    -7825    -7731    -7654    -7735    -7842    -7846 
   -7767    -7728    -7781    -7855    -7855    -7771    -7734    -7796 
   -7882    -7933    -7898    -7800    -7744    -7749    -7776    -7821 
   -7896    -8019    -8140    -8112    -7906    -7701    -7638    -7693 
   -7803    -7870    -7820    -7734    -7732    -7797    -7828    -7808 
   -7835    -7977    -8091    -7954    -7723    -7777    -8004    -7992 
   -7769    -7645    -7695    -7784    -7819    -7807    -7786    -7742 
   -7692    -7723    -7789    -7786    -7778    -7843    -7893    -7862 
   -7839    -7836    -7807    -7836    -7939    -7971    -7967    -8046 
   -8063    -7906    -7800    -7917    -8054    -7994    -7858    -7808 
   -7778    -7681    -7615    -7680    -7824    -7958    -8017    -7931 
   -7776    -7785    -7948    -8010    -7938    -7896    -7924    -7935 
   -7850    -7678    -7574    -7619    -7693    -7734    -7786    -7861 
   -7919    -7912    -7825    -7732    -7738    -7807    -7835    -7843 
   -7843    -7759    -7661    -7696    -7807    -7848    -7824    -7846 
   -7962    -8064    -8031    -7924    -7884    -7908    -7875    -7762 
   -7676    -7685    -7765    -7850    -7885    -7877    -7889    -7924 
   -7948    -7955    -7913    -7809    -7697    -7615    -7588    -7655 
   -7758    -7793    -7744    -7695    -7717    -7776    -7838    -7963 
   -8131    -8205    -8110    -7943    -7843    -7828    -7838    -7827 
   -7734    -7624    -7654    -7731    -7673    -7570    -7593    -7705 
   -7808    -7927    -8024    -7951    -7761    -7643    -7588    -7447 
   -7194    -7002    -7056    -7291    -7477    -7547    -7696    -8046 
   -8394    -8526    -8499    -8398    -8189    -7852    -7457    -7069 
   -6754    -6602    -6702    -7010    -7418    -7874    -8351    -8748 
   -8950    -8941    -8815    -8627    -8305    -7817    -7312    -6997 
   -6909    -6976    -7204    -7635    -8172    -8635    -8954    -9135 
   -9157    -9081    -9027    -8942    -8681    -8291    -7952    -7755 
   -7651    -7550    -7456    -7507    -7813    -8313    -8830    -9171 
   -9215    -9058    -8935    -8851    -8667    -8438    -8330    -8330 
   -8303    -8144    -7813    -7381    -6998    -6709    -6536    -6575 
   -6752    -6818    -6754    -6806    -7094    -7504    -7932    -8333 
   -8580    -8503    -8176    -7858    -7641    -7483    -7356    -7209 
   -7020    -6937    -7160    -7620    -8047    -8270    -8251    -7970 
   -7526    -7186    -7133    -7244    -7283    -7203    -7088    -6930 
   -6716    -6639    -6913    -7477    -8028    -8313    -8345    -8298 
   -8245    -8098    -7792    -7470    -7327    -7364    -7457    -7570 
   -7727    -7878    -7978    -8050    -8144    -8235    -8226    -8139 
   -8060    -7990    -7962    -8050    -8209    -8286    -8189    -8005 
   -7919    -7971    -8004    -7905    -7820    -7921    -8132    -8247 
   -8194    -8020    -7813    -7726    -7839    -8055    -8206    -8259 
   -8341    -8510    -8607    -8540    -8436    -8370    -8216    -7906 
   -7603    -7438    -7342    -7275    -7314    -7479    -7663    -7774 
   -7836    -7884    -7916    -8025    -8266    -8480    -8482    -8293 
   -8062    -7867    -7690    -7518    -7365    -7257    -7227    -7272 
   -7292    -7237    -7196    -7257    -7322    -7261    -7126    -7079 
   -7186    -7380    -7565    -7716    -7809    -7778    -7655    -7596 
   -7689    -7885    -8085    -8291    -8568    -8861    -8977    -8842 
   -8635    -8505    -8348    -8058    -7786    -7715    -7730    -7655 
   -7550    -7501    -7446    -7361    -7356    -7456    -7569    -7693 
   -7881    -8089    -8266    -8394    -8440    -8405    -8317    -8229 
   -8189    -8121    -7979    -7902    -8031    -8293    -8482    -8467 
   -8278    -8025    -7782    -7584    -7447    -7376    -7395    -7480 
   -7562    -7630    -7701    -7761    -7815    -7893    -7944    -7862 
   -7634    -7369    -7209    -7206    -7277    -7356    -7520    -7805 
   -8075    -8191    -8170    -8093    -7970    -7774    -7572    -7415 
   -7281    -7172    -7140    -7219    -7380    -7591    -7854    -8110 
   -8251    -8260    -8217    -8166    -8067    -7911    -7720    -7491 
   -7252    -7110    -7103    -7150    -7254    -7539    -7974    -8324 
   -8434    -8348    -8175    -7989    -7858    -7847    -7888    -7830 
   -7704    -7682    -7784    -7904    -8012    -8136    -8241    -8232 
   -8097    -7966    -7938    -7987    -8052    -8068    -8009    -7946 
   -7966    -8085    -8278    -8460    -8498    -8383    -8283    -8256 
   -8193    -8054    -7915    -7801    -7709    -7662    -7608    -7393 
   -7037    -6787    -6762    -6841    -6939    -7094    -7339    -7639 
   -7952    -8256    -8510    -8637    -8598    -8472    -8445    -8573 
   -8672    -8581    -8421    -8325    -8197    -7894    -7485    -7161 
   -7047    -7107    -7236    -7392    -7615    -7881    -8078    -8182 
   -8243    -8255    -8208    -8125    -8006    -7875    -7843    -7932 
   -8006    -7986    -7946    -7997    -8129    -8216    -8170    -8023 
   -7838    -7651    -7504    -7418    -7377    -7403    -7473    -7462 
   -7342    -7254    -7267    -7323    -7402    -7508    -7601    -7653 
   -7708    -7828    -7975    -8087    -8129    -8051    -7848    -7596 
   -7392    -7303    -7312    -7392    -7539    -7724    -7898    -8021 
   -8064    -8012    -7863    -7697    -7604    -7589    -7607    -7626 
   -7641    -7669    -7685    -7677    -7712    -7835    -8006    -8122 
   -8118    -8024    -7875    -7731    -7659    -7666    -7757    -7896 
   -7977    -7978    -7974    -8008    -8052    -8083    -8133    -8220 
   -8333    -8446    -8480    -8383    -8239    -8155    -8133    -8082 
   -7959    -7834    -7782    -7792    -7793    -7750    -7731    -7823 
   -7979    -8085    -8113    -8136    -8201    -8270    -8313    -8343 
   -8341    -8272    -8137    -7952    -7735    -7549    -7438    -7353 
   -7236    -7136    -7153    -7285    -7446    -7591    -7766    -8023 
   -8279    -8410    -8367    -8152    -7827    -7519    -7290    -7145 
   -7110    -7187    -7327    -7473    -7596    -7715    -7865    -8006 
   -8035    -7948    -7846    -7731    -7576    -7456    -7438    -7468 
   -7487    -7542    -7707    -7962    -8194    -8307    -8324    -8291 
   -8220    -8125    -8006    -7839    -7653    -7541    -7537    -7604 
   -7681    -7728    -7776    -7855    -7923    -7956    -7962    -7925 
   -7870    -7865    -7924    -7982    -7982    -7966    -7989    -8005 
   -7948    -7869    -7858    -7898    -7904    -7873    -7901    -8032 
   -8208    -8314    -8290    -8178    -8060    -7950    -7800    -7603 
   -7422    -7321    -7322    -7425    -7603    -7812    -8008    -8166 
   -8208    -8074    -7862    -7727    -7709    -7749    -7785    -7820 
   -7884    -7933    -7909    -7842    -7784    -7755    -7771    -7846 
   -7970    -8086    -8116    -8056    -7956    -7851    -7754    -7655 
   -7576    -7534    -7497    -7454    -7422    -7387    -7339    -7311 
   -7337    -7404    -7485    -7561    -7635    -7731    -7852    -7962 
   -8012    -7969    -7846    -7715    -7634    -7605    -7611    -7630 
   -7645    -7662    -7696    -7743    -7803    -7896    -8037    -8218 
   -8378    -8453    -8445    -8401    -8344    -8295    -8274    -8278 
   -8284    -8257    -8160    -7975    -7762    -7638    -7645    -7724 
   -7838    -7985    -8147    -8293    -8368    -8317    -8147    -7939 
   -7781    -7696    -7662    -7663    -7672    -7639    -7561    -7479 
   -7426    -7384    -7329    -7329    -7454    -7673    -7905    -8135 
   -8353    -8490    -8475    -8340    -8167    -8017    -7915    -7859 
   -7786    -7662    -7584    -7593    -7587    -7503    -7427    -7446 
   -7549    -7674    -7750    -7749    -7739    -7763    -7793    -7811 
   -7823    -7828    -7798    -7726    -7682    -7712    -7757    -7788 
   -7830    -7869    -7865    -7813    -7738    -7672    -7638    -7654 
