Origin Time       2024/06/23 22:54:00
Lat.              35.645
Long.             140.060
Depth. (km)       72
Mag.              4.1
Station Code      TKY031
Station Lat.      35.6789
Station Long.     139.7070
Station Height(m) 29
Record Time       2024/06/23 22:54:41
Sampling Freq(Hz) 100Hz
Duration Time(s)  66
Dir.              U-D
Scale Factor      7845(gal)/8223790
Max. Acc. (gal)   4.142
Last Correction   2024/06/23 22:54:41
Memo.             
[...]
    7287     7260     7254     7271     7279     7284     7292     7294 
    7308     7330     7308     7268     7254     7252     7265     7306 
    7318     7281     7254     7279     7318     7314     7279     7258 
    7254     7248     7261     7308     7337     7303     7260     7284 
    7334     7315     7244     7207     7257     7325     7326     7298 
    7284     7287     7295     7283     7256     7257     7288     7304 
    7307     7304     7284     7260     7273     7304     7303     7265 
    7246     7271     7303     7306     7284     7268     7277     7288 
    7280     7277     7296     7304     7284     7264     7273     7298 
    7304     7294     7276     7267     7272     7291     7312     7307 
    7272     7250     7281     7329     7314     7249     7226     7298 
    7379     7345     7242     7209     7248     7273     7279     7308 
    7329     7306     7281     7265     7252     7261     7285     7300 
    7298     7283     7273     7284     7290     7279     7267     7264 
    7281     7311     7319     7302     7283     7280     7279     7277 
    7280     7276     7280     7306     7318     7304     7300     7287 
    7256     7248     7272     7287     7280     7275     7276     7279 
    7296     7317     7312     7290     7248     7217     7273     7368 
    7338     7213     7192     7294     7362     7333     7271     7248 
    7276     7312     7288     7229     7242     7315     7339     7317 
    7296     7295     7302     7283     7240     7227     7252     7276 
    7314     7341     7319     7285     7276     7285     7288     7261 
    7237     7263     7310     7317     7296     7294     7294     7281 
    7277     7284     7284     7273     7273     7281     7283     7283 
    7277     7283     7307     7317     7287     7244     7244     7299 
    7337     7308     7265     7257     7257     7260     7284     7308 
    7323     7335     7318     7246     7199     7234     7295     7335 
    7339     7311     7294     7292     7277     7263     7268     7272 
    7269     7273     7280     7288     7306     7318     7299     7267 
    7257     7269     7287     7294     7287     7288     7294     7287 
    7275     7277     7304     7312     7281     7254     7261     7291 
    7307     7277     7238     7275     7352     7344     7256     7211 
    7252     7300     7304     7294     7299     7330     7349     7287 
    7198     7215     7310     7334     7287     7272     7295     7312 
    7307     7279     7244     7230     7250     7295     7330     7312 
    7263     7260     7304     7325     7302     7279     7280     7277 
    7271     7268     7258     7261     7292     7315     7310     7284 
    7264     7277     7296     7290     7277     7273     7291     7323 
    7319     7267     7229     7265     7341     7357     7294     7225 
    7214     7244     7275     7290     7291     7302     7330     7333 
    7302     7263     7230     7234     7285     7318     7303     7295 
    7302     7285     7261     7265     7288     7312     7321     7290 
    7240     7226     7263     7318     7335     7298     7280     7314 
    7321     7279     7264     7285     7290     7261     7230     7234 
    7275     7300     7308     7327     7333     7299     7257     7257 
    7288     7307     7295     7257     7236     7263     7300     7312 
    7322     7323     7300     7277     7252     7214     7217     7272 
    7317     7331     7333     7321     7322     7331     7290     7213 
    7196     7254     7307     7302     7267     7268     7308     7326 
    7298     7271     7272     7272     7277     7292     7288     7280 
    7306     7339     7317     7263     7250     7269     7271     7261 
    7277     7304     7306     7288     7287     7306     7314     7285 
    7249     7250     7308     7353     7323     7275     7267     7269 
    7265     7268     7277     7292     7308     7296     7271     7268 
    7284     7292     7276     7263     7291     7330     7323     7285 
    7265     7254     7261     7303     7327     7294     7250     7260 
    7290     7288     7276     7269     7263     7269     7296     7314 
    7307     7300     7300     7292     7287     7295     7300     7283 
    7258     7254     7272     7292     7303     7294     7284     7300 
    7310     7285     7267     7276     7273     7263     7275     7299 
    7315     7311     7290     7280     7276     7258     7253     7267 
    7269     7271     7281     7295     7315     7327     7310     7290 
    7290     7291     7272     7234     7215     7250     7325     7372 
    7333     7244     7210     7268     7330     7315     7261     7250 
    7245     7215     7227     7272     7269     7260     7304     7368 
    7419     7430     7354     7218     7161     7254     7339     7260 
    7103     7032     7107     7272     7365     7290     7214     7392 
    7591     7376     6998     6979     7175     7219     7222     7237 
    6901     6440     6751     7715     8310     8392     8316     7932 
    7269     6686     6442     6709     7267     7669     7793     7712 
    7639     7690     7605     7515     7782     7709     6651     5863 
    6646     7813     7416     6100     6106     7325     7888     7800 
    7812     7310     6621     7094     7844     7341     6662     7103 
    7717     7545     7099     7153     7601     7561     6903     6831 
    7593     7762     7126     7192     8043     8166     7245     6589 
    6914     7249     6754     6346     6952     7808     8094     7834 
    6870     5919     6682     8631     9312     8121     6590     6064 
    6548     7118     7296     7433     7623     7477     7082     6975 
    7218     7472     7620     7732     7749     7398     6675     6334 
    6917     7672     7761     7379     6890     6536     6772     7461 
    7700     7391     7530     8128     8113     7477     6907     6597 
    6782     7399     7638     7157     6550     6523     7267     8232 
    8505     7801     6893     6542     6706     7194     7628     7381 
    6897     7207     7897     7688     6650     6376     7538     8633 
    8398     7308     6296     6154     7005     7684     7578     7511 
    7703     7587     7173     6849     6867     7149     7392     7492 
    7302     6866     6886     7481     7830     7919     8122     7514 
    5922     5475     7053     8586     8442     7269     6354     6397 
    7288     8086     8093     7708     7411     7107     6814     6654 
    6632     7017     7843     8249     7661     6898     7002     7690 
    7816     7094     6413     6448     6983     7609     8124     8172 
    7474     6625     6643     7423     7859     7523     6971     6609 
    6593     7160     7902     7975     7597     7528     7495     7065 
    6733     6874     7277     7570     7240     6535     6643     7704 
    8460     8259     7581     6983     6670     6669     6920     7285 
    7535     7457     7101     6907     7258     7852     7987     7442 
    6700     6504     7164     7912     7749     7072     6960     7376 
    7555     7317     7094     7211     7462     7325     6768     6469 
    6868     7568     7917     7886     7763     7433     7069     7236 
    7549     7372     7106     7041     6949     7129     7607     7712 
    7506     7384     7126     6867     6971     7149     7360     7893 
    8230     7739     6961     6924     7569     7732     6997     6394 
    6596     7092     7227     6866     6620     7005     7551     7879 
    8095     8001     7688     7593     7458     6991     6643     6859 
    7349     7307     6621     6311     6912     7620     7740     7553 
    7474     7504     7538     7446     7045     6566     6574     7082 
    7541     7578     7236     6839     6635     6718     7261     7985 
    8158     7800     7720     8010     7832     6953     6223     6431 
    7531     8540     8278     7009     6351     6864     7566     7709 
    7269     6832     7329     8337     8178     6760     5944     6723 
    8019     8190     7068     6269     6925     8004     7973     6928 
    6151     6502     7736     8654     8135     6906     6758     7595 
    7817     7115     6531     6766     7584     8073     7619     6840 
    6751     7267     7607     7604     7403     6983     6872     7319 
    7308     6606     6450     7078     7526     7592     7774     8036 
    7731     6732     6114     6610     7460     7801     7541     7026 
    6932     7468     8023     7982     7246     6536     6781     7672 
    8001     7211     6169     6358     7599     8121     7561     7155 
    7483     8070     7908     6702     5946     6597     7423     7431 
    7173     7198     7520     8120     8384     7452     6278     6652 
    7809     7723     6670     6207     6717     7612     8166     8093 
    7909     8079     8195     7578     6519     6231     6891     7366 
    7391     7461     7468     7496     7728     7516     6837     6729 
    7130     7034     6624     6855     7770     8499     8241     7128 
    6282     6519     7168     7279     7214     7545     7699     7264 
    7068     7464     7572     7246     7084     6967     6885     7231 
    7620     7599     7402     7138     6971     7177     7207     6566 
    6208     7233     8671     8617     7591     7541     8017     7526 
    6542     6026     6118     6878     7776     7811     7134     6786 
    7230     7959     8001     7268     6750     6976     7608     7919 
    7330     6534     6736     7474     7680     7514     7196     6783 
    7006     7956     8572     7983     6547     5915     6994     8252 
    8019     6905     6386     6725     7429     8203     8378     7376 
    6458     6856     7188     6556     6702     7956     8218     7226 
    6610     6716     7238     8120     8376     7686     7311     7352 
    7028     6728     6754     6832     7099     7308     7119     7288 
    8029     8077     7125     6426     6531     6998     7547     7719 
    7176     6822     7335     7751     7454     7298     7711     7946 
    7584     7049     6791     7094     7796     7940     7056     6181 
    6305     7173     8132     8568     8023     7055     6664     6860 
    7169     7360     7211     6843     6837     7329     7746     7582 
    7095     7153     7870     8082     7265     6534     6835     7566 
    7562     6829     6512     7118     7998     8347     7709     6531 
    6147     6856     7479     7483     7315     7207     7238     7372 
    7300     7172     7408     7688     7399     6833     6706     6988 
    7263     7530     7925     8133     7726     7136     7133     7511 
    7659     7385     6816     6534     6913     7412     7457     7105 
    6862     7287     8004     8031     7518     7338     7439     7241 
    6858     6743     6743     6655     6913     7577     8052     8251 
    8208     7499     6426     5961     6339     7051     7589     7677 
    7527     7723     8199     8101     7292     6818     7107     7196 
    6710     6613     7218     7819     8005     7615     6799     6439 
    7047     7948     8090     7172     6245     6477     7402     7981 
    8078     7704     7049     6760     6728     6513     6561     7153 
    7735     7846     7470     7010     7164     7981     8586     8365 
    7574     6822     6478     6471     6705     7115     7325     7080 
    6787     6988     7661     8178     8023     7470     7191     7356 
    7488     7168     6739     6759     7109     7337     7230     6993 
    7288     8245     8626     7565     6253     6258     7233     7782 
    7570     7281     7442     7859     7744     6916     6443     6944 
    7564     7523     7072     6785     7059     7761     8124     7869 
    7661     7705     7366     6655     6270     6319     6511     6880 
    7381     7780     7977     7730     7013     6597     6910     7389 
    7699     7974     8024     7587     6913     6550     6764     7322 
    7758     7743     7227     6539     6304     6839     7636     7979 
    7812     7426     6982     6716     6858     7318     7642     7362 
    6785     6799     7469     7944     7742     7310     7395     7952 
    8101     7453     6637     6478     7068     7485     7195     7132 
    7712     7865     7290     6756     6509     6696     7526     8286 
    8232     7758     7469     7307     7080     6994     7099     6875 
    6303     6203     6928     8025     8765     8461     7404     6837 
    7165     7609     7626     7330     7015     6781     6539     6462 
    6801     7407     7882     7793     7225     7079     7682     8170 
    7894     6988     6052     5906     6637     7632     8521     8880 
    8232     7020     6370     6744     7410     7481     6976     6490 
    6478     6858     7164     7380     7850     8182     7771     7088 
    6937     7246     7326     6835     6319     6478     7125     7589 
    7688     7738     7970     8156     7847     7107     6600     6705 
    7094     7217     7014     7122     7975     8856     8664     7512 
    6623     6644     7026     7040     6691     6532     6934     7631 
    8017     7823     7389     7304     7645     7751     7115     6250 
    6208     7169     8059     8019     7500     7358     7672     7905 
    7654     6988     6308     5965     6056     6347     6536     6829 
    7574     8467     8978     9039     8714     7960     7106     6801 
    7182     7554     7272     6515     5841     5516     5440     5433 
    5664     6594     8155     9455     9829     9633     9508     9501 
    9321     8626     7044     4808     3107     2943     4105     5672 
    7005     7990     8549     8599     8554     8910     9421     9379 
    8515     7460     7096     7330     7171     6200     5413     5900 
    7020     7361     6945     6772     7025     7040     6417     5795 
    6469     8660    10737    10936     9227     7103     5829     5409 
    5495     6039     6658     6783     6574     6831     7970     9292 
    9778     9166     7591     5567     4500     5202     6782     8376 
    9810    10411     9585     7878     6189     5039     4645     4827 
    5356     6264     7325     8058     8336     8392     8459     8546 
    8656     8814     8457     6979     5213     4675     5709     7462 
    8689     8544     7446     6673     6820     7345     7469     7107 
    6894     7180     7578     7816     7909     7624     6914     6357 
    6442     7060     7776     8131     7946     7473     7024     6760 
    6883     7396     7816     7631     6885     5981     5417     5778 
    7088     8437     9177     9558     9629     8934     7408     5679 
    4638     4860     6048     7253     7877     8178     8503     8571 
    7965     6858     5944     5707     6035     6682     7526     8382 
    9117     9400     8815     7784     6972     6318     5773     5618 
    5794     6218     6986     7770     8159     8375     8730     8907 
    8411     7194     5800     5216     5925     7240     8233     8623 
    8506     8085     7627     7214     6701     6147     5965     6220 
    6442     6623     7231     8047     8386     8276     8193     8151 
    7924     7578     7276     6893     6301     5904     6268     7283 
    8244     8505     7831     6677     5937     5891     6122     6596 
    7501     8608     9682    10354     9948     8492     6760     5211 
    4124     4031     4972     6222     7298     8253     8955     9074 
    8634     7938     7275     6874     6683     6455     6426     7199 
    8559     9391     9012     7805     6621     5879     5364     5042 
    5456     6806     8348     9144     8924     8117     7423     7261 
    7373     7283     7125     7311     7649     7655     7277     6767 
    6334     6188     6555     7242     7639     7547     7353     7400 
    7688     7850     7464     6839     6814     7526     8206     8262 
    7842     7473     7538     7780     7388     6168     5104     5152 
    6188     7449     8313     8473     8067     7709     7751     7817 
    7672     7646     7817     7736     7086     6193     5784     6145 
    6856     7350     7334     7082     7196     7719     8039     7816 
    7410     7352     7570     7576     7300     7088     7075     7129 
    7118     6988     6841     6812     6836     6963     7399     7854 
    7889     7896     8251     8212     7304     6399     6262     6809 
    7673     8232     7915     7128     6924     7541     8118     7859 
    6894     6018     5834     6216     6777     7383     7917     8178 
    8201     7992     7346     6613     6644     7381     7928     7892 
    7352     6600     6261     6434     6586     6740     7207     7669 
    7852     8056     8329     8337     8071     7701     7182     6613 
    6269     6224     6470     6856     6997     6971     7229     7692 
    7989     8002     7693     7160     6808     6947     7312     7447 
    7412     7485     7526     7398     7420     7781     8168     8147 
    7560     6744     6170     5980     6211     6816     7439     7782 
    7873     7893     7969     8000     7765     7290     6867     6744 
    6918     7153     7295     7352     7248     6960     6727     6678 
    6786     7190     7882     8359     8209     7659     7145     6791 
    6562     6470     6577     6887     7215     7375     7427     7508 
    7634     7815     8036     8155     7974     7531     7183     7218 
    7427     7420     7221     7002     6754     6563     6616     6890 
    7231     7547     7723     7578     7194     6928     6993     7241 
    7304     7007     6701     6713     6837     6983     7461     8206 
    8692     8656     8253     7780     7447     7200     6899     6654 
    6589     6642     6764     6967     7195     7384     7496     7483 
    7337     7186     7182     7199     7028     6901     7086     7330 
    7477     7666     7704     7427     7137     6939     6694     6667 
    7069     7537     7766     7832     7812     7739     7646     7541 
    7492     7555     7624     7511     7156     6791     6727     6899 
    6998     6903     6783     6839     7067     7260     7292     7253 
    7261     7357     7526     7701     7888     8101     8105     7735 
    7294     7156     7233     7249     7263     7292     7024     6501 
    6261     6523     7079     7658     7943     7840     7619     7468 
    7396     7308     7022     6597     6349     6430     6794     7333 
    7870     8201     8140     7730     7294     7025     6874     6901 
    7160     7393     7327     7094     7079     7387     7682     7658 
    7372     7082     6991     7069     7142     7186     7242     7257 
    7265     7329     7383     7472     7692     7913     7950     7740 
    7310     6821     6505     6469     6686     7078     7470     7751 
    7965     8097     8001     7589     6953     6407     6353     6843 
    7439     7689     7570     7434     7473     7458     7227     7009 
    7055     7299     7434     7279     7047     7080     7415     7784 
    7938     7867     7736     7564     7171     6637     6450     6817 
    7311     7527     7537     7504     7457     7357     7083     6744 
    6752     7090     7195     6930     6679     6627     6789     7218 
    7717     7955     7885     7620     7222     6905     6957     7358 
    7736     7730     7369     7099     7250     7572     7618     7422 
    7295     7217     7068     7053     7206     7191     6982     6872 
