Origin Time       2024/06/23 22:54:00
Lat.              35.645
Long.             140.060
Depth. (km)       72
Mag.              4.1
Station Code      TKY026
Station Lat.      35.6707
Station Long.     139.8633
Station Height(m) -2
Record Time       2024/06/23 22:54:45
Sampling Freq(Hz) 100Hz
Duration Time(s)  60
Dir.              N-S
Scale Factor      7845(gal)/8223790
Max. Acc. (gal)   3.292
Last Correction   2024/06/23 22:54:45
Memo.             
[...]
   11847    11840    11830    11831    11842    11847    11843    11838 
   11840    11844    11839    11838    11842    11844    11840    11831 
   11824    11827    11834    11831    11832    11839    11842    11838 
   11828    11824    11828    11838    11853    11857    11848    11842 
   11838    11839    11847    11842    11831    11840    11853    11850 
   11848    11842    11830    11831    11842    11850    11851    11844 
   11832    11827    11831    11832    11830    11842    11847    11832 
   11828    11844    11843    11831    11834    11843    11839    11830 
   11832    11844    11844    11839    11842    11848    11844    11838 
   11838    11839    11836    11838    11843    11842    11840    11840 
   11835    11827    11828    11831    11838    11847    11847    11842 
   11842    11838    11834    11831    11830    11835    11839    11844 
   11853    11844    11824    11821    11832    11840    11839    11836 
   11844    11842    11830    11834    11836    11831    11836    11842 
   11840    11839    11840    11839    11840    11843    11842    11838 
   11838    11838    11832    11832    11838    11842    11847    11847 
   11836    11834    11843    11842    11844    11854    11846    11830 
   11827    11839    11847    11838    11830    11834    11834    11826 
   11824    11834    11844    11843    11839    11838    11828    11827 
   11838    11840    11840    11840    11832    11834    11844    11853 
   11848    11835    11834    11846    11844    11836    11838    11835 
   11828    11831    11840    11844    11834    11827    11839    11851 
   11842    11828    11832    11842    11848    11847    11843    11839 
   11836    11840    11842    11835    11831    11835    11844    11848 
   11843    11835    11831    11830    11834    11836    11834    11835 
   11838    11832    11836    11839    11832    11831    11838    11840 
   11827    11821    11842    11851    11842    11834    11832    11835 
   11842    11848    11848    11843    11840    11846    11847    11839 
   11836    11843    11846    11843    11843    11840    11840    11848 
   11854    11846    11835    11832    11832    11834    11839    11836 
   11827    11828    11839    11846    11843    11839    11840    11846 
   11847    11850    11854    11847    11842    11844    11848    11846 
   11835    11835    11846    11854    11847    11832    11828    11831 
   11838    11842    11843    11839    11830    11831    11839    11840 
   11844    11853    11855    11850    11843    11835    11835    11840 
   11839    11836    11847    11861    11859    11842    11835    11843 
   11846    11838    11834    11836    11832    11831    11842    11847 
   11838    11830    11838    11847    11842    11836    11834    11830 
   11843    11858    11853    11842    11842    11839    11835    11842 
   11851    11851    11846    11847    11844    11839    11840    11842 
   11846    11851    11843    11836    11840    11840    11840    11843 
   11840    11839    11846    11847    11847    11854    11854    11847 
   11842    11840    11840    11842    11844    11840    11839    11847 
   11847    11839    11836    11848    11863    11857    11843    11844 
   11844    11839    11838    11832    11830    11835    11839    11838 
   11840    11834    11828    11836    11848    11854    11846    11836 
   11832    11828    11835    11847    11844    11842    11846    11838 
   11832    11838    11846    11851    11846    11840    11846    11838 
   11828    11839    11842    11839    11842    11842    11843    11843 
   11836    11832    11835    11843    11847    11835    11823    11831 
   11843    11838    11828    11827    11836    11838    11831    11836 
   11847    11851    11846    11835    11828    11832    11835    11839 
   11846    11844    11835    11830    11831    11836    11835    11824 
   11821    11828    11832    11835    11835    11831    11834    11840 
   11835    11824    11827    11840    11847    11842    11839    11846 
   11847    11838    11835    11842    11847    11848    11850    11848 
   11844    11839    11838    11838    11834    11828    11834    11843 
   11836    11832    11836    11828    11827    11838    11835    11827 
   11836    11851    11853    11842    11835    11838    11840    11839 
   11839    11839    11848    11863    11858    11846    11831    11808 
   11804    11824    11835    11832    11832    11835    11855    11877 
   11857    11838    11859    11875    11861    11839    11832    11839 
   11847    11857    11835    11753    11689    11750    11874    11884 
   11770    11728    11858    12017    12008    11909    11955    12037 
   11913    11718    11669    11712    11697    11658    11763    11915 
   11901    11781    11736    11846    11873    11707    11770    12190 
   12413    12127    11749    11712    11827    11800    11673    11589 
   11689    11797    11681    11658    11928    12224    12202    11854 
   11677    11782    11831    11831    11865    11813    11624    11529 
   11794    12231    12376    12006    11438    11254    11592    12058 
   12280    12271    12155    11889    11533    11398    11662    12025 
   12048    11734    11446    11508    11901    12268    12324    12083 
   11627    11180    11237    11897    12525    12496    11908    11430 
   11492    11878    12154    12074    11780    11646    11755    11867 
   11917    11935    11774    11553    11610    11858    12017    12035 
   11911    11749    11657    11564    11577    11870    12235    12307 
   11993    11643    11726    12150    12341    12027    11481    11132 
   11248    11804    12330    12309    11836    11493    11564    11770 
   11773    11646    11686    11921    12145    12263    12276    12141 
   11867    11584    11454    11589    11853    12006    12059    12027 
   11766    11422    11373    11657    12004    12193    12059    11707 
   11603    11904    12216    12212    11865    11376    11200    11593 
   12213    12487    12217    11724    11466    11538    11736    11943 
   12117    12163    12019    11765    11614    11643    11691    11704 
   11758    11727    11603    11701    12036    12218    12094    11813 
   11628    11789    12166    12274    11962    11570    11402    11516 
   11865    12132    11943    11472    11245    11510    12028    12291 
   12133    11902    11892    12004    12016    11967    11971    11970 
   11925    11848    11780    11811    11866    11772    11537    11346 
   11371    11634    12008    12258    12239    12085    11979    11826 
   11538    11360    11430    11576    11705    11885    12118    12336 
   12456    12349    11962    11557    11450    11584    11804    12093 
   12286    12162    11797    11458    11311    11341    11472    11700 
   12062    12316    12159    11857    11762    11718    11601    11585 
   11703    11877    12160    12422    12347    12001    11658    11385 
   11356    11642    11877    11938    12054    12150    12083    11970 
   11878    11767    11639    11526    11554    11821    12074    11965 
   11650    11572    11757    11897    11908    11908    11961    12066 
   12158    12179    12031    11668    11318    11145    11203    11612 
   12166    12417    12175    11691    11443    11608    11934    12071 
   11989    11947    11973    12069    12286    12305    12015    11688 
   11396    11292    11543    11839    11888    11869    11940    12009 
   12083    12121    11896    11587    11562    11724    11871    11985 
   11967    11865    11885    11863    11553    11325    11545    11947 
   12202    12133    11777    11483    11512    11893    12348    12407 
   12114    11869    11677    11512    11628    11854    11794    11668 
   11740    11905    12136    12279    12019    11581    11435    11510 
   11572    11659    11819    12023    12131    12040    11923    11881 
   11889    11981    11969    11731    11623    11754    11767    11661 
   11757    11958    11996    12047    12158    11989    11719    11726 
   11769    11757    11881    11888    11691    11689    11873    11947 
   11965    11956    11792    11638    11713    11809    11715    11538 
   11479    11713    12087    12162    11951    11888    12079    12228 
   12136    11828    11441    11252    11464    11924    12237    12118 
   11707    11434    11545    11867    12151    12289    12264    12135 
   11946    11692    11454    11307    11325    11632    12078    12334 
   12378    12321    12151    11847    11456    11136    11141    11537 
   11974    12116    12060    11979    11973    12164    12305    12001 
   11481    11306    11520    11809    12032    12051    11824    11707 
   11785    11850    11954    12029    11963    11932    11916    11827 
   11778    11720    11553    11438    11502    11618    11674    11774 
   12079    12451    12455    12063    11730    11639    11712    11867 
   11861    11614    11495    11803    12375    12758    12530    11794 
   11207    11144    11368    11597    11766    11855    11869    11870 
   11846    11774    11773    11873    11938    11944    12047    12240 
   12267    12060    11781    11473    11271    11425    11844    12243 
   12430    12271    11863    11520    11446    11573    11649    11568 
   11514    11692    12042    12334    12442    12340    12097    11826 
   11535    11331    11433    11749    11959    11923    11728    11584 
   11708    12050    12290    12194    11776    11337    11279    11655 
   12116    12306    12114    11700    11398    11464    11789    11989 
   11974    12048    12299    12455    12316    11938    11483    11230 
   11391    11803    12145    12195    11913    11562    11448    11557 
   11645    11577    11556    11774    12077    12213    12167    12108 
   12040    11820    11642    11723    11923    12148    12301    12164 
   11827    11561    11441    11448    11566    11641    11600    11759 
   12205    12503    12430    12066    11566    11327    11537    11788 
   11713    11489    11510    11847    12164    12209    12071    11927 
   11897    11974    11954    11755    11607    11665    11840    12028 
   12124    12048    11920    11846    11735    11538    11380    11429 
   11693    11981    12128    12118    12037    12015    12017    11854 
   11515    11288    11411    11811    12204    12352    12271    12121 
   11911    11601    11375    11450    11678    11709    11651    11835 
   12137    12279    12204    11921    11510    11223    11296    11653 
   12070    12360    12294    11959    11831    11997    12060    11881 
   11745    11848    12044    12108    11892    11481    11259    11376 
   11585    11696    11770    11938    12198    12384    12364    12190 
   11885    11491    11237    11242    11507    11940    12152    12077 
   12112    12266    12235    12031    11842    11685    11516    11430 
   11483    11635    11843    11977    11932    11815    11712    11638 
   11711    11863    11838    11742    11870    12082    12171    12237 
   12189    11869    11545    11477    11561    11642    11647    11566 
   11507    11568    11750    11965    12135    12333    12475    12320 
   12029    11905    11873    11807    11718    11561    11411    11504 
   11855    12278    12592    12560    12132    11627    11323    11230 
   11322    11589    11790    11770    11835    12083    12164    11997 
   11765    11585    11618    11875    12121    12235    12221    11971 
   11642    11658    11971    12136    12058    11932    11765    11535 
   11452    11584    11757    11867    11877    11792    11799    11935 
   11961    11813    11691    11662    11614    11543    11547    11670 
   11862    11988    12017    12089    12289    12459    12302    11843 
   11470    11360    11362    11458    11732    12013    12064    11969 
   11962    12083    12185    12159    11998    11739    11493    11431 
   11650    12008    12212    12141    11947    11786    11682    11619 
   11561    11530    11628    11790    11801    11708    11730    11898 
   12135    12333    12297    11992    11638    11445    11489    11713 
   11981    12175    12220    12070    11736    11373    11248    11430 
   11747    12062    12287    12330    12220    12055    11882    11799 
   11886    12016    12023    11908    11728    11539    11421    11410 
   11511    11731    12027    12282    12394    12407    12414    12390 
   12307    12217    12071    11807    11524    11298    11132    11090 
   11130    11199    11430    11855    12259    12353    12010    11425 
   11007    10947    11070    11196    11314    11439    11583    11689 
   11686    11493    11079    10702    10696    11088    11651    12071 
   12217    12160    12025    11886    11786    11902    12417    13185 
   13851    14138    14077    13934    13768    13316    12437    11299 
   10260     9846    10417    11707    13111    14166    14625    14472 
   13891    13011    11853    10617     9771     9691    10346    11253 
   11765    11766    11736    11878    11894    11626    11288    11322 
   11928    12556    12391    11431    10523    10231    10378    10679 
   10948    10975    10864    10898    11016    11111    11337    11650 
   11898    12253    12773    13047    12683    11894    11380    11522 
   11767    11383    10621    10347    10822    11718    12625    13116 
   12919    12135    11164    10585    10858    11835    12870    13483 
   13576    13243    12754    12456    12456    12553    12533    12388 
   12222    11992    11443    10547     9747     9463     9693    10260 
   11129    12361    13813    14978    15291    14623    13319    11927 
   10926    10482    10493    10832    11318    11727    12001    12201 
   12247    12090    11948    12016    12202    12321    12218    11858 
   11449    11199    11091    11117    11254    11414    11704    12213 
   12702    12885    12642    12043    11333    10736    10494    10929 
   12043    13213    13724    13405    12548    11539    10613     9848 
    9386     9375     9775    10512    11649    13089    14353    14953 
   14715    13724    12221    10567     9267     8803     9297    10484 
   11831    12872    13466    13567    13171    12529    11878    11192 
   10459     9873     9742    10320    11493    12657    13262    13355 
   13321    13342    13392    13279    12629    11468    10481    10255 
   10737    11434    11939    12240    12576    13032    13394    13431 
   13155    12685    12015    11114    10269     9981    10350    11025 
   11786    12575    13135    13088    12359    11291    10315     9759 
    9850    10570    11558    12333    12618    12611    12722    13014 
   13174    12927    12297    11562    11055    10925    11060    11342 
   11734    12019    11988    11681    11187    10687    10488    10744 
   11394    12214    12931    13423    13726    13830    13545    12816 
   11985    11466    11399    11556    11472    10966    10420    10339 
   10871    11727    12428    12731    12766    12711    12503    12056 
   11574    11329    11338    11506    11724    11847    11834    11724 
   11476    11107    10886    11016    11392    11826    12114    12144 
   12113    12206    12301    12349    12398    12314    11993    11423 
   10696    10152    10080    10374    10794    11354    12155    13014 
   13563    13594    13163    12536    11955    11484    11275    11495 
   11859    12020    12089    12251    12519    12864    13149    13196 
   12903    12276    11508    10943    10894    11311    11716    11720 
   11403    11207    11531    12298    13020    13248    12835    11963 
   10941     9992     9277     9076     9648    10771    11894    12725 
   13204    13346    13325    13258    12987    12474    12046    11931 
   11994    12040    11936    11596    11184    10998    11075    11240 
   11396    11554    11773    11993    12004    11754    11466    11381 
   11572    12012    12523    12793    12685    12274    11704    11215 
   11030    11188    11538    11769    11684    11506    11666    12222 
   12729    12712    12187    11677    11659    12110    12600    12784 
   12607    12217    11907    11828    11827    11801    11780    11711 
   11570    11457    11435    11441    11372    11264    11230    11265 
   11333    11480    11653    11641    11421    11288    11443    11782 
   12163    12491    12665    12623    12302    11699    11044    10633 
   10561    10847    11496    12374    13216    13729    13676    13104 
   12406    11993    11927    11958    11882    11743    11646    11628 
   11703    11843    12000    12125    12129    11932    11583    11198 
   10882    10797    10982    11203    11288    11371    11614    12019 
   12537    13073    13401    13323    12856    12139    11385    10849 
   10682    10821    11059    11211    11242    11229    11233    11267 
   11415    11836    12509    13154    13595    13857    13891    13624 
   13105    12428    11746    11129    10478     9852     9548     9703 
   10164    10727    11272    11731    12069    12279    12372    12347 
   12213    12017    11896    11936    11992    11955    11924    11994 
   12213    12532    12784    12791    12384    11537    10613    10195 
   10509    11281    12097    12725    13174    13497    13562    13159 
   12325    11384    10675    10327    10336    10648    11080    11429 
   11695    11925    12051    12063    11989    11848    11808    12019 
   12379    12629    12530    12108    11655    11496    11736    12174 
   12506    12555    12314    12004    11855    11786    11603    11371 
   11277    11396    11751    12247    12559    12414    11875    11287 
   10971    10994    11259    11632    11992    12245    12345    12316 
   12236    12117    11928    11647    11269    10913    10816    11087 
   11605    12193    12683    12924    12938    12812    12515    12032 
   11511    11121    10970    11102    11403    11596    11535    11383 
   11376    11588    11905    12128    12143    12023    11874    11673 
   11394    11141    11075    11279    11622    11865    11886    11747 
   11604    11576    11704    12023    12487    12964    13367    13655 
   13756    13601    13142    12455    11747    11192    10848    10727 
   10832    11132    11553    11955    12168    12096    11797    11466 
   11260    11206    11257    11311    11287    11210    11165    11254 
   11574    12097    12596    12847    12781    12484    12117    11769 
   11385    10945    10596    10512    10669    10901    11173    11595 
   12217    12910    13392    13421    13090    12684    12375    12259 
   12325    12372    12229    11943    11624    11294    10949    10732 
   10848    11348    12046    12619    12810    12627    12341    12168 
   12106    12029    11794    11381    11028    10952    11101    11376 
   11751    12162    12506    12658    12538    12216    11854    11596 
   11511    11573    11711    11904    12171    12438    12521    12295 
   11877    11581    11608    11839    11992    11915    11666    11340 
   10994    10812    10955    11348    11796    12118    12241    12251 
   12202    12069    11909    11823    11824    11881    11924    11880 
   11807    11820    11919    12016    12029    11854    11458    10959 
   10515    10289    10443    10943    11557    12096    12424    12491 
   12432    12359    12294    12316    12433    12567    12688    12737 
   12594    12262    11931    11749    11684    11682    11731    11772 
