Origin Time       2024/06/23 22:54:00
Lat.              35.645
Long.             140.060
Depth. (km)       72
Mag.              4.1
Station Code      TKY026
Station Lat.      35.6707
Station Long.     139.8633
Station Height(m) -2
Record Time       2024/06/23 22:54:45
Sampling Freq(Hz) 100Hz
Duration Time(s)  60
Dir.              U-D
Scale Factor      7845(gal)/8223790
Max. Acc. (gal)   1.820
Last Correction   2024/06/23 22:54:45
Memo.             
[...]
   18671    18667    18665    18658    18659    18669    18673    18667 
   18663    18663    18661    18657    18655    18655    18658    18662 
   18659    18655    18655    18658    18665    18673    18674    18669 
   18662    18665    18673    18673    18666    18663    18669    18675 
   18675    18673    18673    18675    18675    18674    18677    18677 
   18670    18666    18669    18671    18667    18662    18663    18665 
   18666    18667    18666    18671    18674    18669    18662    18651 
   18644    18654    18669    18678    18679    18674    18670    18666 
   18658    18657    18666    18674    18677    18682    18682    18671 
   18663    18666    18673    18678    18675    18662    18651    18658 
   18667    18666    18669    18673    18671    18671    18670    18666 
   18666    18669    18679    18686    18679    18671    18665    18661 
   18662    18663    18667    18675    18673    18663    18659    18662 
   18670    18674    18671    18670    18669    18666    18670    18677 
   18679    18681    18684    18686    18679    18670    18671    18679 
   18679    18671    18662    18657    18650    18648    18657    18663 
   18665    18662    18667    18677    18681    18671    18657    18652 
   18658    18666    18671    18677    18682    18685    18685    18685 
   18682    18675    18675    18677    18671    18662    18659    18665 
   18673    18684    18686    18684    18685    18682    18673    18666 
   18667    18670    18669    18666    18662    18661    18669    18677 
   18678    18674    18665    18663    18665    18665    18670    18681 
   18684    18679    18675    18670    18669    18671    18673    18674 
   18675    18674    18666    18661    18665    18673    18675    18670 
   18666    18669    18673    18670    18665    18663    18663    18665 
   18675    18681    18669    18658    18663    18673    18681    18679 
   18673    18669    18669    18674    18675    18669    18661    18662 
   18669    18674    18677    18681    18684    18677    18669    18666 
   18669    18671    18671    18674    18675    18675    18679    18677 
   18669    18661    18650    18646    18658    18675    18686    18682 
   18670    18666    18670    18677    18675    18670    18671    18678 
   18675    18669    18671    18679    18678    18666    18663    18671 
   18675    18677    18674    18663    18655    18658    18659    18659 
   18669    18675    18675    18674    18670    18663    18666    18669 
   18670    18678    18684    18682    18675    18667    18659    18658 
   18663    18669    18670    18670    18674    18674    18671    18671 
   18673    18675    18675    18669    18667    18669    18669    18669 
   18666    18661    18659    18661    18661    18665    18670    18673 
   18671    18671    18674    18670    18661    18661    18662    18658 
   18661    18670    18674    18675    18678    18682    18684    18684 
   18681    18669    18658    18657    18662    18665    18669    18671 
   18670    18671    18681    18678    18663    18661    18667    18665 
   18661    18663    18670    18670    18666    18665    18662    18658 
   18663    18667    18663    18665    18667    18666    18669    18671 
   18669    18670    18673    18671    18671    18674    18677    18679 
   18678    18675    18674    18674    18670    18670    18667    18657 
   18648    18652    18654    18650    18650    18661    18678    18679 
   18665    18658    18666    18675    18679    18669    18657    18659 
   18669    18673    18667    18658    18661    18674    18685    18685 
   18678    18671    18666    18662    18662    18665    18663    18663 
   18669    18669    18662    18654    18657    18673    18685    18682 
   18677    18670    18667    18666    18665    18663    18665    18665 
   18662    18659    18661    18666    18667    18667    18667    18666 
   18665    18673    18684    18677    18659    18650    18648    18648 
   18657    18670    18684    18694    18689    18674    18669    18678 
   18681    18670    18661    18661    18674    18685    18685    18675 
   18666    18659    18657    18655    18665    18677    18674    18665 
   18662    18661    18661    18662    18665    18673    18677    18673 
   18662    18655    18655    18663    18673    18677    18673    18665 
   18661    18662    18667    18679    18689    18688    18675    18663 
   18666    18675    18675    18673    18671    18667    18667    18670 
   18677    18688    18693    18693    18697    18709    18727    18755 
   18790    18801    18756    18654    18558    18531    18536    18539 
   18554    18571    18594    18616    18592    18569    18625    18696 
   18686    18657    18716    18844    18939    19013    19009    18692 
   18161    17999    18419    18812    18631    18162    18050    18395 
   18708    18924    19518    20159    19862    18736    17976    18138 
   18590    18864    19245    19526    18986    17892    17460    18142 
   18762    18324    17791    18315    19130    19057    18667    19021 
   19460    18839    17652    17282    18073    19009    19272    19072 
   18840    18928    19264    19395    19314    19002    18360    17963 
   18369    19133    19299    18688    18014    17810    17968    18283 
   18860    19568    19791    19226    18229    17524    17624    18268 
   18702    18638    18499    18732    19425    20109    19932    18832 
   17833    17582    17767    18126    18738    19407    19639    19263 
   18794    18607    18360    18007    17991    18399    18954    19222 
   18967    18604    18465    18227    17859    17880    18446    19180 
   19633    19695    19641    19380    18609    17886    17906    18233 
   18188    17963    18218    19110    19789    19460    18619    18264 
   18473    18643    18561    18497    18585    18723    18829    18881 
   18782    18532    18422    18598    18701    18538    18539    18877 
   19028    18692    18247    18206    18716    19363    19573    19291 
   18790    18304    18076    18175    18450    18759    18797    18338 
   17992    18454    19168    19194    18702    18422    18558    18868 
   19114    19117    18743    18250    18200    18639    18998    18963 
   18706    18393    18135    18119    18342    18701    19067    19156 
   18949    18793    18763    18731    18679    18472    18134    18111 
   18486    18871    19120    19184    19018    18805    18696    18682 
   18711    18723    18728    18747    18766    18697    18470    18146 
   17841    17791    18215    18847    19206    19232    19221    19321 
   19305    18952    18484    18253    18247    18261    18328    18582 
   18932    19075    18855    18581    18561    18639    18636    18601 
   18499    18351    18463    18874    19091    18885    18679    18793 
   18887    18651    18341    18235    18314    18501    18652    18711 
   18878    19155    19306    19219    18924    18620    18469    18274 
   17984    17987    18399    18854    19188    19354    19076    18512 
   18310    18550    18736    18728    18709    18677    18688    18781 
   18643    18210    17942    18260    19151    19893    19660    18733 
   17959    17591    17566    17872    18488    19261    19786    19743 
   19332    18963    18705    18297    17693    17304    17494    18131 
   18796    19124    19167    19255    19394    19423    19192    18725 
   18473    18530    18507    18312    18122    18112    18320    18562 
   18801    19217    19676    19662    19148    18654    18322    18134 
   18130    18013    17817    18031    18723    19545    19953    19440 
   18408    17928    18266    18733    18967    19063    18937    18640 
   18509    18694    19037    19236    19051    18519    18034    17984 
   18323    18711    18777    18581    18567    18809    19084    19105 
   18665    18310    18474    18504    18176    18157    18430    18570 
   18738    18943    18873    18615    18405    18318    18403    18554 
   18612    18624    18709    18968    19284    19202    18793    18658 
   18609    18330    18477    19103    19245    18848    18524    18307 
   18245    18555    18886    18816    18625    18661    18604    18324 
   18311    18522    18403    18126    18268    18785    19117    19049 
   19090    19511    19699    19287    18696    18258    17971    17968 
   18396    19029    19456    19349    18743    18252    18368    18665 
   18566    18354    18499    18823    18979    18890    18604    18249 
   18131    18513    19041    19039    18580    18345    18420    18408 
   18430    18770    19098    19035    18701    18463    18580    18832 
   18874    18887    19049    19035    18647    18094    17743    17910 
   18516    18995    18983    18774    18673    18777    19174    19340 
   18701    17892    17802    18296    18839    19201    19265    19001 
   18650    18447    18435    18597    18731    18705    18712    18817 
   18960    18971    18627    18195    18058    18084    18195    18617 
   19249    19645    19575    19118    18597    18243    17960    17990 
   18669    19306    19191    18816    18778    18895    18756    18277 
   17856    17813    17909    18079    18636    19356    19627    19287 
   18706    18419    18598    18928    19076    18883    18351    17988 
   18345    19070    19506    19500    19048    18441    18300    18667 
   19016    18963    18584    18330    18316    18154    17814    17632 
   17783    18315    19039    19553    19626    19363    19084    18945 
   18709    18231    17828    17813    18198    18924    19722    20001 
   19468    18600    17980    17625    17462    17679    18252    18851 
   19267    19488    19445    19053    18554    18288    18300    18544 
   18958    19333    19533    19426    18947    18403    18026    17743 
   17763    18289    18870    19066    19060    19190    19460    19539 
   19259    18798    18204    17644    17643    18203    18644    18601 
   18392    18300    18237    18341    18760    19128    19233    19194 
   19045    18955    18878    18584    18270    18106    18023    18264 
   18951    19514    19396    18948    18801    18833    18605    18273 
   18222    18435    18820    19268    19305    18696    18079    18138 
   18517    18550    18458    18717    19125    19276    19078    18636 
   18218    18085    18192    18285    18288    18446    18893    19251 
   19233    18971    18620    18354    18289    18328    18445    18582 
   18604    18665    18936    19215    19329    19350    19307    19079 
   18593    18022    17643    17577    17886    18530    19089    19210 
   19055    18823    18646    18770    19063    19022    18617    18370 
   18477    18616    18671    18690    18515    18198    18161    18635 
   19323    19737    19645    19229    18823    18496    18149    17859 
   17782    17883    17984    18129    18612    19327    19737    19634 
   19191    18582    18149    18227    18550    18736    18882    18941 
   18782    18619    18522    18509    18766    19072    19049    18783 
   18628    18767    18967    18843    18432    18087    18040    18355 
   18866    19225    19155    18657    18215    18314    18597    18577 
   18513    18613    18561    18310    18334    18855    19371    19398 
   19055    18466    17752    17483    17805    18096    18261    18702 
   19178    19179    18852    18731    18981    19156    18920    18620 
   18563    18472    18261    18276    18516    18721    18913    19144 
   19337    19422    19379    19168    18747    18404    18426    18567 
   18662    18731    18588    18364    18469    18855    19160    19111 
   18617    18080    18036    18355    18652    18943    19332    19587 
   19346    18704    18063    17586    17446    17848    18504    18952 
   19052    18847    18523    18353    18404    18550    18700    18825 
   18882    18823    18736    18827    19008    18932    18604    18308 
   18207    18354    18607    18771    18993    19387    19589    19337 
   18925    18704    18598    18434    18354    18466    18511    18328 
   18104    18004    18044    18254    18708    19313    19734    19670 
   19124    18366    17776    17624    17894    18364    18823    19118 
   19137    18941    18789    18858    19028    19126    19157    19111 
   18825    18399    18223    18308    18380    18454    18625    18794 
   18893    19008    19156    19132    18814    18462    18280    18087 
   17851    17829    18091    18546    19090    19473    19510    19245 
   18794    18376    18193    18246    18451    18646    18685    18634 
   18507    18250    18060    18129    18438    18935    19383    19491 
   19305    19014    18832    18931    19098    19075    18959    18774 
   18439    18158    18067    18022    18112    18473    18851    18997 
   18894    18681    18551    18509    18534    18650    18701    18644 
   18666    18736    18715    18634    18499    18384    18534    18840 
   18940    18889    19002    19309    19396    18956    18428    18339 
   18432    18404    18511    18836    19005    18951    18983    19062 
   18837    18334    17917    17736    17694    17825    18169    18565 
   18939    19259    19371    19256    19009    18724    18573    18588 
   18673    18852    19010    18905    18616    18480    18612    18796 
   18854    18802    18648    18461    18416    18504    18621    18752 
   18828    18817    18759    18592    18307    18058    17957    18071 
   18389    18678    18781    18871    19078    19269    19333    19157 
   18617    17928    17545    17602    17829    18090    18476    19010 
   19645    20256    20578    20386    19676    18748    18161    18233 
   18671    18917    18731    18324    18052    18053    18175    18273 
   18427    18719    19003    19022    18754    18500    18461    18441 
   18184    17813    17679    17996    18682    19323    19565    19541 
   19440    19098    18503    18049    18004    18291    18723    19125 
   19390    19516    19454    19083    18469    17847    17477    17683 
   18422    19068    19187    18873    18449    18227    18191    18196 
   18337    18605    18760    18758    18752    18778    18840    18939 
   19006    19094    19288    19535    19637    19365    18824    18323 
   17936    17670    17579    17610    17729    18023    18554    19230 
   19832    20097    19948    19553    19017    18368    17894    17880 
   18230    18743    19249    19457    19249    18902    18685    18581 
   18455    18208    17815    17440    17335    17524    17922    18511 
   19124    19502    19606    19562    19511    19479    19264    18728 
   18104    17667    17493    17622    17963    18316    18639    18945 
   19225    19492    19595    19280    18604    17965    17729    17896 
   18258    18712    19136    19373    19469    19479    19352    19153 
   18991    18922    18917    18837    18709    18777    19024    19121 
   19012    18905    18796    18520    18115    17828    17820    17919 
   17886    17830    17984    18327    18732    19045    19113    18959 
   18729    18535    18395    18258    18142    18145    18380    18863 
   19403    19782    19926    19703    19068    18351    17930    17903 
   18185    18580    18856    18948    18985    19032    18962    18740 
   18558    18492    18426    18331    18229    18100    18041    18129 
   18312    18619    19070    19558    19971    20038    19580    18991 
   18669    18472    18252    18050    17859    17755    17934    18432 
   19066    19607    19843    19615    18989    18225    17558    17196 
   17315    17841    18544    19230    19672    19781    19693    19464 
   19091    18658    18287    18161    18284    18403    18341    18164 
   18133    18396    18733    18927    18981    18909    18765    18663 
   18621    18639    18662    18527    18343    18454    18787    19020 
   19188    19364    19317    18914    18288    17643    17258    17440 
   18181    19009    19527    19742    19788    19732    19499    19002 
   18415    17961    17733    17820    18158    18544    18855    18975 
   18841    18562    18338    18382    18736    19068    19018    18686 
   18504    18624    18804    18858    18766    18549    18365    18408 
   18623    18820    18922    18960    18983    19052    19192    19353 
   19408    19194    18712    18231    17982    17942    18019    18115 
   18102    17973    17832    17722    17671    17783    18196    18886 
   19504    19728    19669    19562    19395    19079    18713    18427 
   18266    18327    18628    18943    19041    18935    18825    18824 
   18846    18844    18875    18891    18828    18743    18705    18751 
   18860    18905    18851    18785    18690    18620    18688    18711 
   18469    18090    17814    17794    18030    18327    18501    18566 
   18628    18704    18743    18721    18669    18625    18585    18517 
   18496    18578    18679    18742    18823    18928    18983    18959 
   18901    18841    18779    18819    19055    19279    19287    19251 
   19286    19211    18987    18692    18323    17998    17898    18018 
   18215    18299    18196    18139    18342    18694    19022    19226 
   19182    18928    18679    18536    18445    18407    18447    18462 
   18364    18246    18229    18327    18477    18550    18557    18631 
   18739    18789    18820    18859    18909    18967    19067    19317 
   19573    19491    19136    18920    18959    19056    19048    18893 
   18584    18141    17766    17676    17795    17992    18312    18659 
   18854    18878    18733    18466    18273    18237    18262    18355 
   18593    18944    19269    19407    19327    19129    18868    18590 
   18377    18256    18234    18350    18589    18797    18775    18573 
   18455    18453    18396    18331    18389    18512    18678    18928 
   19205    19413    19475    19422    19383    19342    19221    19014 
   18727    18414    18191    18149    18292    18472    18563    18627 
   18715    18755    18732    18698    18681    18717    18781    18785 
   18715    18588    18418    18291    18307    18442    18592    18661 
   18644    18619    18615    18605    18584    18557    18553    18590 
   18593    18509    18427    18445    18582    18820    19070    19224 
   19233    19097    18867    18650    18489    18418    18503    18690 
   18805    18738    18554    18397    18304    18189    18045    18027 
   18253    18619    18909    19009    18978    18922    18852    18720 
   18551    18374    18216    18199    18392    18681    18932    19051 
   19048    19048    19064    19032    19021    19064    19053    18968 
   18906    18840    18670    18503    18571    18854    19063    19068 
   18948    18709    18342    17944    17604    17409    17478    17857 
   18504    19230    19727    19854    19738    19549    19356    19130 
   18901    18740    18555    18301    18191    18300    18388    18337 
   18276    18246    18203    18107    17988    18014    18230    18454 
   18620    18783    18944    19086    19132    19041    18945    18909 
   18877    18827    18731    18593    18519    18576    18666    18671 
   18600    18540    18565    18648    18713    18750    18831    18995 
   19168    19209    19102    18956    18829    18752    18736    18735 
   18744    18738    18623    18455    18316    18177    18166    18400 
   18644    18673    18531    18320    18179    18257    18543    18912 
   19163    19129    18931    18774    18646    18566    18640    18767 
