Origin Time       2024/06/23 22:54:00
Lat.              35.645
Long.             140.060
Depth. (km)       72
Mag.              4.1
Station Code      TKY005
Station Lat.      35.5798
Station Long.     139.4137
Station Height(m) 106
Record Time       2024/06/23 22:54:49
Sampling Freq(Hz) 100Hz
Duration Time(s)  60
Dir.              U-D
Scale Factor      7845(gal)/8223790
Max. Acc. (gal)   2.987
Last Correction   2024/06/23 22:54:49
Memo.             
    -465     -457     -444     -437     -444     -456     -464     -457 
    -441     -436     -453     -464     -457     -452     -448     -442 
    -446     -453     -450     -449     -456     -459     -452     -445 
    -442     -445     -452     -454     -450     -448     -449     -449 
    -453     -459     -450     -438     -448     -465     -465     -446 
    -430     -446     -467     -456     -446     -456     -456     -446 
    -445     -449     -459     -463     -449     -444     -450     -448 
    -448     -457     -460     -454     -444     -440     -452     -460 
    -454     -448     -448     -449     -450     -453     -456     -452 
    -444     -449     -456     -453     -453     -454     -448     -445 
    -452     -457     -454     -452     -448     -441     -449     -463 
    -460     -450     -444     -442     -450     -457     -454     -453 
    -454     -452     -445     -448     -456     -457     -452     -446 
    -448     -459     -465     -454     -442     -446     -457     -460 
    -457     -453     -450     -449     -445     -444     -452     -459 
    -460     -459     -452     -449     -453     -454     -453     -453 
    -449     -449     -453     -457     -456     -453     -456     -459 
    -453     -448     -448     -452     -460     -454     -445     -452 
    -464     -465     -459     -446     -444     -448     -454     -459 
    -453     -445     -446     -452     -454     -453     -450     -453 
    -456     -453     -448     -446     -454     -461     -457     -444 
    -440     -454     -464     -456     -448     -450     -454     -454 
    -453     -449     -454     -454     -442     -445     -463     -465 
    -450     -438     -440     -449     -460     -467     -463     -452 
    -448     -444     -445     -457     -461     -456     -454     -450 
    -452     -457     -450     -449     -456     -453     -452     -456 
    -448     -442     -454     -465     -457     -448     -449     -453 
    -450     -450     -449     -450     -463     -467     -453     -444 
    -442     -446     -460     -457     -445     -453     -461     -454 
    -445     -445     -457     -465     -457     -453     -457     -450 
    -437     -441     -465     -473     -448     -437     -448     -450 
    -457     -461     -448     -440     -448     -460     -467     -457 
    -448     -452     -459     -456     -446     -445     -457     -459 
    -449     -444     -449     -457     -463     -454     -444     -449 
    -456     -452     -453     -449     -445     -453     -457     -456 
    -453     -448     -449     -449     -448     -461     -465     -454 
    -449     -448     -449     -445     -438     -454     -469     -456 
    -442     -445     -452     -454     -449     -446     -454     -454 
    -448     -452     -456     -453     -444     -442     -453     -461 
    -459     -452     -446     -446     -453     -454     -453     -452 
    -446     -446     -452     -453     -452     -457     -453     -446 
    -445     -446     -449     -454     -454     -452     -454     -457 
    -452     -450     -454     -450     -452     -464     -463     -440 
    -427     -452     -473     -457     -436     -445     -465     -460 
    -441     -446     -459     -452     -444     -454     -460     -452 
    -446     -448     -453     -460     -456     -446     -444     -449 
    -452     -453     -457     -454     -449     -453     -453     -446 
    -446     -450     -453     -456     -454     -452     -453     -453 
    -450     -450     -450     -449     -450     -454     -453     -454 
    -456     -453     -449     -444     -442     -450     -460     -456 
    -449     -449     -449     -448     -453     -459     -454     -448 
    -445     -449     -459     -459     -452     -450     -453     -450 
    -444     -444     -456     -463     -454     -449     -452     -453 
    -452     -448     -448     -453     -454     -456     -457     -452 
    -445     -446     -449     -450     -454     -454     -450     -446 
    -446     -456     -464     -456     -444     -445     -457     -448 
    -436     -456     -476     -453     -432     -441     -456     -457 
    -452     -449     -452     -450     -450     -453     -457     -454 
    -449     -448     -453     -454     -453     -454     -452     -445 
    -446     -453     -461     -460     -448     -449     -465     -469 
    -467     -481     -500     -517     -527     -503     -454     -423 
    -422     -445     -476     -487     -433     -353     -365     -445 
    -480     -506     -556     -564     -576     -646     -610     -376 
    -155     -130     -167     -135     -172     -369     -629     -855 
    -992     -954     -723     -565     -908    -1510    -1394     -390 
     483      511      -16       54     1057      994     -631    -1044 
      99      259     -830    -1746    -1752     -984     -585     -988 
   -1116     -291      877     1097      284      225     1301     1575 
     301    -1247    -1912    -1740    -1595    -1804    -2069    -2191 
   -1547     -355     -535    -1761    -1074     1525     2679      977 
    -928     -195     1726     1113    -1833    -2808     -507     1062 
    -575    -2597    -1849      338      533    -1418    -2482     -992 
    1248     1208     -666     -873      495      271    -1107    -1009 
     180      398     -522    -1177    -1221    -1185     -612      206 
    -190    -1038     -972     -831     -729       68      757      741 
     324     -506    -1323    -1197     -318      -78     -600     -506 
    -248    -1108    -1752    -1084     -290      201      429     -168 
    -738     -295      140     -195     -540     -460     -598    -1274 
   -1564     -695      618      985     -263    -1822    -1458      341 
     841     -329     -869     -106      -55    -1337    -1836     -703 
     372      166     -932    -1776    -1146      627     1298      109 
    -901     -641     -287     -453     -480     -292     -471     -888 
   -1109    -1291    -1327     -569      689      973     -120     -857 
    -267      216     -396    -1109     -749      276      268    -1117 
   -2081    -1516     -330      -12     -700     -803      243      589 
    -481    -1001     -126      356     -294     -760     -653     -467 
    -183     -298     -972    -1039     -378     -187     -545     -521 
     -33      124     -380    -1003    -1015     -411        8     -256 
    -810     -938     -450      -81     -357     -626     -384     -243 
    -656    -1004     -615       93       16     -976    -1347     -224 
     652     -287    -1467     -862      454      383     -707    -1131 
    -561       27     -179     -749     -683     -159     -149     -866 
   -1513    -1051      163      433     -610    -1382     -702      438 
     245     -774     -691      199      166     -692     -878     -205 
      63     -459     -873     -718     -282     -164     -855    -1493 
    -861      220      234     -587     -994     -450      195     -168 
   -1005     -884       60      423     -305    -1220    -1182     -209 
     309     -437    -1286     -958      -91      -44     -716     -931 
    -317      306      162     -468     -768     -572     -292     -220 
    -279     -221     -226     -648    -1074     -997     -789     -766 
    -499      -27      -99     -602     -661     -321     -202     -249 
    -245     -326     -298       51      156     -471    -1269    -1381 
    -878     -564     -746     -861     -477       10      143     -187 
    -857    -1043     -151      576      -52     -839     -357      419 
    -164    -1553    -1821     -774      106      182     -112     -427 
    -545     -392     -297     -494     -614     -182      298      -10 
    -664     -719     -387     -422     -982    -1448    -1039     -171 
      27     -410     -743     -758     -585     -346     -118     -137 
    -338      -98      179     -490    -1296     -994     -140      113 
    -351     -738     -630     -454     -535     -854     -930     -348 
     -68     -676     -885     -301     -114     -553     -800     -550 
    -260     -359     -649     -734     -542     -302     -326     -398 
     -98       63     -460     -943     -603      112      241     -411 
    -878     -500     -110     -365     -643     -502     -193      -32 
    -298     -845     -974     -440        6     -342    -1051    -1139 
    -365      449      213     -858    -1212     -479      -28     -349 
    -621     -548     -436     -423     -611     -927     -957     -656 
    -353       -5      214     -276     -936     -791     -423     -614 
    -656       75      687      128     -926    -1112     -553     -232 
    -386     -716     -977     -907     -388        0     -429     -996 
    -673     -112     -197     -486     -427     -117       35     -186 
    -465     -596     -581     -441     -522     -908    -1119     -916 
    -477      -16      175     -193     -788     -815     -322     -139 
    -337     -270       18       -6     -423     -934    -1121     -854 
    -631     -733     -639      -18      379     -244    -1155    -1279 
    -847     -175      634      683     -315    -1138     -846     -124 
    -386    -1256    -1008      -83       29     -287     -526     -764 
    -503      -17     -218     -789     -819     -337     -140     -405 
    -471     -291     -375     -681     -846     -607     -143       -5 
    -203     -349     -452     -596     -608     -421     -356     -579 
    -772     -862     -762      -48      718      294    -1085    -1594 
    -399      853      491     -741    -1101     -425     -159     -899 
   -1545    -1302     -445      147     -317     -985     -579       90 
     -95     -820    -1328     -776      567      842     -332     -999 
    -322      135     -518    -1008     -572      -70      -62     -390 
    -793    -1034    -1127     -997     -567     -171       27       74 
    -268     -977    -1348     -814       47      217     -103     -106 
    -137     -861    -1479     -774      576      639     -733    -1644 
   -1100      -87      234     -203     -621     -468     -132     -113 
    -379     -758     -966     -735     -324     -334     -799     -947 
    -598     -507     -675     -491     -209     -171      -89       86 
     124      -83     -523     -847     -712     -329     -163     -415 
    -712     -658     -608     -843     -735     -199     -395    -1144 
    -642      658      506     -757    -1061     -406     -202     -454 
    -417     -476     -857     -808     -472     -545     -722     -499 
    -205     -594    -1293     -801      523      791      103     -313 
    -403     -481     -637     -700     -372      -51     -232     -710 
   -1102     -939     -329     -322     -942    -1061     -610     -271 
      56      423      147     -801    -1367     -955     -205      170 
      -5     -724    -1146     -465      176     -176     -599     -662 
    -824     -864     -399       70     -214     -734     -422      147 
     -18     -506     -764     -787     -689     -688     -654     -395 
    -205     -298     -648    -1020     -864      -89      400     -202 
   -1084     -822       39       99     -378     -583     -465     -270 
    -315     -557     -623     -527     -422     -523     -861     -750 
    -186     -166     -654     -785     -406      -22     -156     -615 
    -815     -734     -467     -124     -190     -537     -494     -221 
    -280     -585     -679     -483     -438     -534     -257        1 
    -306     -549     -373     -297     -453     -600     -642     -684 
    -687     -371     -184     -685    -1028     -508       17     -155 
    -562     -692     -637     -465     -117       45     -243     -648 
    -801     -588     -202      -64     -278     -612     -853     -849 
    -599     -282     -224     -581     -901     -649     -109       83 
    -121     -425     -712     -939     -866     -372       -9     -261 
    -583     -425     -174     -324     -760     -861     -427     -170 
    -360     -342      -31     -113     -630     -889     -665     -314 
    -125     -230     -576     -781     -546     -211     -392     -904 
    -899     -421     -382     -762     -675     -135        6     -415 
    -804     -869     -665     -179      287      286     -174     -895 
   -1416     -985      149      642      -36     -920    -1021     -494 
    -120     -275     -676     -837     -761     -787     -760     -395 
     -91     -318     -633     -480     -228     -114        4     -252 
    -796     -832     -406     -228     -531     -808     -665     -571 
    -731     -561      -29      184      -71     -369     -542     -652 
    -612     -475     -421     -490     -619     -576     -214      -75 
    -513     -869     -733     -373      -12       70     -333     -957 
   -1134     -504      140      -35     -568     -704     -379      -36 
    -201     -662     -826     -724     -526     -270     -221     -388 
    -487     -411     -240     -314     -664     -700     -490     -573 
    -652     -510     -542     -553     -253     -195     -541     -583 
    -260     -299     -723     -878     -585     -274     -351     -692 
    -846     -684     -326      156      340     -187     -724     -450 
    -113     -649    -1371    -1301     -600      126      417      -52 
    -873     -942     -164      178     -230     -415     -324     -535 
    -765     -711     -638     -654     -765     -985    -1039     -714 
    -183      195       52     -499     -715     -398     -247     -464 
    -514     -302     -214     -279     -341     -460     -706    -1003 
    -878      -75      495      172     -352     -621     -814     -911 
    -834     -471      -58     -145     -402     -253     -133     -442 
    -754     -604     -176      -59     -399     -787    -1092    -1341 
   -1201     -730     -558     -672     -340      487      846      267 
    -511     -800     -513       24      -12     -734    -1023     -568 
    -368     -803    -1148     -826     -396     -650     -886     -253 
     418      325     -166     -587     -650     -279       82      -81 
    -658    -1003     -842     -585     -587     -803     -990     -865 
    -376      162      413      256     -240     -672     -633     -442 
    -527     -603     -494     -500     -576     -558     -596     -675 
    -591     -353     -305     -677     -962     -584      -20      -12 
    -422     -665     -433       86      268     -166     -583     -519 
    -580    -1228    -1695    -1289     -434      202      311      -83 
    -514     -567     -436     -398     -326     -136      -48     -136 
    -261     -429     -684     -940     -967     -604     -298     -538 
    -766     -305      392      634      234     -801    -1875    -2041 
   -1359     -627     -112      302      519      341     -272     -989 
   -1225     -908     -556     -344      -55      210      132     -275 
    -697    -1030    -1301    -1096     -168      742      873      307 
    -445     -986    -1316    -1518    -1305     -607       29      139 
    -147     -376     -282       60      241     -318    -1429    -1821 
    -851      427      780      261     -311     -637    -1092    -1719 
   -1968    -1574     -741      168      558      261     -140     -321 
    -459     -444     -125      162      232      221      -97     -854 
   -1453    -1445    -1158     -857     -426     -136     -311     -498 
    -243       87       79     -109     -257     -449     -668     -603 
    -236      -54     -357     -819     -988     -815     -508     -342 
    -598    -1125    -1294     -876     -318      -25       -4      -83 
    -305     -720     -955     -711     -211      157       94     -256 
    -325     -183     -433     -900     -931     -588     -403     -426 
    -346     -179     -128     -202     -360     -434     -122      338 
     132     -851    -1518    -1260     -849     -841     -824     -541 
    -190       12     -157     -585     -615     -129       55     -388 
    -783     -757     -672     -687     -649     -490      -94      286 
      13     -745    -1152     -922     -282      375      606      276 
    -309     -685     -743     -724     -676     -556     -572     -773 
    -754     -399     -409    -1023    -1305     -810     -179      136 
      97     -264     -639     -630     -275      -43     -236     -583 
    -688     -608     -610     -774     -988     -870     -274      184 
     102     -103     -238     -488     -711     -641     -382     -213 
    -267     -477     -603     -513     -373     -292     -260     -357 
    -515     -677     -923     -969     -552     -172     -294     -542 
    -510     -384     -400     -494     -542     -460     -326     -448 
    -723     -653     -301     -226     -523     -610      -93      399 
      81     -649     -932     -693     -342     -248     -594    -1050 
   -1008     -471     -147     -440     -951    -1088     -684     -152 
      33      -45       33      213      -74     -710     -801     -280 
    -103     -561     -889     -714     -445     -326     -355     -549 
    -661     -595     -591     -556     -328     -148     -199     -407 
    -684     -892     -756     -238      143      -70     -606     -882 
    -785     -610     -602     -820    -1008     -761     -190      209 
     288      218       76     -206     -513     -521     -329     -403 
    -855    -1294    -1251     -761     -295      -62      -76     -361 
    -616     -602     -506     -494     -491     -414     -368     -513 
    -691     -599     -284      -89     -151     -309     -507     -738 
    -828     -758     -592     -271        2      -97     -421     -568 
    -490     -419     -400     -341     -332     -426     -503     -561 
    -606     -481     -348     -417     -423     -313     -395     -576 
    -675     -731     -618     -340     -166     -178     -232     -133 
      39      -63     -441     -700     -749     -805     -822     -635 
    -492     -691     -946     -781     -338     -171     -413     -638 
    -527     -363     -467     -639     -677     -652     -480     -225 
    -265     -546     -642     -498     -283       14      390      496 
      10     -704     -908     -472      -44     -144     -461     -568 
    -657     -838     -880     -850     -796     -610     -548     -718 
    -696     -287      116       99     -205     -415     -463     -453 
    -418     -332     -202     -265     -633     -961     -965     -765 
    -676     -784     -753     -390      -24       -4     -279     -588 
    -731     -616     -302     -116     -257     -402     -319     -287 
    -396     -407     -355     -467     -607     -405       22       86 
    -294     -580     -643     -859    -1177    -1044     -378       90 
    -164     -693     -831     -630     -606     -815     -783     -508 
    -438     -405      -78      101     -213     -553     -515     -365 
    -373     -275       -4      -55     -463     -696     -584     -346 
    -255     -378     -475     -464     -464     -517     -677     -851 
    -791     -515     -286     -326     -508     -441     -182     -132 
    -275     -405     -500     -616     -849    -1038     -811     -344 
    -171     -313     -380     -238     -166     -388     -643     -548 
    -155      147      112     -137     -346     -496     -650     -764 
    -824     -891    -1019    -1134    -1075     -884     -693     -480 
