Origin Time       2024/06/23 22:54:00
Lat.              35.645
Long.             140.060
Depth. (km)       72
Mag.              4.1
Station Code      TKY017
Station Lat.      35.6473
Station Long.     139.8092
Station Height(m) 4
Record Time       2024/06/23 22:54:45
Sampling Freq(Hz) 100Hz
Duration Time(s)  60
Dir.              E-W
Scale Factor      7845(gal)/8223790
Max. Acc. (gal)   4.078
Last Correction   2024/06/23 22:54:45
Memo.             
[...]
   -2722    -2739    -2737    -2717    -2725    -2735    -2722    -2720 
   -2732    -2731    -2717    -2725    -2735    -2728    -2731    -2731 
   -2716    -2728    -2744    -2729    -2733    -2741    -2724    -2729 
   -2755    -2737    -2709    -2731    -2745    -2741    -2749    -2728 
   -2713    -2732    -2718    -2714    -2739    -2735    -2735    -2737 
   -2720    -2728    -2745    -2737    -2729    -2721    -2701    -2705 
   -2747    -2747    -2725    -2752    -2736    -2694    -2713    -2716 
   -2701    -2728    -2747    -2741    -2736    -2737    -2741    -2731 
   -2718    -2729    -2737    -2731    -2735    -2737    -2739    -2732 
   -2727    -2739    -2727    -2714    -2745    -2739    -2717    -2760 
   -2770    -2727    -2740    -2744    -2695    -2717    -2755    -2722 
   -2720    -2755    -2737    -2712    -2741    -2743    -2706    -2733 
   -2739    -2698    -2713    -2721    -2717    -2725    -2704    -2701 
   -2735    -2745    -2727    -2736    -2749    -2739    -2749    -2724 
   -2716    -2745    -2709    -2735    -2778    -2718    -2739    -2762 
   -2695    -2732    -2749    -2671    -2694    -2732    -2693    -2712 
   -2732    -2713    -2747    -2755    -2720    -2705    -2702    -2752 
   -2774    -2721    -2737    -2781    -2759    -2731    -2710    -2700 
   -2720    -2735    -2732    -2743    -2743    -2729    -2720    -2717 
   -2739    -2756    -2708    -2677    -2725    -2717    -2675    -2722 
   -2752    -2729    -2731    -2721    -2698    -2713    -2755    -2743 
   -2712    -2758    -2782    -2752    -2762    -2760    -2731    -2731 
   -2728    -2710    -2716    -2728    -2744    -2766    -2760    -2725 
   -2690    -2689    -2706    -2700    -2695    -2722    -2729    -2714 
   -2720    -2718    -2716    -2728    -2721    -2722    -2724    -2704 
   -2720    -2741    -2737    -2741    -2725    -2720    -2768    -2764 
   -2704    -2717    -2779    -2776    -2718    -2708    -2756    -2762 
   -2714    -2710    -2731    -2716    -2705    -2735    -2747    -2731 
   -2739    -2735    -2727    -2736    -2693    -2693    -2768    -2755 
   -2712    -2721    -2724    -2717    -2681    -2694    -2797    -2783 
   -2682    -2698    -2744    -2748    -2749    -2721    -2718    -2756 
   -2749    -2727    -2737    -2758    -2744    -2729    -2776    -2759 
   -2678    -2704    -2733    -2717    -2745    -2749    -2727    -2704 
   -2689    -2743    -2758    -2689    -2687    -2741    -2751    -2747 
   -2722    -2697    -2736    -2762    -2741    -2749    -2737    -2698 
   -2717    -2759    -2736    -2710    -2713    -2693    -2702    -2745 
   -2751    -2697    -2687    -2774    -2774    -2705    -2727    -2740 
   -2740    -2749    -2729    -2748    -2739    -2705    -2762    -2763 
   -2691    -2702    -2743    -2736    -2714    -2752    -2778    -2694 
   -2693    -2779    -2727    -2629    -2689    -2763    -2689    -2685 
   -2778    -2745    -2731    -2760    -2714    -2720    -2736    -2729 
   -2789    -2798    -2752    -2739    -2735    -2724    -2725    -2748 
   -2709    -2668    -2737    -2744    -2678    -2714    -2770    -2739 
   -2709    -2728    -2735    -2718    -2713    -2731    -2727    -2677 
   -2700    -2760    -2752    -2744    -2718    -2690    -2739    -2759 
   -2720    -2732    -2779    -2762    -2700    -2729    -2767    -2704 
   -2708    -2764    -2762    -2748    -2728    -2737    -2744    -2686 
   -2705    -2747    -2727    -2748    -2722    -2700    -2783    -2764 
   -2659    -2698    -2791    -2748    -2687    -2741    -2749    -2686 
   -2691    -2743    -2760    -2737    -2756    -2795    -2731    -2670 
   -2716    -2735    -2744    -2762    -2689    -2687    -2820    -2758 
   -2609    -2727    -2821    -2687    -2679    -2770    -2709    -2675 
   -2748    -2785    -2747    -2709    -2775    -2789    -2682    -2689 
   -2732    -2735    -2785    -2724    -2677    -2814    -2795    -2627 
   -2704    -2821    -2705    -2666    -2759    -2741    -2740    -2759 
   -2727    -2760    -2744    -2725    -2768    -2681    -2641    -2737 
   -2770    -2739    -2686    -2732    -2813    -2702    -2654    -2793 
   -2781    -2685    -2733    -2735    -2664    -2741    -2791    -2698 
   -2685    -2756    -2789    -2772    -2722    -2708    -2768    -2767 
   -2678    -2710    -2762    -2687    -2717    -2772    -2698    -2702 
   -2774    -2733    -2668    -2718    -2775    -2751    -2724    -2716 
   -2731    -2749    -2718    -2708    -2729    -2704    -2713    -2779 
   -2747    -2695    -2748    -2774    -2721    -2693    -2775    -2803 
   -2658    -2627    -2752    -2799    -2759    -2673    -2685    -2791 
   -2763    -2708    -2740    -2667    -2650    -2795    -2743    -2647 
   -2798    -2786    -2625    -2725    -2789    -2682    -2689    -2694 
   -2721    -2841    -2770    -2627    -2690    -2801    -2791    -2697 
   -2644    -2697    -2774    -2749    -2706    -2791    -2776    -2670 
   -2783    -2801    -2666    -2725    -2681    -2650    -2887    -2830 
   -2586    -2656    -2764    -2767    -2763    -2667    -2625    -2728 
   -2729    -2739    -2832    -2691    -2637    -2836    -2731    -2641 
   -2805    -2673    -2606    -2836    -2772    -2666    -2826    -2818 
   -2691    -2760    -2755    -2662    -2718    -2737    -2782    -2756 
   -2485    -2578    -2866    -2778    -2790    -2878    -2756    -2732 
   -2718    -2705    -2830    -2772    -2566    -2582    -2778    -2907 
   -2894    -2868    -2886    -2691    -2369    -2392    -2681    -2832 
   -2845    -2825    -2802    -2752    -2535    -2448    -2747    -2871 
   -2686    -2674    -2840    -2940    -2824    -2673    -2705    -2640 
   -2493    -2640    -2932    -2974    -2768    -2675    -2770    -2763 
   -2654    -2717    -2860    -2766    -2619    -2650    -2697    -2716 
   -2673    -2667    -2731    -2516    -2373    -2706    -2974    -3019 
   -3045    -2868    -2613    -2558    -2596    -2610    -2752    -2968 
   -2932    -2748    -2679    -2651    -2686    -2790    -2768    -2690 
   -2690    -2566    -2502    -2836    -3049    -2864    -2758    -2760 
   -2587    -2405    -2558    -2849    -2948    -2952    -2840    -2689 
   -2687    -2521    -2349    -2594    -2758    -2700    -2878    -3005 
   -2909    -2813    -2666    -2593    -2571    -2586    -2797    -2878 
   -2818    -2794    -2654    -2610    -2720    -2748    -2700    -2631 
   -2717    -2856    -2756    -2725    -2894    -2882    -2708    -2621 
   -2735    -2893    -2776    -2593    -2646    -2563    -2285    -2486 
   -2920    -2968    -3041    -3076    -2793    -2663    -2650    -2579 
   -2690    -2818    -2739    -2613    -2527    -2448    -2540    -2717 
   -2690    -2768    -2945    -2775    -2748    -2998    -2929    -2727 
   -2717    -2822    -2848    -2686    -2548    -2548    -2457    -2272 
   -2419    -2816    -3040    -3241    -3276    -2945    -2673    -2497 
   -2438    -2586    -2701    -2899    -3100    -2963    -2739    -2737 
   -2689    -2394    -2343    -2521    -2562    -2745    -2926    -2933 
   -2859    -2636    -2640    -2705    -2631    -2868    -3072    -2893 
   -2606    -2566    -2729    -2612    -2533    -2736    -2741    -2693 
   -2731    -2721    -2683    -2662    -2740    -2735    -2740    -2959 
   -3002    -2774    -2621    -2697    -2821    -2756    -2739    -2843 
   -2728    -2598    -2596    -2473    -2546    -2894    -2988    -2772 
   -2631    -2704    -2701    -2548    -2583    -2845    -2917    -2647 
   -2556    -2739    -2714    -2581    -2662    -2909    -3001    -2920 
   -2947    -2936    -2701    -2448    -2571    -2863    -2852    -2917 
   -2952    -2585    -2478    -2686    -2612    -2400    -2486    -2691 
   -2590    -2570    -2943    -3069    -2783    -2677    -2735    -2598 
   -2637    -2947    -3022    -2959    -2905    -2656    -2459    -2590 
   -2724    -2666    -2706    -2754    -2636    -2652    -2790    -2845 
   -2806    -2718    -2729    -2816    -2898    -2953    -2852    -2710 
   -2748    -2771    -2682    -2693    -2700    -2641    -2640    -2655 
   -2755    -2822    -2751    -2706    -2694    -2540    -2219    -2195 
   -2544    -2898    -3272    -3377    -3056    -2728    -2504    -2448 
   -2714    -2922    -2735    -2594    -2735    -2775    -2712    -2817 
   -2917    -2832    -2853    -2826    -2565    -2544    -2571    -2385 
   -2516    -2806    -2768    -2706    -2814    -2852    -2736    -2652 
   -2797    -3005    -3181    -3215    -2857    -2517    -2397    -2299 
   -2540    -2961    -3002    -2731    -2361    -2214    -2439    -2592 
   -2841    -3369    -3407    -2924    -2614    -2492    -2328    -2297 
   -2438    -2560    -2718    -2957    -3100    -2999    -2813    -2624 
   -2475    -2727    -3055    -2948    -2893    -2986    -2822    -2770 
   -2907    -2833    -2628    -2489    -2492    -2524    -2627    -2817 
   -2833    -2929    -3015    -2668    -2388    -2403    -2466    -2600 
   -2602    -2706    -3002    -2910    -2785    -2893    -2767    -2677 
   -2751    -2791    -2940    -2921    -2681    -2668    -2764    -2610 
   -2338    -2457    -2658    -2421    -2520    -2947    -3038    -3059 
   -2906    -2702    -2817    -2866    -2733    -2704    -2914    -2938 
   -2670    -2806    -2955    -2704    -2489    -2336    -2488    -2668 
   -2430    -2471    -2813    -2799    -2515    -2417    -2667    -2810 
   -2709    -2722    -2867    -2998    -2932    -2909    -3053    -2743 
   -2434    -2650    -2698    -2693    -2744    -2567    -2566    -2724 
   -2774    -2785    -2798    -2690    -2551    -2824    -2982    -2843 
   -3118    -3038    -2535    -2494    -2458    -2524    -2893    -3052 
   -2959    -2682    -2448    -2359    -2451    -2781    -2964    -3028 
   -2924    -2597    -2498    -2386    -2328    -2686    -2889    -2957 
   -3167    -3177    -3015    -2817    -2567    -2404    -2512    -2597 
   -2448    -2565    -2682    -2420    -2544    -2909    -2901    -2930 
   -3015    -2855    -2767    -2890    -2847    -2849    -3233    -3271 
   -2914    -2775    -2555    -2286    -2307    -2285    -2250    -2543 
   -2635    -2425    -2729    -3056    -2820    -2675    -2772    -2909 
   -2882    -2766    -2879    -2862    -2671    -2555    -2579    -2826 
   -2891    -2799    -2970    -3010    -2446    -1854    -1944    -2172 
   -2273    -2717    -3073    -3134    -3283    -3326    -3215    -3072 
   -2870    -2899    -3075    -2984    -2718    -2525    -2494    -2434 
   -2268    -2388    -2621    -2610    -2799    -3045    -2712    -2454 
   -2659    -2609    -2640    -2887    -2659    -2637    -3056    -3083 
   -3114    -3325    -3072    -2856    -3082    -2936    -2548    -2428 
   -2166    -2093    -2382    -2367    -2508    -3013    -2968    -2690 
   -2910    -2997    -2766    -2866    -2916    -2700    -2809    -2808 
   -2586    -2793    -2663    -2218    -2492    -2702    -2490    -2620 
   -2802    -2712    -2606    -2438    -2308    -2766    -3287    -3241 
   -3337    -3275    -2747    -2624    -2683    -2728    -3006    -3099 
   -2879    -2590    -2349    -2042    -1795    -1885    -2056    -2245 
   -2655    -2943    -2990    -3192    -3302    -3010    -2902    -2986 
   -2763    -2774    -3072    -2991    -3088    -3350    -2891    -2504 
   -2570    -2201    -2030    -2434    -2427    -2427    -2871    -2902 
   -2798    -2848    -2664    -2859    -3321    -3214    -2899    -2840 
   -2552    -2143    -2261    -2392    -2592    -3242    -3483    -3311 
   -3021    -2532    -2134    -1980    -2247    -2461    -2555    -2968 
   -3114    -3115    -3127    -2641    -2326    -2562    -2659    -2683 
   -2999    -3005    -2714    -2913    -3033    -2771    -2714    -2486 
   -2274    -2544    -2567    -2567    -2988    -3072    -3011    -3134 
   -2924    -2701    -2601    -2326    -2276    -2461    -2574    -2678 
   -2866    -3075    -3055    -2794    -2535    -2454    -2319    -1999 
   -2123    -2434    -2469    -2886    -3275    -3226    -3422    -3473 
   -3233    -3218    -2926    -2562    -2806    -2776    -2284    -2511 
   -2893    -2550    -2421    -2570    -2459    -2704    -3145    -3222 
   -3254    -3026    -2581    -2731    -2830    -2339    -2276    -2527 
   -2397    -2374    -2640    -2735    -2631    -2575    -2662    -2979 
   -3159    -2847    -2745    -2867    -2523    -2350    -2674    -2853 
   -2874    -2992    -3173    -3164    -2949    -2716    -2506    -2493 
   -2443    -2269    -2463    -2929    -3199    -3172    -3100    -2997 
   -2785    -2652    -2670    -2844    -2713    -2435    -2629    -2648 
   -2381    -2439    -2527    -2326    -2192    -2188    -2041    -2155 
   -2447    -2581    -2824    -2818    -2817    -3311    -3559    -3520 
   -3653    -3537    -3121    -2852    -2542    -2177    -2054    -1914 
   -1894    -2226    -2339    -2361    -2805    -3063    -3036    -3213 
   -3280    -3400    -3514    -3029    -2504    -2002    -1254     -963 
   -1073    -1271    -1861    -2566    -2960    -3315    -3520    -3312 
   -3370    -3545    -3287    -3191    -3029    -2566    -2307    -1914 
   -1503    -1555    -1844    -2442    -3161    -3167    -2749    -2701 
   -2579    -2425    -2960    -3628    -3985    -4500    -4815    -4287 
   -3271    -2153    -1278     -977     -907    -1333    -2471    -3314 
   -3667    -4029    -4186    -4243    -4708    -5402    -5973    -6226 
   -5718    -4608    -3125    -1227       -9      -74     -706    -1827 
   -3312    -4263    -4309    -3777    -3229    -3111    -3291    -3667 
   -4349    -4550    -3551    -2087     -622      882     1545     1102 
     -44    -2043    -4239    -5594    -5877    -5325    -4392    -3330 
   -2261    -1771    -2100    -2451    -2872    -3403    -2763    -1317 
    -179      568      625      174     -329    -1167    -2097    -2218 
   -1867    -1622    -1121     -862    -1285    -1944    -2737    -3418 
   -3877    -4325    -4320    -3743    -3435    -3362    -2953    -2926 
   -3414    -3461    -3164    -2840    -2339    -1926    -1772    -1958 
   -2594    -3261    -3601    -3667    -3550    -3253    -2643    -1946 
   -1707    -2027    -2501    -2876    -3244    -3528    -3630    -3684 
   -3835    -3794    -3447    -3175    -2620    -1850    -1981    -2832 
   -3616    -4496    -5212    -5359    -5341    -5049    -4357    -3807 
   -3402    -2972    -2447    -1445     -310      324      800      851 
    -160    -1522    -2906    -4271    -4985    -5355    -5487    -4796 
   -3858    -3223    -2362    -1618    -1761    -2289    -2636    -2917 
   -3113    -3082    -2851    -2565    -2319    -1887    -1364    -1375 
   -1683    -1773    -1848    -1844    -1749    -2008    -2419    -2322 
   -2050    -2180    -2434    -2787    -3349    -3712    -3685    -3330 
   -2718    -2026    -1543    -1652    -2419    -3387    -4114    -4700 
   -5170    -5166    -4831    -4502    -4106    -3696    -3250    -2524 
   -1721    -1146     -600     -108      139      415      607      364 
    -278    -1406    -2632    -3314    -3851    -4619    -5063    -4949 
   -4623    -4244    -3850    -3519    -3268    -3100    -2980    -2884 
   -2809    -2521    -1868    -1093     -589     -568    -1159    -2362 
   -3611    -4596    -5421    -5683    -5367    -4878    -4071    -2949 
   -1969    -1356    -1158    -1363    -1722    -2280    -3014    -3388 
   -3354    -3071    -2513    -1996    -1802    -2020    -2513    -3022 
   -3454    -3788    -4174    -4395    -3890    -2764    -1498     -454 
       5      -45     -364    -1166    -2270    -3357    -4320    -4406 
   -3713    -3229    -2843    -2447    -2497    -2844    -3275    -3727 
   -3816    -3535    -3110    -2583    -2161    -1829    -1549    -1613 
   -1966    -2290    -2725    -3354    -3688    -3472    -2976    -2338 
   -1678    -1545    -1921    -2454    -3330    -4180    -4749    -5285 
   -5336    -4664    -3740    -2728    -1696    -1038     -729     -541 
    -468     -429     -654    -1347    -2107    -2764    -3362    -3504 
   -3295    -3268    -3415    -3902    -4731    -5240    -5270    -5008 
   -4414    -3788    -3210    -2386    -1617    -1086     -675     -693 
   -1279    -1979    -2351    -2455    -2474    -2454    -2500    -2678 
   -3109    -3700    -3967    -3820    -3445    -2851    -2382    -2200 
   -2056    -2052    -2220    -2509    -3195    -4112    -4669    -4754 
   -4488    -3920    -3240    -2548    -1931    -1556    -1377    -1335 
   -1416    -1458    -1387    -1298    -1286    -1397    -1663    -1975 
   -2089    -2180    -2575    -3141    -3761    -4318    -4475    -4301 
   -3994    -3538    -3082    -2733    -2609    -2752    -2794    -2718 
   -2718    -2496    -1865    -1167     -820     -800     -973    -1472 
   -2211    -2902    -3501    -3894    -3888    -3524    -3010    -2716 
   -2679    -2722    -3103    -3696    -3985    -3983    -3666    -3026 
   -2532    -2266    -2065    -2025    -2149    -2428    -2755    -3029 
   -3315    -3457    -3350    -3252    -3231    -3134    -3007    -2907 
   -2879    -2914    -2874    -2821    -2870    -2984    -3036    -2876 
   -2608    -2388    -2157    -2166    -2623    -3049    -3288    -3585 
   -3700    -3354    -2744    -2224    -1864    -1645    -1688    -1934 
   -2293    -2774    -3137    -3157    -2947    -2582    -2124    -1848 
   -1904    -2195    -2578    -2937    -3109    -2997    -2704    -2390 
   -2245    -2411    -2751    -3073    -3480    -3978    -4109    -3771 
   -3442    -3067    -2405    -1806    -1452    -1324    -1509    -1826 
   -2160    -2496    -2647    -2685    -2776    -2889    -3072    -3310 
   -3535    -3808    -4024    -4012    -3685    -3145    -2712    -2412 
   -2145    -2023    -1976    -1867    -1890    -2160    -2471    -2755 
   -3049    -3357    -3739    -4144    -4313    -4058    -3520    -2917 
   -2231    -1574    -1232    -1162    -1291    -1665    -2073    -2408 
   -2678    -2810    -2891    -3002    -3133    -3210    -3130    -3072 
   -3106    -2987    -2812    -2673    -2320    -1934    -1883    -2056 
   -2265    -2517    -2787    -2879    -2700    -2440    -2200    -1987 
   -1995    -2212    -2394    -2527    -2681    -2709    -2535    -2434 
   -2575    -2845    -3249    -3738    -4099    -4257    -4126    -3666 
   -3119    -2718    -2535    -2523    -2511    -2501    -2562    -2605 
   -2667    -2817    -3009    -3234    -3469    -3643    -3681    -3497 
   -3082    -2558    -2118    -1941    -2031    -2266    -2566    -2749 
   -2670    -2525    -2498    -2528    -2612    -2863    -3283    -3709 
   -3959    -3974    -3778    -3415    -3034    -2786    -2670    -2525 
   -2188    -1823    -1683    -1661    -1659    -1732    -1807    -1895 
   -2107    -2320    -2470    -2663    -2905    -3165    -3445    -3704 
   -3782    -3522    -3133    -2839    -2512    -2122    -1786    -1567 
   -1571    -1777    -2016    -2195    -2292    -2378    -2559    -2789 
   -2970    -3119    -3253    -3296    -3196    -2970    -2631    -2253 
   -1954    -1791    -1796    -1948    -2138    -2378    -2714    -3084 
   -3402    -3638    -3816    -3909    -3854    -3689    -3511    -3407 
   -3312    -3090    -2839    -2643    -2466    -2484    -2755    -3060 
   -3245    -3283    -3250    -3153    -2961    -2853    -2852    -2812 
   -2701    -2559    -2524    -2621    -2686    -2708    -2700    -2635 
   -2625    -2729    -2936    -3217    -3406    -3395    -3161    -2681 
