Origin Time       2024/06/23 22:54:00
Lat.              35.645
Long.             140.060
Depth. (km)       72
Mag.              4.1
Station Code      TKY007
Station Lat.      35.7111
Station Long.     139.6864
Station Height(m) 34
Record Time       2024/06/23 22:54:37
Sampling Freq(Hz) 100Hz
Duration Time(s)  66
Dir.              E-W
Scale Factor      7845(gal)/8223790
Max. Acc. (gal)   4.218
Last Correction   2024/06/23 22:54:37
Memo.             
[...]
   -5852    -5863    -5892    -5908    -5898    -5873    -5832    -5809 
   -5834    -5879    -5899    -5873    -5850    -5853    -5860    -5865 
   -5854    -5845    -5861    -5886    -5887    -5849    -5819    -5833 
   -5872    -5906    -5918    -5921    -5902    -5860    -5817    -5790 
   -5807    -5854    -5907    -5930    -5883    -5822    -5811    -5834 
   -5865    -5886    -5890    -5873    -5865    -5876    -5884    -5890 
   -5883    -5864    -5848    -5840    -5853    -5865    -5875    -5899 
   -5900    -5871    -5837    -5830    -5848    -5872    -5884    -5867 
   -5853    -5849    -5846    -5860    -5864    -5864    -5887    -5894 
   -5875    -5850    -5844    -5842    -5842    -5872    -5904    -5899 
   -5868    -5845    -5848    -5849    -5852    -5849    -5845    -5864 
   -5880    -5886    -5880    -5867    -5863    -5856    -5859    -5879 
   -5891    -5887    -5852    -5821    -5823    -5837    -5853    -5871 
   -5890    -5899    -5888    -5876    -5853    -5822    -5814    -5834 
   -5883    -5935    -5952    -5910    -5848    -5809    -5810    -5856 
   -5894    -5895    -5890    -5875    -5859    -5856    -5873    -5891 
   -5875    -5842    -5809    -5794    -5832    -5881    -5908    -5915 
   -5907    -5884    -5848    -5827    -5821    -5827    -5848    -5857 
   -5887    -5938    -5948    -5914    -5884    -5887    -5875    -5849 
   -5846    -5836    -5803    -5792    -5827    -5877    -5903    -5899 
   -5868    -5853    -5852    -5837    -5841    -5867    -5887    -5886 
   -5869    -5880    -5887    -5863    -5857    -5891    -5944    -5942 
   -5871    -5822    -5846    -5896    -5896    -5849    -5807    -5823 
   -5869    -5849    -5800    -5821    -5875    -5890    -5867    -5863 
   -5877    -5881    -5892    -5886    -5850    -5825    -5827    -5879 
   -5942    -5949    -5890    -5830    -5826    -5868    -5913    -5899 
   -5836    -5815    -5838    -5867    -5891    -5899    -5895    -5864 
   -5840    -5836    -5825    -5834    -5865    -5884    -5880    -5859 
   -5863    -5908    -5934    -5887    -5817    -5796    -5834    -5906 
   -5946    -5911    -5869    -5854    -5827    -5803    -5832    -5888 
   -5922    -5910    -5859    -5823    -5860    -5898    -5867    -5825 
   -5844    -5867    -5842    -5826    -5861    -5911    -5922    -5907 
   -5913    -5887    -5853    -5860    -5864    -5860    -5856    -5871 
   -5888    -5865    -5846    -5838    -5819    -5811    -5817    -5849 
   -5888    -5903    -5910    -5891    -5845    -5818    -5837    -5864 
   -5880    -5902    -5894    -5875    -5887    -5876    -5838    -5836 
   -5865    -5879    -5879    -5910    -5933    -5898    -5837    -5806 
   -5814    -5832    -5863    -5875    -5840    -5826    -5845    -5860 
   -5890    -5925    -5931    -5884    -5833    -5844    -5861    -5846 
   -5860    -5884    -5860    -5837    -5857    -5873    -5880    -5891 
   -5879    -5852    -5860    -5906    -5907    -5861    -5849    -5860 
   -5854    -5846    -5842    -5836    -5823    -5823    -5845    -5867 
   -5886    -5900    -5906    -5884    -5849    -5846    -5849    -5850 
   -5865    -5876    -5896    -5913    -5904    -5871    -5846    -5865 
   -5859    -5819    -5823    -5860    -5877    -5860    -5833    -5829 
   -5854    -5883    -5880    -5860    -5840    -5848    -5887    -5906 
   -5879    -5852    -5861    -5865    -5848    -5875    -5907    -5875 
   -5836    -5836    -5853    -5861    -5869    -5880    -5863    -5852 
   -5877    -5900    -5892    -5861    -5856    -5859    -5830    -5809 
   -5829    -5872    -5888    -5872    -5860    -5859    -5879    -5898 
   -5884    -5857    -5856    -5884    -5888    -5875    -5868    -5834 
   -5825    -5865    -5864    -5850    -5868    -5859    -5826    -5857 
   -5945    -5952    -5848    -5786    -5844    -5898    -5856    -5833 
   -5865    -5869    -5860    -5875    -5883    -5852    -5837    -5872 
   -5904    -5903    -5883    -5861    -5842    -5832    -5864    -5899 
   -5873    -5813    -5795    -5823    -5834    -5853    -5896    -5914 
   -5915    -5899    -5867    -5860    -5886    -5898    -5849    -5778 
   -5753    -5842    -5984    -6010    -5923    -5856    -5826    -5818 
   -5832    -5854    -5860    -5817    -5790    -5859    -5946    -5907 
   -5798    -5830    -5969    -5969    -5809    -5690    -5697    -5796 
   -5992    -6203    -6266    -6080    -5628    -5154    -5062    -5528 
   -6285    -6851    -6976    -6627    -5805    -4808    -4367    -4959 
   -6066    -6705    -6551    -6075    -5744    -5598    -5702    -6219 
   -6794    -6697    -5709    -4538    -4178    -4831    -5864    -6751 
   -7312    -7188    -6235    -5215    -4969    -5405    -5919    -6210 
   -6237    -6029    -5767    -5606    -5568    -5683    -5757    -5614 
   -5545    -5783    -6137    -6390    -6471    -6404    -6259    -5956 
   -5449    -5100    -5128    -5301    -5599    -6089    -6474    -6474 
   -6192    -6007    -6058    -6033    -5761    -5529    -5483    -5455 
   -5508    -5788    -6108    -6227    -6180    -6077    -5898    -5682 
   -5571    -5601    -5840    -6218    -6280    -5915    -5584    -5482 
   -5424    -5490    -5952    -6619    -6852    -6330    -5563    -5266 
   -5417    -5624    -5881    -6228    -6288    -5833    -5377    -5485 
   -5883    -6029    -6003    -6110    -6216    -6081    -5772    -5524 
   -5530    -5709    -5844    -5985    -6235    -6345    -5984    -5354 
   -5004    -5188    -5841    -6619    -6995    -6689    -5765    -4773 
   -4579    -5393    -6374    -6689    -6394    -5969    -5725    -5778 
   -5998    -6092    -5904    -5594    -5468    -5632    -5906    -6068 
   -6069    -5981    -5840    -5694    -5686    -5917    -6156    -6030 
   -5687    -5606    -5826    -5971    -5925    -5857    -5778    -5705 
   -5761    -5788    -5610    -5486    -5764    -6323    -6686    -6523 
   -5961    -5505    -5462    -5707    -5972    -6060    -6034    -5985 
   -5761    -5409    -5367    -5783    -6169    -6061    -5643    -5470 
   -5782    -6207    -6319    -6215    -6085    -5864    -5634    -5594 
   -5640    -5626    -5729    -5999    -6142    -6072    -5975    -5879 
   -5748    -5815    -6188    -6454    -6328    -5988    -5589    -5242 
   -5185    -5494    -5934    -6172    -5989    -5528    -5279    -5543 
   -6192    -6804    -6833    -6237    -5609    -5416    -5556    -5709 
   -5742    -5670    -5589    -5687    -5938    -6070    -6007    -5984 
   -6043    -5922    -5663    -5593    -5725    -5836    -5864    -5896 
   -5938    -5984    -6031    -5941    -5730    -5683    -5883    -6156 
   -6412    -6505    -6139    -5475    -5144    -5337    -5665    -5857 
   -6004    -6153    -6110    -5840    -5640    -5759    -6073    -6299 
   -6266    -5894    -5405    -5236    -5389    -5590    -5861    -6222 
   -6390    -6195    -5832    -5610    -5709    -5999    -6160    -6106 
   -5917    -5630    -5406    -5479    -5791    -6029    -6068    -5964 
   -5838    -5884    -6019    -6003    -5917    -5907    -5871    -5702 
   -5559    -5647    -5902    -6084    -6129    -6185    -6174    -5848 
   -5425    -5324    -5530    -5822    -6100    -6239    -6142    -5907 
   -5589    -5327    -5467    -5911    -6183    -6173    -6069    -6038 
   -6192    -6386    -6281    -5873    -5485    -5212    -5046    -5065 
   -5310    -5880    -6656    -7105    -6947    -6477    -5984    -5517 
   -5174    -5049    -5092    -5270    -5595    -6060    -6498    -6554 
   -6106    -5594    -5505    -5683    -5755    -5848    -6106    -6305 
   -6334    -6280    -6151    -5942    -5706    -5427    -5182    -5105 
   -5151    -5452    -6150    -6801    -6883    -6523    -6104    -5674 
   -5173    -4892    -5196    -5923    -6454    -6470    -6149    -5703 
   -5420    -5593    -6038    -6235    -6037    -5818    -5734    -5648 
   -5702    -5935    -6023    -5981    -6064    -6043    -5748    -5736 
   -6315    -6729    -6247    -5265    -4654    -4641    -5053    -5887 
   -6821    -7083    -6489    -5796    -5643    -5873    -6091    -6142 
   -6042    -5805    -5474    -5227    -5165    -5366    -5807    -6033 
   -5881    -5910    -6188    -6195    -6091    -6358    -6660    -6500 
   -6004    -5449    -5031    -4945    -5273    -5790    -6042    -5925 
   -5799    -5906    -6157    -6403    -6439    -6068    -5505    -5157 
   -5161    -5458    -5875    -6259    -6453    -6197    -5672    -5454 
   -5626    -5857    -6107    -6409    -6498    -6332    -6137    -5836 
   -5458    -5464    -5952    -6281    -6030    -5595    -5464    -5613 
   -5748    -5698    -5562    -5533    -5697    -6003    -6303    -6374 
   -6124    -5778    -5606    -5719    -5992    -6106    -5995    -5832 
   -5649    -5486    -5499    -5791    -6305    -6712    -6539    -5765 
   -5039    -4946    -5443    -6052    -6339    -6241    -5922    -5574 
   -5405    -5460    -5652    -6000    -6430    -6520    -6072    -5589 
   -5479    -5555    -5660    -5915    -6304    -6608    -6709    -6615 
   -6342    -5902    -5363    -5011    -5044    -5254    -5489    -5803 
   -6030    -5940    -5717    -5726    -5911    -5994    -5987    -5933 
   -5728    -5422    -5231    -5239    -5548    -6218    -6787    -6790 
   -6440    -6146    -6019    -5967    -5945    -6065    -6220    -6050 
   -5638    -5452    -5512    -5567    -5694    -5975    -6207    -6104 
   -5649    -5278    -5350    -5726    -6137    -6412    -6409    -6089 
   -5643    -5393    -5483    -5768    -5989    -6018    -5925    -5840 
   -5707    -5451    -5294    -5374    -5651    -6211    -6809    -6924 
   -6501    -5873    -5370    -5177    -5259    -5509    -5807    -6038 
   -6195    -6226    -5996    -5710    -5647    -5593    -5526    -5864 
   -6459    -6663    -6336    -5898    -5678    -5732    -6008    -6355 
   -6485    -6164    -5525    -5049    -5090    -5614    -6196    -6335 
   -5941    -5420    -5239    -5482    -5867    -6146    -6261    -6118 
   -5732    -5472    -5586    -5881    -6110    -6124    -5904    -5656 
   -5568    -5657    -5823    -5944    -5956    -5926    -5940    -5937 
   -5961    -6133    -6257    -6158    -6012    -5968    -5995    -6026 
   -6062    -6181    -6334    -6320    -6081    -5736    -5317    -4966 
   -5046    -5520    -5911    -6069    -6228    -6403    -6334    -5964 
   -5524    -5236    -5098    -5100    -5354    -5771    -6147    -6346 
   -6112    -5555    -5323    -5647    -5994    -6015    -5976    -6025 
   -5975    -5857    -5894    -6042    -6112    -6176    -6286    -6146 
   -5706    -5454    -5701    -6150    -6350    -6238    -6030    -5871 
   -5751    -5610    -5443    -5260    -5134    -5204    -5525    -5991 
   -6407    -6624    -6615    -6380    -5915    -5362    -5186    -5667 
   -6303    -6502    -6292    -5969    -5682    -5449    -5379    -5609 
   -5995    -6183    -6093    -5996    -6062    -6134    -6015    -5921 
   -6068    -6106    -5786    -5491    -5499    -5614    -5633    -5578 
   -5575    -5683    -5791    -5819    -5884    -6039    -6210    -6324 
   -6254    -6012    -5782    -5603    -5466    -5470    -5563    -5502 
   -5360    -5464    -5788    -6102    -6286    -6255    -6002    -5675 
   -5530    -5733    -6034    -6030    -5888    -6041    -6262    -6089 
   -5702    -5535    -5653    -5842    -5952    -5949    -5846    -5755 
   -5755    -5910    -6291    -6683    -6691    -6250    -5729    -5458 
   -5398    -5412    -5443    -5467    -5499    -5607    -5886    -6296 
   -6601    -6543    -6083    -5541    -5370    -5734    -6292    -6523 
   -6319    -5857    -5359    -5147    -5366    -5805    -6124    -6134 
   -5961    -5827    -5744    -5742    -5934    -6119    -6083    -6039 
   -6077    -5917    -5514    -5293    -5540    -5869    -5849    -5722 
   -5853    -6199    -6500    -6532    -6269    -5857    -5368    -4904 
   -4851    -5373    -6011    -6284    -6218    -6095    -6030    -6045 
   -6195    -6305    -6141    -5746    -5332    -5155    -5373    -5782 
   -5971    -5856    -5782    -5880    -5837    -5578    -5551    -5960 
   -6366    -6454    -6386    -6320    -6223    -6022    -5745    -5476 
   -5325    -5368    -5502    -5632    -5769    -5884    -5961    -5938 
   -5798    -5746    -5953    -6277    -6442    -6237    -5724    -5331 
   -5363    -5683    -6072    -6253    -6029    -5715    -5722    -6035 
   -6390    -6493    -6242    -5844    -5571    -5586    -5860    -6145 
   -6237    -6126    -5838    -5505    -5366    -5456    -5509    -5300 
   -5043    -5003    -5031    -5170    -5764    -6705    -7402    -7452 
   -7005    -6559    -6465    -6613    -6615    -6243    -5616    -5017 
   -4581    -4317    -4378    -4845    -5401    -5613    -5462    -5274 
   -5198    -5287    -5602    -5980    -6234    -6336    -6384    -6462 
   -6470    -6285    -5952    -5583    -5352    -5378    -5535    -5648 
   -5840    -6205    -6439    -6299    -5957    -5726    -5664    -5580 
   -5482    -5503    -5687    -6091    -6664    -7142    -7389    -7492 
   -7389    -6952    -6296    -5630    -5092    -4684    -4401    -4380 
   -4622    -4996    -5597    -6423    -7153    -7569    -7767    -7932 
   -8125    -8154    -7701    -6783    -5787    -5078    -4757    -4666 
   -4725    -4972    -5188    -5026    -4477    -3917    -3736    -4000 
   -4445    -4793    -5154    -5807    -6548    -6826    -6694    -6905 
   -7699    -8469    -8689    -8316    -7604    -6697    -5390    -3740 
   -2452    -2188    -2829    -3677    -4224    -4507    -4970    -6103 
   -7863    -9510   -10287   -10083    -9180    -7955    -6844    -6065 
   -5532    -4946    -4105    -3315    -3159    -3893    -5148    -6185 
   -6482    -6053    -5371    -4955    -4938    -5078    -5046    -4704 
   -4259    -4079    -4445    -5444    -6779    -7636    -7376    -6390 
   -5741    -5961    -6494    -6548    -6049    -5304    -4689    -4657 
   -5247    -6014    -6531    -6583    -6254    -5954    -5995    -6350 
   -6910    -7357    -7213    -6455    -5647    -5414    -5814    -6246 
   -6170    -5769    -5584    -5744    -6000    -6084    -5888    -5707 
   -5919    -6350    -6413    -5864    -5128    -4756    -4818    -4932 
   -4841    -4760    -5066    -5876    -6902    -7682    -7960    -7704 
   -7057    -6338    -5907    -5934    -6192    -6382    -6432    -6262 
   -5846    -5362    -4936    -4588    -4463    -4689    -5065    -5321 
   -5391    -5363    -5428    -5684    -6110    -6640    -7042    -7105 
   -6845    -6342    -5678    -5070    -4819    -5055    -5584    -6012 
   -6045    -5643    -4980    -4410    -4283    -4706    -5532    -6538 
   -7442    -7878    -7662    -7072    -6556    -6292    -6122    -5821 
   -5274    -4531    -3867    -3592    -3855    -4592    -5524    -6396 
   -7036    -7277    -7192    -7002    -6880    -6851    -6709    -6382 
   -6061    -5817    -5552    -5221    -4858    -4592    -4725    -5417 
   -6392    -7145    -7311    -6885    -6165    -5482    -4996    -4723 
   -4715    -5013    -5381    -5502    -5447    -5493    -5788    -6392 
   -7215    -7919    -8125    -7742    -7057    -6396    -5817    -5221 
   -4610    -4249    -4355    -4785    -5238    -5481    -5621    -5962 
   -6471    -6808    -6758    -6466    -6210    -6053    -5903    -5668 
   -5350    -5058    -4907    -5004    -5370    -5861    -6330    -6727 
   -6922    -6721    -6255    -5852    -5583    -5418    -5339    -5324 
   -5386    -5498    -5605    -5702    -5844    -6135    -6644    -7202 
   -7377    -6913    -6037    -5158    -4552    -4383    -4653    -5034 
   -5202    -5169    -5128    -5231    -5444    -5764    -6393    -7287 
   -8006    -8172    -7765    -7022    -6212    -5594    -5271    -5086 
   -4961    -4973    -5138    -5387    -5661    -6008    -6428    -6721 
   -6681    -6234    -5472    -4726    -4341    -4371    -4720    -5371 
   -6200    -6913    -7157    -6835    -6293    -5967    -6015    -6274 
   -6339    -5935    -5201    -4552    -4352    -4733    -5494    -6274 
   -6891    -7230    -7167    -6832    -6536    -6461    -6478    -6258 
   -5670    -4914    -4274    -3897    -3852    -4222    -5001    -6019 
   -6997    -7700    -7983    -7763    -7177    -6531    -6043    -5729 
   -5452    -5173    -4922    -4645    -4324    -4113    -4271    -4893 
   -5848    -6825    -7483    -7688    -7533    -7176    -6755    -6373 
   -6143    -5961    -5552    -4897    -4222    -3717    -3514    -3736 
   -4396    -5275    -6014    -6397    -6585    -6890    -7387    -7857 
   -8020    -7777    -7176    -6354    -5539    -4878    -4444    -4353 
   -4603    -4936    -5121    -5275    -5702    -6453    -7206    -7611 
   -7626    -7441    -7256    -7094    -6766    -6204    -5553    -4985 
   -4681    -4669    -4729    -4662    -4538    -4610    -4976    -5448 
   -5838    -6165    -6488    -6687    -6682    -6637    -6743    -6903 
   -6822    -6399    -5773    -5147    -4679    -4452    -4488    -4741 
   -5127    -5571    -5934    -6083    -6003    -5850    -5859    -6150 
   -6650    -7068    -7171    -7006    -6660    -6232    -5877    -5633 
   -5455    -5320    -5217    -5125    -5034    -4977    -5004    -5196 
   -5557    -5964    -6285    -6500    -6659    -6667    -6330    -5709 
   -5190    -5142    -5452    -5688    -5671    -5582    -5675    -6038 
   -6536    -6955    -7180    -7242    -7082    -6567    -5796    -5107 
   -4781    -4773    -4819    -4816    -4912    -5314    -5999    -6637 
   -6868    -6628    -6237    -6031    -6096    -6330    -6529    -6535 
   -6251    -5671    -5009    -4614    -4679    -5101    -5610    -5983 
   -6150    -6203    -6234    -6203    -5973    -5520    -5061    -4833 
   -4936    -5366    -5960    -6528    -6944    -7119    -7013    -6704 
   -6380    -6095    -5790    -5510    -5358    -5395    -5584    -5811 
   -5983    -6080    -6122    -6089    -5958    -5745    -5499    -5328 
   -5301    -5398    -5541    -5656    -5729    -5690    -5487    -5243 
   -5252    -5725    -6444    -6970    -7069    -6801    -6393    -6135 
   -6130    -6153    -5998    -5771    -5563    -5359    -5197    -5192 
   -5483    -6039    -6605    -6913    -6826    -6419    -5918    -5539 
   -5308    -5162    -5135    -5204    -5227    -5111    -4909    -4752 
   -4777    -5117    -5652    -6072    -6278    -6382    -6458    -6462 
   -6377    -6338    -6446    -6637    -6764    -6793    -6832    -6920 
   -6971    -6844    -6504    -6054    -5544    -4989    -4476    -4118 
   -3970    -4054    -4415    -4999    -5668    -6351    -6990    -7496 
   -7773    -7794    -7599    -7128    -6386    -5603    -4976    -4527 
   -4251    -4171    -4198    -4236    -4356    -4681    -5193    -5711 
   -6143    -6543    -6921    -7217    -7345    -7337    -7327    -7249 
   -6920    -6357    -5822    -5557    -5535    -5556    -5514    -5440 
   -5316    -5109    -4985    -5081    -5328    -5618    -5898    -6081 
   -6027    -5790    -5653    -5783    -6083    -6376    -6550    -6480 
   -6102    -5629    -5352    -5421    -5814    -6358    -6816    -7044 
   -7040    -6851    -6498    -6026    -5493    -4973    -4588    -4472 
   -4683    -5127    -5667    -6168    -6492    -6569    -6426    -6200 
   -5992    -5755    -5408    -4958    -4600    -4504    -4608    -4823 
   -5131    -5489    -5799    -5999    -6141    -6336    -6612    -6794 
   -6735    -6534    -6349    -6261    -6257    -6242    -6191    -6130 
