Origin Time       2024/06/23 22:54:00
Lat.              35.645
Long.             140.060
Depth. (km)       72
Mag.              4.1
Station Code      TKY025
Station Lat.      35.7136
Station Long.     139.8972
Station Height(m) 1
Record Time       2024/06/23 22:54:44
Sampling Freq(Hz) 100Hz
Duration Time(s)  61
Dir.              N-S
Scale Factor      7845(gal)/8223790
Max. Acc. (gal)   7.094
Last Correction   2024/06/23 22:54:44
Memo.             
[...]
   15927    15921    15909    15903    15901    15904    15905    15912 
   15924    15923    15915    15912    15905    15896    15893    15896 
   15900    15905    15912    15921    15923    15909    15900    15903 
   15907    15908    15908    15907    15909    15913    15912    15908 
   15912    15917    15915    15912    15915    15919    15919    15911 
   15901    15901    15908    15908    15909    15907    15907    15915 
   15916    15912    15912    15909    15905    15908    15909    15904 
   15908    15909    15898    15896    15911    15919    15912    15907 
   15907    15913    15915    15908    15908    15909    15911    15915 
   15917    15924    15923    15913    15911    15909    15904    15898 
   15907    15916    15913    15907    15904    15903    15905    15909 
   15907    15900    15903    15905    15900    15907    15916    15912 
   15913    15924    15916    15901    15904    15908    15911    15915 
   15911    15905    15911    15919    15919    15911    15913    15919 
   15912    15911    15916    15913    15903    15894    15892    15900 
   15903    15897    15905    15912    15904    15903    15907    15908 
   15919    15921    15905    15903    15912    15913    15913    15920 
   15923    15913    15904    15911    15919    15919    15921    15920 
   15909    15904    15904    15908    15916    15917    15915    15916 
   15915    15911    15907    15907    15913    15916    15915    15911 
   15908    15911    15912    15911    15912    15915    15916    15920 
   15917    15909    15908    15905    15905    15912    15905    15893 
   15898    15911    15912    15911    15917    15921    15916    15920 
   15924    15912    15908    15909    15903    15909    15919    15915 
   15912    15913    15911    15907    15909    15912    15907    15907 
   15917    15919    15912    15913    15917    15913    15909    15907 
   15904    15915    15919    15911    15916    15924    15919    15916 
   15920    15915    15908    15911    15915    15915    15917    15921 
   15917    15913    15915    15916    15911    15900    15896    15898 
   15900    15905    15917    15921    15916    15911    15908    15903 
   15904    15912    15917    15917    15920    15920    15915    15908 
   15908    15915    15921    15921    15921    15919    15916    15919 
   15917    15917    15917    15911    15911    15911    15901    15900 
   15905    15905    15904    15901    15896    15897    15904    15905 
   15907    15911    15909    15911    15912    15912    15912    15915 
   15917    15909    15904    15908    15909    15913    15920    15921 
   15921    15921    15916    15915    15916    15903    15898    15915 
   15920    15912    15912    15912    15903    15894    15897    15909 
   15915    15915    15917    15916    15904    15900    15911    15917 
   15917    15919    15920    15915    15908    15907    15912    15901 
   15890    15903    15913    15912    15915    15916    15911    15904 
   15900    15898    15908    15917    15915    15912    15915    15909 
   15904    15904    15905    15912    15916    15917    15919    15913 
   15908    15912    15916    15915    15908    15903    15901    15900 
   15907    15912    15905    15901    15907    15904    15903    15907 
   15908    15908    15907    15909    15913    15907    15900    15905 
   15907    15905    15908    15908    15909    15915    15911    15909 
   15911    15905    15907    15913    15919    15921    15917    15912 
   15908    15903    15898    15898    15900    15907    15915    15911 
   15904    15904    15905    15905    15900    15900    15909    15917 
   15924    15920    15903    15907    15917    15907    15904    15911 
   15912    15912    15904    15896    15900    15909    15917    15917 
   15916    15909    15901    15904    15908    15911    15917    15911 
   15892    15892    15903    15909    15917    15917    15909    15907 
   15907    15907    15907    15915    15923    15909    15904    15916 
   15912    15897    15897    15908    15915    15909    15903    15909 
   15905    15896    15898    15905    15912    15911    15909    15916 
   15911    15907    15912    15908    15909    15911    15901    15903 
   15901    15894    15905    15920    15923    15915    15904    15907 
   15908    15903    15905    15912    15908    15903    15898    15901 
   15901    15894    15901    15917    15917    15911    15909    15907 
   15905    15903    15908    15917    15913    15909    15915    15913 
   15909    15912    15913    15912    15904    15898    15907    15919 
   15913    15908    15915    15916    15912    15908    15905    15907 
   15912    15916    15905    15903    15911    15901    15896    15908 
   15913    15909    15909    15911    15911    15907    15903    15904 
   15907    15897    15898    15916    15919    15903    15907    15919 
   15916    15912    15916    15919    15919    15915    15913    15912 
   15912    15919    15919    15917    15916    15907    15911    15931 
   15938    15915    15882    15881    15920    15947    15909    15861 
   15897    15974    15939    15830    15873    16020    16000    15871 
   15840    15881    15969    16005    15834    15708    15842    15989 
   15982    15878    15847    15994    16033    15820    15754    15994 
   16178    16063    15719    15560    15954    16229    15797    15568 
   16067    16410    16055    15619    15788    16040    15692    15569 
   16139    16268    15747    15699    16148    16113    15799    15897 
   15799    15480    15977    16405    15699    15597    16599    16318 
   15107    15425    16399    16225    15696    15846    16123    15696 
   15360    16121    16629    15896    15564    16235    16295    15541 
   15304    15665    16054    16411    16264    15703    15753    16071 
   15757    15483    15940    16308    16011    15846    15975    15840 
   15911    16160    15762    15435    15878    16048    15777    16093 
   16507    16101    15653    15685    15736    15660    15515    15916 
   16707    16333    15564    15930    15907    15256    15984    16930 
   16006    14868    15461    16561    16498    15662    15419    16024 
   16271    15780    15750    16187    15992    15681    15889    15813 
   15606    16121    16532    15990    15557    15870    15877    15407 
   15662    16383    16329    16055    16324    16086    15087    14840 
   15777    16614    16483    15924    15827    16081    15907    15564 
   15888    16206    15691    15341    15893    16463    16357    15947 
   15827    15900    15651    15442    15974    16479    16001    15519 
   15884    16166    16079    16152    15859    15240    15493    16217 
   16089    15693    15962    16150    15784    15723    16200    16309 
   15799    15514    15804    16113    16086    15928    15904    15836 
   15579    15651    16083    16054    15607    15596    16059    16251 
   16097    16147    16168    15808    15614    15696    15635    15796 
   16293    16313    15966    16170    16416    15836    15306    15580 
   15807    15627    15769    16108    15938    15765    16154    16326 
   16004    15889    15820    15472    15441    15849    16092    16120 
   16297    16492    16228    15705    15627    15757    15507    15325 
   15658    16085    16274    16281    16166    16070    16013    15859 
   15815    15932    15707    15368    15820    16479    16170    15722 
   15955    15822    15385    15776    16191    15847    15716    16019 
   16071    16029    16191    16287    16086    15655    15399    15626 
   15944    15979    15962    15932    15685    15653    16159    16332 
   15709    15446    16075    16406    16038    15920    16055    15874 
   15790    15870    15664    15633    15866    15795    15961    16480 
   16316    15773    15654    15730    15931    15939    15334    15180 
   15967    16318    15990    15938    16147    16347    16272    15703 
   15526    16043    16085    15776    16146    16405    15809    15587 
   16015    15822    15264    15489    16067    16200    16228    16316 
   16132    16048    16171    15708    15052    15373    16070    16012 
   15812    16220    16368    15701    15375    15909    16227    15917 
   15811    16094    15950    15493    15691    16191    16166    15916 
   15812    15795    15916    16070    16028    15777    15556    15676 
   16015    16182    16163    15947    15610    15812    16429    16316 
   15670    15646    15940    15840    15896    16310    16214    15612 
   15458    15824    16058    15901    15638    15780    16139    16015 
   15716    15950    16055    15477    15435    16287    16578    16181 
   16089    15938    15314    15286    16274    16833    16259    15643 
   15529    15525    15666    16027    16195    15907    15576    15705 
   15947    15876    15908    16237    16322    15989    15724    15886 
   16233    16173    15502    15084    15704    16387    16306    16287 
   16270    15655    15514    16081    15951    15268    15329    16131 
   16556    16040    15553    15866    16038    15735    15882    16132 
   15803    15660    16004    16146    16028    16019    16102    16040 
   15816    15684    15736    15917    16189    16210    15842    15718 
   16009    16073    15846    15633    15550    15855    16168    15911 
   15727    15971    15768    15257    15550    16298    16371    16038 
   16087    16205    15989    15785    15871    16038    15870    15562 
   15699    16063    16152    15978    15782    15774    15822    15722 
   15724    15962    16150    16147    16159    16233    16009    15588 
   15674    16109    16114    15873    15859    15849    15766    15832 
   16050    16389    16430    15781    15209    15403    15844    16040 
   16051    15985    15920    15849    15796    15842    15866    15901 
   16190    16345    15950    15688    15986    16023    15547    15406 
   15790    15957    15724    15754    16052    15965    15693    15786 
   15874    15697    15772    16202    16491    16368    16044    15894 
   15990    16108    16067    15890    15832    15795    15425    15372 
   16075    16430    16100    15966    15944    15720    15751    15785 
   15450    15576    16119    15965    15628    16019    16344    16032 
   15707    15745    15959    16065    16096    16348    16618    16532 
   16278    16012    15579    15205    15256    15592    15898    16059 
   16109    16058    15809    15527    15581    15863    15876    15673 
   15797    16166    16274    16144    15951    15770    15847    15903 
   15545    15475    16055    16324    16082    16110    16272    16119 
   16085    16359    16322    15809    15368    15284    15453    15650 
   15774    16171    16725    16497    15465    14852    15222    15931 
   16308    16472    16599    16281    15716    15736    16183    16195 
   15772    15660    15796    15553    15462    16067    16393    16054 
   15884    15762    15349    15342    15888    16209    16127    16059 
   15988    15780    15762    16044    16174    15894    15645    15808 
   15962    15834    15878    16128    16040    15742    15835    16143 
   16152    16062    16002    15626    15259    15477    15907    16054 
   16175    16384    16320    15947    15506    15219    15444    16011 
   16181    16025    16159    16263    15984    15888    16033    15951 
   15843    15866    15759    15606    15678    16090    16564    16501 
   16083    15985    15888    15471    15313    15504    15682    15923 
   16114    16170    16302    16195    15832    15973    16278    15799 
   15318    15765    16047    15465    15263    15939    16357    16075 
   15851    15950    15909    15762    15931    16098    15822    15639 
   15921    16108    15952    15832    15912    16060    16231    16329 
   16062    15550    15498    15963    16174    16000    16052    16218 
   16023    15816    15707    15314    15102    15365    15600    15885 
   16271    16200    15777    15700    15978    15975    15730    15836 
   16074    16104    16240    16410    16402    16343    16098    15766 
   15677    15604    15599    16016    16345    16170    15952    15907 
   15947    16021    15847    15564    15634    15730    15568    15755 
   16339    16545    16249    15888    15700    15597    15461    15624 
   16133    16320    16092    15963    15886    15672    15664    15989 
   16114    15823    15587    15650    15892    16181    16267    16136 
   15942    15645    15616    16031    16151    15795    15618    15838 
   16166    16237    15954    15716    15801    15892    15726    15530 
   15580    15861    16116    15997    15577    15429    15658    15839 
   15996    16289    16417    16290    16135    15975    15886    15893 
   15805    15785    15984    16160    16367    16587    16301    15630 
   15373    15595    15816    15924    16028    16151    16114    15870 
   15925    16422    16722    16645    16425    16025    15705    15728 
   15801    15670    15390    15187    15218    15383    15529    15649 
   15901    16301    16528    16461    16374    16390    16384    16298 
   16205    16146    16035    15817    15665    15795    16050    16054 
   15839    15689    15531    15161    14629    13973    13138    12267 
   11664    11665    12513    13798    14909    15985    17182    18139 
   18862    19481    19454    18392    16715    15017    13956    14091 
   15195    16758    18426    19481    19597    19429    19296    18963 
   18777    19201    19950    20518    20479    19495    17840    16033 
   14068    12006    10339     9192     8473     8680    10102    11925 
   13398    14600    15415    15477    14944    14289    14156    14966 
   16125    17130    18266    19043    18631    17574    16796    16529 
   16845    17579    18295    18747    18585    17528    16160    15203 
   14505    13797    13396    13624    14358    15184    15871    16748 
   17867    18455    18179    17435    16407    15453    15109    15273 
   15603    15836    15705    15380    15260    15426    15770    16191 
   16484    16359    15919    15638    15669    15903    16185    16267 
   16027    15472    14779    14385    14593    15376    16259    16588 
   16343    15878    15399    15330    15888    16637    17243    17575 
   17466    17159    16977    16609    15815    15088    14750    14551 
   14458    14669    15040    15090    14777    14806    15238    15190 
   14702    14639    15003    15168    15080    15468    16482    17080 
   16862    16627    16556    16206    16032    16873    18354    19357 
   19677    19662    18866    16964    14975    13969    13778    13801 
   13999    14594    15391    15939    16214    16537    16794    16632 
   16324    16178    15911    15687    15936    16112    15614    14837 
   14127    13402    13103    13745    14926    16174    17439    18265 
   18208    17621    16877    15943    14926    14229    14169    14539 
   14909    15423    16263    16856    16784    16515    16416    16190 
   15835    15854    16245    16376    16123    16073    16279    16114 
   15600    15379    15529    15728    16144    16942    17473    17278 
   16815    16133    14899    13848    13807    14276    14586    14817 
   15034    15128    15252    15570    15952    16278    16579    16893 
   17100    17030    16891    16819    16447    15900    15903    16559 
   17389    18036    18238    17991    17739    17636    17278    16598 
   15938    15415    14897    14304    13880    13882    14083    14193 
   14242    14339    14555    14987    15778    16684    17192    17386 
   17481    17004    15924    15221    15360    15720    15781    15543 
   15180    14985    15007    15017    15082    15326    15493    15360 
   15005    14635    14355    14188    14234    14308    14233    14548 
   15588    16796    17701    18376    18928    19157    19039    18951 
   18978    18893    18639    18034    16883    15534    14617    14345 
   14358    14374    14540    14806    14860    14755    14724    14789 
   14883    15006    15155    15334    15596    15946    16237    16263 
   16008    15678    15453    15502    15966    16672    17362    18038 
   18511    18306    17397    16268    15310    14638    14327    14459 
   14836    14999    14910    14864    14724    14351    14297    14970 
   15915    16551    16811    16900    16961    17034    17031    16914 
   16798    16669    16389    16047    15920    16151    16551    16719 
   16416    15703    14863    14288    14130    14131    14158    14446 
   15063    15795    16505    17024    17223    17239    17084    16749 
   16572    16652    16837    17151    17390    17269    16970    16710 
   16403    16021    15726    15606    15391    14839    14355    14318 
   14284    14017    14069    14542    14875    15032    15275    15437 
   15484    15799    16368    16752    16740    16424    15984    15624 
   15641    16177    16761    16983    17069    17104    16920    16510 
   15923    15435    15211    14967    14832    15205    15757    15994 
   15958    15831    15692    15693    16005    16584    17140    17416 
   17451    17342    16957    16360    16000    15963    15877    15580 
   15279    15279    15562    15627    15248    14818    14584    14539 
   14914    15718    16468    16777    16568    16033    15596    15411 
   15349    15476    15847    16224    16465    16765    17196    17412 
   17159    16626    16067    15641    15435    15469    15758    16065 
   15944    15425    14959    14646    14315    14199    14557    15084 
   15588    16281    16991    17359    17489    17442    16947    16058 
   15272    14945    15113    15639    16279    16839    17135    16852 
   16089    15349    14808    14486    14558    14926    15349    15844 
   16344    16429    15925    15336    15228    15493    15637    15576 
   15700    16066    16294    16356    16397    16210    15830    15743 
   16050    16452    16942    17537    17906    17767    17163    16382 
   15749    15340    15005    14874    15145    15469    15480    15449 
   15714    16101    16367    16525    16528    16247    15901    15912 
   16183    16285    16206    16062    15685    15160    14806    14732 
   14912    15242    15577    15846    16040    16206    16309    16208 
   16000    16002    16155    16143    16101    16229    16228    15916 
   15515    15094    14735    14716    15049    15543    16050    16367 
   16447    16416    16231    15836    15592    15774    16044    16112 
   16154    16208    16152    16048    15886    15680    15703    15981 
   16195    16222    16112    15931    15871    16005    16166    16308 
   16374    16218    15967    15788    15615    15510    15584    15651 
   15641    15816    16218    16452    16325    16094    15892    15680 
   15637    15805    15898    15830    15723    15525    15203    14918 
   14806    14964    15415    15963    16376    16605    16686    16594 
   16362    16181    16116    16082    16170    16445    16771    17059 
   17269    17277    16980    16347    15558    14974    14728    14692 
   14796    15013    15225    15403    15627    15840    15935    15894 
   15712    15529    15587    15786    15896    15938    15973    16011 
   16031    15935    15861    16085    16389    16430    16362    16271 
   16024    15893    16125    16363    16320    16144    15975    15792 
   15541    15394    15700    16281    16588    16629    16629    16463 
