Origin Time       2024/06/23 22:54:00
Lat.              35.645
Long.             140.060
Depth. (km)       72
Mag.              4.1
Station Code      TKY013
Station Lat.      35.6627
Station Long.     139.8341
Station Height(m) 1
Record Time       2024/06/23 22:54:45
Sampling Freq(Hz) 100Hz
Duration Time(s)  60
Dir.              E-W
Scale Factor      7845(gal)/8223790
Max. Acc. (gal)   2.976
Last Correction   2024/06/23 22:54:44
Memo.             
[...]
   -4040    -4051    -4063    -4062    -4044    -4031    -4064    -4102 
   -4077    -4039    -4048    -4056    -4035    -4044    -4058    -4036 
   -4035    -4054    -4043    -4032    -4064    -4089    -4056    -4027 
   -4040    -4062    -4058    -4055    -4072    -4077    -4054    -4031 
   -4039    -4055    -4051    -4048    -4060    -4072    -4058    -4041 
   -4056    -4068    -4056    -4041    -4035    -4040    -4047    -4048 
   -4044    -4047    -4060    -4067    -4059    -4051    -4048    -4032 
   -4033    -4059    -4050    -4040    -4059    -4056    -4044    -4047 
   -4040    -4050    -4089    -4085    -4039    -4043    -4062    -4032 
   -4012    -4020    -4048    -4079    -4074    -4054    -4048    -4056 
   -4063    -4048    -4037    -4064    -4085    -4074    -4048    -4023 
   -4032    -4047    -4031    -4037    -4066    -4071    -4047    -4029 
   -4045    -4045    -4037    -4077    -4091    -4041    -4017    -4041 
   -4044    -4031    -4040    -4056    -4063    -4059    -4070    -4078 
   -4050    -4040    -4063    -4067    -4050    -4048    -4066    -4054 
   -4025    -4029    -4051    -4070    -4067    -4048    -4031    -4033 
   -4064    -4071    -4040    -4039    -4064    -4068    -4050    -4032 
   -4031    -4050    -4078    -4067    -4021    -4016    -4039    -4039 
   -4040    -4062    -4067    -4059    -4051    -4052    -4059    -4068 
   -4071    -4062    -4072    -4072    -4028    -4023    -4062    -4063 
   -4039    -4028    -4039    -4052    -4052    -4047    -4029    -4028 
   -4055    -4059    -4044    -4050    -4060    -4051    -4050    -4052 
   -4041    -4041    -4051    -4055    -4050    -4033    -4037    -4059 
   -4051    -4028    -4052    -4090    -4077    -4043    -4051    -4070 
   -4047    -4036    -4071    -4071    -4035    -4029    -4045    -4047 
   -4033    -4043    -4064    -4063    -4050    -4050    -4040    -4037 
   -4047    -4033    -4037    -4063    -4055    -4041    -4045    -4052 
   -4059    -4059    -4079    -4086    -4037    -4020    -4051    -4058 
   -4051    -4056    -4052    -4036    -4037    -4066    -4078    -4067 
   -4068    -4068    -4062    -4060    -4060    -4066    -4072    -4052 
   -4031    -4039    -4043    -4027    -4025    -4032    -4035    -4050 
   -4058    -4035    -4021    -4055    -4072    -4041    -4032    -4058 
   -4062    -4043    -4028    -4027    -4028    -4044    -4058    -4037 
   -4037    -4066    -4075    -4081    -4086    -4062    -4032    -4051 
   -4078    -4051    -4039    -4064    -4062    -4029    -4010    -4031 
   -4074    -4102    -4090    -4054    -4023    -4014    -4020    -4037 
   -4075    -4077    -4031    -4016    -4037    -4051    -4051    -4045 
   -4063    -4082    -4048    -4010    -4044    -4090    -4067    -4056 
   -4089    -4074    -4055    -4066    -4054    -4032    -4041    -4067 
   -4071    -4063    -4060    -4047    -4043    -4054    -4047    -4044 
   -4060    -4058    -4047    -4066    -4048    -4001    -4016    -4055 
   -4063    -4063    -4044    -4013    -4028    -4075    -4078    -4048 
   -4039    -4056    -4068    -4056    -4044    -4054    -4070    -4070 
   -4058    -4052    -4047    -4056    -4074    -4072    -4068    -4067 
   -4054    -4041    -4051    -4064    -4052    -4040    -4043    -4050 
   -4055    -4023    -3996    -4037    -4063    -4041    -4036    -4035 
   -4037    -4052    -4056    -4051    -4040    -4044    -4068    -4064 
   -4033    -4041    -4072    -4068    -4052    -4081    -4094    -4043 
   -4020    -4056    -4075    -4063    -4055    -4051    -4040    -4032 
   -4041    -4062    -4068    -4059    -4036    -4024    -4044    -4066 
   -4048    -4032    -4052    -4078    -4070    -4036    -4010    -4036 
   -4075    -4054    -4039    -4072    -4063    -4035    -4048    -4071 
   -4064    -4043    -4047    -4067    -4064    -4047    -4043    -4056 
   -4063    -4060    -4054    -4054    -4059    -4041    -4033    -4048 
   -4055    -4064    -4066    -4040    -4020    -4037    -4068    -4072 
   -4058    -4048    -4041    -4039    -4047    -4041    -4037    -4074 
   -4085    -4041    -4039    -4067    -4060    -4041    -4044    -4059 
   -4066    -4068    -4068    -4071    -4059    -4029    -4040    -4081 
   -4070    -4024    -4025    -4055    -4047    -4051    -4062    -4032 
   -4041    -4079    -4060    -4040    -4055    -4056    -4058    -4063 
   -4047    -4035    -4043    -4047    -4040    -4043    -4048    -4048 
   -4059    -4067    -4058    -4070    -4085    -4051    -4017    -4033 
   -4055    -4051    -4045    -4041    -4028    -4032    -4043    -4039 
   -4045    -4071    -4081    -4051    -4025    -4035    -4043    -4047 
   -4068    -4089    -4085    -4052    -4021    -4031    -4064    -4064 
   -4033    -4033    -4054    -4054    -4044    -4050    -4054    -4037 
   -4037    -4051    -4051    -4059    -4056    -4021    -4001    -4016 
   -4044    -4093    -4110    -4067    -4059    -4064    -4056    -4081 
   -4087    -4047    -4010    -3998    -3998    -4020    -4095    -4143 
   -4031    -3902    -3966    -4095    -4140    -4201    -4280    -4145 
   -3813    -3732    -4078    -4395    -4298    -3982    -3739    -3635 
   -3763    -4113    -4376    -4426    -4371    -4137    -3759    -3628 
   -3882    -4206    -4345    -4203    -3825    -3640    -3912    -4283 
   -4438    -4311    -3904    -3622    -3828    -4189    -4320    -4213 
   -3975    -4017    -4383    -4318    -3736    -3407    -3639    -4099 
   -4306    -4247    -4247    -4252    -4097    -3942    -3969    -4060 
   -3977    -3782    -3848    -4259    -4471    -4102    -3804    -4151 
   -4407    -3955    -3472    -3581    -4072    -4545    -4579    -4093 
   -3736    -3869    -4037    -4087    -4178    -4102    -3879    -3886 
   -4078    -4102    -4017    -4099    -4191    -4091    -3919    -3775 
   -3827    -4145    -4464    -4560    -4352    -3852    -3469    -3705 
   -4271    -4384    -4024    -3842    -4012    -4162    -4079    -3931 
   -3919    -3913    -3825    -4025    -4572    -4760    -4179    -3495 
   -3483    -3955    -4257    -4158    -4067    -4318    -4413    -4045 
   -3770    -3770    -3746    -3788    -4081    -4378    -4336    -4001 
   -3796    -3964    -4164    -4109    -4121    -4386    -4383    -3793 
   -3260    -3491    -4193    -4588    -4506    -4334    -4151    -3848 
   -3761    -4005    -4162    -4085    -4036    -4164    -4236    -3974 
   -3622    -3666    -4105    -4453    -4432    -4170    -3851    -3672 
   -3808    -4126    -4239    -4039    -3978    -4337    -4652    -4391 
   -3763    -3406    -3574    -3977    -4305    -4437    -4241    -3850 
   -3670    -3793    -3958    -3971    -3997    -4322    -4684    -4537 
   -3939    -3555    -3730    -4039    -4116    -4078    -4027    -3963 
   -3978    -4167    -4407    -4391    -4097    -3935    -4104    -4199 
   -3888    -3545    -3646    -4062    -4332    -4314    -4284    -4256 
   -4016    -3843    -3924    -3909    -3801    -3982    -4402    -4565 
   -4172    -3519    -3338    -3896    -4413    -4314    -4110    -4186 
   -4255    -4126    -3942    -3871    -3947    -4058    -4136    -4266 
   -4303    -3928    -3487    -3657    -4191    -4371    -4221    -4135 
   -4136    -4166    -4155    -4014    -3951    -4110    -4287    -4224 
   -3828    -3377    -3285    -3605    -4099    -4602    -4916    -4773 
   -4261    -3759    -3558    -3676    -3924    -4222    -4406    -4307 
   -4064    -3840    -3770    -3990    -4320    -4380    -4101    -3727 
   -3519    -3711    -4259    -4598    -4342    -3904    -3755    -3750 
   -3670    -3747    -4117    -4409    -4456    -4417    -4099    -3651 
   -3786    -4263    -4270    -4012    -4056    -4324    -4527    -4596 
   -4452    -3958    -3345    -3160    -3551    -4000    -4071    -3993 
   -3974    -3967    -4145    -4484    -4472    -4000    -3680    -3827 
   -4112    -4221    -4079    -3928    -4159    -4553    -4399    -3730 
   -3416    -3854    -4556    -4851    -4544    -4009    -3713    -3843 
   -4148    -4159    -3917    -3794    -3794    -3790    -3775    -3753 
   -3781    -3927    -4106    -4129    -3985    -4075    -4518    -4672 
   -4321    -3971    -3869    -3896    -3928    -3971    -4086    -4149 
   -4106    -4155    -4394    -4561    -4271    -3663    -3472    -3912 
   -4245    -3928    -3422    -3456    -3952    -4344    -4298    -3889 
   -3726    -4218    -4754    -4671    -4218    -3886    -3786    -3987 
   -4328    -4284    -3871    -3626    -3720    -4009    -4236    -4213 
   -4079    -4045    -4133    -4255    -4244    -3897    -3411    -3372 
   -3928    -4625    -4900    -4550    -4004    -3792    -3801    -3707 
   -3680    -3962    -4295    -4347    -4095    -3690    -3430    -3635 
   -4206    -4750    -4995    -4757    -4176    -3774    -3707    -3738 
   -3874    -4167    -4271    -3897    -3474    -3558    -3928    -4206 
   -4456    -4557    -4322    -4113    -4272    -4405    -4004    -3470 
   -3429    -3689    -3946    -4170    -4220    -4106    -4149    -4359 
   -4218    -3736    -3650    -3932    -3993    -4021    -4379    -4691 
   -4545    -4072    -3616    -3496    -3821    -4230    -4274    -4063 
   -4023    -4164    -4207    -4079    -3874    -3654    -3569    -3817 
   -4182    -4218    -4045    -4075    -4266    -4383    -4390    -4263 
   -4009    -3774    -3615    -3605    -3959    -4488    -4657    -4286 
   -3811    -3854    -4263    -4247    -3798    -3627    -3873    -4090 
   -4036    -3912    -3978    -4033    -3840    -3794    -4205    -4619 
   -4631    -4387    -4143    -4035    -4006    -3844    -3605    -3600 
   -3846    -4075    -4240    -4295    -4102    -4008    -4221    -4203 
   -3847    -3720    -3866    -3946    -4066    -4410    -4649    -4410 
   -3952    -3748    -3707    -3584    -3669    -4143    -4604    -4729 
   -4588    -4333    -4058    -3796    -3628    -3643    -3684    -3685 
   -3893    -4178    -4249    -4349    -4637    -4729    -4352    -3778 
   -3426    -3443    -3851    -4333    -4336    -4006    -3866    -3855 
   -3834    -3997    -4234    -4199    -4099    -4209    -4155    -3870 
   -3796    -3888    -3910    -3900    -3858    -3780    -3823    -4081 
   -4472    -4814    -4756    -4249    -3827    -3758    -3881    -4148 
   -4336    -4144    -3939    -4183    -4500    -4375    -4036    -3839 
   -3742    -3869    -4243    -4349    -4025    -3734    -3721    -3759 
   -3649    -3616    -3865    -4257    -4587    -4672    -4434    -4113 
   -3927    -3759    -3678    -3967    -4357    -4349    -4105    -4043 
   -4105    -4055    -3897    -3767    -3759    -3842    -4039    -4333 
   -4378    -4056    -3758    -3680    -3693    -3894    -4340    -4488 
   -4093    -3781    -3843    -3993    -4218    -4506    -4639    -4621 
   -4531    -4280    -3762    -3242    -3229    -3690    -4148    -4286 
   -4085    -3827    -3831    -4048    -4129    -3975    -3956    -4197 
   -4433    -4540    -4387    -3997    -3667    -3559    -3697    -3983 
   -4189    -4190    -4097    -4089    -4068    -3947    -3959    -4104 
   -4126    -4140    -4306    -4421    -4352    -4243    -4126    -3881 
   -3601    -3612    -3881    -4023    -3900    -3681    -3631    -3889 
   -4336    -4676    -4696    -4526    -4313    -4012    -3721    -3630 
   -3690    -3711    -3804    -4098    -4249    -4067    -3828    -3800 
   -4066    -4409    -4554    -4581    -4629    -4521    -4112    -3720 
   -3762    -4071    -4160    -4023    -3936    -3892    -3821    -3821 
   -3890    -3866    -3707    -3628    -3734    -3828    -3807    -3874 
   -4162    -4320    -4087    -3859    -3936    -4124    -4286    -4510 
   -4766    -4783    -4378    -3804    -3582    -3817    -4072    -4078 
   -3905    -3688    -3643    -3890    -4239    -4368    -4162    -3854 
   -3705    -3777    -4055    -4411    -4568    -4342    -3896    -3670 
   -3873    -4255    -4452    -4329    -4145    -4221    -4387    -4210 
   -3827    -3851    -4228    -4330    -4066    -3835    -3856    -4029 
   -4172    -4160    -3998    -3909    -3996    -4031    -3954    -3986 
   -4113    -4089    -3892    -3765    -3912    -4218    -4349    -4218 
   -4136    -4332    -4521    -4348    -3947    -3615    -3505    -3701 
   -4064    -4275    -4179    -3916    -3757    -3793    -3917    -4125 
   -4382    -4318    -3832    -3468    -3591    -4001    -4372    -4469 
   -4216    -3831    -3728    -4047    -4430    -4480    -4205    -3886 
   -3731    -3815    -4072    -4287    -4360    -4303    -4083    -3942 
   -4257    -4754    -4675    -3973    -3357    -3210    -3292    -3446 
   -3813    -4207    -4199    -3947    -3871    -3933    -3958    -4029 
   -4183    -4247    -4166    -4093    -4144    -4187    -4009    -3785 
   -3969    -4600    -5123    -5066    -4596    -4101    -3765    -3572 
   -3435    -3369    -3476    -3631    -3543    -3218    -2961    -3002 
   -3314    -3580    -3599    -3709    -4140    -4483    -4437    -4248 
   -4066    -3862    -3631    -3302    -3072    -3314    -3942    -4563 
   -5082    -5703    -6282    -6297    -5602    -4621    -3774    -3165 
   -2866    -2893    -2999    -3105    -3294    -3441    -3592    -3927 
   -4330    -4777    -5321    -5711    -5908    -6015    -5506    -4032 
   -2462    -2002    -2894    -4342    -5321    -5584    -5703    -6046 
   -6467    -6762    -6696    -6115    -5206    -4164    -3002    -2062 
   -1873    -2292    -2758    -3123    -3573    -4276    -5254    -6238 
   -6616    -5806    -4139    -2685    -1934    -1663    -1722    -1960 
   -2223    -2782    -3978    -5609    -6898    -7171    -6539    -5468 
   -4190    -2995    -2251    -1962    -1732    -1301    -1011    -1285 
   -2062    -3118    -4248    -5022    -5105    -4703    -4257    -3952 
   -3645    -3235    -2867    -2736    -2943    -3407    -3793    -3908 
   -4170    -5043    -6085    -6462    -6018    -5069    -3878    -2679 
   -1701    -1285    -1740    -2783    -3817    -4606    -5062    -5098 
   -5015    -5217    -5579    -5606    -5174    -4634    -4151    -3794 
   -3886    -4402    -4780    -4648    -4087    -3630    -3956    -4849 
   -5346    -5192    -4746    -4093    -3369    -2995    -3088    -3424 
   -4014    -4851    -5416    -5206    -4306    -3315    -2910    -3316 
   -4209    -4841    -4652    -4089    -3937    -4052    -3863    -3480 
   -3449    -3942    -4665    -5377    -5872    -5726    -4788    -3646 
   -2995    -2853    -2862    -2897    -2951    -3079    -3539    -4193 
   -4405    -4151    -4036    -4230    -4486    -4633    -4596    -4338 
   -3923    -3503    -3190    -3010    -2999    -3211    -3700    -4357 
   -4877    -5019    -4742    -4232    -3851    -3821    -3962    -3986 
   -3994    -4137    -4203    -4059    -3839    -3653    -3659    -4029 
   -4519    -4631    -4268    -3677    -3071    -2835    -3404    -4514 
   -5400    -5617    -5225    -4633    -4166    -3813    -3326    -2578 
   -2004    -2080    -2709    -3681    -4800    -5589    -5640    -5200 
   -4876    -4783    -4660    -4355    -3747    -3046    -2814    -3211 
   -3827    -4221    -4306    -4337    -4509    -4684    -4708    -4684 
   -4564    -4035    -3207    -2643    -2578    -2821    -3206    -3650 
   -4016    -4185    -4383    -5004    -5879    -6353    -6130    -5525 
   -4900    -4386    -4113    -3966    -3603    -3084    -2740    -2660 
   -2899    -3608    -4542    -4999    -4696    -4121    -3834    -3935 
   -4175    -4187    -3727    -3040    -2747    -3186    -4094    -4828 
   -4911    -4469    -4071    -4014    -4083    -4052    -3998    -4055 
   -4185    -4311    -4519    -4823    -4972    -4804    -4592    -4612 
   -4510    -3901    -3244    -2999    -2828    -2496    -2322    -2539 
   -3090    -3784    -4368    -4707    -4830    -4781    -4665    -4691 
   -4804    -4668    -4207    -3645    -3186    -2979    -3113    -3546 
   -4062    -4459    -4849    -5389    -5738    -5443    -4710    -3977 
   -3361    -2975    -2906    -3028    -3138    -3103    -2978    -2997 
   -3369    -4109    -4935    -5398    -5252    -4704    -4197    -3989 
   -3885    -3618    -3443    -3705    -4095    -4148    -3993    -3935 
   -3816    -3586    -3665    -4101    -4494    -4741    -4951    -5078 
   -5088    -5071    -5022    -4757    -4247    -3769    -3599    -3700 
   -3861    -3900    -3782    -3731    -4048    -4573    -4733    -4391 
   -4051    -3985    -3832    -3268    -2508    -2023    -2137    -2731 
   -3445    -4149    -4758    -5057    -5036    -4901    -4837    -4953 
   -5150    -5135    -4807    -4383    -4033    -3823    -3832    -3991 
   -4037    -3838    -3528    -3362    -3523    -3932    -4360    -4641 
   -4600    -4228    -3865    -3815    -4010    -4183    -4132    -3862 
   -3568    -3446    -3647    -4120    -4455    -4405    -4257    -4324 
   -4546    -4658    -4565    -4406    -4261    -4108    -3940    -3785 
   -3580    -3287    -3105    -3180    -3323    -3420    -3649    -4055 
   -4413    -4600    -4623    -4347    -3707    -3033    -2786    -3091 
   -3750    -4464    -4808    -4525    -3991    -3796    -3952    -4074 
   -3955    -3682    -3489    -3628    -4179    -4803    -5039    -4866 
   -4569    -4268    -3993    -3908    -4120    -4318    -4113    -3639 
   -3327    -3268    -3298    -3385    -3514    -3623    -3798    -4155 
   -4669    -5186    -5571    -5719    -5529    -5115    -4660    -4132 
   -3573    -3168    -2914    -2704    -2647    -2922    -3493    -4149 
   -4683    -5001    -5047    -4815    -4499    -4337    -4357    -4398 
   -4315    -4133    -3919    -3734    -3726    -3960    -4209    -4226 
   -4055    -3874    -3835    -4021    -4347    -4563    -4560    -4487 
   -4453    -4423    -4356    -4243    -4102    -3917    -3608    -3246 
   -3109    -3237    -3295    -3180    -3186    -3397    -3588    -3693 
   -3881    -4179    -4415    -4491    -4483    -4503    -4546    -4529 
   -4471    -4461    -4446    -4284    -3936    -3566    -3433    -3585 
   -3817    -3929    -3866    -3716    -3654    -3755    -3969    -4187 
   -4302    -4278    -4201    -4313    -4739    -5177    -5219    -4814 
   -4176    -3623    -3427    -3537    -3676    -3815    -4060    -4332 
   -4544    -4733    -4843    -4684    -4303    -3981    -3785    -3632 
   -3578    -3640    -3688    -3592    -3364    -3154    -3119    -3353 
   -3851    -4433    -4889    -5058    -4834    -4411    -4106    -4018 
   -4044    -3940    -3592    -3164    -2887    -2968    -3477    -4113 
   -4365    -4144    -3866    -3861    -4083    -4268    -4229    -4054 
   -3840    -3700    -3897    -4436    -4847    -4741    -4257    -3877 
   -3781    -3769    -3740    -3735    -3686    -3608    -3622    -3778 
   -4052    -4486    -5004    -5263    -5128    -4776    -4324    -3942 
   -3855    -4085    -4452    -4626    -4341    -3746    -3315    -3292 
   -3519    -3750    -3816    -3717    -3618    -3618    -3757    -4097 
   -4531    -4746    -4611    -4405    -4409    -4583    -4680    -4560 
   -4334    -4187    -4155    -4144    -4045    -3817    -3593    -3572 
   -3758    -4033    -4275    -4388    -4467    -4699    -5000    -5115 
   -5028    -4835    -4546    -4160    -3700    -3331    -3250    -3404 
   -3574    -3631    -3645    -3788    -4035    -4197    -4245    -4270 
   -4212    -4006    -3761    -3599    -3535    -3526    -3530    -3550 
   -3657    -3900    -4128    -4152    -4031    -3882    -3716    -3520 
