Origin Time       2024/06/23 22:54:00
Lat.              35.645
Long.             140.060
Depth. (km)       72
Mag.              4.1
Station Code      TKY031
Station Lat.      35.6789
Station Long.     139.7070
Station Height(m) 29
Record Time       2024/06/23 22:54:41
Sampling Freq(Hz) 100Hz
Duration Time(s)  66
Dir.              E-W
Scale Factor      7845(gal)/8223790
Max. Acc. (gal)   6.513
Last Correction   2024/06/23 22:54:41
Memo.             
[...]
    4060     4047     4041     4068     4113     4089     4036     4032 
    4051     4090     4097     4043     4023     4009     3983     4023 
    4060     4062     4090     4081     4032     4045     4054     4024 
    4045     4063     4024     4010     4041     4079     4105     4075 
    4018     4002     4014     4041     4091     4122     4089     4028 
    4000     4000     4017     4077     4131     4102     4048     4017 
    3986     4006     4063     4063     4032     4025     4054     4117 
    4136     4044     3956     3991     4052     4077     4082     4044 
    4025     4052     4039     4014     4037     4047     4044     4075 
    4081     4054     4054     4063     4074     4082     4052     4013 
    3990     3987     4028     4067     4072     4090     4093     4059 
    4035     4041     4050     4036     4039     4067     4089     4132 
    4121     3974     3866     3939     4090     4178     4141     4032 
    3970     4018     4094     4091     4029     4000     4040     4070 
    4043     4010     4004     4037     4081     4090     4081     4066 
    4064     4085     4077     4027     3979     3982     4036     4078 
    4083     4078     4039     3987     4016     4070     4068     4056 
    4033     4020     4068     4110     4117     4104     4025     3942 
    3946     4000     4066     4106     4081     4070     4109     4091 
    3997     3954     4037     4152     4147     4037     3982     4010 
    4024     4014     3996     3974     4023     4126     4167     4122 
    4056     4035     4068     4068     4012     3998     4020     4024 
    4056     4082     4059     4041     4012     3985     4024     4083 
    4118     4140     4108     4021     3994     4041     4056     4014 
    3978     3990     4037     4085     4099     4063     4018     4028 
    4062     4072     4072     4074     4054     4040     4085     4117 
    4062     3987     3946     3942     4013     4125     4174     4116 
    4002     3948     4008     4068     4058     4068     4101     4045 
    3985     4039     4104     4062     3982     3964     4045     4148 
    4151     4071     4018     4025     4040     4018     4000     4047 
    4102     4079     4036     4036     4039     4044     4070     4078 
    4050     4033     4070     4091     4051     4013     3991     3970 
    4010     4074     4072     4071     4097     4079     4041     4033 
    4043     4058     4062     4048     4041     4068     4079     4018 
    3991     4047     4071     4051     4027     4004     4018     4081 
    4120     4117     4094     4016     3970     4039     4086     4075 
    4056     4025     4013     4021     4036     4077     4095     4063 
    4018     3981     3998     4067     4097     4098     4070     3978 
    3973     4064     4114     4124     4090     4020     4013     4031 
    4013     4036     4075     4066     4072     4062     4002     4000 
    4041     4062     4090     4105     4075     4048     4036     4023 
    4024     4028     4028     4074     4112     4067     3991     3982 
    4055     4094     4072     4072     4064     4037     4031     4017 
    4027     4098     4135     4083     4028     4008     4008     4024 
    4035     4040     4044     4056     4085     4091     4074     4052 
    4017     4025     4058     4024     3991     4033     4087     4136 
    4152     4087     3987     3939     3969     4031     4082     4105 
    4099     4094     4063     3990     3977     4014     4020     4040 
    4109     4132     4072     4028     4041     4054     4035     4016 
    4041     4079     4052     3987     3998     4083     4132     4089 
    4018     4006     4043     4062     4048     4044     4064     4064 
    4052     4071     4074     4045     4044     4056     4044     4024 
    4012     4014     4039     4051     4052     4072     4058     4010 
    4039     4116     4118     4064     4047     4066     4059     4023 
    3998     4021     4066     4055     3990     3975     4035     4077 
    4086     4101     4102     4079     4044     4017     4037     4077 
    4077     4033     3997     4028     4064     4024     3996     4028 
    4063     4087     4087     4079     4093     4077     4028     4029 
    4056     4044     4031     4028     4002     3981     4027     4089 
    4089     4074     4070     4041     4036     4059     4064     4067 
    4072     4056     4027     3997     3991     4039     4079     4077 
    4090     4079     4029     4039     4066     4054     4062     4072 
    4063     4039     3987     3964     3997     4051     4108     4117 
    4081     4066     4050     4012     4033     4098     4097     4033 
    3959     3943     4039     4117     4056     4004     4044     4064 
    4059     4067     4058     4062     4101     4102     4058     4032 
    3998     3979     4035     4064     4021     4012     4051     4086 
    4097     4059     3998     3991     4086     4194     4166     3987 
    3844     3975     4244     4213     3933     3838     4028     4194 
    4062     4000     4234     4141     3762     3917     4356     4193 
    3595     3645     4491     4699     3927     3632     3875     3743 
    3723     4306     4838     4634     3832     3231     3478     4311 
    4550     3896     3821     4693     4627     3179     2782     4475 
    5683     4571     3115     3431     4178     3697     3516     4824 
    5422     4185     3376     3809     3788     3067     3061     4247 
    5437     5406     4496     3653     3009     2758     3709     5530 
    5888     3665     1611     2578     4981     5560     4787     4876 
    4661     2673     1479     3370     6021     6231     4569     3213 
    2697     2855     3464     4203     4990     5263     4607     3855 
    3658     3603     3379     3397     4128     5086     5386     4811 
    3410     1946     2150     4394     6419     5938     3932     2830 
    2889     3520     4556     5150     4806     3921     3072     3060 
    3959     4710     4595     4050     3967     4183     3731     3137 
    3670     4822     5090     4216     3481     3694     4071     4148 
    4093     3705     3639     4448     5074     4757     3565     2305 
    2805     5055     6350     5139     3026     2309     3100     4197 
    5269     5834     4710     2614     1921     3330     5127     5282 
    4091     3597     4048     4144     3942     4230     4650     4278 
    3354     3292     4167     4374     3902     4158     4633     3997 
    3163     3715     4857     4814     3889     3600     4128     4514 
    4276     3773     3434     3342     3585     4209     4962     5211 
    4284     2999     2990     3883     4291     4453     4746     4253 
    3308     3539     4367     4121     3419     3584     4147     4288 
    4403     4843     4963     4206     3256     3283     4160     4696 
    4334     3591     3203     3416     4153     5001     5150     4375 
    3465     3283     3882     4452     4311     3929     3906     3794 
    3534     4070     5167     5124     3588     2382     2851     4195 
    4995     4941     4491     3917     3551     3747     4210     4538 
    4527     3985     3361     3302     3727     4322     4723     4418 
    3639     3372     3923     4564     4642     4348     4050     3669 
    3364     3574     4333     5175     5231     4186     3111     2995 
    3434     3862     4365     4685     4440     4020     3937     4089 
    4059     3748     3616     3983     4314     4114     3963     4198 
    4185     3908     4124     4648     4299     3250     3356     4669 
    5053     4232     3804     3959     3869     3451     3469     4390 
    5053     4426     3524     3424     3728     3713     3697     4421 
    5125     4639     3780     3713     3788     3408     3499     4372 
    4822     4313     3774     3915     4313     4298     3905     3846 
    4372     4685     4260     3626     3468     3906     4337     4060 
    3246     2866     3581     4816     5263     4482     3578     3655 
    4449     4927     4455     3603     3464     4045     4440     4108 
    3393     3226     3990     4619     4303     3991     4338     4580 
    4178     3734     3932     4167     3769     3489     3906     4378 
    4264     3801     3701     3937     3825     3789     4546     5154 
    4615     3686     3603     4172     4297     4018     4031     4176 
    3987     3460     3342     4108     4642     4224     3832     3788 
    3626     3850     4673     4980     4317     3743     3954     4311 
    4085     3726     3979     4330     4156     3732     3222     3105 
    4028     5143     5246     4434     3508     3383     4082     4553 
    4337     3755     3481     4033     4406     3630     2810     3154 
    4249     5100     5290     4951     4145     3221     3088     3875 
    4689     4985     4830     4309     3338     2324     2462     3919 
    4999     4695     4180     4398     4591     4364     4166     3867 
    3480     3591     3987     3989     3699     3385     3277     4051 
    5481     5780     4275     2925     3244     4247     4857     4997 
    4337     3053     2616     3646     4607     4267     3623     3933 
    4665     4561     3670     3280     4041     5066     4977     3946 
    3550     3736     3369     3512     5152     6297     5413     3755 
    2608     1993     2099     3427     5331     5996     4824     3505 
    3797     5049     4995     3570     3318     4553     4621     3065 
    2450     3372     3882     3763     4067     4421     4217     3917 
    4421     5589     5948     4900     3700     3553     3975     3542 
    2461     2668     3916     4095     3798     4251     4167     3222 
    3285     4920     6012     4982     3561     3696     4461     4563 
    4197     3627     3079     3026     3470     4083     4359     4156 
    4023     4126     4592     5530     5661     3974     2174     2629 
    4576     5171     4040     3084     3030     3739     4822     5019 
    4122     3588     4067     4691     4704     4345     3989     3807 
    4024     4094     3408     2992     3520     3904     3912     4407 
    5252     5489     4638     3304     2681     3308     4280     4527 
    4418     4426     4055     3376     3244     3693     4075     4321 
    4495     4382     4164     3948     3601     3848     5036     5607 
    4527     3001     2386     2884     4274     5779     5891     4276 
    2625     2450     3456     4368     4419     3958     3815     4241 
    4722     4653     3910     3260     3684     4666     4877     4382 
    3870     3288     2828     2903     3219     3593     4279     5054 
    5341     4870     4120     4062     4807     5377     4904     3385 
    1927     2033     3689     5112     5266     4735     3778     2655 
    2710     4143     5397     5637     5128     4205     3233     2756 
    3165     3910     4068     3842     4000     4461     4461     3870 
    3577     4158     4842     4752     4391     4349     4041     3227 
    2770     3377     4649     5468     5229     4318     3408     2879 
    3242     4583     5410     4599     3377     3130     3315     3206 
    3464     4442     5065     4723     4143     3789     3646     4081 
    4926     5202     4610     3688     3009     2828     3022     3410 
    3912     4557     5321     5536     4716     3796     3569     3628 
    3754     3971     4077     3958     3470     2878     3117     4356 
    5362     5130     4182     3748     4098     4402     4387     4631 
    4822     4077     3032     2868     3364     3804     4062     4195 
    4280     4463     4704     4833     4764     4368     3612     3073 
    3345     3851     3774     3662     4164     4430     3704     3030 
    3599     4695     5066     4968     5034     4837     4045     3200 
    2951     3555     4357     4303     3716     3620     3816     3595 
    3335     3766     4482     4795     5011     5277     4895     3846 
    3061     3138     3773     4251     4340     4104     3472     2821 
    3011     4348     5792     5944     4869     3763     3265     3295 
    3647     4086     4320     4017     3385     3299     3955     4558 
    4527     4054     3811     4230     4824     4739     3969     3406 
    3595     4121     4342     3936     3136     2929     3893     5039 
    5127     4403     3946     4027     4147     4163     4330     4548 
    4272     3528     3190     3406     3420     3334     3852     4761 
    5135     4560     3700     3426     3859     4553     4841     4604 
    4564     4696     4236     3477     2990     2624     2762     3740 
    4507     4355     4055     4295     4839     5081     4731     4051 
    3456     3262     3551     3990     4396     4683     4221     3248 
    3238     4360     5097     4486     3327     3121     3994     4851 
    5039     4588     3786     3164     3123     3719     4657     4953 
    4016     2990     3161     4237     5201     5583     5620     5526 
    5024     3921     2779     2567     3276     3473     2598     2070 
    2728     3726     4291     4414     4332     4249     4494     5417 
    6531     6805     6210     5557     5001     4078     2956     2381 
    2443     2443     2138     2143     2828     3680     4174     4548 
    5165     5832     6467     7402     8398     8228     6228     3720 
    2235     1354      222     -494     -121      577      823     1032 
    1944     3393     4696     5813     7015     7992     8143     7414 
    6413     5576     4760     3811     2717     1277     -637    -2423 
   -2778     -911     2457     5800     8409    10304    10548     7875 
    3400      592     1571     4572     6216     5124     2488      599 
    1090     3466     5791     6750     6127     4599     3584     3993 
    5468     6763     6727     5464     3720     2045     1165     1447 
    2490     3647     3912     2662     1136     1475     4185     7369 
    8785     8276     7287     6922     7462     8083     6943     3623 
     302    -1219    -1377     -939      -44      999     2072     3574 
    5836     8546    10354     9926     7800     5499     3666     2259 
    1028     -148     -903     -805      411     2370     3928     4738 
    5445     6512     8085     9867    10839     9938     6990     3105 
     118     -909     -495      437     1772     3441     4382     3863 
    3111     3699     5177     6097     6089     5475     4477     3561 
    3311     3866     4588     4363     2997     1289      -71     -179 
    1575     4203     6296     7499     8036     8036     7419     6037 
    4213     2652     1459      372      -95      861     2828     4320 
    4749     5139     6304     7442     7365     6207     5104     5039 
    5931     6297     4808     2087      -13     -471      395     1968 
    3538     4129     3574     3015     3813     6115     8306     8853 
    8221     7315     5668     2705     -425    -1588     -260     1930 
    3352     3674     3676     4297     5336     5979     6289     6535 
    6266     5331     4279     3450     2805     2565     3024     3537 
    2975     1634     1250     2799     5371     7223     7318     6072 
    4958     4851     5125     4892     4063     3001     1957     1032 
     715     1725     3835     5724     6428     6203     5591     4785 
    4086     3854     3917     3616     2668     1557     1007     1556 
    3303     5532     7028     7215     6566     5755     5132     4739 
    4334     3863     3626     3620     3353     2556     1551      905 
    1093     2134     3593     5059     6394     7558     8197     7813 
    6421     4465     2512     1332     1244     1541     1733     2278 
    3397     4661     5649     5935     5244     4095     3504     3856 
    4648     5169     5011     4436     4280     4625     4421     3123 
    1474      602     1089     2774     5062     6860     6955     5472 
    4016     4016     5356     6509     6201     4710     3299     2727 
    2647     2481     2250     2266     2494     2724     3033     3422 
    3727     4268     5409     6683     7141     6316     4780     3628 
    3360     3613     3685     3219     2722     2808     3100     3010 
    3046     3952     5328     6334     6547     5740     4244     3215 
    3501     4556     5132     4607     3113     1539     1229     2496 
    4264     5385     5449     4818     4302     4461     5015     5246 
    4861     4006     3002     2371     2463     2963     3187     2952 
    3113     4592     6527     7003     5884     4487     3531     3323 
    3894     4330     3805     2909     2563     2612     2737     3323 
    4353     5034     4965     4536     4220     4216     4600     5185 
    5510     5329     4660     3693     2882     2566     2678     2882 
    2937     3017     3271     3555     4090     5182     6255     6524 
    6087     5433     4806     4382     4271     4148     3487     2417 
    1655     1632     2323     3311     3986     4117     4068     4352 
    5012     5578     5599     5022     4255     3867     3821     3508 
    2897     2363     1983     2265     3599     4942     5285     5011 
    4896     5364     6216     6507     5729     4557     3816     3618 
    3639     3559     3194     2693     2535     2921     3407     3504 
    3350     3435     3971     4772     5493     5841     5597     4704 
    3584     2924     3003     3523     4023     4253     4221     4032 
    3866     4052     4646     5042     4693     3890     3221     2754 
    2475     2794     3697     4252     3862     3303     3636     4672 
    5428     5528     5250     4793     4225     3711     3376     3129 
    2924     2937     3169     3422     3770     4405     5120     5464 
    5417     5425     5551     5254     4268     3157     2644     2686 
    2830     3067     3493     3820     3898     4121     4799     5559 
    5756     5161     4116     3186     2731     2894     3489     3933 
    3901     3677     3751     4340     5121     5670     5883     5667 
    4974     4148     3597     3441     3481     3406     3230     3199 
    3250     3191     3208     3573     4041     4189     4163     4376 
    4691     4772     4723     4633     4503     4438     4205     3623 
    3214     3321     3496     3503     3631     3851     3928     3955 
    4086     4353     4645     4745     4590     4209     3601     3033 
    2932     3415     4183     4797     4969     4664     4201     4089 
    4394     4638     4563     4306     4001     3731     3537     3450 
    3628     4033     4401     4676     4787     4541     4125     3946 
    4045     3978     3396     2813     2882     3206     3298     3515 
    3950     4140     4132     4357     4816     5213     5420     5518 
    5454     5032     4411     3893     3418     2797     2119     1765 
    2100     2970     3807     4387     4941     5562     5948     5780 
    5177     4496     3973     3677     3491     3269     3040     2890 
    2957     3346     3874     4341     4731     5028     5252     5487 
    5675     5624     5209     4509     3800     3326     3034     2687 
    2255     2073     2417     3049     3500     3653     3778     4160 
    4781     5333     5552     5371     4920     4611     4708     4788 
    4305     3497     3069     3245     3601     3603     3244     2953 
    2893     3114     3786     4703     5395     5584     5302     4882 
    4449     3878     3514     3649     3751     3396     2947     2955 
