Origin Time       2024/06/23 22:54:00
Lat.              35.645
Long.             140.060
Depth. (km)       72
Mag.              4.1
Station Code      TKY018
Station Lat.      35.6553
Station Long.     139.8114
Station Height(m) 6
Record Time       2024/06/23 22:54:45
Sampling Freq(Hz) 100Hz
Duration Time(s)  60
Dir.              N-S
Scale Factor      7845(gal)/8223790
Max. Acc. (gal)   8.152
Last Correction   2024/06/23 22:54:44
Memo.             
[...]
    8814     8932     8897     8824     8904     8968     8942     8907 
    8896     8856     8839     8900     8899     8897     8961     8907 
    8842     8865     8861     8891     8924     8896     8887     8870 
    8849     8849     8856     8895     8938     8949     8916     8872 
    8861     8866     8908     8931     8884     8884     8891     8856 
    8918     8988     8896     8788     8842     8910     8880     8922 
    8958     8847     8856     8945     8837     8830     8996     8928 
    8827     8908     8927     8899     8910     8896     8868     8883 
    8923     8862     8824     8899     8880     8854     8910     8872 
    8816     8883     8939     8877     8874     8953     8885     8845 
    8945     8911     8824     8878     8916     8862     8910     8986 
    8873     8806     8878     8849     8870     9003     8976     8851 
    8838     8881     8849     8870     8962     8911     8857     8893 
    8843     8834     8919     8893     8850     8922     8922     8849 
    8895     8937     8876     8866     8899     8884     8857     8888 
    8901     8849     8887     8938     8876     8885     8938     8916 
    8907     8912     8876     8827     8877     8935     8858     8857 
    8943     8891     8857     8916     8885     8870     8962     8939 
    8847     8931     8968     8837     8847     8908     8829     8842 
    8942     8893     8854     8920     8870     8816     8919     8957 
    8896     8887     8914     8885     8851     8931     8934     8847 
    8901     8911     8847     8891     8908     8884     8893     8910 
    8888     8868     8958     8905     8748     8833     8868     8842 
    9009     8992     8812     8866     8972     8857     8788     8942 
    8904     8779     8930     8965     8869     8919     8900     8838 
    8883     8916     8883     8893     8923     8826     8800     8950 
    8953     8870     8923     8897     8766     8819     8954     8955 
    8964     8957     8839     8812     8892     8905     8876     8924 
    8950     8826     8838     8980     8920     8869     8914     8847 
    8820     8889     8885     8824     8895     8946     8812     8884 
    8989     8804     8849     8989     8838     8834     8978     8907 
    8811     8912     8939     8834     8918     8954     8824     8872 
    8922     8883     8928     8937     8883     8820     8861     8961 
    8876     8834     8919     8888     8866     8884     8868     8895 
    8908     8861     8822     8893     8953     8846     8870     9011 
    8912     8808     8893     8880     8811     8884     8908     8861 
    8926     8924     8847     8895     8887     8799     8856     8938 
    8874     8838     8893     8877     8905     9005     8923     8856 
    8922     8849     8803     8915     8900     8833     8895     8968 
    8941     8880     8874     8820     8815     8953     8862     8752 
    8951     8969     8834     8892     8900     8833     8870     8926 
    8881     8880     8955     8846     8822     9013     8911     8829 
    8985     8874     8819     8957     8883     8907     8996     8818 
    8750     8918     8953     8873     8885     8861     8804     8905 
    8912     8833     8931     8924     8816     8842     8843     8885 
    8938     8841     8829     8869     8887     8999     8964     8849 
    8915     8897     8842     8949     8926     8810     8893     8939 
    8818     8888     8999     8831     8838     8988     8829     8802 
    8974     8892     8822     8899     8873     8885     9015     8908 
    8721     8930     8997     8764     8958     9054     8766     8860 
    8935     8784     8916     8961     8837     8874     8908     8892 
    8883     8938     8957     8823     8841     8911     8870     8949 
    8949     8864     8896     8897     8884     8847     8883     8999 
    8858     8819     8957     8769     8804     9072     8868     8780 
    8985     8858     8810     9004     8873     8731     8970     8974 
    8738     8942     9015     8727     8939     9040     8714     8866 
    8973     8785     8926     8935     8795     8957     9022     8838 
    8808     8974     8916     8779     8965     9011     8818     8833 
    8864     8876     8964     8955     8926     8862     8824     8850 
    8803     8949     9065     8853     8872     8923     8719     8881 
    9063     8802     8796     9019     8858     8772     9026     8973 
    8812     8949     8880     8789     8986     8877     8746     8999 
    8978     8791     8910     8907     8745     8872     9003     8904 
    8949     8973     8756     8770     8927     8802     8807     9077 
    9053     8824     8810     8831     8810     8923     8988     8926 
    8908     8885     8866     8905     8853     8826     9015     9066 
    8773     8731     8997     8897     8765     8951     8937     8838 
    8885     8847     8835     8897     8934     8918     8833     8860 
    8932     8870     8865     8908     8883     8904     8910     8857 
    8935     8970     8803     8822     8997     8918     8858     8939 
    8833     8822     8997     8931     8858     8951     8864     8820 
    8965     8866     8764     8938     8901     8772     8912     8901 
    8795     8928     8888     8797     9012     8993     8849     9015 
    8953     8779     8928     8930     8865     8908     8750     8716 
    8826     8818     8947     9045     8912     8802     8834     8934 
    8895     8783     8812     8912     8966     8851     8876     9151 
    9019     8823     8989     8847     8726     8931     8927     9007 
    9117     8866     8706     8681     8645     8804     9016     9050 
    8910     8810     8802     8766     8889     9020     8981     8970 
    8847     8807     8980     8968     9019     9051     8796     8818 
    8835     8623     8862     9070     8903     9015     9090     8792 
    8631     8742     8996     9116     8831     8642     8841     8865 
    8704     9005     9351     8931     8634     9043     9062     8739 
    8756     8908     9053     8831     8572     8892     8901     8680 
    9073     9090     8460     8510     9256     9439     8865     8571 
    8888     9088     8812     8660     9004     9093     8749     8922 
    9369     9045     8518     8745     8991     8715     8815     9205 
    9036     8716     8727     8931     9104     8850     8581     8847 
    8954     8625     8598     9043     9323     9004     8738     9051 
    9074     8776     9012     9100     8672     8607     8818     8941 
    8962     8703     8723     9109     8949     8752     9103     9045 
    8646     8741     9039     9157     9009     8745     8748     8791 
    8716     8856     8959     8896     8951     8912     8779     8802 
    8946     9185     9108     8772     8831     8869     8729     8923 
    8953     8772     8899     8928     8856     8976     8827     8598 
    8829     9015     8954     9050     9026     8895     8993     8860 
    8599     8845     9089     8876     8715     8841     8930     8873 
    8878     8924     8961     9076     9027     8835     8908     9003 
    8845     8753     8753     8799     8954     8927     8804     8870 
    8869     8789     8856     8962     9020     9080     9136     9039 
    8788     8642     8618     8684     8905     9092     9094     8946 
    8716     8653     8869     9088     9053     8893     8885     8957 
    8962     8937     8803     8652     8722     8830     8847     8927 
    9011     9039     8978     8787     8672     8688     8787     9047 
    9289     9285     9051     8772     8695     8741     8754     8777 
    8804     8866     8965     8981     8939     8946     8930     8845 
    8887     9000     8931     8892     8926     8788     8754     8849 
    8739     8695     8874     8992     9046     9042     8880     8781 
    8918     9011     8969     9027     9062     8974     9016     9024 
    8858     8800     8756     8631     8664     8760     8781     8868 
    8996     8992     8895     8773     8619     8719     9076     9093 
    8822     8775     8899     9058     9170     9080     8918     8872 
    8814     8699     8829     9135     9105     8787     8577     8595 
    8878     9163     9140     9015     8854     8590     8560     8758 
    8799     8872     9136     9159     8968     8931     8911     8887 
    8997     8993     8907     8877     8676     8569     8761     8834 
    8802     8850     8986     9221     9201     8970     8830     8626 
    8573     8729     8860     9138     9221     8968     8941     8977 
    8922     9023     9026     8788     8523     8414     8549     8869 
    9189     9178     8959     8923     8830     8692     8796     8908 
    9015     9138     9038     8864     8748     8676     8676     8683 
    8807     9053     9194     9228     9194     9117     8978     8723 
    8591     8623     8621     8807     9086     9022     8918     9035 
    9003     8834     8834     8857     8737     8614     8545     8631 
    8970     9254     9277     9165     8980     8870     8876     8922 
    9027     8962     8756     8806     8974     9032     8970     8737 
    8644     8838     8941     8870     8773     8712     8777     8865 
    8878     8885     8924     9003     9111     9205     9153     8915 
    8823     8955     8988     8999     9096     8985     8642     8417 
    8515     8795     8980     8981     8826     8658     8695     8919 
    9076     8980     8839     8901     8976     8923     8895     9007 
    9158     9088     8824     8604     8498     8572     8783     8970 
    9108     9112     8991     8897     8789     8699     8807     9039 
    9171     9070     8938     9016     8965     8676     8586     8710 
    8846     8946     8946     8964     8915     8707     8685     8869 
    9043     9173     9144     9078     9099     9022     8941     8923 
    8775     8629     8615     8564     8554     8815     9085     8969 
    8757     8846     9003     9061     9146     9142     9007     8905 
    8816     8752     8775     8802     8787     8754     8779     8907 
    8992     8999     9024     9058     9054     8942     8761     8699 
    8753     8776     8703     8552     8445     8590     8934     9143 
    9188     9282     9362     9343     9255     9088     8937     8826 
    8716     8706     8784     8849     8816     8662     8592     8730 
    8870     8827     8646     8630     8912     9132     9053     8876 
    8756     8648     8536     8603     8953     9275     9335     9223 
    8966     8676     8645     8885     9151     9298     9263     9059 
    8781     8503     8367     8513     8831     9063     9007     8784 
    8768     8943     8995     8982     9062     9104     8978     8726 
    8549     8575     8735     9022     9265     9185     8974     8922 
    8980     9099     9173     9089     8934     8769     8640     8596 
    8614     8719     8876     8976     9000     8934     8827     8819 
    8888     8835     8672     8665     8851     8950     8849     8754 
    8845     8970     8945     8835     8742     8812     9104     9325 
    9285     9055     8789     8739     8901     9001     8932     8779 
    8731     8830     8827     8683     8613     8648     8741     8928 
    9116     9127     9022     8989     8980     8837     8613     8511 
    8657     8982     9310     9466     9359     9100     8851     8676 
    8618     8673     8812     8950     8931     8742     8576     8657 
    8861     8874     8829     8901     8900     8900     9092     9300 
    9343     9240     9101     8938     8691     8492     8469     8515 
    8523     8494     8522     8719     8970     9121     9169     9055 
    8908     8976     9059     8942     8842     8835     8764     8764 
    8997     9170     9113     9097     9192     9256     9332     9328 
    9177     9126     9069     8748     8426     8294     8275     8360 
    8425     8550     8901     9147     9144     9161     9162     9108 
    9182     9305     9219     8942     8662     8465     8429     8592 
    8797     8935     9035     9100     9089     8962     8804     8696 
    8594     8563     8684     8827     8843     8808     8861     8939 
    8928     8907     8926     8916     9000     9240     9312     9089 
    8889     8853     8800     8681     8660     8756     8812     8838 
    8830     8673     8465     8378     8428     8559     8762     9085 
    9352     9433     9504     9547     9390     9123     8914     8810 
    8746     8646     8455     8328     8673     9347     9684     9521 
    9116     8672     8372     8334     8533     8770     8839     8815 
    8865     8881     8743     8644     8727     8866     9030     9240 
    9324     9223     9115     9092     9101     9080     9003     8874 
    8762     8845     9081     9170     9120     9112     9049     8854 
    8645     8479     8364     8326     8317     8297     8426     8865 
    9464     9863     9818     9499     9328     9329     9188     8889 
    8576     8183     7776     7591     7612     7781     8287     9185 
   10245    11124    11450    11057    10126     8996     7946     7125 
    6697     6781     7159     7447     7573     7730     8016     8367 
    8733     9162     9647    10075    10237     9931     9370     9088 
    9309     9756     9899     9375     8418     7690     7678     8425 
    9666    10951    11672    11280     9713     7591     5929     5517 
    6480     8378    10678    12819    13954    13262    10531     6606 
    3227     1810     2621     5243     9121    13446    16762    17433 
   15144    11203     7360     5157     5092     6219     7739     9560 
   11334    12464    12351    10926     8930     7026     5570     4656 
    4324     5108     7059     9289    10836    11106    10507     9919 
    9454     8934     8081     6601     5182     4955     6327     8861 
   11245    11812    10003     6876     4110     3045     4183     6909 
    9853    11796    12366    11948    11252    10827    10442     9603 
    8557     8083     8680     9942    10963    11541    11939    11928 
   11198     9923     8534     7500     7061     7084     7329     7672 
    8056     8314     8324     8240     8148     8033     7861     7562 
    7623     8522     9630    10303    10647    10868    11137    11296 
   10926    10126     9428     9255     9474     9524     9389     9406 
    9454     9316     9022     8568     7935     7412     7516     8197 
    8673     8418     7561     6303     4920     4093     4434     5913 
    7842     9451    10492    11125    11497    11719    11761    11430 
   10766    10103     9694     9531     9487     9589     9853     9883 
    9337     8579     8148     8060     8063     8197     8653     9297 
    9552     8903     7476     5968     5206     5576     6687     8025 
    9283    10038    10130     9821     9346     8976     8812     8638 
    8548     8816     9115     8824     8066     7727     8367     9670 
   10952    11745    11961    11628    10805     9799     9040     8668 
    8426     8078     7742     7615     7792     8267     8842     9425 
   10123    10671    10363     8953     7105     5744     5275     5605 
    6633     8195     9670    10471    10720    10952    11342    11556 
   11221    10268     9119     8337     7932     7699     7692     7950 
    8360     8675     8708     8634     8745     9019     9035     8725 
    8669     9040     9423     9591     9607     9637     9582     9186 
    8503     7676     6966     6810     7246     8006     8866     9617 
   10158    10335    10084     9629     8954     8102     7723     8149 
    8907     9412     9563     9672     9896    10010     9780     9225 
    8599     8101     7774     7711     8027     8646     9208     9342 
    9038     8603     8379     8386     8380     8235     7915     7542 
    7403     7659     8271     8910     9302     9652    10088    10428 
   10461    10023     9394     9004     8857     8914     9142     9401 
    9686     9786     9371     8622     8021     7916     8178     8328 
    8260     8131     8143     8635     9501    10326    10790    10536 
    9732     8964     8523     8579     9012     9269     8985     8452 
    8370     8955     9802    10324     9906     8688     7558     6978 
    7101     7904     8915     9636     9616     8838     7977     7435 
    7364     7894     8731     9450     9688     9391     8982     8735 
    8885     9552    10115    10066     9481     8590     7963     7982 
    8375     8783     8950     8816     8602     8544     8642     8676 
    8703     8930     9119     9105     9032     9128     9670    10357 
   10528    10011     9065     8218     7846     7840     7950     7959 
    8033     8494     9231    10048    10687    10720    10142     9292 
    8590     8414     8634     8851     8831     8527     8120     7766 
    7618     7824     8293     8947     9562     9614     9016     8097 
    7248     6893     7159     7898     8932     9992    10762    11020 
   10802    10314     9863     9722     9775     9790     9674     9327 
    8904     8575     8164     7662     7321     7268     7443     7758 
    8210     8781     9397     9888     9882     9316     8621     8137 
    8097     8560     9104     9356     9369     9219     9077     9107 
    9167     9219     9320     9370     9440     9610     9667     9431 
    8910     8306     7973     8106     8541     8934     9043     8685 
    8027     7722     8025     8604     9096     9207     8951     8687 
    8622     8716     8868     9019     9147     9313     9653    10102 
   10396    10266     9560     8580     7861     7582     7684     7974 
    8202     8426     8745     9055     9302     9328     8968     8424 
    8017     7994     8418     9061     9597     9745     9424     8843 
    8426     8491     8846     9173     9408     9471     9517     9709 
    9713     9436     9042     8579     8336     8361     8353     8262 
    8081     7935     8056     8395     8876     9321     9481     9406 
    9212     9019     8847     8662     8737     9090     9440     9730 
    9868     9855     9784     9559     9262     9066     9008     9103 
    9178     9039     8641     8086     7673     7480     7445     7738 
    8337     9057     9728     9973     9699     9273     8942     8765 
    8718     8743     8876     9066     9111     8881     8407     7962 
    8016     8602     9250     9738     9995     9879     9570     9162 
    8573     8020     7696     7646     7851     8106     8338     8611 
    8887     9200     9521     9613     9358     8988     8838     8950 
    9057     8922     8600     8278     8062     8047     8240     8564 
    8966     9323     9552     9707     9783     9809     9871     9749 
    9147     8387     7992     7974     8272     8864     9394     9659 
    9767     9738     9549     9185     8730     8399     8253     8286 
    8498     8862     9342     9721     9850     9675     9144     8613 
    8317     8121     8081     8141     8221     8414     8645     8904 
    9153     9274     9371     9386     9196     8911     8545     8217 
    8210     8586     9270     9921    10141     9942     9428     8819 
    8394     8147     8087     8102     8127     8398     8904     9471 
    9844     9679     9054     8301     7734     7522     7646     8127 
    8765     9296     9660     9718     9483     9138     8769     8529 
