Origin Time       2024/06/23 22:54:00
Lat.              35.645
Long.             140.060
Depth. (km)       72
Mag.              4.1
Station Code      TKY021
Station Lat.      35.6875
Station Long.     139.8190
Station Height(m) 1
Record Time       2024/06/23 22:54:45
Sampling Freq(Hz) 100Hz
Duration Time(s)  60
Dir.              U-D
Scale Factor      7845(gal)/8223790
Max. Acc. (gal)   2.342
Last Correction   1970/01/31 00:00:00
Memo.             
[...]
    8433     8437     8437     8436     8434     8433     8432     8436 
    8448     8452     8446     8449     8446     8433     8424     8421 
    8418     8415     8417     8425     8434     8446     8460     8463 
    8455     8451     8452     8451     8455     8465     8469     8460 
    8453     8456     8459     8455     8444     8432     8422     8413 
    8407     8414     8419     8418     8424     8434     8438     8438 
    8433     8425     8418     8413     8411     8421     8429     8433 
    8441     8445     8445     8446     8453     8464     8465     8459 
    8456     8452     8448     8457     8465     8460     8449     8437 
    8421     8405     8403     8410     8418     8433     8442     8445 
    8455     8464     8464     8456     8446     8440     8441     8438 
    8428     8422     8424     8426     8428     8419     8409     8405 
    8403     8398     8402     8414     8425     8433     8444     8457 
    8464     8463     8463     8465     8457     8451     8452     8449 
    8445     8444     8446     8452     8457     8455     8444     8436 
    8428     8421     8414     8414     8415     8414     8411     8415 
    8425     8425     8421     8421     8424     8428     8429     8429 
    8442     8460     8463     8455     8449     8445     8441     8438 
    8438     8438     8433     8428     8432     8437     8433     8428 
    8425     8422     8425     8436     8446     8448     8442     8442 
    8453     8460     8455     8449     8448     8445     8441     8436 
    8430     8425     8414     8405     8409     8415     8410     8406 
    8419     8434     8444     8455     8463     8459     8453     8446 
    8436     8428     8422     8417     8417     8424     8434     8441 
    8442     8446     8451     8445     8436     8434     8434     8433 
    8434     8436     8437     8438     8440     8445     8455     8459 
    8452     8446     8441     8437     8438     8442     8445     8444 
    8437     8428     8421     8419     8421     8421     8422     8430 
    8438     8440     8440     8440     8436     8432     8434     8434 
    8430     8429     8429     8429     8430     8436     8440     8445 
    8451     8457     8460     8465     8478     8494     8514     8521 
    8483     8407     8344     8326     8333     8356     8410     8472 
    8495     8495     8502     8482     8407     8337     8351     8402 
    8378     8374     8548     8721     8610     8224     7835     7875 
    8347     8600     8505     8554     8527     8129     8144     8926 
    9524     9335     8804     8293     7650     7164     7654     8969 
    9876     9698     8704     7740     7693     8270     8440     8101 
    7713     7663     8456     9516     9371     8406     8293     8799 
    8571     7865     7682     7790     7911     8815    10031     9603 
    7983     7565     8302     8602     8301     7970     8041     8668 
    9382     9576     8972     7954     7508     7831     8040     7875 
    8046     8699     9335     9721     9304     7707     6471     7196 
    8775     9393     9211     8970     8611     8274     8279     8349 
    8293     8317     8482     8791     9049     8762     8031     7569 
    7809     8480     8849     8814     8930     8962     8328     7492 
    7269     7871     8864     9262     8787     8353     8284     8163 
    8221     8711     9112     8959     8375     7861     7811     8105 
    8503     8831     8808     8521     8544     8877     8633     7712 
    7354     7993     8775     9177     9116     8645     8182     8106 
    8446     8776     8518     7893     7722     8301     9055     9294 
    9003     8388     7596     7241     7784     8796     9566     9680 
    9139     8255     7474     7318     7905     8630     8978     9001 
    8752     8287     7970     8041     8380     8730     8777     8541 
    8438     8488     8363     8187     8317     8711     8969     8856 
    8487     7993     7593     7692     8324     8997     9169     8706 
    8056     7821     8145     8642     8843     8681     8446     8290 
    8058     7852     8179     8945     9243     8800     8368     8410 
    8476     8194     7979     8168     8513     8737     8676     8540 
    8835     9097     8445     7596     7825     8610     8645     8167 
    8299     8874     8757     8035     7879     8403     8694     8473 
    8272     8424     8684     8671     8419     8360     8510     8461 
    8309     8325     8382     8492     8638     8530     8302     8318 
    8576     8866     8833     8271     7719     7854     8515     8961 
    8768     8240     8050     8290     8432     8465     8808     9159 
    8920     8326     8052     8091     7975     7966     8565     9150 
    8972     8565     8484     8295     7916     8036     8568     8684 
    8523     8675     8591     7827     7407     8012     8769     8955 
    8881     8789     8652     8587     8394     8031     8135     8650 
    8816     8658     8453     8097     7850     7963     8090     8070 
    8225     8587     8757     8641     8633     8797     8668     8280 
    8252     8536     8580     8449     8464     8472     8384     8494 
    8729     8530     7909     7634     8122     8914     9142     8544 
    8132     8637     9085     8656     8140     8195     8363     8397 
    8595     8868     8823     8494     8163     7947     7977     8270 
    8418     8266     8330     8739     8872     8649     8635     8761 
    8600     8344     8189     7886     7653     8036     8775     9116 
    8961     8842     8861     8545     7960     7616     7611     7996 
    8629     8857     8673     8711     8947     8905     8418     7847 
    7863     8378     8565     8424     8525     8654     8476     8334 
    8299     7909     7437     7870     8904     9115     8681     8788 
    8997     8532     7906     7623     7743     8399     9333     9891 
    9606     8667     7736     7280     7631     8680     9127     8283 
    7543     7896     8432     8378     8052     7947     8380     9181 
    9655     9390     8571     7898     8028     8571     8700     8452 
    8434     8752     8783     8251     7990     8537     9035     8947 
    8802     8487     7732     7573     8392     8646     7823     7726 
    9024     9857     9193     8202     7742     7572     7780     8533 
    9063     8754     8235     8090     8074     8140     8451     8592 
    8216     7971     8505     9130     9177     9150     9167     8749 
    8256     8050     7750     7611     8100     8546     8372     8233 
    8704     9157     8710     7762     7534     8239     8915     8942 
    8645     8544     8571     8379     8209     8468     8833     8857 
    8530     7885     7380     7846     8919     9317     8907     8565 
    8523     8407     8203     8120     8186     8457     8779     8635 
    8167     8132     8525     8853     9057     9069     8668     7967 
    7611     8158     8883     8614     7870     7974     8694     8749 
    7985     7588     8176     8814     8687     8442     8619     8662 
    8229     7792     7986     8703     9169     9254     9180     8675 
    7943     7647     7955     8588     8858     8332     7794     8144 
    8878     8851     8243     8317     8982     8958     8334     8108 
    8280     8542     8784     8518     7754     7462     8141     9121 
    9429     8834     8074     7913     8405     9072     9081     8131 
    7283     7624     8743     9444     9275     8807     8521     8247 
    7919     7703     7626     7882     8487     8866     8761     8573 
    8676     8920     8761     8155     7831     8151     8691     9012 
    9113     8958     8230     7483     7830     8722     8781     8297 
    8171     8316     8515     8854     9177     9047     8206     7341 
    7410     8120     8699     9066     9238     9036     8480     7939 
    7917     8382     8721     8517     8014     7847     8190     8522 
    8457     8347     8712     9204     9093     8503     8064     7970 
    7952     7920     8372     9294     9652     9039     8055     7290 
    7327     8217     9018     9256     9256     9047     8573     8006 
    7560     7535     7789     7905     8160     8630     8584     8338 
    8838     9274     8779     8433     8853     8993     8349     7797 
    8098     8800     8969     8563     8181     8023     8056     8181 
    8002     7717     8143     9096     9409     8884     8573     8854 
    8869     8268     7816     8055     8526     8527     8221     8307 
    8776     8924     8437     7902     8029     8522     8573     8141 
    7906     8279     8826     9001     8920     8722     8276     7855 
    7839     8089     8361     8634     8769     8587     8283     8291 
    8696     9074     9026     8642     8209     7902     7838     7882 
    7986     8473     9026     8896     8506     8613     8981     9134 
    8776     8024     7776     8356     8818     8622     8311     8345 
    8603     8816     8853     8657     8225     7850     7873     8097 
    8214     8299     8318     8225     8218     8276     8380     8733 
    9019     8862     8586     8329     7919     7695     7870     8118 
    8378     8816     9319     9576     9225     8330     7740     8013 
    8367     7947     7470     7924     8521     8297     8095     8600 
    8939     8775     8916     9262     8865     8070     7928     8174 
    8244     8521     9045     9256     9148     8927     8541     8162 
    7938     7738     7695     7942     8131     8063     8050     8386 
    8885     8993     8611     8268     8325     8729     9055     8792 
    8290     8264     8559     8748     8752     8511     8267     8340 
    8476     8500     8658     8741     8433     8282     8548     8430 
    7857     7816     8398     8783     8775     8733     8733     8653 
    8484     8257     7904     7460     7379     7885     8374     8483 
    8572     8607     8406     8422     8799     8924     8567     8336 
    8657     8973     8708     8368     8375     8132     7624     7780 
    8503     8880     8860     8793     8577     8236     8054     8113 
    8360     8667     8865     9020     9235     9301     8996     8541 
    8185     7863     7873     8490     8966     8722     8336     8131 
    7796     7522     7607     7809     8040     8554     9204     9404 
    9013     8608     8604     8781     8892     8833     8464     8037 
    7973     8002     7770     7695     8097     8552     8653     8395 
    8014     7758     7591     7636     8230     8989     9229     9104 
    9101     9277     9389     9231     8924     8734     8473     7894 
    7402     7546     8208     8802     8972     8739     8291     8023 
    8139     8275     8229     8228     8347     8569     8847     8912 
    8619     8160     7797     7577     7503     7707     8133     8537 
    8891     9243     9389     9150     8708     8279     7866     7680 
    8101     8899     9389     9479     9468     9269     8947     8899 
    8895     8465     7885     7624     7627     7642     7677     7825 
    7998     8139     8429     8918     9315     9328     8945     8341 
    7753     7474     7680     8106     8413     8708     9112     9406 
    9393     9055     8561     8162     7800     7456     7554     8083 
    8372     8174     7746     7423     7699     8654     9478     9472 
    9063     8982     9123     8989     8634     8266     7734     7233 
    7322     7820     8225     8691     9319     9713     9702     9505 
    9273     8878     8293     7885     7847     7916     7963     8043 
    8170     8363     8526     8538     8390     8012     7515     7296 
    7460     7766     8208     8866     9385     9378     8972     8519 
    8320     8503     8861     9092     9228     9472     9734     9620 
    8981     8235     7740     7292     6837     6864     7412     7821 
    7881     7992     8241     8406     8444     8457     8572     8780 
    8866     8862     9158     9701     9805     9200     8418     7994 
    8010     8370     8926     9351     9319     8941     8694     8737 
    8748     8581     8274     7720     7176     7098     7267     7244 
    7111     7148     7445     7881     8225     8411     8530     8614 
    8706     8923     9332     9741     9741     9200     8590     8391 
    8521     8743     9015     9261     9491     9730     9610     8922 
    8233     7912     7516     6984     6781     6754     6550     6345 
    6293     6423     6967     8027     9189     9971    10372    10535 
   10403    10008     9543     9293     9398     9509     9296     8903 
    8514     8154     7936     8050     8448     8753     8627     8141 
    7603     7180     6924     6968     7329     7769     8187     8635 
    8924     8907     8962     9475    10102    10300    10168     9879 
    9163     8141     7470     7321     7439     7816     8262     8233 
    7695     7188     7038     7122     7273     7516     7866     8135 
    8139     8027     8154     8553     8914     9018     8916     8874 
    9120     9432     9383     9036     8796     8796     8935     9171 
    9333     9173     8827     8644     8554     8193     7553     7094 
    7115     7329     7393     7499     7882     8244     8309     8388 
    8706     8996     9104     9192     9445     9886    10224    10112 
    9736     9603     9645     9337     8708     8187     7825     7561 
    7558     7716     7647     7383     7249     7196     7013     6760 
    6624     6723     6995     7302     7750     8445     9173     9806 
   10420    10867    10893    10565    10153     9717     9139     8449 
    7809     7387     7299     7408     7466     7487     7585     7699 
    7742     7786     7933     8145     8309     8402     8529     8695 
    8698     8525     8557     8957     9281     9190     9086     9383 
    9636     9289     8638     8181     7948     7844     7812     7774 
    7693     7611     7685     7948     8240     8461     8542     8505 
    8606     8899     9135     9275     9516     9844     9946     9683 
    9360     9225     9015     8463     7863     7547     7425     7425 
    7520     7470     7249     7126     7149     7155     7130     7263 
    7681     8287     8926     9514     9918     9934     9510     8860 
    8251     7839     7724     7929     8398     8965     9336     9410 
    9340     9259     9236     9105     8623     7974     7508     7302 
    7365     7697     8124     8392     8436     8405     8399     8384 
    8370     8382     8360     8278     8208     8235     8310     8349 
    8441     8731     9155     9514     9633     9413     8965     8552 
    8283     8095     7943     7851     7916     8182     8518     8815 
    9043     9128     9101     9001     8698     8264     7967     7790 
    7643     7632     7781     7950     8056     8186     8374     8487 
    8567     8776     8908     8662     8216     7969     8028     8218 
    8434     8679     8920     9182     9482     9644     9487     9165 
    8893     8561     8017     7441     7132     7248     7690     8101 
    8193     8036     7933     7998     8046     8040     8143     8322 
    8538     8872     9247     9408     9213     8892     8792     8810 
    8584     8222     8132     8384     8726     8884     8748     8437 
    8129     7911     7816     7811     7813     7798     7797     7846 
    8020     8328     8567     8615     8722     9034     9238     9140 
    9015     8997     8874     8671     8595     8550     8444     8438 
    8540     8606     8661     8793     8981     9090     9043     8910 
    8708     8422     8172     8077     8078     8082     8075     8078 
    8121     8194     8124     7854     7624     7605     7712     7816 
    7852     7835     7884     8054     8268     8451     8561     8623 
    8683     8649     8542     8615     8824     8862     8698     8545 
    8550     8634     8586     8440     8413     8476     8495     8505 
    8598     8769     8884     8843     8753     8719     8710     8712 
    8754     8764     8675     8654     8887     9212     9340     9184 
    8797     8279     7781     7445     7303     7323     7469     7662 
    7828     8001     8137     8110     8056     8181     8345     8363 
    8340     8395     8451     8453     8571     8973     9459     9641 
    9524     9355     9121     8752     8391     8117     7908     7859 
    8002     8183     8253     8132     7867     7690     7805     8163 
    8515     8681     8722     8746     8715     8590     8479     8415 
    8360     8418     8606     8698     8634     8554     8413     8158 
    8009     8132     8355     8509     8630     8703     8675     8692 
    8827     8883     8806     8780     8854     8881     8789     8691 
    8606     8365     7974     7692     7645     7726     7820     7886 
    8001     8225     8384     8372     8299     8148     7884     7777 
    8094     8698     9198     9351     9155     8741     8310     8063 
    8064     8301     8689     9080     9360     9485     9464     9312 
    9001     8586     8209     7933     7700     7489     7456     7674 
    7962     8172     8294     8313     8297     8262     8120     7987 
    8098     8455     8899     9225     9265     9096     8889     8641 
    8361     8218     8329     8615     8884     8991     8942     8833 
    8691     8515     8376     8338     8378     8390     8328     8256 
    8159     7939     7651     7450     7385     7423     7523     7716 
    8127     8716     9150     9162     8872     8592     8451     8321 
    8214     8344     8675     8957     9108     9151     9151     9198 
    9247     9169     8889     8453     8060     7811     7635     7587 
    7767     8086     8365     8503     8523     8577     8658     8554 
    8264     8051     8047     8181     8348     8445     8468     8532 
    8662     8733     8672     8549     8457     8397     8326     8267 
    8284     8361     8436     8545     8722     8908     9030     9011 
    8911     8860     8776     8580     8480     8581     8702     8637 
    8343     8060     8052     8085     7827     7485     7425     7599 
    7838     8120     8372     8473     8490     8484     8421     8355 
    8367     8422     8457     8442     8352     8262     8298     8415 
    8463     8421     8455     8676     8941     9067     9094     9100 
    9066     8988     8891     8769     8591     8401     8313     8313 
    8270     8213     8255     8386     8514     8519     8398     8291 
    8194     8002     7793     7731     7840     8021     8168     8287 
    8425     8557     8667     8775     8878     8935     8937     8908 
    8878     8900     8946     8850     8595     8363     8226     8158 
    8194     8344     8468     8422     8257     8127     8114     8232 
    8436     8604     8608     8455     8294     8230     8271     8353 
    8361     8253     8062     7839     7716     7746     7855     8027 
    8245     8453     8629     8723     8722     8696     8689     8675 
    8714     8928     9201     9243     9061     8918     8846     8696 
    8500     8345     8225     8166     8168     8226     8384     8529 
    8483     8345     8267     8198     8143     8221     8371     8430 
    8410     8440     8565     8743     8876     8895     8851     8856 
    8868     8775     8610     8428     8158     7819     7627     7731 
    7994     8179     8257     8311     8316     8264     8244     8251 
