Origin Time       2024/06/23 22:54:00
Lat.              35.645
Long.             140.060
Depth. (km)       72
Mag.              4.1
Station Code      TKY007
Station Lat.      35.7111
Station Long.     139.6864
Station Height(m) 34
Record Time       2024/06/23 22:54:37
Sampling Freq(Hz) 100Hz
Duration Time(s)  66
Dir.              U-D
Scale Factor      7845(gal)/8223790
Max. Acc. (gal)   3.787
Last Correction   2024/06/23 22:54:37
Memo.             
[...]
   -6093    -6083    -6070    -6079    -6093    -6103    -6097    -6060 
   -6038    -6066    -6085    -6089    -6095    -6087    -6075    -6085 
   -6104    -6102    -6097    -6100    -6088    -6065    -6046    -6057 
   -6089    -6107    -6103    -6096    -6102    -6092    -6073    -6080 
   -6080    -6064    -6064    -6081    -6093    -6080    -6069    -6076 
   -6076    -6075    -6079    -6085    -6083    -6076    -6077    -6070 
   -6069    -6092    -6111    -6104    -6091    -6091    -6085    -6079 
   -6080    -6072    -6073    -6093    -6107    -6097    -6079    -6081 
   -6088    -6081    -6076    -6077    -6089    -6100    -6088    -6070 
   -6073    -6077    -6065    -6068    -6092    -6096    -6084    -6072 
   -6072    -6091    -6093    -6085    -6087    -6095    -6091    -6066 
   -6061    -6079    -6091    -6107    -6115    -6103    -6087    -6077 
   -6068    -6060    -6069    -6081    -6085    -6092    -6088    -6077 
   -6066    -6066    -6077    -6072    -6065    -6076    -6089    -6091 
   -6080    -6084    -6095    -6093    -6081    -6075    -6087    -6099 
   -6097    -6084    -6062    -6058    -6077    -6106    -6111    -6089 
   -6077    -6081    -6083    -6084    -6072    -6057    -6058    -6076 
   -6088    -6083    -6092    -6111    -6106    -6084    -6058    -6046 
   -6057    -6087    -6104    -6103    -6102    -6091    -6070    -6062 
   -6072    -6084    -6095    -6103    -6079    -6048    -6056    -6070 
   -6089    -6111    -6099    -6073    -6060    -6058    -6066    -6080 
   -6084    -6072    -6070    -6072    -6066    -6085    -6115    -6118 
   -6092    -6075    -6084    -6093    -6097    -6087    -6065    -6064 
   -6081    -6093    -6083    -6069    -6083    -6092    -6079    -6066 
   -6076    -6084    -6068    -6049    -6053    -6077    -6099    -6099 
   -6089    -6081    -6081    -6085    -6080    -6084    -6083    -6079 
   -6099    -6106    -6084    -6068    -6068    -6066    -6072    -6092 
   -6099    -6087    -6070    -6056    -6064    -6088    -6102    -6095 
   -6077    -6069    -6064    -6072    -6089    -6089    -6087    -6089 
   -6081    -6079    -6092    -6100    -6083    -6079    -6092    -6085 
   -6073    -6070    -6075    -6087    -6100    -6089    -6062    -6066 
   -6096    -6106    -6106    -6091    -6056    -6043    -6062    -6079 
   -6076    -6083    -6089    -6077    -6076    -6084    -6081    -6084 
   -6089    -6080    -6056    -6057    -6097    -6126    -6115    -6083 
   -6058    -6050    -6065    -6100    -6114    -6100    -6085    -6070 
   -6061    -6068    -6088    -6097    -6099    -6097    -6080    -6075 
   -6087    -6081    -6073    -6076    -6081    -6079    -6087    -6110 
   -6106    -6084    -6069    -6056    -6062    -6080    -6083    -6087 
   -6102    -6100    -6072    -6061    -6066    -6072    -6097    -6119 
   -6097    -6069    -6079    -6095    -6085    -6080    -6076    -6065 
   -6072    -6083    -6087    -6093    -6096    -6085    -6070    -6076 
   -6081    -6075    -6076    -6080    -6085    -6093    -6099    -6093 
   -6087    -6091    -6083    -6066    -6069    -6076    -6085    -6097 
   -6093    -6079    -6072    -6088    -6096    -6088    -6080    -6072 
   -6079    -6093    -6095    -6083    -6064    -6061    -6080    -6100 
   -6099    -6085    -6091    -6106    -6110    -6093    -6065    -6060 
   -6065    -6062    -6061    -6061    -6075    -6097    -6114    -6108 
   -6088    -6083    -6081    -6073    -6079    -6080    -6069    -6069 
   -6087    -6089    -6079    -6080    -6080    -6085    -6097    -6083 
   -6061    -6068    -6091    -6097    -6083    -6070    -6062    -6064 
   -6072    -6083    -6114    -6135    -6108    -6066    -6056    -6057 
   -6052    -6065    -6088    -6093    -6099    -6100    -6089    -6077 
   -6066    -6057    -6054    -6068    -6087    -6095    -6097    -6092 
   -6087    -6076    -6068    -6076    -6075    -6069    -6075    -6084 
   -6097    -6108    -6107    -6087    -6072    -6069    -6057    -6049 
   -6066    -6085    -6089    -6081    -6076    -6073    -6073    -6081 
   -6077    -6075    -6084    -6095    -6102    -6102    -6089    -6068 
   -6065    -6087    -6087    -6073    -6068    -6066    -6079    -6096 
   -6096    -6084    -6088    -6087    -6058    -6053    -6061    -6054 
   -6072    -6107    -6111    -6093    -6091    -6096    -6091    -6084 
   -6077    -6072    -6083    -6089    -6085    -6084    -6089    -6089 
   -6084    -6093    -6091    -6072    -6066    -6062    -6062    -6072 
   -6085    -6089    -6087    -6083    -6076    -6083    -6088    -6073 
   -6069    -6077    -6089    -6099    -6095    -6095    -6096    -6077 
   -6053    -6056    -6091    -6118    -6122    -6107    -6079    -6062 
   -6058    -6066    -6080    -6085    -6092    -6088    -6087    -6097 
   -6088    -6072    -6073    -6079    -6081    -6085    -6087    -6083 
   -6089    -6087    -6066    -6070    -6083    -6072    -6076    -6100 
   -6100    -6088    -6110    -6124    -6103    -6092    -6087    -6077 
   -6073    -6058    -6048    -6068    -6100    -6100    -6083    -6083 
   -6084    -6085    -6104    -6108    -6083    -6061    -6060    -6058 
   -6066    -6083    -6081    -6088    -6112    -6118    -6107    -6096 
   -6092    -6085    -6080    -6080    -6065    -6056    -6068    -6088 
   -6104    -6107    -6103    -6092    -6083    -6080    -6072    -6066 
   -6077    -6091    -6100    -6099    -6093    -6083    -6076    -6083 
   -6083    -6088    -6100    -6106    -6088    -6056    -6048    -6064 
   -6088    -6103    -6093    -6084    -6089    -6085    -6066    -6064 
   -6085    -6095    -6097    -6102    -6087    -6079    -6096    -6112 
   -6103    -6080    -6070    -6062    -6061    -6077    -6087    -6093 
   -6104    -6107    -6106    -6102    -6084    -6050    -6031    -6037 
   -6056    -6083    -6096    -6099    -6114    -6127    -6119    -6091 
   -6072    -6064    -6058    -6070    -6081    -6085    -6091    -6092 
   -6092    -6089    -6088    -6087    -6085    -6084    -6077    -6075 
   -6076    -6072    -6076    -6083    -6081    -6077    -6079    -6084 
   -6085    -6083    -6066    -6060    -6077    -6077    -6072    -6089 
   -6106    -6106    -6100    -6091    -6076    -6077    -6096    -6099 
   -6079    -6053    -6039    -6065    -6103    -6111    -6092    -6079 
   -6073    -6060    -6072    -6089    -6088    -6092    -6091    -6066 
   -6060    -6085    -6093    -6080    -6088    -6091    -6079    -6085 
   -6089    -6083    -6081    -6077    -6064    -6064    -6087    -6096 
   -6092    -6096    -6088    -6068    -6060    -6066    -6076    -6084 
   -6087    -6072    -6065    -6075    -6077    -6083    -6093    -6093 
   -6084    -6069    -6073    -6077    -6075    -6081    -6091    -6100 
   -6102    -6087    -6072    -6066    -6068    -6065    -6061    -6069 
   -6080    -6092    -6099    -6103    -6091    -6065    -6072    -6081 
   -6070    -6070    -6080    -6087    -6102    -6118    -6096    -6049 
   -6035    -6048    -6065    -6096    -6116    -6111    -6099    -6092 
   -6076    -6058    -6066    -6072    -6068    -6081    -6095    -6103 
   -6112    -6104    -6072    -6048    -6043    -6045    -6070    -6104 
   -6110    -6093    -6085    -6089    -6087    -6081    -6084    -6072 
   -6069    -6079    -6062    -6049    -6064    -6083    -6085    -6091 
   -6095    -6077    -6072    -6091    -6100    -6097    -6089    -6079 
   -6075    -6079    -6088    -6084    -6076    -6076    -6084    -6089 
   -6083    -6093    -6107    -6096    -6072    -6049    -6054    -6079 
   -6091    -6088    -6076    -6079    -6088    -6091    -6087    -6066 
   -6060    -6079    -6095    -6102    -6096    -6088    -6080    -6088 
   -6100    -6085    -6066    -6066    -6070    -6079    -6093    -6100 
   -6092    -6091    -6097    -6087    -6070    -6060    -6052    -6060 
   -6087    -6103    -6089    -6083    -6081    -6075    -6093    -6118 
   -6111    -6087    -6070    -6068    -6066    -6081    -6102    -6099 
   -6093    -6091    -6075    -6064    -6072    -6088    -6092    -6089 
   -6072    -6057    -6073    -6087    -6089    -6095    -6102    -6095 
   -6066    -6053    -6062    -6068    -6079    -6091    -6097    -6103 
   -6102    -6103    -6092    -6068    -6057    -6065    -6076    -6076 
   -6069    -6069    -6085    -6111    -6120    -6118    -6107    -6076 
   -6045    -6038    -6057    -6079    -6087    -6095    -6106    -6122 
   -6116    -6081    -6061    -6058    -6062    -6083    -6102    -6096 
   -6080    -6079    -6081    -6080    -6092    -6085    -6062    -6058 
   -6069    -6077    -6088    -6110    -6118    -6102    -6080    -6054 
   -6045    -6075    -6115    -6126    -6104    -6079    -6054    -6046 
   -6060    -6079    -6110    -6129    -6116    -6097    -6075    -6043 
   -6029    -6048    -6083    -6106    -6111    -6099    -6079    -6075 
   -6076    -6080    -6076    -6083    -6111    -6116    -6095    -6068 
   -6049    -6052    -6069    -6102    -6124    -6112    -6075    -6041 
   -6041    -6061    -6085    -6097    -6091    -6089    -6092    -6081 
   -6073    -6075    -6091    -6107    -6108    -6089    -6068    -6068 
   -6061    -6056    -6083    -6106    -6110    -6114    -6095    -6054 
   -6042    -6076    -6099    -6096    -6085    -6066    -6060    -6073 
   -6087    -6095    -6106    -6108    -6093    -6088    -6084    -6065 
   -6069    -6084    -6072    -6062    -6072    -6080    -6084    -6108 
   -6120    -6099    -6087    -6076    -6052    -6050    -6079    -6099 
   -6099    -6102    -6089    -6065    -6069    -6081    -6085    -6087 
   -6081    -6075    -6075    -6083    -6084    -6076    -6076    -6079 
   -6089    -6097    -6092    -6091    -6084    -6076    -6064    -6038 
   -6042    -6092    -6145    -6143    -6092    -6050    -6039    -6056 
   -6081    -6102    -6110    -6106    -6091    -6065    -6061    -6088 
   -6110    -6122    -6112    -6065    -6026    -6025    -6053    -6087 
   -6116    -6126    -6108    -6104    -6095    -6060    -6041    -6050 
   -6068    -6085    -6103    -6099    -6075    -6070    -6073    -6075 
   -6100    -6124    -6123    -6100    -6060    -6019    -6016    -6057 
   -6083    -6093    -6120    -6124    -6100    -6083    -6075    -6062 
   -6052    -6056    -6064    -6081    -6108    -6120    -6118    -6104 
   -6081    -6066    -6070    -6081    -6066    -6045    -6041    -6056 
   -6081    -6100    -6111    -6111    -6103    -6110    -6102    -6070 
   -6048    -6034    -6043    -6076    -6118    -6150    -6145    -6106 
   -6062    -6052    -6060    -6054    -6054    -6072    -6093    -6100 
   -6100    -6103    -6079    -6042    -6041    -6062    -6072    -6070 
   -6091    -6118    -6135    -6135    -6096    -6056    -6061    -6073 
   -6060    -6039    -6050    -6075    -6097    -6123    -6133    -6127 
   -6108    -6070    -6039    -6023    -6026    -6060    -6099    -6112 
   -6103    -6100    -6097    -6091    -6089    -6076    -6043    -6027 
   -6056    -6097    -6107    -6104    -6097    -6087    -6080    -6077 
   -6081    -6087    -6091    -6087    -6066    -6054    -6061    -6084 
   -6114    -6115    -6083    -6041    -6041    -6088    -6111    -6091 
   -6070    -6081    -6089    -6076    -6077    -6081    -6073    -6072 
   -6079    -6096    -6115    -6114    -6095    -6081    -6089    -6084 
   -6065    -6053    -6034    -6033    -6064    -6103    -6130    -6135 
   -6106    -6058    -6049    -6069    -6079    -6088    -6087    -6085 
   -6114    -6131    -6103    -6061    -6043    -6027    -6030    -6093 
   -6141    -6116    -6085    -6076    -6081    -6088    -6080    -6058 
   -6045    -6061    -6079    -6089    -6099    -6097    -6087    -6083 
   -6099    -6120    -6118    -6084    -6043    -6042    -6068    -6095 
   -6122    -6118    -6088    -6062    -6052    -6065    -6093    -6114 
   -6102    -6070    -6060    -6076    -6096    -6089    -6061    -6061 
   -6087    -6099    -6088    -6075    -6076    -6069    -6060    -6068 
   -6095    -6118    -6111    -6095    -6087    -6083    -6091    -6103 
   -6104    -6062    -6022    -6052    -6095    -6106    -6110    -6102 
   -6068    -6050    -6075    -6085    -6069    -6069    -6076    -6076 
   -6085    -6099    -6091    -6072    -6073    -6081    -6091    -6102 
   -6089    -6085    -6097    -6081    -6061    -6075    -6093    -6093 
   -6096    -6106    -6096    -6075    -6065    -6062    -6077    -6096 
   -6084    -6060    -6079    -6110    -6097    -6070    -6064    -6068 
   -6064    -6043    -6043    -6073    -6114    -6134    -6107    -6076 
   -6068    -6076    -6092    -6103    -6107    -6095    -6070    -6065 
   -6088    -6097    -6068    -6054    -6075    -6087    -6097    -6115 
   -6112    -6088    -6072    -6058    -6029    -6035    -6076    -6089 
   -6096    -6106    -6087    -6079    -6091    -6087    -6084    -6097 
   -6088    -6076    -6091    -6095    -6083    -6070    -6064    -6075 
   -6092    -6106    -6099    -6076    -6079    -6080    -6066    -6070 
   -6085    -6087    -6091    -6119    -6120    -6076    -6057    -6065 
   -6053    -6058    -6112    -6150    -6153    -6188    -6232    -6210 
   -6134    -6042    -5957    -5879    -5809    -5763    -5798    -5980 
   -6251    -6458    -6513    -6426    -6273    -6133    -6043    -6046 
   -6097    -6062    -5944    -5952    -6085    -6038    -5834    -5927 
   -6404    -6733    -6536    -6129    -6027    -6311    -6659    -6781 
   -6534    -5784    -4563    -3326    -2982    -4291    -6814    -9009 
   -9678    -8719    -6552    -3867    -2112    -2759    -5476    -8075 
   -8754    -7796    -6532    -5487    -4727    -4916    -6362    -7824 
   -7808    -6496    -5243    -4734    -4733    -5167    -6191    -7264 
   -7457    -6885    -6484    -6224    -5580    -5157    -5553    -6278 
   -6782    -6813    -6320    -5690    -5306    -5340    -5896    -6505 
   -6493    -6173    -6161    -6324    -6448    -6420    -5931    -5188 
   -4814    -4968    -5620    -6681    -7350    -7018    -6299    -5894 
   -5761    -5759    -5861    -6120    -6528    -6669    -6396    -6253 
   -6203    -5670    -5127    -5479    -6423    -7049    -7010    -6509 
   -5888    -5231    -4666    -4806    -5806    -6849    -7292    -7133 
   -6610    -6115    -5722    -5215    -5020    -5724    -6721    -7061 
   -7006    -7055    -6604    -5312    -4267    -4542    -5697    -6448 
   -6520    -6674    -6944    -6647    -5941    -5560    -5579    -5725 
   -6103    -6743    -7159    -6863    -6056    -5360    -4966    -4845 
   -5267    -6158    -6886    -7157    -7056    -6517    -5760    -5277 
   -5142    -5331    -5954    -6731    -7240    -7253    -6613    -5595 
   -4858    -4714    -5073    -5877    -6899    -7535    -7276    -6216 
   -5224    -5167    -5775    -6243    -6550    -6955    -7074    -6512 
   -5540    -4803    -4818    -5425    -6019    -6457    -6875    -7078 
   -6809    -6160    -5547    -5497    -5998    -6273    -5918    -5562 
   -5733    -6191    -6552    -6690    -6488    -5899    -5308    -5262 
   -5792    -6448    -6885    -6939    -6448    -5707    -5368    -5476 
   -5680    -6033    -6625    -7015    -6816    -6253    -5625    -5197 
   -5456    -6266    -6748    -6521    -5925    -5366    -5151    -5448 
   -6111    -6752    -7006    -6789    -6312    -5934    -5937    -6174 
   -6215    -5926    -5582    -5562    -5880    -6107    -6130    -6242 
   -6366    -6204    -6058    -6411    -6793    -6484    -5834    -5510 
   -5493    -5692    -6183    -6612    -6586    -6332    -6197    -6037 
   -5633    -5317    -5489    -5888    -6062    -6096    -6355    -6799 
   -6825    -6027    -5023    -4877    -5630    -6359    -6810    -7269 
   -7218    -6195    -5073    -4806    -5090    -5421    -6042    -6971 
   -7433    -7022    -6282    -5718    -5256    -5007    -5397    -6168 
   -6525    -6354    -6161    -5962    -5476    -5165    -5630    -6444 
   -6818    -6874    -7137    -7368    -6963    -6161    -5764    -5752 
   -5483    -5198    -5660    -6598    -6939    -6332    -5667    -5734 
   -6007    -5822    -5782    -6477    -7125    -6905    -6254    -5922 
   -5972    -6100    -6181    -6232    -6129    -5682    -5115    -4997 
   -5422    -6016    -6756    -7581    -7963    -7522    -6331    -4912 
   -4058    -4124    -4777    -5647    -6521    -7114    -7410    -7395 
   -6438    -4626    -3553    -4132    -5344    -6014    -6238    -6724 
   -7501    -7715    -7083    -6473    -6214    -5760    -5377    -5755 
   -6268    -5922    -5289    -5526    -6409    -6813    -6363    -5787 
   -5800    -6143    -6270    -6207    -6108    -6054    -6385    -6952 
   -6852    -6066    -5589    -5616    -5687    -5782    -5773    -5400 
   -5329    -6266    -7349    -7406    -6805    -6478    -6318    -5873 
   -5614    -5957    -6197    -5709    -4882    -4429    -4791    -6092 
   -7882    -8928    -8257    -6546    -5181    -4504    -4355    -4943 
   -5971    -6569    -6573    -6407    -6079    -5634    -5769    -6602 
   -7065    -6762    -6496    -6328    -5670    -5119    -5598    -6370 
   -6251    -5724    -5736    -6004    -5983    -5935    -6254    -6718 
   -6799    -6234    -5324    -4747    -4962    -5830    -6778    -7256 
   -7091    -6505    -6065    -6153    -6315    -5863    -5105    -4969 
   -5451    -5823    -6110    -6694    -6974    -6246    -5331    -5408 
   -6134    -6646    -6882    -6833    -6269    -5575    -5413    -5603 
   -5617    -5742    -6480    -7277    -7096    -5996    -5181    -5328 
   -5773    -5763    -5609    -5888    -6350    -6489    -6436    -6605 
   -6972    -7002    -6415    -5788    -5755    -6057    -5981    -5409 
   -5007    -5255    -5935    -6710    -7267    -7223    -6690    -6126 
   -5701    -5427    -5363    -5557    -5892    -6075    -6142    -6480 
   -6930    -6763    -5969    -5524    -5818    -6052    -5724    -5436 
   -5663    -6000    -6057    -6002    -6072    -6138    -6056    -6156 
   -6517    -6623    -6577    -6841    -6795    -5833    -4916    -5108 
   -5856    -6238    -6393    -6642    -6710    -6431    -6178    -6131 
   -5864    -5362    -5316    -5726    -5907    -5973    -6413    -6748 
   -6389    -5852    -5848    -6193    -6394    -6459    -6450    -6185 
   -5651    -5125    -5094    -5760    -6586    -7005    -7044    -6939 
   -6697    -6143    -5390    -5055    -5397    -5833    -5994    -6088 
   -6207    -6259    -6223    -6211    -6349    -6440    -6361    -6339 
   -6370    -6165    -5751    -5340    -4959    -4870    -5456    -6342 
   -6814    -6767    -6459    -6088    -5807    -5633    -5548    -5740 
   -6184    -6393    -6245    -6224    -6443    -6416    -6088    -6038 
   -6355    -6392    -5980    -5755    -5979    -6307    -6604    -6839 
   -6748    -6318    -5810    -5448    -5485    -6034    -6824    -7173 
   -6438    -5001    -4135    -4456    -5539    -6781    -7614    -7492 
   -6471    -5371    -4973    -5285    -5807    -6301    -6810    -7187 
   -7149    -6696    -6089    -5591    -5402    -5528    -5749    -5942 
   -6072    -6134    -6174    -6116    -5853    -5540    -5397    -5413 
   -5637    -6270    -7040    -7404    -7260    -6752    -6072    -5448 
   -5012    -5000    -5544    -6137    -6316    -6343    -6453    -6528 
   -6529    -6448    -6361    -6370    -6151    -5439    -4919    -5302 
   -5965    -6111    -6184    -6732    -7303    -7119    -6166    -5223 
