Origin Time       2024/06/23 22:54:00
Lat.              35.645
Long.             140.060
Depth. (km)       72
Mag.              4.1
Station Code      TKY027
Station Lat.      35.6930
Station Long.     139.8913
Station Height(m) 1
Record Time       2024/06/23 22:54:44
Sampling Freq(Hz) 100Hz
Duration Time(s)  60
Dir.              E-W
Scale Factor      7845(gal)/8223790
Max. Acc. (gal)   4.981
Last Correction   2024/06/23 22:54:44
Memo.             
[...]
   -2191    -2178    -2189    -2207    -2199    -2184    -2180    -2191 
   -2182    -2165    -2174    -2178    -2178    -2187    -2181    -2178 
   -2178    -2168    -2165    -2153    -2143    -2164    -2182    -2193 
   -2197    -2184    -2182    -2184    -2176    -2178    -2185    -2199 
   -2204    -2189    -2173    -2168    -2168    -2166    -2173    -2185 
   -2191    -2189    -2178    -2174    -2181    -2182    -2174    -2166 
   -2160    -2157    -2170    -2181    -2176    -2181    -2197    -2193 
   -2184    -2191    -2185    -2170    -2176    -2187    -2185    -2188 
   -2192    -2196    -2185    -2166    -2164    -2157    -2150    -2168 
   -2189    -2209    -2209    -2180    -2164    -2161    -2160    -2172 
   -2189    -2205    -2203    -2187    -2200    -2215    -2192    -2170 
   -2166    -2168    -2182    -2187    -2173    -2185    -2207    -2204 
   -2201    -2199    -2176    -2139    -2107    -2119    -2187    -2241 
   -2231    -2178    -2142    -2154    -2185    -2211    -2222    -2212 
   -2197    -2170    -2151    -2165    -2176    -2178    -2192    -2193 
   -2172    -2158    -2168    -2187    -2207    -2199    -2133    -2092 
   -2150    -2242    -2276    -2223    -2134    -2099    -2133    -2178 
   -2200    -2211    -2209    -2177    -2149    -2162    -2196    -2208 
   -2191    -2185    -2192    -2185    -2165    -2166    -2204    -2218 
   -2181    -2161    -2177    -2200    -2212    -2197    -2166    -2154 
   -2158    -2166    -2168    -2162    -2162    -2170    -2195    -2220 
   -2219    -2199    -2180    -2173    -2169    -2170    -2184    -2188 
   -2181    -2173    -2168    -2173    -2185    -2203    -2200    -2166 
   -2153    -2160    -2155    -2168    -2188    -2188    -2174    -2166 
   -2173    -2188    -2193    -2176    -2162    -2178    -2193    -2191 
   -2189    -2188    -2182    -2177    -2176    -2169    -2169    -2187 
   -2196    -2182    -2169    -2178    -2187    -2181    -2187    -2201 
   -2200    -2182    -2155    -2150    -2172    -2192    -2201    -2199 
   -2191    -2168    -2143    -2161    -2191    -2192    -2173    -2158 
   -2169    -2178    -2169    -2170    -2180    -2182    -2185    -2188 
   -2184    -2182    -2196    -2193    -2168    -2166    -2177    -2170 
   -2169    -2181    -2176    -2153    -2155    -2177    -2181    -2178 
   -2174    -2181    -2209    -2209    -2180    -2165    -2177    -2195 
   -2188    -2173    -2165    -2169    -2193    -2205    -2192    -2184 
   -2185    -2178    -2168    -2176    -2177    -2169    -2181    -2195 
   -2187    -2173    -2168    -2172    -2177    -2184    -2182    -2174 
   -2181    -2185    -2187    -2196    -2196    -2192    -2181    -2177 
   -2184    -2174    -2165    -2173    -2181    -2191    -2187    -2161 
   -2151    -2173    -2192    -2182    -2161    -2162    -2180    -2182 
   -2177    -2181    -2185    -2188    -2188    -2182    -2174    -2172 
   -2174    -2182    -2182    -2162    -2151    -2170    -2192    -2196 
   -2188    -2176    -2173    -2192    -2197    -2177    -2178    -2199 
   -2188    -2174    -2176    -2176    -2188    -2192    -2170    -2154 
   -2169    -2189    -2185    -2178    -2188    -2195    -2197    -2203 
   -2197    -2176    -2153    -2157    -2189    -2209    -2196    -2176 
   -2176    -2178    -2161    -2147    -2169    -2205    -2200    -2168 
   -2157    -2169    -2187    -2184    -2165    -2173    -2204    -2208 
   -2181    -2169    -2170    -2157    -2146    -2151    -2180    -2205 
   -2193    -2187    -2191    -2168    -2150    -2164    -2185    -2203 
   -2193    -2173    -2180    -2195    -2184    -2176    -2180    -2176 
   -2170    -2169    -2172    -2176    -2180    -2182    -2180    -2177 
   -2187    -2201    -2199    -2182    -2178    -2182    -2188    -2192 
   -2191    -2188    -2191    -2189    -2181    -2191    -2209    -2203 
   -2178    -2166    -2174    -2182    -2182    -2182    -2176    -2166 
   -2165    -2173    -2187    -2189    -2181    -2173    -2174    -2192 
   -2191    -2170    -2177    -2182    -2172    -2170    -2168    -2166 
   -2172    -2188    -2209    -2211    -2189    -2150    -2137    -2168 
   -2184    -2174    -2169    -2170    -2177    -2185    -2193    -2199 
   -2188    -2162    -2155    -2177    -2193    -2196    -2187    -2164 
   -2157    -2177    -2201    -2218    -2212    -2187    -2166    -2166 
   -2188    -2212    -2207    -2172    -2141    -2135    -2157    -2184 
   -2196    -2185    -2170    -2172    -2180    -2184    -2189    -2192 
   -2178    -2164    -2169    -2181    -2185    -2181    -2174    -2172 
   -2170    -2176    -2195    -2208    -2191    -2155    -2154    -2180 
   -2197    -2199    -2184    -2184    -2196    -2184    -2169    -2174 
   -2177    -2187    -2199    -2189    -2174    -2197    -2205    -2170 
   -2164    -2157    -2115    -2145    -2211    -2172    -2177    -2258 
   -2166    -2087    -2214    -2189    -2089    -2257    -2303    -2088 
   -2122    -2282    -2174    -2096    -2249    -2305    -2170    -2097 
   -2145    -2137    -2095    -2207    -2326    -2230    -2168    -2255 
   -2224    -2084    -2031    -2106    -2207    -2161    -2141    -2288 
   -2259    -2172    -2315    -2284    -2085    -2100    -2137    -2077 
   -2088    -2166    -2259    -2273    -2154    -2108    -2236    -2185 
   -1927    -2068    -2393    -2238    -2162    -2415    -2241    -2062 
   -2305    -2199    -1998    -2209    -2147    -1950    -2253    -2412 
   -2043    -1937    -2266    -2324    -2079    -2060    -2230    -2313 
   -2301    -2160    -1998    -2103    -2315    -2239    -2089    -2201 
   -2290    -2173    -2139    -2251    -2242    -2056    -1988    -2118 
   -2223    -2268    -2189    -2074    -2269    -2394    -2046    -1981 
   -2393    -2358    -2047    -2185    -2277    -2091    -2178    -2277 
   -2050    -2037    -2309    -2293    -2081    -2116    -2232    -2162 
   -2091    -2203    -2297    -2199    -2130    -2201    -2185    -2093 
   -2068    -2053    -2116    -2261    -2276    -2203    -2157    -2149 
   -2258    -2374    -2307    -2174    -2100    -2069    -2111    -2164 
   -2146    -2083    -2023    -2073    -2250    -2361    -2332    -2293 
   -2288    -2218    -2031    -1934    -2106    -2313    -2305    -2192 
   -2154    -2146    -2095    -2131    -2326    -2455    -2366    -2266 
   -2270    -2200    -2076    -1987    -1887    -1873    -1950    -1973 
   -2069    -2338    -2552    -2559    -2382    -2138    -2077    -2227 
   -2328    -2366    -2366    -2114    -1732    -1684    -1973    -2205 
   -2274    -2245    -2149    -2187    -2380    -2417    -2338    -2349 
   -2212    -1933    -1962    -2201    -2265    -2251    -2245    -2096 
   -1971    -2135    -2285    -2160    -2174    -2351    -2255    -2158 
   -2262    -2120    -1836    -1790    -1777    -1788    -2065    -2403 
   -2628    -2789    -2791    -2582    -2258    -2031    -1976    -1934 
   -1933    -1991    -1956    -1998    -2193    -2268    -2307    -2398 
   -2223    -2002    -2188    -2343    -2230    -2269    -2263    -1975 
   -1885    -2143    -2427    -2556    -2485    -2319    -2134    -1919 
   -1863    -2030    -2181    -2265    -2317    -2272    -2257    -2272 
   -2122    -2035    -2123    -2027    -1908    -2118    -2251    -2120 
   -2162    -2384    -2493    -2525    -2450    -2257    -2166    -1975 
   -1606    -1682    -2087    -2154    -2155    -2278    -2189    -2226 
   -2574    -2633    -2327    -2114    -1989    -1833    -1929    -2251 
   -2272    -2043    -2058    -2061    -1854    -2052    -2623    -2770 
   -2458    -2323    -2384    -2193    -1950    -1977    -1917    -1765 
   -2003    -2376    -2369    -2330    -2585    -2466    -1856    -1791 
   -2178    -2114    -2080    -2455    -2371    -1853    -1796    -2151 
   -2342    -2307    -2288    -2286    -2176    -2115    -2239    -2250 
   -2049    -2003    -2277    -2594    -2592    -2266    -2020    -1999 
   -1993    -1991    -2026    -2091    -2204    -2161    -2049    -2222 
   -2363    -2284    -2339    -2246    -1860    -1831    -2126    -2295 
   -2467    -2539    -2328    -2174    -2108    -2054    -2319    -2473 
   -2057    -1919    -2281    -2249    -1964    -1973    -1971    -1869 
   -1961    -2169    -2369    -2516    -2403    -2043    -1822    -1930 
   -2176    -2405    -2594    -2620    -2506    -2374    -2133    -1946 
   -1925    -1732    -1688    -2142    -2251    -1965    -2270    -2605 
   -2211    -2111    -2593    -2573    -2184    -2142    -2039    -1809 
   -2043    -2385    -2242    -2045    -2262    -2540    -2408    -2135 
   -2112    -2091    -2027    -2219    -2353    -2096    -1806    -1768 
   -1821    -1900    -2177    -2494    -2477    -2282    -2292    -2396 
   -2319    -2137    -2014    -1922    -1945    -2168    -2320    -2269 
   -2245    -2378    -2543    -2565    -2405    -2088    -1679    -1440 
   -1499    -1755    -2243    -2732    -2794    -2608    -2354    -1925 
   -1750    -2135    -2565    -2632    -2434    -2108    -1745    -1579 
   -1794    -2088    -2184    -2301    -2508    -2565    -2492    -2349 
   -2064    -1826    -1876    -2031    -2079    -2118    -2274    -2442 
   -2427    -2312    -2316    -2282    -2030    -1853    -1921    -2039 
   -2223    -2479    -2620    -2658    -2613    -2359    -1926    -1464 
   -1205    -1381    -1896    -2420    -2829    -3092    -3022    -2689 
   -2403    -2104    -1676    -1432    -1509    -1580    -1637    -1931 
   -2327    -2610    -2687    -2550    -2482    -2481    -2284    -2093 
   -2042    -1977    -2079    -2373    -2446    -2251    -2100    -2072 
   -2149    -2307    -2401    -2353    -2146    -1756    -1453    -1632 
   -2133    -2550    -2727    -2524    -2099    -1906    -1919    -1973 
   -2115    -2084    -1852    -1856    -2074    -2290    -2646    -2916 
   -2701    -2397    -2376    -2110    -1502    -1244    -1382    -1551 
   -1980    -2682    -2986    -2790    -2651    -2660    -2498    -2085 
   -1757    -1825    -2045    -2166    -2377    -2565    -2452    -2305 
   -2301    -2281    -2303    -2335    -2234    -2170    -2169    -2015 
   -1814    -1810    -2031    -2261    -2185    -1896    -1794    -1887 
   -2007    -2173    -2315    -2397    -2609    -2863    -2795    -2512 
   -2303    -2016    -1756    -1934    -2299    -2417    -2347    -2178 
   -1927    -1661    -1516    -1652    -1895    -2029    -2280    -2605 
   -2586    -2339    -2170    -2008    -1942    -2219    -2610    -2720 
   -2579    -2330    -1946    -1628    -1651    -1837    -1921    -1945 
   -1969    -2037    -2169    -2178    -2072    -2123    -2340    -2574 
   -2794    -2870    -2639    -2180    -1788    -1648    -1669    -1822 
   -2137    -2428    -2609    -2722    -2655    -2436    -2189    -1833 
   -1594    -1868    -2315    -2403    -2316    -2199    -1894    -1722 
   -1915    -2143    -2311    -2497    -2516    -2466    -2625    -2752 
   -2531    -2127    -1775    -1634    -1792    -1958    -1968    -1964 
   -1950    -2042    -2292    -2366    -2322    -2407    -2374    -2209 
   -2196    -2153    -2093    -2312    -2442    -2269    -2193    -2191 
   -2091    -2085    -2123    -2019    -2002    -2270    -2542    -2544 
   -2344    -2089    -1877    -1790    -1804    -1841    -2011    -2365 
   -2547    -2420    -2305    -2249    -2101    -2026    -2116    -2263 
   -2342    -2191    -1857    -1602    -1534    -1672    -1977    -2288 
   -2512    -2632    -2571    -2342    -2077    -1925    -1979    -2081 
   -2180    -2535    -2897    -2754    -2382    -2126    -1811    -1630 
   -1822    -2079    -2263    -2420    -2427    -2353    -2317    -2297 
   -2230    -2052    -1949    -2139    -2407    -2509    -2417    -2218 
   -2131    -2169    -2251    -2509    -2725    -2570    -2273    -1996 
   -1668    -1526    -1671    -1881    -2169    -2461    -2488    -2442 
   -2520    -2452    -2227    -2050    -1995    -2169    -2357    -2257 
   -2092    -2031    -1981    -1992    -2003    -1923    -1948    -2172 
   -2359    -2292    -2020    -1795    -1772    -1972    -2295    -2419 
   -2289    -2311    -2550    -2648    -2509    -2312    -2177    -2120 
   -2107    -2025    -1803    -1625    -1655    -1826    -2110    -2430 
   -2559    -2481    -2308    -2057    -1838    -1837    -2041    -2269 
   -2443    -2523    -2457    -2416    -2538    -2550    -2319    -2066 
   -1810    -1597    -1725    -2014    -2060    -2045    -2135    -2031 
   -1833    -1902    -2065    -2149    -2290    -2421    -2407    -2362 
   -2342    -2242    -2128    -2153    -2266    -2273    -2046    -1699 
   -1455    -1425    -1556    -1633    -1503    -1197     -785     -396 
    -207     -349     -900    -1702    -2435    -2948    -3226    -3281 
   -3148    -2826    -2444    -2281    -2536    -3164    -3886    -4263 
   -4010    -3477    -3348    -3831    -4580    -5003    -4661    -3742 
   -2708    -1783    -1201    -1138    -1418    -1919    -2678    -3499 
   -3954    -3562    -2116      -24     1796     2517     1899      270 
   -1679    -3138    -3732    -3770    -3694    -3767    -4217    -4909 
   -5400    -5640    -5607    -4924    -3622    -2220    -1107     -495 
    -318      -94      603     1625     2462     2763     2320     1127 
    -307    -1385    -1931    -2087    -2141    -2448    -3099    -3758 
   -4112    -4203    -4255    -4395    -4452    -3971    -2802    -1470 
    -425      380      865      749      -14    -1291    -2759    -3785 
   -3790    -2802    -1449     -464     -295     -957    -2083    -3419 
   -4955    -6397    -7264    -7402    -6835    -5649    -4159    -2656 
   -1208       82      869      808       -6    -1082    -2118    -3072 
   -3726    -3796    -3149    -1917     -788     -523    -1175    -2263 
   -3109    -3102    -2157     -684      781     1745     2045     1826 
    1090      -18    -1023    -1745    -2381    -3059    -3942    -5120 
   -6075    -5965    -4608    -2664     -988      -81      -43     -783 
   -2022    -3410    -4750    -5698    -5664    -4495    -2737    -1102 
     -90       35     -573    -1440    -2320    -3167    -3724    -3774 
   -3399    -2795    -2092    -1441    -1085    -1173    -1590    -2220 
   -2971    -3389    -3019    -1950     -392     1291     2089     1336 
    -414    -2385    -4291    -5773    -6286    -5632    -3973    -1780 
     -32      491     -106    -1266    -2369    -3036    -3402    -3694 
   -3770    -3404    -2658    -1620     -499      184      243      -67 
    -637    -1409    -2149    -2727    -3338    -4118    -4858    -5339 
   -5580    -5656    -5417    -4696    -3627    -2359     -988      314 
    1517     2527     2925     2477     1435       71    -1471    -2906 
   -3950    -4568    -4812    -4688    -4280    -3753    -3159    -2442 
   -1624     -945     -720     -899    -1258    -1844    -2610    -3310 
   -3894    -4241    -3928    -2948    -1822     -742      342     1036 
     776     -405    -1922    -3292    -4267    -4608    -4248    -3399 
   -2444    -1883    -2110    -2970    -3738    -3836    -3273    -2286 
   -1127     -149      349      332     -191    -1264    -2577    -3524 
   -3769    -3449    -2844    -2142    -1632    -1510    -1710    -2222 
   -2870    -3316    -3622    -3931    -4085    -4035    -3998    -3870 
   -3173    -1919     -658      218      602      533      184     -338 
   -1138    -2154    -2967    -3241    -3133    -3017    -2984    -2856 
   -2493    -1926    -1399    -1063     -838     -814    -1205    -2007 
   -2870    -3295    -3163    -2759    -2293    -1734    -1121     -700 
    -538     -446     -346     -302     -392     -762    -1629    -2928 
   -4349    -5726    -6779    -7126    -6675    -5553    -4125    -2783 
   -1530     -275      800     1344     1102      170     -951    -1790 
   -2307    -2529    -2474    -2452    -2675    -2991    -3217    -3284 
   -3118    -2716    -2236    -1780    -1487    -1652    -2235    -2808 
   -3072    -3083    -2970    -2714    -2317    -1933    -1715    -1590 
   -1318     -955     -706     -603     -810    -1375    -2018    -2620 
   -3327    -4126    -4677    -4633    -4017    -3063    -1926     -789 
      33      357      206     -406    -1327    -2263    -3044    -3543 
   -3597    -3217    -2655    -2128    -1750    -1719    -2047    -2500 
   -2837    -2774    -2243    -1653    -1455    -1710    -2299    -3199 
   -4194    -4818    -4776    -4039    -2880    -1729     -783     -110 
     243      244     -170     -927    -1795    -2565    -3207    -3597 
   -3419    -2806    -2181    -1640    -1135     -666     -133      476 
     805      538     -332    -1741    -3264    -4306    -4779    -4792 
   -4391    -3727    -2982    -2296    -1788    -1586    -1721    -2016 
   -2300    -2556    -2731    -2627    -2191    -1628    -1190    -1139 
   -1628    -2435    -3218    -3759    -3909    -3619    -2960    -2184 
   -1606    -1329    -1302    -1594    -2288    -3090    -3627    -3856 
   -3678    -3072    -2353    -1702    -1094     -581     -309     -256 
    -318     -626    -1291    -2158    -2895    -3125    -2855    -2427 
   -2095    -2112    -2581    -3164    -3414    -3249    -2836    -2236 
   -1640    -1308    -1150    -1031    -1112    -1512    -2045    -2490 
   -2774    -2975    -3202    -3277    -3057    -2801    -2592    -2299 
   -1961    -1582    -1264    -1290    -1659    -2046    -2276    -2458 
   -2643    -2748    -2668    -2293    -1725    -1233     -951     -903 
    -970     -946     -901    -1158    -1850    -2685    -3407    -4098 
   -4665    -4888    -4819    -4502    -3852    -2945    -2039    -1345 
    -986     -993    -1185    -1351    -1467    -1576    -1688    -1707 
   -1479    -1062     -677     -527     -706    -1150    -1740    -2296 
   -2594    -2600    -2488    -2479    -2670    -2948    -3072    -2863 
   -2462    -2142    -1930    -1707    -1453    -1098     -538      -72 
    -143     -687    -1443    -2304    -3130    -3894    -4648    -5159 
   -5132    -4561    -3639    -2678    -2041    -1895    -2168    -2774 
   -3488    -3908    -3850    -3385    -2678    -1954    -1337     -823 
    -433     -228     -243     -456     -800    -1192    -1516    -1734 
   -1933    -2184    -2490    -2786    -2937    -2922    -2864    -2754 
   -2521    -2259    -2074    -2007    -2068    -2089    -1881    -1503 
   -1165    -1054    -1248    -1625    -2066    -2466    -2600    -2436 
   -2212    -2076    -2060    -2257    -2720    -3194    -3368    -3265 
   -2967    -2543    -2189    -1933    -1701    -1564    -1502    -1397 
   -1286    -1283    -1406    -1717    -2220    -2627    -2783    -2874 
   -2902    -2825    -2820    -2889    -2925    -3032    -3229    -3304 
   -3126    -2743    -2222    -1626    -1162    -1042    -1258    -1656 
   -2043    -2297    -2454    -2543    -2592    -2689    -2839    -2978 
   -3030    -2903    -2565    -2149    -1876    -1679    -1348    -1054 
   -1000    -1044    -1116    -1216    -1183    -1023    -1016    -1270 
   -1660    -2119    -2484    -2546    -2424    -2373    -2542    -2957 
   -3373    -3504    -3254    -2712    -2092    -1540    -1134    -1011 
   -1254    -1788    -2366    -2802    -3100    -3235    -3156    -2898 
   -2571    -2334    -2208    -2053    -1794    -1539    -1478    -1692 
   -2058    -2328    -2378    -2350    -2373    -2409    -2289    -1871 
   -1296     -797     -607     -949    -1729    -2664    -3510    -4074 
