Origin Time       2024/06/23 22:54:00
Lat.              35.645
Long.             140.060
Depth. (km)       72
Mag.              4.1
Station Code      TKY026
Station Lat.      35.6707
Station Long.     139.8633
Station Height(m) -2
Record Time       2024/06/23 22:54:45
Sampling Freq(Hz) 100Hz
Duration Time(s)  60
Dir.              E-W
Scale Factor      7845(gal)/8223790
Max. Acc. (gal)   3.469
Last Correction   2024/06/23 22:54:45
Memo.             
[...]
  -11030   -11021   -11030   -11045   -11048   -11049   -11045   -11033 
  -11029   -11036   -11045   -11052   -11047   -11041   -11045   -11044 
  -11038   -11037   -11043   -11049   -11053   -11044   -11034   -11038 
  -11034   -11028   -11034   -11038   -11040   -11037   -11028   -11028 
  -11032   -11033   -11038   -11036   -11033   -11034   -11032   -11036 
  -11041   -11036   -11030   -11029   -11033   -11047   -11057   -11053 
  -11043   -11029   -11024   -11030   -11036   -11032   -11036   -11041 
  -11038   -11041   -11043   -11037   -11034   -11040   -11043   -11043 
  -11044   -11041   -11037   -11040   -11040   -11036   -11040   -11055 
  -11057   -11047   -11037   -11038   -11041   -11033   -11024   -11022 
  -11032   -11047   -11045   -11034   -11038   -11040   -11038   -11038 
  -11028   -11022   -11024   -11026   -11036   -11041   -11034   -11030 
  -11033   -11032   -11029   -11032   -11036   -11036   -11034   -11041 
  -11043   -11032   -11033   -11041   -11038   -11032   -11026   -11028 
  -11041   -11048   -11044   -11034   -11026   -11028   -11036   -11041 
  -11047   -11048   -11041   -11037   -11036   -11034   -11033   -11032 
  -11030   -11029   -11030   -11030   -11030   -11033   -11038   -11044 
  -11038   -11029   -11025   -11022   -11030   -11041   -11041   -11034 
  -11032   -11040   -11047   -11033   -11018   -11018   -11026   -11036 
  -11036   -11030   -11032   -11030   -11029   -11036   -11038   -11041 
  -11036   -11030   -11034   -11040   -11045   -11045   -11040   -11043 
  -11048   -11044   -11038   -11040   -11041   -11043   -11043   -11037 
  -11037   -11045   -11051   -11044   -11036   -11036   -11025   -11017 
  -11033   -11052   -11052   -11047   -11040   -11028   -11025   -11034 
  -11041   -11048   -11048   -11045   -11048   -11048   -11048   -11047 
  -11041   -11038   -11037   -11038   -11034   -11029   -11032   -11032 
  -11025   -11029   -11043   -11049   -11040   -11032   -11030   -11036 
  -11040   -11034   -11034   -11041   -11043   -11043   -11036   -11028 
  -11034   -11045   -11048   -11047   -11044   -11041   -11047   -11048 
  -11041   -11045   -11052   -11044   -11034   -11028   -11022   -11029 
  -11043   -11049   -11043   -11036   -11034   -11036   -11037   -11040 
  -11038   -11034   -11044   -11056   -11047   -11033   -11033   -11041 
  -11043   -11032   -11024   -11036   -11051   -11052   -11047   -11040 
  -11033   -11038   -11047   -11040   -11034   -11041   -11047   -11044 
  -11036   -11038   -11040   -11033   -11038   -11047   -11041   -11040 
  -11045   -11048   -11043   -11038   -11036   -11044   -11055   -11052 
  -11041   -11038   -11040   -11043   -11043   -11036   -11033   -11043 
  -11048   -11043   -11036   -11029   -11024   -11026   -11034   -11038 
  -11032   -11025   -11028   -11032   -11034   -11038   -11036   -11030 
  -11033   -11040   -11040   -11036   -11043   -11048   -11036   -11022 
  -11026   -11036   -11043   -11040   -11026   -11020   -11030   -11041 
  -11049   -11051   -11043   -11041   -11045   -11044   -11032   -11021 
  -11029   -11036   -11032   -11040   -11044   -11034   -11036   -11033 
  -11021   -11016   -11017   -11017   -11022   -11038   -11045   -11030 
  -11026   -11037   -11036   -11033   -11041   -11037   -11028   -11032 
  -11044   -11047   -11041   -11034   -11037   -11044   -11041   -11036 
  -11037   -11040   -11036   -11034   -11034   -11036   -11036   -11037 
  -11036   -11029   -11037   -11059   -11055   -11030   -11020   -11021 
  -11033   -11044   -11034   -11028   -11034   -11043   -11043   -11036 
  -11024   -11018   -11021   -11022   -11024   -11029   -11028   -11024 
  -11024   -11026   -11034   -11037   -11032   -11032   -11043   -11047 
  -11036   -11037   -11047   -11043   -11043   -11051   -11045   -11032 
  -11029   -11037   -11044   -11040   -11029   -11026   -11036   -11038 
  -11036   -11041   -11044   -11034   -11029   -11034   -11037   -11033 
  -11028   -11029   -11033   -11033   -11036   -11040   -11033   -11037 
  -11053   -11052   -11041   -11038   -11038   -11036   -11041   -11040 
  -11028   -11036   -11055   -11053   -11036   -11028   -11036   -11038 
  -11032   -11036   -11044   -11038   -11025   -11022   -11040   -11055 
  -11038   -11025   -11034   -11037   -11030   -11026   -11028   -11037 
  -11044   -11037   -11032   -11029   -11028   -11033   -11036   -11040 
  -11045   -11033   -11029   -11038   -11041   -11045   -11051   -11040 
  -11026   -11029   -11033   -11040   -11047   -11037   -11028   -11028 
  -11018   -11017   -11033   -11052   -11061   -11052   -11029   -11020 
  -11034   -11045   -11047   -11045   -11034   -11032   -11040   -11038 
  -11036   -11040   -11041   -11043   -11041   -11028   -11028   -11043 
  -11038   -11026   -11028   -11038   -11043   -11030   -11022   -11033 
  -11045   -11048   -11045   -11043   -11043   -11041   -11040   -11043 
  -11043   -11032   -11034   -11040   -11033   -11041   -11045   -11030 
  -11025   -11029   -11033   -11036   -11034   -11036   -11036   -11025 
  -11020   -11025   -11029   -11043   -11055   -11045   -11030   -11024 
  -11025   -11036   -11029   -11017   -11034   -11051   -11040   -11029 
  -11021   -11020   -11029   -11033   -11030   -11032   -11036   -11041 
  -11048   -11056   -11068   -11060   -11044   -11048   -11044   -11028 
  -11047   -11074   -11048   -10993   -10984   -11032   -11045   -10987 
  -10943   -10979   -11047   -11060   -11060   -11111   -11149   -11095 
  -11007   -11043   -11130   -11052   -10932   -10947   -10989   -10993 
  -10994   -11022   -11086   -11060   -10951   -10922   -11001   -11095 
  -11105   -11109   -11213   -11227   -11122   -11064   -11013   -10922 
  -10889   -10930   -10899   -10839   -10975   -11133   -11111   -11084 
  -11146   -11234   -11169   -10955   -10878   -10917   -10933   -10993 
  -11134   -11384   -11508   -11179   -10682   -10515   -10652   -10856 
  -11111   -11388   -11453   -11253   -11061   -11010   -10948   -10824 
  -10770   -10872   -11013   -11034   -11052   -11138   -11146   -11115 
  -11094   -11007   -10968   -11047   -11144   -11234   -11238   -11087 
  -11007   -11070   -10978   -10736   -10698   -10983   -11279   -11227 
  -10982   -10863   -10893   -11057   -11257   -11227   -11010   -10914 
  -10990   -11052   -11024   -10983   -11020   -11121   -11151   -11101 
  -11075   -11025   -11029   -11195   -11233   -11011   -10831   -10843 
  -10966   -11068   -11064   -11049   -11136   -11191   -11006   -10679 
  -10571   -10798   -11125   -11334   -11419   -11433   -11335   -11091 
  -10816   -10671   -10739   -11002   -11275   -11341   -11241   -11074 
  -10808   -10579   -10658   -11009   -11379   -11529   -11296   -10895 
  -10713   -10752   -10852   -10982   -11045   -11016   -11076   -11263 
  -11402   -11407   -11240   -10920   -10705   -10798   -10995   -11061 
  -11082   -11128   -11074   -10929   -10854   -10886   -10971   -11076 
  -11168   -11199   -11183   -11173   -11088   -10859   -10682   -10721 
  -10885   -11102   -11313   -11415   -11408   -11259   -10998   -10840 
  -10813   -10783   -10732   -10770   -10997   -11271   -11392   -11302 
  -11048   -10862   -10866   -10928   -11036   -11179   -11211   -11149 
  -11102   -11153   -11271   -11232   -10970   -10759   -10816   -10979 
  -10964   -10833   -10854   -11007   -11079   -11051   -11036   -11017 
  -10995   -11076   -11186   -11140   -10976   -10833   -10814   -10979 
  -11188   -11286   -11283   -11207   -11148   -11167   -11138   -11064 
  -11033   -10989   -10914   -10868   -10891   -10974   -10990   -10909 
  -10856   -10849   -10847   -10903   -11029   -11156   -11275   -11364 
  -11303   -11118   -10963   -10848   -10812   -10957   -11186   -11326 
  -11340   -11196   -10899   -10696   -10824   -11044   -11053   -10979 
  -10970   -11018   -11136   -11250   -11284   -11182   -10855   -10489 
  -10501   -10949   -11402   -11410   -11028   -10759   -10912   -11300 
  -11539   -11465   -11291   -11103   -10800   -10577   -10624   -10832 
  -10989   -10906   -10791   -10953   -11217   -11350   -11291   -11063 
  -10818   -10632   -10625   -10906   -11260   -11465   -11522   -11512 
  -11380   -11079   -10870   -10882   -11017   -11219   -11202   -10872 
  -10597   -10474   -10516   -10890   -11344   -11508   -11404   -11157 
  -10920   -10891   -10967   -10867   -10709   -10822   -11169   -11464 
  -11533   -11281   -10809   -10604   -10916   -11304   -11365   -11187 
  -10990   -10858   -10741   -10721   -10870   -10939   -10902   -11078 
  -11356   -11434   -11358   -11082   -10624   -10469   -10755   -11070 
  -11249   -11357   -11299   -11090   -10987   -11075   -11168   -11141 
  -11025   -10939   -10918   -10901   -10952   -11009   -10882   -10881 
  -11202   -11379   -11286   -11155   -10910   -10683   -10779   -11021 
  -11095   -11078   -11126   -11125   -11053   -11140   -11290   -11232 
  -11051   -10858   -10716   -10790   -10948   -10960   -10910   -10937 
  -11092   -11381   -11569   -11392   -11037   -10867   -10916   -11028 
  -11052   -10832   -10520   -10600   -11134   -11568   -11558   -11265 
  -10935   -10766   -10885   -11188   -11362   -11221   -10987   -10936 
  -10986   -10960   -10836   -10674   -10647   -10956   -11438   -11616 
  -11388   -11121   -11037   -11048   -10948   -10721   -10639   -10760 
  -10886   -11010   -11196   -11357   -11357   -11184   -10959   -10839 
  -10910   -10962   -10809   -10800   -11087   -11330   -11458   -11476 
  -11179   -10746   -10647   -10914   -11165   -11183   -10983   -10766 
  -10885   -11249   -11315   -10980   -10602   -10480   -10721   -11119 
  -11357   -11362   -11229   -11106   -11097   -11041   -10822   -10736 
  -10956   -11281   -11558   -11654   -11438   -11099   -10886   -10818 
  -10801   -10679   -10477   -10538   -10952   -11360   -11496   -11280 
  -10813   -10566   -10874   -11384   -11511   -11234   -11002   -11022 
  -11111   -11110   -11006   -10801   -10662   -10866   -11223   -11338 
  -11248   -11118   -11087   -11253   -11375   -11250   -10976   -10543 
  -10120   -10125   -10562   -11055   -11308   -11364   -11496   -11700 
  -11692   -11408   -11028   -10736   -10673   -10782   -10876   -10939 
  -11084   -11280   -11385   -11277   -10905   -10493   -10455   -10814 
  -11145   -11190   -11001   -10729   -10692   -11044   -11425   -11437 
  -11196   -11067   -11091   -11075   -11030   -10982   -10851   -10797 
  -11005   -11313   -11472   -11377   -11052   -10735   -10677   -10810 
  -10976   -11090   -11025   -10824   -10719   -10878   -11195   -11331 
  -11225   -11129   -11099   -11128   -11219   -11315   -11434   -11533 
  -11558   -11441   -10970   -10400   -10183   -10212   -10386   -10756 
  -11137   -11402   -11534   -11487   -11298   -11090   -10951   -10816 
  -10643   -10635   -10870   -11145   -11377   -11557   -11537   -11321 
  -11107   -11032   -11043   -10974   -10804   -10686   -10751   -11006 
  -11211   -11114   -10922   -10944   -11053   -11064   -10945   -10639 
  -10343   -10405   -10840   -11387   -11801   -11973   -11911   -11592 
  -11053   -10531   -10331   -10573   -10970   -11105   -10999   -10929 
  -10889   -10801   -10810   -10918   -10983   -11102   -11300   -11333 
  -11151   -10978   -10955   -11007   -11021   -11018   -10970   -10871 
  -10930   -11188   -11365   -11326   -11238   -11205   -11095   -10878 
  -10747   -10827   -11033   -11164   -11098   -10953   -10889   -10840 
  -10708   -10567   -10581   -10816   -11169   -11456   -11520   -11342 
  -11129   -11113   -11283   -11481   -11547   -11402   -11138   -10963 
  -11021   -11151   -11102   -10962   -10829   -10747   -10862   -10941 
  -10660   -10330   -10330   -10652   -11094   -11299   -11191   -11145 
  -11300   -11433   -11402   -11241   -11057   -10947   -10994   -11186 
  -11245   -11063   -10972   -11114   -11260   -11227   -10978   -10640 
  -10451   -10521   -10777   -10997   -11032   -11026   -11184   -11377 
  -11422   -11402   -11295   -10987   -10629   -10424   -10481   -10758 
  -10971   -11001   -11037   -11149   -11314   -11545   -11645   -11470 
  -11229   -11029   -10831   -10690   -10588   -10563   -10752   -11029 
  -11153   -11074   -11013   -11151   -11319   -11422   -11531   -11473 
  -11182   -10910   -10759   -10735   -10943   -11210   -11233   -11048 
  -10843   -10716   -10721   -10881   -11114   -11238   -11196   -11087 
  -10935   -10832   -10890   -10972   -11021   -11225   -11564   -11762 
  -11676   -11306   -10774   -10470   -10690   -11155   -11369   -11205 
  -10860   -10586   -10557   -10785   -11068   -11130   -10994   -10922 
  -11014   -11182   -11298   -11236   -11033   -10836   -10708   -10690 
  -10794   -10928   -11026   -11133   -11299   -11450   -11483   -11385 
  -11182   -10886   -10563   -10338   -10346   -10616   -10987   -11315 
  -11573   -11649   -11460   -11207   -11102   -11106   -11122   -11182 
  -11246   -11160   -10921   -10701   -10600   -10535   -10432   -10470 
  -10766   -11088   -11214   -11169   -11128   -11214   -11402   -11600 
  -11712   -11596   -11215   -10693   -10183    -9913   -10087   -10574 
  -11028   -11268   -11281   -11148   -11038   -10991   -10859   -10597 
  -10326   -10246   -10434   -10692   -10822   -10816   -10659   -10351 
  -10002    -9792    -9929   -10434   -11118   -11792   -12282   -12509 
  -12476   -12093   -11377   -10700   -10411   -10451   -10615   -10736 
  -10675   -10554   -10737   -11448   -12577   -13667   -14162   -13869 
  -12887   -11396    -9776    -8619    -8495    -9497   -11047   -12536 
  -13780   -14589   -14674   -14073   -13112   -12094   -11169   -10277 
   -9408    -8923    -9173   -10010   -10935   -11519   -11685   -11703 
  -11794   -11889   -11842   -11654   -11487   -11576   -11884   -11932 
  -11334   -10265    -9325    -8996    -9255    -9752   -10033    -9778 
   -9163    -8565    -8202    -8337    -9066   -10041   -10917   -11592 
  -11904   -11573   -10679    -9864    -9671   -10041   -10558   -10905 
  -11199   -11723   -12320   -12541   -12156   -11299   -10478   -10215 
  -10490   -10893   -11186   -11408   -11704   -12151   -12555   -12573 
  -12137   -11506   -11099   -11323   -12085   -12657   -12433   -11650 
  -11002   -10719   -10503   -10208    -9992   -10137   -10836   -11781 
  -12283   -11990   -11134   -10296    -9988   -10185   -10393   -10297 
  -10100   -10176   -10592   -11065   -11246   -10983   -10531   -10419 
  -10825   -11367   -11709   -11939   -12140   -12164   -11974   -11627 
  -11071   -10484   -10280   -10565   -11053   -11465   -11692   -11823 
  -11989   -12133   -11979   -11299   -10251    -9315    -8978    -9429 
  -10226   -10736   -10787   -10552   -10381   -10601   -11146   -11676 
  -11859   -11591   -11186   -11016   -11055   -11063   -10968   -10930 
  -11130   -11407   -11337   -10840   -10266    -9957   -10022   -10349 
  -10777   -11241   -11665   -11929   -11997   -11978   -12021   -12069 
  -11967   -11722   -11358   -10905   -10439    -9949    -9481    -9277 
   -9521   -10076   -10575   -10828   -10971   -11173   -11601   -12306 
  -12933   -13057   -12654   -12002   -11341   -10786   -10512   -10594 
  -10791   -10852   -10665   -10362   -10474   -11257   -12202   -12642 
  -12270   -11230   -10087    -9405    -9339    -9622    -9829    -9823 
   -9994   -10687   -11597   -12182   -12263   -12000   -11715   -11618 
  -11605   -11504   -11254   -10901   -10516   -10093    -9737    -9649 
   -9876   -10373   -11055   -11664   -11907   -11674   -11163   -10812 
  -10872   -11144   -11322   -11307   -11163   -10989   -10832   -10697 
  -10781   -11287   -11977   -12447   -12519   -12168   -11556   -10882 
  -10242    -9859    -9899   -10183   -10401   -10366   -10247   -10447 
  -10987   -11472   -11607   -11539   -11704   -12224   -12729   -12865 
  -12615   -12226   -11966   -11800   -11470   -10839   -10064    -9572 
   -9655   -10130   -10613   -10886   -10982   -11101   -11241   -11086 
  -10551    -9992    -9760    -9930   -10370   -10831   -11151   -11380 
  -11634   -11923   -12085   -11919   -11433   -10837   -10308    -9899 
   -9607    -9458    -9544    -9934   -10571   -11349   -12205   -13059 
  -13636   -13527   -12679   -11438   -10199    -9400    -9342    -9888 
  -10605   -11036   -11080   -11067   -11160   -11217   -11126   -10872 
  -10566   -10385   -10390   -10540   -10746   -10945   -11124   -11268 
  -11458   -11738   -11902   -11766   -11377   -10854   -10384   -10219 
  -10409   -10810   -11365   -11948   -12194   -11973   -11560   -11173 
  -10866   -10717   -10791   -11013   -11223   -11252   -11001   -10666 
  -10566   -10706   -10849   -10763   -10412   -10111   -10099   -10199 
  -10331   -10687   -11291   -11935   -12445   -12798   -13032   -13097 
  -12877   -12330   -11545   -10677    -9775    -8920    -8397    -8473 
   -9130   -10057   -10910   -11581   -12086   -12371   -12347   -11934 
  -11206   -10476    -9985    -9737    -9667    -9856   -10419   -11232 
  -12025   -12613   -12849   -12710   -12289   -11672   -11033   -10577 
  -10419   -10638   -11105   -11475   -11570   -11410   -11063   -10733 
  -10611   -10710   -10933   -11188   -11361   -11329   -11198   -11182 
  -11272   -11322   -11192   -10839   -10531   -10504   -10612   -10725 
  -10948   -11284   -11554   -11642   -11554   -11265   -10768   -10331 
  -10285   -10616   -11088   -11472   -11562   -11392   -11236   -11241 
  -11342   -11410   -11319   -11043   -10700   -10453   -10265   -10044 
   -9879    -9888   -10114   -10581   -11124   -11454   -11418   -11070 
  -10710   -10638   -10822   -11090   -11304   -11385   -11321   -11125 
  -10859   -10627   -10440   -10272   -10222   -10343   -10498   -10640 
  -10824   -10979   -11061   -11124   -11156   -11200   -11406   -11754 
  -11959   -11821   -11511   -11279   -11172   -11156   -11221   -11342 
  -11456   -11500   -11473   -11414   -11319   -11151   -10933   -10732 
  -10569   -10474   -10492   -10701   -11202   -11855   -12340   -12479 
  -12310   -12005   -11691   -11369   -11144   -11169   -11264   -11105 
  -10709   -10319   -10057    -9856    -9678    -9670    -9929   -10343 
  -10791   -11229   -11654   -12063   -12349   -12380   -12166   -11811 
  -11418   -11053   -10746   -10515   -10471   -10713   -11111   -11449 
  -11603   -11489   -11119   -10667   -10354   -10234   -10218   -10328 
  -10602   -10885   -11071   -11202   -11283   -11306   -11257   -11057 
  -10791   -10662   -10627   -10571   -10523   -10461   -10326   -10179 
  -10142   -10295   -10581   -10885   -11180   -11496   -11781   -11924 
  -11924   -11884   -11780   -11470   -10986   -10548   -10339   -10404 
  -10651   -10862   -10876   -10701   -10397   -10069    -9867    -9883 
  -10220   -10928   -11758   -12337   -12538   -12440   -12166   -11854 
  -11584   -11369   -11209   -11070   -10936   -10837   -10801   -10856 
  -11011   -11214   -11394   -11526   -11643   -11757   -11761   -11550 
  -11202   -10910   -10751   -10648   -10561   -10548   -10656   -10886 
  -11182   -11385   -11327   -10994   -10598   -10399   -10493   -10806 
  -11186   -11514   -11723   -11757   -11592   -11279   -10890   -10543 
  -10404   -10512   -10752   -11021   -11203   -11250   -11268   -11280 
  -11153   -10866   -10551   -10319   -10220   -10309   -10543   -10767 
  -10836   -10712   -10453   -10146    -9891    -9791    -9936   -10354 
  -10957   -11584   -12171   -12657   -12845   -12676   -12375   -12015 
