Origin Time       2024/06/23 22:54:00
Lat.              35.645
Long.             140.060
Depth. (km)       72
Mag.              4.1
Station Code      TKY023
Station Lat.      35.7259
Station Long.     139.8254
Station Height(m) 0
Record Time       2024/06/23 22:54:45
Sampling Freq(Hz) 100Hz
Duration Time(s)  60
Dir.              U-D
Scale Factor      7845(gal)/8223790
Max. Acc. (gal)   1.566
Last Correction   2024/06/23 22:54:45
Memo.             
    6139     6193     6255     6277     6222     6126     6073     6108 
    6169     6170     6142     6174     6251     6276     6211     6110 
    6049     6061     6123     6188     6235     6266     6259     6207 
    6138     6087     6093     6164     6246     6301     6300     6222 
    6124     6087     6102     6112     6129     6181     6241     6261 
    6238     6183     6118     6079     6083     6114     6145     6176 
    6204     6210     6181     6147     6138     6157     6199     6227 
    6204     6151     6131     6164     6212     6241     6235     6208 
    6188     6172     6146     6119     6118     6145     6174     6184 
    6174     6162     6164     6170     6156     6119     6095     6118 
    6174     6211     6200     6168     6154     6169     6185     6170 
    6139     6145     6199     6242     6224     6183     6161     6158 
    6170     6187     6189     6187     6199     6212     6210     6185 
    6142     6107     6112     6150     6187     6199     6192     6169 
    6138     6120     6123     6130     6145     6172     6191     6178 
    6154     6151     6165     6178     6185     6188     6191     6196 
    6195     6185     6184     6193     6196     6185     6177     6181 
    6181     6161     6137     6142     6185     6224     6223     6178 
    6118     6089     6115     6166     6201     6189     6150     6127 
    6134     6153     6165     6169     6176     6189     6195     6178 
    6162     6173     6199     6215     6208     6184     6169     6176 
    6195     6207     6196     6169     6146     6141     6154     6169 
    6170     6164     6165     6177     6173     6149     6134     6143 
    6164     6174     6172     6172     6183     6195     6195     6183 
    6168     6168     6180     6184     6176     6174     6181     6184 
    6191     6200     6203     6189     6165     6145     6142     6143 
    6147     6165     6189     6196     6178     6154     6143     6145 
    6151     6161     6176     6183     6177     6166     6161     6157 
    6164     6188     6214     6215     6191     6170     6170     6178 
    6185     6192     6191     6180     6174     6178     6185     6187 
    6173     6151     6139     6139     6154     6176     6181     6165 
    6151     6150     6158     6169     6172     6173     6178     6180 
    6189     6204     6203     6187     6166     6153     6160     6181 
    6193     6199     6204     6199     6174     6143     6126     6134 
    6161     6195     6210     6201     6188     6170     6154     6149 
    6151     6158     6169     6187     6207     6214     6193     6161 
    6141     6138     6146     6162     6178     6189     6195     6189 
    6180     6173     6166     6165     6176     6189     6197     6195 
    6180     6160     6143     6134     6141     6166     6195     6203 
    6189     6168     6150     6141     6142     6154     6166     6176 
    6187     6189     6185     6187     6196     6204     6199     6183 
    6174     6172     6176     6183     6187     6185     6181     6172 
    6168     6176     6184     6173     6149     6137     6145     6162 
    6178     6184     6184     6178     6172     6158     6146     6143 
    6150     6173     6208     6223     6208     6178     6154     6149 
    6160     6174     6185     6181     6173     6173     6168     6160 
    6162     6173     6185     6189     6178     6168     6166     6178 
    6196     6200     6181     6156     6146     6157     6174     6184 
    6176     6170     6176     6185     6181     6161     6142     6139 
    6147     6166     6185     6191     6184     6173     6157     6146 
    6150     6166     6183     6191     6188     6177     6166     6160 
    6158     6169     6181     6180     6165     6154     6157     6170 
    6185     6184     6177     6174     6174     6170     6165     6156 
    6156     6168     6181     6183     6176     6169     6174     6193 
    6211     6210     6191     6161     6134     6137     6161     6166 
    6149     6135     6135     6156     6192     6214     6204     6178 
    6147     6127     6131     6156     6180     6193     6195     6191 
    6181     6169     6162     6162     6173     6189     6199     6191 
    6169     6150     6149     6156     6154     6153     6158     6166 
    6172     6170     6165     6164     6169     6172     6168     6168 
    6170     6172     6170     6172     6174     6177     6170     6161 
    6165     6177     6185     6193     6197     6191     6177     6166 
    6161     6165     6172     6176     6177     6165     6150     6141 
    6141     6150     6166     6176     6172     6164     6164     6176 
    6183     6176     6169     6165     6166     6177     6191     6193 
    6193     6181     6158     6145     6153     6173     6197     6205 
    6187     6158     6141     6137     6147     6162     6172     6176 
    6183     6187     6181     6172     6166     6170     6180     6188 
    6188     6183     6178     6176     6176     6172     6157     6143 
    6143     6156     6177     6197     6199     6183     6161     6151 
    6162     6184     6196     6196     6185     6181     6185     6178 
    6166     6161     6164     6170     6170     6164     6161     6164 
    6166     6172     6178     6172     6158     6156     6164     6170 
    6165     6158     6161     6173     6188     6195     6185     6176 
    6176     6173     6172     6176     6180     6176     6169     6169 
    6169     6169     6170     6177     6188     6195     6184     6165 
    6158     6165     6177     6183     6177     6168     6165     6174 
    6185     6188     6176     6162     6164     6173     6174     6170 
    6166     6165     6169     6174     6176     6174     6172     6165 
    6161     6161     6164     6172     6192     6220     6254     6280 
    6277     6243     6189     6129     6077     6039     6003     5975 
    5998     6075     6137     6168     6243     6338     6351     6280 
    6215     6243     6309     6255     6104     6006     5968     5899 
    5710     5578     5837     6131     5890     5694     6200     6685 
    6581     6543     6903     7032     6643     6401     6639     6566 
    6022     6143     6913     6941     6293     6141     6308     5977 
    5360     5015     5013     5360     5879     6052     5926     6088 
    6390     6177     5682     5678     5999     6064     6238     6897 
    7435     7253     6691     6575     6879     6654     5768     5247 
    5656     6282     6269     5954     5995     6134     5976     5706 
    5659     5807     5967     6219     6536     6781     6991     6940 
    6442     5764     5286     5296     5541     5591     5903     6642 
    6832     6323     6062     6289     6588     6698     6589     6365 
    6058     5869     6010     6115     6042     6143     6253     6062 
    5873     6025     6309     6434     6461     6455     6363     6199 
    5896     5549     5572     6026     6370     6358     6313     6230 
    5962     5888     6002     5940     5961     6265     6544     6623 
    6504     6396     6501     6480     6130     5930     6062     6172 
    6181     6150     6010     5923     6023     6133     6122     6097 
    6269     6594     6646     6323     6050     5989     5987     6038 
    6062     5927     5888     6045     6154     6393     6793     6794 
    6400     6124     6048     6093     6180     6058     5755     5678 
    5975     6102     5806     5810     6300     6505     6254     6034 
    6085     6212     6205     6214     6276     6343     6540     6575 
    6253     6033     5999     5883     5879     6130     6304     6273 
    6304     6374     6293     6173     6027     5833     5864     6095 
    6180     6126     6264     6745     7199     7106     6609     6158 
    5783     5564     5632     5698     5757     6039     6269     6299 
    6299     6131     5733     5391     5418     5906     6412     6448 
    6226     6215     6577     7099     7258     6949     6559     6102 
    5632     5526     5653     5749     5983     6264     6258     6027 
    5933     6087     6180     6091     6129     6357     6512     6550 
    6570     6484     6259     6160     6234     6141     5853     5786 
    6104     6529     6720     6639     6458     6264     5999     5626 
    5445     5707     5917     5707     5586     5907     6405     6578 
    6189     5898     6293     6710     6428     5779     5525     6006 
    6660     6747     6489     6409     6439     6439     6439     6440 
    6405     6235     5935     5594     5337     5331     5444     5563 
    5903     6332     6492     6504     6689     6976     6957     6635 
    6500     6531     6361     6161     6103     5945     5628     5395 
    5456     5679     5764     5786     5871     5973     6311     6822 
    6982     6729     6416     6212     6046     5962     6195     6505 
    6601     6833     7207     7168     6563     5745     5320     5452 
    5513     5409     5690     6153     6259     6064     5842     5810 
    6039     6316     6343     6205     6331     6709     6885     6814 
    6710     6516     6110     5557     5197     5278     5544     5721 
    5921     6286     6655     6642     6191     5886     6102     6345 
    6212     6196     6597     6949     6936     6417     5506     5081 
    5563     6146     6164     5888     5960     6432     6677     6531 
    6440     6507     6512     6448     6458     6407     6008     5529 
    5499     5787     5776     5424     5378     5663     5710     5853 
    6558     7263     7528     7473     7210     6883     6563     6278 
    6022     5711     5474     5409     5470     5653     5755     5741 
    5988     6462     6829     7150     7357     7014     6259     5736 
    5579     5517     5566     5846     6131     6064     5740     5695 
    5931     5927     5894     6282     6646     6675     6717     6806 
    6804     6825     6760     6363     5730     5196     5107     5541 
    6112     6508     6671     6461     6088     6108     6390     6428 
    6331     6434     6652     6694     6454     6114     5914     5698 
    5088     4530     4874     5679     6091     6300     6531     6721 
    6970     7069     6912     6758     6685     6655     6581     6417 
    6254     5998     5659     5324     4942     4943     5539     6092 
    6362     6655     7015     7203     6964     6469     6076     5844 
    5798     5815     5742     5879     6239     6312     6143     6174 
    6318     6277     6118     5996     5953     6087     6319     6168 
    5659     5570     6015     6288     6169     5988     6021     6312 
    6527     6474     6525     6701     6543     6192     6037     6093 
    6440     6905     6971     6675     6340     5888     5287     4926 
    5171     5795     6114     5957     5842     6027     6193     6134 
    6066     6231     6600     6995     7122     6793     6407     6419 
    6535     6408     6261     6170     5930     5630     5427     5320 
    5525     6165     6750     6777     6431     6093     5881     5998 
    6413     6543     6257     6097     6169     6076     5757     5580 
    5755     6119     6475     6660     6590     6444     6343     6201 
    5994     5875     6065     6359     6313     6102     6124     6297 
    6488     6674     6613     6203     5845     5900     6068     5995 
    6041     6413     6593     6234     5597     5178     5313     5826 
    6257     6359     6297     6345     6349     6114     5989     6161 
    6231     6057     6070     6403     6617     6569     6542     6536 
    6268     5790     5582     5848     6243     6439     6416     6438 
    6656     6606     6029     5530     5503     5670     5745     5753 
    5917     6255     6467     6353     6087     5975     6112     6427 
    6678     6698     6832     7137     7055     6551     6068     5751 
    5563     5490     5591     5821     5954     5977     6038     6129 
    6164     6131     6081     6035     6069     6259     6469     6594 
    6610     6407     6135     6026     6007     6102     6316     6409 
    6397     6471     6489     6266     5933     5680     5543     5593 
    5873     6187     6366     6489     6639     6678     6528     6400 
    6374     6323     6336     6315     6033     5825     5871     5802 
    5617     5566     5574     5517     5495     5726     6228     6700 
    6837     6693     6650     6847     6957     6806     6608     6542 
    6482     6245     5929     5707     5536     5294     5061     5140 
    5584     6007     6220     6390     6569     6701     6812     6902 
    6821     6521     6338     6467     6570     6396     6119     5965 
    5937     5871     5730     5637     5647     5761     5902     6004 
    6172     6458     6763     6903     6774     6540     6351     6129 
    5903     5787     5732     5722     5877     6143     6289     6237 
    6052     5776     5468     5215     5179     5524     6131     6694 
    6982     6945     6754     6700     6851     6870     6507     6068 
    5871     5810     5848     6072     6261     6156     5860     5660 
    5659     5659     5517     5445     5674     6075     6365     6436 
    6446     6637     6984     7155     7110     7095     7065     6970 
    6940     6762     6258     5719     5306     4946     4657     4550 
    4801     5404     5967     6227     6471     6980     7470     7589 
    7484     7427     7276     6706     5859     5285     5228     5373 
    5325     5132     5174     5539     5881     6004     6118     6504 
    7029     7183     6862     6602     6696     6756     6474     6100 
    5892     5765     5628     5535     5553     5665     5787     5919 
    6108     6251     6323     6439     6555     6616     6739     6824 
    6608     6292     6227     6193     5869     5443     5281     5487 
    5798     5934     6033     6319     6633     6767     6739     6650 
    6627     6627     6465     6208     6037     5931     5782     5578 
    5479     5595     5829     6035     6150     6223     6223     6096 
    6088     6324     6493     6407     6243     6272     6493     6565 
    6366     6261     6448     6655     6512     6061     5780     5915 
    6203     6350     6242     5941     5709     5714     5892     6099 
    6326     6664     6937     6883     6687     6604     6504     6331 
    6123     5729     5258     5003     4911     4965     5347     5907 
    6242     6311     6420     6610     6704     6736     6718     6581 
    6404     6204     5946     5765     5778     5958     6203     6334 
    6297     6220     6173     6150     6156     6203     6374     6693 
    7003     7145     7014     6592     6120     5860     5719     5560 
    5540     5710     5806     5769     5799     5948     6150     6266 
    6264     6397     6678     6731     6482     6165     5861     5653 
    5706     5948     6139     6235     6362     6423     6218     5992 
    6079     6270     6296     6197     6085     6112     6320     6513 
    6578     6558     6509     6496     6432     6219     5994     5944 
    6100     6293     6270     6084     5972     5919     5769     5549 
    5433     5494     5657     5857     6014     6048     6173     6605 
    7047     7196     7172     7059     6801     6439     6060     5730 
    5541     5541     5611     5587     5539     5553     5532     5503 
    5637     5875     6045     6250     6637     6918     6885     6832 
    6814     6613     6404     6334     6247     6192     6327     6597 
    6853     6914     6610     6081     5751     5782     5854     5746 
    5657     5792     6064     6203     6019     5630     5327     5266 
    5525     6085     6729     7182     7308     7191     7048     6928 
    6702     6380     6154     6129     6177     6068     5806     5629 
    5580     5441     5163     4943     4923     5107     5410     5745 
    6170     6724     7199     7400     7406     7371     7258     6980 
    6655     6381     6061     5755     5629     5591     5481     5350 
    5335     5470     5733     6106     6444     6589     6642     6716 
    6744     6691     6628     6569     6420     6181     6014     5975 
    6014     6073     6021     5881     5864     5937     5861     5660 
    5663     5938     6165     6246     6303     6385     6555     6701 
    6636     6529     6567     6620     6482     6118     5729     5458 
    5209     4958     4892     5136     5571     6043     6531     7013 
    7379     7484     7280     6918     6627     6488     6444     6404 
    6272     6104     6014     5879     5593     5352     5373     5640 
    5975     6145     6093     6083     6353     6721     6860     6806 
    6760     6713     6507     6102     5665     5336     5049     4795 
    4702     4853     5348     6157     6912     7326     7499     7539 
    7376     7001     6550     6172     5934     5873     5983     6160 
    6301     6374     6390     6396     6343     6154     5934     5813 
    5783     5784     5773     5806     5953     6097     6151     6189 
    6157     5995     5946     6077     6085     5957     5941     5996 
    6016     6081     6230     6453     6705     6860     6906     6907 
    6822     6729     6747     6767     6673     6511     6335     6118 
    5796     5373     4970     4719     4622     4634     4838     5243 
    5659     5989     6299     6594     6782     6787     6725     6782 
    7013     7368     7641     7601     7283     6817     6312     5850 
    5440     5148     5100     5224     5335     5416     5617     5971 
    6276     6401     6439     6450     6374     6253     6230     6277 
    6201     6010     5927     6006     6110     6254     6555     6929 
    7190     7296     7337     7288     7068     6729     6372     5972 
    5541     5205     5046     5063     5235     5470     5652     5738 
    5737     5648     5514     5535     5852     6269     6590     6885 
    7092     7061     6909     6774     6624     6432     6204     5999 
    5856     5771     5759     5709     5539     5406     5429     5553 
    5741     6004     6347     6731     7096     7331     7269     6957 
    6597     6176     5672     5290     5152     5282     5695     6180 
    6470     6536     6484     6415     6435     6602     6859     7026 
    6982     6758     6469     6212     6012     5923     6060     6304 
    6346     6156     5946     5803     5707     5611     5483     5410 
    5454     5556     5593     5517     5528     5802     6216     6598 
    6871     7011     7020     6833     6496     6235     6133     6112 
    6108     6039     5961     5946     5890     5846     6000     6254 
    6432     6473     6334     6137     6081     6143     6193     6249 
    6428     6683     6795     6727     6632     6554     6469     6382 
    6266     6108     5925     5773     5699     5633     5571     5633 
    5814     6031     6214     6278     6269     6296     6378     6421 
    6300     6054     5854     5786     5834     5918     5988     6142 
    6407     6633     6712     6673     6623     6632     6655     6582 
    6345     5980     5645     5427     5300     5297     5483     5784 
    6066     6318     6536     6654     6651     6575     6507     6458 
    6322     6085     5899     5836     5832     5896     6095     6297 
    6299     6165     6041     5941     5891     5911     5981     6052 
    6065     6060     6095     6133     6164     6241     6363     6473 
