Origin Time       2024/06/23 22:54:00
Lat.              35.645
Long.             140.060
Depth. (km)       72
Mag.              4.1
Station Code      TKY003
Station Lat.      35.7968
Station Long.     139.2916
Station Height(m) 179
Record Time       2024/06/23 22:54:51
Sampling Freq(Hz) 100Hz
Duration Time(s)  60
Dir.              U-D
Scale Factor      7845(gal)/8223790
Max. Acc. (gal)   1.441
Last Correction   2024/06/23 22:54:50
Memo.             
    9796     9799     9801     9799     9803     9803     9799     9798 
    9794     9790     9791     9792     9796     9799     9796     9794 
    9795     9798     9802     9802     9798     9795     9792     9795 
    9798     9799     9799     9802     9803     9802     9801     9795 
    9790     9791     9799     9803     9803     9802     9798     9795 
    9795     9795     9795     9798     9796     9795     9794     9795 
    9799     9799     9796     9801     9806     9805     9801     9796 
    9795     9792     9790     9790     9794     9801     9805     9803 
    9802     9799     9796     9795     9795     9795     9796     9798 
    9801     9799     9798     9799     9799     9796     9796     9795 
    9795     9801     9801     9798     9805     9807     9802     9802 
    9799     9796     9799     9796     9795     9796     9794     9791 
    9795     9795     9792     9799     9806     9805     9802     9803 
    9805     9801     9795     9794     9796     9795     9794     9798 
    9799     9796     9796     9798     9798     9798     9795     9796 
    9799     9802     9806     9806     9798     9792     9795     9795 
    9795     9795     9795     9795     9799     9803     9806     9802 
    9796     9796     9799     9798     9795     9796     9798     9796 
    9792     9795     9798     9796     9796     9799     9802     9801 
    9798     9799     9799     9796     9798     9798     9798     9801 
    9801     9798     9794     9792     9791     9791     9795     9801 
    9803     9805     9803     9799     9798     9798     9795     9795 
    9795     9795     9798     9799     9796     9796     9799     9799 
    9798     9795     9795     9796     9798     9802     9805     9805 
    9803     9798     9796     9795     9790     9788     9794     9799 
    9802     9805     9803     9801     9798     9794     9794     9796 
    9799     9801     9799     9795     9792     9792     9795     9799 
    9799     9799     9799     9801     9802     9796     9794     9796 
    9796     9799     9802     9798     9794     9794     9794     9801 
    9803     9798     9794     9794     9796     9801     9801     9802 
    9805     9802     9798     9796     9798     9795     9792     9794 
    9795     9795     9798     9799     9798     9798     9798     9799 
    9803     9807     9802     9794     9794     9795     9794     9795 
    9796     9795     9795     9799     9799     9796     9796     9798 
    9799     9802     9801     9799     9798     9799     9798     9795 
    9791     9794     9798     9796     9794     9795     9795     9799 
    9805     9806     9802     9799     9796     9795     9792     9791 
    9795     9799     9796     9796     9799     9801     9802     9801 
    9798     9798     9796     9799     9802     9801     9798     9796 
    9796     9795     9795     9798     9798     9794     9792     9795 
    9796     9796     9801     9803     9801     9798     9796     9795 
    9795     9798     9801     9803     9806     9803     9798     9795 
    9792     9794     9799     9801     9799     9799     9798     9795 
    9790     9790     9795     9798     9795     9798     9802     9801 
    9798     9796     9795     9798     9802     9802     9801     9794 
    9780     9763     9744     9728     9720     9733     9769     9813 
    9856     9896     9921     9927     9922     9914     9910     9882 
    9802     9688     9587     9540     9570     9661     9756     9792 
    9765     9717     9690     9707     9792     9949    10116    10201 
   10169    10049     9876     9683     9540     9494     9495     9459 
    9410     9471     9678     9907    10050    10122    10169    10166 
   10091    10031    10100    10261    10326    10114     9652     9197 
    9013     9165     9491     9757     9833     9725     9485     9207 
    9108     9425    10160    10962    11308    10948    10149     9427 
    9115     9215     9553     9923    10046     9720     9154     8826 
    8997     9574    10247    10638    10563    10223     9937     9794 
    9751     9861    10127    10322    10181     9656     9003     8692 
    8965     9548     9996    10149    10099     9964     9803     9660 
    9660     9884    10195    10378    10312     9976     9499     9136 
    9111     9429     9886    10241    10346    10125     9724     9482 
    9516     9653     9783     9877     9867     9772     9740     9821 
    9915     9941     9923     9871     9740     9620     9686     9907 
   10048     9942     9674     9427     9323     9425     9697     9937 
   10006     9999     9985     9922     9806     9701     9671     9768 
    9985    10172    10146     9988     9910     9894     9737     9447 
    9289     9397     9636     9832     9900     9872     9805     9767 
    9865    10083    10242    10200     9990     9752     9597     9560 
    9602     9607     9524     9441     9470     9602     9775     9919 
    9969     9929     9894     9917     9945     9954    10035    10165 
   10145     9914     9668     9570     9517     9374     9294     9477 
    9795    10011    10102    10137    10064     9876     9726     9698 
    9728     9775     9849     9890     9846     9765     9687     9648 
    9703     9779     9760     9699     9715     9801     9872     9942 
   10050    10116    10079     9964     9779     9544     9364     9348 
    9514     9742     9868     9860     9810     9819     9919    10057 
   10152    10157    10049     9867     9711     9610     9516     9477 
    9563     9736     9886     9907     9761     9603     9644     9826 
    9934     9937     9937     9934     9896     9844     9783     9713 
    9676     9699     9747     9769     9742     9679     9655     9759 
    9949    10065    10011     9844     9718     9724     9796     9853 
    9892     9903     9845     9737     9653     9636     9651     9648 
    9652     9702     9775     9853     9968    10102    10138    10029 
    9879     9798     9778     9753     9686     9606     9567     9570 
    9589     9630     9729     9852     9913     9910     9927     9957 
    9914     9809     9756     9767     9755     9722     9779     9913 
    9953     9849     9757     9761     9771     9745     9799     9964 
   10079    10029     9864     9678     9568     9606     9724     9815 
    9859     9869     9840     9759     9660     9591     9599     9709 
    9856     9960    10004     9980     9879     9784     9772     9790 
    9776     9764     9759     9728     9691     9695     9725     9751 
    9807     9925    10003     9927     9760     9652     9678     9802 
    9945    10018     9953     9786     9637     9590     9626     9680 
    9732     9817     9931    10004     9998     9948     9886     9796 
    9687     9585     9489     9437     9501     9656     9813     9877 
    9838     9837     9998    10203    10261    10161    10018     9891 
    9761     9640     9562     9532     9543     9572     9585     9591 
    9643     9705     9740     9802     9918    10053    10180    10226 
   10108     9894     9738     9714     9741     9697     9580     9504 
    9532     9637     9752     9863     9996    10115    10126     9988 
    9787     9675     9726     9819     9775     9616     9552     9675 
    9868     9975     9948     9857     9794     9774     9771     9747 
    9718     9769     9907    10012    10002     9919     9853     9809 
    9736     9620     9521     9497     9541     9621     9702     9760 
    9818     9910     9994    10029    10035    10021     9979     9927 
    9873     9796     9693     9607     9579     9567     9532     9524 
    9613     9759     9865     9933     9992    10015     9968     9876 
    9796     9772     9805     9833     9826     9782     9691     9616 
    9652     9774     9856     9849     9837     9877     9894     9825 
    9755     9779     9882     9979     9985     9886     9749     9651 
    9656     9774     9838     9717     9548     9508     9585     9737 
    9967    10170    10187    10027     9856     9749     9675     9660 
    9748     9859     9865     9757     9625     9552     9566     9688 
    9887    10030    10007     9872     9757     9725     9767     9846 
    9887     9834     9744     9686     9645     9624     9688     9852 
   10033    10116    10037     9871     9768     9765     9782     9780 
    9788     9792     9767     9718     9693     9724     9776     9855 
    9963     9972     9821     9655     9634     9756     9850     9783 
    9656     9652     9767     9865     9906     9945     9967     9875 
    9667     9460     9370     9468     9720     9972    10112    10110 
    9964     9784     9741     9848     9969    10008     9936     9771 
    9618     9597     9726     9933    10085    10072     9891     9686 
    9575     9531     9535     9629     9752     9801     9805     9838 
    9875     9864     9833     9863     9969    10052     9996     9838 
    9674     9545     9494     9549     9639     9652     9640     9730 
    9853     9850     9791     9822     9918     9996    10038    10026 
    9963     9857     9728     9651     9663     9678     9656     9697 
    9845    10004    10100    10120    10046     9911     9782     9653 
    9525     9463     9477     9493     9526     9649     9813     9949 
   10087    10211    10199    10025     9830     9720     9653     9607 
    9648     9788     9896     9836     9667     9539     9510     9564 
    9657     9755     9880    10042    10152    10137    10048     9953 
    9867     9817     9833     9865     9802     9606     9418     9381 
    9436     9518     9686     9899     9979     9922     9913    10025 
   10166    10258    10269    10170     9968     9720     9462     9262 
    9229     9359     9529     9647     9707     9755     9809     9890 
   10004    10110    10142    10064     9938     9825     9711     9629 
    9645     9769     9957    10098    10049     9803     9551     9493 
    9647     9882    10042    10012     9792     9564     9529     9671 
    9798     9756     9563     9410     9437     9586     9769     9985 
   10188    10272    10208    10081     9968     9869     9805     9799 
    9763     9621     9458     9416     9551     9778     9914     9846 
    9698     9693     9853    10002    10034     9987     9937     9942 
    9981     9965     9844     9648     9487     9470     9576     9707 
    9811     9863     9849     9794     9748     9761     9836     9913 
    9933     9882     9803     9768     9776     9778     9779     9807 
    9822     9775     9671     9570     9528     9553     9690     9950 
   10162    10130     9909     9718     9694     9786     9914    10054 
   10149    10099     9910     9709     9571     9483     9495     9621 
    9737     9741     9659     9591     9617     9722     9825     9861 
    9869     9933    10000     9961     9888     9925    10019    10041 
   10000     9954     9890     9791     9678     9589     9574     9620 
    9674     9728     9772     9737     9614     9549     9639     9767 
    9810     9810     9859     9934     9945     9877     9807     9794 
    9828     9853     9892     9981     9998     9855     9703     9698 
    9772     9787     9775     9815     9849     9787     9667     9612 
    9684     9807     9879     9894     9872     9814     9747     9714 
    9711     9736     9838    10007    10108    10034     9848     9687 
    9620     9652     9733     9744     9655     9601     9670     9784 
    9838     9852     9888     9938     9933     9841     9726     9688 
    9747     9818     9810     9691     9545     9509     9618     9794 
    9953    10037    10000     9898     9859     9921    10018    10069 
   10017     9864     9690     9574     9544     9579     9645     9740 
    9850     9934     9946     9877     9767     9674     9648     9701 
    9796     9888     9927     9872     9748     9647     9629     9682 
    9764     9844     9872     9834     9795     9837     9961    10106 
   10210    10222    10106     9888     9687     9570     9510     9502 
    9558     9629     9668     9678     9653     9609     9614     9729 
    9898    10008    10019     9957     9867     9788     9775     9837 
    9877     9818     9697     9585     9522     9547     9668     9810 
    9894     9946    10011    10057    10030     9926     9796     9709 
    9702     9801     9930     9961     9857     9705     9616     9606 
    9607     9628     9728     9860     9931     9949     9975     9988 
    9944     9880     9850     9840     9798     9721     9643     9582 
    9572     9626     9655     9609     9605     9760    10003    10126 
   10030     9796     9562     9472     9585     9788     9953    10049 
   10089    10068     9990     9917     9876     9826     9774     9761 
    9783     9810     9823     9799     9699     9547     9454     9506 
    9644     9745     9772     9771     9783     9821     9898    10019 
   10131    10126     9973     9790     9674     9629     9659     9752 
    9857     9923     9934     9913     9856     9747     9645     9664 
    9783     9841     9790     9724     9701     9715     9752     9780 
    9813     9871     9910     9859     9710     9574     9560     9686 
    9875    10002    10008     9981    10003    10030    10000     9929 
    9840     9742     9672     9616     9520     9420     9389     9427 
    9522     9653     9749     9775     9788     9875    10048    10224 
   10305    10257    10123     9954     9806     9707     9624     9558 
    9570     9664     9780     9861     9887     9884     9887     9904 
    9890     9775     9570     9385     9366     9535     9706     9707 
    9601     9567     9725    10017    10260    10331    10262    10177 
   10139    10100    10044     9994     9918     9794     9639     9441 
    9220     9084     9116     9308     9578     9768     9792     9760 
    9802     9906    10022    10172    10353    10438    10330    10096 
    9859     9678     9602     9640     9720     9729     9598     9382 
    9220     9224     9441     9823    10203    10424    10471    10412 
   10284    10098     9877     9666     9468     9269     9082     8958 
    8966     9186     9574     9922    10118    10239    10359    10420 
   10349    10176     9998     9883     9859     9918     9965     9929 
    9879     9869     9842     9748     9629     9541     9493     9456 
    9397     9300     9225     9271     9471     9747     9968    10062 
   10072    10071    10054     9996     9942     9957    10011    10017 
    9948     9864     9819     9807     9819     9834     9776     9637 
    9537     9555     9659     9801     9961    10095    10099     9927 
    9706     9625     9725     9891    10004    10011     9931     9836 
    9761     9683     9563     9405     9248     9140     9169     9362 
    9641     9958    10311    10632    10812    10756    10473    10098 
    9761     9514     9351     9243     9189     9202     9275     9367 
    9471     9636     9853    10066    10257    10399    10424    10346 
   10266    10207    10089     9904     9703     9504     9300     9126 
    9050     9093     9209     9374     9587     9836    10085    10280 
   10345    10257    10118    10044    10012     9964     9899     9868 
    9904     9936     9879     9786     9726     9686     9651     9620 
    9539     9421     9390     9536     9790     9983    10007     9876 
    9668     9509     9470     9539     9717     9979    10210    10299 
   10262    10173    10050     9929     9859     9823     9752     9597 
    9412     9296     9294     9408     9617     9848     9999    10042 
   10010     9910     9787     9726     9752     9826     9909     9996 
   10089    10143    10104     9972     9798     9655     9591     9591 
    9597     9612     9697     9822     9880     9823     9720     9660 
    9694     9825     9958    10003     9967     9911     9873     9825 
    9740     9651     9576     9491     9379     9267     9216     9290 
    9520     9849    10162    10350    10372    10266    10125    10002 
    9919     9907     9965    10018    10015     9990     9977     9957 
    9891     9794     9699     9616     9532     9459     9424     9443 
    9504     9601     9740     9879     9965     9999     9988     9922 
    9814     9703     9637     9639     9682     9730     9775     9826 
    9868     9890     9930    10014    10064     9996     9860     9780 
    9788     9806     9763     9663     9539     9452     9487     9628 
    9756     9822     9891     9969     9965     9871     9803     9809 
    9848     9871     9833     9711     9559     9494     9583     9752 
    9861     9853     9778     9748     9861    10064    10191    10185 
   10118    10056     9999     9917     9811     9711     9660     9675 
    9720     9742     9720     9661     9589     9521     9502     9548 
    9617     9657     9663     9664     9690     9759     9888    10053 
   10157    10156    10096     9999     9873     9803     9844     9921 
    9925     9833     9710     9651     9693     9769     9779     9711 
    9629     9582     9598     9676     9763     9805     9798     9763 
    9733     9736     9779     9871     9965     9979     9910     9834 
    9795     9805     9849     9861     9788     9706     9729     9813 
    9830     9751     9663     9667     9786     9941    10037    10046 
    9987     9896     9817     9775     9751     9720     9687     9651 
    9568     9466     9428     9512     9726    10007    10227    10297 
   10219    10049     9861     9729     9670     9645     9639     9659 
    9720     9786     9796     9761     9749     9768     9780     9775 
    9763     9737     9707     9717     9769     9830     9882     9910 
    9890     9832     9784     9756     9728     9706     9698     9694 
    9699     9729     9801     9900     9987    10037    10057    10022 
    9913     9801     9783     9844     9869     9803     9710     9630 
    9568     9537     9533     9541     9602     9756     9950    10069 
   10095    10088    10073    10054    10025     9950     9807     9633 
    9518     9516     9568     9602     9628     9664     9675     9639 
    9607     9626     9684     9761     9872     9998    10088    10145 
   10199    10220    10173    10092    10031     9965     9838     9653 
    9456     9297     9224     9250     9325     9432     9575     9711 
    9806     9867     9927    10017    10127    10201    10180    10084 
    9994     9950     9941     9938     9896     9807     9741     9749 
    9783     9763     9680     9583     9522     9526     9576     9618 
    9624     9633     9686     9764     9823     9838     9848     9900 
    9990    10066    10095    10071    10029     9996     9964     9906 
    9806     9686     9620     9652     9726     9749     9674     9553 
    9486     9508     9609     9751     9864     9902     9894     9864 
    9786     9668     9609     9656     9749     9814     9823     9801 
    9795     9837     9913     9999    10075    10104    10076    10002 
    9902     9814     9767     9713     9607     9506     9490     9583 
    9755     9945    10085    10115    10035     9907     9769     9645 
    9555     9498     9445     9431     9524     9695     9848     9957 
   10056    10142    10193    10204    10164    10056     9923     9811 
    9714     9614     9502     9405     9366     9420     9567     9763 
