Origin Time       2024/06/23 22:54:00
Lat.              35.645
Long.             140.060
Depth. (km)       72
Mag.              4.1
Station Code      TKY020
Station Lat.      35.6646
Station Long.     139.8086
Station Height(m) 2
Record Time       2024/06/23 22:54:45
Sampling Freq(Hz) 100Hz
Duration Time(s)  60
Dir.              N-S
Scale Factor      7845(gal)/8223790
Max. Acc. (gal)   1.904
Last Correction   2024/06/23 22:54:44
Memo.             
[...]
  -14277   -14293   -14295   -14285   -14277   -14281   -14285   -14269 
  -14264   -14280   -14287   -14299   -14307   -14278   -14251   -14262 
  -14285   -14289   -14284   -14284   -14284   -14281   -14284   -14280 
  -14270   -14287   -14300   -14300   -14311   -14299   -14260   -14256 
  -14278   -14291   -14291   -14291   -14295   -14293   -14289   -14285 
  -14273   -14266   -14269   -14281   -14301   -14307   -14293   -14281 
  -14277   -14287   -14293   -14280   -14274   -14277   -14288   -14304 
  -14292   -14276   -14280   -14284   -14291   -14284   -14264   -14274 
  -14297   -14301   -14301   -14281   -14257   -14265   -14281   -14304 
  -14318   -14285   -14265   -14274   -14268   -14269   -14287   -14292 
  -14292   -14287   -14288   -14283   -14249   -14250   -14289   -14305 
  -14307   -14303   -14285   -14274   -14272   -14278   -14283   -14283 
  -14292   -14292   -14301   -14318   -14287   -14256   -14269   -14285 
  -14292   -14296   -14291   -14293   -14292   -14277   -14268   -14270 
  -14281   -14292   -14289   -14281   -14277   -14280   -14280   -14272 
  -14276   -14293   -14303   -14295   -14283   -14277   -14276   -14287 
  -14299   -14288   -14277   -14277   -14278   -14283   -14281   -14280 
  -14287   -14285   -14287   -14300   -14305   -14288   -14269   -14276 
  -14292   -14293   -14293   -14291   -14278   -14280   -14293   -14285 
  -14269   -14284   -14311   -14304   -14281   -14273   -14272   -14277 
  -14288   -14288   -14296   -14308   -14296   -14274   -14273   -14278 
  -14283   -14296   -14299   -14288   -14281   -14276   -14277   -14287 
  -14285   -14280   -14288   -14293   -14284   -14278   -14292   -14295 
  -14278   -14280   -14289   -14274   -14264   -14281   -14300   -14297 
  -14287   -14281   -14274   -14274   -14287   -14293   -14280   -14269 
  -14268   -14277   -14311   -14316   -14280   -14266   -14270   -14276 
  -14295   -14311   -14310   -14291   -14270   -14276   -14280   -14272 
  -14273   -14285   -14301   -14297   -14287   -14287   -14280   -14276 
  -14291   -14304   -14307   -14292   -14277   -14285   -14296   -14296 
  -14296   -14296   -14288   -14280   -14283   -14287   -14283   -14281 
  -14288   -14283   -14274   -14285   -14285   -14278   -14288   -14289 
  -14283   -14292   -14291   -14281   -14299   -14307   -14289   -14281 
  -14276   -14276   -14292   -14300   -14303   -14293   -14284   -14300 
  -14303   -14292   -14291   -14277   -14283   -14299   -14284   -14277 
  -14283   -14266   -14276   -14295   -14291   -14293   -14293   -14283 
  -14276   -14272   -14285   -14301   -14303   -14299   -14285   -14274 
  -14280   -14277   -14277   -14287   -14291   -14300   -14303   -14291 
  -14284   -14278   -14278   -14287   -14284   -14284   -14288   -14278 
  -14277   -14291   -14289   -14296   -14301   -14292   -14292   -14287 
  -14276   -14280   -14280   -14284   -14291   -14285   -14288   -14292 
  -14283   -14284   -14297   -14296   -14283   -14284   -14288   -14288 
  -14296   -14297   -14296   -14301   -14293   -14287   -14284   -14278 
  -14283   -14289   -14296   -14300   -14292   -14283   -14283   -14285 
  -14283   -14280   -14289   -14293   -14289   -14295   -14296   -14292 
  -14289   -14273   -14257   -14265   -14283   -14297   -14299   -14291 
  -14288   -14285   -14287   -14295   -14292   -14289   -14299   -14301 
  -14299   -14291   -14273   -14269   -14268   -14258   -14268   -14285 
  -14287   -14292   -14297   -14292   -14287   -14280   -14272   -14274 
  -14284   -14295   -14296   -14291   -14278   -14266   -14272   -14283 
  -14293   -14307   -14304   -14293   -14299   -14299   -14291   -14295 
  -14293   -14281   -14281   -14278   -14262   -14262   -14283   -14287 
  -14287   -14296   -14295   -14281   -14276   -14284   -14281   -14272 
  -14283   -14300   -14318   -14320   -14292   -14273   -14272   -14260 
  -14265   -14281   -14281   -14292   -14299   -14289   -14285   -14280 
  -14283   -14278   -14266   -14284   -14307   -14289   -14280   -14285 
  -14270   -14264   -14274   -14276   -14278   -14296   -14301   -14293 
  -14288   -14277   -14274   -14281   -14274   -14276   -14292   -14289 
  -14284   -14284   -14274   -14278   -14287   -14283   -14287   -14284 
  -14280   -14288   -14291   -14291   -14288   -14278   -14280   -14285 
  -14278   -14277   -14289   -14291   -14285   -14297   -14289   -14257 
  -14261   -14281   -14261   -14260   -14308   -14330   -14292   -14261 
  -14283   -14287   -14260   -14280   -14295   -14300   -14331   -14278 
  -14226   -14339   -14395   -14230   -14153   -14292   -14328   -14246 
  -14283   -14350   -14345   -14331   -14301   -14260   -14196   -14202 
  -14319   -14300   -14235   -14303   -14264   -14238   -14389   -14403 
  -14265   -14265   -14372   -14292   -14040   -14072   -14405   -14507 
  -14323   -14308   -14422   -14269   -14042   -14127   -14412   -14543 
  -14343   -14118   -14206   -14361   -14280   -14121   -14242   -14562 
  -14493   -14056   -13944   -14272   -14520   -14351   -14135   -14342 
  -14472   -14192   -14106   -14316   -14457   -14388   -14170   -14141 
  -14305   -14368   -14297   -14153   -14189   -14465   -14480   -14179 
  -14138   -14432   -14439   -14094   -14100   -14408   -14400   -14295 
  -14295   -14133   -14075   -14341   -14509   -14432   -14427   -14396 
  -14133   -14031   -14197   -14262   -14291   -14381   -14381   -14258 
  -14091   -14161   -14481   -14536   -14297   -14211   -14253   -14212 
  -14169   -14245   -14397   -14442   -14314   -14122   -14133   -14404 
  -14430   -14215   -14341   -14451   -14160   -14041   -14239   -14378 
  -14466   -14466   -14295   -14196   -14168   -14087   -14220   -14470 
  -14392   -14230   -14292   -14320   -14297   -14283   -14208   -14254 
  -14328   -14233   -14250   -14385   -14318   -14202   -14249   -14299 
  -14280   -14300   -14369   -14424   -14361   -14183   -14133   -14277 
  -14376   -14343   -14312   -14284   -14212   -14245   -14319   -14300 
  -14359   -14347   -14139   -14188   -14415   -14389   -14327   -14345 
  -14212   -14094   -14162   -14256   -14345   -14455   -14455   -14349 
  -14254   -14197   -14179   -14219   -14315   -14369   -14295   -14191 
  -14193   -14274   -14342   -14351   -14308   -14249   -14245   -14328 
  -14343   -14247   -14264   -14296   -14185   -14200   -14330   -14328 
  -14316   -14355   -14285   -14143   -14146   -14369   -14566   -14497 
  -14277   -14102   -14077   -14272   -14365   -14243   -14334   -14424 
  -14206   -14139   -14319   -14416   -14351   -14219   -14210   -14272 
  -14260   -14211   -14192   -14335   -14427   -14253   -14187   -14296 
  -14368   -14381   -14258   -14214   -14342   -14335   -14310   -14364 
  -14347   -14350   -14278   -14143   -14260   -14382   -14235   -14183 
  -14337   -14391   -14323   -14324   -14335   -14234   -14170   -14175 
  -14197   -14361   -14420   -14175   -14138   -14422   -14440   -14229 
  -14223   -14337   -14288   -14169   -14188   -14324   -14472   -14431 
  -14158   -14050   -14260   -14419   -14318   -14192   -14292   -14422 
  -14311   -14176   -14291   -14391   -14214   -14095   -14238   -14438 
  -14582   -14499   -14191   -14081   -14185   -14191   -14210   -14403 
  -14586   -14530   -14310   -14154   -14048   -14035   -14247   -14377 
  -14265   -14253   -14373   -14354   -14251   -14226   -14216   -14196 
  -14257   -14361   -14382   -14404   -14469   -14338   -14053   -14003 
  -14192   -14273   -14314   -14567   -14670   -14339   -14098   -14188 
  -14202   -14161   -14345   -14481   -14427   -14409   -14335   -14115 
  -13933   -13965   -14180   -14331   -14450   -14597   -14447   -14211 
  -14245   -14107   -13879   -14191   -14656   -14625   -14332   -14233 
  -14250   -14149   -14137   -14320   -14364   -14316   -14354   -14293 
  -14215   -14253   -14247   -14251   -14354   -14343   -14257   -14297 
  -14337   -14257   -14164   -14188   -14288   -14316   -14337   -14308 
  -14158   -14185   -14370   -14366   -14345   -14438   -14341   -14220 
  -14314   -14303   -14204   -14258   -14307   -14283   -14347   -14555 
  -14612   -14251   -13991   -14125   -14111   -13994   -14215   -14548 
  -14582   -14347   -14197   -14157   -14170   -14397   -14439   -14166 
  -14231   -14446   -14397   -14408   -14285   -14010   -14161   -14296 
  -14139   -14270   -14386   -14315   -14413   -14269   -14017   -14193 
  -14318   -14254   -14301   -14300   -14331   -14477   -14450   -14152 
  -14017   -14353   -14488   -14172   -14091   -14218   -14203   -14118 
  -14060   -14253   -14611   -14661   -14577   -14546   -14185   -13861 
  -14053   -14262   -14365   -14585   -14600   -14345   -14138   -14049 
  -14031   -14121   -14359   -14490   -14334   -14219   -14199   -14170 
  -14373   -14570   -14462   -14386   -14396   -14208   -14033   -14230 
  -14532   -14469   -14204   -14216   -14391   -14330   -14265   -14293 
  -14067   -13946   -14142   -14222   -14283   -14331   -14222   -14235 
  -14349   -14355   -14270   -14264   -14467   -14501   -14226   -14173 
  -14251   -14149   -14237   -14416   -14351   -14419   -14574   -14396 
  -14175   -14199   -14211   -14135   -14176   -14268   -14322   -14395 
  -14300   -14153   -14291   -14283   -14037   -14116   -14300   -14443 
  -14589   -14304   -14011   -14203   -14422   -14424   -14246   -14239 
  -14547   -14339   -13852   -14160   -14605   -14478   -14308   -14284 
  -14378   -14481   -14346   -14199   -14214   -14234   -14121   -14034 
  -14315   -14669   -14524   -14107   -14018   -14153   -14158   -14251 
  -14422   -14382   -14339   -14283   -14095   -14122   -14334   -14458 
  -14434   -14273   -14424   -14867   -14766   -14207   -13919   -13910 
  -14003   -14192   -14370   -14445   -14388   -14229   -14006   -13972 
  -14254   -14401   -14324   -14304   -14310   -14393   -14500   -14459 
  -14372   -14211   -14053   -14157   -14297   -14197   -14119   -14242 
  -14273   -14162   -14231   -14397   -14411   -14322   -14208   -14215 
  -14364   -14362   -14253   -14345   -14581   -14601   -14320   -14203 
  -14273   -14034   -13855   -14104   -14266   -14250   -14238   -14196 
  -14277   -14426   -14463   -14557   -14665   -14476   -14234   -14339 
  -14438   -14265   -14188   -14152   -13977   -14017   -14192   -14250 
  -14401   -14476   -14350   -14388   -14462   -14342   -14287   -14332 
  -14250   -14121   -14064   -14061   -14234   -14459   -14473   -14461 
  -14521   -14415   -14149   -13976   -14004   -14219   -14466   -14482 
  -14420   -14488   -14261   -13841   -13909   -14195   -14281   -14393 
  -14413   -14284   -14293   -14277   -14175   -14235   -14280   -14224 
  -14268   -14335   -14368   -14442   -14523   -14504   -14319   -14139 
  -14114   -14104   -14176   -14392   -14505   -14540   -14504   -14247 
  -14089   -14257   -14451   -14401   -14220   -14196   -14177   -14061 
  -14215   -14403   -14351   -14413   -14396   -14134   -14115   -14301 
  -14276   -14123   -14141   -14327   -14428   -14385   -14343   -14339 
  -14343   -14312   -14265   -14384   -14465   -14220   -14096   -14233 
  -14179   -14076   -14216   -14322   -14216   -14165   -14368   -14517 
  -14442   -14415   -14354   -14216   -14234   -14223   -14210   -14315 
  -14234   -14100   -14111   -14154   -14288   -14318   -14231   -14328 
  -14343   -14164   -14145   -14262   -14361   -14343   -14208   -14242 
  -14385   -14353   -14296   -14361   -14405   -14362   -14386   -14513 
  -14422   -14197   -14239   -14310   -14233   -14239   -14251   -14254 
  -14314   -14266   -14261   -14409   -14517   -14534   -14395   -14202 
  -14162   -14156   -14210   -14361   -14358   -14289   -14289   -14234 
  -14166   -14156   -14260   -14474   -14497   -14361   -14392   -14422 
  -14212   -14119   -14362   -14438   -14192   -14065   -14087   -14184 
  -14374   -14384   -14285   -14404   -14521   -14407   -14229   -14141 
  -14246   -14389   -14229   -14015   -14106   -14156   -14031   -14139 
  -14372   -14377   -14323   -14312   -14247   -14256   -14318   -14268 
  -14227   -14261   -14251   -14238   -14195   -14083   -14131   -14330 
  -14400   -14415   -14457   -14308   -14076   -14077   -14170   -14200 
  -14312   -14380   -14260   -14157   -14123   -14164   -14350   -14594 
  -14737   -14562   -14293   -14358   -14341   -14073   -14103   -14183 
  -13956   -13846   -13946   -14054   -14289   -14615   -14716   -14671 
  -14781   -14767   -14496   -14434   -14536   -14470   -14465   -14661 
  -14773   -14675   -14629   -14818   -14931   -14709   -14355   -14076 
  -13878   -13626   -13436   -13625   -14006   -14189   -14084   -13853 
  -13811   -13953   -14037   -14148   -14436   -14677   -14678   -14634 
  -14596   -14461   -14330   -14203   -13952   -13636   -13566   -13882 
  -14173   -14251   -14385   -14575   -14694   -14685   -14451   -14131 
  -13960   -13911   -13810   -13617   -13439   -13309   -13207   -13061 
  -12868   -12823   -13109   -13690   -14299   -14825   -15375   -15739 
  -15815   -15854   -15799   -15546   -15164   -14612   -14029   -13633 
  -13479   -13568   -13813   -14092   -14377   -14706   -15048   -15307 
  -15610   -15920   -15897   -15527   -15006   -14442   -14019   -13782 
  -13717   -13936   -14293   -14424   -14258   -14057   -14022   -14103 
  -14123   -14071   -14122   -14315   -14496   -14507   -14397   -14350 
  -14396   -14584   -14868   -14920   -14666   -14331   -14053   -13879 
  -13801   -13848   -13864   -13512   -13109   -13242   -13713   -14301 
  -15025   -15458   -15346   -14940   -14492   -14145   -13852   -13520 
  -13130   -12636   -12290   -12397   -12731   -13150   -13734   -14220 
  -14451   -14547   -14580   -14654   -14786   -14905   -14948   -14928 
  -14905   -14729   -14466   -14447   -14501   -14277   -13903   -13747 
  -13945   -14264   -14586   -14936   -15026   -14827   -14713   -14624 
  -14395   -14327   -14463   -14419   -14189   -14095   -14110   -14106 
  -14207   -14422   -14613   -14783   -14916   -14916   -14932   -15078 
  -15021   -14678   -14454   -14405   -14351   -14389   -14588   -14731 
  -14588   -14304   -14156   -14060   -13890   -13760   -13801   -13934 
  -14025   -14170   -14391   -14465   -14354   -14071   -13687   -13653 
  -14011   -14137   -13880   -13635   -13628   -13857   -14162   -14305 
  -14222   -14084   -14027   -14042   -14126   -14229   -14299   -14388 
  -14411   -14312   -14264   -14249   -14127   -14015   -13960   -13871 
  -13900   -14127   -14274   -14204   -14058   -14026   -14157   -14277 
  -14330   -14446   -14628   -14886   -15098   -14987   -14709   -14589 
  -14449   -14242   -14299   -14482   -14493   -14504   -14609   -14539 
  -14239   -13946   -13838   -13969   -14206   -14391   -14566   -14713 
  -14737   -14582   -14273   -14049   -14071   -14273   -14517   -14729 
  -14906   -14990   -14947   -14778   -14546   -14435   -14278   -13886 
  -13686   -13848   -14008   -14050   -14019   -13964   -14007   -14191 
  -14446   -14517   -14239   -13880   -13803   -14040   -14245   -14226 
  -14168   -14184   -14274   -14354   -14250   -14135   -14305   -14596 
  -14713   -14671   -14608   -14504   -14247   -13921   -13662   -13483 
  -13374   -13284   -13282   -13535   -13842   -13983   -14143   -14299 
  -14227   -14191   -14453   -14775   -14976   -15059   -14967   -14790 
  -14639   -14474   -14365   -14405   -14485   -14467   -14372   -14342 
  -14428   -14469   -14353   -14204   -14206   -14283   -14342   -14465 
  -14531   -14449   -14342   -14226   -14125   -14122   -14245   -14455 
  -14620   -14735   -14802   -14777   -14782   -14779   -14613   -14399 
  -14210   -13999   -13899   -14014   -14200   -14299   -14354   -14422 
  -14400   -14364   -14526   -14673   -14507   -14208   -14002   -13848 
  -13757   -13756   -13776   -13832   -13938   -14069   -14276   -14436 
  -14346   -14145   -13995   -13899   -13963   -14058   -13964   -13841 
  -13802   -13842   -14049   -14274   -14434   -14667   -14847   -14808 
  -14670   -14531   -14369   -14169   -14003   -13856   -13713   -13852 
  -14215   -14335   -14318   -14428   -14457   -14408   -14486   -14629 
  -14644   -14470   -14335   -14380   -14494   -14697   -14924   -14897 
  -14613   -14376   -14246   -14056   -13917   -13899   -13798   -13724 
  -13892   -14137   -14319   -14546   -14742   -14683   -14461   -14289 
  -14223   -14246   -14299   -14350   -14426   -14521   -14597   -14597 
  -14567   -14612   -14667   -14646   -14601   -14566   -14488   -14343 
  -14179   -14030   -13919   -13937   -14033   -13996   -13824   -13648 
  -13599   -13675   -13699   -13783   -14049   -14241   -14328   -14467 
  -14458   -14257   -14157   -14218   -14285   -14366   -14457   -14430 
  -14292   -14158   -14046   -14045   -14215   -14359   -14435   -14531 
  -14496   -14323   -14208   -14123   -14038   -14064   -14173   -14283 
  -14423   -14608   -14729   -14706   -14619   -14551   -14488   -14457 
  -14474   -14422   -14324   -14350   -14489   -14584   -14578   -14581 
  -14721   -14943   -15010   -14835   -14508   -14108   -13784   -13644 
  -13586   -13543   -13608   -13832   -14068   -14196   -14345   -14494 
  -14435   -14264   -14192   -14278   -14470   -14581   -14543   -14509 
  -14535   -14531   -14457   -14335   -14204   -14108   -14027   -13876 
  -13714   -13716   -13892   -14087   -14170   -14183   -14230   -14284 
  -14237   -14127   -14085   -14088   -14035   -13987   -14000   -14056 
  -14114   -14085   -13999   -13941   -13915   -13965   -14114   -14293 
  -14481   -14636   -14697   -14685   -14693   -14715   -14658   -14624 
  -14690   -14742   -14832   -14966   -14929   -14737   -14547   -14431 
  -14408   -14369   -14278   -14200   -14077   -14004   -14079   -14122 
  -14121   -14152   -14125   -14048   -14035   -14126   -14246   -14337 
  -14408   -14397   -14295   -14257   -14338   -14439   -14503   -14513 
  -14508   -14503   -14422   -14301   -14260   -14334   -14412   -14377 
  -14366   -14473   -14481   -14346   -14227   -14080   -13836   -13663 
  -13630   -13657   -13775   -13917   -13932   -13961   -14085   -14096 
  -14046   -14118   -14220   -14283   -14354   -14478   -14607   -14612 
  -14523   -14411   -14253   -14161   -14208   -14260   -14258   -14243 
  -14222   -14210   -14203   -14218   -14284   -14358   -14399   -14405 
  -14412   -14454   -14478   -14466   -14467   -14466   -14462   -14497 
  -14551   -14601   -14607   -14511   -14377   -14320   -14312   -14239 
  -14223   -14400   -14530   -14494   -14555   -14733   -14778   -14652 
  -14565   -14548   -14426   -14261   -14196   -14157   -14129   -14096 
  -13967   -13791   -13675   -13675   -13828   -14040   -14148   -14125 
  -14114   -14214   -14319   -14338   -14300   -14226   -14130   -14034 
  -13975   -14008   -14094   -14141   -14202   -14268   -14216   -14131 
  -14149   -14214   -14277   -14364   -14453   -14472   -14404   -14330 
  -14253   -14115   -14071   -14234   -14385   -14359   -14270   -14224 
  -14187   -14129   -14149   -14273   -14407   -14536   -14648   -14693 
  -14671   -14581   -14439   -14330   -14292   -14304   -14347   -14416 
  -14466   -14438   -14349   -14292   -14266   -14211   -14180   -14172 
  -14110   -14116   -14257   -14439   -14697   -14937   -14968   -14870 
  -14758   -14635   -14539   -14509   -14484   -14381   -14323   -14399 
  -14438   -14400   -14361   -14307   -14312   -14378   -14311   -14107 
  -13927   -13849   -13867   -13903   -13946   -14015   -14013   -13906 
