Origin Time       2024/06/23 22:54:00
Lat.              35.645
Long.             140.060
Depth. (km)       72
Mag.              4.1
Station Code      TKY004
Station Lat.      35.6301
Station Long.     139.4034
Station Height(m) 81
Record Time       2024/06/23 22:54:39
Sampling Freq(Hz) 100Hz
Duration Time(s)  64
Dir.              N-S
Scale Factor      7845(gal)/8223790
Max. Acc. (gal)   2.780
Last Correction   2024/06/23 22:54:38
Memo.             
[...]
  -10461   -10462   -10485   -10482   -10457   -10450   -10463   -10478 
  -10488   -10476   -10449   -10450   -10461   -10453   -10457   -10476 
  -10478   -10473   -10469   -10461   -10457   -10458   -10463   -10473 
  -10474   -10467   -10469   -10476   -10469   -10455   -10458   -10467 
  -10470   -10469   -10459   -10451   -10462   -10470   -10459   -10451 
  -10462   -10476   -10470   -10454   -10459   -10484   -10488   -10466 
  -10447   -10458   -10477   -10476   -10461   -10462   -10473   -10466 
  -10454   -10459   -10469   -10471   -10470   -10462   -10457   -10465 
  -10473   -10463   -10447   -10459   -10480   -10476   -10481   -10482 
  -10461   -10458   -10471   -10461   -10444   -10450   -10466   -10476 
  -10470   -10451   -10444   -10471   -10490   -10474   -10447   -10447 
  -10477   -10484   -10450   -10439   -10466   -10480   -10469   -10462 
  -10461   -10465   -10476   -10473   -10455   -10461   -10473   -10457 
  -10454   -10478   -10485   -10476   -10465   -10450   -10447   -10453 
  -10461   -10471   -10463   -10453   -10462   -10477   -10474   -10455 
  -10449   -10465   -10482   -10477   -10450   -10447   -10478   -10488 
  -10461   -10449   -10461   -10477   -10477   -10454   -10435   -10453 
  -10481   -10484   -10467   -10462   -10466   -10459   -10447   -10454 
  -10477   -10478   -10465   -10453   -10451   -10465   -10480   -10481 
  -10463   -10443   -10454   -10477   -10481   -10477   -10463   -10444 
  -10451   -10470   -10466   -10469   -10473   -10451   -10443   -10466 
  -10474   -10462   -10457   -10462   -10471   -10470   -10458   -10455 
  -10466   -10474   -10477   -10471   -10462   -10463   -10471   -10461 
  -10443   -10446   -10463   -10480   -10486   -10478   -10465   -10459 
  -10451   -10450   -10467   -10477   -10467   -10462   -10458   -10461 
  -10471   -10469   -10457   -10455   -10463   -10476   -10471   -10455 
  -10459   -10476   -10471   -10454   -10454   -10470   -10469   -10451 
  -10450   -10459   -10463   -10466   -10469   -10465   -10465   -10470 
  -10466   -10466   -10477   -10474   -10467   -10474   -10473   -10454 
  -10443   -10449   -10462   -10470   -10471   -10461   -10447   -10459 
  -10485   -10482   -10462   -10462   -10473   -10471   -10458   -10450 
  -10461   -10476   -10467   -10461   -10462   -10458   -10453   -10446 
  -10453   -10478   -10488   -10474   -10467   -10465   -10461   -10465 
  -10466   -10462   -10457   -10450   -10454   -10459   -10462   -10466 
  -10462   -10462   -10478   -10489   -10484   -10469   -10465   -10476 
  -10474   -10454   -10436   -10438   -10449   -10467   -10480   -10444 
  -10422   -10474   -10503   -10459   -10458   -10497   -10471   -10422 
  -10442   -10473   -10458   -10435   -10436   -10480   -10508   -10525 
  -10558   -10466   -10334   -10408   -10530   -10471   -10412   -10488 
  -10542   -10474   -10354   -10393   -10606   -10600   -10335   -10197 
  -10455   -10913   -10845   -10266   -10091   -10582   -10964   -10458 
   -9763   -10100   -10806   -10673    -9971    -9728   -10443   -11295 
  -11183   -10324    -9949   -10763   -11527   -10743    -9531    -9850 
  -11153   -11303    -9846    -8830    -9796   -11225   -11163   -10224 
   -9954   -10650   -11209   -10633    -9844   -10200   -11277   -11566 
  -10517    -9624   -10160   -10949   -10737   -10162    -9973    -9977 
   -9972   -10062   -10284   -10550   -10795   -11003   -11130   -11134 
  -10903   -10308    -9796    -9996   -10565   -10800   -10606   -10257 
  -10280   -10702   -10655    -9992    -9683   -10138   -10666   -10698 
  -10636   -10836   -10882   -10578   -10152    -9791    -9995   -10901 
  -11485   -11137   -10606   -10397   -10185    -9872    -9648    -9648 
   -9998   -10647   -11276   -11481   -11182   -10623   -10037    -9760 
  -10012   -10439   -10659   -10748   -10847   -10783   -10407    -9894 
   -9471    -9466   -10068   -10874   -11380   -11504   -11404   -11029 
  -10318    -9782    -9892   -10284   -10389   -10339   -10507   -10647 
  -10500   -10287   -10022    -9792   -10112   -10899   -11422   -11388 
  -11036   -10574   -10258   -10319   -10431   -10130    -9594    -9563 
  -10334   -11016   -10948   -10627   -10455   -10488   -10582   -10395 
  -10125   -10056   -10089   -10342   -10837   -11202   -11163   -10759 
  -10195    -9850   -10141   -10802   -11188   -11006   -10215    -9481 
   -9575   -10039   -10308   -10532   -10721   -10852   -11014   -11030 
  -10768   -10428   -10299   -10420   -10658   -10754   -10547   -10220 
   -9822    -9498    -9853   -10731   -10982   -10403   -10119   -10655 
  -11313   -11279   -10551   -10041   -10351   -10918   -10948   -10419 
   -9888    -9848   -10134   -10172   -10123   -10401   -10555   -10346 
  -10309   -10611   -10871   -10851   -10706   -10693   -10816   -10855 
  -10604   -10284   -10282   -10473   -10504   -10318   -10126   -10069 
  -10004    -9921   -10075   -10481   -10843   -10909   -10770   -10731 
  -10759   -10648   -10501   -10505   -10562   -10372   -10054   -10049 
  -10154    -9922    -9726   -10115   -10781   -11173   -11246   -11182 
  -11110   -11076   -10972   -10670   -10374   -10332   -10299   -10046 
   -9791    -9818   -10177   -10519   -10503   -10366   -10439   -10578 
  -10627   -10601   -10440   -10303   -10430   -10675   -10777   -10574 
  -10191    -9975    -9968   -10080   -10336   -10569   -10620   -10569 
  -10485   -10532   -10746   -10782   -10562   -10377   -10292   -10316 
  -10489   -10540   -10358   -10350   -10747   -11115   -11030   -10720 
  -10524   -10362   -10143   -10031   -10115   -10339   -10681   -10881 
  -10647   -10211    -9977   -10087   -10382   -10528   -10451   -10384 
  -10440   -10531   -10532   -10430   -10359   -10450   -10593   -10579 
  -10427   -10411   -10586   -10611   -10374   -10238   -10376   -10516 
  -10508   -10538   -10710   -10829   -10709   -10485   -10319   -10260 
  -10505   -10909   -10872   -10484   -10334   -10218    -9821    -9687 
  -10147   -10724   -10855   -10540   -10341   -10579   -10943   -10975 
  -10573   -10139   -10135   -10579   -10852   -10372    -9836   -10050 
  -10439   -10536   -10621   -10644   -10471   -10388   -10581   -10686 
  -10384    -9964    -9900   -10303   -10822   -11106   -11070   -10705 
  -10316   -10354   -10620   -10636   -10473   -10385   -10301   -10112 
  -10012   -10133   -10180   -10092   -10324   -10795   -10843   -10521 
  -10382   -10404   -10395   -10519   -10876   -11172   -11092   -10704 
  -10201    -9919   -10280   -10818   -10642   -10079   -10038   -10525 
  -10937   -10930   -10570   -10062    -9701    -9807   -10346   -10847 
  -10968   -10783   -10536   -10473   -10646   -10655   -10255    -9953 
  -10166   -10597   -10774   -10512   -10083    -9930   -10176   -10650 
  -10951   -10751   -10358   -10384   -10702   -10631   -10296   -10249 
  -10323   -10342   -10538   -10872   -10993   -10720   -10246    -9929 
  -10000   -10415   -10859   -10929   -10528   -10226   -10446   -10681 
  -10454   -10123   -10102   -10245   -10276   -10260   -10409   -10793 
  -11186   -11094   -10513   -10099   -10108   -10177   -10147   -10381 
  -11010   -11383   -11003   -10281    -9823    -9756    -9987   -10396 
  -10712   -10791   -10793   -10700   -10389   -10152   -10228   -10315 
  -10207   -10237   -10748   -11345   -11146   -10189    -9483    -9491 
   -9911   -10493   -11178   -11650   -11456   -10767   -10169    -9940 
  -10152   -10551   -10638   -10455   -10435   -10536   -10492   -10351 
  -10180    -9967    -9871   -10000   -10238   -10377   -10459   -10690 
  -10940   -10957   -10735   -10434   -10282   -10535   -11103   -11245 
  -10629   -10077   -10083   -10156   -10149   -10359   -10519   -10331 
  -10211   -10354   -10389   -10296   -10411   -10760   -11036   -11018 
  -10848   -10781   -10712   -10463   -10146    -9855    -9769    -9977 
  -10076    -9918   -10018   -10615   -11153   -11005   -10393   -10246 
  -10906   -11499   -11302   -10767   -10465   -10334   -10057    -9589 
   -9359    -9715   -10438   -11005   -11088   -10916   -10889   -10910 
  -10662   -10315   -10289   -10512   -10640   -10594   -10326    -9933 
   -9796    -9925   -10091   -10413   -10777   -10767   -10523   -10548 
  -10867   -10993   -10756   -10582   -10694   -10681   -10320   -10111 
  -10177   -10069    -9971   -10092   -10126   -10204   -10420   -10332 
   -9995   -10038   -10585   -11109   -11353   -11344   -11076   -10825 
  -10717   -10590   -10485   -10396   -10235   -10091   -10134   -10407 
  -10517    -9981    -9247    -9423   -10524   -11280   -11118   -10806 
  -10902   -11126   -11200   -11020   -10552   -10108    -9949    -9965 
  -10080   -10243   -10274   -10053    -9670    -9591   -10172   -10936 
  -11318   -11373   -11202   -10860   -10597   -10436   -10222   -10006 
   -9968   -10241   -10678   -10816   -10508   -10166   -10057   -10073 
  -10115   -10214   -10369   -10548   -10795   -11091   -11287   -11354 
  -11294   -10963   -10451   -10139   -10142   -10216   -10207   -10164 
  -10022    -9678    -9404    -9556   -10104   -10698   -10943   -10882 
  -11007   -11408   -11542   -11156   -10714   -10617   -10714   -10654 
  -10304    -9969    -9927    -9868    -9531    -9335    -9683   -10276 
  -10628   -10766   -10944   -11103   -11067   -10829   -10546   -10481 
  -10751   -10991   -10758   -10223    -9857    -9660    -9418    -9391 
   -9969   -10827   -11242   -11053   -10754   -10690   -10646   -10459 
  -10451   -10825   -11248   -11295   -11007   -10604   -10192    -9922 
   -9768    -9717    -9996   -10467   -10608   -10293   -10034   -10189 
  -10488   -10709   -10895   -10887   -10670   -10623   -10825   -10862 
  -10436    -9857    -9767   -10193   -10470   -10274    -9961    -9992 
  -10336   -10615   -10750   -10863   -10939   -11022   -11118   -10960 
  -10554   -10341   -10374   -10314   -10162   -10060    -9991    -9987 
  -10111   -10442   -10953   -11260   -11047   -10616   -10469   -10592 
  -10619   -10467   -10311   -10231   -10257   -10370   -10503   -10517 
  -10287   -10027   -10079   -10403   -10640   -10620   -10535   -10581 
  -10709   -10677   -10369   -10160   -10334   -10613   -10665   -10451 
  -10193   -10107   -10125   -10141   -10207   -10405   -10678   -10791 
  -10696   -10604   -10606   -10596   -10485   -10388   -10430   -10550 
  -10678   -10777   -10746   -10524   -10241   -10158   -10361   -10559 
  -10490   -10343   -10345   -10382   -10370   -10409   -10513   -10559 
  -10569   -10643   -10683   -10581   -10435   -10430   -10582   -10635 
  -10384    -9954    -9679    -9868   -10459   -10886   -10758   -10390 
  -10292   -10517   -10732   -10721   -10616   -10615   -10638   -10493 
  -10324   -10388   -10627   -10816   -10798   -10527   -10174   -10072 
  -10284   -10531   -10561   -10428   -10372   -10444   -10504   -10455 
  -10320   -10177   -10230   -10516   -10598   -10291   -10062   -10208 
  -10500   -10655   -10725   -10856   -10937   -10878   -10768   -10679 
  -10570   -10397   -10258   -10172   -10023    -9856    -9791    -9917 
  -10249   -10642   -10820   -10671   -10457   -10416   -10471   -10557 
  -10752   -11045   -11118   -10759   -10345   -10255   -10305   -10238 
  -10157   -10204   -10281   -10280   -10268   -10409   -10693   -10843 
  -10779   -10690   -10694   -10813   -10947   -10883   -10520   -10033 
   -9794    -9919   -10220   -10517   -10692   -10759   -10744   -10546 
  -10264   -10133   -10196   -10381   -10601   -10775   -10747   -10466 
  -10166   -10112   -10319   -10559   -10623   -10453   -10193   -10146 
  -10345   -10523   -10542   -10531   -10647   -10809   -10878   -10787 
  -10496   -10181   -10068   -10120   -10249   -10461   -10670   -10646 
  -10380   -10227   -10351   -10547   -10732   -10909   -10990   -10953 
  -10771   -10466   -10216   -10111   -10093   -10081   -10008    -9981 
  -10164   -10381   -10380   -10341   -10524   -10831   -11086   -11227 
  -11211   -11045   -10692   -10153    -9697    -9552    -9748   -10134 
  -10428   -10612   -10824   -10887   -10673   -10459   -10490   -10678 
  -10929   -11275   -11481   -11225   -10660   -10130    -9683    -9277 
   -9065    -9186    -9505    -9859   -10206   -10436   -10463   -10378 
  -10370   -10625   -11138   -11619   -11789   -11538   -10945   -10368 
  -10042    -9803    -9574    -9555    -9833   -10210   -10503   -10827 
  -11383   -11917   -11799   -10922    -9859    -9096    -8772    -8816 
   -9054    -9370    -9822   -10469   -11107   -11433   -11421   -11414 
  -11651   -11943   -12120   -12216   -12166   -12005   -11755   -11117 
   -9984    -8881    -8488    -8842    -9382    -9792   -10100   -10300 
  -10411   -10536   -10694   -10698   -10521   -10481   -10643   -10681 
  -10515   -10385   -10382   -10423   -10455   -10361    -9954    -9394 
   -9161    -9462   -10049   -10635   -11227   -11808   -12100   -11992 
  -11777   -11692   -11469   -10774    -9796    -8885    -8236    -8205 
   -8993   -10037   -10627   -10679   -10520   -10505   -10647   -10644 
  -10473   -10412   -10628   -11048   -11438   -11460   -10918   -10093 
   -9475    -9351    -9733   -10427   -11129   -11360   -10778    -9764 
   -9197    -9585   -10617   -11419   -11423   -11043   -11128   -11654 
  -11651   -10712    -9695    -9518   -10110   -10692   -10643   -10112 
   -9755    -9894   -10193   -10335   -10525   -10943   -11276   -11192 
  -10736   -10106    -9479    -9057    -8912    -9035    -9641   -10840 
  -12037   -12498   -12248   -11834   -11503   -11114   -10700   -10535 
  -10666   -10787   -10524    -9691    -8475    -7550    -7635    -8646 
   -9775   -10509   -11074   -11812   -12561   -12881   -12567   -11754 
  -10847   -10351   -10498   -10902   -10897   -10212    -9174    -8448 
   -8430    -8853    -9213    -9401    -9634    -9965   -10303   -10814 
  -11592   -12312   -12712   -12634   -11762   -10274    -9016    -8642 
   -9159   -10069   -10793   -11025   -10790   -10486   -10574   -11006 
  -11252   -11057   -10820   -10930   -11267   -11476   -11341   -10935 
  -10485   -10116    -9805    -9417    -8916    -8591    -8671    -8915 
   -9173    -9697   -10477   -11157   -11654   -11950   -11826   -11340 
  -10866   -10575   -10434   -10497   -10886   -11453   -11689   -11227 
  -10222    -9143    -8472    -8480    -9022    -9667   -10293   -11091 
  -11965   -12519   -12492   -11923   -11133   -10446    -9964    -9710 
   -9682    -9772    -9848    -9794    -9595    -9383    -9316    -9555 
  -10164   -10933   -11527   -11732   -11560   -11233   -11028   -11067 
  -11234   -11222   -10773    -9956    -9224    -8970    -9209    -9748 
  -10354   -10860   -11215   -11371   -11240   -10795   -10322   -10181 
  -10288   -10343   -10274   -10204   -10300   -10459   -10366   -10015 
   -9711    -9597    -9634    -9825   -10191   -10690   -11232   -11700 
  -11939   -11836   -11476   -11144   -11009   -10872   -10512    -9973 
   -9402    -9022    -9173    -9903   -10678   -10944   -10783   -10608 
  -10543   -10497   -10463   -10528   -10746   -11056   -11294   -11223 
  -10805   -10353   -10115    -9936    -9647    -9425    -9532    -9968 
  -10458   -10616   -10293    -9819    -9572    -9612    -9904   -10399 
  -10859   -11021   -10825   -10570   -10589   -10821   -11056   -11265 
  -11371   -11245   -10947   -10642   -10444   -10362   -10311   -10137 
   -9790    -9494    -9559    -9996   -10477   -10764   -10993   -11368 
  -11807   -12055   -11947   -11497   -10948   -10566   -10287    -9841 
   -9263    -8964    -9113    -9386    -9514    -9587    -9798   -10277 
  -10952   -11541   -11848   -11971   -12020   -11869   -11443   -10912 
  -10473   -10069    -9472    -8684    -7948    -7600    -7857    -8534 
   -9339   -10214   -11164   -12128   -12907   -13227   -12968   -12312 
  -11608   -10984   -10301    -9570    -8997    -8684    -8575    -8627 
   -8846    -9184    -9624   -10223   -10916   -11502   -11898   -12133 
  -12155   -11919   -11627   -11453   -11188   -10675   -10172    -9925 
   -9875    -9852    -9836    -9953   -10180   -10243   -10022    -9753 
   -9625    -9595    -9679    -9960   -10507   -11287   -11992   -12351 
  -12348   -11943   -11250   -10585   -10096    -9784    -9640    -9570 
   -9502    -9633   -10143   -10786   -11168   -11090   -10594   -10034 
   -9788    -9879   -10133   -10447   -10675   -10640   -10427   -10272 
  -10307   -10600   -11082   -11480   -11504   -11114   -10581   -10185 
   -9937    -9748    -9634    -9610    -9670    -9869   -10211   -10597 
  -10909   -11061   -11052   -10941   -10794   -10665   -10530   -10322 
  -10092   -10039   -10227   -10432   -10481   -10465   -10444   -10385 
  -10368   -10438   -10625   -11030   -11545   -11848   -11762   -11448 
  -11091   -10573    -9855    -9251    -9077    -9409    -9979   -10320 
  -10207    -9813    -9450    -9262    -9297    -9657   -10312   -11033 
  -11560   -11749   -11658   -11391   -11005   -10669   -10515   -10463 
  -10435   -10449   -10557   -10724   -10732   -10416    -9918    -9514 
   -9351    -9370    -9375    -9308    -9425    -9937   -10648   -11265 
  -11681   -11882   -11904   -11851   -11762   -11595   -11337   -10980 
  -10569   -10237   -10046    -9882    -9621    -9379    -9352    -9506 
   -9722   -10034   -10466   -10879   -11111   -11173   -11152   -11044 
  -10828   -10573   -10332   -10147   -10077   -10099   -10188   -10335 
  -10453   -10519   -10531   -10444   -10336   -10284   -10282   -10384 
  -10586   -10762   -10759   -10557   -10278   -10042    -9931    -9961 
  -10046   -10145   -10247   -10373   -10500   -10519   -10511   -10674 
  -10964   -11186   -11233   -11114   -10917   -10781   -10735   -10635 
  -10431   -10261   -10251   -10409   -10593   -10628   -10467   -10165 
   -9838    -9644    -9710   -10053   -10484   -10717   -10605   -10288 
  -10069   -10093   -10316   -10660   -11011   -11257   -11326   -11169 
  -10790   -10257    -9738    -9540    -9761   -10142   -10467   -10748 
  -11026   -11268   -11333   -11082   -10513    -9849    -9533    -9823 
  -10474   -10991   -11148   -11078   -10897   -10611   -10392   -10511 
  -10899   -11196   -11230   -10984   -10486    -9925    -9381    -8839 
   -8461    -8432    -8820    -9558   -10343   -10872   -11070   -11080 
  -11164   -11450   -11711   -11615   -11178   -10643   -10245   -10142 
  -10235   -10322   -10361   -10260    -9903    -9505    -9408    -9751 
  -10453   -11244   -11754   -11893   -11854   -11693   -11337   -10841 
  -10309    -9801    -9445    -9410    -9691   -10061   -10331   -10515 
  -10620   -10570   -10396   -10270   -10280   -10330   -10322   -10291 
  -10296   -10335   -10388   -10381   -10299   -10260   -10327   -10482 
  -10802   -11291   -11696   -11767   -11487   -10989   -10469   -10081 
   -9810    -9583    -9481    -9539    -9636    -9740    -9954   -10322 
  -10746   -11025   -11079   -10986   -10789   -10578   -10461   -10396 
  -10351   -10370   -10503   -10721   -10879   -10876   -10717   -10465 
  -10254   -10180   -10260   -10423   -10550   -10579   -10532   -10476 
  -10496   -10666   -10893   -10910   -10667   -10365   -10172   -10176 
  -10389   -10647   -10696   -10476   -10152    -9848    -9647    -9641 
   -9830   -10157   -10570   -10953   -11098   -10941   -10681   -10481 
  -10377   -10399   -10542   -10764   -11005   -11163   -11144   -10960 
  -10705   -10378    -9954    -9560    -9335    -9292    -9424    -9728 
