Origin Time       2024/06/23 22:54:00
Lat.              35.645
Long.             140.060
Depth. (km)       72
Mag.              4.1
Station Code      TKY020
Station Lat.      35.6646
Station Long.     139.8086
Station Height(m) 2
Record Time       2024/06/23 22:54:45
Sampling Freq(Hz) 100Hz
Duration Time(s)  60
Dir.              U-D
Scale Factor      7845(gal)/8223790
Max. Acc. (gal)   1.011
Last Correction   2024/06/23 22:54:44
Memo.             
    4627     4641     4634     4610     4587     4590     4611     4619 
    4621     4619     4612     4611     4608     4608     4621     4625 
    4611     4599     4602     4612     4619     4612     4608     4612 
    4611     4608     4606     4607     4611     4610     4596     4598 
    4615     4633     4638     4627     4604     4583     4580     4590 
    4602     4618     4631     4635     4631     4611     4579     4565 
    4587     4619     4635     4634     4633     4625     4604     4594 
    4600     4610     4623     4630     4612     4585     4583     4603 
    4621     4619     4611     4607     4599     4594     4604     4618 
    4623     4622     4610     4600     4612     4627     4619     4600 
    4591     4602     4619     4634     4634     4618     4606     4604 
    4604     4610     4614     4604     4594     4603     4627     4635 
    4621     4598     4585     4594     4610     4614     4617     4621 
    4614     4610     4615     4612     4611     4614     4611     4614 
    4622     4622     4614     4604     4603     4603     4615     4635 
    4621     4583     4580     4600     4615     4630     4644     4638 
    4612     4588     4587     4590     4596     4623     4646     4634 
    4603     4579     4575     4590     4612     4634     4641     4633 
    4631     4622     4611     4614     4612     4603     4606     4617 
    4629     4622     4598     4592     4600     4599     4603     4607 
    4612     4631     4635     4619     4608     4603     4604     4606 
    4602     4610     4611     4595     4591     4590     4583     4604 
    4641     4661     4654     4610     4563     4569     4618     4656 
    4649     4615     4598     4603     4623     4637     4611     4571 
    4572     4617     4661     4668     4626     4573     4565     4612 
    4648     4626     4588     4581     4608     4635     4634     4612 
    4590     4585     4610     4631     4622     4599     4602     4626 
    4631     4610     4596     4602     4611     4627     4635     4619 
    4588     4577     4604     4629     4631     4633     4621     4595 
    4592     4608     4612     4611     4617     4619     4618     4618 
    4621     4615     4603     4607     4615     4615     4618     4618 
    4612     4610     4602     4599     4617     4627     4615     4599 
    4598     4603     4602     4602     4608     4617     4626     4630 
    4615     4599     4595     4599     4599     4602     4617     4627 
    4622     4610     4598     4599     4610     4615     4622     4623 
    4615     4617     4626     4625     4614     4614     4618     4615 
    4618     4633     4629     4596     4579     4596     4622     4626 
    4614     4603     4591     4581     4594     4614     4626     4633 
    4630     4614     4591     4575     4583     4604     4627     4642 
    4634     4611     4594     4590     4604     4617     4619     4619 
    4615     4612     4612     4608     4604     4606     4615     4621 
    4617     4610     4600     4603     4622     4633     4626     4606 
    4585     4587     4603     4621     4631     4619     4603     4592 
    4594     4611     4625     4621     4607     4600     4607     4618 
    4626     4615     4587     4572     4598     4638     4650     4633 
    4607     4584     4577     4594     4619     4630     4622     4608 
    4602     4595     4591     4600     4611     4615     4619     4623 
    4614     4594     4585     4594     4612     4625     4626     4619 
    4607     4603     4606     4612     4618     4617     4607     4603 
    4606     4612     4621     4623     4617     4610     4604     4598 
    4599     4610     4623     4630     4622     4602     4590     4603 
    4617     4615     4612     4608     4599     4603     4611     4608 
    4604     4606     4610     4617     4606     4583     4575     4585 
    4604     4625     4637     4629     4611     4606     4611     4615 
    4619     4626     4625     4615     4604     4596     4600     4611 
    4619     4622     4619     4614     4608     4607     4607     4610 
    4612     4611     4608     4604     4603     4606     4608     4617 
    4615     4602     4596     4600     4606     4612     4611     4607 
    4612     4623     4626     4612     4595     4590     4607     4629 
    4631     4615     4595     4588     4594     4603     4619     4637 
    4644     4644     4634     4610     4591     4588     4596     4603 
    4604     4603     4610     4618     4615     4607     4606     4611 
    4618     4619     4607     4598     4603     4618     4619     4603 
    4592     4598     4615     4629     4623     4611     4610     4622 
    4625     4614     4610     4621     4631     4622     4595     4577 
    4588     4611     4621     4612     4606     4608     4615     4623 
    4629     4619     4599     4599     4614     4622     4619     4608 
    4585     4572     4579     4598     4626     4652     4652     4627 
    4602     4598     4611     4623     4625     4615     4604     4599 
    4598     4599     4598     4600     4608     4614     4614     4612 
    4612     4621     4626     4621     4608     4607     4627     4648 
    4638     4608     4579     4564     4579     4608     4618     4614 
    4621     4626     4623     4619     4610     4600     4600     4607 
    4614     4617     4617     4611     4600     4596     4603     4610 
    4618     4619     4610     4607     4617     4614     4604     4606 
    4615     4622     4618     4604     4596     4602     4612     4622 
    4629     4627     4621     4617     4614     4615     4629     4639 
    4633     4618     4615     4622     4615     4577     4537     4533 
    4563     4599     4617     4607     4592     4598     4619     4630 
    4635     4662     4672     4629     4577     4583     4611     4584 
    4523     4456     4386     4390     4441     4513     4680     4772 
    4645     4611     4842     4992     4891     4752     4634     4509 
    4460     4491     4587     4799     5044     5146     4923     4477 
    4209     4183     4301     4557     4646     4480     4437     4556 
    4548     4437     4563     4976     5159     4803     4395     4345 
    4380     4455     4831     5179     5023     4445     3989     4170 
    4685     4878     4806     4864     4972     4648     3940     3771 
    4499     5198     5107     4607     4488     4677     4542     4315 
    4499     4793     4850     4699     4580     4652     4635     4376 
    4251     4581     5069     5040     4446     4114     4422     4675 
    4502     4571     5055     5167     4749     4311     4060     4251 
    4874     5169     4803     4360     4195     4162     4356     4783 
    5024     5042     5001     4806     4561     4414     4376     4519 
    4542     4221     4089     4442     4824     4973     4970     4838 
    4602     4326     4148     4256     4669     5017     5003     4904 
    4743     4345     4241     4603     4819     4787     4681     4459 
    4374     4510     4554     4627     4792     4661     4459     4598 
    4722     4635     4617     4666     4773     4858     4661     4468 
    4591     4642     4459     4376     4460     4563     4633     4629 
    4608     4648     4657     4648     4745     4827     4677     4387 
    4270     4445     4757     4872     4633     4444     4525     4548 
    4612     4819     4780     4584     4500     4376     4387     4741 
    4997     4912     4735     4499     4229     4174     4334     4592 
    4872     4993     4888     4685     4521     4476     4529     4611 
    4695     4680     4553     4480     4573     4765     4868     4797 
    4611     4375     4324     4521     4635     4608     4575     4484 
    4460     4638     4826     4783     4509     4305     4430     4699 
    4855     4858     4710     4666     4730     4533     4371     4567 
    4735     4715     4592     4446     4518     4761     4862     4745 
    4619     4548     4371     4283     4492     4700     4727     4642 
    4629     4842     4919     4648     4409     4426     4639     4785 
    4612     4467     4602     4675     4641     4669     4579     4399 
    4417     4607     4810     4969     4924     4572     4205     4056 
    4060     4406     5065     5313     4985     4666     4452     4205 
    4186     4553     5043     5252     5000     4515     4329     4549 
    4577     4140     3809     4110     4803     5252     5194     4866 
    4442     3906     3647     4063     4806     5305     5302     4924 
    4656     4662     4592     4446     4492     4580     4477     4294 
    4278     4475     4722     4915     4951     4787     4698     4801 
    4746     4509     4463     4629     4834     4995     4973     4806 
    4653     4488     4283     4187     4353     4668     4785     4693 
    4745     4857     4665     4407     4428     4506     4477     4554 
    4725     4791     4799     4684     4333     4052     4140     4576 
    5053     5225     5082     4629     4070     3943     4097     4224 
    4773     5528     5567     4993     4475     4214     4190     4294 
    4387     4413     4452     4590     4657     4617     4645     4675 
    4669     4772     4876     4846     4707     4305     3812     3856 
    4457     5053     5305     5205     4889     4496     4299     4386 
    4425     4421     4604     4704     4704     4965     5077     4673 
    4255     4120     4261     4673     4911     4588     4040     4000 
    4615     5026     4785     4536     4656     4949     5224     5375 
    5401     5293     5032     4533     3964     4020     4662     4955 
    4735     4334     3910     3970     4367     4411     4504     4822 
    4831     4842     4839     4522     4672     5200     5167     4857 
    4627     4390     4287     4125     3738     3611     4082     4668 
    4851     4843     4730     4396     4256     4530     5008     5487 
    5545     5044     4545     4278     4226     4638     5085     5039 
    4772     4382     3906     3809     4144     4577     4932     5094 
    4976     4626     4313     4286     4536     5000     5333     5132 
    4727     4533     4398     4347     4556     4710     4550     4355 
    4310     4307     4236     4122     4077     4118     4441     5065 
    5325     5084     4826     4635     4626     4807     4853     4772 
    4742     4800     4826     4698     4641     4731     4617     4342 
    4153     4052     4305     4785     4812     4604     4666     4672 
    4506     4506     4600     4642     4700     4615     4442     4591 
    4776     4575     4492     4692     4766     4776     4594     4320 
    4594     5078     5089     4777     4546     4560     4405     3985 
    4129     4612     4537     4428     4712     4949     5043     4838 
    4383     4230     4360     4376     4347     4534     4788     4730 
    4534     4715     5142     5170     4774     4437     4369     4603 
    4823     4658     4487     4531     4438     4306     4344     4560 
    5001     5152     4685     4332     4413     4506     4518     4519 
    4573     4739     4806     4722     4773     5011     5059     4749 
    4463     4430     4475     4482     4463     4518     4617     4626 
    4626     4587     4344     4143     4264     4440     4498     4741 
    5144     5328     5263     5070     4800     4592     4414     4239 
    4309     4572     4654     4531     4446     4375     4135     4008 
    4321     4646     4712     4756     4706     4622     4725     4750 
    4630     4631     4585     4491     4735     5036     4923     4691 
    4564     4479     4679     4973     4839     4610     4575     4391 
    4253     4388     4445     4476     4679     4792     4792     4826 
    4746     4625     4592     4444     4302     4434     4571     4498 
    4398     4448     4679     4966     5022     4838     4731     4576 
    4311     4506     4978     4965     4619     4310     4129     4367 
    4806     4897     4753     4567     4333     4280     4401     4518 
    4730     4945     4887     4619     4448     4503     4635     4814 
    5044     5009     4746     4633     4523     4414     4600     4754 
    4513     4172     4102     4293     4504     4696     4830     4760 
    4684     4656     4527     4646     4985     4961     4688     4615 
    4653     4634     4571     4468     4434     4529     4552     4448 
    4448     4576     4642     4777     4992     4855     4475     4334 
    4311     4245     4360     4619     4698     4554     4518     4696 
    4889     5055     5026     4783     4735     4734     4533     4436 
    4388     4240     4108     4045     4305     4766     4897     4831 
    4865     4791     4490     4102     3975     4293     4639     4797 
    4974     5059     4934     4822     4784     4653     4546     4747 
    5016     4949     4660     4313     4020     4056     4302     4510 
    4700     4770     4731     4718     4695     4733     4830     4870 
    4888     4806     4580     4428     4403     4459     4592     4708 
    4746     4642     4398     4298     4429     4541     4723     5135 
    5312     4923     4406     4091     4086     4498     4838     4749 
    4692     4749     4522     4168     4090     4360     4691     4622 
    4309     4360     4625     4658     4710     4938     5015     4900 
    4742     4525     4429     4595     4791     4935     5053     4891 
    4401     3859     3551     3771     4414     4897     5071     5154 
    5027     4743     4762     5019     5076     4966     4804     4567 
    4502     4656     4769     4796     4691     4428     4133     3950 
    4085     4352     4423     4608     4845     4637     4336     4305 
    4336     4502     4791     4869     4810     4845     4743     4475 
    4531     4850     4881     4658     4446     4197     4041     4236 
    4666     5001     5047     4868     4722     4756     4766     4683 
    4814     5040     4887     4387     3939     3888     4216     4517 
    4618     4716     4815     4741     4598     4499     4365     4353 
    4576     4820     4957     4996     4963     4800     4546     4469 
    4531     4554     4592     4575     4537     4731     5030     5120 
    4943     4610     4336     4237     4205     4201     4330     4517 
    4590     4531     4452     4541     4823     5150     5463     5583 
    5346     4897     4436     4144     4129     4274     4446     4564 
    4596     4556     4405     4194     4102     4260     4549     4666 
    4662     4793     4931     4845     4581     4376     4428     4588 
    4573     4492     4544     4592     4558     4522     4473     4567 
    4860     4953     4654     4320     4293     4471     4576     4638 
    4801     5019     5138     5043     4847     4727     4654     4541 
    4342     4178     4224     4306     4294     4461     4743     4847 
    4843     4774     4666     4752     5001     5142     5084     4941 
    4812     4590     4275     4132     4120     4054     4056     4147 
    4257     4465     4726     4907     5009     5128     5178     5028 
    4827     4621     4356     4261     4436     4672     4747     4599 
    4422     4338     4270     4303     4471     4623     4787     4896 
    4762     4552     4517     4599     4722     4881     4957     4823 
    4569     4348     4162     4120     4401     4737     4858     5005 
    5182     5112     4904     4741     4556     4263     3939     3878 
    4186     4630     5007     5236     5229     4900     4421     4110 
    4040     4136     4359     4599     4887     5255     5363     5077 
    4795     4712     4661     4525     4257     3970     3932     4156 
    4386     4510     4552     4575     4703     4864     4866     4761 
    4676     4662     4712     4666     4390     4087     4050     4206 
    4382     4607     4901     5186     5273     4990     4584     4460 
    4642     4850     4818     4658     4703     4839     4762     4622 
    4571     4452     4345     4421     4510     4479     4448     4476 
    4573     4729     4808     4849     4961     5003     4880     4749 
    4772     4858     4727     4303     3882     3802     4079     4500 
    4812     4874     4887     4978     4982     4973     5031     4930 
    4681     4448     4233     4136     4214     4360     4455     4353 
    4086     3951     4141     4467     4627     4664     4772     4984 
    5220     5340     5287     5171     5023     4747     4414     4252 
    4333     4473     4475     4287     4055     3989     4031     4037 
    4137     4361     4552     4793     5120     5287     5335     5428 
    5373     5104     4830     4577     4401     4386     4341     4186 
    4113     4163     4245     4321     4395     4498     4611     4673 
    4691     4760     4835     4780     4731     4822     4903     4919 
    4869     4726     4606     4548     4491     4487     4602     4731 
    4761     4803     4851     4754     4650     4668     4611     4438 
    4333     4299     4264     4287     4402     4546     4712     4862 
    4855     4677     4571     4675     4808     4788     4671     4548 
    4455     4422     4429     4440     4434     4410     4482     4666 
    4792     4891     5024     5019     4860     4666     4463     4376 
    4417     4415     4459     4615     4683     4673     4649     4463 
    4202     4131     4234     4428     4719     4954     4869     4661 
    4699     4799     4725     4606     4477     4336     4259     4247 
    4338     4526     4706     4819     4814     4715     4711     4885 
    5022     4988     4904     4774     4612     4548     4488     4430 
    4580     4774     4654     4353     4241     4348     4540     4735 
    4907     5049     5077     4920     4634     4415     4422     4488 
    4396     4256     4225     4299     4446     4600     4730     4885 
    5034     5081     4957     4698     4450     4332     4357     4461 
    4617     4835     4919     4770     4630     4519     4307     4206 
    4314     4376     4372     4477     4629     4746     4822     4760 
    4599     4488     4405     4340     4394     4432     4383     4453 
    4588     4567     4487     4464     4441     4504     4757     5042 
    5192     5239     5224     5121     4995     4951     4943     4873 
    4784     4696     4563     4401     4283     4264     4315     4286 
    4176     4212     4422     4622     4719     4692     4599     4612 
    4766     4900     4907     4892     4884     4691     4391     4332 
    4557     4838     4949     4838     4695     4675     4735     4784 
    4766     4657     4527     4449     4356     4243     4234     4320 
    4365     4340     4322     4380     4467     4459     4383     4426 
    4622     4793     4824     4723     4548     4438     4436     4472 
    4541     4638     4739     4815     4811     4770     4742     4658 
    4534     4519     4604     4623     4606     4671     4739     4774 
    4869     4909     4799     4698     4689     4708     4710     4644 
    4522     4432     4425     4500     4563     4576     4673     4830 
    4878     4800     4675     4546     4456     4438     4456     4511 
    4653     4834     4955     4968     4857     4672     4480     4278 
    4159     4283     4537     4685     4653     4531     4480     4499 
    4510     4569     4642     4611     4556     4519     4410     4315 
    4332     4357     4437     4648     4807     4811     4746     4641 
