Origin Time       2024/06/23 22:54:00
Lat.              35.645
Long.             140.060
Depth. (km)       72
Mag.              4.1
Station Code      TKY015
Station Lat.      35.7313
Station Long.     139.8119
Station Height(m) 4
Record Time       2024/06/23 22:54:36
Sampling Freq(Hz) 100Hz
Duration Time(s)  61
Dir.              E-W
Scale Factor      7845(gal)/8223790
Max. Acc. (gal)   3.394
Last Correction   2024/06/23 22:54:36
Memo.             
[...]
   -3661    -3900    -4039    -3808    -3870    -4087    -4086    -3821 
   -3645    -3852    -4016    -3908    -3811    -3912    -4106    -3990 
   -3742    -3834    -3889    -3808    -4017    -4189    -4017    -3854 
   -3775    -3699    -3748    -3933    -4168    -4232    -3969    -3680 
   -3599    -3759    -4097    -4120    -3885    -3897    -3906    -3929 
   -4098    -3881    -3561    -3738    -4000    -4037    -4063    -4044 
   -3893    -3807    -3920    -3964    -3847    -3870    -3871    -3717 
   -3892    -4220    -4066    -3782    -3773    -3742    -3888    -4201 
   -3998    -3553    -3577    -3950    -4236    -4230    -3967    -3558 
   -3472    -4060    -4433    -4025    -3757    -3748    -3591    -3827 
   -4283    -4182    -3834    -3753    -3823    -3997    -4118    -3773 
   -3546    -4024    -4283    -3809    -3487    -3923    -4410    -4236 
   -3939    -3588    -3160    -3742    -4514    -4097    -3678    -3793 
   -3923    -4282    -4394    -3875    -3272    -3150    -3869    -4652 
   -4455    -3896    -3766    -3601    -3576    -4062    -4135    -4121 
   -4391    -3739    -3161    -3708    -4324    -4600    -4083    -3323 
   -3496    -3863    -4197    -4357    -3734    -3504    -3982    -3862 
   -3526    -3919    -4205    -3978    -4116    -4025    -3508    -3859 
   -4126    -3615    -3676    -3975    -4012    -4160    -3971    -3615 
   -3662    -3985    -4259    -4171    -3917    -3820    -3786    -3761 
   -3827    -4040    -4125    -3978    -4001    -3996    -3751    -3736 
   -3871    -3977    -4128    -3962    -3719    -3867    -3905    -3711 
   -3835    -4137    -4171    -4023    -3797    -3532    -3654    -4037 
   -4001    -3848    -3956    -3991    -4051    -4028    -3672    -3634 
   -4035    -4094    -3784    -3732    -4020    -4163    -4028    -3942 
   -3937    -3835    -3821    -3959    -3979    -3990    -4082    -3913 
   -3678    -3750    -3947    -4199    -4288    -3820    -3269    -3439 
   -4114    -4368    -4036    -3657    -3588    -3874    -4072    -3952 
   -3827    -3793    -3994    -4151    -3896    -3788    -3775    -3682 
   -3981    -4228    -4014    -3823    -3928    -4063    -3937    -3815 
   -3886    -3973    -3827    -3593    -3963    -4468    -4155    -3739 
   -3792    -3820    -3861    -4013    -3937    -3819    -3940    -3960 
   -3855    -3905    -3883    -3815    -3921    -4013    -4024    -3946 
   -3744    -3703    -3867    -3908    -3862    -3964    -4027    -3913 
   -3807    -3816    -3933    -3973    -3871    -3878    -4014    -4095 
   -3951    -3711    -3828    -4114    -4078    -3900    -3809    -3835 
   -3998    -3983    -3734    -3851    -4163    -4043    -3950    -3916 
   -3639    -3812    -4114    -3856    -3717    -3820    -3827    -3997 
   -4118    -3904    -3719    -3724    -3870    -4125    -4086    -3785 
   -3838    -4041    -3933    -3877    -3985    -3881    -3707    -3843 
   -4210    -4253    -3797    -3676    -4017    -3944    -3816    -3875 
   -3686    -4056    -4602    -4021    -3397    -3704    -4001    -3820 
   -3767    -3917    -3894    -4060    -4191    -3748    -3562    -3856 
   -4048    -4078    -3798    -3608    -3994    -4261    -3875    -3570 
   -3879    -4045    -3843    -3825    -3790    -3958    -4372    -3962 
   -3418    -3893    -4313    -4198    -4037    -3738    -3674    -3997 
   -4033    -3777    -3775    -3959    -3971    -3906    -3920    -3997 
   -4102    -3950    -3618    -3709    -4052    -4006    -3781    -3798 
   -3940    -4002    -3928    -3858    -4000    -4028    -3789    -3781 
   -3916    -3856    -3877    -3979    -3975    -4014    -3986    -3867 
   -3993    -4077    -3817    -3684    -3792    -3905    -4060    -4121 
   -3896    -3667    -3773    -4058    -4202    -4136    -3915    -3672 
   -3640    -3861    -4070    -4050    -3874    -3786    -3966    -4108 
   -3792    -3528    -3804    -4036    -4027    -4064    -3929    -3686 
   -3763    -4018    -4094    -3975    -3732    -3592    -3846    -4209 
   -4160    -3834    -3736    -3877    -3974    -4029    -4012    -3901 
   -3890    -3975    -3927    -3717    -3550    -3720    -4274    -4409 
   -3882    -3904    -4193    -3632    -3391    -3865    -3834    -3852 
   -4288    -4228    -4016    -4179    -3861    -3122    -3303    -3981 
   -4255    -4498    -4433    -3987    -3628    -3156    -3125    -4041 
   -4733    -4430    -3916    -3758    -3685    -3800    -4033    -3847 
   -3631    -3777    -4172    -4503    -4170    -3580    -3423    -3484 
   -3730    -4310    -4587    -4128    -3651    -3527    -3581    -3894 
   -4108    -3946    -3817    -3912    -4078    -4051    -3763    -3639 
   -3827    -4058    -4082    -3865    -3796    -3897    -3909    -3973 
   -3977    -3842    -3836    -3964    -4093    -4078    -3881    -3646 
   -3547    -3794    -4148    -4144    -3928    -3848    -3939    -4035 
   -4029    -3950    -3750    -3719    -4009    -4120    -4101    -4094 
   -3789    -3639    -3950    -4113    -3982    -3808    -3520    -3399 
   -3888    -4452    -4438    -4128    -3721    -3190    -2932    -3145 
   -3846    -4847    -5097    -4351    -3724    -3520    -3547    -3928 
   -4222    -4194    -4267    -4266    -3851    -3541    -3510    -3330 
   -3337    -3802    -4252    -4522    -4465    -3962    -3573    -3492 
   -3518    -3753    -3996    -4124    -4298    -4249    -3854    -3586 
   -3717    -3867    -3762    -3856    -4345    -4506    -4067    -3626 
   -3499    -3790    -4506    -4781    -4010    -3105    -2934    -3356 
   -4086    -4542    -4239    -3832    -3789    -3821    -4071    -4240 
   -3948    -3883    -3959    -3653    -3426    -3485    -3577    -3788 
   -4128    -4066    -3866    -4240    -4434    -4206    -4193    -4078 
   -3970    -4004    -3770    -3751    -4183    -4195    -3375    -2957 
   -3701    -4302    -4353    -4293    -3773    -3377    -3613    -3838 
   -3906    -3929    -3689    -3435    -3705    -4249    -4484    -4437 
   -4148    -3658    -3592    -4010    -4266    -4266    -4029    -3640 
   -3592    -3709    -3647    -3771    -4012    -3954    -3919    -4139 
   -4291    -4348    -4260    -3824    -3495    -3650    -3844    -3901 
   -3951    -3802    -3599    -3645    -3763    -3858    -3879    -3726 
   -3721    -4009    -4205    -4201    -4151    -4093    -4097    -4024 
   -3865    -3990    -4063    -3576    -3153    -3408    -3981    -4272 
   -4000    -3655    -3910    -4286    -4212    -4171    -4329    -4266 
   -4031    -3906    -3964    -4087    -3998    -3607    -3318    -3395 
   -3607    -3861    -4063    -4039    -3963    -4029    -4212    -4132 
   -3535    -3191    -3649    -4226    -4243    -3854    -3694    -4016 
   -4369    -4334    -4008    -3753    -3704    -3771    -3947    -4095 
   -3900    -3408    -3154    -3461    -4047    -4483    -4580    -4321 
   -3739    -3292    -3726    -4484    -4337    -3734    -3713    -4077 
   -4131    -3709    -3412    -3802    -4342    -4213    -3744    -3744 
   -4194    -4363    -3859    -3380    -3524    -3959    -4428    -4569 
   -4085    -3584    -3470    -3495    -3546    -3762    -4195    -4405 
   -3859    -3009    -2987    -3781    -4301    -4249    -3989    -3886 
   -4210    -4500    -4334    -4052    -3879    -3731    -3603    -3588 
   -3850    -4216    -4135    -3635    -3497    -3979    -4363    -3998 
   -3256    -3163    -3896    -4571    -4699    -4450    -4056    -3757 
   -3672    -3747    -3902    -3967    -3906    -3869    -3751    -3622 
   -3815    -4059    -4029    -4159    -4515    -4371    -3640    -3250 
   -3640    -4198    -4337    -4129    -3792    -3423    -3341    -3677 
   -3847    -3642    -3697    -4070    -4263    -4371    -4378    -3971 
   -3514    -3477    -3835    -4241    -4225    -3894    -3685    -3465 
   -3161    -3211    -3781    -4558    -5057    -4845    -3981    -3213 
   -3204    -3701    -4056    -4120    -4082    -4129    -4357    -4361 
   -3811    -3250    -3099    -3237    -3672    -4249    -4604    -4554 
   -4112    -3697    -3775    -4156    -4266    -3978    -3732    -3716 
   -3794    -3933    -4050    -4121    -4147    -3956    -3611    -3388 
   -3492    -3753    -3769    -3770    -4174    -4607    -4558    -4017 
   -3302    -2930    -3229    -3969    -4656    -4862    -4494    -4067 
   -3987    -3758    -3198    -3046    -3507    -4121    -4639    -4769 
   -4295    -3491    -2871    -2999    -3874    -4507    -4368    -4054 
   -3963    -4099    -4307    -4063    -3402    -3223    -3816    -4372 
   -4413    -4148    -3593    -3057    -3281    -4063    -4554    -4401 
   -3898    -3755    -3986    -3985    -3958    -4141    -4104    -3861 
   -3635    -3370    -3316    -3564    -3767    -3948    -4198    -4148 
   -3805    -3736    -4055    -4306    -4171    -3735    -3491    -3821 
   -4421    -4780    -4622    -3967    -3400    -3451    -3881    -4106 
   -3758    -3180    -3126    -3586    -4006    -4183    -4230    -4267 
   -4135    -3781    -3763    -4314    -4741    -4407    -3663    -3271 
   -3307    -3535    -3867    -4091    -4193    -4261    -4174    -4012 
   -3956    -3885    -3707    -3646    -3897    -4176    -4105    -3888 
   -3755    -3372    -2893    -3161    -4062    -4752    -5005    -4722 
   -3974    -3410    -3219    -3326    -3905    -4464    -4391    -4004 
   -3843    -4025    -4206    -4045    -3861    -4070    -4426    -4379 
   -3824    -3192    -2893    -3014    -3385    -3696    -3700    -3541 
   -3690    -4153    -4440    -4476    -4338    -3882    -3457    -3531 
   -3874    -4135    -4272    -4264    -4113    -3873    -3599    -3489 
   -3699    -3991    -4014    -3793    -3705    -4036    -4634    -4976 
   -4660    -3885    -3114    -2797    -3424    -4648    -5171    -4383 
   -3206    -2880    -3346    -3688    -3730    -3802    -3983    -4313 
   -4533    -4274    -3919    -3920    -3943    -3784    -3743    -3743 
   -3672    -3885    -4321    -4291    -3697    -3303    -3632    -4379 
   -4826    -4666    -4114    -3492    -3246    -3632    -4179    -4313 
   -4083    -3861    -3811    -3871    -3963    -3955    -3848    -3886 
   -3977    -3846    -3654    -3503    -3329    -3342    -3566    -3780 
   -4136    -4726    -5161    -5074    -4437    -3596    -3010    -3009 
   -3538    -3944    -3913    -3875    -3939    -3778    -3438    -3337 
   -3635    -4081    -4376    -4357    -4261    -4438    -4556    -4198 
   -3619    -3223    -3210    -3514    -3785    -3782    -3677    -3771 
   -4074    -4266    -4114    -3835    -3809    -4039    -4243    -4266 
   -4175    -4023    -3842    -3835    -4024    -4114    -3986    -3834 
   -3825    -3793    -3632    -3562    -3620    -3773    -4028    -4095 
   -3928    -3927    -4148    -4264    -4098    -3923    -4031    -4055 
   -3790    -3782    -4218    -4517    -4233    -3634    -3372    -3647 
   -4005    -4116    -4109    -4082    -4059    -4116    -4095    -3770 
   -3204    -2829    -3109    -3815    -4272    -4293    -4167    -4047 
   -3824    -3580    -3690    -4078    -4091    -3565    -3204    -3584 
   -4236    -4347    -4055    -4008    -4190    -4207    -4106    -4179 
   -4314    -4189    -3867    -3678    -3790    -4052    -4048    -3642 
   -3188    -3080    -3518    -4097    -4160    -3951    -4036    -4271 
   -4282    -4101    -4004    -4002    -3842    -3438    -3088    -3083 
   -3416    -3983    -4498    -4548    -4237    -3993    -3923    -3981 
   -4098    -4105    -4013    -3947    -3856    -3765    -3796    -3855 
   -3829    -3649    -3362    -3465    -3975    -4249    -4232    -4185 
   -4166    -4253    -4259    -4160    -4206    -4203    -3982    -3778 
   -3717    -3711    -3663    -3543    -3379    -3376    -3627    -3848 
   -4008    -4272    -4342    -4116    -3998    -3963    -3823    -3873 
   -4166    -4355    -4237    -3839    -3468    -3473    -3790    -3986 
   -3881    -3847    -4120    -4356    -4180    -3777    -3624    -3832 
   -4099    -4183    -4109    -3982    -3805    -3713    -3862    -3936 
   -3724    -3672    -3925    -4036    -3916    -3867    -3881    -3769 
   -3793    -4158    -4334    -4024    -3643    -3483    -3546    -3734 
   -3765    -3518    -3314    -3550    -3977    -3963    -3680    -3766 
   -4274    -4691    -4592    -4225    -3921    -3658    -3754    -4307 
   -4641    -4336    -3738    -3370    -3353    -3493    -3600    -3549 
   -3541    -3870    -4396    -4718    -4517    -3956    -3730    -3951 
   -4018    -3817    -3603    -3496    -3592    -3812    -4207    -4819 
   -5081    -4622    -3974    -3642    -3524    -3396    -3265    -3446 
   -3952    -4135    -3882    -3865    -4102    -4108    -3991    -4025 
   -4195    -4411    -4378    -4024    -3676    -3415    -3115    -2814 
   -2775    -3173    -3859    -4391    -4209    -3408    -2986    -3438 
   -4033    -4075    -3836    -3835    -4054    -4287    -4486    -4475 
   -4032    -3415    -3115    -3149    -3397    -3670    -3420    -2763 
   -2471    -2606    -2616    -2462    -2666    -3388    -4272    -4939 
   -5170    -5100    -5070    -5084    -4796    -4286    -4001    -3878 
   -3704    -3549    -3391    -3307    -3400    -3600    -3828    -3977 
   -4136    -4646    -5373    -5718    -5760    -5941    -5886    -5229 
   -4428    -3939    -3726    -3554    -3535    -3956    -4747    -5732 
   -6663    -7217    -7361    -6979    -5760    -3848    -2104    -1251 
   -1109    -1368    -2166    -3492    -4977    -6060    -6372    -6139 
   -5728    -5286    -4934    -4573    -4191    -4112    -4340    -4363 
   -3801    -2828    -1875    -1124     -580     -352     -589    -1162 
   -1806    -2600    -3481    -3877    -3762    -3792    -4093    -4140 
   -3623    -2883    -2550    -2546    -2088    -1178     -873    -1709 
   -3060    -4037    -4428    -4716    -5198    -5528    -5343    -4961 
   -4953    -5159    -5086    -4820    -4604    -4311    -3809    -3191 
   -2524    -1838    -1308    -1173    -1560    -2515    -3881    -5098 
   -5742    -6027    -6255    -6423    -6551    -6520    -5988    -5097 
   -4259    -3592    -3141    -2843    -2724    -3033    -3562    -4027 
   -4623    -5212    -5336    -5121    -4922    -4644    -4124    -3601 
   -3458    -3666    -3823    -3778    -3661    -3478    -3292    -3333 
   -3597    -3863    -4077    -4286    -4453    -4598    -4752    -4739 
   -4445    -4035    -3649    -3296    -2968    -2679    -2646    -3111 
   -3859    -4419    -4513    -4144    -3732    -3716    -3839    -3667 
   -3493    -3677    -3847    -3751    -3605    -3387    -3254    -3543 
   -3983    -4330    -4577    -4619    -4592    -4533    -4461    -4513 
   -4521    -4538    -4396    -3893    -3468    -2998    -2593    -2546 
   -2305    -2093    -2134    -2330    -3026    -3595    -3692    -3892 
   -4220    -4685    -5181    -5435    -5690    -5867    -5576    -5236 
   -5042    -4584    -4213    -4013    -3588    -2983    -2293    -2106 
   -2393    -2685    -3321    -3827    -3998    -4283    -4536    -5077 
   -5617    -5652    -5555    -5030    -4108    -3404    -3146    -3464 
   -3809    -3686    -3534    -3761    -4209    -4245    -3674    -3208 
   -3248    -3464    -3743    -4217    -4689    -4849    -4476    -3674 
   -2988    -2590    -2346    -2355    -2496    -2631    -2866    -3304 
   -3905    -4307    -4360    -4286    -4168    -3931    -3561    -3422 
   -3807    -4449    -4831    -4537    -3909    -3538    -3446    -3561 
   -3750    -4078    -4691    -5252    -5524    -5433    -4989    -4619 
   -4611    -4672    -4430    -4087    -4071    -4233    -4201    -3912 
   -3504    -3106    -2735    -2713    -3082    -3334    -3775    -4591 
   -4942    -4854    -5008    -5113    -4549    -3658    -3377    -3690 
   -3634    -3211    -3106    -2991    -2925    -3383    -3796    -3835 
   -3445    -2994    -3181    -3535    -3982    -4268    -3739    -3585 
   -3966    -3939    -3950    -3990    -3966    -4060    -3943    -3859 
   -3828    -3636    -3774    -4105    -4294    -4460    -4283    -4070 
   -4225    -4207    -4213    -4345    -4144    -3792    -3265    -2768 
   -2606    -2513    -2947    -3846    -4432    -4989    -5332    -4996 
   -4602    -4391    -4232    -4131    -3946    -4000    -4336    -4386 
   -4149    -3708    -3018    -2621    -2660    -2733    -3056    -3657 
   -3900    -4021    -4642    -5339    -5490    -5251    -4989    -4599 
   -4170    -4081    -3793    -3038    -2677    -2678    -2663    -2926 
   -3163    -3230    -3655    -4371    -4939    -5105    -4970    -4887 
   -4891    -4891    -4841    -4631    -4371    -4224    -4102    -3943 
   -3840    -3716    -3433    -3181    -3172    -3302    -3353    -3296 
   -3257    -3269    -3408    -3742    -4032    -3956    -3663    -3586 
   -3788    -4062    -4135    -3901    -3707    -3797    -3932    -3820 
   -3650    -3627    -3589    -3658    -3774    -3670    -3763    -4013 
   -3916    -3812    -3905    -3847    -3647    -3645    -3889    -3989 
   -4056    -4344    -4459    -4418    -4294    -3784    -3246    -3065 
   -3180    -3438    -3603    -3970    -4773    -5201    -4554    -3654 
   -3701    -4264    -4716    -4900    -4511    -4293    -4116    -3461 
   -3356    -3657    -3650    -3489    -3775    -4877    -5402    -4612 
   -3585    -3171    -3690    -4446    -4164    -3146    -2709    -2752 
   -2947    -3592    -4392    -5292    -5532    -4727    -4230    -3707 
   -3137    -3299    -3258    -3458    -4108    -4263    -4320    -4243 
   -3960    -3954    -4193    -4668    -5229    -5255    -4448    -3474 
   -3144    -3568    -4199    -4336    -3942    -3443    -3156    -3245 
   -3354    -3240    -3327    -3634    -3861    -4031    -4214    -4318 
   -4024    -3505    -3449    -3948    -4392    -4101    -3287    -3045 
   -3551    -3908    -3956    -3950    -3726    -3599    -3790    -3850 
   -3964    -4224    -3977    -3538    -3650    -4078    -4271    -3937 
   -3345    -2890    -2760    -3230    -3663    -3437    -3450    -3908 
   -3921    -3846    -4568    -5082    -4253    -3507    -3730    -4079 
   -4390    -4140    -3500    -4021    -5042    -4850    -3855    -3254 
   -3322    -3613    -3732    -3624    -3622    -3916    -4189    -4488 
   -4627    -4199    -4083    -4456    -4438    -4544    -4916    -4657 
   -4055    -3744    -3604    -3450    -3315    -3203    -3002    -2964 
   -3312    -3654    -3840    -4031    -4094    -4159    -4392    -4576 
   -4665    -4491    -4021    -3761    -3653    -3577    -3738    -3817 
   -3709    -3593    -3411    -3295    -3341    -3439    -3639    -4005 
   -4407    -4677    -4811    -4850    -4646    -4334    -4369    -4603 
   -4567    -4263    -4009    -4032    -4066    -3905    -3858    -4113 
   -4450    -4438    -4445    -4909    -4993    -4456    -3875    -3599 
   -3670    -3550    -3252    -2995    -2601    -2369    -2479    -2731 
   -2739    -2628    -2925    -3350    -3797    -4129    -3915    -3786 
   -4055    -4330    -4515    -4610    -4618    -4391    -4072    -3712 
   -3288    -3300    -3458    -3395    -3572    -3917    -4124    -4309 
   -4564    -4652    -4442    -4291    -4414    -4560    -4357    -4018 
   -4159    -4347    -4105    -4140    -4322    -3902    -3600    -4145 
   -4756    -4699    -4191    -3871    -4110    -4324    -4068    -3639 
   -3040    -2826    -3408    -3438    -2911    -3458    -4070    -3461 
   -3125    -3581    -3969    -4176    -4040    -3871    -4055    -4050 
