Origin Time       2024/06/23 22:54:00
Lat.              35.645
Long.             140.060
Depth. (km)       72
Mag.              4.1
Station Code      TKY031
Station Lat.      35.6789
Station Long.     139.7070
Station Height(m) 29
Record Time       2024/06/23 22:54:41
Sampling Freq(Hz) 100Hz
Duration Time(s)  66
Dir.              N-S
Scale Factor      7845(gal)/8223790
Max. Acc. (gal)   11.266
Last Correction   2024/06/23 22:54:41
Memo.             
[...]
   -3574    -3605    -3576    -3522    -3503    -3524    -3539    -3551 
   -3547    -3499    -3492    -3539    -3557    -3542    -3542    -3564 
   -3572    -3542    -3499    -3489    -3537    -3589    -3549    -3466 
   -3473    -3519    -3537    -3569    -3600    -3603    -3573    -3507 
   -3487    -3543    -3603    -3600    -3518    -3433    -3474    -3593 
   -3612    -3510    -3408    -3415    -3538    -3635    -3595    -3496 
   -3493    -3578    -3618    -3592    -3559    -3534    -3524    -3516 
   -3501    -3518    -3535    -3531    -3550    -3558    -3523    -3484 
   -3472    -3528    -3604    -3577    -3518    -3528    -3572    -3605 
   -3592    -3516    -3461    -3484    -3550    -3592    -3565    -3487 
   -3427    -3445    -3520    -3595    -3607    -3557    -3492    -3469 
   -3545    -3640    -3619    -3511    -3416    -3466    -3667    -3736 
   -3549    -3395    -3438    -3522    -3537    -3511    -3504    -3532 
   -3558    -3576    -3577    -3561    -3554    -3527    -3508    -3566 
   -3604    -3546    -3484    -3474    -3522    -3558    -3514    -3469 
   -3491    -3547    -3611    -3612    -3546    -3500    -3491    -3518 
   -3586    -3596    -3526    -3500    -3542    -3558    -3520    -3473 
   -3470    -3499    -3507    -3524    -3585    -3639    -3638    -3547 
   -3469    -3527    -3593    -3547    -3474    -3439    -3501    -3618 
   -3613    -3522    -3483    -3469    -3492    -3601    -3640    -3543 
   -3519    -3576    -3541    -3493    -3550    -3586    -3514    -3423 
   -3424    -3523    -3611    -3603    -3527    -3474    -3510    -3558 
   -3559    -3565    -3561    -3542    -3546    -3569    -3591    -3565 
   -3500    -3470    -3478    -3495    -3535    -3564    -3545    -3530 
   -3558    -3593    -3565    -3489    -3443    -3477    -3592    -3676 
   -3618    -3474    -3430    -3546    -3626    -3538    -3422    -3424 
   -3516    -3588    -3582    -3547    -3537    -3554    -3547    -3514 
   -3542    -3609    -3577    -3478    -3476    -3561    -3604    -3568 
   -3487    -3447    -3496    -3537    -3527    -3537    -3554    -3542 
   -3523    -3519    -3551    -3577    -3520    -3477    -3530    -3586 
   -3620    -3638    -3585    -3478    -3384    -3384    -3516    -3632 
   -3609    -3549    -3528    -3520    -3503    -3487    -3523    -3595 
   -3597    -3535    -3538    -3647    -3686    -3547    -3397    -3381 
   -3461    -3543    -3542    -3514    -3553    -3568    -3532    -3532 
   -3541    -3534    -3534    -3555    -3603    -3607    -3549    -3520 
   -3526    -3507    -3488    -3493    -3491    -3468    -3451    -3495 
   -3597    -3630    -3566    -3553    -3615    -3635    -3570    -3496 
   -3491    -3523    -3520    -3492    -3501    -3565    -3595    -3515 
   -3407    -3402    -3492    -3604    -3672    -3612    -3496    -3493 
   -3588    -3626    -3561    -3496    -3493    -3522    -3526    -3473 
   -3439    -3488    -3559    -3582    -3568    -3566    -3570    -3547 
   -3531    -3535    -3520    -3510    -3547    -3584    -3542    -3489 
   -3510    -3524    -3504    -3495    -3503    -3561    -3612    -3578 
   -3524    -3516    -3549    -3581    -3574    -3550    -3514    -3472 
   -3466    -3481    -3519    -3570    -3570    -3545    -3553    -3573 
   -3562    -3537    -3520    -3493    -3508    -3597    -3620    -3518 
   -3435    -3460    -3518    -3543    -3547    -3553    -3561    -3543 
   -3522    -3550    -3596    -3588    -3530    -3483    -3491    -3530 
   -3558    -3555    -3512    -3478    -3492    -3520    -3550    -3588 
   -3600    -3568    -3546    -3569    -3559    -3495    -3480    -3524 
   -3526    -3492    -3497    -3527    -3526    -3527    -3558    -3574 
   -3576    -3555    -3501    -3508    -3584    -3608    -3577    -3554 
   -3535    -3528    -3530    -3501    -3456    -3438    -3488    -3576 
   -3599    -3555    -3535    -3545    -3542    -3532    -3532    -3551 
   -3570    -3557    -3537    -3531    -3512    -3504    -3516    -3505 
   -3511    -3538    -3535    -3545    -3582    -3605    -3591    -3531 
   -3514    -3570    -3568    -3485    -3454    -3505    -3573    -3585 
   -3507    -3469    -3557    -3596    -3528    -3524    -3585    -3589 
   -3547    -3514    -3507    -3528    -3532    -3501    -3465    -3484 
   -3569    -3601    -3539    -3484    -3505    -3562    -3582    -3580 
   -3585    -3601    -3613    -3532    -3391    -3403    -3566    -3666 
   -3639    -3542    -3423    -3399    -3504    -3528    -3439    -3589 
   -3866    -3716    -3331    -3314    -3595    -3692    -3601    -3828 
   -4012    -3349    -2578    -2623    -3111    -3889    -4741    -4792 
   -4020    -2988    -2072    -1952    -2947    -4387    -5238    -4826 
   -3728    -3038    -2570    -2208    -3159    -4851    -4703    -2976 
   -2538    -3699    -4190    -3519    -3408    -4106    -4016    -3042 
   -2644    -3056    -3493    -3832    -4114    -4023    -3844    -3805 
   -3019    -1807    -2323    -4591    -5853    -4776    -2926    -2029 
   -2165    -2822    -3856    -5001    -5352    -4160    -2261    -1491 
   -2531    -4380    -5452    -4773    -2902    -1609    -2308    -4241 
   -4916    -3948    -3480    -3724    -3165    -2440    -3161    -4368 
   -4001    -2889    -3253    -4383    -4245    -3117    -2405    -2650 
   -3773    -5127    -5188    -3426    -1746    -1775    -3005    -4391 
   -5202    -5007    -3851    -2367    -1779    -2783    -4490    -5243 
   -4252    -2523    -1927    -2809    -3910    -4602    -4711    -3821 
   -2674    -2664    -3559    -4009    -3761    -3461    -3254    -3272 
   -3793    -4090    -3433    -2621    -2748    -3686    -4438    -4280 
   -3481    -2760    -2748    -3618    -4469    -4487    -4045    -3422 
   -2613    -2436    -3341    -4388    -4584    -3708    -2463    -2246 
   -3342    -4417    -4519    -4043    -3597    -3055    -2443    -2698 
   -3838    -4479    -4183    -3554    -2933    -2805    -3545    -4345 
   -4075    -3067    -2640    -3260    -4301    -4704    -3688    -2164 
   -2232    -3944    -5070    -4662    -3827    -3265    -2594    -2004 
   -2646    -4468    -5590    -4889    -3352    -2574    -3041    -3734 
   -3609    -3072    -3014    -3352    -3416    -3200    -3470    -4283 
   -4533    -3750    -2721    -2293    -2818    -3836    -4193    -3662 
   -3300    -3665    -4044    -3734    -3242    -3257    -3312    -3134 
   -3450    -4135    -4255    -3967    -3847    -3681    -3289    -3028 
   -3118    -3314    -3485    -3910    -4405    -4222    -3308    -2629 
   -2959    -3792    -3948    -3240    -2816    -3372    -4018    -3854 
   -3225    -2781    -2894    -3589    -4155    -4178    -4143    -4025 
   -3434    -2832    -2971    -3879    -4629    -4239    -3187    -2762 
   -3069    -3296    -3133    -3002    -3449    -4082    -4001    -3542 
   -3611    -4012    -4066    -3605    -3048    -3067    -3569    -3680 
   -3385    -3387    -3530    -3451    -3338    -3245    -3280    -3608 
   -4008    -4159    -3775    -3127    -3154    -3726    -3889    -3843 
   -3874    -3615    -3273    -3033    -2884    -3221    -3765    -3905 
   -3834    -3820    -3866    -3821    -3484    -3118    -2945    -2979 
   -3438    -4024    -4091    -3620    -3073    -3092    -3762    -4118 
   -3549    -2767    -2732    -3346    -3726    -3726    -3970    -4276 
   -4032    -3646    -3866    -4276    -3742    -2450    -2111    -3194 
   -4162    -4091    -3539    -3196    -3249    -3462    -3468    -3163 
   -3024    -3557    -4259    -4180    -3518    -3287    -3596    -3577 
   -2866    -2292    -2930    -4371    -4904    -3882    -2535    -2490 
   -3904    -5076    -4693    -3736    -3777    -4483    -4351    -3269 
   -2608    -2849    -3145    -3060    -2936    -3109    -3416    -3184 
   -2551    -2732    -3994    -5078    -4951    -4006    -3287    -3114 
   -3253    -3519    -3546    -3334    -3385    -3468    -3262    -3225 
   -3341    -3412    -3809    -4401    -4558    -4141    -3744    -3920 
   -4013    -3329    -2694    -2698    -2875    -3175    -3315    -2909 
   -2806    -3315    -3592    -3438    -3192    -3446    -4463    -5186 
   -4820    -3823    -2924    -2938    -3829    -4369    -4017    -3279 
   -2785    -2848    -2848    -2380    -2565    -4008    -5285    -4891 
   -3504    -2976    -3322    -3500    -3750    -3977    -3555    -3171 
   -3137    -2795    -2596    -3210    -3955    -3917    -3403    -3589 
   -4564    -5038    -4465    -3271    -2232    -2655    -4205    -4558 
   -3358    -2412    -2471    -3161    -4081    -4537    -3809    -2458 
   -2114    -3079    -4070    -4298    -3954    -3739    -4047    -4303 
   -4166    -3937    -3542    -2695    -1845    -2162    -3639    -4351 
   -3804    -3616    -4004    -4156    -3991    -3441    -2965    -3267 
   -3915    -4363    -4396    -3735    -2786    -2224    -2211    -2755 
   -3456    -3910    -4268    -4087    -3199    -3063    -4149    -4785 
   -4051    -2874    -2554    -3528    -4918    -5275    -4172    -2655 
   -1840    -1873    -2417    -3264    -4093    -4345    -4201    -4409 
   -4573    -3858    -2803    -2317    -2681    -3777    -4604    -4225 
   -2984    -1937    -2295    -3915    -4847    -4402    -3655    -3129 
   -3049    -3609    -4083    -3836    -3555    -3954    -4140    -3276 
   -2583    -3068    -3491    -3096    -3257    -4432    -5046    -4386 
   -3237    -2116    -1497    -2215    -3854    -4861    -4820    -4272 
   -3577    -3218    -3474    -4066    -4359    -3508    -1921    -1713 
   -3493    -5092    -4877    -3458    -2270    -2155    -2913    -3744 
   -3935    -3670    -3823    -4368    -4432    -3923    -3672    -3686 
   -3114    -2471    -2917    -3812    -3983    -3543    -3107    -3078 
   -3426    -3645    -3592    -3623    -3780    -3839    -3682    -3420 
   -3441    -3794    -3989    -3952    -4045    -4021    -3538    -3115 
   -3118    -3260    -3433    -3366    -2843    -2409    -2651    -3565 
   -4407    -4476    -4162    -3842    -3635    -4058    -4533    -3862 
   -2737    -2614    -3161    -3269    -3132    -3294    -3438    -3385 
   -3424    -3716    -4244    -4549    -4063    -3180    -2889    -3437 
   -4113    -4225    -3987    -3840    -3292    -2189    -1678    -2299 
   -3412    -4174    -4024    -3412    -3179    -3357    -3599    -3736 
   -4023    -4563    -4504    -3592    -3037    -3372    -3712    -3380 
   -2770    -2729    -3231    -3512    -3550    -3690    -3942    -4523 
   -5128    -4808    -3674    -2647    -2112    -2123    -2810    -4099 
   -5231    -4963    -3134    -1428    -1371    -2602    -3924    -4513 
   -4257    -3908    -4023    -4419    -4881    -4814    -3622    -2280 
   -2172    -3049    -3716    -3538    -2949    -2770    -3129    -3681 
   -4168    -4137    -3566    -3275    -3431    -3562    -3800    -4158 
   -4256    -4140    -3985    -3801    -3500    -2772    -1651     -989 
   -1738    -3798    -5525    -5377    -4272    -3979    -4229    -3906 
   -3065    -2621    -3198    -4106    -3991    -2876    -2297    -2957 
   -3611    -3306    -3125    -3906    -4549    -4149    -3370    -3123 
   -3674    -4644    -4962    -3812    -2115    -1784    -3032    -4230 
   -4492    -4186    -3646    -2982    -2398    -2263    -2940    -4112 
   -4685    -4143    -3365    -3333    -3730    -3634    -3091    -2890 
   -3248    -3789    -4070    -3800    -3380    -3505    -4110    -4571 
   -4437    -3802    -3203    -2835    -2490    -2346    -2714    -3402 
   -3852    -3638    -3107    -3153    -3900    -4510    -4403    -3898 
   -3623    -3716    -3802    -3570    -3280    -3404    -3655    -3474 
   -3200    -3411    -3874    -3854    -3113    -2590    -3284    -4399 
   -4511    -3866    -3465    -3539    -3759    -3692    -3399    -3345 
   -3466    -3356    -3014    -2813    -3036    -3333    -3256    -3396 
   -4198    -4795    -4595    -3881    -2967    -2444    -2735    -3361 
   -3719    -3703    -3503    -3226    -2955    -3303    -4473    -5077 
   -4163    -2853    -2257    -2443    -3329    -4240    -4307    -3686 
   -2938    -2644    -3280    -4217    -4496    -4095    -3447    -3069 
   -3181    -3538    -4081    -4464    -4118    -3589    -3547    -3609 
   -3322    -2689    -2157    -2369    -3137    -3763    -4128    -4320 
   -4110    -3267    -2307    -2585    -4352    -5815    -5544    -4158 
   -3084    -2952    -3271    -3429    -3511    -3580    -3173    -2259 
   -1690    -2255    -3561    -4234    -3858    -3532    -3767    -3890 
   -3678    -3738    -4434    -5300    -5647    -5422    -4899    -4081 
   -2891    -1539     -792    -1348    -2511    -2821    -2025    -1297 
   -1628    -2655    -3607    -4500    -5584    -6721    -7550    -7581 
   -6619    -5081    -3674    -2864    -2358    -1443      -89      935 
    1005      220     -920    -2363    -4378    -6451    -7780    -8618 
   -9489    -9859    -8843    -6469    -3584     -947     1167     2717 
    3924     5042     5512     4357     1605    -1746    -5074    -8541 
  -11838   -13687   -13398   -11541    -8897    -5948    -3117    -1147 
    -816    -1680    -2254    -1345     1196     3835     4610     3156 
    -268    -5159    -9756   -12480   -12847   -10901    -7437    -3676 
   -1015     -828    -2631    -4245    -4414    -3206    -1198      824 
    2521     3626     3412     1541    -1529    -4912    -7952   -10662 
  -12861   -13838   -13405   -11861    -9485    -6552    -2922     1510 
    5544     7551     7357     6011     4421     2567      -86    -3663 
   -7967   -12312   -15115   -15345   -13543   -10841    -7939    -4635 
    -577     3454     6340     7489     6184     2602     -961    -2501 
   -2810    -3812    -5849    -7905    -9246    -9806    -9620    -8806 
   -7720    -6189    -3693     -812     1425     2806     2991     1372 
   -1424    -3464    -3561    -2949    -3666    -5614    -7018    -7155 
   -6740    -6334    -5744    -4554    -2840    -1399     -842     -761 
    -554     -396     -981    -2797    -5314    -7083    -7462    -7292 
   -7361    -7245    -6153    -4306    -2451     -785      573     1111 
     504     -808    -1911    -2452    -3109    -4465    -6130    -7385 
   -7897    -7549    -6316    -4541    -2853    -1690    -1331    -1695 
   -1908    -1624    -1837    -2797    -3173    -2427    -1709    -2096 
   -3464    -4826    -5501    -5817    -6166    -6276    -5698    -4506 
   -3306    -2037     -114     1475     1147     -468    -1737    -2539 
   -3727    -5701    -7917    -9090    -8514    -6912    -5337    -4137 
   -3265    -2628    -1899     -699      691     1348      554    -1425 
   -3516    -5019    -6073    -6880    -7213    -6766    -5738    -4753 
   -4151    -3975    -4380    -4959    -4536    -2729     -602      481 
     -64    -1672    -3191    -4045    -4386    -4213    -3226    -1792 
   -1170    -2043    -3642    -5059    -6361    -7568    -7793    -6281 
   -3314       68     2359     2393      635    -1467    -3187    -4683 
   -6293    -7898    -8608    -7750    -6035    -4722    -4047    -3360 
   -2378    -1621    -1625    -2386    -3352    -3519    -2481    -1287 
   -1111    -1713    -2277    -2828    -3804    -4988    -5821    -6115 
   -5919    -5262    -4402    -3811    -3554    -3183    -2544    -2030 
   -1884    -2035    -2357    -2439    -1918    -1378    -1953    -3959 
   -6459    -8023    -7854    -6323    -4515    -3310    -2828    -2860 
   -3307    -3720    -3306    -2016     -885     -895    -2012    -3427 
   -4291    -4334    -4068    -4168    -4700    -5103    -4791    -3802 
   -2808    -2450    -2945    -3784    -3816    -2793    -1864    -1717 
   -2108    -2843    -3588    -4006    -4274    -4735    -5476    -6124 
   -6189    -5602    -4488    -3098    -2020    -1591    -1490    -1393 
   -1561    -2243    -2805    -2544    -1875    -1825    -2972    -4953 
   -6683    -7330    -7047    -6349    -5138    -3331    -1814    -1347 
   -1625    -2223    -3034    -3574    -3399    -2994    -3041    -3600 
   -4488    -5335    -5406    -4328    -2743    -1815    -2106    -3137 
   -3970    -4004    -3361    -2686    -2498    -2701    -2887    -2922 
   -2963    -3186    -3697    -4558    -5547    -6010    -5659    -4995 
   -4337    -3419    -2170    -1139    -1013    -1989    -3458    -4434 
   -4540    -4379    -4533    -4768    -4788    -4606    -4059    -3149 
   -2285    -1837    -2034    -2708    -3264    -3481    -3429    -3038 
   -2536    -2448    -3137    -4295    -4885    -4561    -4163    -4086 
   -4122    -4280    -4375    -4068    -3527    -3200    -3322    -3715 
   -3871    -3613    -3349    -3361    -3616    -3746    -3226    -2322 
   -1768    -1647    -1777    -2282    -3175    -4182    -5028    -5536 
   -5632    -5227    -4337    -3373    -2863    -3019    -3669    -4257 
   -4252    -3825    -3568    -3381    -2610    -1422     -751    -1030 
   -1852    -2628    -3241    -3966    -4868    -5614    -5864    -5678 
   -5292    -4658    -3781    -3084    -2906    -3123    -3423    -3420 
   -3007    -2736    -3103    -3778    -4126    -4090    -3951    -3592 
   -2916    -2463    -2656    -3171    -3600    -3773    -3580    -3264 
   -3253    -3474    -3538    -3438    -3427    -3497    -3582    -3704 
   -3870    -4180    -4490    -4436    -4114    -3819    -3564    -3345 
   -3241    -3268    -3348    -3307    -3149    -3090    -3080    -2947 
   -2986    -3601    -4483    -4729    -3942    -2783    -2062    -1935 
   -2315    -3076    -3734    -4016    -4355    -4838    -4887    -4409 
   -3920    -3690    -3561    -3356    -3265    -3543    -3929    -4029 
   -3892    -3750    -3731    -3731    -3534    -3307    -3316    -3275 
   -2949    -2681    -2700    -2849    -3029    -3231    -3391    -3433 
   -3372    -3268    -3095    -3036    -3450    -4095    -4392    -4365 
   -4382    -4530    -4681    -4710    -4635    -4398    -3808    -3029 
   -2531    -2427    -2378    -2180    -2012    -2022    -2142    -2303 
   -2539    -3017    -3858    -4822    -5447    -5502    -5147    -4666 
   -4236    -3989    -3917    -3856    -3767    -3627    -3373    -3154 
   -3152    -3230    -3037    -2485    -1922    -1668    -1869    -2693 
   -3982    -5142    -5815    -6081    -5886    -5016    -3672    -2525 
   -1925    -1609    -1414    -1545    -2084    -2841    -3681    -4575 
   -5265    -5348    -4908    -4421    -4070    -3862    -3815    -3715 
   -3407    -3103    -3014    -3003    -2751    -2222    -1809    -1815 
   -2111    -2538    -3214    -4175    -5131    -5663    -5526    -4915 
   -4288    -3904    -3699    -3523    -3400    -3487    -3767    -4001 
   -3909    -3472    -3069    -3038    -3300    -3654    -3982    -4058 
   -3622    -2855    -2423    -2677    -3195    -3303    -2764    -2035 
   -1915    -2681    -3697    -4244    -4398    -4606    -4901    -4995 
   -4711    -4199    -3821    -3616    -3200    -2489    -2031    -2423 
   -3391    -3909    -3578    -3065    -3002    -3388    -3879    -4182 
   -4274    -4135    -3623    -3056    -3049    -3569    -3993    -3933 
   -3547    -3323    -3569    -3931    -3750    -2972    -2243    -2150 
   -2693    -3476    -4131    -4499    -4680    -4888    -5144    -5215 
   -4814    -3843    -2600    -1617    -1181    -1258    -1757    -2554 
   -3403    -4066    -4514    -4853    -5062    -4990    -4660    -4279 
   -3954    -3666    -3426    -3256    -3141    -3042    -3064    -3354 
