Origin Time       2024/06/23 22:54:00
Lat.              35.645
Long.             140.060
Depth. (km)       72
Mag.              4.1
Station Code      YMN004
Station Lat.      35.7025
Station Long.     138.7266
Station Height(m) 394
Record Time       2024/06/23 22:55:00
Sampling Freq(Hz) 100Hz
Duration Time(s)  60
Dir.              N-S
Scale Factor      7845(gal)/8223790
Max. Acc. (gal)   2.518
Last Correction   2024/06/23 22:54:59
Memo.             
[...]
    6018     6093     6033     5989     6019     6076     6108     6006 
    5894     5907     6007     6116     6021     5825     5904     6123 
    6150     5972     5822     5962     6254     6219     5861     5827 
    6169     6172     5983     6095     6070     5864     6023     6143 
    5703     5491     6106     6489     6003     5659     5965     6211 
    6000     5773     5871     6142     6457     6448     6018     5799 
    5799     5833     6053     6038     5900     6092     6177     5965 
    5692     5595     5800     5977     6208     6559     6365     5813 
    5745     6099     6281     6091     5929     6172     6412     6046 
    5494     5571     5923     6014     6133     6174     5848     5765 
    6338     6637     6007     5408     5680     6335     6502     5994 
    5609     5876     6220     6143     5833     5664     5821     6174 
    6268     5948     5850     6192     6295     6007     5771     5753 
    5802     5941     6309     6382     5954     5786     5984     6118 
    6049     5830     5930     6338     6404     6220     6100     5942 
    5880     6004     5983     5699     5560     5729     5884     6021 
    6249     6297     6093     5992     6185     6207     5817     5861 
    6512     6717     6205     5548     5332     5641     5841     5915 
    6100     6038     6022     6243     6146     5792     5644     6015 
    6559     6439     5977     5877     5964     6029     6026     5923 
    5821     5876     6115     6151     5845     5625     5734     6065 
    6214     5957     5769     6018     6431     6579     6393     6083 
    5805     5788     5965     5969     5953     6041     6110     6085 
    5694     5424     5842     6154     6023     6035     6214     6330 
    6222     5942     5876     6015     6122     6161     6049     5817 
    5782     6064     6222     5941     5688     5967     6346     6181 
    5798     5875     6241     6354     6092     5697     5694     6080 
    6135     5890     5913     6065     6066     6014     5914     5765 
    5860     6220     6299     5968     5787     5965     6191     6196 
    6007     5848     5903     6131     6189     5961     5896     6072 
    6116     5995     5844     5814     6042     6264     6119     5834 
    5883     6133     6178     6018     5795     5776     6058     6091 
    5783     5790     6100     6208     6081     6007     6031     5899 
    5780     6010     6224     6176     6201     6319     6210     5903 
    5806     5989     6076     5927     5810     5946     6115     6021 
    5935     6068     6068     5795     5641     5894     6231     6295 
    6253     6174     5962     5902     6007     5918     5841     6039 
    6154     6010     5908     5988     6093     6092     5972     5846 
    5915     6110     6110     6012     6099     6185     6154     6097 
    5956     5857     5898     5985     6149     6147     5829     5652 
    5819     5934     5806     5815     6162     6374     6219     6080 
    6045     5977     6026     6118     6014     5908     5973     6012 
    5964     5935     5983     6053     5994     5859     5834     5879 
    5945     6075     6207     6239     6139     5983     5819     5817 
    6180     6513     6327     5940     5819     5904     5926     5846 
    5806     5888     6035     6110     6111     6141     6130     6010 
    5867     5854     6034     6188     6107     5958     5983     6087 
    6104     6123     6123     5961     5790     5719     5707     5891 
    6162     6203     6076     6014     6107     6158     5984     5853 
    5907     6004     6187     6304     6180     6056     5989     5814 
    5655     5717     5967     6124     6041     5967     6068     6151 
    6054     5923     5908     5846     5788     6026     6253     6124 
    6014     6181     6307     6097     5751     5698     5894     6015 
    6081     6185     6292     6255     5896     5633     5856     6123 
    6164     6170     6184     6138     5908     5709     5879     6104 
    6070     5950     5926     6056     6150     6060     5907     5798 
    5903     6076     5902     5719     5925     6126     6085     5988 
    6016     6123     6110     6088     6166     6127     5907     5711 
    5846     6188     6246     6102     6084     6131     6097     5872 
    5653     5818     6180     6249     6042     5992     6161     6227 
    6119     6004     5962     5954     5929     5976     6089     5988 
    5687     5679     5992     6058     5881     5961     6177     6181 
    6119     6154     6189     6112     5960     5861     5807     5784 
    5799     5773     5838     6031     6116     6135     6195     6226 
    6226     6100     5883     5859     5971     6030     6065     6000 
    5887     5967     6130     6156     6062     6022     6069     5980 
    5921     6165     6350     6169     5767     5472     5625     6062 
    6328     6291     6100     5940     5805     5734     5853     6021 
    6129     6191     6158     6110     6023     5880     5829     5799 
    5815     5981     6088     6173     6326     6243     5929     5724 
    5840     6116     6041     5769     5913     6214     6282     6295 
    6222     6006     5884     5937     6030     6054     6023     5958 
    5863     5860     6008     6123     6093     5996     5927     5944 
    5927     5837     5961     6227     6154     5819     5769     6081 
    6200     5908     5775     5972     6119     6269     6411     6249 
    5954     5805     5771     5810     5872     5913     5950     6026 
    6142     6195     6158     6127     6049     5876     5823     5976 
    6083     6039     5994     5965     5941     5934     5937     6022 
    6072     5998     6011     6065     6019     5961     5941     6015 
    6079     5980     5991     6197     6216     6057     6048     6115 
    6033     5867     5821     6003     6165     6023     5883     5995 
    6083     6054     6025     5992     5976     5949     5844     5778 
    5921     6180     6264     6134     6048     6010     5877     5817 
    5908     5988     6043     6120     6210     6249     6056     5763 
    5745     5925     6015     6092     6241     6249     6058     5873 
    5783     5809     5968     6060     5983     5983     6123     6130 
    5922     5745     5836     6070     6124     6061     6131     6184 
    6084     6039     6057     5976     5841     5765     5860     6064 
    6162     6227     6336     6278     6033     5863     5929     6035 
    5965     5977     6183     6130     5778     5614     5759     5948 
    6061     6081     6022     6081     6282     6332     6088     5715 
    5551     5773     6083     6124     6035     6127     6254     6112 
    5876     5783     5790     5842     5927     6079     6184     6054 
    5972     6123     6089     5799     5783     6166     6475     6409 
    6127     5880     5769     5768     5800     5849     5968     6126 
    6188     6146     6114     6085     6053     6102     6092     5883 
    5760     5919     6103     6096     5987     5964     6016     6018 
    6000     5979     5964     6002     5992     5940     5903     5853 
    5890     6037     6168     6231     6153     6076     6216     6299 
    6083     5765     5548     5620     5935     6111     6081     6127 
    6251     6268     6196     6066     5825     5667     5772     5949 
    6065     6181     6234     6145     6014     5922     5844     5832 
    5948     6085     6097     5991     5908     5933     5960     5953 
    6010     6011     5880     5934     6239     6345     6149     6087 
    6143     5940     5746     5879     5989     5886     5837     6079 
    6407     6404     6130     5903     5829     5907     6022     6019 
    5869     5791     5987     6165     6107     6029     5984     5961 
    5968     5863     5736     5800     6038     6346     6447     6174 
    5886     5856     5857     5741     5736     6031     6376     6343 
    6068     6031     6142     6025     5803     5791     5931     5977 
    5950     5984     6069     6231     6324     6151     5914     5841 
    5894     5976     5948     5807     5864     6168     6268     6042 
    5896     5956     6050     6129     6114     5972     5919     6056 
    6224     6255     6062     5798     5737     5852     5845     5759 
    5994     6381     6367     6104     5992     5989     5933     5833 
    5917     6164     6076     5718     5698     5958     6088     6107 
    6181     6285     6238     6011     5752     5605     5763     6089 
    6207     6151     6080     6095     6293     6326     5940     5649 
    5859     6097     5899     5655     5786     6012     6075     6099 
    6232     6336     6174     5988     6019     5992     5809     5763 
    5956     6007     5837     6014     6350     6196     5890     5844 
    5892     5958     6073     6227     6297     6123     5834     5713 
    5886     6160     6242     6102     5892     5778     5899     6154 
    6176     5908     5779     5925     6033     6065     6112     6064 
    6068     6169     6054     5908     5967     5930     5852     6029 
    6239     6162     5960     5988     6127     6031     5844     5876 
    6061     6122     5989     5880     5913     5992     6011     5989 
    6019     6064     6084     6123     6176     6135     5910     5760 
    5903     5964     5817     5841     6030     6160     6228     6141 
    5971     6022     6118     5994     5827     5846     6088     6257 
    6139     6065     6141     6079     5859     5707     5738     5825 
    5899     6087     6292     6284     6103     5867     5748     6002 
    6372     6293     5946     5850     5832     5633     5553     5850 
    6349     6585     6349     6042     5976     5995     5940     5860 
    5949     6127     6065     5898     5890     5930     5954     5940 
    5961     6151     6255     6130     5985     5910     5888     5918 
    6057     6146     5949     5787     5869     5954     6043     6114 
    6065     6158     6332     6160     5860     5761     5659     5715 
    6092     6322     6264     6193     6139     5991     5898     6038 
    6165     6079     5857     5610     5652     5994     6149     6138 
    6210     6170     5985     5922     6026     6081     5926     5865 
    6062     6087     5976     6129     6281     6120     5873     5840 
    5921     5844     5790     5923     5965     5985     6231     6442 
    6313     5922     5643     5728     5961     6087     6084     6041 
    6076     6087     5977     5868     5809     5802     5877     6037 
    6183     6188     6191     6318     6334     6127     5904     5841 
    5900     5926     5914     5938     5961     5983     5933     5810 
    5900     6129     6145     6072     6115     6166     6147     6068 
    5921     5837     5972     6120     6057     5921     5849     5849 
    5829     5767     5919     6259     6373     6151     5919     5919 
    5999     6066     6158     6156     6131     6173     6142     6043 
    5881     5706     5745     5890     5852     5796     5961     6162 
    6231     6170     5913     5679     5836     6165     6212     6061 
    6097     6257     6199     5910     5653     5788     6177     6247 
    6135     6149     6037     5946     6042     5938     5755     5823 
    5935     6007     6102     6138     6129     6162     6227     6127 
    5853     5832     6073     6096     5863     5691     5769     6075 
    6270     6069     5822     5918     6079     6060     5984     5888 
    5886     6052     6130     6114     6222     6255     6091     5983 
    5922     5792     5738     5834     6031     6259     6338     6220 
    6123     6014     5717     5544     5748     6034     6172     6118 
    5999     6119     6295     6189     6000     5868     5795     5853 
    5933     6076     6242     6153     5937     5873     5940     5981 
    5904     5850     5900     5937     5992     6127     6315     6380 
    6150     5922     5991     6053     5923     5830     5809     5894 
    6145     6220     6068     6018     6031     6038     6008     5856 
    5810     5879     5961     6157     6262     6216     6097     5846 
    5823     6007     5968     5985     6103     6011     5998     6102 
    6018     5853     5844     5996     6073     6004     6004     6053 
    6073     6084     6069     6131     6197     6102     5957     5819 
    5679     5746     6084     6297     6124     5896     5872     5946 
    6039     6035     5998     6164     6276     6102     6014     6041 
    5904     5819     5902     5946     6008     6139     6162     6037 
    5840     5742     5906     6145     6116     5914     5933     6141 
    6230     6196     6141     6083     6016     5833     5625     5746 
    6097     6166     6011     6061     6199     6080     5857     5848 
    5919     5850     5778     5940     6373     6655     6358     5832 
    5701     6023     6285     6120     5883     5867     5815     5772 
    5972     6154     6075     5941     5956     6029     6008     6022 
    6204     6304     6170     5969     5809     5718     5711     5821 
    6064     6219     6069     5837     5849     6031     6143     6084 
    5880     5826     6154     6407     6102     5710     5840     6091 
    5957     5941     6311     6339     5833     5309     5131     5579 
    6293     6539     6597     7064     7541     7210     6061     5090 
    4955     4942     4403     4320     5738     7554     7989     7339 
    6870     6340     4984     3559     3504     4927     6610     7480 
    7620     7736     7684     6628     4733     3370     3661     5352 
    7049     7657     7545     7514     7329     6405     5007     4062 
    4108     4734     5536     6681     7965     8388     7167     5082 
    3788     3724     4465     5703     6887     7549     7514     6822 
    5981     5537     5715     6102     5840     5119     4843     5251 
    6231     7225     7484     7144     6642     6227     6037     5691 
    5258     5393     5729     5448     4907     5260     6704     7723 
    7190     5964     5285     5364     5728     6070     6451     6574 
    6166     5741     5763     5872     5622     5439     5767     6150 
    6251     6254     6204     6025     5624     5301     5613     6309 
    6616     6347     6191     6659     6955     6358     5524     5136 
    5310     5714     5776     5902     6654     7209     6808     5969 
    5468     5424     5479     5537     5752     6048     6231     6288 
    6323     6277     6169     6226     6170     5636     5092     5080 
    5529     6084     6393     6473     6509     6234     5576     5267 
    5790     6642     6993     6608     6058     5952     6165     6201 
    6064     6103     6127     5844     5648     5846     6149     6146 
    5645     5173     5304     5593     5791     6232     6579     6507 
    6319     6083     5742     5520     5521     5636     5863     6246 
    6594     6858     7042     6774     6077     5584     5447     5314 
    5142     5269     5818     6336     6405     6316     6604     6930 
    6409     5421     5070     5194     5344     5822     6593     7117 
    6970     6239     5697     5852     6174     6116     5989     6039 
    5867     5524     5626     5999     5991     5815     6049     6559 
    6632     6092     5814     6070     5983     5502     5490     5992 
    6249     5980     5803     6068     6254     6164     6237     6380 
    6011     5382     5428     6130     6498     6350     6316     6404 
    6245     5861     5360     4990     5209     5979     6691     6947 
    6790     6413     5914     5302     4822     4928     5724     6681 
    7026     6689     6315     6038     5683     5502     5429     5273 
    5464     6160     6812     6894     6419     5991     5845     5620 
    5576     5991     6249     6091     5956     6137     6527     6652 
    6365     6154     6250     6285     5813     5104     5042     5617 
    6037     6210     6293     6079     5653     5378     5462     5914 
    6443     6644     6493     6311     6216     6038     5787     5593 
    5448     5490     5819     6265     6804     7261     7115     6322 
    5462     5011     4866     4914     5566     6636     7067     6670 
    6227     6021     5761     5451     5445     5705     5914     6118 
    6339     6450     6481     6357     6056     5795     5670     5718 
    5894     6002     6060     6149     6176     6116     6029     5994 
    6021     5880     5606     5632     5891     6004     6076     6169 
    6142     6234     6601     6809     6471     5783     5273     5363 
    5864     6039     5786     5836     6376     6754     6477     5869 
    5624     5729     5729     5584     5547     5818     6222     6471 
    6733     6858     6492     5980     5551     5229     5321     5721 
    6112     6343     6272     6147     6149     6087     6104     6288 
    6331     6157     5838     5509     5456     5670     5837     5899 
    6085     6463     6705     6489     5969     5522     5374     5497 
    5694     5857     6019     6214     6444     6508     6245     6039 
    6154     6237     6115     6043     6129     6177     6008     5707 
    5603     5896     6239     6232     5948     5611     5489     5682 
    5857     5923     6127     6319     6224     6029     6016     6124 
    6162     6023     5686     5413     5625     6224     6511     6237 
    6019     6099     5988     5653     5647     6116     6556     6525 
    6210     5973     5864     5798     5751     5815     6143     6573 
    6683     6361     5921     5732     5702     5464     5206     5394 
    5880     6172     6215     6378     6592     6358     5918     5852 
    6011     6080     6120     6280     6442     6255     5802     5613 
    5780     5958     5985     5930     5913     5964     6014     6062 
    6165     6180     5992     5892     6088     6259     6142     5913 
    5746     5663     5714     5935     6254     6548     6613     6312 
    5864     5472     5152     5181     5668     6184     6470     6536 
    6409     6214     5923     5584     5544     5742     5876     6129 
    6633     7011     6847     6176     5497     5181     5287     5815 
    6361     6511     6492     6397     5987     5487     5347     5520 
    5697     5853     6077     6243     6265     6246     6211     6053 
    5832     5767     5821     5872     6003     6158     6145     6004 
    5969     6157     6323     6181     6008     6204     6525     6434 
    5881     5512     5703     5925     5911     6073     6339     6331 
    6120     5899     5710     5505     5336     5481     5937     6303 
    6446     6550     6540     6222     5805     5653     5699     5755 
    5922     6258     6480     6355     6081     5890     5753     5626 
    5526     5605     5925     6181     6172     6099     6103     6123 
    6193     6300     6212     5913     5849     6232     6627     6693 
    6527     6165     5725     5505     5495     5491     5452     5521 
    5826     6162     6255     6208     6166     5998     5653     5475 
    5776     6211     6243     6095     6172     6245     6089     5840 
    5763     6022     6261     6195     6122     6170     6123     5906 
    5764     5937     6133     6100     6149     6351     6384     6199 
    5975     5873     5927     5988     6012     6069     6062     5907 
    5738     5755     5949     6045     5957     5861     5722     5563 
